 2016  310 2046 16.7 L   6.765 -73.143138.0  RSN  9 0.4 2.2LRSN                1
 GAP=138        0.88       3.6     3.9  6.1 -0.4471E+01  0.1306E+02 -0.1211E+01E
 Epicentro: LOS SANTOS - SANTANDER                                             3
 ACTION:UPD 16-05-13 21:23 OP:cam  STATUS:               ID:20160310204616 L   I
 OLDACT:REG 16-03-11 02:56 OP:ak   STATUS:               ID:20160310203749     3
 2016-03-10-2037-49M.COL___277                                                 6
 STAT SP IPHASW D HRMM SECON CODA AMPLIT PERI AZIMU VELO AIN AR TRES W  DIS CAZ7
 BAR2 EZ EP       2046 35.33                             171    0.0510 19.6 193 
 BAR2 EZ ES       2046 49.98                             171    0.1810 19.6 193 
 BAR2 EZ I        2046 51.11        26.6 0.18            170           19.6 193 
 PAM  EZ EP       2046 38.13                             148   -0.0910 80.2  38 
 PAM  EN ES       2046 54.89                             148   -0.1610 80.2  38 
 PAM  EZ I        2046 56.81        22.7 0.17            153           80.2  38 
 RUS  HZ EP       2046 38.99                             143   -0.3710 96.7 176 
 RUS  HN ES       2046 57.61                             143    0.5310 96.7 176 
 RUS  HZ I        2046 59.02        15.0 0.28            148           96.7 176 
 SPBC HZ EP       2046 44.17                             128   -0.13 9  160 220 
 SPBC HN ES       2047  5.16                             128   -0.71 9  160 220 
 SPBC HZ I        2047  8.74        24.2 0.28            130            160 220 
 ZAR  HZ EP       2046 49.47                             120    0.68 8  206 293 
 ZAR  HN ES       2047 13.54                             120   -0.32 8  206 293 
 ZAR  HZ I        2047 22.21        20.4 0.27            121            206 293 
 NOR  HZ EP       2046 51.98                             117    0.25 8  233 235 
 NOR  HE ES       2047 19.06                             117   -0.04 8  233 235 
 NOR  HZ I        2047 26.28        11.6 0.22            119            233 235 
 HEL  HZ EP   2   2046 56.93                             113    0.51 4  271 257 
 HEL  HE ES       2047 27.81                             113    0.38 8  271 257 
 HEL  HZ I        2047 34.47        11.3 0.36            115            271 257 
 URE  HZ EP   4   2046 59.59                             112    2.04 0  286 293 
 URE  HE ES   4   2047 27.78                             112   -1.68 0  286 293 
 GUY2CHZ EP       2046 59.27                             111   -0.42 7  299 235 
 GUY2CHN ES       2047 33.03                             111   -0.24 7  299 235 
 GUY2CHZ I        2047 40.69         7.4 0.26                           299 235 
 SOCV BZ EP   4   2046 57.36                             110   -2.20 0  303  56 
 SOCV BE ES   4   2047 29.54                             110   -3.49 0  303  56 
 ANIL HE ES       2047 44.80                             107    0.52 6  355 225 
                                                                                
