 2010  510 2129 11.2 L   6.775 -73.023140.2  RSN  9 0.5 2.1LRSN                1
 GAP=170        1.06       4.4     9.4  8.5 -0.9940E+01 -0.3149E+01 -0.1013E+01E
 Epicentro: CEPITA - SANTANDER                                                 3
 ACTION:UP  10-08-24 10:04 OP:vdl  STATUS:               ID:20100510212911 L   I
 2010-05-10-2126-18S.COL___104                                                 6
 STAT SP IPHASW D HRMM SECON CODA AMPLIT PERI AZIMU VELO SNR AR TRES W  DIS CAZ7
 BAR2 SZ EP   1   2129 29.72                             169    -0.5 7   27 221 
 BAR2 SZ ES   1   2129 44.64                             169    -0.4 7   27 221 
 BRR  HZ IP     C 2129 32.52                             147     0.010   85 296 
 BRR  HZ I        2129 32.87        29.0 0.25                            85 296 
 BRR  HE ES   1   2129 49.60                             147     0.4 7   85 296 
 RUS  HZ EP       2129 34.15                             143     0.010   98 184 
 RUS  HN ES   1   2129 52.27                             143     0.2 7   98 184 
 RUS  HZ I        2129 53.88         9.9 0.45                            98 184 
 BRI  SZ EP   1   2129 34.54                             140     0.1 7  107  13 
 GRA  SZ EP       2129 36.69                             136     0.810  125  11 
 GRA  SZ ES   1   2129 55.12                             136     0.0 7  125  11 
 OCA  SZ EP   1   2129 39.09                             127    -0.4 7  165 349 
 OCA  SZ ES   1   2130  0.75                             127    -0.9 7  165 349 
 OCA  SZ I        2130  6.79        15.5 0.38                           165 349 
 HEL  HZ EP   2   2129 52.26                             113    -0.2 4  285 257 
 HEL  HZ I        2130 29.24         6.6 0.34                           285 257 
 RREF BE ES   2   2130 35.55                             109     0.9 3  330 231 
 RREF BZ I        2130 40.17         6.6 0.49                           330 231 
 PRA  HZ EP   1   2130  4.36                             105    -0.7 4  397 211 
 PRA  HN ES   2   2130 46.59                             105    -0.4 3  397 211 
 PRA  HZ I        2130 54.24         5.6 0.33                           397 211 
                                                                                
