 2010  610 2210 49.2 L   6.819 -73.056142.7  RSN  8 0.4 2.2LRSN                1
 GAP=166        0.89       3.6     7.5  6.8 -0.7858E+01  0.1684E+02 -0.2969E+01E
 Epicentro: LOS SANTOS - SANTANDER                                             3
 ACTION:UP  10-08-24 10:09 OP:vdl  STATUS:               ID:20100610221049 L   I
 2010-06-10-2209-01S.COL___117                                                 6
 STAT SP IPHASW D HRMM SECON CODA AMPLIT PERI AZIMU VELO SNR AR TRES W  DIS CAZ7
 BAR2 SZ EP       2211  8.46                             168    -0.110   29 209 
 BAR2 SZ ES   1   2211 23.17                             168    -0.5 7   29 209 
 GIR2 SZ EP   1   2211  8.47                             167     0.0 7   33 332 
 GIR2 SZ ES   1   2211 23.82                             167     0.2 7   33 332 
 RUS  HZ EP       2211 12.47                             143    -0.310  102 182 
 RUS  HZ I        2211 13.24        19.4 0.25                           102 182 
 RUS  HN ES       2211 31.31                             143     0.210  102 182 
 BRI  SZ ES   2   2211 31.53                             142     1.1 5  103  16 
 GRA  SZ EP       2211 14.18                             137     0.410  121  13 
 GRA  SZ ES   1   2211 32.95                             137     0.0 7  121  13 
 OCA  SZ EP   1   2211 16.99                             129    -0.2 7  160 350 
 OCA  SZ ES   1   2211 38.10                             129    -0.9 7  160 350 
 HEL  HZ EP   1   2211 30.33                             113     0.0 6  282 256 
 HEL  HN ES   1   2212  3.09                             113     0.6 6  282 256 
 HEL  HZ I        2212  6.80        12.6 0.67                           282 256 
 TOL  SZ EP   1   2211 38.17                             108    -0.1 5  352 226 
                                                                                
