 2016  110 2348  5.4 L   6.781 -73.153146.0  RSN 12 0.5 1.8LRSN                1
 GAP=136        0.65       3.4     3.9  5.5 -0.3305E+01  0.2544E+01  0.5589E+01E
 Epicentro: LOS SANTOS - SANTANDER                                             3
 ACTION:UPD 16-03-09 23:24 OP:cam  STATUS:               ID:20160110234805 L   I
 OLDACT:REG 16-01-11 02:54 OP:dnl  STATUS:               ID:20160110234755     3
 2016-01-10-2347-55M.COL___261                                                 6
 STAT SP IPHASW D HRMM SECON CODA AMPLIT PERI AZIMU VELO AIN AR TRES W  DIS CAZ7
 BAR2 EZ EP   3   2348 25.31                             171    0.33 2 21.1 189 
 BAR2 EZ ES   2   2348 39.59                             171   -0.68 5 21.1 189 
 BAR2 EZ I        2348 41.65        14.5 0.14            169           21.1 189 
 BRR  HZ EP   2   2348 26.81                             152    0.26 5 71.5 300 
 BRR  HE ES       2348 43.57                             152    0.4910 71.5 300 
 BRR  HZ I        2348 44.55        12.5 0.13            147           71.5 300 
 PAM  EZ EP     C 2348 27.80                             150    0.0710 79.5  39 
 PAM  EN ES       2348 45.08                             150   -0.1010 79.5  39 
 PAM  EZ I        2348 47.55         5.5 0.25            152           79.5  39 
 RUS  HZ EP   2   2348 28.88                             144   -0.11 5 98.5 175 
 RUS  HN ES   2   2348 47.40                             144   -0.02 5 98.5 175 
 RUS  HZ I        2348 49.16         4.5 0.22            144           98.5 175 
 PTB  HZ EP   2   2348 32.02                             132   -0.22 5  147 260 
 PTB  HE ES   2   2348 52.65                             132   -0.55 5  147 260 
 PTB  HZ I        2348 59.85         4.9 0.20            129            147 260 
 SPBC HZ EP   2   2348 34.29                             129    0.62 5  161 219 
 SPBC HN ES   2   2348 55.09                             129   -0.67 5  161 219 
 SPBC HZ I        2349  0.15         8.9 0.12            127            161 219 
 OCA  HZ EP   4   2348 32.71                             129   -1.17 0  162 354 
 OCA  HE ES   4   2348 54.44                             129   -1.68 0  162 354 
 OCA  HZ I        2348 58.82        12.9 0.19            128            162 354 
 ZAR  HZ EP   4   2348 40.21                             122    2.39 0  204 293 
 ZAR  HE ES   2   2349  2.94                             122   -0.20 4  204 293 
 ZAR  HZ I        2349  8.23         5.2 0.10            120            204 293 
 SML  HZ EP   2   2348 41.45                             117   -0.72 4  245 336 
 SML  HE ES   2   2349  9.90                             117   -0.98 4  245 336 
 SML  HZ I        2349 17.68         8.8 0.06            116            245 336 
 CHI  HZ EP   2   2348 43.43                             117    0.60 4  246 195 
 CHI  HE ES   2   2349 11.82                             117   -0.23 4  246 195 
 CHI  HZ I        2349 16.42         2.2 0.25            116            246 195 
 GUY2CHZ EP   2   2348 49.74                             112    0.97 4  299 235 
 GUY2CHN ES   2   2349 22.52                             112   -0.10 4  299 235 
 GUY2CHZ I        2349 31.19         2.1 0.35                           299 235 
 PRA  HZ EP   2   2348 58.87                             107    0.24 3  390 210 
 PRA  HE ES   2   2349 39.48                             107   -0.69 3  390 210 
 PRA  HZ I        2349 46.20         3.6 0.30            106            390 210 
                                                                                
