 2017  910 2330 39.0 L   6.764 -73.151145.7  RSN 14 0.4 1.9LRSN                1
 GAP=112        0.95       3.2     3.6  5.3  0.1574E+01  0.4883E+01  0.4390E+01E
 Epicentro: LOS SANTOS - SANTANDER                                             3
 ACTION:UPD 17-10-05 19:11 OP:rebc STATUS:               ID:20170910233039 L   I
 OLDACT:UP  17-09-11 07:32 OP:edw  STATUS:               ID:20170910232744d    3
 OLDACT:UP  17-09-11 07:31 OP:edw  STATUS:               ID:20170910232744d    3
 OLDACT:DUP 17-09-11 07:26 OP:edw  STATUS:               ID:20170910232744d    3
 OLDACT:UP  17-09-11 07:26 OP:edw  STATUS:               ID:20170910232743     3
 OLDACT:UP  17-09-11 07:25 OP:edw  STATUS:               ID:20170910232743     3
 OLDACT:UP  17-09-11 07:25 OP:edw  STATUS:               ID:20170910232743     3
 OLDACT:UP  17-09-11 07:21 OP:edw  STATUS:               ID:20170910232743     3
 OLDACT:REG 17-09-11 04:27 OP:edw  STATUS:               ID:20170910232743     3
 2017-09-10-2328-00M.COL___410                                                 6
 STAT SP IPHASW D HRMM SECON CODA AMPLIT PERI AZIMU VELO AIN AR TRES W  DIS CAZ7
 BAR2 EZ EP       2330 58.49                             172   -0.0810 19.3 190 
 BAR2 EZ ES       2331 14.49                             172    0.6810 19.3 190 
 BAR2 EZ I        2331 16.06        25.1 0.28            169           19.3 190 
 BRR  HZ EP     C 2331  0.02                             152   -0.2210 72.7 301 
 BRR  HN ES       2331 17.14                             152    0.3410 72.7 301 
 BRR  HZ I        2331 21.04        13.9 0.32            152           72.7 301 
 PAM  EZ EP       2331  1.16                             150   -0.2710 80.8  38 
 PAM  EN ES       2331 18.47                             150   -0.4410 80.8  38 
 PAM  EZ I        2331 21.30         7.6 0.38            155           80.8  38 
 RUS  HZ EP       2331  2.47                             145   -0.0210 96.7 176 
 RUS  HN ES       2331 20.66                             145   -0.1310 96.7 176 
 RUS  HZ I        2331 22.13        16.5 0.34            145           96.7 176 
 SPBC HZ EP       2331  7.45                             130    0.26 9  160 220 
 SPBC HN ES       2331 28.41                             130   -0.75 9  160 220 
 SPBC HZ I        2331 31.84        12.4 0.68            130            160 220 
 YPLC HZ EP       2331  8.57                             127    0.07 9  174 151 
 YPLC HN ES       2331 31.69                             127    0.20 9  174 151 
 YPLC HZ I        2331 33.59         9.3 0.26            129            174 151 
 ZAR  HZ EP       2331 12.13                             122    0.57 9  205 293 
 ZAR  HN ES       2331 36.63                             122   -0.31 9  205 293 
 ZAR  HZ I        2331 41.37         7.1 0.38            123            205 293 
 NOR  HZ EP       2331 14.32                             119   -0.13 8  232 235 
 NOR  HN ES   1   2331 41.25                             119   -0.84 6  232 235 
 NOR  HZ I        2331 47.86         4.1 0.14            120            232 235 
 CHI  HZ EP       2331 16.43                             118    0.14 8  245 195 
 CHI  HN ES       2331 45.50                             118    0.15 8  245 195 
 CHI  HZ I        2331 49.36         3.3 0.34            119            245 195 
 ROSC BZ EP   4   2331 19.39                             117    2.65 0  249 211 
 ROSC BN ES   4   2331 50.13                             117    3.98 0  249 211 
 ROSC BZ I        2331 53.09         8.7 0.50            118            249 211 
 HEL  HN ES   1   2331 51.27                             115    0.97 6  271 257 
 GUY2CHZ EP   4   2331 23.56                             112    1.24 0  298 235 
 GUY2CHN ES   4   2332  0.42                             112    4.33 0  298 235 
 GUY2CHZ I        2332  4.41         3.3 0.36                           298 235 
 PRA  HZ EP       2331 32.26                             107    0.15 6  388 210 
 PRA  HN ES   4   2332 15.15                             107    1.64 0  388 210 
 PRA  HZ I        2332 20.45         4.8 0.44            108            388 210 
 SJC  HZ EP   4   2331 32.51                             106   -2.42 0  412 327 
 SJC  HN ES   4   2332 11.47                             106   -7.07 0  412 327 
 SJC  HZ I        2332 17.57         1.0 0.38            107            412 327 
                                                                                
