 2016  410 2352 26.5 L   6.808 -73.131145.8  RSN  9 0.3 2.8LRSN                1
 GAP=138        0.71       2.4     3.0  4.5 -0.2230E+01  0.5249E+01 -0.8259E+00E
 Epicentro: LOS SANTOS - SANTANDER                                             3
 ACTION:UPD 16-05-05 14:20 OP:rebc STATUS:               ID:20160410235226 L   I
 OLDACT:DUP 16-04-11 04:14 OP:cara STATUS:               ID:20160410234745d    3
 OLDACT:REG 16-04-11 03:25 OP:cara STATUS:               ID:20160410234744     3
 2016-04-10-2347-44M.COL___295                                                 6
 STAT SP IPHASW D HRMM SECON CODA AMPLIT PERI AZIMU VELO AIN AR TRES W  DIS CAZ7
 BAR2 EZ IP     C 2352 46.09                             170   -0.0810 24.5 193 
 BAR2 EZ ES       2353  1.21                             170   -0.2910 24.5 193 
 BAR2 EZ I        2353  2.63        93.3 0.18            169           24.5 193 
 PAM  EZ EP     C 2352 48.73                             151    0.0910 75.7  39 
 PAM  EN ES       2353  5.96                             151    0.0710 75.7  39 
 PAM  EZ I        2353  8.18        55.6 0.30            155           75.7  39 
 RUS  HZ EP     C 2352 49.94                             144   -0.3910  101 177 
 RUS  HE ES       2353  9.16                             144    0.2710  101 177 
 PTB  HZ EP   4   2352 52.69                             132   -0.95 0  149 259 
 PTB  HE ES       2353 14.48                             132   -0.32 9  149 259 
 PTB  HZ I        2353 21.31        86.2 0.38            132            149 259 
 OCA  HZ EP       2352 55.23                             130    0.46 9  160 353 
 OCA  HN ES       2353 16.82                             130    0.02 9  160 353 
 OCA  HZ I        2353 21.50       168.6 0.22            132            160 353 
 SPBC HZ IP     C 2352 55.10                             129   -0.08 9  165 219 
 SPBC HE ES       2353 17.98                             129    0.45 9  165 219 
 SPBC HZ I        2353 24.47        97.3 0.26            130            165 219 
 ZAR  HZ EP       2352 58.57                             122   -0.51 9  205 292 
 ZAR  HE ES       2353 24.70                             122    0.22 9  205 292 
 ZAR  HZ I        2353 30.43        77.8 0.38            123            205 292 
 NOR  HZ EP       2353  2.18                             118   -0.26 8  236 235 
 NOR  HE ES       2353 30.46                             118    0.00 8  236 235 
 NOR  HZ I        2353 36.10        42.3 0.14            120            236 235 
 GUY2CHZ EP       2353 10.60                             112    0.27 7  303 235 
 GUY2CHE ES       2353 44.79                             112    0.29 7  303 235 
 GUY2CHZ I        2353 52.63        43.7 0.34                           303 235 
                                                                                
