 2011  210 2303 14.6 L   6.731 -72.876140.7  RSN  6 0.4 1.6LRSN                1
 GAP=190        0.96       6.2    17.8  9.4 -0.7086E+02  0.8091E+01  0.3068E+01E
 Epicentro: MOLAGAVITA - SANTANDER                                             3
 ACTION:UP  11-03-28 15:07 OP:jfem STATUS:               ID:20110210230315 L   I
 2011-02-10-2302-52S.COL___136                                                 6
 STAT SP IPHASW D HRMM SECON CODA AMPLIT PERI AZIMU VELO SNR AR TRES W  DIS CAZ7
 BAR2 SZ EP   1   23 3 33.84                             164    -0.2 7   37 246 
 BAR2 SZ ES   1   23 3 49.37                             164     0.2 7   37 246 
 BAR2 SZ I        23 3 50.16        13.0 0.12                            37 246 
 BTL  SZ EP       23 3 34.38                             160    -0.110   48 296 
 RUS  HZ EP   1   23 3 37.66                             144     0.1 7   96 194 
 RUS  HE ES   2   23 3 55.96                             144     0.6 5   96 194 
 RUS  HZ I        23 3 58.03         5.7 0.41                            96 194 
 GRA  SZ EP       23 3 40.08                             135     0.510  128   4 
 GRA  SZ ES   1   23 3 58.33                             135    -0.8 7  128   4 
 GRA  SZ I        23 4  1.12         4.4 0.31                           128   4 
 CHI  HZ EP   1   23 3 52.10                             116    -0.2 6  251 202 
 CHI  HN ES   1   23 4 21.05                             116    -0.7 6  251 202 
 CHI  HZ I        23 4 22.81         2.0 0.52                           251 202 
 HEL  HZ EP   1   23 3 58.03                             111     0.3 5  299 259 
 HEL  HZ I        23 4 33.33         2.9 0.37                           299 259 
                                                                                
