 2014  210 2319 58.2 L   6.820 -73.113145.0  RSN  8 0.5 1.9LRSN                1
 GAP=204        1.26       4.4     7.1  7.5  0.1045E+02  0.2928E+01 -0.3010E+01E
 Epicentro: LOS SANTOS - SANTANDER                                             3
 ACTION:UPD 14-03-10 08:09 OP:ep   STATUS:               ID:20140210231958 L   I
 OLDACT:REG 14-02-11 00:36 OP:nd   STATUS:               ID:20140210232000     3
 2014-02-10-2320-00M.COL___167                                                 6
 STAT SP IPHASW D HRMM SECON CODA AMPLIT PERI AZIMU VELO AIN AR TRES W  DIS CAZ7
 BAR2 SZ EP       2320 17.94                             169    0.0910 26.3 197 
 BAR2 SZ ES       2320 33.19                             169    0.0410 26.3 197 
 BAR2 SZ I        2320 34.66        36.6 0.18            170           26.3 197 
 BRR  HZ EP       2320 20.05                             152    0.6110 73.4 296 
 BRR  HN ES       2320 36.21                             152    0.2310 73.4 296 
 BRR  HZ I        2321  6.64        15.8 0.24            152           73.4 296 
 RUS  HZ EP       2320 22.12                             143    0.0510  103 178 
 RUS  HN ES       2320 40.58                             143   -0.0810  103 178 
 RUS  HZ I        2320 41.99         7.2 0.18            153            103 178 
 PTB  HZ EP       2320 25.26                             131   -0.26 9  152 258 
 PTB  HN ES       2320 46.18                             131   -0.61 9  152 258 
 PTB  HZ I        2320 50.29        11.2 0.10            136            152 258 
 SPBC HZ EP       2320 27.23                             128    0.16 9  167 219 
 SPBC HN ES       2320 49.78                             128    0.23 9  167 219 
 SPBC HZ I        2320 56.45        10.3 0.32            136            167 219 
 ZAR  HZ EP       2320 31.36                             122    0.45 8  207 291 
 ZAR  HN ES       2320 57.09                             122    0.71 8  207 291 
 ZAR  HZ I        2321  2.20         7.5 0.28            127            207 291 
 SML  HZ EP       2320 34.86                             117    0.08 8  243 334 
 SML  HN ES       2321  1.79                             117   -1.49 8  243 334 
 SML  HZ I        2321  9.13         8.0 0.30            123            243 334 
 CHI  HZ EP       2320 36.50                             117    0.26 8  252 196 
 CHI  HN ES       2321  4.88                             117   -1.00 8  252 196 
 CHI  HZ I        2321 11.15         2.4 0.30            125            252 196 
                                                                                
