 2017  510 2238 32.5 L   6.799 -73.110147.6  RSN 18 0.5 2.6LRSN                1
 GAP=115        0.84       2.8     3.1  4.8  0.3454E+00  0.2097E+01  0.5027E+01E
 Epicentro: LOS SANTOS - SANTANDER                                             3
 ACTION:UPD 17-06-16 13:34 OP:jn   STATUS:               ID:20170510223832 L   I
 OLDACT:UP  17-05-11 09:12 OP:y    STATUS:               ID:20170510223744     3
 OLDACT:UP  17-05-11 09:11 OP:y    STATUS:               ID:20170510223744     3
 OLDACT:UP  17-05-11 09:09 OP:y    STATUS:               ID:20170510223744     3
 OLDACT:UP  17-05-11 09:09 OP:y    STATUS:               ID:20170510223744     3
 OLDACT:UP  17-05-11 09:09 OP:y    STATUS:               ID:20170510223744     3
 OLDACT:UP  17-05-11 09:07 OP:y    STATUS:               ID:20170510223744     3
 OLDACT:UP  17-05-11 09:06 OP:y    STATUS:               ID:20170510223744     3
 OLDACT:UP  17-05-11 09:05 OP:y    STATUS:               ID:20170510223744     3
 OLDACT:UP  17-05-11 09:05 OP:y    STATUS:               ID:20170510223744     3
 OLDACT:UP  17-05-11 09:04 OP:y    STATUS:               ID:20170510223744     3
 OLDACT:REG 17-05-11 06:50 OP:and  STATUS:               ID:20170510223744     3
 2017-05-10-2238-00M.COL___364                                                 6
 STAT SP IPHASW D HRMM SECON CODA AMPLIT PERI AZIMU VELO AIN AR TRES W  DIS CAZ7
 BRR  HZ IP     C 2238 54.12                             152    0.0410 74.8 297 
 BRR  HN ES       2239 11.13                             152    0.2410 74.8 297 
 BRR  HZ I        2239 14.41        80.5 0.30            150           74.8 297 
 PAM  EZ IP     C 2238 55.03                             152    0.2310 75.0  37 
 PAM  EN ES       2239 12.12                             152   -0.0510 75.0  37 
 PAM  EZ I        2239 14.51       124.3 0.52            158           75.0  37 
 RUS  HZ IP     D 2238 56.16                             144   -0.2810  100 178 
 RUS  HN ES       2239 15.21                             144    0.1210  100 178 
 RUS  HZ I        2239 16.08        27.3 0.28            144            100 178 
 PTB  HZ EP   9   2238 59.00                             132   -1.00 0  152 259 
 PTB  HN ES       2239 19.99                             133   -0.44 9  152 259 
 PTB  HZ I        2239 25.81        22.6 0.30            131            152 259 
 SPBC HZ EP       2239  1.32                             129   -0.08 9  166 220 
 SPBC HN ES   2   2239 23.79                             129   -0.13 5  166 220 
 SPBC HZ I        2239 28.15        66.1 0.24            129            166 220 
 YPLC HZ IP     D 2239  2.72                             127    0.46 9  175 152 
 YPLC HN ES   2   2239 25.77                             127    0.31 4  175 152 
 YPLC HZ I        2239 29.53        28.4 0.32            130            175 152 
 ZAR  HZ EP   2   2239  5.33                             122   -0.15 4  208 292 
 ZAR  HN ES       2239 30.39                             122   -0.79 8  208 292 
 ZAR  HZ I        2239 37.12        46.2 0.36            123            208 292 
 TABC EZ EP   2   2239  9.62                             119    1.03 4  232 212 
 TABC EZ ES   2   2239 36.67                             119   -0.05 4  232 212 
 TABC EZ I        2239 41.36        42.4 0.62            120            232 212 
 NOR  HZ IP     D 2239  8.48                             118   -0.22 8  238 235 
 NOR  HN ES   2   2239 36.92                             118   -0.00 4  238 235 
 NOR  HZ I        2239 44.01        21.0 0.26            119            238 235 
 CHI  HZ EP   2   2239 10.75                             117    0.32 4  250 196 
 CHI  HN ES       2239 39.65                             117   -0.35 8  250 196 
 CHI  HZ I        2239 43.34        27.7 0.48            118            250 196 
 ROSC BZ EP   3   2239 12.36                             117    1.40 2  255 212 
 ROSC BN ES   2   2239 41.70                             117    0.76 4  255 212 
 ROSC BZ I        2239 46.16        53.1 0.45            118            255 212 
 HEL  HZ EP       2239 13.99                             115    0.73 7  276 256 
 HEL  HN ES   2   2239 44.82                             115   -0.21 4  276 256 
 HEL  HZ I        2239 53.33        12.9 0.46            115            276 256 
 VIL  EZ EP   4   2239 10.01                             112   -6.10 0  304 192 
 VIL  EE ES       2239 50.06                             112   -0.04 7  304 192 
 VIL  EZ I        2239 55.48        41.1 0.58            113            304 192 
 PTGC HZ EP       2239 15.37                             112   -0.92 7  307 159 
 PTGC HN ES   2   2239 48.95                             112   -1.48 4  307 159 
 PTGC HZ I        2239 51.51        28.7 0.44            114            307 159 
 ELA  HZ EP   1   2239 19.32                             110   -0.47 5  332 230 
 ELA  HN ES       2239 57.32                             110    0.66 7  332 230 
 ELA  HZ I        2240  4.69        15.0 0.70            111            332 230 
 DBB  EZ EP   2   2239 20.62                             109    0.09 3  343 274 
 DBB  EN ES   4   2239 55.36                             109   -2.62 0  343 274 
 DBB  EZ I        2239 57.03         7.0 0.36            111            343 274 
 ANIL HN ES   4   2240  4.63                             109    2.77 0  360 225 
 ARGC HZ EP   4   2239 24.69                             108    2.27 0  361 340 
 ARGC HN ES   4   2240  6.17                             108    4.83 0  361 340 
 ORTC HZ EP       2239 26.61                             106   -0.16 6  398 217 
 ORTC HN ES   2   2240 10.05                             106    0.96 3  398 217 
 ORTC HZ I        2240 15.67        13.6 0.44            108            398 217 
 SJC  HZ EP   4   2239 26.48                             106   -1.94 0  412 327 
 SJC  HN ES   4   2240  8.71                             106   -3.30 0  412 327 
 SJC  HZ I        2240 15.47         8.3 0.42            107            412 327 
                                                                                
