 2015  710 2027  9.9 L   6.834 -72.910170.0  RSN  6 0.2 2.1LRSN                1
 GAP=258        0.36       2.2     3.3  6.5 -0.1034E+01 -0.1993E+01  0.4518E+01E
 Epicentro: SAN ANDRES - SANTANDER                                             3
 ACTION:UPD 15-09-08 21:48 OP:cam  STATUS:               ID:20150710202709 L   I
 OLDACT:UP  15-07-27 15:00 OP:cam  STATUS:               ID:20150710202709 L   3
 OLDACT:UP  15-07-27 09:45 OP:SPQ  STATUS:               ID:20150710202709 L   3
 OLDACT:UP  15-07-11 08:06 OP:mh   STATUS:               ID:20150710201749d    3
 OLDACT:DUP 15-07-11 07:53 OP:mh   STATUS:               ID:20150710201749d    3
 2015-07-10-2017-48M.COL___348                                                 6
 STAT SP IPHASW D HRMM SECON CODA AMPLIT PERI AZIMU VELO AIN AR TRES W  DIS CAZ7
 BAR2 EZ EP       2027 32.90                             166    0.0510 40.2 228 
 BAR2 EZ I        2027 50.02         9.6 0.14            163           40.2 228 
 ZAR  HE ES       2028 14.88                             124    0.15 8  227 289 
 ZAR  HZ I        2028 17.56        11.9 0.58            132            227 289 
 SML  HZ EP       2027 48.86                             121   -0.05 8  252 330 
 SML  HN ES   1   2028 19.14                             121   -0.19 6  252 330 
 SML  HZ I        2028 22.71        15.2 0.10            127            252 330 
 NOR  HZ EP       2027 49.44                             121   -0.16 8  258 237 
 NOR  HZ I        2028 20.74         9.0 0.14            123            258 237 
 GUY2CHZ EP   1   2027 57.57                             115    0.23 5  325 237 
 GUY2CHN ES   1   2028 34.23                             115   -0.10 5  325 237 
 GUY2CHZ I        2028 40.07         4.7 0.60                           325 237 
 TOL  SZ EP   1   2028  1.92                             112    0.29 5  365 227 
 TOL  SN ES       2028 41.82                             112   -0.16 6  365 227 
 TOL  SZ I        2028 46.57         3.7 0.40            113            365 227 
                                                                                
