 2013  210 2133 30.4 L   6.831 -73.167149.0  RSN  4 0.1 1.1LRSN                1
 GAP=238        0.39       4.9     4.1  4.4  0.1081E+02  0.2356E+01  0.3378E+01E
 Epicentro: LOS SANTOS - SANTANDER                                             3
 ACTION:UPD 13-03-12 09:32 OP:ep   STATUS:               ID:20130210213330 L   I
 2013-02-10-2130-00M.COL___241                                                 6
 STAT SP IPHASW D HRMM SECON CODA AMPLIT PERI AZIMU VELO AIN AR TRES W  DIS CAZ7
 BAR2 SZ EP   1   2133 50.59                             169    0.15 7 26.5 184 
 BAR2 SZ ES   1   2134  6.31                             169    0.20 7 26.5 184 
 BRR  HE ES   1   2134  8.05                             154   -0.22 7 67.5 297 
 RUS  HZ EP   1   2133 54.54                             143   -0.15 7  104 175 
 RUS  HN ES   1   2134 13.56                             143   -0.11 7  104 175 
 RUS  HZ I        2134 14.84         1.6 0.28            141            104 175 
 PTB  HZ EP   1   2133 57.50                             133    0.05 7  146 257 
 PTB  HN ES   1   2134 18.66                             133    0.08 7  146 257 
 PTB  HZ I        2134 21.32         1.7 0.19            131            146 257 
                                                                                
