 2013  410 2033 16.1 L   6.820 -73.175151.6  RSN  9 0.4 2.0LRSN                1
 GAP=178        0.73       3.1     5.0  5.2  0.2383E+01  0.6611E+01  0.4386E+01E
 Epicentro: LOS SANTOS - SANTANDER                                             3
 ACTION:UPD 13-05-22 14:37 OP:EP   STATUS:               ID:20130410203316 L   I
 2013-04-10-2030-00M.COL___245                                                 6
 STAT SP IPHASW D HRMM SECON CODA AMPLIT PERI AZIMU VELO AIN AR TRES W  DIS CAZ7
 BAR2 SZ EP   1   2033 36.06                             170   -0.45 8 25.2 182 
 BAR2 SZ ES   1   2033 51.99                             170   -0.41 8 25.2 182 
 BAR2 SZ I        2033 52.77        35.4 0.26            165           25.2 182 
 GIR2 SZ EP   1   2033 36.62                             169    0.17 8 28.6 356 
 GIR2 SZ ES   1   2033 52.42                             169    0.14 8 28.6 356 
 GIR2 SZ I        2033 53.30        15.2 0.58            167           28.6 356 
 BRR  HZ EP   1   2033 38.26                             155    0.54 8 67.3 298 
 BRR  HN ES   1   2033 55.35                             155    0.81 8 67.3 298 
 BRR  HZ I        2033 57.99        19.2 0.30            149           67.3 298 
 RUS  HZ EP       2033 40.53                             144   -0.1210  103 174 
 RUS  HN ES   1   2033 59.63                             144   -0.13 7  103 174 
 RUS  HZ I        2034  0.29        13.7 0.28            144            103 174 
 PTB  HZ EP       2033 43.14                             134   -0.21 9  145 258 
 PTB  HN ES   1   2034  4.29                             134   -0.28 7  145 258 
 PTB  HZ I        2034 11.16         9.2 0.40            131            145 258 
 NOR  HZ EP   1   2033 52.22                             120    0.14 6  233 234 
 NOR  HE ES   1   2034 20.05                             120   -0.06 6  233 234 
 NOR  HZ I        2034 26.19         7.4 0.14            119            233 234 
 SML  HN ES       2034 20.86                             119   -0.42 8  240 336 
 CHI  HZ EP       2033 54.77                             118    0.45 8  250 194 
 CHI  HN ES   1   2034 24.21                             118    0.12 6  250 194 
 CHI  HZ I        2034 27.31         5.3 0.38            119            250 194 
 PRA  HZ EP   1   2034 10.24                             107    0.32 4  392 209 
 PRA  HN ES   1   2034 51.46                             107   -0.40 4  392 209 
 PRA  HZ I        2034 56.59         4.7 0.26            108            392 209 
                                                                                
