 2016  710 2046 13.5 L   6.802 -73.221144.0  RSN  4 0.1 1.3LRSN                1
 GAP=271        0.42       4.2     3.1  4.0  0.4871E+01  0.2351E+01 -0.1143E+01E
 Epicentro: ZAPATOCA - SANTANDER                                               3
 ACTION:UPD 17-03-29 16:49 OP:lp   STATUS:               ID:20160710204613 L   I
 OLDACT:REG 16-07-11 06:02 OP:dani STATUS:               ID:20160710203742     3
 2016-07-10-2037-42M.COL___326                                                 6
 STAT SP IPHASW D HRMM SECON CODA AMPLIT PERI AZIMU VELO AIN AR TRES W  DIS CAZ7
 BAR2 EZ EP       2046 32.79                             170   -0.1610 23.6 169 
 BAR2 EZ ES       2046 48.22                             170    0.1110 23.6 169 
 BAR2 EZ I        2046 49.65         7.7 0.18            167           23.6 169 
 RUS  HZ EP       2046 37.14                             143   -0.0510  102 171 
 RUS  HE ES       2046 55.65                             143    0.0010  102 171 
 RUS  HZ I        2046 57.14         2.0 0.40            144            102 171 
 PTB  HZ EP       2046 39.86                             133    0.24 9  140 258 
 PTB  HN ES       2046 59.83                             133   -0.14 9  140 258 
 PTB  HZ I        2047  7.53         2.9 0.18            131            140 258 
 SPBC HE ES   4   2047  0.85                             130   -2.33 0  158 217 
 CHI  HE ES   2   2047 20.15                             117    0.05 4  247 193 
                                                                                
