 2013  210 2133 51.4 L   6.765 -73.094144.1  RSN  5 0.3 1.1LRSN                1
 GAP=145        0.59       4.6     4.4  8.0 -0.3780E+01  0.2714E+00 -0.2744E+01E
 Epicentro: LOS SANTOS - SANTANDER                                             3
 ACTION:UPD 13-03-12 09:32 OP:ep   STATUS:               ID:20130210213351 L   I
 2013-02-10-2130-00M.COL___241                                                 6
 STAT SP IPHASW D HRMM SECON CODA AMPLIT PERI AZIMU VELO AIN AR TRES W  DIS CAZ7
 BAR2 SZ EP   1   2134 10.70                             171   -0.06 7 21.4 207 
 BAR2 SZ ES   1   2134 26.39                             171    0.51 7 21.4 207 
 BAR2 SZ I        2134 28.55         5.1 0.30            171           21.4 207 
 PAM  SZ EP   1   2134 13.66                             151    0.28 7 77.1  34 
 PAM  SE ES   1   2134 30.23                             151   -0.33 7 77.1  34 
 PAM  SZ I        2134 32.75         3.3 0.46            153           77.1  34 
 BRR  HN ES   1   2134 29.33                             150   -0.08 7 78.1 299 
 RUS  HE ES   1   2134 32.57                             145   -0.25 7 96.5 179 
 RUS  HZ I        2134 34.24         1.2 0.32            147           96.5 179 
 PTB  HN ES   1   2134 39.85                             131   -0.08 7  153 261 
 PTB  HZ I        2134 42.65         1.6 0.12            133            153 261 
                                                                                
