 2014  810 2109 33.3 L   6.826 -73.118150.6  RSN 18 0.5 2.5LRSN                1
 GAP=139        0.92       2.7     4.0  5.5 -0.1461E+01  0.5549E+01  0.3385E+01E
 Epicentro: LOS SANTOS - SANTANDER                                             3
 ACTION:UPD 14-09-15 21:48 OP:nd   STATUS:               ID:20140810210933 L   I
 OLDACT:UP  14-08-11 04:50 OP:mh   STATUS:               ID:20140810210819     3
 OLDACT:UP  14-08-11 04:48 OP:mh   STATUS:               ID:20140810210819     3
 OLDACT:UP  14-08-11 04:48 OP:mh   STATUS:               ID:20140810210819     3
 OLDACT:REG 14-08-11 03:41 OP:mh   STATUS:               ID:20140810210819     3
 2014-08-10-2108-19M.COL___257                                                 6
 STAT SP IPHASW D HRMM SECON CODA AMPLIT PERI AZIMU VELO AIN AR TRES W  DIS CAZ7
 BRR  HZ EP   1   21 9 55.57                             153    0.55 7 72.6 295 
 BRR  HN ES   1   2110 12.60                             153    0.61 7 72.6 295 
 BRR  HZ I        2110 14.77        29.0 0.54            150           72.6 295 
 PAM  SZ EP   1   21 9 56.45                             153    0.68 7 73.3  39 
 PAM  SN ES       2110 13.59                             153    0.2710 73.3  39 
 PAM  SZ I        2110 15.60        47.6 0.20            156           73.3  39 
 RUS  HZ EP       21 9 57.50                             144   -0.1910  103 178 
 RUS  HN ES       2110 16.12                             144   -0.6210  103 178 
 RUS  HZ I        2110 17.43        21.3 0.40            146            103 178 
 PTB  HZ EP   1   2110  0.32                             132   -0.63 7  151 258 
 PTB  HN ES       2110 22.35                             132   -0.19 9  151 258 
 PTB  HZ I        2110 27.30        51.5 0.24            131            151 258 
 OCA  HZ EP   1   2110  1.07                             131   -0.67 7  158 352 
 OCA  HN ES   1   2110 24.04                             131    0.10 7  158 352 
 OCA  HZ I        2110 31.93        34.1 0.28            132            158 352 
 SPBC HZ EP       2110  2.53                             129    0.00 9  167 219 
 SPBC HN ES   1   2110 25.51                             129    0.16 7  167 219 
 SPBC HZ I        2110 31.42        69.5 0.32            130            167 219 
 ZAR  HZ EP   1   2110  6.03                             123   -0.19 6  206 291 
 ZAR  HN ES       2110 31.62                             123   -0.29 8  206 291 
 ZAR  HZ I        2110 37.99        31.4 0.30            123            206 291 
 NOR  HZ EP   1   2110  9.33                             119   -0.39 6  239 234 
 NOR  HN ES       2110 37.93                             119   -0.22 8  239 234 
 NOR  HZ I        2110 41.05        34.2 0.68            119            239 234 
 SML  HZ EP   1   2110 10.39                             118    0.35 6  242 334 
 SML  HN ES   1   2110 38.30                             118   -0.41 6  242 334 
 SML  HZ I        2110 41.31        25.5 0.18            119            242 334 
 CHI  HZ EP   1   2110 11.43                             118   -0.19 6  252 196 
 CHI  HN ES   1   2110 41.31                             118   -0.23 6  252 196 
 CHI  HZ I        2110 46.67        13.1 0.40            119            252 196 
 ROSC BZ EP   1   2110 13.12                             117    1.03 6  257 211 
 ROSC BN ES   4   2110 45.39                             117    3.02 0  257 211 
 ROSC BZ I        2110 51.01        40.3 0.45            118            257 211 
 HEL  HZ EP   1   2110 14.57                             115    0.44 6  276 255 
 HEL  HN ES   4   2110 48.04                             115    2.04 0  276 255 
 HEL  HZ I        2110 52.00        18.5 0.36            116            276 255 
 URE  HN ES   4   2110 43.27                             114   -3.88 0  286 291 
 GUY2CHZ EP   4   2110 18.58                             113    1.01 0  305 235 
 GUY2CHN ES   4   2110 55.13                             113    3.01 0  305 235 
 GUY2CHZ I        2111  0.38        34.4 0.76                           305 235 
 DBB  SZ EP   4   2110 21.06                             110   -0.21 0  342 274 
 TOL  SZ EP       2110 22.79                             110    0.59 6  348 225 
 TOL  SN ES   4   2111  0.25                             110   -0.11 0  348 225 
 ANIL HZ EP   1   2110 23.80                             109    0.06 5  361 225 
 ANIL HN ES       2111  4.11                             109    1.00 6  361 225 
 ANIL HZ I        2111  7.35         6.0 0.34            110            361 225 
 PRA  HZ EP   1   2110 26.81                             107   -0.61 4  396 210 
 PRA  HN ES   1   2111  9.90                             107    0.24 4  396 210 
 PRA  HZ I        2111 15.25        18.6 0.34            108            396 210 
 ORTC HZ EP       2110 27.02                             107   -0.81 6  399 216 
 ORTC HN ES   1   2111 10.91                             107    0.52 4  399 216 
 ORTC HZ I        2111 18.12        12.7 0.62            108            399 216 
 SJC  HZ EP   4   2110 26.96                             106   -1.95 0  409 326 
 SJC  HN ES   4   2111  7.82                             106   -4.49 0  409 326 
 SJC  HZ I        2111 22.10         4.2 0.24            107            409 326 
 SMAR HZ EP   4   2110 31.13                             103   -7.90 0  495 346 
                                                                                
