 2017  910 2222 13.5 L   6.790 -73.134143.0  RSN  5 0.4 1.6LRSN                1
 GAP=138        1.07       5.5     5.8  7.7  0.7469E+01  0.1072E+02 -0.1836E+01E
 Epicentro: LOS SANTOS - SANTANDER                                             3
 ACTION:UPD 17-10-05 19:11 OP:rebc STATUS:               ID:20170910222213 L   I
 OLDACT:DUP 17-09-11 07:08 OP:edw  STATUS:               ID:20170910221747d    3
 2017-09-10-2218-00M.COL___410                                                 6
 STAT SP IPHASW D HRMM SECON CODA AMPLIT PERI AZIMU VELO AIN AR TRES W  DIS CAZ7
 BAR2 EZ EP       2222 32.42                             171   -0.4010 22.5 194 
 BAR2 EZ ES       2222 47.99                             171    0.1410 22.5 194 
 BAR2 EZ I        2222 50.15        10.5 0.38            172           22.5 194 
 BRR  HZ EP       2222 34.22                             151   -0.2610 72.8 299 
 BRR  HN ES       2222 51.28                             151    0.4710 72.8 299 
 BRR  HZ I        2222 54.34         7.8 0.38            151           72.8 299 
 PAM  EZ EP       2222 35.15                             150   -0.3110 77.4  38 
 PAM  EN ES       2222 52.65                             150    0.0910 77.4  38 
 PAM  EZ I        2222 55.40         5.4 0.42            152           77.4  38 
 RUS  HZ EP       2222 37.62                             144    0.6910 99.4 177 
 RUS  HN ES       2222 54.77                             144   -0.4110 99.4 177 
 RUS  HZ I        2222 56.19         4.6 0.32            148           99.4 177 
 ZAR  HZ EP     C 2222 46.48                             122    0.51 8  206 292 
 ZAR  HN ES       2223 10.73                             122   -0.53 8  206 292 
 ZAR  HZ I        2223 15.86         5.5 0.58            123            206 292 
                                                                                
