 2016 1110 2242 33.7 L   6.783 -73.156145.5  RSN  6 0.4 1.7LRSN                1
 GAP=148        1.12       5.5     5.2  8.2 -0.1710E+01  0.6181E+01  0.1607E+02E
 Epicentro: LOS SANTOS - SANTANDER                                             3
 ACTION:UPD 17-10-26 21:06 OP:lp   STATUS:               ID:20161110224233 L   I
 OLDACT:REG 16-11-11 07:31 OP:dani STATUS:               ID:20161110223759     3
 2016-11-10-2237-59S.COL___278                                                 6
 STAT SP IPHASW D HRMM SECON CODA AMPLIT PERI AZIMU VELO AIN AR TRES W  DIS CAZ7
 BAR2 EZ EP       2242 53.04                             171   -0.2410 21.3 188 
 BAR2 EZ ES       2243  8.42                             171   -0.1210 21.3 188 
 BAR2 EZ I        2243  9.85        15.1 0.16            171           21.3 188 
 BRR  HZ EP       2242 55.08                             152    0.2510 71.1 300 
 BRR  HN ES       2243 12.07                             152    0.7710 71.1 300 
 BRR  HZ I        2243 16.02        12.6 0.26            152           71.1 300 
 PAM  EZ EP       2242 56.17                             150    0.1310 79.5  39 
 PAM  EE ES       2243 13.12                             150   -0.3210 79.5  39 
 PAM  EZ I        2243 15.88         5.1 0.30            153           79.5  39 
 PTB  HZ EP       2242 59.90                             132   -0.63 9  146 259 
 PTB  HN ES       2243 20.72                             132   -0.72 9  146 259 
 PTB  HZ I        2243 23.60         5.4 0.12            133            146 259 
 ZAR  HN ES       2243 31.65                             122    0.28 9  204 293 
 ZAR  HZ I        2243 36.49         6.0 0.13            123            204 293 
 CHI  HZ EP       2243 11.58                             117    0.40 8  247 195 
 CHI  HN ES       2243 40.80                             117    0.41 8  247 195 
 CHI  HZ I        2243 44.28         3.4 0.58            119            247 195 
                                                                                
