 2013  410 2335  5.2 L   6.717 -73.184153.4  RSN  4 0.4 1.2LRSN                1
 GAP=227        0.85      10.1     8.9 11.8  0.4506E+02 -0.1155E+02  0.1284E+01E
 Epicentro: VILLANUEVA - SANTANDER                                             3
 ACTION:UPD 13-05-22 14:37 OP:EP   STATUS:               ID:20130410233505 L   I
 2013-04-10-2330-00M.COL___245                                                 6
 STAT SP IPHASW D HRMM SECON CODA AMPLIT PERI AZIMU VELO AIN AR TRES W  DIS CAZ7
 BAR2 SZ EP       2335 25.20                             175   -0.4410 13.8 179 
 BRR  HE ES   1   2335 44.83                             153    0.34 7 72.6 307 
 RUS  HZ EP   1   2335 29.29                             148    0.13 7 91.8 173 
 RUS  HN ES   1   2335 48.05                             148    0.23 7 91.8 173 
 RUS  HZ I        2335 48.98         2.0 0.32            143           91.8 173 
 PTB  HZ EP   1   2335 32.96                             135    0.62 7  142 262 
 PTB  HN ES   1   2335 52.97                             135   -0.51 7  142 262 
 PTB  HZ I        2336  0.22         2.6 0.30            129            142 262 
                                                                                
