 2017  510 2131  6.4 L   6.767 -73.061155.6  RSN  5 0.4 1.5LRSN                1
 GAP=149        0.66       3.9     5.2  6.5 -0.5426E+00  0.2288E+01  0.9902E+00E
 Epicentro: LOS SANTOS - SANTANDER                                             3
 ACTION:UPD 17-06-16 13:34 OP:jn   STATUS:               ID:20170510213106 L   I
 OLDACT:UP  17-05-11 08:38 OP:y    STATUS:               ID:20170510212736     3
 OLDACT:UP  17-05-11 08:37 OP:y    STATUS:               ID:20170510212736     3
 OLDACT:REG 17-05-11 06:44 OP:and  STATUS:               ID:20170510212736     3
 2017-05-10-2128-00M.COL___371                                                 6
 STAT SP IPHASW D HRMM SECON CODA AMPLIT PERI AZIMU VELO AIN AR TRES W  DIS CAZ7
 PAM  EZ EP       2131 29.94                             153    0.3710 74.8  32 
 PAM  EN ES       2131 47.34                             153   -0.2710 74.8  32 
 PAM  EZ I        2131 48.42         2.8 0.16            157           74.8  32 
 BRR  HZ EP       2131 29.09                             151   -0.1310 81.2 298 
 BRR  HN ES       2131 47.24                             151    0.2510 81.2 298 
 BRR  HZ I        2131 58.73        11.6 0.56            145           81.2 298 
 RUS  HZ EP   1   2131 30.94                             147    0.03 7 96.7 181 
 RUS  HN ES       2131 49.89                             147   -0.1010 96.7 181 
 RUS  HZ I        2131 50.50         2.6 0.19            151           96.7 181 
 PTB  HZ EP   2   2131 34.75                             132   -0.24 5  156 261 
 ZAR  HN ES   3   2132  5.47                             123   -1.71 2  214 292 
 ZAR  HZ I        2132 12.40         4.2 0.18            123            214 292 
                                                                                
