 2012  610 2241 16.6 L   6.802 -73.165142.1  RSN 14 0.3 3.0LRSN                1
 GAP=181        0.61       2.1     2.9  3.6  0.1708E+00  0.3699E+01  0.2815E+00E
 Epicentro: LOS SANTOS - SANTANDER                                             3
 ACTION:UPD 12-08-06 17:48 OP:ep   STATUS:               ID:20120610224115 L   I
 2012-06-10-2240-00M.COL___201                                                 6
 STAT SP IPHASW D HRMM SECON CODA AMPLIT PERI AZIMU VELO AIN AR TRES W  DIS CAZ7
 BAR2 SZ IP       2241 36.29                             170    0.5010 23.2 185 
 BAR2 SZ I        2241 36.52       321.5 0.13            168           23.2 185 
 BAR2 SZ ES       2241 50.80                             170    0.0410 23.2 185 
 RUS  HZ IP     C 2241 40.10                             143    0.0810  101 175 
 RUS  HN ES       2241 58.17                             143   -0.1110  101 175 
 RUS  HZ I        2241 59.61        80.1 0.29            145            101 175 
 PTB  HZ EP       2241 42.86                             132   -0.22 9  146 259 
 PTB  HE ES       2242  3.59                             132   -0.14 9  146 259 
 PTB  HZ I        2242  8.18       120.6 0.16            130            146 259 
 OCA  HZ EP       2241 44.57                             129   -0.02 9  160 354 
 OCA  HN ES   1   2242  5.87                             129   -0.55 7  160 354 
 OCA  HZ I        2242 10.39       235.0 0.29            130            160 354 
 ZAR  HZ EP       2241 48.96                             122    0.37 9  202 292 
 ZAR  HN ES   1   2242 13.43                             122   -0.12 6  202 292 
 ZAR  HZ I        2242 20.84       258.4 0.28            122            202 292 
 NOR  SZ EP       2241 52.25                             118    0.31 8  233 234 
 NOR  SE ES   1   2242 19.97                             118    0.47 6  233 234 
 CHI  HZ EP   1   2241 53.85                             116   -0.20 6  248 195 
 CHI  HN ES   1   2242 23.15                             116   -0.12 6  248 195 
 CHI  HZ I        2242 32.07        33.1 0.26            118            248 195 
 HEL  HZ EP   1   2241 56.26                             114   -0.14 6  270 256 
 HEL  HN ES   1   2242 27.23                             114   -0.21 6  270 256 
 HEL  HZ I        2242 37.78        93.4 0.45            115            270 256 
 VIL  SZ EP   1   2241 59.53                             111   -0.29 5  303 191 
 VIL  SE ES   1   2242 32.58                             111   -0.95 5  303 191 
 DBB  SZ EP       2242  3.55                             109   -0.13 7  337 274 
 TOL  SZ EP   1   2242  4.83                             109    0.28 5  342 224 
 TOL  SZ ES   1   2242 42.47                             109    0.52 5  342 224 
 ANIL HZ EP   1   2242  6.48                             108    0.38 5  356 224 
 ANIL HN ES   1   2242 44.43                             108   -0.28 5  356 224 
 PRA  HZ EP   1   2242  9.65                             106   -0.23 4  391 209 
 PRA  HN ES   1   2242 51.59                             106    0.14 4  391 209 
 YOT  HZ EP       2242 18.95                             103   -0.41 5  470 229 
 YOT  HZ I        2242 23.68        12.9 0.59            104            470 229 
                                                                                
