 2015 1110 2203  3.1 L   5.969 -73.701121.6  RSN  6 0.4 1.6LRSN                1
 GAP= 84        0.78       4.8     4.2  9.5 -0.7728E+01  0.2342E+02  0.3066E-01E
 Epicentro: GUAVATA - SANTANDER                                                3
 ACTION:UPD 15-12-28 16:09 OP:cam  STATUS:               ID:20151110220303 L   I
 OLDACT:REG 15-11-11 04:27 OP:ar   STATUS:               ID:20151110215748     3
 2015-11-10-2157-48M.COL___319                                                 6
 STAT SP IPHASW D HRMM SECON CODA AMPLIT PERI AZIMU VELO AIN AR TRES W  DIS CAZ7
 RUS  HZ EP       22 3 22.15                             149   -0.0810 68.9  97 
 RUS  HN ES       22 3 37.18                             149    0.0110 68.9  97 
 RUS  HZ I        22 3 38.39         4.4 0.16            150           68.9  97 
 BAR2 EZ EP       22 3 23.81                             141    0.4910 89.6  40 
 BAR2 EZ ES       22 3 38.89                             141   -0.2210 89.6  40 
 NOR  HZ EP       22 3 26.98                             128   -0.21 9  137 251 
 NOR  HN ES   2   22 3 45.83                             128   -0.17 5  137 251 
 NOR  HZ I        22 3 47.27        10.6 0.16            129            137 251 
 CHI  HZ EP   2   22 3 28.17                             126   -0.59 5  148 181 
 CHI  HN ES   2   22 3 48.24                             126   -0.56 5  148 181 
 CHI  HZ I        22 3 52.30         3.4 0.38            126            148 181 
 GUY2CHZ EP   2   22 3 34.47                             117    0.03 4  202 246 
 GUY2CHE ES       22 3 59.51                             117    0.60 9  202 246 
 GUY2CHZ I        22 4  3.65         3.9 0.50                           202 246 
 ZAR  HN ES   2   22 3 58.80                             115   -0.90 4  212 323 
 ZAR  HZ I        22 4  0.34         5.1 0.30            118            212 323 
                                                                                
