 2011  210 2328 27.6 L   6.802 -73.194136.2  RSN  5 0.3 1.7LRSN                1
 GAP=173        0.65       5.8     7.5  7.4 -0.1222E+02  0.2089E+02  0.3381E+01E
 Epicentro: ZAPATOCA - SANTANDER                                               3
 ACTION:UP  11-03-28 15:07 OP:jfem STATUS:               ID:20110210232827 L   I
 2011-02-10-2328-02S.COL___136                                                 6
 STAT SP IPHASW D HRMM SECON CODA AMPLIT PERI AZIMU VELO SNR AR TRES W  DIS CAZ7
 BAR2 SZ EP       2328 46.19                             170     0.210   23 177 
 BAR2 SZ ES   1   2329  0.08                             170    -0.4 7   23 177 
 BAR2 SZ I        2329  2.11        19.0 0.18                            23 177 
 GIR2 SZ EP   2   2328 46.22                             167     0.1 5   31   0 
 RUS  HZ EP   1   2328 50.60                             141     0.2 7  101 173 
 RUS  HN ES   1   2329  8.43                             141     0.2 7  101 173 
 RUS  HZ I        2329 11.14         6.4 0.18                           101 173 
 NOR  SZ EP   2   2329  2.52                             117     0.2 4  231 234 
 NOR  SN ES   1   2329 29.45                             117     0.0 6  231 234 
 CHI  HZ EP   1   2329  3.85                             115    -0.8 6  248 194 
 CHI  HE ES   1   2329 33.71                             115     0.2 6  248 194 
 CHI  HZ I        2329 40.90         2.4 0.21                           248 194 
                                                                                
