 2010  910 2022 51.8 L   6.790 -73.124144.2  RSN  9 0.4 2.0LRSN                1
 GAP=161        1.03       4.7    10.3  8.0 -0.1576E+02 -0.9148E+00 -0.1993E+00E
 Epicentro: LOS SANTOS - SANTANDER                                             3
 ACTION:UP  11-02-18 11:01 OP:tino STATUS:               ID:20100910202251 L   I
 2010-09-10-2018-26S.COL___120                                                 6
 STAT SP IPHASW D HRMM SECON CODA AMPLIT PERI AZIMU VELO SNR AR TRES W  DIS CAZ7
 BAR2 SZ EP   1   2023 10.80                             171    -0.4 8   23 197 
 BAR2 SZ ES   1   2023 26.43                             171     0.1 8   23 197 
 BAR2 SZ I        2023 27.60        25.1 0.20                            23 197 
 BRR  HZ EP   1   2023 12.64                             151    -0.3 8   74 298 
 BRR  HE ES   1   2023 29.71                             151     0.3 8   74 298 
 BRR  HZ I        2023 33.61        23.7 0.26                            74 298 
 RUS  HZ EP   1   2023 15.02                             144    -0.3 8   99 177 
 RUS  HN ES   1   2023 33.57                             144     0.0 8   99 177 
 RUS  HZ I        2023 34.50         8.1 0.33                            99 177 
 GUE  SZ EP   1   2023 15.90                             139    -0.5 8  117  11 
 GRA  SZ IP       2023 17.80                             136     0.910  126  16 
 GRA  SZ I        2023 18.92        16.3 0.27                           126  16 
 OCA  SZ EP   1   2023 19.36                             129    -0.7 7  162 352 
 OCA  SZ I        2023 44.70        13.5 0.38                           162 352 
 CHI  HZ EP   1   2023 29.54                             117     0.2 6  248 196 
 CHI  HE ES   1   2023 58.43                             117    -0.2 6  248 196 
 CHI  HZ I        2024  2.17         7.4 0.58                           248 196 
 RREF HZ EP   2   2023 38.38                             111     0.4 4  323 230 
 RREF HN ES   2   2024 13.89                             111    -0.1 4  323 230 
 RREF HZ I        2024 23.06         5.0 0.44                           323 230 
 PRA  HZ EP   1   2023 45.38                             106     0.1 5  392 210 
 PRA  HE ES   1   2024 26.98                             106     0.0 5  392 210 
 PRA  HZ I        2024 33.01         6.1 0.77                           392 210 
                                                                                
