 2013  910 2342 46.6 L   6.685 -73.947 19.4  RSN  8 0.5 1.8LRSN                1
 GAP=120        0.96       2.8     2.2  3.7 -0.4214E+00  0.4888E+00  0.2385E+01E
 Epicentro: PUERTO PARRA - SANTANDER                                           3
 ACTION:UPD 13-10-22 09:21 OP:ep   STATUS:               ID:20130910234246 L   I
 OLDACT:UP  13-09-10 23:28 OP:mh   STATUS:               ID:20130910233959     3
 OLDACT:REG 13-09-10 21:16 OP:mh   STATUS:               ID:20130910233959     3
 2013-09-10-2339-59M.COL___269                                                 6
 STAT SP IPHASW D HRMM SECON CODA AMPLIT PERI AZIMU VELO AIN AR TRES W  DIS CAZ7
 BRR  HZ EP   1   2342 55.53                             107   -0.10 7 53.4  29 
 BRR  HN ES       2343  2.64                             107   -0.0410 53.4  29 
 BRR  HZ I        2343  3.35        57.1 0.12             47           53.4  29 
 PTB  HZ EP   1   2342 56.78                             106    0.38 7 58.6 254 
 PTB  HN ES   1   2343  4.25                             106    0.20 7 58.6 254 
 PTB  HZ I        2343  4.95        78.5 0.38             47           58.6 254 
 BAR2 SZ EP   1   2343  0.55                             101    0.01 7 85.1  97 
 BAR2 SZ ES   1   2343 10.75                             101   -0.68 7 85.1  97 
 BAR2 SZ I        2343 18.10        21.7 0.24             47           85.1  97 
 RUS  HZ EP   1   2343  7.78                              56    0.47 7  130 132 
 RUS  HN ES       2343 23.21                              56   -0.2710  130 132 
 RUS  HZ I        2343 26.29        13.8 0.18             47            130 132 
 ZAR  HZ EP   1   2343  6.65                              56   -0.70 7  135 312 
 ZAR  HN ES   1   2343 22.95                              56   -0.60 7  135 312 
 ZAR  HZ I        2343 24.19        12.2 0.10             47            135 312 
 PAM  SZ EP   1   2343 11.40                              56    0.84 7  156  62 
 PAM  SN ES   2   2343 29.35                              56    0.08 5  156  62 
 PAM  SZ I        2343 31.87        29.2 0.18             47            156  62 
 HEL  HZ EP   1   2343 14.55                              56    0.67 7  183 253 
 HEL  HN ES   1   2343 34.69                              56   -0.48 7  183 253 
 HEL  HZ I        2343 41.12         8.2 0.38             47            183 253 
 OCA  HN ES   1   2343 35.88                              56    0.73 7  185  22 
 OCA  HZ I        2343 40.31        11.4 0.36             37            185  22 
 SML  HZ EP   4   2343 23.89                              56    4.07 0  234 357 
 SML  HN ES   4   2343 48.83                              56    3.09 0  234 357 
                                                                                
