 2012  210 2055 34.1 L   6.759 -73.161147.0  RSN  8 0.3 1.8LRSN                1
 GAP=181        0.73       5.3     5.2  6.2  0.1193E+02  0.4425E+01  0.2812E+01E
 ACTION:UP  12-03-07 16:29 OP:epov STATUS:               ID:20120210205534 L   I
 2012-02-10-2050-00M.COL___188                                                 6
 STAT SP IPHASW D HRMM SECON CODA AMPLIT PERI AZIMU VELO AIN AR TRES W  DIS CAZ7
 BAR2 SZ EP   1   2055 53.26                             172   -0.55 7 18.6 187 
 BAR2 SZ ES   1   2056  8.78                             172   -0.39 7 18.6 187 
 BAR2 SZ I        2056 10.01        17.5 0.30                          18.6 187 
 GIR2 SZ EP   1   2055 53.74                             166   -0.32 7 35.6 354 
 BRR  HZ EP       2055 55.55                             152    0.1010 72.1 302 
 BRR  HZ I        2055 55.98        23.8 0.11                          72.1 302 
 BRR  HN ES   1   2056 12.78                             152    0.70 7 72.1 302 
 RUS  HZ EP       2055 58.11                             145    0.4310 96.2 175 
 RUS  HE ES   1   2056 16.12                             145    0.07 7 96.2 175 
 RUS  HZ I        2056 17.14         5.7 0.25                          96.2 175 
 PTB  HZ EP       2056  0.73                             133   -0.23 9  145 260 
 PTB  HE ES   1   2056 21.76                             133   -0.14 7  145 260 
 ZAR  HZ EP   2   2056  7.11                             123    0.44 4  204 294 
 ZAR  HN ES   1   2056 31.90                             123   -0.15 6  204 294 
 ZAR  HZ I        2056 37.94         7.9 0.26                           204 294 
 NOR  SN ES   2   2056 36.94                             119   -0.14 4  231 235 
 CHI  HZ EP   1   2056 11.39                             118    0.03 6  244 195 
 CHI  HZ I        2056 44.27         3.1 0.36                           244 195 
                                                                                
