 2011  310 2036 18.1 L   6.817 -73.329140.8  RSN  4 0.2 1.8LRSN                1
 GAP=195        0.47       3.2    13.2  6.1 -0.1833E+02  0.4020E+02 -0.1008E+02E
 Epicentro: ZAPATOCA - SANTANDER                                               3
 ACTION:UP  11-06-16 14:32 OP:jfem STATUS:               ID:20110310203256 L   I
 2011-03-10-2032-56S.COL___135                                                 6
 STAT SP IPHASW D HRMM SECON CODA AMPLIT PERI AZIMU VELO SNR AR TRES W  DIS CAZ7
 BAR2 SZ EP   1   2036 37.62                             167     0.3 8   30 147 
 BAR2 SZ ES   1   2036 52.19                             167    -0.1 8   30 147 
 BAR2 SZ I        2036 54.98        15.7 0.00                            30 147 
 RUS  HZ EP   1   2036 41.96                             141     0.2 8  106 165 
 RUS  HE ES   2   2036 59.96                             141    -0.3 5  106 165 
 RUS  HZ I        2037  2.27         7.6 0.25                           106 165 
 GRA  SZ EP       2036 43.32                             134    -0.110  132  26 
 GRA  SZ ES   1   2037  3.25                             134     0.1 7  132  26 
 GRA  SZ I        2037  6.62         6.7 0.34                           132  26 
 OCA  SZ EP       2036 45.66                             129    -0.110  157   0 
 OCA  SZ ES   3   2037  7.58                             129     0.2 2  157   0 
 OCA  SZ I        2037 11.55        12.0 0.38                           157   0 
                                                                                
