 2015 1110 2110 10.7 L   6.810 -73.117147.6  RSN 13 0.4 2.6LRSN                1
 GAP=140        0.83       2.3     3.4  4.3 -0.1054E+01  0.4936E+01  0.7024E-01E
 Epicentro: LOS SANTOS - SANTANDER                                             3
 ACTION:UPD 15-12-28 16:09 OP:cam  STATUS:               ID:20151110211010 L   I
 OLDACT:UP  15-11-11 05:46 OP:ar   STATUS:               ID:20151110205749d    3
 OLDACT:DUP 15-11-11 05:38 OP:ar   STATUS:               ID:20151110205749d    3
 2015-11-10-2057-48M.COL___319                                                 6
 STAT SP IPHASW D HRMM SECON CODA AMPLIT PERI AZIMU VELO AIN AR TRES W  DIS CAZ7
 BAR2 EZ EP     D 2110 30.36                             170   -0.1710 25.2 197 
 BAR2 EZ ES       2110 45.77                             170   -0.2710 25.2 197 
 BAR2 EZ I        2110 48.03        60.7 0.28            168           25.2 197 
 BRR  HZ EP       2110 32.39                             152    0.2610 73.5 297 
 BRR  HN ES       2110 49.49                             152    0.6110 73.5 297 
 BRR  HZ I        2110 55.73        25.6 0.12            150           73.5 297 
 PAM  EZ EP       2110 33.16                             152    0.2710 74.5  38 
 PAM  EE ES       2110 50.36                             152    0.1210 74.5  38 
 RUS  HZ EP       2110 34.59                             144   -0.0610  102 178 
 RUS  HN ES       2110 53.18                             144   -0.1810  102 178 
 OCA  HZ EP       2110 39.38                             130    0.34 9  160 352 
 OCA  HN ES       2111  0.93                             130   -0.25 9  160 352 
 OCA  HZ I        2111  6.66        74.9 0.34            132            160 352 
 SPBC HZ EP       2110 39.38                             129   -0.18 9  166 220 
 SPBC HE ES       2111  2.25                             129    0.14 9  166 220 
 SPBC HZ I        2111  3.73        70.1 0.10            130            166 220 
 ZAR  HZ EP       2110 43.20                             122   -0.28 8  207 292 
 ZAR  HN ES       2111  9.01                             122   -0.07 8  207 292 
 ZAR  HZ I        2111 13.96        42.5 0.30            123            207 292 
 NOR  HZ EP       2110 46.57                             118   -0.26 8  238 235 
 NOR  HN ES       2111 14.64                             118   -0.42 8  238 235 
 NOR  HZ I        2111 21.56        23.4 0.22            119            238 235 
 SML  HZ EP       2110 47.33                             118   -0.09 8  244 335 
 SML  HE ES       2111 15.31                             118   -0.78 8  244 335 
 SML  HZ I        2111 18.82        44.9 0.10            119            244 335 
 CHI  HZ EP       2110 48.43                             117   -0.23 8  251 196 
 CHI  HE ES   2   2111 18.20                             117   -0.10 4  251 196 
 CHI  HZ I        2111 23.71        13.0 0.26            119            251 196 
 ROSC BZ EP   4   2110 51.28                             117    2.13 0  255 212 
 ROSC BN ES   4   2111 21.59                             117    2.40 0  255 212 
 ROSC BZ I        2111 24.71        37.1 0.35            118            255 212 
 HEL  HZ EP       2110 51.66                             115    0.33 7  275 256 
 HEL  HN ES       2111 23.21                             115    0.15 7  275 256 
 HEL  HZ I        2111 29.04        14.1 0.36            116            275 256 
 GUY2CHZ EP       2110 55.69                             112    0.98 7  304 235 
 GUY2CHE ES   4   2111 31.11                             112    2.03 0  304 235 
 GUY2CHZ I        2111 37.25        21.6 0.74                           304 235 
                                                                                
