 2013  410 2328 18.2 L   6.784 -73.141144.1  RSN  6 0.5 1.6LRSN                1
 GAP=186        0.99       5.6     7.8  7.7  0.1348E+02  0.6287E+01 -0.4314E+01E
 Epicentro: LOS SANTOS - SANTANDER                                             3
 ACTION:UPD 13-05-22 14:37 OP:EP   STATUS:               ID:20130410232818 L   I
 2013-04-10-2320-00M.COL___245                                                 6
 STAT SP IPHASW D HRMM SECON CODA AMPLIT PERI AZIMU VELO AIN AR TRES W  DIS CAZ7
 BAR2 SZ EP       2328 37.74                             171    0.1110 21.7 192 
 BAR2 SZ ES   1   2328 52.28                             171   -0.48 7 21.7 192 
 BAR2 SZ I        2328 53.38        15.7 0.32            175           21.7 192 
 GIR2 SZ EP       2328 37.89                             166    0.1310 33.2 350 
 GIR2 SZ ES   1   2328 52.92                             166   -0.07 7 33.2 350 
 GIR2 SZ I        2328 57.92         4.9 0.46            163           33.2 350 
 BRR  HZ IP     C 2328 39.73                             152    0.4510 72.6 300 
 BRR  HN ES   1   2328 56.56                             152    0.86 7 72.6 300 
 BRR  HZ I        2329  1.86         7.3 0.46            151           72.6 300 
 RUS  HZ EP       2328 41.86                             144    0.1710 98.7 176 
 RUS  HN ES   1   2328 59.41                             144   -0.57 7 98.7 176 
 RUS  HZ I        2329  0.78         3.5 0.48            151           98.7 176 
 PTB  HZ EP       2328 45.21                             131    0.13 9  148 260 
 PTB  HN ES   1   2329  5.45                             131   -0.58 7  148 260 
 PTB  HZ I        2329  7.76         7.7 0.20            135            148 260 
 SML  HZ EP   1   2328 54.20                             117   -0.77 6  246 335 
 SML  HN ES   1   2329 22.84                             117   -0.78 6  246 335 
 SML  HZ I        2329 27.46         4.8 0.10            119            246 335 
                                                                                
