 2015  910 2141 33.4 L   6.796 -73.144146.0  RSN  8 0.4 1.8LRSN                1
 GAP=137        0.90       3.1     4.1  7.0 -0.1676E+01  0.1152E+02  0.1452E+01E
 Epicentro: LOS SANTOS - SANTANDER                                             3
 ACTION:UPD 15-10-28 16:25 OP:cam  STATUS:               ID:20150910214133 L   I
 OLDACT:UP  15-09-11 04:28 OP:ak   STATUS:               ID:20150910213750     3
 OLDACT:REG 15-09-11 03:31 OP:ak   STATUS:               ID:20150910213750     3
 2015-09-10-2137-50M.COL___359                                                 6
 STAT SP IPHASW D HRMM SECON CODA AMPLIT PERI AZIMU VELO AIN AR TRES W  DIS CAZ7
 PAM  EZ EP       2141 56.04                             151    0.3510 77.6  39 
 PAM  EN ES       2142 13.35                             151    0.3010 77.6  39 
 PAM  EZ I        2142 15.40        10.3 0.60            153           77.6  39 
 RUS  HZ EP       2141 56.52                             144   -0.6610  100 176 
 RUS  HN ES       2142 15.67                             144   -0.0310  100 176 
 RUS  HZ I        2142 17.66         6.7 0.16            146            100 176 
 PTB  HZ EP       2142  0.48                             132    0.05 9  148 259 
 PTB  HN ES       2142 21.16                             132   -0.33 9  148 259 
 PTB  HZ I        2142 24.24         6.8 0.15            133            148 259 
 ZAR  HN ES       2142 31.79                             122    0.51 9  204 292 
 SML  HZ EP       2142  9.61                             117   -0.52 8  244 335 
 SML  HE ES       2142 38.34                             117   -0.41 8  244 335 
 SML  HZ I        2142 42.74         9.5 0.16            119            244 335 
 GUY2CHZ EP       2142 17.25                             112    0.21 7  301 235 
 GUY2CHE ES       2142 51.24                             112    0.18 7  301 235 
 GUY2CHZ I        2142 59.95         4.8 0.32                           301 235 
 TOL  SN ES       2142 59.42                             109    0.11 7  343 225 
 TOL  SZ I        2143  6.17         2.7 0.47            111            343 225 
 PRA  HZ EP       2142 27.83                             107    0.90 6  392 210 
 PRA  HN ES       2143  8.51                             107   -0.14 6  392 210 
                                                                                
