 2011  610 2241 43.6 L   6.783 -73.144146.5  RSN 10 0.4 2.2LRSN                1
 GAP=156        0.94       3.9     7.0  6.0 -0.1222E+02  0.3712E+01  0.3556E+01E
 Epicentro: LOS SANTOS - SANTANDER                                             3
 ACTION:UP  11-07-14 19:04 OP:ep   STATUS:               ID:20110610224143 L   I
 2011-06-10-2240-04S.COL___131                                                 6
 STAT SP IPHASW D HRMM SECON CODA AMPLIT PERI AZIMU VELO SNR AR TRES W  DIS CAZ7
 BTL  SZ EP       2242  3.95                             172     0.710   20 317 
 BAR2 SZ EP       2242  3.14                             171    -0.110   22 191 
 BAR2 SZ ES       2242 18.35                             171    -0.310   22 191 
 BAR2 SZ I        2242 21.10        43.6 0.26                            22 191 
 BRR  HZ EP       2242  4.72                             152    -0.210   72 300 
 BRR  HN ES   1   2242 21.72                             152     0.2 7   72 300 
 BRR  HZ I        2242 26.12        27.0 0.10                            72 300 
 RUS  HZ EP       2242  7.07                             144    -0.210   99 176 
 RUS  HN ES   1   2242 25.60                             144    -0.2 7   99 176 
 RUS  HZ I        2242 27.21        25.6 0.21                            99 176 
 BRI  SZ EP       2242  7.79                             141     0.110  110  20 
 BRI  SZ I        2242 31.57        15.0 0.36                           110  20 
 GRA  SZ EP       2242  9.01                             137     0.010  127  17 
 GRA  SZ ES   1   2242 28.89                             137     0.0 7  127  17 
 GRA  SZ I        2242 29.97        25.0 0.26                           127  17 
 NOR  SZ EP       2242 19.11                             119    -0.2 8  234 235 
 NOR  SE ES   1   2242 46.65                             119    -0.5 6  234 235 
 NOR  SZ I        2242 52.98         2.3 0.19                           234 235 
 CHI  HZ EP       2242 21.46                             117     0.3 8  247 195 
 CHI  HZ I        2242 22.27         6.6 0.11                           247 195 
 CHI  HN ES   1   2242 51.37                             117     0.9 6  247 195 
 PRA  HZ EP       2242 36.59                             107    -0.4 6  391 210 
 PRA  HZ I        2242 38.91        23.9 0.14                           391 210 
 PRA  HN ES   1   2243 19.09                             107     0.5 4  391 210 
 SJA  SZ EP   1   2242 37.30                             106    -0.7 4  398 193 
                                                                                
