 2013  310 2206  9.7 L   6.801 -73.176143.2  RSN  4 0.3 1.2LRSN                1
 GAP=198        0.58       5.0     6.4 12.4  0.1402E+02 -0.1090E+02 -0.3361E+02E
 Epicentro: LOS SANTOS - SANTANDER                                             3
 ACTION:UPD 13-04-09 14:01 OP:ep   STATUS:               ID:20130310220609 L   I
 2013-03-10-2200-00M.COL___231                                                 6
 STAT SP IPHASW D HRMM SECON CODA AMPLIT PERI AZIMU VELO AIN AR TRES W  DIS CAZ7
 BRR  HZ EP   1   22 6 30.98                             153    0.55 7 68.2 300 
 BRR  HE ES   4   22 6 48.72                             153    2.15 0 68.2 300 
 BRR  HZ I        22 6 49.43         4.6 0.62            155           68.2 300 
 RUS  HZ EP   1   22 6 33.21                             143   -0.05 7  101 174 
 RUS  HN ES   1   22 6 51.46                             143   -0.15 7  101 174 
 RUS  HZ I        22 6 54.91         1.9 0.42            147            101 174 
 PTB  HZ EP   1   22 6 35.96                             132   -0.22 7  144 259 
 PTB  HN ES   1   22 6 56.87                             132    0.05 7  144 259 
 PTB  HZ I        22 7  0.54         2.1 0.18            136            144 259 
 SML  HN ES   1   22 7 14.05                             117   -0.32 6  242 336 
                                                                                
