 2010  710 2012  1.4 L   6.773 -73.088146.6  RSN 10 0.3 2.1LRSN                1
 GAP=163        0.85       3.3     7.6  6.6 -0.6520E+01 -0.1248E+01  0.1760E+01E
 Epicentro: LOS SANTOS - SANTANDER                                             3
 ACTION:UPD 10-12-01 15:16 OP:pat  STATUS:               ID:20100710201201 L   I
 2010-07-10-2010-36S.COL___120                                                 6
 STAT SP IPHASW D HRMM SECON CODA AMPLIT PERI AZIMU VELO AIN AR TRES W  DIS CAZ7
 BAR2 SZ IP       2012 21.20                             171     0.110   23 208 
 BAR2 SZ ES   2   2012 36.17                             171    -0.4 5   23 208 
 BAR2 SZ I        2012 38.34        18.0 0.24                            23 208 
 BRR  HZ IP     C 2012 23.17                             150     0.110   78 298 
 BRR  HZ I        2012 23.53       100.1 0.12                            78 298 
 BRR  HN ES   1   2012 40.50                             150     0.5 7   78 298 
 RUS  HZ EP       2012 25.09                             145     0.110   97 180 
 RUS  HN ES   1   2012 43.16                             145    -0.3 7   97 180 
 RUS  HZ I        2012 45.94        13.4 0.28                            97 180 
 BRI  SZ IP       2012 25.89                             141     0.410  109  17 
 BRI  SZ ES   1   2012 44.03                             141    -0.2 7  109  17 
 BRI  SZ I        2012 49.31        14.5 0.16                           109  17 
 GUE  SZ EP       2012 26.29                             139    -0.110  118   9 
 GUE  SZ I        2012 47.97         7.3 0.26                           118   9 
 GRA  SZ IP       2012 27.12                             137     0.310  127  14 
 GRA  SZ ES   1   2012 46.87                             137     0.2 7  127  14 
 GRA  SZ I        2012 48.09        27.6 0.29                           127  14 
 OCA  SZ EP       2012 29.74                             129    -0.4 9  164 351 
 OCA  SZ ES       2012 51.93                             129    -0.6 9  164 351 
 OCA  SZ I        2012 57.73        16.4 0.36                           164 351 
 CHI  HZ EP   3   2012 39.13                             117     0.1 2  247 197 
 CHI  HE ES   3   2013  8.49                             117     0.1 2  247 197 
 CHI  HZ I        2013 14.11         6.1 0.34                           247 197 
 HEL  HZ EP   2   2012 42.70                             114     0.4 4  278 257 
 HEL  HZ I        2013 21.64        10.4 0.59                           278 257 
 PRA  HZ EP       2012 54.80                             107    -0.2 6  393 211 
 PRA  HE ES   3   2013 35.92                             107    -0.9 1  393 211 
 PRA  HZ I        2013 40.93         5.6 0.24                           393 211 
                                                                                
