 2013 1110 2330 52.2 L   6.812 -73.197143.5  RSN  7 0.4 1.8LRSN                1
 GAP=130        0.91       3.7     3.9  5.7  0.1729E+01  0.5109E+01 -0.4417E+01E
 Epicentro: ZAPATOCA - SANTANDER                                               3
 ACTION:UPD 14-01-09 16:27 OP:ep   STATUS:               ID:20131110233052 L   I
 OLDACT:REG 13-11-11 02:52 OP:carl STATUS:               ID:20131110232839     3
 2013-11-10-2328-39M.COL___210                                                 6
 STAT SP IPHASW D HRMM SECON CODA AMPLIT PERI AZIMU VELO AIN AR TRES W  DIS CAZ7
 BAR2 SZ EP       2331 11.82                             170    0.2310 24.4 176 
 BAR2 SZ ES       2331 26.42                             170   -0.2810 24.4 176 
 BAR2 SZ I        2331 28.04        15.0 0.20            175           24.4 176 
 BRR  HZ IP     C 2331 13.57                             154    0.7710 65.6 300 
 BRR  HE ES       2331 28.85                             154   -0.0210 65.6 300 
 BRR  HZ I        2331 33.06         8.6 0.22            150           65.6 300 
 PAM  SZ EP       2331 14.39                             149    0.0410 80.1  43 
 PAM  SN ES       2331 31.60                             149   -0.0210 80.1  43 
 RUS  HZ EP       2331 15.67                             143   -0.2110  103 173 
 RUS  HE ES       2331 34.43                             143    0.0910  103 173 
 RUS  HZ I        2331 35.81         4.3 0.22            149            103 173 
 PTB  HZ EP       2331 18.66                             133    0.14 9  143 258 
 PTB  HN ES       2331 38.59                             133   -0.45 9  143 258 
 PTB  HZ I        2331 42.27         5.1 0.16            133            143 258 
 ZAR  HZ EP       2331 23.44                             123   -0.47 9  198 292 
 ZAR  HE ES       2331 49.23                             123    0.59 9  198 292 
 ZAR  HZ I        2331 55.09        10.7 0.26            123            198 292 
 SML  HZ EP       2331 27.91                             117   -0.41 8  240 336 
 SML  HN ES       2331 56.24                             117   -0.25 8  240 336 
 SML  HZ I        2332 11.17         9.0 0.22            117            240 336 
                                                                                
