 2011  110 2302 25.4 L   6.792 -73.134144.8  RSN  7 0.4 1.6LRSN                1
 GAP=184        0.60       4.3     7.9  9.1 -0.1247E+02  0.2543E+02 -0.3608E+01E
 Epicentro: LOS SANTOS - SANTANDER                                             3
 ACTION:UP  11-02-08 08:40 OP:pat  STATUS:               ID:20110110230225 L   I
 2011-01-10-2300-37S.COL___136                                                 6
 STAT SP IPHASW D HRMM SECON CODA AMPLIT PERI AZIMU VELO SNR AR TRES W  DIS CAZ7
 BTL  SZ EP   1   23 2 45.27                             172     0.4 7   20 313 
 BAR2 SZ EP   2   23 2 44.80                             171    -0.1 5   23 194 
 BAR2 SZ ES   2   23 3  0.18                             171     0.1 5   23 194 
 BAR2 SZ I        23 3  2.61        11.0 0.25                            23 194 
 GIR2 SZ EP   2   23 2 45.37                             167     0.4 5   32 348 
 RUS  HZ EP   2   23 2 48.84                             144    -0.2 5  100 177 
 RUS  HE ES   2   23 3  6.87                             144    -0.5 5  100 177 
 RUS  HZ I        23 3  9.44         3.6 0.26                           100 177 
 OCA  SZ EP   2   23 2 53.77                             129     0.0 5  161 353 
 OCA  SZ ES   2   23 3 15.28                             129    -0.5 5  161 353 
 OCA  SZ I        23 3 19.45         8.2 0.54                           161 353 
 NOR  SZ EP   2   23 3  0.33                             118    -0.8 4  235 235 
 NOR  SE ES   1   23 3 29.15                             118     0.1 6  235 235 
 CHI  HZ EP   2   23 3  2.93                             117    -0.1 4  248 196 
 CHI  HZ I        23 3  5.79         1.7 0.14                           248 196 
 CHI  HN ES   2   23 3 32.66                             117     0.3 4  248 196 
                                                                                
