 2017 1110 2033  8.2 L   6.821 -73.173145.0  RSN  9 0.3 1.9LRSN                1
 GAP=140        0.69       3.1     3.3  4.9 -0.3144E+01  0.3871E+01  0.4928E+01E
 Epicentro: ZAPATOCA - SANTANDER                                               3
 ACTION:UPD 17-12-12 19:54 OP:rebc STATUS:               ID:20171110203308 L   I
 OLDACT:REG 17-11-11 03:34 OP:dani STATUS:               ID:20171110202738     3
 2017-11-10-2028-00M.COL___462                                                 6
 STAT SP IPHASW D HRMM SECON CODA AMPLIT PERI AZIMU VELO AIN AR TRES W  DIS CAZ7
 BAR2 EZ EP       2033 27.49                             170   -0.2610 25.3 182 
 BAR2 EZ ES       2033 43.34                             170    0.3210 25.3 182 
 BAR2 EZ I        2033 45.32        26.3 0.28            167           25.3 182 
 PAM  EZ EP     D 2033 30.33                             151    0.0110 77.6  42 
 PAM  EN ES       2033 47.55                             151   -0.0410 77.6  42 
 PAM  EZ I        2033 50.72         9.4 0.48            154           77.6  42 
 PTB  HE ES   1   2033 55.64                             132   -0.01 7  145 258 
 SPBC HN ES       2033 58.73                             129   -0.05 9  163 218 
 ZAR  HE ES       2034  4.91                             123   -0.24 9  200 292 
 NOR  HZ EP       2033 43.72                             118   -0.02 8  234 234 
 NOR  HN ES       2034 11.39                             118   -0.09 8  234 234 
 NOR  HZ I        2034 16.89         5.8 0.16            120            234 234 
 CHI  HZ EP       2033 45.87                             117   -0.12 8  250 194 
 CHI  HN ES       2034 15.20                             117   -0.28 8  250 194 
 CHI  HZ I        2034 21.30         3.8 0.34            118            250 194 
 GUY2CHZ EP       2033 52.65                             112    1.03 7  300 234 
 GUY2CHZ I        2034 34.26         4.4 0.24                           300 234 
 PRA  HZ EP       2034  1.45                             106   -0.28 6  393 209 
 PRA  HN ES       2034 43.72                             106    0.22 6  393 209 
 PRA  HZ I        2034 47.80         4.1 0.28            107            393 209 
                                                                                
