 2014  310 2014 12.5 L   6.792 -73.137143.0  RSN 11 0.5 2.3LRSN                1
 GAP=138        1.24       3.6     4.8  6.6 -0.1846E+01  0.8599E+01  0.2191E+01E
 Epicentro: LOS SANTOS - SANTANDER                                             3
 OLDACT:REG 14-03-11 00:35 OP:stll STATUS:               ID:20140310200817     3
 ACTION:UPD 14-04-09 23:16 OP:nd   STATUS:               ID:20140310201412 L   I
 OLDACT:UP  14-03-11 01:04 OP:stll STATUS:               ID:20140310200817     3
 2014-03-10-2008-17M.COL___242                                                 6
 STAT SP IPHASW D HRMM SECON CODA AMPLIT PERI AZIMU VELO AIN AR TRES W  DIS CAZ7
 BAR2 SZ EP       2014 31.96                             171    0.1910 22.7 193 
 BAR2 SZ ES       2014 46.55                             171   -0.2610 22.7 193 
 BAR2 SZ I        2014 49.44        64.3 0.38            171           22.7 193 
 BRR  HZ IP     C 2014 33.84                             152    0.4310 72.4 299 
 BRR  HN ES       2014 50.69                             152    0.9610 72.4 299 
 BRR  SZ I        2014 54.90        23.0 0.12            151           72.4 299 
 PAM  SZ IP     C 2014 34.71                             150    0.3010 77.5  39 
 PAM  SN ES       2014 51.80                             150    0.2810 77.5  39 
 RUS  HZ EP       2014 35.80                             144   -0.1010 99.6 177 
 RUS  HN ES       2014 53.44                             144   -0.7210 99.6 177 
 RUS  SZ I        2014 55.80        15.7 0.28            146           99.6 177 
 PTB  HZ EP       2014 38.55                             131   -0.75 9  149 259 
 PTB  HE ES       2015  0.04                             131   -0.17 9  149 259 
 PTB  SZ I        2015  1.62        17.6 0.20            133            149 259 
 SPBC HZ EP       2014 40.95                             128    0.19 9  163 219 
 SPBC HN ES       2015  2.74                             128   -0.08 9  163 219 
 SPBC SZ I        2015  4.31        28.3 0.16            131            163 219 
 ZAR  HE ES       2015 10.11                             122   -0.03 8  205 292 
 NOR  HZ EP       2014 48.10                             118    0.02 8  235 235 
 NOR  HE ES       2015 15.59                             118   -0.26 8  235 235 
 NOR  SZ I        2015 19.71        12.6 0.14            120            235 235 
 SML  HZ EP       2014 48.65                             117   -0.43 8  245 335 
 SML  HE ES       2015 16.46                             117   -1.17 8  245 335 
 SML  SZ I        2015 21.72        24.5 0.08            118            245 335 
 CHI  HZ EP       2014 50.11                             117    0.15 8  248 195 
 CHI  HN ES       2015 19.10                             117   -0.10 8  248 195 
 GUY2CHZ EP       2014 57.20                             112    1.21 7  301 235 
 GUY2CHN ES       2015 30.24                             112    0.31 7  301 235 
 GUY2CSZ I        2015 38.86         8.0 0.78                           301 235 
                                                                                
