 2017  910 2130 58.2 L   6.843 -73.308121.4  RSN 17 0.4 2.1LRSN                1
 GAP= 58        0.91       2.4     2.2  4.5  0.2530E-01  0.3186E+01  0.1632E+01E
 Epicentro: ZAPATOCA - SANTANDER                                               3
 OLDACT:UP  17-09-11 05:25 OP:edw  STATUS:               ID:20170910212740     3
 OLDACT:UP  17-09-11 05:23 OP:edw  STATUS:               ID:20170910212740     3
 OLDACT:REG 17-09-11 04:20 OP:edw  STATUS:               ID:20170910212740     3
 ACTION:UPD 17-10-05 19:10 OP:rebc STATUS:               ID:20170910213058 L   I
 OLDACT:UP  17-09-11 06:40 OP:edw  STATUS:               ID:20170910212741d    3
 OLDACT:UP  17-09-11 06:39 OP:edw  STATUS:               ID:20170910212741d    3
 OLDACT:UP  17-09-11 06:39 OP:edw  STATUS:               ID:20170910212741d    3
 OLDACT:DUP 17-09-11 05:27 OP:edw  STATUS:               ID:20170910212741d    3
 OLDACT:UP  17-09-11 05:26 OP:edw  STATUS:               ID:20170910212740     3
 2017-09-10-2128-00M.COL___413                                                 6
 STAT SP IPHASW D HRMM SECON CODA AMPLIT PERI AZIMU VELO AIN AR TRES W  DIS CAZ7
 BAR2 EZ EP       2131 15.16                             165    0.0310 31.0 153 
 BAR2 EZ ES       2131 28.57                             165    0.2410 31.0 153 
 BAR2 EZ I        2131 29.55       113.9 0.30            165           31.0 153 
 BRR  HZ EP       2131 15.53                             155   -0.1910 53.3 303 
 BRR  HN ES       2131 29.51                             155    0.1210 53.3 303 
 BRR  HZ I        2131 30.49        29.4 0.30            153           53.3 303 
 PAM  EZ EP       2131 17.86                             143   -0.7010 86.7  51 
 PAM  EN ES       2131 34.52                             143    0.0810 86.7  51 
 PAM  EZ I        2131 36.94        14.2 0.32            143           86.7  51 
 RUS  HZ EP       2131 20.27                             136    0.0110  108 167 
 RUS  HN ES       2131 37.45                             136   -0.0210  108 167 
 RUS  HZ I        2131 38.86        15.1 0.28            135            108 167 
 SPBC HZ EP       2131 23.93                             124   -0.35 9  157 213 
 SPBC HN ES       2131 44.45                             124   -0.17 9  157 213 
 SPBC HZ I        2131 48.34        19.3 0.12            123            157 213 
 TAM  HZ EP       2131 25.93                             121   -0.04 9  174 105 
 TAM  HN ES       2131 47.53                             121   -0.11 9  174 105 
 TAM  HZ I        2131 48.96        14.7 0.28            121            174 105 
 ZAR  HZ EP       2131 27.49                             119    0.29 9  186 293 
 ZAR  HN ES       2131 50.43                             119    0.61 9  186 293 
 ZAR  HZ I        2131 52.56        20.1 0.38            118            186 293 
 YPLC HZ EP   4   2131 22.84                             119   -4.92 0  190 147 
 YPLC HN ES       2131 50.71                             119   -0.11 9  190 147 
 YPLC HZ I        2131 54.25        20.5 0.34            118            190 147 
 NOR  HZ EP       2131 31.70                             114    0.33 8  223 231 
 NOR  HN ES       2131 57.06                             114   -0.19 8  223 231 
 NOR  HZ I        2131 59.06         9.2 0.62            113            223 231 
 CHI  HZ EP   1   2131 35.38                             112    0.64 6  249 191 
 CHI  HN ES       2132  4.01                             112    0.76 8  249 191 
 CHI  HZ I        2132  9.33         5.4 0.40            111            249 191 
 HEL  HZ EP       2131 35.90                             111    0.44 8  256 254 
 HEL  HN ES       2132  4.03                             111   -0.49 8  256 254 
 HEL  HZ I        2132  9.67         5.3 0.40            110            256 254 
 GUY2CHZ EP   1   2131 40.17                             108    0.71 5  290 232 
 GUY2CHN ES   4   2132  8.33                             108   -3.32 0  290 232 
 GUY2CHZ I        2132 19.17         5.5 0.46                           290 232 
 ELA  HZ EP   4   2131 45.86                             106    2.91 0  319 227 
 ELA  HN ES       2132 17.77                             106   -0.08 7  319 227 
 ELA  HZ I        2132 26.94         4.7 0.28            105            319 227 
 LL6C HZ EP   1   2131 42.59                             106    0.20 5  320   1 
 LL6C HE ES   1   2132 17.14                             106    0.28 5  320   1 
 DBB  EZ EP   4   2131 40.88                             106   -1.78 0  321 274 
 DBB  EN ES       2132 16.30                             106   -1.04 7  321 274 
 DBB  EZ I        2132 20.64         6.8 0.16            105            321 274 
 PRA  HZ EP   1   2131 51.02                             102    0.54 4  388 207 
 PRA  HN ES       2132 30.34                             102   -0.92 6  388 207 
 PRA  HZ I        2132 36.71         5.2 0.68            101            388 207 
 SJC  HZ EP   4   2131 49.28                             102   -2.16 0  396 329 
 SJC  HN ES   4   2132 28.32                             102   -4.65 0  396 329 
 SJC  HZ I        2132 44.72         1.9 0.42            101            396 329 
                                                                                
