 2013  910 2303 49.2 L   6.804 -73.179146.8  RSN 13 0.4 2.1LRSN                1
 GAP=132        0.73       2.8     3.6  5.3 -0.1209E+01  0.4062E+01  0.2712E+01E
 Epicentro: LOS SANTOS - SANTANDER                                             3
 ACTION:UPD 13-10-22 09:21 OP:ep   STATUS:               ID:20130910230349 L   I
 OLDACT:UP  13-09-10 23:20 OP:mh   STATUS:               ID:20130910225960d    3
 OLDACT:DUP 13-09-10 23:12 OP:mh   STATUS:               ID:20130910225960d    3
 OLDACT:REG 13-09-10 21:14 OP:mh   STATUS:               ID:20130910225959     3
 2013-09-10-2259-59M.COL___269                                                 6
 STAT SP IPHASW D HRMM SECON CODA AMPLIT PERI AZIMU VELO AIN AR TRES W  DIS CAZ7
 BAR2 SZ EP   1   23 4  8.87                             170   -0.12 9 23.4 181 
 BAR2 SZ ES   1   23 4 23.91                             170   -0.49 9 23.4 181 
 BAR2 SZ I        23 4 24.95        33.8 0.22            170           23.4 181 
 BRR  HZ EP   1   23 4 10.63                             154    0.32 9 67.8 300 
 BRR  HN ES   1   23 4 27.67                             154    0.93 9 67.8 300 
 BRR  HZ I        23 4 32.30        17.9 0.32            151           67.8 300 
 PAM  SZ EP   1   23 4 11.91                             150    0.23 9 79.4  42 
 PAM  SN ES   2   23 4 28.54                             150   -0.65 6 79.4  42 
 PAM  SZ I        23 4 31.03        13.3 0.29            155           79.4  42 
 RUS  HZ EP   1   23 4 12.87                             144   -0.27 9  101 174 
 RUS  HN ES   2   23 4 31.91                             144    0.13 6  101 174 
 RUS  HZ I        23 4 32.55        16.7 0.24            146            101 174 
 PTB  HZ EP   1   23 4 15.40                             133   -0.58 9  144 258 
 PTB  HN ES   2   23 4 36.56                             133   -0.27 6  144 258 
 PTB  HZ I        23 4 38.32        17.3 0.12            132            144 258 
 OCA  HZ EP   4   23 4 17.82                             130    0.27 0  159 354 
 OCA  HN ES   1   23 4 39.41                             130   -0.22 8  159 354 
 OCA  HZ I        23 4 43.73        12.1 0.30            131            159 354 
 SPBC HZ EP   1   23 4 17.86                             130    0.23 8  161 218 
 SPBC HN ES   2   23 4 40.69                             130    0.91 6  161 218 
 SPBC HZ I        23 4 46.83        17.9 0.26            130            161 218 
 ZAR  HZ EP   1   23 4 21.68                             123    0.29 8  201 292 
 ZAR  HN ES   1   23 4 46.40                             123   -0.06 8  201 292 
 ZAR  HZ I        23 4 52.08        13.7 0.40            123            201 292 
 NOR  HZ EP   1   23 4 24.70                             119   -0.04 7  232 234 
 NOR  HN ES       23 4 52.52                             119    0.0910  232 234 
 NOR  HZ I        23 4 57.55        10.6 0.24            120            232 234 
 SML  HZ EP   1   23 4 25.86                             118    0.14 7  242 336 
 SML  HN ES   2   23 4 54.15                             118   -0.02 5  242 336 
 SML  HZ I        23 4 58.42        15.8 0.34            119            242 336 
 CHI  HZ EP   1   23 4 27.15                             117    0.21 7  248 194 
 CHI  HN ES   1   23 4 56.49                             117    0.15 7  248 194 
 CHI  HZ I        23 4 59.61         8.7 0.34            119            248 194 
 HEL  HZ EP   4   23 4 30.66                             115    1.53 0  269 256 
 HEL  HN ES       23 4 59.53                             115   -0.71 9  269 256 
 HEL  HZ I        23 5  6.87         6.5 0.28            116            269 256 
 GUY2CHZ EP   4   23 4 32.90                             113    0.31 0  298 234 
 GUY2CHE ES   4   23 5  8.99                             113    2.59 0  298 234 
 PRA  HZ EP       23 4 42.82                             107    0.19 7  391 209 
 PRA  HN ES   2   23 5 23.97                             107   -0.31 4  391 209 
 PRA  HZ I        23 5 32.82         4.6 0.56            108            391 209 
                                                                                
