 2016  710 2015 53.8 L   6.768 -73.154145.8  RSN  6 0.4 1.5LRSN                1
 GAP=234        1.01       5.7     5.9  9.0  0.1360E+02  0.5214E+01 -0.1316E+01E
 Epicentro: LOS SANTOS - SANTANDER                                             3
 ACTION:UPD 17-03-29 16:49 OP:lp   STATUS:               ID:20160710201553 L   I
 OLDACT:UP  16-08-18 22:43 OP:nlst STATUS:               ID:20160710201553 L   3
 OLDACT:DUP 16-07-11 06:26 OP:dani STATUS:               ID:20160710200744d    3
 OLDACT:UP  16-07-11 06:24 OP:dani STATUS:               ID:20160710200743     3
 OLDACT:UP  16-07-11 06:24 OP:dani STATUS:               ID:20160710200743     3
 OLDACT:REG 16-07-11 05:59 OP:dani STATUS:               ID:20160710200743     3
 2016-07-10-2007-43M.COL___326                                                 6
 STAT SP IPHASW D HRMM SECON CODA AMPLIT PERI AZIMU VELO AIN AR TRES W  DIS CAZ7
 BAR2 EZ EP       2016 13.31                             172   -0.0910 19.7 189 
 BAR2 EZ ES       2016 28.38                             172   -0.2810 19.7 189 
 BAR2 EZ I        2016 29.50         8.8 0.22            171           19.7 189 
 BRR  HZ EP     D 2016 15.13                             152    0.0810 72.2 301 
 BRR  HN ES       2016 32.13                             152    0.5410 72.2 301 
 RUS  HZ EP       2016 17.32                             145   -0.0310 97.1 175 
 RUS  HE ES       2016 35.60                             145   -0.0810 97.1 175 
 RUS  HZ I        2016 36.92         4.8 0.34            145           97.1 175 
 PTB  HZ EP   4   2016 17.94                             132   -2.73 0  146 260 
 PTB  HN ES       2016 40.82                             132   -0.78 9  146 260 
 PTB  HZ I        2016 43.35         3.0 0.30            133            146 260 
 SPBC HE ES       2016 44.66                             130    0.65 9  160 220 
 ZAR  HE ES       2016 51.70                             122    0.00 9  205 293 
                                                                                
