 2017  810 2207 16.3 L   6.789 -73.165140.9  RSN  4 0.4 1.2LRSN                1
 GAP=135        0.91       4.8     5.0  9.0  0.5135E+01  0.6328E+01  0.3963E+01E
 Epicentro: LOS SANTOS - SANTANDER                                             3
 ACTION:UPD 17-09-04 20:18 OP:rebc STATUS:               ID:20170810220717 L   I
 OLDACT:UP  17-08-18 21:25 OP:rebc STATUS:               ID:20170810220717 L   3
 OLDACT:UP  17-08-18 16:14 OP:nlst STATUS:               ID:20170810220717 L   3
 OLDACT:UP  17-08-11 06:05 OP:edw  STATUS:               ID:20170810215740     3
 OLDACT:REG 17-08-11 05:14 OP:edw  STATUS:               ID:20170810215740     3
 2017-08-10-2158-00M.COL___414                                                 6
 STAT SP IPHASW D HRMM SECON CODA AMPLIT PERI AZIMU VELO AIN AR TRES W  DIS CAZ7
 BRR  HZ EP       22 7 37.26                             152    0.3710 69.9 300 
 BRR  HN ES       22 7 53.43                             152    0.5110 69.9 300 
 PAM  EZ EP     C 22 7 38.14                             149   -0.0410 79.7  40 
 PAM  EE ES       22 7 54.99                             149   -0.2410 79.7  40 
 PAM  EZ I        22 7 57.25         4.2 0.48            150           79.7  40 
 RUS  HZ EP       22 7 39.66                             143    0.1210 99.5 175 
 RUS  HN ES       22 7 57.37                             143   -0.2610 99.5 175 
 RUS  HZ I        22 7 59.12         2.0 0.34            144           99.5 175 
 ZAR  HN ES       22 8 12.63                             121   -0.62 9  203 293 
                                                                                
