 2011  910 2142  3.9 L   6.083 -73.907 74.6  RSN  4 0.3 1.4LRSN                1
 GAP=268        0.69       9.7    17.0 24.2  0.1345E+03  0.3417E+03  0.1406E+03E
 Epicentro: EL PEON - SANTANDER                                                3
 ACTION:UPD 12-07-13 15:56 OP:ep   STATUS:               ID:20110910214203 L   I
 2011-09-10-2140-00M.COL___171                                                 6
 STAT SP IPHASW D HRMM SECON CODA AMPLIT PERI AZIMU VELO AIN AR TRES W  DIS CAZ7
 RUS  HN ES   1   2142 33.93                             124   -0.20 7 93.6 103 
 RUS  HZ I        2142 39.84         1.9 0.63                          93.6 103 
 BAR2 SZ EP   1   2142 21.61                             122    0.60 7 98.0  55 
 BAR2 SZ ES   1   2142 34.46                             122    0.11 7 98.0  55 
 BAR2 SZ I        2142 35.90        26.3 0.16                          98.0  55 
 BRR  HZ EP   1   2142 22.62                             117    0.06 7  115  11 
 BRR  HZ I        2142 26.26         6.8 0.33                           115  11 
 BRR  HN ES   1   2142 37.02                             117   -0.10 7  115  11 
 GIR2 SZ EP   1   2142 24.47                             113   -0.53 7  135  36 
                                                                                
