 2013  310 2115 41.0 L   6.725 -73.215148.9  RSN  4 0.4 1.4LRSN                1
 GAP=193        0.75       6.6     8.3 10.1  0.2727E+02 -0.7326E+01 -0.9194E+01E
 Epicentro: VILLANUEVA - SANTANDER                                             3
 ACTION:UPD 13-04-09 14:01 OP:ep   STATUS:               ID:20130310211541 L   I
 2013-03-10-2110-00M.COL___231                                                 6
 STAT SP IPHASW D HRMM SECON CODA AMPLIT PERI AZIMU VELO AIN AR TRES W  DIS CAZ7
 BRR  HZ EP   1   2116  2.33                             154   -0.02 7 69.3 308 
 BRR  HE ES   1   2116 19.47                             154    0.44 7 69.3 308 
 BRR  HZ I        2116 23.85         7.1 0.62            156           69.3 308 
 RUS  HZ EP   1   2116  5.00                             147    0.49 7 93.2 171 
 RUS  HN ES   1   2116 22.37                             147   -0.51 7 93.2 171 
 RUS  HZ I        2116 25.17         2.1 0.34            152           93.2 171 
 PTB  HZ EP   1   2116  7.40                             135    0.01 7  139 262 
 PTB  HN ES   1   2116 27.82                             135   -0.19 7  139 262 
 PTB  HZ I        2116 30.89         3.4 0.14            139            139 262 
 SML  HN ES   2   2116 46.44                             117   -0.91 4  248 338 
                                                                                
