 2017  210 2226 46.1 L   6.756 -73.126144.6  RSN  7 0.3 1.9LRSN                1
 GAP=141        0.61       3.5     3.1  4.7 -0.1691E+01  0.3388E+01 -0.5642E+00E
 Epicentro: LOS SANTOS - SANTANDER                                             3
 ACTION:UPD 17-05-24 15:35 OP:jn   STATUS:               ID:20170210222646 L   I
 OLDACT:DUP 17-02-11 05:30 OP:dnl  STATUS:               ID:20170210221746d    3
 2017-02-10-2218-00M.COL___364                                                 6
 STAT SP IPHASW D HRMM SECON CODA AMPLIT PERI AZIMU VELO AIN AR TRES W  DIS CAZ7
 BAR2 EZ EP       2227  5.54                             172    0.0310 19.2 199 
 BAR2 EZ ES       2227 20.56                             172   -0.0910 19.2 199 
 BAR2 EZ I        2227 21.54        24.6 0.28            173           19.2 199 
 BRR  HE ES       2227 24.39                             151    0.4310 75.5 301 
 BRR  HZ I        2227 30.27        17.6 0.32            151           75.5 301 
 PAM  EZ EP       2227  8.49                             150    0.1510 79.8  36 
 PAM  EN ES       2227 25.39                             150   -0.2910 79.8  36 
 PAM  EZ I        2227 27.70        15.3 0.28            152           79.8  36 
 RUS  HZ EP   2   2227  9.87                             145    0.49 5 95.6 177 
 RUS  HN ES       2227 27.49                             145   -0.0510 95.6 177 
 RUS  HZ I        2227 28.72         6.5 0.28            150           95.6 177 
 PTB  HZ EP       2227 12.77                             131   -0.32 9  149 261 
 PTB  HE ES       2227 34.17                             131    0.03 9  149 261 
 PTB  HZ I        2227 35.53        14.0 0.20            134            149 261 
 DBB  EZ EP   2   2227 33.98                             109    0.16 3  342 275 
 DBB  EN ES   2   2228 10.39                             109   -0.66 3  342 275 
 DBB  EZ I        2228 11.71         2.8 0.16            111            342 275 
 SJC  HZ EP   4   2227 40.67                             105   -1.57 0  414 327 
 SJC  HN ES   4   2228 20.89                             105   -5.14 0  414 327 
 SJC  HZ I        2228 25.42         4.1 0.52            107            414 327 
                                                                                
