 2017  810 2314 29.7 L   6.741 -73.075142.9  RSN  4 0.2 1.2LRSN                1
 GAP=148        0.62       3.4     5.3  5.9  0.2047E+01  0.3901E+01  0.3157E+01E
 Epicentro: JORDAN - SANTANDER                                                 3
 ACTION:UPD 17-09-04 20:18 OP:rebc STATUS:               ID:20170810231429 L   I
 OLDACT:REG 17-08-11 05:21 OP:edw  STATUS:               ID:20170810230739     3
 2017-08-10-2308-00M.COL___414                                                 6
 STAT SP IPHASW D HRMM SECON CODA AMPLIT PERI AZIMU VELO AIN AR TRES W  DIS CAZ7
 BAR2 EZ ES       2315  3.62                             172   -0.2710 20.3 216 
 PAM  EN ES       2315  8.82                             150    0.0710 78.1  32 
 BRR  HZ EP       2314 50.81                             149   -0.3010 81.2 300 
 BRR  HN ES       2315  8.10                             149    0.2710 81.2 300 
 RUS  HZ EP       2314 52.86                             145    0.1910 93.9 181 
 RUS  HN ES       2315 10.64                             145    0.0510 93.9 181 
 RUS  HZ I        2315 12.62         2.8 0.42            144           93.9 181 
                                                                                
