 2010  910 2006 20.9 L   6.767 -73.102137.4  RSN  8 0.4 2.0LRSN                1
 GAP=164        0.88       4.9     9.8  8.7 -0.6212E-01 -0.1897E+02 -0.1345E+02E
 Epicentro: LOS SANTOS - SANTANDER                                             3
 ACTION:UP  11-02-18 11:01 OP:tino STATUS:               ID:20100910200620 L   I
 2010-09-10-2002-56S.COL___120                                                 6
 STAT SP IPHASW D HRMM SECON CODA AMPLIT PERI AZIMU VELO SNR AR TRES W  DIS CAZ7
 BAR2 SZ EP   1   20 6 39.21                             171    -0.3 7   21 205 
 BAR2 SZ ES   1   20 6 53.91                             171    -0.1 7   21 205 
 BAR2 SZ I        20 6 54.84        14.1 0.26                            21 205 
 BTL  SZ IP       20 6 39.50                             169     0.010   25 312 
 GIR2 SZ EP   2   20 6 40.32                             165     0.6 5   36 344 
 BRR  HZ EP       20 6 41.08                             149    -0.410   77 299 
 BRR  HZ I        20 6 41.42        26.5 0.10                            77 299 
 BRR  HN ES   1   20 6 57.94                             149     0.3 7   77 299 
 RUS  HZ EP   1   20 6 43.58                             143     0.0 7   97 179 
 RUS  HN ES   1   20 7  1.39                             143     0.2 7   97 179 
 GUE  SZ EP   1   20 6 44.57                             137    -0.5 7  119   9 
 GRA  SZ EP   1   20 6 46.21                             135     0.6 7  128  15 
 GRA  SZ ES   1   20 7  4.57                             135    -0.3 7  128  15 
 GRA  SZ I        20 7  7.85        10.8 0.35                           128  15 
 OCA  SZ EP   1   20 6 49.55                             127     0.6 7  164 352 
 OCA  SZ I        20 7 16.76        15.9 0.48                           164 352 
                                                                                
