 2015  110 2141 27.6 L   6.797 -73.149136.6  RSN  6 0.5 1.6LRSN                1
 GAP=136        1.21       5.6     7.0  8.3  0.6089E+01  0.2914E+00  0.7225E+01E
 Epicentro: LOS SANTOS - SANTANDER                                             3
 ACTION:UPD 15-03-02 15:38 OP:nd   STATUS:               ID:20150110214127 L   I
 OLDACT:REG 15-01-11 06:07 OP:stll STATUS:               ID:20150110213745     3
 2015-01-10-2137-45M.COL___271                                                 6
 STAT SP IPHASW D HRMM SECON CODA AMPLIT PERI AZIMU VELO AIN AR TRES W  DIS CAZ7
 BAR2 EZ ES       2142  0.40                             170   -0.1210 23.0 189 
 BAR2 EZ I        2142  1.90        11.7 0.32            167           23.0 189 
 BRR  HZ EP       2141 47.90                             151    0.1910 71.0 299 
 BRR  HN ES       2142  3.92                             151    0.5010 71.0 299 
 PAM  SZ EP       2141 48.92                             149    0.0910 77.9  40 
 PAM  SZ I        2141 49.16        15.0 0.24            151           77.9  40 
 RUS  HZ EP       2141 49.99                             142   -0.4010  100 176 
 RUS  HN ES       2142  7.97                             142   -0.2410  100 176 
 RUS  HZ I        2142  9.08         3.9 0.42            140            100 176 
 PTB  HZ EP       2141 53.95                             130    0.20 9  147 259 
 PTB  HN ES       2142 13.45                             130   -0.73 9  147 259 
 PTB  HZ I        2142 16.41         4.3 0.10            129            147 259 
 CHI  HZ EP       2142  4.23                             115   -0.49 8  248 195 
 CHI  HN ES       2142 34.90                             115    1.20 8  248 195 
 CHI  HZ I        2142 39.33         1.7 0.26            114            248 195 
                                                                                
