 2013  110 2153 47.2 L   6.755 -73.188143.8  RSN  6 0.4 2.5LRSN                1
 GAP=229        0.92       4.8     5.8  6.1  0.1551E+02  0.8674E+01  0.5485E+01E
 Epicentro: VILLANUEVA - SANTANDER                                             3
 ACTION:UPD 13-02-15 09:13 OP:ep   STATUS:               ID:20130110215347 L   I
 2013-01-10-2150-00M.COL___242                                                 6
 STAT SP IPHASW D HRMM SECON CODA AMPLIT PERI AZIMU VELO AIN AR TRES W  DIS CAZ7
 BAR2 SZ EP       2154  6.39                             173   -0.1110 18.0 178 
 BAR2 SZ ES       2154 21.04                             173   -0.5110 18.0 178 
 BAR2 SZ I        2154 22.45       151.6 0.35            167           18.0 178 
 BRR  HZ IP     D 2154  8.12                             153    0.0610 69.8 304 
 BRR  HE ES       2154 25.05                             153    0.7210 69.8 304 
 BRR  HZ I        2154 28.41        57.6 0.20            151           69.8 304 
 RUS  HZ EP       2154 10.48                             145    0.0510 96.0 173 
 RUS  HN ES       2154 28.62                             145    0.0610 96.0 173 
 RUS  HN I        2154 30.65        56.1 0.23            143           96.0 173 
 PTB  HZ EP       2154 12.99                             133   -0.52 9  142 260 
 PTB  HN ES       2154 33.83                             133   -0.20 9  142 260 
 PTB  HZ I        2154 36.36        34.8 0.16            131            142 260 
 ZAR  HZ EP       2154 19.09                             122   -0.19 9  202 294 
 ZAR  HE ES       2154 44.35                             122    0.05 9  202 294 
 ZAR  HZ I        2154 47.46        30.7 0.24            123            202 294 
 CHI  HZ EP       2154 24.76                             117    0.62 8  243 194 
 CHI  HE ES       2154 53.05                             117    0.11 8  243 194 
 CHI  HZ I        2155  1.94        11.0 0.48            117            243 194 
                                                                                
