 2013  110 2052 52.3 L   6.761 -73.183149.3  RSN  4 0.1 1.7LRSN                1
 GAP=230        0.39       3.7     3.6  3.3  0.6621E+01  0.1940E+01  0.1057E+01E
 Epicentro: VILLANUEVA - SANTANDER                                             3
 ACTION:UPD 13-02-15 09:13 OP:ep   STATUS:               ID:20130110205252 L   I
 2013-01-10-2050-00M.COL___242                                                 6
 STAT SP IPHASW D HRMM SECON CODA AMPLIT PERI AZIMU VELO AIN AR TRES W  DIS CAZ7
 BAR2 SZ EP       2053 12.09                             173   -0.1410 18.7 180 
 BAR2 SZ I        2053 12.53        13.1 0.13            172           18.7 180 
 BAR2 SZ ES       2053 27.68                             173   -0.1310 18.7 180 
 BRR  HZ EP     C 2053 13.85                             154    0.1310 69.9 303 
 BRR  HN ES       2053 30.55                             154    0.0910 69.9 303 
 BRR  HZ I        2053 34.03        14.0 0.48            153           69.9 303 
 RUS  HZ EP   1   2053 16.27                             146    0.18 7 96.7 173 
 RUS  HE ES   1   2053 34.81                             146    0.13 7 96.7 173 
 RUS  HE I        2053 35.97         6.4 0.16            148           96.7 173 
 PTB  HZ EP       2053 18.96                             134   -0.13 9  143 260 
 PTB  HN ES   1   2053 40.00                             134   -0.02 7  143 260 
 PTB  HZ I        2053 42.28         4.7 0.13            134            143 260 
                                                                                
