 2010  310 2329 59.3 L   6.785 -73.038149.0  RSN  6 0.4 1.9LRSN                1
 GAP=247        0.93       5.6    11.2  6.8  0.2747E+02  0.1884E+02  0.1272E+02E
 Epicentro: CEPITA - SANTANDER                                                 3
 ACTION:UP  10-08-24 09:53 OP:vdl  STATUS:               ID:20100310232959 L   I
 2010-03-10-2325-42S.COL___091                                                 6
 STAT SP IPHASW D HRMM SECON CODA AMPLIT PERI AZIMU VELO SNR AR TRES W  DIS CAZ7
 BAR2 SZ EP       2330 19.43                             169     0.010   27 217 
 BAR2 SZ ES       2330 34.77                             169    -0.310   27 217 
 BRR  HZ EP       2330 21.38                             149    -0.110   83 296 
 BRR  HN ES       2330 38.85                             149     0.010   83 296 
 BRR  HZ I        2330 40.50        19.8 0.16                            83 296 
 RUS  BZ EP   1   2330 23.36                             145     0.1 7   99 183 
 RUS  BE ES       2330 42.49                             145     0.510   99 183 
 RUS  BZ I        2330 44.79         7.9 0.28                            99 183 
 CHI  HZ EP       2330 37.45                             118     0.0 8  250 198 
 CHI  HE ES       2331  6.56                             118    -0.5 8  250 198 
 CHI  HZ I        2331 12.92         4.5 0.48                           250 198 
 HEL  HZ EP   1   2330 41.87                             114     0.9 6  283 257 
 HEL  HZ I        2331 18.20         5.6 0.29                           283 257 
 PRA  HZ EP   1   2330 52.82                             107    -0.7 4  397 211 
 PRA  HN ES   2   2331 36.06                             107     0.3 3  397 211 
                                                                                
