 2011  210 2306 12.8 L   6.759 -73.023145.3  RSN  6 0.2 1.7LRSN                1
 GAP=173        0.40       2.9     6.1  4.6 -0.1053E+02  0.1394E+02 -0.3010E+01E
 Epicentro: CEPITA - SANTANDER                                                 3
 ACTION:UP  11-03-28 15:07 OP:jfem STATUS:               ID:20110210230612 L   I
 2011-02-10-2302-52S.COL___136                                                 6
 STAT SP IPHASW D HRMM SECON CODA AMPLIT PERI AZIMU VELO SNR AR TRES W  DIS CAZ7
 BAR2 SZ EP   1   23 6 32.17                             169    -0.2 7   26 224 
 BAR2 SZ ES   1   23 6 47.83                             169     0.1 7   26 224 
 BAR2 SZ I        23 6 48.97        11.0 0.31                            26 224 
 BTL  SZ EP       23 6 32.46                             167    -0.110   32 303 
 RUS  HZ EP   1   23 6 36.21                             145     0.1 7   96 184 
 RUS  HN ES   1   23 6 54.37                             145     0.0 7   96 184 
 RUS  HZ I        23 6 55.68         4.7 0.37                            96 184 
 GRA  SZ EP   2   23 6 38.45                             137     0.4 5  127  11 
 GRA  SZ ES   1   23 6 57.74                             137     0.0 7  127  11 
 GRA  SZ I        23 6 58.66         8.4 0.35                           127  11 
 NOR  SZ EP   2   23 6 49.81                             117     0.4 4  244 237 
 RREF HZ EP   1   23 6 59.67                             110    -0.1 5  329 232 
 RREF HN ES   1   23 7 36.38                             110     0.0 5  329 232 
 RREF HZ I        23 7 43.40         3.2 0.27                           329 232 
                                                                                
