 2016  610 2040 48.1 L   6.546 -73.722 94.0  RSN  9 0.4 1.7LRSN                1
 GAP=104        0.94       3.3     2.8  8.4 -0.3124E+01  0.7485E+01 -0.4117E+01E
 Epicentro: SANTA HELENA DEL OPON - SANTANDER                                  3
 ACTION:UPD 16-07-21 22:17 OP:rebc STATUS:               ID:20160610204048 L   I
 OLDACT:UP  16-06-11 06:35 OP:mh   STATUS:               ID:20160610203741     3
 OLDACT:UP  16-06-11 06:35 OP:mh   STATUS:               ID:20160610203741     3
 OLDACT:REG 16-06-11 06:02 OP:mh   STATUS:               ID:20160610203741     3
 2016-06-10-2037-41M.COL___343                                                 6
 STAT SP IPHASW D HRMM SECON CODA AMPLIT PERI AZIMU VELO AIN AR TRES W  DIS CAZ7
 BAR2 EZ EP       2041  3.87                             145    0.4010 59.9  85 
 BAR2 EZ ES       2041 15.99                             145    0.5410 59.9  85 
 BAR2 EZ I        2041 18.02        26.5 0.23                          59.9  85 
 PTB  HZ IP     D 2041  4.49                             136   -0.3510 81.2 270 
 PTB  HN ES       2041 17.38                             136   -0.5010 81.2 270 
 PTB  HZ I        2041 19.25        12.9 0.10                          81.2 270 
 RUS  HZ EP   1   2041  7.11                             130   -0.18 7  101 136 
 RUS  HN ES       2041 21.77                             130   -0.4610  101 136 
 RUS  HZ I        2041 23.00         6.9 0.18                           101 136 
 SPBC HZ EP       2041  7.08                             128   -0.1610  106 201 
 SPBC HN ES   1   2041 22.39                             128    0.24 7  106 201 
 SPBC HZ I        2041 25.58        17.6 0.24                           106 201 
 PAM  EZ EP   4   2041  5.68                             119   -5.87 0  143  52 
 PAM  EN ES       2041 29.91                             119    0.08 9  143  52 
 PAM  EZ I        2041 31.66         9.8 0.44                           143  52 
 NOR  HZ EP   1   2041 13.69                             115    0.04 7  167 230 
 NOR  HN ES   1   2041 33.74                             115    0.18 7  167 230 
 NOR  HZ I        2041 38.83         6.8 0.12                           167 230 
 OCA  HN ES       2041 38.64                             112   -0.24 9  192  13 
 HEL  HE ES       2041 42.40                             110    0.71 9  204 259 
 GUY2CHZ EP   4   2041 23.29                             108    1.47 0  233 231 
 GUY2CHN ES   4   2041 49.83                             108    1.73 0  233 231 
 GUY2CHZ I        2041 53.69         4.5 0.36                           233 231 
                                                                                
