 2013  610 2114 25.2 L   6.779 -73.132152.0  RSN  4 0.4 1.4LRSN                1
 GAP=237        1.09       7.3     7.4  9.6  0.1366E+02  0.8299E+01  0.1016E+02E
 Epicentro: LOS SANTOS - SANTANDER                                             3
 ACTION:UPD 14-01-08 09:53 OP:ep   STATUS:               ID:20130610211425 L   I
 OLDACT:DUP 13-06-10 22:12 OP:nd   STATUS:               ID:20130610210960d    3
 OLDACT:REG 13-06-10 21:27 OP:nd   STATUS:               ID:20130610210959     3
 2013-06-10-2109-59M.COL___261                                                 6
 STAT SP IPHASW D HRMM SECON CODA AMPLIT PERI AZIMU VELO AIN AR TRES W  DIS CAZ7
 BRR  HZ EP       2114 47.35                             153    0.2210 73.7 300 
 BRR  HN ES       2115  4.63                             153    0.3810 73.7 300 
 BRR  HZ I        2115  8.06         3.9 0.44            154           73.7 300 
 RUS  HZ EP       2114 49.20                             146   -0.1610 98.1 177 
 RUS  HN ES       2115  8.18                             146   -0.0610 98.1 177 
 RUS  HZ I        2115 10.79         2.6 0.32            147           98.1 177 
 PTB  HZ EP       2114 52.24                             133   -0.50 9  149 260 
 PTB  HN ES       2115 13.48                             133   -0.77 9  149 260 
 PTB  HZ I        2115 15.46         3.3 0.12            135            149 260 
 NOR  HZ EP       2115  1.71                             120    0.46 8  235 235 
 NOR  HN ES       2115 30.03                             120    0.64 8  235 235 
 NOR  HZ I        2115 33.11         2.7 0.24            122            235 235 
                                                                                
