 2011  310 2302  0.8 L   6.839 -72.990140.0  RSN  6 0.4 2.1LRSN                1
 GAP=176        0.97       4.2    16.2  7.4 -0.4143E+02  0.2097E+02 -0.1899E+01E
 Epicentro: CEPITA - SANTANDER                                                 3
 ACTION:UP  11-06-16 14:32 OP:jfem STATUS:               ID:20110310230200 L   I
 2011-03-10-2259-58S.COL___135                                                 6
 STAT SP IPHASW D HRMM SECON CODA AMPLIT PERI AZIMU VELO SNR AR TRES W  DIS CAZ7
 BAR2 SZ EP   1   23 2 20.31                             165     0.3 7   35 218 
 BAR2 SZ ES       23 2 35.08                             165     0.010   35 218 
 BAR2 SZ I        23 2 36.93        35.0 0.27                            35 218 
 RUS  HZ EP   1   23 2 24.70                             141     0.4 7  105 186 
 RUS  HE ES   1   23 2 42.75                             141     0.1 7  105 186 
 RUS  HZ I        23 2 44.80        15.7 0.31                           105 186 
 GRA  SZ EP       23 2 25.17                             138     0.310  117  10 
 GRA  SZ I        23 2 26.36        23.1 0.28                           117  10 
 GRA  SZ ES       23 2 42.80                             138    -0.810  117  10 
 OCA  SZ EP       23 2 28.71                             128     0.2 9  159 347 
 OCA  SZ ES   1   23 2 50.59                             128     0.4 7  159 347 
 OCA  SZ I        23 2 54.91        24.0 0.21                           159 347 
 CHI  HZ EP   1   23 2 39.26                             115     0.1 6  258 199 
 CHI  HE ES   1   23 3  8.59                             115    -0.5 6  258 199 
 CHI  HZ I        23 3 15.45         6.3 0.38                           258 199 
 PRA  HZ EP   1   23 2 55.05                             105    -0.5 4  404 211 
 PRA  HE ES   1   23 3 37.99                             105    -0.3 4  404 211 
                                                                                
