 2010  910 2219 30.7 L   6.779 -73.067141.8  RSN  6 0.3 1.8LRSN                1
 GAP=168        0.67       3.7     9.0  7.2  0.7931E+01 -0.1664E+02 -0.8128E+01E
 Epicentro: LOS SANTOS - SANTANDER                                             3
 ACTION:UP  11-02-18 11:01 OP:tino STATUS:               ID:20100910221930 L   I
 2010-09-10-2215-17S.COL___120                                                 6
 STAT SP IPHASW D HRMM SECON CODA AMPLIT PERI AZIMU VELO SNR AR TRES W  DIS CAZ7
 BAR2 SZ EP   1   2219 49.59                             170    -0.3 7   24 212 
 BAR2 SZ ES   1   2220  4.65                             170    -0.2 7   24 212 
 BAR2 SZ I        2220  7.03        16.7 0.25                            24 212 
 GIR2 SZ EP   2   2219 51.02                             165     0.9 5   36 337 
 BRR  HZ IP     C 2219 51.96                             149     0.010   80 297 
 BRR  HE ES   1   2220  8.79                             149     0.2 7   80 297 
 RUS  HZ EP   1   2219 53.90                             144     0.0 7   98 181 
 RUS  HE ES   1   2220 12.05                             144     0.1 7   98 181 
 RUS  HZ I        2220 13.98         4.5 0.33                            98 181 
 GRA  SZ EP   2   2219 55.74                             136     0.1 5  126  13 
 GRA  SZ ES   2   2220 15.42                             136     0.4 5  126  13 
 GRA  SZ I        2220 16.57        12.8 0.34                           126  13 
 OCA  SZ EP   1   2219 59.10                             128     0.0 7  164 350 
 OCA  SZ ES   1   2220 20.76                             128    -0.4 7  164 350 
 OCA  SZ I        2220 21.61        11.0 0.30                           164 350 
                                                                                
