 2014  610 2245 23.5 L   6.806 -73.121134.9  RSN  5 0.5 1.5LRSN                1
 GAP=139        1.28       6.6     6.4  9.5 -0.4354E+01  0.7844E+01  0.5081E+01E
 Epicentro: LOS SANTOS - SANTANDER                                             3
 ACTION:UPD 14-07-01 22:52 OP:nd   STATUS:               ID:20140610224523 L   I
 OLDACT:REG 14-06-11 04:04 OP:stll STATUS:               ID:20140610223816     3
 2014-06-10-2238-16M.COL___259                                                 6
 STAT SP IPHASW D HRMM SECON CODA AMPLIT PERI AZIMU VELO AIN AR TRES W  DIS CAZ7
 BAR2 SZ EP       2245 41.81                             169   -0.0110 24.5 196 
 BAR2 SZ ES       2245 55.80                             169   -0.3310 24.5 196 
 BAR2 SZ I        2245 58.45        10.9 0.26            170           24.5 196 
 BRR  HZ EP   1   2245 43.82                             150    0.24 7 73.3 297 
 BRR  HN ES       2246  0.07                             150    0.8010 73.3 297 
 BRR  HZ I        2246  1.26         9.1 0.42            150           73.3 297 
 PAM  SZ EP       2245 44.73                             149    0.3310 75.2  38 
 PAM  SN ES       2246  0.19                             149   -0.5410 75.2  38 
 PAM  SZ I        2246  4.57         7.2 0.44            152           75.2  38 
 RUS  HZ EP       2245 45.79                             141   -0.4110  101 178 
 RUS  HN ES       2246  4.51                             141    0.5810  101 178 
 RUS  HZ I        2246  5.40         2.2 0.22            145            101 178 
 PTB  HZ EP       2245 50.03                             129    0.19 9  151 259 
 PTB  HN ES       2246  9.57                             129   -0.83 9  151 259 
 PTB  HZ I        2246 15.37         3.3 0.40            131            151 259 
                                                                                
