 2014  310 2021 12.8 L   6.748 -73.166143.3  RSN  5 0.3 1.6LRSN                1
 GAP=136        0.83       4.4     4.2  6.1 -0.1652E+01  0.3187E+01  0.9236E+00E
 Epicentro: VILLANUEVA - SANTANDER                                             3
 OLDACT:REG 14-03-11 00:35 OP:stll STATUS:               ID:20140310201818     3
 ACTION:UPD 14-04-09 23:16 OP:nd   STATUS:               ID:20140310202112 L   I
 OLDACT:UP  14-03-11 01:12 OP:stll STATUS:               ID:20140310201818     3
 2014-03-10-2018-18M.COL___243                                                 6
 STAT SP IPHASW D HRMM SECON CODA AMPLIT PERI AZIMU VELO AIN AR TRES W  DIS CAZ7
 BAR2 SZ EP       2021 31.92                             173   -0.1210 17.4 186 
 BAR2 SZ ES       2021 47.01                             173   -0.0310 17.4 186 
 BAR2 SZ I        2021 48.23        12.8 0.38            172           17.4 186 
 BRR  HZ EP       2021 34.05                             152    0.2910 72.3 303 
 BRR  HE ES       2021 50.60                             152    0.5010 72.3 303 
 BRR  SZ I        2021 54.14        10.4 0.34            151           72.3 303 
 PAM  SZ EP       2021 35.32                             148    0.1910 83.2  38 
 PAM  SN ES       2021 52.08                             148   -0.4610 83.2  38 
 RUS  HZ EP       2021 35.83                             145   -0.1010 95.1 174 
 RUS  HN ES       2021 54.19                             145    0.2310 95.1 174 
 RUS  SZ I        2021 56.15         3.8 0.40            147           95.1 174 
 PTB  HZ EP       2021 39.26                             132   -0.03 9  145 261 
 PTB  HN ES       2021 59.40                             132   -0.55 9  145 261 
 PTB  HZ I        2022  3.83         4.5 0.16            132            145 261 
                                                                                
