 2013  910 2334 48.9 L   6.842 -73.331131.9  RSN  5 0.3 1.2LRSN                1
 GAP=186        0.55       3.2     4.6  7.7  0.7603E+01 -0.5938E+01 -0.1275E+02E
 Epicentro: ZAPATOCA - SANTANDER                                               3
 ACTION:UPD 13-10-22 09:21 OP:ep   STATUS:               ID:20130910233448 L   I
 OLDACT:UP  13-09-10 23:22 OP:mh   STATUS:               ID:20130910232959     3
 OLDACT:REG 13-09-10 21:16 OP:mh   STATUS:               ID:20130910232959     3
 2013-09-10-2329-59M.COL___269                                                 6
 STAT SP IPHASW D HRMM SECON CODA AMPLIT PERI AZIMU VELO AIN AR TRES W  DIS CAZ7
 BRR  HZ EP   1   2335  7.64                             157    0.11 8 51.3 305 
 BRR  HN ES   2   2335 21.66                             157   -0.37 5 51.3 305 
 RUS  HZ EP   1   2335 12.26                             139    0.28 7  108 165 
 RUS  HE ES       2335 29.88                             139   -0.0710  108 165 
 RUS  HZ I        2335 31.29         1.2 0.54            140            108 165 
 PTB  HZ EP   1   2335 12.56                             133   -0.51 7  129 255 
 PTB  HN ES   1   2335 32.25                             133    0.36 7  129 255 
 PTB  HZ I        2335 34.36         3.2 0.20            131            129 255 
 ZAR  HN ES   2   2335 41.07                             122   -0.23 4  183 293 
 ZAR  HZ I        2335 45.78         3.2 0.28            122            183 293 
 SML  HZ EP   1   2335 23.37                             116   -0.11 6  232 339 
 SML  HN ES       2335 50.59                             116    0.16 8  232 339 
                                                                                
