 2011  910 2129  7.4 L   5.863 -73.879 95.0  RSN  4 0.2 1.6LRSN                1
 GAP=280        0.43       6.0    12.2 13.8  0.5885E+02  0.1485E+03  0.5537E+02E
 Epicentro: SUCRE - SANTANDER                                                  3
 ACTION:UPD 12-07-13 15:56 OP:ep   STATUS:               ID:20110910212907 L   I
 2011-09-10-2120-00M.COL___171                                                 6
 STAT SP IPHASW D HRMM SECON CODA AMPLIT PERI AZIMU VELO AIN AR TRES W  DIS CAZ7
 RUS  HZ EP   1   2129 25.73                             134    0.30 7 88.1  88 
 RUS  HZ I        2129 25.98         4.3 0.22                          88.1  88 
 RUS  HN ES   1   2129 39.29                             134   -0.23 7 88.1  88 
 BAR2 SZ EP   1   2129 27.30                             127    0.02 7  112  44 
 BAR2 SZ ES   1   2129 42.96                             127    0.15 7  112  44 
 BAR2 SZ I        2129 44.21        20.6 0.49                           112  44 
 BRR  HZ EP   1   2129 29.66                             120   -0.12 7  139   8 
 BRR  HN ES   1   2129 47.30                             120    0.05 7  139   8 
 BRR  HZ I        2129 49.92         7.4 0.27                           139   8 
 GIR2 SZ EP   1   2129 31.45                             117   -0.19 7  154  29 
                                                                                
