 2013  210 2313 42.6 L   6.804 -73.195135.7  RSN 10 0.4 2.0LRSN                1
 GAP=130        0.85       3.5     4.5  7.3 -0.3988E+01  0.1569E+02 -0.4482E+01E
 Epicentro: ZAPATOCA - SANTANDER                                               3
 ACTION:UPD 13-03-12 09:32 OP:ep   STATUS:               ID:20130210231342 L   I
 2013-02-10-2310-00M.COL___241                                                 6
 STAT SP IPHASW D HRMM SECON CODA AMPLIT PERI AZIMU VELO AIN AR TRES W  DIS CAZ7
 BAR2 SZ EP   1   2314  1.05                             170   -0.02 7 23.5 177 
 BAR2 SZ ES   1   2314 15.84                             170    0.40 7 23.5 177 
 BAR2 SZ I        2314 16.84        66.4 0.18            170           23.5 177 
 BRR  HZ EP   1   2314  2.89                             152    0.47 7 66.2 300 
 BRR  HN ES   4   2314 19.71                             152    1.86 0 66.2 300 
 BRR  HZ I        2314 21.52        18.0 0.18            150           66.2 300 
 PAM  SZ EP       2314  4.13                             148    0.1210 80.6  43 
 PAM  SN ES   1   2314 20.58                             148   -0.09 7 80.6  43 
 PAM  SZ I        2314 23.27        17.0 0.62            153           80.6  43 
 RUS  HZ EP       2314  5.06                             141   -0.4310  102 173 
 RUS  HN ES   1   2314 23.48                             141    0.17 7  102 173 
 PTB  HZ EP   1   2314  7.90                             131   -0.42 7  142 258 
 PTB  HN ES   1   2314 27.63                             131   -0.71 7  142 258 
 PTB  HZ I        2314 31.86        15.0 0.12            131            142 258 
 OCA  HN ES   1   2314 30.99                             127   -0.51 7  159 355 
 OCA  HZ I        2314 34.47         8.9 0.44            130            159 355 
 ZAR  HZ EP   1   2314 14.21                             121    0.31 6  199 293 
 NOR  HZ EP   1   2314 17.03                             117   -0.32 6  231 234 
 NOR  HN ES   1   2314 45.03                             117    0.60 6  231 234 
 NOR  HZ I        2314 49.30         5.4 0.18            119            231 234 
 SML  HZ EP   1   2314 18.23                             115   -0.20 6  241 336 
 SML  HN ES   1   2314 46.83                             115    0.48 6  241 336 
 HEL  HZ EP   1   2314 22.84                             113    1.06 6  267 255 
 HEL  HE ES   1   2314 52.01                             113   -0.29 6  267 255 
 HEL  HZ I        2314 59.83         5.1 0.42            115            267 255 
                                                                                
