 2013  110 2114 46.0 L   6.801 -73.117145.3  RSN  7 0.3 2.4LRSN                1
 GAP=186        0.73       2.9     4.2  4.9  0.3860E+01  0.1399E+01  0.1121E+01E
 Epicentro: LOS SANTOS - SANTANDER                                             3
 ACTION:UPD 13-02-15 09:13 OP:ep   STATUS:               ID:20130110211446 L   I
 2013-01-10-2110-00M.COL___242                                                 6
 STAT SP IPHASW D HRMM SECON CODA AMPLIT PERI AZIMU VELO AIN AR TRES W  DIS CAZ7
 BAR2 SZ EP       2115  5.75                             170    0.1810 24.1 197 
 BAR2 SZ ES       2115 20.71                             170   -0.1410 24.1 197 
 BAR2 SZ I        2115 22.16       106.0 0.28            166           24.1 197 
 BRR  HZ IP     C 2115  7.54                             151    0.3010 74.0 297 
 BRR  HE ES       2115 24.30                             151    0.4810 74.0 297 
 BRR  HZ I        2115 27.98        33.1 0.15            149           74.0 297 
 RUS  HZ EP       2115  9.78                             144    0.1010  100 178 
 RUS  HN ES       2115 27.82                             144   -0.3410  100 178 
 RUS  HN I        2115 30.20        56.2 0.43            143            100 178 
 PTB  HZ EP       2115 12.66                             131   -0.54 9  151 259 
 PTB  HE ES       2115 34.24                             131   -0.19 9  151 259 
 PTB  HZ I        2115 36.86        27.2 0.15            129            151 259 
 OCA  HZ EP   1   2115 14.12                             129   -0.17 7  161 352 
 OCA  HN ES   1   2115 36.07                             129   -0.30 7  161 352 
 ZAR  HN ES       2115 44.18                             122   -0.04 8  207 292 
 ZAR  HZ I        2115 50.29        27.9 0.20            121            207 292 
 CHI  HZ EP       2115 24.05                             117    0.30 8  250 196 
 CHI  HN ES       2115 53.42                             117    0.20 8  250 196 
 CHI  HZ I        2116  0.67         9.0 0.46            117            250 196 
                                                                                
