 2012  610 2302 16.5 L   6.682 -73.262131.8  RSN  5 0.3 1.4LRSN                1
 GAP=201        0.63       6.1     5.2  8.3  0.1525E+02  0.2111E+02  0.6490E+01E
 Epicentro: BARICHARA - SANTANDER                                              3
 ACTION:UPD 12-08-06 17:48 OP:ep   STATUS:               ID:20120610230216 L   I
 2012-06-10-2300-00M.COL___201                                                 6
 STAT SP IPHASW D HRMM SECON CODA AMPLIT PERI AZIMU VELO AIN AR TRES W  DIS CAZ7
 BAR2 SZ ES   1   23 2 48.29                             174    0.15 7 13.3 138 
 RUS  HZ EP   1   23 2 37.82                             144   -0.26 7 89.5 167 
 RUS  HE ES   1   23 2 55.03                             144    0.12 7 89.5 167 
 RUS  HZ I        23 2 58.12         3.0 0.31            150           89.5 167 
 PTB  HZ EP   1   23 2 41.07                             132    0.08 7  133 263 
 PTB  HE ES   1   23 2 59.48                             132   -0.61 7  133 263 
 PTB  HZ I        23 3  4.25         3.0 0.17            134            133 263 
 ZAR  HN ES   1   23 3 11.80                             120    0.28 6  198 297 
 ZAR  HZ I        23 3 17.82         4.6 0.33            122            198 297 
 NOR  SE ES   1   23 3 15.61                             117    0.39 6  217 235 
                                                                                
