 2010 1010 2108  1.9 L   6.812 -73.119144.5  RSN 10 0.4 2.1LRSN                1
 GAP=179        0.85       5.3     9.3  8.8 -0.3100E+02 -0.2254E+02  0.1993E+02E
 Epicentro: LOS SANTOS - SANTANDER                                             3
 ACTION:UP  11-02-18 11:08 OP:tino STATUS:               ID:20101010210801 L   I
 2010-10-10-2104-49S.COL___121                                                 6
 STAT SP IPHASW D HRMM SECON CODA AMPLIT PERI AZIMU VELO SNR AR TRES W  DIS CAZ7
 BTL  SZ IP       21 8 22.06                             172     0.710   20 306 
 BAR2 SZ EP   1   21 8 21.22                             169    -0.2 7   25 196 
 BAR2 SZ ES   2   21 8 36.89                             169     0.2 5   25 196 
 BAR2 SZ I        21 8 37.85        28.8 0.21                            25 196 
 BRR  HZ EP       21 8 22.94                             151    -0.110   73 297 
 BRR  HZ I        21 8 25.16        55.2 0.14                            73 297 
 BRR  HN ES   1   21 8 39.47                             151     0.0 7   73 297 
 GUE  SZ EP       21 8 26.47                             140     0.110  115  11 
 GRA  SZ EP   1   21 8 26.98                             137     0.1 7  124  16 
 GRA  SZ ES   1   21 8 45.39                             137    -0.9 7  124  16 
 GRA  SZ I        21 8 48.72        10.0 0.22                           124  16 
 OCA  SZ EP   2   21 8 30.12                             129     0.1 5  159 352 
 OCA  SZ ES   2   21 8 52.06                             129     0.1 5  159 352 
 OCA  SZ I        21 8 56.02        26.0 0.29                           159 352 
 NOR  SZ EP   2   21 8 37.67                             118    -0.2 4  238 235 
 NOR  SE ES   2   21 9  5.78                             118    -0.2 4  238 235 
 CHI  HZ EP   1   21 8 39.48                             116    -0.3 6  251 196 
 CHI  HN ES   2   21 9  8.65                             116    -0.6 4  251 196 
 CHI  HZ I        21 9 16.86         5.4 0.32                           251 196 
 ROSC BZ EP   2   21 8 40.65                             116     0.4 4  255 211 
 ROSC BZ I        21 8 43.03         8.8 0.24                           255 211 
 ROSC BE ES   2   21 9 10.45                             116     0.3 4  255 211 
 PRA  HZ EP   2   21 8 54.89                             106    -0.8 3  395 210 
 PRA  HN ES   2   21 9 37.40                             106    -0.2 3  395 210 
                                                                                
