 2017  810 2151  0.5 L   6.800 -73.060148.8  RSN 13 0.5 2.2LRSN                1
 GAP=127        1.04       3.9     5.3  5.4 -0.5432E+01  0.4862E+01  0.6583E+01E
 Epicentro: LOS SANTOS - SANTANDER                                             3
 ACTION:UPD 17-09-04 20:18 OP:rebc STATUS:               ID:20170810215100 L   I
 OLDACT:UP  17-08-11 06:00 OP:edw  STATUS:               ID:20170810214741     3
 OLDACT:UP  17-08-11 05:59 OP:edw  STATUS:               ID:20170810214741     3
 OLDACT:REG 17-08-11 05:13 OP:edw  STATUS:               ID:20170810214741     3
 2017-08-10-2148-00M.COL___414                                                 6
 STAT SP IPHASW D HRMM SECON CODA AMPLIT PERI AZIMU VELO AIN AR TRES W  DIS CAZ7
 BAR2 EZ EP     D 2151 20.51                             169   -0.0710 26.7 210 
 BAR2 EZ ES       2151 36.23                             169    0.0110 26.7 210 
 BAR2 EZ I        2151 37.07        47.8 0.18            166           26.7 210 
 PAM  EZ EP     C 2151 23.38                             153    0.6510 71.7  34 
 PAM  EN ES       2151 40.61                             153    0.5610 71.7  34 
 PAM  EZ I        2151 42.58        24.6 0.56            157           71.7  34 
 BRR  HZ EP       2151 21.79                             150   -0.6910 79.6 295 
 BRR  HN ES       2151 39.15                             150   -0.4510 79.6 295 
 RUS  HZ EP     C 2151 24.40                             144   -0.1510  100 181 
 RUS  HN ES       2151 42.97                             144   -0.3210  100 181 
 RUS  HZ I        2151 44.53        14.5 0.24            144            100 181 
 ZAR  HZ EP       2151 33.83                             122   -0.23 8  213 291 
 ZAR  HE ES   4   2151 58.67                             122   -1.55 0  213 291 
 ZAR  HZ I        2152  3.63        12.3 0.28            121            213 291 
 TABC EZ EP       2151 37.55                             119    0.58 8  235 213 
 TABC EZ ES   4   2152  7.38                             119    1.97 0  235 213 
 TABC EZ I        2152  8.95        14.5 0.68            119            235 213 
 NOR  HZ EP   9   2151 36.06                             118   -1.19 0  242 236 
 NOR  HN ES       2152  4.64                             118   -0.07 8  242 236 
 NOR  HZ I        2152 13.77         7.2 0.44            118            242 236 
 CHI  HZ EP       2151 38.76                             117    0.09 8  251 197 
 CHI  HN ES       2152  8.08                             117   -0.35 8  251 197 
 CHI  HZ I        2152 11.43         9.5 0.58            118            251 197 
 ROSC BN ES       2152 10.05                             117    0.42 8  258 213 
 PTGC HZ IP     C 2151 43.55                             112   -0.59 7  305 160 
 PTGC HN ES   4   2152 15.07                             112   -3.09 0  305 160 
 GUY2CHZ EP       2151 45.03                             112   -0.11 7  309 236 
 GUY2CHN ES       2152 20.96                             112    1.02 7  309 236 
 GUY2CHZ I        2152 26.69         6.2 0.34                           309 236 
 ELA  HN ES   4   2152 28.21                             110    2.60 0  336 231 
 PRA  HZ EP       2151 54.32                             107   -0.38 6  397 211 
 PRA  HN ES   4   2152 35.44                             107   -1.52 0  397 211 
 PRA  HZ I        2152 42.53         8.4 0.70            107            397 211 
 ORTC HZ EP       2151 54.94                             106   -0.26 6  401 217 
 ORTC HN ES       2152 38.47                             106    0.62 6  401 217 
 ORTC HZ I        2152 43.81         4.0 0.40            107            401 217 
                                                                                
