 2017  810 2033 25.2 L   6.815 -73.145150.8  RSN 17 0.3 2.2LRSN                1
 GAP=136        0.75       2.1     3.0  3.7 -0.1045E+01  0.3748E+01 -0.1900E+00E
 Epicentro: LOS SANTOS - SANTANDER                                             3
 ACTION:UPD 17-09-04 20:18 OP:rebc STATUS:               ID:20170810203325 L   I
 OLDACT:UP  17-08-11 05:46 OP:edw  STATUS:               ID:20170810202738     3
 OLDACT:UP  17-08-11 05:43 OP:edw  STATUS:               ID:20170810202738     3
 OLDACT:REG 17-08-11 03:32 OP:edw  STATUS:               ID:20170810202738     3
 2017-08-10-2028-00M.COL___414                                                 6
 STAT SP IPHASW D HRMM SECON CODA AMPLIT PERI AZIMU VELO AIN AR TRES W  DIS CAZ7
 BAR2 HZ IP     C 2033 45.41                             170   -0.0210 25.0 190 
 BAR2 HZ ES       2034  0.72                             170   -0.5210 25.0 190 
 BAR2 HZ I        2034  1.90        47.8 0.18            168           25.0 190 
 BRR  HZ IP     D 2033 47.09                             153    0.2710 70.5 297 
 BRR  HN ES       2034  4.15                             153    0.4410 70.5 297 
 PAM  EZ EP     C 2033 48.27                             152    0.4310 76.0  40 
 PAM  EN ES       2034  5.46                             152   -0.0610 76.0  40 
 PAM  EZ I        2034  7.75        26.5 0.60            156           76.0  40 
 RUS  HZ EP       2033 49.57                             144    0.0410  102 176 
 RUS  HN ES       2034  8.32                             144   -0.2210  102 176 
 RUS  HZ I        2034  9.04        15.1 0.28            145            102 176 
 SPBC HZ EP       2033 54.26                             130    0.08 9  165 219 
 SPBC HN ES       2034 16.53                             130   -0.28 9  165 219 
 SPBC HZ I        2034 18.73        22.4 0.26            129            165 219 
 ZAR  HZ EP       2033 57.65                             123   -0.24 9  204 292 
 ZAR  HN ES       2034 23.86                             123    0.45 9  204 292 
 ZAR  HZ I        2034 29.59        27.0 0.64            122            204 292 
 TABC EZ EP   4   2034  2.79                             120    1.42 0  231 211 
 TABC EZ ES   4   2034 27.82                             120   -1.80 0  231 211 
 NOR  HZ EP       2034  1.37                             119    0.07 8  236 234 
 NOR  HN ES       2034 29.84                             119    0.35 8  236 234 
 NOR  HZ I        2034 34.72         8.4 0.26            119            236 234 
 CHI  HZ EP       2034  3.68                             118    0.36 8  250 195 
 CHI  HN ES       2034 32.95                             118   -0.14 8  250 195 
 CHI  HZ I        2034 34.98         9.1 0.36            118            250 195 
 HEL  HZ EP   4   2034  8.22                             116    2.53 0  273 255 
 HEL  HN ES   4   2034 40.05                             116    2.75 0  273 255 
 HEL  HZ I        2034 43.48         8.1 0.28            115            273 255 
 URE  HZ EP   4   2034 10.21                             114    3.79 0  283 292 
 URE  HN ES   4   2034 36.86                             114   -1.74 0  283 292 
 URE  HZ I        2034 47.24        11.7 0.32            114            283 292 
 GUY2CHZ EP   4   2034 10.66                             113    1.53 0  302 235 
 GUY2CHN ES   4   2034 45.49                             113    2.07 0  302 235 
 GUY2CHZ I        2034 51.66         5.0 0.60                           302 235 
 LL6C HZ EP       2034 10.63                             111   -0.26 7  323 358 
 LL6C HN ES       2034 46.11                             111   -0.45 7  323 358 
 ELA  HZ EP   4   2034 15.26                             111    2.90 0  330 229 
 ELA  HN ES   1   2034 49.11                             111   -0.07 5  330 229 
 ELA  HZ I        2034 57.06         5.2 0.42            111            330 229 
 DBB  EZ EP       2034 12.88                             110    0.04 7  339 274 
 DBB  EN ES       2034 49.25                             110   -0.79 7  339 274 
 DBB  EZ I        2034 52.75         2.9 0.14            110            339 274 
 PRA  HZ EP       2034 19.46                             107    0.42 6  394 209 
 PRA  HN ES       2035  0.90                             107   -0.16 6  394 209 
 PRA  HZ I        2035  6.08         8.8 0.42            107            394 209 
 ORTC HZ EP   2   2034 19.68                             107    0.26 3  397 216 
 ORTC HN ES   4   2035  2.89                             107    1.14 0  397 216 
 ORTC HZ I        2035  8.94         6.1 0.62            107            397 216 
 SJC  HZ EP       2034 20.10                             106   -0.63 6  408 327 
 SJC  HN ES   4   2034 59.39                             106   -4.69 0  408 327 
 SJC  HZ I        2035  8.49         3.6 0.74            107            408 327 
                                                                                
