 2011 1210 2359 10.7 L   6.777 -73.131141.0  RSN  6 0.2 1.4LRSN                1
 GAP=139        0.47       3.5     4.8  5.6 -0.3580E+01  0.7431E+01 -0.4207E+01E
 Epicentro: LOS SANTOS - SANTANDER                                             3
 ACTION:UPD 12-07-13 16:15 OP:ep   STATUS:               ID:20111210235910 L   I
 2011-12-10-2350-00M.COL___186                                                 6
 STAT SP IPHASW D HRMM SECON CODA AMPLIT PERI AZIMU VELO AIN AR TRES W  DIS CAZ7
 BAR2 SZ ES   2   2359 43.93                             171   -0.65 5 21.2 196 
 GIR2 SZ EP       2359 29.81                             166   -0.1110 34.1 348 
 BRR  HZ EP       2359 31.56                             151    0.0310 73.9 300 
 BRR  HZ I        2359 31.97        13.6 0.32                          73.9 300 
 BRR  HE ES   2   2359 48.06                             151    0.32 5 73.9 300 
 PAM  SZ EP       2359 32.61                             150    0.1010 78.4  37 
 PAM  SE ES   1   2359 49.50                             150    0.01 7 78.4  37 
 RUS  HZ EP   2   2359 33.56                             143   -0.27 5 97.9 177 
 RUS  HE ES   1   2359 52.09                             143    0.26 7 97.9 177 
 RUS  HZ I        2359 52.93         3.9 0.20                          97.9 177 
 PTB  HZ EP   2   2359 37.33                             131   -0.09 5  149 260 
 PTB  HZ I        2359 39.02         1.3 0.30                           149 260 
                                                                                
