 2014  110 2211 38.0 L   6.815 -73.170139.7  RSN  7 0.4 1.7LRSN                1
 GAP=133        0.73       5.2     4.4  9.3 -0.4248E+00  0.9172E+01 -0.4908E+01E
 Epicentro: LOS SANTOS - SANTANDER                                             3
 ACTION:UPD 14-03-13 09:54 OP:ep   STATUS:               ID:20140110221138 L   I
 OLDACT:UP  14-01-11 02:03 OP:mh   STATUS:               ID:20140110221000     3
 OLDACT:UP  14-01-11 02:03 OP:mh   STATUS:               ID:20140110221000     3
 OLDACT:REG 14-01-10 23:40 OP:mh   STATUS:               ID:20140110221000     3
 2014-01-10-2210-00M.COL___285                                                 6
 STAT SP IPHASW D HRMM SECON CODA AMPLIT PERI AZIMU VELO AIN AR TRES W  DIS CAZ7
 PAM  SZ EP   1   2212  0.14                             149    0.50 8 77.9  42 
 PAM  SZ I        2212 19.67        11.5 0.43            137           77.9  42 
 RUS  HZ EP   1   2212  1.27                             142   -0.07 8  102 175 
 RUS  HN ES   1   2212 19.25                             142   -0.26 8  102 175 
 RUS  HZ I        2212 22.86         5.9 0.34            152            102 175 
 PTB  HZ EP       2212  3.67                             131   -0.6310  145 258 
 PTB  HN ES   1   2212 25.31                             131    0.52 7  145 258 
 PTB  HZ I        2212 27.34         7.2 0.10            137            145 258 
 ZAR  HN ES   1   2212 34.24                             121   -0.28 7  201 292 
 ZAR  HZ I        2212 43.94         4.6 0.11            121            201 292 
 NOR  HZ EP       2212 13.44                             117    0.15 9  233 234 
 NOR  HE ES   1   2212 40.88                             117    0.09 6  233 234 
 NOR  HZ I        2212 44.94         6.2 0.18            122            233 234 
 GUY2CHZ EP   1   2212 21.58                             111    0.35 6  300 234 
 GUY2CHN ES   1   2212 55.07                             111    0.15 6  300 234 
 GUY2CHZ I        2213  2.74         3.0 0.30                           300 234 
 RREF HZ EP   4   2212 25.38                             110    1.57 0  321 229 
 RREF HE ES   2   2212 59.89                             110    0.37 4  321 229 
 SJC  HZ EP   4   2212 31.30                             105   -1.77 0  406 327 
 SJC  HN ES   4   2213 12.40                             105   -3.60 0  406 327 
                                                                                
