 2015  210 2204 55.0 L   7.132 -73.327136.0  RSN  4 0.4 1.6LRSN                1
 GAP=189        0.86      16.4    10.4  9.9 -0.1536E+03  0.7244E+01  0.2970E+02E
 Epicentro: LEBRIJA - SANTANDER                                                3
 ACTION:UPD 15-04-30 21:24 OP:nd   STATUS:               ID:20150210220454 L   I
 OLDACT:UP  15-03-01 09:41 OP:FJMB STATUS:               ID:20150210220454 L   3
 OLDACT:REG 15-02-11 03:18 OP:cam  STATUS:               ID:20150210215748     3
 2015-02-10-2157-48M.COL___293                                                 6
 STAT SP IPHASW D HRMM SECON CODA AMPLIT PERI AZIMU VELO AIN AR TRES W  DIS CAZ7
 PAM  SZ EP       22 5 15.65                             151   -0.2310 73.0  72 
 PAM  SN ES       22 5 32.39                             151    0.2010 73.0  72 
 PAM  SZ I        22 5 33.04         5.8 0.46            158           73.0  72 
 PTB  HZ EP       22 5 20.26                             131   -0.26 9  141 242 
 PTB  HN ES       22 5 40.60                             131    0.14 9  141 242 
 PTB  HZ I        22 5 47.20         5.2 0.40            133            141 242 
 NOR  HE ES       22 5 58.63                             116   -0.64 8  243 225 
 NOR  HE I        22 6  7.36         4.5 0.16            119            243 225 
 GUY2CHZ EP       22 5 39.53                             110    0.52 7  309 227 
 GUY2CHN ES       22 6 13.94                             110    0.57 7  309 227 
 GUY2CHZ I        22 6 24.78         1.6 0.52                           309 227 
                                                                                
