 2016 1210 2024 29.4 L   6.687 -73.192143.0  RSN  4 0.2 1.6LRSN                1
 GAP=223        0.63       4.8     4.6  5.1  0.1088E+02  0.3383E+01  0.1269E+01E
 Epicentro: VILLANUEVA - SANTANDER                                             3
 ACTION:UPD 17-01-11 20:13 OP:rebc STATUS:               ID:20161210202429 L   I
 OLDACT:DUP 16-12-11 04:35 OP:cog  STATUS:               ID:20161210201745d    3
 2016-12-10-2018-00M.COL___379                                                 6
 STAT SP IPHASW D HRMM SECON CODA AMPLIT PERI AZIMU VELO AIN AR TRES W  DIS CAZ7
 BAR2 EZ EP       2024 48.35                             176   -0.1610 10.5 174 
 BAR2 EZ ES       2025  3.13                             176   -0.2810 10.5 174 
 BAR2 EZ I        2025  4.23         7.0 0.16            177           10.5 174 
 BRR  HZ EP       2024 50.39                             151   -0.0210 73.9 309 
 BRR  HE ES       2025  7.11                             151    0.3110 73.9 309 
 BRR  HZ I        2025 10.00        13.3 0.28            150           73.9 309 
 RUS  HZ EP       2024 52.41                             147    0.3610 88.7 172 
 RUS  HE ES       2025  9.75                             147    0.0410 88.7 172 
 PTB  HZ EP       2024 55.25                             133   -0.27 9  141 263 
 PTB  HN ES       2025 15.88                             133    0.00 9  141 263 
 PTB  HZ I        2025 18.17         4.2 0.30            133            141 263 
                                                                                
