 2013  510 2026 46.4 L   6.789 -73.160141.5  RSN  6 0.4 2.2LRSN                1
 GAP=135        0.92       5.3     4.9  7.9 -0.5463E+01  0.1079E+02  0.2715E+01E
 Epicentro: LOS SANTOS - SANTANDER                                             3
 ACTION:UPD 13-06-20 09:49 OP:ep   STATUS:               ID:20130510202646 L   I
 2013-05-10-2020-00M.COL___256                                                 6
 STAT SP IPHASW D HRMM SECON CODA AMPLIT PERI AZIMU VELO AIN AR TRES W  DIS CAZ7
 BAR2 SZ EP   1   2027  5.55                             171    0.04 7 21.9 186 
 BAR2 SZ ES   1   2027 20.08                             171   -0.32 7 21.9 186 
 BAR2 SZ I        2027 22.88        13.6 0.24            170           21.9 186 
 BRR  HZ EP   1   2027  7.36                             152    0.30 7 70.4 300 
 BRR  HN ES   1   2027 24.06                             152    0.90 7 70.4 300 
 BRR  HN I        2027 28.00        44.1 0.16            150           70.4 300 
 PAM  SZ EP   1   2027  8.51                             149    0.20 7 79.4  40 
 PAM  SN ES   1   2027 25.05                             149   -0.33 7 79.4  40 
 PAM  SN I        2027 26.61        15.4 0.44            154           79.4  40 
 RUS  HZ EP   1   2027  9.56                             143   -0.11 7 99.5 175 
 RUS  HN ES       2027 27.91                             143    0.1010 99.5 175 
 RUS  HN I        2027 29.36        20.7 0.18            147           99.5 175 
 PTB  HZ EP   1   2027 12.21                             131   -0.66 7  146 259 
 PTB  HN ES       2027 32.89                             131   -0.62 9  146 259 
 PTB  HN I        2027 38.70        28.8 0.40            132            146 259 
 NOR  HZ EP   1   2027 21.87                             118    0.19 6  233 234 
 NOR  HE ES       2027 49.65                             118    0.46 8  233 234 
 NOR  HN I        2027 54.65        20.8 0.16            120            233 234 
                                                                                
