 2010  510 2315 50.8 L   6.776 -72.998150.7  RSN  4 0.1 1.8LRSN                1
 GAP=251        0.36       4.1     7.2  4.5  0.1853E+02  0.3907E+01  0.3733E+01E
 Epicentro: CEPITA - SANTANDER                                                 3
 ACTION:UP  10-08-24 10:04 OP:vdl  STATUS:               ID:20100510231550 L   I
 2010-05-10-2313-58S.COL___104                                                 6
 STAT SP IPHASW D HRMM SECON CODA AMPLIT PERI AZIMU VELO SNR AR TRES W  DIS CAZ7
 BRR  HZ EP   1   2316 13.28                             148    -0.2 7   87 295 
 BRR  HN ES   1   2316 31.21                             148     0.1 7   87 295 
 BRR  HZ I        2316 32.37        11.5 0.05                            87 295 
 RUS  HZ EP   1   2316 15.02                             146     0.1 7   98 186 
 RUS  HE ES   1   2316 33.62                             146    -0.1 7   98 186 
 RUS  HZ I        2316 34.97         4.6 0.31                            98 186 
 HEL  HZ EP   2   2316 33.08                             114     0.1 4  287 257 
 PRA  HZ EP   1   2316 45.36                             107     0.1 4  398 212 
 PRA  HE ES   2   2317 27.41                             107    -0.2 3  398 212 
 PRA  HZ I        2317 32.60         3.6 0.06                           398 212 
                                                                                
