 2011  210 2301 18.0 L   6.773 -73.146146.0  RSN  8 0.3 2.0LRSN                1
 GAP=159        0.73       3.7     5.8  7.0 -0.7213E+01  0.2005E+02 -0.2599E+01E
 Epicentro: LOS SANTOS - SANTANDER                                             3
 ACTION:UP  11-03-28 15:07 OP:jfem STATUS:               ID:20110210230118 L   I
 2011-02-10-2258-29S.COL___136                                                 6
 STAT SP IPHASW D HRMM SECON CODA AMPLIT PERI AZIMU VELO SNR AR TRES W  DIS CAZ7
 BAR2 SZ EP   1   23 1 37.50                             172    -0.1 7   20 192 
 BAR2 SZ ES   1   23 1 52.95                             172     0.0 7   20 192 
 BAR2 SZ I        23 1 54.42        26.3 0.18                            20 192 
 BTL  SZ EP       23 1 37.92                             171     0.310   21 320 
 RUS  HZ EP   1   23 1 41.26                             145    -0.3 7   98 176 
 RUS  HE ES   1   23 2  0.18                             145     0.2 7   98 176 
 RUS  HZ I        23 2  2.03        14.2 0.45                            98 176 
 GRA  SZ EP   1   23 1 44.10                             136     0.6 7  129  17 
 GRA  SZ ES   1   23 2  2.82                             136    -0.6 7  129  17 
 GRA  SZ I        23 2  4.33        14.6 0.39                           129  17 
 NOR  SZ EP   1   23 1 53.61                             119     0.0 6  233 235 
 NOR  SE ES   1   23 2 21.68                             119     0.3 6  233 235 
 CHI  HZ EP   1   23 1 55.60                             117     0.2 6  246 195 
 CHI  HE ES   1   23 2 23.98                             117    -0.6 6  246 195 
 CHI  HZ I        23 2 33.11         7.2 0.54                           246 195 
 DBB  SZ EP   1   23 2  5.22                             109    -0.3 5  340 275 
 DBB  SZ ES   1   23 2 42.46                             109    -0.1 5  340 275 
 TOL  SZ EP   2   23 2  6.09                             109     0.0 3  341 225 
                                                                                
