 2012  810 2235 46.9 L   6.812 -73.150147.9  RSN 25 0.5 3.8LRSN 4.0WRSN        1
 SPEC AVERAGE  MO 15.1 ST 99.6 OM  3.6 f0 3.04 R0.5076 AL 2.49 WI 28.6 MW  4.0 3
 SPEC SD       MO  0.2 ST126.6 OM  0.5 f00.730 R0.0982 AL      WI      MW  0.2 3
 GAP= 55        1.01       2.9     3.1  4.8 -0.4041E+00  0.3501E+01  0.3230E+01E
 Epicentro: LOS SANTOS - SANTANDER                                             3
 SPEC YOP SH N MO 15.0 ST 24.3 OM  3.3 f0 2.53 R0.5810 AL 2.44 WI 32.9 MW  4.0 3
 SPEC YOP SH N T223639 K 0.000 GD  232 VS 4.20 DE 3.00 Q0230.0 QA 0.60 VS 4.20 3
 SPEC TAM HH N MO 14.8 ST 12.1 OM  3.1 f0 2.40 R0.6125 AL 1.71 WI 41.5 MW  3.8 3
 SPEC TAM HH N T223635 K 0.000 GD  214 VS 4.20 DE 3.00 Q0230.0 QA 0.60 VS 4.20 3
 SPEC PRA HH N MO 15.2 ST 31.2 OM  3.2 f0 2.44 R0.6025 AL 2.03 WI 29.5 MW  4.1 3
 SPEC PRA HH N T223721 K 0.000 GD  419 VS 4.20 DE 3.00 Q0230.0 QA 0.60 VS 4.20 3
 SPEC ROSCBH Z MO 15.2 ST 38.4 OM  2.6 f0 2.58 R0.5698 AL 2.78 WI 28.6 MW  4.1 3
 SPEC ROSCBH Z T223625 K 0.000 GD  293 VP 7.60 DE 3.00 Q0230.0 QA 0.60 VS 4.20 3
 SPEC NOR SH N MO 15.5 ST392.7 OM  3.7 f0 4.44 R0.3311 AL 3.50 WI 21.1 MW  4.3 3
 SPEC NOR SH N T223650 K 0.000 GD  277 VS 4.20 DE 3.00 Q0230.0 QA 0.60 VS 4.20 3
 SPEC OCA HH N MO 15.5 ST187.8 OM  3.8 f0 3.49 R0.4212 AL 2.28 WI 28.5 MW  4.3 3
 SPEC OCA HH N T223636 K 0.000 GD  217 VS 4.20 DE 3.00 Q0230.0 QA 0.60 VS 4.20 3
 SPEC PTB HH N MO 15.0 ST 29.9 OM  3.3 f0 2.81 R0.5231 AL 1.59 WI 27.8 MW  3.9 3
 SPEC PTB HH N T223632 K 0.000 GD  209 VS 4.20 DE 3.00 Q0230.0 QA 0.60 VS 4.20 3
 SPEC PAM SH N MO 14.8 ST 20.3 OM  3.2 f0 2.88 R0.5104 AL 2.70 WI 18.4 MW  3.8 3
 SPEC PAM SH N T223625 K 0.000 GD  166 VS 4.20 DE 3.00 Q0230.0 QA 0.60 VS 4.20 3
 SPEC HEL HH N MO 15.1 ST 35.1 OM  3.2 f0 2.81 R0.5231 AL 2.23 WI 36.3 MW  4.0 3
 SPEC HEL HH N T223657 K 0.000 GD  309 VS 4.20 DE 3.00 Q0230.0 QA 0.60 VS 4.20 3
 SPEC CHI HH N MO 15.0 ST 24.0 OM  3.2 f0 2.53 R0.5810 AL 2.42 WI 30.0 MW  4.0 3
 SPEC CHI HH N T223653 K 0.000 GD  290 VS 4.20 DE 3.00 Q0230.0 QA 0.60 VS 4.20 3
 SPEC BRR HH N MO 15.4 ST299.4 OM  3.8 f0 4.48 R0.3281 AL 3.72 WI 20.5 MW  4.2 3
 SPEC BRR HH N T223625 K 0.000 GD  163 VS 4.20 DE 3.00 Q0230.0 QA 0.60 VS 4.20 3
 ACTION:UP  12-09-10 11:55 OP:ep   STATUS:               ID:20120810223546 L   I
 2012-08-10-2230-00M.COL___218                                                 6
 STAT SP IPHASW D HRMM SECON CODA AMPLIT PERI AZIMU VELO AIN AR TRES W  DIS CAZ7
 BAR2 SZ IP     D 2236  6.83                             170    0.0510 24.6 188 
 BAR2 SZ ES   1   2236 21.82                             170   -0.50 7 24.6 188 
 BAR2 SZ I        2236 23.71      1809.7 0.40                          24.6 188 
 GIR2 SZ IP       2236  6.90                             168    0.1410 29.9 351 
 GIR2 SZ ES   1   2236 22.50                             168    0.22 7 29.9 351 
 BRR  HZ IP     C 2236  8.72                             153    0.5310 70.1 298 
 BRR  HN ES   1   2236 26.04                             153    1.22 7 70.1 298 
 BRR  HZ I        2236 29.49      1168.5 0.14                          70.1 298 
 PAM  SZ IP       2236  9.63                             151    0.3610 76.7  40 
 PAM  SN ES   1   2236 26.70                             151   -0.05 7 76.7  40 
 RUS  HZ IP     C 2236 10.68                             144   -0.2510  102 176 
 RUS  HN ES   1   2236 29.24                             144   -0.45 7  102 176 
 RUS  HZ I        2236 30.47       500.5 0.26                           102 176 
 PTB  HZ IP     C 2236 13.28                             133   -0.71 9  148 258 
 PTB  HN ES   1   2236 34.62                             133   -0.52 7  148 258 
 PTB  HZ I        2236 42.37       489.6 0.38                           148 258 
 TAM  HZ I        2236 14.97       462.3 0.32                           156 105 
 TAM  HZ IP     D 2236 14.99                             131    0.20 9  156 105 
 TAM  HN ES   1   2236 36.51                             131   -0.06 7  156 105 
 OCA  HZ EP       2236 15.01                             130   -0.21 9  159 353 
 OCA  HN ES   2   2236 37.15                             130   -0.18 5  159 353 
 OCA  HZ I        2236 46.78       752.4 0.50                           159 353 
 YOP  SZ EP       2236 17.35                             127    0.15 9  180 153 
 YOP  SE ES   1   2236 41.06                             127    0.19 7  180 153 
 YOP  SZ I        2236 44.52       427.1 0.28                           180 153 
 ZAR  HZ EP       2236 18.87                             123   -0.48 9  203 292 
 ZAR  HE ES   1   2236 44.33                             123   -0.36 6  203 292 
 ZAR  HZ I        2236 51.50       878.3 0.30                           203 292 
 NOR  SZ EP       2236 22.47                             119   -0.29 8  235 234 
 NOR  SN ES   1   2236 50.71                             119   -0.05 6  235 234 
 NOR  SZ I        2236 58.68       314.3 0.36                           235 234 
 CHI  HZ IP     C 2236 24.49                             117   -0.32 8  250 195 
 CHI  HN ES   1   2236 53.76                             117   -0.64 6  250 195 
 CHI  HZ I        2237  2.17       222.0 0.32                           250 195 
 ROSC BZ EP       2236 26.22                             117    1.02 8  254 211 
 ROSC BE ES   1   2236 54.42                             117   -0.68 6  254 211 
 ROSC BZ I        2237  0.16       453.0 0.45                           254 211 
 HEL  HZ EP       2236 26.86                             115   -0.31 8  272 256 
 HEL  HN ES   2   2236 58.64                             115    0.03 4  272 256 
 HEL  HZ I        2237  4.10       225.1 0.32                           272 256 
 URE  HZ EP   1   2236 27.50                             114   -0.43 6  283 292 
 URE  HZ I        2237 11.90       425.5 0.18                           283 292 
 GUY  SZ EP       2236 31.35                             112    0.48 7  304 235 
 GUY  SZ I        2237 12.16       695.3 0.34                           304 235 
 VIL  SZ EP       2236 30.16                             112   -0.36 7  305 191 
 VIL  SN ES   1   2237  3.80                             112   -0.76 5  305 191 
 VIL  SZ I        2237 11.07       231.2 0.36                           305 191 
 DBB  SZ IP       2236 34.22                             110   -0.14 7  339 274 
 DBB  SZ I        2237 15.03       413.3 0.80                           339 274 
 TOL  SZ EP       2236 36.18                             110    0.91 7  344 224 
 COD  EZ EP   3   2236 34.63                             109   -0.54 2  347 355 
 COD  EN ES   3   2237 12.80                             109   -0.05 2  347 355 
 ANIL HZ EP       2236 38.08                             109    1.26 6  358 224 
 ANIL HN ES   1   2237 17.33                             109    1.54 5  358 224 
 ANIL HZ I        2237 26.12       598.4 0.32                           358 224 
 SDV  BZ EP       2236 36.18                             109   -0.75 6  360  50 
 PRA  HZ EP       2236 40.41                             107   -0.15 6  393 209 
 PRA  HN ES   1   2237 22.25                             107   -0.20 4  393 209 
 PRA  HZ I        2237 26.77       214.8 0.38                           393 209 
 PAL  HZ EP   3   2236 42.06                             106   -0.07 1  406 239 
 PAL  HN ES   2   2237 25.95                             106    0.72 3  406 239 
 PAL  HZ I        2237 32.72       125.2 0.18                           406 239 
 HORQ SZ EP   2   2236 58.04                             102    0.62 2  533 226 
                                                                                
