 2016 1210 2336 31.7 L   6.715 -73.178142.0  RSN  6 0.6 1.5LRSN                1
 GAP=227        1.18       8.2     8.1  9.1  0.3182E+02  0.1047E+02 -0.4951E+01E
 Epicentro: VILLANUEVA - SANTANDER                                             3
 ACTION:UPD 17-01-11 20:13 OP:rebc STATUS:               ID:20161210233631 L   I
 OLDACT:UP  16-12-11 04:27 OP:cog  STATUS:               ID:20161210232743     3
 OLDACT:REG 16-12-11 03:36 OP:cog  STATUS:               ID:20161210232743     3
 2016-12-10-2328-00M.COL___373                                                 6
 STAT SP IPHASW D HRMM SECON CODA AMPLIT PERI AZIMU VELO AIN AR TRES W  DIS CAZ7
 BAR2 EZ EP       2336 50.16                             174   -0.5510 13.6 182 
 BAR2 HE ES       2337  5.05                             174   -0.5010 13.6 182 
 BAR2 EZ I        2337  7.34         5.5 0.44            175           13.6 182 
 BRR  HZ EP       2336 52.09                             151   -0.4710 73.2 306 
 BRR  HE ES       2337  9.40                             151    0.5710 73.2 306 
 BRR  HZ I        2337 13.69         5.4 0.12            150           73.2 306 
 RUS  HZ EP       2336 54.65                             146    0.2110 91.5 173 
 RUS  HE ES       2337 12.80                             146    0.6310 91.5 173 
 RUS  HZ I        2337 13.16         2.1 0.30            150           91.5 173 
 PTB  HZ EP   3   2336 56.83                             132   -1.07 2  143 262 
 PTB  HN ES       2337 18.02                             132   -0.31 9  143 262 
 PTB  HZ I        2337 20.49         4.7 0.14            133            143 262 
 ZAR  HZ EP       2337  4.43                             121    0.48 9  205 295 
 ZAR  HE ES   2   2337 30.17                             121    1.07 4  205 295 
 ZAR  HZ I        2337 34.43         5.9 0.30            123            205 295 
 GUY2CHZ EP   4   2337 19.01                             112    4.82 0  293 236 
 GUY2CHN ES   2   2337 46.57                             112   -0.77 4  293 236 
 GUY2CHZ I        2337 54.62         1.5 0.27                           293 236 
                                                                                
