 2014  810 2318 35.4 L   6.817 -73.173145.0  RSN  8 0.4 1.9LRSN                1
 GAP=132        0.97       3.7     4.6  7.7  0.1274E+01  0.6495E+01  0.4235E+00E
 Epicentro: LOS SANTOS - SANTANDER                                             3
 ACTION:UPD 14-09-15 21:48 OP:nd   STATUS:               ID:20140810231835 L   I
 OLDACT:REG 14-08-11 03:44 OP:mh   STATUS:               ID:20140810231818     3
 2014-08-10-2318-18M.COL___260                                                 6
 STAT SP IPHASW D HRMM SECON CODA AMPLIT PERI AZIMU VELO AIN AR TRES W  DIS CAZ7
 BAR2 SZ EP   1   2318 54.88                             170   -0.08 7 24.9 182 
 BAR2 SZ I        2319 11.32        24.1 0.17            171           24.9 182 
 BRR  HZ EP       2318 56.75                             154    0.4910 67.7 298 
 BRR  HN ES   1   2319 13.57                             154    1.03 7 67.7 298 
 BRR  HZ I        2319 16.88        17.9 0.39            156           67.7 298 
 PAM  SZ EP       2318 57.88                             150    0.3210 77.9  42 
 PAM  SN ES   1   2319 14.01                             150   -0.84 7 77.9  42 
 PAM  SZ I        2319 21.23         8.4 0.44            149           77.9  42 
 RUS  HZ EP   1   2318 58.93                             143   -0.29 7  103 174 
 RUS  HN ES       2319 17.82                             143    0.0110  103 174 
 RUS  HZ I        2319 18.92         7.5 0.44            145            103 174 
 PTB  HZ EP       2319  1.78                             132   -0.28 9  145 258 
 PTB  HN ES       2319 22.41                             132   -0.46 9  145 258 
 ZAR  HZ EP   4   2319 10.75                             123    3.32 0  201 292 
 ZAR  HN ES       2319 32.21                             123   -0.21 9  201 292 
 ZAR  HZ I        2319 39.81                             124            201 292 
 SML  HZ EP   1   2319 11.37                             118   -0.28 6  241 336 
 SML  HN ES       2319 39.90                             118   -0.04 8  241 336 
 HEL  HZ EP   4   2319 16.75                             115    1.46 0  270 255 
 HEL  HN ES   4   2319 44.78                             115   -1.64 0  270 255 
 PRA  HZ EP       2319 29.38                             106    0.48 6  392 209 
 PRA  HN ES       2320 10.79                             106    0.15 6  392 209 
 PRA  HZ I        2320 15.12         4.4 0.54            108            392 209 
                                                                                
