 2014  710 2121 28.0 L   6.793 -73.072145.4  RSN  8 0.4 1.6LRSN                1
 GAP=207        0.96       3.8     5.4  6.7  0.3595E+01  0.7391E+00 -0.2882E+01E
 Epicentro: LOS SANTOS - SANTANDER                                             3
 ACTION:UPD 15-03-16 20:42 OP:nd   STATUS:               ID:20140710212128 L   I
 OLDACT:DUP 14-07-11 07:04 OP:spq  STATUS:               ID:20140710211821d    3
 2014-07-10-2118-19M.COL___262                                                 6
 STAT SP IPHASW D HRMM SECON CODA AMPLIT PERI AZIMU VELO AIN AR TRES W  DIS CAZ7
 BAR2 SZ EP       2121 47.82                             170    0.1910 25.3 209 
 BAR2 SZ ES   1   2122  2.29                             170   -0.64 7 25.3 209 
 BAR2 SZ I        2122  4.79         6.4 0.27            168           25.3 209 
 BRR  HZ EP       2121 49.86                             150    0.3010 78.8 296 
 BRR  HE ES       2122  6.83                             150    0.4610 78.8 296 
 BRR  HZ I        2122 12.83         8.2 0.44            149           78.8 296 
 RUS  HZ EP       2121 52.19                             144    0.5510 99.5 181 
 RUS  HN ES   1   2122  9.67                             144   -0.40 7 99.5 181 
 RUS  HZ I        2122 12.51         1.9 0.34            148           99.5 181 
 PTB  HZ EP       2121 55.85                             130    0.19 9  156 260 
 PTB  HN ES       2122 17.63                             130    0.40 9  156 260 
 PTB  HZ I        2122 22.87         4.4 0.08            131            156 260 
 SPBC HZ EP       2121 56.72                             128   -0.19 9  168 221 
 SPBC HN ES       2122 18.86                             128   -0.60 9  168 221 
 SPBC HZ I        2122 25.38         4.2 0.18            130            168 221 
 ZAR  HN ES       2122 26.82                             121   -0.34 8  212 292 
 ZAR  HZ I        2122 31.91         4.1 0.26            123            212 292 
 SML  HZ EP       2122  4.54                             117   -0.53 8  248 334 
 SML  HN ES       2122 33.69                             117   -0.29 8  248 334 
 SML  HZ I        2122 39.04         6.5 0.05            120            248 334 
 GUY2CHZ EP   1   2122 11.87                             112   -0.42 5  307 236 
 GUY2CHE ES   1   2122 47.11                             112    0.27 5  307 236 
 GUY2CHZ I        2122 56.62         1.4 0.48                           307 236 
                                                                                
