 2016  910 2327 55.4 L   6.748 -73.121147.0  RSN  4 0.2 1.0LRSN                1
 GAP=236        0.46       3.7     3.6  3.7  0.6548E+01  0.1014E+01 -0.6498E-01E
 Epicentro: LOS SANTOS - SANTANDER                                             3
 ACTION:UPD 17-08-17 21:08 OP:lp   STATUS:               ID:20160910232755 L   I
 OLDACT:UP  16-09-11 03:49 OP:edw  STATUS:               ID:20160910231743d    3
 OLDACT:DUP 16-09-11 03:45 OP:edw  STATUS:               ID:20160910231743d    3
 2016-09-10-2318-00M.COL___345                                                 6
 STAT SP IPHASW D HRMM SECON CODA AMPLIT PERI AZIMU VELO AIN AR TRES W  DIS CAZ7
 BAR2 EZ EP       2328 15.07                             172   -0.0310 18.5 202 
 BAR2 EZ ES       2328 30.31                             172   -0.1610 18.5 202 
 BAR2 EZ I        2328 31.00         2.1 0.18            170           18.5 202 
 BRR  HZ EP       2328 17.19                             151    0.1910 76.5 301 
 BRR  HN ES       2328 33.86                             151    0.0210 76.5 301 
 RUS  HZ EP       2328 18.96                             146    0.0910 94.6 177 
 RUS  HN ES       2328 37.22                             146    0.0610 94.6 177 
 RUS  HZ I        2328 39.08         1.5 0.30            145           94.6 177 
 PTB  HZ EP       2328 22.31                             132   -0.32 9  149 261 
 PTB  HE ES       2328 43.98                             132    0.11 9  149 261 
 PTB  HZ I        2328 44.84         1.1 0.16            132            149 261 
                                                                                
