 2011 1010 2330 58.9 L   6.783 -73.131144.0  RSN  9 0.4 2.0LRSN                1
 GAP=139        0.76       3.5     4.2  6.1 -0.8851E+00  0.7717E+01  0.1115E+01E
 Epicentro: LOS SANTOS - SANTANDER                                             3
 ACTION:UPD 12-07-13 16:03 OP:ep   STATUS:               ID:20111010233058 L   I
 2011-10-10-2327-17S.COL___168                                                 6
 STAT SP IPHASW D HRMM SECON CODA AMPLIT PERI AZIMU VELO AIN AR TRES W  DIS CAZ7
 BAR2 SZ EP   1   2331 18.39                             171    0.09 7 21.8 195 
 BAR2 SZ ES   1   2331 32.87                             171   -0.55 7 21.8 195 
 BAR2 SZ I        2331 34.45        34.0 0.21                          21.8 195 
 BRR  HZ IP     C 2331 20.09                             151    0.0810 73.5 299 
 BRR  HZ I        2331 20.35        60.4 0.14                          73.5 299 
 BRR  HN ES   1   2331 37.28                             151    0.83 7 73.5 299 
 PAM  SZ EP   1   2331 21.24                             150    0.27 7 77.9  38 
 PAM  SN ES   1   2331 38.34                             150    0.17 7 77.9  38 
 PAM  SZ I        2331 40.39         7.8 0.48                          77.9  38 
 RUS  HZ EP   1   2331 22.34                             144   -0.01 7 98.6 177 
 RUS  HN ES   1   2331 40.25                             144   -0.37 7 98.6 177 
 RUS  HZ I        2331 42.10        11.5 0.21                          98.6 177 
 OCA  SZ EP   1   2331 26.88                             129   -0.41 7  162 353 
 OCA  SZ I        2331 53.98         9.6 0.22                           162 353 
 ZAR  HZ EP   1   2331 31.37                             122   -0.10 6  206 292 
 ZAR  HN ES   1   2331 56.04                             122   -0.83 6  206 292 
 ZAR  HZ I        2331 58.68         9.2 0.15                           206 292 
 NOR  SN ES   1   2332  2.38                             118    0.01 6  235 235 
 CHI  HZ EP   1   2331 36.44                             117    0.08 6  247 196 
 CHI  HN ES   1   2332  5.86                             117    0.29 6  247 196 
 CHI  HZ I        2332  8.28         4.8 0.39                           247 196 
 HEL  HN ES   1   2332 10.88                             114    0.33 6  273 256 
                                                                                
