 2014  910 2258 46.7 L   6.786 -73.149137.7  RSN  7 0.5 1.6LRSN                1
 GAP=137        1.06       5.4     5.5 11.3 -0.8924E+00  0.1673E+02 -0.1933E+02E
 Epicentro: LOS SANTOS - SANTANDER                                             3
 ACTION:UPD 14-10-03 23:03 OP:nd   STATUS:               ID:20140910225846 L   I
 OLDACT:REG 14-09-11 02:21 OP:fm   STATUS:               ID:20140910225819     3
 2014-09-10-2258-19M.COL___278                                                 6
 STAT SP IPHASW D HRMM SECON CODA AMPLIT PERI AZIMU VELO AIN AR TRES W  DIS CAZ7
 BAR2 SZ EP   1   2259  5.30                             171   -0.06 7 21.7 190 
 BAR2 SZ ES   1   2259 20.68                             171    0.79 7 21.7 190 
 BAR2 SZ I        2259 21.89         6.1 0.20            172           21.7 190 
 PAM  SZ EP       2259  8.68                             148    0.4910 78.8  39 
 PAM  SN ES   1   2259 24.48                             148   -0.44 7 78.8  39 
 PAM  SZ I        2259 27.59         7.5 0.48            152           78.8  39 
 RUS  HZ EP   1   2259  9.50                             142   -0.09 7 99.0 176 
 RUS  HE ES       2259 26.99                             142   -0.4210 99.0 176 
 RUS  HZ I        2259 29.07         2.8 0.38            148           99.0 176 
 PTB  HZ EP   1   2259 13.50                             130    0.50 7  147 259 
 PTB  HN ES       2259 33.03                             130   -0.45 9  147 259 
 PTB  HZ I        2259 36.59         3.0 0.14            132            147 259 
 ZAR  HN ES   1   2259 44.24                             120    0.61 6  204 293 
 ZAR  HZ I        2259 50.75         4.1 0.28            122            204 293 
 SML  HN ES   1   2259 50.59                             115   -0.81 6  245 336 
 SML  HZ I        2259 54.48         6.3 0.10            118            245 336 
 SJC  HZ EP   4   2259 39.70                             104   -2.48 0  410 327 
 SJC  HN ES   4   23 0 19.99                             104   -5.44 0  410 327 
 SJC  HZ I        23 0 25.16         1.8 0.38            106            410 327 
                                                                                
