 2013  210 2154 36.8 L   6.796 -73.139147.1  RSN  9 0.5 1.6LRSN                1
 GAP=137        0.96       5.1     4.9  8.5 -0.3672E+00  0.1071E+02  0.1089E+02E
 Epicentro: LOS SANTOS - SANTANDER                                             3
 ACTION:UPD 13-03-12 09:32 OP:ep   STATUS:               ID:20130210215436 L   I
 2013-02-10-2150-00M.COL___241                                                 6
 STAT SP IPHASW D HRMM SECON CODA AMPLIT PERI AZIMU VELO AIN AR TRES W  DIS CAZ7
 BAR2 SZ EP   1   2154 56.63                             171    0.03 7 23.1 192 
 BAR2 SZ ES   1   2155 12.27                             171    0.24 7 23.1 192 
 BRR  HZ EP   1   2154 58.54                             152    0.39 7 72.0 299 
 BRR  HN ES   1   2155 15.44                             152    0.64 7 72.0 299 
 BRR  HZ I        2155 19.28        12.0 0.14            153           72.0 299 
 PAM  SZ EP   1   2154 59.55                             151    0.39 7 77.2  39 
 PAM  SN ES   1   2155 16.08                             151   -0.52 7 77.2  39 
 PAM  SZ I        2155 18.03         6.9 0.40            153           77.2  39 
 RUS  HZ EP   1   2155  0.60                             144   -0.06 7  100 176 
 RUS  HN ES   1   2155 18.72                             144   -0.55 7  100 176 
 RUS  HZ I        2155 20.53         4.0 0.56            148            100 176 
 PTB  HZ EP   1   2155  3.14                             132   -0.80 7  148 259 
 PTB  HN ES   1   2155 24.45                             132   -0.66 7  148 259 
 PTB  HZ I        2155 26.25         6.0 0.14            135            148 259 
 ZAR  HE ES   1   2155 35.06                             122    0.19 6  205 292 
 NOR  HE ES   1   2155 40.41                             119   -0.21 6  235 235 
 CHI  HZ EP   1   2155 14.41                             117   -0.15 6  248 195 
 CHI  HN ES   1   2155 45.23                             117    1.22 6  248 195 
 HEL  HN ES   1   2155 48.71                             115    0.08 6  273 256 
                                                                                
