 2010  110 2243 30.9 L   6.812 -73.219142.9  RSN  6 0.1 1.7LRSN                1
 GAP=151        0.31       1.7     5.2  5.1 -0.8057E+00  0.1042E+02 -0.2081E+01E
 Epicentro: ZAPATOCA - SANTANDER                                               3
 ACTION:UP  10-08-24 09:43 OP:vdl  STATUS:               ID:20100110224331 L   I
 2010-01-10-2242-15S.COL___097                                                 6
 STAT SP IPHASW D HRMM SECON CODA AMPLIT PERI AZIMU VELO SNR AR TRES W  DIS CAZ7
 RUS  BZ EP   2   2243 54.51                             143     0.0 5  103 172 
 RUS  BE ES   1   2244 12.93                             143     0.0 7  103 172 
 RUS  BZ I        2244 14.03        10.1 0.26                           103 172 
 GUE  SZ EP   1   2243 55.30                             139    -0.1 7  117  16 
 GUE  SZ ES   2   2244 14.29                             139    -0.2 5  117  16 
 GRA  SZ EP   1   2243 55.98                             136     0.0 7  127  21 
 GRA  SZ ES   2   2244 15.72                             136     0.1 5  127  21 
 OCA  SZ EP   2   2243 58.75                             129     0.0 5  158 356 
 OCA  SZ ES   2   2244 20.84                             129     0.3 5  158 356 
 CHI  HZ EP   2   2244  8.58                             117     0.2 4  248 193 
 CHI  HZ I        2244 45.14         3.0 0.34                           248 193 
 MON  HE ES   2   2244 56.20                             109    -0.2 3  346 309 
                                                                                
