 2010 1110 2146 10.4 L   6.769 -73.079150.0  RSN 13 0.5 2.6LRSN                1
 GAP=172        1.10       4.4     7.2  6.6 -0.1166E+02  0.1037E+02  0.4241E+01E
 Epicentro: LOS SANTOS - SANTANDER                                             3
 ACTION:UP  10-12-17 16:51 OP:REBC STATUS:               ID:20101110214610 L   I
 2010-11-10-2144-37S.COL___129                                                 6
 STAT SP IPHASW D HRMM SECON CODA AMPLIT PERI AZIMU VELO SNR AR TRES W  DIS CAZ7
 BAR2 SZ IP       2146 30.28                             171    -0.310   23 211 
 BAR2 SZ ES   1   2146 45.58                             171    -0.7 7   23 211 
 BAR2 SZ I        2146 47.02        63.4 0.41                            23 211 
 BTL  SZ IP       2146 31.55                             169     0.910   27 308 
 BTL  SZ ES   1   2146 47.37                             169     1.0 7   27 308 
 BRR  HZ IP     C 2146 32.24                             151    -0.310   79 298 
 BRR  HZ I        2146 32.50       105.6 0.18                            79 298 
 BRR  HN ES   1   2146 49.51                             151    -0.2 7   79 298 
 RUS  HZ IP     D 2146 34.12                             146    -0.210   97 180 
 RUS  HN ES   1   2146 52.86                             146    -0.2 7   97 180 
 RUS  HZ I        2146 54.64        30.4 0.66                            97 180 
 GUE  SZ EP       2146 35.94                             140     0.210  119   8 
 OCA  SZ EP       2146 39.09                             130    -0.4 9  165 351 
 OCA  SZ ES   1   2147  1.99                             130    -0.2 7  165 351 
 OCA  SZ I        2147  6.64        68.2 0.41                           165 351 
 NOR  SZ EP       2146 46.21                             119    -0.7 8  239 236 
 NOR  SN ES   2   2147 14.71                             119    -0.6 4  239 236 
 ROSC BZ EP       2146 49.53                             117     0.6 8  254 213 
 ROSC BE ES   1   2147 19.07                             117     0.2 6  254 213 
 ROSC BZ I        2147 23.61        26.5 0.28                           254 213 
 HEL  HZ EP   2   2146 51.87                             115     0.3 4  278 257 
 HEL  HE ES   1   2147 24.12                             115     0.5 6  278 257 
 HEL  HZ I        2147 29.99        17.6 0.22                           278 257 
 GUY  SZ EP   3   2146 54.81                             113     0.1 2  306 236 
 GUY  SN ES   2   2147 28.91                             113    -0.4 4  306 236 
 GUY  SZ I        2147 37.74        33.0 0.30                           306 236 
 RREF HZ EP       2146 57.57                             111     0.4 7  325 231 
 RREF HE ES   1   2147 33.56                             111    -0.1 5  325 231 
 RREF HZ I        2147 41.84        28.1 0.40                           325 231 
 TOL  SZ EP       2146 59.06                             110    -0.1 6  346 226 
 PRA  HZ EP       2147  3.92                             107    -0.3 6  393 211 
 PRA  HE ES   1   2147 46.70                             107     0.6 4  393 211 
                                                                                
