 2013  110 2243 35.6 L   6.781 -73.155147.5  RSN  5 0.4 1.8LRSN                1
 GAP=235        0.96       5.8     7.5  7.5  0.2018E+02  0.7319E+01  0.1215E+02E
 Epicentro: LOS SANTOS - SANTANDER                                             3
 ACTION:UPD 13-02-15 09:13 OP:ep   STATUS:               ID:20130110224335 L   I
 2013-01-10-2240-00M.COL___242                                                 6
 STAT SP IPHASW D HRMM SECON CODA AMPLIT PERI AZIMU VELO AIN AR TRES W  DIS CAZ7
 BAR2 SZ ES   1   2244 10.25                             171   -0.60 7 21.1 188 
 BRR  HZ EP       2243 57.03                             153    0.0810 71.3 300 
 BRR  HZ I        2243 57.33        10.1 0.13            152           71.3 300 
 BRR  HE ES       2244 14.23                             153    0.6410 71.3 300 
 RUS  HZ EP       2243 59.29                             145   -0.1010 98.6 175 
 RUS  HE ES       2244 17.90                             145   -0.0410 98.6 175 
 RUS  HE I        2244 19.05         6.5 0.21            142           98.6 175 
 PTB  HZ EP       2244  2.08                             133   -0.51 9  146 260 
 PTB  HN ES       2244 23.31                             133   -0.32 9  146 260 
 PTB  HZ I        2244 25.02        26.8 0.04            131            146 260 
 CHI  HZ EP       2244 13.47                             118    0.31 8  246 195 
 CHI  HN ES       2244 42.92                             118    0.47 8  246 195 
 CHI  HZ I        2244 48.17         1.7 0.32            116            246 195 
                                                                                
