 2011 1010 2005 45.9 L   6.776 -73.121143.1  RSN  5 0.3 1.4LRSN                1
 GAP=141        0.56       3.8     4.1  5.9  0.3279E+01  0.2974E+01 -0.3232E+00E
 Epicentro: LOS SANTOS - SANTANDER                                             3
 ACTION:UPD 12-07-13 16:03 OP:ep   STATUS:               ID:20111010200545 L   I
 2011-10-10-2000-48S.COL___168                                                 6
 STAT SP IPHASW D HRMM SECON CODA AMPLIT PERI AZIMU VELO AIN AR TRES W  DIS CAZ7
 BAR2 SZ EP   1   20 6  5.06                             171   -0.09 7 21.5 199 
 BAR2 SZ ES   1   20 6 19.75                             171   -0.43 7 21.5 199 
 BAR2 SZ I        20 6 21.57         7.8 0.22                          21.5 199 
 BRR  HZ EP   1   20 6  6.91                             151   -0.04 7 74.9 299 
 BRR  HZ I        20 6 11.19         7.0 0.26                          74.9 299 
 BRR  HN ES   1   20 6 23.92                             151    0.53 7 74.9 299 
 PAM  SZ EP   1   20 6  7.81                             150   -0.02 7 77.7  37 
 PAM  SN ES   1   20 6 24.96                             150    0.01 7 77.7  37 
 PAM  SZ I        20 6 27.54         2.7 0.40                          77.7  37 
 RUS  HZ EP   1   20 6  9.35                             144    0.19 7 97.8 178 
 RUS  HN ES   1   20 6 27.41                             144    0.08 7 97.8 178 
 RUS  HZ I        20 6 29.65         3.7 0.27                          97.8 178 
 ZAR  HN ES   1   20 6 43.65                             121   -0.33 6  208 293 
                                                                                
