 2013  110 2038 47.3 L   6.981 -73.275136.7  RSN  4 0.2 1.6LRSN                1
 GAP=240        0.43       4.4     3.5  3.9  0.5576E+01  0.2701E+01  0.2254E+01E
 Epicentro: BETULIA - SANTANDER                                                3
 ACTION:UPD 13-02-15 09:13 OP:ep   STATUS:               ID:20130110203847 L   I
 2013-01-10-2030-00M.COL___242                                                 6
 STAT SP IPHASW D HRMM SECON CODA AMPLIT PERI AZIMU VELO AIN AR TRES W  DIS CAZ7
 BAR2 SZ ES       2039 21.27                             161   -0.1710 44.2 167 
 BAR2 SZ I        2039 22.60        16.4 0.12            159           44.2 167 
 BRR  HZ EP       2039  6.42                             159    0.0410 50.2 286 
 BRR  HZ I        2039  8.53        15.6 0.30            158           50.2 286 
 BRR  HN ES       2039 21.38                             159    0.1210 50.2 286 
 RUS  HZ EP   1   2039 12.18                             136    0.27 7  122 170 
 RUS  HN ES   2   2039 31.23                             136    0.12 5  122 170 
 RUS  HN I        2039 33.26         3.1 0.23            134            122 170 
 PTB  HZ EP       2039 12.57                             132   -0.20 9  139 250 
 PTB  HE ES       2039 32.67                             132    0.03 9  139 250 
 PTB  HZ I        2039 35.00         5.2 0.15            131            139 250 
                                                                                
