 2014  610 2337 13.8 L   7.160 -74.092 17.5  RSN  5 0.5 1.5LRSN                1
 GAP=149        1.35       4.7     2.7  7.3  0.2587E+01 -0.5635E+01 -0.1133E+02E
 Epicentro: BARRANCABERMEJA - SANTANDER                                        3
 ACTION:UPD 14-07-01 22:52 OP:nd   STATUS:               ID:20140610233713 L   I
 OLDACT:DUP 14-06-11 07:50 OP:stll STATUS:               ID:20140610232821d    3
 2014-06-10-2328-20M.COL___259                                                 6
 STAT SP IPHASW D HRMM SECON CODA AMPLIT PERI AZIMU VELO AIN AR TRES W  DIS CAZ7
 BRR  HZ EP       2337 21.31                             109    0.1810 42.4  98 
 BRR  HN ES       2337 27.14                             109    0.2710 42.4  98 
 PTB  HZ EP       2337 26.87                             100    0.2710 79.5 210 
 PTB  HN ES       2337 36.68                             100    0.0610 79.5 210 
 PTB  HZ I        2337 38.58         8.4 0.16             95           79.5 210 
 ZAR  HZ EP       2337 28.67                              99    0.1810 92.2 294 
 ZAR  HN ES       2337 39.39                              99   -0.5910 92.2 294 
 BAR2 SZ EP       2337 32.79                              97    0.1010  119 122 
 BAR2 SZ ES       2337 46.56                              97   -0.8910  119 122 
 PAM  SZ EP       2337 38.91                              56    1.07 9  155  83 
 PAM  SN ES       2337 56.01                              56   -0.61 9  155  83 
 PAM  SZ I        2337 59.47        12.5 0.36             56            155  83 
                                                                                
