 2017  810 2012 38.3 L   6.721 -73.122152.3  RSN  7 0.3 1.7LRSN                1
 GAP=143        0.84       4.1     4.5  6.6  0.1287E+01  0.4383E+01 -0.2119E+00E
 Epicentro: JORDAN - SANTANDER                                                 3
 ACTION:UPD 17-09-04 20:18 OP:rebc STATUS:               ID:20170810201238 L   I
 OLDACT:UP  17-08-11 05:31 OP:edw  STATUS:               ID:20170810200737     3
 OLDACT:UP  17-08-11 05:29 OP:edw  STATUS:               ID:20170810200737     3
 OLDACT:REG 17-08-11 03:31 OP:edw  STATUS:               ID:20170810200737     3
 2017-08-10-2008-00M.COL___414                                                 6
 STAT SP IPHASW D HRMM SECON CODA AMPLIT PERI AZIMU VELO AIN AR TRES W  DIS CAZ7
 BAR2 EZ EP     D 2012 58.88                             174    0.3410 15.7 205 
 BAR2 EZ ES       2013 14.39                             174    0.0310 15.7 205 
 BAR2 EZ I        2013 16.65         9.4 0.28            173           15.7 205 
 BRR  HZ EP       2013  0.73                             151    0.2510 77.9 303 
 BRR  HN ES       2013 17.77                             151   -0.0510 77.9 303 
 PAM  EZ EP     D 2013  1.82                             150    0.3410 82.8  34 
 PAM  EE ES       2013 19.29                             150   -0.3110 82.8  34 
 PAM  EZ I        2013 20.98         7.9 0.48            152           82.8  34 
 RUS  HZ EP       2013  1.30                             148   -0.7510 91.7 177 
 RUS  HN ES       2013 20.84                             148    0.2310 91.7 177 
 RUS  HZ I        2013 22.70        11.1 0.36            149           91.7 177 
 SPBC HN ES   2   2013 29.36                             131    0.30 5  158 222 
 ZAR  HZ EP   4   2013 13.20                             123    1.48 0  210 294 
 ZAR  HE ES       2013 37.68                             123   -0.14 8  210 294 
 ZAR  HZ I        2013 42.52         4.9 0.30            124            210 294 
 NOR  HN ES   2   2013 41.79                             120   -0.22 4  232 237 
                                                                                
