 2011  110 2352 53.9 L   6.825 -73.215120.6  RSN  4 0.1 1.3LRSN                1
 GAP=167        0.32      10.3    62.0  5.2  0.5829E+03  0.1375E+02 -0.4624E+01E
 Epicentro: ZAPATOCA - SANTANDER                                               3
 ACTION:UP  11-02-08 08:40 OP:pat  STATUS:               ID:20110110235253 L   I
 2011-01-10-2348-37S.COL___136                                                 6
 STAT SP IPHASW D HRMM SECON CODA AMPLIT PERI AZIMU VELO SNR AR TRES W  DIS CAZ7
 BTL  SZ EP       2353 10.25                             174     0.010   12 331 
 BAR2 SZ EP   1   2353 10.70                             167     0.1 7   26 172 
 BAR2 SZ ES   1   2353 23.62                             167     0.0 7   26 172 
 BAR2 SZ I        2353 24.93        16.8 0.35                            26 172 
 GIR2 SZ EP   2   2353 10.42                             166    -0.1 5   28   5 
 RUS  HZ EP   2   2353 15.57                             137     0.0 5  104 172 
 RUS  HE ES   2   2353 32.34                             137    -0.1 5  104 172 
 RUS  HZ I        2353 34.42         1.4 0.53                           104 172 
                                                                                
