 2016 1010 2311 56.7 L   6.798 -73.156150.3  RSN  8 0.4 2.0LRSN                1
 GAP=208        1.04       4.4     5.7  6.6  0.9926E+01  0.7554E+01  0.1397E+01E
 Epicentro: LOS SANTOS - SANTANDER                                             3
 ACTION:UPD 16-11-09 19:18 OP:rebc STATUS:               ID:20161010231156 L   I
 OLDACT:UP  16-10-11 04:28 OP:drio STATUS:               ID:20161010230737     3
 OLDACT:REG 16-10-11 03:17 OP:drio STATUS:               ID:20161010230737     3
 2016-10-10-2308-00M.COL___363                                                 6
 STAT SP IPHASW D HRMM SECON CODA AMPLIT PERI AZIMU VELO AIN AR TRES W  DIS CAZ7
 BAR2 EZ EP       2312 16.84                             171   -0.0610 22.9 187 
 BAR2 EZ ES       2312 32.20                             171   -0.4310 22.9 187 
 BAR2 EZ I        2312 32.96        28.8 0.24            168           22.9 187 
 BRR  HZ EP       2312 18.63                             154    0.3010 70.3 299 
 BRR  HN ES       2312 35.90                             154    0.7410 70.3 299 
 BRR  HZ I        2312 39.71        15.2 0.28            151           70.3 299 
 RUS  HZ EP       2312 20.74                             145   -0.1810  100 175 
 RUS  HE ES       2312 39.71                             145   -0.0710  100 175 
 RUS  HZ I        2312 40.87        13.2 0.36            146            100 175 
 PTB  HZ EP       2312 24.35                             133    0.38 9  147 259 
 PTB  HN ES       2312 44.58                             133   -0.63 9  147 259 
 PTB  HZ I        2312 50.35         8.8 0.62            132            147 259 
 ZAR  HZ EP       2312 28.95                             123   -0.43 9  203 292 
 ZAR  HN ES       2312 55.26                             123    0.42 9  203 292 
 ZAR  HZ I        2313  1.25        11.0 0.66            123            203 292 
 NOR  HE ES       2313  0.29                             120   -0.31 8  234 234 
 CHI  HZ EP       2312 34.95                             118    0.32 8  248 195 
 CHI  HN ES       2313  4.53                             118    0.34 8  248 195 
 CHI  HZ I        2313  7.80         4.7 0.66            119            248 195 
 SJC  HZ EP   4   2312 50.98                             106   -1.42 0  409 327 
 SJC  HN ES       2313 34.92                             106   -0.90 6  409 327 
                                                                                
