 2016  410 2351  4.8 L   6.807 -73.171138.6  RSN  9 0.2 2.0LRSN                1
 GAP=133        0.59       1.9     2.4  3.9 -0.1466E+01  0.3943E+01 -0.9159E+00E
 Epicentro: LOS SANTOS - SANTANDER                                             3
 ACTION:UPD 16-05-05 14:20 OP:rebc STATUS:               ID:20160410235104 L   I
 OLDACT:REG 16-04-11 03:25 OP:cara STATUS:               ID:20160410234744     3
 2016-04-10-2347-44M.COL___295                                                 6
 STAT SP IPHASW D HRMM SECON CODA AMPLIT PERI AZIMU VELO AIN AR TRES W  DIS CAZ7
 BAR2 EZ EP       2351 23.57                             170   -0.0210 23.8 183 
 BAR2 EZ ES       2351 38.07                             170   -0.1710 23.8 183 
 BAR2 EZ I        2351 39.48        13.0 0.16            170           23.8 183 
 PAM  EZ EP       2351 26.47                             149    0.1210 78.6  41 
 PAM  EZ I        2351 26.81        24.8 0.24            153           78.6  41 
 PAM  EN ES       2351 43.41                             149    0.2710 78.6  41 
 RUS  HZ EP       2351 27.97                             142    0.0210  102 175 
 RUS  HN ES       2351 45.84                             142   -0.1410  102 175 
 RUS  HZ I        2351 46.89         3.9 0.20            145            102 175 
 PTB  HZ EP       2351 30.60                             131   -0.37 9  145 258 
 PTB  HN ES       2351 51.45                             131    0.08 9  145 258 
 PTB  HZ I        2351 54.03        13.1 0.16            130            145 258 
 OCA  HZ EP       2351 32.35                             128   -0.12 9  159 354 
 OCA  HN ES       2351 53.74                             128   -0.30 9  159 354 
 OCA  HZ I        2351 57.17        24.4 0.34            129            159 354 
 SPBC HZ EP       2351 32.63                             128   -0.04 9  162 218 
 SPBC HE ES       2351 54.86                             128    0.47 9  162 218 
 SPBC HZ I        2351 58.30        13.3 0.22            128            162 218 
 ZAR  HZ EP       2351 36.83                             121    0.33 9  201 292 
 ZAR  HE ES       2352  1.41                             121    0.19 9  201 292 
 ZAR  HZ I        2352  8.51        11.1 0.28            121            201 292 
 NOR  HN ES       2352  7.01                             117   -0.33 8  233 234 
 NOR  HZ I        2352 14.92         8.4 0.14            118            233 234 
 GUY2CHZ EP       2351 48.08                             111    0.18 7  299 234 
 GUY2CHN ES       2352 21.34                             111   -0.16 7  299 234 
 GUY2CHZ I        2352 29.09         5.1 0.24                           299 234 
                                                                                
