 2017  910 2145 20.5 L   6.758 -73.126141.6  RSN 10 0.3 1.8LRSN                1
 GAP=141        0.82       2.8     3.6  4.8 -0.1445E+01  0.6232E+01  0.2328E+01E
 Epicentro: LOS SANTOS - SANTANDER                                             3
 ACTION:UPD 17-10-05 19:11 OP:rebc STATUS:               ID:20170910214520 L   I
 OLDACT:UP  17-09-11 06:49 OP:edw  STATUS:               ID:20170910213742     3
 OLDACT:REG 17-09-11 04:21 OP:edw  STATUS:               ID:20170910213742     3
 2017-09-10-2138-00M.COL___413                                                 6
 STAT SP IPHASW D HRMM SECON CODA AMPLIT PERI AZIMU VELO AIN AR TRES W  DIS CAZ7
 BAR2 EZ EP       2145 39.48                             172   -0.0510 19.3 199 
 BAR2 EZ ES       2145 54.07                             172   -0.3210 19.3 199 
 BAR2 EZ I        2146  0.29         8.5 0.22            169           19.3 199 
 BRR  HZ EP       2145 41.28                             150   -0.1410 75.3 301 
 BRR  HN ES       2145 58.48                             150    0.7210 75.3 301 
 PAM  EZ EP       2145 42.23                             149   -0.1610 79.7  36 
 PAM  EN ES       2145 59.27                             149   -0.2210 79.7  36 
 PAM  EZ I        2146  1.10         8.8 0.58            155           79.7  36 
 RUS  HZ EP       2145 43.62                             144    0.1510 95.8 177 
 RUS  HN ES       2146  1.91                             144    0.5010 95.8 177 
 RUS  HZ I        2146  4.22         7.1 0.36            146           95.8 177 
 SPBC HZ EP       2145 48.41                             128   -0.03 9  161 221 
 SPBC HN ES       2146  9.57                             128   -0.69 9  161 221 
 SPBC HZ I        2146 12.98        10.0 0.32            130            161 221 
 ZAR  HZ EP       2145 53.18                             121    0.14 8  208 293 
 ZAR  HN ES       2146 18.20                             121   -0.24 8  208 293 
 ZAR  HZ I        2146 24.54         8.3 0.42            123            208 293 
 NOR  HZ EP       2145 55.77                             118   -0.09 8  234 236 
 NOR  HN ES       2146 23.39                             118   -0.08 8  234 236 
 NOR  HZ I        2146 28.72         5.0 0.22            119            234 236 
 CHI  HZ EP   4   2145 55.21                             117   -2.31 0  245 196 
 CHI  HN ES       2146 26.45                             117    0.04 8  245 196 
 CHI  HZ I        2146 30.96         2.2 0.48            119            245 196 
 GUY2CHZ EP       2146  4.27                             112    0.48 7  300 236 
 GUY2CHE ES       2146 37.67                             112    0.09 7  300 236 
 GUY2CHZ I        2146 46.10         3.1 0.32                           300 236 
 PRA  HZ EP       2146 13.50                             106   -0.00 6  389 210 
 PRA  HN ES   4   2146 52.62                             106   -2.25 0  389 210 
 PRA  HZ I        2147  2.65         2.6 0.32            108            389 210 
                                                                                
