 2015 1110 2137 59.0 L   7.453 -73.178132.1  RSN  5 0.3 2.1LRSN                1
 GAP=137        0.89       4.5     5.0  7.7  0.5239E+01  0.1281E+02 -0.1096E+02E
 Epicentro: EL PLAYON - SANTANDER                                              3
 ACTION:UPD 15-12-28 16:09 OP:cam  STATUS:               ID:20151110213759 L   I
 OLDACT:REG 15-11-11 04:26 OP:ar   STATUS:               ID:20151110212748     3
 2015-11-10-2127-48M.COL___319                                                 6
 STAT SP IPHASW D HRMM SECON CODA AMPLIT PERI AZIMU VELO AIN AR TRES W  DIS CAZ7
 PAM  EE ES       2138 34.04                             157    0.3610 54.3 103 
 PAM  EZ I        2138 36.94        23.9 0.32            157           54.3 103 
 BRR  HZ EP       2138 18.86                             150    0.2010 70.2 237 
 BRR  HN ES       2138 34.12                             150    0.1510 70.2 237 
 BRR  HZ I        2138 34.41        26.1 0.32            153           70.2 237 
 BAR2 EZ EP       2138 20.83                             142    0.1410 95.2 180 
 BAR2 EZ ES       2138 36.88                             142   -0.7110 95.2 180 
 BAR2 EZ I        2138 38.21        24.4 0.12            145           95.2 180 
 SML  HZ EP       2138 27.91                             123   -0.04 9  179 327 
 SML  HN ES       2138 50.04                             123   -0.46 9  179 327 
 SML  HZ I        2138 52.09        17.1 0.10            124            179 327 
 ZAR  HZ EP       2138 28.66                             122   -0.01 9  185 271 
 ZAR  HN ES       2138 52.12                             122    0.34 9  185 271 
 ZAR  HZ I        2138 53.28        12.7 0.18            124            185 271 
                                                                                
