 2015  610 2010  8.2 L   6.573 -73.433114.0  RSN 16 0.5 2.1LRSN                1
 GAP= 67        1.26       2.8     4.0  6.4 -0.2364E+01  0.1150E+02 -0.6331E+00E
 Epicentro: HATO - SANTANDER                                                   3
 ACTION:UPD 15-09-10 22:11 OP:cam  STATUS:               ID:20150610201008 L   I
 OLDACT:UP  15-06-18 07:46 OP:AK   STATUS:               ID:20150610201008 L   3
 OLDACT:REG 15-06-11 03:14 OP:ar   STATUS:               ID:20150610200750     3
 2015-06-10-2007-50M.COL___303                                                 6
 STAT SP IPHASW D HRMM SECON CODA AMPLIT PERI AZIMU VELO AIN AR TRES W  DIS CAZ7
 BAR2 EZ EP       2010 24.20                             166    0.0110 27.8  86 
 BAR2 EZ ES       2010 36.58                             166   -0.0610 27.8  86 
 BAR2 EZ I        2010 38.11        29.8 0.12            172           27.8  86 
 BRR  HZ EP       2010 25.67                             148   -0.0810 66.6 332 
 BRR  HN ES       2010 40.10                             148    0.6910 66.6 332 
 BRR  HZ I        2010 46.04        20.9 0.16            149           66.6 332 
 RUS  HZ EP       2010 27.59                             141   -0.1510 84.7 153 
 RUS  HE ES       2010 43.59                             141    0.6510 84.7 153 
 RUS  HZ I        2010 44.15        36.1 0.22            146           84.7 153 
 PAM  SZ EP       2010 30.22                             131   -0.2810  117  44 
 PAM  SN ES       2010 47.58                             131   -0.2810  117  44 
 PAM  SZ I        2010 51.09        20.8 0.24            137            117  44 
 SPBC HZ EP       2010 30.18                             129   -0.4110  124 215 
 SPBC HN ES       2010 47.24                             129   -0.7810  124 215 
 SPBC HZ I        2010 55.06        40.1 0.38            131            124 215 
 OCA  HZ EP       2010 37.36                             117    0.47 9  185   4 
 OCA  HN ES       2010 58.31                             117   -0.93 9  185   4 
 OCA  HZ I        2011  1.71        40.1 0.54            121            185   4 
 ZAR  HZ EP       2010 36.71                             117   -0.29 9  187 303 
 ZAR  HN ES       2011  0.34                             117    0.91 9  187 303 
 ZAR  HZ I        2011  2.82        15.9 0.30            119            187 303 
 NOR  HZ EP       2010 37.31                             116   -0.50 9  194 235 
 NOR  HE ES       2011  0.47                             116   -0.41 9  194 235 
 NOR  HZ I        2011  2.94        13.8 0.16            118            194 235 
 CHI  HZ EP       2010 41.05                             113    0.20 8  217 189 
 CHI  HN ES       2011  6.92                             113    0.63 8  217 189 
 CHI  HZ I        2011 13.24         6.1 0.46            116            217 189 
 HEL  HZ EP       2010 43.28                             111    0.42 8  236 260 
 HEL  HN ES       2011  9.20                             111   -0.65 8  236 260 
 HEL  HZ I        2011 16.20         8.7 0.24            113            236 260 
 SML  HZ EP       2010 43.92                             109   -0.82 8  256 344 
 SML  HN ES       2011 14.05                             109    0.84 8  256 344 
 SML  HZ I        2011 19.02        24.8 0.10            112            256 344 
 GUY2CHZ EP       2010 46.54                             109    0.67 8  261 235 
 GUY2CHN ES   4   2011 16.44                             109    1.21 0  261 235 
 GUY2CHZ I        2011 24.17         7.9 0.28                           261 235 
 URE  HN ES   4   2011 13.09                             108   -2.18 0  266 299 
 URE  HZ I        2011 17.25         8.7 0.36            110            266 299 
 CBOC HZ EP       2010 49.56                             106   -0.04 7  296 255 
 CBOC HN ES       2011 21.63                             106   -0.23 7  296 255 
 CBOC HZ I        2011 23.41         2.8 0.22            108            296 255 
 TOL  SZ EP       2010 51.22                             105    0.55 7  303 224 
 TOL  SE ES   4   2011 25.97                             105    2.21 0  303 224 
 TOL  SZ I        2011 33.45         5.8 0.50            108            303 224 
 PAL  HZ EP       2010 58.16                             102    0.44 6  366 240 
 PAL  HE ES   4   2011 34.42                             102   -1.90 0  366 240 
 PAL  HZ I        2011 46.32         2.0 0.24            104            366 240 
                                                                                
