 2014  910 2202  2.8 L   6.172 -73.536120.8  RSN  5 0.4 1.1LRSN                1
 GAP=121        0.99       7.4     4.4 10.3 -0.4387E+01  0.1531E+02  0.2758E+02E
 Epicentro: AGUADA - SANTANDER                                                 3
 ACTION:UPD 14-10-03 23:03 OP:nd   STATUS:               ID:20140910220202 L   I
 OLDACT:DUP 14-09-11 02:35 OP:fm   STATUS:               ID:20140910215821d    3
 2014-09-10-2158-20M.COL___281                                                 6
 STAT SP IPHASW D HRMM SECON CODA AMPLIT PERI AZIMU VELO AIN AR TRES W  DIS CAZ7
 RUS  HZ EP       22 2 21.10                             152   -0.2010 59.0 122 
 RUS  HN ES   1   22 2 35.22                             152   -0.49 7 59.0 122 
 RUS  HZ I        22 2 37.00         1.5 0.30            156           59.0 122 
 BAR2 SZ EP       22 2 21.50                             151    0.4610 60.7  40 
 BAR2 SZ ES   1   22 2 35.82                             151    0.59 7 60.7  40 
 BAR2 SZ I        22 2 37.96         5.9 0.54            153           60.7  40 
 PTB  HZ EP   1   22 2 24.13                             135   -0.19 7  110 292 
 PTB  HN ES       22 2 40.59                             135   -0.4910  110 292 
 PTB  HZ I        22 2 43.33         3.4 0.16            137            110 292 
 NOR  HZ EP       22 2 29.19                             123   -0.21 9  162 246 
 NOR  HN ES   1   22 2 50.31                             123    0.19 7  162 246 
 GUY2CHZ EP   1   22 2 36.58                             113   -0.46 6  228 243 
 GUY2CHE ES       22 3  4.48                             113    0.76 8  228 243 
 GUY2CHZ I        22 3 10.97         1.1 0.24                           228 243 
                                                                                
