 2017  310 2358 32.1 L   6.818 -73.162142.8  RSN 18 0.4 2.3LRSN                1
 GAP=134        1.04       3.1     4.4  5.4 -0.3222E+00  0.8662E+01  0.3973E+01E
 Epicentro: LOS SANTOS - SANTANDER                                             3
 ACTION:UPD 17-05-25 18:38 OP:jn   STATUS:               ID:20170310235832 L   I
 OLDACT:REG 17-03-11 04:48 OP:lv   STATUS:               ID:20170310235345     3
 2017-03-10-2354-00M.COL___409                                                 6
 STAT SP IPHASW D HRMM SECON CODA AMPLIT PERI AZIMU VELO AIN AR TRES W  DIS CAZ7
 BAR2 EZ EP       2358 51.41                             170    0.0310 25.1 185 
 BAR2 EZ ES       2359  5.96                             170   -0.4910 25.1 185 
 BAR2 EZ I        2359  8.00        64.1 0.21            168           25.1 185 
 BRR  HZ EP       2358 53.25                             153    0.4910 68.6 298 
 BRR  HN ES       2359  8.93                             153    0.0410 68.6 298 
 BRR  HZ I        2359 10.95        46.9 0.09            147           68.6 298 
 PAM  EZ EP       2358 54.30                             150    0.3510 77.0  42 
 PAM  EN ES       2359 10.74                             150   -0.2710 77.0  42 
 PAM  EZ I        2359 13.54        54.7 0.50            151           77.0  42 
 RUS  HZ EP       2358 55.37                             142   -0.3210  103 175 
 RUS  HN ES       2359 14.79                             142    0.6810  103 175 
 RUS  HZ I        2359 15.83        22.4 0.30            143            103 175 
 PTB  HZ EP       2358 58.48                             131   -0.19 9  146 258 
 PTB  HZ I        2359 22.69        13.2 0.06            128            146 258 
 SPBC HZ EP       2359  0.41                             128    0.02 9  164 218 
 SPBC HN ES       2359 21.47                             128   -1.01 9  164 218 
 SPBC HZ I        2359 25.13        45.2 0.23            126            164 218 
 ZAR  HZ EP       2359  4.46                             122    0.39 9  202 292 
 ZAR  HN ES       2359 28.96                             122   -0.07 9  202 292 
 NOR  HZ EP       2359  7.55                             118   -0.05 8  234 234 
 NOR  HN ES       2359 36.31                             118    1.00 8  234 234 
 NOR  HZ I        2359 37.99        10.6 0.20            116            234 234 
 CHI  HZ EP       2359  9.64                             116   -0.13 8  250 195 
 CHI  HE ES       2359 39.55                             116    0.38 8  250 195 
 CHI  HZ I        2359 42.61         9.0 0.42            115            250 195 
 ROSC BZ EP   4   2359 12.40                             116    2.28 0  254 210 
 ROSC BN ES       2359 40.10                             116    0.30 8  254 210 
 ROSC BZ I        2359 43.65        22.4 0.44            115            254 210 
 HEL  HZ EP   4   2359 13.57                             114    1.57 0  271 255 
 HEL  HN ES   4   2359 41.34                             114   -1.80 0  271 255 
 HEL  HZ I        2359 50.46         7.5 0.09            112            271 255 
 URE  HZ EP       2359 12.14                             113   -0.58 7  281 292 
 URE  HN ES   4   2359 42.91                             113   -1.52 0  281 292 
 URE  HZ I        2359 52.03        16.7 0.22            111            281 292 
 GUY2CHZ EP   4   2359 16.87                             112    1.36 0  301 234 
 GUY2CHN ES   4   2359 51.44                             112    2.05 0  301 234 
 GUY2CHZ  IAML    2359 57.68         9.1 0.32                           301 234 
 VIL  EZ EP       2359 15.40                             111   -0.14 7  305 191 
 VIL  EN ES       2359 49.41                             111   -0.03 7  305 191 
 VIL  EZ I        2359 52.01        16.9 0.40            111            305 191 
 PTGC HN ES   4   2359 47.88                             111   -2.54 0  311 158 
 CBOC HZ EP       2359 18.82                             109    0.08 7  333 252 
 CBOC HN ES   4   2359 56.45                             109    1.31 0  333 252 
 PRA  HZ EP       2359 25.30                             106   -0.29 6  393 209 
 PRA  HN ES       24 0  6.62                             106   -0.72 6  393 209 
 PRA  HZ I        24 0 10.53         7.2 0.25            105            393 209 
 SJC  HZ EP   4   2359 25.63                             105   -1.59 0  407 327 
 SJC  HN ES   4   24 0  5.30                             105   -4.93 0  407 327 
 SJC  HZ I        24 0 13.79         3.6 0.17            104            407 327 
 CRJC HZ EP   4   2359 31.77                             103   -2.49 0  466   4 
 CRJC HN ES   4   24 0 19.39                             103   -3.38 0  466   4 
 CRJC HZ I        24 0 22.49         5.9 0.23            102            466   4 
                                                                                
