 2015  810 2310 39.9 L   6.799 -73.154137.9  RSN 19 0.4 2.6LRSN                1
 GAP= 71        0.90       2.0     2.6  4.2 -0.6848E+00  0.3233E+01  0.5978E+00E
 Epicentro: LOS SANTOS - SANTANDER                                             3
 ACTION:UPD 15-09-15 23:01 OP:cam  STATUS:               ID:20150810231039 L   I
 OLDACT:REG 15-08-11 04:15 OP:drio STATUS:               ID:20150810230750     3
 2015-08-10-2307-50M.COL___346                                                 6
 STAT SP IPHASW D HRMM SECON CODA AMPLIT PERI AZIMU VELO AIN AR TRES W  DIS CAZ7
 BAR2 EZ EP     D 2310 58.63                             170    0.0810 23.1 188 
 BAR2 EZ ES       2311 13.13                             170    0.0110 23.1 188 
 BAR2 EZ I        2311 14.50        76.1 0.14            169           23.1 188 
 BRR  HZ EP       2311  0.56                             151    0.4310 70.5 299 
 BRR  HN ES       2311 16.44                             151    0.5010 70.5 299 
 BRR  HZ I        2311 20.45        72.8 0.26            151           70.5 299 
 PAM  EZ EP       2311  1.55                             149    0.2610 78.0  40 
 PAM  EE ES       2311 17.79                             149   -0.2110 78.0  40 
 PAM  EZ I        2311 20.81        83.3 0.68            153           78.0  40 
 RUS  HZ EP       2311  2.61                             142   -0.2510  101 176 
 RUS  HE ES       2311 20.76                             142   -0.0310  101 176 
 RUS  HZ I        2311 22.23        44.5 0.30            143            101 176 
 TAM  HZ EP       2311  6.90                             129   -0.12 9  156 105 
 TAM  HE ES       2311 28.36                             129    0.17 9  156 105 
 TAM  HZ I        2311 32.70        19.2 0.36            132            156 105 
 OCA  HZ EP       2311  8.03                             128    0.45 9  160 353 
 OCA  HN ES       2311 28.65                             128   -0.54 9  160 353 
 OCA  HZ I        2311 32.05        82.4 0.54            130            160 353 
 SPBC HZ EP       2311  7.66                             127   -0.06 9  163 219 
 SPBC HN ES       2311 29.19                             127   -0.25 9  163 219 
 SPBC HZ I        2311 32.40        50.7 0.18            128            163 219 
 ZAR  HZ EP       2311 11.86                             121    0.13 9  203 292 
 ZAR  HE ES       2311 37.38                             121    0.79 9  203 292 
 ZAR  HZ I        2311 43.00        70.7 0.54            122            203 292 
 NOR  HZ EP       2311 15.22                             117    0.15 8  234 234 
 NOR  HN ES       2311 42.22                             117   -0.31 8  234 234 
 NOR  HZ I        2311 46.59        26.4 0.48            118            234 234 
 SML  HZ EP       2311 15.38                             116   -0.65 8  243 335 
 SML  HE ES       2311 43.55                             116   -0.69 8  243 335 
 SML  HZ I        2311 47.70        51.6 0.10            118            243 335 
 CHI  HZ EP       2311 17.02                             115   -0.09 8  248 195 
 CHI  HN ES   4   2311 44.45                             115   -1.71 0  248 195 
 CHI  HZ I        2311 51.85        14.1 0.36            117            248 195 
 ROSC BZ EP       2311 17.93                             115    0.41 8  252 211 
 ROSC BE ES       2311 46.39                             115   -0.49 8  252 211 
 ROSC BZ I        2311 52.50        24.0 0.30            116            252 211 
 HEL  HZ EP   4   2311 20.87                             113    1.27 0  271 256 
 HEL  HN ES       2311 49.84                             113   -0.74 8  271 256 
 HEL  HZ I        2311 58.05        18.6 0.42            114            271 256 
 GUY2CHZ EP       2311 23.45                             111    0.41 7  300 235 
 GUY2CHN ES       2311 57.10                             111    0.39 7  300 235 
 GUY2CHZ I        2312  3.49        22.5 0.32                           300 235 
 LL2C HN ES       2311 56.55                             110   -0.28 7  306 354 
 DBB  SZ EP       2311 27.26                             108    0.32 7  339 274 
 DBB  SZ ES   4   2312  1.02                             108   -2.63 0  339 274 
 TOL  SZ EP       2311 27.65                             108   -0.09 7  343 225 
 TOL  SE ES   4   2312  3.49                             108   -1.60 0  343 225 
 TOL  SZ I        2312 11.39        14.7 0.32            109            343 225 
 MON  HZ EP   4   2311 26.44                             107   -2.06 0  353 308 
 MON  HE ES   4   2312  4.72                             107   -1.72 0  353 308 
 ORTC HZ EP       2311 33.96                             105    0.50 6  395 216 
 ORTC HE ES       2312 14.64                             105   -0.63 6  395 216 
 ORTC HZ I        2312 21.45        10.5 0.42            106            395 216 
 SJC  HZ EP   4   2311 32.90                             104   -2.23 0  409 327 
 SJC  HN ES   4   2312 13.12                             104   -5.12 0  409 327 
 SJC  HZ I        2312 18.62         6.6 0.32            106            409 327 
                                                                                
