 2017  410 2150 50.3 L   6.806 -73.177138.7  RSN  4 0.2 1.5LRSN                1
 GAP=143        0.53       2.9     2.7  5.0 -0.1450E+01  0.1426E+01  0.2588E+01E
 Epicentro: LOS SANTOS - SANTANDER                                             3
 ACTION:UPD 17-05-30 21:10 OP:jn   STATUS:               ID:20170410215050 L   I
 OLDACT:DUP 17-04-11 03:41 OP:ar   STATUS:               ID:20170410214624d    3
 2017-04-10-2148-00M.COL___377                                                 6
 STAT SP IPHASW D HRMM SECON CODA AMPLIT PERI AZIMU VELO AIN AR TRES W  DIS CAZ7
 PAM  EZ EP       2151 11.74                             149   -0.1310 79.2  42 
 PAM  EE ES       2151 28.76                             149    0.0610 79.2  42 
 PAM  EZ I        2151 30.52         7.3 0.54            152           79.2  42 
 RUS  HZ EP       2151 13.51                             142    0.0910  102 174 
 RUS  HE ES       2151 31.53                             142    0.0710  102 174 
 RUS  HZ I        2151 33.24         3.9 0.30            144            102 174 
 PTB  HZ EP       2151 16.71                             131    0.33 9  144 258 
 PTB  HN ES       2151 36.49                             131   -0.25 9  144 258 
 PTB  HZ I        2151 39.06         6.3 0.30            133            144 258 
 YPLC HZ EP       2151 19.58                             125   -0.22 9  179 150 
                                                                                
