 2011  910 2243 25.7 L   6.821 -73.146136.0  RSN  6 0.4 1.7LRSN                1
 GAP=135        0.72       4.7     5.0  6.5  0.5151E+01  0.7862E+01 -0.1836E+00E
 Epicentro: LOS SANTOS - SANTANDER                                             3
 ACTION:UPD 12-07-13 15:56 OP:ep   STATUS:               ID:20110910224325 L   I
 2011-09-10-2240-00M.COL___171                                                 6
 STAT SP IPHASW D HRMM SECON CODA AMPLIT PERI AZIMU VELO AIN AR TRES W  DIS CAZ7
 BAR2 SZ EP   1   2243 44.32                             169    0.14 7 25.6 189 
 BAR2 SZ ES   1   2243 58.76                             169    0.15 7 25.6 189 
 BAR2 SZ I        2244  0.81        13.2 0.39                          25.6 189 
 GIR2 SZ EP   1   2243 43.82                             167   -0.30 7 29.0 350 
 GIR2 SZ ES   2   2243 57.86                             167   -0.65 5 29.0 350 
 BRR  HZ EP   1   2243 45.56                             151   -0.14 7 70.1 297 
 BRR  HZ I        2243 47.21        11.0 0.13                          70.1 297 
 BRR  HN ES   1   2244  1.56                             151    0.23 7 70.1 297 
 PAM  SZ EP   1   2243 46.66                             150   -0.09 7 75.7  41 
 PAM  SN ES   1   2244  3.44                             150    0.25 7 75.7  41 
 RUS  HZ EP   1   2243 48.17                             141   -0.48 7  103 176 
 RUS  HN ES   1   2244  6.80                             141    0.23 7  103 176 
 RUS  HZ I        2244  8.75         4.0 0.28                           103 176 
 ZAR  HZ EP   1   2243 58.27                             120    0.87 6  203 292 
 ZAR  HN ES   1   2244 21.68                             120   -0.47 6  203 292 
 ZAR  HZ I        2244 26.60         6.3 0.33                           203 292 
                                                                                
