 2017  910 2334 28.4 L   6.783 -73.141149.7  RSN 13 0.4 1.9LRSN                1
 GAP=113        1.01       3.4     4.0  5.9  0.3376E+00  0.5502E+01  0.4912E+01E
 Epicentro: LOS SANTOS - SANTANDER                                             3
 ACTION:UPD 17-10-05 19:11 OP:rebc STATUS:               ID:20170910233428 L   I
 OLDACT:UP  17-09-11 07:26 OP:edw  STATUS:               ID:20170910232743     3
 OLDACT:UP  17-09-11 07:25 OP:edw  STATUS:               ID:20170910232743     3
 OLDACT:UP  17-09-11 07:25 OP:edw  STATUS:               ID:20170910232743     3
 OLDACT:UP  17-09-11 07:21 OP:edw  STATUS:               ID:20170910232743     3
 OLDACT:REG 17-09-11 04:27 OP:edw  STATUS:               ID:20170910232743     3
 2017-09-10-2328-00M.COL___410                                                 6
 STAT SP IPHASW D HRMM SECON CODA AMPLIT PERI AZIMU VELO AIN AR TRES W  DIS CAZ7
 BAR2 EZ EP       2334 48.33                             171   -0.1210 21.6 192 
 BAR2 EZ ES       2335  3.49                             171   -0.6110 21.6 192 
 BAR2 EZ I        2335  5.00        19.4 0.36            167           21.6 192 
 BRR  HZ IP     C 2334 50.12                             153    0.0910 72.5 300 
 BRR  HE ES       2335  7.58                             153    0.6710 72.5 300 
 BRR  HZ I        2335 11.37        15.1 0.16            151           72.5 300 
 PAM  EZ EP       2334 51.00                             151   -0.0810 78.5  38 
 PAM  EN ES       2335  8.64                             151   -0.1510 78.5  38 
 PAM  EZ I        2335 10.53        13.2 0.54            156           78.5  38 
 RUS  HZ EP       2334 52.20                             145   -0.1810 98.7 176 
 RUS  HN ES       2335 11.14                             145    0.0310 98.7 176 
 RUS  HZ I        2335 12.09         5.8 0.26            144           98.7 176 
 SPBC HZ EP       2334 57.16                             130    0.08 9  162 220 
 SPBC HN ES       2335 18.99                             130   -0.47 9  162 220 
 SPBC HZ I        2335 20.58        14.7 0.28            128            162 220 
 YPLC HZ EP       2334 58.58                             128    0.30 9  175 151 
 YPLC HN ES   1   2335 22.81                             128    1.21 7  175 151 
 ZAR  HZ EP       2335  0.94                             123   -0.27 8  205 293 
 ZAR  HN ES       2335 27.22                             123    0.41 8  205 293 
 ZAR  HZ I        2335 33.02         8.1 0.42            123            205 293 
 NOR  HZ EP       2335  4.38                             119    0.11 8  234 235 
 NOR  HN ES       2335 31.93                             119   -0.33 8  234 235 
 NOR  HZ I        2335 36.67         4.2 0.22            119            234 235 
 CHI  HZ EP   1   2335  5.05                             118   -1.07 6  247 195 
 CHI  HE ES       2335 35.75                             118    0.20 8  247 195 
 CHI  HZ I        2335 48.45         3.8 0.42            118            247 195 
 ROSC BZ EP   4   2335  8.90                             118    2.33 0  251 211 
 ROSC BE ES   4   2335 38.91                             118    2.55 0  251 211 
 ROSC BZ I        2335 45.64         7.4 0.40            117            251 211 
 HEL  HE ES   4   2335 41.54                             115    1.22 0  272 256 
 GUY2CHZ EP   4   2335 14.40                             113    2.30 0  301 235 
 GUY2CHN ES   4   2335 49.05                             113    2.85 0  301 235 
 GUY2CHZ I        2335 53.14         4.1 0.36                           301 235 
 PRA  HZ EP   4   2335 19.39                             107   -2.49 0  391 210 
 PRA  HE ES       2336  4.11                             107    0.51 6  391 210 
 PRA  HZ I        2336 12.44         2.5 0.30            107            391 210 
 SJC  HZ EP   4   2335 22.56                             106   -1.73 0  411 327 
 SJC  HN ES   4   2336  3.73                             106   -4.17 0  411 327 
 SJC  HZ I        2336  8.48         1.8 0.42            107            411 327 
                                                                                
