 2015 1110 2256  9.6 L   6.783 -73.118143.1  RSN  6 0.3 1.9LRSN                1
 GAP=203        0.73       3.4     4.8  5.0 -0.2593E+00  0.7817E+01 -0.8785E+00E
 Epicentro: LOS SANTOS - SANTANDER                                             3
 ACTION:UPD 15-12-28 16:09 OP:cam  STATUS:               ID:20151110225609 L   I
 OLDACT:REG 15-11-11 04:29 OP:ar   STATUS:               ID:20151110224750     3
 2015-11-10-2247-50M.COL___319                                                 6
 STAT SP IPHASW D HRMM SECON CODA AMPLIT PERI AZIMU VELO AIN AR TRES W  DIS CAZ7
 BAR2 EZ EP       2256 28.89                             171   -0.0210 22.2 199 
 BAR2 EZ ES       2256 44.10                             171    0.1510 22.2 199 
 BAR2 EZ I        2256 44.34        17.8 0.20            173           22.2 199 
 BRR  HZ IP     D 2256 30.69                             151   -0.0110 74.8 299 
 BRR  HN ES       2256 47.27                             151    0.1410 74.8 299 
 BRR  HZ I        2256 49.82        19.4 0.26            149           74.8 299 
 RUS  HZ EP       2256 32.91                             144   -0.0510 98.5 178 
 RUS  HN ES       2256 51.05                             144   -0.1110 98.5 178 
 RUS  HZ I        2256 52.72         5.4 0.58            147           98.5 178 
 NOR  HZ EP   2   2256 44.97                             118   -0.38 4  236 235 
 NOR  HE ES       2257 12.46                             118   -0.76 8  236 235 
 NOR  HZ I        2257 14.09         8.9 0.20            119            236 235 
 SML  HZ EP       2256 46.27                             117   -0.17 8  247 335 
 SML  HN ES   2   2257 14.96                             117   -0.19 4  247 335 
 SML  HZ I        2257 20.75        12.6 0.24            116            247 335 
 GUY2CHZ EP       2256 53.96                             112    0.69 7  303 235 
 GUY2CHN ES       2257 27.80                             112    0.49 7  303 235 
 GUY2CHZ I        2257 35.53         3.2 0.54                           303 235 
                                                                                
