 2017  910 2211  6.4 L   6.786 -73.115145.8  RSN  9 0.4 1.6LRSN                1
 GAP=141        0.84       3.3     4.0  5.5 -0.6569E+00  0.6877E+01  0.4315E+01E
 Epicentro: LOS SANTOS - SANTANDER                                             3
 ACTION:UPD 17-10-05 19:11 OP:rebc STATUS:               ID:20170910221106 L   I
 OLDACT:UP  17-09-11 07:04 OP:edw  STATUS:               ID:20170910220744     3
 OLDACT:UP  17-09-11 07:01 OP:edw  STATUS:               ID:20170910220744     3
 OLDACT:REG 17-09-11 04:22 OP:edw  STATUS:               ID:20170910220744     3
 2017-09-10-2208-00M.COL___412                                                 6
 STAT SP IPHASW D HRMM SECON CODA AMPLIT PERI AZIMU VELO AIN AR TRES W  DIS CAZ7
 BAR2 EZ EP       2211 26.01                             171    0.0310 22.7 199 
 BAR2 EZ ES       2211 40.83                             171   -0.4510 22.7 199 
 BAR2 EZ I        2211 43.76         8.8 0.40            171           22.7 199 
 BRR  HZ EP       2211 27.26                             151   -0.4710 74.9 298 
 BRR  HN ES       2211 44.44                             151    0.0510 74.9 298 
 BRR  HZ I        2211 48.67         8.0 0.44            151           74.9 298 
 PAM  EZ EP       2211 28.96                             151    0.4410 76.5  37 
 PAM  EN ES       2211 46.02                             151    0.2110 76.5  37 
 PAM  EZ I        2211 48.38         5.2 0.52            154           76.5  37 
 RUS  HZ EP       2211 30.06                             144    0.0710 98.9 178 
 RUS  HN ES       2211 48.49                             144    0.0710 98.9 178 
 RUS  HZ I        2211 50.65         3.7 0.24            148           98.9 178 
 SPBC HN ES   2   2211 58.15                             129    0.89 5  164 220 
 ZAR  HZ EP   4   2211 36.31                             122   -2.88 0  208 292 
 ZAR  HN ES       2212  4.55                             122   -0.25 8  208 292 
 ZAR  HZ I        2212  9.41         3.6 0.40            123            208 292 
 NOR  HZ EP       2211 42.32                             118    0.02 8  237 235 
 NOR  HN ES       2212 11.04                             118    0.72 8  237 235 
 NOR  HZ I        2212 12.46         3.5 0.16            120            237 235 
 CHI  HZ EP   2   2211 44.07                             117    0.07 4  248 196 
 CHI  HE ES       2212 12.92                             117   -0.43 8  248 196 
 GUY2CHZ EP       2211 49.86                             112   -0.33 7  303 235 
 GUY2CHN ES   4   2212 27.20                             112    2.83 0  303 235 
 GUY2CHZ I        2212 33.96         2.4 0.50                           303 235 
                                                                                
