 2014  510 2228 40.3 L   7.511 -73.138141.2  RSN  5 0.3 1.5LRSN                1
 GAP=202        0.69       8.9     4.3  6.9 -0.2036E+02  0.1018E+02 -0.2944E+01E
 Epicentro: EL PLAYON - SANTANDER                                              3
 OLDACT:REG 14-05-11 03:34 OP:fm   STATUS:               ID:20140510222819     3
 ACTION:UPD 15-03-16 16:56 OP:nd   STATUS:               ID:20140510222840 L   I
 OLDACT:UP  14-05-11 04:42 OP:fm   STATUS:               ID:20140510222819     3
 2014-05-10-2228-19M.COL___245                                                 6
 STAT SP IPHASW D HRMM SECON CODA AMPLIT PERI AZIMU VELO AIN AR TRES W  DIS CAZ7
 PAM  SZ EP       2229  1.02                             159    0.3810 52.0 111 
 PAM  SN ES       2229 16.33                             159   -0.2110 52.0 111 
 PAM  SZ I        2229 20.58         3.8 0.44            155           52.0 111 
 BRR  HZ EP       2229  1.20                             150   -0.0910 77.6 235 
 BRR  HN ES       2229 17.83                             150    0.1410 77.6 235 
 BRR  SZ I        2229 20.54         8.3 0.32            146           77.6 235 
 PTB  HZ EP   1   2229  9.41                             125   -0.65 7  181 234 
 PTB  HN ES       2229 33.14                             125   -0.16 9  181 234 
 PTB  SZ I        2229 41.75         5.1 1.86            125            181 234 
 ZAR  HE ES   1   2229 35.00                             123    0.12 7  190 269 
 NOR  HN ES   1   2229 54.39                             112    0.46 5  288 222 
                                                                                
