 2016  110 2313 32.4 L   6.760 -73.104143.1  RSN  7 0.5 1.3LRSN                1
 GAP=204        0.89       6.7    10.7  8.5  0.4591E+02  0.1039E+02 -0.1155E+01E
 Epicentro: LOS SANTOS - SANTANDER                                             3
 ACTION:UPD 16-03-09 23:24 OP:cam  STATUS:               ID:20160110231332 L   I
 OLDACT:REG 16-01-11 02:53 OP:dnl  STATUS:               ID:20160110230755     3
 2016-01-10-2307-55M.COL___251                                                 6
 STAT SP IPHASW D HRMM SECON CODA AMPLIT PERI AZIMU VELO AIN AR TRES W  DIS CAZ7
 BRR  HZ EP       2313 54.01                             150    0.4110 77.4 300 
 BRR  HE ES       2314 10.36                             150    0.2010 77.4 300 
 BRR  HZ I        2314 14.98         3.7 0.14            137           77.4 300 
 RUS  HZ EP   2   2313 56.16                             145    0.63 5 96.0 179 
 RUS  HN ES       2314 13.17                             145   -0.4310 96.0 179 
 RUS  HZ I        2314 15.73         1.3 0.22            138           96.0 179 
 PTB  HZ EP       2313 59.00                             131   -0.47 9  152 261 
 PTB  HN ES   2   2314 19.87                             131   -0.74 5  152 261 
 PTB  HZ I        2314 22.97         3.3 0.13            121            152 261 
 ZAR  HZ EP   2   2314  6.17                             121    0.90 4  210 293 
 ZAR  HE ES   2   2314 31.15                             121    0.22 4  210 293 
 ZAR  HZ I        2314 46.84         4.2 0.10            115            210 293 
 CHI  HZ EP   2   2314  9.61                             117    0.01 4  246 196 
 CHI  HE ES   2   2314 39.58                             117    0.94 4  246 196 
 CHI  HZ I        2314 45.64         0.9 0.39            113            246 196 
 SML  HZ EP   2   2314  8.71                             116   -0.79 4  250 335 
 SML  HE ES   4   2314 36.76                             116   -1.70 0  250 335 
 GUY2CHZ EP   4   2314 18.15                             112    2.14 0  303 236 
 GUY2CHE ES   4   2314 51.21                             112    1.17 0  303 236 
 GUY2CHZ I        2314 56.93         1.7 0.27                           303 236 
                                                                                
