 2014  710 2046 44.5 L   7.478 -73.219127.9  RSN  5 0.4 1.5LRSN                1
 GAP=210        0.95       4.7     7.5  9.3  0.4646E+01  0.6349E+01 -0.1392E+02E
 Epicentro: EL PLAYON - SANTANDER                                              3
 ACTION:UPD 15-03-16 20:42 OP:nd   STATUS:               ID:20140710204644 L   I
 OLDACT:REG 14-07-11 02:49 OP:spq  STATUS:               ID:20140710203820     3
 2014-07-10-2038-20M.COL___262                                                 6
 STAT SP IPHASW D HRMM SECON CODA AMPLIT PERI AZIMU VELO AIN AR TRES W  DIS CAZ7
 BRR  HZ EP       2047  3.95                             150    0.4110 68.2 233 
 BRR  HE ES       2047 18.81                             150    0.4110 68.2 233 
 BRR  HZ I        2047 25.06        12.5 0.40            153           68.2 233 
 BAR2 SZ ES   1   2047 21.93                             140   -0.79 7 98.1 178 
 BAR2 SZ I        2047 23.12         4.4 0.14            147           98.1 178 
 PTB  HZ EP       2047 12.80                             123    0.37 9  172 233 
 PTB  HN ES       2047 34.08                             123   -0.16 9  172 233 
 PTB  HZ I        2047 35.62         1.8 0.22            128            172 233 
 SML  HZ EP   1   2047 12.88                             123    0.25 7  174 327 
 SML  HN ES       2047 34.34                             123   -0.25 9  174 327 
 SML  HZ I        2047 37.01         7.8 0.10            127            174 327 
 ZAR  HZ EP       2047 12.83                             122   -0.55 9  181 271 
 ZAR  HN ES       2047 35.88                             122   -0.04 9  181 271 
 ZAR  HZ I        2047 39.29         2.7 0.10            126            181 271 
                                                                                
