 2016  310 2006 31.5 L   6.767 -73.003149.3  RSN  7 0.4 1.7LRSN                1
 GAP=254        0.85       4.8     5.1  6.5  0.3946E+01  0.1176E+02  0.4738E+01E
 Epicentro: CEPITA - SANTANDER                                                 3
 ACTION:UPD 16-05-13 21:23 OP:cam  STATUS:               ID:20160310200631 L   I
 OLDACT:REG 16-03-11 04:50 OP:ak   STATUS:               ID:20160310195621     3
 2016-03-10-2000-00M.COL___406                                                 6
 STAT SP IPHASW D HRMM SECON CODA AMPLIT PERI AZIMU VELO AIN AR TRES W  DIS CAZ7
 BAR2 EZ EP       20 6 51.40                             169   -0.2310 27.7 226 
 BAR2 EZ ES       20 7  7.45                             169    0.1110 27.7 226 
 BAR2 EZ I        20 7  9.58        11.0 0.24            167           27.7 226 
 RUS  HZ EP       20 6 55.14                             145   -0.1910 97.1 185 
 RUS  HN ES       20 7 13.99                             145    0.0510 97.1 185 
 RUS  HZ I        20 7 15.34         2.2 0.10            147           97.1 185 
 SPBC HE ES       20 7 23.76                             128   -0.23 9  171 224 
 ZAR  HE ES       20 7 33.01                             121    0.42 8  220 291 
 ZAR  BZ I        20 7 36.14         9.2 0.17            122            220 291 
 NOR  HZ EP   2   20 7  7.83                             118   -0.76 4  246 237 
 NOR  HE ES       20 7 36.74                             118   -0.80 8  246 237 
 NOR  HZ I        20 7 41.89         5.0 0.18            119            246 237 
 CHI  HZ EP       20 7  9.60                             118    0.11 8  250 199 
 CHI  HN ES       20 7 39.84                             118    0.69 8  250 199 
 GUY2CHZ EP       20 7 16.85                             112    0.36 7  312 237 
 GUY2CHN ES       20 7 51.84                             112    0.24 7  312 237 
 GUY2CHZ I        20 7 58.60         3.2 0.28                           312 237 
                                                                                
