 2016  610 2059 55.6 L   6.774 -73.163148.9  RSN  4 0.1 1.7LRSN                1
 GAP=147        0.30       3.9     2.5  2.5 -0.7072E+01  0.1599E+01  0.5296E-01E
 Epicentro: LOS SANTOS - SANTANDER                                             3
 ACTION:UPD 16-07-21 22:17 OP:rebc STATUS:               ID:20160610205955 L   I
 OLDACT:UP  16-06-11 06:38 OP:mh   STATUS:               ID:20160610205747     3
 OLDACT:REG 16-06-11 06:02 OP:mh   STATUS:               ID:20160610205747     3
 2016-06-10-2057-47M.COL___343                                                 6
 STAT SP IPHASW D HRMM SECON CODA AMPLIT PERI AZIMU VELO AIN AR TRES W  DIS CAZ7
 BAR2 EZ EP       21 0 15.58                             172    0.0210 20.2 186 
 BAR2 EZ ES       21 0 31.11                             172   -0.0110 20.2 186 
 BAR2 EZ I        21 0 33.14        11.7 0.38                          20.2 186 
 PAM  EZ EP       21 0 18.45                             150    0.0810 80.9  39 
 PAM  EE ES       21 0 36.07                             150   -0.0510 80.9  39 
 PAM  EZ I        21 0 37.89         6.5 0.52                          80.9  39 
 PTB  HZ EP       21 0 22.53                             133   -0.09 9  145 260 
 PTB  HN ES       21 0 43.73                             133    0.05 9  145 260 
 PTB  HZ I        21 0 49.25        10.9 0.36                           145 260 
 GUY2CHZ EP       21 0 38.99                             113   -0.01 7  298 235 
                                                                                
