 2012  110 2153 23.0 L   6.757 -73.165140.3  RSN  7 0.3 1.4LRSN                1
 GAP=136        0.57       4.8     3.9  5.4 -0.2522E+01  0.1355E+01  0.2521E+01E
 Epicentro: LOS SANTOS - SANTANDER                                             3
 ACTION:UP  12-02-03 08:16 OP:REBC STATUS:               ID:20120110215323 L   I
 2012-01-10-2150-00M.COL___186                                                 6
 STAT SP IPHASW D HRMM SECON CODA AMPLIT PERI AZIMU VELO SNR AR TRES W  DIS CAZ7
 BAR2 SZ EP   3   2153 41.79                             172    -0.1 2   18 186 
 BAR2 SZ ES   2   2153 56.47                             172    -0.1 5   18 186 
 BAR2 SZ I        2153 58.10         8.2 0.28                            18 186 
 GIR2 SZ EP       2153 41.98                             165    -0.210   36 355 
 GIR2 SZ ES   1   2153 57.19                             165     0.1 7   36 355 
 BRR  HZ EP       2153 43.82                             151     0.210   72 303 
 BRR  HZ I        2153 47.51        17.9 0.28                            72 303 
 BRR  HE ES   1   2154  0.09                             151     0.4 7   72 303 
 PAM  SZ EP       2153 45.04                             148     0.110   82  39 
 PAM  SE ES   1   2154  1.82                             148    -0.3 7   82  39 
 RUS  HZ EP   2   2153 46.02                             144     0.1 5   96 175 
 RUS  HN ES   2   2154  3.81                             144     0.1 5   96 175 
 RUS  HZ I        2154  5.13         2.2 0.24                            96 175 
 PTB  HZ EP   2   2153 49.50                             131     0.2 5  145 261 
 PTB  HN ES   2   2154  9.06                             131    -0.7 5  145 261 
 PTB  HZ I        2154 13.92         1.8 0.18                           145 261 
 ZAR  HE ES   2   2154 19.62                             121    -0.5 4  204 294 
                                                                                
