 2010 1010 2318  3.9 L   6.794 -73.103139.7  RSN  5 0.3 1.6LRSN                1
 GAP=186        0.58      10.2    12.0 11.9 -0.6972E+02 -0.6409E+02  0.2313E+02E
 Epicentro: LOS SANTOS - SANTANDER                                             3
 ACTION:UP  11-02-18 11:08 OP:tino STATUS:               ID:20101010231803 L   I
 2010-10-10-2314-45S.COL___121                                                 6
 STAT SP IPHASW D HRMM SECON CODA AMPLIT PERI AZIMU VELO SNR AR TRES W  DIS CAZ7
 BAR2 SZ EP   2   2318 22.67                             170    -0.1 5   24 202 
 BAR2 SZ I        2318 38.68         7.3 0.25                            24 202 
 BRR  HZ EP   1   2318 24.53                             150    -0.1 7   76 297 
 BRR  HZ I        2318 24.95         7.8 0.12                            76 297 
 BRR  HE ES   2   2318 41.05                             150     0.2 5   76 297 
 GUE  SZ EP   2   2318 28.71                             138     0.7 5  116  10 
 GRA  SZ EP   1   2318 28.61                             136     0.1 7  125  15 
 GRA  SZ I        2318 29.91         4.8 0.13                           125  15 
 GRA  SZ ES   2   2318 47.47                             136    -0.3 5  125  15 
 OCA  SZ EP   1   2318 31.64                             128    -0.2 7  162 352 
 OCA  SZ I        2318 55.10         5.8 0.42                           162 352 
                                                                                
