 2012  110 2150 45.6 L   6.775 -73.153147.1  RSN  8 0.3 1.7LRSN                1
 GAP=137        0.74       3.8     4.4  6.0  0.9901E+00  0.5174E+01  0.4307E+01E
 Epicentro: LOS SANTOS - SANTANDER                                             3
 ACTION:UP  12-02-03 08:16 OP:REBC STATUS:               ID:20120110215045 L   I
 2012-01-10-2150-00M.COL___186                                                 6
 STAT SP IPHASW D HRMM SECON CODA AMPLIT PERI AZIMU VELO SNR AR TRES W  DIS CAZ7
 BAR2 SZ EP       2151  5.29                             172     0.010   20 189 
 BAR2 SZ ES   1   2151 20.52                             172    -0.2 7   20 189 
 BAR2 SZ I        2151 22.01        10.5 0.40                            20 189 
 GIR2 SZ EP   2   2151  5.73                             166     0.3 5   34 352 
 GIR2 SZ ES   2   2151 20.83                             166    -0.2 5   34 352 
 BRR  HZ EP       2151  7.16                             152     0.310   72 301 
 BRR  HE ES   1   2151 24.25                             152     0.7 7   72 301 
 BRR  HZ I        2151 28.58        19.3 0.40                            72 301 
 PAM  SZ EP       2151  8.09                             150     0.010   80  39 
 PAM  SE ES   1   2151 25.36                             150    -0.3 7   80  39 
 RUS  HZ EP       2151  9.39                             145     0.110   98 175 
 RUS  HN ES   1   2151 27.43                             145    -0.3 7   98 175 
 RUS  HZ I        2151 29.12         4.4 0.40                            98 175 
 PTB  HZ EP       2151 12.14                             133    -0.4 9  146 260 
 PTB  HN ES   2   2151 33.33                             133    -0.2 5  146 260 
 PTB  HZ I        2151 40.74         3.7 0.24                           146 260 
 ZAR  HE ES   1   2151 43.12                             123    -0.4 6  204 293 
 ZAR  HZ I        2151 49.44         7.4 0.36                           204 293 
 CHI  HZ EP   2   2151 22.95                             118    -0.1 4  246 195 
 CHI  HN ES   1   2151 52.61                             118     0.4 6  246 195 
 CHI  HZ I        2151 58.28         2.2 0.34                           246 195 
                                                                                
