 2016  810 2158 56.5 L   6.842 -73.205146.7  RSN  5 0.1 1.6LRSN                1
 GAP=127        0.41       2.2     2.1  3.0 -0.4633E+00  0.7032E+00  0.3729E+00E
 Epicentro: ZAPATOCA - SANTANDER                                               3
 ACTION:UPD 16-10-29 15:34 OP:rebc STATUS:               ID:20160810215856 L   I
 OLDACT:REG 16-08-11 02:24 OP:edw  STATUS:               ID:20160810215736     3
 2016-08-10-2158-00M.COL___380                                                 6
 STAT SP IPHASW D HRMM SECON CODA AMPLIT PERI AZIMU VELO AIN AR TRES W  DIS CAZ7
 BAR2 EZ EP       2159 16.49                             169    0.1410 27.7 175 
 BAR2 EZ ES       2159 31.77                             169   -0.0610 27.7 175 
 BAR2 EZ I        2159 32.70        12.7 0.24                          27.7 175 
 BRR  HZ EP       2159 17.06                             155   -0.2810 63.3 298 
 BRR  HN ES       2159 33.65                             155    0.0710 63.3 298 
 PAM  EZ EP       2159 19.09                             151    0.2010 78.3  45 
 PAM  EZ ES       2159 36.27                             151   -0.0710 78.3  45 
 PAM  EZ I        2159 39.28         7.7 0.40                          78.3  45 
 RUS  HZ EP       2159 20.66                             143   -0.0810  106 173 
 RUS  HE ES       2159 39.66                             143    0.0210  106 173 
 RUS  HZ I        2159 40.21         5.0 0.28                           106 173 
 PTB  HZ EP       2159 23.07                             133   -0.01 9  142 256 
 PTB  HE ES       2159 43.88                             133    0.08 9  142 256 
 PTB  HZ I        2159 51.04         4.1 0.31                           142 256 
                                                                                
