 2013  710 2347  0.9 L   6.711 -73.196148.9  RSN  4 0.3 1.4LRSN                1
 GAP=225        0.80       7.5     7.7  7.3  0.3149E+02  0.8711E+01  0.2630E+01E
 Epicentro: VILLANUEVA - SANTANDER                                             3
 ACTION:UPD 13-08-12 10:36 OP:ep   STATUS:               ID:20130710234700 L   I
 OLDACT:REG 13-07-10 21:36 OP:jn   STATUS:               ID:20130710233959     3
 2013-07-10-2339-59M.COL___266                                                 6
 STAT SP IPHASW D HRMM SECON CODA AMPLIT PERI AZIMU VELO AIN AR TRES W  DIS CAZ7
 BAR2 SZ EP   1   2347 20.48                             175   -0.27 7 13.2 174 
 BAR2 SZ ES       2347 35.76                             175   -0.4710 13.2 174 
 BAR2 SZ I        2347 36.87         5.3 0.20            179           13.2 174 
 BRR  HZ EP   1   2347 22.70                             153    0.27 7 72.0 308 
 BRR  HN ES   1   2347 39.84                             153    0.62 7 72.0 308 
 BRR  HZ I        2347 45.37         6.9 0.32            152           72.0 308 
 RUS  HZ EP       2347 24.34                             147    0.0110 91.3 172 
 RUS  HN ES       2347 42.94                             147    0.3510 91.3 172 
 RUS  HZ I        2347 44.40         3.0 0.34            152           91.3 172 
 PTB  HZ EP   1   2347 27.29                             134   -0.21 7  141 262 
 PTB  HN ES   1   2347 48.00                             134   -0.25 7  141 262 
 PTB  HZ I        2347 49.41         3.6 0.10            136            141 262 
                                                                                
