 2012  810 2240 52.6 L   6.783 -73.170135.1  RSN  6 0.3 1.6LRSN                1
 GAP=134        0.50       5.0     6.4  4.9  0.1334E+02  0.1563E+01  0.8072E+01E
 Epicentro: LOS SANTOS - SANTANDER                                             3
 ACTION:UPD 12-09-10 11:55 OP:ep   STATUS:               ID:20120810224052 L   I
 2012-08-10-2240-00M.COL___218                                                 6
 STAT SP IPHASW D HRMM SECON CODA AMPLIT PERI AZIMU VELO AIN AR TRES W  DIS CAZ7
 BAR2 SZ EP       2241 10.99                             171    0.0810 21.1 184 
 BAR2 SZ ES   1   2241 25.49                             171    0.31 7 21.1 184 
 BAR2 SZ I        2241 26.51        14.0 0.38                          21.1 184 
 GIR2 SZ EP       2241 11.08                             165    0.0210 32.9 355 
 GIR2 SZ ES   1   2241 25.38                             165   -0.07 7 32.9 355 
 BRR  HZ EP       2241 12.80                             151    0.2610 69.9 301 
 BRR  HZ I        2241 13.33        18.8 0.30                          69.9 301 
 BRR  HN ES   1   2241 27.77                             151   -0.30 7 69.9 301 
 PAM  SE ES   3   2241 29.48                             148   -1.03 2 80.6  40 
 RUS  HZ EP       2241 15.01                             142   -0.1910 98.9 174 
 RUS  HN ES   3   2241 32.58                             142   -0.24 2 98.9 174 
 RUS  HZ I        2241 35.40         2.5 0.30                          98.9 174 
 PTB  HZ EP   3   2241 17.87                             130   -0.58 2  145 259 
 PTB  HN ES   3   2241 38.35                             130   -0.26 2  145 259 
                                                                                
