 2015  910 2336 10.7 L   6.710 -73.186141.5  RSN  4 0.3 1.6LRSN                1
 GAP=226        0.72       7.7     8.9  6.2  0.5730E+02  0.6888E+01  0.7907E+00E
 Epicentro: VILLANUEVA - SANTANDER                                             3
 ACTION:UPD 15-10-28 16:25 OP:cam  STATUS:               ID:20150910233610 L   I
 OLDACT:DUP 15-09-11 04:46 OP:ak   STATUS:               ID:20150910232749d    3
 OLDACT:DUP 15-09-11 04:41 OP:ak   STATUS:               ID:20150910232748d    3
 OLDACT:REG 15-09-11 03:46 OP:ak   STATUS:               ID:20150910232747     3
 2015-09-10-2327-47M.COL___350                                                 6
 STAT SP IPHASW D HRMM SECON CODA AMPLIT PERI AZIMU VELO AIN AR TRES W  DIS CAZ7
 BAR2 EZ EP       2336 29.31                             174   -0.3210 13.0 178 
 BAR2 EZ ES       2336 44.24                             174   -0.1710 13.0 178 
 BAR2 EZ I        2336 45.97        15.8 0.04            165           13.0 178 
 BRR  HZ EP       2336 31.44                             151   -0.0310 72.9 307 
 BRR  HN ES       2336 48.11                             151    0.4310 72.9 307 
 RUS  HZ EP       2336 33.45                             146    0.1110 91.1 173 
 RUS  HN ES       2336 51.11                             146    0.1010 91.1 173 
 RUS  HZ I        2336 52.80         1.8 0.24            142           91.1 173 
 ZAR  HZ EP   2   2336 43.61                             121    0.76 4  204 295 
 ZAR  HE ES       2337  7.56                             121   -0.37 9  204 295 
 ZAR  HZ I        2337 13.94         5.9 0.25            120            204 295 
                                                                                
