 2012  910 2257 35.2 L   6.619 -73.081138.7  RSN  5 0.4 1.7LRSN                1
 GAP=227        0.43      13.1     5.3  8.3 -0.3677E+02 -0.2195E+02  0.6315E+02E
 Epicentro: CURITI - SANTANDER                                                 3
 ACTION:UPD 12-10-22 14:18 OP:ep   STATUS:               ID:20120910225735 L   I
 2012-09-10-2250-00M.COL___227                                                 6
 STAT SP IPHASW D HRMM SECON CODA AMPLIT PERI AZIMU VELO AIN AR TRES W  DIS CAZ7
 BAR2 SZ EP   3   2257 54.15                             175    0.34 2 11.5 255 
 BAR2 SZ ES   3   2258  8.53                             175    0.21 2 11.5 255 
 GIR2 SZ EP   3   2257 54.72                             158   -0.11 2 52.3 346 
 GIR2 SZ ES   3   2258  9.80                             158   -0.33 2 52.3 346 
 BRR  HZ EP       2257 56.66                             145   -0.0310 88.1 308 
 BRR  HN ES   1   2258 13.64                             145    0.20 7 88.1 308 
 BRR  HN I        2258 14.33        18.5 0.16                          88.1 308 
 PAM  SZ EP       2257 57.60                             145    0.0710 90.1  28 
 PAM  SZ I        2257 57.86         4.3 0.28                          90.1  28 
 PAM  SN ES   2   2258 14.55                             145   -0.37 5 90.1  28 
 PTB  HN ES   3   2258 21.68                             129   -1.29 2  152 267 
                                                                                
