 2011  310 2224 10.1 L   6.382 -73.091180.9  RSN  5 0.5 1.9LRSN                1
 GAP=168        1.03       8.6    10.5 11.1 -0.2403E+02  0.5828E+02 -0.2619E+02E
 Epicentro: OCAMONTE - SANTANDER                                               3
 ACTION:UP  11-06-16 14:32 OP:jfem STATUS:               ID:20110310222410 L   I
 2011-03-10-2221-02S.COL___135                                                 6
 STAT SP IPHASW D HRMM SECON CODA AMPLIT PERI AZIMU VELO SNR AR TRES W  DIS CAZ7
 BAR2 SZ EP       2224 34.25                             172     0.310   25 336 
 BAR2 SZ I        2224 34.66        25.8 0.20                            25 336 
 BAR2 SZ ES   1   2224 52.90                             172     0.3 7   25 336 
 RUS  HZ EP   1   2224 35.41                             163     0.3 7   54 179 
 RUS  HZ I        2224 36.02        10.1 0.32                            54 179 
 RUS  HE ES   1   2224 54.07                             163    -0.6 7   54 179 
 GRA  SZ EP   1   2224 41.15                             135    -0.9 7  169  11 
 GRA  SZ ES   1   2225  7.30                             135     0.3 7  169  11 
 GRA  SZ I        2225  8.60         3.9 0.39                           169  11 
 HEL  HZ EP   1   2224 52.63                             121     0.5 6  271 266 
 HEL  HZ I        2225 27.06         4.6 0.40                           271 266 
 DBB  SZ EP   1   2225  0.64                             114     0.1 5  352 282 
 DBB  SZ ES   1   2225 39.46                             114    -0.5 5  352 282 
                                                                                
