 2012  810 2157  1.6 L   6.793 -73.151146.4  RSN 16 0.5 2.6LRSN 3.2WRSN        1
 SPEC AVERAGE  MO 13.9 ST 10.5 OM  3.4 f0 4.39 R0.3652 AL 2.87 WI 22.4 MW  3.2 3
 SPEC SD       MO  0.3 ST  8.0 OM  1.4 f0 1.24 R0.1133 AL      WI      MW  0.2 3
 GAP= 71        0.91       3.6     3.7  5.6 -0.2145E+01  0.3273E+01  0.3273E+01E
 Epicentro: LOS SANTOS - SANTANDER                                             3
 SPEC OCA HH N MO 14.3 ST 21.1 OM  2.6 f0 4.23 R0.3475 AL 2.52 WI 25.3 MW  3.5 3
 SPEC OCA HH N T215750 K 0.000 GD  217 VS 4.20 DE 3.00 Q0230.0 QA 0.60 VS 4.20 3
 SPEC PTB HH N MO 13.9 ST  6.5 OM  2.2 f0 3.94 R0.3731 AL 2.40 WI 21.9 MW  3.2 3
 SPEC PTB HH N T215748 K 0.000 GD  207 VS 4.20 DE 3.00 Q0230.0 QA 0.60 VS 4.20 3
 SPEC RUS HH Z MO 13.4 ST  7.8 OM  1.0 f0 6.12 R0.2402 AL 3.66 WI 17.5 MW  2.9 3
 SPEC RUS HH Z T215724 K 0.000 GD  177 VP 7.60 DE 3.00 Q0230.0 QA 0.60 VS 4.20 3
 SPEC PAM SH N MO 13.5 ST  9.5 OM  1.9 f0 6.07 R0.2422 AL 4.75 WI 21.8 MW  2.9 3
 SPEC PAM SH N T215740 K 0.000 GD  166 VS 4.20 DE 3.00 Q0230.0 QA 0.60 VS 4.20 3
 SPEC HEL HH N MO 13.8 ST  3.1 OM  1.9 f0 3.41 R0.4311 AL 1.87 WI 30.9 MW  3.1 3
 SPEC HEL HH N T215812 K 0.000 GD  308 VS 4.20 DE 3.00 Q0230.0 QA 0.60 VS 4.20 3
 SPEC CHI HH N MO 13.9 ST  1.8 OM  2.1 f0 2.47 R0.5951 AL 2.22 WI 15.0 MW  3.2 3
 SPEC CHI HH N T2158 8 K 0.000 GD  287 VS 4.20 DE 3.00 Q0230.0 QA 0.60 VS 4.20 3
 SPEC BRR HH N MO 14.3 ST 23.8 OM  2.7 f0 4.49 R0.3274 AL 2.69 WI 24.5 MW  3.5 3
 SPEC BRR HH N T215740 K 0.000 GD  162 VS 4.20 DE 3.00 Q0230.0 QA 0.60 VS 4.20 3
 ACTION:UPD 12-09-10 11:55 OP:ep   STATUS:               ID:20120810215701 L   I
 2012-08-10-2150-00M.COL___218                                                 6
 STAT SP IPHASW D HRMM SECON CODA AMPLIT PERI AZIMU VELO AIN AR TRES W  DIS CAZ7
 BAR2 SZ IP       2157 21.33                             171    0.0810 22.5 189 
 BAR2 SZ ES   2   2157 36.21                             171   -0.40 5 22.5 189 
 BAR2 SZ I        2157 38.20       101.0 0.40                          22.5 189 
 GIR2 SZ EP       2157 21.41                             167    0.0810 31.9 352 
 GIR2 SZ ES   1   2157 36.32                             167   -0.42 7 31.9 352 
 BRR  HZ IP     D 2157 23.31                             153    0.5410 71.1 299 
 BRR  HZ I        2157 23.44       116.1 0.30                          71.1 299 
 BRR  HN ES   1   2157 40.51                             153    1.20 7 71.1 299 
 PAM  SZ EP       2157 24.21                             151    0.3110 78.3  40 
 PAM  SN ES   1   2157 41.26                             151   -0.07 7 78.3  40 
 PAM  SZ I        2157 43.29        36.4 0.46                          78.3  40 
 RUS  HZ EP       2157 25.14                             144   -0.1810 99.9 176 
 RUS  HN ES   1   2157 43.59                             144   -0.27 7 99.9 176 
 RUS  HZ I        2157 44.96        30.4 0.30                          99.9 176 
 PTB  HZ EP       2157 27.93                             132   -0.58 9  147 259 
 PTB  HN ES   1   2157 49.15                             132   -0.39 7  147 259 
 PTB  HZ I        2157 55.24        31.4 0.34                           147 259 
 TAM  HZ EP       2157 29.51                             131    0.19 9  155 105 
 TAM  HZ I        2157 34.01        16.5 0.24                           155 105 
 TAM  HN ES   2   2157 50.65                             131   -0.32 5  155 105 
 OCA  HZ EP       2157 29.55                             130   -0.44 9  161 353 
 OCA  HE ES   3   2157 51.31                             130   -0.85 2  161 353 
 OCA  HZ I        2157 56.56        60.7 0.36                           161 353 
 ZAR  HZ EP       2157 33.46                             123   -0.56 9  204 292 
 ZAR  HZ I        2158  6.25        64.8 0.28                           204 292 
 NOR  SZ EP       2157 37.01                             119   -0.22 8  234 235 
 NOR  SN ES   1   2158  5.22                             119    0.17 6  234 235 
 NOR  SZ I        2158 13.16        23.3 0.36                           234 235 
 CHI  HZ EP       2157 39.44                             117    0.24 8  248 195 
 CHI  HN ES   1   2158  8.80                             117    0.25 6  248 195 
 CHI  HZ I        2158 18.23        14.2 0.34                           248 195 
 ROSC BN ES   2   2158  9.76                             117    0.47 4  252 211 
 ROSC BZ I        2158 15.00        30.2 0.40                           252 211 
 HEL  HZ EP   2   2157 43.52                             115    1.80 4  271 256 
 HEL  HN ES   2   2158 12.81                             115   -0.24 4  271 256 
 HEL  HZ I        2158 18.66        16.2 0.32                           271 256 
 DBB  SZ EP   2   2157 48.96                             110   -0.04 3  339 274 
 DBB  SZ I        2158 29.66        28.3 0.80                           339 274 
 ANIL HN ES   3   2158 30.69                             109    0.63 2  356 225 
 ANIL HZ I        2158 40.61        47.3 0.28                           356 225 
 PRA  HN ES   3   2158 35.74                             107   -0.93 1  391 210 
 PRA  HZ I        2158 40.94        16.9 0.60                           391 210 
                                                                                
