 2012  210 2109 58.3 L   6.784 -73.155142.9  RSN 13 0.3 2.4LRSN                1
 GAP=136        0.72       2.5     3.3  3.7 -0.1026E+01  0.3693E+01  0.1407E+01E
 ACTION:UP  12-03-07 16:29 OP:epov STATUS:               ID:20120210210958 L   I
 2012-02-10-2110-00M.COL___188                                                 6
 STAT SP IPHASW D HRMM SECON CODA AMPLIT PERI AZIMU VELO AIN AR TRES W  DIS CAZ7
 BAR2 SZ EP       2110 17.64                             171    0.0810 21.5 188 
 BAR2 SZ ES       2110 32.37                             171   -0.2010 21.5 188 
 BAR2 SZ I        2110 34.00        92.0 0.28                          21.5 188 
 GIR2 SZ EP       2110 17.70                             166    0.0110 32.8 353 
 GIR2 SZ ES       2110 32.82                             166    0.0210 32.8 353 
 BRR  HZ EP       2110 19.50                             152    0.3510 71.2 300 
 BRR  HZ I        2110 20.57        56.0 0.13                          71.2 300 
 BRR  HE ES       2110 35.99                             152    0.5910 71.2 300 
 PAM  SZ EP       2110 20.59                             150    0.2510 79.4  39 
 PAM  SE ES       2110 36.91                             150   -0.6210 79.4  39 
 RUS  HZ EP       2110 21.78                             144    0.1210 98.9 175 
 RUS  HN ES       2110 39.88                             144    0.0110 98.9 175 
 PTB  HZ EP       2110 24.73                             131   -0.19 9  146 259 
 PTB  HE ES   1   2110 45.10                             131   -0.58 7  146 259 
 OCA  SZ EP       2110 26.44                             129   -0.11 9  162 354 
 OCA  SZ ES   1   2110 48.71                             129    0.13 7  162 354 
 ZAR  HZ EP   1   2110 30.45                             122   -0.09 6  204 293 
 ZAR  HN ES   1   2110 55.40                             122   -0.28 6  204 293 
 ZAR  HZ I        2111  2.09        39.6 0.32                           204 293 
 NOR  SZ EP   1   2110 33.81                             118    0.13 6  233 235 
 NOR  SE ES   1   2111  1.30                             118    0.04 6  233 235 
 CHI  HZ EP   1   2110 35.96                             117    0.32 6  247 195 
 CHI  HE ES   2   2111  4.88                             117    0.12 4  247 195 
 CHI  HZ I        2111 12.36        10.4 0.55                           247 195 
 HEL  HZ EP   1   2110 37.70                             114   -0.52 6  271 256 
 HEL  HZ I        2111 17.02        16.6 0.49                           271 256 
 RREF HZ EP   1   2110 44.81                             110    0.70 5  320 229 
 RREF HZ I        2111 29.26         7.8 0.36                           320 229 
 PRA  HZ EP   1   2110 50.71                             106   -0.79 4  390 210 
 PRA  HN ES   1   2111 32.84                             106   -0.14 4  390 210 
                                                                                
