 2017  210 2308 50.9 L   6.771 -73.169142.0  RSN  5 0.4 1.3LRSN                1
 GAP=135        0.81       4.7     4.4  8.5 -0.3618E+01  0.6291E+00  0.8517E+00E
 Epicentro: LOS SANTOS - SANTANDER                                             3
 ACTION:UPD 17-05-24 15:35 OP:jn   STATUS:               ID:20170210230850 L   I
 OLDACT:DUP 17-02-11 05:50 OP:dnl  STATUS:               ID:20170210225745d    3
 2017-02-10-2258-00M.COL___364                                                 6
 STAT SP IPHASW D HRMM SECON CODA AMPLIT PERI AZIMU VELO AIN AR TRES W  DIS CAZ7
 BAR2 EZ EP   2   23 9 10.38                             172    0.36 5 19.9 184 
 BAR2 EZ ES   2   23 9 24.19                             172   -0.74 5 19.9 184 
 BAR2 EZ I        23 9 27.27         8.8 0.10            173           19.9 184 
 BRR  HZ EP   2   23 9 11.74                             152    0.12 5 70.5 302 
 BRR  HE ES       23 9 28.38                             152    0.6110 70.5 302 
 BRR  HZ I        23 9 33.44         8.3 0.30            153           70.5 302 
 PAM  EZ EP       23 9 12.93                             149   -0.0510 81.5  40 
 PAM  EN ES       23 9 29.94                             149   -0.2610 81.5  40 
 PAM  EZ I        23 9 31.49         3.1 0.18            153           81.5  40 
 RUS  HZ EP   2   23 9 14.34                             144    0.26 5 97.6 174 
 RUS  HN ES       23 9 32.32                             144    0.1710 97.6 174 
 RUS  HZ I        23 9 34.02         1.6 0.24            148           97.6 174 
 PTB  HZ EP   2   23 9 17.12                             132   -0.17 5  145 260 
 PTB  HE ES       23 9 37.37                             132   -0.49 9  145 260 
 PTB  HZ I        23 9 40.00         2.6 0.16            135            145 260 
                                                                                
