 2014  310 2228 24.5 L   7.006 -73.238125.6  RSN  6 0.5 1.5LRSN                1
 GAP=169        1.23       7.1     6.1  8.5 -0.2241E+02  0.1776E+02 -0.1030E+02E
 Epicentro: GIRON - SANTANDER                                                  3
 ACTION:UPD 14-04-09 23:16 OP:nd   STATUS:               ID:20140310222824 L   I
 OLDACT:DUP 14-03-11 02:13 OP:stll STATUS:               ID:20140310221817d    3
 2014-03-10-2218-16M.COL___241                                                 6
 STAT SP IPHASW D HRMM SECON CODA AMPLIT PERI AZIMU VELO AIN AR TRES W  DIS CAZ7
 BAR2 SZ EP       2228 42.84                             159    0.3510 46.1 172 
 BAR2 SZ ES       2228 56.22                             159   -0.3010 46.1 172 
 PAM  SZ EP       2228 44.41                             149    0.2710 70.0  58 
 PAM  SN ES       2228 59.92                             149    0.4710 70.0  58 
 RUS  HZ EP       2228 48.54                             133    0.2010  124 172 
 RUS  HN ES       2229  6.76                             133   -0.1810  124 172 
 RUS  HZ I        2229  8.63         3.0 0.26            133            124 172 
 PTB  HZ EP       2228 48.89                             128   -0.68 9  144 249 
 PTB  HN ES       2229  8.81                             128   -0.30 9  144 249 
 PTB  HZ I        2229 10.94         9.9 0.28            128            144 249 
 SOCV BZ EP       2229  5.30                             108   -1.07 7  298  62 
 GUY2CHZ EP       2229  9.11                             108    1.18 7  307 230 
 GUY2CHN ES       2229 41.84                             108    0.03 7  307 230 
 GUY2CHZ I        2229 47.68         1.7 0.48                           307 230 
                                                                                
