 2013  210 2138 59.2 L   6.746 -73.154144.1  RSN  8 0.4 1.5LRSN                1
 GAP=138        0.79       3.4     4.6  6.3  0.1771E+01  0.5655E+01  0.4379E+00E
 Epicentro: JORDAN - SANTANDER                                                 3
 ACTION:UPD 13-03-12 09:32 OP:ep   STATUS:               ID:20130210213859 L   I
 2013-02-10-2136-44M.COL___186                                                 6
 STAT SP IPHASW D HRMM SECON CODA AMPLIT PERI AZIMU VELO AIN AR TRES W  DIS CAZ7
 BAR2 SZ EP   1   2139 18.57                             173    0.05 7 17.3 190 
 BAR2 SZ ES   1   2139 33.71                             173    0.12 7 17.3 190 
 BAR2 SZ I        2139 34.57        10.0 0.27            171           17.3 190 
 BRR  HZ EP   1   2139 20.73                             151    0.43 7 73.5 303 
 BRR  HN ES   1   2139 37.22                             151    0.47 7 73.5 303 
 BRR  HZ I        2139 38.53         8.2 0.12            152           73.5 303 
 PAM  SZ EP   1   2139 21.77                             149    0.21 7 82.6  37 
 PAM  SE ES   1   2139 38.45                             149   -0.55 7 82.6  37 
 PAM  SZ I        2139 41.18         5.8 0.50            152           82.6  37 
 RUS  HZ EP   1   2139 23.02                             145    0.65 7 94.7 175 
 RUS  HN ES   1   2139 40.23                             145   -0.20 7 94.7 175 
 RUS  HZ I        2139 41.74         5.8 0.34            146           94.7 175 
 PTB  HZ EP   1   2139 25.61                             132   -0.24 7  146 261 
 PTB  HN ES   1   2139 46.27                             132   -0.37 7  146 261 
 PTB  HZ I        2139 50.56         3.0 0.10            132            146 261 
 ZAR  HN ES   1   2139 57.38                             122    0.35 6  206 294 
 CHI  HZ EP   1   2139 36.35                             117    0.20 6  243 195 
 CHI  HE ES   1   2140  4.22                             117   -0.75 6  243 195 
 CHI  HZ I        2140  8.73         1.1 0.42            118            243 195 
 SML  HZ EP   1   2139 36.03                             116   -0.25 6  249 336 
 SML  HN ES   1   2140  4.57                             116   -0.64 6  249 336 
                                                                                
