 2011 1010 2132 42.3 L   6.760 -73.140149.7  RSN  6 0.4 1.8LRSN                1
 GAP=139        0.71       4.5     5.3  8.6  0.2261E+01  0.4283E+01 -0.8590E+01E
 Epicentro: LOS SANTOS - SANTANDER                                             3
 ACTION:UPD 12-07-13 16:03 OP:ep   STATUS:               ID:20111010213242 L   I
 2011-10-10-2120-43S.COL___168                                                 6
 STAT SP IPHASW D HRMM SECON CODA AMPLIT PERI AZIMU VELO AIN AR TRES W  DIS CAZ7
 BAR2 SZ EP   1   2133  2.21                             172   -0.09 7 19.1 194 
 BAR2 SZ I        2133 18.51        10.6 0.35                          19.1 194 
 BRR  HZ EP   1   2133  4.31                             152    0.31 7 74.0 301 
 BRR  HZ I        2133  4.73        15.5 0.09                          74.0 301 
 BRR  HE ES   1   2133 21.24                             152    0.28 7 74.0 301 
 PAM  SZ EP   1   2133  5.16                             151    0.07 7 80.4  37 
 PAM  SZ I        2133  5.55         8.6 0.18                          80.4  37 
 PAM  SN ES   1   2133 22.35                             151   -0.54 7 80.4  37 
 RUS  HN ES   1   2133 24.79                             146    0.10 7 96.1 176 
 OCA  SZ EP   1   2133 11.15                             130   -0.16 7  165 353 
 OCA  SZ ES   1   2133 34.50                             130    0.54 7  165 353 
 ZAR  HE ES   1   2133 40.27                             123   -0.64 6  206 293 
                                                                                
