 2013  110 2139 59.7 L   6.729 -73.199142.0  RSN  5 0.2 1.9LRSN                1
 GAP=226        0.52       3.8     3.8  3.8  0.7196E+01  0.2673E+01  0.3453E+01E
 Epicentro: VILLANUEVA - SANTANDER                                             3
 ACTION:UPD 13-02-15 09:13 OP:ep   STATUS:               ID:20130110213959 L   I
 2013-01-10-2140-00M.COL___242                                                 6
 STAT SP IPHASW D HRMM SECON CODA AMPLIT PERI AZIMU VELO AIN AR TRES W  DIS CAZ7
 BAR2 SZ EP       2140 18.54                             174   -0.2110 15.2 173 
 BAR2 SZ ES       2140 33.54                             174   -0.0610 15.2 173 
 BAR2 SZ I        2140 34.57        35.6 0.15            172           15.2 173 
 BRR  HZ EP       2140 20.53                             152    0.1210 70.4 306 
 BRR  HN ES       2140 36.77                             152    0.2210 70.4 306 
 BRR  HZ I        2140 39.17        10.8 0.18            152           70.4 306 
 RUS  HZ EP       2140 22.54                             145   -0.0410 93.4 172 
 RUS  HE ES       2140 40.43                             145    0.0210 93.4 172 
 RUS  HE I        2140 42.03        11.4 0.23            146           93.4 172 
 PTB  HZ EP       2140 25.44                             133   -0.28 9  141 261 
 PTB  HN ES       2140 45.95                             133   -0.06 9  141 261 
 PTB  HZ I        2140 49.39         9.4 0.12            132            141 261 
 CHI  HZ EP       2140 36.61                             117    0.40 8  240 194 
                                                                                
