 2014  710 2001 29.1 L   7.015 -73.158143.1  RSN  8 0.4 1.6LRSN                1
 GAP=203        0.95       3.6     5.5  7.1  0.2225E+01  0.5653E+00 -0.3054E+01E
 Epicentro: GIRON - SANTANDER                                                  3
 ACTION:UPD 15-03-16 20:42 OP:nd   STATUS:               ID:20140710200129 L   I
 OLDACT:REG 14-07-11 02:46 OP:spq  STATUS:               ID:20140710195813     3
 2014-07-10-1958-13M.COL___259                                                 6
 STAT SP IPHASW D HRMM SECON CODA AMPLIT PERI AZIMU VELO AIN AR TRES W  DIS CAZ7
 BAR2 SZ EP       20 1 49.88                             161    0.7610 46.9 183 
 BAR2 SZ ES   1   20 2  5.05                             161    0.30 7 46.9 183 
 BAR2 SZ I        20 2  7.79         5.2 0.12            163           46.9 183 
 BRR  HE ES       20 2  5.08                             155   -0.2710 62.0 279 
 BRR  HZ I        20 2  9.80        17.9 0.38            151           62.0 279 
 RUS  HZ EP   1   20 1 53.92                             137   -0.54 7  124 176 
 RUS  HN ES   1   20 2 13.97                             137   -0.27 7  124 176 
 RUS  HZ I        20 2 17.64         1.7 0.32            141            124 176 
 PTB  HZ EP       20 1 56.78                             130    0.46 9  153 250 
 PTB  HE ES       20 2 17.71                             130    0.15 9  153 250 
 PTB  HZ I        20 2 23.91         2.7 0.26            130            153 250 
 SPBC HZ EP       20 1 58.94                             125   -0.25 9  182 214 
 SPBC HE ES       20 2 22.07                             125   -0.59 9  182 214 
 SPBC HZ I        20 2 27.82         6.7 0.17            127            182 214 
 ZAR  HN ES   1   20 2 25.19                             123    0.30 6  195 286 
 ZAR  HZ I        20 2 34.53         2.7 0.23            123            195 286 
 SML  HZ EP       20 2  3.00                             119   -0.20 8  222 333 
 SML  HN ES       20 2 29.48                             119   -0.33 8  222 333 
 SML  HZ I        20 2 39.73         8.1 0.10            121            222 333 
 NOR  HE ES       20 2 35.25                             116    0.21 8  248 230 
 NOR  HZ I        20 2 40.58         2.3 0.22            118            248 230 
                                                                                
