 2010 1110 2205 56.7 L   7.355 -73.384108.7  RSN  9 0.4 2.1LRSN                1
 GAP=123        1.12       4.7     6.9  9.2 -0.1264E+02  0.1589E+02 -0.4330E+00E
 Epicentro: SABANA DE TORRES - SANTANDER                                       3
 ACTION:UP  10-12-17 16:51 OP:REBC STATUS:               ID:20101110220556 L   I
 2010-11-10-2204-13S.COL___129                                                 6
 STAT SP IPHASW D HRMM SECON CODA AMPLIT PERI AZIMU VELO SNR AR TRES W  DIS CAZ7
 GIR2 SZ EP       22 6 12.16                             160    -0.110   37 145 
 BRR  HZ EP       22 6 11.99                             156    -0.410   45 233 
 BRR  HN ES   1   22 6 24.92                             156     0.3 7   45 233 
 BRR  HZ I        22 6 26.12        84.2 0.15                            45 233 
 GUE  SZ EP       22 6 14.95                             144     0.410   73  44 
 BAR2 SZ IP       22 6 15.80                             138     0.210   87 165 
 BAR2 SZ I        22 6 16.01        30.0 0.19                            87 165 
 BAR2 SZ ES   1   22 6 30.21                             138    -0.1 7   87 165 
 GRA  SZ IP       22 6 15.44                             138     0.010   87  48 
 GRA  SZ ES   1   22 6 30.47                             138     0.5 7   87  48 
 GRA  SZ I        22 6 31.84        51.5 0.27                            87  48 
 OCA  SZ IP       22 6 15.62                             135    -0.710   98   4 
 OCA  SZ I        22 6 32.36        27.8 0.51                            98   4 
 RUS  HZ IP     D 22 6 23.12                             119    -0.3 9  165 168 
 RUS  HN ES   1   22 6 43.69                             119    -0.5 7  165 168 
 RUS  HZ I        22 6 48.21         6.1 0.49                           165 168 
 NOR  SZ EP       22 6 33.79                             107     0.6 8  257 220 
 NOR  SN ES   2   22 7  2.16                             107     0.5 4  257 220 
 HEL  HZ EP   1   22 6 35.92                             106     0.9 6  270 242 
 HEL  HN ES   2   22 7  4.12                             106    -0.9 4  270 242 
 HEL  HZ I        22 7 12.71         5.9 0.81                           270 242 
                                                                                
