 2011 1010 2309 35.0 L   6.784 -73.085145.0  RSN  6 0.3 1.8LRSN                1
 GAP=145        0.55       3.6     4.0  5.8  0.2378E+01  0.4394E+01 -0.1979E+01E
 Epicentro: LOS SANTOS - SANTANDER                                             3
 ACTION:UPD 12-07-13 16:03 OP:ep   STATUS:               ID:20111010230935 L   I
 2011-10-10-2307-14S.COL___168                                                 6
 STAT SP IPHASW D HRMM SECON CODA AMPLIT PERI AZIMU VELO AIN AR TRES W  DIS CAZ7
 BAR2 SZ EP   1   23 9 54.48                             170   -0.08 7 23.8 207 
 BAR2 SZ I        23 9 54.78        16.3 0.19                          23.8 207 
 PAM  SZ EP   1   23 9 57.17                             152    0.17 7 74.8  35 
 PAM  SZ I        23 9 57.61        10.5 0.19                          74.8  35 
 PAM  SN ES   1   2310 14.07                             152   -0.07 7 74.8  35 
 BRR  HZ EP   1   23 9 56.33                             150   -0.15 7 77.9 297 
 BRR  HE ES   1   2310 13.50                             150    0.28 7 77.9 297 
 BRR  HZ I        2310 17.51        15.0 0.14                          77.9 297 
 RUS  HZ EP   1   23 9 58.45                             144   -0.10 7 98.6 180 
 RUS  HE ES   1   2310 16.90                             144    0.00 7 98.6 180 
 RUS  HZ I        2310 18.19         5.8 0.44                          98.6 180 
 OCA  SZ EP   1   2310  3.31                             129   -0.21 7  163 351 
 OCA  SZ I        2310 26.98         8.2 0.20                           163 351 
 ZAR  HZ EP   1   2310  8.77                             121    0.65 6  211 292 
 ZAR  HN ES   1   2310 33.47                             121   -0.48 6  211 292 
                                                                                
