 2017  510 2108 56.9 L   6.794 -73.087151.7  RSN  8 0.3 1.8LRSN                1
 GAP=144        0.75       3.5     4.5  5.4 -0.4689E+01 -0.2067E+00  0.3215E+01E
 Epicentro: LOS SANTOS - SANTANDER                                             3
 ACTION:UPD 17-06-16 13:34 OP:jn   STATUS:               ID:20170510210856 L   I
 OLDACT:UP  17-05-11 08:27 OP:and  STATUS:               ID:20170510210734     3
 OLDACT:UP  17-05-11 08:27 OP:and  STATUS:               ID:20170510210734     3
 OLDACT:UP  17-05-11 08:27 OP:and  STATUS:               ID:20170510210734     3
 OLDACT:UP  17-05-11 08:26 OP:and  STATUS:               ID:20170510210734     3
 OLDACT:UP  17-05-11 08:24 OP:and  STATUS:               ID:20170510210734     3
 OLDACT:UP  17-05-11 08:24 OP:and  STATUS:               ID:20170510210734     3
 OLDACT:UP  17-05-11 08:24 OP:and  STATUS:               ID:20170510210734     3
 OLDACT:REG 17-05-11 06:40 OP:and  STATUS:               ID:20170510210734     3
 2017-05-10-2108-00M.COL___371                                                 6
 STAT SP IPHASW D HRMM SECON CODA AMPLIT PERI AZIMU VELO AIN AR TRES W  DIS CAZ7
 PAM  EZ EP       21 9 19.10                             152   -0.4510 74.0  35 
 PAM  EN ES       21 9 37.40                             152    0.1810 74.0  35 
 PAM  EZ I        21 9 37.98         5.6 0.32            155           74.0  35 
 BRR  HZ EP       21 9 19.09                             151    0.0710 77.2 297 
 BRR  HN ES       21 9 36.42                             151    0.1410 77.2 297 
 RUS  HZ EP       21 9 21.26                             145    0.0910 99.7 180 
 RUS  HN ES       21 9 39.82                             145   -0.2810 99.7 180 
 RUS  HZ I        21 9 41.02         8.5 0.29            145           99.7 180 
 PTB  HZ EP   9   21 9 23.99                             132   -0.92 0  154 260 
 PTB  HN ES       21 9 45.13                             132   -0.71 9  154 260 
 PTB  HZ I        21 9 50.22         7.4 0.46            129            154 260 
 SPBC HZ EP   2   21 9 26.51                             129    0.32 5  167 221 
 SPBC HN ES       21 9 49.15                             129    0.11 9  167 221 
 SPBC HZ I        21 9 53.29        13.5 0.14            128            167 221 
 ZAR  HZ EP   2   21 9 30.85                             122    0.49 4  210 292 
 ZAR  HE ES   3   21 9 55.32                             122   -1.15 2  210 292 
 ZAR  HZ I        2110  1.60         7.1 0.11            121            210 292 
 NOR  HZ EP       21 9 33.46                             119   -0.03 8  240 235 
 NOR  HE ES   4   21 9 59.50                             119   -2.54 0  240 235 
 NOR  HZ I        2110  6.36         4.4 0.28            118            240 235 
 CHI  HN ES   2   2110  5.38                             118    0.57 4  250 197 
 CHI  HZ I        2110  7.22         5.2 0.38            118            250 197 
                                                                                
