 2013  410 2332  4.2 L   6.813 -73.144149.1  RSN  7 0.5 1.8LRSN                1
 GAP=201        1.05       4.7     8.4  8.1  0.9091E+01  0.9649E+01  0.3915E+01E
 Epicentro: LOS SANTOS - SANTANDER                                             3
 ACTION:UPD 13-05-22 14:37 OP:EP   STATUS:               ID:20130410233204 L   I
 2013-04-10-2330-00M.COL___245                                                 6
 STAT SP IPHASW D HRMM SECON CODA AMPLIT PERI AZIMU VELO AIN AR TRES W  DIS CAZ7
 BAR2 SZ EP       2332 24.14                             170   -0.0710 24.8 190 
 BAR2 SZ ES   1   2332 39.11                             170   -0.75 7 24.8 190 
 BAR2 SZ I        2332 41.82        21.2 0.26            169           24.8 190 
 BRR  HZ EP       2332 26.04                             153    0.4110 70.7 297 
 BRR  HN ES   1   2332 43.42                             153    1.03 7 70.7 297 
 RUS  HZ EP       2332 27.93                             144   -0.4110  102 176 
 RUS  HN ES   1   2332 47.55                             144    0.35 7  102 176 
 RUS  HZ I        2332 49.47         3.6 0.30            145            102 176 
 PTB  HZ EP       2332 30.92                             133   -0.51 9  148 258 
 PTB  HN ES   1   2332 52.06                             133   -0.65 7  148 258 
 PTB  HZ I        2332 56.36         6.7 0.20            131            148 258 
 SML  HZ EP   1   2332 40.89                             118    0.05 6  242 335 
 SML  HN ES   1   2333  9.71                             118    0.26 6  242 335 
 SML  HZ I        2333 16.44         8.3 0.24            118            242 335 
 CHI  HZ EP   1   2332 42.30                             118    0.11 6  250 195 
 CHI  HN ES   1   2333 12.63                             118    0.77 6  250 195 
 CHI  HZ I        2333 15.31         2.4 0.36            118            250 195 
 PRA  HZ EP   1   2332 58.61                             107    0.66 4  393 209 
 PRA  HN ES       2333 39.72                             107   -0.18 6  393 209 
 PRA  HZ I        2333 45.82         3.7 0.30            107            393 209 
                                                                                
