 2012  810 2045 42.1 L   6.764 -73.173151.8  RSN  6 0.4 1.9LRSN                1
 GAP=232        0.57       5.2     7.7  7.5  0.2308E+02 -0.1030E+02 -0.7929E+00E
 Epicentro: VILLANUEVA - SANTANDER                                             3
 ACTION:UPD 12-09-10 11:55 OP:ep   STATUS:               ID:20120810204542 L   I
 2012-08-10-2040-00M.COL___218                                                 6
 STAT SP IPHASW D HRMM SECON CODA AMPLIT PERI AZIMU VELO AIN AR TRES W  DIS CAZ7
 BAR2 SZ EP   3   2046  2.08                             173   -0.27 2 19.0 183 
 BAR2 SZ ES   3   2046 17.26                             173   -0.90 2 19.0 183 
 BAR2 SZ I        2046 18.90        23.6 0.38                          19.0 183 
 BRR  HZ EP       2046  3.93                             153    0.0910 70.6 303 
 BRR  HZ I        2046  4.12        16.0 0.14                          70.6 303 
 BRR  HN ES   1   2046 21.27                             153    0.45 7 70.6 303 
 RUS  HZ EP       2046  6.13                             146   -0.0310 96.9 174 
 RUS  HN ES   1   2046 24.63                             146   -0.32 7 96.9 174 
 RUS  HZ I        2046 25.61         6.6 0.26                          96.9 174 
 PTB  HZ EP   3   2046  8.53                             134   -0.68 2  144 260 
 PTB  HN ES   2   2046 29.76                             134   -0.61 5  144 260 
 PTB  HZ I        2046 31.76         7.9 0.68                           144 260 
 ZAR  HN ES   3   2046 39.89                             124   -0.42 2  203 294 
 ZAR  HZ I        2046 46.98        11.2 0.28                           203 294 
 CHI  HZ EP   3   2046 20.19                             119    0.58 2  244 195 
 CHI  HN ES   2   2046 49.55                             119    0.66 4  244 195 
 CHI  HZ I        2046 55.23         3.4 0.32                           244 195 
                                                                                
