 2013  910 2059 46.3 L   6.804 -73.164145.6  RSN 10 0.4 2.3LRSN                1
 GAP=144        0.90       4.2     4.2  6.1 -0.2508E+01  0.3299E+01  0.5953E+01E
 Epicentro: LOS SANTOS - SANTANDER                                             3
 ACTION:UPD 13-10-22 09:21 OP:ep   STATUS:               ID:20130910205946 L   I
 OLDACT:UP  13-09-11 00:23 OP:mh   STATUS:               ID:20130910205850     3
 OLDACT:UP  13-09-11 00:23 OP:mh   STATUS:               ID:20130910205850     3
 OLDACT:REG 13-09-11 00:13 OP:mh   STATUS:               ID:20130910205850     3
 2013-09-10-2058-50M.COL___241                                                 6
 STAT SP IPHASW D HRMM SECON CODA AMPLIT PERI AZIMU VELO AIN AR TRES W  DIS CAZ7
 BAR2 SZ EP   1   21 0  5.65                             170   -0.27 7 23.5 185 
 BAR2 SZ ES   1   21 0 21.03                             170   -0.18 7 23.5 185 
 BAR2 SZ I        21 0 22.28        57.6 0.34            168           23.5 185 
 BRR  HZ EP   1   21 0  7.63                             153    0.31 7 69.2 299 
 BRR  HN ES       21 0 24.56                             153    0.8510 69.2 299 
 BRR  HZ I        21 0 25.91        29.7 0.34            150           69.2 299 
 PAM  SZ EP       21 0  8.82                             150    0.2610 78.3  41 
 PAM  SN ES   1   21 0 25.37                             150   -0.55 7 78.3  41 
 PAM  SZ I        21 0 27.89        38.5 0.52            154           78.3  41 
 PTB  HZ EP   1   21 0 12.63                             132   -0.45 7  146 258 
 PTB  HN ES       21 0 33.28                             132   -0.69 9  146 258 
 PTB  HZ I        21 0 35.55        18.0 0.16            130            146 258 
 ZAR  HZ EP   1   21 0 18.29                             123   -0.23 6  202 292 
 ZAR  HN ES       21 0 43.41                             123   -0.24 9  202 292 
 ZAR  HZ I        21 0 52.85        17.7 0.32            121            202 292 
 NOR  HZ EP   1   21 0 22.02                             119    0.15 6  233 234 
 NOR  HN ES   1   21 0 49.89                             119    0.27 6  233 234 
 NOR  HZ I        21 0 59.13        13.2 0.44            117            233 234 
 SML  HZ EP   1   21 0 22.28                             118   -0.50 6  242 336 
 SML  HN ES   2   21 0 51.22                             118   -0.01 4  242 336 
 SML  HZ I        21 0 54.18        24.9 0.28            117            242 336 
 CHI  HZ EP   1   21 0 24.11                             117    0.13 6  249 195 
 CHI  HN ES   1   21 0 53.27                             117   -0.10 6  249 195 
 CHI  HZ I        21 0 56.82        14.3 0.62            117            249 195 
 HEL  HZ EP   1   21 0 27.31                             115    1.01 6  270 256 
 HEL  HN ES   2   21 0 57.63                             115    0.14 4  270 256 
 HEL  HZ I        21 1  3.92        10.8 0.32            114            270 256 
 PRA  HZ EP   1   21 0 39.92                             106    0.17 4  391 209 
 PRA  HN ES   2   21 1 21.48                             106    0.05 3  391 209 
 PRA  HZ I        21 1 27.95        11.5 0.70            106            391 209 
                                                                                
