 2015  410 2301  9.7 L   6.751 -73.207138.7  RSN  4 0.4 1.4LRSN                1
 GAP=227        0.89       6.9     7.1  8.3  0.3154E+02 -0.4504E+00 -0.5392E+01E
 Epicentro: VILLANUEVA - SANTANDER                                             3
 ACTION:UPD 15-06-03 16:54 OP:cam  STATUS:               ID:20150410230109 L   I
 OLDACT:REG 15-04-11 07:45 OP:fm   STATUS:               ID:20150410225750     3
 2015-04-10-2257-50M.COL___266                                                 6
 STAT SP IPHASW D HRMM SECON CODA AMPLIT PERI AZIMU VELO AIN AR TRES W  DIS CAZ7
 BRR  HZ EP       23 1 30.10                             152    0.1810 68.3 305 
 BRR  HN ES       23 1 45.72                             152    0.0310 68.3 305 
 BRR  HZ I        23 1 50.04         8.1 0.62            151           68.3 305 
 RUS  HZ EP       23 1 32.92                             144    0.5010 95.9 172 
 RUS  HN ES       23 1 49.70                             144   -0.4410 95.9 172 
 RUS  HZ I        23 1 52.03         2.9 0.32            149           95.9 172 
 PTB  HZ EP       23 1 35.32                             132   -0.08 9  140 260 
 PTB  HE ES       23 1 55.71                             132    0.27 9  140 260 
 PTB  HZ I        23 1 57.95         2.8 0.52            134            140 260 
 ZAR  HZ EP   1   23 1 40.40                             121   -0.86 6  200 294 
 ZAR  HE ES   1   23 2  5.70                             121   -0.18 6  200 294 
 ZAR  HZ I        23 2 12.85         2.5 0.40            123            200 294 
                                                                                
