 2017 1010 2117 57.6 L   6.819 -73.200146.0  RSN  5 0.2 1.5LRSN                1
 GAP=170        0.60       4.3     4.8  5.7 -0.1355E+02  0.1215E+02 -0.3767E+01E
 Epicentro: ZAPATOCA - SANTANDER                                               3
 ACTION:UPD 17-11-07 19:30 OP:rebc STATUS:               ID:20171010211757 L   I
 OLDACT:REG 17-10-11 03:11 OP:osc  STATUS:               ID:20171010211008     3
 2017-10-10-2118-00M.COL___444                                                 6
 STAT SP IPHASW D HRMM SECON CODA AMPLIT PERI AZIMU VELO AIN AR TRES W  DIS CAZ7
 BAR2 EZ EP       2118 17.41                             170    0.1210 25.1 176 
 BAR2 EZ ES       2118 32.58                             170   -0.0810 25.1 176 
 BAR2 EZ I        2118 33.88         9.3 0.30            169           25.1 176 
 PAM  EZ EP       2118 20.27                             150    0.2910 79.8  44 
 PAM  HN ES       2118 37.27                             150   -0.1710 79.8  44 
 RUS  HZ EP       2118 21.19                             143   -0.3710  103 173 
 RUS  HE ES       2118 40.46                             143    0.2010  103 173 
 RUS  HZ I        2118 41.26         3.6 0.34            143            103 173 
 NOR  HN ES       2119  0.71                             119    0.18 8  231 233 
 GUY2CHE ES       2119 14.30                             113   -0.21 7  298 234 
                                                                                
