 2016 1010 2321 56.9 L   6.758 -73.143148.7  RSN  5 0.3 1.6LRSN                1
 GAP=234        0.69       5.3     4.9  5.0  0.1639E+02  0.2705E+01 -0.2785E+01E
 Epicentro: LOS SANTOS - SANTANDER                                             3
 ACTION:UPD 16-11-09 19:18 OP:rebc STATUS:               ID:20161010232156 L   I
 OLDACT:REG 16-10-11 03:17 OP:drio STATUS:               ID:20161010231748     3
 2016-10-10-2318-00M.COL___363                                                 6
 STAT SP IPHASW D HRMM SECON CODA AMPLIT PERI AZIMU VELO AIN AR TRES W  DIS CAZ7
 BAR2 EZ EP       2322 16.74                             172   -0.0710 18.8 193 
 BAR2 EZ ES       2322 32.33                             172   -0.0110 18.8 193 
 BAR2 EZ I        2322 34.75         8.4 0.48            170           18.8 193 
 BRR  HZ EP       2322 18.35                             152   -0.1710 73.8 302 
 BRR  HE ES       2322 35.34                             152   -0.0410 73.8 302 
 RUS  HZ EP       2322 20.87                             146    0.2510 95.9 176 
 RUS  HE ES       2322 39.21                             146    0.0910 95.9 176 
 RUS  HZ I        2322 40.85         2.4 0.32            146           95.9 176 
 PTB  HZ EP       2322 23.47                             133   -0.60 9  147 261 
 PTB  HE ES       2322 45.27                             133    0.01 9  147 261 
 PTB  HZ I        2322 48.08         4.6 0.48            132            147 261 
 ZAR  HZ EP       2322 30.24                             123    0.48 8  206 293 
 ZAR  HE ES       2322 55.58                             123    0.19 8  206 293 
 ZAR  HZ I        2323  0.29         6.8 0.32            123            206 293 
                                                                                
