 2013 1210 2035 59.4 L   6.155 -73.655108.7  RSN  7 0.4 1.6LRSN                1
 GAP=112        1.01       4.0     3.3  7.2 -0.1709E+01  0.7098E+01  0.6131E+01E
 Epicentro: LA PAZ - SANTANDER                                                 3
 ACTION:UPD 14-01-13 10:17 OP:ep   STATUS:               ID:20131210203559 L   I
 OLDACT:REG 13-12-11 00:12 OP:stll STATUS:               ID:20131210202806     3
 2013-12-10-2028-06M.COL___259                                                 6
 STAT SP IPHASW D HRMM SECON CODA AMPLIT PERI AZIMU VELO AIN AR TRES W  DIS CAZ7
 RUS  HZ EP       2036 17.37                             145    0.1110 69.6 115 
 RUS  HN ES       2036 30.67                             145   -0.5410 69.6 115 
 BAR2 SZ EP       2036 17.59                             144    0.5810 71.2  47 
 BAR2 SZ ES       2036 30.98                             144    0.2110 71.2  47 
 BAR2 SZ I        2036 33.30        27.4 0.58            145           71.2  47 
 SPBC HZ EP       2036 17.24                             144    0.3610 72.3 220 
 SPBC HE ES       2036 30.93                             144    0.4010 72.3 220 
 SPBC HZ E      C 2039 14.17                                           72.3 220 
 PTB  HZ EP       2036 18.02                             134   -0.8410 98.3 296 
 PTB  HN ES       2036 33.87                             134   -0.1810 98.3 296 
 NOR  HZ EP       2036 23.65                             122   -0.20 9  150 244 
 NOR  HN ES       2036 42.92                             122   -0.01 9  150 244 
 NOR  HZ I        2036 45.13         4.5 0.38            123            150 244 
 CHI  HZ EP       2036 26.22                             118   -0.14 9  169 183 
 CHI  HZ I        2036 26.57         2.5 0.14            120            169 183 
 CHI  HN ES       2036 47.14                             118   -0.27 9  169 183 
 GUY2CHZ EP       2036 31.93                             112    0.32 8  216 242 
 GUY2CHN ES       2036 57.01                             112    0.26 8  216 242 
 GUY2CHZ I        2037  1.76         3.0 0.60                           216 242 
                                                                                
