 2016  910 2331 39.1 L   6.800 -73.146150.0  RSN  7 0.3 1.4LRSN                1
 GAP=136        0.65       3.4     3.2  4.6 -0.8526E+00  0.2887E+01  0.6987E+00E
 Epicentro: LOS SANTOS - SANTANDER                                             3
 ACTION:UPD 17-08-17 21:08 OP:lp   STATUS:               ID:20160910233139 L   I
 OLDACT:UP  16-09-11 03:56 OP:edw  STATUS:               ID:20160910232737     3
 OLDACT:REG 16-09-11 02:52 OP:edw  STATUS:               ID:20160910232737     3
 2016-09-10-2328-00M.COL___345                                                 6
 STAT SP IPHASW D HRMM SECON CODA AMPLIT PERI AZIMU VELO AIN AR TRES W  DIS CAZ7
 BAR2 EZ EP       2331 59.12                             171   -0.1010 23.4 190 
 BAR2 EZ ES       2332 15.18                             171    0.2510 23.4 190 
 BAR2 EZ I        2332 15.52         3.6 0.16            170           23.4 190 
 BRR  HZ EP       2332  0.98                             153    0.2910 71.2 298 
 BRR  HN ES       2332 17.57                             153    0.0310 71.2 298 
 PAM  EZ EP       2332  2.04                             151    0.2910 77.4  40 
 PAM  EE ES       2332 18.96                             151   -0.4710 77.4  40 
 PAM  EZ I        2332 19.62         3.9 0.18            153           77.4  40 
 RUS  HZ EP       2332  3.49                             145    0.2410  101 176 
 RUS  HN ES       2332 21.98                             145   -0.1310  101 176 
 RUS  HZ I        2332 23.14         1.9 0.32            146            101 176 
 PTB  HZ EP       2332  6.06                             133   -0.34 9  148 259 
 PTB  HE ES       2332 27.73                             133    0.03 9  148 259 
 PTB  HZ I        2332 30.32         3.1 0.12            131            148 259 
 ZAR  HZ EP   2   2332 11.97                             123    0.17 4  204 292 
 ZAR  HN ES   2   2332 37.39                             123    0.07 4  204 292 
 ZAR  HZ I        2332 43.35         3.7 0.09            122            204 292 
 NOR  HZ EP   2   2332 14.26                             119   -0.80 4  235 234 
 NOR  HE ES   2   2332 42.77                             119   -0.35 4  235 234 
 NOR  HZ I        2332 45.06         2.0 0.16            119            235 234 
                                                                                
