 2015  110 2303 16.1 L   6.551 -73.546106.7  RSN 11 0.6 1.9LRSN                1
 GAP= 76        1.54       3.4     4.7  8.2 -0.7539E+00  0.1158E+02 -0.1917E+01E
 Epicentro: EL CARMEN - SANTANDER                                              3
 ACTION:UPD 15-03-02 15:38 OP:nd   STATUS:               ID:20150110230316 L   I
 OLDACT:REG 15-01-11 06:11 OP:stll STATUS:               ID:20150110225748     3
 2015-01-10-2257-48M.COL___265                                                 6
 STAT SP IPHASW D HRMM SECON CODA AMPLIT PERI AZIMU VELO AIN AR TRES W  DIS CAZ7
 BAR2 EZ EP       23 3 31.70                             158   -0.0310 40.4  84 
 BAR2 EZ ES       23 3 44.12                             158    0.2310 40.4  84 
 BAR2 EZ I        23 3 45.88        69.3 0.32            164           40.4  84 
 BRR  HZ EP       23 3 32.81                             146    0.0710 64.2 343 
 BRR  HE ES       23 3 46.25                             146    0.5610 64.2 343 
 BRR  HZ I        23 3 58.80         9.9 0.28            149           64.2 343 
 RUS  HZ EP       23 3 35.43                             137    0.1210 89.0 145 
 RUS  HE ES       23 3 49.99                             137   -0.2610 89.0 145 
 RUS  HZ I        23 3 52.22         7.7 0.38            146           89.0 145 
 PTB  HZ EP       23 3 34.93                             133   -0.7310  101 269 
 PTB  HN ES       23 3 49.72                             133   -1.1610  101 269 
 PTB  HZ I        23 3 54.49        14.2 0.16            137            101 269 
 SPBC HZ EP       23 3 38.17                             129    1.0710  115 210 
 SPBC HN ES       23 3 53.67                             129    0.2310  115 210 
 SPBC HZ I        23 4  0.11        24.7 0.22            135            115 210 
 ZAR  HZ EP       23 3 43.82                             116    0.28 9  178 306 
 ZAR  HN ES       23 4  6.38                             116    1.48 9  178 306 
 ZAR  HZ I        23 4  8.63        14.9 0.50            120            178 306 
 NOR  HZ EP       23 3 44.01                             115   -0.06 9  183 233 
 NOR  HE ES       23 4  5.45                             115   -0.39 9  183 233 
 NOR  HZ I        23 4  8.44        11.2 0.18            121            183 233 
 OCA  HZ EP       23 3 44.23                             114   -0.58 9  188   8 
 OCA  HN ES       23 4  6.73                             114   -0.43 9  188   8 
 OCA  HZ I        23 4 11.59         7.0 0.14            120            188   8 
 CHI  HZ EP       23 3 48.01                             111    0.04 8  214 186 
 CHI  HN ES       23 4 12.56                             111   -0.23 8  214 186 
 CHI  HZ I        23 4 18.31         2.9 0.42            118            214 186 
 HEL  HZ EP       23 3 50.03                             110    1.03 8  223 260 
 HEL  HE ES       23 4 14.01                             110   -0.61 8  223 260 
 HEL  HZ I        23 4 19.83         6.4 0.28            115            223 260 
 SML  HZ EP       23 3 51.82                             107   -0.46 8  255 347 
 SML  HE ES       23 4 20.17                             107   -0.30 8  255 347 
 SML  HZ I        23 4 29.00        12.1 0.22            112            255 347 
                                                                                
