 2013  611 0902 39.4 L   6.813 -73.130151.2  RSN 14 0.4 2.5LRSN                1
 GAP=111        0.94       2.9     3.9  5.7  0.2489E+01  0.6339E+01  0.1395E+01E
 Epicentro: LOS SANTOS - SANTANDER                                             3
 ACTION:UPD 14-01-08 09:54 OP:ep   STATUS:               ID:20130611090239 L   I
 OLDACT:UP  13-06-11 10:46 OP:cam  STATUS:               ID:20130611085959     3
 OLDACT:UP  13-06-11 10:45 OP:cam  STATUS:               ID:20130611085959     3
 OLDACT:REG 13-06-11 08:10 OP:cam  STATUS:               ID:20130611085959     3
 2013-06-11-0859-59M.COL___260                                                 6
 STAT SP IPHASW D HRMM SECON CODA AMPLIT PERI AZIMU VELO AIN AR TRES W  DIS CAZ7
 BAR2 SZ EP        9 2 59.63                             170   -0.0910 25.1 193 
 BAR2 SZ ES        9 3 15.38                             170   -0.1810 25.1 193 
 BAR2 SZ E         9 3 30.64                                           25.1 193 
 GIR2 SZ EP        9 2 59.54                             168   -0.1510 30.2 347 
 BRR  HZ EP        9 3  1.51                             153    0.3310 72.0 297 
 BRR  HZ I         9 3  1.76        87.2 0.26            149           72.0 297 
 BRR  HN ES        9 3 18.98                             153    0.8110 72.0 297 
 RUS  HZ EP        9 3  3.81                             145    0.0310  102 177 
 RUS  HN ES        9 3 22.38                             145   -0.4210  102 177 
 RUS  HZ I         9 3 23.39        25.6 0.26            145            102 177 
 PTB  HZ EP        9 3  6.19                             133   -0.80 9  150 258 
 TAM  HN ES        9 3 29.57                             132    0.34 9  154 106 
 OCA  HN ES        9 3 29.78                             131   -0.57 9  159 352 
 OCA  HZ I         9 3 35.39        39.2 0.26            130            159 352 
 ZAR  HZ EP        9 3 12.57                             123    0.26 9  205 292 
 ZAR  HN ES        9 3 38.30                             123    0.32 9  205 292 
 ZAR  HZ I         9 3 44.63        35.9 0.22            122            205 292 
 NOR  HZ EP   1    9 3 15.57                             119   -0.11 6  237 234 
 NOR  HN ES   1    9 3 43.50                             119   -0.48 6  237 234 
 NOR  HZ I         9 3 48.81        20.2 0.20            118            237 234 
 SML  HZ EP   1    9 3 16.03                             119   -0.24 6  243 335 
 SML  HN ES   1    9 3 44.85                             119   -0.18 6  243 335 
 SML  HZ I         9 3 48.61        49.5 0.22            118            243 335 
 CHI  HZ EP   1    9 3 18.09                             118    0.49 6  250 195 
 CHI  HZ I         9 3 19.77         9.0 0.12            118            250 195 
 CHI  HN ES        9 3 47.74                             118    0.35 8  250 195 
 ROSC BZ EP   4    9 3 19.71                             118    1.66 0  255 211 
 ROSC BN ES   4    9 3 52.14                             118    3.95 0  255 211 
 HEL  HZ EP   4    9 3 21.80                             116    1.69 0  274 256 
 HEL  HE ES   4    9 3 56.27                             116    4.40 0  274 256 
 HEL  HZ I         9 3 59.75        10.6 0.26            115            274 256 
 COD  HZ EP   2    9 3 28.68                             110    0.83 3  347 354 
 PRA  HZ EP   1    9 3 33.14                             107   -0.21 4  394 210 
 PRA  HZ I         9 3 35.38         8.9 0.18            107            394 210 
 PRA  HN ES   1    9 4 15.78                             107    0.35 4  394 210 
                                                                                
