 2016  311 0609 31.7 L   6.754 -73.114144.8  RSN  5 0.2 1.5LRSN                1
 GAP=143        0.67       3.2     3.9  5.6 -0.2646E+01  0.6909E+01 -0.4402E+00E
 Epicentro: LOS SANTOS - SANTANDER                                             3
 ACTION:UPD 16-05-13 21:23 OP:cam  STATUS:               ID:20160311060931 L   I
 OLDACT:REG 16-03-11 13:44 OP:cara STATUS:               ID:20160311060750     3
 2016-03-11-0607-50M.COL___262                                                 6
 STAT SP IPHASW D HRMM SECON CODA AMPLIT PERI AZIMU VELO AIN AR TRES W  DIS CAZ7
 BAR2 EZ IP        6 9 50.80                             172   -0.3210 19.4 203 
 BAR2 EZ ES        610  5.92                             172   -0.3610 19.4 203 
 BAR2 EZ I         610  8.04         5.6 0.46            169           19.4 203 
 PAM  EZ EP        6 9 53.78                             150   -0.1310 79.3  35 
 PAM  EZ I         6 9 53.93        13.5 0.22            153           79.3  35 
 PAM  EN ES        610 11.47                             150    0.2210 79.3  35 
 RUS  HZ EP        6 9 55.15                             145    0.1910 95.3 178 
 RUS  HN ES        610 13.47                             145    0.3610 95.3 178 
 RUS  HZ I         610 14.89         3.0 0.44            147           95.3 178 
 SPBC HZ EP        6 9 59.88                             129   -0.07 9  162 221 
 SPBC HN ES        610 21.88                             129   -0.11 9  162 221 
 SPBC HZ I         610 24.97         3.2 0.22            129            162 221 
 ZAR  HN ES        610 30.54                             121    0.26 8  209 293 
 ZAR  HZ I         610 36.89         2.6 0.12            121            209 293 
                                                                                
