 2014  911 0959 14.9 L   6.083 -73.714113.1  RSN  8 0.4 1.7LRSN                1
 GAP=113        1.05       3.4     3.5  6.9 -0.2372E+01  0.7945E+01 -0.5652E+00E
 Epicentro: CHIPATA - SANTANDER                                                3
 ACTION:UPD 14-10-03 23:04 OP:nd   STATUS:               ID:20140911095914 L   I
 OLDACT:REG 14-09-11 15:15 OP:mh   STATUS:               ID:20140911095750     3
 2014-09-11-0957-50M.COL___284                                                 6
 STAT SP IPHASW D HRMM SECON CODA AMPLIT PERI AZIMU VELO AIN AR TRES W  DIS CAZ7
 SPBC HZ EP        959 32.17                             149    0.0310 61.9 220 
 SPBC HN ES        959 45.78                             149    0.1810 61.9 220 
 SPBC HZ I         959 47.88        11.5 0.38            150           61.9 220 
 RUS  HZ EP        959 33.44                             145   -0.0010 73.0 107 
 RUS  HN ES        959 47.41                             145   -0.5010 73.0 107 
 RUS  HZ I         959 49.00         8.5 0.26            149           73.0 107 
 BAR2 SZ EP        959 34.22                             142    0.5210 81.5  46 
 BAR2 SZ ES        959 48.47                             142    0.1010 81.5  46 
 PTB  HZ EP   1    959 34.09                             136   -0.49 7 96.4 302 
 PTB  HN ES        959 49.18                             136   -0.7710 96.4 302 
 PTB  HZ I         959 51.60         7.8 0.32            137           96.4 302 
 BRR  HZ EP   1    959 36.34                             131    0.30 7  113   0 
 BRR  HN ES        959 52.92                             131    0.3710  113   0 
 BRR  HZ I         959 58.05         8.6 0.13            133            113   0 
 NOR  HZ EP   1    959 39.04                             125    0.34 7  140 246 
 NOR  HN ES        959 57.79                             125    0.51 9  140 246 
 NOR  HZ I         959 59.64        12.1 0.14            126            140 246 
 ZAR  HZ EP        959 44.54                             115   -0.53 9  201 321 
 ZAR  HN ES       10 0  8.86                             115    0.25 9  201 321 
 ZAR  HZ I        10 0 11.06         6.9 0.22            116            201 321 
 TOL  SZ EP        959 49.61                             110   -0.66 8  243 227 
 TOL  SN ES       10 0 18.18                             110    0.31 8  243 227 
 TOL  SZ I        10 0 22.95         6.0 0.54            111            243 227 
                                                                                
