 2011  311 0756 20.9 L   7.459 -73.586 99.8  RSN  5 0.1 1.6LRSN                1
 GAP=217        0.45       3.3     6.8  9.7  0.2510E+01  0.3073E+02  0.1747E+02E
 Epicentro: SABANA DE TORRES - SANTANDER                                       3
 ACTION:UP  11-06-16 14:33 OP:jfem STATUS:               ID:20110311075621 L   I
 2011-03-11-0750-43S.COL___135                                                 6
 STAT SP IPHASW D HRMM SECON CODA AMPLIT PERI AZIMU VELO SNR AR TRES W  DIS CAZ7
 GUE  SZ EP        756 38.44                             137    -0.310   84  61 
 OCA  SZ IP        756 39.23                             134     0.110   91  19 
 OCA  SZ ES   1    756 53.39                             134     0.0 7   91  19 
 OCA  SZ I         756 54.53        10.7 0.19                            91  19 
 GRA  SZ IP        756 39.86                             132     0.110   98  61 
 GRA  SZ ES   1    756 54.68                             132     0.1 7   98  61 
 GRA  SZ I         756 55.61        17.5 0.34                            98  61 
 BAR2 SZ EP        756 40.67                             130     0.110  106 155 
 BAR2 SZ ES   3    756 55.78                             130    -0.2 2  106 155 
 BAR2 SZ I         756 56.88         5.4 0.11                           106 155 
 RUS  HZ EP   3    756 49.05                             114     0.1 2  182 162 
                                                                                
