 2010 1011 0441 49.5 L   6.797 -73.108144.0  RSN 11 0.3 2.0LRSN                1
 GAP=181        0.60       3.1     5.2  5.0 -0.8588E+01  0.2923E+00  0.2544E+01E
 Epicentro: LOS SANTOS - SANTANDER                                             3
 ACTION:UP  11-02-18 11:09 OP:tino STATUS:               ID:20101011044149 L   I
 2010-10-11-0438-02S.COL___121                                                 6
 STAT SP IPHASW D HRMM SECON CODA AMPLIT PERI AZIMU VELO SNR AR TRES W  DIS CAZ7
 BAR2 SZ IP        442  8.83                             170    -0.110   24 200 
 BAR2 SZ ES   1    442 23.62                             170    -0.4 7   24 200 
 BAR2 SZ I         442 26.10        26.6 0.29                            24 200 
 BRR  HZ IP     C  442 10.65                             151     0.010   75 297 
 BRR  HZ I         442 10.94        32.7 0.16                            75 297 
 BRR  HN ES   1    442 27.67                             151     0.5 7   75 297 
 GUE  SZ EP   2    442 13.72                             139    -0.3 5  116  10 
 GRA  SZ IP        442 14.65                             137     0.210  125  16 
 GRA  SZ ES   1    442 34.13                             137     0.1 7  125  16 
 GRA  SZ I         442 35.26        12.5 0.38                           125  16 
 OCA  SZ EP   1    442 17.47                             129    -0.3 7  161 352 
 OCA  SZ ES   1    442 39.64                             129    -0.1 7  161 352 
 OCA  SZ I         442 42.33        13.8 0.20                           161 352 
 NOR  SZ EP   2    442 24.75                             118    -0.7 4  238 235 
 NOR  SN ES   2    442 53.00                             118    -0.5 4  238 235 
 CHI  HZ EP   2    442 27.61                             117     0.5 4  249 196 
 CHI  HN ES   2    442 56.98                             117     0.4 4  249 196 
 CHI  HZ I         443  3.23         3.2 0.63                           249 196 
 ROSC BE ES   2    442 57.90                             116     0.4 4  255 212 
 HEL  HZ EP   2    442 30.14                             114     0.1 4  276 256 
 HEL  HN ES   2    443  1.24                             114    -0.4 4  276 256 
 HEL  HZ I         443  7.28         5.8 0.45                           276 256 
 RREF HZ EP   2    442 36.50                             110     0.6 3  325 230 
 RREF HZ I         443 15.89         4.5 0.16                           325 230 
 PRA  HZ EP   2    442 43.10                             106     0.0 3  394 210 
 PRA  HN ES   2    443 25.09                             106     0.1 3  394 210 
                                                                                
