 2011  211 0852 35.9 L   5.979 -73.717110.0  RSN  6 0.3 1.5LRSN                1
 GAP=109        0.59       3.3     3.7  8.4 -0.3750E+01  0.1496E+02 -0.2744E+01E
 Epicentro: GUAVATA - SANTANDER                                                3
 ACTION:UP  11-03-28 15:07 OP:jfem STATUS:               ID:20110211085236 L   I
 2011-02-11-0851-12S.COL___136                                                 6
 STAT SP IPHASW D HRMM SECON CODA AMPLIT PERI AZIMU VELO SNR AR TRES W  DIS CAZ7
 RUS  HZ EP   1    852 53.81                             147    -0.2 7   71  98 
 RUS  HN ES   2    853  7.64                             147    -0.4 5   71  98 
 RUS  HZ I         853  9.29         3.6 0.29                            71  98 
 BAR2 SZ EP        852 55.09                             138     0.010   90  41 
 BAR2 SZ ES   1    853 10.29                             138     0.3 7   90  41 
 BAR2 SZ I         853 12.01        12.5 0.26                            90  41 
 GIR2 SZ EP   2    852 58.89                             125    -0.1 5  135  25 
 CHI  HZ EP   1    853  1.02                             123     0.1 7  149 181 
 CHI  HZ I         853  1.73         4.2 0.32                           149 181 
 CHI  HN ES   2    853 20.64                             123     0.3 5  149 181 
 HEL  HZ EP   1    853  5.94                                    -0.6 6  202 277 
 HEL  HE ES   1    853 30.63                                     0.3 6  202 277 
 HEL  HZ I         853 37.60         2.3 0.51                           202 277 
 GRA  SZ EP   2    853 10.26                             110     0.4 4  234  26 
 GRA  SZ ES   1    853 36.18                             110    -0.1 6  234  26 
 GRA  SZ I         853 41.25         3.6 0.31                           234  26 
                                                                                
