 2011  911 0540 40.2 L   6.792 -73.125148.4  RSN 12 0.3 2.2LRSN                1
 GAP=140        0.40       2.0     3.1  3.6 -0.6347E+00  0.3675E+01  0.7853E+00E
 Epicentro: LOS SANTOS - SANTANDER                                             3
 ACTION:UPD 12-07-13 15:56 OP:ep   STATUS:               ID:20110911054040 L   I
 2011-09-11-0540-00M.COL___169                                                 6
 STAT SP IPHASW D HRMM SECON CODA AMPLIT PERI AZIMU VELO AIN AR TRES W  DIS CAZ7
 BAR2 SZ IP        540 59.95                             171   -0.1610 23.0 196 
 BAR2 SZ ES   2    541 15.22                             171   -0.44 5 23.0 196 
 BAR2 SZ I         541 17.74        29.0 0.19                          23.0 196 
 GIR2 SZ EP   2    540 59.97                             167   -0.22 5 32.6 347 
 GIR2 SZ ES   2    541 16.22                             167    0.41 5 32.6 347 
 BRR  HZ EP   1    541  1.76                             152    0.02 7 73.7 298 
 BRR  HN ES   2    541 19.19                             152    0.62 5 73.7 298 
 BRR  HZ I         541 22.85        48.3 0.15                          73.7 298 
 PAM  SZ EP   2    541  2.86                             151    0.24 5 76.7  38 
 PAM  SN ES   2    541 20.14                             151    0.00 5 76.7  38 
 RUS  HZ EP   2    541  3.84                             145   -0.26 5 99.5 177 
 RUS  HE ES   2    541 22.65                             145   -0.13 5 99.5 177 
 RUS  HZ I         541 26.11         8.6 0.13                          99.5 177 
 OCA  SZ EP   2    541  8.70                             130   -0.09 5  161 352 
 OCA  SZ ES   2    541 31.20                             130    0.08 5  161 352 
 OCA  SZ I         541 34.77        23.5 0.24                           161 352 
 ZAR  HZ EP   1    541 12.93                             123   -0.11 6  207 292 
 ZAR  HN ES   2    541 38.26                             123   -0.42 4  207 292 
 ZAR  HZ I         541 44.06        23.5 0.44                           207 292 
 NOR  SZ EP   2    541 15.99                             119   -0.20 4  236 235 
 NOR  SN ES   2    541 44.07                             119   -0.23 4  236 235 
 CHI  HZ EP   1    541 18.34                             118    0.36 6  248 196 
 CHI  HN ES   2    541 47.85                             118    0.37 4  248 196 
 CHI  HZ I         541 57.00         7.0 0.46                           248 196 
 HEL  HZ EP   2    541 20.85                             115    0.11 4  274 256 
 HEL  HN ES   2    541 52.43                             115    0.05 4  274 256 
 HEL  HZ I         541 59.07        13.6 0.45                           274 256 
 COD  HZ EP   2    541 28.56                             109   -0.22 3  349 354 
 COD  HN ES   2    542  6.96                             109    0.27 3  349 354 
 COD  HZ I         542 13.55         8.8 0.57                           349 354 
 PRA  HZ EP   2    541 34.47                             107    0.65 3  392 210 
 PRA  HN ES   2    542 15.84                             107    0.17 3  392 210 
                                                                                
