 2010 1011 0028  9.3 L   6.789 -73.085148.7  RSN 11 0.4 2.1LRSN                1
 GAP=182        0.72       3.6     5.8  5.7 -0.1174E+02  0.8856E+00  0.5927E+01E
 Epicentro: LOS SANTOS - SANTANDER                                             3
 ACTION:UP  11-02-18 11:09 OP:tino STATUS:               ID:20101011002809 L   I
 2010-10-11-0026-36S.COL___121                                                 6
 STAT SP IPHASW D HRMM SECON CODA AMPLIT PERI AZIMU VELO SNR AR TRES W  DIS CAZ7
 BAR2 SZ IP        028 29.21                             170    -0.110   24 207 
 BAR2 SZ I         028 29.61        19.9 0.11                            24 207 
 BAR2 SZ ES   1    028 45.08                             170     0.1 7   24 207 
 BRR  HZ IP     C  028 31.20                             151     0.010   78 297 
 BRR  HZ I         028 32.73        28.7 0.19                            78 297 
 BRR  HE ES   1    028 48.54                             151     0.3 7   78 297 
 GRA  SZ IP        028 35.09                             138     0.310  125  14 
 GRA  SZ ES   1    028 54.37                             138    -0.3 7  125  14 
 GRA  SZ I         028 55.80        14.6 0.30                           125  14 
 OCA  SZ EP   1    028 38.16                             130     0.1 7  162 351 
 OCA  SZ ES   1    029  0.23                             130    -0.3 7  162 351 
 OCA  SZ I         029  5.53        13.3 0.28                           162 351 
 NOR  SZ EP   1    028 45.34                             118    -0.4 6  240 236 
 NOR  SE ES   1    029 13.55                             118    -0.6 6  240 236 
 CHI  HZ EP   1    028 47.30                             118     0.0 6  249 197 
 CHI  HN ES   2    029 15.96                             118    -0.9 4  249 197 
 CHI  HZ I         029 22.55         5.9 0.43                           249 197 
 ROSC BZ EP   2    028 47.33                             117    -0.6 4  255 212 
 ROSC BE ES   2    029 18.81                             117     0.8 4  255 212 
 ROSC BZ I         029 22.56         7.7 0.50                           255 212 
 HEL  HZ EP   1    028 50.80                             115     0.4 6  278 256 
 HEL  HE ES   2    029 22.13                             115    -0.3 4  278 256 
 HEL  HZ I         029 28.17         6.8 0.36                           278 256 
 RREF HZ EP   2    028 56.55                             111     0.4 3  326 230 
 RREF HN ES   2    029 33.07                             111     0.5 3  326 230 
 RREF HZ I         029 40.78         9.5 0.37                           326 230 
 TOL  SZ EP   2    028 57.70                             110    -0.5 3  347 226 
 PRA  HZ EP   1    029  3.37                             107     0.1 4  394 211 
 PRA  HE ES   1    029 46.13                             107     0.9 4  394 211 
                                                                                
