 2011 1011 0734 40.3 L   5.932 -73.753109.5  RSN  7 0.3 1.5LRSN                1
 GAP= 86        0.57       3.1     2.6  6.3 -0.2708E+01  0.4015E+01  0.2973E+01E
 Epicentro: GUAVATA - SANTANDER                                                3
 ACTION:UPD 12-07-13 16:03 OP:ep   STATUS:               ID:20111011073440 L   I
 2011-10-11-0720-00M.COL___171                                                 6
 STAT SP IPHASW D HRMM SECON CODA AMPLIT PERI AZIMU VELO AIN AR TRES W  DIS CAZ7
 RUS  HZ EP   1    734 58.77                             144    0.17 7 74.3  93 
 RUS  HN ES   1    735 12.71                             144   -0.15 7 74.3  93 
 RUS  HZ I         735 14.81         3.7 0.27                          74.3  93 
 BAR2 SZ EP        735  0.29                             135    0.2910 96.5  41 
 BAR2 SZ ES   1    735 15.60                             135    0.24 7 96.5  41 
 BAR2 SZ I         735 17.29        18.5 0.35                          96.5  41 
 BRR  HZ EP   1    735  2.54                             126   -0.24 7  130   2 
 BRR  HN ES   1    735 19.78                             126   -0.53 7  130   2 
 BRR  HZ I         735 23.56         7.3 0.19                           130   2 
 NOR  SN ES        735 20.51                             126    0.0410  130 252 
 CHI  HZ EP   1    735  4.46                             123   -0.28 7  144 179 
 HEL  HZ EP   1    735 10.88                             114    0.34 6  199 278 
 HEL  HN ES   2    735 34.22                             114    0.10 4  199 278 
 HEL  HZ I         735 37.62         1.8 0.25                           199 278 
 PRA  HZ EP   1    735 18.64                             106   -0.33 6  276 207 
                                                                                
