 2012  411 0046 57.2 L   6.298 -73.613111.4  RSN  4 0.1 1.5LRSN                1
 GAP=159        0.33       2.4     2.1  4.0  0.2020E+01  0.3957E+01  0.3124E+01E
 Epicentro: SANTA HELENA DEL OPON - SANTANDER                                  3
 ACTION:UPD 12-07-05 11:52 OP:tino STATUS:               ID:20120411004657 L   I
 2012-04-11-0040-00M.COL___176                                                 6
 STAT SP IPHASW D HRMM SECON CODA AMPLIT PERI AZIMU VELO AIN AR TRES W  DIS CAZ7
 BAR2 SZ EP   1    047 14.21                             151     0.0 7   58  56 
 BAR2 SZ ES        047 27.39                             151    -0.110   58  56 
 BAR2 SZ I         047 28.51         8.7 0.44                            58  56 
 RUS  HZ EP   1    047 15.70                             144     0.0 7   74 127 
 RUS  HE ES   1    047 30.16                             144     0.1 7   74 127 
 BRR  HZ EP   1    047 16.25                             138     0.0 7   90 353 
 BRR  HZ I         047 26.22         8.2 0.29                            90 353 
 BRR  HN ES        047 31.16                             138     0.110   90 353 
 PTB  HZ EP        047 16.77                             136     0.010   97 286 
 PTB  HE ES   1    047 32.07                             136     0.0 7   97 286 
                                                                                
