 2017 1111 0831 54.6 L   6.788 -73.152146.4  RSN 17 0.7 2.3LRSN                1
 GAP= 65        1.55       3.6     3.8  7.0  0.9005E+00  0.3753E+01  0.2023E+01E
 Epicentro: LOS SANTOS - SANTANDER                                             3
 ACTION:UPD 17-12-12 19:54 OP:rebc STATUS:               ID:20171111083154 L   I
 OLDACT:REG 17-11-11 14:29 OP:dnl  STATUS:               ID:20171111082740     3
 2017-11-11-0828-00M.COL___435                                                 6
 STAT SP IPHASW D HRMM SECON CODA AMPLIT PERI AZIMU VELO AIN AR TRES W  DIS CAZ7
 BAR2 EZ IP     D  832 14.07                             171   -0.1710 21.9 189 
 BAR2 EZ ES        832 29.02                             171   -0.5710 21.9 189 
 BAR2 EZ I         832 31.86        46.1 0.34            170           21.9 189 
 BRR  HZ IP     D  832 15.87                             153    0.0910 71.3 300 
 BRR  HN ES        832 33.18                             153    0.8510 71.3 300 
 BRR  HZ I         832 37.06        37.5 0.14            154           71.3 300 
 PAM  EZ EP        832 17.03                             150    0.1010 78.8  39 
 PAM  EN ES        832 33.95                             150   -0.4310 78.8  39 
 PAM  EZ I         832 36.20        54.0 0.56            154           78.8  39 
 PTB  HZ EP        832 20.94                             132   -0.55 9  147 259 
 PTB  HN ES        832 41.85                             132   -0.66 9  147 259 
 PTB  HZ I         832 47.51        11.2 0.42            134            147 259 
 TAM  HZ IP     D  832 22.44                             131    0.13 9  155 104 
 TAM  HN ES        832 44.25                             131    0.29 9  155 104 
 SPBC HZ EP        832 23.20                             129    0.23 9  162 219 
 SPBC HE ES        832 45.25                             129    0.12 9  162 219 
 SPBC HZ I         832 46.78        39.9 0.18            131            162 219 
 YPLC HZ EP        832 24.47                             127    0.16 9  176 151 
 YPLC HN ES        832 48.51                             127    0.98 9  176 151 
 YPLC HZ I         832 51.27        30.2 0.24            129            176 151 
 ZAR  HZ EP        832 26.83                             123   -0.20 9  204 293 
 ZAR  HN ES        832 52.43                             123    0.07 9  204 293 
 ZAR  HZ I         832 58.27        20.2 0.32            125            204 293 
 NOR  HZ EP        832 30.62                             119    0.44 8  233 235 
 NOR  HE ES        832 58.12                             119    0.15 8  233 235 
 CHI  HZ EP        832 32.29                             117    0.16 8  247 195 
 CHI  HN ES        833  2.35                             117    0.91 8  247 195 
 CHI  HZ I         833  5.07         8.6 0.34            119            247 195 
 URE  HZ EP        832 34.86                             114   -0.78 7  284 292 
 URE  HE ES        833  5.71                             114   -1.98 7  284 292 
 DRL03HZ EP        832 36.00                             113   -0.34 7  290 353 
 DRL03HN ES        833  9.68                             113    0.76 7  290 353 
 GUY2CHZ EP   4    832 39.55                             113    1.50 0  300 235 
 GUY2CHN ES   4    833 14.62                             113    2.65 0  300 235 
 GUY2CHZ I         833 20.22         9.3 0.34                           300 235 
 PTGC HZ EP        832 37.18                             112   -1.15 7  308 158 
 PTGC HN ES        833 10.83                             112   -1.64 7  308 158 
 PTGC HZ I         833 15.43        12.4 0.34            114            308 158 
 DRL02HZ EP        832 40.26                             110   -0.17 7  326 358 
 DRL02HN ES        833 17.02                             110    0.80 7  326 358 
 CBOC HZ EP        832 42.57                             110    1.19 7  333 252 
 CBOC HN ES        833 19.22                             110    1.32 7  333 252 
 PRA  HZ EP        832 48.07                             107    0.15 6  391 210 
 PRA  HN ES        833 29.21                             107   -0.34 6  391 210 
 PRA  HZ I         833 36.26         7.5 0.40            108            391 210 
 CRJC HZ EP   4    832 54.55                             103   -2.69 0  469   4 
 CRJC HN ES   4    833 41.47                             103   -4.66 0  469   4 
                                                                                
