 2017  911 0440 25.6 L   6.749 -73.060142.1  RSN  4 0.2 1.0LRSN                1
 GAP=150        0.39       2.5     4.2  4.1  0.3633E+01 -0.5329E+01 -0.1130E+01E
 Epicentro: JORDAN - SANTANDER                                                 3
 ACTION:UPD 17-10-05 19:11 OP:rebc STATUS:               ID:20170911044025 L   I
 OLDACT:UP  17-09-11 18:46 OP:and  STATUS:               ID:20170911043739     3
 OLDACT:REG 17-09-11 13:00 OP:mg   STATUS:               ID:20170911043739     3
 2017-09-11-0438-00M.COL___419                                                 6
 STAT SP IPHASW D HRMM SECON CODA AMPLIT PERI AZIMU VELO AIN AR TRES W  DIS CAZ7
 BAR2 EZ EP   1    440 44.58                             171   -0.19 7 22.0 218 
 BAR2 EZ ES   1    440 59.85                             171    0.14 7 22.0 218 
 BAR2 EZ I         441  0.99         2.1 0.07            172           22.0 218 
 PAM  EZ EP   1    440 47.67                             150    0.29 7 76.5  31 
 PAM  EN ES   2    441  4.08                             150   -0.28 5 76.5  31 
 PAM  EZ I         441  6.95         1.8 0.64            152           76.5  31 
 BRR  HZ EP   1    440 46.96                             148   -0.07 7 82.2 299 
 BRR  HE ES        441  3.74                             148   -0.0010 82.2 299 
 BRR  HZ I         441  8.31         3.0 0.23            149           82.2 299 
 RUS  HZ EP        440 48.55                             145   -0.0210 94.7 182 
 RUS  HN ES        441  6.49                             145   -0.0010 94.7 182 
 RUS  HZ I         441  8.16         1.2 0.50            149           94.7 182 
                                                                                
