 2015 1011 0400 36.1 L   6.762 -73.130137.1  RSN  6 0.2 1.9LRSN                1
 GAP=140        0.65       2.6     4.3  5.8 -0.3021E+01  0.2874E+01 -0.2350E+01E
 Epicentro: LOS SANTOS - SANTANDER                                             3
 ACTION:UPD 15-12-22 20:38 OP:cam  STATUS:               ID:20151011040036 L   I
 OLDACT:UP  15-10-11 16:43 OP:ak   STATUS:               ID:20151011035749d    3
 OLDACT:DUP 15-10-11 16:38 OP:ak   STATUS:               ID:20151011035749d    3
 OLDACT:REG 15-10-11 13:09 OP:ak   STATUS:               ID:20151011035748     3
 2015-10-11-0357-48M.COL___340                                                 6
 STAT SP IPHASW D HRMM SECON CODA AMPLIT PERI AZIMU VELO AIN AR TRES W  DIS CAZ7
 BAR2 EZ EP        4 0 54.62                             171   -0.0210 19.6 197 
 BAR2 EZ ES        4 1  8.64                             171   -0.4410 19.6 197 
 BAR2 EZ I         4 1 10.50        18.8 0.32            172           19.6 197 
 BRR  HZ EP        4 0 56.28                             150   -0.2910 74.8 301 
 BRR  HN ES        4 1 12.66                             150    0.1510 74.8 301 
 BRR  HZ I         4 1 16.88        11.3 0.12            148           74.8 301 
 PAM  EZ EP        4 0 57.49                             148   -0.0810 79.7  37 
 PAM  EN ES        4 1 14.39                             148    0.0910 79.7  37 
 PAM  EZ I         4 1 15.56        10.7 0.18            151           79.7  37 
 RUS  HN ES        4 1 16.67                             143    0.3410 96.2 177 
 SPBC HN ES        4 1 25.39                             127    0.07 9  161 220 
 OCA  HN ES        4 1 26.35                             127    0.24 9  165 353 
 OCA  HZ I         4 1 28.27        29.0 0.18            128            165 353 
                                                                                
