 2010 1011 0621 19.9 L   6.767 -73.045142.9  RSN  5 0.3 1.5LRSN                1
 GAP=186        0.72       5.1     9.8  9.1 -0.2031E+02 -0.3444E+02  0.5889E+01E
 Epicentro: LOS SANTOS - SANTANDER                                             3
 ACTION:UP  11-02-18 11:09 OP:tino STATUS:               ID:20101011062119 L   I
 2010-10-11-0617-02S.COL___121                                                 6
 STAT SP IPHASW D HRMM SECON CODA AMPLIT PERI AZIMU VELO SNR AR TRES W  DIS CAZ7
 BAR2 SZ EP   2    621 39.44                             170     0.2 5   25 218 
 BAR2 SZ ES   2    621 54.33                             170     0.1 5   25 218 
 BAR2 SZ I         621 56.03         6.5 0.22                            25 218 
 BRR  HZ EP   1    621 41.27                             148    -0.2 8   83 297 
 BRR  HE ES   1    621 58.34                             148     0.1 8   83 297 
 BRR  HZ I         622  1.13         5.0 0.20                            83 297 
 GRA  SZ IP        621 45.36                             136     0.410  126  12 
 GRA  SZ ES   1    622  4.06                             136    -0.4 7  126  12 
 GRA  SZ I         622  5.65         2.9 0.30                           126  12 
 OCA  SZ EP   1    621 48.07                             128    -0.4 7  166 349 
 OCA  SZ ES   1    622 10.79                             128     0.0 7  166 349 
 OCA  SZ I         622 13.35         3.8 0.21                           166 349 
 CHI  HN ES   2    622 26.27                             116    -0.4 4  248 198 
 CHI  HZ I         622 32.46         2.6 0.37                           248 198 
                                                                                
