 2017  411 0149 43.8 L   6.789 -73.143144.8  RSN 19 0.4 2.0LRSN                1
 GAP=112        0.83       2.7     2.9  4.2  0.3994E+00  0.2526E+01  0.3590E+01E
 Epicentro: LOS SANTOS - SANTANDER                                             3
 ACTION:UPD 17-05-30 21:10 OP:jn   STATUS:               ID:20170411014943 L   I
 OLDACT:UP  17-04-11 15:23 OP:edw  STATUS:               ID:20170411014743     3
 OLDACT:REG 17-04-11 11:49 OP:edw  STATUS:               ID:20170411014743     3
 2017-04-11-0148-00M.COL___370                                                 6
 STAT SP IPHASW D HRMM SECON CODA AMPLIT PERI AZIMU VELO AIN AR TRES W  DIS CAZ7
 BAR2 EZ EP     D  150  3.00                             171   -0.2910 22.2 191 
 BAR2 EZ ES        150 18.66                             171    0.1610 22.2 191 
 BAR2 EZ I         150 19.28        25.3 0.18            168           22.2 191 
 BRR  HZ EP        150  4.93                             152    0.0410 72.0 299 
 BRR  HE ES        150 22.04                             152    0.6910 72.0 299 
 PAM  EZ EP     D  150  5.97                             150    0.0110 78.1  39 
 PAM  EN ES        150 22.98                             150   -0.2610 78.1  39 
 PAM  EZ I         150 25.20        22.9 0.52            154           78.1  39 
 RUS  HZ EP        150  7.02                             144   -0.3510 99.3 176 
 RUS  HN ES        150 25.81                             144    0.0610 99.3 176 
 RUS  HZ I         150 27.30        18.4 0.44            143           99.3 176 
 PTB  HZ EP   9    150  9.78                             132   -0.91 0  148 259 
 PTB  HN ES        150 30.33                             131   -0.43 9  148 259 
 PTB  HZ I         150 32.71        11.6 0.42            130            148 259 
 SPBC HZ EP        150 12.18                             129    0.03 9  162 219 
 SPBC HN ES        150 33.96                             129   -0.31 9  162 219 
 SPBC HZ I         150 36.58        20.4 0.40            127            162 219 
 YPLC HZ EP        150 13.45                             127    0.05 9  176 151 
 YPLC HN ES        150 36.75                             127    0.25 9  176 151 
 YPLC HZ I         150 38.51         8.5 0.22            127            176 151 
 ZAR  HZ EP   4    150 14.59                             122   -1.67 0  205 292 
 ZAR  HN ES        150 40.98                             122   -0.59 9  205 292 
 ZAR  HZ I         150 46.20        10.3 0.38            121            205 292 
 TABC EZ EP        150 19.78                             119    0.39 8  229 211 
 CHI  HZ EP        150 21.30                             117   -0.02 8  248 195 
 CHI  HN ES        150 50.24                             117   -0.35 8  248 195 
 CHI  HZ I         150 54.02         7.0 0.58            116            248 195 
 ROSC BZ EP   4    150 23.28                             117    1.51 0  252 211 
 ROSC BN ES   4    150 49.61                             117   -1.77 0  252 211 
 ROSC BZ I         150 57.48        12.8 0.40            116            252 211 
 HEL  HZ EP   4    150 25.85                             115    1.89 0  272 256 
 HEL  HN ES        150 55.17                             115   -0.12 8  272 256 
 HEL  HZ I         151  1.09         7.2 0.28            114            272 256 
 PTGC HZ EP   9    150 26.14                             111   -1.33 0  307 159 
 PTGC HN ES        151  0.22                             111    0.02 7  307 159 
 ELA  HZ EP   4    150 34.89                             110    4.35 0  329 230 
 ELA  HN ES   4    151  8.13                             110    1.13 0  329 230 
 ELA  HZ I         151 15.77         4.1 0.54            110            329 230 
 CBOC HZ EP        150 31.42                             110    0.76 7  334 252 
 CBOC HN ES   4    151  5.15                             110   -2.07 0  334 252 
 CBOC HZ I         151 12.59         1.7 0.58            109            334 252 
 DBB  EZ EP   4    150 34.00                             109    2.72 0  340 274 
 DBB  EN ES   4    151  4.73                             109   -3.58 0  340 274 
 DBB  EZ I         151  8.50         3.6 0.34            109            340 274 
 ANIL HN ES        151 12.97                             108    0.72 6  357 225 
 PRA  HZ EP        150 37.39                             106    0.21 6  391 210 
 PRA  HN ES        151 18.16                             106   -0.65 6  391 210 
 PRA  HZ I         151 24.97         4.6 0.24            106            391 210 
 ORTC HZ EP        150 37.33                             106   -0.26 6  395 216 
 ORTC HN ES   4    151 20.60                             106    1.05 0  395 216 
 ORTC HZ I         151 24.41         2.2 0.20            106            395 216 
                                                                                
