 2014  511 0815 53.2 L   6.781 -73.164145.0  RSN 11 0.5 2.0LRSN                1
 GAP=135        1.16       3.0     4.3  7.5 -0.2757E+01  0.1098E+02 -0.9028E+00E
 Epicentro: LOS SANTOS - SANTANDER                                             3
 ACTION:UPD 15-03-16 16:56 OP:nd   STATUS:               ID:20140511081553 L   I
 OLDACT:REG 14-05-11 15:31 OP:carl STATUS:               ID:20140511080810     3
 2014-05-11-0808-10M.COL___242                                                 6
 STAT SP IPHASW D HRMM SECON CODA AMPLIT PERI AZIMU VELO AIN AR TRES W  DIS CAZ7
 PAM  SZ EP        816 15.30                             150   -0.1710 80.3  40 
 PAM  SN ES        816 32.53                             150   -0.3410 80.3  40 
 PAM  SZ I         816 34.66        13.4 0.48            156           80.3  40 
 RUS  HZ EP        816 16.36                             144   -0.3310 98.6 175 
 RUS  HN ES        816 35.22                             144    0.1710 98.6 175 
 PTB  HZ EP        816 19.21                             132   -0.63 9  145 259 
 PTB  HN ES        816 40.66                             132   -0.00 9  145 259 
 PTB  HZ I         816 46.29        11.6 0.24            133            145 259 
 SPBC HZ EP        816 21.46                             129    0.14 9  160 219 
 SPBC HE ES        816 44.04                             129    0.75 9  160 219 
 SPBC HZ I         816 49.29        15.6 0.12            131            160 219 
 OCA  HZ EP        816 22.08                             129    0.50 9  162 354 
 OCA  HE ES        816 44.56                             129    0.80 9  162 354 
 OCA  HZ I         816 47.37        12.7 0.32            133            162 354 
 ZAR  HZ EP        816 24.92                             122   -0.52 9  203 293 
 ZAR  HN ES        816 50.26                             122   -0.36 9  203 293 
 ZAR  HZ I         816 53.25        10.3 0.10            124            203 293 
 NOR  HZ EP        816 28.67                             119    0.14 8  232 235 
 NOR  HE ES        816 56.67                             119    0.55 8  232 235 
 NOR  HZ I         817  3.59         8.0 0.26            120            232 235 
 SML  HZ EP        816 29.81                             117   -0.05 8  245 336 
 SML  HE ES        816 58.09                             117   -0.39 8  245 336 
 SML  HZ I         817  2.45        14.9 0.10            120            245 336 
 CHI  HZ EP        816 30.59                             117    0.06 8  246 195 
 CHI  HN ES        816 58.90                             117   -0.79 8  246 195 
 CHI  HZ I         817  5.82         2.9 0.32            120            246 195 
 HEL  HZ EP        816 34.15                             115    1.10 8  270 256 
 HEL  HN ES        817  3.67                             115   -0.50 8  270 256 
 HEL  HZ I         817 13.07         5.7 0.34            117            270 256 
 CBOC HZ EP        816 40.23                             110    0.49 7  331 252 
 CBOC HN ES        817 15.57                             110   -0.51 7  331 252 
 CBOC HZ I         817 27.52         1.9 0.76            112            331 252 
                                                                                
