 2017 1211 0057 33.1 L   6.812 -73.178140.5  RSN 25 0.5 2.4LRSN                1
 GAP= 63        1.17       2.4     3.0  5.8  0.3714E+00  0.5413E+01  0.1771E+00E
 Epicentro: ZAPATOCA - SANTANDER                                               3
 ACTION:UPD 18-01-04 13:19 OP:rebc STATUS:               ID:20171211005733 L   I
 OLDACT:UP  17-12-11 16:14 OP:edw  STATUS:               ID:20171211004736     3
 OLDACT:UP  17-12-11 16:11 OP:edw  STATUS:               ID:20171211004736     3
 OLDACT:UP  17-12-11 16:09 OP:edw  STATUS:               ID:20171211004736     3
 OLDACT:REG 17-12-11 14:00 OP:edw  STATUS:               ID:20171211004736     3
 2017-12-11-0048-00M.COL___472                                                 6
 STAT SP IPHASW D HRMM SECON CODA AMPLIT PERI AZIMU VELO AIN AR TRES W  DIS CAZ7
 BAR2 EZ IP     C  057 52.28                             170    0.1710 24.3 181 
 BAR2 EZ ES        058  6.87                             170   -0.0710 24.3 181 
 BAR2 EZ I         058  8.95        83.2 0.20            167           24.3 181 
 PAM  EZ IP     C  057 55.15                             149    0.3210 78.7  42 
 PAM  EN ES        058 12.05                             149    0.2610 78.7  42 
 PAM  EZ I         058 12.61        31.9 0.38            154           78.7  42 
 PTB  HZ EP        057 59.01                             131   -0.32 9  144 258 
 PTB  HN ES        058 19.45                             131   -0.35 9  144 258 
 PTB  HZ I         058 22.20        38.6 0.26            130            144 258 
 TAM  HZ IP     C  058  0.69                             129   -0.03 9  159 105 
 TAM  HN ES        058 22.03                             129   -0.24 9  159 105 
 TAM  HZ I         058 22.74        37.0 0.54            132            159 105 
 OCA  HZ EP        058  0.62                             129   -0.21 9  159 354 
 OCA  HN ES        058 22.18                             129   -0.29 9  159 354 
 OCA  HZ I         058 27.38       127.1 0.30            130            159 354 
 SPBC HZ EP        058  1.38                             128    0.31 9  162 218 
 SPBC HN ES        058 22.78                             128   -0.12 9  162 218 
 SPBC HZ I         058 26.72        40.7 0.26            127            162 218 
 YPLC HZ EP        058  2.81                             125    0.01 9  180 151 
 YPLC HN ES        058 25.94                             125   -0.03 9  180 151 
 YPLC HZ I         058 28.92        22.2 0.30            126            180 151 
 ZAR  HZ EP        058  5.39                             122    0.60 9  200 292 
 ZAR  HN ES        058 31.20                             122    1.67 9  200 292 
 ZAR  HZ I         058 39.27        45.4 0.60            121            200 292 
 CHI  HZ EP        058 10.65                             116    0.11 8  249 194 
 CHI  HN ES        058 39.13                             116   -0.62 8  249 194 
 CHI  HZ I         058 49.36         7.0 0.48            116            249 194 
 ROSC BZ EP   4    058 12.44                             116    1.59 0  252 210 
 ROSC BN ES   4    058 43.29                             116    2.99 0  252 210 
 ROSC BZ I         058 48.84        13.2 0.40            116            252 210 
 CVER HZ EP   4    058 14.40                             114    1.23 0  272 201 
 CVER HN ES        058 44.67                             114    0.23 8  272 201 
 CVER HZ I         058 54.40         9.1 0.64            114            272 201 
 URE  HZ EP        058 12.76                             113   -0.71 7  280 292 
 URE  HN ES        058 44.42                             113   -0.55 7  280 292 
 URE  HZ I         058 57.17        28.1 0.32            113            280 292 
 DRL03HZ EP        058 14.27                             112    0.02 7  287 353 
 DRL03HE ES        058 46.08                             112   -0.28 7  287 353 
 GUY2CHZ EP   4    058 17.87                             111    1.66 0  299 234 
 GUY2CHN ES   4    058 51.59                             111    1.74 0  299 234 
 GUY2CHZ I         058 59.64        14.3 0.54                           299 234 
 VIL  HZ EP   4    058 12.62                             111   -3.72 0  304 191 
 VIL  EN ES        058 49.98                             111   -0.09 7  304 191 
 PTGC HZ EP   9    058 15.67                             110   -1.34 0  311 158 
 PTGC HN ES        058 48.83                             111   -1.10 7  311 158 
 PTGC HZ I         058 52.85        10.3 0.48            111            311 158 
 DRL02HZ EP        058 17.22                             109   -1.18 7  323 358 
 DRL02HN ES   4    058 50.32                             109   -3.42 0  323 358 
 CBOC HZ EP   4    058 20.55                             109    1.11 0  331 252 
 CBOC HN ES   4    058 54.57                             109   -1.03 0  331 252 
 CBOC HZ I         058 59.09         4.1 0.46            109            331 252 
 DBB  HZ EP        058 20.50                             109    0.57 7  336 274 
 DBB  EN ES        058 56.03                             109   -0.43 7  336 274 
 ARGC HZ EP   4    058 23.83                             107    1.57 0  357 341 
 ARGC HN ES   1    059  1.27                             107    0.65 5  357 341 
 ARGC HZ I         059 11.42         4.7 0.24            108            357 341 
 PRA  HZ EP        058 26.96                             106    0.60 6  391 209 
 PRA  HN ES        059  7.97                             106    0.06 6  391 209 
 PRA  HZ I         059 14.75         9.4 0.26            106            391 209 
 APAC HZ EP        058 26.96                             105    0.31 6  394 288 
 APAC HN ES        059  7.65                             105   -0.78 6  394 288 
 APAC HZ I         059 13.11         4.6 0.30            106            394 288 
 ORTC HZ EP   4    058 27.96                             105    1.25 0  394 216 
 ORTC HN ES   4    059 10.04                             105    1.51 0  394 216 
 ORTC HZ I         059 14.20         4.5 0.56            106            394 216 
 PAL  HZ EP        058 28.48                             105    0.69 6  403 239 
 PAL  HN ES   1    059  9.68                             105   -0.78 4  403 239 
 PAL  HZ I         059 21.88         4.7 0.20            105            403 239 
 SJC  HZ EP   9    058 26.83                             105   -1.29 0  406 327 
 SJC  HN ES        059  8.39                             105   -1.36 6  406 327 
 SJC  HZ I         059 12.34        10.6 0.32            105            406 327 
 CRJC HZ EP   4    058 32.92                             103   -2.39 0  467   4 
 CRJC HE ES   4    059 18.06                             103   -5.79 0  467   4 
                                                                                
