 2011  311 0546 46.2 L   6.837 -73.209117.7  RSN  6 0.4 1.9LRSN                1
 GAP=151        0.86       5.9     8.6  9.1 -0.1687E+02  0.3838E+02 -0.1658E+02E
 Epicentro: ZAPATOCA - SANTANDER                                               3
 ACTION:UP  11-06-16 14:33 OP:jfem STATUS:               ID:20110311054646 L   I
 2011-03-11-0545-08S.COL___135                                                 6
 STAT SP IPHASW D HRMM SECON CODA AMPLIT PERI AZIMU VELO SNR AR TRES W  DIS CAZ7
 BAR2 SZ EP        547  2.97                             166     0.410   27 174 
 BAR2 SZ ES   1    547 15.06                             166    -0.2 7   27 174 
 BAR2 SZ I         547 18.77        41.4 0.27                            27 174 
 RUS  HZ EP   1    547  7.06                             136    -0.6 7  105 172 
 RUS  HN ES   2    547 24.73                             136     0.3 5  105 172 
 RUS  HZ I         547 26.46        10.3 0.20                           105 172 
 GRA  SZ IP        547  8.82                             130    -0.110  124  21 
 GRA  SZ I         547 29.42        25.0 0.41                           124  21 
 CHI  HZ EP   1    547 22.60                             111    -0.1 6  251 193 
 CHI  HE ES   2    547 51.27                             111     0.0 4  251 193 
 CHI  HZ I         547 55.64         2.1 0.18                           251 193 
 HEL  HZ EP   1    547 25.12                             109     0.7 6  266 255 
 HEL  HN ES   2    547 53.97                             109    -0.3 4  266 255 
 HEL  HZ I         548  2.63         6.3 0.28                           266 255 
 DBB  SZ EP   1    547 31.37                             104    -0.4 5  332 274 
                                                                                
