 2016  511 0221 47.2 L   6.230 -73.696105.5  RSN  5 0.3 1.2LRSN                1
 GAP=173        0.77       4.4     3.5  6.7  0.7857E+01  0.9101E+01  0.2632E+01E
 Epicentro: LANDAZURI - SANTANDER                                              3
 ACTION:UPD 16-08-18 17:44 OP:cam  STATUS:               ID:20160511022147 L   I
 OLDACT:DUP 16-05-11 14:45 OP:drio STATUS:               ID:20160511021745d    3
 2016-05-11-0217-44M.COL___285                                                 6
 STAT SP IPHASW D HRMM SECON CODA AMPLIT PERI AZIMU VELO AIN AR TRES W  DIS CAZ7
 BAR2 EZ EP        222  4.37                             144   -0.0310 69.5  55 
 BAR2 EZ ES        222 17.46                             144   -0.3610 69.5  55 
 RUS  HZ EP        222  5.41                             141    0.0610 77.4 119 
 RUS  HN ES        222 19.90                             141    0.4010 77.4 119 
 RUS  HZ I         222 20.61         2.0 0.64            145           77.4 119 
 PTB  HZ EP        222  5.43                             136   -0.3410 90.8 292 
 PTB  HN ES        222 20.07                             136   -0.1710 90.8 292 
 PTB  HZ I         222 23.25         3.0 0.42            136           90.8 292 
 BRR  HZ EP        222  6.04                             134   -0.2410 97.0 359 
 BRR  HE ES        222 21.33                             134    0.1810 97.0 359 
 ZAR  HZ EP        222 15.85                             114    0.07 9  190 317 
 ZAR  HN ES        222 38.66                             114    0.59 9  190 317 
 ZAR  HZ I         222 41.69         3.9 0.40            116            190 317 
                                                                                
