 2016  511 0420 43.5 L   6.815 -73.137149.7  RSN  9 0.4 1.8LRSN                1
 GAP=137        0.96       3.3     4.7  5.8 -0.1304E+00  0.6281E+01 -0.3389E+01E
 Epicentro: LOS SANTOS - SANTANDER                                             3
 ACTION:UPD 16-08-18 17:44 OP:cam  STATUS:               ID:20160511042043 L   I
 OLDACT:DUP 16-05-11 15:51 OP:drio STATUS:               ID:20160511041746d    3
 2016-05-11-0417-45M.COL___288                                                 6
 STAT SP IPHASW D HRMM SECON CODA AMPLIT PERI AZIMU VELO AIN AR TRES W  DIS CAZ7
 BAR2 EZ EP        421  3.62                             170   -0.0110 25.1 191 
 BAR2 EZ ES        421 18.91                             170   -0.4310 25.1 191 
 BAR2 EZ I         421 19.60        12.8 0.26            169           25.1 191 
 BRR  HZ EP        421  5.46                             153    0.3910 71.2 297 
 BRR  HE ES        421 22.49                             153    0.5910 71.2 297 
 BRR  HZ I         421 25.51        11.1 0.24            150           71.2 297 
 PAM  EZ EP        421  6.60                             152    0.5810 75.5  40 
 PAM  EN ES        421 23.61                             152    0.0210 75.5  40 
 PAM  EZ I         421 25.67         8.9 0.52            156           75.5  40 
 RUS  HZ EP        421  7.59                             144   -0.1510  102 177 
 RUS  HE ES        421 26.22                             144   -0.4410  102 177 
 PTB  HZ EP        421 10.55                             133   -0.34 9  149 258 
 PTB  HN ES   4    421 31.26                             133   -1.01 0  149 258 
 PTB  HZ I         421 36.87         5.0 0.26            132            149 258 
 OCA  HZ EP        421 11.86                             131   -0.11 9  159 353 
 OCA  HN ES   4    421 35.60                             131    1.42 0  159 353 
 OCA  HZ I         421 38.27        17.2 0.20            132            159 353 
 SPBC HZ EP        421 12.97                             130    0.50 9  165 219 
 SPBC HN ES        421 35.11                             130    0.04 9  165 219 
 SPBC HZ I         421 41.58         4.5 0.34            130            165 219 
 ZAR  HZ EP   4    421 18.14                             123    1.92 0  204 292 
 ZAR  HE ES        421 41.71                             123   -0.04 9  204 292 
 ZAR  HZ I         421 46.96         5.8 0.26            123            204 292 
 SML  HZ EP        421 19.86                             118   -0.36 8  243 335 
 SML  HN ES        421 48.32                             118   -0.55 8  243 335 
 SML  HZ I         421 50.84         5.4 0.24            119            243 335 
                                                                                
