 2017  811 0728  4.1 L   7.408 -73.207108.0  RSN 10 0.4 1.8LRSN                1
 GAP=211        0.91       4.4     3.6  5.9  0.4550E+01  0.5863E+00  0.1393E+01E
 Epicentro: EL PLAYON - SANTANDER                                              3
 ACTION:UPD 17-09-04 20:19 OP:rebc STATUS:               ID:20170811072804 L   I
 OLDACT:REG 17-08-11 12:55 OP:dhb  STATUS:               ID:20170811072737     3
 2017-08-11-0728-00M.COL___413                                                 6
 STAT SP IPHASW D HRMM SECON CODA AMPLIT PERI AZIMU VELO AIN AR TRES W  DIS CAZ7
 BRR  HZ IP     C  728 20.67                             147   -0.2110 64.9 239 
 BRR  HN ES        728 34.40                             147    0.4310 64.9 239 
 BRR  HZ I         728 35.11        30.6 0.14            145           64.9 239 
 BAR2 EZ IP     C  728 23.11                             137   -0.0210 90.2 178 
 BAR2 EZ ES        728 37.93                             137   -0.0410 90.2 178 
 BAR2 EZ I         728 39.76        27.5 0.32            137           90.2 178 
 RUS  HZ IP        728 30.79                             118   -0.27 9  168 175 
 RUS  HN ES        728 51.54                             118   -0.55 9  168 175 
 ZAR  HZ EP        728 31.63                             116   -0.37 9  182 273 
 ZAR  HE ES        728 53.54                             116   -0.22 9  182 273 
 ZAR  HZ I         728 57.29        10.0 0.20            116            182 273 
 TAM  HZ IP     D  728 33.50                             115    0.64 9  190 124 
 SPBC HZ EP        728 35.93                             111    0.02 8  216 206 
 SPBC HN ES        729  1.08                             111    0.36 8  216 206 
 SPBC HZ I         729  6.60         5.0 0.25            112            216 206 
 NOR  HZ EP   2    728 44.06                             106    1.47 4  275 222 
 NOR  HN ES        729 13.04                             106    0.42 8  275 222 
 HEL  HN ES        729 16.96                             105    0.46 7  290 242 
 CHI  HZ EP        728 47.08                             103   -0.46 7  313 191 
 CHI  HN ES        729 21.52                             103    0.10 7  313 191 
 GUY2CHZ EP   2    728 51.14                             102    0.32 3  340 225 
 GUY2CHN ES        729 26.51                             102   -0.76 7  340 225 
 GUY2CHZ I         729 37.48         1.2 0.35                           340 225 
                                                                                
