 2017  811 0755 25.8 L   6.817 -73.151145.2  RSN 14 0.5 1.7LRSN                1
 GAP=135        1.08       3.0     4.1  5.2 -0.2808E+01  0.6745E+01  0.7380E+00E
 Epicentro: LOS SANTOS - SANTANDER                                             3
 ACTION:UPD 17-09-04 20:19 OP:rebc STATUS:               ID:20170811075525 L   I
 OLDACT:REG 17-08-11 12:57 OP:dhb  STATUS:               ID:20170811074737     3
 2017-08-11-0748-00M.COL___410                                                 6
 STAT SP IPHASW D HRMM SECON CODA AMPLIT PERI AZIMU VELO AIN AR TRES W  DIS CAZ7
 BAR2 EZ IP     C  755 45.21                             170   -0.1910 25.1 188 
 BAR2 EZ ES        756  0.35                             170   -0.3410 25.1 188 
 BAR2 EZ I         756  1.10        14.5 0.36            168           25.1 188 
 BRR  HZ IP     D  755 46.84                             153    0.0310 69.8 297 
 BRR  HN ES        756  4.03                             153    0.8310 69.8 297 
 BRR  HZ I         756  6.42         6.7 0.14            151           69.8 297 
 PAM  EZ EP        755 47.96                             151    0.0710 76.4  41 
 PAM  EN ES        756  5.44                             151    0.3110 76.4  41 
 PAM  EZ I         756  8.09         3.0 0.34            155           76.4  41 
 RUS  HZ IP     C  755 49.53                             143   -0.1010  102 176 
 RUS  HN ES        756  8.32                             143    0.0910  102 176 
 RUS  HZ I         756  9.15         6.7 0.24            144            102 176 
 SPBC HZ EP        755 54.27                             129   -0.09 9  164 218 
 SPBC HN ES        756 15.80                             129   -0.83 9  164 218 
 SPBC HZ I         756 18.78         8.2 0.20            129            164 218 
 ZAR  HZ EP        755 56.82                             122   -1.26 9  203 292 
 ZAR  HE ES        756 23.11                             122   -0.14 9  203 292 
 ZAR  HZ I         756 28.67         5.7 0.28            123            203 292 
 NOR  HZ EP        756  1.79                             118    0.23 8  235 234 
 NOR  HN ES        756 28.81                             118   -0.64 8  235 234 
 NOR  HZ I         756 34.41         3.9 0.16            119            235 234 
 CHI  HZ EP        756  3.49                             117   -0.15 8  250 195 
 CHI  HN ES        756 33.42                             117    0.26 8  250 195 
 CHI  HZ I         756 38.72         2.8 0.26            118            250 195 
 HEL  HZ EP        756  6.67                             115    0.70 8  272 255 
 HEL  HN ES   1    756 37.88                             115    0.58 6  272 255 
 HEL  HZ I         756 44.77         2.4 0.23            115            272 255 
 GUY2CHZ EP   9    756 12.62                             112    3.17 0  302 234 
 GUY2CHN ES        756 46.81                                    0.14 7  302 234 
 GUY2CHZ I         756 53.58         2.4 0.31                           302 234 
 LL6C HZ EP        756 11.06                             110   -0.20 7  323 358 
 LL6C HN ES        756 46.64                             110   -0.08 7  323 358 
 CBOC HZ EP        756 13.32                             110    0.63 7  334 252 
 CBOC HN ES        756 49.48                             110    0.22 7  334 252 
 PRA  HZ EP        756 19.06                             106   -0.39 6  393 209 
 PRA  HN ES        757  2.18                             106    0.88 6  393 209 
 PRA  HZ I         757  7.59         2.2 0.26            107            393 209 
 ORTC HZ EP        756 20.24                             106    0.41 6  397 216 
 ORTC HN ES        757  2.42                             106    0.44 6  397 216 
 ORTC HZ I         757  8.25         1.4 0.34            107            397 216 
                                                                                
