 2016 1211 0634 57.8 L   6.708 -73.196140.0  RSN  6 0.5 1.4LRSN                1
 GAP=224        1.20       8.4     8.1  8.7  0.4146E+02  0.1984E+02  0.1461E+02E
 Epicentro: VILLANUEVA - SANTANDER                                             3
 ACTION:UPD 17-01-11 20:14 OP:rebc STATUS:               ID:20161211063457 L   I
 OLDACT:REG 16-12-11 12:59 OP:edw  STATUS:               ID:20161211062749     3
 2016-12-11-0628-00M.COL___373                                                 6
 STAT SP IPHASW D HRMM SECON CODA AMPLIT PERI AZIMU VELO AIN AR TRES W  DIS CAZ7
 BAR2 EZ EP        635 15.83                             174   -0.6910 12.9 173 
 BAR2 EZ ES        635 31.11                             174   -0.0510 12.9 173 
 BAR2 EZ I         635 31.92         7.7 0.27            169           12.9 173 
 BRR  HZ EP        635 18.07                             151   -0.2710 72.1 308 
 BRR  HE ES        635 35.02                             151    0.6210 72.1 308 
 BRR  HZ I         635 38.74         5.5 0.10            148           72.1 308 
 RUS  HZ EP        635 20.33                             145    0.0710 91.0 172 
 RUS  HE ES        635 38.14                             145    0.3310 91.0 172 
 RUS  HZ I         635 39.28         3.0 0.29            144           91.0 172 
 PTB  HZ EP        635 23.65                             132    0.04 9  141 262 
 PTB  HN ES        635 43.01                             132   -0.77 9  141 262 
 PTB  HZ I         635 46.63         2.7 0.14            130            141 262 
 ZAR  HE ES        635 55.11                             121    0.43 9  203 295 
 ZAR  HZ I         636  0.15         2.4 0.19            121            203 295 
 PRA  HZ EP        635 50.63                             106    0.90 6  380 210 
 PRA  HE ES   4    636 34.03                             106    3.77 0  380 210 
 PRA  HZ I         636 38.01         1.2 0.27            106            380 210 
 SJC  HZ EP   4    635 51.10                             104   -2.70 0  415 328 
 SJC  HE ES   4    636 32.91                             104   -4.61 0  415 328 
                                                                                
