 2013 1111 0607  2.1 L   6.782 -73.189144.5  RSN  7 0.4 1.7LRSN                1
 GAP=197        0.99       4.5     5.4  6.4  0.7706E+01  0.3310E+01 -0.5740E+01E
 Epicentro: LOS SANTOS - SANTANDER                                             3
 ACTION:UPD 14-01-09 16:27 OP:ep   STATUS:               ID:20131111060702 L   I
 OLDACT:REG 13-11-11 07:58 OP:nd   STATUS:               ID:20131111060000     3
 2013-11-11-0600-00M.COL___273                                                 6
 STAT SP IPHASW D HRMM SECON CODA AMPLIT PERI AZIMU VELO AIN AR TRES W  DIS CAZ7
 BAR2 SZ EP        6 7 21.51                             172   -0.0010 21.0 178 
 BAR2 SZ ES        6 7 36.45                             172   -0.2210 21.0 178 
 BAR2 SZ I         6 7 38.07        16.5 0.24            169           21.0 178 
 BRR  HZ EP     D  6 7 23.33                             153    0.4110 68.1 302 
 BRR  HN ES        6 7 39.85                             153    0.6810 68.1 302 
 BRR  HZ I         6 7 41.42         6.3 0.18            151           68.1 302 
 RUS  HZ EP        6 7 25.43                             144   -0.1610 99.0 173 
 RUS  HN ES        6 7 43.72                             144   -0.2110 99.0 173 
 RUS  HZ I         6 7 45.41         6.0 0.28            144           99.0 173 
 PTB  HZ EP        6 7 28.11                             133   -0.37 9  143 259 
 PTB  HN ES        6 7 48.47                             133   -0.61 9  143 259 
 PTB  HZ I         6 7 51.88         5.1 0.16            131            143 259 
 SPBC HZ EP        6 7 30.38                             130    0.33 9  159 218 
 SPBC HN ES        6 7 52.15                             130    0.29 9  159 218 
 SPBC HZ I         6 7 58.75         7.7 0.24            129            159 218 
 ZAR  HZ EP        6 7 34.65                             123    0.58 9  200 293 
 ZAR  HN ES        6 7 58.68                             123   -0.33 9  200 293 
 ZAR  HZ I         6 8  5.41         3.0 0.62            122            200 293 
 SML  HZ EP        6 7 38.23                             117   -0.39 8  244 337 
 SML  HN ES   2    6 8  6.52                             117   -0.60 4  244 337 
 SML  HZ I         6 8  8.74         7.6 0.10            118            244 337 
                                                                                
