 2012  511 0314  4.3 L   6.616 -73.330148.8  RSN  4 0.2 1.4LRSN                1
 GAP=199        0.52       5.8     5.7  7.4  0.1804E+02  0.3876E+01 -0.1247E+02E
 Epicentro: GALAN - SANTANDER                                                  3
 ACTION:UP  12-07-05 12:04 OP:pat  STATUS:               ID:20120511031404 L   I
 2012-05-11-0310-00M.COL___195                                                 6
 STAT SP IPHASW D HRMM SECON CODA AMPLIT PERI AZIMU VELO SNR AR TRES W  DIS CAZ7
 BRR  HZ EP   1    314 25.50                             154    -0.2 7   69 322 
 BRR  HZ I         314 25.95         5.7 0.12                            69 322 
 BRR  HN ES   1    314 42.49                             154     0.2 7   69 322 
 RUS  HN ES   1    314 45.17                             149    -0.1 7   85 161 
 PTB  HN ES   1    314 49.35                             138     0.1 7  125 266 
 ZAR  HZ EP   1    314 36.36                             124     0.3 6  195 300 
 ZAR  HE ES   1    315  0.41                             124    -0.3 6  195 300 
 ZAR  HZ I         315  9.47         1.9 0.11                           195 300 
                                                                                
