 2017  911 0500 57.7 L   6.954 -73.198130.6  RSN  4 0.2 1.0LRSN                1
 GAP=126        0.62       3.2     4.4  5.1 -0.6707E+00 -0.1520E+01  0.1912E+01E
 Epicentro: BETULIA - SANTANDER                                                3
 ACTION:UPD 17-10-05 19:11 OP:rebc STATUS:               ID:20170911050057 L   I
 OLDACT:UP  17-09-11 19:28 OP:and  STATUS:               ID:20170911045646d    3
 OLDACT:DUP 17-09-11 19:24 OP:and  STATUS:               ID:20170911045646d    3
 OLDACT:UP  17-09-11 19:24 OP:and  STATUS:               ID:20170911045645     3
 OLDACT:REG 17-09-11 13:02 OP:mg   STATUS:               ID:20170911045645     3
 2017-09-11-0457-00M.COL___419                                                 6
 STAT SP IPHASW D HRMM SECON CODA AMPLIT PERI AZIMU VELO AIN AR TRES W  DIS CAZ7
 BAR2 EZ EP        5 1 15.97                             162   -0.0710 40.1 178 
 BAR2 EZ ES        5 1 29.95                             162   -0.3710 40.1 178 
 BAR2 EZ I         5 1 31.27         7.0 0.40            159           40.1 178 
 BRR  HZ EP     D  5 1 16.31                             154   -0.2510 59.3 287 
 BRR  HN ES        5 1 31.53                             154    0.2710 59.3 287 
 BRR  HZ I         5 1 32.05         2.3 0.14            157           59.3 287 
 PAM  EZ EP        5 1 17.77                             151   -0.0910 69.6  52 
 PAM  EN ES        5 1 33.72                             151    0.1610 69.6  52 
 PAM  EZ I         5 1 34.58         2.5 0.21            153           69.6  52 
 RUS  HZ EP        5 1 21.68                             136    0.2410  118 174 
 RUS  HN ES        5 1 40.08                             136    0.1310  118 174 
 RUS  HZ I         5 1 44.78         0.8 0.16            135            118 174 
                                                                                
