 2012  711 0310 28.9 L   6.807 -73.161142.0  RSN 10 0.5 2.3LRSN                1
 GAP= 70        1.18       4.3     3.9  8.3 -0.1960E+00  0.9104E+01  0.8616E+00E
 Epicentro: LOS SANTOS - SANTANDER                                             3
 ACTION:UPD 12-08-14 11:44 OP:ep   STATUS:               ID:20120711031028 L   I
 2012-07-11-0310-00M.COL___188                                                 6
 STAT SP IPHASW D HRMM SECON CODA AMPLIT PERI AZIMU VELO AIN AR TRES W  DIS CAZ7
 BAR2 SZ EP   1    310 48.26                             170     0.2 7   24 186 
 BAR2 SZ ES   1    311  2.80                             170    -0.2 7   24 186 
 BAR2 SZ I         311  4.54        92.1 0.22            170             24 186 
 BRR  HZ EP        310 50.13                             152     0.610   69 299 
 BRR  HN ES   1    311  6.39                             152     0.8 7   69 299 
 BRR  HZ I         311  8.28        49.8 0.15            150             69 299 
 PAM  SZ EP   1    310 51.10                             150     0.4 7   78  41 
 PAM  SN ES        311  7.93                             150     0.210   78  41 
 RUS  HZ EP   1    310 52.26                             143     0.0 7  101 175 
 RUS  HN ES        311 10.58                             143     0.010  101 175 
 RUS  HZ I         311 11.88        21.9 0.21            144            101 175 
 PTB  HZ EP   1    310 54.88                             131    -0.5 7  146 258 
 PTB  HN ES   1    311 15.37                             131    -0.7 7  146 258 
 PTB  HZ I         311 18.35        15.8 0.11            130            146 258 
 TAM  HZ EP   1    310 56.60                             129     0.2 7  157 105 
 TAM  HZ I         310 56.77        25.5 0.09            132            157 105 
 TAM  HE ES        311 17.32                             129    -0.6 9  157 105 
 OCA  HZ EP   1    310 56.43                             129    -0.4 7  159 354 
 OCA  HN ES        311 17.91                             129    -0.7 9  159 354 
 OCA  HZ I         311 21.82        29.9 0.26            129            159 354 
 ZAR  HZ EP   1    311  1.71                             122     0.9 6  202 292 
 ZAR  HN ES        311 25.58                             122    -0.2 9  202 292 
 ZAR  HZ I         311 32.60        28.1 0.28            121            202 292 
 NOR  SZ EP   1    311  4.34                             118     0.1 6  234 234 
 NOR  SN ES        311 32.13                             118     0.3 8  234 234 
 HEL  HN ES   1    311 39.28                             114    -0.5 6  271 256 
 HEL  HZ I         311 47.99        12.1 0.25            114            271 256 
