 2014 1111 0709  3.3 L   6.815 -73.441121.9  RSN  8 0.6 1.5LRSN                1
 GAP= 76        1.42       4.5     5.1  8.3 -0.3220E+01  0.1480E+02 -0.4142E+01E
 Epicentro: SAN VICENTE DE CHUCURI - SANTANDER                                 3
 ACTION:UPD 14-12-19 15:41 OP:nd   STATUS:               ID:20141111070903 L   I
 OLDACT:ARG 14-11-11 12:38 OP:stll STATUS:               ID:20141111070742     3
 2014-11-11-0707-42M.COL___296                                                 6
 STAT SP IPHASW D HRMM SECON CODA AMPLIT PERI AZIMU VELO AIN AR TRES W  DIS CAZ7
 BAR2 SZ EP        7 9 20.92                             162    0.3910 37.8 131 
 BAR2 SZ ES        7 9 33.97                             162    0.0110 37.8 131 
 BAR2 SZ I         7 9 35.07        26.9 0.34            166           37.8 131 
 BRR  HZ EP        7 9 21.35                             159    0.9210 44.0 317 
 BRR  HN ES        7 9 34.69                             159    0.9010 44.0 317 
 BRR  HZ I         7 9 35.93        19.0 0.12            158           44.0 317 
 PAM  SZ EP        7 9 25.19                             138    0.4210  100  55 
 PAM  SN ES        7 9 41.18                             138   -0.3410  100  55 
 PAM  SZ I         7 9 43.73         4.6 0.30            141            100  55 
 RUS  HZ EP        7 9 25.74                             136    0.2110  109 159 
 RUS  HN ES        7 9 41.96                             136   -0.9110  109 159 
 RUS  HZ I         7 9 44.85         2.5 0.22            139            109 159 
 PTB  HZ EP        7 9 25.69                             133    0.2110  116 255 
 PTB  HN ES        7 9 41.94                             133   -0.8410  116 255 
 PTB  HZ I         7 9 48.04         5.0 0.16            135            116 255 
 OCA  HZ EP        7 9 29.21                             124   -0.44 9  158   5 
 OCA  HN ES        7 9 49.55                             124   -0.65 9  158   5 
 OCA  HZ I         7 9 54.37         5.1 0.24            126            158   5 
 GUY2CHZ EP        7 9 43.19                             109    0.16 7  276 231 
 GUY2CHN ES        710 14.20                             109    0.18 7  276 231 
 GUY2CHZ I         710 23.18         1.5 0.32                           276 231 
 MON  HZ EP        7 9 48.49                             105    0.08 7  328 312 
 MON  HN ES        710 22.90                             105   -0.69 7  328 312 
 MON  HZ I         710 25.84         0.9 0.46            107            328 312 
                                                                                
