 2013  711 0645 31.8 L   6.802 -73.111150.7  RSN 14 0.4 2.2LRSN                1
 GAP=184        0.93       2.7     4.4  4.8 -0.1720E+01  0.4169E+01 -0.1016E+01E
 Epicentro: LOS SANTOS - SANTANDER                                             3
 ACTION:UPD 13-08-12 10:36 OP:ep   STATUS:               ID:20130711064531 L   I
 OLDACT:REG 13-07-11 07:35 OP:nd   STATUS:               ID:20130711063959     3
 2013-07-11-0639-59M.COL___266                                                 6
 STAT SP IPHASW D HRMM SECON CODA AMPLIT PERI AZIMU VELO AIN AR TRES W  DIS CAZ7
 BAR2 SZ IP     C  645 52.15                             171    0.0710 24.4 199 
 BAR2 SZ ES        646  7.87                             171   -0.0010 24.4 199 
 BAR2 SZ I         646 10.12        19.4 0.22            168           24.4 199 
 BRR  HZ IP     C  645 54.09                             152    0.3810 74.5 297 
 BRR  HN ES        646 11.66                             152    0.9010 74.5 297 
 BRR  HZ I         646 16.37        22.1 0.12            148           74.5 297 
 RUS  HZ EP        645 55.94                             145   -0.1410  101 178 
 RUS  HN ES        646 14.42                             145   -0.5610  101 178 
 RUS  HZ I         646 16.19         7.6 0.33            148            101 178 
 PTB  HZ EP        645 59.08                             132   -0.47 9  152 259 
 PTB  HN ES        646 20.35                             132   -0.82 9  152 259 
 PTB  HZ I         646 27.60        24.5 0.40            131            152 259 
 OCA  HZ EP        646  0.72                             131    0.15 9  161 352 
 OCA  HN ES        646 23.14                             131    0.16 9  161 352 
 OCA  HZ I         646 27.02        18.8 0.36            131            161 352 
 ZAR  HZ EP        646  4.70                             123   -0.27 8  208 292 
 ZAR  HE ES   2    646 30.30                             123   -0.51 4  208 292 
 ZAR  HZ I         646 36.78        19.8 0.46            122            208 292 
 NOR  HZ EP        646  8.24                             119    0.04 8  238 235 
 NOR  HN ES        646 36.68                             119    0.11 8  238 235 
 NOR  HZ I         646 39.85        12.4 0.20            119            238 235 
 SML  HZ EP        646  8.68                             118   -0.23 8  245 334 
 SML  HN ES        646 37.96                             118    0.14 8  245 334 
 SML  HZ I         646 44.34        25.5 0.24            119            245 334 
 ROSC BZ EP   4    646 11.48                             118    1.02 0  255 212 
 ROSC BN ES   4    646 42.99                             118    2.40 0  255 212 
 HEL  HZ EP        646 12.99                             115    0.27 7  276 256 
 HEL  HN ES        646 44.72                             115    0.11 7  276 256 
 HEL  HZ I         646 51.80         7.6 0.30            116            276 256 
 GUY2CHZ EP   4    646 17.03                             113    0.99 0  304 235 
 GUY2CHE ES   4    646 54.31                             113    3.79 0  304 235 
 GUY2CHZ I         646 57.12         9.2 0.30                           304 235 
 RREF HZ EP   4    646 18.55                             112    0.01 0  325 230 
 RREF HN ES   4    646 56.97                             112    2.00 0  325 230 
 RREF HZ I         647  0.62         7.4 0.28            112            325 230 
 COD  HZ EP        646 20.14                             110   -0.30 6  348 354 
 COD  HN ES   2    646 57.72                             110   -0.63 3  348 354 
 COD  HZ I         647  5.35         3.4 0.58            111            348 354 
 PRA  HZ EP        646 25.68                             107   -0.09 6  394 210 
 PRA  HN ES        647  8.34                             107    0.50 6  394 210 
 PRA  HZ I         647 12.63         4.3 0.32            108            394 210 
 ORTC HZ EP        646 27.07                             107    0.86 6  398 217 
 ORTC HN ES   2    647  8.59                             107   -0.03 3  398 217 
 ORTC HZ I         647 13.77         3.7 0.36            108            398 217 
                                                                                
