 2010  911 0510 59.9 L   6.718 -73.106144.2  RSN  7 0.3 1.5LRSN                1
 GAP=164        0.80       4.5     7.8  8.7 -0.4461E+00 -0.2353E+02 -0.3967E+01E
 Epicentro: JORDAN - SANTANDER                                                 3
 ACTION:UP  11-02-18 11:01 OP:tino STATUS:               ID:20100911051059 L   I
 2010-09-11-0509-25S.COL___120                                                 6
 STAT SP IPHASW D HRMM SECON CODA AMPLIT PERI AZIMU VELO SNR AR TRES W  DIS CAZ7
 BAR2 SZ EP        511 19.05                             173    -0.210   16 212 
 BAR2 SZ I         511 19.29         7.4 0.19                            16 212 
 GIR2 SZ EP   1    511 19.29                             163    -0.4 7   41 346 
 BRR  HZ IP     D  511 21.06                             150    -0.310   80 303 
 BRR  HZ I         511 21.42        15.0 0.17                            80 303 
 BRR  HE ES        511 38.27                             150     0.110   80 303 
 RUS  HZ EP   1    511 22.84                             146     0.0 7   91 178 
 RUS  HE ES   1    511 41.03                             146     0.3 7   91 178 
 RUS  HZ I         511 42.40         3.8 0.39                            91 178 
 GUE  SZ EP        511 25.42                             137     0.310  125   9 
 GUE  SZ I         511 26.38         2.7 0.12                           125   9 
 GRA  SZ EP   1    511 26.10                             135     0.4 7  133  14 
 GRA  SZ ES   1    511 45.66                             135    -0.1 7  133  14 
 GRA  SZ I         511 47.00         3.7 0.29                           133  14 
 HEL  HZ EP   2    511 40.92                             114     0.6 4  274 258 
 HEL  HZ I         512 18.17         1.8 0.35                           274 258 
                                                                                
