 2012  811 0320 45.0 L   6.738 -73.158143.7  RSN  4 0.4 1.1LRSN                1
 GAP=231        0.70       8.3     7.6 11.0  0.3196E+02  0.9446E+01  0.1587E+02E
 Epicentro: VILLANUEVA - SANTANDER                                             3
 ACTION:UPD 12-09-10 11:55 OP:ep   STATUS:               ID:20120811032045 L   I
 2012-08-11-0320-00M.COL___218                                                 6
 STAT SP IPHASW D HRMM SECON CODA AMPLIT PERI AZIMU VELO AIN AR TRES W  DIS CAZ7
 BAR2 SZ EP   1    321  4.00                             173   -0.27 7 16.4 190 
 BAR2 SZ ES   1    321 18.86                             173   -0.44 7 16.4 190 
 BAR2 SZ I         321 21.36         5.9 0.30                          16.4 190 
 BRR  HE ES   1    321 22.99                             151    0.48 7 73.6 304 
 RUS  HZ EP   2    321  8.41                             145    0.33 5 93.9 175 
 RUS  HZ I         321  8.89         0.9 0.13                          93.9 175 
 RUS  HN ES   1    321 26.39                             145    0.31 7 93.9 175 
 PTB  HN ES   1    321 32.06                             132   -0.26 7  145 261 
                                                                                
