 2013  211 0623 54.8 L   6.846 -73.092148.0  RSN 16 0.5 2.8LRSN 3.1WRSN        1
 SPEC AVERAGE  MO 13.7 ST  6.6 OM  2.3 f0 4.06 R0.4006 AL 1.70 WI 26.1 MW  3.1 3
 SPEC SD       MO  0.2 ST  9.6 OM  0.4 f0 1.59 R0.1036 AL      WI      MW  0.1 3
 GAP=141        1.12       3.0     5.7  6.4 -0.1378E+01  0.1053E+02  0.1990E+01E
 Epicentro: LOS SANTOS - SANTANDER                                             3
 SPEC VIL SH Z MO 14.0 ST  3.3 OM  2.1 f0 2.80 R0.5250 AL 1.91 WI 49.3 MW  3.3 3
 SPEC VIL SH Z T 625 4 K 0.000 GD  343 VS 4.20 DE 3.20 Q0300.0 QA 0.60 VS 4.20 3
 SPEC ZAR HH Z MO 13.7 ST  3.0 OM  1.9 f0 3.49 R0.4212 AL 0.98 WI 32.3 MW  3.1 3
 SPEC ZAR HH Z T 62448 K 0.000 GD  255 VS 4.20 DE 3.20 Q0300.0 QA 0.60 VS 4.20 3
 SPEC ROSCBH Z MO 13.8 ST  1.7 OM  1.9 f0 2.77 R0.5307 AL 1.64 WI 32.5 MW  3.1 3
 SPEC ROSCBH Z T 62458 K 0.000 GD  299 VS 4.20 DE 3.20 Q0300.0 QA 0.60 VS 4.20 3
 SPEC PTB HH Z MO 13.7 ST 10.6 OM  2.0 f0 5.24 R0.2805 AL 1.51 WI 15.4 MW  3.1 3
 SPEC PTB HH Z T 62440 K 0.000 GD  214 VS 4.20 DE 3.20 Q0300.0 QA 0.60 VS 4.20 3
 SPEC RUS HH Z MO 13.2 ST  1.5 OM  1.5 f0 4.28 R0.3435 AL 1.49 WI 18.8 MW  2.7 3
 SPEC RUS HH Z T 62433 K 0.000 GD  181 VS 4.20 DE 3.20 Q0300.0 QA 0.60 VS 4.20 3
 SPEC HEL HH Z MO 13.8 ST  3.5 OM  1.9 f0 3.45 R0.4261 AL 2.00 WI 19.8 MW  3.1 3
 SPEC HEL HH Z T 625 7 K 0.000 GD  315 VS 4.20 DE 3.20 Q0300.0 QA 0.60 VS 4.20 3
 SPEC OCA HH Z MO 13.7 ST  5.2 OM  2.0 f0 4.13 R0.3559 AL 1.03 WI 23.5 MW  3.1 3
 SPEC OCA HH Z T 62442 K 0.000 GD  215 VS 4.20 DE 3.20 Q0300.0 QA 0.60 VS 4.20 3
 SPEC PAM SH Z MO 13.5 ST  2.2 OM  1.9 f0 3.66 R0.4016 AL 1.31 WI 19.0 MW  3.0 3
 SPEC PAM SH Z T 62433 K 0.000 GD  163 VS 4.20 DE 3.20 Q0300.0 QA 0.60 VS 4.20 3
 SPEC CHI HH Z MO 13.7 ST  2.2 OM  1.8 f0 3.25 R0.4523 AL 2.91 WI 35.3 MW  3.1 3
 SPEC CHI HH Z T 62459 K 0.000 GD  294 VS 4.20 DE 3.20 Q0300.0 QA 0.60 VS 4.20 3
 SPEC BRR HH Z MO 13.6 ST 36.1 OM  2.0 f0 8.59 R0.1711 AL 2.24 WI 22.6 MW  3.0 3
 SPEC BRR HH Z T 62431 K 0.000 GD  165 VS 4.20 DE 3.20 Q0300.0 QA 0.60 VS 4.20 3
 SPEC BAR2SH Z MO 14.0 ST  3.3 OM  2.4 f0 2.95 R0.4983 AL 1.64 WI 18.3 MW  3.3 3
 SPEC BAR2SH Z T 62427 K 0.000 GD  150 VS 4.20 DE 3.20 Q0300.0 QA 0.60 VS 4.20 3
 ACTION:UPD 13-03-12 09:32 OP:ep   STATUS:               ID:20130211062354 L   I
 2013-02-11-0620-00M.COL___241                                                 6
 STAT SP IPHASW D HRMM SECON CODA AMPLIT PERI AZIMU VELO AIN AR TRES W  DIS CAZ7
 BAR2 SZ EP        624 14.80                             168   -0.0710 29.7 200 
 BAR2 SZ ES   1    624 29.87                             168   -0.63 7 29.7 200 
 BAR2 SZ I         624 31.45       226.5 0.52            166           29.7 200 
 PAM  SZ EP        624 17.49                             154    0.6410 69.7  38 
 PAM  SN ES   1    624 34.77                             154    0.75 7 69.7  38 
 PAM  SZ I         624 36.87       109.4 0.52            158           69.7  38 
 BRR  HZ IP     D  624 16.60                             152    0.2010 74.4 293 
 BRR  HE ES   1    624 33.51                             152    0.29 7 74.4 293 
 BRR  HZ I         624 37.19       102.2 0.14            149           74.4 293 
 RUS  HZ IP     C  624 18.61                             143   -0.5410  105 179 
 RUS  HN ES   1    624 37.32                             143   -0.80 7  105 179 
 RUS  HZ I         624 40.34        36.6 0.24            145            105 179 
 PTB  HZ EP   4    624 21.34                             131   -1.26 0  155 257 
 PTB  HN ES   4    624 42.49                             131   -1.77 0  155 257 
 PTB  HZ I         624 50.02       125.1 0.56            130            155 257 
 OCA  HZ IP     C  624 22.79                             131   -0.14 9  156 351 
 OCA  HE ES   1    624 45.44                             131    0.60 7  156 351 
 OCA  HZ I         624 52.36        74.1 0.34            132            156 351 
 ZAR  HZ EP        624 27.18                             122   -0.62 8  208 290 
 ZAR  HN ES   1    624 52.89                             122   -0.63 6  208 290 
 ZAR  HZ I         624 59.08        61.0 0.36            122            208 290 
 CTAU SZ EP        624 29.50                             122    0.80 8  210 210 
 CTAB SZ EP        624 32.21                             119    0.71 8  237 211 
 SML  HZ EP        624 30.58                             118   -0.79 8  242 334 
 SML  HN ES   1    624 59.82                             118   -0.05 6  242 334 
 SML  HZ I         625  4.40        96.3 0.10            119            242 334 
 CHI  HZ IP     C  624 32.66                             117   -0.69 8  255 196 
 CHI  HE ES   1    625  3.03                             117   -0.37 6  255 196 
 CHI  HZ I         625 11.98        27.3 0.32            118            255 196 
 ROSC BZ IP     C  624 34.40                             116    0.52 8  260 212 
 ROSC BN ES   1    625  4.69                             116    0.36 6  260 212 
 ROSC BZ I         625 12.58        46.0 0.35            118            260 212 
 HEL  HZ EP        624 36.67                             115    0.74 7  279 255 
 HEL  HN ES   1    625  8.28                             115    0.29 6  279 255 
 HEL  HZ I         625 12.88        32.6 0.40            115            279 255 
 URE  HZ EP   4    624 36.96                             114    0.54 0  288 291 
 URE  HN ES   4    625  6.31                             114   -2.55 0  288 291 
 VIL  SZ EP   1    624 38.95                             112   -0.10 5  310 192 
 VIL  SE ES   1    625 13.33                             112   -0.21 5  310 192 
 VIL  SZ I         625 18.17        35.4 0.40            114            310 192 
 COD  HZ EP        624 42.13                             109   -0.66 7  344 354 
 COD  HN ES   1    625 19.84                             109   -0.35 5  344 354 
 COD  HZ I         625 28.83        12.1 0.54            111            344 354 
 ANIL HZ EP   1    624 45.86                             108    0.24 5  365 225 
 ANIL HN ES   1    625 25.28                             108    0.05 5  365 225 
 ANIL HZ I         625 30.99        20.2 0.34            109            365 225 
 SJC  HN EP   4    624 48.67                             106   -1.69 0  408 326 
 SJC  HN ES   4    625 30.11                             106   -3.56 0  408 326 
                                                                                
