 2017  611 0848 46.9 L   6.827 -73.162144.1  RSN 15 0.5 2.2LRSN                1
 GAP=169        0.88       3.4     3.6  5.9  0.1656E+01 -0.3188E+01  0.5091E+01E
 Epicentro: LOS SANTOS - SANTANDER                                             3
 ACTION:UPD 17-09-14 16:51 OP:jn   STATUS:               ID:20170611084846 L   I
 OLDACT:UP  17-06-11 23:01 OP:dani STATUS:               ID:20170611084727     3
 OLDACT:UP  17-06-11 23:01 OP:dani STATUS:               ID:20170611084727     3
 OLDACT:UP  17-06-11 23:01 OP:dani STATUS:               ID:20170611084727     3
 OLDACT:REG 17-06-11 13:49 OP:osc  STATUS:               ID:20170611084727     3
 2017-06-11-0848-00M.COL___344                                                 6
 STAT SP IPHASW D HRMM SECON CODA AMPLIT PERI AZIMU VELO AIN AR TRES W  DIS CAZ7
 BRR  HZ EP        849  7.84                             153    0.1310 68.2 297 
 BRR  HN ES        849 24.43                             153    0.5010 68.2 297 
 BRR  HZ I         849 27.77        27.4 0.44            151           68.2 297 
 PTB  HZ EP        849 13.06                             132   -0.57 9  147 258 
 PTB  HN ES        849 33.72                             132   -0.76 9  147 258 
 PTB  HZ I         849 36.67        20.0 0.14            130            147 258 
 TAM  HZ IP     D  849 14.49                             130   -0.20 9  158 106 
 SPBC HZ EP        849 15.43                             128    0.04 9  164 218 
 SPBC HN ES        849 37.80                             128    0.19 9  164 218 
 SPBC HZ I         849 41.57        26.2 0.10            127            164 218 
 ZAR  HZ EP        849 18.87                             122   -0.08 9  201 292 
 ZAR  HN ES        849 44.08                             122    0.13 9  201 292 
 ZAR  HZ I         849 51.02        16.8 0.18            122            201 292 
 NOR  HZ EP        849 22.12                             118   -0.45 8  235 234 
 NOR  HE ES        849 50.26                             118   -0.13 8  235 234 
 NOR  HZ I         849 52.48        15.1 0.14            117            235 234 
 CHI  HZ EP        849 24.69                             116   -0.09 8  251 195 
 CHI  HN ES        849 54.17                             116   -0.14 8  251 195 
 CHI  HZ I         849 59.28         7.7 0.28            116            251 195 
 ROSC BZ EP   3    849 26.64                             116    1.53 2  254 210 
 ROSC BN ES   4    849 57.85                             116    2.93 0  254 210 
 ROSC BZ I         850  1.20        14.7 0.40            116            254 210 
 HEL  HZ EP   3    849 28.13                             114    1.21 2  271 255 
 HEL  HN ES        849 58.52                             114    0.39 8  271 255 
 HEL  HZ I         850  5.69        13.7 0.32            114            271 255 
 URE  HZ EP   4    849 29.74                             113    2.16 0  281 291 
 URE  HN ES   4    849 56.88                             113   -2.43 0  281 291 
 VIL  EZ EP        849 30.49                             111   -0.05 7  306 191 
 VIL  EN ES        850  4.77                             111    0.20 7  306 191 
 VIL  EZ I         850 15.19        11.8 0.36            112            306 191 
 PTGC HZ EP   3    849 29.57                             111   -1.51 2  312 159 
 PTGC HE ES   4    850  2.73                             111   -2.81 0  312 159 
 PTGC HZ I         850  4.00         6.6 0.74            112            312 159 
 CBOC HZ EP        849 34.43                             110    0.77 7  333 252 
 CBOC HN ES   3    850  9.00                             110   -1.13 2  333 252 
 CBOC HZ I         850 20.64         3.6 0.44            110            333 252 
 DBB  EZ EP        849 34.84                             109    0.76 7  337 274 
 DBB  EN ES        850  9.99                             109   -0.89 7  337 274 
 DBB  EZ I         850 15.36         7.1 0.14            110            337 274 
 ORTC HZ EP        849 41.29                             106    0.36 6  397 216 
 ORTC HE ES   3    850 25.27                             106    2.21 1  397 216 
 ORTC HZ I         850 29.05         5.9 0.22            106            397 216 
 PAL  HZ EP        849 42.24                             106    0.23 6  406 239 
 PAL  HE ES        850 25.43                             106    0.44 6  406 239 
 PAL  HZ I         850 33.64         3.5 0.17            106            406 239 
                                                                                
