 2016  511 0715 29.3 L   6.750 -73.168148.6  RSN  7 0.4 1.2LRSN                1
 GAP=136        1.09       4.6     4.8  6.9  0.2550E+01  0.7437E+01 -0.6708E+01E
 Epicentro: LOS SANTOS - SANTANDER                                             3
 ACTION:UPD 16-08-18 17:44 OP:cam  STATUS:               ID:20160511071529 L   I
 OLDACT:REG 16-05-11 12:35 OP:drio STATUS:               ID:20160511070741     3
 2016-05-11-0707-41M.COL___285                                                 6
 STAT SP IPHASW D HRMM SECON CODA AMPLIT PERI AZIMU VELO AIN AR TRES W  DIS CAZ7
 BAR2 EZ EP        715 49.56                             173    0.3410 17.6 185 
 BAR2 EZ ES        716  3.86                             173   -0.8510 17.6 185 
 BAR2 EZ I         716  5.40         5.1 0.36            172           17.6 185 
 BRR  HZ EP        715 51.16                             153    0.3210 71.9 303 
 BRR  HE ES        716  8.50                             153    0.9010 71.9 303 
 PAM  EZ EP        715 52.38                             149    0.1710 83.2  38 
 PAM  EN ES        716  9.94                             149   -0.1110 83.2  38 
 RUS  HZ EP        715 52.94                             146   -0.0710 95.3 174 
 RUS  HE ES        716 11.60                             146    0.1410 95.3 174 
 RUS  HZ I         716 14.78         1.1 0.56            147           95.3 174 
 PTB  HZ EP        715 55.84                             133   -0.40 9  144 261 
 PTB  HN ES        716 17.03                             133   -0.18 9  144 261 
 PTB  HZ I         716 22.04         1.7 0.28            133            144 261 
 ZAR  HZ EP        716  2.30                             123    0.34 9  204 294 
 ZAR  HN ES        716 27.23                             123   -0.17 9  204 294 
 ZAR  HZ I         716 30.86         1.7 0.28            123            204 294 
 SML  HZ EP        716  6.27                             118   -0.29 8  248 336 
 SML  HN ES        716 35.16                             118   -0.43 8  248 336 
 SML  HZ I         716 40.55         2.8 0.10            118            248 336 
                                                                                
