 2011  711 0837 23.5 L   6.683 -73.146145.5  RSN  5 0.4 1.5LRSN                1
 GAP=160        0.82      10.2    14.1 12.2  0.6626E+02 -0.9755E+02 -0.8689E+02E
 Epicentro: VILLANUEVA - SANTANDER                                             3
 ACTION:UPD 12-07-25 13:59 OP:epov STATUS:               ID:20110711083723 L   I
 2011-07-11-0837-09S.COL___140                                                 6
 STAT SP IPHASW D HRMM SECON CODA AMPLIT PERI AZIMU VELO AIN AR TRES W  DIS CAZ7
 BAR2 SZ EP   1    837 43.27                             176    0.38 8 10.8 202 
 BAR2 SZ ES   1    837 57.84                             176   -0.19 8 10.8 202 
 BAR2 SZ I         837 59.64         4.7 0.16                          10.8 202 
 BRR  HZ EP   1    837 45.11                             150    0.10 8 78.1 307 
 BRR  HZ I         837 45.38         7.2 0.12                          78.1 307 
 BRR  HE ES   1    838  1.93                             150    0.13 8 78.1 307 
 RUS  HE ES   2    838  3.72                             147   -0.41 5 87.7 175 
 GRA  SZ EP        837 50.08                             134    0.3210  138  16 
 GRA  SZ I         837 51.22         3.5 0.36                           138  16 
 OCA  SZ EP   1    837 52.06                             127   -0.93 7  173 354 
 OCA  SZ I         838 18.29         3.5 0.34                           173 354 
                                                                                
