 2014  811 0138 41.3 L   6.820 -73.158148.0  RSN 17 0.4 2.3LRSN                1
 GAP=134        0.96       2.4     3.4  4.6 -0.1116E+01  0.4624E+01  0.4410E+00E
 Epicentro: LOS SANTOS - SANTANDER                                             3
 ACTION:UPD 14-09-15 21:48 OP:nd   STATUS:               ID:20140811013841 L   I
 OLDACT:UP  14-08-11 17:52 OP:cam  STATUS:               ID:20140811013748     3
 OLDACT:UP  14-08-11 17:51 OP:cam  STATUS:               ID:20140811013748     3
 OLDACT:REG 14-08-11 17:44 OP:cam  STATUS:               ID:20140811013748     3
 2014-08-11-0137-48M.COL___266                                                 6
 STAT SP IPHASW D HRMM SECON CODA AMPLIT PERI AZIMU VELO AIN AR TRES W  DIS CAZ7
 BAR2 SZ EP        139  1.26                             170    0.0510 25.3 186 
 BAR2 SZ ES        139 16.33                             170   -0.4410 25.3 186 
 BAR2 SZ I         139 17.39        38.8 0.24            170           25.3 186 
 BRR  HZ EP        139  3.07                             154    0.5310 68.9 297 
 BRR  HE ES        139 19.64                             154    0.5110 68.9 297 
 BRR  HZ I         139 24.10        21.7 0.14            147           68.9 297 
 PAM  SZ EP        139  4.15                             151    0.4710 76.6  41 
 PAM  SN ES        139 21.27                             151    0.1110 76.6  41 
 PAM  SN I         139 22.52        63.7 0.46            150           76.6  41 
 RUS  HZ EP        139  5.18                             144   -0.2310  103 175 
 RUS  HE ES        139 24.21                             144   -0.0310  103 175 
 RUS  HZ I         139 25.13        10.8 0.30            143            103 175 
 PTB  HZ EP        139  8.16                             133   -0.18 9  147 258 
 PTB  HN ES        139 29.15                             133   -0.31 9  147 258 
 PTB  HZ I         139 36.45        33.0 0.40            128            147 258 
 OCA  HZ EP        139  9.27                             130   -0.27 9  158 354 
 OCA  HE ES        139 31.29                             130   -0.29 9  158 354 
 OCA  HZ I         139 38.86        23.7 0.28            126            158 354 
 SPBC HZ EP        139 10.11                             129    0.08 9  164 218 
 SPBC HN ES        139 31.76                             129   -0.70 9  164 218 
 SPBC HZ I         139 39.41        27.3 0.16            126            164 218 
 ZAR  HZ EP        139 13.90                             123    0.25 9  202 292 
 ZAR  HN ES        139 39.65                             123    0.75 9  202 292 
 ZAR  HZ I         139 48.13      10.3e8 8.96            119            202 292 
 NOR  HZ EP        139 17.54                             119    0.39 8  235 234 
 NOR  HN ES        139 45.28                             119    0.14 8  235 234 
 NOR  HZ I         139 51.30        17.4 0.16            116            235 234 
 SML  HZ EP        139 17.66                             118   -0.08 8  241 335 
 SML  HE ES        139 46.02                             118   -0.17 8  241 335 
 SML  HZ I         139 49.44        26.5 0.28            114            241 335 
 CHI  HZ EP        139 19.09                             117   -0.20 8  250 195 
 HEL  HZ EP   4    139 23.27                             115    1.76 0  271 255 
 HEL  HE ES        139 52.23                             115   -0.67 8  271 255 
 HEL  HZ I         140  0.44        12.9 0.40            112            271 255 
 GUY2CHZ EP   4    139 26.18                             113    1.18 0  301 234 
 GUY2CHE ES   4    140  0.68                             113    1.56 0  301 234 
 GUY2CHZ I         140  6.48        10.2 0.46                           301 234 
 TOL  SZ EP        139 29.76                             110    0.07 7  344 224 
 TOL  SE ES        140  8.20                             110    0.74 7  344 224 
 TOL  SZ I         140 12.96        21.4 0.74            107            344 224 
 MON  HZ EP   4    139 28.55                             109   -1.53 0  351 308 
 MON  HN ES        140  7.45                             109   -0.70 6  351 308 
 MON  HZ I         140  8.56         3.5 0.38            106            351 308 
 PRA  HZ EP        139 34.76                             107   -0.26 6  393 209 
 PRA  HN ES        140 17.70                             107    0.76 6  393 209 
 PRA  HZ I         140 23.77         5.4 0.32            105            393 209 
 SJC  HZ EP   1    139 35.56                             106   -1.04 4  407 327 
 SJC  HZ I         140 20.88         5.9 0.56            104            407 327 
                                                                                
