 2012  911 0319  6.3 L   6.825 -73.009147.2  RSN  6 0.3 1.7LRSN                1
 GAP=154        0.52       3.8     6.4  5.9  0.4096E+01 -0.6800E+01 -0.6477E+00E
 Epicentro: CEPITA - SANTANDER                                                 3
 ACTION:UPD 12-10-22 14:18 OP:ep   STATUS:               ID:20120911031906 L   I
 2012-09-11-0314-39M.COL___214                                                 6
 STAT SP IPHASW D HRMM SECON CODA AMPLIT PERI AZIMU VELO AIN AR TRES W  DIS CAZ7
 BAR2 SZ EP   2    319 26.39                             167    0.09 5 32.1 217 
 BAR2 SZ ES   2    319 41.13                             167   -0.78 5 32.1 217 
 BAR2 SZ I         319 42.74        16.8 0.28                          32.1 217 
 GIR2 SZ EP   1    319 26.36                             166    0.13 7 34.7 324 
 PAM  SZ EP   1    319 27.81                             155   -0.23 7 66.4  31 
 BRR  HZ EP        319 28.35                             149    0.0110 83.7 292 
 BRR  HZ I         319 28.68         9.0 0.20                          83.7 292 
 BRR  HE ES   1    319 45.70                             149    0.16 7 83.7 292 
 RUS  HZ EP   1    319 30.66                             143    0.28 7  103 185 
 RUS  HE ES   1    319 49.33                             143    0.15 7  103 185 
 RUS  HZ I         319 50.36         4.5 0.31                           103 185 
 PRA  HZ EP   1    320  0.68                             106   -0.35 4  402 211 
 PRA  HN ES   2    320 43.09                             106   -0.63 3  402 211 
                                                                                
