 2015  211 0514 45.4 L   6.731 -73.158133.7  RSN  6 0.5 1.1LRSN                1
 GAP=138        1.23       5.5     5.9  9.8 -0.7837E+01  0.8154E+01  0.2612E+01E
 Epicentro: LOS SANTOS - SANTANDER                                             3
 ACTION:UPD 15-04-30 21:25 OP:nd   STATUS:               ID:20150211051445 L   I
 OLDACT:DUP 15-02-11 17:00 OP:fm   STATUS:               ID:20150211050744d    3
 2015-02-11-0507-41M.COL___287                                                 6
 STAT SP IPHASW D HRMM SECON CODA AMPLIT PERI AZIMU VELO AIN AR TRES W  DIS CAZ7
 BAR2 EZ ES   1    515 17.99                             173    0.48 7 15.5 190 
 BAR2 EZ I         515 20.12         3.9 0.28            174           15.5 190 
 BRR  HZ EP        515  5.75                             149    0.3110 74.0 304 
 BRR  HN ES        515 21.77                             149    0.7010 74.0 304 
 BRR  HZ I         515 26.60         2.5 0.14            151           74.0 304 
 PAM  SZ EP        515  6.91                             146    0.1010 84.3  37 
 PAM  SN ES        515 22.61                             146   -0.8910 84.3  37 
 PAM  SZ I         515 26.08         3.3 0.44            150           84.3  37 
 RUS  HZ EP        515  7.74                             143    0.3110 93.0 175 
 RUS  HN ES        515 24.74                             143    0.1310 93.0 175 
 RUS  HZ I         515 27.76         1.6 0.24            148           93.0 175 
 PTB  HZ EP        515 11.19                             130    0.02 9  145 262 
 PTB  HN ES        515 30.70                             130   -0.56 9  145 262 
 PTB  HZ I         515 33.61         1.6 0.14            133            145 262 
 SPBC HN ES        515 32.84                             127   -0.52 9  156 220 
                                                                                
