 2017  611 0856  0.1 L   6.816 -73.142151.8  RSN  8 0.2 1.8LRSN                1
 GAP=169        0.57       2.5     2.9  4.7 -0.3833E+00 -0.4622E+01  0.3703E+01E
 Epicentro: LOS SANTOS - SANTANDER                                             3
 ACTION:UPD 17-09-14 16:51 OP:jn   STATUS:               ID:20170611085600 L   I
 OLDACT:UP  17-06-11 23:06 OP:dani STATUS:               ID:20170611084728d    3
 OLDACT:UP  17-06-11 23:06 OP:dani STATUS:               ID:20170611084728d    3
 OLDACT:UP  17-06-11 23:05 OP:dani STATUS:               ID:20170611084728d    3
 OLDACT:DUP 17-06-11 23:02 OP:dani STATUS:               ID:20170611084728d    3
 OLDACT:UP  17-06-11 23:01 OP:dani STATUS:               ID:20170611084727     3
 OLDACT:UP  17-06-11 23:01 OP:dani STATUS:               ID:20170611084727     3
 OLDACT:UP  17-06-11 23:01 OP:dani STATUS:               ID:20170611084727     3
 OLDACT:REG 17-06-11 13:49 OP:osc  STATUS:               ID:20170611084727     3
 2017-06-11-0848-00M.COL___344                                                 6
 STAT SP IPHASW D HRMM SECON CODA AMPLIT PERI AZIMU VELO AIN AR TRES W  DIS CAZ7
 BRR  HZ EP        856 21.81                             154   -0.0710 70.7 297 
 BRR  HE ES        856 39.17                             154    0.3010 70.7 297 
 BRR  HZ I         856 42.60         8.5 0.19            154           70.7 297 
 PTB  HZ EP        856 27.29                             133   -0.34 9  148 258 
 PTB  HN ES        856 48.65                             133   -0.46 9  148 258 
 PTB  HZ I         856 55.79         6.3 0.22            134            148 258 
 TAM  HZ EP        856 28.21                             132   -0.06 9  155 106 
 SPBC HZ EP        856 29.17                             130   -0.05 9  165 219 
 SPBC HE ES        856 52.02                             130    0.09 9  165 219 
 SPBC HZ I         856 59.03        12.1 0.28            131            165 219 
 ZAR  HZ EP        856 32.90                             124   -0.01 9  204 292 
 ZAR  HN ES        856 58.56                             124    0.05 9  204 292 
 ZAR  HZ I         857  7.18         7.4 0.32            126            204 292 
 NOR  HZ EP        856 36.75                             120    0.42 8  236 234 
 NOR  HN ES        857  4.78                             120    0.19 8  236 234 
 NOR  HZ I         857  7.67         7.0 0.22            122            236 234 
 CHI  HZ EP        856 38.36                             118    0.03 8  250 195 
 CHI  HN ES        857  7.99                             118   -0.17 8  250 195 
 CHI  HZ I         857 16.93         2.3 0.28            120            250 195 
 ORTC HZ EP        856 54.78                             107    0.36 6  397 216 
 ORTC HN ES        857 36.86                             107    0.06 6  397 216 
 ORTC HZ I         857 43.76         2.4 0.26            109            397 216 
                                                                                
