 2012 1011 0610 12.4 L   6.737 -73.061142.5  RSN  5 0.3 1.2LRSN                1
 GAP=203        0.55       5.3     6.6  6.6  0.2205E+02  0.4915E+01  0.4115E+01E
 Epicentro: JORDAN - SANTANDER                                                 3
 ACTION:UPD 12-11-22 17:03 OP:ep   STATUS:               ID:20121011061012 L   I
 2012-10-11-0610-00M.COL___229                                                 6
 STAT SP IPHASW D HRMM SECON CODA AMPLIT PERI AZIMU VELO AIN AR TRES W  DIS CAZ7
 BAR2 SZ EP   1    610 31.49                             171   -0.09 7 20.9 220 
 BAR2 SZ I         610 47.85         5.1 0.22                          20.9 220 
 GIR2 SZ EP   1    610 32.30                             163    0.34 7 40.6 339 
 GIR2 SZ ES   1    610 47.38                             163    0.15 7 40.6 339 
 BRR  HZ EP   1    610 33.44                             148   -0.45 7 82.8 300 
 BRR  HZ I         610 33.65         2.3 0.13                          82.8 300 
 BRR  HN ES   1    610 50.38                             148   -0.29 7 82.8 300 
 RUS  HZ EP   1    610 35.36                             145    0.06 7 93.4 182 
 RUS  HN ES   1    610 53.23                             145    0.05 7 93.4 182 
 RUS  HN I         610 55.41         3.5 0.18                          93.4 182 
 ZAR  HN ES   1    611 12.22                             120    0.34 6  215 293 
                                                                                
