 2011  611 0137 36.3 L   6.756 -73.047153.9  RSN  5 0.2 1.7LRSN                1
 GAP=170        0.41       2.7     5.1  4.7 -0.4086E+01  0.8412E+00 -0.1806E+01E
 Epicentro: LOS SANTOS - SANTANDER                                             3
 ACTION:UP  11-07-14 19:04 OP:ep   STATUS:               ID:20110611013736 L   I
 2011-06-11-0135-53S.COL___133                                                 6
 STAT SP IPHASW D HRMM SECON CODA AMPLIT PERI AZIMU VELO SNR AR TRES W  DIS CAZ7
 BAR2 SZ EP   1    137 56.73                             171    -0.1 7   23 220 
 BAR2 SZ I         138 12.93         9.6 0.51                            23 220 
 BAR2 SZ ES   1    138 13.00                             171     0.0 7   23 220 
 BRR  HZ EP   1    137 58.73                             150    -0.2 7   83 298 
 BRR  HZ I         137 58.94        18.8 0.14                            83 298 
 BRR  HN ES   2    138 16.61                             150    -0.1 5   83 298 
 RUS  HZ EP   1    138  0.59                             147     0.1 7   96 182 
 RUS  HZ I         138  1.40         3.2 0.16                            96 182 
 RUS  HN ES   1    138 19.31                             147    -0.1 7   96 182 
 GRA  SZ EP   1    138  2.47                             138     0.1 7  128  12 
 GRA  SZ ES   1    138 22.93                             138     0.1 7  128  12 
 GRA  SZ I         138 24.48         7.3 0.29                           128  12 
 NOR  SN ES   2    138 42.34                             119     0.4 4  241 237 
                                                                                
