 2013  211 0135 24.3 L   6.160 -73.690107.5  RSN  7 0.4 1.3LRSN                1
 GAP=115        0.78       3.2     4.0  8.0  0.4210E+01  0.1197E+02  0.4581E+01E
 Epicentro: LANDAZURI - SANTANDER                                              3
 ACTION:UPD 13-03-12 09:32 OP:ep   STATUS:               ID:20130211013524 L   I
 2013-02-11-0130-00M.COL___241                                                 6
 STAT SP IPHASW D HRMM SECON CODA AMPLIT PERI AZIMU VELO AIN AR TRES W  DIS CAZ7
 RUS  HZ IP     C  135 42.25                             143   -0.0210 73.4 114 
 RUS  HN ES   1    135 55.77                             143   -0.56 7 73.4 114 
 RUS  HZ I         135 57.35         2.5 0.36            147           73.4 114 
 BAR2 SZ EP        135 42.11                             142    0.1710 73.8  50 
 BAR2 SZ ES   1    135 56.03                             142    0.29 7 73.8  50 
 PTB  HZ IP     D  135 42.79                             135   -0.5110 94.6 296 
 PTB  HN ES   1    135 57.82                             135   -0.34 7 94.6 296 
 PTB  HZ I         136  1.17         6.5 0.14            137           94.6 296 
 BRR  HZ IP     C  135 44.18                             132    0.0010  105 359 
 BRR  HN ES   1    136  0.20                             132    0.48 7  105 359 
 CHI  HZ EP   1    135 51.31                             118    0.10 7  169 182 
 CHI  HN ES   1    136 12.78                             118    0.55 7  169 182 
 CHI  HZ I         136 19.32         3.1 0.44            119            169 182 
 ZAR  HZ EP   1    135 53.46                             113   -0.16 6  196 319 
 ZAR  HN ES   1    136 17.15                             113    0.63 6  196 319 
 OCA  HE ES   2    136 24.09                             109   -0.37 4  234  10 
                                                                                
