 2017 1111 0526 47.1 L   6.808 -73.152145.3  RSN 28 0.5 2.7LRSN                1
 GAP= 65        1.01       2.5     2.4  5.1  0.1734E+00  0.3269E+01  0.2912E+01E
 Epicentro: LOS SANTOS - SANTANDER                                             3
 ACTION:UPD 17-12-12 19:54 OP:rebc STATUS:               ID:20171111052647 L   I
 OLDACT:UP  17-11-11 16:16 OP:dnl  STATUS:               ID:20171111051743     3
 OLDACT:UP  17-11-11 16:14 OP:dnl  STATUS:               ID:20171111051743     3
 OLDACT:UP  17-11-11 16:14 OP:dnl  STATUS:               ID:20171111051743     3
 OLDACT:UP  17-11-11 16:13 OP:dnl  STATUS:               ID:20171111051743     3
 OLDACT:UP  17-11-11 16:12 OP:dnl  STATUS:               ID:20171111051743     3
 OLDACT:REG 17-11-11 14:19 OP:dnl  STATUS:               ID:20171111051743     3
 2017-11-11-0518-00M.COL___444                                                 6
 STAT SP IPHASW D HRMM SECON CODA AMPLIT PERI AZIMU VELO AIN AR TRES W  DIS CAZ7
 BAR2 EZ IP     C  527  6.56                             170   -0.1410 24.1 188 
 BAR2 EZ I         527 24.00       102.8 0.36            168           24.1 188 
 BRR  HZ EP        527  8.55                             153    0.4010 70.2 298 
 BRR  HE ES        527 25.27                             153    0.7110 70.2 298 
 BRR  HZ I         527 29.22       121.0 0.22            154           70.2 298 
 PAM  EZ EP        527  9.54                             151    0.2810 77.2  40 
 PAM  EN ES        527 26.38                             151   -0.1610 77.2  40 
 PAM  EZ I         527 28.72       137.2 0.64            152           77.2  40 
 PTB  HZ EP        527 13.08                             132   -0.91 9  147 258 
 PTB  HN ES        527 34.44                             132   -0.52 9  147 258 
 PTB  HZ I         527 37.44        50.6 0.14            132            147 258 
 TAM  HZ IP     C  527 14.96                             130    0.13 9  156 105 
 TAM  HN ES        527 36.30                             130   -0.16 9  156 105 
 TAM  HZ I         527 46.34        19.0 0.28            130            156 105 
 SPBC HZ EP        527 15.51                             129   -0.08 9  163 219 
 SPBC HN ES        527 37.22                             129   -0.59 9  163 219 
 SPBC HZ I         527 44.90        76.2 0.22            129            163 219 
 YPLC HZ IP     D  527 17.03                             126    0.06 9  178 151 
 YPLC HN ES        527 40.60                             126    0.33 9  178 151 
 YPLC HZ I         527 43.20        60.0 0.32            126            178 151 
 ZAR  HZ EP        527 19.80                             122    0.38 9  203 292 
 ZAR  HE ES        527 45.11                             122    0.48 9  203 292 
 ZAR  HZ I         527 50.64       105.0 0.40            123            203 292 
 TABC EZ EP   4    527 24.20                             119    1.33 0  230 210 
 TABC EZ I         527 59.13        42.5 0.32            119            230 210 
 NOR  HZ EP        527 22.61                             118   -0.19 8  235 234 
 NOR  HE ES        527 51.38                             118    0.74 8  235 234 
 NOR  HZ I         527 57.89        32.3 0.38            119            235 234 
 CHI  HZ EP        527 24.79                             117   -0.06 8  249 195 
 CHI  HE ES        527 53.70                             117   -0.59 8  249 195 
 CHI  HZ I         527 58.22        20.0 0.26            117            249 195 
 ROSC BZ EP   4    527 26.55                             117    1.31 0  253 211 
 ROSC BN ES   4    527 58.20                             117    3.21 0  253 211 
 ROSC BZ I         528  0.29        33.6 0.35            117            253 211 
 URE  HZ EP        527 27.15                             114   -0.90 7  283 292 
 URE  HN ES   4    527 57.87                             114   -2.11 0  283 292 
 URE  HZ I         528  0.60        46.5 0.38            114            283 292 
 DRL03HZ EP        527 28.40                             113   -0.19 7  288 353 
 DRL03HE ES        528  0.59                             113   -0.36 7  288 353 
 GUY2CHZ EP        527 31.25                             112    0.56 7  301 235 
 GUY2CHE ES        528  4.88                             112    0.20 7  301 235 
 GUY2CHZ I         528 13.90        19.5 0.64                           301 235 
 VIL  EZ EP        527 30.60                             112    0.02 7  304 191 
 VIL  EN ES        528  3.68                             112   -0.81 7  304 191 
 VIL  EZ I         528 10.26        29.7 0.28            112            304 191 
 PTGC HZ EP   4    527 29.80                             111   -1.26 0  310 159 
 PTGC HN ES   4    528  2.97                             111   -2.37 0  310 159 
 PTGC HZ I         528  4.99        23.0 0.24            111            310 159 
 CBOC HZ EP        527 34.69                             110    0.73 7  333 252 
 CBOC HE ES        528 10.32                             110   -0.18 7  333 252 
 CBOC HZ I         528 16.65         8.5 0.30            110            333 252 
 DBB  EZ EP        527 34.63                             109    0.15 7  339 274 
 DBB  EN ES        528 10.83                             109   -0.60 7  339 274 
 DBB  EZ I         528 14.04        22.5 0.46            110            339 274 
 ARGC HZ EP   9    527 38.00                             108    1.38 0  358 340 
 ARGC HN ES        528 16.40                             109   -0.22 6  358 340 
 ARGC HZ I         528 23.69         6.5 0.30            109            358 340 
 PRA  HZ EP        527 40.67                             106    0.01 6  392 209 
 PRA  HE ES        528 23.32                             106    0.89 6  392 209 
 PRA  HZ I         528 27.21        24.2 0.24            107            392 209 
 ORTC HZ EP        527 41.77                             106    0.73 6  396 216 
 ORTC HE ES   4    528 24.66                             106    1.55 0  396 216 
 ORTC HZ I         528 31.46        11.3 0.40            106            396 216 
 APAC HZ EP   3    527 41.96                             106    0.79 1  397 288 
 APAC HE ES        528 23.18                             106   -0.16 6  397 288 
 APAC HZ I         528 31.33        18.8 0.44            107            397 288 
 PAL  HZ EP        527 42.75                             106    0.52 6  406 239 
 PAL  HE ES        528 24.62                             106   -0.61 6  406 239 
 PAL  HZ I         528 26.64         6.5 0.24            106            406 239 
 SJC  HZ EP   4    527 40.95                             106   -1.57 0  408 327 
 SJC  HN ES   4    528 22.72                             106   -3.03 0  408 327 
 SJC  HZ I         528 26.61        11.5 0.32            106            408 327 
 CRJC HZ EP   4    527 47.30                             103   -2.20 0  467   4 
 CRJC HE ES   4    528 32.73                             103   -5.43 0  467   4 
 CRJC HZ I         528 39.34        15.4 0.20            104            467   4 
 SMAR HZ EP   4    527 51.63                             102   -1.22 0  496 346 
 SMAR HN ES   4    528 39.10                             102   -5.03 0  496 346 
 SMAR HZ I         528 43.99         5.0 0.18            103            496 346 
 JAMC HZ EP   2    528  0.35                             101   -0.07 2  557 225 
 JAMC HE ES        528 58.54                             101    0.93 3  557 225 
 JAMC HZ I         529  7.25         1.3 0.42            101            557 225 
                                                                                
