 2012  211 0411  6.0 L   6.782 -73.147153.5  RSN  8 0.3 1.6LRSN                1
 GAP=137        0.55       3.4     4.2  5.0 -0.9926E+00  0.8774E+00  0.2926E+01E
 ACTION:UP  12-03-07 16:29 OP:epov STATUS:               ID:20120211041106 L   I
 2012-02-11-0410-00M.COL___188                                                 6
 STAT SP IPHASW D HRMM SECON CODA AMPLIT PERI AZIMU VELO AIN AR TRES W  DIS CAZ7
 BAR2 SZ EP   2    411 26.38                             172   -0.12 5 21.3 191 
 BAR2 SZ ES   1    411 42.33                             172   -0.18 7 21.3 191 
 BAR2 SZ I         411 44.12         9.2 0.28                          21.3 191 
 GIR2 SZ EP   2    411 26.57                             167   -0.06 5 33.3 351 
 BRR  HZ EP        411 28.31                             153    0.2910 72.1 300 
 BRR  HZ I         411 28.53        18.9 0.16                          72.1 300 
 BRR  HE ES   1    411 45.63                             153    0.43 7 72.1 300 
 PAM  SZ EP        411 29.21                             152    0.0910 79.0  39 
 PAM  SE ES   2    411 46.63                             152   -0.54 5 79.0  39 
 RUS  HZ EP        411 30.34                             146   -0.0210 98.6 176 
 RUS  HN ES   2    411 49.30                             146   -0.07 5 98.6 176 
 RUS  HZ I         411 50.12         2.6 0.28                          98.6 176 
 PTB  HZ EP        411 33.15                             134   -0.39 9  147 260 
 PTB  HN ES   2    411 54.61                             134   -0.43 5  147 260 
 PTB  HZ I         412  1.77         6.7 0.36                           147 260 
 ZAR  HN ES   3    412  4.42                             124   -0.34 2  205 293 
 ZAR  HZ I         412 12.47         4.2 0.64                           205 293 
 CHI  HZ EP   2    411 44.07                             119    0.16 4  247 195 
 CHI  HE ES   1    412 13.83                             119    0.34 6  247 195 
 CHI  HZ I         412 21.09         1.7 0.64                           247 195 
                                                                                
