 2013  311 0650 15.2 L   6.764 -73.251157.0  RSN  4 0.2 1.5LRSN                1
 GAP=211        0.51       6.1     6.9  6.7  0.2452E+02 -0.3104E+01 -0.1223E+01E
 Epicentro: ZAPATOCA - SANTANDER                                               3
 ACTION:UPD 13-04-09 14:01 OP:ep   STATUS:               ID:20130311065015 L   I
 2013-03-11-0650-00M.COL___231                                                 6
 STAT SP IPHASW D HRMM SECON CODA AMPLIT PERI AZIMU VELO AIN AR TRES W  DIS CAZ7
 BAR2 SZ EP   1    650 35.60                             172   -0.50 7 20.4 158 
 BRR  HZ EP   1    650 37.36                             157    0.21 7 63.5 307 
 BRR  HN ES   1    650 54.36                             157    0.06 7 63.5 307 
 BRR  HN I         650 54.89        10.0 0.22            152           63.5 307 
 RUS  HZ EP   1    650 40.00                             147    0.13 7 98.1 169 
 RUS  HN ES   1    650 59.26                             147    0.12 7 98.1 169 
 RUS  HN I         651  1.18         1.6 0.56            143           98.1 169 
 PTB  HZ EP   1    650 42.11                             137    0.08 7  136 260 
 PTB  HN ES   2    651  2.75                             137   -0.24 5  136 260 
 PTB  HN I         651  8.31         5.5 0.48            132            136 260 
                                                                                
