 2017 1211 0943 29.3 L   6.801 -73.181141.1  RSN  7 0.5 1.8LRSN                1
 GAP=108        1.23       4.5     4.9  8.4  0.3252E+01  0.9771E+01  0.4489E+01E
 Epicentro: ZAPATOCA - SANTANDER                                               3
 ACTION:UPD 18-01-04 13:19 OP:rebc STATUS:               ID:20171211094329 L   I
 OLDACT:UP  17-12-11 18:22 OP:leo  STATUS:               ID:20171211093749d    3
 OLDACT:DUP 17-12-11 18:18 OP:leo  STATUS:               ID:20171211093749d    3
 OLDACT:REG 17-12-11 14:48 OP:edw  STATUS:               ID:20171211093747     3
 2017-12-11-0938-00M.COL___469                                                 6
 STAT SP IPHASW D HRMM SECON CODA AMPLIT PERI AZIMU VELO AIN AR TRES W  DIS CAZ7
 BAR2 EZ EP        943 48.20                             170   -0.1910 23.1 180 
 BAR2 EZ ES        944  2.41                             170   -0.8510 23.1 180 
 BAR2 EZ I         944  6.03        14.0 0.30            171           23.1 180 
 PAM  EZ EP        943 51.18                             149   -0.0210 79.9  42 
 PAM  EN ES        944  8.46                             149    0.2010 79.9  42 
 PAM  EZ I         944 11.29         8.0 0.28            153           79.9  42 
 PTB  HZ EP        943 55.07                             132   -0.50 9  144 258 
 PTB  HN ES        944 16.33                             132    0.30 9  144 258 
 PTB  HZ I         944 21.06         5.2 0.14            133            144 258 
 OCA  HZ EP        943 57.11                             129   -0.12 9  160 355 
 OCA  HN ES        944 19.27                             129    0.28 9  160 355 
 OCA  HZ I         944 22.00        17.1 0.24            132            160 355 
 SPBC HZ EP        943 57.23                             128   -0.01 9  161 218 
 YPLC HZ EP        943 58.64                             125   -0.34 9  179 150 
 YPLC HE ES        944 23.22                             125    1.10 9  179 150 
 YPLC HZ I         944 23.59         9.6 0.26            129            179 150 
 ZAR  HZ EP        944  0.78                             122   -0.31 9  200 293 
 ZAR  HN ES        944 26.62                             122    0.75 9  200 293 
 ZAR  HZ I         944 31.91         4.7 0.26            124            200 293 
                                                                                
