 2017  711 0850 14.2 L   6.784 -73.116141.5  RSN  6 0.5 1.5LRSN                1
 GAP=260        0.99       6.6     6.3  8.8 -0.1948E+01  0.2074E+02  0.1092E+02E
 Epicentro: LOS SANTOS - SANTANDER                                             3
 ACTION:UPD 17-08-30 15:32 OP:rebc STATUS:               ID:20170711085014 L   I
 OLDACT:UP  17-07-11 15:41 OP:dnl  STATUS:               ID:20170711084744d    3
 OLDACT:DUP 17-07-11 15:37 OP:dnl  STATUS:               ID:20170711084744d    3
 OLDACT:UP  17-07-11 15:36 OP:dnl  STATUS:               ID:20170711084743     3
 OLDACT:UP  17-07-11 15:35 OP:dnl  STATUS:               ID:20170711084743     3
 OLDACT:REG 17-07-11 13:10 OP:dnl  STATUS:               ID:20170711084743     3
 2017-07-11-0848-00M.COL___362                                                 6
 STAT SP IPHASW D HRMM SECON CODA AMPLIT PERI AZIMU VELO AIN AR TRES W  DIS CAZ7
 BAR2 EZ EP        850 33.37                             171    0.0610 22.5 199 
 BAR2 EZ ES        850 47.74                             171   -0.4710 22.5 199 
 BAR2 EZ I         850 49.55         8.9 0.16            171           22.5 199 
 BRR  HZ EP        850 35.34                             150    0.2310 74.9 299 
 BRR  HN ES        850 51.86                             150    0.4410 74.9 299 
 BRR  HZ I         850 55.98         5.8 0.40            148           74.9 299 
 PTB  HZ EP   2    850 40.49                             130   -0.61 5  151 260 
 PTB  HE ES        851  2.67                             130    0.60 9  151 260 
 PTB  HZ I         851  3.89         2.8 0.28            131            151 260 
 ZAR  HZ EP   2    850 46.72                             121   -0.04 4  208 292 
 ZAR  HE ES        851 11.36                             121   -0.79 8  208 292 
 ZAR  HZ I         851 17.79         4.1 0.24            121            208 292 
 NOR  HZ EP   2    850 50.75                             117    0.88 4  236 235 
 NOR  HE ES        851 17.57                             117   -0.12 8  236 235 
 NOR  HZ I         851 20.38         2.3 0.24            119            236 235 
 GUY2CHZ EP   4    850 59.12                             111    1.31 0  303 235 
 GUY2CHE ES        851 31.57                             111   -0.25 7  303 235 
 GUY2CHZ I         851 38.81         1.1 0.32                           303 235 
                                                                                
