 2016  811 0051 30.8 L   6.793 -73.135148.4  RSN  7 0.3 1.7LRSN                1
 GAP=138        0.86       3.8     3.7  5.8 -0.5197E+00  0.5349E+01 -0.1536E+01E
 Epicentro: LOS SANTOS - SANTANDER                                             3
 ACTION:UPD 16-10-29 15:34 OP:rebc STATUS:               ID:20160811005130 L   I
 OLDACT:UP  16-08-11 12:52 OP:dani STATUS:               ID:20160811004736     3
 OLDACT:REG 16-08-11 12:05 OP:dani STATUS:               ID:20160811004736     3
 2016-08-11-0048-00M.COL___380                                                 6
 STAT SP IPHASW D HRMM SECON CODA AMPLIT PERI AZIMU VELO AIN AR TRES W  DIS CAZ7
 BAR2 EZ EP        051 50.63                             171   -0.1410 22.8 193 
 BAR2 EZ ES        052  6.36                             171    0.0410 22.8 193 
 BAR2 EZ I         052  7.05         9.4 0.26                          22.8 193 
 BRR  HZ EP        051 52.42                             152    0.0810 72.6 299 
 BRR  HN ES        052  9.67                             152    0.5510 72.6 299 
 BRR  HZ I         052 11.06        11.7 0.60                          72.6 299 
 PAM  EZ EP        051 53.56                             151    0.2410 77.3  39 
 PAM  EE ES        052 10.36                             151   -0.5010 77.3  39 
 PAM  EZ I         052 13.04         9.1 0.44                          77.3  39 
 RUS  HZ EP        051 55.13                             145    0.3510 99.7 177 
 RUS  HE ES        052 13.40                             145   -0.0610 99.7 177 
 RUS  HZ I         052 14.53         7.6 0.32                          99.7 177 
 PTB  HZ EP        051 57.97                             132   -0.13 9  149 259 
 PTB  HE ES        052 19.69                             132    0.32 9  149 259 
 PTB  HZ I         052 24.07         3.6 0.44                           149 259 
 SPBC HN ES        052 21.49                             130   -0.45 9  163 219 
 SPBC HZ I         052 24.38         9.4 0.32                           163 219 
 ZAR  HZ EP        052  3.69                             123    0.10 8  205 292 
 ZAR  HN ES        052 28.56                             123   -0.58 8  205 292 
 ZAR  HZ I         052 34.28         5.2 0.28                           205 292 
 GUY2CHN ES   4    052 51.32                             113    2.55 0  302 235 
                                                                                
