 2016 1011 0149  3.3 L   6.848 -73.164134.0  RSN  6 0.4 1.4LRSN                1
 GAP=132        0.75       4.0     3.5  7.3 -0.1389E+01  0.9977E+01 -0.6878E+01E
 Epicentro: ZAPATOCA - SANTANDER                                               3
 ACTION:UPD 16-11-09 19:18 OP:rebc STATUS:               ID:20161011014903 L   I
 OLDACT:DUP 16-10-11 15:41 OP:ar   STATUS:               ID:20161011014743d    3
 OLDACT:REG 16-10-11 13:14 OP:ar   STATUS:               ID:20161011014742     3
 2016-10-11-0148-00M.COL___363                                                 6
 STAT SP IPHASW D HRMM SECON CODA AMPLIT PERI AZIMU VELO AIN AR TRES W  DIS CAZ7
 BAR2 EZ ES        149 35.80                             167   -0.1510 28.4 184 
 BRR  HZ EP   2    149 23.37                             152    0.42 5 67.0 295 
 BRR  HN ES   2    149 38.84                             152    0.57 5 67.0 295 
 BRR  HZ I         150  1.18        10.1 0.28            152           67.0 295 
 PAM  EZ EP        149 24.39                             149    0.2710 74.7  43 
 PAM  EN ES        149 40.03                             149   -0.3110 74.7  43 
 PAM  EZ I         149 43.22         6.2 0.64            155           74.7  43 
 RUS  HZ EP   2    149 26.10                             139   -0.25 5  106 175 
 RUS  HN ES        149 44.61                             139    0.2910  106 175 
 RUS  HZ I         149 45.80         3.2 0.34            156            106 175 
 PTB  HZ EP   2    149 28.43                             129   -0.83 5  147 257 
 PTB  HN ES        149 49.14                             129   -0.37 9  147 257 
 PTB  HZ I         149 52.55         3.5 0.14            137            147 257 
 ZAR  HZ EP   2    149 34.34                             120   -0.27 4  200 291 
 ZAR  HN ES        149 59.39                             120    0.36 9  200 291 
 ZAR  HZ I         150  1.37         2.5 0.30            127            200 291 
                                                                                
