 2011  211 0852 35.3 L   6.093 -74.202 15.4  RSN  4 0.3 1.5LRSN                1
 GAP=236        0.63       4.7     9.8  7.7 -0.2308E+02  0.2801E+02  0.9790E+01E
 Epicentro: CIMITARRA - SANTANDER                                              3
 ACTION:UP  11-03-28 15:07 OP:jfem STATUS:               ID:20110211085235 L   I
 2011-02-11-0851-12S.COL___136                                                 6
 STAT SP IPHASW D HRMM SECON CODA AMPLIT PERI AZIMU VELO SNR AR TRES W  DIS CAZ7
 BAR2 SZ EP   1    852 55.09                              95    -0.1 8  125  64 
 BAR2 SZ ES   2    853 10.39                              95    -0.3 5  125  64 
 BAR2 SZ I         853 12.01        12.4 0.27                           125  64 
 BTL  SZ EP        852 57.35                              95     0.310  138  48 
 BTL  SZ ES   2    853 14.46                              95     0.4 5  138  48 
 CHI  HZ EP   1    853  0.95                              56    -0.4 7  170 162 
 CHI  HZ I         853  1.63         3.2 0.13                           170 162 
 CHI  HE ES   2    853 22.06                              56     0.4 5  170 162 
 GRA  SZ EP   1    853 10.92                              56    -0.2 6  251  38 
 GRA  SZ ES   2    853 38.60                              56    -0.5 4  251  38 
 GRA  SZ I         853 41.27         3.6 0.35                           251  38 
                                                                                
