 2011  811 0920 58.7 L   6.767 -73.084148.6  RSN 15 0.4 3.1LRSN                1
 GAP=131        0.74       2.6     4.0  4.3 -0.4641E+01  0.1456E+01  0.1997E+01E
 Epicentro: LOS SANTOS - SANTANDER                                             3
 ACTION:UPD 12-07-13 15:51 OP:ep   STATUS:               ID:20110811092058 L   I
 2011-08-11-0919-30S.COL___150                                                 6
 STAT SP IPHASW D HRMM SECON CODA AMPLIT PERI AZIMU VELO AIN AR TRES W  DIS CAZ7
 BAR2 SZ EP        921 19.06                             171    0.3610 22.2 209 
 BAR2 SZ ES   1    921 33.30                             171   -0.96 7 22.2 209 
 BAR2 SZ I         921 37.08       314.5 0.37                          22.2 209 
 PAM  SZ EP   1    921 21.69                             152    0.49 7 76.2  34 
 PAM  SZ I         921 22.10       111.3 0.18                          76.2  34 
 PAM  SN ES   1    921 38.95                             152    0.24 7 76.2  34 
 BRR  HZ IP     C  921 20.88                             150    0.2310 78.9 299 
 BRR  HE ES   1    921 38.25                             150    0.51 7 78.9 299 
 BRR  HZ I         921 40.70       189.3 0.31                          78.9 299 
 RUS  HZ EP        921 22.83                             145    0.3310 96.7 180 
 RUS  HN ES   1    921 40.86                             145   -0.17 7 96.7 180 
 RUS  HZ I         921 42.93       106.8 0.26                          96.7 180 
 OCA  SZ EP        921 27.51                             129   -0.20 9  165 351 
 OCA  SZ ES   1    921 49.97                             129   -0.33 7  165 351 
 OCA  SZ I         921 56.79       116.9 0.37                           165 351 
 NOR  SZ EP        921 34.87                             119   -0.15 8  238 236 
 NOR  SN ES   1    922  2.96                             119   -0.35 6  238 236 
 CHI  HZ EP   1    921 36.89                             118    0.46 6  247 197 
 CHI  HE ES   1    922  5.46                             118   -0.36 6  247 197 
 CHI  HZ I         922 14.17        45.8 0.21                           247 197 
 VIL  SZ EP   1    921 41.51                             113   -0.54 5  301 193 
 VIL  SE ES   1    922 16.47                             113    0.64 5  301 193 
 VIL  SZ I         922 26.83        44.7 0.75                           301 193 
 RREF HZ EP   1    921 45.22                             111   -0.12 5  325 231 
 RREF HE ES   1    922 21.28                             111   -0.40 5  325 231 
 RREF HZ I         922 31.34        55.7 0.57                           325 231 
 TOL  SZ EP   1    921 47.60                             110    0.22 5  346 226 
 DBB  SZ EP   1    921 46.90                             109   -0.25 5  347 275 
 SDV  BZ EP        921 48.36                             109   -0.21 6  358  49 
 SDV  BZ I         921 49.56        29.2 0.33                           358  49 
 SDV  BE ES   1    922 26.53                             109   -0.90 5  358  49 
 ANIL HZ EP   2    921 49.38                             109    0.46 3  360 226 
 ANIL HE ES   2    922 27.88                             109   -0.18 3  360 226 
 ANIL HZ I         922 33.01       119.9 0.27                           360 226 
 PRA  HZ EP        921 52.25                             107   -0.15 6  392 211 
 PRA  HE ES   1    922 34.36                             107    0.12 4  392 211 
 SJA  SZ EP   2    921 52.36                             107   -0.81 3  398 194 
 SJA  SZ ES   2    922 35.43                             107   -0.18 3  398 194 
 SJA  SZ I         922 46.85       104.5 0.40                           398 194 
                                                                                
