 2017  211 0813  7.9 L   6.790 -73.133146.8  RSN  5 0.3 1.0LRSN                1
 GAP=139        0.74       4.0     5.1  5.4 -0.7468E+00  0.4614E+01  0.1122E+01E
 Epicentro: LOS SANTOS - SANTANDER                                             3
 ACTION:UPD 17-05-24 15:35 OP:jn   STATUS:               ID:20170211081307 L   I
 OLDACT:REG 17-02-11 13:01 OP:and  STATUS:               ID:20170211080739     3
 2017-02-11-0808-00M.COL___340                                                 6
 STAT SP IPHASW D HRMM SECON CODA AMPLIT PERI AZIMU VELO AIN AR TRES W  DIS CAZ7
 BAR2 EZ EP        813 27.36                             171   -0.2810 22.6 194 
 BAR2 EZ ES        813 42.62                             171   -0.4210 22.6 194 
 BAR2 EZ I         813 43.85         2.4 0.19            170           22.6 194 
 BRR  HZ EP        813 29.30                             152    0.0410 72.9 299 
 BRR  HN ES        813 46.31                             152    0.3910 72.9 299 
 BRR  HZ I         813 49.25         4.0 0.30            152           72.9 299 
 PAM  EZ IP     C  813 30.28                             151    0.0510 77.3  38 
 PAM  EN ES        813 47.62                             151   -0.0210 77.3  38 
 PAM  EZ I         813 47.67         1.1 0.37            154           77.3  38 
 RUS  HZ EP        813 31.56                             144   -0.1110 99.4 177 
 RUS  HN ES        813 50.66                             144    0.4410 99.4 177 
 RUS  HZ I         813 51.89         1.5 0.26            146           99.4 177 
 PTB  HZ EP        813 35.04                             132   -0.02 9  149 259 
 PTB  HN ES   3    813 54.91                             132   -1.33 2  149 259 
 PTB  HZ I         813 57.40         1.2 0.16            132            149 259 
                                                                                
