 2014  711 0050 10.5 L   6.843 -73.114135.7  RSN  8 0.5 1.9LRSN                1
 GAP= 71        1.36       5.0     5.1  8.1  0.1584E+01  0.3079E+01 -0.3368E+01E
 Epicentro: LOS SANTOS - SANTANDER                                             3
 ACTION:UPD 15-03-16 20:42 OP:nd   STATUS:               ID:20140711005010 L   I
 OLDACT:REG 14-07-11 12:22 OP:stll STATUS:               ID:20140711004816     3
 2014-07-11-0048-16M.COL___259                                                 6
 STAT SP IPHASW D HRMM SECON CODA AMPLIT PERI AZIMU VELO AIN AR TRES W  DIS CAZ7
 BAR2 SZ EP        050 28.98                             167   -0.0710 28.8 195 
 BAR2 SZ ES        050 43.06                             167   -0.4610 28.8 195 
 BAR2 SZ I         050 45.24        29.0 0.20            171           28.8 195 
 PAM  SZ EP        050 32.04                             151    0.7610 71.4  40 
 PAM  SE ES        050 47.07                             151   -0.4310 71.4  40 
 PAM  SZ I         050 50.81        26.6 0.46            152           71.4  40 
 BRR  HZ EP        050 30.97                             150    0.3410 72.3 294 
 BRR  HE ES        050 47.63                             150    1.3010 72.3 294 
 BRR  HZ I         050 50.98        17.1 0.58            151           72.3 294 
 RUS  HZ EP        050 33.70                             140    0.0810  105 178 
 RUS  HN ES        050 51.38                             140   -0.2910  105 178 
 RUS  HZ I         050 53.20         6.0 0.24            145            105 178 
 PTB  HZ EP        050 36.51                             129   -0.57 9  152 257 
 PTB  HE ES        050 57.72                             129   -0.10 9  152 257 
 PTB  HZ I         051  0.81         6.1 0.30            132            152 257 
 TAM  HZ EP        050 37.52                             129    0.33 9  153 107 
 OCA  HZ EP        050 37.60                             128   -0.02 9  156 352 
 OCA  HN ES        050 58.05                             128   -0.74 9  156 352 
 OCA  HZ I         051  5.34         8.7 0.32            130            156 352 
 ZAR  HZ EP        050 42.21                             120   -0.25 8  206 291 
 ZAR  HN ES        051  7.23                             120   -0.17 8  206 291 
 ZAR  HZ I         051  9.73         9.3 0.26            122            206 291 
                                                                                
