 2010  311 0109 30.4 L   6.036 -73.973100.7  RSN  5 0.2 1.5LRSN                1
 GAP=131        0.50       3.3     3.1  9.5 -0.2356E+01  0.1461E+02  0.9576E+01E
 Epicentro: EL PEON - SANTANDER                                                3
 ACTION:UP  10-08-24 09:53 OP:vdl  STATUS:               ID:20100311010930 L   I
 2010-03-11-0100-00S.COL___090                                                 6
 STAT SP IPHASW D HRMM SECON CODA AMPLIT PERI AZIMU VELO SNR AR TRES W  DIS CAZ7
 RUS  BZ EP   1    1 9 49.62                             132    -0.4 8  100  99 
 RUS  BE ES   2    110  5.32                             132     0.1 5  100  99 
 RUS  BZ I         110  7.06         2.0 0.31                           100  99 
 BAR2 SZ IP        1 9 50.57                             129     0.310  107  55 
 BAR2 SZ ES   1    110  5.75                             129    -0.1 7  107  55 
 BRR  HZ IP        1 9 51.32                             125    -0.110  122  14 
 BRR  HN ES   1    110  7.97                             125     0.1 7  122  14 
 BRR  HZ I         110  8.93        12.9 0.44                           122  14 
 HEL  HZ EP   2    1 9 57.22                             115    -0.1 5  173 276 
 HEL  HN ES   2    110 18.14                             115    -0.2 5  173 276 
 HEL  HZ I         110 23.64         4.5 0.37                           173 276 
 RREF BZ EP        110  0.51                             111     0.1 9  197 231 
 RREF BE ES   2    110 23.99                             111     0.2 4  197 231 
 RREF BZ I         110 25.97         4.3 0.30                           197 231 
                                                                                
