 2011  111 0139 25.9 L   6.781 -73.169137.9  RSN 14 0.4 3.9LRSN                1
 GAP=158        0.78       2.8     3.8  5.8  0.1347E+00  0.9080E+01  0.2550E+00E
 Epicentro: LOS SANTOS - SANTANDER                                             3
 ACTION:UP  11-02-08 08:40 OP:pat  STATUS:               ID:20110111013926 L   I
 2011-01-11-0137-23S.COL___129                                                 6
 STAT SP IPHASW D HRMM SECON CODA AMPLIT PERI AZIMU VELO SNR AR TRES W  DIS CAZ7
 BAR2 SZ EP   1    139 44.71                             171     0.2 7   21 184 
 BAR2 SZ ES   1    139 59.12                             171     0.0 7   21 184 
 BAR2 SZ I         140  0.52      4145.2 0.28                            21 184 
 RUS  HZ EP        139 48.72                             143     0.010   99 174 
 RUS  HN ES   1    140  6.37                             143    -0.2 7   99 174 
 RUS  HZ I         140  8.82       803.9 0.44                            99 174 
 OCA  SZ IP        139 53.35                             127    -0.4 9  162 354 
 OCA  SZ ES   1    140 16.03                             127     0.5 7  162 354 
 OCA  SZ I         140 20.32      2994.5 0.28                           162 354 
 YOP  SZ IP        139 55.52                             125     0.2 9  178 152 
 YOP  SN ES   1    140 17.98                             125    -0.3 7  178 152 
 YOP  SZ I         140 22.46       749.7 0.34                           178 152 
 NOR  SZ EP        140  0.77                             117    -0.1 8  232 235 
 NOR  SN ES   1    140 28.49                             117     0.4 6  232 235 
 CHI  HZ EP   1    140  3.02                             116     0.1 6  246 195 
 CHI  HN ES   1    140 31.45                             116    -0.3 6  246 195 
 CHI  HZ I         140 39.12       371.2 0.35                           246 195 
 ROSC BE ES   1    140 33.26                             115     0.9 6  250 211 
 ROSC BZ I         140 41.21       671.3 0.43                           250 211 
 HEL  HZ EP        140  5.30                             113    -0.1 8  269 256 
 HEL  HE ES   1    140 35.88                             113    -0.3 6  269 256 
 HEL  HZ I         140 43.89       614.6 0.49                           269 256 
 VIL  SZ EP   2    140  7.93                             111    -0.6 4  299 189 
 VIL  SZ I         140 52.13       357.1 0.70                           299 189 
 RREF HZ EP   1    140 11.78                             110     0.4 5  318 229 
 RREF HN ES   1    140 46.15                             110    -0.6 5  318 229 
 RREF HZ I         140 59.24       340.5 0.29                           318 229 
 DBB  SZ IP        140 13.12                             108     0.3 7  337 275 
 DBB  SZ ES   1    140 48.74                             108    -0.6 5  337 275 
 TOL  SZ EP   2    140 14.37                             108     0.9 3  340 225 
 PRA  HZ EP   1    140 18.23                             105    -0.6 4  389 209 
 PRA  HE ES   1    140 59.93                             105    -0.1 4  389 209 
 HORQ SZ EP        140 36.43                             100     0.7 4  529 227 
 HORQ SZ I         141 41.08        44.0 0.64                           529 227 
                                                                                
