 2017 1211 0751 53.6 L   6.865 -73.104143.9  RSN  5 0.4 1.1LRSN                1
 GAP=156        1.03       6.5     6.1  9.7 -0.6717E+01  0.2770E+02  0.9425E+01E
 Epicentro: LOS SANTOS - SANTANDER                                             3
 ACTION:UPD 18-01-04 13:19 OP:rebc STATUS:               ID:20171211075153 L   I
 OLDACT:UP  17-12-11 17:06 OP:leo  STATUS:               ID:20171211074740     3
 OLDACT:REG 17-12-11 14:41 OP:edw  STATUS:               ID:20171211074740     3
 2017-12-11-0748-00M.COL___460                                                 6
 STAT SP IPHASW D HRMM SECON CODA AMPLIT PERI AZIMU VELO AIN AR TRES W  DIS CAZ7
 BAR2 EZ EP        752 13.61                             167    0.4410 31.4 196 
 BAR2 EZ ES        752 28.52                             167    0.0610 31.4 196 
 PAM  EZ EP   4    752 13.04                             153   -2.06 0 68.9  40 
 PAM  EN ES        752 31.69                             153   -0.2110 68.9  40 
 PTB  HZ EP        752 20.66                             130   -0.29 9  154 257 
 PTB  HN ES        752 41.59                             130   -0.71 9  154 257 
 PTB  HZ I         752 47.10         0.9 0.20            130            154 257 
 SPBC HZ EP        752 22.48                             127   -0.27 9  172 219 
 SPBC HE ES        752 45.94                             127    0.43 9  172 219 
 SPBC HZ I         752 47.97         2.2 0.18            128            172 219 
 ZAR  HN ES        752 52.03                             122    0.60 8  206 290 
                                                                                
