 2016  611 0832  9.4 L   6.808 -73.051153.3  RSN 14 0.5 2.0LRSN                1
 GAP=127        1.18       3.5     5.4  7.7 -0.2894E+01  0.1142E+01  0.9978E+01E
 Epicentro: LOS SANTOS - SANTANDER                                             3
 ACTION:UPD 16-07-21 22:17 OP:rebc STATUS:               ID:20160611083209 L   I
 OLDACT:UP  16-06-11 20:06 OP:dani STATUS:               ID:20160611082744d    3
 OLDACT:UP  16-06-11 20:05 OP:dani STATUS:               ID:20160611082744d    3
 OLDACT:UP  16-06-11 20:04 OP:dani STATUS:               ID:20160611082744d    3
 OLDACT:UP  16-06-11 19:59 OP:dani STATUS:               ID:20160611082744d    3
 OLDACT:UP  16-06-11 19:59 OP:dani STATUS:               ID:20160611082744d    3
 OLDACT:DUP 16-06-11 19:54 OP:dani STATUS:               ID:20160611082744d    3
 OLDACT:UP  16-06-11 19:53 OP:dani STATUS:               ID:20160611082743     3
 OLDACT:UP  16-06-11 19:53 OP:dani STATUS:               ID:20160611082743     3
 OLDACT:UP  16-06-11 19:52 OP:dani STATUS:               ID:20160611082743     3
 OLDACT:REG 16-06-11 13:27 OP:dani STATUS:               ID:20160611082743     3
 2016-06-11-0827-43M.COL___331                                                 6
 STAT SP IPHASW D HRMM SECON CODA AMPLIT PERI AZIMU VELO AIN AR TRES W  DIS CAZ7
 BAR2 EZ EP     D  832 29.76                             169   -0.2610 27.9 211 
 BAR2 EZ I         832 46.46        17.9 0.24                          27.9 211 
 PAM  EZ EP     D  832 32.79                             154    0.7610 70.4  33 
 PAM  EE ES        832 50.21                             154    0.5210 70.4  33 
 PAM  EZ I         832 52.19        23.3 0.72                          70.4  33 
 BRR  HZ EP        832 31.54                             151   -0.3310 80.2 294 
 BRR  HE ES        832 48.86                             151   -0.5410 80.2 294 
 BRR  HZ I         832 51.79        17.1 0.28                          80.2 294 
 RUS  HZ EP     C  832 33.80                             145   -0.1410  101 182 
 RUS  HE ES        832 53.54                             145    0.4610  101 182 
 PTB  HZ EP   4    832 36.68                             132   -1.24 0  158 259 
 PTB  HN ES   4    832 57.82                             132   -2.35 0  158 259 
 PTB  HZ I         833  4.73        11.8 0.44                           158 259 
 OCA  HZ EP        832 38.07                             131   -0.29 9  161 349 
 OCA  HN ES        833  0.64                             131   -0.32 9  161 349 
 OCA  HZ I         833  4.97        13.5 0.18                           161 349 
 SPBC HZ EP   4 C  832 38.71                             129   -0.46 0  171 222 
 SPBC HE ES        833  1.61                             129   -0.79 9  171 222 
 SPBC HZ I         833  8.64         7.0 0.22                           171 222 
 NOR  HN ES   4    833 17.72                             119    2.22 0  244 236 
 CHI  HZ EP        832 48.09                             118    0.17 8  252 197 
 CHI  HN ES        833 17.66                             118   -0.32 8  252 197 
 CHI  HZ I         833 20.86         4.4 0.34                           252 197 
 ROSC BN ES   4    833 24.33                             117    5.13 0  259 213 
 HEL  HE ES        833 25.02                             115    1.32 7  282 256 
 PTGC HZ EP        832 52.99                             113   -0.29 7  306 161 
 PTGC HE ES   4    833 26.64                             113   -0.87 0  306 161 
 PTGC HN ES        833 27.40                             113   -0.11 7  306 161 
 PTGC HZ I         833 28.98         5.2 0.40                           306 161 
 GUY2CHZ EP   4    832 56.40                             113    2.02 0  310 236 
 GUY2CHN ES   4    833 33.67                             113    4.21 0  310 236 
 GUY2CHZ I         833 34.95         2.4 0.28                           310 236 
 PRA  HZ EP        833  4.20                             107    0.32 6  398 211 
 PRA  HE ES        833 46.47                             107    0.09 6  398 211 
 PRA  HZ I         833 48.68         3.8 0.30                           398 211 
 ORTC HN ES        833 47.62                             107    0.34 6  402 217 
 SJC  HZ EP   4    833  3.96                             107   -1.84 0  414 326 
 SJC  HN ES   4    833 45.53                             107   -4.27 0  414 326 
 SJC  HZ I         834  0.32         1.7 0.56                           414 326 
                                                                                
