 2012  411 0828 45.5 L   6.811 -73.358123.2  RSN  5 0.2 1.6LRSN                1
 GAP=140        0.64       3.5     4.2  4.7  0.5378E+01  0.4213E+00 -0.2533E+01E
 Epicentro: ZAPATOCA - SANTANDER                                               3
 ACTION:UPD 12-07-05 11:52 OP:tino STATUS:               ID:20120411082845 L   I
 2012-04-11-0820-00M.COL___176                                                 6
 STAT SP IPHASW D HRMM SECON CODA AMPLIT PERI AZIMU VELO AIN AR TRES W  DIS CAZ7
 BAR2 SZ EP        829  2.85                             165     0.310   31 141 
 BAR2 SZ I         829  3.09        14.7 0.15                            31 141 
 BAR2 SZ ES        829 15.63                             165    -0.310   31 141 
 BRR  HZ EP        829  3.25                             156     0.210   51 310 
 BRR  HN ES        829 16.96                             156     0.210   51 310 
 BRR  HZ I         829 18.19         7.1 0.18                            51 310 
 RUS  HZ EP        829  7.64                             137     0.110  106 163 
 RUS  HE ES        829 24.69                             137     0.010  106 163 
 PTB  HZ EP        829  8.24                             131    -0.310  125 256 
 PTB  HE ES   1    829 26.51                             131     0.0 7  125 256 
 OCA  SZ EP        829 11.65                             124    -0.2 9  158   2 
                                                                                
