 2013  411 0822 15.9 L   6.795 -73.164148.1  RSN  8 0.5 2.2LRSN                1
 GAP=137        1.21       4.2     5.6  7.2 -0.2312E+01  0.1633E+01 -0.6054E+01E
 Epicentro: LOS SANTOS - SANTANDER                                             3
 ACTION:UPD 13-05-22 14:37 OP:EP   STATUS:               ID:20130411082215 L   I
 2013-04-11-0818-49M.COL___212                                                 6
 STAT SP IPHASW D HRMM SECON CODA AMPLIT PERI AZIMU VELO AIN AR TRES W  DIS CAZ7
 BAR2 SZ EP        822 35.81                             171    0.0310 22.5 185 
 BAR2 SZ ES        822 51.37                             171    0.0810 22.5 185 
 BAR2 SZ I         822 51.73        19.7 0.18            172           22.5 185 
 GIR2 SZ EP        822 35.99                             167    0.1510 31.6 354 
 GIR2 SZ ES        822 50.99                             167   -0.4210 31.6 354 
 BRR  HZ IP     D  822 37.80                             153    0.5910 69.8 300 
 BRR  HN ES        822 54.96                             153    1.1210 69.8 300 
 BRR  HN I         822 59.13        28.7 0.16            152           69.8 300 
 RUS  HZ EP        822 39.74                             144   -0.0910  100 175 
 RUS  HN ES        822 58.11                             144   -0.4010  100 175 
 RUS  HN I         822 59.68        23.4 0.32            148            100 175 
 PTB  HZ EP        822 42.61                             133   -0.25 9  146 259 
 PTB  HN ES        823  3.53                             133   -0.37 9  146 259 
 PTB  HN I         823  6.23        17.9 0.16            134            146 259 
 CAPV BZ EP        822 43.95                             132    0.33 9  151  38 
 CAPV BZ ES        823  5.39                             132    0.13 9  151  38 
 OCA  HN ES        823  5.79                             130   -0.87 9  161 354 
 OCA  HN I         823 10.84        37.9 0.44            131            161 354 
 SML  HZ EP        822 52.67                             118    0.06 8  243 336 
 SML  HN ES        823 20.90                             118   -0.36 8  243 336 
                                                                                
