 2017  111 0517 26.6 L   6.817 -73.130146.1  RSN 13 0.6 1.8LRSN                1
 GAP= 73        1.24       4.3     4.5  6.4  0.1220E+01  0.3291E+01  0.4676E+01E
 Epicentro: LOS SANTOS - SANTANDER                                             3
 ACTION:UPD 17-05-22 15:58 OP:jn   STATUS:               ID:20170111051726 L   I
 OLDACT:UP  17-01-11 15:56 OP:and  STATUS:               ID:20170111050745d    3
 OLDACT:UP  17-01-11 15:56 OP:and  STATUS:               ID:20170111050745d    3
 OLDACT:UP  17-01-11 15:54 OP:and  STATUS:               ID:20170111050745d    3
 OLDACT:UP  17-01-11 15:54 OP:and  STATUS:               ID:20170111050745d    3
 OLDACT:UP  17-01-11 15:52 OP:and  STATUS:               ID:20170111050745d    3
 OLDACT:DUP 17-01-11 15:50 OP:and  STATUS:               ID:20170111050745d    3
 OLDACT:UP  17-01-11 15:48 OP:and  STATUS:               ID:20170111050744     3
 OLDACT:UP  17-01-11 15:48 OP:and  STATUS:               ID:20170111050744     3
 OLDACT:UP  17-01-11 15:47 OP:and  STATUS:               ID:20170111050744     3
 OLDACT:UP  17-01-11 15:46 OP:and  STATUS:               ID:20170111050744     3
 OLDACT:UP  17-01-11 15:46 OP:and  STATUS:               ID:20170111050744     3
 OLDACT:UP  17-01-11 15:45 OP:and  STATUS:               ID:20170111050744     3
 OLDACT:UP  17-01-11 15:45 OP:and  STATUS:               ID:20170111050744     3
 OLDACT:UP  17-01-11 15:44 OP:and  STATUS:               ID:20170111050744     3
 OLDACT:UP  17-01-11 15:44 OP:and  STATUS:               ID:20170111050744     3
 OLDACT:UP  17-01-11 15:44 OP:and  STATUS:               ID:20170111050744     3
 OLDACT:UP  17-01-11 15:43 OP:and  STATUS:               ID:20170111050744     3
 OLDACT:UP  17-01-11 15:41 OP:and  STATUS:               ID:20170111050744     3
 OLDACT:UP  17-01-11 15:41 OP:and  STATUS:               ID:20170111050744     3
 OLDACT:UP  17-01-11 15:41 OP:and  STATUS:               ID:20170111050744     3
 OLDACT:UP  17-01-11 15:39 OP:and  STATUS:               ID:20170111050744     3
 OLDACT:UP  17-01-11 15:39 OP:and  STATUS:               ID:20170111050744     3
 OLDACT:UP  17-01-11 15:39 OP:and  STATUS:               ID:20170111050744     3
 OLDACT:UP  17-01-11 15:37 OP:and  STATUS:               ID:20170111050744     3
 OLDACT:UP  17-01-11 15:37 OP:and  STATUS:               ID:20170111050744     3
 OLDACT:UP  17-01-11 15:36 OP:and  STATUS:               ID:20170111050744     3
 OLDACT:UP  17-01-11 15:36 OP:and  STATUS:               ID:20170111050744     3
 OLDACT:REG 17-01-11 12:44 OP:and  STATUS:               ID:20170111050744     3
 2017-01-11-0508-00M.COL___346                                                 6
 STAT SP IPHASW D HRMM SECON CODA AMPLIT PERI AZIMU VELO AIN AR TRES W  DIS CAZ7
 BAR2 EZ EP        517 46.31                             170   -0.0310 25.5 193 
 BAR2 EZ ES        518  1.13                             170   -0.5910 25.5 193 
 BAR2 EZ I         518  4.22        22.6 0.32            167           25.5 193 
 BRR  HZ EP        517 48.22                             152    0.3710 71.9 297 
 BRR  HN ES        518  5.05                             152    0.6510 71.9 297 
 BRR  HZ I         518  9.21        12.4 0.28            152           71.9 297 
 PAM  EZ EP        517 49.16                             152    0.4410 74.8  39 
 PAM  EN ES        518  5.56                             152   -0.4010 74.8  39 
 PAM  EZ I         518  8.60         8.7 0.42            157           74.8  39 
 RUS  HZ EP        517 50.36                             143   -0.1810  102 177 
 RUS  HN ES        518  9.54                             143    0.3510  102 177 
 RUS  HZ I         518 10.33         8.7 0.36            143            102 177 
 PTB  HZ EP        517 53.10                             132   -0.71 9  150 258 
 PTB  HN ES     D  518 14.25                             132   -0.77 9  150 258 
 PTB  HZ I         518 16.78         6.5 0.12            132            150 258 
 TAM  HZ IP     D  517 54.83                             131    0.61 9  154 106 
 ZAR  HZ EP        517 59.54                             122    0.35 9  205 291 
 ZAR  HN ES        518 24.80                             122    0.21 9  205 291 
 ZAR  HZ I         518 29.64         5.3 0.24            123            205 291 
 CHI  HZ EP        518  4.79                             117    0.20 8  251 195 
 CHI  HN ES        518 34.15                             117   -0.05 8  251 195 
 CHI  HZ I         518 43.89         2.8 0.36            118            251 195 
 ROSC BZ EP   4    518  7.09                             116    2.05 0  255 211 
 ROSC BN ES        518 35.46                             116    0.46 8  255 211 
 ROSC BZ I         518 44.64         6.3 0.40            117            255 211 
 GUY2CHZ EP   3 C  518 11.83                             112    1.29 2  304 235 
 GUY2CHE ES   4    518 48.54                             112    3.75 0  304 235 
 GUY2CHZ I         518 52.43         3.6 0.34                           304 235 
 PTGC HZ EP        518  9.54                             111   -1.08 7  310 159 
 PTGC HN ES   4    518 43.04                             111   -1.90 0  310 159 
 PTGC HZ I         518 44.88         5.2 0.56            113            310 159 
 LL6C HZ EP   9    517 53.14                             110   -19.0 0  323 357 
 LL6C HN ES   4    518 30.07                                    1.43 0  323 357 
 CBOC HZ EP        518 14.32                             110    0.51 7  336 252 
 SJC  HZ EP        518 20.93                             106   -1.19 6  409 327 
 SJC  HN ES   4    519  0.63                             106   -4.78 0  409 327 
                                                                                
