 2011  711 0932 34.0 L   5.902 -73.939 92.8  RSN  6 0.3 1.7LRSN                1
 GAP=113        0.59       2.8     2.2  7.4 -0.2129E+01  0.3710E+01  0.2081E+01E
 Epicentro: LA BELLEZA - SANTANDER                                             3
 ACTION:UPD 12-07-25 14:00 OP:epov STATUS:               ID:20110711093234 L   I
 2011-07-11-0920-00M.COL___130                                                 6
 STAT SP IPHASW D HRMM SECON CODA AMPLIT PERI AZIMU VELO AIN AR TRES W  DIS CAZ7
 RUS  HZ EP   1    932 52.48                             131   -0.03 8 94.8  91 
 RUS  HN ES   1    933  6.63                             131   -0.30 8 94.8  91 
 RUS  HZ I         933 13.49         2.4 0.60                          94.8  91 
 NOR  SZ EP   1    932 52.87                             126   -0.48 8  110 250 
 NOR  SE ES   1    933  8.40                             126   -0.02 8  110 250 
 BAR2 SZ EP        932 54.04                             126    0.0710  113  48 
 BAR2 SZ ES   1    933  9.95                             126    0.43 7  113  48 
 BAR2 SZ I         933 12.38        13.0 0.53                           113  48 
 BRR  HZ EP        932 55.67                             120   -0.3010  136  11 
 BRR  HZ I         932 56.99        15.8 0.11                           136  11 
 BRR  HN ES   1    933 13.26                             120    0.18 7  136  11 
 HEL  HZ EP   1    933  1.50                             113    0.28 7  179 280 
 HEL  HE ES        933 22.48                             113    0.05 9  179 280 
 HEL  HZ I         933 27.54         6.0 0.32                           179 280 
 PRA  HZ EP   1    933 10.73                             105   -0.02 6  264 204 
 PRA  HN ES   1    933 39.94                             105    0.55 6  264 204 
 PRA  HZ I         933 43.97        10.7 0.18                           264 204 
                                                                                
