 2010 1211 0903 10.2 L   6.533 -73.448117.1  RSN  6 0.4 1.9LRSN                1
 GAP=214        0.79       6.5    30.5 12.1 -0.3869E+02  0.2292E+03 -0.3572E+02E
 Epicentro: SIMACOTA - SANTANDER                                               3
 ACTION:UP  11-01-14 15:24 OP:pat  STATUS:               ID:20101211090310 L   I
 2010-12-11-0859-20S.COL___136                                                 6
 STAT SP IPHASW D HRMM SECON CODA AMPLIT PERI AZIMU VELO SNR AR TRES W  DIS CAZ7
 BAR2 SZ IP        9 3 26.90                             166     0.410   30  77 
 BAR2 SZ ES   1    9 3 39.30                             166     0.0 7   30  77 
 BAR2 SZ I         9 3 41.14        66.9 0.39                            30  77 
 GIR2 SZ EP   2    9 3 28.24                             149     0.1 5   67  25 
 RUS  HZ EP   1    9 3 29.97                             143     0.3 7   82 150 
 RUS  HE ES   2    9 3 44.16                             143    -0.8 5   82 150 
 RUS  HZ I         9 3 47.18         7.9 0.32                            82 150 
 GUE  SZ EP   2    9 3 35.98                             124    -0.1 5  155  22 
 GRA  SZ EP   2    9 3 36.52                             122    -0.4 5  166  25 
 GRA  SZ ES   2    9 3 58.03                             122     0.2 5  166  25 
 GRA  SZ I         9 4  0.99         7.9 0.39                           166  25 
 OCA  SZ EP   1    9 3 38.89                             118    -0.6 7  189   4 
 OCA  SZ I         9 4  7.76         8.5 0.27                           189   4 
                                                                                
