 2014 1011 0027 25.0 L   6.836 -73.131147.3  RSN  9 0.5 1.8LRSN                1
 GAP=137        1.15       4.8     5.4  8.3  0.2725E+01  0.8029E+01  0.1951E+01E
 Epicentro: LOS SANTOS - SANTANDER                                             3
 ACTION:UPD 14-11-29 23:48 OP:nd   STATUS:               ID:20141011002725 L   I
 OLDACT:REG 14-10-11 12:42 OP:fm   STATUS:               ID:20141011001741     3
 2014-10-11-0017-41M.COL___298                                                 6
 STAT SP IPHASW D HRMM SECON CODA AMPLIT PERI AZIMU VELO AIN AR TRES W  DIS CAZ7
 BAR2 SZ EP        027 45.18                             169    0.2810 27.6 192 
 BAR2 SZ ES   1    028  0.52                             169    0.10 7 27.6 192 
 BAR2 SZ I         028  1.67        26.3 0.12            172           27.6 192 
 BRR  HZ EP   1    027 45.18                             153   -1.10 7 70.9 295 
 BRR  HN ES        028  3.76                             153    0.8610 70.9 295 
 BRR  HZ I         028  9.32         9.3 0.30            152           70.9 295 
 PAM  SZ EP   1    027 47.03                             152   -0.10 7 73.2  41 
 PAM  SE ES   1    028  4.04                             152   -0.36 7 73.2  41 
 PAM  SZ I         028  7.39         7.5 0.50            154           73.2  41 
 RUS  HZ EP        027 49.22                             143    0.0510  105 177 
 RUS  HN ES        028  8.17                             143    0.1310  105 177 
 RUS  HZ I         028  9.65         6.5 0.40            148            105 177 
 PTB  HZ EP        027 52.08                             132   -0.22 9  150 257 
 PTB  HN ES        028 12.77                             132   -0.84 9  150 257 
 PTB  HZ I         028 15.05         8.2 0.16            134            150 257 
 SPBC HZ EP   1    027 54.25                             129    0.25 7  167 219 
 SPBC HN ES        028 16.46                             129   -0.17 9  167 219 
 SPBC HZ I         028 18.87         9.2 0.26            132            167 219 
 ZAR  HN ES        028 22.97                             123    0.04 9  204 291 
 ZAR  HZ I         028 29.12         4.8 0.14            124            204 291 
 SML  HN ES   1    028 30.04                             118    0.27 6  241 335 
 SML  HZ I         028 35.21         7.1 0.10            120            241 335 
 GUY2CHZ EP   1    028 10.16                             113    1.08 5  305 234 
 GUY2CHN ES   4    028 45.41                             113    1.94 0  305 234 
 GUY2CHZ I         028 50.28         1.8 0.22                           305 234 
                                                                                
