 2016 1211 0559 48.5 L   5.904 -73.607123.6  RSN  7 0.4 1.2LRSN                1
 GAP= 96        1.05       3.0     5.1  8.3  0.2291E+01  0.2181E+02  0.6034E+01E
 Epicentro: BARBOSA - SANTANDER                                                3
 ACTION:UPD 17-01-11 20:14 OP:rebc STATUS:               ID:20161211055948 L   I
 OLDACT:REG 16-12-11 12:55 OP:edw  STATUS:               ID:20161211055743     3
 2016-12-11-0558-00M.COL___370                                                 6
 STAT SP IPHASW D HRMM SECON CODA AMPLIT PERI AZIMU VELO AIN AR TRES W  DIS CAZ7
 RUS  HZ EP        6 0  7.28                             154    0.0610 58.0  91 
 RUS  HE ES        6 0 21.29                             154   -0.5410 58.0  91 
 RUS  HZ I         6 0 22.75         2.4 0.24            159           58.0  91 
 BAR2 EZ EP        6 0  9.01                             142    0.1010 89.4  32 
 BAR2 EZ ES        6 0 24.85                             142    0.0110 89.4  32 
 PTB  HZ EP        6 0 10.41                             133   -0.4910  117 307 
 PTB  HN ES        6 0 28.56                             133    0.1810  117 307 
 PTB  HZ I         6 0 30.60         2.1 0.18            134            117 307 
 BRR  HZ EP        6 0 12.37                             129    0.0110  134 355 
 BRR  HN ES        6 0 30.91                             129   -0.0610  134 355 
 CHI  HZ EP        6 0 14.30                             128    0.61 9  142 186 
 CHI  HN ES        6 0 34.00                             128    0.66 9  142 186 
 CHI  HZ I         6 0 36.18         1.4 0.13            129            142 186 
 ZAR  HZ EP        6 0 22.29                             115    0.55 8  224 322 
 ZAR  HE ES        6 0 47.69                             115    0.02 8  224 322 
 ZAR  HZ I         6 0 52.78         1.8 0.18            116            224 322 
 PRA  HZ EP        6 0 27.51                             109   -0.75 7  281 210 
 PRA  HN ES        6 0 58.55                             109   -0.73 7  281 210 
 PRA  HZ I         6 1  3.60         2.4 0.22            110            281 210 
                                                                                
