 2013  711 0846 57.4 L   6.829 -73.127138.0  RSN  8 0.5 1.7LRSN                1
 GAP=185        0.99       3.6     5.2  6.8  0.3606E+01  0.2057E+01 -0.6161E+01E
 Epicentro: LOS SANTOS - SANTANDER                                             3
 ACTION:UPD 13-08-12 10:37 OP:ep   STATUS:               ID:20130711084657 L   I
 OLDACT:REG 13-07-11 07:38 OP:nd   STATUS:               ID:20130711083959     3
 2013-07-11-0839-59M.COL___266                                                 6
 STAT SP IPHASW D HRMM SECON CODA AMPLIT PERI AZIMU VELO AIN AR TRES W  DIS CAZ7
 BAR2 SZ IP     C  847 16.25                             168    0.0410 26.9 193 
 BAR2 SZ ES   2    847 30.28                             168   -0.57 5 26.9 193 
 BAR2 SZ I         847 34.82         5.1 0.14            170           26.9 193 
 GIR2 SZ EP        847 16.23                             168    0.1310 28.6 345 
 GIR2 SZ ES        847 30.06                             168   -0.6110 28.6 345 
 GIR2 SZ I         847 33.19         8.4 0.22            164           28.6 345 
 BRR  HZ IP     C  847 18.23                             151    0.4710 71.6 295 
 BRR  HN ES   1    847 34.51                             151    0.89 7 71.6 295 
 BRR  HZ I         847 38.54        11.4 0.30            149           71.6 295 
 RUS  HZ EP        847 20.59                             141   -0.0710  104 177 
 RUS  HN ES        847 38.89                             141    0.1210  104 177 
 RUS  HZ I         847 40.08         4.8 0.46            147            104 177 
 PTB  HZ EP   2    847 23.28                             129   -0.74 5  150 258 
 PTB  HN ES        847 44.37                             129   -0.39 9  150 258 
 PTB  HZ I         847 50.08         8.4 0.40            131            150 258 
 OCA  HZ EP        847 25.42                             128    0.55 9  157 352 
 OCA  HN ES        847 46.17                             128   -0.10 9  157 352 
 OCA  HZ I         847 51.98         8.5 0.30            130            157 352 
 ZAR  HZ EP   2    847 28.46                             120   -0.99 4  205 291 
 ZAR  HE ES        847 54.82                             120    0.39 9  205 291 
 ZAR  HZ I         848  0.30         9.0 0.46            122            205 291 
 SML  HZ EP        847 33.16                             116   -0.25 8  242 335 
 SML  HN ES        848  1.05                             116   -0.42 8  242 335 
 SML  HZ I         848 10.31        11.4 0.10            118            242 335 
                                                                                
