 2017  411 0051 48.6 L   6.776 -73.192141.7  RSN  4 0.2 1.2LRSN                1
 GAP=132        0.60       3.2     3.7  5.6  0.8369E+00  0.5464E+01 -0.1594E+01E
 Epicentro: ZAPATOCA - SANTANDER                                               3
 ACTION:UPD 17-05-30 21:10 OP:jn   STATUS:               ID:20170411005148 L   I
 OLDACT:UP  17-04-11 14:55 OP:edw  STATUS:               ID:20170411004707     3
 OLDACT:REG 17-04-11 11:43 OP:edw  STATUS:               ID:20170411004707     3
 2017-04-11-0048-00M.COL___368                                                 6
 STAT SP IPHASW D HRMM SECON CODA AMPLIT PERI AZIMU VELO AIN AR TRES W  DIS CAZ7
 BAR2 EZ EP        052  7.49                             171   -0.1510 20.4 177 
 BAR2 EZ ES        052 22.32                             171   -0.2010 20.4 177 
 BAR2 EZ I         052 23.66         3.9 0.46            171           20.4 177 
 PAM  EZ EP     D  052 10.37                             148   -0.3010 82.7  41 
 PAM  EN ES        052 28.20                             148    0.2810 82.7  41 
 PAM  EZ I         052 28.91         2.6 0.38            150           82.7  41 
 RUS  HZ EP        052 12.02                             144    0.2710 98.5 173 
 RUS  HN ES        052 29.88                             144    0.0310 98.5 173 
 RUS  HZ I         052 31.21         2.7 0.20            144           98.5 173 
 ZAR  HZ EP   4    052 22.60                             122    2.25 0  200 293 
 ZAR  HN ES        052 45.24                             122    0.09 9  200 293 
                                                                                
