 2017  311 0440 42.8 L   6.814 -73.080144.0  RSN  7 0.5 1.1LRSN                1
 GAP=144        0.92       4.6     4.8  6.6  0.3176E+01 -0.7636E+00 -0.1264E+01E
 Epicentro: LOS SANTOS - SANTANDER                                             3
 ACTION:UPD 17-05-25 18:39 OP:jn   STATUS:               ID:20170311044042 L   I
 OLDACT:UP  17-03-11 14:29 OP:and  STATUS:               ID:20170311043741     3
 OLDACT:UP  17-03-11 14:29 OP:and  STATUS:               ID:20170311043741     3
 OLDACT:UP  17-03-11 14:29 OP:and  STATUS:               ID:20170311043741     3
 OLDACT:REG 17-03-11 12:35 OP:and  STATUS:               ID:20170311043741     3
 2017-03-11-0438-00M.COL___394                                                 6
 STAT SP IPHASW D HRMM SECON CODA AMPLIT PERI AZIMU VELO AIN AR TRES W  DIS CAZ7
 BAR2 EZ IP     D  441  2.00                             169   -0.2510 27.0 205 
 BAR2 EZ ES        441 16.79                             169   -0.6710 27.0 205 
 PAM  EZ IP     C  441  4.93                             152    0.4810 71.7  36 
 PAM  EN ES        441 21.34                             152   -0.0310 71.7  36 
 BRR  HZ EP        441  4.11                             150    0.0610 77.0 295 
 BRR  HN ES        441 20.99                             150    0.3310 77.0 295 
 RUS  HZ EP        441  6.34                             143   -0.0910  102 180 
 RUS  HN ES        441 25.17                             143    0.2810  102 180 
 PTB  HZ EP   9    441  8.82                             130   -1.44 0  155 259 
 PTB  HN ES        441 29.92                             131   -0.36 9  155 259 
 PTB  HZ I         441 34.48         1.1 0.16            128            155 259 
 SPBC HZ EP   3    441 10.78                             127   -0.90 2  169 221 
 SPBC HN ES   3    441 36.48                             127    2.24 2  169 221 
 SPBC HZ I         441 38.26         1.8 0.14            126            169 221 
 ZAR  HN ES        441 41.21                             121   -0.24 8  210 291 
                                                                                
