 2014  411 0308  8.9 L   6.936 -73.128120.9  RSN  6 0.3 1.7LRSN                1
 GAP=204        0.72       3.2     4.4 10.6  0.4977E+01  0.1345E+01 -0.1072E+02E
 Epicentro: PIEDECUESTA - SANTANDER                                            3
 ACTION:UPD 14-05-13 23:07 OP:nd   STATUS:               ID:20140411030808 L   I
 OLDACT:UP  14-04-15 04:25 OP:CAM  STATUS:               ID:20140411030808 L   3
 OLDACT:UP  14-04-11 16:49 OP:stll STATUS:               ID:20140411025820d    3
 OLDACT:DUP 14-04-11 16:31 OP:stll STATUS:               ID:20140411025820d    3
 2014-04-11-0258-19M.COL___246                                                 6
 STAT SP IPHASW D HRMM SECON CODA AMPLIT PERI AZIMU VELO AIN AR TRES W  DIS CAZ7
 RUS  HZ EP        3 8 31.33                             134   -0.2310  115 178 
 RUS  HN ES        3 8 49.33                             134    0.1010  115 178 
 PTB  HN ES        3 8 54.48                             124    0.00 9  153 253 
 PTB  HZ I         3 8 56.86         6.3 0.44            119            153 253 
 SPBC HE ES        3 8 58.98                             120    0.11 9  176 216 
 SPBC HZ I         3 9  3.30         4.2 0.44            116            176 216 
 ZAR  HN ES        3 9  3.51                             117    0.17 9  201 288 
 ZAR  HZ I         3 9 10.27         6.1 0.28            113            201 288 
 SML  HN ES        3 9  9.16                             113   -0.12 8  231 333 
 NOR  HZ EP        3 8 45.00                             112    0.50 8  245 232 
 NOR  HN ES   1    3 9 11.36                             112   -0.92 6  245 232 
 NOR  HZ I         3 9 18.24         3.7 0.18            108            245 232 
                                                                                
