 2011 1011 0255 19.9 L   6.773 -73.212136.0  RSN 14 0.4 2.4LRSN                1
 GAP=109        0.84       3.6     4.6  7.6 -0.1130E+01  0.1401E+02  0.5590E+01E
 Epicentro: ZAPATOCA - SANTANDER                                               3
 ACTION:UPD 12-07-13 16:03 OP:ep   STATUS:               ID:20111011025520 L   I
 2011-10-11-0240-00M.COL___171                                                 6
 STAT SP IPHASW D HRMM SECON CODA AMPLIT PERI AZIMU VELO AIN AR TRES W  DIS CAZ7
 BTL  SZ EP   1    255 38.50                             172    0.29 7 17.2 339 
 BAR2 SZ EP        255 38.25                             171   -0.0110 20.2 171 
 BAR2 SZ ES   2    255 52.75                             171    0.14 5 20.2 171 
 BAR2 SZ I         255 55.29        36.1 0.30                          20.2 171 
 GIR2 SZ EP   1    255 38.47                             165    0.01 7 33.9   4 
 BRR  HZ EP        255 40.21                             152    0.5210 66.4 304 
 BRR  HZ I         256  3.02        48.0 0.12                          66.4 304 
 PAM  SZ EP        255 41.14                             147   -0.3710 84.5  42 
 PAM  SN ES   1    255 58.19                             147   -0.21 7 84.5  42 
 RUS  HZ EP   1    255 42.22                             142   -0.28 7 98.4 172 
 RUS  HN ES   1    256  0.62                             142    0.46 7 98.4 172 
 RUS  HZ I         256  2.05        28.6 0.29                          98.4 172 
 OCA  SZ EP   1    255 48.34                             127    0.68 7  163 356 
 OCA  SZ I         256 15.65        40.6 0.41                           163 356 
 YOP  SZ EP   1    255 48.68                             124   -0.62 7  180 151 
 ZAR  HE ES   1    256 14.69                             121   -0.78 6  198 294 
 ZAR  HZ I         256 22.23        38.2 0.26                           198 294 
 NOR  SZ EP   1    255 53.61                             117   -0.59 6  227 234 
 CHI  HZ EP   1    255 56.42                             116   -0.10 6  244 194 
 CHI  HN ES   1    256 24.69                             116   -0.41 6  244 194 
 CHI  HZ I         256 31.45        17.2 0.36                           244 194 
 HEL  HZ EP   2    255 58.88                             113    0.17 4  264 256 
 HEL  HN ES   1    256 28.69                             113   -0.32 6  264 256 
 RREF HZ EP   1    256  5.53                             110    0.80 5  314 229 
 RREF HZ I         256 50.05        14.0 0.21                           314 229 
 PRA  HZ EP   1    256 12.90                             105    0.57 4  386 209 
 PRA  HE ES   1    256 53.82                             105    0.57 4  386 209 
                                                                                
