 2017  511 0449 22.2 L   6.750 -73.136145.7  RSN  5 0.4 1.0LRSN                1
 GAP=140        0.97       5.0     4.4  8.5  0.1420E+01  0.6714E+01  0.3523E+01E
 Epicentro: LOS SANTOS - SANTANDER                                             3
 ACTION:UPD 17-06-16 13:35 OP:jn   STATUS:               ID:20170511044922 L   I
 OLDACT:UP  17-05-11 18:48 OP:osc  STATUS:               ID:20170511043738d    3
 OLDACT:UP  17-05-11 18:47 OP:osc  STATUS:               ID:20170511043738d    3
 OLDACT:DUP 17-05-11 18:45 OP:osc  STATUS:               ID:20170511043738d    3
 OLDACT:UP  17-05-11 18:44 OP:osc  STATUS:               ID:20170511043737     3
 OLDACT:REG 17-05-11 13:13 OP:osc  STATUS:               ID:20170511043737     3
 2017-05-11-0438-00M.COL___356                                                 6
 STAT SP IPHASW D HRMM SECON CODA AMPLIT PERI AZIMU VELO AIN AR TRES W  DIS CAZ7
 BRR  HZ EP        449 43.88                             151    0.2910 74.9 302 
 BRR  HN ES        450  0.27                             151    0.0110 74.9 302 
 PAM  EZ EP        449 45.02                             150    0.3510 81.1  36 
 PAM  EN ES        450  1.81                             150   -0.3610 81.1  36 
 PAM  EZ I         450  3.23         2.3 0.36            153           81.1  36 
 RUS  HZ EP        449 44.96                             145   -0.6210 95.0 176 
 RUS  HN ES        450  4.30                             145    0.5010 95.0 176 
 RUS  HZ I         450  6.60         1.4 0.40            146           95.0 176 
 PTB  HZ EP        449 49.20                             132   -0.01 9  148 261 
 PTB  HN ES        450  9.84                             132   -0.41 9  148 261 
 PTB  HZ I         450 12.74         1.6 0.38            134            148 261 
 ZAR  HN ES        450 20.83                             122    0.27 8  207 293 
                                                                                
