 2013  611 0133 14.0 L   6.775 -73.192153.1  RSN  4 0.2 1.3LRSN                1
 GAP=196        0.55       3.1     4.9  5.5  0.4804E+01 -0.5547E+01 -0.4866E+01E
 Epicentro: VILLANUEVA - SANTANDER                                             3
 ACTION:UPD 14-01-08 09:53 OP:ep   STATUS:               ID:20130611013314 L   I
 OLDACT:REG 13-06-11 07:24 OP:cam  STATUS:               ID:20130611012959     3
 2013-06-11-0129-59M.COL___260                                                 6
 STAT SP IPHASW D HRMM SECON CODA AMPLIT PERI AZIMU VELO AIN AR TRES W  DIS CAZ7
 BRR  HZ EP        133 35.97                             155    0.1610 68.2 303 
 BRR  HE ES        133 52.99                             155    0.1810 68.2 303 
 BRR  HZ I         133 56.58         6.0 0.14            154           68.2 303 
 RUS  HZ EP   1    133 38.59                             146    0.24 7 98.3 173 
 RUS  HN ES   1    133 56.98                             146   -0.34 7 98.3 173 
 RUS  HZ I         133 58.70         2.3 0.34            148           98.3 173 
 PTB  HZ EP        133 41.26                             135    0.14 9  142 260 
 PTB  HN IS        134  2.05                             135            142 260 
 PTB  HN ES        134  2.05                             135   -0.19 9  142 260 
 PTB  HZ I         134  7.02         2.6 0.18            135            142 260 
 SML  HZ EP   1    133 50.66                             119   -0.46 6  244 337 
 SML  HE ES        134 19.94                             119   -0.11 8  244 337 
                                                                                
