 2012  911 0415 52.6 L   6.735 -73.139147.9  RSN  5 0.2 1.5LRSN                1
 GAP=185        0.40       3.8     4.2  5.3  0.6816E+01 -0.5385E+01 -0.5121E+01E
 Epicentro: JORDAN - SANTANDER                                                 3
 ACTION:UPD 12-10-22 14:18 OP:ep   STATUS:               ID:20120911041552 L   I
 2012-09-11-0410-00M.COL___227                                                 6
 STAT SP IPHASW D HRMM SECON CODA AMPLIT PERI AZIMU VELO AIN AR TRES W  DIS CAZ7
 BAR2 SZ EP   2    416 12.15                             173   -0.23 5 16.5 197 
 BAR2 SZ ES   2    416 27.39                             173   -0.41 5 16.5 197 
 BAR2 SZ I         416 31.00         5.8 0.31                          16.5 197 
 GIR2 SZ EP   1    416 12.79                             165    0.04 7 38.4 351 
 BRR  HZ EP        416 14.18                             152   -0.0510 75.5 303 
 BRR  HZ I         416 15.91         6.5 0.14                          75.5 303 
 BRR  HE ES   1    416 31.35                             152    0.25 7 75.5 303 
 RUS  HZ EP   1    416 16.18                             146    0.11 7 93.4 176 
 RUS  HN ES   1    416 34.46                             146    0.09 7 93.4 176 
 PTB  HE ES   1    416 40.72                             133   -0.12 7  147 262 
                                                                                
