 2013  311 0330 26.7 L   6.786 -73.147144.0  RSN 10 0.5 1.8LRSN                1
 GAP=137        0.79       4.4     5.7  7.9  0.1402E+01  0.7205E+01  0.8888E+01E
 Epicentro: LOS SANTOS - SANTANDER                                             3
 ACTION:UPD 13-04-09 14:01 OP:ep   STATUS:               ID:20130311033026 L   I
 2013-03-11-0330-00M.COL___231                                                 6
 STAT SP IPHASW D HRMM SECON CODA AMPLIT PERI AZIMU VELO AIN AR TRES W  DIS CAZ7
 BAR2 SZ EP     C  330 46.06                             171    0.0110 21.8 190 
 BAR2 SZ ES   2    331  1.10                             171   -0.07 5 21.8 190 
 BAR2 SZ I         331  2.11        16.1 0.20            166           21.8 190 
 BRR  HZ EP   1    330 47.89                             152    0.24 7 71.8 300 
 BRR  HE ES   1    331  5.01                             152    0.99 7 71.8 300 
 BRR  HZ I         331  8.14        10.7 0.28            149           71.8 300 
 PAM  SZ EP   1    330 48.91                             151    0.14 7 78.7  39 
 PAM  SN ES   2    331  5.66                             151   -0.35 5 78.7  39 
 PAM  SZ I         331  8.00        11.9 0.50            157           78.7  39 
 RUS  HZ EP   1    330 50.02                             144   -0.11 7 99.1 176 
 RUS  HN ES   2    331  8.36                             144   -0.08 5 99.1 176 
 RUS  HZ I         331  9.75         5.5 0.32            144           99.1 176 
 PTB  HZ EP     C  330 53.08                             132   -0.36 9  147 259 
 PTB  HN ES   2    331 13.27                             132   -1.06 5  147 259 
 PTB  HZ I         331 19.56         4.8 0.14            130            147 259 
 OCA  HN ES   2    331 16.40                             129   -0.66 5  162 353 
 ZAR  HN ES   2    331 24.51                             122    0.23 4  204 293 
 ZAR  HN I         331 29.46         9.8 0.22            122            204 293 
 SML  HE ES   2    331 31.36                             117   -0.57 4  245 335 
 CHI  HN ES   2    331 33.05                             117   -0.25 4  247 195 
 CHI  HN I         331 38.90         5.4 0.56            118            247 195 
 PRA  HZ EP   1    331 20.87                             107    0.91 4  391 210 
 PRA  HN ES   2    332  1.62                             107    0.09 3  391 210 
 PRA  HN I         332  8.04         1.3 0.36            107            391 210 
                                                                                
