 2012 1111 0046 17.0 L   6.786 -73.137144.6  RSN  5 0.4 1.6LRSN                1
 GAP=187        0.93       6.1     6.4  6.8  0.1398E+02  0.9854E+01  0.9219E+01E
 Epicentro: LOS SANTOS - SANTANDER                                             3
 ACTION:UPD 12-12-05 15:32 OP:}ep  STATUS:               ID:20121111004617 L   I
 2012-11-11-0040-00M.COL___230                                                 6
 STAT SP IPHASW D HRMM SECON CODA AMPLIT PERI AZIMU VELO AIN AR TRES W  DIS CAZ7
 BAR2 SZ EP        046 36.32                             171   -0.1910 22.0 193 
 BAR2 SZ ES        046 51.34                             171   -0.3510 22.0 193 
 BAR2 SZ I         046 54.15         6.4 0.24                          22.0 193 
 GIR2 SZ EP   2    046 36.32                             166   -0.30 5 33.0 349 
 GIR2 SZ ES        046 51.55                             166   -0.3510 33.0 349 
 BRR  HZ EP        046 38.53                             152    0.3710 72.8 299 
 BRR  HN ES        046 55.31                             152    0.6810 72.8 299 
 BRR  HN I         046 56.37        10.7 0.22                          72.8 299 
 RUS  HZ EP        046 40.64                             144    0.0810 99.0 177 
 RUS  HN ES        046 59.25                             144    0.3410 99.0 177 
 RUS  HN I         047  0.12         3.8 0.22                          99.0 177 
 PTB  HZ EP        046 43.75                             132   -0.23 9  148 259 
 PTB  HN ES        047  4.62                             132   -0.36 9  148 259 
 PTB  HN I         047  9.96         6.9 0.26                           148 259 
                                                                                
