 2012 1011 0111 38.5 L   6.723 -73.131140.8  RSN  9 0.4 2.1LRSN                1
 GAP=142        0.82       4.3     7.1  8.6 -0.6322E+01  0.8604E+01  0.6088E+01E
 Epicentro: JORDAN - SANTANDER                                                 3
 XNEAR  100.0 XFAR  800.0 SDEP 100.0                                           3
 ACTION:UP  12-11-22 17:03 OP:ep   STATUS:               ID:20121011011138 L   I
 2012-10-11-0110-00M.COL___229                                                 6
 STAT SP IPHASW D HRMM SECON CODA AMPLIT PERI AZIMU VELO AIN AR TRES W  DIS CAZ7
 BAR2 SZ ES   1    112 12.24                             173    0.06 8 15.5 201 
 BAR2 SZ I         112 14.72        26.2 0.16                          15.5 201 
 GIR2 SZ ES   1    112 12.75                             163   -0.25 8 40.0 350 
 BRR  HN ES   1    112 16.17                             150    0.32 8 77.0 304 
 BRR  HN I         112 16.79        52.9 0.20                          77.0 304 
 PAM  SN ES   1    112 17.01                             148   -0.80 8 83.2  35 
 PAM  SN I         112 18.24        23.3 0.26                          83.2  35 
 RUS  HN ES   1    112 19.03                             145    0.17 8 92.0 177 
 RUS  HN I         112 21.48        10.2 0.16                          92.0 177 
 GRA  SZ ES        112 24.37                             134    0.4810  133  16 
 ZAR  HN ES   2    112 35.78                             120   -0.85 4  209 294 
 CHI  HZ I         111 56.12         5.5 0.20                           241 196 
 CHI  HZ EP   1    112 15.03                             117   -0.09 6  241 196 
 CHI  HN I         112 48.29         9.7 0.26                           241 196 
 PRA  HZ I         112 12.89         3.2 0.19                           385 210 
 PRA  HZ EP   2    112 31.41                             106    0.28 3  385 210 
 PRA  HN I         113 17.11         3.4 0.31                           385 210 
                                                                                
