 2012 1111 0347 43.1 L   6.801 -73.142145.6  RSN  9 0.5 1.9LRSN                1
 GAP=137        1.33       4.6     9.0  7.5 -0.6146E+00  0.1592E+02  0.4219E+01E
 Epicentro: LOS SANTOS - SANTANDER                                             3
 ACTION:UPD 12-12-05 15:32 OP:}ep  STATUS:               ID:20121111034743 L   I
 2012-11-11-0340-00M.COL___230                                                 6
 STAT SP IPHASW D HRMM SECON CODA AMPLIT PERI AZIMU VELO AIN AR TRES W  DIS CAZ7
 BAR2 SZ EP        348  2.63                             170   -0.0410 23.5 191 
 BAR2 SZ ES        348 17.12                             170   -0.8510 23.5 191 
 BAR2 SZ I         348 18.59        15.4 0.16                          23.5 191 
 GIR2 SZ EP        348  2.75                             167    0.0410 31.3 350 
 GIR2 SZ ES        348 18.14                             167    0.1010 31.3 350 
 BRR  HZ EP        348  4.58                             152    0.3710 71.5 298 
 BRR  HN ES        348 21.69                             152    0.9910 71.5 298 
 BRR  HN I         348 22.12        34.2 0.52                          71.5 298 
 PAM  SZ EP        348  5.65                             151    0.4110 77.1  39 
 PAM  SN ES        348 22.98                             151    0.4410 77.1  39 
 RUS  HZ EP        348  6.95                             144    0.1510  101 176 
 RUS  HN ES        348 24.89                             144   -0.4310  101 176 
 RUS  HN I         348 26.66        11.6 0.28                           101 176 
 PTB  HZ EP        348  9.52                             132   -0.53 9  148 259 
 PTB  HN I         348 35.65        10.5 0.40                           148 259 
 OCA  HN ES        348 32.47                             130   -0.95 9  160 353 
 SML  HZ EP        348 19.31                             117   -0.37 8  244 335 
 CHI  HZ EP        348 21.12                             117    0.36 8  249 195 
 CHI  HN ES   1    348 50.45                             117    0.27 6  249 195 
 CHI  HN I         348 55.19         3.4 0.32                           249 195 
                                                                                
