 2010 1211 0307 33.2 L   6.726 -73.205155.1  RSN  4 0.3 1.5LRSN                1
 GAP=184        0.62       6.2    45.8  9.0  0.1470E+03 -0.1517E+03 -0.2433E+02E
 Epicentro: VILLANUEVA - SANTANDER                                             3
 ACTION:UP  11-01-14 15:24 OP:pat  STATUS:               ID:20101211030733 L   I
 2010-12-11-0303-36S.COL___136                                                 6
 STAT SP IPHASW D HRMM SECON CODA AMPLIT PERI AZIMU VELO SNR AR TRES W  DIS CAZ7
 BAR2 SZ EP   2    3 7 53.28                             174    -0.5 5   15 171 
 BAR2 SZ ES   1    3 8  9.67                             174    -0.2 7   15 171 
 BAR2 SZ I         3 8 10.57         7.6 0.38                            15 171 
 RUS  HZ EP   1    3 7 57.62                             147     0.3 7   93 172 
 RUS  HN ES   2    3 8 16.40                             147     0.2 5   93 172 
 RUS  HZ I         3 8 17.60         1.9 0.42                            93 172 
 GRA  SZ EP   2    3 7 59.92                             137    -0.1 5  136  19 
 GRA  SZ I         3 8  1.68         5.5 0.25                           136  19 
 OCA  SZ EP   2    3 8  2.65                             130    -0.3 5  168 356 
 OCA  SZ ES   2    3 8 26.62                             130     0.5 5  168 356 
 OCA  SZ I         3 8 29.54         4.6 0.28                           168 356 
                                                                                
