 2010  711 0109  1.9 L   6.765 -73.119142.0  RSN  6 0.5 1.4LRSN                1
 GAP=159        1.16       7.6    11.2 11.8 -0.3457E+02 -0.4181E+02  0.9256E+01E
 Epicentro: LOS SANTOS - SANTANDER                                             3
 ACTION:UPD 10-12-01 15:16 OP:pat  STATUS:               ID:20100711010901 L   I
 2010-07-11-0107-52S.COL___120                                                 6
 STAT SP IPHASW D HRMM SECON CODA AMPLIT PERI AZIMU VELO AIN AR TRES W  DIS CAZ7
 BAR2 SZ EP   2    1 9 20.74                             172    -0.3 5   20 200 
 BAR2 SZ ES   2    1 9 35.42                             172    -0.6 5   20 200 
 BAR2 SZ I         1 9 36.55        10.7 0.33                            20 200 
 BRR  HZ EP        1 9 22.61                             151    -0.310   76 300 
 BRR  HE ES        1 9 39.59                             151     0.310   76 300 
 BRR  HZ I         1 9 40.76        10.5 0.21                            76 300 
 RUS  HZ EP   2    1 9 25.01                             144     0.0 5   97 178 
 RUS  HN ES   2    1 9 43.57                             144     0.5 5   97 178 
 RUS  HZ I         1 9 44.19         3.1 0.26                            97 178 
 BRI  SZ EP   2    1 9 26.29                             140     0.6 5  111  19 
 BRI  SZ ES   1    1 9 44.94                             140     0.7 7  111  19 
 BRI  SZ I         1 9 49.79         5.4 0.42                           111  19 
 GUE  SZ EP   1    1 9 27.30                             138     0.7 7  120  10 
 GUE  SZ I         1 9 48.40         1.6 0.20                           120  10 
 GRA  SZ EP        1 9 26.73                             136    -0.410  129  16 
 GRA  SZ ES        1 9 46.28                             136    -0.410  129  16 
 GRA  SZ I         1 9 48.44         3.7 0.29                           129  16 
                                                                                
