 2011  611 0649 41.4 L   6.754 -73.074147.0  RSN  6 0.3 1.6LRSN                1
 GAP=165        0.57       4.4     8.5  7.9 -0.8402E+01 -0.1134E+02 -0.7367E+01E
 Epicentro: LOS SANTOS - SANTANDER                                             3
 ACTION:UP  11-07-14 19:04 OP:ep   STATUS:               ID:20110611064941 L   I
 2011-06-11-0648-08S.COL___133                                                 6
 STAT SP IPHASW D HRMM SECON CODA AMPLIT PERI AZIMU VELO SNR AR TRES W  DIS CAZ7
 BAR2 SZ EP   1    650  1.21                             171     0.1 7   21 214 
 BAR2 SZ I         650  1.50         6.0 0.14                            21 214 
 BAR2 SZ ES   2    650 15.91                             171    -0.6 5   21 214 
 BRR  HZ EP   1    650  2.99                             150    -0.2 7   81 299 
 BRR  HN ES   2    650 20.52                             150     0.3 5   81 299 
 BRR  HZ I         650 24.78         7.0 0.13                            81 299 
 RUS  HN ES   2    650 23.43                             146     0.3 5   95 181 
 RUS  HZ I         650 25.70         6.4 0.29                            95 181 
 BRI  SZ EP   1    650  5.65                             141     0.1 7  111  16 
 BRI  SZ ES   2    650 24.84                             141     0.4 5  111  16 
 BRI  SZ I         650 26.46         4.5 0.32                           111  16 
 GRA  SZ EP   1    650  6.83                             137    -0.1 7  129  13 
 GRA  SZ ES   2    650 26.52                             137    -0.4 5  129  13 
 GRA  SZ I         650 27.36         7.5 0.35                           129  13 
 OCA  SZ ES   2    650 33.01                             129     0.1 5  166 351 
 OCA  SZ I         650 36.07         7.4 0.19                           166 351 
                                                                                
