 2017 1211 0012 39.3 L   6.522 -73.412116.8  RSN  7 0.5 1.2LRSN                1
 GAP= 97        1.18       3.9     4.2  8.6 -0.2183E+01  0.8127E+01  0.8489E+01E
 Epicentro: HATO - SANTANDER                                                   3
 ACTION:UPD 18-01-04 13:19 OP:rebc STATUS:               ID:20171211001239 L   I
 OLDACT:UP  17-12-11 15:22 OP:edw  STATUS:               ID:20171211000430     3
 OLDACT:UP  17-12-11 15:18 OP:edw  STATUS:               ID:20171211000430     3
 OLDACT:REG 17-12-11 13:50 OP:edw  STATUS:               ID:20171211000430     3
 2017-12-11-0008-00M.COL___466                                                 6
 STAT SP IPHASW D HRMM SECON CODA AMPLIT PERI AZIMU VELO AIN AR TRES W  DIS CAZ7
 BAR2 EZ EP        012 54.98                             166   -0.6110 26.6  73 
 BAR2 EZ ES        013  8.74                             166    0.4710 26.6  73 
 BAR2 EZ I         013  9.60         5.9 0.32            166           26.6  73 
 PAM  EZ EP        013  1.76                             131   -0.3110  120  41 
 PAM  EE ES        013 19.60                             131   -0.2010  120  41 
 PAM  EZ I         013 20.73         2.1 0.76            132            120  41 
 SPBC HN ES        013 18.25                             131   -0.7210  121 217 
 YPLC HZ EP        013  7.22                             120    0.84 9  169 137 
 YPLC HN ES        013 27.71                             120    0.24 9  169 137 
 YPLC HZ I         013 29.96         4.0 0.36            121            169 137 
 ZAR  HN ES        013 32.35                             117    0.55 9  192 304 
 CHI  HZ EP        013 11.21                             114   -0.30 8  212 190 
 CHI  HE ES        013 36.66                             114    0.07 8  212 190 
 CHI  HZ I         013 39.56         1.0 0.40            115            212 190 
 GUY2CHZ EP        013 16.74                             109   -0.20 8  259 237 
 GUY2CHN ES        013 46.75                             109    0.49 8  259 237 
 GUY2CHZ I         013 52.55         0.9 0.56                           259 237 
                                                                                
