 2010 1011 0313 44.4 L   6.788 -73.110146.1  RSN 13 0.5 3.3LRSN                1
 GAP=181        1.04       4.3     7.1  7.3 -0.1686E+02  0.5663E+01  0.8072E+01E
 Epicentro: LOS SANTOS - SANTANDER                                             3
 ACTION:UP  11-02-18 11:09 OP:tino STATUS:               ID:20101011031344 L   I
 2010-10-11-0312-10S.COL___121                                                 6
 STAT SP IPHASW D HRMM SECON CODA AMPLIT PERI AZIMU VELO SNR AR TRES W  DIS CAZ7
 BAR2 SZ IP        314  4.16                             171     0.110   23 201 
 BAR2 SZ ES   1    314 18.49                             171    -0.9 7   23 201 
 BAR2 SZ I         314 20.88       508.3 0.21                            23 201 
 BRR  HZ IP     C  314  5.97                             151     0.210   75 298 
 BRR  HN ES   1    314 23.06                             151     0.5 7   75 298 
 BRR  HZ I         314 25.14       273.8 0.19                            75 298 
 GRA  SZ IP        314 10.00                             137     0.310  126  16 
 GRA  SZ ES   1    314 29.79                             137     0.4 7  126  16 
 GRA  SZ I         314 31.15       159.0 0.41                           126  16 
 OCA  SZ EP        314 12.45                             129    -0.4 9  162 352 
 OCA  SZ ES   1    314 34.87                             129    -0.3 7  162 352 
 OCA  SZ I         314 38.02       169.3 0.22                           162 352 
 NOR  SZ EP   1    314 19.82                             118    -0.6 6  237 235 
 NOR  SN ES   1    314 48.05                             118    -0.5 6  237 235 
 CHI  HZ EP   1    314 22.24                             117     0.2 6  248 196 
 CHI  HE ES   1    314 50.80                             117    -0.7 6  248 196 
 CHI  HZ I         314 55.88        81.3 0.63                           248 196 
 ROSC BZ EP   1    314 23.55                             117     0.9 6  254 212 
 ROSC BN ES   1    314 53.28                             117     0.8 6  254 212 
 ROSC BZ I         314 58.72       132.0 0.47                           254 212 
 HEL  HZ EP   1    314 24.81                             114    -0.2 6  276 256 
 HEL  HN ES   1    314 56.75                             114     0.1 6  276 256 
 HEL  HZ I         315  3.22       100.0 0.41                           276 256 
 RREF HZ EP   1    314 30.75                             111     0.0 5  324 230 
 RREF HN ES   1    315  7.12                             111     0.2 5  324 230 
 RREF HZ I         315 16.24       134.2 0.29                           324 230 
 DBB  SZ EP   1    314 31.45                             109    -0.9 5  344 274 
 TOL  SZ EP   1    314 33.00                             109     0.1 5  345 225 
 ANIL HZ EP   1    314 34.46                             108     0.1 5  359 225 
 ANIL HN ES   1    315 14.27                             108     0.8 5  359 225 
 ANIL HZ I         315 18.01       192.5 0.33                           359 225 
 PRA  HZ EP        314 37.50                             106    -0.5 6  393 210 
 PRA  HE ES   1    315 19.78                             106     0.0 4  393 210 
 PRA  HZ I         315 24.10       186.2 0.47                           393 210 
                                                                                
