 2016  411 0422 24.2 L   6.832 -73.159143.2  RSN  8 0.4 1.5LRSN                1
 GAP=133        0.85       3.2     4.5  6.2 -0.5878E+01  0.1073E+02 -0.1608E+01E
 Epicentro: LOS SANTOS - SANTANDER                                             3
 ACTION:UPD 16-05-05 14:20 OP:rebc STATUS:               ID:20160411042224 L   I
 OLDACT:UP  16-04-11 17:16 OP:mh   STATUS:               ID:20160411041748     3
 OLDACT:REG 16-04-11 13:13 OP:mh   STATUS:               ID:20160411041748     3
 2016-04-11-0417-48M.COL___285                                                 6
 STAT SP IPHASW D HRMM SECON CODA AMPLIT PERI AZIMU VELO AIN AR TRES W  DIS CAZ7
 BAR2 EZ EP   1    422 43.90                             169    0.27 7 26.7 186 
 BAR2 EZ ES        422 58.95                             169    0.1910 26.7 186 
 BAR2 EZ I         423  1.41         6.8 0.21            171           26.7 186 
 PAM  EZ EP   1    422 45.63                             151   -0.44 7 75.6  42 
 PAM  EN ES        423  3.02                             151   -0.0810 75.6  42 
 RUS  HZ EP        422 47.96                             142   -0.0510  104 175 
 RUS  HN ES        423  6.67                             142    0.1210  104 175 
 RUS  HZ I         423  7.70         4.1 0.09            146            104 175 
 PTB  HZ EP        422 51.06                             132    0.12 9  147 257 
 PTB  HN ES        423 11.15                             132   -0.61 9  147 257 
 PTB  HZ I         423 13.99         3.3 0.22            133            147 257 
 OCA  HZ EP   1    422 51.45                             130   -0.55 7  157 354 
 OCA  HE ES        423 14.09                             130    0.44 9  157 354 
 OCA  HZ I         423 18.50         6.5 0.27            131            157 354 
 SPBC HZ EP        422 52.70                             128   -0.02 9  165 218 
 SPBC HN ES        423 14.53                             128   -0.41 9  165 218 
 SPBC HZ I         423 17.17         7.7 0.18            130            165 218 
 NOR  HN ES        423 28.36                             118    0.61 8  236 234 
 GUY2CHZ EP   1    423  8.44                             112    0.61 5  302 234 
 GUY2CHN ES   4    423 44.45                             112    2.62 0  302 234 
 GUY2CHZ I         423 50.45         1.3 0.74                           302 234 
                                                                                
