 2012 1211 0229 28.1 L   6.799 -73.156141.7  RSN 13 0.5 2.3LRSN                1
 GAP= 71        0.86       3.4     3.7  5.4 -0.4784E+00  0.2696E+01  0.4096E+01E
 Epicentro: LOS SANTOS - SANTANDER                                             3
 ACTION:UPD 13-01-04 14:26 OP:ep   STATUS:               ID:20121211022928 L   I
 2012-12-11-0227-45M.COL___215                                                 6
 STAT SP IPHASW D HRMM SECON CODA AMPLIT PERI AZIMU VELO AIN AR TRES W  DIS CAZ7
 BAR2 SZ EP   1    229 47.31                             170    0.12 8 23.0 187 
 BAR2 SZ ES   1    230  1.66                             170   -0.46 8 23.0 187 
 BAR2 SZ I         230  3.95        66.0 0.13                          23.0 187 
 GIR2 SZ EP   1    229 47.40                             167    0.15 8 31.2 352 
 GIR2 SZ ES   1    230  1.60                             167   -0.61 8 31.2 352 
 GIR2 SZ I         230  3.94        31.2 0.13                          31.2 352 
 BRR  HZ EP   1    229 49.13                             152    0.42 8 70.2 299 
 BRR  HN ES   1    230  5.86                             152    1.04 8 70.2 299 
 BRR  HZ I         230  7.25        24.6 0.16                          70.2 299 
 PAM  SZ EP   1    229 50.28                             150    0.39 8 78.3  40 
 PAM  SN ES   1    230  7.05                             150    0.12 8 78.3  40 
 PAM  SZ I         230  9.50        52.2 0.44                          78.3  40 
 RUS  HZ EP   1    229 51.16                             143   -0.24 8  101 175 
 RUS  HN ES   1    230  9.96                             143    0.34 8  101 175 
 RUS  HZ I         230 11.09        33.3 0.28                           101 175 
 PTB  HZ EP   1    229 53.92                             131   -0.67 8  147 259 
 PTB  HN ES   1    230 14.92                             131   -0.36 8  147 259 
 PTB  HZ I         230 18.05        21.8 0.17                           147 259 
 TAM  HZ EP        229 55.67                             129    0.1510  156 105 
 OCA  HZ EP   1    229 55.88                             129   -0.18 7  160 354 
 OCA  HN ES   1    230 17.11                             129   -0.78 7  160 354 
 OCA  HZ I         230 22.04        20.3 0.26                           160 354 
 ZAR  HZ EP   1    229 59.95                             122   -0.18 7  203 292 
 ZAR  HE ES   1    230 25.33                             122    0.18 7  203 292 
 ZAR  HZ I         230 27.79        12.9 0.10                           203 292 
 CHI  HZ EP   1    230  5.49                             116    0.01 6  248 195 
 CHI  HN ES   1    230 34.55                             116   -0.12 6  248 195 
 CHI  HZ I         230 38.10        11.7 0.38                           248 195 
 ROSC BZ EP   4    230  7.01                             116    1.14 0  252 211 
 ROSC BZ I         230 41.21        16.0 0.45                           252 211 
 HEL  HZ EP   1    230  8.81                             114    0.88 6  271 256 
 HEL  HN ES   1    230 39.22                             114    0.19 6  271 256 
 HEL  HZ I         230 46.16        12.7 0.36                           271 256 
 MON  HZ EP   4    230 14.16                             108   -2.65 0  353 309 
 MON  HN ES   4    230 52.82                             108   -2.01 0  353 309 
 PRA  HZ EP   1    230 20.67                             106   -0.68 5  391 209 
 PRA  HN ES   1    231  2.63                             106   -0.30 5  391 209 
 PRA  HZ I         231  9.44         8.6 0.24                           391 209 
                                                                                
