 2010  111 0459 54.4 L   6.818 -73.174141.1  RSN  6 0.1 1.7LRSN                1
 GAP=179        0.39       2.0     4.3  3.5 -0.2928E+01  0.6344E+01 -0.1551E+01E
 Epicentro: LOS SANTOS - SANTANDER                                             3
 ACTION:UP  10-08-24 09:43 OP:vdl  STATUS:               ID:20100111045954 L   I
 2010-01-11-0457-53S.COL___097                                                 6
 STAT SP IPHASW D HRMM SECON CODA AMPLIT PERI AZIMU VELO SNR AR TRES W  DIS CAZ7
 BAR2 SZ IP        5 0 13.53                             169     0.010   25 182 
 BAR2 SZ ES        5 0 28.50                             169     0.110   25 182 
 GIR2 SZ EP   1    5 0 13.58                             168     0.1 7   29 356 
 RUS  BZ EP   1    5 0 17.78                             142    -0.1 7  103 174 
 RUS  BN ES   1    5 0 35.99                             142    -0.2 7  103 174 
 RUS  BZ I         5 0 37.41         6.7 0.32                           103 174 
 OCA  SZ IP        5 0 21.98                             129    -0.2 9  158 354 
 OCA  SZ ES   2    5 0 43.85                             129     0.1 5  158 354 
 OCA  SZ I         5 0 48.31        24.1 0.24                           158 354 
 NOR  SZ EP   1    5 0 29.99                             118     0.3 6  233 234 
 NOR  SZ ES   1    5 0 57.13                             118    -0.2 6  233 234 
 NOR  SZ I         5 0 59.60         1.8 0.14                           233 234 
 CHI  HZ EP   1    5 0 32.22                             116     0.2 6  250 194 
 CHI  HN ES   1    5 1  1.18                             116    -0.1 6  250 194 
 CHI  HZ I         5 1  8.25         2.0 0.47                           250 194 
                                                                                
