 2017 1111 0631 13.0 L   6.762 -73.148138.8  RSN  9 0.5 1.6LRSN                1
 GAP=113        1.10       3.7     4.3  7.0  0.3692E+00  0.5212E+01  0.3572E+01E
 Epicentro: LOS SANTOS - SANTANDER                                             3
 ACTION:UPD 17-12-12 19:54 OP:rebc STATUS:               ID:20171111063113 L   I
 OLDACT:UP  17-11-11 17:06 OP:dnl  STATUS:               ID:20171111062740     3
 OLDACT:REG 17-11-11 14:22 OP:dnl  STATUS:               ID:20171111062740     3
 2017-11-11-0628-00M.COL___441                                                 6
 STAT SP IPHASW D HRMM SECON CODA AMPLIT PERI AZIMU VELO AIN AR TRES W  DIS CAZ7
 BAR2 EZ EP        631 31.54                             172   -0.2110 19.2 191 
 BAR2 EZ ES        631 46.14                             172   -0.2110 19.2 191 
 BAR2 EZ I         631 47.32        14.4 0.20            170           19.2 191 
 BRR  HZ IP     D  631 33.43                             151   -0.1210 73.1 302 
 BRR  HE ES        631 50.32                             151    0.7610 73.1 302 
 BRR  HZ I         631 51.95         7.5 0.18            152           73.1 302 
 PAM  EZ EP        631 34.59                             149   -0.1510 80.8  38 
 PAM  EN ES        631 51.22                             149   -0.4410 80.8  38 
 PAM  EZ I         631 53.70        10.3 0.64            152           80.8  38 
 PTB  HZ EP        631 38.57                             131   -0.79 9  147 260 
 PTB  HN ES   4    631 58.18                             131   -1.71 0  147 260 
 PTB  HZ I         632  2.72         3.6 0.26            132            147 260 
 SPBC HZ EP        631 40.68                             128   -0.01 9  160 220 
 SPBC HN ES        632  1.96                             128   -0.29 9  160 220 
 SPBC HZ I         632  6.17         4.5 0.22            129            160 220 
 YPLC HZ EP        631 41.98                             126   -0.00 9  173 151 
 YPLC HN ES        632  5.39                             126    0.83 9  173 151 
 YPLC HZ I         632  8.37         3.4 0.26            127            173 151 
 ZAR  HZ EP   4    631 43.83                             121   -1.36 0  205 293 
 ZAR  HN ES        632 10.25                             121   -0.01 8  205 293 
 ZAR  HZ I         632 12.68         4.2 0.30            122            205 293 
 DRL03HZ EP   2    631 54.94                             111    0.15 4  293 353 
 DRL03HN ES        632 28.06                             111    0.70 7  293 353 
 GUY2CHZ EP   4    631 58.44                             111    2.40 0  299 235 
 GUY2CHN ES        632 30.10                             111    0.52 7  299 235 
 GUY2CHZ I         632 36.88         1.6 0.24                           299 235 
                                                                                
