 2015  311 0906 15.2 L   6.805 -73.125141.5  RSN  9 0.5 2.1LRSN                1
 GAP=113        1.19       3.7     4.4  7.3  0.5646E+00  0.5418E+01  0.4110E+00E
 Epicentro: LOS SANTOS - SANTANDER                                             3
 ACTION:UPD 15-04-30 16:25 OP:nd   STATUS:               ID:20150311090615 L   I
 OLDACT:UP  15-03-11 16:11 OP:cam  STATUS:               ID:20150311085750     3
 OLDACT:REG 15-03-11 13:32 OP:cam  STATUS:               ID:20150311085750     3
 2015-03-11-0857-50M.COL___278                                                 6
 STAT SP IPHASW D HRMM SECON CODA AMPLIT PERI AZIMU VELO AIN AR TRES W  DIS CAZ7
 BAR2 EZ EP        9 6 34.39                             170    0.0310 24.3 195 
 BAR2 EZ ES        9 6 49.06                             170   -0.2310 24.3 195 
 BAR2 EZ I         9 6 50.03        36.3 0.30            169           24.3 195 
 BRR  HZ IP     C  9 6 36.26                             151    0.2410 73.0 297 
 BRR  HN ES        9 6 53.03                             151    0.7910 73.0 297 
 BRR  HZ I         9 6 56.23        20.2 0.16            150           73.0 297 
 RUS  HZ EP        9 6 38.18                             143   -0.4110  101 177 
 RUS  HN ES        9 6 56.13                             143   -0.6810  101 177 
 RUS  HZ I         9 6 58.10         7.4 0.28            143            101 177 
 TAM  HZ IP     D  9 6 42.76                             130    0.39 9  153 105 
 TAM  HN ES        9 7  4.10                             130    0.55 9  153 105 
 TAM  HN I         9 7  5.03        12.1 0.32            132            153 105 
 OCA  HN ES        9 7  4.57                             129   -0.43 9  160 352 
 NOR  HZ EP        9 6 51.05                             117    0.10 8  237 235 
 NOR  HN ES        9 7 18.22                             117   -0.59 8  237 235 
 NOR  HZ I         9 7 23.96         9.5 0.16            117            237 235 
 SML  HZ EP        9 6 51.08                             116   -0.59 8  244 335 
 SML  HE ES        9 7 20.09                             116   -0.01 8  244 335 
 SML  HZ I         9 7 22.16        18.2 0.30            117            244 335 
 URE  HZ EP   4    9 6 55.35                             113   -0.96 0  286 292 
 GUY2CHZ EP   4    9 7  1.57                             111    2.68 0  303 235 
 GUY2CHN ES        9 7 33.97                             111    1.03 7  303 235 
 GUY2CHZ I         9 7 44.44         3.9 0.60                           303 235 
 PRA  HZ EP   4    9 7  7.70                             106   -1.09 0  394 210 
 PRA  HN ES        9 7 50.52                             106   -0.05 6  394 210 
 PRA  HZ I         9 7 55.99         4.0 0.70            106            394 210 
                                                                                
