 2011  711 0616 34.2 L   7.245 -73.358116.5  RSN  5 0.3 1.2LRSN                1
 GAP=152        0.56       4.4     6.0  5.9 -0.1148E+02 -0.1670E+01 -0.3672E+01E
 Epicentro: LEBRIJA - SANTANDER                                                3
 ACTION:UPD 12-07-25 13:59 OP:epov STATUS:               ID:20110711061634 L   I
 2011-07-11-0615-49S.COL___140                                                 6
 STAT SP IPHASW D HRMM SECON CODA AMPLIT PERI AZIMU VELO AIN AR TRES W  DIS CAZ7
 GIR2 SZ EP   1    616 49.89                             167   -0.37 7 25.9 135 
 GIR2 SZ ES   1    617  2.48                             167   -0.30 7 25.9 135 
 BTL  SZ EP   1    616 50.86                             161    0.06 7 37.5 164 
 BRR  HZ EP   1    616 50.56                             159   -0.07 7 41.9 249 
 BRR  HN ES   1    617  3.60                             159    0.16 7 41.9 249 
 BRR  HZ I         617  4.60         4.6 0.12                          41.9 249 
 BAR2 SZ EP   1    616 52.67                             145   -0.20 7 74.8 165 
 BAR2 SZ ES   1    617  7.81                             145    0.38 7 74.8 165 
 BAR2 SZ I         617  8.47         5.0 0.10                          74.8 165 
 GRA  SZ EP   1    616 54.56                             139    0.39 7 93.5  41 
 GRA  SZ ES   1    617  9.71                             139   -0.03 7 93.5  41 
 GRA  SZ I         617 11.55         1.9 0.35                          93.5  41 
                                                                                
