 2014  111 0811 46.9 L   6.783 -73.149146.4  RSN 10 0.5 1.8LRSN                1
 GAP=137        1.32       3.6     5.4  8.2 -0.3321E+01  0.1347E+02 -0.4399E+01E
 Epicentro: LOS SANTOS - SANTANDER                                             3
 ACTION:UPD 14-03-13 09:54 OP:ep   STATUS:               ID:20140111081146 L   I
 OLDACT:REG 14-01-11 09:41 OP:carl STATUS:               ID:20140111081000     3
 2014-01-11-0810-00M.COL___285                                                 6
 STAT SP IPHASW D HRMM SECON CODA AMPLIT PERI AZIMU VELO AIN AR TRES W  DIS CAZ7
 BAR2 SZ EP        812  6.75                             171    0.1410 21.4 190 
 BAR2 SZ ES        812 22.27                             171    0.3210 21.4 190 
 BAR2 SZ I         812 22.66        12.0 0.24            172           21.4 190 
 PAM  SZ EP        812  9.88                             150    0.5510 79.0  39 
 PAM  SN ES        812 26.97                             150    0.1910 79.0  39 
 PAM  SZ I         812 28.94        10.9 0.46            152           79.0  39 
 RUS  HZ EP        812 10.31                             144   -0.3210 98.8 176 
 RUS  HN ES        812 28.95                             144   -0.1510 98.8 176 
 RUS  HZ I         812 30.10         6.5 0.30            147           98.8 176 
 PTB  HZ EP        812 13.67                             132   -0.23 9  147 260 
 PTB  HN ES        812 34.41                             132   -0.51 9  147 260 
 PTB  HZ I         812 38.21         4.6 0.28            132            147 260 
 SPBC HE ES        812 37.69                             129    0.21 9  162 219 
 SPBC HE I         812 39.63        10.2 0.44            130            162 219 
 OCA  HZ EP        812 14.69                             129   -0.78 9  162 353 
 OCA  HN ES        812 36.94                             129   -0.78 9  162 353 
 OCA  HZ I         812 42.02         7.8 0.30            129            162 353 
 ZAR  HZ EP        812 20.79                             122    1.32 9  204 293 
 ZAR  HN ES        812 45.67                             122    0.83 9  204 293 
 ZAR  HZ I         812 51.59         8.7 0.24            122            204 293 
 NOR  HN ES        812 49.53                             119   -0.82 8  233 235 
 SML  HZ EP        812 23.44                             117   -0.33 8  245 336 
 SML  HN ES        812 52.55                             117    0.05 8  245 336 
 SML  HZ I         813  0.46         7.8 0.10            118            245 336 
 CHI  HZ EP        812 24.79                             117    0.31 8  247 195 
 CHI  HN ES        812 53.75                             117    0.00 8  247 195 
 CHI  HZ I         812 59.56         2.4 0.82            119            247 195 
                                                                                
