 2012 1011 0200 16.6 L   6.773 -73.129140.4  RSN  6 0.3 1.7LRSN                1
 GAP=140        0.51       3.3     4.3  4.8  0.1500E+01  0.8292E+00  0.1213E+01E
 Epicentro: LOS SANTOS - SANTANDER                                             3
 ACTION:UPD 12-11-22 17:03 OP:ep   STATUS:               ID:20121011020016 L   I
 2012-10-11-0200-00M.COL___229                                                 6
 STAT SP IPHASW D HRMM SECON CODA AMPLIT PERI AZIMU VELO AIN AR TRES W  DIS CAZ7
 BAR2 SZ EP   1    2 0 35.51                             171   -0.05 7 20.9 196 
 BAR2 SZ ES   1    2 0 50.15                             171   -0.18 7 20.9 196 
 BAR2 SZ I         2 0 51.56        14.4 0.30                          20.9 196 
 GIR2 SZ EP   1    2 0 35.68                             165   -0.07 7 34.5 348 
 GIR2 SZ ES   1    2 0 50.47                             165   -0.20 7 34.5 348 
 BRR  HZ EP   1    2 0 37.64                             150    0.27 7 74.3 300 
 BRR  HN ES   1    2 0 53.99                             150    0.43 7 74.3 300 
 PAM  SZ EP   1    2 0 38.47                             149    0.13 7 78.5  37 
 PAM  SZ I         2 0 38.72        10.2 0.24                          78.5  37 
 PAM  SN ES   1    2 0 55.19                             149   -0.09 7 78.5  37 
 PAM  SN I         2 0 55.60         9.5 0.36                          78.5  37 
 RUS  HZ EP   1    2 0 39.53                             143   -0.09 7 97.5 177 
 RUS  HN ES   1    2 0 57.67                             143    0.10 7 97.5 177 
 RUS  HZ I         2 0 59.54         4.1 0.30                          97.5 177 
 ZAR  HN ES   2    2 1 13.49                             121   -0.80 4  207 293 
 ZAR  HZ I         2 1 20.49         5.2 0.30                           207 293 
                                                                                
