 2014  211 0831  6.2 L   6.792 -73.190149.4  RSN 10 0.4 2.0LRSN                1
 GAP=178        0.85       2.9     4.5  7.1  0.3738E+01 -0.1336E+00 -0.5656E+01E
 Epicentro: ZAPATOCA - SANTANDER                                               3
 ACTION:UPD 14-03-10 08:09 OP:ep   STATUS:               ID:20140211083106 L   I
 OLDACT:UP  14-02-11 11:10 OP:cam  STATUS:               ID:20140211083000     3
 OLDACT:REG 14-02-11 07:46 OP:carl STATUS:               ID:20140211083000     3
 2014-02-11-0830-00M.COL___167                                                 6
 STAT SP IPHASW D HRMM SECON CODA AMPLIT PERI AZIMU VELO AIN AR TRES W  DIS CAZ7
 BAR2 SZ EP   1    831 25.95                             171   -0.28 8 22.1 178 
 BAR2 SZ I         831 42.58        24.5 0.42            171           22.1 178 
 RUS  HZ EP   1    831 30.02                             144   -0.25 7  100 173 
 RUS  HN ES        831 48.88                             144   -0.1710  100 173 
 RUS  HZ I         831 50.27         8.7 0.22            145            100 173 
 PTB  HZ EP        831 32.98                             134   -0.03 9  143 259 
 PTB  HN ES        831 54.03                             134    0.09 9  143 259 
 PTB  HZ I         831 56.82        10.3 0.14            135            143 259 
 SPBC HZ EP        831 35.01                             130    0.39 9  159 218 
 SPBC HE ES        831 56.66                             130   -0.14 9  159 218 
 SPBC HZ I         832  4.10        21.1 0.36            131            159 218 
 OCA  HZ EP   2    831 35.57                             130    0.76 5  161 355 
 OCA  HN ES   1    831 57.03                             130   -0.11 7  161 355 
 OCA  HZ I         832  0.77        15.8 0.34            132            161 355 
 ZAR  HZ EP        831 38.65                             124    0.20 9  200 293 
 ZAR  HE ES        832  4.11                             124    0.50 9  200 293 
 ZAR  HZ I         832 10.05        10.9 0.34            125            200 293 
 NOR  HZ EP   4    831 42.55                             120    0.89 0  230 234 
 SML  HZ EP        831 42.48                             118   -0.41 8  242 336 
 SML  HN ES   1    832 12.25                             118    0.73 6  242 336 
 SML  HZ I         832 14.32        21.4 0.10            120            242 336 
 CHI  HZ EP        831 44.04                             118    0.17 8  247 194 
 CHI  HN ES        832 13.61                             118    0.35 8  247 194 
 CHI  HZ I         832 23.34         3.5 0.46            119            247 194 
 HEL  HZ EP   4    831 47.48                             116    1.44 0  267 256 
 HEL  HN ES   4    832 20.23                             116    3.10 0  267 256 
 HEL  HZ I         832 26.47         6.4 0.40            117            267 256 
 URE  HZ EP        831 46.61                             115   -0.36 7  280 292 
 URE  HE ES        832 17.79                             115   -0.99 7  280 292 
 URE  HZ I         832 26.76         5.6 0.24            116            280 292 
 PRA  HZ EP   4    832  0.63                             107    1.16 0  389 209 
                                                                                
