 2012  111 0142 46.5 L   6.114 -73.810  9.0  RSN  5 0.4 1.3LRSN                1
 GAP=166        0.65       4.4     3.4  7.1  0.6412E+01  0.1459E+02  0.1153E+02E
 Epicentro: EL PEON - SANTANDER                                                3
 ACTION:UP  12-02-03 08:16 OP:REBC STATUS:               ID:20120111014246 L   I
 2012-01-11-0140-00M.COL___186                                                 6
 STAT SP IPHASW D HRMM SECON CODA AMPLIT PERI AZIMU VELO SNR AR TRES W  DIS CAZ7
 RUS  HZ EP   2    143  0.37                              93     0.0 5   84 107 
 RUS  HN ES   2    143 11.15                              93     0.0 5   84 107 
 PTB  HZ EP   1    142 59.53                              93    -0.5 7   86 303 
 PTB  HN ES   2    143 11.03                              93     0.4 5   86 303 
 BRR  HZ EP   2    143  3.59                              92    -0.2 5  110   6 
 BRR  HN ES   2    143 17.87                              92     0.6 5  110   6 
 BRR  HZ I         143 20.49         6.9 0.14                           110   6 
 HEL  HZ EP   1    143 15.90                              56     0.4 7  190 273 
 HEL  HZ I         143 16.16         3.5 0.16                           190 273 
 HEL  HN ES   1    143 38.34                              56     0.1 7  190 273 
 ZAR  HZ EP   2    143 15.35                              56     0.1 4  191 323 
 ZAR  HN ES   2    143 37.09                              56    -0.6 4  191 323 
 ZAR  HZ I         143 38.57         2.7 0.32                           191 323 
                                                                                
