 2015 1111 0608 12.4 L   6.792 -73.102152.8  RSN 12 0.4 2.0LRSN                1
 GAP=142        0.86       2.4     3.9  5.4 -0.1311E+01  0.6026E+01 -0.4884E+00E
 Epicentro: LOS SANTOS - SANTANDER                                             3
 ACTION:UPD 15-12-28 16:10 OP:cam  STATUS:               ID:20151111060812 L   I
 OLDACT:UP  15-11-23 15:04 OP:cam  STATUS:               ID:20151111060812 L   3
 OLDACT:UP  15-11-23 15:03 OP:cam  STATUS:               ID:20151111060812 L   3
 OLDACT:UP  15-11-23 15:02 OP:cam  STATUS:               ID:20151111060812 L   3
 OLDACT:UP  15-11-19 06:51 OP:CARA STATUS:               ID:20151111060812 L   3
 OLDACT:DUP 15-11-11 19:28 OP:dnl  STATUS:               ID:20151111055748d    3
 OLDACT:REG 15-11-11 13:39 OP:dnl  STATUS:               ID:20151111055747     3
 2015-11-11-0557-47M.COL___319                                                 6
 STAT SP IPHASW D HRMM SECON CODA AMPLIT PERI AZIMU VELO AIN AR TRES W  DIS CAZ7
 BAR2 EZ EP        6 8 32.68                             171   -0.1710 23.8 202 
 BAR2 EZ ES   2    6 8 47.63                             171   -1.20 5 23.8 202 
 BAR2 EZ I         6 8 50.53        12.4 0.10            169           23.8 202 
 PAM  EZ EP        6 8 35.68                             153    0.4710 75.1  36 
 PAM  EN ES        6 8 52.85                             153   -0.1710 75.1  36 
 PAM  EZ I         6 8 55.38         8.5 0.39            157           75.1  36 
 BRR  HZ EP        6 8 34.92                             152    0.3810 75.8 297 
 BRR  HN ES        6 8 52.58                             152    0.7510 75.8 297 
 BRR  HZ I         6 8 57.52        10.4 0.20            151           75.8 297 
 RUS  HZ EP        6 8 36.79                             146    0.0510 99.5 179 
 RUS  HN ES        6 8 55.79                             146    0.0410 99.5 179 
 RUS  HZ I         6 8 58.50         5.3 0.21            149           99.5 179 
 OCA  HZ EP        6 8 41.27                             131   -0.10 9  162 351 
 OCA  HN ES        6 9  3.42                             131   -0.57 9  162 351 
 OCA  HZ I         6 9  8.65        22.7 0.22            134            162 351 
 SPBC HZ EP        6 8 41.75                             130    0.11 9  166 220 
 SPBC HN ES        6 9  4.46                             130   -0.01 9  166 220 
 SPBC HZ I         6 9  9.46        10.6 0.10            133            166 220 
 ZAR  HZ EP        6 8 45.56                             123   -0.21 8  209 292 
 ZAR  HN ES        6 9 11.87                             123    0.05 8  209 292 
 ZAR  HZ I         6 9 17.02        10.7 0.15            125            209 292 
 NOR  HZ EP   1    6 8 48.36                             120   -0.52 6  238 235 
 NOR  HE ES   1    6 9 16.91                             120   -0.44 6  238 235 
 NOR  HZ I         6 9 20.53         9.7 0.22            122            238 235 
 SML  HZ EP        6 8 49.21                             119   -0.49 8  247 334 
 SML  HE ES        6 9 19.09                             119    0.27 8  247 334 
 SML  HZ I         6 9 20.89        15.8 0.10            121            247 334 
 CHI  HN ES        6 9 20.26                             119   -0.01 8  249 196 
 HEL  HZ EP   2    6 8 54.16                             116    0.73 4  277 256 
 HEL  HN ES   2    6 9 25.10                             116   -0.37 4  277 256 
 HEL  HZ I         6 9 31.68         8.1 0.28            118            277 256 
 GUY2CHE ES   1    6 9 31.23                             113   -0.04 5  305 235 
 GUY2CHZ I         6 9 39.30         6.2 0.56                           305 235 
                                                                                
