 2017  911 0326 17.1 L   6.837 -73.320123.5  RSN  9 0.2 1.7LRSN                1
 GAP=106        0.61       2.1     2.2  3.6  0.3126E+00  0.1920E+01  0.1698E+01E
 Epicentro: ZAPATOCA - SANTANDER                                               3
 ACTION:UPD 17-10-05 19:11 OP:rebc STATUS:               ID:20170911032617 L   I
 OLDACT:UP  17-09-11 17:13 OP:mg   STATUS:               ID:20170911031737     3
 OLDACT:REG 17-09-11 12:51 OP:mg   STATUS:               ID:20170911031737     3
 2017-09-11-0318-00M.COL___419                                                 6
 STAT SP IPHASW D HRMM SECON CODA AMPLIT PERI AZIMU VELO AIN AR TRES W  DIS CAZ7
 BAR2 EZ EP     C  326 34.17                             165   -0.1010 31.0 151 
 BAR2 EZ ES        326 47.75                             165    0.0910 31.0 151 
 BAR2 EZ I         326 48.48        47.3 0.38            165           31.0 151 
 BRR  HZ IP     C  326 34.55                             155   -0.2610 52.7 305 
 BRR  HN ES        326 48.78                             155    0.1510 52.7 305 
 BRR  HZ I         326 49.48         8.1 0.12            155           52.7 305 
 PAM  EZ EP        326 37.54                             142   -0.2210 88.2  51 
 PAM  EN ES        326 53.78                             142   -0.1010 88.2  51 
 PAM  EZ I         326 55.84         7.7 0.30            145           88.2  51 
 RUS  HZ EP        326 39.40                             136    0.0910  108 166 
 RUS  HN ES        326 56.43                             136   -0.2110  108 166 
 RUS  HZ I         326 57.86         8.8 0.28            137            108 166 
 SPBC HZ EP        326 43.17                             125   -0.02 9  155 212 
 SPBC HN ES        327  3.34                             125   -0.20 9  155 212 
 SPBC HZ I         327  6.30         5.8 0.07            124            155 212 
 ZAR  HZ EP        326 46.39                             120    0.27 9  185 293 
 ZAR  HN ES   1    327  9.32                             120    0.56 7  185 293 
 ZAR  HZ I         327 12.71         6.9 0.32            120            185 293 
 YPLC HZ EP        326 46.90                             119    0.11 9  190 147 
 YPLC HN ES        327 10.53                             119    0.58 9  190 147 
 YPLC HZ I         327 13.41         5.3 0.37            120            190 147 
 NOR  HZ EP        326 49.99                             115   -0.22 8  222 231 
 NOR  HE ES        327 15.93                             115   -0.11 8  222 231 
 NOR  HZ I         327 22.48         2.1 0.26            115            222 231 
 SJC  HZ EP   4    327  8.16                             102   -2.22 0  396 329 
 SJC  HN ES   4    327 48.81                             102   -3.14 0  396 329 
 SJC  HZ I         327 52.71         1.1 0.50            103            396 329 
                                                                                
