 2017  111 0334 34.8 L   6.813 -73.146148.6  RSN 36 0.6 3.4LRSN                1
 GAP= 65        0.83       2.4     2.4  3.6 -0.1146E+00  0.2227E+01  0.1249E+01E
 Epicentro: LOS SANTOS - SANTANDER                                             3
 ACTION:UPD 17-05-22 15:58 OP:jn   STATUS:               ID:20170111033434 L   I
 OLDACT:UP  17-01-11 14:37 OP:and  STATUS:               ID:20170111032746     3
 OLDACT:UP  17-01-11 14:36 OP:and  STATUS:               ID:20170111032746     3
 OLDACT:UP  17-01-11 14:35 OP:and  STATUS:               ID:20170111032746     3
 OLDACT:UP  17-01-11 14:34 OP:and  STATUS:               ID:20170111032746     3
 OLDACT:UP  17-01-11 14:32 OP:and  STATUS:               ID:20170111032746     3
 OLDACT:UP  17-01-11 14:31 OP:and  STATUS:               ID:20170111032746     3
 OLDACT:UP  17-01-11 14:30 OP:and  STATUS:               ID:20170111032746     3
 OLDACT:UP  17-01-11 14:28 OP:and  STATUS:               ID:20170111032746     3
 OLDACT:UP  17-01-11 14:27 OP:and  STATUS:               ID:20170111032746     3
 OLDACT:UP  17-01-11 14:27 OP:and  STATUS:               ID:20170111032746     3
 OLDACT:UP  17-01-11 14:25 OP:and  STATUS:               ID:20170111032746     3
 OLDACT:UP  17-01-11 14:25 OP:and  STATUS:               ID:20170111032746     3
 OLDACT:UP  17-01-11 14:24 OP:and  STATUS:               ID:20170111032746     3
 OLDACT:UP  17-01-11 14:22 OP:and  STATUS:               ID:20170111032746     3
 OLDACT:REG 17-01-11 12:37 OP:and  STATUS:               ID:20170111032746     3
 2017-01-11-0328-00M.COL___346                                                 6
 STAT SP IPHASW D HRMM SECON CODA AMPLIT PERI AZIMU VELO AIN AR TRES W  DIS CAZ7
 BAR2 EZ IP     D  334 54.88                             170    0.0410 24.7 189 
 BAR2 HN ES        335 10.07                             170   -0.3610 24.7 189 
 BAR2 EZ I         335 11.02       952.9 0.36            169           24.7 189 
 BRR  HZ IP     C  334 56.68                             153    0.4310 70.5 298 
 BRR  HN ES        335 13.72                             153    0.7710 70.5 298 
 BRR  HZ I         335 16.97       374.3 0.28            152           70.5 298 
 PAM  EZ IP     C  334 57.72                             152    0.4310 76.3  40 
 PAM  EN ES        335 14.76                             152   -0.0510 76.3  40 
 PAM  EZ I         335 17.15       496.9 0.50            151           76.3  40 
 RUS  HZ IP     D  334 58.75                             144   -0.2210  102 176 
 RUS  HN ES        335 17.63                             144   -0.1610  102 176 
 RUS  HZ I         335 18.61       279.1 0.22            143            102 176 
 PTB  HZ EP        335  1.30                             133   -0.76 9  148 258 
 PTB  HN ES        335 22.64                             133   -0.64 9  148 258 
 PTB  HZ I         335 29.03       294.2 0.24            131            148 258 
 TAM  HZ IP     D  335  3.36                             131    0.58 9  156 105 
 TAM  HZ I         335 24.25       200.4 0.42            130            156 105 
 TAM  HN ES        335 24.44                             131   -0.14 9  156 105 
 ZAR  HZ EP        335  7.41                             123    0.00 9  203 292 
 ZAR  HN ES        335 32.80                             123   -0.01 9  203 292 
 ZAR  HZ I         335 38.13       407.5 0.34            122            203 292 
 CHI  HZ EP        335 12.91                             118    0.07 8  250 195 
 CHI  HN ES        335 42.08                             118   -0.40 8  250 195 
 CHI  HZ I         335 45.95       255.8 0.62            116            250 195 
 ROSC BZ EP   4    335 14.69                             117    1.45 0  254 211 
 ROSC BE ES        335 43.68                             117    0.48 8  254 211 
 URE  HZ EP   3    335 14.50                             114   -1.48 2  283 292 
 URE  HN ES   4    335 45.30                             114   -2.77 0  283 292 
 URE  HZ I         335 58.66       173.1 0.34            113            283 292 
 GUY2CHZ EP        335 18.87                             113    0.21 7  302 235 
 GUY2CHN ES   4    335 55.49                             113    2.64 0  302 235 
 GUY2CHZ I         336  1.16       201.5 0.36                           302 235 
 LL1C HZ EP   3    335 19.79                             112    1.39 2  305 352 
 LL1C HN ES   4    335 55.09                             112    2.71 0  305 352 
 PTGC HZ IP     D  335 18.04                             112   -0.94 7  310 159 
 PTGC HE ES   4    335 50.63                             112   -2.77 0  310 159 
 PTGC HZ I         335 54.21       144.6 0.36            111            310 159 
 LL6C HZ EP   9    335  0.88                             111   -19.6 0  323 358 
 LL6C HN ES        335 35.92                             115   -0.57 7  323 358 
 LL6C HZ I         335 42.43        94.7 0.42            110            323 358 
 ELA  HZ EP   9    335 23.37                             111    1.46 0  330 229 
 ELA  HN ES        336  0.40                             111    0.32 7  330 229 
 ELA  HZ I         336  7.63       156.7 0.56            110            330 229 
 CBOC HZ EP        335 22.33                             110    0.42 7  334 252 
 CBOC HN ES   2    335 59.68                             110    1.05 3  334 252 
 CBOC HZ I         336  4.53        46.2 0.40            109            334 252 
 DBB  EZ EP        335 22.82                             110    0.41 7  339 274 
 DBB  HN ES   3    335 58.14                             110   -1.37 2  339 274 
 DBB  EZ I         335 59.69        86.9 0.26            109            339 274 
 ARGC HZ EP   2    335 24.97                             109    0.53 3  358 340 
 ARGC HN ES   3    336  4.46                             109    1.32 2  358 340 
 ARGC HZ I         336 10.70        48.7 0.36            108            358 340 
 ORTC HZ EP        335 29.16                             107    0.18 6  397 216 
 ORTC HN ES   3    336 12.63                             107    1.41 1  397 216 
 ORTC HZ I         336 16.34       141.1 0.22            106            397 216 
 PAL  HZ EP        335 30.26                             106    0.09 6  406 239 
 PAL  HE ES   3    336 11.66                             106   -1.67 1  406 239 
 PAL  HZ I         336 18.42        39.1 0.30            105            406 239 
 SJC  HZ EP   3    335 28.44                             106   -1.91 1  408 327 
 SJC  HN ES   4    336 10.10                             106   -3.55 0  408 327 
 SJC  HZ I         336 24.75        59.2 0.64            105            408 327 
 VALLCHZ EP   3    335 28.96                             106   -1.45 1  409 358 
 VALLCHN ES        336 13.10                             106   -0.65 6  409 358 
 LCBC HE ES   4    336 17.71                             106    1.49 0  421 303 
 LCBC HZ I         336 19.67        68.2 0.26            105            421 303 
 CRJC HZ EP   3    335 35.09                             104   -2.16 1  466   4 
 CRJC HN ES   4    336 22.69                             104   -3.24 0  466   4 
 CRJC HZ I         336 30.11        95.9 0.36            103            466   4 
 YOT  HZ EP        335 37.34                             104   -0.72 5  473 229 
 YOT  HN ES        336 27.36                             104   -0.02 5  473 229 
 SMAR HZ EP        335 40.34                             103   -0.28 4  496 346 
 SMAR HN ES   4    336 28.14                             103   -3.78 0  496 346 
 SMAR HZ I         336 30.45        40.2 0.32            102            496 346 
 PIZC HZ EP   3    335 43.92                             102    1.68 1  509 247 
 PIZC HN ES        336 35.25                             102    0.45 4  509 247 
 PTA  HZ EP        335 42.68                             102   -0.42 4  516 274 
 PTA  HN ES   3    336 34.40                             102   -1.94 1  516 274 
 PTA  HZ I         336 37.57        13.3 0.38            101            516 274 
 MACC HN ES   4    336 34.09                             102   -3.47 0  522 189 
 MACC HZ I         336 39.81        32.8 0.26            101            522 189 
 MARO HZ EP        335 46.80                             101    0.74 4  538 215 
 MARO HE ES   4    336 39.47                             101   -2.14 0  538 215 
 URI  HZ EP   3    335 45.20                             101   -2.54 1  555  13 
 URI  HN ES   4    336 40.61                             101   -4.00 0  555  13 
 URI  HZ I         336 47.96        15.0 0.48            100            555  13 
 GARC HZ EP   3    335 49.04                             101   -1.26 1  574 207 
 GARC HN ES   4    336 44.76                             101   -4.40 0  574 207 
 GARC HZ I         336 53.22        52.6 0.22            100            574 207 
 CONO HZ EP        335 55.91                             100    0.51 3  613 216 
 CONO HN ES        336 59.27                             100    1.04 3  613 216 
 FLO2 HZ EP        335 57.44                              99   -0.72 2  642 206 
 FLO2 HE ES        337  2.63                              99   -0.53 2  642 206 
 FLO2 HZ I         337  8.96         6.5 0.48             98            642 206 
 SOTO HZ EP        335 59.58                              99    0.53 2  644 217 
 GCUF HZ EP        336 14.69                              97   -0.01 0  774 217 
 GCUF HN ES   4    337 30.37                              97   -2.23 0  774 217 
                                                                                
