 2010  311 0850 12.6 L   6.834 -72.971146.0  RSN  5 0.1 1.8LRSN                1
 GAP=201        0.39       5.5     9.5  6.6  0.3510E+02 -0.3514E+02 -0.1822E+02E
 Epicentro: CEPITA - SANTANDER                                                 3
 ACTION:UP  10-08-24 09:53 OP:vdl  STATUS:               ID:20100311085012 L   I
 2010-03-11-0846-06S.COL___091                                                 6
 STAT SP IPHASW D HRMM SECON CODA AMPLIT PERI AZIMU VELO SNR AR TRES W  DIS CAZ7
 BAR2 SZ EP   1    850 32.77                             166     0.2 7   36 221 
 BAR2 SZ ES   2    850 47.97                             166    -0.2 5   36 221 
 BRR  HZ IP        850 34.58                             148    -0.210   87 290 
 BRR  HZ I         850 34.83        15.6 0.16                            87 290 
 BRR  HN ES   1    850 52.17                             148     0.1 7   87 290 
 RUS  BZ EP   2    850 36.56                             143    -0.1 5  105 187 
 RUS  BE ES   2    850 55.52                             143     0.1 5  105 187 
 OCA  SZ EP   2    850 40.97                             130     0.1 5  160 346 
 OCA  SZ I         850 43.05         9.1 0.26                           160 346 
 PRA  HZ I         851  3.86         0.8 0.39                           405 212 
 PRA  HN ES   3    851 50.55                             106     0.0 1  405 212 
                                                                                
