 2015 1011 0443 47.2 L   6.663 -73.919  4.0  RSN  5 0.4 1.1LRSN                1
 GAP=196        1.13       2.6     4.4  7.1 -0.4349E+01 -0.1204E+02  0.3122E+01E
 Epicentro: PUERTO PARRA - SANTANDER                                           3
 ACTION:UPD 15-12-22 20:38 OP:cam  STATUS:               ID:20151011044347 L   I
 OLDACT:UP  15-10-11 17:07 OP:ak   STATUS:               ID:20151011043749d    3
 OLDACT:DUP 15-10-11 17:03 OP:ak   STATUS:               ID:20151011043749d    3
 OLDACT:REG 15-10-11 13:13 OP:ak   STATUS:               ID:20151011043748     3
 2015-10-11-0437-48M.COL___340                                                 6
 STAT SP IPHASW D HRMM SECON CODA AMPLIT PERI AZIMU VELO AIN AR TRES W  DIS CAZ7
 BRR  HZ EP        443 55.81                              47   -0.2210 54.2  25 
 BRR  HN ES        444  2.86                              47   -0.0310 54.2  25 
 BRR  HZ I         444  3.88        17.6 0.10             47           54.2  25 
 BAR2 EZ EP        444  0.65                              47    0.2010 81.8  95 
 BAR2 EZ ES        444 10.86                              47    0.0910 81.8  95 
 BAR2 EZ I         444 11.69         4.9 0.18             47           81.8  95 
 SPBC HZ EP        444  5.44                              47    0.4110  113 189 
 SPBC HN ES        444 18.33                              47   -0.6010  113 189 
 SPBC HZ I         444 20.18         4.1 0.10             47            113 189 
 RUS  HZ EP        444  7.39                              47    0.0210  126 133 
 RUS  HN ES        444 23.16                              47    0.0810  126 133 
 RUS  HZ I         444 27.42         1.8 0.18             47            126 133 
 PAM  EZ EP        444 12.53                              47    0.86 9  154  61 
 PAM  EN ES        444 29.94                              47   -0.80 9  154  61 
 PAM  EZ I         444 33.60         2.4 0.16             47            154  61 
                                                                                
