 2016 1211 0905 26.8 L   6.696 -73.338153.4  RSN  4 0.6 1.0LRSN                1
 GAP=166        1.47      13.2    11.0 15.4  0.6599E+02  0.1863E+01  0.5063E+02E
 Epicentro: GALAN - SANTANDER                                                  3
 ACTION:UPD 17-01-11 20:14 OP:rebc STATUS:               ID:20161211090526 L   I
 OLDACT:REG 16-12-11 13:10 OP:edw  STATUS:               ID:20161211085745     3
 2016-12-11-0858-00M.COL___364                                                 6
 STAT SP IPHASW D HRMM SECON CODA AMPLIT PERI AZIMU VELO AIN AR TRES W  DIS CAZ7
 BAR2 EZ EP        9 5 46.86                             172   -0.4110 20.7 124 
 BAR2 EZ ES        9 6  2.42                             172   -0.8310 20.7 124 
 BAR2 EZ I         9 6  5.47         3.1 0.51            171           20.7 124 
 BRR  HN ES        9 6  5.81                             157    0.8010 61.5 318 
 RUS  HZ EP        9 5 51.02                             147    0.2410 93.2 162 
 RUS  HN ES        9 6 10.04                             147    0.5410 93.2 162 
 RUS  HZ I         9 6 10.64         0.9 0.36            148           93.2 162 
 PTB  HE ES        9 6 12.09                             139   -0.3710  125 262 
                                                                                
