 2013 1211 0658 41.9 L   6.787 -73.124151.8  RSN  7 0.4 1.8LRSN                1
 GAP=185        0.89       3.6     8.0  7.0  0.6333E+01  0.6370E+01 -0.1080E+01E
 Epicentro: LOS SANTOS - SANTANDER                                             3
 ACTION:UPD 14-01-13 10:17 OP:ep   STATUS:               ID:20131211065841 L   I
 OLDACT:REG 13-12-11 08:04 OP:jn   STATUS:               ID:20131211065738     3
 2013-12-11-0657-38M.COL___241                                                 6
 STAT SP IPHASW D HRMM SECON CODA AMPLIT PERI AZIMU VELO AIN AR TRES W  DIS CAZ7
 BAR2 SZ EP        659  2.57                             171    0.3310 22.5 197 
 BAR2 SZ ES        659 17.84                             171   -0.2710 22.5 197 
 BAR2 SZ I         659 18.96        28.7 0.10            166           22.5 197 
 BRR  HZ EP        659  4.38                             152    0.5210 74.0 299 
 BRR  HN ES        659 21.56                             152    0.5710 74.0 299 
 BRR  HZ I         659 24.18         7.2 0.12            146           74.0 299 
 RUS  HZ EP   1    659  6.28                             145    0.14 7 99.0 177 
 RUS  HN ES        659 24.78                             145   -0.2710 99.0 177 
 RUS  HZ I         659 26.41         7.4 0.30            146           99.0 177 
 OCA  HN ES        659 32.97                             130   -0.46 9  162 352 
 OCA  HZ I         659 36.42         5.8 0.22            130            162 352 
 SPBC HZ EP        659 10.76                             130   -0.15 9  164 220 
 SPBC HN ES   1    659 33.00                             130   -0.53 7  164 220 
 SPBC HZ I         659 36.37        14.6 0.26            129            164 220 
 ZAR  HN ES   2    659 40.61                             123   -0.26 4  207 292 
 ZAR  HZ I         659 48.68         4.0 0.12            121            207 292 
 SML  HZ EP   2    659 18.70                             118   -0.43 4  246 335 
 SML  HN ES   2    659 47.61                             118   -0.55 4  246 335 
                                                                                
