 2017  411 0259 55.5 L   6.733 -73.123152.2  RSN  6 0.3 0.9LRSN                1
 GAP=142        0.77       5.8     5.6  7.2  0.1248E+02  0.3548E+01 -0.1552E+02E
 Epicentro: JORDAN - SANTANDER                                                 3
 ACTION:UPD 17-05-30 21:10 OP:jn   STATUS:               ID:20170411025955 L   I
 OLDACT:UP  17-04-11 16:20 OP:edw  STATUS:               ID:20170411025741d    3
 OLDACT:UP  17-04-11 16:20 OP:edw  STATUS:               ID:20170411025741d    3
 OLDACT:DUP 17-04-11 16:17 OP:edw  STATUS:               ID:20170411025741d    3
 OLDACT:REG 17-04-11 11:53 OP:edw  STATUS:               ID:20170411025740     3
 2017-04-11-0258-00M.COL___371                                                 6
 STAT SP IPHASW D HRMM SECON CODA AMPLIT PERI AZIMU VELO AIN AR TRES W  DIS CAZ7
 BAR2 EZ EP        3 0 15.78                             173   -0.0610 16.9 203 
 BAR2 EZ ES        3 0 31.96                             173    0.2810 16.9 203 
 BRR  HZ EP        3 0 17.62                             152   -0.1110 77.2 302 
 PAM  EZ EP     C  3 0 18.54                             151   -0.1710 81.8  35 
 RUS  HZ EP        3 0 19.98                             147    0.5610 93.0 177 
 RUS  HN ES        3 0 37.63                             147   -0.4110 93.0 177 
 RUS  HZ I         3 0 39.17         1.2 0.28            147           93.0 177 
 PTB  HZ EP        3 0 23.00                             133   -0.16 9  149 262 
 PTB  HN ES   4    3 0 42.84                             133   -1.86 0  149 262 
 ZAR  HN ES        3 0 55.09                             123    0.08 8  209 294 
                                                                                
