 2012  111 0312 45.5 L   7.453 -73.179130.2  RSN 15 0.3 2.2LRSN                1
 GAP=109        0.59       2.4     3.1  4.0 -0.3839E+00  0.2933E+01  0.5278E+00E
 Epicentro: EL PLAYON - SANTANDER                                              3
 ACTION:UP  12-02-03 08:16 OP:REBC STATUS:               ID:20120111031245 L   I
 2012-01-11-0310-00M.COL___186                                                 6
 STAT SP IPHASW D HRMM SECON CODA AMPLIT PERI AZIMU VELO SNR AR TRES W  DIS CAZ7
 GIR2 SZ EP        313  3.58                             161    -0.110   41 182 
 GIR2 SZ ES   2    313 17.37                             161    -0.4 5   41 182 
 PAM  SZ EP        313  5.05                             156     0.310   54 103 
 PAM  SE ES   1    313 20.04                             156     0.3 7   54 103 
 BRR  HZ IP     C  313  4.83                             150    -0.110   70 237 
 BRR  HE ES   1    313 20.15                             150     0.1 7   70 237 
 BRR  HZ I         313 21.44        78.7 0.15                            70 237 
 OCA  SZ EP   2    313  6.82                             144     0.5 5   88 350 
 OCA  SZ ES   2    313 22.98                             144     0.4 5   88 350 
 OCA  SZ I         313 26.64        19.1 0.22                            88 350 
 BAR2 SZ EP        313  6.74                             142    -0.210   95 180 
 BAR2 SZ ES   1    313 23.17                             142    -0.5 7   95 180 
 BAR2 SZ I         313 24.42        39.2 0.16                            95 180 
 RUS  HZ EP   2    313 13.85                             124    -0.5 4  173 176 
 RUS  HZ I         313 14.36         7.5 0.23                           173 176 
 RUS  HE ES   2    313 36.77                             124    -0.1 4  173 176 
 PTB  HZ EP   1    313 13.52                             123    -0.2 7  174 234 
 PTB  HE ES   1    313 35.78                             123    -0.1 7  174 234 
 ZAR  HZ EP   1    313 14.83                             121    -0.1 7  185 271 
 ZAR  HN ES   2    313 38.44                             121     0.5 4  185 271 
 ZAR  HZ I         313 41.48        28.3 0.42                           185 271 
 YOP  SZ EP   1    313 21.88                             114     0.1 6  247 160 
 YOP  SN ES   2    313 49.97                             114    -0.1 4  247 160 
 COD  HZ EP   2    313 24.11                             111    -0.8 4  276 354 
 COD  HN ES   1    313 55.49                             111    -0.2 6  276 354 
 NOR  SZ EP   1    313 25.41                             111    -0.1 6  280 222 
 NOR  SN ES   2    313 56.56                             111    -0.1 4  280 222 
 HEL  HZ EP   2    313 27.59                             110     0.1 4  295 242 
 HEL  HZ I         314  7.38         6.9 0.29                           295 242 
 CHI  HZ EP   1    313 30.54                             108     0.3 5  318 191 
 CHI  HN ES   1    314  6.05                             108     0.8 5  318 191 
 CHI  HZ I         314 17.09         3.9 0.62                           318 191 
 RREF HZ EP   2    313 37.17                             105     0.5 3  370 220 
 RREF HN ES   2    314 16.67                             105     0.1 3  370 220 
 RREF HZ I         314 26.88         8.3 0.22                           370 220 
 PRA  HZ EP   2    313 45.93                             101     0.0 2  455 205 
                                                                                
