 2014  211 0807 21.8 L   6.848 -73.154143.6  RSN 11 0.4 2.0LRSN                1
 GAP=133        0.74       2.4     3.9  5.0  0.4937E+00  0.7694E+01 -0.3740E+00E
 Epicentro: LOS SANTOS - SANTANDER                                             3
 ACTION:UPD 14-03-10 08:09 OP:ep   STATUS:               ID:20140211080721 L   I
 OLDACT:UP  14-02-11 11:15 OP:fm   STATUS:               ID:20140211080000     3
 OLDACT:REG 14-02-11 07:46 OP:carl STATUS:               ID:20140211080000     3
 2014-02-11-0800-00M.COL___167                                                 6
 STAT SP IPHASW D HRMM SECON CODA AMPLIT PERI AZIMU VELO AIN AR TRES W  DIS CAZ7
 BAR2 SZ EP        8 7 41.21                             168   -0.1110 28.4 186 
 BAR2 SZ ES        8 7 56.22                             168   -0.3010 28.4 186 
 BAR2 SZ I         8 7 57.20        22.3 0.32            167           28.4 186 
 PAM  SN ES   1    8 8  1.06                             151    0.45 7 74.0  43 
 PAM  SZ I         8 8  3.28        26.4 0.59            154           74.0  43 
 RUS  HZ EP   1    8 7 45.70                             142   -0.07 7  106 176 
 RUS  HN ES        8 8  4.14                             142   -0.3010  106 176 
 RUS  HZ I         8 8  5.75         5.9 0.22            142            106 176 
 PTB  HZ EP   1    8 7 48.70                             131    0.06 7  148 257 
 PTB  HN ES   1    8 8  9.97                             131    0.42 7  148 257 
 OCA  HN ES   1    8 8 11.70                             130    0.67 7  155 353 
 SPBC HZ EP   1    8 7 50.72                             128    0.21 7  167 218 
 SPBC HN ES   1    8 8 13.51                             128    0.64 7  167 218 
 SPBC HZ I         8 8 17.55        11.6 0.27            127            167 218 
 ZAR  HZ EP   1    8 7 53.97                             122    0.13 6  201 291 
 ZAR  HE ES        8 8 18.16                             122   -0.65 9  201 291 
 ZAR  HZ I         8 8 25.54        10.9 0.16            122            201 291 
 NOR  HN ES   1    8 8 25.77                             118    0.11 6  237 233 
 SML  HZ EP        8 7 57.43                             117   -0.34 8  238 335 
 SML  HN ES        8 8 25.87                             117    0.07 8  238 335 
 SML  HZ I         8 8 30.89        16.7 0.10            118            238 335 
 CHI  HZ EP        8 7 59.96                             116    0.02 8  253 195 
 CHI  HN ES   4    8 8 31.60                             116    1.93 0  253 195 
 CHI  HZ I         8 8 34.62         4.5 0.47            116            253 195 
 URE  HN ES   4    8 8 30.59                             113   -3.59 0  281 291 
 PRA  HZ EP   1    8 8 15.61                             106   -0.15 4  396 209 
 PRA  HN ES   1    8 8 58.40                             106    0.57 4  396 209 
 PRA  HZ I         8 9  5.02         4.8 0.39            106            396 209 
 ORTC HZ EP   4    8 8 17.36                             106    1.25 0  399 216 
                                                                                
