 2012  311 0711 53.0 L   6.762 -73.155143.0  RSN 13 0.4 2.3LRSN                1
 GAP=114        0.98       3.2     4.0  5.3 -0.9429E+00  0.4290E+01  0.3061E+01E
 ACTION:UP  12-03-31 23:18 OP:EP   STATUS:               ID:20120311071153 L   I
 2012-03-11-0710-00M.COL___193                                                 6
 STAT SP IPHASW D HRMM SECON CODA AMPLIT PERI AZIMU VELO SNR AR TRES W  DIS CAZ7
 BAR2 SZ EP        712 12.22                             172     0.010   19 189 
 BAR2 SZ ES        712 27.35                             172     0.110   19 189 
 BAR2 SZ I         712 29.05       108.4 0.27                            19 189 
 BRR  HZ IP     C  712 14.14                             152     0.210   72 302 
 BRR  HZ I         712 14.43        94.9 0.15                            72 302 
 BRR  HE ES        712 30.76                             152     0.510   72 302 
 PAM  SZ EP        712 15.08                             149    -0.110   81  38 
 PAM  SN ES        712 31.85                             149    -0.610   81  38 
 RUS  HZ EP        712 16.09                             144    -0.110   97 175 
 RUS  HN ES        712 34.44                             144     0.210   97 175 
 RUS  HZ I         712 35.74        25.7 0.51                            97 175 
 PTB  HZ EP        712 19.06                             132    -0.5 9  146 260 
 PTB  HE ES        712 39.91                             132    -0.4 9  146 260 
 PTB  HZ I         712 47.55        23.3 0.36                           146 260 
 OCA  SZ EP        712 21.77                             128     0.3 9  164 354 
 OCA  SZ ES   1    712 44.00                             128     0.3 7  164 354 
 YOP  SZ EP   1    712 22.65                             126     0.1 7  176 152 
 YOP  SZ I         712 23.50         9.9 0.34                           176 152 
 ZAR  HZ EP   1    712 26.12                             122     0.8 6  205 293 
 ZAR  HE ES   1    712 50.13                             122    -0.4 6  205 293 
 ZAR  HZ I         712 56.83        25.2 0.47                           205 293 
 NOR  SZ EP   1    712 28.08                             118    -0.2 6  231 235 
 NOR  SE ES   1    712 55.30                             118    -0.4 6  231 235 
 CHI  HZ EP        712 30.20                             117     0.1 8  244 195 
 CHI  HE ES   1    712 59.52                             117     0.5 6  244 195 
 CHI  HZ I         713  9.16        10.3 0.64                           244 195 
 HEL  HZ EP   1    712 33.69                             114     0.8 6  270 257 
 HEL  HZ I         713 10.62         7.8 0.63                           270 257 
 TOL  SZ EP   1    712 40.13                             109    -0.6 5  340 225 
 PRA  HZ EP   1    712 45.31                             106    -0.6 4  388 210 
 PRA  HE ES   1    713 27.71                             106     0.5 4  388 210 
                                                                                
