 2013  911 0111 33.8 L   6.796 -73.149146.6  RSN  6 0.3 1.8LRSN                1
 GAP=136        0.82       3.4     3.9  6.3  0.1811E+01  0.4662E+01 -0.2751E+01E
 Epicentro: LOS SANTOS - SANTANDER                                             3
 ACTION:UPD 13-10-22 09:21 OP:ep   STATUS:               ID:20130911011133 L   I
 OLDACT:UP  13-09-11 09:01 OP:cam  STATUS:               ID:20130911010959     3
 OLDACT:REG 13-09-11 07:38 OP:cam  STATUS:               ID:20130911010959     3
 2013-09-11-0109-59M.COL___269                                                 6
 STAT SP IPHASW D HRMM SECON CODA AMPLIT PERI AZIMU VELO AIN AR TRES W  DIS CAZ7
 BRR  HZ EP        111 55.25                             153    0.1810 71.1 299 
 BRR  HN ES        112 12.03                             153    0.4010 71.1 299 
 BRR  HZ I         112 16.10        13.7 0.12            151           71.1 299 
 PAM  SZ EP        111 56.39                             151    0.2210 77.9  40 
 PAM  SN ES        112 13.22                             151   -0.3810 77.9  40 
 PAM  SZ I         112 15.76        12.7 0.52            151           77.9  40 
 RUS  HZ EP        111 57.98                             144    0.3410  100 176 
 RUS  HN ES        112 16.07                             144   -0.1310  100 176 
 RUS  HZ I         112 17.38         4.4 0.20            149            100 176 
 PTB  HZ EP        112  0.50                             132   -0.33 9  147 259 
 PTB  HN ES   1    112 21.20                             132   -0.69 7  147 259 
 PTB  HZ I         112 23.60         6.2 0.24            133            147 259 
 ZAR  HZ EP   4    112  7.78                             123    1.46 0  204 292 
 ZAR  HN ES        112 31.96                             123    0.31 9  204 292 
 ZAR  HZ I         112 36.54         8.7 0.38            123            204 292 
 SML  HZ EP        112 10.21                             118   -0.32 8  244 335 
 SML  HN ES        112 39.11                             118   -0.05 8  244 335 
 SML  HZ I         112 48.60         9.4 0.10            118            244 335 
                                                                                
