 2014  811 0217 39.1 L   6.785 -73.144146.0  RSN  5 0.4 1.5LRSN                1
 GAP=236        1.06       6.3     6.9  8.4  0.1009E+02  0.2549E+01  0.3370E+01E
 Epicentro: LOS SANTOS - SANTANDER                                             3
 ACTION:UPD 14-09-15 21:48 OP:nd   STATUS:               ID:20140811021739 L   I
 OLDACT:DUP 14-08-11 14:41 OP:cam  STATUS:               ID:20140811021001d    3
 2014-08-11-0210-00M.COL___285                                                 6
 STAT SP IPHASW D HRMM SECON CODA AMPLIT PERI AZIMU VELO AIN AR TRES W  DIS CAZ7
 BAR2 SZ EP        217 58.52                             171   -0.1610 21.7 191 
 BAR2 SZ ES   1    218 13.16                             171   -0.83 7 21.7 191 
 BAR2 SZ I         218 15.04         7.9 0.16            164           21.7 191 
 BRR  HZ EP        218  0.37                             152    0.0910 72.2 300 
 BRR  HN ES        218 17.54                             152    0.7010 72.2 300 
 BRR  HN I         218 18.37        11.0 0.24            149           72.2 300 
 RUS  HZ EP        218  2.67                             144   -0.0310 98.9 176 
 RUS  HN ES        218 21.33                             144    0.1810 98.9 176 
 RUS  HZ I         218 22.34         2.6 0.24            143           98.9 176 
 PTB  HZ EP        218  5.84                             132   -0.19 9  148 259 
 PTB  HN ES        218 26.40                             132   -0.67 9  148 259 
 PTB  HZ I         218 33.63         2.1 0.44            129            148 259 
 SPBC HZ EP        218  7.48                             129    0.02 9  162 219 
 SPBC HE ES        218 30.11                             129    0.50 9  162 219 
 SPBC HZ I         218 35.54         3.9 0.22            127            162 219 
                                                                                
