 2016  311 0547  8.9 L   6.804 -73.119150.0  RSN  9 0.2 2.1LRSN                1
 GAP=140        0.55       1.7     2.8  3.5 -0.9493E+00  0.4342E+01 -0.1945E-01E
 Epicentro: LOS SANTOS - SANTANDER                                             3
 ACTION:UPD 16-05-13 21:23 OP:cam  STATUS:               ID:20160311054708 L   I
 OLDACT:REG 16-03-11 13:38 OP:cara STATUS:               ID:20160311053751     3
 2016-03-11-0537-51M.COL___268                                                 6
 STAT SP IPHASW D HRMM SECON CODA AMPLIT PERI AZIMU VELO AIN AR TRES W  DIS CAZ7
 BAR2 EZ IP     D  547 29.12                             170    0.0710 24.4 197 
 BAR2 EZ ES        547 44.80                             170    0.0210 24.4 197 
 BAR2 EZ I         547 45.81        18.5 0.30            167           24.4 197 
 PAM  EZ EP        547 31.37                             152   -0.0610 75.2  38 
 PAM  EN ES        547 49.07                             152    0.0510 75.2  38 
 PAM  EZ I         547 51.28        10.2 0.46            157           75.2  38 
 RUS  HZ EP        547 32.93                             145   -0.1510  101 178 
 RUS  HN ES        547 52.01                             145    0.0610  101 178 
 RUS  HZ I         547 53.08         8.2 0.24            147            101 178 
 OCA  HZ EP        547 37.20                             131   -0.33 9  160 352 
 OCA  HN ES        548  0.04                             131    0.17 9  160 352 
 OCA  HZ I         548  4.98        42.3 0.34            132            160 352 
 SPBC HZ EP        547 38.02                             130    0.10 9  165 220 
 SPBC HE ES        548  0.19                             130   -0.38 9  165 220 
 SPBC HZ I         548  7.10        35.7 0.26            130            165 220 
 ZAR  HZ EP        547 41.60                             123   -0.28 8  207 292 
 ZAR  HN ES        548  7.84                             123    0.23 8  207 292 
 ZAR  HZ I         548 13.66        17.7 0.48            123            207 292 
 CHI  HZ EP        547 47.01                             118    0.05 8  250 196 
 CHI  HN ES        548 16.91                             118    0.26 8  250 196 
 CHI  HZ I         548 24.26         4.6 0.28            120            250 196 
 HEL  HZ EP        547 49.76                             115    0.11 8  275 256 
 HEL  HN ES   4    548 22.67                             115    1.23 0  275 256 
 HEL  HZ I         548 29.59         6.6 0.26            116            275 256 
 GUY2CHZ EP        547 53.58                             113    0.58 7  304 235 
 GUY2CHN ES        548 27.12                             113   -0.28 7  304 235 
 GUY2CHZ I         548 36.23         8.1 0.30                           304 235 
                                                                                
