 2011  511 0240 50.9 L   6.853 -74.033 82.5  RSN 11 0.3 2.3LRSN                1
 GAP=141        0.57       2.3     2.4  4.9 -0.2700E+01  0.4699E+01 -0.1479E+01E
 Epicentro: PUERTO PARRA - SANTANDER                                           3
 ACTION:UP  11-06-29 08:52 OP:tino STATUS:               ID:20110511024050 L   I
 2011-05-11-0236-50S.COL___132                                                 6
 STAT SP IPHASW D HRMM SECON CODA AMPLIT PERI AZIMU VELO SNR AR TRES W  DIS CAZ7
 BRR  HZ EP   1    241  3.35                             149    -0.3 7   45  52 
 BRR  HN ES   1    241 13.96                             149     0.2 7   45  52 
 BRR  HZ I         241 14.83       206.0 0.11                            45  52 
 BTL  SZ EP   1    241  7.26                             130     0.0 7   85  85 
 BTL  SZ ES   1    241 19.75                             130    -0.3 7   85  85 
 GIR2 SZ EP        241  8.23                             126     0.010   96  75 
 GIR2 SZ ES   1    241 21.87                             126     0.2 7   96  75 
 BAR2 SZ EP   1    241  8.45                             126    -0.1 7   98 107 
 BAR2 SZ I         241  8.77        48.7 0.10                            98 107 
 BAR2 SZ ES   1    241 21.95                             126    -0.4 7   98 107 
 RUS  HZ EP   1    241 14.11                             114    -0.2 7  149 135 
 RUS  HZ I         241 14.48        10.1 0.08                           149 135 
 RUS  HN ES   1    241 33.00                             114     0.3 7  149 135 
 PAM  SZ EP   1    241 15.38                             113     0.2 7  157  70 
 PAM  SE ES   1    241 34.22                             113     0.0 7  157  70 
 BRI  SZ EP   1    241 15.97                             111     0.0 7  167  55 
 BRI  SZ ES   1    241 35.94                             111     0.5 7  167  55 
 BRI  SZ I         241 36.98        46.9 0.33                           167  55 
 NOR  SZ EP   1    241 16.57                             111     0.4 7  170 213 
 NOR  SE ES   1    241 36.11                             111     0.2 7  170 213 
 OCA  SZ EP   1    241 16.39                             110    -0.2 7  172  27 
 OCA  SZ ES   1    241 36.79                             110     0.2 7  172  27 
 OCA  SZ I         241 40.23        28.9 0.13                           172  27 
 GRA  SZ EP   1    241 17.14                             110     0.0 7  177  50 
 GRA  SZ ES   1    241 37.27                             110    -0.4 7  177  50 
 GRA  SZ I         241 39.07        33.7 0.20                           177  50 
 HEL  HZ EP   1    241 17.44                             109    -0.4 7  181 246 
 HEL  HE ES   2    241 38.85                             109     0.0 4  181 246 
                                                                                
