 2017  311 0217  5.4 L   6.811 -73.156144.5  RSN 29 0.5 2.6LRSN                1
 GAP= 65        0.81       2.3     2.1  3.7 -0.5498E+00  0.1965E+01  0.3446E+00E
 Epicentro: LOS SANTOS - SANTANDER                                             3
 ACTION:UPD 17-05-25 18:38 OP:jn   STATUS:               ID:20170311021705 L   I
 OLDACT:UP  17-03-11 13:34 OP:and  STATUS:               ID:20170311020742     3
 OLDACT:UP  17-03-11 13:32 OP:and  STATUS:               ID:20170311020742     3
 OLDACT:UP  17-03-11 13:32 OP:and  STATUS:               ID:20170311020742     3
 OLDACT:UP  17-03-11 13:31 OP:and  STATUS:               ID:20170311020742     3
 OLDACT:UP  17-03-11 13:29 OP:and  STATUS:               ID:20170311020742     3
 OLDACT:UP  17-03-11 13:27 OP:and  STATUS:               ID:20170311020742     3
 OLDACT:UP  17-03-11 13:26 OP:and  STATUS:               ID:20170311020742     3
 OLDACT:UP  17-03-11 13:26 OP:and  STATUS:               ID:20170311020742     3
 OLDACT:UP  17-03-11 13:24 OP:and  STATUS:               ID:20170311020742     3
 OLDACT:UP  17-03-11 13:24 OP:and  STATUS:               ID:20170311020742     3
 OLDACT:UP  17-03-11 13:23 OP:and  STATUS:               ID:20170311020742     3
 OLDACT:UP  17-03-11 13:23 OP:and  STATUS:               ID:20170311020742     3
 OLDACT:UP  17-03-11 13:21 OP:and  STATUS:               ID:20170311020742     3
 OLDACT:REG 17-03-11 12:24 OP:and  STATUS:               ID:20170311020742     3
 2017-03-11-0208-00M.COL___406                                                 6
 STAT SP IPHASW D HRMM SECON CODA AMPLIT PERI AZIMU VELO AIN AR TRES W  DIS CAZ7
 BAR2 EZ IP     D  217 24.86                             170   -0.0710 24.4 187 
 BAR2 EZ ES        217 40.12                             170   -0.0110 24.4 187 
 BAR2 EZ I         217 41.11        95.2 0.24            169           24.4 187 
 BRR  HZ IP     D  217 26.75                             153    0.4010 69.6 298 
 BRR  HN ES   3    217 43.87                             153    1.20 2 69.6 298 
 BRR  HZ I         217 47.99        50.8 0.14            151           69.6 298 
 PAM  EZ IP     D  217 27.74                             150    0.2410 77.2  41 
 PAM  EN ES        217 44.69                             150   -0.0210 77.2  41 
 PAM  EZ I         217 47.06       127.0 0.50            154           77.2  41 
 RUS  HZ IP     C  217 28.91                             143   -0.2410  102 175 
 RUS  HN ES        217 47.62                             143   -0.0310  102 175 
 RUS  HZ I         217 48.75        59.5 0.32            144            102 175 
 PTB  HZ EP        217 31.51                             132   -0.71 9  147 258 
 PTB  HN ES        217 52.66                             132   -0.44 9  147 258 
 PTB  HZ I         217 57.40        34.5 0.26            131            147 258 
 TAM  HZ IP     D  217 33.28                             130    0.14 9  157 105 
 TAM  HN ES        217 54.89                             130    0.14 9  157 105 
 TAM  HZ I         217 55.46        13.9 0.22            133            157 105 
 SPBC HZ EP        217 33.80                             129   -0.06 9  163 218 
 SPBC HN ES        217 56.01                             129   -0.01 9  163 218 
 SPBC HZ I         217 58.69        77.5 0.16            129            163 218 
 ZAR  HZ EP        217 37.33                             122   -0.31 9  203 292 
 ZAR  HN ES        218  2.05                             122   -0.70 9  203 292 
 ZAR  HZ I         218  8.71        35.1 0.20            122            203 292 
 NOR  HZ EP        217 40.87                             118   -0.19 8  234 234 
 NOR  HN ES        218  9.25                             118    0.40 8  234 234 
 NOR  HZ I         218 11.40        28.4 0.18            119            234 234 
 CHI  HZ EP        217 43.01                             117   -0.15 8  250 195 
 CHI  HN ES        218 12.36                             117   -0.22 8  250 195 
 CHI  HZ I         218 15.87        26.0 0.48            118            250 195 
 ROSC BZ EP   9    217 44.96                             116    1.43 0  253 211 
 ROSC BN ES        218 14.95                             116    0.28 8  253 211 
 ROSC BZ I         218 18.65        37.2 0.40            117            253 211 
 HEL  HZ EP        217 46.03                             114    0.54 8  271 255 
 HEL  HN ES        218 16.96                             114    0.23 8  271 255 
 HEL  HZ I         218 23.85        18.9 0.42            115            271 255 
 URE  HZ EP   9    217 44.76                             113   -1.51 0  282 292 
 URE  HN ES        218 16.69                             113    0.08 7  282 292 
 URE  HZ I         218 27.15        24.5 0.18            114            282 292 
 GUY2CHZ EP   3    217 50.13                             112    1.17 2  301 234 
 GUY2CHN ES   4    218 26.28                             112    3.38 0  301 234 
 GUY2CHZ  IAML     218 31.02        22.4 0.28                           301 234 
 VIL  EZ EP        217 48.56                             112   -0.34 7  304 191 
 VIL  EN ES        218 22.86                             112    0.05 7  304 191 
 VIL  EZ I         218 25.55        36.1 0.40            113            304 191 
 LL1C HZ EP        217 49.73                             111    0.91 7  305 352 
 LL1C HN ES   4    218 27.06                             111    4.41 0  305 352 
 PTGC HZ IP   3 C  217 48.10                             111   -1.31 2  310 159 
 PTGC HN ES   4    218 21.14                             111   -2.57 0  310 159 
 PTGC HZ I         218 26.29        31.7 0.30            113            310 159 
 LL6C HN EP   9    217 30.67                             110   -20.3 0  324 358 
 LL6C HE ES   2    218  7.21                                    1.05 3  324 358 
 ELA  HZ EP   9    217 53.97                             110    1.75 0  329 229 
 ELA  HN ES        218 30.28                             110   -0.18 7  329 229 
 ELA  HZ I         218 39.45        13.5 0.34            111            329 229 
 CBOC HZ EP        217 53.12                             110    0.91 7  333 252 
 CBOC HN ES        218 29.47                             110    0.77 7  333 252 
 CBOC HZ I         218 33.00         6.0 0.18            110            333 252 
 DBB  EZ EP        217 52.53                             109   -0.19 7  338 274 
 DBB  EN ES   3    218 27.90                             109   -1.69 2  338 274 
 DBB  EZ I         218 30.84         9.4 0.12            110            338 274 
 ANIL HZ EP   3    217 56.26                             108    1.06 2  357 224 
 ANIL HN ES   4    218 37.03                             108    3.02 0  357 224 
 ARGC HZ EP   9    217 57.28                             108    2.42 0  358 340 
 ARGC HN ES        218 36.34                             108    0.51 6  358 340 
 PRA  HZ EP        217 58.61                             106   -0.36 6  392 209 
 PRA  HN ES        218 41.36                             106    0.64 6  392 209 
 PRA  HZ I         218 46.69        17.5 0.24            107            392 209 
 ORTC HZ EP        217 59.08                             106   -0.27 6  396 216 
 ORTC HN ES   3    218 42.65                             106    1.26 1  396 216 
 ORTC HZ I         218 46.08        14.5 0.50            107            396 216 
 SJC  HZ EP   3    217 59.08                             105   -1.68 1  408 327 
 SJC  HN ES   4    218 40.14                             105   -3.77 0  408 327 
 SJC  HZ I         218 44.59         8.0 0.62            106            408 327 
 CRJC HZ EP   9    218  5.11                             103   -2.65 0  466   4 
 CRJC HN ES        218 53.83                             103    0.10 5  466   4 
 CRJC HZ I         218 58.87        11.1 0.28            104            466   4 
 YOT  HZ EP   4    218 10.29                             103    1.86 0  472 229 
 YOT  HN ES   4    219  2.51                             103    4.94 0  472 229 
 SMAR HZ EP        218 10.72                             102   -0.38 4  496 346 
 SMAR HN ES   4    218 57.83                             102   -4.49 0  496 346 
 MACC HZ IP   4 D  218 11.92         3.6 0.30            101   -2.32 0  522 188 
 MACC HN ES   4    219  4.04                             101   -3.86 0  522 188 
 MACC HZ I         219 10.14         3.6 0.30            102            522 188 
                                                                                
