 2013  311 0516 59.8 L   6.825 -73.127148.0  RSN 15 0.5 2.8LRSN                1
 GAP= 71        1.02       3.1     3.7  6.3 -0.7051E+00  0.1951E+01  0.4359E+01E
 Epicentro: LOS SANTOS - SANTANDER                                             3
 ACTION:UPD 13-04-09 14:01 OP:ep   STATUS:               ID:20130311051659 L   I
 2013-03-11-0510-00M.COL___231                                                 6
 STAT SP IPHASW D HRMM SECON CODA AMPLIT PERI AZIMU VELO AIN AR TRES W  DIS CAZ7
 BAR2 SZ EP        517 19.58                             169   -0.1410 26.5 193 
 BAR2 SZ ES   1    517 34.55                             169   -0.75 7 26.5 193 
 BAR2 SZ I         517 36.15       144.6 0.46            170           26.5 193 
 BRR  HZ IP     D  517 21.48                             153    0.3010 71.8 296 
 BRR  HN ES        517 38.72                             153    0.8310 71.8 296 
 BRR  HZ I         517 41.05        87.6 0.22            153           71.8 296 
 PAM  SZ IP        517 22.38                             152    0.3710 73.9  40 
 PAM  SZ E         517 22.38                                           73.9  40 
 PAM  SN ES   1    517 39.50                             152    0.13 7 73.9  40 
 PAM  SN I         517 45.25        67.3 0.78            144           73.9  40 
 RUS  HZ EP   1    517 23.72                             144   -0.20 7  103 177 
 RUS  HZ I         517 43.00        58.8 0.40            138            103 177 
 PTB  HZ EP   1    517 26.16                             132   -0.98 7  150 258 
 PTB  HN ES   1    517 47.58                             132   -0.92 7  150 258 
 PTB  HN I         517 53.08       147.7 0.40            126            150 258 
 TAM  HZ IP     C  517 27.75                             131    0.25 9  154 106 
 TAM  HN ES   1    517 48.75                             131   -0.38 7  154 106 
 TAM  HN I         517 50.07        62.7 0.54            123            154 106 
 OCA  HZ EP   1    517 27.81                             131   -0.20 7  158 352 
 OCA  HN ES        517 49.94                             131   -0.11 9  158 352 
 ZAR  HZ EP   1    517 32.33                             123   -0.11 6  205 291 
 ZAR  HN ES   1    517 57.83                             123   -0.11 6  205 291 
 SML  HZ EP   1    517 36.09                             118   -0.24 6  242 335 
 SML  HN ES   1    518  4.59                             118   -0.27 6  242 335 
 SML  HN I         518  9.63       113.2 0.10            111            242 335 
 CHI  HZ EP   1    517 37.70                             117   -0.23 6  252 195 
 CHI  HN ES        518  7.34                             117   -0.36 8  252 195 
 CHI  HN I         518 12.04        55.3 0.42            111            252 195 
 ROSC BZ EP   1    517 39.38                             117    1.01 6  256 211 
 ROSC BN ES        518  9.29                             117    0.80 8  256 211 
 HEL  HZ EP   1    517 41.18                             115    0.80 6  275 255 
 HEL  HN ES   1    518 11.95                             115   -0.12 6  275 255 
 HEL  HN I         518 18.14        27.0 0.26            109            275 255 
 URE  HE ES   4    518 10.26                             114   -2.98 0  285 291 
 RREF HZ EP   4    517 48.12                             111    1.74 0  325 229 
 RREF HN ES   4    518 24.08                             111    1.33 0  325 229 
 COD  HZ EP   1    517 47.38                             109   -0.55 5  346 354 
 COD  HN I         518 30.34        11.5 0.48            103            346 354 
 PRA  HZ EP   1    517 53.07                             107   -0.69 4  395 210 
 PRA  HN ES   1    518 35.78                             107   -0.09 4  395 210 
 PRA  HN I         518 42.04        18.3 0.30            102            395 210 
 SJC  HN ES   4    518 33.84                             106   -4.70 0  408 326 
 SJC  HN I         518 42.46        11.6 0.16            101            408 326 
                                                                                
