 2012  311 0523 49.2 L   6.714 -73.196142.5  RSN  5 0.3 1.3LRSN                1
 GAP=225        0.68       6.5     6.1  7.1  0.2341E+02  0.5914E+01 -0.1849E+01E
 ACTION:UP  12-03-31 23:18 OP:EP   STATUS:               ID:20120311052349 L   I
 2012-03-11-0520-00M.COL___193                                                 6
 STAT SP IPHASW D HRMM SECON CODA AMPLIT PERI AZIMU VELO SNR AR TRES W  DIS CAZ7
 BAR2 SZ EP   1    524  8.12                             174    -0.1 7   14 174 
 BAR2 SZ ES   1    524 22.69                             174    -0.5 7   14 174 
 BAR2 SZ I         524 24.65         6.8 0.35                            14 174 
 BRR  HZ EP        524  9.95                             152    -0.110   72 307 
 BRR  HE ES   1    524 26.79                             152     0.5 7   72 307 
 BRR  HZ I         524 27.92         6.6 0.11                            72 307 
 RUS  HZ EP   1    524 12.21                             146     0.2 7   92 172 
 RUS  HZ I         524 13.51         1.6 0.22                            92 172 
 RUS  HN ES   1    524 29.93                             146     0.2 7   92 172 
 PTB  HZ EP   1    524 15.23                             133     0.0 7  141 262 
 PTB  HN ES   1    524 35.47                             133    -0.1 7  141 262 
 PTB  HZ I         524 43.14         1.9 0.40                           141 262 
 ZAR  HN ES   1    524 46.17                             122    -0.2 6  203 295 
 ZAR  HZ I         524 52.57         1.7 0.30                           203 295 
                                                                                
