 2015 1211 0414 40.8 L   6.809 -73.137150.6  RSN  5 0.3 1.9LRSN                1
 GAP=152        0.68       3.1     4.6  4.8 -0.3871E+01  0.5314E+01 -0.2067E+01E
 Epicentro: LOS SANTOS - SANTANDER                                             3
 ACTION:UPD 16-02-04 15:04 OP:cam  STATUS:               ID:20151211041440 L   I
 OLDACT:DUP 15-12-11 17:39 OP:ar   STATUS:               ID:20151211040749d    3
 2015-12-11-0407-48M.COL___328                                                 6
 STAT SP IPHASW D HRMM SECON CODA AMPLIT PERI AZIMU VELO AIN AR TRES W  DIS CAZ7
 BAR2 EZ EP        415  0.94                             170   -0.0910 24.5 192 
 BAR2 EZ ES        415 16.42                             170   -0.3910 24.5 192 
 BAR2 EZ I         415 17.54        14.4 0.26            170           24.5 192 
 BRR  HZ EP        415  2.61                             153    0.1210 71.5 297 
 BRR  HN ES        415 19.71                             153    0.3010 71.5 297 
 BRR  HZ I         415 23.67        12.6 0.44            151           71.5 297 
 PAM  EZ EP        415  3.90                             152    0.4510 76.0  39 
 PAM  EN ES        415 21.05                             152   -0.0710 76.0  39 
 PAM  EZ I         415 22.98        13.5 0.58            155           76.0  39 
 SPBC HZ EP        415  9.70                             130   -0.10 9  165 219 
 SPBC HE ES        415 32.54                             130    0.12 9  165 219 
 SPBC HZ I         415 36.14         9.6 0.78            131            165 219 
 SML  HZ EP        415 17.26                             118   -0.39 8  243 335 
 SML  HE ES        415 46.26                             118   -0.13 8  243 335 
 SML  HZ I         415 48.86        10.8 0.10            120            243 335 
                                                                                
