 2012 1211 0355 43.6 L   6.769 -73.165145.8  RSN  6 0.4 1.6LRSN                1
 GAP=135        0.75       6.2     7.1  7.4  0.1164E+02 -0.2180E+01 -0.2606E+01E
 Epicentro: LOS SANTOS - SANTANDER                                             3
 ACTION:UPD 13-01-04 14:26 OP:ep   STATUS:               ID:20121211035543 L   I
 2012-12-11-0350-00M.COL___242                                                 6
 STAT SP IPHASW D HRMM SECON CODA AMPLIT PERI AZIMU VELO AIN AR TRES W  DIS CAZ7
 BAR2 SZ EP   1    356  3.06                             172   -0.10 7 19.6 186 
 BAR2 SZ ES   1    356 17.74                             172   -0.67 7 19.6 186 
 BAR2 SZ I         356 18.92        14.4 0.30                          19.6 186 
 BRR  HZ EP   1    356  4.85                             153    0.11 7 71.1 302 
 BRR  HN ES   1    356 21.85                             153    0.62 7 71.1 302 
 BRR  HZ I         356 26.16         8.3 0.14                          71.1 302 
 PAM  SZ EP   1    356  5.99                             150   -0.07 7 81.4  39 
 RUS  HZ EP   1    356  7.08                             145   -0.04 7 97.3 175 
 RUS  HN ES   1    356 25.92                             145    0.46 7 97.3 175 
 RUS  HZ I         356 27.49         4.0 0.38                          97.3 175 
 PTB  HZ EP   1    356  9.92                             133   -0.40 7  145 260 
 PTB  HN ES   2    356 30.85                             133   -0.30 5  145 260 
 PTB  HZ I         356 35.30         7.0 0.12                           145 260 
 CHI  HZ EP   2    356 21.39                             118    0.52 4  245 195 
                                                                                
