 2011 1211 0044 25.5 L   6.801 -73.195142.6  RSN  4 0.5 1.3LRSN                1
 GAP=130        0.76       8.7     8.0 13.9  0.7391E+01  0.1624E+02  0.4520E+02E
 Epicentro: ZAPATOCA - SANTANDER                                               3
 ACTION:UPD 12-07-13 16:15 OP:ep   STATUS:               ID:20111211004425 L   I
 2011-12-11-0040-00M.COL___186                                                 6
 STAT SP IPHASW D HRMM SECON CODA AMPLIT PERI AZIMU VELO AIN AR TRES W  DIS CAZ7
 BRR  HZ EP   2    044 46.61                             154    0.54 5 66.4 301 
 BRR  HZ I         044 53.34        11.9 0.27                          66.4 301 
 BRR  HE ES   2    045  2.90                             154    0.81 5 66.4 301 
 PAM  SN ES   2    045  4.17                             149   -0.69 5 80.8  43 
 RUS  HZ EP   1    044 49.08                             143    0.05 7  101 173 
 RUS  HN ES   2    045  7.50                             143    0.15 5  101 173 
 RUS  HZ I         045  8.71         1.0 0.11                           101 173 
 PTB  HZ EP   2    044 51.62                             132   -0.14 5  142 258 
 PTB  HE ES   2    045 11.32                             132   -0.90 5  142 258 
                                                                                
