 2011  411 0212 52.1 L   6.767 -73.171137.4  RSN 11 0.3 2.5LRSN                1
 GAP=113        0.64       3.1     4.2  5.9 -0.5453E+01  0.7731E+01  0.2653E+01E
 Epicentro: LOS SANTOS - SANTANDER                                             3
 ACTION:UP  11-06-22 15:30 OP:REBC STATUS:               ID:20110411021252 L   I
 2011-04-11-0210-56S.COL___138                                                 6
 STAT SP IPHASW D HRMM SECON CODA AMPLIT PERI AZIMU VELO SNR AR TRES W  DIS CAZ7
 BAR2 SZ IP        213 10.43                             172    -0.210   19 184 
 BAR2 SZ ES   1    213 25.03                             172     0.0 7   19 184 
 BAR2 SZ I         213 27.14        92.9 0.22                            19 184 
 GIR2 SZ EP        213 10.58                             165    -0.210   35 356 
 BRR  HZ IP     C  213 12.27                             151     0.010   71 302 
 BRR  HZ I         213 30.64        53.4 0.11                            71 302 
 PAM  SZ EP   1    213 13.50                             147    -0.2 7   82  39 
 PAM  SN ES   2    213 30.71                             147     0.2 5   82  39 
 GRA  SZ EP        213 17.26                             134     0.310  130  18 
 GRA  SZ ES   2    213 36.94                             134     0.6 5  130  18 
 GRA  SZ I         213 38.40        22.9 0.36                           130  18 
 YOP  SZ EP   2    213 21.03                             125    -0.3 4  177 152 
 YOP  SN ES   2    213 44.30                             125     0.2 4  177 152 
 YOP  SZ I         213 45.94        15.8 0.39                           177 152 
 NOR  SZ EP   1    213 26.48                             117    -0.3 6  230 235 
 NOR  SN ES   2    213 54.89                             117     0.9 4  230 235 
 CHI  HZ EP   1    213 28.74                             116    -0.1 6  244 195 
 CHI  HN ES   1    213 57.75                             116     0.2 6  244 195 
 CHI  HZ I         214  0.33        18.1 0.29                           244 195 
 HEL  HZ EP   2    213 32.10                             113     0.7 4  268 256 
 HEL  HN ES   1    214  1.61                             113    -0.5 6  268 256 
 HEL  HZ I         214  8.62        18.6 0.28                           268 256 
 RREF HZ EP   2    213 37.87                             109     0.6 3  317 230 
 RREF HN ES   1    214 12.80                             109     0.2 5  317 230 
 RREF HZ I         214 19.88        23.0 0.26                           317 230 
 PRA  HZ EP   1    213 44.69                             105    -0.1 4  387 209 
 PRA  HE ES   1    214 25.61                             105    -0.2 4  387 209 
 PRA  HZ I         214 31.81        48.6 0.22                           387 209 
                                                                                
