 2011  811 0815  2.9 L   6.881 -72.933134.4  RSN  5 0.3 1.2LRSN                1
 GAP=262        0.66       5.4    11.0  6.5  0.3218E+02 -0.6340E+01  0.3071E+01E
 Epicentro: GUACA - SANTANDER                                                  3
 ACTION:UPD 12-07-13 15:51 OP:ep   STATUS:               ID:20110811081502 L   I
 2011-08-11-0811-44S.COL___150                                                 6
 STAT SP IPHASW D HRMM SECON CODA AMPLIT PERI AZIMU VELO AIN AR TRES W  DIS CAZ7
 BAR2 SZ EP   1    815 22.32                             162    0.56 7 42.2 221 
 BAR2 SZ ES   1    815 36.11                             162   -0.34 7 42.2 221 
 BAR2 SZ I         815 39.62         4.8 0.23                          42.2 221 
 BRR  HZ EP        815 24.13                             144    0.0610 89.7 286 
 BRR  HZ I         815 25.29         3.9 0.11                          89.7 286 
 BRR  HN ES   1    815 40.54                             144   -0.03 7 89.7 286 
 RUS  HZ EP   1    815 25.77                             138   -0.58 7  111 189 
 RUS  HE ES   1    815 44.88                             138    0.25 7  111 189 
 RUS  HZ I         815 47.35         2.2 0.26                           111 189 
 NOR  SZ EP   2    815 40.37                             113   -0.35 4  259 236 
 CHI  HZ EP   1    815 41.75                             113    0.00 6  264 200 
 CHI  HZ I         815 46.96         1.1 0.57                           264 200 
 CHI  HE ES   1    816 12.22                             113    0.18 6  264 200 
                                                                                
