 2017  111 0859  9.3 L   6.831 -74.181 66.0  RSN  6 0.4 1.0LRSN                1
 GAP=105        0.77       3.1     2.2  6.6  0.1679E+01 -0.4810E+01 -0.3929E+01E
 Epicentro: PUERTO PARRA - SANTANDER                                           3
 ACTION:UPD 17-05-22 15:58 OP:jn   STATUS:               ID:20170111085909 L   I
 OLDACT:UP  17-01-11 18:07 OP:and  STATUS:               ID:20170111085740     3
 OLDACT:UP  17-01-11 18:06 OP:and  STATUS:               ID:20170111085740     3
 OLDACT:UP  17-01-11 18:04 OP:and  STATUS:               ID:20170111085740     3
 OLDACT:REG 17-01-11 12:59 OP:and  STATUS:               ID:20170111085740     3
 2017-01-11-0858-00M.COL___337                                                 6
 STAT SP IPHASW D HRMM SECON CODA AMPLIT PERI AZIMU VELO AIN AR TRES W  DIS CAZ7
 PTB  HZ EP        859 20.04                             142   -0.3410 44.3 223 
 PTB  HN ES        859 28.91                             142   -0.1410 44.3 223 
 PTB  HZ I         859 29.66        10.1 0.12            141           44.3 223 
 BRR  HZ EP        859 21.29                             132   -0.3910 60.1  60 
 BRR  HN ES        859 31.52                             132    0.1610 60.1  60 
 BRR  HZ I         859 32.37         6.4 0.14            132           60.1  60 
 ZAR  HZ EP        859 26.55                             115    0.2810  105 314 
 ZAR  HN ES        859 39.71                             115    0.1810  105 314 
 ZAR  HZ I         859 41.76         3.0 0.12            114            105 314 
 BAR2 EZ EP        859 27.42                             113   -0.1610  114 103 
 BAR2 EZ ES        859 41.93                             113    0.0710  114 103 
 RUS  HN ES        859 52.55                             105    0.54 9  160 130 
 RUS  HZ I         859 54.91         0.7 0.28            105            160 130 
 PAM  EZ EP   3    859 32.96                             104   -1.90 2  173  71 
 PAM  EN ES        859 54.82                             104   -0.00 9  173  71 
                                                                                
