 2011 1111 0441 16.3 L   6.783 -73.114141.6  RSN  7 0.3 1.8LRSN                1
 GAP=141        0.65       3.1     4.1  5.7 -0.8916E+00  0.6447E+01 -0.2235E+01E
 Epicentro: LOS SANTOS - SANTANDER                                             3
 ACTION:UPD 12-07-13 16:09 OP:ep   STATUS:               ID:20111111044116 L   I
 2011-11-11-0439-43S.COL___178                                                 6
 STAT SP IPHASW D HRMM SECON CODA AMPLIT PERI AZIMU VELO AIN AR TRES W  DIS CAZ7
 BAR2 SZ EP   1    441 35.41                             171    0.03 7 22.4 200 
 BAR2 SZ ES   1    441 50.05                             171   -0.24 7 22.4 200 
 BAR2 SZ I         441 52.52        13.0 0.23                          22.4 200 
 BRR  HZ EP   1    441 37.53                             150    0.33 7 75.2 298 
 BRR  HN ES   1    441 53.84                             150    0.31 7 75.2 298 
 BRR  HZ I         441 55.61        13.2 0.15                          75.2 298 
 PAM  SZ EP   1    441 38.38                             150    0.38 7 76.7  37 
 PAM  SN ES   1    441 55.14                             150    0.19 7 76.7  37 
 PAM  SZ I         441 57.72         8.4 0.25                          76.7  37 
 RUS  HZ EP   1    441 39.00                             143   -0.46 7 98.5 178 
 RUS  HN ES   1    441 57.62                             143    0.06 7 98.5 178 
 RUS  HZ I         441 59.49         5.0 0.26                          98.5 178 
 OCA  SZ EP   1    441 44.52                             128    0.04 7  163 352 
 OCA  SZ ES   1    442  5.68                             128   -0.80 7  163 352 
 OCA  SZ I         442  9.64        13.9 0.37                           163 352 
 ZAR  HZ EP   1    441 49.00                             121    0.14 6  208 292 
 ZAR  HN ES   1    442 14.30                             121    0.02 6  208 292 
 ZAR  HZ I         442 20.38         8.1 0.12                           208 292 
 NOR  SN ES   1    442 19.63                             117   -0.16 6  236 235 
                                                                                
