 2017  511 0446 42.2 L   6.728 -73.178144.2  RSN  5 0.3 1.2LRSN                1
 GAP=228        0.77       4.8     5.7  8.0  0.1351E+02  0.1250E+02  0.5507E+01E
 Epicentro: VILLANUEVA - SANTANDER                                             3
 ACTION:UPD 17-06-16 13:35 OP:jn   STATUS:               ID:20170511044642 L   I
 OLDACT:UP  17-05-11 18:44 OP:osc  STATUS:               ID:20170511043737     3
 OLDACT:REG 17-05-11 13:13 OP:osc  STATUS:               ID:20170511043737     3
 2017-05-11-0438-00M.COL___356                                                 6
 STAT SP IPHASW D HRMM SECON CODA AMPLIT PERI AZIMU VELO AIN AR TRES W  DIS CAZ7
 BRR  HZ EP        447  2.91                             152   -0.3110 72.4 305 
 BRR  HN ES        447 19.61                             152   -0.0210 72.4 305 
 BRR  HZ I         447 23.71         2.9 0.18            154           72.4 305 
 RUS  HZ EP        447  5.03                             146   -0.2010 92.9 173 
 RUS  HN ES        447 23.39                             146    0.1810 92.9 173 
 RUS  HZ I         447 24.95         3.0 0.32            150           92.9 173 
 PTB  HZ EP        447  9.18                             133    0.61 9  143 262 
 PTB  HN ES   4    447 27.51                             133   -1.65 0  143 262 
 PTB  HZ I         447 31.07         2.2 0.22            136            143 262 
 ZAR  HN ES        447 39.76                             122    0.04 9  204 295 
 NOR  HN ES        447 43.85                             119   -0.32 8  227 236 
                                                                                
