 2017  711 0421 56.2 L   6.822 -73.132137.8  RSN 12 0.5 2.0LRSN                1
 GAP=112        1.21       4.9     4.4  6.7  0.4406E+00  0.6167E+01  0.5586E+01E
 Epicentro: LOS SANTOS - SANTANDER                                             3
 ACTION:UPD 17-08-30 15:31 OP:rebc STATUS:               ID:20170711042156 L   I
 OLDACT:UP  17-07-11 14:33 OP:dnl  STATUS:               ID:20170711041738d    3
 OLDACT:DUP 17-07-11 14:27 OP:dnl  STATUS:               ID:20170711041738d    3
 2017-07-11-0418-00M.COL___365                                                 6
 STAT SP IPHASW D HRMM SECON CODA AMPLIT PERI AZIMU VELO AIN AR TRES W  DIS CAZ7
 BAR2 EZ EP     C  422 14.57                             169   -0.3910 26.0 192 
 BAR2 EZ ES        422 28.68                             169   -0.8910 26.0 192 
 BAR2 EZ I         422 31.58        35.8 0.22            166           26.0 192 
 BRR  HZ IP     C  422 16.40                             151   -0.1310 71.4 296 
 BRR  HE ES        422 33.28                             151    0.9110 71.4 296 
 BRR  HZ I         422 34.22        17.7 0.30            150           71.4 296 
 PAM  EZ EP        422 17.49                             150    0.0610 74.6  40 
 PAM  EN ES        422 34.34                             150    0.3710 74.6  40 
 PAM  EZ I         422 36.53        23.3 0.50            154           74.6  40 
 PTB  HZ EP   9    422 21.68                             130   -1.06 0  150 258 
 PTB  HN ES        422 41.97                             129   -0.38 9  150 258 
 PTB  HZ I         422 45.53         8.2 0.36            129            150 258 
 SPBC HZ EP        422 23.80                             127   -0.60 9  166 219 
 SPBC HN ES        422 46.80                             127    0.43 9  166 219 
 SPBC HZ I         422 51.94        16.7 0.44            126            166 219 
 YPLC HZ EP   2    422 24.99                             124   -0.61 4  178 152 
 YPLC HN ES        422 48.80                             124    0.29 9  178 152 
 YPLC HZ I         422 51.62        11.4 0.28            125            178 152 
 ZAR  HZ EP        422 27.73                             120   -0.49 9  205 291 
 ZAR  HN ES        422 52.77                             120   -0.40 9  205 291 
 ZAR  HZ I         422 58.63        12.2 0.46            120            205 291 
 NOR  HZ EP   9    422 30.89                             116   -0.90 0  237 234 
 NOR  HE ES        422 58.81                             116    0.19 8  237 234 
 NOR  HZ I         423  1.33         9.3 0.26            116            237 234 
 ROSC BZ EP   2    422 35.29                             115    1.05 4  256 211 
 ROSC BE ES   4    423  7.66                             115    3.78 0  256 211 
 ROSC BZ I         423 11.18         9.6 0.45            114            256 211 
 HEL  HZ EP        422 37.01                             113    0.73 8  274 255 
 HEL  HN ES        423  7.36                             113   -0.15 8  274 255 
 HEL  HZ I         423 16.09         4.1 0.22            113            274 255 
 GUY2CHZ EP        422 40.27                             110    0.49 7  304 235 
 GUY2CHE ES   4    423 18.64                             110    4.90 0  304 235 
 GUY2CHZ I         423 20.06         5.7 0.28                           304 235 
 SJC  HZ EP   4    422 49.23                             104   -2.17 0  408 327 
 SJC  HN ES   4    423 29.07                             104   -5.36 0  408 327 
 SJC  HZ I         423 38.21         1.0 0.64            105            408 327 
                                                                                
