 2012  511 0702 40.9 L   6.792 -73.156139.0  RSN  9 0.4 2.1LRSN                1
 GAP=136        0.91       3.7     5.2  6.7 -0.3227E+01  0.8560E+01  0.4463E+01E
 Epicentro: LOS SANTOS - SANTANDER                                             3
 ACTION:UP  12-07-05 12:04 OP:pat  STATUS:               ID:20120511070240 L   I
 2012-05-11-0700-00M.COL___195                                                 6
 STAT SP IPHASW D HRMM SECON CODA AMPLIT PERI AZIMU VELO SNR AR TRES W  DIS CAZ7
 BAR2 SZ EP   1    7 2 59.13                             170    -0.5 7   22 188 
 BAR2 SZ ES   1    7 3 14.04                             170    -0.3 7   22 188 
 BAR2 SZ I         7 3 15.98        29.4 0.26                            22 188 
 BRR  HZ EP   1    7 3  1.82                             151     0.6 7   71 300 
 BRR  HN ES   1    7 3 17.81                             151     0.7 7   71 300 
 BRR  HZ I         7 3 23.19        44.9 0.13                            71 300 
 PAM  SZ EP   1    7 3  2.85                             149     0.4 7   79  40 
 PAM  SN ES   1    7 3 19.55                             149     0.3 7   79  40 
 RUS  HZ EP   1    7 3  3.95                             143     0.1 7  100 175 
 RUS  HN ES   1    7 3 21.72                             143    -0.1 7  100 175 
 RUS  HZ I         7 3 23.22         8.8 0.23                           100 175 
 PTB  HZ EP   1    7 3  7.16                             131     0.0 7  146 259 
 PTB  HN ES   1    7 3 27.47                             131    -0.2 7  146 259 
 PTB  HZ I         7 3 30.83         9.0 0.18                           146 259 
 OCA  HZ EP   1    7 3  8.24                             128    -0.5 7  161 354 
 OCA  HN ES   1    7 3 29.83                             128    -0.6 7  161 354 
 CHI  HZ EP   1    7 3 17.67                             116    -0.4 6  247 195 
 CHI  HN ES   1    7 3 46.91                             116    -0.2 6  247 195 
 HEL  HZ EP   1    7 3 21.15                             113     0.6 6  271 256 
 HEL  HN ES   1    7 3 51.02                             113    -0.6 6  271 256 
 HEL  HZ I         7 3 58.99         3.5 0.21                           271 256 
 PRA  HZ EP   1    7 3 34.57                             105     0.6 4  391 209 
 PRA  HN ES   1    7 4 15.99                             105     0.6 4  391 209 
 PRA  HZ I         7 4 20.29        16.6 0.22                           391 209 
                                                                                
