 2011 1111 0641 48.0 L   6.124 -73.841 81.8  RSN  4 0.1 1.1LRSN                1
 GAP=217        0.35       3.5     4.6  9.6  0.1229E+02  0.3603E+02  0.1958E+02E
 Epicentro: EL PEON - SANTANDER                                                3
 ACTION:UPD 12-07-13 16:09 OP:ep   STATUS:               ID:20111111064148 L   I
 2011-11-11-0639-15S.COL___178                                                 6
 STAT SP IPHASW D HRMM SECON CODA AMPLIT PERI AZIMU VELO AIN AR TRES W  DIS CAZ7
 RUS  HZ EP   1    642  4.76                             129   -0.19 7 87.8 107 
 RUS  HN ES   1    642 18.22                             129    0.06 7 87.8 107 
 RUS  HZ I         642 21.79         1.6 0.24                          87.8 107 
 BAR2 SZ EP   1    642  4.95                             128    0.19 7 89.4  55 
 BAR2 SZ ES        642 17.85                             128    0.0210 89.4  55 
 BAR2 SZ I         642 19.48         9.2 0.21                          89.4  55 
 BRR  HZ EP   1    642  6.47                             122   -0.02 7  110   7 
 BRR  HN ES   1    642 20.78                             122   -0.13 7  110   7 
 BRR  HZ I         642 22.01         2.7 0.15                           110   7 
 ZAR  HN ES   1    642 36.81                             108    0.08 7  188 323 
                                                                                
