 2015  211 0018 15.3 L   7.447 -73.300128.0  RSN 10 0.4 1.7LRSN                1
 GAP=101        1.07       2.8     4.4  6.4  0.1656E+01  0.1084E+02  0.1848E+01E
 Epicentro: EL PLAYON - SANTANDER                                              3
 ACTION:UPD 15-04-30 21:24 OP:nd   STATUS:               ID:20150211001815 L   I
 OLDACT:REG 15-02-11 12:55 OP:fm   STATUS:               ID:20150211001746     3
 2015-02-11-0017-46M.COL___293                                                 6
 STAT SP IPHASW D HRMM SECON CODA AMPLIT PERI AZIMU VELO AIN AR TRES W  DIS CAZ7
 BRR  HZ EP        018 34.44                             154    0.5510 59.0 230 
 BRR  HE ES        018 48.90                             154    0.5510 59.0 230 
 BRR  HZ I         018 52.46        16.1 0.26            154           59.0 230 
 PAM  SZ EP     D  018 35.36                             151    0.2810 67.4 100 
 PAM  SE ES        018 50.26                             151   -0.2110 67.4 100 
 PAM  SZ I         018 53.11        15.0 0.38            156           67.4 100 
 OCA  HZ EP        018 35.98                             143    0.0410 87.6 359 
 OCA  HE ES        018 52.49                             143    0.4910 87.6 359 
 OCA  HZ I         018 59.98        10.3 0.26            147           87.6 359 
 BAR2 EZ EP        018 36.64                             141    0.0010 95.4 172 
 BAR2 EZ ES        018 52.50                             141   -0.7510 95.4 172 
 PTB  HZ EP        018 42.55                             125    0.18 9  162 232 
 PTB  HN ES        019  3.40                             125   -0.05 9  162 232 
 PTB  HZ I         019  9.46         8.3 0.74            128            162 232 
 SML  HZ EP        018 43.44                             123    0.11 9  172 330 
 SML  HE ES        019  4.61                             123   -0.55 9  172 330 
 SML  HZ I         019  9.31        15.8 0.10            127            172 330 
 RUS  HZ EP        018 44.26                             123    0.14 9  174 172 
 RUS  HE ES        019  5.93                             123   -0.64 9  174 172 
 RUS  HZ I         019  8.61         1.8 0.16            127            174 172 
 MON  HZ EP   1    018 56.62                             109   -0.75 5  299 300 
 MON  HN ES        019 29.29                             109   -0.86 7  299 300 
 MON  HZ I         019 30.66         1.8 0.28            112            299 300 
 CHI  HN ES        019 34.26                             108   -0.10 7  315 189 
 CHI  HZ I         019 44.60         2.5 0.48            111            315 189 
 GUY2CHZ EP        019  2.54                             106    0.35 7  336 223 
 GUY2CHN ES        019 39.26                             106    0.54 7  336 223 
 GUY2CHZ I         019 51.44         2.7 0.48                           336 223 
                                                                                
