 2011 1211 0710 16.2 L   6.282 -73.741102.4  RSN 12 0.4 1.8LRSN                1
 GAP= 72        0.89       3.3     3.4  7.1 -0.2853E+01  0.4972E+01  0.3580E+01E
 Epicentro: LANDAZURI - SANTANDER                                              3
 ACTION:UPD 12-07-13 16:15 OP:ep   STATUS:               ID:20111211071016 L   I
 2011-12-11-0710-00M.COL___186                                                 6
 STAT SP IPHASW D HRMM SECON CODA AMPLIT PERI AZIMU VELO AIN AR TRES W  DIS CAZ7
 BAR2 SZ EP        710 33.43                             142    0.2710 70.7  61 
 BAR2 SZ ES   1    710 46.81                             142    0.42 7 70.7  61 
 BAR2 SZ I         710 47.62        36.4 0.12                          70.7  61 
 PTB  HZ EP        710 33.50                             137   -0.4010 84.1 290 
 PTB  HE ES   1    710 47.04                             137   -0.68 7 84.1 290 
 RUS  HZ EP   1    710 34.40                             137   -0.20 7 84.6 121 
 RUS  HZ I         710 34.97        11.8 0.19                          84.6 121 
 RUS  HN ES   1    710 49.07                             137    0.10 7 84.6 121 
 BRR  HZ EP        710 34.79                             135    0.3010 91.3   2 
 BRR  HZ I         710 43.62        18.7 0.10                          91.3   2 
 BRR  HN ES   1    710 49.20                             135    0.44 7 91.3   2 
 GIR2 SZ EP   1    710 36.42                             130    0.33 7  107  34 
 NOR  SZ EP   1    710 39.98                             120   -0.13 7  148 238 
 NOR  SE ES   1    710 58.74                             120   -0.03 7  148 238 
 PAM  SZ EP   1    710 42.51                             117    0.12 7  164  45 
 PAM  SN ES   1    711  1.87                             117   -0.96 7  164  45 
 CHI  HZ EP   1    710 43.62                             114   -0.73 7  183 180 
 CHI  HN ES   1    711  6.24                             114   -0.08 7  183 180 
 CHI  HZ I         711 10.83         3.9 0.19                           183 180 
 HEL  HZ EP   1    710 46.45                             112    0.43 6  198 267 
 HEL  HZ I         711 14.04         5.9 0.32                           198 267 
 GUY  SZ EP   1    710 49.04                             110    0.73 6  217 237 
 OCA  SZ EP   1    710 47.94                             109   -0.46 6  221  12 
 OCA  SZ I         711 20.05         6.7 0.24                           221  12 
 RREF HZ EP   1    710 50.91                             108    0.37 6  235 229 
 RREF HZ I         711 23.66         9.6 0.34                           235 229 
                                                                                
