 2014  811 0240 55.3 L   6.760 -73.077154.4  RSN  4 0.3 1.3LRSN                1
 GAP=274        0.51       4.5     9.2  7.0 -0.1636E+02 -0.1505E+02  0.7156E+01E
 Epicentro: LOS SANTOS - SANTANDER                                             3
 ACTION:UPD 14-09-15 21:48 OP:nd   STATUS:               ID:20140811024055 L   I
 OLDACT:UP  14-08-11 14:46 OP:cam  STATUS:               ID:20140811024000     3
 OLDACT:REG 14-08-11 12:57 OP:cam  STATUS:               ID:20140811024000     3
 2014-08-11-0240-00M.COL___285                                                 6
 STAT SP IPHASW D HRMM SECON CODA AMPLIT PERI AZIMU VELO AIN AR TRES W  DIS CAZ7
 BAR2 SZ EP   2    241 15.90                             171   -0.04 5 21.9 212 
 BAR2 SZ ES   2    241 31.75                             171   -0.29 5 21.9 212 
 BRR  HZ EP        241 18.08                             151    0.2010 80.0 299 
 BRR  HN ES        241 35.46                             151   -0.0410 80.0 299 
 BRR  HZ I         241 40.46         6.0 0.64            114           80.0 299 
 PTB  HZ EP   2    241 22.89                             132   -0.69 5  155 261 
 PTB  HZ I         241 44.06         1.3 0.26            104            155 261 
 SPBC HN ES        241 47.57                             130    0.09 9  165 222 
                                                                                
