 2012  311 0158 48.8 L   6.771 -73.122149.5  RSN 11 0.4 2.2LRSN                1
 GAP=141        0.88       3.4     4.1  5.7 -0.2198E+01  0.6021E+01  0.4060E+01E
 ACTION:UP  12-03-31 23:18 OP:EP   STATUS:               ID:20120311015848 L   I
 2012-03-11-0154-50M.COL___181                                                 6
 STAT SP IPHASW D HRMM SECON CODA AMPLIT PERI AZIMU VELO SNR AR TRES W  DIS CAZ7
 BAR2 SZ EP        159  8.78                             172     0.010   21 199 
 BAR2 SZ I         159  9.19        19.9 0.10                            21 199 
 BAR2 SZ ES   1    159 24.12                             172    -0.3 7   21 199 
 BRR  HZ EP        159 10.67                             152     0.110   75 300 
 BRR  HN ES        159 28.00                             152     0.510   75 300 
 BRR  HZ I         159 30.47        33.2 0.06                            75 300 
 PAM  SZ EP        159 11.61                             151     0.210   78  37 
 PAM  SN ES        159 28.78                             151    -0.310   78  37 
 RUS  HZ EP        159 12.74                             145     0.110   97 177 
 RUS  HZ I         159 14.36         8.9 0.30                            97 177 
 RUS  HN ES   1    159 31.33                             145     0.0 7   97 177 
 PTB  HZ EP        159 15.56                             132    -0.7 9  150 260 
 PTB  HE ES   1    159 37.30                             132    -0.3 7  150 260 
 PTB  HZ I         159 42.72        17.9 0.30                           150 260 
 OCA  SZ EP   1    159 17.88                             130     0.2 7  164 352 
 OCA  SZ ES   1    159 40.72                             130     0.5 7  164 352 
 ZAR  HZ EP   1    159 21.15                             123    -0.7 6  208 293 
 ZAR  HN ES   1    159 47.24                             123    -0.4 6  208 293 
 ZAR  HZ I         159 53.30        26.0 0.43                           208 293 
 NOR  SZ EP   1    159 24.76                             119     0.0 6  235 235 
 NOR  SN ES   1    159 53.09                             119     0.3 6  235 235 
 CHI  HZ EP   1    159 26.66                             118     0.2 6  246 196 
 CHI  HN ES   1    159 55.82                             118     0.0 6  246 196 
 CHI  HZ I         2 0  0.33         6.8 0.47                           246 196 
 HEL  HZ EP   1    159 30.10                             115     0.7 6  274 257 
 HEL  HZ I         2 0  9.42         8.4 0.24                           274 257 
 RREF HZ EP   1    159 34.77                             111    -0.3 5  322 230 
 RREF HE ES   1    2 0 11.68                             111     0.5 5  322 230 
 RREF HZ I         2 0 18.51        11.2 0.19                           322 230 
                                                                                
