 2015  311 0930 52.7 L   6.803 -73.144145.4  RSN 17 0.4 2.5LRSN                1
 GAP= 71        0.99       3.1     3.2  4.7 -0.2176E+01  0.4947E+01  0.1155E+01E
 Epicentro: LOS SANTOS - SANTANDER                                             3
 ACTION:UPD 15-04-30 16:25 OP:nd   STATUS:               ID:20150311093052 L   I
 OLDACT:UP  15-03-11 16:24 OP:cam  STATUS:               ID:20150311092747     3
 OLDACT:UP  15-03-11 16:23 OP:cam  STATUS:               ID:20150311092747     3
 OLDACT:UP  15-03-11 16:22 OP:cam  STATUS:               ID:20150311092747     3
 OLDACT:UP  15-03-11 16:22 OP:cam  STATUS:               ID:20150311092747     3
 OLDACT:UP  15-03-11 16:22 OP:cam  STATUS:               ID:20150311092747     3
 OLDACT:UP  15-03-11 16:22 OP:cam  STATUS:               ID:20150311092747     3
 OLDACT:UP  15-03-11 16:21 OP:cam  STATUS:               ID:20150311092747     3
 OLDACT:REG 15-03-11 13:33 OP:cam  STATUS:               ID:20150311092747     3
 2015-03-11-0927-47M.COL___281                                                 6
 STAT SP IPHASW D HRMM SECON CODA AMPLIT PERI AZIMU VELO AIN AR TRES W  DIS CAZ7
 BAR2 EZ EP        931 12.24                             170   -0.0710 23.7 190 
 BAR2 EZ ES        931 27.22                             170   -0.3710 23.7 190 
 BAR2 EZ I         931 28.05        94.8 0.22            170           23.7 190 
 BRR  HZ IP     C  931 13.98                             152    0.1510 71.2 298 
 BRR  HN ES        931 30.89                             152    0.5910 71.2 298 
 BRR  HZ I         931 32.08        72.1 0.22            149           71.2 298 
 PAM  SZ EP     C  931 15.21                             151    0.3310 77.0  40 
 PAM  SN ES        931 32.12                             151   -0.0310 77.0  40 
 PAM  SZ I         931 34.48        96.5 0.82            152           77.0  40 
 RUS  HZ EP        931 16.36                             144   -0.1010  101 176 
 RUS  HN ES        931 35.24                             144    0.2710  101 176 
 RUS  HZ I         931 35.94        47.1 0.24            146            101 176 
 TAM  HZ IP     D  931 20.62                             130    0.26 9  155 105 
 TAM  HE ES        931 41.61                             130   -0.30 9  155 105 
 TAM  HZ I         931 43.04        13.5 0.24            133            155 105 
 OCA  HZ EP   1    931 20.31                             130   -0.67 7  160 353 
 OCA  HN ES        931 43.05                             130    0.03 9  160 353 
 OCA  HZ I         931 50.28        30.6 0.38            129            160 353 
 SPBC HZ EP        931 20.94                             129   -0.29 9  164 219 
 SPBC HE ES        931 43.34                             129   -0.12 9  164 219 
 SPBC HZ I         931 47.78        51.9 0.24            129            164 219 
 NOR  HZ EP        931 28.34                             118   -0.13 8  235 234 
 NOR  HE ES        931 55.43                             118   -0.92 8  235 234 
 NOR  HZ I         931 57.61        18.1 0.26            118            235 234 
 SML  HZ EP        931 29.17                             117   -0.14 8  244 335 
 SML  HN ES   4    931 56.39                             117   -1.45 0  244 335 
 SML  HZ I         932  2.19        30.3 0.24            117            244 335 
 HEL  HZ EP   4    931 33.81                             115    0.86 0  272 256 
 HEL  HN ES        932  4.67                             115    0.35 8  272 256 
 HEL  HZ I         932 10.27        18.9 0.30            114            272 256 
 URE  HZ EP        931 32.70                             113   -1.08 7  284 292 
 URE  HN ES   4    932  2.85                             113   -2.96 0  284 292 
 URE  HZ I         932 14.23        24.2 0.30            113            284 292 
 GUY2CHZ EP        931 37.18                             112    0.83 7  302 235 
 GUY2CHN ES        932 10.32                             112   -0.06 7  302 235 
 GUY2CHZ I         932 16.87        13.0 0.34                           302 235 
 CBOC HZ EP        931 39.98                             110    0.32 7  334 252 
 CBOC HE ES   4    932 14.85                             110   -1.41 0  334 252 
 CBOC HZ I         932 25.66         5.0 0.66            110            334 252 
 DBB  SZ EP   4    931 38.52                             109   -1.69 0  340 274 
 DBB  SZ ES   4    932 14.94                             109   -2.30 0  340 274 
 TOL  SZ EP        931 41.86                             109    0.85 7  344 225 
 TOL  SN ES   4    932 20.00                             109    1.34 0  344 225 
 TOL  SZ I         932 23.70        13.6 0.36            109            344 225 
 MON  HZ EP   4    931 39.50                             108   -2.21 0  354 308 
 ANIL HZ EP        931 43.30                             108    0.74 6  358 225 
 ANIL HN ES   4    932 23.49                             108    2.07 0  358 225 
 ANIL HZ I         932 26.84         3.2 0.28            108            358 225 
 PRA  HZ EP        931 45.97                             106   -0.30 6  392 210 
 PRA  HN ES   4    932 27.06                             106   -0.98 0  392 210 
 PRA  HZ I         932 32.70        12.4 0.62            107            392 210 
 PAL  HZ EP        931 47.80                             106   -0.11 6  406 239 
                                                                                
