 2014 1111 0945 44.9 L   6.507 -73.595111.2  RSN  4 0.5 1.2LRSN                1
 GAP=151        1.17       6.7     6.8  9.8  0.2529E+02  0.9326E+01 -0.6054E+01E
 Epicentro: SANTA HELENA DEL OPON - SANTANDER                                  3
 ACTION:UPD 14-12-19 15:41 OP:nd   STATUS:               ID:20141111094544 L   I
 OLDACT:ARG 14-11-11 12:38 OP:stll STATUS:               ID:20141111093747     3
 2014-11-11-0937-47M.COL___290                                                 6
 STAT SP IPHASW D HRMM SECON CODA AMPLIT PERI AZIMU VELO AIN AR TRES W  DIS CAZ7
 BRR  HZ EP        946  2.58                             146    0.4310 67.6 349 
 BRR  HN ES        946 15.70                             146    0.0610 67.6 349 
 BRR  HZ I         946 17.31         3.8 0.42            148           67.6 349 
 RUS  HZ EP        946  4.98                             139    0.5910 88.4 140 
 RUS  HN ES        946 18.87                             139   -0.7510 88.4 140 
 RUS  HZ I         946 21.86         1.8 0.32            141           88.4 140 
 PTB  HZ EP        946  4.56                             136    0.2610 95.4 272 
 PTB  HN ES        946 19.47                             136    0.0110 95.4 272 
 PTB  HZ I         946 20.98         4.4 0.18            138           95.4 272 
 MON  HZ EP        946 30.28                             102   -0.79 7  340 318 
 MON  HN ES        947  6.55                             102   -0.56 7  340 318 
 MON  HZ I         947  8.71         1.0 0.28            104            340 318 
                                                                                
