 2017 1211 0441 41.8 L   6.802 -73.180140.1  RSN  7 0.3 1.5LRSN                1
 GAP=139        0.86       2.9     3.9  5.7 -0.2854E+01  0.5900E+01  0.8828E+00E
 Epicentro: ZAPATOCA - SANTANDER                                               3
 ACTION:UPD 18-01-04 13:19 OP:rebc STATUS:               ID:20171211044141 L   I
 OLDACT:REG 17-12-11 14:23 OP:edw  STATUS:               ID:20171211043743     3
 2017-12-11-0438-00M.COL___466                                                 6
 STAT SP IPHASW D HRMM SECON CODA AMPLIT PERI AZIMU VELO AIN AR TRES W  DIS CAZ7
 BAR2 EZ EP        442  0.75                             170    0.0010 23.2 181 
 BAR2 EZ ES        442 15.38                             170   -0.1510 23.2 181 
 BAR2 EZ I         442 17.05         6.0 0.56            171           23.2 181 
 PAM  EZ EP     D  442  3.73                             149    0.1710 79.7  42 
 PAM  EN ES        442 20.73                             149    0.1910 79.7  42 
 PAM  EZ I         442 23.11         3.3 0.20            151           79.7  42 
 PTB  HZ EP        442  7.52                             131   -0.46 9  144 258 
 PTB  HN ES        442 27.78                             131   -0.61 9  144 258 
 PTB  HZ I         442 30.32         2.2 0.20            132            144 258 
 OCA  HZ EP        442  9.40                             128   -0.22 9  160 354 
 OCA  HN ES        442 31.14                             128   -0.17 9  160 354 
 OCA  HZ I         442 36.11         9.6 0.42            129            160 354 
 SPBC HZ EP        442 10.00                             128    0.34 9  161 218 
 SPBC HN ES        442 31.58                             128    0.19 9  161 218 
 SPBC HZ I         442 34.17         5.4 0.26            130            161 218 
 ZAR  HZ EP        442 13.47                             122   -0.04 9  200 292 
 ZAR  HN ES        442 39.09                             122    0.85 9  200 292 
 ZAR  HZ I         442 44.46         9.0 0.86            122            200 292 
 CHI  HZ EP        442 18.94                             116   -0.17 8  248 194 
 CHI  HN ES        442 48.43                             116    0.22 8  248 194 
 CHI  HZ I         442 52.13         1.4 0.28            118            248 194 
                                                                                
