 2013 1211 0735 38.3 L   6.726 -73.195146.7  RSN  6 0.3 1.4LRSN                1
 GAP=195        0.80       6.2     6.4  6.7  0.2151E+02  0.8329E+01  0.8158E+00E
 Epicentro: VILLANUEVA - SANTANDER                                             3
 ACTION:UPD 14-01-13 10:17 OP:ep   STATUS:               ID:20131211073538 L   I
 OLDACT:REG 13-12-11 06:29 OP:jn   STATUS:               ID:20131211073001d    3
 2013-12-11-0730-00M.COL___285                                                 6
 STAT SP IPHASW D HRMM SECON CODA AMPLIT PERI AZIMU VELO AIN AR TRES W  DIS CAZ7
 BAR2 SZ EP        735 57.51                             174   -0.3510 14.8 174 
 BAR2 SZ ES        736 12.71                             174   -0.4410 14.8 174 
 BAR2 SZ I         736 13.74        12.1 0.18            167           14.8 174 
 BRR  HZ EP        735 59.72                             153    0.2310 71.0 306 
 BRR  HN ES        736 16.42                             153    0.3610 71.0 306 
 BRR  HZ I         736 16.87         4.2 0.14            148           71.0 306 
 RUS  HZ EP   1    736  1.93                             146    0.37 7 93.0 172 
 RUS  HN ES   1    736 20.21                             146    0.46 7 93.0 172 
 RUS  HZ I         736 21.62         1.9 0.46            144           93.0 172 
 PTB  HZ EP        736  4.55                             134   -0.14 9  141 262 
 PTB  HN ES   1    736 24.86                             134   -0.45 7  141 262 
 PTB  HZ I         736 29.65         2.6 0.10            129            141 262 
 ZAR  HN ES   1    736 36.06                             123    0.27 6  202 295 
 ZAR  HZ I         736 42.39         2.8 0.32            121            202 295 
 SML  HE ES   2    736 44.38                             117   -0.18 4  249 337 
                                                                                
