 2011  411 0451  8.4 L   6.823 -73.057155.6  RSN  5 0.3 1.8LRSN                1
 GAP=195        0.57       6.2     9.2  9.4 -0.2727E+02 -0.3790E+02  0.2195E+02E
 Epicentro: LOS SANTOS - SANTANDER                                             3
 ACTION:UP  11-06-22 15:30 OP:REBC STATUS:               ID:20110411045108 L   I
 2011-04-11-0450-07S.COL___138                                                 6
 STAT SP IPHASW D HRMM SECON CODA AMPLIT PERI AZIMU VELO SNR AR TRES W  DIS CAZ7
 BTL  SZ EP   1    451 29.26                             170     0.0 7   26 294 
 BAR2 SZ EP   1    451 29.10                             169    -0.2 7   29 209 
 BAR2 SZ I         451 45.38         8.7 0.44                            29 209 
 BRR  HZ EP   1    451 31.01                             152     0.0 7   79 293 
 BRR  HZ I         451 31.28        18.8 0.16                            79 293 
 BRR  HN ES   1    451 48.85                             152     0.2 7   79 293 
 GRA  SZ EP   2    451 34.81                             140     0.7 5  121  13 
 GRA  SZ ES   1    451 54.18                             140     0.0 7  121  13 
 GRA  SZ I         451 56.00         7.5 0.45                           121  13 
 OCA  SZ EP   1    451 37.34                             132     0.0 7  159 350 
 OCA  SZ ES   2    451 59.51                             132    -0.5 5  159 350 
 OCA  SZ I         452  3.92         6.0 0.20                           159 350 
                                                                                
