 2011  311 0048 31.2 L   6.768 -73.181141.0  RSN  6 0.2 1.7LRSN                1
 GAP=155        0.54       3.6     6.7  6.0 -0.1450E+02  0.1513E+02 -0.6018E+01E
 Epicentro: LOS SANTOS - SANTANDER                                             3
 ACTION:UP  11-06-16 14:32 OP:jfem STATUS:               ID:20110311004831 L   I
 2011-03-11-0047-09S.COL___135                                                 6
 STAT SP IPHASW D HRMM SECON CODA AMPLIT PERI AZIMU VELO SNR AR TRES W  DIS CAZ7
 BAR2 SZ EP   1    048 50.23                             172     0.1 7   20 181 
 BAR2 SZ ES   1    049  4.83                             172    -0.2 7   20 181 
 BAR2 SZ I         049  6.44        17.5 0.17                            20 181 
 RUS  HZ EP   2    048 54.02                             144    -0.2 5   97 174 
 RUS  HN ES   2    049 12.21                             144     0.0 5   97 174 
 RUS  HZ I         049 13.48         7.7 0.41                            97 174 
 GRA  SZ EP   1    048 56.37                             135     0.0 7  130  19 
 GRA  SZ I         048 57.65        13.8 0.25                           130  19 
 GRA  SZ ES   1    049 16.49                             135     0.4 7  130  19 
 OCA  SZ EP   1    048 59.05                             128    -0.4 7  163 355 
 OCA  SZ ES   2    049 21.26                             128    -0.2 5  163 355 
 OCA  SZ I         049 24.17        13.1 0.28                           163 355 
 NOR  SN ES   1    049 33.47                             118     0.1 6  230 235 
 NOR  SZ I         049 36.45         0.8 0.53                           230 235 
 PRA  HZ EP   1    049 24.36                             106     0.4 4  387 209 
                                                                                
