 2010  611 0557 14.8 L   6.855 -73.137134.0  RSN 12 0.4 1.9LRSN                1
 GAP=155        0.83       3.4     6.8  6.9 -0.1472E+02  0.2328E+02 -0.4626E+01E
 Epicentro: LOS SANTOS - SANTANDER                                             3
 ACTION:DUP 10-08-24 10:09 OP:vdl  STATUS:               ID:20100611055715dL   I
 2010-06-11-0554-11S.COL___117                                                 6
 STAT SP IPHASW D HRMM SECON CODA AMPLIT PERI AZIMU VELO SNR AR TRES W  DIS CAZ7
 GIR2 SZ EP   1    557 33.24                             169     0.4 7   26 346 
 BAR2 SZ EP        557 33.17                             167     0.010   30 190 
 BAR2 SZ ES   1    557 47.43                             167     0.0 7   30 190 
 BRI  SZ EP   1    557 37.12                             141     0.0 7  102  21 
 BRI  SZ ES   1    557 55.28                             141     0.8 7  102  21 
 RUS  HZ EP   1    557 37.53                             140    -0.3 7  107 177 
 RUS  HZ I         557 38.41         7.2 0.17                           107 177 
 RUS  HN ES   1    557 55.92                             140     0.1 7  107 177 
 GUE  SZ EP   1    557 37.96                             139     0.1 7  110  12 
 GRA  SZ EP        557 37.95                             136    -0.510  120  18 
 GRA  SZ ES   1    557 56.46                             136    -0.5 7  120  18 
 OCA  SZ EP        557 41.62                             128     0.0 9  154 353 
 CHI  HZ EP   1    557 51.86                             114    -0.6 6  255 195 
 CHI  HN ES   1    558 21.60                             114    -0.3 6  255 195 
 CHI  HZ I         558 27.66         5.5 0.54                           255 195 
 ROSC BZ EP   1    557 53.47                             114     0.6 6  258 211 
 ROSC BN ES        558 22.81                             114     0.2 8  258 211 
 ROSC BZ I         558 26.60         6.1 0.37                           258 211 
 HEL  HZ EP   1    557 55.07                             112     0.4 6  275 255 
 HEL  HN ES   1    558 25.12                             112    -0.7 6  275 255 
 HEL  HZ I         558 32.28         6.1 0.44                           275 255 
 RREF BZ EP   1    558  1.49                             108     0.5 5  326 229 
 RREF BN ES   1    558 36.98                             108     0.0 5  326 229 
 RREF BZ I         558 46.19         4.8 0.48                           326 229 
 TOL  SZ EP   1    558  3.47                             107     0.3 5  348 224 
                                                                                
