 2017  111 0420 29.7 L   6.774 -73.157147.3  RSN  5 0.2 1.2LRSN                1
 GAP=234        0.49       4.9     6.7  4.0  0.2420E+02  0.4786E+01  0.2085E+01E
 Epicentro: LOS SANTOS - SANTANDER                                             3
 ACTION:UPD 17-05-22 15:58 OP:jn   STATUS:               ID:20170111042029 L   I
 OLDACT:UP  17-01-11 15:01 OP:and  STATUS:               ID:20170111041742     3
 OLDACT:UP  17-01-11 15:01 OP:and  STATUS:               ID:20170111041742     3
 OLDACT:UP  17-01-11 15:01 OP:and  STATUS:               ID:20170111041742     3
 OLDACT:REG 17-01-11 12:40 OP:and  STATUS:               ID:20170111041742     3
 2017-01-11-0418-00M.COL___346                                                 6
 STAT SP IPHASW D HRMM SECON CODA AMPLIT PERI AZIMU VELO AIN AR TRES W  DIS CAZ7
 BAR2 EZ EP        420 49.24                             172   -0.1810 20.3 188 
 BAR2 EZ ES        421  4.64                             172   -0.2010 20.3 188 
 BAR2 EZ I         421  7.04         3.5 0.16            172           20.3 188 
 BRR  HZ EP        420 51.11                             153    0.1110 71.6 301 
 BRR  HN ES        421  7.82                             153    0.1710 71.6 301 
 RUS  HZ EP        420 53.59                             145    0.2210 97.8 175 
 RUS  HN ES        421 11.93                             145    0.0710 97.8 175 
 PTB  HZ EP        420 56.38                             133   -0.22 9  146 260 
 PTB  HN ES   3    421 17.64                             133    0.03 2  146 260 
 PTB  HZ I         421 18.10         2.2 0.18            134            146 260 
 ZAR  HN ES   4    421 29.23                             123    1.64 0  204 293 
 GUY2CHZ EP   4    421 17.42                             113    4.38 0  299 235 
 GUY2CHN ES   4    421 50.24                             113    3.36 0  299 235 
 GUY2CHZ I         421 59.57         0.8 0.50                           299 235 
                                                                                
