 2013 1111 0844  2.9 L   6.817 -73.178135.6  RSN 15 0.5 2.2LRSN                1
 GAP=132        1.24       3.7     4.9  7.3 -0.4785E+01  0.1445E+02 -0.4681E+01E
 Epicentro: LOS SANTOS - SANTANDER                                             3
 ACTION:UPD 14-01-09 16:27 OP:ep   STATUS:               ID:20131111084402 L   I
 OLDACT:REG 13-11-11 08:02 OP:nd   STATUS:               ID:20131111084000     3
 2013-11-11-0840-00M.COL___273                                                 6
 STAT SP IPHASW D HRMM SECON CODA AMPLIT PERI AZIMU VELO AIN AR TRES W  DIS CAZ7
 BAR2 SZ IP     D  844 21.41                             169    0.1110 24.8 181 
 BAR2 SZ ES        844 35.66                             169   -0.0210 24.8 181 
 BAR2 SZ I         844 37.21        66.4 0.14            169           24.8 181 
 BRR  HZ IP     D  844 23.35                             152    0.6710 67.2 299 
 BRR  HN ES   2    844 38.43                             152    0.28 5 67.2 299 
 BRR  HZ I         844 41.82        38.6 0.14            150           67.2 299 
 PAM  SZ EP        844 24.29                             149    0.2310 78.3  42 
 PAM  SE ES        844 41.09                             149    0.5010 78.3  42 
 PAM  SZ I         844 43.57        36.9 0.56            153           78.3  42 
 RUS  HZ EP        844 25.44                             141   -0.3410  103 174 
 RUS  HN ES        844 43.39                             141   -0.2810  103 174 
 RUS  HZ I         844 45.56        13.5 0.36            145            103 174 
 PTB  HZ EP        844 28.10                             130   -0.62 9  145 258 
 PTB  HN ES        844 48.23                             130   -0.67 9  145 258 
 PTB  HZ I         844 52.38        22.2 0.18            131            145 258 
 OCA  HZ EP        844 30.03                             128   -0.15 9  158 354 
 OCA  HN ES        844 50.72                             128   -0.77 9  158 354 
 OCA  HZ I         844 54.78        29.0 0.28            130            158 354 
 TAM  HZ IP   4 C  844 29.80                             127   -0.32 0  159 105 
 TAM  HN ES   4    844 49.94                             127   -1.45 0  159 105 
 TAM  HZ I         844 52.27        13.0 0.44            133            159 105 
 SPBC HZ EP        844 30.21                             127   -0.31 9  162 218 
 SPBC HN ES        844 52.40                             127    0.30 9  162 218 
 SPBC HZ I         844 57.84        10.5 0.38            129            162 218 
 ZAR  HZ EP        844 34.49                             121    0.25 9  200 292 
 ZAR  HN ES        844 59.47                             121    0.75 9  200 292 
 ZAR  HZ I         845  6.21        16.8 0.26            122            200 292 
 NOR  HZ EP        844 37.99                             116    0.17 8  233 234 
 NOR  HN ES        845  5.04                             116   -0.06 8  233 234 
 NOR  HZ I         845  8.57        12.2 0.26            118            233 234 
 SML  HZ EP        844 37.84                             116   -0.75 8  241 336 
 SML  HN ES   2    845  6.33                             116   -0.13 4  241 336 
 SML  HZ I         845  9.67        19.2 0.10            118            241 336 
 HEL  HZ EP        844 43.65                             113    1.41 8  269 255 
 HEL  HN ES   2    845 11.99                             113   -0.96 4  269 255 
 HEL  HZ I         845 21.00         5.7 0.24            115            269 255 
 GUY2CHZ EP   4    844 47.55                             110    1.74 0  299 234 
 GUY2CHN ES   4    845 19.57                             110    0.26 0  299 234 
 GUY2CHZ I         845 26.89        11.5 0.26                           299 234 
 CBOC HZ EP   4    844 49.98                             108    0.93 0  331 252 
 CBOC HN ES   4    845 24.53                             108   -0.54 0  331 252 
 CBOC HZ I         845 30.42         3.0 0.30            110            331 252 
 SJC  HZ EP   4    844 55.89                             104   -1.80 0  406 327 
 SJC  HN ES   4    845 36.78                             104   -3.68 0  406 327 
 SJC  HZ I         845 40.97         3.1 0.38            106            406 327 
                                                                                
