 2014 1211 0826  9.2 L   6.829 -73.157140.8  RSN 32 0.5 2.7LRSN                1
 GAP= 67        1.03       2.1     2.6  4.1 -0.7297E+00  0.2602E+01  0.1118E+01E
 Epicentro: LOS SANTOS - SANTANDER                                             3
 ACTION:UPD 15-02-10 17:02 OP:nd   STATUS:               ID:20141211082609 L   I
 OLDACT:REG 14-12-11 13:05 OP:fm   STATUS:               ID:20141211081740     3
 2014-12-11-0817-40M.COL___298                                                 6
 STAT SP IPHASW D HRMM SECON CODA AMPLIT PERI AZIMU VELO AIN AR TRES W  DIS CAZ7
 BAR2 EZ EP        826 28.63                             169    0.3010 26.3 186 
 BAR2 EZ ES        826 42.56                             169   -0.6710 26.3 186 
 BAR2 EZ I         826 44.52       208.4 0.24            166           26.3 186 
 BRR  HZ IP     D  826 30.38                             152    0.6910 68.6 297 
 BRR  HE ES        826 45.89                             152    0.2310 68.6 297 
 BRR  HZ I         826 51.16       114.6 0.22            146           68.6 297 
 PAM  SZ IP     D  826 31.50                             150    0.6810 75.8  42 
 PAM  SN ES        826 48.04                             150    0.3710 75.8  42 
 PAM  SZ I         826 50.41       118.3 0.52            151           75.8  42 
 RUS  HZ EP     C  826 32.73                             142   -0.0110  104 175 
 RUS  HN ES        826 50.98                             142   -0.1110  104 175 
 RUS  HZ I         826 53.19        75.5 0.20            139            104 175 
 PTB  HZ EP        826 35.18                             131   -0.56 9  147 258 
 PTB  HE ES        826 56.12                             131   -0.30 9  147 258 
 PTB  HZ I         826 59.90        69.4 0.28            126            147 258 
 TAM  HZ IP     C  826 37.06                             129    0.34 9  157 106 
 TAM  HE ES        826 58.07                             129   -0.09 9  157 106 
 OCA  HZ EP        826 36.95                             129    0.11 9  157 353 
 OCA  HE ES        826 58.60                             129    0.22 9  157 353 
 OCA  HZ I         827  1.43        61.5 0.20            126            157 353 
 SPBC HZ EP        826 37.57                             127    0.05 9  165 218 
 SPBC HE ES        826 59.07                             127   -0.51 9  165 218 
 SPBC HZ I         827  6.80       100.6 0.30            123            165 218 
 ZAR  HZ EP        826 41.28                             121    0.17 9  202 291 
 ZAR  HE ES        827  6.26                             121    0.29 9  202 291 
 ZAR  HZ I         827 12.14        66.4 0.28            117            202 291 
 NOR  HZ EP        826 44.84                             117    0.07 8  236 234 
 NOR  HE ES        827 11.71                             117   -0.78 8  236 234 
 NOR  HZ I         827 18.70        48.7 0.30            113            236 234 
 SML  HZ EP        826 45.06                             117   -0.14 8  240 335 
 SML  HE ES        827 12.49                             117   -0.77 8  240 335 
 SML  HZ I         827 15.34        65.2 0.30            114            240 335 
 CHI  HZ EP        826 47.18                             116    0.22 8  251 195 
 CHI  HN ES        827 15.75                             116   -0.64 8  251 195 
 CHI  HZ I         827 24.15        30.1 0.42            113            251 195 
 ROSC BZ EP        826 47.31                             115   -0.00 8  255 210 
 ROSC BE ES   4    827 19.19                             115    2.17 0  255 210 
 ROSC BZ I         827 23.47        61.1 0.35            112            255 210 
 HEL  HZ EP        826 49.85                             114    0.71 8  272 255 
 HEL  HN ES        827 20.12                             114   -0.16 8  272 255 
 HEL  HZ I         827 27.29        26.5 0.48            110            272 255 
 URE  HZ EP   4    826 48.50                             113   -1.29 0  281 291 
 URE  HE ES   4    827 18.73                             113   -2.70 0  281 291 
 URE  HZ I         827 32.49        47.3 0.28            109            281 291 
 GUY2CHZ EP        826 52.91                             111    0.20 7  302 234 
 GUY2CHN ES        827 26.74                             111    0.12 7  302 234 
 GUY2CHZ I         827 36.80        25.7 0.68                           302 234 
 VIL  SZ EP        826 52.63                             111   -0.12 7  306 191 
 VIL  SE ES        827 26.37                             111   -0.33 7  306 191 
 VIL  SZ I         827 36.27        33.5 0.36            108            306 191 
 PTGC HZ EP   4    826 51.93                             110   -1.33 0  312 159 
 PTGC HE ES   4    827 25.26                             110   -2.35 0  312 159 
 PTGC HZ I         827 28.12        17.0 0.46            108            312 159 
 RREF HZ EP        826 55.91                             110    0.62 7  323 229 
 RREF HE ES   4    827 33.76                             110    2.54 0  323 229 
 RREF HZ I         827 41.82        29.5 0.36            107            323 229 
 CBOC HZ EP        826 56.29                             109    0.37 7  333 251 
 CBOC HE ES   4    827 29.72                             109   -2.61 0  333 251 
 CBOC HZ I         827 41.98         9.4 0.68            106            333 251 
 DBB  SZ EP        826 56.21                             109   -0.12 7  338 274 
 DBB  SZ ES   4    827 31.99                             109   -1.08 0  338 274 
 TOL  SZ EP        826 57.45                             108   -0.00 7  345 224 
 TOL  SE ES        827 36.04                             108    0.97 7  345 224 
 TOL  SZ I         827 43.42        67.7 0.26            105            345 224 
 MON  HZ EP   4    826 55.81                             108   -1.88 0  351 308 
 MON  HE ES   4    827 34.42                             108   -1.07 0  351 308 
 MON  HZ I         827 36.70        13.9 0.40            105            351 308 
 ARGC HN ES        827 35.78                             107   -0.79 6  356 340 
 ARGC HZ I         827 39.83         8.7 0.28            105            356 340 
 ANIL HZ EP        826 59.48                             107    0.47 6  359 224 
 ANIL HE ES        827 38.12                             107    0.28 6  359 224 
 ANIL HZ I         827 50.22         6.9 0.32            105            359 224 
 SDV  BZ EP        826 57.78                             107   -1.18 6  359  51 
 SDV  BE ES   4    827 34.01                             107   -3.74 0  359  51 
 SDV  BZ I         827 37.19        13.5 0.45            106            359  51 
 ORTC HZ EP        827  3.24                             105    0.04 6  397 216 
 ORTC HN ES        827 45.96                             105    0.66 6  397 216 
 ORTC HZ I         827 53.14        20.0 0.20            103            397 216 
 PAL  HZ EP        827  4.40                             105    0.11 6  406 239 
 PAL  HE ES        827 47.36                             105    0.12 6  406 239 
 PAL  HZ I         827 53.33         9.9 0.24            102            406 239 
 SJC  HZ EP        827  2.83                             105   -1.40 6  406 327 
 SJC  HE ES   4    827 43.01                             105   -4.12 0  406 327 
 SJC  HZ I         827 48.06        13.0 0.50            103            406 327 
 GUA  SZ EP        827 11.62                             102   -1.03 5  477 173 
 GUA  SN ES   4    827 57.99                             102   -4.12 0  477 173 
 GUA  SZ I         828  5.18        20.9 0.24            100            477 173 
 MACC HZ EP   4    827 15.95                             101   -2.23 0  524 188 
 MACC HN ES   4    828  7.53                             101   -4.43 0  524 188 
 MACC HZ I         828 14.94         6.4 0.66             99            524 188 
 FLO2 HZ EP        827 31.78                              98   -0.76 2  643 206 
 FLO2 HN ES        828 36.46                              98   -1.07 2  643 206 
                                                                                
