 2015  611 0216 13.0 L   6.767 -73.137143.0  RSN 18 0.6 2.2LRSN                1
 GAP=120        1.37       3.3     4.7  6.3 -0.3585E+01  0.7898E+01  0.3270E+01E
 Epicentro: LOS SANTOS - SANTANDER                                             3
 ACTION:UPD 15-09-10 22:11 OP:cam  STATUS:               ID:20150611021613 L   I
 OLDACT:REG 15-06-11 13:22 OP:stll STATUS:               ID:20150611020746     3
 2015-06-11-0207-46M.COL___291                                                 6
 STAT SP IPHASW D HRMM SECON CODA AMPLIT PERI AZIMU VELO AIN AR TRES W  DIS CAZ7
 BAR2 EZ EP        216 32.26                             172    0.0310 20.0 194 
 BAR2 EZ ES        216 47.19                             172   -0.0410 20.0 194 
 BAR2 EZ I         216 48.61        31.7 0.16            168           20.0 194 
 BRR  HZ EP     C  216 34.47                             151    0.4710 73.8 301 
 BRR  HN ES        216 51.14                             151    0.7610 73.8 301 
 BRR  HZ I         216 54.43        30.2 0.26            147           73.8 301 
 PAM  SZ EP     D  216 35.29                             149    0.2410 79.6  37 
 PAM  SZ I         216 35.57        22.0 0.22            153           79.6  37 
 PAM  SN ES        216 52.03                             149   -0.2310 79.6  37 
 RUS  HZ EP     C  216 36.25                             144    0.0410 96.9 176 
 RUS  HN ES        216 54.15                             144   -0.1710 96.9 176 
 RUS  HZ I         216 56.42        12.8 0.24            145           96.9 176 
 SPBC HZ EP        216 41.27                             129    0.20 9  161 220 
 SPBC HN ES        217  2.77                             129   -0.21 9  161 220 
 SPBC HZ I         217  8.98        24.7 0.10            128            161 220 
 OCA  HN ES        217  3.61                             128   -0.02 9  164 353 
 OCA  HZ I         217  6.03        42.2 0.18            129            164 353 
 ZAR  HZ EP        216 45.38                             121   -0.11 8  206 293 
 ZAR  HN ES        217 10.38                             121   -0.46 8  206 293 
 ZAR  HZ I         217 16.01        15.4 0.26            120            206 293 
 NOR  HZ EP        216 48.44                             118    0.02 8  233 235 
 NOR  HN ES        217 15.97                             118   -0.09 8  233 235 
 NOR  HZ I         217 21.63        15.4 0.44            118            233 235 
 CHI  HZ EP        216 50.45                             117    0.26 8  245 196 
 CHI  HZ I         216 51.30         5.1 0.44            117            245 196 
 CHI  HN ES        217 18.78                             117   -0.42 8  245 196 
 SML  HZ EP        216 48.97                             116   -0.90 8  247 335 
 SML  HE ES        217 18.57                             116   -0.06 8  247 335 
 SML  HZ I         217 20.63        20.7 0.10            117            247 335 
 HEL  HZ EP     C  216 54.14                             114    1.07 8  272 257 
 HEL  HN ES        217 22.84                             114   -1.49 8  272 257 
 HEL  HZ I         217 31.96         7.9 0.22            114            272 257 
 GUY2CHZ EP        216 56.52                             112    0.19 7  300 235 
 GUY2CHN ES        217 31.80                             112    1.67 7  300 235 
 GUY2CHZ I         217 38.57         8.6 0.52                           300 235 
 SOCV BZ EP        216 55.06                             111   -0.99 7  302  56 
 RREF HZ EP        216 59.39                             110    0.56 7  320 230 
 RREF HE ES        217 33.45                             110   -1.14 7  320 230 
 RREF HZ I         217 42.82         2.8 0.68            110            320 230 
 TOL  SZ EP        217  1.94                             109    1.02 7  342 225 
 TOL  SN ES        217 38.06                             109   -0.25 7  342 225 
 TOL  SZ I         217 46.03         5.5 0.34            109            342 225 
 MON  HZ EP   9    216 59.65                             108   -2.59 0  357 309 
 MON  HN ES        217 36.78                                   -1.28 6  357 309 
 MON  HZ I         217 53.49         2.6 0.44            108            357 309 
 PRA  HZ EP        217  5.89                             106   -0.22 6  389 210 
 PRA  HN ES        217 46.48                             106   -1.06 6  389 210 
 PRA  HZ I         217 53.98         4.7 0.26            107            389 210 
 ORTC HZ EP        217  7.38                             106    0.83 6  393 217 
 ORTC HN ES        217 48.21                             106   -0.10 6  393 217 
 ORTC HZ I         217 55.79         3.2 0.48            106            393 217 
                                                                                
