 2016  311 0340 56.5 L   6.828 -73.172142.0  RSN 11 0.3 2.2LRSN                1
 GAP=116        0.74       2.1     3.4  4.5 -0.1696E+01  0.5988E+01  0.6319E-01E
 Epicentro: ZAPATOCA - SANTANDER                                               3
 ACTION:UPD 16-05-13 21:23 OP:cam  STATUS:               ID:20160311034056 L   I
 OLDACT:REG 16-03-11 13:00 OP:cara STATUS:               ID:20160311033750     3
 2016-03-11-0337-50M.COL___265                                                 6
 STAT SP IPHASW D HRMM SECON CODA AMPLIT PERI AZIMU VELO AIN AR TRES W  DIS CAZ7
 BAR2 EZ IP        341 15.77                             169    0.0610 26.1 182 
 BAR2 EZ ES        341 30.58                             169   -0.1410 26.1 182 
 BAR2 EZ I         341 32.01        28.4 0.22            169           26.1 182 
 PAM  EZ EP        341 18.64                             150    0.3810 76.9  43 
 PAM  EN ES        341 35.57                             150    0.3110 76.9  43 
 PAM  EZ I         341 37.92        38.8 0.48            154           76.9  43 
 RUS  HZ EP        341 19.90                             142   -0.2110  104 175 
 RUS  HN ES        341 38.66                             142    0.1210  104 175 
 RUS  HZ I         341 39.62        19.8 0.32            144            104 175 
 OCA  HZ EP        341 24.10                             129   -0.07 9  157 354 
 OCA  HN ES        341 45.20                             129   -0.57 9  157 354 
 OCA  HZ I         341 48.95        26.9 0.46            131            157 354 
 SPBC HZ EP        341 24.69                             128   -0.06 9  164 217 
 SPBC HN ES        341 46.87                             128    0.06 9  164 217 
 SPBC HZ I         341 53.14        24.2 0.22            129            164 217 
 ZAR  HZ EP        341 28.30                             122    0.02 9  200 292 
 ZAR  HN ES        341 53.33                             122    0.25 9  200 292 
 ZAR  HZ I         341 59.84         7.6 0.30            123            200 292 
 NOR  HZ EP        341 31.96                             118    0.03 8  234 233 
 NOR  HN ES        341 59.31                             118   -0.28 8  234 233 
 NOR  HZ I         342  2.32         9.4 0.16            119            234 233 
 CHI  HZ IP     C  341 33.98                             116   -0.24 8  251 194 
 CHI  HN ES        342  3.35                             116   -0.31 8  251 194 
 CHI  HZ I         342  7.03         7.9 0.56            118            251 194 
 GUY2CHZ EP   9    341 41.42                             112    1.57 0  301 234 
 GUY2CHN ES        342 15.34                                    0.09 7  301 234 
 GUY2CHZ I         342 21.89         6.7 0.32                           301 234 
 PTGC HZ EP   9    341 38.91                             111   -1.71 0  313 158 
 PTGC HN ES        342 12.73                                   -0.61 7  313 158 
 PTGC HZ I         342 17.35        10.7 0.50            112            313 158 
 ORTC HZ EP        341 50.21                             106   -0.16 6  396 216 
 ORTC HN ES        342 33.53                             106    1.13 6  396 216 
 ORTC HZ I         342 37.07         4.2 0.30            107            396 216 
                                                                                
