 2012  211 0718 57.4 L   6.760 -73.134148.0  RSN  6 0.3 1.7LRSN                1
 GAP=140        0.65       4.3     5.9  6.2 -0.3924E+01  0.1223E+02 -0.2120E+01E
 ACTION:UP  12-03-07 16:29 OP:epov STATUS:               ID:20120211071857 L   I
 2012-02-11-0710-00M.COL___188                                                 6
 STAT SP IPHASW D HRMM SECON CODA AMPLIT PERI AZIMU VELO AIN AR TRES W  DIS CAZ7
 BAR2 SZ EP        719 17.24                             172    0.0210 19.3 196 
 BAR2 SZ ES   1    719 32.36                             172   -0.32 7 19.3 196 
 BAR2 SZ I         719 33.89        14.7 0.48                          19.3 196 
 GIR2 SZ EP        719 17.37                             166   -0.0910 35.9 349 
 BRR  HZ EP        719 19.17                             152    0.2010 74.5 301 
 BRR  HZ I         719 19.47        16.3 0.28                          74.5 301 
 BRR  HN ES   2    719 36.58                             152    0.78 5 74.5 301 
 PAM  SZ EP        719 20.06                             150    0.0510 80.1  37 
 PAM  SN ES   1    719 37.44                             150   -0.21 7 80.1  37 
 RUS  HZ EP        719 21.39                             145    0.3410 96.1 177 
 RUS  HN ES   1    719 39.38                             145   -0.12 7 96.1 177 
 RUS  HZ I         719 40.99         6.0 0.32                          96.1 177 
 PTB  HZ EP        719 24.20                             132   -0.39 9  148 261 
 PTB  HZ I         719 25.73         4.2 0.18                           148 261 
                                                                                
