 2015  711 0451  4.9 L   6.774 -73.175147.2  RSN  9 0.3 1.8LRSN                1
 GAP=180        0.59       2.1     3.4  5.2 -0.8988E+00  0.5927E+01 -0.2088E+01E
 Epicentro: LOS SANTOS - SANTANDER                                             3
 ACTION:UPD 15-09-08 21:48 OP:cam  STATUS:               ID:20150711045104 L   I
 OLDACT:REG 15-07-11 12:29 OP:spq  STATUS:               ID:20150711044750     3
 2015-07-11-0447-50M.COL___340                                                 6
 STAT SP IPHASW D HRMM SECON CODA AMPLIT PERI AZIMU VELO AIN AR TRES W  DIS CAZ7
 BAR2 EZ EP        451 24.46                             172   -0.1510 20.1 182 
 BAR2 EZ ES   1    451 39.99                             172   -0.02 7 20.1 182 
 BAR2 EZ I         451 40.81        21.2 0.13            169           20.1 182 
 RUS  HZ EP   1    451 28.35                             145   -0.23 7 98.0 174 
 RUS  HE ES   1    451 47.17                             145    0.10 7 98.0 174 
 RUS  HZ I         451 48.23         6.3 0.26            147           98.0 174 
 OCA  HZ EP        451 33.80                             129    0.27 9  163 354 
 OCA  HN ES        451 56.26                             129    0.38 9  163 354 
 OCA  HZ I         451 59.21        12.4 0.30            130            163 354 
 ZAR  HZ EP   1    451 36.88                             123   -0.34 6  202 293 
 ZAR  HE ES        452  2.13                             123   -0.32 9  202 293 
 ZAR  HZ I         452 13.00         3.9 0.32            122            202 293 
 NOR  HN ES        452  7.86                             119    0.05 8  230 235 
 NOR  HZ I         452 11.84         4.6 0.16            119            230 235 
 SML  HZ EP        451 41.42                             118   -0.30 8  245 336 
 SML  HE ES   1    452 10.29                             118   -0.17 6  245 336 
 SML  HZ I         452 13.54         6.4 0.10            118            245 336 
 GUY2CHZ EP   4    451 50.41                             113    2.34 0  297 235 
 GUY2CHE ES   4    452 24.74                             113    2.98 0  297 235 
 GUY2CHZ I         452 30.90         2.4 0.26                           297 235 
 CBOC HZ EP   4    451 52.58                             110    1.18 0  330 252 
 CBOC HN ES   1    452 28.45                             110    0.76 5  330 252 
 CBOC HZ I         452 32.35         0.8 0.23            111            330 252 
 PRA  HZ EP   1    451 58.19                             107    0.22 4  388 209 
 PRA  HE ES   1    452 39.62                             107    0.24 4  388 209 
 PRA  HZ I         452 46.45         1.8 0.30            108            388 209 
                                                                                
