 2013 1011 0547  8.1 L   6.796 -73.158151.8  RSN  7 0.5 1.4LRSN                1
 GAP=182        0.90       5.1     6.8  9.0  0.9145E+01  0.3246E+01  0.4187E+01E
 Epicentro: LOS SANTOS - SANTANDER                                             3
 ACTION:UPD 13-11-25 09:20 OP:ep   STATUS:               ID:20131011054708 L   I
 OLDACT:UP  13-10-11 11:01 OP:mh   STATUS:               ID:20131011053960d    3
 OLDACT:DUP 13-10-11 11:01 OP:mh   STATUS:               ID:20131011053960d    3
 2013-10-11-0539-59M.COL___273                                                 6
 STAT SP IPHASW D HRMM SECON CODA AMPLIT PERI AZIMU VELO AIN AR TRES W  DIS CAZ7
 BAR2 SZ EP   1    547 28.87                             171    0.45 7 22.7 187 
 BAR2 SZ I         547 45.39         8.5 0.42            174           22.7 187 
 BRR  HN ES        547 46.77                             154   -0.0210 70.2 299 
 BRR  HZ I         547 51.37         4.3 0.40            152           70.2 299 
 RUS  HZ EP   1    547 31.67                             145   -0.74 7  100 175 
 RUS  HN ES        547 51.38                             145   -0.0010  100 175 
 RUS  HZ I         547 54.00         1.8 0.46            146            100 175 
 PTB  HZ EP        547 35.09                             134   -0.33 9  146 259 
 PTB  HN ES   1    547 56.17                             134   -0.58 7  146 259 
 PTB  HZ I         548  1.33         2.6 0.30            134            146 259 
 OCA  HN ES   2    547 59.63                             131    0.28 5  161 354 
 SPBC HZ EP   1    547 37.72                             131    0.78 7  162 219 
 SPBC HN ES        547 59.72                             131    0.27 9  162 219 
 SPBC HZ I         548  2.55         3.2 0.30            132            162 219 
 ZAR  HN ES   2    548  6.93                             124    0.59 4  203 292 
 ZAR  HZ I         548 12.74         3.7 0.40            121            203 292 
                                                                                
