 2013  211 0245 36.6 L   6.636 -73.558107.9  RSN 10 0.5 2.0LRSN                1
 GAP= 72        1.09       3.7     4.2  7.5 -0.1728E+01  0.7595E+01 -0.2186E+01E
 Epicentro: EL CARMEN DE CHUCURI - SANTANDER                                   3
 ACTION:UPD 13-03-12 09:32 OP:ep   STATUS:               ID:20130211024536 L   I
 2013-02-11-0240-00M.COL___241                                                 6
 STAT SP IPHASW D HRMM SECON CODA AMPLIT PERI AZIMU VELO AIN AR TRES W  DIS CAZ7
 BAR2 SZ IP     D  245 52.54                             157    0.1710 41.8  97 
 BAR2 SZ ES   1    246  4.86                             157    0.18 7 41.8  97 
 BRR  HZ IP     D  245 53.05                             151    0.3410 54.8 342 
 BRR  HN ES   1    246  6.21                             151    0.92 7 54.8 342 
 BRR  HZ I         246  7.30        26.3 0.12            148           54.8 342 
 RUS  HZ IP     C  245 56.17                             135   -0.4010 97.5 147 
 RUS  HN ES   1    246 11.65                             135   -0.51 7 97.5 147 
 RUS  HZ I         246 13.83        15.6 0.36            138           97.5 147 
 PTB  HZ IP     D  245 55.62                             134   -0.5010 99.9 264 
 PTB  HN ES   1    246 10.31                             134   -1.06 7 99.9 264 
 PTB  HZ I         246 15.63        23.9 0.42            132           99.9 264 
 PAM  SZ EP        245 58.72                             128   -0.1510  123  51 
 PAM  SN ES   1    246 16.14                             128   -0.12 7  123  51 
 PAM  SZ I         246 17.22        18.7 0.54            129            123  51 
 ZAR  HZ EP   1    246  3.83                             117    0.50 7  172 303 
 ZAR  HN ES   4    246 25.95                             117    1.75 0  172 303 
 ZAR  HZ I         246 29.33        17.6 0.24            116            172 303 
 OCA  HZ IP     C  246  4.21                             116   -0.10 9  179   8 
 OCA  HN ES   1    246 26.12                             116    0.19 7  179   8 
 OCA  HZ I         246 32.07        23.7 0.20            116            179   8 
 CHI  HZ EP   1    246 10.17                             111    0.67 6  223 185 
 CHI  HN ES   1    246 36.07                             111    0.89 6  223 185 
 CHI  HZ I         246 40.20         4.8 0.50            111            223 185 
 HEL  HZ EP   1    246 10.36                             111    0.82 6  224 257 
 HEL  HN ES   1    246 35.34                             111    0.09 6  224 257 
 HEL  HZ I         246 39.86         5.8 0.32            110            224 257 
 SML  HZ EP        246 11.15                             108   -0.52 8  246 347 
 SML  HN ES   4    246 41.33                             108    2.29 0  246 347 
 SML  HZ I         246 48.00        23.0 0.10            108            246 347 
                                                                                
