 2013 1211 0702 54.3 L   6.801 -73.145146.9  RSN 15 0.5 2.3LRSN                1
 GAP= 71        1.22       3.3     3.9  5.9 -0.2017E+01  0.4373E+01  0.1860E+01E
 Epicentro: LOS SANTOS - SANTANDER                                             3
 ACTION:UPD 14-01-13 10:17 OP:ep   STATUS:               ID:20131211070254 L   I
 OLDACT:REG 13-12-11 06:28 OP:jn   STATUS:               ID:20131211070000     3
 2013-12-11-0700-00M.COL___285                                                 6
 STAT SP IPHASW D HRMM SECON CODA AMPLIT PERI AZIMU VELO AIN AR TRES W  DIS CAZ7
 BAR2 SZ EP        7 3 14.07                             171   -0.0110 23.4 190 
 BAR2 SZ ES        7 3 29.55                             171    0.0510 23.4 190 
 BAR2 SZ I         7 3 30.78        56.5 0.30            168           23.4 190 
 BRR  HZ EP        7 3 15.91                             153    0.3310 71.2 298 
 BRR  HN ES        7 3 33.18                             153    1.0110 71.2 298 
 BRR  HZ I         7 3 36.95        24.7 0.56            145           71.2 298 
 PAM  SZ EP        7 3 16.90                             151    0.2610 77.3  40 
 PAM  SN ES        7 3 34.20                             151    0.1410 77.3  40 
 PAM  SZ I         7 3 36.24        27.4 0.20            151           77.3  40 
 RUS  HZ EP        7 3 17.96                             144   -0.2210  101 176 
 RUS  HN ES        7 3 35.92                             144   -0.8810  101 176 
 RUS  HZ I         7 3 37.90        14.9 0.42            143            101 176 
 PTB  HZ EP        7 3 20.95                             132   -0.42 9  148 259 
 PTB  HN ES        7 3 41.60                             132   -0.88 9  148 259 
 PTB  HZ I         7 3 47.94        27.4 0.22            127            148 259 
 TAM  HZ EP        7 3 22.23                             131    0.15 9  155 105 
 TAM  HN ES        7 3 43.92                             131    0.19 9  155 105 
 OCA  HZ EP        7 3 22.96                             130    0.26 9  160 353 
 OCA  HN ES        7 3 44.17                             130   -0.67 9  160 353 
 OCA  HZ I         7 3 52.51        22.0 0.30            126            160 353 
 SPBC HZ EP        7 3 23.04                             129    0.14 9  163 219 
 SPBC HN ES        7 3 45.82                             129    0.61 9  163 219 
 SPBC HZ I         7 3 50.11        34.5 0.40            125            163 219 
 NOR  HZ EP        7 3 30.10                             119   -0.01 8  235 234 
 NOR  HN ES        7 3 58.30                             119    0.26 8  235 234 
 NOR  HZ I         7 4  1.90        16.6 0.22            115            235 234 
 SML  HZ EP        7 3 30.20                             118   -0.79 8  244 335 
 SML  HE ES   1    7 3 58.94                             118   -0.66 6  244 335 
 CHI  HZ EP        7 3 32.06                             117   -0.02 8  249 195 
 CHI  HN ES        7 4  1.12                             117   -0.42 8  249 195 
 CHI  HZ I         7 4  7.40         8.7 0.28            115            249 195 
 HEL  HZ EP        7 3 35.85                             115    1.26 8  272 256 
 HEL  HZ I         7 4 12.79         8.4 0.36            111            272 256 
 GUY2CHZ EP   1    7 3 38.35                             112    0.37 5  301 235 
 GUY2CHZ I         7 4 20.93        16.2 0.76                           301 235 
 PRA  HZ EP        7 3 47.71                             107   -0.17 6  392 210 
 PRA  HE ES   1    7 4 29.38                             107   -0.29 4  392 210 
 PRA  HZ I         7 4 35.87        11.5 0.34            105            392 210 
 PAL  HZ EP   2    7 3 49.67                             106    0.15 3  406 239 
                                                                                
