 2012  211 0337 57.8 L   6.759 -73.136148.1  RSN 10 0.4 1.6LRSN                1
 GAP=140        0.78       3.8     4.0  6.2 -0.2214E+01  0.3452E+01 -0.2318E+01E
 ACTION:UP  12-03-07 16:29 OP:epov STATUS:               ID:20120211033757 L   I
 2012-02-11-0330-00M.COL___188                                                 6
 STAT SP IPHASW D HRMM SECON CODA AMPLIT PERI AZIMU VELO AIN AR TRES W  DIS CAZ7
 BAR2 SZ IP        338 17.73                             172    0.1210 19.2 195 
 BAR2 SZ I         338 17.89        14.4 0.18                          19.2 195 
 BAR2 SZ ES   1    338 32.54                             172   -0.54 7 19.2 195 
 GIR2 SZ EP   2    338 17.46                             166   -0.39 5 35.9 350 
 BRR  HZ IP     C  338 19.56                             152    0.2110 74.3 301 
 BRR  HZ I         338 19.78        25.0 0.18                          74.3 301 
 BRR  HN ES   1    338 36.85                             152    0.67 7 74.3 301 
 PAM  SZ EP        338 20.37                             150   -0.0410 80.3  37 
 PAM  SN ES   1    338 37.64                             150   -0.43 7 80.3  37 
 RUS  HZ EP        338 21.65                             145    0.2210 96.0 176 
 RUS  HN ES   1    338 40.17                             145    0.28 7 96.0 176 
 RUS  HZ I         338 43.71         5.8 0.28                          96.0 176 
 PTB  HZ EP        338 24.37                             132   -0.58 9  148 261 
 PTB  HN ES   1    338 46.31                             132    0.16 7  148 261 
 PTB  HZ I         338 51.34         6.7 0.54                           148 261 
 OCA  SZ EP        338 26.99                             129    0.30 9  165 353 
 OCA  SZ I         338 52.10         0.3 0.17                           165 353 
 ZAR  HE ES   1    338 55.85                             122   -0.43 6  207 293 
 ZAR  HZ I         339  1.87        12.1 0.54                           207 293 
 NOR  SN ES   1    339  1.38                             119    0.10 6  233 236 
 CHI  HN ES   2    339  3.83                             118   -0.50 4  245 196 
 CHI  HZ I         339 14.84         2.1 0.28                           245 196 
                                                                                
