 2016  711 0120 23.2 L   6.847 -73.120141.4  RSN 12 0.6 2.0LRSN                1
 GAP=212        1.15       4.6     6.3  9.0  0.9067E+01  0.2502E+00 -0.1236E+02E
 Epicentro: LOS SANTOS - SANTANDER                                             3
 ACTION:UPD 17-03-29 16:49 OP:lp   STATUS:               ID:20160711012023 L   I
 OLDACT:REG 16-07-11 12:08 OP:lv   STATUS:               ID:20160711011743     3
 2016-07-11-0117-43M.COL___329                                                 6
 STAT SP IPHASW D HRMM SECON CODA AMPLIT PERI AZIMU VELO AIN AR TRES W  DIS CAZ7
 RUS  HZ EP        120 46.70                             142   -0.1810  106 178 
 RUS  HN ES        121  5.82                             142    0.4610  106 178 
 RUS  HZ I         121  7.30         8.4 0.41            140            106 178 
 PTB  HZ EP        120 49.47                             130   -0.68 9  152 257 
 PTB  HN ES        121 10.75                             130   -0.44 9  152 257 
 PTB  HZ I         121 16.88        12.6 0.24            128            152 257 
 SPBC HZ EP     C  120 51.71                             127   -0.20 9  169 219 
 SPBC HE ES        121 14.42                             127    0.10 9  169 219 
 SPBC HZ I         121 20.93        24.0 0.30            125            169 219 
 ZAR  HZ EP        120 55.53                             121    0.11 9  205 290 
 ZAR  HE ES        121 21.37                             121    0.81 9  205 290 
 ZAR  HZ I         121 27.37        15.7 0.15            121            205 290 
 NOR  HZ EP        120 58.87                             117   -0.37 8  240 234 
 NOR  HN ES        121 27.13                             117   -0.24 8  240 234 
 NOR  HZ I         121 31.80         9.1 0.18            116            240 234 
 CHI  HZ EP   2    121  1.05                             116   -0.22 4  254 195 
 CHI  HE ES        121 30.68                             116   -0.31 8  254 195 
 CHI  HZ I         121 36.23         3.5 0.33            116            254 195 
 HEL  HZ EP        121  4.64                             114    1.01 8  276 255 
 HEL  HE ES   2    121 35.92                             114    0.74 4  276 255 
 HEL  HZ I         121 43.52         5.7 0.36            113            276 255 
 GUY2CHZ EP        121  8.10                             111    0.91 7  307 234 
 GUY2CHE ES        121 40.47                             111   -1.06 7  307 234 
 GUY2CHZ I         121 49.86         5.6 0.36                           307 234 
 PTGC HZ EP   4    121  5.70                             111   -1.58 0  313 159 
 PTGC HN ES   4    121 39.16                             111   -2.52 0  313 159 
 PTGC HZ I         121 47.04         6.0 0.36            112            313 159 
 CBOC HZ EP        121 11.33                             109    0.92 7  338 251 
 CBOC HE ES   4    121 50.23                             109    2.97 0  338 251 
 CBOC HZ I         121 58.33         2.3 0.58            109            338 251 
 PRA  HZ EP        121 17.23                             106   -0.02 6  398 210 
 PRA  HE ES        121 59.63                             106    0.20 6  398 210 
 PRA  HZ I         122  6.25         3.9 0.29            106            398 210 
 SJC  HZ EP        121 17.68                             105   -0.59 6  406 326 
 SJC  HN ES        122  0.71                             105   -0.53 6  406 326 
 SJC  HZ I         122  2.48         1.9 0.32            106            406 326 
                                                                                
