 2014  411 0739  7.5 L   6.568 -73.790 77.3  RSN  9 0.5 2.0LRSN                1
 GAP= 78        1.33       4.3     3.3 11.4  0.1252E+01 -0.5527E+01 -0.1447E+02E
 Epicentro: SANTA HELENA DEL OPON - SANTANDER                                  3
 ACTION:UPD 14-05-13 23:07 OP:nd   STATUS:               ID:20140411073907 L   I
 OLDACT:UP  14-04-11 18:47 OP:stll STATUS:               ID:20140411073814     3
 OLDACT:REG 14-04-11 13:02 OP:stll STATUS:               ID:20140411073814     3
 2014-04-11-0738-14M.COL___236                                                 6
 STAT SP IPHASW D HRMM SECON CODA AMPLIT PERI AZIMU VELO AIN AR TRES W  DIS CAZ7
 PTB  HZ IP     D  739 21.51                             132   -0.6010 73.7 268 
 PTB  HN ES        739 33.15                             132   -0.3610 73.7 268 
 PTB  HZ I         739 34.08        35.7 0.32            132           73.7 268 
 SPBC HZ EP        739 25.29                             121   -0.1210  106 197 
 SPBC HE ES        739 39.76                             121    0.3610  106 197 
 SPBC HZ I         739 47.69        22.0 0.28            123            106 197 
 RUS  HN ES        739 41.29                             121    0.5510  108 134 
 ZAR  HZ EP        739 31.14                             111    0.24 9  156 311 
 ZAR  HE ES        739 50.02                             111    0.86 9  156 311 
 ZAR  HZ I         739 54.29        20.2 0.14            108            156 311 
 NOR  HN ES        739 49.97                             110   -0.74 9  163 227 
 OCA  HZ EP        739 34.38                             106   -0.90 9  192  16 
 OCA  HZ I         740  2.32        14.9 0.32            104            192  16 
 HEL  HZ EP        739 36.57                             106    0.44 9  197 258 
 HEL  HN ES        739 58.82                             106    0.35 9  197 258 
 TAM  HZ EP        739 38.66                             104   -0.02 8  222  94 
 TAM  HN ES        740  2.80                             104   -0.21 8  222  94 
 TAM  HZ I         740  4.17         8.5 0.14            102            222  94 
 GUY2CHZ EP        739 40.92                             103    0.80 8  229 230 
 GUY2CHN ES        740  4.96                             103   -0.61 8  229 230 
                                                                                
