 2017  311 0804 49.7 L   6.827 -73.308121.4  RSN  5 0.2 1.1LRSN                1
 GAP=207        0.50       2.7     3.4  4.7  0.4658E+01  0.6036E+01  0.1572E+01E
 Epicentro: ZAPATOCA - SANTANDER                                               3
 ACTION:UPD 17-05-25 18:39 OP:jn   STATUS:               ID:20170311080449 L   I
 OLDACT:UP  17-03-11 16:05 OP:and  STATUS:               ID:20170311075744d    3
 OLDACT:DUP 17-03-11 16:04 OP:and  STATUS:               ID:20170311075744d    3
 OLDACT:UP  17-03-11 16:03 OP:and  STATUS:               ID:20170311075743     3
 OLDACT:UP  17-03-11 16:03 OP:and  STATUS:               ID:20170311075743     3
 OLDACT:UP  17-03-11 16:02 OP:and  STATUS:               ID:20170311075743     3
 OLDACT:UP  17-03-11 16:01 OP:and  STATUS:               ID:20170311075743     3
 OLDACT:UP  17-03-11 16:01 OP:and  STATUS:               ID:20170311075743     3
 OLDACT:REG 17-03-11 12:46 OP:and  STATUS:               ID:20170311075743     3
 2017-03-11-0758-00M.COL___391                                                 6
 STAT SP IPHASW D HRMM SECON CODA AMPLIT PERI AZIMU VELO AIN AR TRES W  DIS CAZ7
 BAR2 EZ EP        8 5  6.58                             166   -0.0410 29.5 152 
 BAR2 EZ ES        8 5 19.80                             166    0.0210 29.5 152 
 BAR2 EZ I         8 5 21.26         5.7 0.26            165           29.5 152 
 BRR  HZ EP        8 5  7.09                             154   -0.2210 54.3 305 
 BRR  HN ES        8 5 20.94                             154   -0.0710 54.3 305 
 RUS  HZ EP   2    8 5 11.78                             136    0.12 5  106 166 
 RUS  HN ES        8 5 29.00                             136    0.2410  106 166 
 RUS  HZ I         8 5 30.32         1.1 0.20            137            106 166 
 SPBC HN ES        8 5 35.65                             124   -0.24 9  155 213 
 SPBC HZ I         8 5 37.65         1.9 0.10            124            155 213 
 ZAR  HZ EP   2    8 5 18.84                             119    0.03 4  186 293 
 ZAR  HN ES        8 5 41.81                             119    0.32 9  186 293 
 ZAR  HZ I         8 5 43.37         2.7 0.36            120            186 293 
                                                                                
