 2017  111 0811 36.8 L   6.781 -73.154143.2  RSN  7 0.4 1.3LRSN                1
 GAP= 99        1.05       5.2     4.1  7.0  0.2509E+01  0.2856E+00  0.1158E+01E
 Epicentro: LOS SANTOS - SANTANDER                                             3
 ACTION:UPD 17-05-22 15:58 OP:jn   STATUS:               ID:20170111081136 L   I
 OLDACT:UP  17-01-11 17:32 OP:and  STATUS:               ID:20170111080746     3
 OLDACT:UP  17-01-11 17:32 OP:and  STATUS:               ID:20170111080746     3
 OLDACT:UP  17-01-11 17:32 OP:and  STATUS:               ID:20170111080746     3
 OLDACT:UP  17-01-11 17:31 OP:and  STATUS:               ID:20170111080746     3
 OLDACT:UP  17-01-11 17:31 OP:and  STATUS:               ID:20170111080746     3
 OLDACT:REG 17-01-11 12:56 OP:and  STATUS:               ID:20170111080746     3
 2017-01-11-0808-00M.COL___340                                                 6
 STAT SP IPHASW D HRMM SECON CODA AMPLIT PERI AZIMU VELO AIN AR TRES W  DIS CAZ7
 BAR2 EZ EP        811 56.18                             171    0.0810 21.1 188 
 BAR2 EZ ES        812 10.89                             171   -0.2410 21.1 188 
 BRR  HZ EP        811 58.01                             152    0.3110 71.4 300 
 BRR  HN ES        812 14.95                             152    0.9610 71.4 300 
 PAM  EZ EP        811 58.89                             150   -0.0110 79.6  39 
 PAM  EN ES        812 15.55                             150   -0.5710 79.6  39 
 PAM  EZ I         812 18.04         4.2 0.46            152           79.6  39 
 RUS  HZ EP        812  0.31                             144    0.1410 98.5 175 
 RUS  HN ES        812 18.37                             144   -0.0210 98.5 175 
 RUS  HZ I         812 20.80         2.1 0.32            145           98.5 175 
 PTB  HZ EP     D  812  3.01                             132   -0.45 9  146 260 
 PTB  HN ES     D  812 23.93                             132   -0.30 9  146 260 
 PTB  HZ I         812 28.87         2.0 0.20            131            146 260 
 TAM  HZ EP        812  4.61                             130    0.28 9  156 104 
 ZAR  HZ EP   4    812 10.89                             122    1.80 0  204 293 
 ZAR  HN ES        812 33.94                             122   -0.32 9  204 293 
 ZAR  HZ I         812 39.95         3.6 0.18            122            204 293 
 SJC  HZ EP   4    812 28.39                             105   -4.06 0  410 327 
 SJC  HN ES   4    813 13.44                             105   -2.39 0  410 327 
                                                                                
