 2014  811 0932 42.4 L   6.788 -73.194145.3  RSN  5 0.5 1.3LRSN                1
 GAP=200        1.23       8.2     9.1 10.4 -0.2052E+01  0.2035E+02 -0.3639E+02E
 Epicentro: ZAPATOCA - SANTANDER                                               3
 ACTION:UPD 14-09-15 21:48 OP:nd   STATUS:               ID:20140811093242 L   I
 OLDACT:UP  14-08-11 17:43 OP:cam  STATUS:               ID:20140811093000     3
 OLDACT:REG 14-08-11 14:05 OP:cam  STATUS:               ID:20140811093000     3
 2014-08-11-0930-00M.COL___285                                                 6
 STAT SP IPHASW D HRMM SECON CODA AMPLIT PERI AZIMU VELO AIN AR TRES W  DIS CAZ7
 BAR2 SZ ES        933 16.62                             171   -0.6110 21.7 177 
 BAR2 SZ I         933 18.68         7.6 0.28            176           21.7 177 
 BRR  HZ EP        933  3.86                             154    0.5410 67.2 302 
 BRR  HN ES        933 20.19                             154    0.5810 67.2 302 
 BRR  HZ I         933 22.02         3.5 0.44            148           67.2 302 
 PTB  HZ EP        933  9.19                             133    0.31 9  142 259 
 PTB  HN ES        933 29.53                             133    0.03 9  142 259 
 PTB  HZ I         933 31.72         1.5 0.26            134            142 259 
 ZAR  HE ES        933 38.57                             123   -0.76 9  200 293 
 ZAR  HZ I         933 45.60         0.8 0.26            122            200 293 
 SML  HZ EP        933 18.35                             117   -0.59 8  243 337 
 SML  HE ES        933 47.60                             117    0.20 8  243 337 
 SML  HZ I         933 58.14         2.5 0.10            117            243 337 
                                                                                
