 2012  711 0517  7.3 L   6.534 -73.591 20.6  RSN  6 0.3 1.3LRSN                1
 GAP=119        0.72       2.2     2.0  3.8  0.1329E+01  0.4109E+01  0.1274E+01E
 Epicentro: EL CARMEN DE CHUCURI - SANTANDER                                   3
 ACTION:UPD 12-08-14 11:44 OP:ep   STATUS:               ID:20120711051708dL   I
 2012-07-11-0510-00M.COL___188                                                 6
 STAT SP IPHASW D HRMM SECON CODA AMPLIT PERI AZIMU VELO AIN AR TRES W  DIS CAZ7
 BAR2 SZ EP   1    517 15.78                             112     0.2 7   46  82 
 BAR2 SZ ES   1    517 22.11                             112     0.1 7   46  82 
 BAR2 SZ I         517 23.62        15.6 0.25            119             46  82 
 BRR  HZ EP   1    517 18.25                             105     0.2 7   65 348 
 BRR  HN ES        517 26.20                             105    -0.210   65 348 
 BRR  HZ I         517 27.48        14.8 0.10            102             65 348 
 RUS  HZ EP   1    517 22.69                             101     0.3 7   90 142 
 RUS  HN ES   1    517 33.48                             101    -0.6 7   90 142 
 RUS  HZ I         517 34.79         4.3 0.14             95             90 142 
 PTB  HZ EP   1    517 22.76                             100     0.1 7   96 270 
 PTB  HN ES        517 34.59                             100     0.010   96 270 
 PTB  HZ I         517 36.17        10.9 0.13             94             96 270 
 ZAR  HN ES        517 53.08                              56    -0.1 9  176 307 
 HEL  HZ EP   1    517 39.32                              56     0.5 6  218 260 
 HEL  HN ES   1    518  3.18                              56    -0.2 6  218 260 
