 2015 1211 0852 54.9 L   6.825 -73.182146.0  RSN 12 0.4 1.8LRSN                1
 GAP=179        0.78       2.9     4.2  4.8 -0.3592E+01  0.1511E+01  0.1168E+01E
 Epicentro: ZAPATOCA - SANTANDER                                               3
 ACTION:UPD 16-02-04 15:04 OP:cam  STATUS:               ID:20151211085254 L   I
 OLDACT:REG 15-12-11 11:52 OP:ar   STATUS:               ID:20151211084738     3
 2015-12-11-0847-38M.COL___322                                                 6
 STAT SP IPHASW D HRMM SECON CODA AMPLIT PERI AZIMU VELO AIN AR TRES W  DIS CAZ7
 BAR2 EZ EP        853 14.05                             170   -0.5810 25.7 180 
 BAR2 EZ ES        853 29.96                             170   -0.0510 25.7 180 
 BAR2 EZ I         853 30.82         8.2 0.26            168           25.7 180 
 BRR  HZ EP        853 16.22                             154    0.3910 66.4 298 
 BRR  HN ES        853 32.73                             154    0.5910 66.4 298 
 BRR  HZ I         853 37.62         9.6 0.14            150           66.4 298 
 RUS  HZ EP   2    853 18.94                             143    0.02 5  104 174 
 RUS  HN ES   2    853 37.65                             143    0.01 5  104 174 
 RUS  HZ I         853 38.51         3.6 0.22            145            104 174 
 PTB  HZ EP        853 21.12                             133   -0.49 9  144 257 
 PTB  HN ES        853 42.04                             133   -0.38 9  144 257 
 PTB  HZ I         853 45.78         4.0 0.08            131            144 257 
 OCA  HZ EP        853 22.91                             130   -0.04 9  157 354 
 OCA  HN ES        853 44.83                             130    0.01 9  157 354 
 OCA  HZ I         853 47.90        14.1 0.20            132            157 354 
 SPBC HZ EP        853 23.68                             129    0.27 9  163 217 
 SPBC HN ES   2    853 45.44                             129   -0.19 5  163 217 
 SPBC HZ I         853 52.78         7.3 0.26            129            163 217 
 ZAR  HZ EP   2    853 27.65                             123    0.75 4  199 292 
 ZAR  HN ES   2    853 51.99                             123    0.15 4  199 292 
 ZAR  HZ I         853 57.94         5.6 0.30            123            199 292 
 NOR  HZ EP   4    853 27.73                             119   -2.77 0  233 233 
 NOR  HE ES        853 58.47                             119    0.23 8  233 233 
 NOR  HZ I         854  4.75         4.6 0.34            119            233 233 
 SML  HZ EP   2    853 30.91                             118   -0.20 4  240 336 
 SML  HN ES   2    853 58.66                             118   -0.68 4  240 336 
 SML  HZ I         854  1.07         7.3 0.42            119            240 336 
 HEL  HE ES   1    854  5.40                             115   -0.50 6  269 255 
 GUY2CHZ EP   9    853 40.05                             113    1.69 0  300 234 
 GUY2CHN ES        854 13.72                                   -0.21 7  300 234 
 GUY2CHZ I         854 22.36         2.8 0.48                           300 234 
 PRA  HZ EP        853 48.74                             107    0.23 6  392 209 
 PRA  HN ES        854 30.79                             107    0.49 6  392 209 
 PRA  HZ I         854 35.09         3.0 0.44            108            392 209 
                                                                                
