 2011  711 0937 25.0 L   6.754 -73.108147.8  RSN  4 0.3 1.6LRSN                1
 GAP=219        0.66       8.0     7.9  7.8 -0.2333E+02  0.7137E+01  0.1508E+02E
 Epicentro: LOS SANTOS - SANTANDER                                             3
 ACTION:UPD 12-07-25 14:00 OP:epov STATUS:               ID:20110711093725 L   I
 2011-07-11-0934-15S.COL___140                                                 6
 STAT SP IPHASW D HRMM SECON CODA AMPLIT PERI AZIMU VELO AIN AR TRES W  DIS CAZ7
 BAR2 SZ EP   1    937 44.72                             172   -0.06 7 19.7 205 
 BAR2 SZ ES   1    937 59.88                             172   -0.34 7 19.7 205 
 BAR2 SZ I         938  1.11         6.2 0.11                          19.7 205 
 GIR2 SZ EP   1    937 45.17                             165    0.12 7 37.1 345 
 GIR2 SZ ES   1    938  1.31                             165    0.60 7 37.1 345 
 BRR  HZ EP   1    937 46.48                             151   -0.21 7 77.3 300 
 BRR  HN ES   1    938  3.32                             151   -0.31 7 77.3 300 
 BRR  HZ I         938  4.15         9.8 0.12                          77.3 300 
 NOR  SN ES   1    938 29.18                             119    0.30 6  235 236 
                                                                                
