 2014  211 0049  8.2 L   6.067 -73.726115.8  RSN 11 0.5 2.1LRSN                1
 GAP= 75        1.32       3.0     4.0  7.0 -0.2389E+01  0.4136E+01 -0.1529E+01E
 Epicentro: BOLIVAR - SANTANDER                                                3
 ACTION:UPD 14-03-10 08:09 OP:ep   STATUS:               ID:20140211004908 L   I
 OLDACT:REG 14-02-11 07:58 OP:carl STATUS:               ID:20140211004742     3
 2014-02-11-0047-42M.COL___233                                                 6
 STAT SP IPHASW D HRMM SECON CODA AMPLIT PERI AZIMU VELO AIN AR TRES W  DIS CAZ7
 SPBC HZ IP     D  049 26.05                             151    0.4410 59.8 220 
 SPBC HN ES        049 39.48                             151    0.2910 59.8 220 
 SPBC HZ I         049 42.66        26.2 0.18            151           59.8 220 
 RUS  HZ EP        049 27.22                             146    0.1410 73.8 105 
 RUS  HN ES        049 41.08                             146   -0.7310 73.8 105 
 RUS  HZ I         049 42.94        17.9 0.28            149           73.8 105 
 BAR2 SZ EP        049 28.00                             142    0.5710 83.6  46 
 BAR2 SZ ES        049 42.79                             142    0.3610 83.6  46 
 BAR2 SZ I         049 44.71       132.7 0.44            145           83.6  46 
 PTB  HZ EP        049 27.52                             137   -0.6010 96.2 303 
 PTB  HN ES        049 43.12                             137   -0.5410 96.2 303 
 PTB  HZ I         049 46.00        18.8 0.10            139           96.2 303 
 BRR  HZ EP        049 29.41                             132   -0.3210  115   1 
 BRR  HN ES        049 47.21                             132    0.6910  115   1 
 BRR  HZ I         049 52.58        12.4 0.12            134            115   1 
 NOR  HZ EP        049 32.73                             126    0.71 9  138 246 
 NOR  HN ES        049 51.39                             126    0.80 9  138 246 
 NOR  HZ I         049 53.40        43.5 0.18            128            138 246 
 CHI  HZ EP        049 34.67                             122    0.09 9  159 180 
 CHI  HN ES        049 54.28                             122   -0.88 9  159 180 
 CHI  HZ I         050  1.12         6.6 0.40            124            159 180 
 PAM  SZ EP        049 37.27                             119    0.30 9  181  39 
 PAM  SN ES        049 59.24                             119   -0.17 9  181  39 
 PAM  SZ I         050  1.40         7.4 0.24            121            181  39 
 ZAR  HZ EP        049 38.70                             115    0.13 9  201 322 
 ZAR  HN ES        050  1.35                             115   -0.91 9  201 322 
 ZAR  HZ I         050  7.90        11.0 0.28            117            201 322 
 PRA  HZ EP        049 48.75                             107   -0.04 7  290 206 
 PRA  HN ES        050 20.01                             107   -0.44 7  290 206 
 PRA  HZ I         050 27.17         7.2 0.38            108            290 206 
 SML  HZ EP        049 50.43                             105    0.01 7  305 353 
 SML  HN ES        050 22.83                             105   -0.52 7  305 353 
 SML  HZ I         050 25.73        11.9 0.24            107            305 353 
                                                                                
