 2013  511 0733 54.9 L   6.902 -73.590107.0  RSN  9 0.5 1.7LRSN                1
 GAP= 94        1.03       3.5     3.8  7.6 -0.1631E+01  0.8227E+01 -0.3681E+01E
 Epicentro: SAN VICENTE DE CHUCURI - SANTANDER                                 3
 ACTION:UPD 13-06-20 09:49 OP:ep   STATUS:               ID:20130511073354 L   I
 2013-05-11-0730-00M.COL___256                                                 6
 STAT SP IPHASW D HRMM SECON CODA AMPLIT PERI AZIMU VELO AIN AR TRES W  DIS CAZ7
 BRR  HZ IP     D  734 10.14                             165    0.4710 26.4 329 
 BRR  HN ES   1    734 22.10                             165    0.95 7 26.4 329 
 BRR  HZ I         734 23.29        14.2 0.12            164           26.4 329 
 GIR2 SZ EP        734 10.96                             154    0.1610 48.0  66 
 GIR2 SZ ES   2    734 23.08                             154   -0.09 5 48.0  66 
 BAR2 SZ IP     C  734 11.75                             150    0.3110 56.6 127 
 BAR2 SZ ES   1    734 24.15                             150   -0.15 7 56.6 127 
 BAR2 SZ I         734 25.18        18.2 0.38            153           56.6 127 
 PTB  HZ IP     C  734 14.58                             132   -0.1910  104 247 
 PTB  HN ES   1    734 29.06                             132   -1.17 7  104 247 
 PTB  HZ I         734 31.28        20.7 0.16            132            104 247 
 PAM  SZ EP   1    734 15.99                             131    0.06 7  110  64 
 PAM  SN ES   1    734 31.72                             131   -0.59 7  110  64 
 PAM  SZ I         734 33.05        11.5 0.24            133            110  64 
 RUS  HZ EP        734 17.40                             127    0.0110  125 153 
 RUS  HE ES   1    734 34.37                             127   -0.53 7  125 153 
 RUS  HZ I         734 36.60         6.3 0.28            129            125 153 
 OCA  HZ EP   1    734 19.79                             121    0.22 7  151  11 
 OCA  HN ES   1    734 38.86                             121    0.08 7  151  11 
 OCA  HZ I         734 39.38        11.8 0.56            122            151  11 
 ZAR  HZ EP   4    734 21.69                             120    1.92 0  155 295 
 ZAR  HN ES   4    734 42.09                             120    2.96 0  155 295 
 SML  HZ EP   1    734 26.41                             111   -0.20 6  217 346 
 SML  HN ES        734 50.68                             111   -0.63 8  217 346 
 SML  HZ I         734 55.83         8.6 0.10            112            217 346 
 HEL  HZ EP   2    734 29.27                             110    0.84 4  228 250 
 HEL  HN ES        734 54.93                             110    0.38 8  228 250 
 HEL  HZ I         734 59.84         2.5 0.34            110            228 250 
                                                                                
