 2013 1211 0910 12.9 L   6.817 -73.133149.7  RSN 10 0.5 1.8LRSN                1
 GAP=137        1.23       4.1     5.9  7.4  0.4731E+00  0.1227E+02 -0.2813E+00E
 Epicentro: LOS SANTOS - SANTANDER                                             3
 ACTION:UPD 14-01-13 10:17 OP:ep   STATUS:               ID:20131211091012 L   I
 OLDACT:REG 13-12-11 06:34 OP:jn   STATUS:               ID:20131211091000     3
 2013-12-11-0910-00M.COL___285                                                 6
 STAT SP IPHASW D HRMM SECON CODA AMPLIT PERI AZIMU VELO AIN AR TRES W  DIS CAZ7
 BAR2 SZ EP        910 33.18                             170    0.1510 25.5 192 
 BAR2 SZ ES        910 48.32                             170   -0.4210 25.5 192 
 BAR2 SZ I         910 50.71        18.1 0.34            171           25.5 192 
 BRR  HZ EP        910 35.26                             153    0.7810 71.6 297 
 BRR  HN ES        910 52.45                             153    1.1210 71.6 297 
 BRR  HZ I         910 55.28         9.9 0.34            151           71.6 297 
 PAM  SN ES   1    910 52.76                             152   -0.17 7 75.0  40 
 PAM  SZ I         910 55.27        18.2 0.56            155           75.0  40 
 RUS  HZ EP        910 37.12                             144   -0.0310  102 177 
 RUS  HN ES        910 56.05                             144   -0.0310  102 177 
 RUS  HZ I         910 57.53         6.6 0.46            149            102 177 
 PTB  HZ EP        910 39.70                             133   -0.63 9  150 258 
 PTB  HN ES        911  1.05                             133   -0.69 9  150 258 
 PTB  HZ I         911  7.02         7.5 0.50            134            150 258 
 OCA  HN ES        911  3.15                             131   -0.39 9  159 353 
 OCA  HZ I         911 12.85         6.2 0.40            132            159 353 
 SPBC HZ EP        910 41.65                             129   -0.25 9  166 219 
 SPBC HN ES   1    911  4.36                             129   -0.18 7  166 219 
 SPBC HZ I         911  9.18         9.4 0.12            132            166 219 
 ZAR  HZ EP   1    910 46.36                             123    0.71 6  205 292 
 ZAR  HN ES        911 10.94                             123   -0.27 9  205 292 
 ZAR  HZ I         911 17.62         7.9 0.26            124            205 292 
 NOR  HZ EP        910 49.41                             119    0.33 8  237 234 
 NOR  HN ES   1    911 17.92                             119    0.60 6  237 234 
 SML  HZ EP        910 49.56                             118   -0.05 8  243 335 
 SML  HN ES   1    911 17.63                             118   -0.63 6  243 335 
                                                                                
