 2015  211 0359 39.1 L   6.180 -73.664 94.2  RSN  5 0.5 0.9LRSN                1
 GAP=101        1.21       4.7     5.2 11.7 -0.2378E+01  0.7487E+01 -0.7836E+01E
 Epicentro: LA PAZ - SANTANDER                                                 3
 ACTION:UPD 15-04-30 21:24 OP:nd   STATUS:               ID:20150211035939 L   I
 OLDACT:REG 15-02-11 13:10 OP:fm   STATUS:               ID:20150211035741     3
 2015-02-11-0357-41M.COL___284                                                 6
 STAT SP IPHASW D HRMM SECON CODA AMPLIT PERI AZIMU VELO AIN AR TRES W  DIS CAZ7
 BAR2 EZ EP        359 55.41                             141    0.1910 70.1  49 
 BAR2 EZ ES        4 0  8.47                             141    0.6610 70.1  49 
 BAR2 EZ I         4 0 11.62         3.1 0.16            146           70.1  49 
 RUS  HZ EP        359 55.60                             141   -0.1110 71.8 116 
 RUS  HN ES        4 0  7.86                             141   -0.8110 71.8 116 
 RUS  HZ I         4 0 10.79         1.6 0.36            150           71.8 116 
 SPBC HZ EP        359 55.64                             139    0.3310 73.8 218 
 SPBC HN ES        4 0  8.38                             139    0.4110 73.8 218 
 SPBC HZ I         4 0 11.02         3.7 0.38            147           73.8 218 
 PTB  HE ES   1    4 0 10.42                             131   -0.85 7 96.2 294 
 PTB  HZ I         4 0 14.64         1.2 0.16            135           96.2 294 
 BRR  HZ EP        359 57.51                             129   -0.2410  103 357 
 BRR  HN ES        4 0 12.37                             129    0.0510  103 357 
 BRR  HZ I         4 0 19.57         2.6 0.46            133            103 357 
                                                                                
