 2015  211 0526  2.8 L   6.824 -73.148136.0  RSN 10 0.4 1.6LRSN                1
 GAP= 70        0.97       3.1     2.8  5.5  0.1510E+00  0.3159E+01 -0.2714E+00E
 Epicentro: LOS SANTOS - SANTANDER                                             3
 ACTION:UPD 15-04-30 21:25 OP:nd   STATUS:               ID:20150211052602 L   I
 OLDACT:REG 15-02-11 13:18 OP:fm   STATUS:               ID:20150211051740     3
 2015-02-11-0517-40M.COL___287                                                 6
 STAT SP IPHASW D HRMM SECON CODA AMPLIT PERI AZIMU VELO AIN AR TRES W  DIS CAZ7
 BAR2 EZ EP        526 21.64                             169    0.2810 26.0 188 
 BAR2 EZ ES   1    526 36.16                             169    0.36 7 26.0 188 
 BAR2 EZ I         526 44.56         4.2 0.50            168           26.0 188 
 BRR  HZ EP     C  526 23.28                             151    0.4310 69.7 297 
 BRR  HE ES        526 38.29                             151   -0.1710 69.7 297 
 BRR  HZ I         526 41.83         6.5 0.16            153           69.7 297 
 PAM  SZ EP        526 24.29                             150    0.3810 75.5  41 
 PAM  SE ES        526 39.87                             150   -0.4710 75.5  41 
 PAM  SZ I         526 41.77         5.5 0.30            156           75.5  41 
 RUS  HZ EP        526 26.04                             141    0.1910  103 176 
 RUS  HE ES        526 44.07                             141    0.2710  103 176 
 RUS  HZ I         526 47.08         2.5 0.38            145            103 176 
 PTB  HZ EP        526 28.38                             130   -0.67 9  148 258 
 PTB  HN ES        526 49.08                             130   -0.42 9  148 258 
 PTB  HZ I         526 54.90         5.5 0.14            133            148 258 
 TAM  HZ EP        526 29.97                             128    0.12 9  156 106 
 TAM  HE ES        526 50.56                             128   -0.36 9  156 106 
 SPBC HZ EP        526 31.17                             126    0.37 9  165 218 
 SPBC HE ES        526 52.15                             126   -0.45 9  165 218 
 SPBC HZ I         527  0.26         4.9 0.34            130            165 218 
 ZAR  HZ EP        526 34.34                             120   -0.19 9  203 291 
 ZAR  HN ES        526 59.95                             120    0.69 9  203 291 
 ZAR  HZ I         527  4.76         7.6 0.32            124            203 291 
 SML  HZ EP        526 38.02                             116   -0.63 8  241 335 
 SML  HE ES        527  6.87                             116    0.28 8  241 335 
 SML  HZ I         527  9.83         6.4 0.26            120            241 335 
 GUY2CHZ EP        526 46.00                             110   -0.17 7  303 234 
 GUY2CHN ES        527 20.07                             110    0.10 7  303 234 
 GUY2CHZ I         527 29.24         2.2 0.62                           303 234 
                                                                                
