 2016  511 0202 43.6 L   6.814 -73.173142.8  RSN 11 0.4 1.8LRSN                1
 GAP=132        0.97       2.7     3.9  5.6 -0.1104E+01  0.7894E+01  0.1186E-01E
 Epicentro: LOS SANTOS - SANTANDER                                             3
 ACTION:UPD 16-08-18 17:44 OP:cam  STATUS:               ID:20160511020243 L   I
 OLDACT:REG 16-05-11 12:19 OP:drio STATUS:               ID:20160511015742     3
 2016-05-11-0157-42M.COL___288                                                 6
 STAT SP IPHASW D HRMM SECON CODA AMPLIT PERI AZIMU VELO AIN AR TRES W  DIS CAZ7
 BAR2 EZ EP        2 3  2.68                             170   -0.2610 24.5 182 
 BAR2 EZ ES        2 3 17.44                             170   -0.5510 24.5 182 
 BAR2 EZ I         2 3 18.94        15.5 0.24            168           24.5 182 
 BRR  HZ EP        2 3  4.63                             153    0.3510 67.8 299 
 BRR  HN ES   4    2 3 21.85                             153    1.47 0 67.8 299 
 BRR  HZ I         2 3 24.70        12.8 0.30            150           67.8 299 
 PAM  EZ EP        2 3  5.87                             150    0.2810 78.2  42 
 PAM  EN ES        2 3 23.18                             150    0.4710 78.2  42 
 PAM  EZ I         2 3 23.54         6.3 0.18            156           78.2  42 
 RUS  HZ EP        2 3  6.97                             143   -0.2610  102 174 
 RUS  HN ES        2 3 25.74                             143    0.1110  102 174 
 RUS  HZ I         2 3 26.51         6.5 0.28            145            102 174 
 PTB  HZ EP        2 3  9.44                             132   -0.68 9  145 258 
 PTB  HN ES        2 3 30.65                             132   -0.13 9  145 258 
 PTB  HZ I         2 3 35.52         7.3 0.30            131            145 258 
 SPBC HZ EP        2 3 11.50                             128   -0.35 9  162 218 
 SPBC HN ES        2 3 33.87                             128    0.02 9  162 218 
 SPBC HZ I         2 3 42.54         6.6 0.12            129            162 218 
 ZAR  HZ EP        2 3 16.14                             122    0.60 9  201 292 
 ZAR  HN ES        2 3 40.72                             122    0.29 9  201 292 
 ZAR  HZ I         2 3 47.84         4.9 0.20            123            201 292 
 NOR  HZ EP        2 3 18.91                             118   -0.12 8  233 234 
 NOR  HN ES        2 3 47.27                             118    0.64 8  233 234 
 NOR  HZ I         2 3 53.99         4.3 0.16            119            233 234 
 SML  HZ EP        2 3 19.57                             117   -0.24 8  241 336 
 SML  HE ES        2 3 47.55                             117   -0.48 8  241 336 
 SML  HZ I         2 3 51.67         6.2 0.24            119            241 336 
 CHI  HZ EP        2 3 21.92                             116    0.67 8  249 194 
 CHI  HE ES        2 3 50.67                             116    0.08 8  249 194 
 CHI  HZ I         2 3 52.68         4.4 0.38            119            249 194 
 PRA  HZ EP        2 3 36.36                             106   -0.68 6  392 209 
 PRA  HN ES        2 4 18.86                             106    0.17 6  392 209 
 PRA  HZ I         2 4 23.00         2.7 0.32            108            392 209 
                                                                                
