 2016 1011 0305 31.8 L   6.504 -73.695 99.9  RSN 15 0.4 2.2LRSN                1
 GAP= 48        0.94       2.3     2.3  5.4 -0.1275E+01  0.3636E+01 -0.2654E+00E
 Epicentro: SANTA HELENA DEL OPON - SANTANDER                                  3
 ACTION:UPD 16-11-09 19:18 OP:rebc STATUS:               ID:20161011030531 L   I
 OLDACT:UP  16-10-11 16:04 OP:ar   STATUS:               ID:20161011025740     3
 OLDACT:REG 16-10-11 13:22 OP:ar   STATUS:               ID:20161011025740     3
 2016-10-11-0258-00M.COL___363                                                 6
 STAT SP IPHASW D HRMM SECON CODA AMPLIT PERI AZIMU VELO AIN AR TRES W  DIS CAZ7
 BAR2 EZ EP        3 5 47.68                             148    0.1210 57.5  80 
 BAR2 EZ ES        3 6  0.17                             148    0.2810 57.5  80 
 BAR2 EZ I         3 6  1.38        68.4 0.16            150           57.5  80 
 BRR  HZ EP        3 5 47.66                             144   -0.2010 66.7 358 
 BRR  HN ES        3 6  0.61                             144    0.1910 66.7 358 
 BRR  HZ I         3 6  1.36        65.9 0.10            144           66.7 358 
 PTB  HZ EP        3 5 48.17                             137   -1.1010 84.3 273 
 PTB  HN ES   4    3 6  1.07                             137   -1.86 0 84.3 273 
 PTB  HZ I         3 6  2.96        56.6 0.48            135           84.3 273 
 RUS  HZ EP        3 5 50.65                             133   -0.2610 95.7 135 
 RUS  HN ES        3 6  6.04                             133    0.1910 95.7 135 
 RUS  HZ I         3 6  7.33        18.2 0.16            134           95.7 135 
 SPBC HZ EP        3 5 50.71                             131   -0.3310  103 204 
 SPBC HN ES        3 6  5.76                             131   -0.3210  103 204 
 SPBC HZ I         3 6 10.05        45.5 0.40            130            103 204 
 PAM  EZ EP   2    3 5 55.66                             121    0.03 5  144  50 
 PAM  EN ES        3 6 14.29                             121    0.05 9  144  50 
 PAM  EZ I         3 6 15.70        39.4 0.38            122            144  50 
 NOR  HZ EP        3 5 57.60                             117    0.06 9  167 231 
 NOR  HN ES        3 6 17.47                             117   -0.17 9  167 231 
 NOR  HZ I         3 6 19.47        27.0 0.18            116            167 231 
 ZAR  HZ EP        3 5 57.80                             116    0.08 9  169 310 
 ZAR  HN ES        3 6 18.12                             116    0.15 9  169 310 
 ZAR  HZ I         3 6 20.72        30.7 0.36            116            169 310 
 OCA  HZ EP        3 6  0.60                             113   -0.40 9  196  12 
 OCA  HN ES        3 6 23.97                             113    0.16 9  196  12 
 OCA  HZ I         3 6 27.33        49.0 0.48            113            196  12 
 HEL  HZ EP        3 6  2.76                             112    0.39 8  206 260 
 HEL  HN ES        3 6 26.71                             112    0.47 8  206 260 
 HEL  HZ I         3 6 29.88        12.9 0.32            111            206 260 
 CHI  HZ EP        3 6  3.32                             112    0.73 8  207 181 
 CHI  HN ES   4    3 6 26.07                             112   -0.57 0  207 181 
 CHI  HZ I         3 6 31.26         6.8 0.36            111            207 181 
 TAM  HZ EP        3 6  2.63                             111    0.12 8  211  92 
 TAM  HN ES   2    3 6 26.26                             111   -0.23 4  211  92 
 GUY2CHZ EP   9    3 6  7.23                             109    1.60 0  233 233 
 GUY2CHN ES   0    3 6 33.36                             108   -0.29 8  233 233 
 GUY2CHZ I         3 6 37.77        13.1 0.50                           233 233 
 URE  HZ EP   4    3 6  5.26                             108   -1.26 0  245 304 
 URE  HN ES   4    3 6 31.21                             108   -2.43 0  245 304 
 URE  HZ I         3 6 40.04        13.9 0.18            108            245 304 
 ELA  HZ EP   4    3 6 11.55                             107    2.42 0  262 226 
 ELA  HN ES        3 6 38.78                             107    0.50 8  262 226 
 ELA  HZ I         3 6 47.41         7.4 0.60            107            262 226 
                                                                                
