 2010  811 0745  5.4 L   6.780 -73.036146.4  RSN 11 0.4 2.1LRSN                1
 GAP=171        0.92       3.1     6.9  5.5 -0.8148E+01 -0.1218E+00  0.3197E+01E
 Epicentro: CEPITA - SANTANDER                                                 3
 ACTION:UP  10-09-07 10:54 OP:vdl  STATUS:               ID:20100811074505 L   I
 2010-08-11-0741-34S.COL___125                                                 6
 STAT SP IPHASW D HRMM SECON CODA AMPLIT PERI AZIMU VELO SNR AR TRES W  DIS CAZ7
 BAR2 SZ EP        745 25.11                             169     0.010   26 218 
 BAR2 SZ ES        745 40.26                             169    -0.310   26 218 
 BAR2 SZ I         745 41.76        30.2 0.37                            26 218 
 BRR  HZ EP   1    745 26.94                             148    -0.4 7   83 296 
 BRR  HN ES        745 44.51                             148     0.110   83 296 
 BRR  HZ I         745 46.19        22.0 0.20                            83 296 
 RUS  HZ EP        745 29.02                             144     0.010   98 183 
 RUS  HN ES   1    745 47.52                             144     0.0 7   98 183 
 RUS  HZ I         745 49.01        11.6 0.30                            98 183 
 GUE  SZ EP        745 30.05                             139    -0.110  117   6 
 GUE  SZ I         745 51.39         5.7 0.20                           117   6 
 GRA  SZ IP        745 30.91                             137     0.310  125  12 
 GRA  SZ I         745 32.21        17.5 0.31                           125  12 
 GRA  SZ ES   1    745 50.80                             137     0.5 7  125  12 
 OCA  SZ EP   1    745 33.45                             129    -0.7 7  164 349 
 OCA  SZ ES   1    745 56.47                             129    -0.1 7  164 349 
 OCA  SZ I         746  1.86        20.5 0.41                           164 349 
 CHI  HZ EP        745 42.91                             117    -0.3 8  250 198 
 CHI  HE ES        746 12.90                             117     0.1 8  250 198 
 CHI  HZ I         746 16.36         6.4 0.43                           250 198 
 ROSC BZ EP   1    745 44.70                             116     0.7 6  257 214 
 ROSC BE ES   1    746 14.75                             116     0.6 6  257 214 
 ROSC BZ I         746 21.40        13.9 0.34                           257 214 
 HEL  HZ EP   1    745 46.65                             114    -0.2 6  283 257 
 HEL  HZ I         746 26.51         5.8 0.26                           283 257 
 RREF HZ EP        745 53.27                             110     0.8 7  330 231 
 RREF HN ES   2    746 28.45                             110    -0.7 3  330 231 
 RREF HZ I         746 33.72        10.2 0.28                           330 231 
 PRA  HZ EP   1    745 58.79                             106    -0.6 4  396 211 
 PRA  HE ES   2    746 41.22                             106    -0.3 3  396 211 
 PRA  HZ I         746 46.74        11.1 0.26                           396 211 
                                                                                
