 2017  911 0735 55.9 L   7.201 -73.555 17.2  RSN  7 0.6 1.5LRSN                1
 GAP=158        1.22       4.8     2.9  4.8 -0.1780E+01 -0.4485E+00 -0.1617E+01E
 Epicentro: SABANA DE TORRES - SANTANDER                                       3
 ACTION:UPD 17-10-05 19:11 OP:rebc STATUS:               ID:20170911073555 L   I
 OLDACT:UP  17-09-11 18:51 OP:and  STATUS:               ID:20170911072739     3
 OLDACT:UP  17-09-11 18:50 OP:and  STATUS:               ID:20170911072739     3
 OLDACT:REG 17-09-11 13:27 OP:mg   STATUS:               ID:20170911072739     3
 2017-09-11-0728-00M.COL___419                                                 6
 STAT SP IPHASW D HRMM SECON CODA AMPLIT PERI AZIMU VELO AIN AR TRES W  DIS CAZ7
 BRR  HZ IP     C  735 59.95                             127   -0.2810 20.2 239 
 BRR  HN ES        736  3.93                             127    0.3110 20.2 239 
 BRR  HZ I         736  4.44        86.2 0.16             90           20.2 239 
 BAR2 EZ EP        736  8.97                             100    0.1010 79.0 149 
 BAR2 EZ ES        736 18.17                             100   -0.8310 79.0 149 
 BAR2 EZ I         736 20.03        18.4 0.30             47           79.0 149 
 PAM  EZ EP        736 11.99                              98    0.3510 95.7  81 
 PAM  EN ES        736 24.00                              98    0.0710 95.7  81 
 PAM  EZ I         736 32.16         3.7 0.13             47           95.7  81 
 ZAR  HZ EP        736 17.60                              56   -0.84 9  147 283 
 ZAR  HN ES   3    736 34.67                              56   -1.37 2  147 283 
 ZAR  HZ I         736 35.86        14.3 0.30             47            147 283 
 RUS  HZ EP        736 19.77                              56   -0.07 9  154 160 
 RUS  HN ES   3    736 38.49                              56   -0.03 2  154 160 
 RUS  HZ I         736 39.87        13.4 0.24             47            154 160 
 SPBC HZ EP        736 23.67                              56    0.97 9  181 198 
 SPBC HN ES   3    736 44.28                              56    0.67 2  181 198 
 SPBC HZ I         736 53.73         3.1 0.12             37            181 198 
 NOR  HZ EP        736 29.63                              56    0.53 8  232 219 
                                                                                
