 2017 1211 0004 38.5 L   6.779 -73.533106.1  RSN 16 0.4 1.9LRSN                1
 GAP= 47        1.00       2.6     3.8  5.8 -0.2687E+01  0.6131E+01  0.1128E+01E
 Epicentro: EL CARMEN - SANTANDER                                              3
 ACTION:UPD 18-01-04 13:19 OP:rebc STATUS:               ID:20171211000438 L   I
 OLDACT:UP  17-12-11 15:14 OP:edw  STATUS:               ID:20171211000000     3
 OLDACT:UP  17-12-11 15:11 OP:edw  STATUS:               ID:20171211000000     3
 OLDACT:REG 17-12-11 13:49 OP:edw  STATUS:               ID:20171211000000     3
 2017-12-11-0000-15M.COL___475                                                 6
 STAT SP IPHASW D HRMM SECON CODA AMPLIT PERI AZIMU VELO AIN AR TRES W  DIS CAZ7
 BAR2 EZ EP        0 4 54.04                             156   -0.2010 43.9 118 
 BAR2 EZ ES        0 5  6.54                             156    0.0610 43.9 118 
 BAR2 EZ I         0 5  7.58       100.6 0.30            158           43.9 118 
 PTB  HZ IP   9 C  0 4 56.75                             131   -1.71 0  106 255 
 PTB  HN ES        0 5 11.20                             131   -1.0810  106 255 
 PTB  HZ I         0 5 16.06        10.6 0.12            131            106 255 
 PAM  EZ EP        0 4 59.49                             130   -0.1010  111  56 
 PAM  EN ES        0 5 16.34                             130    0.3310  111  56 
 PAM  EZ I         0 5 20.33         5.6 0.16            133            111  56 
 SPBC HZ EP        0 5  1.99                             123    0.26 9  138 206 
 SPBC HN ES        0 5 19.53                             123   -0.29 9  138 206 
 SPBC HZ I         0 5 23.44        17.1 0.28            123            138 206 
 OCA  HZ EP        0 5  4.44                             118    0.01 9  163   8 
 OCA  HN ES        0 5 24.39                             118   -0.23 9  163   8 
 OCA  HZ I         0 5 31.90        37.9 0.20            120            163   8 
 ZAR  HZ EP        0 5  5.23                             118    0.65 9  166 298 
 ZAR  HE ES   4    0 5 26.60                             118    1.71 0  166 298 
 ZAR  HZ I         0 5 28.68        11.9 0.26            118            166 298 
 TAM  HZ EP        0 5  7.82                             113   -0.11 9  196 101 
 TAM  HN ES   4    0 5 27.97                             113   -2.88 0  196 101 
 YPLC HZ EP        0 5  7.90                             113   -0.40 9  199 140 
 YPLC HN ES        0 5 31.92                             113    0.42 9  199 140 
 YPLC HZ I         0 5 33.38         5.2 0.50            114            199 140 
 CHI  HZ EP        0 5 13.12                             108   -0.13 8  239 185 
 CHI  HN ES        0 5 40.64                             108    0.32 8  239 185 
 CHI  HZ I         0 5 50.98         3.7 0.52            109            239 185 
 URE  HN ES   4    0 5 39.14                             108   -1.71 0  246 296 
 URE  HZ I         0 5 44.02         7.2 0.14            108            246 296 
 GUY2CHZ EP        0 5 15.78                             106   -0.72 8  266 230 
 GUY2CHN ES   4    0 5 48.34                             106    2.25 0  266 230 
 GUY2CHZ I         0 5 51.14         3.8 0.52                           266 230 
 DRL03HZ EP   4    0 5 19.93                             104    1.32 0  289   1 
 DRL03HN ES   4    0 5 52.88                             104    3.03 0  289   1 
 VIL  EZ EP   4    0 5 18.48                             104   -1.07 0  295 183 
 VIL  EE ES   4    0 5 55.00                             104    3.46 0  295 183 
 VIL  EZ I         0 5 57.14         8.7 0.48            104            295 183 
 DRL05EN ES   4    0 5 43.82                             102   -11.5 0  315   1 
 ORTC HZ EP        0 5 27.91                              99   -0.42 6  370 211 
 ORTC HN ES   4    0 6  9.17                              99    2.01 0  370 211 
 ORTC HZ I         0 6 12.77         2.5 0.30            100            370 211 
 PRA  HZ EP        0 5 28.11                              99   -0.32 6  371 204 
 PRA  HE ES        0 6  7.96                              99    0.62 6  371 204 
 PRA  HZ I         0 6 12.97         5.7 0.20            100            371 204 
 SJC  HZ EP   9    0 5 29.44                              98   -1.29 0  390 332 
 SJC  HN ES        0 6  9.50                             101   -0.64 6  390 332 
 SJC  HZ I         0 6 11.44         1.3 0.38             99            390 332 
 CRJC HZ EP   2    0 5 40.15                              95   -0.90 2  474   9 
 CRJC HE ES   2    0 6 30.68                              95    0.88 2  474   9 
                                                                                
