 2016  611 0104  9.5 L   6.863 -73.360127.5  RSN  6 0.5 1.6LRSN                1
 GAP=202        1.19       6.3     6.2 10.7  0.2293E+01  0.2545E+00  0.1848E+02E
 Epicentro: SAN VICENTE DE CHUCURI - SANTANDER                                 3
 ACTION:UPD 16-07-21 22:17 OP:rebc STATUS:               ID:20160611010409 L   I
 OLDACT:UP  16-06-11 14:15 OP:dani STATUS:               ID:20160611005741     3
 OLDACT:UP  16-06-11 14:14 OP:dani STATUS:               ID:20160611005741     3
 OLDACT:UP  16-06-11 14:13 OP:dani STATUS:               ID:20160611005741     3
 OLDACT:REG 16-06-11 12:16 OP:dani STATUS:               ID:20160611005741     3
 2016-06-11-0057-41M.COL___337                                                 6
 STAT SP IPHASW D HRMM SECON CODA AMPLIT PERI AZIMU VELO AIN AR TRES W  DIS CAZ7
 BAR2 EZ EP        1 4 27.16                             163   -0.1510 35.8 147 
 BAR2 EZ I         1 4 41.81        17.8 0.15                          35.8 147 
 BRR  HZ EP        1 4 27.74                             158    0.3310 47.3 305 
 BRR  HN ES        1 4 41.81                             158    0.4310 47.3 305 
 BRR  HZ I         1 4 46.03        16.7 0.34                          47.3 305 
 RUS  HZ EP     D  1 4 32.19                             136   -0.2210  112 164 
 RUS  HE ES        1 4 49.91                             136   -0.3610  112 164 
 RUS  HZ I         1 4 50.77         2.9 0.21                           112 164 
 PTB  HZ EP        1 4 32.53                             132   -0.5210  126 254 
 PTB  HE ES        1 4 50.60                             132   -0.8110  126 254 
 PTB  HZ I         1 4 54.23         6.8 0.32                           126 254 
 SPBC HZ EP        1 4 36.51                             126    0.61 9  155 211 
 SPBC HE ES        1 4 57.07                             126    0.59 9  155 211 
 SPBC HZ I         1 4 57.60         7.5 0.12                           155 211 
 NOR  HZ EP   4    1 4 44.18                             116    1.52 0  220 229 
 NOR  HE ES        1 5  8.74                             116    0.22 8  220 229 
 NOR  HZ I         1 5 16.48         2.7 0.26                           220 229 
                                                                                
