 2013  111 0517 22.7 L   6.746 -73.200152.0  RSN  7 0.4 1.9LRSN                1
 GAP=177        0.98       3.8     5.7  8.8  0.5959E+01 -0.2251E+00  0.5514E+01E
 Epicentro: VILLANUEVA - SANTANDER                                             3
 ACTION:UPD 13-02-15 09:13 OP:ep   STATUS:               ID:20130111051722 L   I
 2013-01-11-0510-00M.COL___242                                                 6
 STAT SP IPHASW D HRMM SECON CODA AMPLIT PERI AZIMU VELO AIN AR TRES W  DIS CAZ7
 BAR2 SZ EP        517 42.52                             173   -0.4710 17.1 174 
 BAR2 SZ I         518  1.62         7.7 0.26            173           17.1 174 
 BRR  HZ EP        517 44.48                             154    0.0410 69.3 305 
 BRR  HN ES        518  1.80                             154    0.4210 69.3 305 
 BRR  HN I         518  2.98        10.1 0.16            154           69.3 305 
 RUS  HZ EP        517 46.32                             147   -0.4010 95.2 172 
 RUS  HE ES        518  5.40                             147   -0.0410 95.2 172 
 PTB  HZ EP        517 49.55                             135   -0.04 9  141 261 
 PTB  HN ES        518  9.96                             135   -0.59 9  141 261 
 PTB  HN I         518 16.02        12.9 0.36            134            141 261 
 OCA  HN ES        518 15.10                             130    0.24 9  166 355 
 OCA  HN I         518 16.83        19.1 0.20            128            166 355 
 ZAR  HE ES        518 20.73                             124    0.09 9  201 294 
 ZAR  HE I         518 26.37        12.3 0.18            123            201 294 
 CHI  HZ EP   1    518  0.69                             119    0.71 6  241 194 
 CHI  HN ES        518 29.79                             119    0.74 8  241 194 
 CHI  HN I         518 32.36         2.3 0.30            118            241 194 
                                                                                
