 2012  811 0819 25.1 L   6.788 -73.146147.2  RSN 13 0.4 2.4LRSN                1
 GAP= 66        0.68       3.5     2.5  4.5  0.4922E+00  0.2831E+01  0.4977E+01E
 Epicentro: LOS SANTOS - SANTANDER                                             3
 ACTION:UPD 12-09-10 11:55 OP:ep   STATUS:               ID:20120811081925 L   I
 2012-08-11-0817-41M.COL___207                                                 6
 STAT SP IPHASW D HRMM SECON CODA AMPLIT PERI AZIMU VELO AIN AR TRES W  DIS CAZ7
 BAR2 SZ EP   1    819 44.92                             171    0.03 7 22.0 190 
 BAR2 SZ ES   1    820  0.20                             171   -0.12 7 22.0 190 
 BAR2 SZ I         820  1.93        81.4 0.39                          22.0 190 
 GIR2 SZ EP   1    819 44.94                             167   -0.05 7 32.6 351 
 GIR2 SZ ES   1    819 59.93                             167   -0.57 7 32.6 351 
 BRR  HZ EP        819 46.79                             153    0.3410 71.8 299 
 BRR  HN ES   1    820  3.57                             153    0.47 7 71.8 299 
 BRR  HZ I         820  7.30        46.2 0.35                          71.8 299 
 PAM  SZ EP   1    819 47.70                             151    0.15 7 78.5  39 
 PAM  SN ES   1    820  5.05                             151    0.00 7 78.5  39 
 RUS  HZ EP   1    819 48.83                             144   -0.08 7 99.2 176 
 RUS  HN ES   1    820  7.69                             144    0.22 7 99.2 176 
 RUS  HZ I         820 10.37        30.2 0.47                          99.2 176 
 PTB  HZ EP   1    819 51.76                             132   -0.41 7  147 259 
 PTB  HN ES   1    820 12.89                             132   -0.38 7  147 259 
 PTB  HZ I         820 15.86        19.8 0.15                           147 259 
 TAM  HZ EP   1    819 53.00                             131    0.12 7  155 104 
 TAM  HE ES   1    820 14.61                             131    0.07 7  155 104 
 YOP  SZ EP   1    819 54.73                             127   -0.42 7  178 153 
 ZAR  HE ES   1    820 23.16                             123    0.04 6  205 292 
 ZAR  HZ I         820 29.04        24.9 0.25                           205 292 
 NOR  SZ EP   1    820  0.74                             119   -0.10 6  234 235 
 NOR  SN ES   1    820 28.56                             119   -0.14 6  234 235 
 HEL  HZ EP   1    820  6.26                             115    0.90 6  272 256 
 HEL  HE ES   1    820 37.47                             115    0.72 6  272 256 
 HEL  HZ I         820 43.33        14.2 0.30                           272 256 
 DBB  SZ EP   1    820 11.90                             110   -0.75 5  340 274 
 DBB  SZ ES   1    820 49.03                             110   -0.70 5  340 274 
 PRA  HZ EP   1    820 18.42                             107   -0.12 4  391 210 
 PRA  HE ES   1    821  0.47                             107    0.25 4  391 210 
 PRA  HZ I         821  5.06        11.5 0.42                           391 210 
                                                                                
