 2013 1211 0844 51.6 L   6.803 -73.139148.5  RSN  6 0.5 1.6LRSN                1
 GAP=184        1.13       5.7     9.5  9.8  0.2050E+02  0.3704E+01 -0.9807E+01E
 Epicentro: LOS SANTOS - SANTANDER                                             3
 ACTION:UPD 14-01-13 10:17 OP:ep   STATUS:               ID:20131211084451 L   I
 OLDACT:REG 13-12-11 06:31 OP:jn   STATUS:               ID:20131211084000     3
 2013-12-11-0840-00M.COL___285                                                 6
 STAT SP IPHASW D HRMM SECON CODA AMPLIT PERI AZIMU VELO AIN AR TRES W  DIS CAZ7
 BAR2 SZ EP        845 11.79                             171    0.2410 23.8 192 
 BAR2 SZ ES        845 27.17                             171    0.0410 23.8 192 
 BAR2 SZ I         845 28.12        12.0 0.58            171           23.8 192 
 BRR  HZ EP     D  845 13.46                             153    0.4010 71.8 298 
 BRR  HN ES        845 30.46                             153    0.6510 71.8 298 
 BRR  HZ I         845 34.38         4.8 0.14            153           71.8 298 
 RUS  HZ EP   1    845 15.95                             144    0.32 7  101 177 
 RUS  HN ES        845 33.87                             144   -0.5010  101 177 
 RUS  HZ I         845 36.26         4.7 0.34            147            101 177 
 PTB  HZ EP   1    845 18.71                             132   -0.14 7  149 259 
 PTB  HN ES   1    845 39.35                             132   -0.77 7  149 259 
 PTB  HZ I         845 42.13         4.2 0.28            134            149 259 
 OCA  HN ES   1    845 41.28                             130   -1.05 7  160 353 
 OCA  HZ I         845 44.65         5.1 0.74            132            160 353 
 SML  HE ES   1    845 56.89                             118   -0.18 6  244 335 
 SJC  HZ EP   4    845 45.89                             106   -1.37 0  409 327 
                                                                                
