 2011  311 0354 56.8 L   6.778 -73.158139.1  RSN  9 0.3 1.8LRSN                1
 GAP=157        0.42       1.8     5.5  4.8 -0.1954E+01  0.1552E+02 -0.8233E+00E
 Epicentro: LOS SANTOS - SANTANDER                                             3
 ACTION:UP  11-06-16 14:32 OP:jfem STATUS:               ID:20110311035456 L   I
 2011-03-11-0351-16S.COL___135                                                 6
 STAT SP IPHASW D HRMM SECON CODA AMPLIT PERI AZIMU VELO SNR AR TRES W  DIS CAZ7
 BAR2 SZ EP   1    355 15.84                             171     0.3 8   21 188 
 BAR2 SZ ES   2    355 30.23                             171     0.0 5   21 188 
 BAR2 SZ I         355 32.46        15.5 0.37                            21 188 
 RUS  HZ EP   1    355 19.93                             143     0.2 8   98 175 
 RUS  HZ I         355 21.07         7.9 0.13                            98 175 
 RUS  HN ES   1    355 37.37                             143    -0.2 8   98 175 
 GRA  SZ EP   1    355 21.67                             135     0.0 8  129  18 
 GRA  SZ ES   2    355 41.44                             135     0.3 5  129  18 
 GRA  SZ I         355 42.29         7.9 0.27                           129  18 
 OCA  SZ EP   1    355 24.51                             128    -0.3 7  163 354 
 OCA  SZ ES        355 46.58                             128    -0.110  163 354 
 OCA  SZ I         355 50.75         9.3 0.26                           163 354 
 NOR  SN ES   3    355 59.63                             117     0.4 2  232 235 
 CHI  HZ EP   3    355 34.22                             116     0.4 2  246 195 
 CHI  HN ES   3    356  1.88                             116    -0.8 2  246 195 
 HEL  HZ EP   3    355 37.07                             113     0.6 2  270 256 
 DBB  SZ EP        355 43.95                             108     0.1 7  338 275 
 PRA  HZ EP        355 49.70                             105    -0.1 6  389 210 
 PRA  HE ES   2    356 30.82                             105    -0.3 3  389 210 
                                                                                
