 2015 1011 0305  7.2 L   6.792 -73.164142.0  RSN 10 0.3 1.8LRSN                1
 GAP=135        0.73       2.2     3.1  4.4 -0.5939E+00  0.4887E+01  0.2030E+01E
 Epicentro: LOS SANTOS - SANTANDER                                             3
 ACTION:UPD 15-12-22 20:38 OP:cam  STATUS:               ID:20151011030507 L   I
 OLDACT:DUP 15-10-11 15:58 OP:ak   STATUS:               ID:20151011025748d    3
 2015-10-11-0257-47M.COL___340                                                 6
 STAT SP IPHASW D HRMM SECON CODA AMPLIT PERI AZIMU VELO AIN AR TRES W  DIS CAZ7
 BAR2 EZ EP        3 5 26.28                             171   -0.0410 22.2 185 
 BAR2 EZ ES        3 5 41.44                             171    0.1810 22.2 185 
 BAR2 EZ I         3 5 42.93        14.1 0.18            168           22.2 185 
 BRR  HZ EP        3 5 28.08                             152    0.2510 69.8 300 
 BRR  HN ES        3 5 44.35                             152    0.4010 69.8 300 
 BRR  HZ I         3 5 47.74         8.9 0.15            147           69.8 300 
 PAM  EZ EP        3 5 29.33                             150    0.2310 79.3  40 
 PAM  EN ES        3 5 46.32                             150    0.1110 79.3  40 
 PAM  EZ I         3 5 48.57        13.9 0.48            148           79.3  40 
 RUS  HZ EP        3 5 30.38                             143   -0.1210 99.9 175 
 RUS  HN ES        3 5 48.51                             143   -0.1810 99.9 175 
 RUS  HZ I         3 5 50.25         8.5 0.32            139           99.9 175 
 OCA  HN ES        3 5 56.41                             129   -0.73 9  161 354 
 SPBC HZ EP        3 5 35.26                             129    0.07 9  161 219 
 SPBC HN ES        3 5 56.52                             129   -0.53 9  161 219 
 SPBC HZ I         3 6  3.21        14.8 0.20            123            161 219 
 ZAR  HZ EP   1    3 5 39.24                             122    0.04 6  202 293 
 ZAR  HN ES        3 6  4.12                             122   -0.08 9  202 293 
 ZAR  HZ I         3 6 14.87         6.4 0.24            117            202 293 
 CHI  HZ EP        3 5 44.23                             117   -0.28 8  247 195 
 CHI  HN ES        3 6 13.86                             117    0.22 8  247 195 
 CHI  HZ I         3 6 19.49         2.6 0.40            113            247 195 
 GUY2CHZ EP   1    3 5 51.10                             112    0.74 5  299 235 
 GUY2CHE ES        3 6 24.00                             112   -0.05 7  299 235 
 GUY2CHZ I         3 6 32.38         3.6 0.32                           299 235 
 CBOC HZ EP   1    3 5 53.58                             109   -0.09 5  331 252 
 CBOC HN ES        3 6 30.10                             109    0.15 7  331 252 
 SJC  HZ EP   4    3 6  0.67                             105   -1.89 0  409 327 
 SJC  HN ES   4    3 6 41.31                             105   -4.46 0  409 327 
                                                                                
