 2011  611 0011 15.7 L   6.746 -73.111144.9  RSN  5 0.3 1.5LRSN                1
 GAP=160        0.70       4.2     8.8  7.9 -0.9725E+00 -0.2226E+02 -0.7898E+01E
 Epicentro: JORDAN - SANTANDER                                                 3
 ACTION:UP  11-07-14 19:04 OP:ep   STATUS:               ID:20110611001115 L   I
 2011-06-11-0010-18S.COL___133                                                 6
 STAT SP IPHASW D HRMM SECON CODA AMPLIT PERI AZIMU VELO SNR AR TRES W  DIS CAZ7
 BAR2 SZ ES   1    011 49.81                             172    -0.5 7   19 205 
 BAR2 SZ I         011 51.63         9.6 0.16                            19 205 
 BRR  HZ EP   1    011 36.80                             151    -0.3 7   77 301 
 BRR  HE ES   1    011 54.08                             151     0.3 7   77 301 
 RUS  HZ EP   1    011 38.77                             145    -0.1 7   94 178 
 RUS  HN ES   1    011 57.36                             145     0.4 7   94 178 
 BRI  SZ EP   1    011 40.18                             140     0.4 7  113  18 
 BRI  SZ I         012  3.78         3.7 0.38                           113  18 
 GRA  SZ EP   1    011 41.04                             136    -0.2 7  130  15 
 GRA  SZ ES   1    012  1.17                             136     0.0 7  130  15 
 GRA  SZ I         012  3.97         3.8 0.39                           130  15 
                                                                                
