 2012 1111 0909  7.2 L   6.780 -73.102141.3  RSN  5 0.2 1.7LRSN                1
 GAP=143        0.67       3.9     5.7  6.5  0.5120E+00  0.5279E+01 -0.2346E+01E
 Epicentro: LOS SANTOS - SANTANDER                                             3
 ACTION:UPD 12-12-05 15:32 OP:}ep  STATUS:               ID:20121111090907 L   I
 2012-11-11-0900-00M.COL___230                                                 6
 STAT SP IPHASW D HRMM SECON CODA AMPLIT PERI AZIMU VELO AIN AR TRES W  DIS CAZ7
 BAR2 SZ EP        9 9 26.35                             170    0.0310 22.6 203 
 BAR2 SZ ES        9 9 40.73                             170   -0.4710 22.6 203 
 BAR2 SZ I         9 9 42.25        13.9 0.28                          22.6 203 
 GIR2 SZ EP        9 9 26.39                             166   -0.0910 34.6 343 
 PAM  SN ES        9 9 45.96                             150    0.1510 76.2  36 
 BRR  HZ EP        9 9 28.09                             150   -0.1410 76.5 298 
 BRR  HZ I         9 9 28.38         9.5 0.26                          76.5 298 
 BRR  HN ES        9 9 44.85                             150    0.2610 76.5 298 
 RUS  HN ES        9 9 48.69                             144    0.2710 98.1 179 
                                                                                
