 2013  111 0116 23.8 L   6.725 -73.222143.2  RSN  5 0.5 1.7LRSN                1
 GAP=215        1.21       9.4     9.1 10.1  0.5551E+02  0.2497E+02  0.1020E+02E
 Epicentro: VILLANUEVA - SANTANDER                                             3
 ACTION:UPD 13-02-15 09:13 OP:ep   STATUS:               ID:20130111011623 L   I
 2013-01-11-0110-00M.COL___242                                                 6
 STAT SP IPHASW D HRMM SECON CODA AMPLIT PERI AZIMU VELO AIN AR TRES W  DIS CAZ7
 BAR2 SZ ES        116 57.24                             174   -0.7110 15.4 163 
 BAR2 SZ I         116 58.38        12.8 0.32            173           15.4 163 
 BRR  HZ EP        116 44.06                             153   -0.4610 68.6 308 
 BRR  HN ES        117  1.40                             153    0.7110 68.6 308 
 BRR  HN I         117  1.80        21.8 0.22            151           68.6 308 
 RUS  HZ EP        116 47.23                             145    0.4510 93.4 170 
 RUS  HN ES        117  5.02                             145    0.3110 93.4 170 
 RUS  HN I         117  6.78         3.6 0.34            146           93.4 170 
 PTB  HZ EP        116 49.40                             133   -0.27 9  138 262 
 PTB  HN ES        117  9.58                             133   -0.28 9  138 262 
 PTB  HN I         117 11.37         7.2 0.28            132            138 262 
 ZAR  HN ES        117 20.70                             122    0.27 9  200 295 
 ZAR  HN I         117 26.43         5.5 0.24            122            200 295 
                                                                                
