 2017  111 0204  9.1 L   6.782 -73.102149.0  RSN  8 0.5 1.4LRSN                1
 GAP=143        0.98       4.1     5.3  6.3  0.2621E+01  0.1012E+02  0.7234E+01E
 Epicentro: LOS SANTOS - SANTANDER                                             3
 ACTION:UPD 17-05-22 15:58 OP:jn   STATUS:               ID:20170111020409 L   I
 OLDACT:UP  17-01-11 13:42 OP:and  STATUS:               ID:20170111015746     3
 OLDACT:UP  17-01-11 13:41 OP:and  STATUS:               ID:20170111015746     3
 OLDACT:UP  17-01-11 13:41 OP:and  STATUS:               ID:20170111015746     3
 OLDACT:REG 17-01-11 12:30 OP:and  STATUS:               ID:20170111015746     3
 2017-01-11-0158-00M.COL___355                                                 6
 STAT SP IPHASW D HRMM SECON CODA AMPLIT PERI AZIMU VELO AIN AR TRES W  DIS CAZ7
 BAR2 EZ EP        2 4 29.01                             171   -0.0710 22.8 203 
 BAR2 EZ ES        2 4 44.71                             171    0.0210 22.8 203 
 BAR2 EZ I         2 4 47.41         6.7 0.38            169           22.8 203 
 PAM  EZ IP     C  2 4 31.60                             152    0.0510 76.0  36 
 PAM  EN ES        2 4 48.90                             152   -0.1810 76.0  36 
 PAM  EZ I         2 4 50.98         5.0 0.64            155           76.0  36 
 BRR  HZ EP        2 4 30.93                             151    0.0610 76.4 298 
 BRR  HN ES        2 4 48.42                             151    0.5510 76.4 298 
 RUS  HZ EP        2 4 33.07                             145    0.0910 98.4 179 
 RUS  HN ES        2 4 51.56                             145   -0.0810 98.4 179 
 RUS  HZ I         2 4 52.20         3.2 0.30            146           98.4 179 
 PTB  HZ EP        2 4 36.04                             132   -0.66 9  152 260 
 PTB  HN ES   3    2 4 56.88                             132   -1.37 2  152 260 
 PTB  HZ I         2 4 59.60         2.7 0.18            131            152 260 
 ZAR  HN ES        2 5  7.80                             122   -0.36 8  209 292 
 ZAR  HZ I         2 5 15.10         3.2 0.11            123            209 292 
 CHI  HZ EP        2 4 46.46                             118   -0.42 8  248 196 
 CHI  HN ES        2 5 16.53                             118    0.15 8  248 196 
 CHI  HZ I         2 5 22.05         1.3 0.30            119            248 196 
 GUY2CHZ EP        2 4 54.38                             113    1.23 7  304 236 
 GUY2CHE ES   4    2 5 29.67                             113    2.14 0  304 236 
 GUY2CHZ I         2 5 39.78         1.8 0.44                           304 236 
                                                                                
