 2017 1111 0706 20.9 L   6.251 -74.161 54.6  RSN  6 0.6 1.2LRSN                1
 GAP=101        1.27       4.3     4.3 12.1 -0.7498E+01 -0.1664E+02  0.9426E+01E
 Epicentro: CIMITARRA - SANTANDER                                              3
 ACTION:UPD 17-12-12 19:54 OP:rebc STATUS:               ID:20171111070620 L   I
 OLDACT:UP  17-11-11 17:11 OP:dnl  STATUS:               ID:20171111065740     3
 OLDACT:UP  17-11-11 17:11 OP:dnl  STATUS:               ID:20171111065740     3
 OLDACT:UP  17-11-11 17:11 OP:dnl  STATUS:               ID:20171111065740     3
 OLDACT:UP  17-11-11 17:10 OP:dnl  STATUS:               ID:20171111065740     3
 OLDACT:REG 17-11-11 14:23 OP:dnl  STATUS:               ID:20171111065740     3
 2017-11-11-0658-00M.COL___435                                                 6
 STAT SP IPHASW D HRMM SECON CODA AMPLIT PERI AZIMU VELO AIN AR TRES W  DIS CAZ7
 PTB  HZ EP        7 6 31.99                             133    0.8810 45.6 314 
 PTB  HN ES        7 6 38.45                             133   -0.5910 45.6 314 
 PTB  HZ I         7 6 43.66         5.0 0.40             61           45.6 314 
 SPBC HZ EP   4    7 6 31.99                             121   -1.30 0 66.9 172 
 SPBC HN ES        7 6 42.89                             121   -0.0310 66.9 172 
 SPBC HZ I         7 6 43.42        20.1 0.12             61           66.9 172 
 BRR  HZ EP        7 6 37.90                             107    0.2210  107  28 
 BRR  HZ I         7 6 54.72         4.4 0.12             61            107  28 
 NOR  HZ EP   3    7 6 36.43                             106   -1.58 2  109 226 
 NOR  HN ES        7 6 51.52                             106    0.1810  109 226 
 NOR  HZ I         7 6 53.10         3.6 0.24             61            109 226 
 BAR2 EZ IP     D  7 6 38.11                             105   -0.7910  115  71 
 BAR2 EZ ES        7 6 53.23                             105    0.3210  115  71 
 BAR2 EZ I         7 6 55.18         5.9 0.62             61            115  71 
 GUY2CHZ EP   4    7 6 44.50                              98   -1.98 0  175 230 
 GUY2CHE ES        7 7  6.26                              98   -0.14 9  175 230 
 GUY2CHZ I         7 7 10.55         1.6 0.46                           175 230 
                                                                                
