 2010 1111 0730 53.1 L   6.789 -73.064146.8  RSN 10 0.4 2.3LRSN                1
 GAP=168        0.90       3.8     6.7  7.5 -0.1016E+02  0.1074E+02  0.4446E+01E
 Epicentro: LOS SANTOS - SANTANDER                                             3
 ACTION:UP  10-12-17 16:51 OP:REBC STATUS:               ID:20101111073053 L   I
 2010-11-11-0727-47S.COL___129                                                 6
 STAT SP IPHASW D HRMM SECON CODA AMPLIT PERI AZIMU VELO SNR AR TRES W  DIS CAZ7
 BTL  SZ EP        731 13.57                             169     0.710   27 303 
 BRR  HZ EP        731 15.06                             150     0.210   80 296 
 BRR  HN ES   1    731 31.95                             150     0.1 7   80 296 
 BRR  HZ I         731 34.52        59.4 0.04                            80 296 
 RUS  HZ EP        731 17.03                             144     0.210   99 181 
 RUS  HN ES   1    731 34.97                             144    -0.4 7   99 181 
 RUS  HZ I         731 36.61        23.2 0.27                            99 181 
 GRA  SZ EP        731 18.02                             138    -0.310  125  13 
 GRA  SZ ES   1    731 37.26                             138    -0.7 7  125  13 
 GRA  SZ I         731 38.75        25.9 0.49                           125  13 
 OCA  SZ EP        731 21.81                             129     0.1 9  163 350 
 OCA  SZ ES   1    731 44.01                             129     0.0 7  163 350 
 OCA  SZ I         731 46.92        48.5 0.14                           163 350 
 NOR  SZ EP        731 29.60                             118     0.0 8  242 236 
 NOR  SN ES   2    731 57.52                             118    -0.6 4  242 236 
 NOR  SZ I         732  2.75         4.1 0.74                           242 236 
 ROSC BE ES   2    732  2.20                             116     0.5 4  256 213 
 ROSC BZ I         732  7.35        15.6 0.74                           256 213 
 HEL  HZ EP        731 34.16                             114    -0.1 7  280 257 
 HEL  HE ES   3    732  5.96                             114    -0.4 2  280 257 
 HEL  HZ I         732 11.95        13.0 1.72                           280 257 
 RREF HZ EP   1    731 40.15                             111     0.2 5  328 231 
 RREF HN ES   1    732 16.13                             111    -0.4 5  328 231 
 RREF HZ I         732 27.05        15.3 0.75                           328 231 
 PRA  HZ EP        731 46.29                             106    -0.7 6  395 211 
 PRA  HN ES   2    732 28.93                             106    -0.2 3  395 211 
                                                                                
