 2016 1211 0830 58.8 L   6.759 -73.080140.1  RSN 10 0.4 1.6LRSN                1
 GAP=221        0.85       4.1     4.9  5.1  0.6673E+01  0.4255E+01  0.7749E+01E
 Epicentro: LOS SANTOS - SANTANDER                                             3
 ACTION:UPD 17-01-11 20:14 OP:rebc STATUS:               ID:20161211083058 L   I
 OLDACT:REG 16-12-11 13:09 OP:edw  STATUS:               ID:20161211082745     3
 2016-12-11-0828-00M.COL___370                                                 6
 STAT SP IPHASW D HRMM SECON CODA AMPLIT PERI AZIMU VELO AIN AR TRES W  DIS CAZ7
 BAR2 EZ EP        831 17.68                             171   -0.0910 21.7 212 
 BAR2 EZ ES        831 32.59                             171    0.0610 21.7 212 
 BAR2 EZ I         831 35.15         9.6 0.28            165           21.7 212 
 BRR  HZ EP        831 19.49                             149   -0.4210 79.8 299 
 BRR  HE ES        831 36.49                             149    0.1510 79.8 299 
 BRR  HZ I         831 39.89         5.8 0.14            146           79.8 299 
 RUS  HZ EP        831 22.05                             144    0.3510 95.8 180 
 RUS  HE ES        831 39.77                             144    0.2410 95.8 180 
 RUS  HZ I         831 42.39         5.9 0.43            143           95.8 180 
 PTB  HZ EP   9    831 24.63                             129   -1.33 0  154 261 
 PTB  HN ES        831 45.44                                   -0.34 9  154 261 
 PTB  HZ I         831 47.94         4.3 0.15            127            154 261 
 ZAR  HZ EP   4    831 33.82                             120    2.00 0  213 293 
 ZAR  HN ES   4    831 55.68                             120   -1.86 0  213 293 
 ZAR  HZ I         832  2.95         3.3 0.11            119            213 293 
 CHI  HZ EP        831 35.65                             116   -0.34 8  246 197 
 CHI  HN ES        832  4.46                             116   -0.50 8  246 197 
 CHI  HZ I         832  9.46         2.2 0.29            116            246 197 
 PTGC HZ EP   4    831 40.91                             111   -0.77 0  302 160 
 PTGC HN ES        832 14.66                             111   -0.43 7  302 160 
 GUY2CHZ EP   4    831 44.60                             111    2.00 0  305 236 
 GUY2CHE ES   4    832 17.65                             111    0.93 0  305 236 
 GUY2CHZ I         832 25.91         2.0 0.31                           305 236 
 CBOC HZ EP        831 46.79                             108    0.60 7  339 253 
 CBOC HE ES        832 22.66                             108   -0.45 7  339 253 
 CBOC HZ I         832 31.50         0.7 0.22            108            339 253 
 PRA  HZ EP        831 52.48                             106    0.33 6  392 211 
 PRA  HE ES        832 34.57                             106    0.84 6  392 211 
 PRA  HZ I         832 39.06         2.0 0.28            106            392 211 
 SJC  HZ EP   4    831 52.15                             104   -3.00 0  417 326 
 SJC  HE ES   4    832 34.23                             104   -4.83 0  417 326 
                                                                                
