 2016  511 0704 27.7 L   6.792 -73.132150.9  RSN 16 0.4 1.9LRSN                1
 GAP=121        0.96       2.7     3.6  4.9 -0.3723E+00  0.5375E+01  0.3291E+01E
 Epicentro: LOS SANTOS - SANTANDER                                             3
 ACTION:UPD 16-08-18 17:44 OP:cam  STATUS:               ID:20160511070427 L   I
 OLDACT:UP  16-05-11 17:01 OP:drio STATUS:               ID:20160511065741     3
 OLDACT:REG 16-05-11 12:34 OP:drio STATUS:               ID:20160511065741     3
 2016-05-11-0657-41M.COL___285                                                 6
 STAT SP IPHASW D HRMM SECON CODA AMPLIT PERI AZIMU VELO AIN AR TRES W  DIS CAZ7
 BAR2 EZ EP        7 4 48.05                             171    0.1310 22.7 194 
 BAR2 EZ ES        7 5  3.74                             171    0.0410 22.7 194 
 BAR2 EZ I         7 5  5.50         9.5 0.32            168           22.7 194 
 BRR  HZ EP        7 4 49.84                             153    0.3610 72.9 299 
 BRR  HE ES        7 5  7.16                             153    0.6710 72.9 299 
 BRR  HZ I         7 5 11.54        11.6 0.18            150           72.9 299 
 PAM  EZ EP        7 4 50.64                             152    0.2110 77.2  38 
 PAM  EE ES        7 5  8.06                             152   -0.1210 77.2  38 
 PAM  EZ I         7 5 10.38        10.8 0.58            158           77.2  38 
 RUS  HZ EP        7 4 51.72                             145   -0.1510 99.6 177 
 RUS  HE ES        7 5 10.49                             145   -0.2410 99.6 177 
 RUS  HZ I         7 5 11.43         7.6 0.40            147           99.6 177 
 PTB  HZ EP        7 4 54.64                             133   -0.55 9  149 259 
 PTB  HN ES   4    7 5 15.78                             133   -0.86 0  149 259 
 PTB  HZ I         7 5 23.00         9.9 0.40            132            149 259 
 OCA  HZ EP   4    7 4 57.63                             131    1.13 0  161 353 
 OCA  HE ES        7 5 18.82                             131   -0.15 9  161 353 
 OCA  HZ I         7 5 21.46        26.6 0.18            133            161 353 
 SPBC HZ EP        7 4 56.69                             130    0.09 9  163 220 
 SPBC HN ES        7 5 18.82                             130   -0.33 9  163 220 
 SPBC HZ I         7 5 25.68        15.2 0.20            130            163 220 
 ZAR  HZ EP        7 5  0.81                             123    0.17 8  206 292 
 ZAR  HE ES        7 5 26.26                             123   -0.09 8  206 292 
 ZAR  HZ I         7 5 31.32         9.1 0.52            124            206 292 
 NOR  HZ EP        7 5  3.95                             119    0.16 8  235 235 
 NOR  HE ES        7 5 31.83                             119   -0.11 8  235 235 
 NOR  HZ I         7 5 36.91         6.9 0.20            120            235 235 
 SML  HZ EP   4    7 5  3.71                             118   -1.05 0  245 335 
 SML  HE ES        7 5 33.08                             118   -0.60 8  245 335 
 SML  HZ I         7 5 36.03         8.5 0.10            120            245 335 
 CHI  HZ EP        7 5  6.20                             118    0.58 8  248 196 
 CHI  HN ES   4    7 5 36.67                             118    1.47 0  248 196 
 CHI  HZ I         7 5 40.39         2.1 0.18            120            248 196 
 HEL  HZ EP   4    7 5  9.70                             116    1.41 0  273 256 
 HEL  HE ES        7 5 39.65                             116   -0.32 8  273 256 
 HEL  HZ I         7 5 47.34         3.8 0.22            116            273 256 
 PTGC HZ EP        7 5 10.60                             113   -1.02 7  307 159 
 PTGC HE ES   4    7 5 42.76                             113   -3.12 0  307 159 
 CBOC HZ EP        7 5 15.88                             111    0.94 7  335 252 
 CBOC HE ES        7 5 51.14                             111   -0.66 7  335 252 
 CBOC HZ I         7 5 59.10         1.4 0.54            112            335 252 
 PRA  HZ EP        7 5 21.30                             107   -0.08 6  392 210 
 PRA  HE ES        7 6  3.99                             107    0.74 6  392 210 
 PRA  HZ I         7 6  8.59         2.6 0.30            109            392 210 
 ORTC HZ EP        7 5 22.31                             107    0.51 6  396 216 
 ORTC HN ES   4    7 6  5.12                             107    1.12 0  396 216 
 ORTC HZ I         7 6 10.54         2.2 0.40            109            396 216 
                                                                                
