 2016  111 0212 40.7 L   6.798 -73.145149.2  RSN 10 0.5 1.8LRSN                1
 GAP=137        1.12       3.4     4.7  7.1 -0.1610E+01  0.6413E+01 -0.1849E+01E
 Epicentro: LOS SANTOS - SANTANDER                                             3
 ACTION:UPD 16-03-09 23:24 OP:cam  STATUS:               ID:20160111021240 L   I
 OLDACT:UP  16-01-11 14:04 OP:mh   STATUS:               ID:20160111020753     3
 OLDACT:REG 16-01-11 12:19 OP:mh   STATUS:               ID:20160111020753     3
 2016-01-11-0207-53M.COL___234                                                 6
 STAT SP IPHASW D HRMM SECON CODA AMPLIT PERI AZIMU VELO AIN AR TRES W  DIS CAZ7
 BAR2 EZ EP        213  0.83                             171    0.1110 23.1 190 
 BAR2 EZ I         213 19.25         7.2 0.24            170           23.1 190 
 BRR  HZ EP   1    213  1.66                             153   -0.55 7 71.4 299 
 BRR  HN ES        213 19.60                             153    0.6010 71.4 299 
 BRR  HZ I         213 20.29         9.2 0.18            151           71.4 299 
 PAM  EZ EP        213  3.79                             151    0.5210 77.5  39 
 PAM  EN ES        213 20.81                             151   -0.0810 77.5  39 
 PAM  EZ I         213 22.90         7.8 0.64            152           77.5  39 
 RUS  HZ EP        213  4.74                             145   -0.0110  100 176 
 RUS  HN ES        213 23.21                             145   -0.3210  100 176 
 RUS  HZ I         213 24.18         3.3 0.32            144            100 176 
 PTB  HZ EP        213  7.74                             133   -0.19 9  148 259 
 PTB  HN ES        213 28.44                             133   -0.74 9  148 259 
 PTB  HZ I         213 33.25         7.1 0.76            131            148 259 
 OCA  HZ EP        213  9.36                             130    0.07 9  161 353 
 OCA  HN ES        213 30.82                             130   -0.77 9  161 353 
 OCA  HZ I         213 35.77        11.6 0.20            130            161 353 
 SPBC HZ EP        213  9.62                             130    0.19 9  163 219 
 SPBC HN ES        213 32.38                             130    0.53 9  163 219 
 SPBC HZ I         213 37.54         8.0 0.10            129            163 219 
 ZAR  HZ EP   1    213 14.34                             123    0.97 6  204 292 
 ZAR  HN ES        213 39.17                             123    0.31 9  204 292 
 ZAR  HZ I         213 45.43         7.8 0.38            122            204 292 
 SML  HZ EP        213 17.45                             118   -0.08 8  244 335 
 SML  HN ES        213 46.55                             118    0.28 8  244 335 
 SML  HZ I         213 52.98         6.5 0.10            118            244 335 
 HEL  HZ EP        213 20.30                             115   -0.77 8  272 256 
 HEL  HN ES   4    213 55.60                             115    3.03 0  272 256 
 HEL  HZ I         213 59.54         3.5 0.38            115            272 256 
                                                                                
