 2017  911 0909  9.1 L   6.786 -73.060142.0  RSN  6 0.4 1.1LRSN                1
 GAP=245        0.81       4.4     5.5  7.4  0.3163E+01  0.5023E+01  0.2153E+01E
 Epicentro: LOS SANTOS - SANTANDER                                             3
 ACTION:UPD 17-10-05 19:11 OP:rebc STATUS:               ID:20170911090909 L   I
 OLDACT:UP  17-09-11 16:39 OP:and  STATUS:               ID:20170911090738d    3
 OLDACT:UP  17-09-11 16:39 OP:and  STATUS:               ID:20170911090738d    3
 OLDACT:UP  17-09-11 16:38 OP:and  STATUS:               ID:20170911090738d    3
 OLDACT:DUP 17-09-11 16:35 OP:and  STATUS:               ID:20170911090738d    3
 OLDACT:UP  17-09-11 16:34 OP:and  STATUS:               ID:20170911090737     3
 OLDACT:UP  17-09-11 16:33 OP:and  STATUS:               ID:20170911090737     3
 OLDACT:UP  17-09-11 16:33 OP:and  STATUS:               ID:20170911090737     3
 OLDACT:UP  17-09-11 16:33 OP:and  STATUS:               ID:20170911090737     3
 OLDACT:UP  17-09-11 16:32 OP:and  STATUS:               ID:20170911090737     3
 OLDACT:REG 17-09-11 13:45 OP:mg   STATUS:               ID:20170911090737     3
 2017-09-11-0908-00M.COL___406                                                 6
 STAT SP IPHASW D HRMM SECON CODA AMPLIT PERI AZIMU VELO AIN AR TRES W  DIS CAZ7
 BAR2 EZ IP     D  9 9 28.32                             169    0.0410 25.4 212 
 BRR  HZ EP        9 9 30.03                             149   -0.3310 80.3 296 
 BRR  HN ES        9 9 47.22                             149    0.2610 80.3 296 
 RUS  HZ EP        9 9 32.54                             143    0.2210 98.9 182 
 RUS  HN ES        9 9 50.13                             143   -0.3310 98.9 182 
 RUS  HZ I         9 9 51.35         1.3 0.44            143           98.9 182 
 SPBC HZ EP   2    9 9 37.13                             127   -0.63 5  168 222 
 SPBC HN ES        910  0.59                             127    0.45 9  168 222 
 SPBC HZ I         910  3.34         1.7 0.08            127            168 222 
 ZAR  HZ EP   2    9 9 42.88                             120    0.63 4  213 292 
 ZAR  HE ES   2    910  7.21                             120   -0.92 4  213 292 
 ZAR  HZ I         910  8.89         1.2 0.24            120            213 292 
 NOR  HZ EP        9 9 45.65                             117    0.32 8  242 236 
 NOR  HN ES        910 13.24                             117   -0.38 8  242 236 
                                                                                
