 2017 1211 0219  9.5 L   6.769 -73.135140.2  RSN  6 0.2 1.4LRSN                1
 GAP=158        0.64       2.3     3.8  5.2 -0.2895E+01  0.6287E+01 -0.3689E+00E
 Epicentro: LOS SANTOS - SANTANDER                                             3
 ACTION:UPD 18-01-04 13:19 OP:rebc STATUS:               ID:20171211021909 L   I
 OLDACT:UP  17-12-11 16:48 OP:edw  STATUS:               ID:20171211021738     3
 OLDACT:UP  17-12-11 16:47 OP:edw  STATUS:               ID:20171211021738     3
 OLDACT:REG 17-12-11 14:07 OP:edw  STATUS:               ID:20171211021738     3
 2017-12-11-0218-00M.COL___475                                                 6
 STAT SP IPHASW D HRMM SECON CODA AMPLIT PERI AZIMU VELO AIN AR TRES W  DIS CAZ7
 BAR2 EZ EP        219 28.45                             171    0.1010 20.3 195 
 BAR2 EZ ES        219 42.66                             171   -0.4310 20.3 195 
 BAR2 EZ I         219 44.78         4.5 0.20            172           20.3 195 
 PAM  EZ EP        219 31.27                             149    0.0810 79.3  37 
 PAM  EN ES        219 48.49                             149    0.3410 79.3  37 
 PAM  EZ I         219 50.77         1.9 0.52            151           79.3  37 
 SPBC HZ EP        219 37.37                             128    0.02 9  161 220 
 SPBC HN ES        219 59.43                             128    0.33 9  161 220 
 SPBC HZ I         220  3.02         4.2 0.10            130            161 220 
 OCA  HZ EP        219 37.33                             128   -0.34 9  164 353 
 OCA  HN ES        219 59.66                             128   -0.02 9  164 353 
 OCA  HZ I         220  3.05         5.4 0.20            130            164 353 
 ZAR  HZ EP   4    219 44.48                             121    2.69 0  206 293 
 ZAR  HE ES        220  7.05                             121    0.04 8  206 293 
 CHI  HN ES        220 15.27                             116   -0.16 8  246 196 
                                                                                
