 2016  811 0350 55.5 L   6.814 -73.131143.8  RSN 11 0.4 2.2LRSN                1
 GAP=169        0.92       3.8     2.8  5.2  0.1631E+01  0.2148E+01  0.1935E+01E
 Epicentro: LOS SANTOS - SANTANDER                                             3
 ACTION:UPD 16-10-29 15:34 OP:rebc STATUS:               ID:20160811035055 L   I
 OLDACT:UP  16-08-11 13:09 OP:dani STATUS:               ID:20160811034353     3
 OLDACT:REG 16-08-11 12:16 OP:dani STATUS:               ID:20160811034353     3
 2016-08-11-0348-00M.COL___380                                                 6
 STAT SP IPHASW D HRMM SECON CODA AMPLIT PERI AZIMU VELO AIN AR TRES W  DIS CAZ7
 BAR2 EZ EP        351 14.75                             170   -0.2110 25.2 193 
 BAR2 HE ES        351 30.09                             170   -0.0310 25.2 193 
 BAR2 EZ I         351 31.21        23.8 0.54                          25.2 193 
 BRR  HZ EP        351 16.52                             152    0.0210 71.9 297 
 BRR  HN ES        351 33.41                             152    0.5410 71.9 297 
 BRR  HZ I         351 37.98        24.6 0.14                          71.9 297 
 RUS  HZ EP        351 19.23                             143    0.0410  102 177 
 RUS  HE ES        351 37.49                             143   -0.1710  102 177 
 RUS  HZ I         351 38.94        14.7 0.24                           102 177 
 PTB  HZ EP   4    351 21.46                             131   -1.05 0  150 258 
 PTB  HE ES        351 43.24                             131   -0.31 9  150 258 
 PTB  HZ I         351 44.96        17.3 0.14                           150 258 
 TAM  HZ EP        351 23.16                             130    0.22 9  154 106 
 TAM  HE ES        351 44.48                             130    0.15 9  154 106 
 TAM  HZ I         351 54.18        11.1 0.46                           154 106 
 SPBC HZ EP        351 23.80                             128   -0.29 9  165 219 
 SPBC HE ES        351 46.20                             128   -0.17 9  165 219 
 SPBC HZ I         351 49.28        18.7 0.08                           165 219 
 ZAR  HZ EP        351 27.42                             122   -0.52 9  205 292 
 ZAR  HN ES        351 52.74                             122   -0.48 9  205 292 
 ZAR  HZ I         351 58.25        28.8 0.70                           205 292 
 NOR  HZ EP        351 31.11                             118   -0.27 8  237 234 
 NOR  HE ES        352  0.34                             118    0.99 8  237 234 
 NOR  HZ I         352  0.88         9.9 0.20                           237 234 
 CHI  HZ EP        351 33.43                             117    0.10 8  251 195 
 CHI  HE ES        352  2.43                             117   -0.38 8  251 195 
 CHI  HZ I         352  9.72         8.4 0.44                           251 195 
 ROSC BZ EP   4    351 35.96                             116    2.18 0  255 211 
 ROSC BZ I         352 11.84        15.4 0.35                           255 211 
 HEL  HZ EP        351 36.66                             114    0.80 8  274 256 
 HEL  HN ES        352  7.53                             114    0.22 8  274 256 
 HEL  HZ I         352 14.32         9.1 0.38                           274 256 
                                                                                
