 2014  111 0954 12.5 L   6.826 -73.139145.0  RSN 13 0.5 2.1LRSN                1
 GAP=136        1.07       2.7     4.0  5.8 -0.2553E+01  0.9101E+01 -0.4057E+00E
 Epicentro: LOS SANTOS - SANTANDER                                             3
 ACTION:UPD 14-03-13 09:54 OP:ep   STATUS:               ID:20140111095412 L   I
 OLDACT:REG 14-01-11 09:43 OP:carl STATUS:               ID:20140111095000     3
 2014-01-11-0950-00M.COL___285                                                 6
 STAT SP IPHASW D HRMM SECON CODA AMPLIT PERI AZIMU VELO AIN AR TRES W  DIS CAZ7
 BAR2 SZ IP     D  954 32.11                             169    0.0510 26.3 190 
 BAR2 SZ ES        954 47.54                             169    0.2010 26.3 190 
 BAR2 SZ I         954 49.82        24.0 0.32            168           26.3 190 
 PAM  SZ EP     C  954 34.87                             151    0.4410 74.7  41 
 PAM  SN ES        954 51.93                             151    0.3610 74.7  41 
 PAM  SZ I         954 54.26        14.0 0.56            156           74.7  41 
 RUS  HZ EP        954 35.98                             143   -0.3610  103 177 
 RUS  HE ES        954 55.00                             143    0.0410  103 177 
 RUS  HZ I         954 55.94        11.8 0.24            146            103 177 
 PTB  HZ EP        954 38.85                             132   -0.63 9  149 258 
 PTB  HN ES        955  0.14                             132   -0.41 9  149 258 
 PTB  HZ I         955  6.00        14.0 0.38            132            149 258 
 OCA  HZ EP        954 40.63                             130    0.18 9  157 353 
 OCA  HN ES        955  1.69                             130   -0.59 9  157 353 
 OCA  HZ I         955  7.82        16.1 0.30            132            157 353 
 SPBC HZ EP        954 40.93                             128   -0.22 9  166 219 
 SPBC HN ES        955  3.43                             128   -0.10 9  166 219 
 SPBC HZ I         955  7.14        20.0 0.24            130            166 219 
 ZAR  HZ EP        954 45.25                             122    0.44 9  204 291 
 ZAR  HN ES        955 10.28                             122    0.24 9  204 291 
 ZAR  HZ I         955 17.26        14.0 0.30            123            204 291 
 NOR  HZ EP        954 48.23                             118   -0.15 8  237 234 
 NOR  HE ES        955 15.72                             118   -0.68 8  237 234 
 NOR  HZ I         955 21.33         9.9 0.28            120            237 234 
 SML  HZ EP        954 48.29                             117   -0.50 8  241 335 
 SML  HN ES        955 17.31                             117    0.19 8  241 335 
 SML  HZ I         955 20.60        16.9 0.10            120            241 335 
 CHI  HZ EP        954 50.03                             117   -0.40 8  252 195 
 CHI  HN ES        955 19.86                             117   -0.19 8  252 195 
 CHI  HZ I         955 24.99         3.5 0.28            119            252 195 
 HEL  HZ EP        954 53.19                             114    0.41 8  273 255 
 HEL  HE ES        955 23.95                             114   -0.29 8  273 255 
 HEL  HZ I         955 32.25         4.1 0.28            116            273 255 
 URE  HZ EP   4    954 56.24                             113    2.80 0  283 291 
 URE  HN ES   4    955 27.77                             113    2.36 0  283 291 
 GUY2CHZ EP        954 57.04                             112    0.76 7  303 234 
 GUY2CHE ES        955 30.75                             112    0.29 7  303 234 
 RREF HZ EP        954 58.83                             110   -0.01 7  324 229 
 RREF HN ES        955 36.72                             110    1.70 7  324 229 
 RREF HZ I         955 43.70         7.2 0.46            112            324 229 
                                                                                
