 2017  411 0937 29.6 L   6.713 -73.143142.6  RSN  7 0.5 1.5LRSN                1
 GAP=141        1.13       6.6     7.4  7.4  0.2442E+02  0.8373E+01  0.4741E+00E
 Epicentro: JORDAN - SANTANDER                                                 3
 ACTION:UPD 17-05-30 21:10 OP:jn   STATUS:               ID:20170411093729 L   I
 OLDACT:UP  17-04-11 17:22 OP:dani STATUS:               ID:20170411092626     3
 OLDACT:UP  17-04-11 17:22 OP:dani STATUS:               ID:20170411092626     3
 OLDACT:REG 17-04-11 12:22 OP:edw  STATUS:               ID:20170411092626     3
 2017-04-11-0928-00M.COL___365                                                 6
 STAT SP IPHASW D HRMM SECON CODA AMPLIT PERI AZIMU VELO AIN AR TRES W  DIS CAZ7
 BAR2 EZ EP        937 48.47                             174   -0.2510 14.1 198 
 BAR2 EZ ES        938  3.32                             174   -0.3010 14.1 198 
 BAR2 EZ I         938  6.06        12.7 0.28            171           14.1 198 
 BRR  HZ EP        937 50.92                             150    0.1710 76.5 305 
 BRR  HN ES        938  7.81                             150    0.5910 76.5 305 
 BRR  HZ I         938 11.00         7.2 0.22            148           76.5 305 
 PAM  EZ EP        937 51.71                             148   -0.2610 84.8  35 
 PAM  EZ I         938 11.20         3.5 0.46            136           84.8  35 
 RUS  HZ EP        937 52.40                             146    0.0110 91.0 176 
 RUS  HN ES        938 10.44                             146    0.3010 91.0 176 
 RUS  HZ I         938 11.91         5.4 0.25            145           91.0 176 
 PTB  HZ EP        937 55.33                             132   -0.89 9  147 263 
 PTB  HN ES   3    938 15.94                             132   -1.03 2  147 263 
 PTB  HZ I         938 16.75         5.1 0.13            132            147 263 
 ZAR  HZ EP        938  3.14                             121    0.85 8  208 295 
 ZAR  HN ES        938 27.42                             121   -0.35 8  208 295 
 ZAR  HZ I         938 32.89         5.2 0.29            118            208 295 
 CHI  HZ EP        938  6.49                             117    0.34 8  239 196 
 CHI  HN ES   4    938 36.88                             117    2.23 0  239 196 
 CHI  HZ I         938 41.73         1.1 0.28            115            239 196 
                                                                                
