 2014  711 0441 38.5 L   6.825 -73.150140.8  RSN  6 0.4 1.6LRSN                1
 GAP=183        0.95       3.4     5.6  6.5 -0.9418E+00  0.1099E+01 -0.1859E+01E
 Epicentro: LOS SANTOS - SANTANDER                                             3
 ACTION:UPD 15-03-16 20:42 OP:nd   STATUS:               ID:20140711044138 L   I
 OLDACT:REG 14-07-11 12:42 OP:stll STATUS:               ID:20140711043814     3
 2014-07-11-0438-14M.COL___259                                                 6
 STAT SP IPHASW D HRMM SECON CODA AMPLIT PERI AZIMU VELO AIN AR TRES W  DIS CAZ7
 BAR2 SZ EP        441 57.72                             169    0.0810 26.0 188 
 BAR2 SZ ES        442 12.29                             169   -0.2410 26.0 188 
 BAR2 SZ I         442 13.82        20.8 0.28            170           26.0 188 
 BRR  HZ EP        441 59.38                             152    0.3210 69.4 297 
 BRR  HN ES        442 15.70                             152    0.6410 69.4 297 
 BRR  HZ I         442 19.57         8.5 0.34            151           69.4 297 
 RUS  HZ EP        442  1.90                             142   -0.1210  103 176 
 RUS  HN ES        442 20.46                             142    0.1210  103 176 
 RUS  HZ I         442 21.33         3.9 0.30            145            103 176 
 PTB  HZ EP        442  5.52                             131    0.40 9  148 258 
 PTB  HZ I         442  6.52         5.0 0.34            132            148 258 
 PTB  HN ES        442 25.31                             131   -0.53 9  148 258 
 OCA  HZ EP        442  5.73                             129   -0.47 9  157 353 
 OCA  HN ES        442 27.53                             129   -0.25 9  157 353 
 OCA  HZ I         442 32.35         4.7 0.56            130            157 353 
 SPBC HZ EP        442  7.17                             128    0.32 9  165 218 
 SPBC HE ES        442 28.50                             128   -0.42 9  165 218 
 SPBC HZ I         442 32.84         6.4 0.46            129            165 218 
                                                                                
