 2013 1011 0201  0.9 L   6.765 -73.138139.5  RSN 12 0.5 2.0LRSN                1
 GAP= 96        0.96       3.9     3.1  6.4  0.4555E-01  0.3727E+01  0.6283E+01E
 Epicentro: LOS SANTOS - SANTANDER                                             3
 ACTION:UPD 13-11-25 09:20 OP:ep   STATUS:               ID:20131011020100 L   I
 OLDACT:REG 13-10-11 08:05 OP:mh   STATUS:               ID:20131011015959     3
 2013-10-11-0159-59M.COL___273                                                 6
 STAT SP IPHASW D HRMM SECON CODA AMPLIT PERI AZIMU VELO AIN AR TRES W  DIS CAZ7
 BAR2 SZ EP        2 1 19.70                             172    0.0110 19.7 194 
 BAR2 SZ ES   1    2 1 34.26                             172   -0.10 7 19.7 194 
 BAR2 SZ I         2 1 35.56        37.3 0.16            171           19.7 194 
 BRR  HZ EP   1    2 1 21.58                             150    0.06 7 73.8 301 
 BRR  HN ES        2 1 38.19                             150    0.5810 73.8 301 
 BRR  HZ I         2 1 41.66        19.4 0.23            149           73.8 301 
 PAM  SZ EP   1    2 1 22.71                             149    0.11 7 79.9  37 
 PAM  SN ES        2 1 39.22                             149   -0.3110 79.9  37 
 PAM  SZ I         2 1 40.53        18.1 0.22            151           79.9  37 
 RUS  HZ EP        2 1 23.68                             144   -0.0610 96.7 176 
 RUS  HN ES   1    2 1 41.84                             144    0.27 7 96.7 176 
 RUS  HZ I         2 1 43.51         7.7 0.31            146           96.7 176 
 PTB  HZ EP   1    2 1 26.38                             130   -0.98 7  148 260 
 PTB  HN ES        2 1 47.31                             130   -0.70 9  148 260 
 PTB  HZ I         2 1 49.72        23.6 0.14            131            148 260 
 TAM  HZ EP   1    2 1 28.08                             129    0.17 7  153 104 
 TAM  HN ES   1    2 1 48.74                             129   -0.25 7  153 104 
 SPBC HZ EP   1    2 1 28.69                             128    0.01 7  161 220 
 SPBC HN ES        2 1 50.83                             128    0.48 9  161 220 
 SPBC HZ I         2 1 53.91        12.8 0.16            129            161 220 
 OCA  HN ES   4    2 1 49.31                             127   -1.79 0  164 353 
 OCA  HZ I         2 1 51.94        10.3 0.20            129            164 353 
 ZAR  HZ EP   1    2 1 33.24                             121    0.07 6  206 293 
 ZAR  HN ES        2 1 58.58                             121    0.24 8  206 293 
 ZAR  HZ I         2 2  6.77        12.3 0.23            121            206 293 
 CHI  HZ EP   1    2 1 38.91                             116    1.05 6  245 196 
 CHI  HN ES   1    2 2  5.93                             116   -0.77 6  245 196 
 HEL  HZ EP   1    2 1 41.39                             113    0.61 6  272 257 
 HEL  HN ES        2 2 11.56                             113   -0.33 8  272 257 
 GUY2CHZ EP   4    2 1 45.35                             111    1.31 0  300 235 
 GUY2CHN ES   4    2 2 20.85                             111    3.15 0  300 235 
 GUY2CHZ I         2 2 26.88         5.9 0.54                           300 235 
                                                                                
