 2012  611 0850 55.8 L   6.825 -73.139151.5  RSN  5 0.3 1.3LRSN                1
 GAP=184        0.56       4.8     5.0  7.1  0.7485E+01  0.6444E+01 -0.4174E+01E
 Epicentro: LOS SANTOS - SANTANDER                                             3
 ACTION:UPD 12-08-06 17:48 OP:ep   STATUS:               ID:20120611085055 L   I
 2012-06-11-0850-00M.COL___201                                                 6
 STAT SP IPHASW D HRMM SECON CODA AMPLIT PERI AZIMU VELO AIN AR TRES W  DIS CAZ7
 BAR2 SZ EP   1    851 16.38                             170    0.16 7 26.2 190 
 BAR2 SZ ES   1    851 32.42                             170    0.31 7 26.2 190 
 BAR2 SZ I         851 33.00         7.1 0.22            170           26.2 190 
 RUS  HZ EP   1    851 20.45                             144    0.10 7  103 177 
 RUS  HZ I         851 21.43         2.0 0.17            146            103 177 
 RUS  HN ES   1    851 39.18                             144   -0.29 7  103 177 
 PTB  HZ EP   1    851 23.40                             133    0.01 7  149 258 
 PTB  HN ES   1    851 44.50                             133   -0.38 7  149 258 
 PTB  HZ I         851 47.38         2.4 0.16            131            149 258 
 OCA  HN ES   2    851 46.16                             131   -0.43 5  158 353 
 ZAR  HN ES   2    851 54.79                             124    0.59 4  204 291 
 ZAR  HZ I         852  0.31         2.0 0.27            121            204 291 
                                                                                
