 2015 1011 0416 54.2 L   6.343 -73.563108.0  RSN  7 0.3 1.2LRSN                1
 GAP=111        0.81       2.6     3.6  5.6 -0.3492E+01  0.6559E+01  0.1499E+01E
 Epicentro: SANTA HELENA DEL OPON - SANTANDER                                  3
 ACTION:UPD 15-12-22 20:38 OP:cam  STATUS:               ID:20151011041654 L   I
 OLDACT:DUP 15-10-11 16:46 OP:ak   STATUS:               ID:20151011040750d    3
 2015-10-11-0407-49M.COL___340                                                 6
 STAT SP IPHASW D HRMM SECON CODA AMPLIT PERI AZIMU VELO AIN AR TRES W  DIS CAZ7
 BAR2 EZ EP        417 10.73                             153    0.3110 50.3  57 
 BAR2 EZ ES        417 23.40                             153    0.3210 50.3  57 
 BAR2 EZ I         417 25.39         8.1 0.20            155           50.3  57 
 RUS  HZ EP        417 11.98                             144   -0.2410 72.8 133 
 RUS  HE ES        417 26.12                             144   -0.1710 72.8 133 
 RUS  HZ I         417 29.37         2.7 0.30            145           72.8 133 
 BRR  HZ EP        417 12.30                             138   -0.2510 86.1 349 
 BRR  HN ES        417 26.58                             138   -0.2910 86.1 349 
 BRR  HZ I         417 28.45         3.2 0.12            142           86.1 349 
 SPBC HZ EP        417 13.00                             136   -0.4110 95.0 216 
 SPBC HE ES        417 28.85                             136    0.4410 95.0 216 
 PAM  EZ EP   1    417 19.32                             123    0.53 7  146  41 
 PAM  EE ES        417 37.91                             123   -0.07 9  146  41 
 CHI  HZ EP        417 23.89                             115    0.41 9  190 186 
 CHI  HN ES        417 45.89                             115   -0.45 9  190 186 
 CHI  HZ I         417 49.24         1.6 0.30            117            190 186 
 GUY2CHZ EP        417 28.60                             109    0.01 8  235 238 
 GUY2CHE ES        417 55.58                             109    0.16 8  235 238 
 GUY2CHZ I         418  1.64         2.1 0.58                           235 238 
                                                                                
