 2013  611 0009 59.1 L   6.776 -73.228153.7  RSN  4 0.1 1.1LRSN                1
 GAP=226        0.29       2.1     2.0  3.2  0.1169E+01  0.1817E+00  0.3989E+00E
 Epicentro: ZAPATOCA - SANTANDER                                               3
 ACTION:UPD 14-01-08 09:53 OP:ep   STATUS:               ID:20130611000959 L   I
 OLDACT:REG 13-06-11 07:09 OP:cam  STATUS:               ID:20130611000959     3
 2013-06-11-0009-59M.COL___261                                                 6
 STAT SP IPHASW D HRMM SECON CODA AMPLIT PERI AZIMU VELO AIN AR TRES W  DIS CAZ7
 BRR  HZ EP        010 20.71                             156   -0.0310 64.8 304 
 BRR  HN ES        010 37.72                             156    0.0710 64.8 304 
 BRR  HZ I         010 38.16         3.9 0.30            155           64.8 304 
 RUS  HZ EP   1    010 23.52                             146    0.04 7 99.0 171 
 RUS  HN ES        010 42.51                             146   -0.0310 99.0 171 
 RUS  HZ I         010 43.48         1.4 0.34            146           99.0 171 
 PTB  HZ EP   1    010 25.86                             136    0.00 7  138 259 
 PTB  HN ES        010 46.69                             136   -0.07 9  138 259 
 PTB  HN IS   1    010 46.69                             136   -0.07 7  138 259 
 PTB  HZ I         010 51.99         1.8 0.30            134            138 259 
 NOR  HN ES   1    011  1.97                             121    0.15 6  226 234 
                                                                                
