 2014 1011 0132 18.7 L   5.984 -73.671115.1  RSN  4 0.4 0.9LRSN                1
 GAP=132        0.89       6.3     4.1  9.7  0.8206E+00  0.2867E+01 -0.1790E+02E
 Epicentro: VELEZ - SANTANDER                                                  3
 ACTION:UPD 14-11-29 23:48 OP:nd   STATUS:               ID:20141011013218 L   I
 OLDACT:REG 14-10-11 12:46 OP:fm   STATUS:               ID:20141011012740     3
 2014-10-11-0127-40M.COL___298                                                 6
 STAT SP IPHASW D HRMM SECON CODA AMPLIT PERI AZIMU VELO AIN AR TRES W  DIS CAZ7
 SPBC HZ EP   1    132 35.87                             151   -0.07 7 57.7 231 
 SPBC HE ES        132 49.78                             151    0.4310 57.7 231 
 RUS  HZ EP   1    132 36.73                             148   -0.28 7 65.8  99 
 RUS  HN ES        132 50.88                             148   -0.3910 65.8  99 
 RUS  HZ I         132 52.43         1.9 0.28            152           65.8  99 
 BAR2 SZ EP   1    132 38.46                             141    0.36 7 86.3  39 
 BAR2 SZ ES   1    132 53.72                             141    0.51 7 86.3  39 
 PTB  HZ EP   1    132 39.73                             134    0.26 7  106 305 
 PTB  HN ES        132 55.15                             134   -0.4910  106 305 
 PTB  HZ I         132 59.15         1.4 0.28            134            106 305 
                                                                                
