 2013 1211 0351 44.4 L   6.768 -73.167151.3  RSN  7 0.5 1.8LRSN                1
 GAP=198        1.21       5.6     7.1  8.1  0.4585E+01  0.1132E+02  0.2220E+01E
 Epicentro: LOS SANTOS - SANTANDER                                             3
 ACTION:UPD 14-01-13 10:17 OP:ep   STATUS:               ID:20131211035144 L   I
 OLDACT:REG 13-12-11 06:19 OP:jn   STATUS:               ID:20131211035000     3
 2013-12-11-0350-00M.COL___285                                                 6
 STAT SP IPHASW D HRMM SECON CODA AMPLIT PERI AZIMU VELO AIN AR TRES W  DIS CAZ7
 BAR2 SZ EP        352  4.40                             172   -0.2310 19.5 185 
 BAR2 SZ ES        352 20.38                             172   -0.0310 19.5 185 
 BAR2 SZ I         352 21.13        13.3 0.20            169           19.5 185 
 BRR  HZ EP        352  6.18                             154    0.0410 71.0 302 
 BRR  HN ES        352 24.03                             154    0.9310 71.0 302 
 RUS  HZ EP        352  8.24                             146   -0.2310 97.3 175 
 RUS  HN ES        352 26.99                             146   -0.2610 97.3 175 
 RUS  HZ I         352 27.94         5.4 0.38            144           97.3 175 
 PTB  HZ EP        352 11.45                             134   -0.12 9  145 260 
 PTB  HN ES        352 32.06                             134   -0.70 9  145 260 
 PTB  HZ I         352 34.53         6.9 0.12            132            145 260 
 SPBC HZ EP        352 13.55                             131    0.61 9  159 219 
 SPBC HN ES        352 35.30                             131    0.09 9  159 219 
 SPBC HZ I         352 37.85         6.9 0.48            129            159 219 
 NOR  HZ EP        352 20.75                             120    0.71 8  231 235 
 NOR  HN ES   1    352 47.28                             120   -0.57 6  231 235 
 NOR  HZ I         352 54.22         5.9 0.16            119            231 235 
 SML  HN ES   1    352 49.60                             118   -0.99 6  246 336 
                                                                                
