 2011  211 0214 46.4 L   6.749 -73.035148.5  RSN  7 0.3 2.3LRSN                1
 GAP=172        0.63       4.3     8.8  5.7 -0.1362E+02  0.1110E+02  0.2674E+01E
 Epicentro: ARATOCA - SANTANDER                                                3
 ACTION:UP  11-03-28 15:07 OP:jfem STATUS:               ID:20110211021446 L   I
 2011-02-11-0213-04S.COL___136                                                 6
 STAT SP IPHASW D HRMM SECON CODA AMPLIT PERI AZIMU VELO SNR AR TRES W  DIS CAZ7
 BAR2 SZ IP        215  6.32                             170     0.010   24 223 
 BAR2 SZ ES   2    215 21.03                             170    -0.9 5   24 223 
 BAR2 SZ I         215 23.05        38.9 0.30                            24 223 
 BTL  SZ IP        215  6.54                             167     0.010   32 306 
 BTL  SZ ES   2    215 23.01                             167     0.8 5   32 306 
 GIR2 SZ EP   1    215  6.33                             164    -0.3 7   40 334 
 GIR2 SZ ES   2    215 22.53                             164     0.1 5   40 334 
 RUS  HZ EP   1    215 10.11                             146     0.1 7   95 183 
 RUS  HN ES   2    215 28.60                             146     0.2 5   95 183 
 RUS  HZ I         215 30.12        13.9 0.29                            95 183 
 GRA  SZ IP        215 12.03                             137     0.010  128  11 
 GRA  SZ I         215 13.18        22.4 0.32                           128  11 
 GRA  SZ ES   2    215 32.26                             137     0.2 5  128  11 
 CHI  HZ EP        215 24.10                             118     0.1 8  247 198 
 CHI  HZ I         216  0.77        10.7 0.24                           247 198 
 HEL  HZ EP        215 27.88                             114     0.0 7  283 258 
 HEL  HZ I         215 57.64        40.4 0.49                           283 258 
                                                                                
