 2016 1111 0431 34.1 L   6.804 -73.157147.1  RSN 32 0.5 3.3LRSN                1
 GAP= 65        1.07       3.0     2.9  4.9 -0.1023E+00  0.2782E+01  0.4055E+01E
 Epicentro: LOS SANTOS - SANTANDER                                             3
 OLDACT:UP  16-11-11 17:45 OP:ar   STATUS:               ID:20161111042746     3
 OLDACT:UP  16-11-11 17:43 OP:ar   STATUS:               ID:20161111042746     3
 OLDACT:UP  16-11-11 17:40 OP:ar   STATUS:               ID:20161111042746     3
 OLDACT:UP  16-11-11 17:38 OP:ar   STATUS:               ID:20161111042746     3
 OLDACT:UP  16-11-11 17:38 OP:ar   STATUS:               ID:20161111042746     3
 OLDACT:REG 16-11-11 13:54 OP:ar   STATUS:               ID:20161111042746     3
 ACTION:UPD 17-10-26 21:06 OP:lp   STATUS:               ID:20161111043134 L   I
 2016-11-11-0428-00M.COL___337                                                 6
 STAT SP IPHASW D HRMM SECON CODA AMPLIT PERI AZIMU VELO AIN AR TRES W  DIS CAZ7
 BAR2 HZ IP     D  431 53.88                             171    0.0210 23.6 187 
 BAR2 HZ ES        432  8.62                             171   -0.6810 23.6 187 
 BAR2 HZ I         432 11.37       721.2 0.36            170           23.6 187 
 BRR  HZ IP     C  431 55.73                             153    0.4410 69.9 299 
 BRR  HN ES        432 12.49                             153    0.6510 69.9 299 
 BRR  HZ I         432 16.55       271.3 0.40            148           69.9 299 
 PAM  EZ IP     C  431 56.74                             151    0.2910 77.8  40 
 PAM  EN ES        432 13.72                             151   -0.1910 77.8  40 
 PAM  EZ I         432 15.62       238.9 0.62            148           77.8  40 
 PAM  HZ I         432 15.62       238.9 0.62                          77.8  40 
 PTB  HZ EP        432  0.79                             132   -0.25 9  147 259 
 PTB  HN ES        432 21.63                             132   -0.46 9  147 259 
 PTB  HZ I         432 27.78       147.9 0.32                           147 259 
 PTB  EZ I         432 27.78       147.9 0.32            128            147 259 
 TAM  HZ IP     D  432  2.31                             130    0.34 9  156 105 
 TAM  HE ES        432 23.76                             130    0.03 9  156 105 
 TAM  HZ I         432 33.55       114.9 1.08            127            156 105 
 TAM  EZ I         432 33.55       114.9 1.08                           156 105 
 ZAR  HZ EP        432  6.20                             123   -0.27 9  203 292 
 ZAR  HN ES        432 31.83                             123    0.09 9  203 292 
 ZAR  EZ I         432 36.94       199.8 0.34            118            203 292 
 ZAR  HZ I         432 36.94       199.8 0.34                           203 292 
 NOR  HZ EP        432  9.79                             119   -0.01 8  234 234 
 NOR  HE ES        432 37.61                             119   -0.05 8  234 234 
 NOR  HZ I         432 43.70       110.3 0.36            115            234 234 
 CHI  HZ EP        432 12.11                             117    0.26 8  249 195 
 CHI  HN ES        432 41.49                             117    0.17 8  249 195 
 CHI  EZ I         432 44.49       136.7 0.48                           249 195 
 CHI  HZ I         432 44.49       136.7 0.48            114            249 195 
 ROSC BZ EP   4    432 13.65                             117    1.42 0  252 211 
 ROSC BE ES        432 42.62                             117    0.62 8  252 211 
 ROSC EZ I         432 48.39       284.9 0.45            113            252 211 
 ROSC HZ I         432 48.39       284.9 0.45                           252 211 
 ROSC BZ I         432 48.48       233.9 0.40                           252 211 
 URE  HZ EP   9    432 13.66                             114   -1.40 0  283 292 
 URE  HN ES        432 44.55                             114   -1.08 7  283 292 
 URE  EZ I         432 55.31        72.5 0.20                           283 292 
 URE  HZ I         432 55.31        72.5 0.20            110            283 292 
 VIL  EZ EP        432 17.64                             112    0.07 7  304 191 
 VIL  EN ES        432 51.52                             112    0.03 7  304 191 
 VIL  HZ I         432 56.90       196.5 0.58            109            304 191 
 VIL  EZ I         432 56.90       196.5 0.58                           304 191 
 LL1C HZ EP   4    432 18.99                             112    1.33 0  306 352 
 LL1C HN EP   4    432 54.47                             112   36.81 0  306 352 
 LL1C EZ I         433  2.39       398.1 0.66            108            306 352 
 LL1C HZ I         433 58.62       183.1 0.68                           306 352 
 PTGC HZ IP     D  432 17.03                             112   -1.05 7  310 158 
 PTGC HN ES   4    432 50.42                             112   -1.98 0  310 158 
 PTGC EZ I         432 52.90        56.2 0.40            109            310 158 
 PTGC HZ I         432 52.90        56.2 0.40                           310 158 
 LL6C HZ EP   9    431 59.11                             110   -20.7 0  324 358 
 LL6C HN ES        432 34.69                             114   -0.07 7  324 358 
 LL6C HZ I         432 40.44        62.8 0.42                           324 358 
 LL6C EZ I         432 40.44        62.8 0.42            107            324 358 
 ELA  HZ EP   4    432 22.79                             110    1.89 0  328 229 
 ELA  HE ES   4    432 58.70                             110    1.27 0  328 229 
 ELA  HZ I         433  6.11        87.9 0.62                           328 229 
 ELA  EZ I         433  6.11        87.9 0.62            107            328 229 
 CBOC HZ EP        432 21.57                             110    0.65 7  333 252 
 CBOC HN ES        432 56.15                             110   -1.31 7  333 252 
 CBOC HZ I         433  6.32        30.6 0.52            107            333 252 
 CBOC EZ I         433  6.32        30.6 0.52                           333 252 
 DBB  HZ EP        432 21.17                             110   -0.29 7  338 274 
 DBB  HN ES   4    432 56.67                             110   -1.75 0  338 274 
 ANIL HZ EP   4    432 25.23                             109    1.37 0  357 224 
 ANIL HN ES   4    433  4.30                             109    1.60 0  357 224 
 ANIL EZ I         433 13.95       266.6 0.34                           357 224 
 ANIL HZ I         433 13.95       266.6 0.34            105            357 224 
 ARGC HZ EP        432 24.11                             108    0.43 6  358 341 
 ARGC HN ES        433  2.38                             108   -0.00 6  358 341 
 ARGC EZ I         433 11.60        28.3 0.56                           358 341 
 ARGC HZ I         433 11.60        28.3 0.56            105            358 341 
 PRA  HZ EP   4    432 24.69                             107   -2.92 0  392 209 
 PRA  HN ES   4    433  5.88                             107   -3.49 0  392 209 
 PRA  HZ I         433 12.94       138.0 0.74            104            392 209 
 PRA  EZ I         433 12.94       138.0 0.74                           392 209 
 ORTC HZ EP        432 27.97                             106   -0.02 6  395 216 
 ORTC HE ES   4    433 10.83                             106    0.78 0  395 216 
 ORTC EZ I         433 14.95        67.7 0.52                           395 216 
 ORTC HZ I         433 14.95        67.7 0.52            104            395 216 
 PAL  HZ EP        432 29.44                             106    0.26 6  405 239 
 PAL  HN ES        433 13.61                             106    1.45 6  405 239 
 PAL  HZ I         433 19.33        23.5 0.24            103            405 239 
 SJC  HZ EP   4    432 27.66                             106   -1.90 0  408 327 
 SJC  HN ES   4    433  8.85                             106   -3.99 0  408 327 
 SJC  HZ I         433 22.20        43.1 0.88            103            408 327 
 SJC  EZ I         433 22.20        43.1 0.88                           408 327 
 LCBC HZ EP        432 30.34                             105   -0.59 5  421 303 
 LCBC HE ES   4    433 12.80                             105   -2.48 0  421 303 
 LCBC EZ I         433 18.32        44.3 0.56                           421 303 
 LCBC HZ I         433 18.32        44.3 0.56            102            421 303 
 CRJC HZ EP   4    432 34.25                             103   -2.32 0  467   4 
 CRJC HN ES   4    433 20.93                             103   -4.38 0  467   4 
 CRJC HZ I         433 29.01        60.5 0.36            101            467   4 
 CRJC EZ I         433 29.01        60.5 0.36                           467   4 
 YOT  HZ EP        432 36.51                             103   -0.56 5  471 229 
 YOT  HN ES   4    433 24.39                             103   -1.83 0  471 229 
 YOT  HZ I         433 38.28         8.1 1.36                           471 229 
 YOT  EZ I         433 38.28         8.1 1.36            101            471 229 
 GUA  EZ EP        432 36.33                             103   -0.99 5  475 173 
 GUA  EN ES   4    433 24.99                             103   -1.67 0  475 173 
 GUA  HZ I         433 29.40        27.3 0.30            101            475 173 
 GUA  EZ I         433 29.40        27.3 0.30                           475 173 
 URI  HZ EP   4    432 44.16                             101   -2.93 0  557  13 
 URI  HN ES   4    433 39.67                             101   -4.37 0  557  13 
 URI  EZ I         433 45.03        12.5 0.56                           557  13 
 URI  HZ I         433 45.03        12.5 0.56             98            557  13 
 GARC HZ EP   4    432 50.81                             100    1.48 0  573 207 
 GARC HN ES   4    433 44.33                             100   -3.70 0  573 207 
 GARC HZ I         433 50.29        37.1 0.26             98            573 207 
 GARC EZ I         433 50.29        37.1 0.26                           573 207 
 CONO HZ EP   4    432 55.33                              99    0.91 0  612 216 
 CONO HN ES        433 57.26                              99    0.17 3  612 216 
 CONO HZ I         434 33.37         8.2 0.88             97            612 216 
 CONO EZ I         434 33.37         8.2 0.88                           612 216 
 SOTO HZ EP        432 57.78                              99   -0.29 2  643 217 
 SOTO HN ES   4    433 58.81                              99   -4.78 0  643 217 
 SOTO HZ E         435 21.12                                            643 217 
 BBAC HZ EP   4    433  5.24                              98    1.00 0  697 221 
 BBAC HN ES   4    434 11.00                              98   -3.58 0  697 221 
 BBAC HZ I         434 18.59         3.5 1.28             96            697 221 
 BBAC EZ I         434 18.59         3.5 1.28                           697 221 
                                                                                
