 2016  711 0550 45.6 L   6.756 -73.189146.0  RSN  6 0.4 1.5LRSN                1
 GAP=229        0.93       5.2     6.3  7.7  0.1592E+02 -0.9082E+00 -0.4383E+01E
 Epicentro: VILLANUEVA - SANTANDER                                             3
 ACTION:UPD 17-03-29 16:49 OP:lp   STATUS:               ID:20160711055045 L   I
 OLDACT:REG 16-07-11 12:43 OP:lv   STATUS:               ID:20160711054739     3
 2016-07-11-0547-39M.COL___327                                                 6
 STAT SP IPHASW D HRMM SECON CODA AMPLIT PERI AZIMU VELO AIN AR TRES W  DIS CAZ7
 BRR  HZ EP        551  6.41                             153   -0.2510 69.7 304 
 BRR  HE ES        551 23.43                             153    0.3210 69.7 304 
 RUS  HZ EP        551  8.78                             145   -0.2510 96.2 173 
 RUS  HN ES        551 27.36                             145    0.0310 96.2 173 
 RUS  HZ I         551 28.48         2.4 0.38            142           96.2 173 
 PTB  HZ EP        551 11.50                             133   -0.56 9  142 260 
 PTB  HE ES        551 32.46                             133   -0.26 9  142 260 
 PTB  HZ I         551 35.03         4.4 0.12            129            142 260 
 SPBC HZ EP        551 13.73                             130    0.28 9  156 219 
 SPBC HN ES        551 35.48                             130    0.28 9  156 219 
 SPBC HZ I         551 44.37         4.8 0.12            126            156 219 
 ZAR  HZ EP        551 18.56                             123    0.78 9  202 294 
 ZAR  HN ES        551 42.65                             123   -0.25 9  202 294 
 ZAR  HZ I         551 48.86         3.3 0.20            121            202 294 
 SJC  HZ EP   4    551 38.51                             106   -2.81 0  411 328 
 SJC  HN ES   4    552 21.49                             106   -3.31 0  411 328 
 SJC  HZ I         552 24.30         0.8 0.22            106            411 328 
                                                                                
