 2014  311 0551 26.4 L   6.808 -73.145141.8  RSN 13 0.5 1.9LRSN                1
 GAP=136        1.12       2.9     4.0  6.2 -0.2756E+01  0.1009E+02 -0.6068E+00E
 Epicentro: LOS SANTOS - SANTANDER                                             3
 ACTION:UPD 14-04-09 23:16 OP:nd   STATUS:               ID:20140311055126 L   I
 OLDACT:REG 14-03-11 07:40 OP:fm   STATUS:               ID:20140311054808     3
 2014-03-11-0548-08M.COL___234                                                 6
 STAT SP IPHASW D HRMM SECON CODA AMPLIT PERI AZIMU VELO AIN AR TRES W  DIS CAZ7
 BAR2 SZ EP        551 45.68                             170    0.0810 24.2 190 
 BAR2 SZ ES        552  0.91                             170    0.3610 24.2 190 
 BAR2 SZ I         552  2.07        21.8 0.34            169           24.2 190 
 PAM  SZ EP        551 48.48                             150    0.3010 76.7  40 
 PAM  SE ES        552  5.67                             150    0.5210 76.7  40 
 RUS  HE EP        551 49.77                             143   -0.0810  101 176 
 RUS  HZ ES        552  7.59                             143   -0.5310  101 176 
 RUS  HE I         552  9.59        15.7 0.20            146            101 176 
 PTB  HZ EP        551 52.39                             131   -0.70 9  148 259 
 PTB  HN ES        552 13.74                             131   -0.15 9  148 259 
 PTB  HZ I         552 15.99        10.2 0.12            131            148 259 
 OCA  HZ EP        551 55.07                             129    0.72 9  159 353 
 OCA  HN ES        552 15.59                             129   -0.54 9  159 353 
 OCA  HZ I         552 20.40         8.9 0.20            130            159 353 
 SPBC HZ EP        551 54.57                             128   -0.12 9  164 219 
 SPBC HN ES        552 16.84                             128    0.11 9  164 219 
 SPBC HZ I         552 21.81        15.1 0.20            129            164 219 
 ZAR  HN ES        552 24.04                             122    0.37 9  204 292 
 ZAR  HZ I         552 32.22         7.1 0.36            122            204 292 
 NOR  HZ EP        552  1.83                             118   -0.15 8  235 234 
 NOR  HE ES        552 29.08                             118   -0.64 8  235 234 
 NOR  HZ I         552 33.35         6.7 0.18            119            235 234 
 SML  HZ EP        552  1.92                             117   -0.82 8  243 335 
 SML  HN ES        552 30.33                             117   -0.75 8  243 335 
 SML  HZ I         552 33.56        14.6 0.10            118            243 335 
 CHI  HZ EP        552  3.78                             116   -0.21 8  249 195 
 CHI  HN ES        552 32.97                             116   -0.33 8  249 195 
 HEL  HZ EP        552  7.22                             114    0.76 8  272 256 
 HEL  HE ES        552 37.96                             114    0.26 8  272 256 
 HEL  HZ I         552 44.86         3.3 0.38            115            272 256 
 URE  HZ EP   4    552  5.99                             113   -1.28 0  284 292 
 URE  HN ES   4    552 36.70                             113   -2.43 0  284 292 
 GUY2CHZ EP        552 10.88                             111    0.97 7  302 235 
 GUY2CHN ES        552 44.20                             111    0.37 7  302 235 
 GUY2CHZ I         552 51.05         4.3 0.30                           302 235 
 CBOC HZ EP        552 13.48                             109    0.27 7  334 252 
 CBOC HN ES        552 49.99                             109    0.29 7  334 252 
 CBOC HZ I         552 55.86         1.7 0.64            110            334 252 
 SJC  HZ EP   4    552 19.96                             105   -1.81 0  409 327 
 SJC  HN ES   4    553  1.30                             105   -3.65 0  409 327 
                                                                                
