 2013  811 0851 31.7 L   6.894 -73.149150.3  RSN  5 0.4 1.1LRSN                1
 GAP=210        0.78       7.3     4.8  8.5 -0.8209E+01  0.1763E+01  0.2810E+01E
 Epicentro: BETULIA - SANTANDER                                                3
 ACTION:UPD 14-01-14 09:01 OP:ep   STATUS:               ID:20130811085131 L   I
 OLDACT:REG 13-08-11 07:46 OP:jn   STATUS:               ID:20130811084959     3
 2013-08-11-0849-59M.COL___271                                                 6
 STAT SP IPHASW D HRMM SECON CODA AMPLIT PERI AZIMU VELO AIN AR TRES W  DIS CAZ7
 BRR  HZ EP   1    851 53.14                             155    0.05 7 66.5 291 
 BRR  HN ES        852 10.13                             155    0.3610 66.5 291 
 BRR  HZ I         852 14.94         2.6 0.64            152           66.5 291 
 PAM  SZ EP        851 54.22                             154    0.2410 69.9  45 
 PAM  SN ES   1    852 10.92                             154   -0.44 7 69.9  45 
 PAM  SZ I         852 12.90         1.4 0.44            155           69.9  45 
 PTB  HZ EP   1    851 59.11                             133   -0.11 7  150 255 
 PTB  HN ES   1    852 20.02                             133   -0.66 7  150 255 
 PTB  HZ I         852 21.51         2.4 0.42            134            150 255 
 ZAR  HN ES   1    852 29.64                             124    0.39 6  200 289 
 ZAR  HZ I         852 35.50         1.5 0.28            125            200 289 
 SML  HE ES   1    852 35.07                             119   -0.46 6  234 334 
                                                                                
