 2010 1211 0558 53.5 L   6.815 -73.066147.2  RSN  5 0.1 1.5LRSN                1
 GAP=191        0.32       2.3    11.4  7.3 -0.6913E+01  0.4448E+02 -0.6859E+00E
 Epicentro: LOS SANTOS - SANTANDER                                             3
 ACTION:UP  11-01-14 15:24 OP:pat  STATUS:               ID:20101211055853 L   I
 2010-12-11-0557-00S.COL___132                                                 6
 STAT SP IPHASW D HRMM SECON CODA AMPLIT PERI AZIMU VELO SNR AR TRES W  DIS CAZ7
 BAR2 SZ EP   1    559 13.58                             169     0.1 7   28 208 
 BAR2 SZ I         559 30.41         7.8 0.29                            28 208 
 RUS  HZ EP   2    559 17.39                             144    -0.2 5  102 181 
 RUS  HN ES   2    559 36.30                             144     0.0 5  102 181 
 RUS  HZ I         559 39.15         2.3 0.36                           102 181 
 OCA  SZ EP   2    559 22.07                             130     0.1 5  160 350 
 OCA  SZ ES   2    559 43.88                             130    -0.2 5  160 350 
 OCA  SZ I         559 48.71         4.9 0.49                           160 350 
 CHI  HZ EP   2    559 31.61                             117    -0.2 4  253 197 
 CHI  HE ES   2    6 0  1.39                             117    -0.2 4  253 197 
 CHI  HZ I         6 0  4.50         2.2 0.72                           253 197 
 PRA  HZ EP   2    559 47.89                             106     0.1 3  398 211 
 PRA  HE ES   2    6 0 30.23                             106     0.1 3  398 211 
                                                                                
