 2011  911 0937 36.8 L   6.784 -73.033141.6  RSN 10 0.3 1.8LRSN                1
 GAP=152        0.45       2.4     4.4  4.3 -0.2315E+01  0.5483E+01  0.6425E+00E
 Epicentro: CEPITA - SANTANDER                                                 3
 ACTION:UPD 12-07-13 15:56 OP:ep   STATUS:               ID:20110911093736 L   I
 2011-09-11-0935-07S.COL___168                                                 6
 STAT SP IPHASW D HRMM SECON CODA AMPLIT PERI AZIMU VELO AIN AR TRES W  DIS CAZ7
 BAR2 SZ EP   1    937 56.13                             169    0.09 7 26.9 218 
 BAR2 SZ ES   1    938 10.77                             169   -0.26 7 26.9 218 
 BAR2 SZ I         938 14.00        20.9 0.24                          26.9 218 
 PAM  SZ EP   2    937 58.87                             152    0.60 5 71.6  31 
 PAM  SN ES   2    938 14.98                             152   -0.01 5 71.6  31 
 BRR  HZ EP   1    937 57.96                             148   -0.30 7 83.1 296 
 BRR  HE ES   2    938 15.10                             148    0.12 5 83.1 296 
 BRR  HZ I         938 17.47        10.8 0.21                          83.1 296 
 RUS  HZ EP   2    938  0.08                             143    0.04 5 98.7 183 
 RUS  HN ES   2    938 18.77                             143    0.62 5 98.7 183 
 RUS  HZ I         938 20.10         6.1 0.26                          98.7 183 
 OCA  SZ EP   2    938  5.14                             128   -0.04 5  164 349 
 OCA  SZ ES   2    938 27.25                             128   -0.03 5  164 349 
 OCA  SZ I         938 30.26         5.8 0.14                           164 349 
 CHI  HZ EP   1    938 14.23                             116   -0.28 6  250 198 
 CHI  HE ES   2    938 43.41                             116   -0.48 4  250 198 
 CHI  HZ I         938 53.81         3.7 0.24                           250 198 
 HEL  HZ EP   2    938 18.40                             113    0.26 4  284 257 
 HEL  HN ES   2    938 50.75                             113    0.39 4  284 257 
 HEL  HZ I         938 54.67         3.2 0.50                           284 257 
 RREF HN ES   2    939  0.53                             109    0.16 3  330 231 
 RREF HZ I         939  3.38         3.5 0.68                           330 231 
 COD  HE ES   2    939  3.15                             108   -0.15 3  351 353 
 PRA  HN ES   2    939 13.05                             106    0.20 3  397 211 
                                                                                
