 2014  211 0525 42.4 L   6.221 -73.731104.8  RSN  6 0.4 1.4LRSN                1
 GAP= 97        1.04       3.5     3.8  7.6  0.3473E+01  0.6111E+01 -0.3702E-01E
 Epicentro: LANDAZURI - SANTANDER                                              3
 ACTION:UPD 14-03-10 08:09 OP:ep   STATUS:               ID:20140211052542 L   I
 OLDACT:REG 14-02-11 07:40 OP:carl STATUS:               ID:20140211052000     3
 2014-02-11-0520-00M.COL___167                                                 6
 STAT SP IPHASW D HRMM SECON CODA AMPLIT PERI AZIMU VELO AIN AR TRES W  DIS CAZ7
 BAR2 SZ IP     C  525 59.99                             142    0.1510 73.3  56 
 BAR2 SZ ES        526 13.44                             142    0.0310 73.3  56 
 BAR2 SZ I         526 13.96        29.9 0.26            144           73.3  56 
 SPBC HE ES        526 13.75                             142    0.7010 73.3 211 
 RUS  HZ EP        526  0.59                             140   -0.1410 80.4 117 
 RUS  HN ES        526 14.93                             140   -0.0710 80.4 117 
 RUS  HZ I         526 17.45         3.8 0.32            140           80.4 117 
 PTB  HZ EP        526  0.01                             137   -0.6510 87.6 294 
 PTB  HN ES        526 14.35                             137   -0.5310 87.6 294 
 PTB  HZ I         526 16.01         4.6 0.28            137           87.6 294 
 CHI  HZ EP        526 10.15                             116    0.18 9  176 180 
 CHI  HN ES        526 31.12                             116   -0.33 9  176 180 
 CHI  HZ I         526 36.07         1.9 0.26            116            176 180 
 ZAR  HZ EP        526 11.18                             114    0.41 9  188 319 
 ZAR  HN ES        526 33.29                             114    0.42 9  188 319 
 ZAR  HZ I         526 35.13         4.6 0.24            114            188 319 
                                                                                
