 2017 1211 0515 58.8 L   6.771 -73.139144.4  RSN  5 0.3 1.3LRSN                1
 GAP=156        0.87       5.1     4.4  6.9 -0.7674E+01  0.1204E+02 -0.9118E+01E
 Epicentro: LOS SANTOS - SANTANDER                                             3
 ACTION:UPD 18-01-04 13:19 OP:rebc STATUS:               ID:20171211051558 L   I
 OLDACT:UP  17-12-11 15:46 OP:leo  STATUS:               ID:20171211050743d    3
 OLDACT:DUP 17-12-11 15:43 OP:leo  STATUS:               ID:20171211050743d    3
 2017-12-11-0508-00M.COL___475                                                 6
 STAT SP IPHASW D HRMM SECON CODA AMPLIT PERI AZIMU VELO AIN AR TRES W  DIS CAZ7
 BAR2 EZ EP        516 18.33                             172    0.1310 20.3 194 
 BAR2 EZ ES        516 33.37                             172    0.0310 20.3 194 
 BAR2 EZ I         516 34.19         4.4 0.30            175           20.3 194 
 PAM  EZ EP        516 21.29                             150    0.3010 79.4  38 
 PAM  EN ES        516 38.41                             150    0.1110 79.4  38 
 PAM  EZ I         516 40.57         2.7 0.58            149           79.4  38 
 PTB  HZ EP        516 25.22                             132   -0.44 9  148 260 
 PTB  HN ES        516 46.27                             132   -0.35 9  148 260 
 PTB  HZ I         516 48.49         1.3 0.12            133            148 260 
 OCA  HZ EP        516 26.93                             129   -0.38 9  164 353 
 OCA  HN ES        516 49.18                             129   -0.38 9  164 353 
 OCA  HZ I         516 55.34         3.4 0.38            128            164 353 
 ZAR  HZ EP        516 31.81                             122    0.46 8  206 293 
 ZAR  HN ES        516 57.33                             122    0.58 8  206 293 
 ZAR  HZ I         517  0.57         2.0 0.36            122            206 293 
                                                                                
