 2015  911 0735 16.8 L   6.325 -73.620102.0  RSN  5 0.4 1.4LRSN                1
 GAP=155        0.94       5.9     4.9  8.5 -0.4737E+01  0.2069E+02  0.1134E+02E
 Epicentro: SANTA HELENA DEL OPON - SANTANDER                                  3
 ACTION:UPD 15-10-28 16:25 OP:cam  STATUS:               ID:20150911073516 L   I
 OLDACT:REG 15-09-11 12:56 OP:drio STATUS:               ID:20150911072747     3
 2015-09-11-0727-47M.COL___347                                                 6
 STAT SP IPHASW D HRMM SECON CODA AMPLIT PERI AZIMU VELO AIN AR TRES W  DIS CAZ7
 BAR2 EZ ES        735 45.50                             149    0.3210 56.7  59 
 BAR2 EZ I         735 46.46        15.4 0.14            151           56.7  59 
 SPBC HZ EP        735 34.38                             135   -0.6210 89.6 214 
 SPBC HN ES        735 49.15                             135   -0.0810 89.6 214 
 SPBC HZ I         735 51.75         6.7 0.30            136           89.6 214 
 PTB  HZ EP   4    735 33.65                             133   -1.76 0 95.5 284 
 PTB  HN ES        735 49.77                             133   -0.2010 95.5 284 
 PTB  HZ I         735 50.18         5.5 0.30            136           95.5 284 
 HEL  HZ EP        735 47.85                             110   -0.27 8  212 266 
 HEL  HE ES        736 12.68                             110    0.09 8  212 266 
 GUY2CHZ EP        735 50.59                             108    0.42 8  228 238 
 GUY2CHE ES        736 16.87                             108    0.63 8  228 238 
 GUY2CHZ I         736 23.35         1.3 0.44                           228 238 
                                                                                
