 2015  111 0035 27.0 L   6.530 -73.543107.1  RSN  9 0.5 1.8LRSN                1
 GAP= 93        1.37       4.2     4.8  8.2  0.3141E+01  0.1325E+02 -0.1916E+01E
 Epicentro: EL CARMEN - SANTANDER                                              3
 ACTION:UPD 15-03-02 15:38 OP:nd   STATUS:               ID:20150111003527 L   I
 OLDACT:REG 15-01-11 13:21 OP:cam  STATUS:               ID:20150111002821     3
 2015-01-11-0028-21M.COL___208                                                 6
 STAT SP IPHASW D HRMM SECON CODA AMPLIT PERI AZIMU VELO AIN AR TRES W  DIS CAZ7
 BAR2 EZ EP        035 42.81                             158    0.1410 40.5  80 
 BAR2 EZ ES        035 54.36                             158   -0.5010 40.5  80 
 BAR2 EZ I         035 56.46        47.3 0.32            163           40.5  80 
 BRR  HZ EP     D  035 43.52                             146   -0.3110 66.5 344 
 BRR  HN ES        035 57.81                             146    0.8810 66.5 344 
 BRR  HZ I         036  3.19        11.1 0.14            147           66.5 344 
 RUS  HZ EP        035 46.15                             138    0.0910 87.0 144 
 RUS  HN ES        036  0.99                             138    0.0810 87.0 144 
 RUS  HZ I         036  1.98         4.4 0.16            144           87.0 144 
 PTB  HZ IP     D  035 45.68                             133   -0.9310  101 271 
 PTB  HN ES        036  1.15                             133   -0.7210  101 271 
 PTB  HZ I         036  3.99        10.8 0.14            135            101 271 
 SPBC HN ES        036  4.41                             130    0.3310  113 211 
 SPBC HZ I         036  7.73        20.3 0.18            133            113 211 
 ZAR  HZ EP   1    035 54.48                             116   -0.14 7  180 306 
 ZAR  HN ES        036 17.03                             116    0.89 9  180 306 
 ZAR  HZ I         036 19.16        13.4 0.40            118            180 306 
 CHI  HZ EP        035 59.19                             112    0.57 8  211 186 
 HEL  HZ EP        036  0.54                             110    0.65 8  223 260 
 HEL  HN ES        036 25.24                             110   -0.27 8  223 260 
 HEL  HZ I         036 30.60         3.5 0.28            113            223 260 
 SML  HZ EP        036  2.79                             107   -0.67 8  258 347 
 SML  HN ES        036 31.94                             107    0.07 8  258 347 
 SML  HZ I         036 36.70         9.3 0.26            109            258 347 
                                                                                
