 2017 1111 0419 11.2 L   6.809 -73.147141.2  RSN 12 0.5 2.1LRSN                1
 GAP=111        1.20       3.6     4.1  6.6 -0.3489E-01  0.4781E+01  0.4024E+01E
 Epicentro: LOS SANTOS - SANTANDER                                             3
 ACTION:UPD 17-12-12 19:54 OP:rebc STATUS:               ID:20171111041911 L   I
 OLDACT:UP  17-11-11 15:36 OP:dnl  STATUS:               ID:20171111041739     3
 OLDACT:UP  17-11-11 15:36 OP:dnl  STATUS:               ID:20171111041739     3
 OLDACT:REG 17-11-11 14:16 OP:dnl  STATUS:               ID:20171111041739     3
 2017-11-11-0418-00M.COL___444                                                 6
 STAT SP IPHASW D HRMM SECON CODA AMPLIT PERI AZIMU VELO AIN AR TRES W  DIS CAZ7
 BAR2 EZ IP     D  419 30.08                             170   -0.2610 24.3 189 
 BAR2 EZ ES        419 44.90                             170   -0.3410 24.3 189 
 BAR2 EZ I         419 46.28        21.6 0.22            166           24.3 189 
 BRR  HZ IP     D  419 31.88                             152    0.0210 70.6 298 
 BRR  HE ES        419 48.72                             152    0.7710 70.6 298 
 BRR  HZ I         419 52.62        39.1 0.14            152           70.6 298 
 PAM  EZ IP     C  419 33.03                             150    0.1010 76.7  40 
 PAM  EN ES        419 49.81                             150   -0.0410 76.7  40 
 PAM  EZ I         419 51.80        20.9 0.46            156           76.7  40 
 PTB  HZ EP        419 37.07                             131   -0.77 9  148 258 
 PTB  HN ES        419 57.64                             131   -0.95 9  148 258 
 PTB  HZ I         420  3.24         8.3 0.20            131            148 258 
 YPLC HZ IP     C  419 40.69                             125   -0.11 9  178 151 
 YPLC HE ES        420  4.58                             125    0.72 9  178 151 
 YPLC HZ I         420  7.01         8.7 0.46            127            178 151 
 ZAR  HZ EP        419 44.35                             121    1.01 9  204 292 
 ZAR  HE ES        420  8.69                             121    0.32 9  204 292 
 ZAR  HZ I         420 13.89        20.7 0.24            123            204 292 
 NOR  HZ EP        419 46.99                             118    0.23 8  235 234 
 NOR  HE ES        420 15.11                             118    0.65 8  235 234 
 NOR  HZ I         420 19.15         8.2 0.58            118            235 234 
 CHI  HZ EP        419 48.59                             116   -0.20 8  250 195 
 CHI  HN ES        420 17.68                             116   -0.40 8  250 195 
 CHI  HZ I         420 27.39         3.6 0.30            117            250 195 
 ROSC BZ EP   9    419 50.72                             116    1.52 0  254 211 
 ROSC BN ES        420 20.83                             116    0.50 8  254 211 
 ROSC BZ I         420 26.86        10.4 0.45            116            254 211 
 URE  HZ EP   2    419 52.47                             113    0.44 4  283 292 
 URE  HN ES   4    420 21.06                             113   -2.79 0  283 292 
 URE  HZ I         420 25.62         9.8 0.36            114            283 292 
 DRL03HZ EP   2    419 51.75                             112   -0.77 4  288 353 
 DRL03HE ES        420 24.27                             112   -0.45 7  288 353 
 GUY2CHZ EP   2    419 55.13                             111    0.44 4  302 235 
 GUY2CHN ES        420 28.28                             111   -0.30 7  302 235 
 GUY2CHZ I         420 37.60         6.4 0.48                           302 235 
                                                                                
