 2013 1211 0325 58.6 L   6.805 -73.142143.9  RSN 13 0.5 2.1LRSN                1
 GAP= 71        1.23       3.6     4.6  6.5 -0.3841E+01  0.6591E+01  0.2327E+01E
 Epicentro: LOS SANTOS - SANTANDER                                             3
 ACTION:UPD 14-01-13 10:17 OP:ep   STATUS:               ID:20131211032558 L   I
 OLDACT:REG 13-12-11 06:18 OP:jn   STATUS:               ID:20131211032000     3
 2013-12-11-0320-00M.COL___285                                                 6
 STAT SP IPHASW D HRMM SECON CODA AMPLIT PERI AZIMU VELO AIN AR TRES W  DIS CAZ7
 BAR2 SZ EP        326 18.00                             170    0.0110 23.9 191 
 BAR2 SZ ES        326 33.22                             170    0.0910 23.9 191 
 BAR2 SZ I         326 34.87        35.8 0.44            169           23.9 191 
 BRR  HZ EP        326 19.91                             152    0.3910 71.2 298 
 BRR  HN ES   1    326 37.15                             152    1.29 7 71.2 298 
 BRR  HZ I         326 40.51        17.0 0.26            151           71.2 298 
 PAM  SZ EP   1    326 20.79                             151    0.24 7 76.7  40 
 PAM  SN ES        326 38.02                             151    0.3310 76.7  40 
 PAM  SZ I         326 40.21        43.8 0.56            155           76.7  40 
 RUS  HZ EP        326 21.92                             143   -0.2510  101 176 
 RUS  HN ES        326 40.83                             143    0.2510  101 176 
 RUS  HZ I         326 42.38        14.7 0.24            146            101 176 
 PTB  HZ EP        326 24.69                             132   -0.73 9  148 259 
 PTB  HN ES        326 45.85                             132   -0.52 9  148 259 
 PTB  HZ I         326 53.58        16.2 0.42            132            148 259 
 TAM  HZ EP        326 26.17                             130    0.09 9  155 105 
 OCA  HZ EP        326 26.51                             129   -0.18 9  160 353 
 OCA  HN ES        326 47.80                             129   -0.82 9  160 353 
 OCA  HZ I         326 52.95        20.9 0.30            132            160 353 
 SPBC HZ EP        326 27.01                             129    0.03 9  164 219 
 SPBC HE ES        326 48.50                             129   -0.65 9  164 219 
 SPBC HZ I         326 54.05        29.1 0.22            130            164 219 
 NOR  HZ EP        326 34.15                             118   -0.10 8  235 234 
 NOR  HN ES        327  1.78                             118   -0.31 8  235 234 
 NOR  HZ I         327  4.24        10.0 0.30            120            235 234 
 SML  HE ES   1    327  3.05                             117   -0.46 6  243 335 
 CHI  HZ EP        326 36.19                             117   -0.04 8  249 195 
 CHI  HN ES        327  5.20                             117   -0.41 8  249 195 
 CHI  HZ I         327 11.43         6.0 0.64            119            249 195 
 GUY2CHZ EP        326 43.31                             112    1.15 7  302 235 
 CBOC HZ EP        326 46.39                             110    0.93 7  334 252 
 CBOC HN ES        327 22.91                             110    0.87 7  334 252 
 CBOC HZ I         327 28.51         3.5 0.42            111            334 252 
                                                                                
