 2010  511 0135 21.4 L   6.776 -73.047135.0  RSN  7 0.4 1.6LRSN                1
 GAP=167        0.76       4.5     9.0  8.1  0.4026E+01 -0.2999E+02 -0.1192E+02E
 Epicentro: LOS SANTOS - SANTANDER                                             3
 ACTION:UP  10-08-24 10:04 OP:vdl  STATUS:               ID:20100511013521 L   I
 2010-05-11-0133-25S.COL___104                                                 6
 STAT SP IPHASW D HRMM SECON CODA AMPLIT PERI AZIMU VELO AIN AR TRES W  DIS CAZ7
 BAR2 SZ IP     C  135 39.61                             168    -0.110   25 216 
 BAR2 SZ ES   1    135 53.98                             168    -0.1 7   25 216 
 BRR  HZ EP        135 42.29                             146     0.210   82 297 
 BRR  HN ES   1    135 58.19                             146     0.0 7   82 297 
 BRR  HZ I         136  6.58        13.2 0.28                            82 297 
 RUS  HZ EP        135 43.75                             142    -0.110   98 182 
 RUS  HN ES   2    136  1.87                             142     0.5 5   98 182 
 RUS  HZ I         136  3.02         3.5 0.49                            98 182 
 BRI  SZ EP   2    135 45.49                             139     1.3 5  108  15 
 GUE  SZ EP   3    135 45.27                             137     0.1 2  117   7 
 GRA  SZ EP        135 45.27                             135    -0.410  125  12 
 GRA  SZ ES   2    136  4.29                             135    -0.3 5  125  12 
 OCA  SZ EP        135 49.24                             126     0.0 9  164 350 
                                                                                
