 2010  711 0526 14.4 L   6.784 -73.052141.1  RSN 10 0.3 2.3LRSN                1
 GAP=133        0.72       3.0     5.2  5.6 -0.4506E+01 -0.8149E+01 -0.6442E+00E
 Epicentro: LOS SANTOS - SANTANDER                                             3
 ACTION:UPD 10-12-01 15:16 OP:pat  STATUS:               ID:20100711052614 L   I
 2010-07-11-0524-27S.COL___120                                                 6
 STAT SP IPHASW D HRMM SECON CODA AMPLIT PERI AZIMU VELO AIN AR TRES W  DIS CAZ7
 BAR2 SZ IP        526 33.38                             169    -0.110   26 215 
 BAR2 SZ I         526 33.76        56.7 0.09                            26 215 
 BAR2 SZ ES   2    526 47.96                             169    -0.4 5   26 215 
 BRR  HZ IP     C  526 35.32                             148    -0.310   81 296 
 BRR  HZ I         526 36.44        55.5 0.10                            81 296 
 BRR  HE ES        526 52.13                             148    -0.110   81 296 
 RUS  HZ EP        526 37.38                             143    -0.110   99 182 
 RUS  HN ES        526 55.76                             143     0.210   99 182 
 RUS  HZ I         526 57.36        27.4 0.33                            99 182 
 BRI  SZ EP        526 38.11                             141     0.410  107  15 
 BRI  SZ ES   2    526 56.10                             141     0.2 5  107  15 
 BRI  SZ I         526 58.44        28.6 0.19                           107  15 
 GUE  SZ EP        526 38.43                             138    -0.210  117   7 
 GUE  SZ I         526 59.88        15.1 0.34                           117   7 
 GRA  SZ EP        526 39.43                             136     0.310  125  13 
 GRA  SZ ES   2    526 58.49                             136     0.1 5  125  13 
 GRA  SZ I         527  0.20        31.7 0.32                           125  13 
 ROSC BZ EP   2    526 53.18                             115     0.5 4  257 213 
 ROSC BE ES   2    527 22.66                             115     0.1 4  257 213 
 ROSC BZ I         527 32.56         9.8 0.53                           257 213 
 HEL  HZ EP   2    526 55.82                             113     0.4 4  282 257 
 HEL  HZ I         527 32.99        16.8 0.35                           282 257 
 SDV  BZ EP   1    527  3.08                             108    -0.4 5  354  49 
 SDV  BE ES   2    527 40.59                             108    -1.1 3  354  49 
 SDV  BZ I         527 43.29         6.1 0.38                           354  49 
 PRA  HZ EP   1    527  7.92                             106    -0.2 4  396 211 
 PRA  HN ES   2    527 49.91                             106    -0.2 3  396 211 
 PRA  HZ I         527 55.12         7.5 0.22                           396 211 
                                                                                
