 2015  711 0716 24.3 L   6.809 -73.105149.0  RSN 18 0.5 2.4LRSN                1
 GAP=122        0.96       2.7     3.8  5.9 -0.1521E+01  0.7356E+01  0.3292E+01E
 Epicentro: LOS SANTOS - SANTANDER                                             3
 ACTION:UPD 15-09-08 21:48 OP:cam  STATUS:               ID:20150711071624 L   I
 OLDACT:DUP 15-07-11 15:52 OP:spq  STATUS:               ID:20150711070748d    3
 2015-07-11-0707-47M.COL___335                                                 6
 STAT SP IPHASW D HRMM SECON CODA AMPLIT PERI AZIMU VELO AIN AR TRES W  DIS CAZ7
 BAR2 EZ EP     C  716 44.40                             170   -0.0010 25.5 199 
 BAR2 EZ ES   1    716 59.72                             170   -0.33 7 25.5 199 
 BAR2 EZ I         717  1.12        93.9 0.14            168           25.5 199 
 PAM  EZ EP        716 47.21                             153    0.5110 73.8  37 
 PAM  EN ES   1    717  4.82                             153    0.69 7 73.8  37 
 PAM  EZ I         717  6.70        14.4 0.36            156           73.8  37 
 RUS  HZ EP   1    716 48.77                             144    0.30 7  101 179 
 RUS  HN ES   1    717  7.06                             144   -0.23 7  101 179 
 RUS  HZ I         717  8.24        25.2 0.34            145            101 179 
 OCA  HZ EP        716 52.46                             130   -0.40 9  160 352 
 OCA  HE ES        717 15.30                             130    0.19 9  160 352 
 OCA  HZ I         717 21.51        41.9 0.52            132            160 352 
 ZAR  HZ EP        716 57.12                             123   -0.26 8  208 291 
 ZAR  HE ES        717 22.60                             123   -0.56 8  208 291 
 ZAR  HZ I         717 29.03        21.8 0.34            123            208 291 
 NOR  HZ EP        717  0.63                             119   -0.08 8  239 235 
 NOR  HN ES        717 28.47                             119   -0.61 8  239 235 
 NOR  HZ I         717 32.44        19.2 0.20            119            239 235 
 SML  HZ EP        717  0.82                             118   -0.43 8  245 334 
 SML  HE ES   1    717 30.11                             118    0.07 6  245 334 
 SML  HZ I         717 36.84        37.4 0.10            119            245 334 
 CHI  HZ EP        717  2.46                             118    0.00 8  251 196 
 CHI  HE ES   1    717 31.72                             118   -0.47 6  251 196 
 CHI  HZ I         717 35.25         9.3 0.48            118            251 196 
 ROSC BZ EP   4    717  4.59                             117    1.60 0  256 212 
 ROSC BN ES   4    717 35.54                             117    2.41 0  256 212 
 ROSC BZ I         717 39.79        22.2 0.45            118            256 212 
 HEL  HZ EP   1    717  5.70                             115    0.48 6  277 256 
 HEL  HE ES        717 37.43                             115    0.32 7  277 256 
 HEL  HZ I         717 42.79         5.8 0.24            115            277 256 
 GUY2CHZ EP   1    717  8.82                             113    0.24 5  305 235 
 GUY2CHE ES   4    717 44.80                             113    1.72 0  305 235 
 GUY2CHZ I         717 51.39         8.6 0.38                           305 235 
 PTGC HZ EP     D  717  7.22                             112   -1.05 7  308 159 
 PTGC HN ES   4    717 40.94                             112   -1.60 0  308 159 
 PTGC HZ I         717 49.32        10.9 0.28            114            308 159 
 CBOC HZ EP        717 12.44                             110    0.53 7  338 252 
 CBOC HN ES        717 48.94                             110   -0.08 7  338 252 
 CBOC HZ I         717 54.49         2.5 0.32            111            338 252 
 TOL  SZ EP        717 14.03                             110    0.86 6  347 225 
 TOL  SE ES        717 52.11                             110    0.85 6  347 225 
 TOL  SZ I         717 56.41         9.5 0.34            110            347 225 
 ANIL HZ EP   4    717 15.84                             109    1.12 0  361 225 
 ANIL HE ES   4    717 56.32                             109    2.31 0  361 225 
 ANIL HZ I         718  6.33        19.6 0.24            109            361 225 
 PRA  HZ EP        717 17.73                             107   -0.61 6  395 210 
 PRA  HN ES        718  0.18                             107   -0.27 6  395 210 
 PRA  HZ I         718  6.17        12.5 0.68            108            395 210 
 ORTC HZ EP        717 19.30                             107    0.52 6  399 217 
 ORTC HN ES        718  1.88                             107    0.64 6  399 217 
 ORTC HZ I         718  7.74        10.2 0.34            107            399 217 
 SJC  HZ EP   4    717 18.52                             106   -1.68 0  411 326 
 SJC  HN ES   4    718  0.86                             106   -2.90 0  411 326 
 SJC  HZ I         718  6.06         2.9 0.28            107            411 326 
                                                                                
