 2012  211 0707  5.9 L   6.793 -73.167145.9  RSN 15 0.4 2.7LRSN                1
 GAP=134        0.69       3.1     4.4  5.0 -0.1937E+01  0.1050E+02  0.4375E+00E
 ACTION:UP  12-03-07 16:29 OP:epov STATUS:               ID:20120211070705 L   I
 2012-02-11-0700-00M.COL___188                                                 6
 STAT SP IPHASW D HRMM SECON CODA AMPLIT PERI AZIMU VELO AIN AR TRES W  DIS CAZ7
 BAR2 SZ IP        7 7 25.59                             171    0.0610 22.3 184 
 BAR2 SZ ES   1    7 7 40.52                             171   -0.32 7 22.3 184 
 BAR2 SZ I         7 7 43.29        58.0 0.28                          22.3 184 
 GIR2 SZ EP        7 7 25.63                             167    0.0310 31.7 355 
 BRR  HZ IP     C  7 7 27.49                             153    0.5210 69.5 300 
 BRR  HN ES   2    7 7 43.98                             153    0.58 5 69.5 300 
 BRR  HZ I         7 7 47.08        83.1 0.14                          69.5 300 
 PAM  SZ EP        7 7 28.33                             150    0.0710 79.5  41 
 PAM  SN ES   1    7 7 45.43                             150   -0.27 7 79.5  41 
 RUS  HZ EP        7 7 29.43                             144   -0.2010  100 175 
 RUS  HN ES   1    7 7 48.40                             144    0.26 7  100 175 
 PTB  HZ EP        7 7 32.17                             132   -0.49 9  145 259 
 PTB  HN ES   2    7 7 53.02                             132   -0.51 5  145 259 
 PTB  HZ I         7 8  0.97        52.7 0.32                           145 259 
 OCA  SZ EP        7 7 34.27                             129    0.00 9  161 354 
 ZAR  HZ EP        7 7 37.95                             123   -0.21 9  202 293 
 ZAR  HN ES   3    7 8  3.37                             123    0.05 2  202 293 
 ZAR  HZ I         7 8 11.63        33.4 0.34                           202 293 
 NOR  SZ EP        7 7 41.33                             119   -0.06 8  232 234 
 CHI  HZ EP        7 7 43.47                             117    0.00 8  247 195 
 CHI  HN ES   2    7 8 12.95                             117    0.19 4  247 195 
 HEL  HZ EP   1    7 7 46.89                             115    1.04 6  270 256 
 HEL  HZ I         7 8 24.26        18.9 0.36                           270 256 
 GUY  SZ EP   2    7 7 50.04                             112    0.53 4  301 235 
 GUY  SZ I         7 8 31.88        23.6 0.36                           301 235 
 RREF HZ EP   2    7 7 51.83                             111    0.04 3  319 229 
 RREF HZ I         7 8 37.95        19.5 0.34                           319 229 
 DBB  SZ EP   2    7 7 51.87                             110   -1.25 3  337 274 
 PRA  HZ EP   1    7 7 59.06                             107   -0.16 4  390 209 
 PRA  HE ES   3    7 8 41.41                             107    0.61 1  390 209 
 PRA  HZ I         7 8 44.73        44.0 0.32                           390 209 
                                                                                
