 2012  411 0548 50.8 L   6.757 -73.396135.0  RSN  5 0.1 1.6LRSN                1
 GAP= 98        0.44       3.3     3.1  4.6  0.2116E+01 -0.2464E+01  0.1430E+01E
 Epicentro: EL CARMEN DE CHUCURI - SANTANDER                                   3
 ACTION:UPD 12-07-05 11:52 OP:tino STATUS:               ID:20120411054850 L   I
 2012-04-11-0540-00M.COL___176                                                 6
 STAT SP IPHASW D HRMM SECON CODA AMPLIT PERI AZIMU VELO AIN AR TRES W  DIS CAZ7
 BAR2 SZ EP        549  9.07                             167    -0.210   30 128 
 BAR2 SZ I         549 19.94         7.7 0.53                            30 128 
 BRR  HZ EP        549  9.96                             158     0.210   52 318 
 BRR  HZ I         549 10.14        10.1 0.09                            52 318 
 BRR  HN ES        549 24.57                             158     0.010   52 318 
 PAM  SZ EP   1    549 13.33                             141    -0.1 7  100  50 
 RUS  HZ EP   1    549 13.67                             141     0.1 7  102 160 
 RUS  HN ES   1    549 31.43                             141     0.1 7  102 160 
 PTB  HZ EP        549 14.38                             136     0.010  120 258 
 PTB  HN ES   1    549 32.58                             136    -0.2 7  120 258 
                                                                                
