 2013  911 0028 16.4 L   6.803 -73.160149.9  RSN  8 0.4 2.1LRSN                1
 GAP=135        1.02       3.6     4.5  7.0 -0.6422E+00  0.7255E+01  0.3694E+01E
 Epicentro: LOS SANTOS - SANTANDER                                             3
 ACTION:UPD 13-10-22 09:21 OP:ep   STATUS:               ID:20130911002816 L   I
 OLDACT:UP  13-09-11 08:54 OP:cam  STATUS:               ID:20130911001959     3
 OLDACT:UP  13-09-11 08:53 OP:cam  STATUS:               ID:20130911001959     3
 OLDACT:UP  13-09-11 08:53 OP:cam  STATUS:               ID:20130911001959     3
 OLDACT:UP  13-09-11 08:53 OP:cam  STATUS:               ID:20130911001959     3
 OLDACT:REG 13-09-11 07:35 OP:cam  STATUS:               ID:20130911001959     3
 2013-09-11-0019-59M.COL___269                                                 6
 STAT SP IPHASW D HRMM SECON CODA AMPLIT PERI AZIMU VELO AIN AR TRES W  DIS CAZ7
 BRR  HZ EP        028 38.16                             154    0.2410 69.7 299 
 BRR  HN ES        028 55.31                             154    0.6110 69.7 299 
 BRR  HZ I         028 59.05        26.7 0.30            153           69.7 299 
 PAM  SZ EP        028 39.29                             151    0.1810 78.1  41 
 PAM  SN ES        028 56.71                             151   -0.1010 78.1  41 
 PAM  SZ I         028 59.56        13.8 0.46            155           78.1  41 
 RUS  HZ EP        028 40.28                             145   -0.3210  101 175 
 RUS  HN ES   1    028 59.07                             145   -0.40 7  101 175 
 RUS  HZ I         029  0.35        11.8 0.28            147            101 175 
 PTB  HZ EP        028 43.09                             133   -0.50 9  146 259 
 PTB  HN ES   1    029  3.84                             133   -0.95 7  146 259 
 PTB  HZ I         029  6.73        14.4 0.10            134            146 259 
 ZAR  HZ EP        028 49.84                             123    0.87 9  203 292 
 ZAR  HN ES        029 14.35                             123   -0.02 9  203 292 
 ZAR  HZ I         029 19.52        17.2 0.26            125            203 292 
 NOR  HZ EP        028 52.49                             119    0.22 8  234 234 
 NOR  HN ES        029 20.26                             119    0.02 8  234 234 
 NOR  HZ I         029 25.84         8.7 0.24            121            234 234 
 SML  HZ EP        028 52.82                             118   -0.35 8  243 336 
 SML  HE ES   1    029 21.11                             118   -0.73 6  243 336 
 SML  HZ I         029 25.78        17.1 0.10            120            243 336 
 CHI  HZ EP   1    028 54.54                             118    0.21 6  249 195 
 CHI  HN ES        029 24.16                             118    0.25 8  249 195 
 CHI  HZ I         029 29.20         8.9 0.34            120            249 195 
 HEL  HZ EP   4    028 57.98                             116    1.30 0  271 256 
                                                                                
