 2015 1011 0722 58.1 L   6.808 -73.185128.8  RSN 10 0.4 1.5LRSN                1
 GAP=131        0.97       2.5     4.1  6.3 -0.1477E+01  0.1324E+02 -0.9337E+00E
 Epicentro: ZAPATOCA - SANTANDER                                               3
 ACTION:UPD 15-12-22 20:39 OP:cam  STATUS:               ID:20151011072258 L   I
 OLDACT:REG 15-10-11 13:24 OP:ak   STATUS:               ID:20151011071748     3
 2015-10-11-0717-48M.COL___340                                                 6
 STAT SP IPHASW D HRMM SECON CODA AMPLIT PERI AZIMU VELO AIN AR TRES W  DIS CAZ7
 BAR2 EZ EP        723 16.09                             169    0.3510 23.9 179 
 BAR2 EZ ES        723 29.36                             169   -0.1110 23.9 179 
 BAR2 EZ I         723 31.70         4.9 0.36            171           23.9 179 
 PAM  EZ EP        723 18.96                             147    0.2510 79.5  42 
 PAM  EN ES        723 35.04                             147    0.2810 79.5  42 
 PAM  EZ I         723 38.76         5.0 0.44            151           79.5  42 
 RUS  HZ EP        723 20.74                             139    0.3810  102 174 
 RUS  HN ES        723 37.52                             139   -0.1710  102 174 
 RUS  HZ I         723 40.08         3.6 0.42            144            102 174 
 OCA  HZ EP   1    723 24.23                             126   -0.81 7  159 355 
 OCA  HN ES        723 45.33                             126   -0.70 9  159 355 
 OCA  HZ I         723 50.06        11.6 0.21            128            159 355 
 SPBC HZ EP   1    723 24.71                             125   -0.48 7  161 218 
 SPBC HN ES        723 46.24                             125   -0.06 9  161 218 
 SPBC HZ I         723 50.19         4.1 0.20            128            161 218 
 ZAR  HZ EP        723 29.07                             119    0.01 9  200 292 
 ZAR  HN ES        723 53.56                             119    0.37 9  200 292 
 SML  HZ EP   1    723 32.67                             114   -0.90 6  241 336 
 SML  HE ES        724  1.71                             114    0.50 8  241 336 
 SML  HZ I         724  6.16         6.8 0.16            116            241 336 
 CHI  HZ EP        723 35.41                             113    0.48 8  248 194 
 CHI  HN ES        724  2.87                             113   -0.75 8  248 194 
 HEL  HZ EP        723 37.44                             111    0.35 8  268 255 
 HEL  HN ES        724  7.19                             111   -0.28 8  268 255 
 HEL  HZ I         724 16.66         1.2 0.32            114            268 255 
 GUY2CHZ EP   1    723 40.78                             109    0.11 5  298 234 
 GUY2CHE ES        724 14.03                             109    0.18 7  298 234 
 GUY2CHZ I         724 23.52         1.4 0.64                           298 234 
                                                                                
