 2011  811 0414 49.8 L   6.671 -73.588103.7  RSN  4 0.1 1.4LRSN                1
 GAP=117        0.32       2.8     3.0  4.5  0.3202E+01  0.6315E+01  0.7343E+01E
 Epicentro: EL CARMEN DE CHUCURI - SANTANDER                                   3
 ACTION:UPD 12-07-13 15:51 OP:ep   STATUS:               ID:20110811041449 L   I
 2011-08-11-0400-00M.COL___151                                                 6
 STAT SP IPHASW D HRMM SECON CODA AMPLIT PERI AZIMU VELO AIN AR TRES W  DIS CAZ7
 BAR2 SZ EP   1    415  5.25                             154   -0.03 7 45.7 101 
 BAR2 SZ ES   1    415 17.40                             154    0.02 7 45.7 101 
 BAR2 SZ I         415 18.37        14.5 0.10                          45.7 101 
 BRR  HZ EP   1    415  5.18                             152    0.01 7 50.1 344 
 BRR  HE ES   1    415 17.17                             152   -0.02 7 50.1 344 
 BRR  HZ I         415 19.37         7.5 0.16                          50.1 344 
 RUS  HZ EP   1    415 10.00                             132    0.15 7  103 147 
 RUS  HE ES   2    415 25.34                             132   -0.19 5  103 147 
 RUS  HZ I         415 27.84         4.0 0.10                           103 147 
 NOR  SZ EP   2    415 17.78                             113   -0.27 4  187 229 
 NOR  SN ES   2    415 40.27                             113    0.16 4  187 229 
                                                                                
