 2016  111 0246 29.6 L   6.795 -73.170146.0  RSN 10 0.3 1.7LRSN                1
 GAP=134        0.68       2.1     2.8  4.1 -0.5164E+00  0.1621E+01  0.1270E+01E
 Epicentro: LOS SANTOS - SANTANDER                                             3
 ACTION:UPD 16-03-09 23:24 OP:cam  STATUS:               ID:20160111024629 L   I
 OLDACT:UP  16-01-11 14:39 OP:mh   STATUS:               ID:20160111023755     3
 OLDACT:UP  16-01-11 14:39 OP:mh   STATUS:               ID:20160111023755     3
 OLDACT:UP  16-01-11 14:39 OP:mh   STATUS:               ID:20160111023755     3
 OLDACT:UP  16-01-11 14:39 OP:mh   STATUS:               ID:20160111023755     3
 OLDACT:REG 16-01-11 12:20 OP:mh   STATUS:               ID:20160111023755     3
 2016-01-11-0237-55M.COL___243                                                 6
 STAT SP IPHASW D HRMM SECON CODA AMPLIT PERI AZIMU VELO AIN AR TRES W  DIS CAZ7
 BAR2 EZ EP        246 49.03                             171   -0.2510 22.5 184 
 BAR2 EZ ES        247  4.47                             171   -0.1310 22.5 184 
 BAR2 EZ I         247  5.45        15.0 0.18            167           22.5 184 
 BRR  HZ EP        246 51.20                             153    0.5010 69.2 300 
 BRR  HZ I         247  4.89         4.9 0.42            145           69.2 300 
 BRR  HN ES        247  7.34                             153    0.2110 69.2 300 
 PAM  EZ EP        246 52.20                             150    0.1910 79.5  41 
 PAM  EN ES        247  9.51                             150    0.0610 79.5  41 
 PAM  EZ I         247 10.01         3.3 0.18            145           79.5  41 
 RUS  HZ EP        246 53.43                             144    0.0410  100 175 
 RUS  HN ES        247 11.72                             144   -0.1910  100 175 
 RUS  HZ I         247 13.02         4.8 0.24            136            100 175 
 PTB  HZ EP        246 56.12                             133   -0.26 9  145 259 
 PTB  HN ES        247 16.98                             133   -0.26 9  145 259 
 PTB  HZ I         247 19.39         4.8 0.18            123            145 259 
 OCA  HZ EP   1    246 57.38                             130   -0.61 7  161 354 
 OCA  HN ES        247 20.00                             130   -0.11 9  161 354 
 OCA  HZ I         247 22.02        14.3 0.18            121            161 354 
 SPBC HZ EP        246 58.42                             129    0.46 9  161 218 
 SPBC HN ES        247 20.28                             129    0.23 9  161 218 
 SPBC HZ I         247 22.32         7.5 0.24            120            161 218 
 ZAR  HZ EP   4    246 52.97                             123   -8.90 0  202 293 
 ZAR  HN ES        247 26.93                             123   -0.08 9  202 293 
 ZAR  HZ I         247 32.57         4.9 0.52            114            202 293 
 SML  HZ EP   4    247  4.11                             117   -2.10 0  243 336 
 SML  HN ES   4    247 36.13                             117    1.39 0  243 336 
 SML  HZ I         247 39.09         5.2 0.10            110            243 336 
 CHI  HZ EP        247  7.14                             117   -0.08 8  247 195 
 CHI  HN ES        247 36.40                             117   -0.13 8  247 195 
 CHI  HZ I         247 43.77         2.5 0.44            110            247 195 
                                                                                
