 2013 1111 0114 26.9 L   6.829 -73.171142.8  RSN  8 0.4 1.8LRSN                1
 GAP=237        1.08       5.8     5.7  7.7  0.2492E+00  0.1104E+02  0.8348E+01E
 Epicentro: LOS SANTOS - SANTANDER                                             3
 ACTION:UPD 14-01-09 16:27 OP:ep   STATUS:               ID:20131111011426 L   I
 OLDACT:DUP 13-11-11 08:16 OP:nd   STATUS:               ID:20131111011001d    3
 2013-11-11-0110-00M.COL___273                                                 6
 STAT SP IPHASW D HRMM SECON CODA AMPLIT PERI AZIMU VELO AIN AR TRES W  DIS CAZ7
 BAR2 SZ EP        114 46.25                             169    0.0610 26.2 183 
 BAR2 SZ ES        115  1.43                             169    0.1610 26.2 183 
 BAR2 SZ I         115  2.57        27.5 0.16            165           26.2 183 
 BRR  HZ EP        114 48.22                             153    0.7610 67.3 297 
 BRR  HN ES        115  3.62                             153    0.0910 67.3 297 
 BRR  HZ I         115  7.12         8.7 0.12            149           67.3 297 
 RUS  HZ EP        114 50.10                             142   -0.4710  104 175 
 RUS  HN ES        115  8.98                             142   -0.0810  104 175 
 RUS  HZ I         115  9.83         5.4 0.22            143            104 175 
 PTB  HZ EP        114 52.98                             132   -0.42 9  146 257 
 PTB  HN ES        115 13.16                             132   -0.94 9  146 257 
 PTB  HZ I         115 20.22        10.5 0.48            129            146 257 
 SPBC HZ EP        114 55.15                             128   -0.06 9  164 218 
 SPBC HN ES        115 17.55                             128    0.23 9  164 218 
 SPBC HZ I         115 22.65         9.7 0.28            127            164 218 
 NOR  HZ EP   2    115  2.33                             118   -0.05 4  234 233 
 NOR  HN ES        115 30.41                             118    0.33 8  234 233 
 NOR  HZ I         115 36.34         6.1 0.16            117            234 233 
 GUY2CHZ EP   4    115 12.92                             112    2.63 0  301 234 
 GUY2CHN ES        115 44.78                             112    0.62 7  301 234 
 GUY2CHZ I         115 52.81         4.7 0.64                           301 234 
 CBOC HZ EP   4    115 14.74                             109    1.28 0  332 251 
 CBOC HN ES   4    115 45.63                             109   -4.19 0  332 251 
 CBOC HZ I         115 58.36         1.2 0.38            110            332 251 
                                                                                
