 2016  211 0941 50.2 L   6.826 -73.173150.0  RSN  4 0.3 1.4LRSN                1
 GAP=277        0.75       6.7     5.0  6.4  0.3065E+01  0.6321E+01 -0.6157E+01E
 Epicentro: ZAPATOCA - SANTANDER                                               3
 ACTION:UPD 16-03-04 21:25 OP:rebc STATUS:               ID:20160211094150 L   I
 OLDACT:UP  16-02-11 19:04 OP:ak   STATUS:               ID:20160211093751     3
 OLDACT:REG 16-02-11 13:49 OP:ak   STATUS:               ID:20160211093751     3
 2016-02-11-0937-51M.COL___276                                                 6
 STAT SP IPHASW D HRMM SECON CODA AMPLIT PERI AZIMU VELO AIN AR TRES W  DIS CAZ7
 BAR2 EZ EP        942 10.24                             170   -0.1110 25.9 182 
 BAR2 EZ ES        942 26.45                             170    0.3610 25.9 182 
 BAR2 EZ I         942 27.56         4.6 0.20            169           25.9 182 
 RUS  HZ EP        942 14.66                             144    0.1210  104 175 
 RUS  HN ES        942 33.08                             144   -0.4910  104 175 
 PTB  HZ EP        942 17.17                             133   -0.09 9  145 257 
 PTB  HN ES        942 38.13                             133   -0.28 9  145 257 
 PTB  HZ I         942 45.60         3.2 0.40            132            145 257 
 SPBC HZ EP        942 19.20                             130    0.18 9  164 218 
 SPBC HN ES        942 41.89                             130    0.36 9  164 218 
 SPBC HZ I         942 44.02         4.2 0.28            131            164 218 
                                                                                
