 2011  711 0017  2.8 L   6.828 -73.151153.3  RSN  5 0.3 1.7LRSN                1
 GAP=228        0.58       4.9     6.3  5.8  0.8861E+00  0.1307E+02  0.4593E+01E
 Epicentro: LOS SANTOS - SANTANDER                                             3
 ACTION:UPD 12-07-25 13:59 OP:epov STATUS:               ID:20110711001702 L   I
 2011-07-11-0015-52S.COL___140                                                 6
 STAT SP IPHASW D HRMM SECON CODA AMPLIT PERI AZIMU VELO AIN AR TRES W  DIS CAZ7
 BTL  SZ EP   1    017 23.29                             174    0.07 7 16.3 308 
 BTL  SZ ES   1    017 39.16                             174    0.01 7 16.3 308 
 BAR2 SZ EP   1    017 23.01                             170   -0.38 7 26.2 187 
 BAR2 SZ I         017 23.47         8.0 0.11                          26.2 187 
 BAR2 SZ ES   1    017 39.01                             170   -0.45 7 26.2 187 
 BRR  HZ EP   1    017 24.95                             154    0.29 7 69.2 297 
 BRR  HE ES   1    017 41.87                             154    0.16 7 69.2 297 
 BRR  HZ I         017 45.56         9.8 0.26                          69.2 297 
 RUS  HN ES   1    017 47.22                             144    0.43 7  104 176 
 NOR  SZ EP   1    017 38.99                             120   -0.11 6  236 234 
 NOR  SN ES   1    018  7.32                             120   -0.11 6  236 234 
                                                                                
