 2012  211 0349 31.2 L   6.830 -73.142145.5  RSN  8 0.3 1.5LRSN                1
 GAP=136        0.41       3.6     4.0  5.0  0.5815E+01  0.5167E+01  0.2171E+01E
 ACTION:UP  12-03-07 16:29 OP:epov STATUS:               ID:20120211034931 L   I
 2012-02-11-0347-59S.COL___188                                                 6
 STAT SP IPHASW D HRMM SECON CODA AMPLIT PERI AZIMU VELO AIN AR TRES W  DIS CAZ7
 BAR2 SZ EP        349 50.83                             170   -0.0510 26.7 190 
 BAR2 SZ ES   2    350  6.25                             170    0.03 5 26.7 190 
 BAR2 SZ I         350  6.74         6.2 0.28                          26.7 190 
 GIR2 SZ EP        349 50.78                             168    0.0210 28.1 348 
 BRR  HZ EP        349 52.48                             153    0.2210 70.1 296 
 BRR  HZ I         349 54.17        10.2 0.10                          70.1 296 
 BRR  HN ES   2    350  8.96                             153    0.27 5 70.1 296 
 PAM  SZ EP   3    349 53.59                             151    0.37 2 74.5  41 
 PAM  SN ES   3    350  9.73                             151   -0.67 2 74.5  41 
 RUS  HZ EP        349 55.30                             143    0.1310  104 176 
 RUS  HN ES   2    350 13.50                             143   -0.37 5  104 176 
 RUS  HZ I         350 16.88         1.5 0.40                           104 176 
 PTB  HZ EP        349 57.94                             132   -0.31 9  149 258 
 PTB  HN ES   3    350 19.12                             132   -0.23 2  149 258 
 PTB  HZ I         350 21.74         3.4 0.64                           149 258 
 ZAR  HZ EP   2    350  3.54                             122   -0.01 4  203 291 
 ZAR  HE ES   2    350 28.60                             122   -0.17 4  203 291 
 ZAR  HZ I         350 29.57         5.2 0.68                           203 291 
 CHI  HZ EP   3    350  9.57                             117    0.32 2  252 195 
 CHI  HN ES   3    350 39.54                             117    0.61 2  252 195 
 CHI  HZ I         350 44.79         1.8 0.30                           252 195 
                                                                                
