 2016  611 0711 12.9 L   6.814 -73.068151.6  RSN 18 0.5 2.2LRSN                1
 GAP=146        1.02       3.1     4.6  5.3 -0.5911E+01  0.4005E+01  0.2891E+01E
 Epicentro: LOS SANTOS - SANTANDER                                             3
 ACTION:UPD 16-07-21 22:17 OP:rebc STATUS:               ID:20160611071112 L   I
 OLDACT:UP  16-06-11 18:53 OP:dani STATUS:               ID:20160611070744     3
 OLDACT:REG 16-06-11 13:17 OP:dani STATUS:               ID:20160611070744     3
 2016-06-11-0707-44M.COL___331                                                 6
 STAT SP IPHASW D HRMM SECON CODA AMPLIT PERI AZIMU VELO AIN AR TRES W  DIS CAZ7
 BAR2 EZ EP     D  711 33.09                             169   -0.2610 27.6 207 
 BAR2 EZ I         711 50.78        31.2 0.28                          27.6 207 
 PAM  EZ EP        711 35.99                             154    0.5810 71.0  35 
 PAM  EN ES        711 53.29                             154    0.3410 71.0  35 
 PAM  EZ I         711 55.23        22.3 0.48                          71.0  35 
 BRR  HZ EP     C  711 34.95                             151   -0.1610 78.2 295 
 BRR  HE ES        711 52.42                             151    0.0110 78.2 295 
 BRR  HZ I         711 58.57        16.6 0.28                          78.2 295 
 RUS  HZ EP        711 37.29                             144   -0.0510  102 181 
 RUS  HN ES        711 55.89                             144   -0.5010  102 181 
 RUS  HZ I         711 56.88        13.3 0.50                           102 181 
 PTB  HZ EP   9    711 39.99                             132   -1.17 0  156 259 
 PTB  HN ES        712  1.28                             132   -0.74 9  156 259 
 PTB  HZ I         712  6.68        12.4 0.56                           156 259 
 OCA  HZ EP        711 41.19                             131   -0.48 9  160 350 
 OCA  HE ES        712  4.43                             131    0.33 9  160 350 
 OCA  HZ I         712  9.40        41.0 0.32                           160 350 
 SPBC HZ EP        711 42.12                             129   -0.38 9  170 221 
 SPBC HN ES        712  5.35                             129   -0.23 9  170 221 
 SPBC HZ I         712  6.50        33.0 0.10                           170 221 
 NOR  HZ EP        711 49.24                             119   -0.60 8  243 235 
 NOR  HE ES        712 18.34                             119   -0.30 8  243 235 
 NOR  HZ I         712 24.81        14.0 0.16                           243 235 
 CHI  HZ EP        711 51.59                             118    0.23 8  252 197 
 CHI  HN ES        712 22.31                             118    0.96 8  252 197 
 CHI  HZ I         712 26.47         7.2 0.30                           252 197 
 ROSC BZ EP   4    711 53.20                             117    1.20 0  259 213 
 ROSC BE ES   4    712 27.38                             117    4.91 0  259 213 
 ROSC BZ I         712 31.09        17.9 0.35                           259 213 
 GUY2CHZ EP        711 58.24                             113    0.54 7  309 235 
 GUY2CHE ES   4    712 34.66                             113    2.04 0  309 235 
 GUY2CHZ I         712 39.98        12.3 0.76                           309 235 
 LL6C HZ EP        711 58.21                             111   -0.55 7  324 356 
 LL6C HE ES   4 D  712 34.83                             111    0.31 0  324 356 
 LL6C HZ I         712 36.46         4.4 0.44                           324 356 
 ELA  HE ES        712 38.54                             111    0.24 7  337 230 
 ELA  HZ I         712 44.93         8.3 0.36                           337 230 
 CBOC HZ EP        712  1.64                             110    0.57 7  342 252 
 CBOC HE ES        712 39.38                             110    0.75 7  342 252 
 CBOC HZ I         712 46.18         2.7 0.46                           342 252 
 PRA  HZ EP        712  6.82                             107   -0.48 6  398 211 
 PRA  HE ES        712 50.41                             107    0.69 6  398 211 
 PRA  HZ I         712 54.89         7.7 0.38                           398 211 
 ORTC HZ EP        712  7.41                             107   -0.38 6  402 217 
 ORTC HE ES        712 50.69                             107    0.11 6  402 217 
 ORTC HZ I         712 57.81         5.9 0.24                           402 217 
 PAL  HZ EP        712  8.72                             106   -0.52 6  414 240 
 PAL  HN ES   4    712 50.94                             106   -2.22 0  414 240 
 PAL  HZ I         712 57.64         2.7 0.26                           414 240 
 CRJC HZ EP   9    712 12.81                             104   -2.55 0  466   3 
 CRJC HE ES        713  2.04                             105    0.53 5  466   3 
 CRJC HZ I         713  8.12         7.4 0.48                           466   3 
                                                                                
