 2014 1011 0158 30.3 L   6.867 -73.215149.0  RSN  7 0.5 1.6LRSN                1
 GAP=196        1.05       5.1     7.2 10.3  0.1153E+02  0.3002E+01 -0.1886E+02E
 Epicentro: ZAPATOCA - SANTANDER                                               3
 ACTION:UPD 14-11-29 23:48 OP:nd   STATUS:               ID:20141011015830 L   I
 OLDACT:REG 14-10-11 12:46 OP:fm   STATUS:               ID:20141011014735     3
 2014-10-11-0147-35M.COL___298                                                 6
 STAT SP IPHASW D HRMM SECON CODA AMPLIT PERI AZIMU VELO AIN AR TRES W  DIS CAZ7
 BAR2 SZ ES   1    159  6.77                             168    0.58 8 30.6 173 
 BAR2 SZ I         159  9.24        10.1 0.52            173           30.6 173 
 BRR  HZ EP   1    158 51.98                             156    0.75 8 61.0 296 
 BRR  HN ES   1    159  7.98                             156    0.39 8 61.0 296 
 BRR  HZ I         159 11.72         5.4 0.52            154           61.0 296 
 RUS  HZ EP   1    158 54.87                             142   -0.05 7  109 172 
 RUS  HE ES        159 13.49                             142   -0.6710  109 172 
 PTB  HZ EP   1    158 57.50                             134    0.52 7  142 255 
 PTB  HN ES        159 17.46                             134   -0.3610  142 255 
 PTB  HZ I         159 20.05         3.1 0.12            135            142 255 
 SPBC HN ES   1    159 21.97                             129    0.32 7  164 215 
 SPBC HZ I         159 25.09         3.8 0.18            133            164 215 
 ZAR  HN ES   1    159 26.61                             124   -0.01 7  194 291 
 ZAR  HZ I         159 32.99         3.7 0.32            125            194 291 
 SML  HZ EP   1    159  6.26                             119    0.25 6  234 336 
 SML  HE ES        159 33.20                             119   -0.70 8  234 336 
 SML  HZ I         159 43.02         4.9 0.10            120            234 336 
                                                                                
