 2012  811 0611 24.8 L   6.768 -73.151144.4  RSN  7 0.4 1.6LRSN                1
 GAP=137        0.77       5.1     5.1  6.3 -0.1704E+01  0.7316E+01  0.1216E+01E
 Epicentro: LOS SANTOS - SANTANDER                                             3
 ACTION:UPD 12-09-10 11:55 OP:ep   STATUS:               ID:20120811061124 L   I
 2012-08-11-0610-00M.COL___218                                                 6
 STAT SP IPHASW D HRMM SECON CODA AMPLIT PERI AZIMU VELO AIN AR TRES W  DIS CAZ7
 BAR2 SZ EP   1    611 44.08                             172   -0.09 7 19.7 190 
 BAR2 SZ ES   1    611 58.74                             172   -0.56 7 19.7 190 
 BAR2 SZ I         612  0.49        13.5 0.21                          19.7 190 
 GIR2 SZ EP   1    611 44.18                             166   -0.20 7 34.7 352 
 GIR2 SZ ES   1    611 59.80                             166    0.12 7 34.7 352 
 BRR  HZ EP   1    611 45.95                             152    0.10 7 72.5 301 
 BRR  HN ES   1    612  3.12                             152    0.83 7 72.5 301 
 BRR  HZ I         612  5.53         7.4 0.17                          72.5 301 
 PAM  SZ EP   1    611 46.96                             150   -0.07 7 80.5  38 
 PAM  SN ES   1    612  4.15                             150   -0.25 7 80.5  38 
 RUS  HZ EP   1    611 48.53                             144    0.40 7 97.0 176 
 RUS  HE ES   1    612  6.68                             144    0.32 7 97.0 176 
 RUS  HZ I         612  8.05         4.0 0.37                          97.0 176 
 PTB  HZ EP   1    611 51.19                             132   -0.33 7  147 260 
 PTB  HN ES   1    612 11.82                             132   -0.56 7  147 260 
 PTB  HZ I         612 17.95         8.1 0.64                           147 260 
 ZAR  HZ EP   1    611 57.46                             122    0.25 6  205 293 
                                                                                
