 2015 1011 0215 14.0 L   6.591 -73.398120.4  RSN 23 0.6 2.6LRSN                1
 GAP= 66        1.17       2.4     3.2  5.1 -0.2773E+01  0.6000E+01 -0.7004E+00E
 Epicentro: HATO - SANTANDER                                                   3
 ACTION:UPD 15-12-22 20:38 OP:cam  STATUS:               ID:20151011021514 L   I
 OLDACT:REG 15-10-11 12:42 OP:ak   STATUS:               ID:20151011020747     3
 2015-10-11-0207-47M.COL___340                                                 6
 STAT SP IPHASW D HRMM SECON CODA AMPLIT PERI AZIMU VELO AIN AR TRES W  DIS CAZ7
 BAR2 EZ IP     D  215 30.96                             168    0.3610 23.8  90 
 BAR2 EZ ES        215 43.48                             168   -0.0710 23.8  90 
 BAR2 EZ I         215 45.52       207.2 0.25            172           23.8  90 
 BRR  HZ EP        215 32.26                             149    0.0710 66.8 329 
 BRR  HN ES        215 46.37                             149   -0.0110 66.8 329 
 BRR  HZ I         215 48.49        89.4 0.14            148           66.8 329 
 RUS  HZ IP     C  215 34.20                             143    0.0910 84.7 156 
 RUS  HN ES        215 49.00                             143   -0.8110 84.7 156 
 PAM  EZ EP        215 36.93                             134    0.5210  113  43 
 PAM  EN ES        215 54.51                             134    0.6210  113  43 
 PAM  EZ I         215 58.19        23.9 0.18            136            113  43 
 SPBC HZ IP     C  215 36.89                             130   -0.3210  128 216 
 SPBC HN ES        215 54.68                             130   -0.6410  128 216 
 SPBC HZ I         215 59.93        57.3 0.20            130            128 216 
 OCA  HZ EP        215 42.46                             119   -0.32 9  182   3 
 OCA  HN ES        216  5.73                             119    0.50 9  182   3 
 OCA  HZ I         216 12.98        89.5 0.14            120            182   3 
 ZAR  HZ EP        215 43.80                             118    0.44 9  190 302 
 ZAR  HE ES        216  6.33                             118    0.06 9  190 302 
 ZAR  HZ I         216  9.79        47.7 0.22            118            190 302 
 NOR  HZ EP        215 43.72                             117   -0.67 9  199 235 
 NOR  HN ES        216  8.48                             117    0.38 9  199 235 
 NOR  HZ I         216 12.10        39.2 0.16            117            199 235 
 ROSC BZ EP        215 47.96                             114    0.90 8  219 208 
 ROSC BN ES   4    216 14.45                             114    1.60 0  219 208 
 ROSC BZ I         216 19.66        26.7 0.40            115            219 208 
 CHI  HZ EP        215 47.41                             114    0.20 8  220 190 
 CHI  HE ES        216 12.96                             114   -0.16 8  220 190 
 CHI  HZ I         216 22.43        19.2 0.66            115            220 190 
 HEL  HZ EP        215 49.46                             112    0.08 8  240 259 
 HEL  HN ES        216 16.19                             112   -0.79 8  240 259 
 HEL  HZ I         216 22.57        20.3 0.22            112            240 259 
 SML  HZ EP        215 50.59                             110   -0.08 8  255 343 
 SML  HN ES        216 18.80                             110   -0.48 8  255 343 
 SML  HZ I         216 26.71        69.8 0.10            111            255 343 
 GUY2CHZ EP        215 52.94                             110    0.55 8  265 235 
 GUY2CHE ES        216 23.29                             110    0.95 8  265 235 
 GUY2CHZ I         216 30.10        19.2 0.50                           265 235 
 URE  HZ EP        215 51.86                             109   -0.33 8  268 299 
 URE  HN ES   4    216 19.70                             109   -2.29 0  268 299 
 URE  HZ I         216 23.30        18.1 0.08            109            268 299 
 ELA  HZ EP   1    215 55.69                             107    0.02 5  293 229 
 ELA  HE ES        216 28.94                             107    0.76 7  293 229 
 ELA  HZ I         216 33.77        14.7 0.46            108            293 229 
 CBOC HZ EP        215 56.33                             107    0.25 7  300 255 
 CBOC HN ES        216 28.25                             107   -0.65 7  300 255 
 CBOC HZ I         216 43.20         6.3 0.48            107            300 255 
 DBB  SZ EP        215 56.87                             106   -0.75 7  314 279 
 DBB  SZ ES   4    216 28.70                             106   -2.94 0  314 279 
 DBB  SZ I         216 33.05        40.0 0.32            106            314 279 
 ANIL HZ EP        215 59.75                             105    1.05 7  321 224 
 ANIL HE ES        216 33.95                             105    0.38 7  321 224 
 ANIL HZ I         216 42.67        30.6 0.34            106            321 224 
 ORTC HZ EP   1    216  2.12                             103   -0.88 5  360 215 
 ORTC HN ES        216 40.69                             103   -0.54 6  360 215 
 ORTC HZ I         216 49.76        14.9 0.49            104            360 215 
 SDV  BZ EP        216  7.70                             101    0.20 6  397  50 
 SDV  BE ES        216 48.13                             101   -1.10 6  397  50 
 SDV  BZ I         216 51.56        10.0 0.45            102            397  50 
 SJC  HZ EP   4    216  7.87                             101   -1.65 0  415 332 
 SJC  HN ES   4    216 48.85                             101   -3.98 0  415 332 
 SJC  HZ I         217  3.28         5.9 0.34            101            415 332 
 YOT  HZ EP        216 11.47                             100   -0.62 5  436 229 
 CRJC HZ EP   1    216 18.14                              98   -0.82 3  493   7 
 CRJC HE ES        217  8.47                              98   -1.17 4  493   7 
 CRJC HZ I         217 14.43        11.8 0.40             99            493   7 
                                                                                
