 2015  111 0714 44.1 L   6.738 -73.161156.0  RSN  5 0.5 1.3LRSN                1
 GAP=212        1.29       8.5     8.7  9.6  0.1146E+02  0.7561E+01 -0.2662E+02E
 Epicentro: LOS SANTOS - SANTANDER                                             3
 ACTION:UPD 15-03-02 15:38 OP:nd   STATUS:               ID:20150111071444 L   I
 OLDACT:REG 15-01-11 14:27 OP:cam  STATUS:               ID:20150111070809     3
 2015-01-11-0708-09M.COL___253                                                 6
 STAT SP IPHASW D HRMM SECON CODA AMPLIT PERI AZIMU VELO AIN AR TRES W  DIS CAZ7
 BAR2 EZ EP        715  5.08                             174    0.2310 16.3 188 
 BAR2 EZ ES        715 20.41                             174   -0.6310 16.3 188 
 BRR  HZ EP        715  6.96                             154    0.4810 73.3 304 
 BRR  HE ES        715 24.72                             154    0.7910 73.3 304 
 BRR  HZ I         715 27.12         2.5 0.44            151           73.3 304 
 PTB  HZ EP        715 11.75                             135    0.08 9  145 261 
 PTB  HN ES        715 32.66                             135   -0.52 9  145 261 
 PTB  HZ I         715 38.86         1.9 0.20            134            145 261 
 ZAR  HZ EP        715 16.81                             124   -0.53 9  205 294 
 ZAR  HN ES        715 43.68                             124    0.41 9  205 294 
 SML  HZ EP        715 22.10                             119    0.19 8  249 336 
 SML  HE ES        715 50.55                             119   -0.85 8  249 336 
 SML  HZ I         715 54.63         2.8 0.24            120            249 336 
                                                                                
