 2017  611 0239 49.7 L   6.754 -73.107148.0  RSN  9 0.5 1.8LRSN                1
 GAP=192        0.88       3.9     5.5  7.5  0.6433E+01 -0.1336E+02  0.1714E+01E
 Epicentro: LOS SANTOS - SANTANDER                                             3
 ACTION:UPD 17-09-14 16:51 OP:jn   STATUS:               ID:20170611023949 L   I
 OLDACT:REG 17-06-11 12:49 OP:osc  STATUS:               ID:20170611023736     3
 2017-06-11-0238-00M.COL___362                                                 6
 STAT SP IPHASW D HRMM SECON CODA AMPLIT PERI AZIMU VELO AIN AR TRES W  DIS CAZ7
 BRR  HZ EP        240 11.53                             151    0.1010 77.4 300 
 BRR  HN ES        240 28.48                             151    0.0910 77.4 300 
 BRR  HZ I         240 32.22         8.8 0.12            132           77.4 300 
 PTB  HZ EP        240 16.37                             132   -0.76 9  151 261 
 PTB  HN ES   3    240 37.93                             132   -0.61 2  151 261 
 PTB  HZ I         240 43.15         6.7 0.20            116            151 261 
 SPBC HZ EP        240 18.64                             130    0.39 9  162 221 
 SPBC HE ES        240 40.49                             130   -0.04 9  162 221 
 SPBC HZ I         240 49.32         6.3 0.07            116            162 221 
 ZAR  HZ EP   2    240 23.73                             122    0.85 4  210 293 
 ZAR  HE ES        240 48.52                             122   -0.25 8  210 293 
 ZAR  HZ I         240 54.73        12.2 0.32            108            210 293 
 NOR  HZ EP        240 26.33                             119    0.72 8  235 236 
 NOR  HN ES        240 53.90                             119    0.27 8  235 236 
 NOR  HZ I         241  0.42         4.3 0.28            106            235 236 
 CHI  HZ EP   9    240 28.49                             118    1.39 0  245 196 
 CHI  HN ES        240 57.31                                   -0.37 8  245 196 
 CHI  HZ I         241  3.75         2.8 0.24            107            245 196 
 PTGC HZ EP        240 32.81                             112   -0.12 7  302 159 
 PTGC HN ES        241  6.34                             112   -0.32 7  302 159 
 CBOC HZ EP   4    240 38.10                             110    1.12 0  336 253 
 CBOC HE ES   2    241 12.78                             110   -1.10 3  336 253 
 CBOC HZ I         241 26.72         1.3 0.54             99            336 253 
 SJC  HZ EP        240 45.83                             106   -0.26 5  416 327 
 SJC  HZ I         241 29.80         2.2 0.62             95            416 327 
                                                                                
