 2014  211 0842 40.0 L   6.810 -73.146139.8  RSN  8 0.4 1.9LRSN                1
 GAP=201        0.81       3.5     4.7  5.5  0.5748E+01  0.4099E+01 -0.3013E+01E
 Epicentro: LOS SANTOS - SANTANDER                                             3
 ACTION:UPD 14-03-10 08:09 OP:ep   STATUS:               ID:20140211084240 L   I
 OLDACT:UP  14-02-11 11:16 OP:cam  STATUS:               ID:20140211084000     3
 OLDACT:REG 14-02-11 07:47 OP:carl STATUS:               ID:20140211084000     3
 2014-02-11-0840-00M.COL___167                                                 6
 STAT SP IPHASW D HRMM SECON CODA AMPLIT PERI AZIMU VELO AIN AR TRES W  DIS CAZ7
 BAR2 SZ EP     D  842 59.10                             170    0.1310 24.4 190 
 BAR2 SZ ES        843 13.93                             170    0.1810 24.4 190 
 BAR2 SZ I         843 14.92        28.5 0.24            173           24.4 190 
 RUS  HZ EP        843  3.54                             142    0.2510  102 176 
 RUS  HN ES        843 21.23                             142   -0.2010  102 176 
 RUS  HZ I         843 22.91         7.2 0.34            146            102 176 
 PTB  HZ EP        843  5.86                             131   -0.68 9  148 258 
 PTB  HN ES        843 26.93                             131   -0.29 9  148 258 
 PTB  HZ I         843 28.26         5.5 0.32            131            148 258 
 SPBC HZ EP   1    843  8.23                             128    0.06 7  164 219 
 SPBC HN ES   1    843 29.90                             128   -0.21 7  164 219 
 SPBC HZ I         843 32.53        10.7 0.14            130            164 219 
 ZAR  HZ EP        843 12.70                             121    0.65 9  204 292 
 ZAR  HE ES        843 37.50                             121    0.47 9  204 292 
 ZAR  HZ I         843 43.29         6.3 0.34            121            204 292 
 SML  HZ EP        843 15.80                             116   -0.42 8  243 335 
 SML  HN ES   2    843 43.96                             116   -0.49 4  243 335 
 SML  HZ I         843 51.23         9.2 0.28            117            243 335 
 CHI  HZ EP   1    843 17.34                             116   -0.19 6  250 195 
 CHI  HN ES        843 46.84                             116    0.07 8  250 195 
 URE  HZ EP   4    843 23.51                             112    2.74 0  283 292 
 PRA  HZ EP        843 33.77                             105    0.30 6  393 209 
                                                                                
