 2014  811 0633 34.0 L   6.770 -73.147146.7  RSN  7 0.4 1.5LRSN                1
 GAP=200        1.09       4.4     6.1  7.0  0.8015E+01  0.3570E+01 -0.7346E+01E
 Epicentro: LOS SANTOS - SANTANDER                                             3
 ACTION:UPD 14-09-15 21:48 OP:nd   STATUS:               ID:20140811063334 L   I
 OLDACT:REG 14-08-11 13:54 OP:cam  STATUS:               ID:20140811063000     3
 2014-08-11-0630-00M.COL___285                                                 6
 STAT SP IPHASW D HRMM SECON CODA AMPLIT PERI AZIMU VELO AIN AR TRES W  DIS CAZ7
 BAR2 SZ EP        633 53.75                             172    0.0310 20.0 191 
 BAR2 SZ ES        634  8.64                             172   -0.4310 20.0 191 
 BAR2 SZ I         634 10.05         6.7 0.24            168           20.0 191 
 BRR  HZ EP     C  633 55.74                             152    0.3710 72.7 301 
 BRR  HE ES        634 12.90                             152    0.8810 72.7 301 
 BRR  HZ I         634 13.66         7.1 0.46            148           72.7 301 
 RUS  HZ EP        633 57.78                             145    0.1410 97.2 176 
 RUS  HN ES        634 15.86                             145   -0.1910 97.2 176 
 RUS  HZ I         634 19.83         1.9 0.36            145           97.2 176 
 PTB  HZ EP        634  0.63                             132   -0.38 9  147 260 
 PTB  HN ES        634 21.25                             132   -0.80 9  147 260 
 PTB  HZ I         634 27.48         4.4 0.30            130            147 260 
 SPBC HZ EP        634  2.69                             130    0.34 9  160 220 
 SPBC HN ES        634 24.63                             130    0.19 9  160 220 
 SPBC HZ I         634 32.63         4.0 0.20            128            160 220 
 ZAR  HZ EP        634  6.79                             122    0.13 9  205 293 
 ZAR  HN ES        634 32.37                             122    0.26 9  205 293 
 ZAR  HZ I         634 39.98         2.8 0.60            121            205 293 
 SML  HZ EP        634 10.74                             117   -0.30 8  247 336 
 SML  HE ES        634 39.38                             117   -0.52 8  247 336 
 SML  HZ I         634 47.95         5.5 0.10            118            247 336 
                                                                                
