 2017  311 0313 22.5 L   6.842 -73.147150.1  RSN  5 0.3 1.2LRSN                1
 GAP=241        0.83       5.1     5.9  6.5  0.5318E+01  0.8287E+01  0.1429E+01E
 Epicentro: LOS SANTOS - SANTANDER                                             3
 ACTION:UPD 17-05-25 18:39 OP:jn   STATUS:               ID:20170311031322 L   I
 OLDACT:UP  17-03-11 13:53 OP:and  STATUS:               ID:20170311030742     3
 OLDACT:REG 17-03-11 12:32 OP:and  STATUS:               ID:20170311030742     3
 2017-03-11-0308-00M.COL___400                                                 6
 STAT SP IPHASW D HRMM SECON CODA AMPLIT PERI AZIMU VELO AIN AR TRES W  DIS CAZ7
 BAR2 EZ EP        313 42.74                             169   -0.0510 27.9 188 
 BAR2 EZ ES        313 58.48                             169   -0.1010 27.9 188 
 BAR2 EZ I         314  0.47         2.9 0.24            167           27.9 188 
 BRR  HZ EP        313 44.39                             154    0.3510 69.0 295 
 BRR  HN ES        314  1.02                             154    0.2110 69.0 295 
 RUS  HN ES        314  5.94                             143   -0.2210  105 176 
 PTB  HZ EP        313 49.39                             133   -0.55 9  149 257 
 PTB  HN ES        314 10.95                             133   -0.36 9  149 257 
 PTB  HZ I         314 11.45         1.5 0.18            133            149 257 
 SPBC HZ EP        313 51.94                             129    0.23 9  167 218 
 SPBC HN ES        314 14.94                             129    0.49 9  167 218 
 SPBC HZ I         314 17.59         2.2 0.10            129            167 218 
                                                                                
