 2017  811 0744 28.6 L   6.810 -73.057143.1  RSN  4 0.2 1.2LRSN                1
 GAP=247        0.68       4.1     6.1  4.8  0.5988E+01  0.3474E+01  0.2828E+01E
 Epicentro: LOS SANTOS - SANTANDER                                             3
 ACTION:UPD 17-09-04 20:19 OP:rebc STATUS:               ID:20170811074428 L   I
 OLDACT:REG 17-08-11 12:56 OP:dhb  STATUS:               ID:20170811073738     3
 2017-08-11-0738-00M.COL___410                                                 6
 STAT SP IPHASW D HRMM SECON CODA AMPLIT PERI AZIMU VELO AIN AR TRES W  DIS CAZ7
 BAR2 EZ EP        744 48.51                             168    0.5510 27.8 210 
 BAR2 EZ ISg       745  3.01                             168   -0.0910 27.8 210 
 BAR2 EZ ES        745  3.01                             168   -0.0910 27.8 210 
 BAR2 EZ I         745  5.57         3.3 0.44            169           27.8 210 
 BRR  HZ IP     D  744 49.85                             149   -0.0610 79.4 294 
 BRR  HN ES        745  6.52                             149   -0.0410 79.4 294 
 BRR  HZ I         745  7.35         3.6 0.32            151           79.4 294 
 RUS  HZ EP        744 51.68                             143   -0.4310  102 182 
 RUS  HN ES        745 10.62                             143    0.1410  102 182 
 RUS  HZ I         745 11.78         1.8 0.23            144            102 182 
 SPBC HZ EP        744 57.51                             127   -0.03 9  170 221 
 SPBC HN ES        745 20.22                             127    0.07 9  170 221 
                                                                                
