 2012  811 0108 13.6 L   6.756 -73.153147.6  RSN  6 0.3 1.5LRSN                1
 GAP=138        0.61       4.3     4.2  5.6 -0.1983E+01  0.2522E+01  0.4272E+01E
 Epicentro: LOS SANTOS - SANTANDER                                             3
 ACTION:UPD 12-09-10 11:55 OP:ep   STATUS:               ID:20120811010813 L   I
 2012-08-11-0100-00M.COL___218                                                 6
 STAT SP IPHASW D HRMM SECON CODA AMPLIT PERI AZIMU VELO AIN AR TRES W  DIS CAZ7
 BAR2 SZ EP   1    1 8 33.37                             173   -0.03 7 18.4 190 
 BAR2 SZ ES   1    1 8 48.88                             173    0.07 7 18.4 190 
 BAR2 SZ I         1 8 50.96         9.1 0.32                          18.4 190 
 GIR2 SZ ES   1    1 8 49.65                             166    0.37 7 35.9 353 
 BRR  HZ EP   2    1 8 35.26                             152    0.18 5 73.0 302 
 BRR  HN ES   1    1 8 52.14                             152    0.33 7 73.0 302 
 PAM  SZ EP   1    1 8 36.35                             150    0.05 7 81.7  38 
 PAM  SN ES   1    1 8 53.42                             150   -0.56 7 81.7  38 
 RUS  HZ EP   1    1 8 37.54                             146    0.31 7 95.8 175 
 RUS  HN ES   1    1 8 55.50                             146   -0.14 7 95.8 175 
 RUS  HZ I         1 8 57.54         3.8 0.25                          95.8 175 
 PTB  HZ EP   1    1 8 40.53                             133   -0.07 7  146 261 
 PTB  HN ES   1    1 9  1.17                             133   -0.47 7  146 261 
                                                                                
