 2016 1211 0316 29.2 L   6.733 -73.158151.8  RSN  4 0.2 1.2LRSN                1
 GAP=231        0.53       4.3     4.1  4.3  0.8650E+01  0.1467E+01  0.1296E+00E
 Epicentro: LOS SANTOS - SANTANDER                                             3
 ACTION:UPD 17-01-11 20:13 OP:rebc STATUS:               ID:20161211031629 L   I
 OLDACT:UP  16-12-11 14:35 OP:edw  STATUS:               ID:20161211030747     3
 OLDACT:UP  16-12-11 14:29 OP:edw  STATUS:               ID:20161211030747     3
 OLDACT:REG 16-12-11 12:38 OP:edw  STATUS:               ID:20161211030747     3
 2016-12-11-0308-00M.COL___370                                                 6
 STAT SP IPHASW D HRMM SECON CODA AMPLIT PERI AZIMU VELO AIN AR TRES W  DIS CAZ7
 BAR2 EZ EP        316 49.12                             174   -0.3210 15.8 190 
 BAR2 EZ ES        317  5.11                             174   -0.1110 15.8 190 
 BAR2 EZ I         317  7.05         4.0 0.16            172           15.8 190 
 BRR  HZ EP        316 51.18                             153    0.0210 73.8 304 
 BRR  HN ES        317  8.50                             153    0.2210 73.8 304 
 RUS  HZ EP        316 53.36                             147    0.2910 93.3 175 
 RUS  HN ES        317 11.69                             147    0.0210 93.3 175 
 RUS  HZ I         317 13.04         3.0 0.30            147           93.3 175 
 PTB  HZ EP        316 56.40                             134   -0.05 9  145 262 
 PTB  HN ES        317 17.59                             134   -0.09 9  145 262 
 PTB  HZ I         317 19.50         1.9 0.16            134            145 262 
 ZAR  HZ EP   4    316 56.90                             123   -5.32 0  206 294 
 ZAR  HN ES   4    317 25.04                             123   -2.93 0  206 294 
 GUY2CHN ES   4    317 50.50                             114    4.23 0  296 236 
                                                                                
