 2015  311 0657 56.6 L   6.779 -73.140147.0  RSN  8 0.4 2.1LRSN                1
 GAP=138        1.06       3.5     5.8  6.7 -0.5527E+01  0.1105E+02 -0.1599E+01E
 Epicentro: LOS SANTOS - SANTANDER                                             3
 ACTION:UPD 15-04-30 16:25 OP:nd   STATUS:               ID:20150311065756 L   I
 OLDACT:UP  15-03-11 15:48 OP:cam  STATUS:               ID:20150311064735     3
 OLDACT:REG 15-03-11 13:18 OP:cam  STATUS:               ID:20150311064735     3
 2015-03-11-0647-35M.COL___281                                                 6
 STAT SP IPHASW D HRMM SECON CODA AMPLIT PERI AZIMU VELO AIN AR TRES W  DIS CAZ7
 BAR2 EZ EP        658 16.43                             171    0.1310 21.1 193 
 BAR2 EZ ES        658 30.99                             171   -0.7110 21.1 193 
 BAR2 EZ I         658 34.13        25.9 0.22            171           21.1 193 
 BRR  HZ EP     C  658 18.15                             152    0.2110 72.9 300 
 BRR  HN ES        658 35.31                             152    0.6910 72.9 300 
 BRR  HZ I         658 39.31        17.9 0.16            151           72.9 300 
 PAM  SZ IP     D  658 19.41                             151    0.4110 78.9  38 
 PAM  SN ES        658 36.64                             151    0.1410 78.9  38 
 PAM  SZ I         658 39.15        10.6 0.34            154           78.9  38 
 RUS  HZ EP        658 19.68                             145   -0.5910 98.2 176 
 RUS  HN ES        658 39.14                             145    0.3810 98.2 176 
 RUS  HZ I         658 40.11        11.4 0.24            148           98.2 176 
 SPBC HZ EP        658 25.35                             130    0.33 9  162 220 
 SPBC HN ES        658 46.77                             130   -0.45 9  162 220 
 SPBC HZ I         658 49.37        14.5 0.10            131            162 220 
 OCA  HN ES        658 47.15                             129   -0.39 9  163 353 
 OCA  HN I         658 51.60        39.4 0.36            131            163 353 
 NOR  HZ EP   1    658 32.50                             119    0.23 6  234 235 
 NOR  HE ES        659  0.16                             119    0.04 8  234 235 
 NOR  HZ I         659  5.94         9.4 0.16            121            234 235 
 SML  HZ EP        658 33.33                             117   -0.19 8  246 335 
 SML  HN ES   1    659  1.73                             117   -0.62 6  246 335 
 SML  HZ I         659  4.26        14.6 0.10            119            246 335 
                                                                                
