 2017  311 0319 46.6 L   6.792 -73.131144.4  RSN 12 0.4 1.6LRSN                1
 GAP=100        1.01       3.6     3.5  5.4 -0.1113E+01  0.1450E+01  0.3028E+01E
 Epicentro: LOS SANTOS - SANTANDER                                             3
 ACTION:UPD 17-05-25 18:39 OP:jn   STATUS:               ID:20170311031946 L   I
 OLDACT:UP  17-03-11 13:59 OP:and  STATUS:               ID:20170311031745     3
 OLDACT:UP  17-03-11 13:59 OP:and  STATUS:               ID:20170311031745     3
 OLDACT:UP  17-03-11 13:58 OP:and  STATUS:               ID:20170311031745     3
 OLDACT:UP  17-03-11 13:56 OP:and  STATUS:               ID:20170311031745     3
 OLDACT:REG 17-03-11 12:32 OP:and  STATUS:               ID:20170311031745     3
 2017-03-11-0318-00M.COL___400                                                 6
 STAT SP IPHASW D HRMM SECON CODA AMPLIT PERI AZIMU VELO AIN AR TRES W  DIS CAZ7
 BAR2 EZ EP        320  6.15                             171    0.0410 22.9 194 
 BAR2 EZ ES        320 20.76                             171   -0.5310 22.9 194 
 BAR2 EZ I         320 23.42         7.9 0.22            169           22.9 194 
 BRR  HZ EP        320  7.94                             152    0.1810 73.1 298 
 BRR  HN ES        320 24.95                             152    0.7210 73.1 298 
 BRR  HZ I         320 25.48         5.2 0.17            152           73.1 298 
 PAM  EZ EP     D  320  8.89                             150    0.1910 77.0  38 
 PAM  EN ES        320 25.51                             150   -0.3910 77.0  38 
 PAM  EZ I         320 27.91         7.6 0.54            154           77.0  38 
 RUS  HZ EP        320 10.19                             144   -0.0110 99.6 177 
 RUS  HN ES        320 28.91                             144    0.3410 99.6 177 
 RUS  HZ I         320 30.58         9.3 0.28            144           99.6 177 
 PTB  HZ EP        320 13.05                             131   -0.59 9  149 259 
 PTB  HN ES        320 33.86                             131   -0.84 9  149 259 
 PTB  HZ I         320 35.46         4.6 0.21            132            149 259 
 TAM  HZ IP     D  320 14.52                             130    0.47 9  153 105 
 SPBC HZ EP        320 15.13                             128    0.05 9  164 220 
 SPBC HN ES        320 37.19                             128   -0.07 9  164 220 
 SPBC HZ I         320 43.27         7.9 0.22            129            164 220 
 ZAR  HZ EP        320 19.25                             122    0.05 8  206 292 
 ZAR  HN ES        320 44.76                             122    0.17 8  206 292 
 ZAR  HZ I         320 49.62         3.6 0.32            123            206 292 
 CHI  HZ EP   9    320 25.24                             117    1.01 0  248 196 
 CHI  HN ES        320 54.36                             117   -0.20 8  248 196 
 CHI  HZ I         320 57.28         1.6 0.38            117            248 196 
 ROSC BZ EP   4    320 26.73                             116    2.02 0  253 211 
 GUY2CHZ EP   4    320 28.85                             112   -1.45 0  302 235 
 GUY2CHN ES        321  4.96                             112    0.62 7  302 235 
 GUY2CHZ  IAML     321 12.18         1.5 0.28                           302 235 
 PTGC HZ EP        320 29.77                             111   -0.52 7  307 159 
 PRA  HZ EP   3    320 38.49                             106   -1.64 1  392 210 
 PRA  HE ES        321 22.21                             106    0.36 6  392 210 
 PRA  HZ I         321 25.77         1.4 0.50            107            392 210 
                                                                                
