 2013  411 0416 18.5 L   6.746 -73.183145.3  RSN  5 0.3 1.9LRSN                1
 GAP=175        0.70       4.9     4.7  5.5  0.8513E+01  0.6283E+00 -0.1883E+01E
 Epicentro: VILLANUEVA - SANTANDER                                             3
 ACTION:UPD 13-05-22 14:37 OP:EP   STATUS:               ID:20130411041618 L   I
 2013-04-11-0408-36M.COL___211                                                 6
 STAT SP IPHASW D HRMM SECON CODA AMPLIT PERI AZIMU VELO AIN AR TRES W  DIS CAZ7
 BAR2 SZ EP        416 37.85                             173   -0.0910 17.0 180 
 BAR2 SZ ES        416 52.64                             173   -0.4810 17.0 180 
 BAR2 SZ I         416 53.71        16.4 0.34            167           17.0 180 
 GIR2 SZ EP        416 38.20                             165   -0.0610 36.8 358 
 BRR  HZ EP        416 39.75                             153    0.2010 70.7 304 
 BRR  HN ES        416 56.33                             153    0.3410 70.7 304 
 BRR  HN I         416 57.29        33.9 0.30            151           70.7 304 
 RUS  HZ EP        416 41.90                             145    0.1110 95.1 173 
 RUS  HN ES        417  0.27                             145    0.2910 95.1 173 
 RUS  HE I         417  2.48         6.3 0.20            143           95.1 173 
 PTB  HZ EP        416 44.67                             133   -0.28 9  143 261 
 PTB  HN ES        417  5.51                             133   -0.08 9  143 261 
 PTB  HE I         417 11.18         9.7 0.38            130            143 261 
                                                                                
