 2014  811 0538 27.3 L   6.801 -73.152149.9  RSN  6 0.4 1.3LRSN                1
 GAP=200        0.92       3.8     5.9  6.2  0.4505E+01  0.1547E+01 -0.5077E+01E
 Epicentro: LOS SANTOS - SANTANDER                                             3
 ACTION:UPD 14-09-15 21:48 OP:nd   STATUS:               ID:20140811053827 L   I
 OLDACT:UP  14-08-11 16:54 OP:cam  STATUS:               ID:20140811053000     3
 OLDACT:UP  14-08-11 16:54 OP:cam  STATUS:               ID:20140811053000     3
 OLDACT:REG 14-08-11 13:51 OP:cam  STATUS:               ID:20140811053000     3
 2014-08-11-0530-00M.COL___285                                                 6
 STAT SP IPHASW D HRMM SECON CODA AMPLIT PERI AZIMU VELO AIN AR TRES W  DIS CAZ7
 BAR2 SZ EP        538 47.19                             171   -0.2410 23.4 188 
 BAR2 SZ ES        539  2.99                             171   -0.1510 23.4 188 
 BRR  HZ EP        538 48.57                             153   -0.3010 70.5 299 
 BRR  HN ES        539  6.30                             153    0.6210 70.5 299 
 BRR  HZ I         539 10.40         3.7 0.18            151           70.5 299 
 RUS  HZ EP        538 51.77                             145    0.2910  101 176 
 RUS  HN ES        539 10.22                             145   -0.1210  101 176 
 RUS  HZ I         539 11.43         1.6 0.26            145            101 176 
 PTB  HZ EP        538 54.16                             133   -0.39 9  147 259 
 PTB  HN ES        539 15.78                             133   -0.03 9  147 259 
 PTB  HZ I         539 17.77         2.0 0.12            132            147 259 
 SPBC HZ EP        538 56.49                             130    0.40 9  163 219 
 SPBC HN ES        539 18.41                             130   -0.14 9  163 219 
 SPBC HZ I         539 27.02         2.3 0.30            129            163 219 
 SML  HZ EP        539  4.75                             118    0.63 8  243 335 
 SML  HE ES        539 32.28                             118   -0.56 8  243 335 
 SML  HZ I         539 34.53         3.9 0.28            120            243 335 
                                                                                
