 2010  511 0903  2.8 L   6.774 -73.113140.5  RSN  7 0.6 1.9LRSN                1
 GAP=160        1.07       5.9    15.0 13.5 -0.3663E+02 -0.1219E+02  0.2190E+02E
 Epicentro: LOS SANTOS - SANTANDER                                             3
 ACTION:UP  10-08-24 10:04 OP:vdl  STATUS:               ID:20100511090302 L   I
 2010-05-11-0900-11S.COL___104                                                 6
 STAT SP IPHASW D HRMM SECON CODA AMPLIT PERI AZIMU VELO AIN AR TRES W  DIS CAZ7
 BRR  HZ EP   3    9 3 23.68                             150     0.1 2   76 299 
 BRR  HN ES   2    9 3 40.51                             150     0.6 5   76 299 
 BRR  HZ I         9 3 45.18        24.4 0.14                            76 299 
 RUS  HZ EP        9 3 25.59                             143    -0.210   98 178 
 RUS  HN ES   2    9 3 43.56                             143    -0.1 5   98 178 
 RUS  HZ I         9 3 45.90         5.4 0.36                            98 178 
 BRI  SZ EP   2    9 3 25.76                             140    -0.5 5  110  19 
 BRI  SZ ES   2    9 3 43.66                             140    -0.9 5  110  19 
 GUE  SZ EP   2    9 3 26.46                             137    -0.7 5  119  10 
 GRA  SZ EP        9 3 28.36                             135     0.710  128  16 
 GRA  SZ ES   1    9 3 47.66                             135     0.5 7  128  16 
 OCA  SZ EP   2    9 3 30.31                             128    -0.7 5  164 352 
 OCA  SZ ES   2    9 3 51.69                             128    -1.3 5  164 352 
 OCA  SZ I         9 3 56.18         8.7 0.13                           164 352 
 PRA  HZ EP   1    9 3 56.27                             105     0.3 4  391 210 
 PRA  HN ES   2    9 4 37.59                             105     0.0 3  391 210 
 PRA  HZ I         9 4 43.40         3.6 0.25                           391 210 
                                                                                
