 2017 1011 0407  2.9 L   7.447 -73.362  5.3  RSN  4 0.5 1.4LRSN                1
 GAP=187        0.99       3.8     2.7  7.2  0.1050E+01  0.2249E+01  0.5457E+01E
 Epicentro: SABANA DE TORRES - SANTANDER                                       3
 ACTION:UPD 17-11-07 19:30 OP:rebc STATUS:               ID:20171011040702 L   I
 OLDACT:UP  17-10-11 16:57 OP:leo  STATUS:               ID:20171011035032     3
 OLDACT:REG 17-10-11 13:59 OP:leo  STATUS:               ID:20171011035032     3
 2017-10-11-0358-00M.COL___438                                                 6
 STAT SP IPHASW D HRMM SECON CODA AMPLIT PERI AZIMU VELO AIN AR TRES W  DIS CAZ7
 PAM  EZ IP     D  4 7 15.59                              47    0.3710 74.1  99 
 PAM  EN ES        4 7 24.54                              47   -0.3010 74.1  99 
 PAM  EZ I         4 7 24.80        20.1 0.18             47           74.1  99 
 BAR2 HZ EP        4 7 17.84                              47   -0.5310 96.5 168 
 BAR2 HZ ES        4 7 30.40                              47   -0.0310 96.5 168 
 BAR2 HZ I         4 7 32.48         5.3 0.56             47           96.5 168 
 ZAR  HZ EP   3    4 7 27.07                              47   -1.46 2  165 272 
 ZAR  HE ES        4 7 48.60                              47    0.07 9  165 272 
 ZAR  HZ I         4 7 50.39         4.8 0.40             47            165 272 
 RUS  HZ EP        4 7 31.22                              47    0.77 9  175 170 
 RUS  HN ES        4 7 51.81                              47   -0.14 9  175 170 
 RUS  HZ I         4 7 53.30         4.1 0.24             47            175 170 
                                                                                
