 2013  511 0955  5.6 L   6.835 -73.190144.3  RSN  4 0.2 1.3LRSN                1
 GAP=147        0.40       3.3     3.1  4.5 -0.3223E+01  0.3932E+01 -0.1369E+01E
 Epicentro: ZAPATOCA - SANTANDER                                               3
 ACTION:UPD 13-06-20 09:49 OP:ep   STATUS:               ID:20130511095505 L   I
 2013-05-11-0950-00M.COL___256                                                 6
 STAT SP IPHASW D HRMM SECON CODA AMPLIT PERI AZIMU VELO AIN AR TRES W  DIS CAZ7
 BAR2 SZ EP   1    955 25.08                             169   -0.05 7 26.9 178 
 BAR2 SZ ES   1    955 40.51                             169    0.14 7 26.9 178 
 BAR2 SZ I         955 42.59         4.6 0.50            169           26.9 178 
 PAM  SZ EP   1    955 28.00                             150    0.32 7 77.7  44 
 PAM  SN ES   1    955 44.67                             150   -0.23 7 77.7  44 
 RUS  HZ EP   1    955 29.45                             142   -0.08 7  105 174 
 RUS  HN ES   1    955 48.17                             142   -0.02 7  105 174 
 RUS  HZ I         955 49.08         3.0 0.42            145            105 174 
 PTB  HZ EP   1    955 31.96                             132   -0.14 7  144 257 
 PTB  HN ES   1    955 52.80                             132    0.04 7  144 257 
 PTB  HZ I         955 58.10         2.9 0.18            132            144 257 
                                                                                
