 2011  711 0843  3.1 L   6.656 -73.108143.7  RSN  5 0.3 1.4LRSN                1
 GAP=215        0.54       5.0     7.7  6.4 -0.1214E+02 -0.1712E+02  0.5290E+01E
 Epicentro: CURITI - SANTANDER                                                 3
 ACTION:UPD 12-07-25 14:00 OP:epov STATUS:               ID:20110711084303 L   I
 2011-07-11-0841-30S.COL___140                                                 6
 STAT SP IPHASW D HRMM SECON CODA AMPLIT PERI AZIMU VELO AIN AR TRES W  DIS CAZ7
 BAR2 SZ EP   1    843 22.56                             175    0.31 7 10.8 229 
 GIR2 SZ EP   1    843 22.81                             161   -0.23 7 47.7 349 
 GIR2 SZ ES   1    843 38.50                             161   -0.12 7 47.7 349 
 BRR  HZ EP   1    843 24.61                             148   -0.11 7 83.3 307 
 BRR  HZ I         843 25.11         4.9 0.09                          83.3 307 
 BRR  HE ES   1    843 41.67                             148    0.06 7 83.3 307 
 GRA  SZ EP   1    843 29.70                             133    0.35 7  140  14 
 GRA  SZ ES   1    843 49.67                             133   -0.18 7  140  14 
 GRA  SZ I         843 50.40         3.1 0.39                           140  14 
 OCA  SZ EP   1    843 32.37                             126   -0.41 7  177 352 
 OCA  SZ ES   1    843 56.31                             126    0.34 7  177 352 
                                                                                
