 2017  211 0214 11.4 L   6.776 -73.151145.6  RSN 11 0.5 1.9LRSN                1
 GAP= 71        1.02       4.3     3.3  5.8  0.3375E+01  0.1884E+01  0.7964E+01E
 Epicentro: LOS SANTOS - SANTANDER                                             3
 ACTION:UPD 17-05-24 15:35 OP:jn   STATUS:               ID:20170211021411 L   I
 OLDACT:UP  17-02-11 14:16 OP:and  STATUS:               ID:20170211020750     3
 OLDACT:UP  17-02-11 14:16 OP:and  STATUS:               ID:20170211020750     3
 OLDACT:UP  17-02-11 14:14 OP:and  STATUS:               ID:20170211020750     3
 OLDACT:UP  17-02-11 14:13 OP:and  STATUS:               ID:20170211020750     3
 OLDACT:REG 17-02-11 12:30 OP:and  STATUS:               ID:20170211020750     3
 2017-02-11-0208-00M.COL___352                                                 6
 STAT SP IPHASW D HRMM SECON CODA AMPLIT PERI AZIMU VELO AIN AR TRES W  DIS CAZ7
 BAR2 EZ EP        214 30.88                             171   -0.0610 20.6 190 
 BAR2 EZ ES        214 46.50                             171    0.3010 20.6 190 
 BAR2 EZ I         214 46.88        16.4 0.25            169           20.6 190 
 BRR  HZ EP        214 32.64                             152    0.0810 72.0 301 
 BRR  HN ES        214 49.61                             152    0.5310 72.0 301 
 BRR  HZ I         214 53.19        12.8 0.14            152           72.0 301 
 PAM  EZ IP     C  214 33.72                             150   -0.0110 79.8  39 
 PAM  EN ES        214 50.39                             150   -0.7610 79.8  39 
 PAM  EZ I         214 52.52        10.0 0.56            154           79.8  39 
 RUS  HZ EP        214 35.00                             144    0.0710 98.0 176 
 RUS  HN ES        214 53.34                             144    0.0410 98.0 176 
 RUS  HZ I         214 55.69         9.9 0.35            144           98.0 176 
 PTB  HZ EP        214 37.81                             132   -0.43 9  147 260 
 PTB  HN ES        214 58.70                             132   -0.49 9  147 260 
 PTB  HZ I         215  1.37        11.5 0.22            132            147 260 
 TAM  HZ IP     D  214 39.33                             131    0.29 9  155 104 
 TAM  HN ES        215  1.06                             131    0.45 9  155 104 
 ZAR  HZ EP   3    214 45.24                             122    1.37 2  205 293 
 ZAR  HN ES        215  9.10                             122   -0.11 9  205 293 
 ZAR  HZ I         215 11.82         9.8 0.24            123            205 293 
 NOR  HZ EP        214 47.38                             119    0.49 8  233 235 
 NOR  HN ES   3    215 16.08                             119    1.50 2  233 235 
 NOR  HZ I         215 19.41         5.4 0.15            119            233 235 
 PTGC HZ EP        214 54.38                             112   -0.59 7  306 158 
 PTGC HE ES        215 28.24                             112   -0.74 7  306 158 
 ORTC HZ EP        215  5.81                             106    0.80 6  393 216 
 ORTC HN ES   4    215 49.25                             106    2.42 0  393 216 
 ORTC HZ I         215 53.87         2.9 0.24            107            393 216 
 SJC  HZ EP   9    215  4.92                             106   -2.24 0  411 327 
 SJC  HN ES        215 47.67                             106   -0.76 6  411 327 
 SJC  HZ I         215 50.41         2.8 0.47            107            411 327 
                                                                                
