 2013  911 0415 21.1 L   6.770 -73.183149.3  RSN  5 0.4 1.5LRSN                1
 GAP=231        0.99       5.9     7.8 10.6  0.1946E+02  0.1365E+02 -0.1035E+01E
 Epicentro: LOS SANTOS - SANTANDER                                             3
 ACTION:UPD 13-10-22 09:21 OP:ep   STATUS:               ID:20130911041521 L   I
 OLDACT:UP  13-09-11 10:05 OP:cam  STATUS:               ID:20130911040959     3
 OLDACT:REG 13-09-11 08:32 OP:cam  STATUS:               ID:20130911040959     3
 2013-09-11-0409-59M.COL___269                                                 6
 STAT SP IPHASW D HRMM SECON CODA AMPLIT PERI AZIMU VELO AIN AR TRES W  DIS CAZ7
 BRR  HZ EP        415 42.30                             154   -0.1810 69.3 303 
 BRR  HN ES        415 59.31                             154    0.1110 69.3 303 
 RUS  HN ES        416  3.59                             145    0.0110 97.6 173 
 PTB  HZ EP   1    415 47.37                             134   -0.52 7  143 260 
 PTB  HN ES        416  8.12                             134   -0.71 9  143 260 
 PTB  HZ I         416 10.69         2.9 0.42            131            143 260 
 SPBC HZ EP   1    415 49.73                             131    0.39 7  158 219 
 SPBC HN ES        416 11.78                             131    0.38 9  158 219 
 SPBC HZ I         416 18.06         4.6 0.86            127            158 219 
 ZAR  HN ES        416 19.39                             123    0.63 9  202 293 
                                                                                
