 2012  411 0317 21.4 L   6.762 -73.129146.1  RSN  6 0.4 1.6LRSN                1
 GAP=140        1.02       6.6     5.6  9.9  0.1530E+01  0.3760E+01  0.8337E+01E
 Epicentro: LOS SANTOS - SANTANDER                                             3
 ACTION:UPD 12-07-05 11:52 OP:tino STATUS:               ID:20120411031721 L   I
 2012-04-11-0310-00M.COL___176                                                 6
 STAT SP IPHASW D HRMM SECON CODA AMPLIT PERI AZIMU VELO AIN AR TRES W  DIS CAZ7
 BAR2 SZ EP   1    317 41.29                             172     0.3 7   20 198 
 BAR2 SZ I         317 57.09        11.2 0.19                            20 198 
 BRR  HZ EP        317 43.09                             151     0.310   75 301 
 BRR  HZ I         317 43.46         8.3 0.10                            75 301 
 BRR  HN ES        317 59.92                             151     0.410   75 301 
 PAM  SZ EP        317 43.83                             150     0.010   80  37 
 PAM  SE ES   1    318  0.57                             150    -0.7 7   80  37 
 RUS  HZ EP   1    317 45.36                             145     0.5 7   96 177 
 RUS  HN ES   1    318  2.99                             145    -0.2 7   96 177 
 RUS  HZ I         318  5.52         4.7 0.32                            96 177 
 PTB  HZ EP        317 47.97                             132    -0.5 9  149 261 
 PTB  HE ES   1    318  9.28                             132    -0.4 7  149 261 
 ZAR  HE ES   1    318 19.75                             122    -0.1 6  207 293 
 ZAR  HZ I         318 25.36         4.1 0.33                           207 293 
                                                                                
