 2016 1211 0328 34.2 L   6.777 -73.228142.7  RSN  4 0.2 1.3LRSN                1
 GAP=222        0.61       5.8     4.6  6.5  0.1036E+02 -0.6075E+00 -0.1090E+02E
 Epicentro: ZAPATOCA - SANTANDER                                               3
 ACTION:UPD 17-01-11 20:13 OP:rebc STATUS:               ID:20161211032834 L   I
 OLDACT:UP  16-12-11 14:43 OP:edw  STATUS:               ID:20161211032744     3
 OLDACT:UP  16-12-11 14:42 OP:edw  STATUS:               ID:20161211032744     3
 OLDACT:REG 16-12-11 12:40 OP:edw  STATUS:               ID:20161211032744     3
 2016-12-11-0328-00M.COL___370                                                 6
 STAT SP IPHASW D HRMM SECON CODA AMPLIT PERI AZIMU VELO AIN AR TRES W  DIS CAZ7
 BAR2 EZ EP        328 53.09                             171   -0.3610 21.0 166 
 BAR2 EZ ES        329  8.40                             171   -0.0410 21.0 166 
 BAR2 EZ I         329 10.87         5.6 0.46            174           21.0 166 
 BRR  HZ EP        328 55.03                             154    0.3310 64.7 304 
 BRR  HN ES   4    329 12.13                             154    1.47 0 64.7 304 
 BRR  HZ I         329 12.90         6.5 0.34            156           64.7 304 
 RUS  HZ EP        328 57.56                             144   -0.0210 99.1 171 
 RUS  HN ES        329 15.95                             144    0.1710 99.1 171 
 RUS  HZ I         329 16.93         2.2 0.30            148           99.1 171 
 PTB  HZ EP   4    328 57.11                             133   -2.99 0  138 259 
 PTB  HN ES        329 20.18                             133   -0.09 9  138 259 
 ZAR  HN ES   4    329 28.60                             123   -1.67 0  197 294 
                                                                                
