 2014  211 0644 57.3 L   6.817 -73.154141.6  RSN 10 0.3 1.8LRSN                1
 GAP=135        0.74       2.0     3.2  4.6 -0.3182E+00  0.5056E+01 -0.3627E+00E
 Epicentro: LOS SANTOS - SANTANDER                                             3
 ACTION:UPD 14-03-10 08:09 OP:ep   STATUS:               ID:20140211064457 L   I
 OLDACT:REG 14-02-11 07:43 OP:carl STATUS:               ID:20140211064000     3
 2014-02-11-0640-00M.COL___167                                                 6
 STAT SP IPHASW D HRMM SECON CODA AMPLIT PERI AZIMU VELO AIN AR TRES W  DIS CAZ7
 BAR2 SZ EP        645 16.82                             169    0.3110 25.1 187 
 BAR2 SZ ES        645 31.94                             169    0.4710 25.1 187 
 BAR2 SZ I         645 33.33        34.9 0.16            168           25.1 187 
 PAM  SZ EP        645 18.82                             150   -0.2510 76.5  41 
 PAM  SN ES        645 36.01                             150    0.0010 76.5  41 
 PAM  SZ I         645 38.85         9.4 0.48            154           76.5  41 
 RUS  HZ EP        645 20.81                             142   -0.0310  103 176 
 RUS  HN ES        645 38.92                             142   -0.2410  103 176 
 RUS  HZ I         645 40.84         4.7 0.28            143            103 176 
 PTB  HZ EP        645 23.65                             131   -0.28 9  147 258 
 PTB  HN ES        645 44.30                             131   -0.37 9  147 258 
 OCA  HE ES        645 46.59                             129   -0.24 9  158 353 
 SPBC HZ EP        645 25.71                             128    0.09 9  164 218 
 SPBC HN ES        645 47.38                             128   -0.29 9  164 218 
 SPBC HZ I         645 51.66         5.9 0.36            129            164 218 
 ZAR  HZ EP        645 30.05                             122    0.69 9  203 292 
 ZAR  HN ES        645 54.64                             122    0.30 9  203 292 
 ZAR  HZ I         646  0.29         6.0 0.26            123            203 292 
 SML  HZ EP        645 33.30                             117   -0.21 8  242 335 
 SML  HN ES        646  1.63                             117   -0.09 8  242 335 
 SML  HZ I         646  3.73         7.9 0.28            118            242 335 
 CHI  HZ EP        645 35.16                             116    0.17 8  250 195 
 CHI  HN ES        646  4.42                             116    0.06 8  250 195 
 CHI  HZ I         646 11.59         2.6 0.58            117            250 195 
 GUY2CHZ EP   4    645 42.72                             111    1.91 0  302 234 
 GUY2CHE ES   4    646 17.56                             111    2.85 0  302 234 
 GUY2CHZ I         646 24.94         2.5 0.60                           302 234 
                                                                                
