 2011 1211 0755 50.4 L   6.785 -73.165148.7  RSN  6 0.4 1.3LRSN                1
 GAP=135        0.74       5.3     5.1  8.3 -0.2709E+01  0.3136E+01  0.4324E+01E
 Epicentro: LOS SANTOS - SANTANDER                                             3
 ACTION:UPD 12-07-13 16:15 OP:ep   STATUS:               ID:20111211075550 L   I
 2011-12-11-0750-00M.COL___186                                                 6
 STAT SP IPHASW D HRMM SECON CODA AMPLIT PERI AZIMU VELO AIN AR TRES W  DIS CAZ7
 BAR2 SZ EP   1    756 10.22                             171   -0.17 7 21.4 185 
 GIR2 SZ EP   2    756 10.42                             167   -0.08 5 32.7 354 
 BRR  HZ EP        756 12.19                             153    0.3410 70.2 301 
 BRR  HZ I         756 12.53         6.6 0.08                          70.2 301 
 BRR  HN ES   1    756 29.08                             153    0.53 7 70.2 301 
 PAM  SZ EP   1    756 13.37                             150    0.24 7 80.0  40 
 PAM  SN ES   1    756 30.24                             150   -0.58 7 80.0  40 
 RUS  HZ EP   1    756 14.36                             145   -0.02 7 99.1 175 
 RUS  HN ES   1    756 33.23                             145    0.19 7 99.1 175 
 RUS  HZ I         756 34.69         1.7 0.27                          99.1 175 
 PTB  HZ EP   1    756 17.07                             133   -0.37 7  145 259 
 PTB  HN ES   1    756 38.00                             133   -0.49 7  145 259 
                                                                                
