 2011  311 0443 39.6 L   6.803 -73.322144.0  RSN  6 0.4 1.7LRSN                1
 GAP=121        0.85       4.0     6.0  8.6 -0.7790E+01  0.2683E+02 -0.8395E+01E
 Epicentro: ZAPATOCA - SANTANDER                                               3
 ACTION:UP  11-06-16 14:33 OP:jfem STATUS:               ID:20110311044339 L   I
 2011-03-11-0441-36S.COL___135                                                 6
 STAT SP IPHASW D HRMM SECON CODA AMPLIT PERI AZIMU VELO SNR AR TRES W  DIS CAZ7
 BAR2 SZ EP        443 59.14                             169     0.110   28 147 
 BAR2 SZ ES        444 14.70                             169     0.410   28 147 
 BAR2 SZ I         444 15.91        12.2 0.13                            28 147 
 RUS  HZ EP   1    444  3.23                             143    -0.2 7  104 165 
 RUS  HN ES   1    444 21.65                             143    -0.3 7  104 165 
 RUS  HZ I         444 22.96         7.2 0.48                           104 165 
 GRA  SZ EP   2    444  4.87                             135    -0.4 5  133  26 
 GRA  SZ ES   1    444 24.50                             135    -0.7 7  133  26 
 GRA  SZ I         444 26.00         8.5 0.36                           133  26 
 OCA  SZ EP   1    444  8.04                             130     0.5 7  159   0 
 OCA  SZ ES   1    444 29.75                             130     0.3 7  159   0 
 OCA  SZ I         444 35.97         7.3 0.21                           159   0 
 CHI  HN ES   2    444 45.99                             117     0.3 4  245 191 
 HEL  HZ EP   1    444 17.83                             116     0.2 6  253 255 
 HEL  HE ES        444 46.98                             116    -0.3 8  253 255 
                                                                                
