 2017  511 0359 35.0 L   6.798 -73.102148.8  RSN 20 0.6 2.4LRSN                1
 GAP=116        1.45       4.2     4.3  7.3  0.2631E+01  0.4210E+01  0.6406E+01E
 Epicentro: LOS SANTOS - SANTANDER                                             3
 ACTION:UPD 17-06-16 13:34 OP:jn   STATUS:               ID:20170511035935 L   I
 OLDACT:UP  17-05-15 19:25 OP:nlst STATUS:               ID:20170511035935 L   3
 OLDACT:UP  17-05-11 18:38 OP:edw  STATUS:               ID:20170511035743     3
 OLDACT:REG 17-05-11 13:10 OP:osc  STATUS:               ID:20170511035743     3
 2017-05-11-0358-00M.COL___359                                                 6
 STAT SP IPHASW D HRMM SECON CODA AMPLIT PERI AZIMU VELO AIN AR TRES W  DIS CAZ7
 PAM  EZ EP        359 57.67                             152    0.3310 74.6  37 
 PAM  EN ES        4 0 14.79                             152    0.0010 74.6  37 
 PAM  EZ I         4 0 16.97        73.4 0.62            159           74.6  37 
 BRR  HZ IP     C  359 56.57                             152   -0.1110 75.5 297 
 BRR  HE ES        4 0 13.80                             152    0.1810 75.5 297 
 BRR  HZ I         4 0 17.46        56.5 0.14            150           75.5 297 
 RUS  HZ EP        359 58.76                             145   -0.2210  100 179 
 RUS  HE ES        4 0 17.38                             145   -0.3310  100 179 
 RUS  HZ I         4 0 18.19        49.7 0.22            144            100 179 
 PTB  HZ EP   9    4 0  1.32                             132   -1.28 0  152 259 
 PTB  HN ES        4 0 22.60                             132   -0.27 9  152 259 
 PTB  HZ I         4 0 23.95        38.5 0.32            131            152 259 
 SPBC HZ EP        4 0  3.66                             129   -0.31 9  166 220 
 SPBC HN ES        4 0 25.85                             129   -0.74 9  166 220 
 SPBC HZ I         4 0 32.83        44.6 0.30            128            166 220 
 YPLC HZ EP     D  4 0  5.07                             128    0.33 9  174 153 
 YPLC HN ES        4 0 28.84                             128    0.87 9  174 153 
 YPLC HZ I         4 0 32.56        16.9 0.32            129            174 153 
 ZAR  HZ EP        4 0  8.36                             122    0.29 8  209 292 
 ZAR  HE ES        4 0 33.65                             122   -0.24 8  209 292 
 ZAR  HZ I         4 0 39.43        49.0 0.22            123            209 292 
 TABC EZ EP   9    4 0 13.56                             120    2.42 0  232 212 
 TABC EZ ES        4 0 42.09                             119    0.32 8  232 212 
 TABC EZ I         4 0 44.50        18.7 0.44            120            232 212 
 NOR  HZ EP        4 0 10.79                             119   -0.48 8  238 235 
 NOR  HE ES        4 0 39.55                             119   -0.04 8  238 235 
 NOR  HZ I         4 0 41.75        20.0 0.16            119            238 235 
 CHI  HZ EP        4 0 13.64                             118    0.69 8  250 196 
 CHI  HE ES   2    4 0 43.23                             118    0.65 4  250 196 
 CHI  HZ I         4 0 49.18         8.5 0.38            118            250 196 
 ROSC BZ EP        4 0 13.41                             117   -0.09 8  255 212 
 ROSC BN ES        4 0 44.84                             117    1.28 8  255 212 
 HEL  HZ EP        4 0 16.59                             115    0.75 7  277 256 
 HEL  HE ES        4 0 47.71                             115   -0.01 7  277 256 
 HEL  HZ I         4 0 54.95        12.5 0.44            115            277 256 
 VIL  EZ EP        4 0 18.05                             113   -0.56 7  304 192 
 VIL  EN ES        4 0 53.64                             113    0.99 7  304 192 
 VIL  EZ I         4 0 58.20        15.2 0.32            113            304 192 
 PTGC HZ EP        4 0 17.98                             112   -0.76 7  307 159 
 PTGC HE ES        4 0 51.00                             112   -1.89 7  307 159 
 ELA  HZ EP   9    4 0 25.50                             111    3.16 0  333 230 
 ELA  HE ES        4 1  4.20                             110    1.74 7  333 230 
 ELA  HZ I         4 1  7.01         9.4 0.28            111            333 230 
 CBOC HZ EP        4 0 23.33                             110    0.81 7  338 252 
 CBOC HE ES        4 0 58.73                             110   -0.88 7  338 252 
 CBOC HZ I         4 1 10.38         8.7 0.80            111            338 252 
 DBB  EZ EP   4    4 0 25.69                             110    2.58 0  344 274 
 DBB  EN ES   4    4 0 59.59                             110   -1.07 0  344 274 
 ORTC HZ EP   4    4 0 29.59                             107    0.29 0  398 217 
 ORTC HN ES   4    4 1 13.35                             107    1.67 0  398 217 
 ORTC HZ I         4 1 15.72         5.0 0.26            107            398 217 
 APAC HN ES        4 1 12.01                             107   -0.55 6  403 288 
 PAL  HZ EP   4    4 0 30.91                             106    0.22 0  410 239 
 PAL  HN ES   4    4 1 10.48                             106   -3.68 0  410 239 
 PAL  HZ I         4 1 27.63         4.9 0.72            107            410 239 
 SJC  HZ EP   4    4 0 28.92                             106   -2.03 0  412 326 
 SJC  HN ES   4    4 1 10.77                             106   -3.85 0  412 326 
 SJC  HZ I         4 1 14.59         7.5 0.62            108            412 326 
                                                                                
