 2016 1211 0720  1.9 L   6.881 -73.028142.3  RSN  6 0.3 1.3LRSN                1
 GAP=255        0.93       5.8     6.1  6.7  0.1338E+02  0.7858E+01  0.7248E+00E
 Epicentro: PIEDECUESTA - SANTANDER                                            3
 ACTION:UPD 17-01-11 20:14 OP:rebc STATUS:               ID:20161211072001 L   I
 OLDACT:REG 16-12-11 13:02 OP:edw  STATUS:               ID:20161211071746     3
 2016-12-11-0718-00M.COL___373                                                 6
 STAT SP IPHASW D HRMM SECON CODA AMPLIT PERI AZIMU VELO AIN AR TRES W  DIS CAZ7
 BAR2 EZ EP        720 21.38                             165   -0.1010 36.2 208 
 BAR2 EZ ES        720 36.72                             165   -0.0010 36.2 208 
 BAR2 EZ I         720 37.59         3.0 0.17            166           36.2 208 
 BRR  HZ EP        720 23.27                             149    0.0610 79.6 288 
 BRR  HN ES        720 40.19                             149    0.3910 79.6 288 
 RUS  HN ES        720 44.46                             141   -0.3310  110 183 
 RUS  HZ I         720 45.81         3.0 0.32            141            110 183 
 PTB  HZ EP   9    720 28.46                             128   -1.53 0  162 257 
 PTB  HN ES        720 49.64                                   -0.70 9  162 257 
 PTB  HZ I         720 51.54         2.1 0.10            128            162 257 
 ZAR  HN ES        721  0.39                             120   -0.58 8  213 289 
 ZAR  HZ I         721  3.65         2.3 0.11            120            213 289 
 GUY2CHZ EP        720 47.56                             110    0.38 7  317 235 
 GUY2CHE ES        721 22.88                             110    0.41 7  317 235 
 GUY2CHZ I         721 27.96         1.1 0.58                           317 235 
                                                                                
