 2014  611 0338  4.8 L   6.750 -73.180147.3  RSN  9 0.4 1.8LRSN                1
 GAP=134        0.96       3.5     4.9  7.7 -0.2588E+01  0.1018E+02 -0.6689E+01E
 Epicentro: VILLANUEVA - SANTANDER                                             3
 ACTION:UPD 14-07-01 22:52 OP:nd   STATUS:               ID:20140611033804 L   I
 OLDACT:DUP 14-06-11 15:59 OP:mh   STATUS:               ID:20140611032820d    3
 2014-06-11-0328-19M.COL___253                                                 6
 STAT SP IPHASW D HRMM SECON CODA AMPLIT PERI AZIMU VELO AIN AR TRES W  DIS CAZ7
 BAR2 SZ IP     D  338 24.91                             173    0.3510 17.5 181 
 BAR2 SZ ES   1    338 39.92                             173   -0.01 7 17.5 181 
 BAR2 SZ I         338 41.92        21.3 0.28            172           17.5 181 
 PAM  SZ EP        338 27.97                             149    0.3410 84.0  39 
 PAM  SN ES   1    338 45.86                             149    0.46 7 84.0  39 
 PAM  SZ I         338 49.18         6.3 0.68            153           84.0  39 
 RUS  HZ EP        338 28.40                             146    0.0210 95.4 174 
 RUS  HN ES   1    338 45.88                             146   -0.86 7 95.4 174 
 RUS  HZ I         338 48.51        10.5 0.29            153           95.4 174 
 PTB  HZ EP   1    338 31.77                             133    0.25 7  143 261 
 PTB  HN ES   1    338 51.54                             133   -0.79 7  143 261 
 PTB  HZ I         338 56.74         6.6 0.12            134            143 261 
 SPBC HZ EP        338 32.81                             131   -0.03 9  157 219 
 SPBC HN ES        338 55.02                             131    0.35 9  157 219 
 SPBC HZ I         339  0.51         5.0 0.34            134            157 219 
 OCA  HZ EP        338 33.01                             129   -0.74 9  165 355 
 OCA  HN ES   1    338 56.03                             129   -0.27 7  165 355 
 OCA  HZ I         339  6.03         6.9 0.52            132            165 355 
 ZAR  HZ EP        338 37.35                             123    0.09 9  203 294 
 ZAR  HN ES   1    339  3.27                             123    0.73 6  203 294 
 ZAR  HZ I         339 10.12         8.5 0.09            124            203 294 
 SML  HZ EP   2    338 41.46                             117   -0.48 4  247 337 
 SML  HN ES        339 10.81                             117   -0.06 8  247 337 
 HEL  HZ EP   4    338 46.10                             115    1.51 0  267 257 
 HEL  HN ES   4    339 18.05                             115    2.46 0  267 257 
 HEL  HZ I         339 23.66         2.6 0.30            118            267 257 
                                                                                
