 2011  511 0412 36.8 L   6.774 -73.135145.1  RSN  4 0.0 1.2LRSN                1
 GAP=160        0.30       4.4    16.6  9.8 -0.1707E+02 -0.4436E+02 -0.2775E+02E
 Epicentro: LOS SANTOS - SANTANDER                                             3
 ACTION:UP  11-06-29 08:52 OP:tino STATUS:               ID:20110511041236 L   I
 2011-05-11-0409-32S.COL___132                                                 6
 STAT SP IPHASW D HRMM SECON CODA AMPLIT PERI AZIMU VELO SNR AR TRES W  DIS CAZ7
 BAR2 SZ EP        412 56.30                             172     0.010   21 194 
 BAR2 SZ I         412 56.72         5.0 0.03                            21 194 
 GIR2 SZ EP   1    412 56.55                             166     0.0 7   34 349 
 GIR2 SZ ES   3    413 11.78                             166    -0.1 2   34 349 
 RUS  HZ EP   3    413  0.20                             145    -0.1 2   98 177 
 RUS  HN ES   2    413 18.64                             145     0.0 5   98 177 
 RUS  HZ I         413 19.51         1.8 0.41                            98 177 
 GRA  SZ EP        413  2.21                             136     0.010  128  17 
                                                                                
