 2013  811 0023 13.2 L   6.787 -73.195142.4  RSN  8 0.3 1.4LRSN                1
 GAP=131        0.75       3.8     4.1  5.7  0.3043E+01  0.2419E+01  0.4516E+00E
 Epicentro: ZAPATOCA - SANTANDER                                               3
 ACTION:UPD 14-01-14 09:00 OP:ep   STATUS:               ID:20130811002313 L   I
 OLDACT:REG 13-08-11 07:24 OP:jn   STATUS:               ID:20130811001959     3
 2013-08-11-0019-59M.COL___271                                                 6
 STAT SP IPHASW D HRMM SECON CODA AMPLIT PERI AZIMU VELO AIN AR TRES W  DIS CAZ7
 BAR2 SZ ES        023 47.25                             171   -0.1110 21.6 176 
 BAR2 SZ I         023 48.49         9.0 0.74            166           21.6 176 
 GIR2 SZ ES   1    023 47.10                             167   -0.45 7 32.2   0 
 BRR  HZ EP        023 34.09                             153    0.3210 67.2 302 
 BRR  HN ES   1    023 50.61                             153    0.81 7 67.2 302 
 PAM  SZ EP        023 35.17                             149   -0.1810 82.0  42 
 PAM  SZ I         023 54.60         4.5 0.24            131           82.0  42 
 RUS  HZ EP        023 36.65                             143    0.0910 99.7 173 
 RUS  HN ES        023 54.87                             143    0.0910 99.7 173 
 RUS  HZ I         023 55.98         2.2 0.68            138           99.7 173 
 PTB  HZ EP   1    023 39.18                             132   -0.21 7  142 259 
 PTB  HN ES        023 59.42                             132   -0.39 9  142 259 
 PTB  HZ I         024  2.05         3.2 0.16            129            142 259 
 ZAR  HN ES   1    024  9.76                             122    0.01 6  200 293 
 CHI  HN ES   1    024 19.54                             117    0.09 6  246 194 
                                                                                
