 2014 1011 0605  7.3 L   6.815 -73.142148.1  RSN 26 0.6 2.8LRSN                1
 GAP= 71        1.22       2.6     3.4  5.3 -0.3243E+00  0.5419E+01  0.1900E+01E
 Epicentro: LOS SANTOS - SANTANDER                                             3
 ACTION:UPD 14-11-29 23:48 OP:nd   STATUS:               ID:20141011060507 L   I
 OLDACT:REG 14-10-11 12:59 OP:fm   STATUS:               ID:20141011055739     3
 2014-10-11-0557-39M.COL___291                                                 6
 STAT SP IPHASW D HRMM SECON CODA AMPLIT PERI AZIMU VELO AIN AR TRES W  DIS CAZ7
 BAR2 SZ EP     C  6 5 27.18                             170   -0.0310 25.0 190 
 BAR2 SZ ES   1    6 5 42.25                             170   -0.52 7 25.0 190 
 BAR2 SZ I         6 5 44.89       227.6 0.28            168           25.0 190 
 BRR  HZ EP     C  6 5 29.05                             153    0.4010 70.8 297 
 BRR  HN ES        6 5 46.25                             153    0.9210 70.8 297 
 BRR  HZ I         6 5 49.99        70.5 0.12            151           70.8 297 
 PAM  SZ IP     C  6 5 29.94                             152    0.3010 75.8  40 
 PAM  SN ES        6 5 47.05                             152   -0.0510 75.8  40 
 PAM  SZ I         6 5 49.33       110.9 0.20            156           75.8  40 
 RUS  HZ EP     D  6 5 31.02                             144   -0.3510  102 176 
 RUS  HE ES        6 5 49.64                             144   -0.5210  102 176 
 RUS  HZ I         6 5 50.77        44.7 0.48            145            102 176 
 PTB  HZ EP        6 5 33.78                             132   -0.71 9  148 258 
 PTB  HN ES        6 5 54.91                             132   -0.82 9  148 258 
 PTB  HZ I         6 6  1.00        97.5 0.18            132            148 258 
 TAM  HZ EP     D  6 5 35.36                             131    0.23 9  155 106 
 TAM  HN ES        6 5 56.83                             131   -0.04 9  155 106 
 TAM  HZ I         6 5 57.74        38.6 0.26            135            155 106 
 OCA  HZ EP        6 5 34.89                             130   -0.72 9  159 353 
 OCA  HN ES        6 5 57.82                             130    0.10 9  159 353 
 OCA  HZ I         6 6  5.75        74.1 0.18            132            159 353 
 SPBC HZ EP        6 5 36.04                             129   -0.05 9  165 219 
 SPBC HN ES        6 5 58.60                             129    0.02 9  165 219 
 SPBC HZ I         6 6  3.23       119.3 0.42            130            165 219 
 ZAR  HZ EP        6 5 39.75                             123   -0.09 9  204 292 
 ZAR  HN ES        6 6  5.55                             123    0.30 9  204 292 
 ZAR  HZ I         6 6 10.80        81.1 0.32            123            204 292 
 SML  HZ EP        6 5 43.50                             118   -0.38 8  242 335 
 SML  HE ES        6 6 13.40                             118    0.96 8  242 335 
 SML  HZ I         6 6 15.69       118.4 0.10            119            242 335 
 CHI  HZ EP        6 5 45.14                             117   -0.14 8  250 195 
 CHI  HN ES        6 6 14.45                             117   -0.48 8  250 195 
 CHI  HZ I         6 6 20.50        25.1 0.36            119            250 195 
 ROSC BZ EP        6 5 46.74                             117    1.05 8  254 211 
 ROSC BN ES   4    6 6 17.96                             117    2.30 0  254 211 
 ROSC BZ I         6 6 25.13        76.1 0.35            118            254 211 
 URE  HZ EP        6 5 47.62                             114   -0.81 7  284 292 
 URE  HN ES   4    6 6 17.95                             114   -2.58 0  284 292 
 URE  HZ I         6 6 31.31        30.5 0.30            115            284 292 
 GUY2CHZ EP        6 5 51.29                             113    0.16 7  302 235 
 GUY2CHE ES   4    6 6 28.03                             113    2.69 0  302 235 
 GUY2CHZ I         6 6 34.07        62.6 0.76                           302 235 
 VIL  SZ EP        6 5 50.28                             112   -0.70 7  305 192 
 VIL  SE ES        6 6 26.61                             112    1.53 7  305 192 
 VIL  SZ I         6 6 35.54        37.8 0.64            114            305 192 
 PTGC HZ EP   4    6 5 50.02                             112   -1.36 0  310 159 
 PTGC HN ES   4    6 6 21.64                             112   -4.16 0  310 159 
 CBOC HZ EP        6 5 54.89                             110    0.51 7  335 252 
 CBOC HN ES        6 6 30.61                             110   -0.52 7  335 252 
 CBOC HZ I         6 6 40.21        12.1 0.40            111            335 252 
 DBB  SZ EP        6 5 54.72                             110   -0.15 7  340 274 
 DBB  SZ ES   1    6 6 31.49                             110   -0.51 5  340 274 
 TOL  SZ EP        6 5 56.31                             110    0.52 7  345 224 
 TOL  SN ES        6 6 34.40                             110    0.77 7  345 224 
 ARGC HZ EP        6 5 57.23                             109    0.38 6  358 340 
 ARGC HN ES        6 6 35.30                             109   -0.22 6  358 340 
 ARGC HZ I         6 6 38.65        14.8 0.30            110            358 340 
 ANIL HZ EP   4    6 5 58.80                             109    1.47 0  359 224 
 ANIL HN ES   4    6 6 38.24                             109    1.86 0  359 224 
 ANIL HZ I         6 6 41.27        10.0 0.38            110            359 224 
 PRA  HZ EP        6 6  0.55                             107   -0.51 6  394 210 
 PRA  HN ES        6 6 44.14                             107    1.12 6  394 210 
 PRA  HZ I         6 6 48.64        38.8 0.62            108            394 210 
 ORTC HZ EP        6 6  1.21                             107   -0.24 6  397 216 
 ORTC HN ES        6 6 44.27                             107    0.56 6  397 216 
 ORTC HZ I         6 6 51.82        24.8 0.60            108            397 216 
 PAL  HZ EP        6 6  2.62                             106   -0.03 6  407 239 
 PAL  HN ES        6 6 45.17                             106   -0.67 6  407 239 
 PAL  HZ I         6 6 48.71         9.3 0.20            107            407 239 
 SJC  HZ EP   4    6 6  0.99                             106   -1.78 0  408 327 
 SJC  HN ES   4    6 6 41.60                             106   -4.46 0  408 327 
 SJC  HZ I         6 6 55.11        10.1 0.32            107            408 327 
 GUA  SZ EP   4    6 6  8.72                             103   -1.95 0  476 173 
 GUA  SN ES   4    6 6 59.70                             103   -0.43 0  476 173 
 GUA  SZ I         6 7  7.06        18.2 0.28            105            476 173 
 SMAR HZ EP   4    6 6 10.35                             103   -2.67 0  495 346 
 SMAR HN ES   4    6 6 59.46                             103   -4.85 0  495 346 
 SMAR HZ I         6 7  6.67        14.2 0.18            104            495 346 
 MACC HZ EP   4    6 6 13.61                             102   -2.63 0  522 189 
                                                                                
