 2014  911 0923 10.3 L   6.772 -73.260146.0  RSN  7 0.4 1.8LRSN                1
 GAP=210        0.82       4.3     4.6  7.2  0.5980E+01  0.3956E+01  0.4190E+01E
 Epicentro: ZAPATOCA - SANTANDER                                               3
 ACTION:UPD 14-10-03 23:04 OP:nd   STATUS:               ID:20140911092310 L   I
 OLDACT:UP  14-09-11 14:51 OP:mh   STATUS:               ID:20140911092000     3
 OLDACT:REG 14-09-11 12:24 OP:mh   STATUS:               ID:20140911092000     3
 2014-09-11-0920-00M.COL___285                                                 6
 STAT SP IPHASW D HRMM SECON CODA AMPLIT PERI AZIMU VELO AIN AR TRES W  DIS CAZ7
 BAR2 SZ EP        923 29.66                             171   -0.2310 21.6 157 
 BAR2 SZ I         923 45.93        14.9 0.11            170           21.6 157 
 BRR  HZ EP        923 31.21                             156    0.2510 62.2 307 
 BRR  HN ES        923 47.56                             156    0.4610 62.2 307 
 BRR  HZ I         923 49.02        14.9 0.08            154           62.2 307 
 RUS  HZ EP        923 33.71                             145   -0.2310 99.2 169 
 RUS  HN ES        923 52.36                             145   -0.0410 99.2 169 
 RUS  HZ I         923 54.11         3.8 0.24            143           99.2 169 
 PTB  HZ EP        923 35.58                             135   -0.5210  135 259 
 PTB  HN ES   1    923 55.74                             135   -0.51 7  135 259 
 PTB  HZ I         923 57.35        10.9 0.42            134            135 259 
 SPBC HZ EP   1    923 38.22                             131    0.39 7  153 216 
 SPBC HN ES   1    923 59.74                             131    0.41 7  153 216 
 SPBC HZ I         924  1.11         8.4 0.18            130            153 216 
 ZAR  HN ES        924  5.94                             124   -0.21 9  194 294 
 ZAR  HZ I         924 12.16        10.5 0.31            122            194 294 
 NOR  HZ EP   1    923 45.32                             120    0.60 6  223 233 
 NOR  HN ES        924 11.67                             120    0.07 8  223 233 
 NOR  HZ I         924 18.05         4.0 0.21            119            223 233 
                                                                                
