 2014 1011 0706  3.6 L   6.799 -73.134148.0  RSN 22 0.5 2.4LRSN                1
 GAP= 72        1.14       2.6     3.2  5.4 -0.8146E+00  0.5161E+01  0.1881E+01E
 Epicentro: LOS SANTOS - SANTANDER                                             3
 ACTION:UPD 14-11-29 23:48 OP:nd   STATUS:               ID:20141011070603 L   I
 OLDACT:REG 14-10-11 13:01 OP:fm   STATUS:               ID:20141011065740     3
 2014-10-11-0657-40M.COL___292                                                 6
 STAT SP IPHASW D HRMM SECON CODA AMPLIT PERI AZIMU VELO AIN AR TRES W  DIS CAZ7
 BAR2 SZ EP        7 6 23.41                             171   -0.0910 23.5 193 
 BAR2 SZ ES   1    7 6 38.78                             171   -0.24 7 23.5 193 
 BAR2 SZ I         7 6 40.81        55.2 0.28            169           23.5 193 
 BRR  HZ IP     C  7 6 25.41                             153    0.3610 72.3 298 
 BRR  HN ES        7 6 42.60                             153    0.8210 72.3 298 
 BRR  HZ I         7 6 44.46        43.4 0.14            151           72.3 298 
 PAM  SZ EP        7 6 26.26                             151    0.2610 76.6  39 
 PAM  SN ES        7 6 43.49                             151    0.0110 76.6  39 
 PAM  SZ I         7 6 46.06        67.3 0.60            156           76.6  39 
 RUS  HZ EP        7 6 27.24                             144   -0.3210  100 177 
 RUS  HE ES        7 6 45.74                             144   -0.5110  100 177 
 RUS  HZ I         7 6 48.52        22.3 0.44            146            100 177 
 PTB  HZ EP        7 6 30.17                             132   -0.69 9  149 259 
 PTB  HN ES        7 6 51.42                             132   -0.70 9  149 259 
 PTB  HZ I         7 6 57.12        35.4 0.38            132            149 259 
 TAM  HZ EP     D  7 6 31.61                             131    0.27 9  154 105 
 TAM  HE ES        7 6 53.13                             131    0.16 9  154 105 
 OCA  HZ EP        7 6 31.65                             130   -0.45 9  160 353 
 OCA  HN ES        7 6 54.47                             130    0.14 9  160 353 
 OCA  HZ I         7 6 57.16        23.0 0.38            132            160 353 
 SPBC HZ EP        7 6 32.38                             129    0.04 9  164 219 
 SPBC HN ES        7 6 54.65                             129   -0.11 9  164 219 
 SPBC HZ I         7 6 57.02        24.4 0.48            130            164 219 
 ZAR  HZ EP        7 6 35.46                             123   -0.85 8  205 292 
 ZAR  HN ES        7 7  1.54                             123   -0.29 8  205 292 
 ZAR  HZ I         7 7  7.28        32.3 0.24            123            205 292 
 SML  HZ EP        7 6 39.76                             118   -0.65 8  244 335 
 SML  HE ES        7 7  9.60                             118    0.47 8  244 335 
 SML  HZ I         7 7 12.83        25.9 0.36            119            244 335 
 CHI  HZ EP        7 6 41.42                             118   -0.03 8  249 195 
 CHI  HN ES        7 7 10.79                             118   -0.18 8  249 195 
 CHI  HZ I         7 7 16.32         7.7 0.30            119            249 195 
 ROSC BN ES   1    7 7 12.92                             117    1.14 6  253 211 
 ROSC BZ I         7 7 18.40        11.5 0.30            118            253 211 
 URE  HZ EP   1    7 6 46.05                             114    1.14 6  285 292 
 URE  HN ES   4    7 7 14.69                             114   -2.44 0  285 292 
 URE  HZ I         7 7 26.60        18.5 0.24            115            285 292 
 GUY2CHZ EP        7 6 48.45                             113    1.03 7  302 235 
 GUY2CHN ES        7 7 22.40                             113    0.80 7  302 235 
 GUY2CHZ I         7 7 29.74         9.9 0.54                           302 235 
 PTGC HZ EP   4    7 6 45.77                             112   -1.72 0  308 159 
 PTGC HN ES   4    7 7 18.82                             112   -2.91 0  308 159 
 PTGC HZ I         7 7 20.78         8.8 0.38            114            308 159 
 CBOC HZ EP        7 6 51.52                             110    0.78 7  335 252 
 CBOC HN ES   4    7 7 25.89                             110   -1.62 0  335 252 
 DBB  SZ EP        7 6 51.05                             110   -0.26 7  341 274 
 DBB  SZ ES   1    7 7 28.46                             110   -0.06 5  341 274 
 TOL  SZ EP   4    7 6 54.81                             110    2.77 0  344 225 
 TOL  SN ES        7 7 30.72                             110    0.90 7  344 225 
 TOL  SZ I         7 7 40.53        13.4 0.28            111            344 225 
 PRA  HZ EP        7 6 57.48                             107    0.22 6  393 210 
 PRA  HN ES        7 7 38.89                             107   -0.23 6  393 210 
 PRA  HZ I         7 7 42.64         7.8 0.54            108            393 210 
 ORTC HZ EP   1    7 6 57.47                             107   -0.20 4  396 216 
 ORTC HN ES        7 7 39.91                             107    0.06 6  396 216 
 ORTC HZ I         7 7 46.05         5.3 0.30            108            396 216 
 PAL  HZ EP        7 6 57.95                             106   -1.00 6  407 239 
 PAL  HN ES        7 7 41.79                             106   -0.34 6  407 239 
 PAL  HZ I         7 7 47.61         4.5 0.46            107            407 239 
 SJC  HZ EP   4    7 6 57.80                             106   -1.52 0  410 327 
 SJC  HN ES   4    7 7 38.20                             106   -4.58 0  410 327 
 SJC  HZ I         7 7 43.66         6.1 0.74            107            410 327 
                                                                                
