 2011 1011 0938  1.4 L   6.784 -73.100132.0  RSN  6 0.2 1.7LRSN                1
 GAP=143        0.54       2.9     6.4  7.1  0.6432E+01 -0.1698E+02 -0.8311E+01E
 Epicentro: LOS SANTOS - SANTANDER                                             3
 ACTION:UPD 12-07-13 16:03 OP:ep   STATUS:               ID:20111011093801 L   I
 2011-10-11-0920-00M.COL___171                                                 6
 STAT SP IPHASW D HRMM SECON CODA AMPLIT PERI AZIMU VELO AIN AR TRES W  DIS CAZ7
 BAR2 SZ EP        938 19.49                             170    0.1010 23.1 203 
 BAR2 SZ I         938 32.22        12.1 0.65                          23.1 203 
 PAM  SZ EP        938 22.33                             149    0.2510 75.7  36 
 BRR  HZ EP        938 21.19                             149   -0.2410 76.5 298 
 BRR  HE ES   1    938 37.44                             149    0.40 7 76.5 298 
 BRR  HZ I         938 42.06        18.0 0.16                          76.5 298 
 RUS  HZ EP   1    938 23.53                             142   -0.16 7 98.6 179 
 RUS  HN ES        938 40.99                             142   -0.0710 98.6 179 
 RUS  HZ I         938 43.86         3.1 0.27                          98.6 179 
 OCA  SZ EP   1    938 28.68                             126   -0.26 7  163 351 
 OCA  SZ ES   1    938 50.21                             126   -0.19 7  163 351 
 OCA  SZ I         938 52.94         9.2 0.23                           163 351 
 PRA  HZ EP   2    938 55.19                             104    0.57 3  393 210 
                                                                                
