 2011  511 0825 51.2 L   6.810 -73.129138.9  RSN 19 0.6 3.0LRSN                1
 GAP=138        1.24       6.2     8.2  7.6 -0.2835E+02  0.1681E+02  0.1060E+02E
 Epicentro: LOS SANTOS - SANTANDER                                             3
 ACTION:UP  11-06-29 08:52 OP:tino STATUS:               ID:20110511082551 L   I
 2011-05-11-0824-50S.COL___132                                                 6
 STAT SP IPHASW D HRMM SECON CODA AMPLIT PERI AZIMU VELO SNR AR TRES W  DIS CAZ7
 BTL  SZ IP        826 10.13                             172     0.210   19 308 
 BTL  SZ ES   1    826 24.83                             172     0.3 7   19 308 
 BAR2 SZ IP        826  9.92                             169    -0.110   25 194 
 BAR2 SZ I         826 10.06       141.1 0.08                            25 194 
 GIR2 SZ IP        826  9.97                             167    -0.110   31 346 
 GIR2 SZ ES   1    826 24.38                             167    -0.3 7   31 346 
 BRR  HZ IP        826 11.69                             151     0.010   72 297 
 BRR  HZ I         826 12.13       152.5 0.04                            72 297 
 BRR  HN ES   2    826 28.33                             151     0.7 5   72 297 
 PAM  SZ EP        826 12.74                             150     0.210   75  39 
 PAM  SN ES   1    826 29.50                             150     0.3 7   75  39 
 RUS  HZ EP        826 13.94                             142    -0.410  102 177 
 RUS  HZ I         826 34.10        76.9 0.29                           102 177 
 BRI  SZ EP        826 14.43                             140     0.110  107  20 
 BRI  SZ ES   1    826 32.18                             140    -0.1 7  107  20 
 GUE  SZ EP        826 15.39                             138     0.210  115  11 
 GRA  SZ IP        826 15.64                             136     0.010  124  17 
 GRA  SZ ES   1    826 34.96                             136     0.2 7  124  17 
 GRA  SZ I         826 36.94      2304.3 0.15                           124  17 
 OCA  SZ EP        826 18.41                             128    -0.5 9  159 352 
 OCA  SZ ES   2    826 39.13                             128    -1.4 5  159 352 
 OCA  SZ I         826 43.61        67.0 0.41                           159 352 
 NOR  SZ EP        826 25.72                             117    -1.0 8  237 235 
 NOR  SN ES   2    826 53.13                             117    -1.4 4  237 235 
 HEL  HZ EP        826 31.91                             113     0.6 8  274 256 
 HEL  HZ I         827  9.42        23.4 0.24                           274 256 
 GUY  SZ EP   1    826 35.15                             111     0.2 5  306 235 
 GUY  SN ES   2    827  9.38                             111     0.2 4  306 235 
 GUY  SZ I         827 13.96        38.9 0.28                           306 235 
 RREF HZ EP        826 38.53                             109     1.2 7  324 229 
 RREF HZ I         827 17.25        32.3 0.25                           324 229 
 DBB  SZ EP        826 38.54                             108    -0.1 7  341 274 
 TOL  SZ EP        826 39.71                             108     0.3 6  346 225 
 MON  HZ EP   4    826 37.35                             107    -2.7 0  354 308 
 ANIL HZ EP   2    826 42.92                             107     1.9 3  359 225 
 ANIL HZ I         827 26.24        82.1 0.42                           359 225 
 PRA  HZ EP        826 44.11                             105    -0.6 6  394 210 
 SJA  SZ EP   4    826 44.10                             105    -1.6 0  402 193 
 SJA  SZ ES   4    827 25.11                             105    -3.1 0  402 193 
 SJA  SZ I         827 32.90        41.6 0.51                           402 193 
                                                                                
