 2017 1111 0600  9.7 L   6.674 -74.062  2.0  RSN 19 0.6 2.5LRSN                1
 GAP= 83        1.37       2.5     2.4  5.3 -0.5793E+00  0.2578E+01  0.1938E+01E
 Epicentro: PUERTO PARRA - SANTANDER                                           3
 ACTION:UPD 17-12-12 19:54 OP:rebc STATUS:               ID:20171111060009 L   I
 OLDACT:UP  17-11-11 16:55 OP:dnl  STATUS:               ID:20171111055744     3
 OLDACT:UP  17-11-11 16:55 OP:dnl  STATUS:               ID:20171111055744     3
 OLDACT:UP  17-11-11 16:54 OP:dnl  STATUS:               ID:20171111055744     3
 OLDACT:UP  17-11-11 16:52 OP:dnl  STATUS:               ID:20171111055744     3
 OLDACT:REG 17-11-11 14:21 OP:dnl  STATUS:               ID:20171111055744     3
 2017-11-11-0558-00M.COL___441                                                 6
 STAT SP IPHASW D HRMM SECON CODA AMPLIT PERI AZIMU VELO AIN AR TRES W  DIS CAZ7
 PTB  HZ IP     D  6 0 16.90                              47   -0.6610 46.0 251 
 PTB  HN ES        6 0 22.95                              47   -0.7410 46.0 251 
 PTB  HZ I         6 0 23.24       168.3 0.30             47           46.0 251 
 BRR  HZ IP     D  6 0 19.95                              47    0.0410 61.6  39 
 BRR  HN ES        6 0 28.38                              47    0.5110 61.6  39 
 BRR  HZ I         6 0 29.09       282.3 0.12             47           61.6  39 
 BAR2 EZ IP     D  6 0 25.33                              47   -0.2910 97.7  95 
 BAR2 EZ ES        6 0 37.32                              47   -0.7310 97.7  95 
 BAR2 EZ I         6 0 43.69       121.5 0.40             47           97.7  95 
 SPBC HZ EP        6 0 27.62                              47   -0.1610  113 181 
 SPBC HN ES        6 0 41.07                              47   -0.8110  113 181 
 SPBC HZ I         6 0 45.57        45.5 0.18             47            113 181 
 ZAR  HZ EP        6 0 29.30                              47   -0.4010  126 316 
 ZAR  HE ES        6 0 44.87                              47   -0.4310  126 316 
 ZAR  HZ I         6 0 45.49       155.2 0.46             47            126 316 
 NOR  HZ EP   4    6 0 32.27                              47   -1.35 0  152 216 
 NOR  HN ES   4    6 0 50.38                              47   -1.91 0  152 216 
 NOR  HZ I         6 0 51.10        40.9 0.30             47            152 216 
 PAM  EZ EP        6 0 36.67                              47    0.20 9  168  64 
 PAM  EE ES   4    6 0 57.09                              47   -0.27 0  168  64 
 PAM  EZ I         6 1  0.04       133.4 0.26             47            168  64 
 URE  HZ EP        6 0 41.20                              37    0.72 9  201 306 
 URE  HN ES        6 1  4.65                              37    0.16 9  201 306 
 URE  HZ I         6 1  8.21        88.8 0.26             37            201 306 
 ROSC BN ES        6 1  7.19                              37    1.15 9  205 188 
 GUY2CHZ EP        6 0 42.72                              37   -0.08 8  216 222 
 GUY2CHN ES   4    6 1  7.39                              37   -1.24 0  216 222 
 GUY2CHZ I         6 1 11.20        50.2 0.42                           216 222 
 CHI  HZ EP        6 0 45.14                              37    0.74 8  229 171 
 CHI  HE ES   4    6 1 12.76                              37    1.29 0  229 171 
 CHI  HZ I         6 1 20.83        11.8 0.42             37            229 171 
 YPLC HZ EP   4    6 0 47.42                              37    2.84 0  234 127 
 YPLC HZ I         6 1 22.77        40.5 0.56             37            234 127 
 CBOC HZ EP        6 0 45.44                              37    0.76 8  234 248 
 CBOC HN ES        6 1 12.20                              37    0.22 8  234 248 
 CBOC HZ I         6 1 19.38        24.0 0.60             37            234 248 
 ELA  HZ EP        6 0 48.10                              37    1.02 8  249 217 
 ELA  HN ES   4    6 1 14.76                              37   -1.48 0  249 217 
 ELA  HZ I         6 1 21.75        50.1 0.38             37            249 217 
 TAM  HZ EP   4    6 0 49.60                              37    2.70 0  253  96 
 TAM  HE ES   4    6 1 19.42                              37    3.50 0  253  96 
 TAM  HZ I         6 1 26.89        16.2 0.44             37            253  96 
 ANIL HN ES        6 1 22.95                              37   -0.37 7  283 212 
 ANIL HZ I         6 1 31.12        36.3 0.32             37            283 212 
 PAL  HZ EP   9    6 0 58.11                              36    3.51 0  314 232 
 PAL  HN ES        6 1 33.06                              36   -0.08 7  314 232 
 PAL  HZ I         6 1 38.85        12.2 0.40             36            314 232 
 ORTC HZ EP   2    6 0 57.09                              36    0.24 3  333 203 
 ORTC HE ES   4    6 1 36.44                              36    2.81 0  333 203 
 ORTC HZ I         6 1 47.29         7.0 0.42             36            333 203 
 PRA  HZ EP   2    6 0 58.75                              36    1.02 3  340 196 
 PRA  HE ES        6 1 35.86                              36    0.66 7  340 196 
 PRA  HZ I         6 1 52.29        14.5 0.52             36            340 196 
                                                                                
