 2011  811 0638 35.1 L   6.775 -73.115144.6  RSN 10 0.3 2.2LRSN                1
 GAP=142        0.46       2.1     3.8  3.7 -0.1238E+01  0.3507E+01  0.5305E+00E
 Epicentro: LOS SANTOS - SANTANDER                                             3
 ACTION:UPD 12-07-13 15:51 OP:ep   STATUS:               ID:20110811063835 L   I
 2011-08-11-0620-00M.COL___151                                                 6
 STAT SP IPHASW D HRMM SECON CODA AMPLIT PERI AZIMU VELO AIN AR TRES W  DIS CAZ7
 BAR2 SZ EP        638 54.73                             171    0.2210 21.6 200 
 BAR2 SZ ES   1    639  9.58                             171   -0.10 7 21.6 200 
 BAR2 SZ I         639 10.90        67.4 0.23                          21.6 200 
 BRR  HZ EP   1    638 56.10                             151   -0.22 7 75.5 299 
 BRR  HZ I         638 58.62        45.5 0.08                          75.5 299 
 BRR  HN ES   1    639 13.30                             151    0.39 7 75.5 299 
 PAM  SZ EP   2    638 56.94                             151   -0.21 5 77.4  36 
 PAM  SN ES   2    639 14.62                             151    0.24 5 77.4  36 
 RUS  HZ EP   1    638 58.23                             144   -0.25 7 97.7 178 
 RUS  HN ES   1    639 16.64                             144   -0.12 7 97.7 178 
 RUS  HZ I         639 18.37        21.5 0.26                          97.7 178 
 OCA  SZ EP   1    639  3.66                             129    0.09 7  163 352 
 OCA  SZ ES   1    639 25.49                             129   -0.32 7  163 352 
 OCA  SZ I         639 33.80        23.8 0.30                           163 352 
 NOR  SZ EP   1    639 10.68                             118   -0.16 6  236 235 
 NOR  SN ES   1    639 38.49                             118   -0.27 6  236 235 
 CHI  HZ EP   2    639 12.62                             117    0.12 4  247 196 
 CHI  HE ES   2    639 42.22                             117    0.51 4  247 196 
 CHI  HZ I         639 45.79         4.4 0.50                           247 196 
 RREF HZ EP   2    639 21.71                             111    0.47 3  323 230 
 DBB  SZ EP   2    639 23.23                             109    0.34 3  343 275 
 PRA  HZ EP   2    639 28.65                             106    0.20 3  391 210 
                                                                                
