 2012  211 0642 24.9 L   6.710 -73.170152.6  RSN  6 0.4 1.3LRSN                1
 GAP=137        0.55       7.2     9.2  8.7  0.4009E+02  0.2157E+02  0.9264E+01E
 ACTION:UP  12-03-07 16:29 OP:epov STATUS:               ID:20120211064224 L   I
 2012-02-11-0640-00M.COL___188                                                 6
 STAT SP IPHASW D HRMM SECON CODA AMPLIT PERI AZIMU VELO AIN AR TRES W  DIS CAZ7
 BAR2 SZ EP   3    642 44.77                             176   -0.45 2 13.1 186 
 BAR2 SZ ES   3    643  0.04                             176   -1.01 2 13.1 186 
 GIR2 SZ EP   3    642 45.74                             163    0.05 2 40.9 356 
 BRR  HZ EP        642 47.21                             153    0.2210 74.3 306 
 BRR  HZ I         642 51.39         5.3 0.34                          74.3 306 
 BRR  HN ES   2    643  4.38                             153    0.19 5 74.3 306 
 PAM  SZ EP   3    642 47.71                             147   -0.73 2 86.9  37 
 RUS  HZ EP        642 48.92                             148    0.2210 90.9 174 
 RUS  HE ES   2    643  6.98                             148   -0.26 5 90.9 174 
 RUS  HZ I         643  8.50         2.5 0.54                          90.9 174 
 PTB  HZ EP        642 51.76                             135   -0.33 9  144 263 
 PTB  HZ I         643 13.73         1.5 0.12                           144 263 
                                                                                
