 2015  211 0530  7.1 L   6.573 -73.513114.8  RSN  8 0.5 1.1LRSN                1
 GAP=101        1.31       4.1     5.3  7.9 -0.1687E+01  0.1443E+02 -0.1479E+01E
 Epicentro: EL CARMEN - SANTANDER                                              3
 ACTION:UPD 15-04-30 21:25 OP:nd   STATUS:               ID:20150211053007 L   I
 OLDACT:REG 15-02-11 13:18 OP:fm   STATUS:               ID:20150211052742     3
 2015-02-11-0527-42M.COL___287                                                 6
 STAT SP IPHASW D HRMM SECON CODA AMPLIT PERI AZIMU VELO AIN AR TRES W  DIS CAZ7
 BAR2 EZ EP        530 23.59                             161    0.1610 36.6  87 
 BAR2 EZ ES        530 36.47                             161    0.2810 36.6  87 
 BAR2 EZ I         530 37.64         5.9 0.40            169           36.6  87 
 BRR  HZ EP        530 24.96                             149    0.5210 63.0 340 
 BRR  HN ES        530 38.74                             149    0.7510 63.0 340 
 BRR  HZ I         530 39.99         3.2 0.30            151           63.0 340 
 RUS  HZ EP        530 26.97                             140   -0.0210 89.0 148 
 RUS  HE ES        530 41.93                             140   -0.5910 89.0 148 
 RUS  HZ I         530 43.87         1.4 0.20            145           89.0 148 
 PTB  HZ EP        530 27.37                             135   -0.2410  104 268 
 PTB  HN ES        530 43.17                             135   -0.4510  104 268 
 PTB  HZ I         530 50.06         2.2 0.18            135            104 268 
 SPBC HZ EP        530 29.46                             131    0.4210  119 211 
 SPBC HN ES        530 45.27                             131   -0.9010  119 211 
 SPBC HZ I         530 48.38         3.9 0.24            132            119 211 
 NOR  HZ EP        530 36.06                             117    0.14 9  187 233 
 NOR  HE ES        530 59.04                             117    0.63 9  187 233 
 NOR  HZ I         531  5.30         1.6 0.18            119            187 233 
 SML  HZ EP        530 42.92                             109   -0.43 8  254 346 
 SML  HE ES        531 10.74                             109   -0.91 8  254 346 
 GUY2CHZ EP        530 44.33                             110    0.41 8  254 234 
                                                                                
