 2012  311 0834  7.0 L   6.726 -73.175144.2  RSN  5 0.2 1.4LRSN                1
 GAP=228        0.63       6.6     7.1  8.2  0.2562E+02  0.2419E+02  0.7074E+00E
 ACTION:UP  12-03-31 23:18 OP:EP   STATUS:               ID:20120311083407 L   I
 2012-03-11-0830-00M.COL___193                                                 6
 STAT SP IPHASW D HRMM SECON CODA AMPLIT PERI AZIMU VELO SNR AR TRES W  DIS CAZ7
 BAR2 SZ ES   1    834 40.96                             174    -0.4 7   15 183 
 BAR2 SZ I         834 42.56         8.4 0.42                            15 183 
 BRR  HZ EP   1    834 27.97                             152    -0.1 7   73 305 
 BRR  HZ I         834 31.03         8.8 0.47                            73 305 
 BRR  HN ES   1    834 44.87                             152     0.4 7   73 305 
 RUS  HN ES   1    834 48.20                             146     0.2 7   93 174 
 RUS  HZ I         834 49.91         3.4 0.38                            93 174 
 PTB  HZ EP   1    834 33.48                             133     0.1 7  143 262 
 PTB  HE ES   1    834 53.91                             133    -0.1 7  143 262 
 PTB  HZ I         834 56.81         2.1 0.31                           143 262 
 ZAR  HN ES   1    835  4.50                             122    -0.1 6  204 295 
 ZAR  HZ I         835 11.08         2.5 0.30                           204 295 
                                                                                
