 2012 1211 0735 18.9 L   6.732 -73.149148.6  RSN  4 0.4 1.2LRSN                1
 GAP=232        0.84       9.1     8.9 10.0  0.3256E+02  0.1802E+02 -0.8113E+01E
 Epicentro: JORDAN - SANTANDER                                                 3
 ACTION:UPD 13-01-04 14:27 OP:ep   STATUS:               ID:20121211073518 L   I
 2012-12-11-0730-00M.COL___242                                                 6
 STAT SP IPHASW D HRMM SECON CODA AMPLIT PERI AZIMU VELO AIN AR TRES W  DIS CAZ7
 BAR2 SZ EP   1    735 38.80                             174    0.07 7 15.9 193 
 BAR2 SZ ES   1    735 53.44                             174   -0.77 7 15.9 193 
 BAR2 SZ I         735 55.40         5.1 0.35                          15.9 193 
 BRR  HZ EP   1    735 40.63                             152    0.09 7 74.8 304 
 BRR  HN ES   1    735 57.96                             152    0.53 7 74.8 304 
 BRR  HZ I         736  0.52         3.7 0.18                          74.8 304 
 RUS  HN ES   1    736  1.21                             146    0.47 7 93.2 176 
 RUS  HZ I         736  2.34         1.6 0.38                          93.2 176 
 PTB  HZ EP   1    735 45.61                             133   -0.33 7  146 262 
 PTB  HN ES   1    736  6.93                             133   -0.11 7  146 262 
 PTB  HZ I         736 10.22         2.7 0.15                           146 262 
                                                                                
