 2012  411 0455 28.2 L   6.819 -73.131150.0  RSN  5 0.2 1.3LRSN                1
 GAP=137        0.61       4.6     5.8  7.2 -0.4129E+00  0.7457E+01  0.5814E+01E
 Epicentro: LOS SANTOS - SANTANDER                                             3
 ACTION:UPD 12-07-05 11:52 OP:tino STATUS:               ID:20120411045528 L   I
 2012-04-11-0450-00M.COL___176                                                 6
 STAT SP IPHASW D HRMM SECON CODA AMPLIT PERI AZIMU VELO AIN AR TRES W  DIS CAZ7
 BAR2 SZ EP   1    455 48.17                             170    -0.2 7   26 193 
 BAR2 SZ I         455 51.12         6.5 0.49                            26 193 
 BRR  HZ EP   1    455 49.93                             153     0.1 7   72 296 
 BRR  HE ES   1    456  6.90                             153     0.2 7   72 296 
 BRR  HZ I         456  8.44         4.2 0.44                            72 296 
 PAM  SZ EP   1    455 50.79                             152     0.1 7   75  40 
 PAM  SE ES   1    456  8.06                             152    -0.2 7   75  40 
 RUS  HZ EP   1    455 52.89                             144     0.4 7  103 177 
 RUS  HE ES   1    456 11.32                             144    -0.1 7  103 177 
 RUS  HZ I         456 11.92         2.4 0.26                           103 177 
 PTB  HZ EP   1    455 55.25                             132    -0.4 7  150 258 
                                                                                
