 2013  411 0540 31.4 L   6.773 -73.200149.6  RSN  5 0.3 1.6LRSN                1
 GAP=171        0.79       5.7     5.4  6.2  0.1122E+02  0.1900E+00 -0.2676E+01E
 Epicentro: VILLANUEVA - SANTANDER                                             3
 ACTION:UPD 13-05-22 14:37 OP:EP   STATUS:               ID:20130411054031 L   I
 2013-04-11-0538-37M.COL___211                                                 6
 STAT SP IPHASW D HRMM SECON CODA AMPLIT PERI AZIMU VELO AIN AR TRES W  DIS CAZ7
 BAR2 SZ EP        540 51.32                             172   -0.0910 20.1 174 
 BAR2 SZ ES        541  6.56                             172   -0.4710 20.1 174 
 BAR2 SZ I         541  7.58         6.4 0.42            168           20.1 174 
 GIR2 SZ EP        540 51.43                             167   -0.1510 33.8   1 
 BRR  HZ EP        540 53.14                             154    0.3910 67.6 303 
 BRR  HN ES        541  9.70                             154    0.2910 67.6 303 
 BRR  HN I         541 10.90        11.6 0.20            151           67.6 303 
 RUS  HZ EP        540 55.51                             145    0.1710 98.2 172 
 RUS  HN ES        541 14.30                             145    0.2710 98.2 172 
 RUS  HN I         541 14.79         4.2 0.24            144           98.2 172 
 PTB  HZ EP        540 57.65                             134   -0.44 9  141 260 
 PTB  HN ES        541 18.91                             134   -0.01 9  141 260 
 PTB  HN I         541 24.52         5.8 0.30            132            141 260 
                                                                                
