 2016  111 0118 53.4 L   6.770 -73.128152.9  RSN  6 0.5 1.5LRSN                1
 GAP=140        1.21       5.5     5.6  9.3  0.2154E+01  0.7517E+01 -0.6611E+01E
 Epicentro: LOS SANTOS - SANTANDER                                             3
 ACTION:UPD 16-03-09 23:24 OP:cam  STATUS:               ID:20160111011853 L   I
 OLDACT:REG 16-01-11 12:18 OP:mh   STATUS:               ID:20160111011753     3
 2016-01-11-0117-53M.COL___239                                                 6
 STAT SP IPHASW D HRMM SECON CODA AMPLIT PERI AZIMU VELO AIN AR TRES W  DIS CAZ7
 BRR  HZ EP        119 15.74                             153    0.2010 74.6 300 
 BRR  HN ES        119 33.56                             153    0.7710 74.6 300 
 BRR  HZ I         119 46.31         7.8 0.36            151           74.6 300 
 PAM  EZ EP        119 16.69                             152    0.2010 78.8  37 
 PAM  EE ES        119 33.89                             152   -0.5910 78.8  37 
 PAM  EZ I         119 35.77         2.8 0.40            154           78.8  37 
 RUS  HZ EP        119 18.17                             146    0.5210 97.1 177 
 RUS  HN ES        119 36.45                             146   -0.1010 97.1 177 
 RUS  HZ I         119 37.45         2.0 0.26            154           97.1 177 
 PTB  HZ EP        119 20.56                             133   -0.55 9  149 260 
 PTB  HN ES        119 41.94                             133   -0.76 9  149 260 
 PTB  HZ I         119 43.56         2.8 0.30            136            149 260 
 ZAR  HN ES        119 53.04                             123    0.44 8  207 293 
 ZAR  HZ I         119 58.72         5.5 0.30            126            207 293 
 SML  HZ EP        119 30.75                             118   -0.13 8  248 335 
 SML  HN ES   1    119 59.83                             118   -0.27 6  248 335 
 SML  HZ I         120  5.73         3.4 0.28            122            248 335 
                                                                                
