 2014  411 0634  0.4 L   6.817 -73.162136.8  RSN 15 0.5 2.3LRSN                1
 GAP= 70        1.13       2.7     3.0  6.5 -0.1467E+01  0.4657E+01  0.1366E+01E
 Epicentro: LOS SANTOS - SANTANDER                                             3
 ACTION:UPD 14-05-13 23:07 OP:nd   STATUS:               ID:20140411063400 L   I
 OLDACT:UP  14-04-15 04:25 OP:CAM  STATUS:               ID:20140411063400 L   3
 OLDACT:REG 14-04-11 13:00 OP:stll STATUS:               ID:20140411062816     3
 2014-04-11-0628-16M.COL___236                                                 6
 STAT SP IPHASW D HRMM SECON CODA AMPLIT PERI AZIMU VELO AIN AR TRES W  DIS CAZ7
 PAM  SZ IP     C  634 22.39                             149    0.7410 77.1  41 
 PAM  SN ES        634 38.76                             149    0.5410 77.1  41 
 PAM  HZ I         634 41.01        57.9 0.50            155           77.1  41 
 RUS  HZ EP        634 23.35                             141   -0.0810  103 175 
 RUS  HN ES        634 40.82                             141   -0.5710  103 175 
 PTB  HZ EP        634 26.11                             130   -0.40 9  146 258 
 PTB  HN ES        634 46.24                             130   -0.64 9  146 258 
 PTB  HZ I         634 50.19        32.9 0.28            132            146 258 
 TAM  HZ IP     D  634 27.75                             128    0.16 9  157 105 
 TAM  HN ES        634 48.78                             128   -0.03 9  157 105 
 OCA  HZ EP        634 27.95                             128    0.13 9  158 354 
 OCA  HN ES        634 49.17                             128   -0.04 9  158 354 
 OCA  HZ I         634 52.61        42.9 0.30            132            158 354 
 SPBC HZ EP        634 28.16                             127   -0.09 9  164 218 
 SPBC HE ES        634 50.15                             127    0.17 9  164 218 
 SPBC HZ I         635  0.51        13.2 0.22            129            164 218 
 ZAR  HZ EP        634 32.32                             121    0.30 9  202 292 
 ZAR  HE ES        634 57.09                             121    0.41 9  202 292 
 ZAR  HZ I         635  4.01        28.8 0.22            123            202 292 
 NOR  HZ EP        634 35.91                             116    0.33 8  234 234 
 NOR  HN ES        635  2.91                             116   -0.11 8  234 234 
 NOR  HZ I         635  8.49        12.7 0.34            119            234 234 
 SML  HZ EP        634 35.62                             116   -0.64 8  241 336 
 SML  HN ES        635  3.66                             116   -0.57 8  241 336 
 SML  HZ I         635 12.65        25.8 0.06            119            241 336 
 CHI  HZ EP        634 37.59                             115   -0.17 8  250 195 
 CHI  HE ES   1    635  7.53                             115    0.63 6  250 195 
 CHI  HZ I         635 16.27         9.4 3.00            118            250 195 
 HEL  HZ EP   1    634 40.85                             113    0.83 6  271 255 
 HEL  HE ES        635 10.57                             113   -0.35 8  271 255 
 HEL  HZ I         635 18.28         8.1 0.30            116            271 255 
 GUY2CHZ EP        634 44.66                             110    1.10 7  301 234 
 GUY2CHN ES        635 17.60                             110    0.38 7  301 234 
 GUY2CHZ I         635 24.54         9.4 0.34                           301 234 
 SOCV BZ EP        634 41.95                             110   -1.15 7  302  57 
 SOCV BE ES   4    635 12.80                             110   -3.62 0  302  57 
 PRA  HZ EP        634 53.41                             105   -0.29 6  393 209 
 PRA  HN ES        635 34.21                             105   -1.08 6  393 209 
 PRA  HZ I         635 38.69         5.3 0.76            108            393 209 
 ORTC HZ EP        634 54.73                             105    0.66 6  396 216 
 ORTC HN ES        635 35.98                             105    0.04 6  396 216 
 ORTC HZ I         635 40.19         5.6 1.50            107            396 216 
                                                                                
