 2013  811 0148 27.0 L   6.789 -73.148147.7  RSN 16 0.4 2.4LRSN                1
 GAP=137        0.92       2.5     3.6  4.3 -0.1693E+01  0.5250E+01  0.1620E+01E
 Epicentro: LOS SANTOS - SANTANDER                                             3
 ACTION:UPD 14-01-14 09:00 OP:ep   STATUS:               ID:20130811014827 L   I
 OLDACT:REG 13-08-11 15:32 OP:jn   STATUS:               ID:20130811014636     3
 2013-08-11-0146-36M.COL___236                                                 6
 STAT SP IPHASW D HRMM SECON CODA AMPLIT PERI AZIMU VELO AIN AR TRES W  DIS CAZ7
 BAR2 SZ EP     D  148 46.95                             171    0.0810 22.0 190 
 BAR2 SZ ES        149  1.93                             171   -0.4110 22.0 190 
 BAR2 SZ I         149  3.27        53.0 0.36            168           22.0 190 
 GIR2 SZ EP        148 46.99                             167    0.0310 32.5 351 
 GIR2 SZ ES        149  2.41                             167   -0.1010 32.5 351 
 GIR2 SZ I         149  5.04        24.2 0.14            164           32.5 351 
 BRR  HZ IP     C  148 48.79                             153    0.3810 71.5 300 
 BRR  HN ES        149  6.02                             153    0.9410 71.5 300 
 BRR  HZ I         149 11.57        34.4 0.22            147           71.5 300 
 PAM  SZ EP        148 49.71                             151    0.1910 78.5  39 
 PAM  SN ES        149  6.87                             151   -0.1910 78.5  39 
 PAM  SZ I         149  9.39        39.7 0.58            152           78.5  39 
 RUS  HZ EP        148 50.80                             144   -0.0810 99.4 176 
 RUS  HN ES        149  9.50                             144    0.0110 99.4 176 
 RUS  HZ I         149 11.24        35.2 0.36            143           99.4 176 
 PTB  HZ EP        148 53.47                             132   -0.64 9  147 259 
 PTB  HN ES   1    149 14.60                             132   -0.63 7  147 259 
 PTB  HZ I         149 20.77        38.6 0.36            128            147 259 
 OCA  HZ EP   1    148 55.65                             130    0.05 7  161 353 
 OCA  HN ES        149 17.83                             130   -0.06 9  161 353 
 OCA  HZ I         149 22.60        26.7 0.24            128            161 353 
 SPBC HZ EP        148 55.79                             130    0.22 9  162 219 
 SPBC HN ES        149 17.84                             130    0.01 9  162 219 
 SPBC HZ I         149 23.52        54.7 0.40            126            162 219 
 ZAR  HZ EP   1    148 59.11                             123   -0.51 6  204 292 
 ZAR  HE ES   1    149 24.57                             123   -0.47 6  204 292 
 ZAR  HZ I         149 31.97        38.1 0.52            119            204 292 
 NOR  HZ EP        149  2.73                             119   -0.04 8  234 235 
 NOR  HE ES        149 31.12                             119    0.48 8  234 235 
 NOR  HZ I         149 35.17        37.2 0.22            116            234 235 
 SML  HZ EP   1    149  3.37                             118   -0.50 6  245 335 
 SML  HE ES   1    149 32.17                             118   -0.44 6  245 335 
 SML  HZ I         149 36.25        28.5 0.10            115            245 335 
 CHI  HZ EP        149  4.90                             118    0.20 8  247 195 
 CHI  HN ES        149 33.76                             118   -0.32 8  247 195 
 CHI  HZ I         149 39.76        11.6 0.26            115            247 195 
 HEL  HZ EP   1    149  7.90                             115    0.62 6  271 256 
 HEL  HN ES   1    149 39.08                             115    0.41 6  271 256 
 HEL  HZ I         149 45.16        14.0 0.30            112            271 256 
 RREF HZ EP   1    149 13.96                             111    0.82 5  321 230 
 RREF HZ I         149 57.85        19.5 0.22            109            321 230 
 CBOC HZ EP        149 14.71                             110    0.76 7  333 252 
 CBOC HN ES        149 49.81                             110   -0.73 7  333 252 
 CBOC HZ I         149 57.38         5.8 0.38            108            333 252 
 PRA  HZ EP        149 20.18                             107   -0.30 6  391 210 
 PRA  HE ES   1    150  1.56                             107   -0.60 4  391 210 
 PRA  HZ I         150  8.17        11.4 0.24            105            391 210 
 SJC  HZ EP   4    149 21.07                             106   -1.69 0  410 327 
                                                                                
