 2014  911 0721 49.4 L   6.742 -73.092146.8  RSN  4 0.2 1.6LRSN                1
 GAP=271        0.58       4.4     5.5  5.0 -0.8261E+01  0.4523E+01  0.6358E+01E
 Epicentro: JORDAN - SANTANDER                                                 3
 ACTION:UPD 14-10-03 23:04 OP:nd   STATUS:               ID:20140911072149 L   I
 OLDACT:REG 14-09-11 12:22 OP:mh   STATUS:               ID:20140911072000     3
 2014-09-11-0720-00M.COL___285                                                 6
 STAT SP IPHASW D HRMM SECON CODA AMPLIT PERI AZIMU VELO AIN AR TRES W  DIS CAZ7
 BAR2 SZ EP        722  8.95                             172   -0.0810 19.3 211 
 BAR2 SZ ES        722 24.25                             172   -0.1410 19.3 211 
 BAR2 SZ I         722 26.22         8.6 0.24            166           19.3 211 
 BRR  HZ EP        722 10.97                             150   -0.1310 79.5 301 
 BRR  HN ES        722 28.24                             150    0.1710 79.5 301 
 BRR  HZ I         722 31.15         4.9 0.33            150           79.5 301 
 SPBC HZ EP        722 18.08                             129    0.25 9  162 222 
 SPBC HN ES        722 40.26                             129    0.21 9  162 222 
 SPBC HZ I         722 47.82         5.5 0.38            129            162 222 
 GUY2CHZ EP   1    722 33.42                             112    0.27 5  302 236 
 GUY2CHE ES        723  6.77                             112   -0.55 7  302 236 
                                                                                
