 2016  811 0630 30.1 L   6.642 -73.536109.5  RSN  6 0.3 1.3LRSN                1
 GAP=119        0.86       4.0     4.5  6.7 -0.1397E+00  0.1100E+02  0.2821E+01E
 Epicentro: EL CARMEN - SANTANDER                                              3
 ACTION:UPD 16-10-29 15:34 OP:rebc STATUS:               ID:20160811063030 L   I
 OLDACT:UP  16-08-11 13:39 OP:dani STATUS:               ID:20160811062143d    3
 OLDACT:DUP 16-08-11 13:36 OP:dani STATUS:               ID:20160811062143d    3
 OLDACT:UP  16-08-11 13:35 OP:dani STATUS:               ID:20160811062142     3
 OLDACT:UP  16-08-11 13:35 OP:dani STATUS:               ID:20160811062142     3
 OLDACT:REG 16-08-11 12:31 OP:dani STATUS:               ID:20160811062142     3
 2016-08-11-0628-00M.COL___368                                                 6
 STAT SP IPHASW D HRMM SECON CODA AMPLIT PERI AZIMU VELO AIN AR TRES W  DIS CAZ7
 BAR2 EZ EP        630 45.61                             159   -0.3110 39.5  98 
 BAR2 EZ ES        630 58.29                             159   -0.0110 39.5  98 
 BAR2 EZ I         630 58.73         9.9 0.48                          39.5  98 
 BRR  HZ EP        630 46.23                             151   -0.1410 55.0 339 
 BRR  HN ES        630 59.42                             151    0.3310 55.0 339 
 BRR  HZ I         631  0.06         4.7 0.52                          55.0 339 
 RUS  HN ES   2    631  5.89                             136    0.10 5 96.9 149 
 PTB  HZ EP        630 49.56                             133   -0.4010  102 264 
 PTB  HE ES        631  5.07                             133   -0.4110  102 264 
 PTB  HZ I         631  6.80         2.8 0.10                           102 264 
 SPBC HZ EP        630 52.14                             127    0.0310  125 208 
 SPBC HN ES        631  9.74                             127    0.4210  125 208 
 SPBC HN I         631 16.19         4.8 0.38                           125 208 
 ZAR  HZ EP        630 57.69                             117    0.61 9  174 303 
 ZAR  HE ES   4    631 20.60                             117    2.44 0  174 303 
 ZAR  HZ I         631 23.01         3.3 0.39                           174 303 
                                                                                
