 2010  611 0217 37.7 L   6.812 -73.163134.5  RSN  8 0.5 1.8LRSN                1
 GAP=153        1.21       5.5    12.6  9.4 -0.2176E+02  0.3488E+02 -0.1003E+02E
 Epicentro: LOS SANTOS - SANTANDER                                             3
 ACTION:DUP 10-08-24 10:09 OP:vdl  STATUS:               ID:20100611021738dL   I
 2010-06-11-0216-36S.COL___117                                                 6
 STAT SP IPHASW D HRMM SECON CODA AMPLIT PERI AZIMU VELO SNR AR TRES W  DIS CAZ7
 BAR2 SZ EP        217 56.35                             169     0.310   24 185 
 BAR2 SZ ES   1    218 10.00                             169    -0.3 7   24 185 
 GIR2 SZ EP        217 56.50                             167     0.510   30 353 
 GIR2 SZ ES   1    218  9.67                             167    -0.6 7   30 353 
 RUS  HZ EP        218  0.23                             141    -0.310  102 175 
 RUS  HZ I         218  0.84         5.3 0.17                           102 175 
 RUS  HN ES   1    218 19.10                             141     0.9 7  102 175 
 BRI  SZ EP   1    218  0.95                             139     0.4 7  108  22 
 GUE  SZ EP        218  0.65                             137    -0.710  116  13 
 OCA  SZ EP        218  5.20                             127     0.2 9  159 354 
 OCA  SZ I         218 50.61        13.3 0.66                           159 354 
 CHI  HZ EP   1    218 14.39                             115    -0.5 6  249 195 
 CHI  HN ES   1    218 43.12                             115    -0.8 6  249 195 
 CHI  HZ I         218 53.25         4.1 0.54                           249 195 
 HEL  HZ EP   1    218 17.60                             113     0.4 6  271 255 
 HEL  HE ES   2    218 48.06                             113     0.1 4  271 255 
 HEL  HZ I         218 55.89         5.6 0.29                           271 255 
                                                                                
