 2012  211 0732  4.6 L   6.804 -73.138149.4  RSN  4 0.2 0.9LRSN                1
 GAP=188        0.34       9.6    14.0  6.5  0.8926E+02 -0.3127E+02 -0.2642E+01E
 ACTION:UP  12-03-07 16:29 OP:epov STATUS:               ID:20120211073204 L   I
 2012-02-11-0730-00M.COL___188                                                 6
 STAT SP IPHASW D HRMM SECON CODA AMPLIT PERI AZIMU VELO AIN AR TRES W  DIS CAZ7
 GIR2 SZ ES   3    732 40.03                             168   -0.39 2 31.0 349 
 BRR  HZ EP        732 26.24                             153    0.0210 71.8 298 
 BRR  HZ I         732 28.10         1.5 0.40                          71.8 298 
 BRR  HN ES   1    732 43.09                             153    0.04 7 71.8 298 
 RUS  HZ EP   3    732 28.98                             144    0.20 2  101 177 
 RUS  HN ES   3    732 47.61                             144    0.00 2  101 177 
 RUS  HZ I         732 58.22         1.0 0.82                           101 177 
 PTB  HZ EP   3    732 31.45                             133   -0.55 2  149 259 
                                                                                
