 2010  611 0622 35.2 L   6.816 -73.103150.0  RSN  7 0.4 1.7LRSN                1
 GAP=160        0.87       4.2     8.0  7.6 -0.1130E+02  0.1232E+02 -0.3911E+01E
 Epicentro: LOS SANTOS - SANTANDER                                             3
 ACTION:UP  10-08-24 10:09 OP:vdl  STATUS:               ID:20100611062235 L   I
 2010-06-11-0620-38S.COL___117                                                 6
 STAT SP IPHASW D HRMM SECON CODA AMPLIT PERI AZIMU VELO SNR AR TRES W  DIS CAZ7
 BAR2 SZ EP        622 55.18                             170    -0.210   26 200 
 BAR2 SZ ES   1    623 10.64                             170    -0.5 7   26 200 
 GIR2 SZ EP   1    622 55.68                             168     0.4 7   31 341 
 GIR2 SZ ES   1    623 11.24                             168     0.2 7   31 341 
 RUS  HZ EP   1    622 59.36                             144    -0.1 7  102 179 
 RUS  HN ES   1    623 18.73                             144     0.4 7  102 179 
 RUS  HZ I         623 19.05         4.2 0.23                           102 179 
 BRI  SZ EP   1    622 59.68                             143     0.5 7  105  19 
 BRI  SZ ES   1    623 18.57                             143     0.6 7  105  19 
 GRA  SZ EP   1    622 59.88                             139    -0.7 7  123  16 
 GRA  SZ ES   1    623 19.63                             139    -0.7 7  123  16 
 OCA  SZ EP   1    623  3.86                             131     0.2 7  159 351 
 OCA  SZ ES   1    623 26.10                             131     0.1 7  159 351 
 OCA  SZ I         623 30.53         8.6 0.34                           159 351 
 HEL  HE ES   1    623 48.06                             115     0.0 6  277 256 
                                                                                
