 2016  911 0622 55.4 L   6.992 -72.823  4.0  RSN  8 0.6 1.5LRSN                1
 GAP=174        1.62       3.3     5.5  7.9 -0.6999E+01  0.1846E+02 -0.4724E+01E
 Epicentro: SANTA BARBARA - SANTANDER                                          3
 ACTION:UPD 17-08-17 21:08 OP:lp   STATUS:               ID:20160911062255 L   I
 OLDACT:UP  16-09-11 15:59 OP:dani STATUS:               ID:20160911061736     3
 OLDACT:UP  16-09-11 15:59 OP:dani STATUS:               ID:20160911061736     3
 OLDACT:UP  16-09-11 15:57 OP:dani STATUS:               ID:20160911061736     3
 OLDACT:UP  16-09-11 15:57 OP:dani STATUS:               ID:20160911061736     3
 OLDACT:UP  16-09-11 15:57 OP:dani STATUS:               ID:20160911061736     3
 OLDACT:UP  16-09-11 15:56 OP:dani STATUS:               ID:20160911061736     3
 OLDACT:REG 16-09-11 12:39 OP:dani STATUS:               ID:20160911061736     3
 2016-09-11-0618-00M.COL___339                                                 6
 STAT SP IPHASW D HRMM SECON CODA AMPLIT PERI AZIMU VELO AIN AR TRES W  DIS CAZ7
 PAM  EZ EP     D  623  2.82                              47    0.1110 40.8  20 
 PAM  EE ES        623  8.04                              47   -0.3510 40.8  20 
 PAM  EZ I         623  8.70        39.7 0.22             47           40.8  20 
 BAR2 EZ EP     D  623  4.80                              47   -0.4610 59.4 222 
 BAR2 EZ ES        623 11.80                              47   -1.1410 59.4 222 
 BAR2 EZ I         623 14.02        24.5 0.56             47           59.4 222 
 BRR  HZ EP     D  623 11.25                              47    0.2310 99.0 277 
 BRR  HN ES        623 22.57                              47   -0.6210 99.0 277 
 BRR  HZ I         623 24.32         6.1 0.14             47           99.0 277 
 RUS  HZ EP        623 16.33                              47    0.8810  125 193 
 RUS  HE ES        623 30.89                              47   -0.1810  125 193 
 RUS  HZ I         623 32.29         4.0 0.22             47            125 193 
 OCA  HZ EP   4    623 19.87                              47    1.21 0  148 338 
 OCA  HE ES        623 36.55                              47   -0.24 9  148 338 
 OCA  HZ I         623 43.37        15.9 0.23             47            148 338 
 PTB  HZ EP        623 24.96                              37    0.84 9  187 255 
 PTB  HE ES        623 47.24                              37    0.74 9  187 255 
 PTB  HZ I         623 47.70         6.7 0.31             37            187 255 
 SPBC HZ EP   9    623 27.57                              37    1.46 0  203 223 
 SPBC HN ES        623 52.23                              37    0.72 9  203 223 
 SPBC HZ I         623 56.73         9.9 0.24             37            203 223 
 ZAR  HZ EP   4    623 30.87                              37    1.25 0  231 284 
 ZAR  HN ES        623 57.18                              37    0.88 8  231 284 
 ZAR  HZ I         623 58.14         4.3 0.17             37            231 284 
                                                                                
