 2016  411 0247 27.5 L   6.837 -73.145154.4  RSN  7 0.4 1.6LRSN                1
 GAP=135        0.96       3.5     4.4  7.0 -0.2638E+01  0.9210E+01 -0.2866E+01E
 Epicentro: LOS SANTOS - SANTANDER                                             3
 ACTION:UPD 16-05-05 14:20 OP:rebc STATUS:               ID:20160411024727 L   I
 OLDACT:UP  16-04-11 16:15 OP:mh   STATUS:               ID:20160411023744     3
 OLDACT:UP  16-04-11 16:14 OP:mh   STATUS:               ID:20160411023744     3
 OLDACT:REG 16-04-11 12:51 OP:mh   STATUS:               ID:20160411023744     3
 2016-04-11-0237-44M.COL___286                                                 6
 STAT SP IPHASW D HRMM SECON CODA AMPLIT PERI AZIMU VELO AIN AR TRES W  DIS CAZ7
 BAR2 EZ EP        247 48.28                             169    0.0110 27.4 189 
 BAR2 EZ ES   1    248  4.04                             169   -0.42 7 27.4 189 
 BAR2 EZ I         248  5.30         5.8 0.32            171           27.4 189 
 PAM  EZ EP        247 51.11                             153    0.6310 74.2  41 
 PAM  EE ES        248  8.37                             153   -0.0210 74.2  41 
 PAM  EZ I         248  9.91         6.3 0.58            156           74.2  41 
 RUS  HZ EP        247 52.63                             144    0.2210  105 176 
 RUS  HN ES        248 11.83                             144    0.0010  105 176 
 RUS  HZ I         248 13.07         3.1 0.56            149            105 176 
 PTB  HZ EP        247 55.21                             134   -0.07 9  149 257 
 PTB  HE ES        248 17.40                             134    0.46 9  149 257 
 PTB  HZ I         248 21.76         5.4 0.28            134            149 257 
 OCA  HZ EP        247 55.41                             132   -0.73 9  156 353 
 OCA  HN ES        248 18.48                             132    0.01 9  156 353 
 OCA  HZ I         248 23.59         8.4 0.22            133            156 353 
 SPBC HZ EP        247 57.28                             130    0.29 9  166 218 
 SPBC HN ES        248 19.39                             130   -0.59 9  166 218 
 SPBC HZ I         248 21.78         6.0 0.31            132            166 218 
 ZAR  HZ EP        247 59.96                             124   -0.43 9  203 291 
 ZAR  HN ES        248 26.35                             124    0.31 9  203 291 
 ZAR  HZ I         248 32.11         4.3 0.34            125            203 291 
                                                                                
