 2013  211 0038 12.5 L   6.767 -73.238158.3  RSN  4 0.4 1.0LRSN                1
 GAP=224        0.82       6.8    10.3 11.7  0.2989E+02  0.2271E+02  0.1449E+02E
 Epicentro: ZAPATOCA - SANTANDER                                               3
 ACTION:UPD 13-03-12 09:32 OP:ep   STATUS:               ID:20130211003812 L   I
 2013-02-11-0030-00M.COL___241                                                 6
 STAT SP IPHASW D HRMM SECON CODA AMPLIT PERI AZIMU VELO AIN AR TRES W  DIS CAZ7
 BRR  HZ EP   1    038 35.16                             157    0.49 7 64.5 306 
 BRR  HZ I         038 42.85         3.9 0.38            151           64.5 306 
 BRR  HN ES   1    038 52.13                             157    0.16 7 64.5 306 
 RUS  HN ES   1    038 56.33                             147   -0.38 7 98.2 170 
 RUS  HZ I         038 57.58         1.3 0.06            147           98.2 170 
 PTB  HZ EP   1    038 38.93                             137   -0.67 7  137 259 
 PTB  HN ES   1    039  0.72                             137   -0.02 7  137 259 
 PTB  HZ I         039  4.21         0.8 0.34            134            137 259 
 CHI  HN ES   1    039 20.30                             120    0.55 6  243 193 
                                                                                
