 2010  111 0952 23.9 L   6.790 -73.087154.3  RSN 11 0.3 3.6LRSN                1
 GAP=124        0.80       2.8     4.9  4.8 -0.3022E+01  0.6043E+01  0.7910E+00E
 Epicentro: LOS SANTOS - SANTANDER                                             3
 ACTION:UP  10-08-24 09:43 OP:vdl  STATUS:               ID:20100111095223 L   I
 2010-01-11-0950-44S.COL___097                                                 6
 STAT SP IPHASW D HRMM SECON CODA AMPLIT PERI AZIMU VELO SNR AR TRES W  DIS CAZ7
 BAR2 SZ IP        952 44.44                             171    -0.110   24 206 
 BAR2 SZ ES   1    953  0.55                             171    -0.1 7   24 206 
 GIR2 SZ IP        952 45.51                             167     0.910   34 340 
 GIR2 SZ ES   1    953  0.85                             167     0.0 7   34 340 
 RUS  BZ IP        952 48.35                             146     0.010   99 180 
 RUS  BN ES        953  7.28                             146    -0.210   99 180 
 RUS  BZ I         953  8.10       269.2 0.30                            99 180 
 OCA  SZ EP        952 52.85                             131    -0.2 9  162 351 
 OCA  SZ ES        953 15.54                             131    -0.2 9  162 351 
 OCA  SZ I         953 19.77       968.7 0.38                           162 351 
 CHI  HZ IP        953  2.19                             119     0.1 8  249 197 
 CHI  HE ES   2    953 31.66                             119    -0.3 4  249 197 
 CHI  HZ I         953 38.00       122.7 0.54                           249 197 
 HEL  HE ES   1    953 37.13                             116    -0.3 6  278 256 
 HEL  HZ I         953 44.20       150.1 0.42                           278 256 
 RREF BZ IP        953 11.33                             112     0.5 7  326 230 
 RREF BE ES   1    953 48.12                             112     0.6 5  326 230 
 RREF BZ I         953 55.28       177.6 0.08                           326 230 
 DBB  SZ IP        953 12.21                             110    -0.2 6  346 274 
 DBB  SZ ES   2    953 49.90                             110    -0.4 3  346 274 
 SDV  BZ IP        953 13.58                             110    -0.2 6  356  49 
 PRA  HZ EP        953 17.74                             108    -0.2 6  394 210 
 PRA  HN ES        953 59.93                             108    -0.2 6  394 210 
 PRA  HZ I         954  5.82       163.3 0.27                           394 210 
 GUA  SZ EP   2    953 26.28                             104    -0.8 2  472 174 
 GUA  SZ ES   2    954 16.27                             104    -0.1 2  472 174 
                                                                                
