 2017  911 0315 40.5 L   6.790 -73.093  1.8  RSN  8 0.6 1.6LRSN                1
 GAP=117        1.29       2.7     3.7  7.0 -0.2173E+01  0.3760E+01 -0.4079E+00E
 Epicentro: LOS SANTOS - SANTANDER                                             3
 ACTION:UPD 17-10-05 19:11 OP:rebc STATUS:               ID:20170911031540 L   I
 OLDACT:UP  17-09-11 17:02 OP:mg   STATUS:               ID:20170911030741     3
 OLDACT:REG 17-09-11 12:50 OP:mg   STATUS:               ID:20170911030741     3
 2017-09-11-0308-00M.COL___419                                                 6
 STAT SP IPHASW D HRMM SECON CODA AMPLIT PERI AZIMU VELO AIN AR TRES W  DIS CAZ7
 BAR2 EZ IP     D  315 44.67                              47   -0.6710 24.0 204 
 BAR2 EZ ES   4    315 47.68                              47   -1.39 0 24.0 204 
 BAR2 EZ I         315 48.25        64.9 0.09             47           24.0 204 
 PAM  EZ EP        315 53.59                              47    0.3110 74.7  36 
 PAM  EN ES        316  3.16                              47   -0.0510 74.7  36 
 PAM  EZ I         316  4.27        25.7 0.22             47           74.7  36 
 BRR  HZ IP     C  315 53.07                              47   -0.0310 76.9 297 
 BRR  HN ES   1    316  2.22                              47   -0.68 7 76.9 297 
 BRR  HZ I         316  2.86        15.3 0.10             47           76.9 297 
 RUS  HZ EP        315 56.95                              47   -0.0510 99.2 179 
 RUS  HN ES        316  9.16                              47   -0.6710 99.2 179 
 RUS  HZ I         316 11.88         7.6 0.14             47           99.2 179 
 SPBC HZ EP        316  7.34                              47    0.63 9  166 221 
 SPBC HN ES   1    316 27.63                              47    0.51 7  166 221 
 SPBC HZ I         316 32.32        22.5 0.12             47            166 221 
 YPLC HN ES   2    316 29.67                              47    0.69 4  173 153 
 YPLC HZ I         316 36.52         6.8 0.44             47            173 153 
 ZAR  HZ EP   2    316 13.11                              37    0.69 4  210 292 
 ZAR  HN ES   1    316 36.64                              37   -0.63 6  210 292 
 ZAR  HZ I         316 39.35         3.3 0.18             37            210 292 
 NOR  HE ES        316 45.03                              37    1.22 8  239 235 
 NOR  HZ I         316 45.92         8.0 0.17             37            239 235 
                                                                                
