 2012 1111 0322 20.3 L   6.781 -73.165146.5  RSN  6 0.4 1.8LRSN                1
 GAP=180        1.10       4.9     7.2  8.0  0.5889E+01  0.1027E+02  0.3684E+01E
 Epicentro: LOS SANTOS - SANTANDER                                             3
 ACTION:UPD 12-12-05 15:32 OP:}ep  STATUS:               ID:20121111032220 L   I
 2012-11-11-0320-00M.COL___230                                                 6
 STAT SP IPHASW D HRMM SECON CODA AMPLIT PERI AZIMU VELO AIN AR TRES W  DIS CAZ7
 BAR2 SZ EP        322 40.26                             171    0.2610 21.0 185 
 BAR2 SZ ES        322 55.65                             171    0.3110 21.0 185 
 BAR2 SZ I         322 56.50        12.3 0.22                          21.0 185 
 GIR2 SZ ES        322 55.13                             167   -0.4510 33.1 354 
 BRR  HZ EP        322 42.04                             153    0.5310 70.4 301 
 BRR  HN ES        322 58.72                             153    0.6910 70.4 301 
 BRR  HN I         322 59.41        15.0 0.30                          70.4 301 
 RUS  HZ EP        322 44.06                             144    0.0510 98.7 175 
 RUS  HN ES        323  2.11                             144   -0.3810 98.7 175 
 PTB  HZ EP        322 46.89                             133   -0.24 9  145 259 
 PTB  HN ES        323  7.61                             133   -0.43 9  145 259 
 OCA  HN ES        323 10.61                             129   -0.51 9  162 354 
                                                                                
