 2013  311 0902  8.3 L   6.820 -73.107143.2  RSN  8 0.5 1.9LRSN                1
 GAP=141        1.00       4.6     7.0  9.7  0.6244E+01  0.2193E+02  0.7001E+01E
 Epicentro: LOS SANTOS - SANTANDER                                             3
 ACTION:UPD 13-04-09 14:01 OP:ep   STATUS:               ID:20130311090208 L   I
 2013-03-11-0900-00M.COL___231                                                 6
 STAT SP IPHASW D HRMM SECON CODA AMPLIT PERI AZIMU VELO AIN AR TRES W  DIS CAZ7
 BAR2 SZ EP   1    9 2 28.17                             169    0.52 8 26.6 198 
 BAR2 SZ ES   1    9 2 42.09                             169   -0.69 8 26.6 198 
 BAR2 SZ I         9 2 44.89         7.7 0.28            169           26.6 198 
 PAM  SN ES   2    9 2 47.09                             152    0.24 5 72.9  38 
 PAM  SN I         9 2 49.38        16.6 0.52            155           72.9  38 
 BRR  HZ EP   1    9 2 30.08                             151    0.78 8 74.0 295 
 BRR  HN ES   1    9 2 46.59                             151    0.88 8 74.0 295 
 BRR  HN I         9 2 47.93        17.0 0.32            150           74.0 295 
 RUS  HZ EP   1    9 2 32.22                             142    0.31 8  103 179 
 RUS  HN ES   2    9 2 50.10                             142   -0.26 5  103 179 
 RUS  HN I         9 2 52.31         7.2 0.40            146            103 179 
 PTB  HZ EP   1    9 2 35.07                             130   -0.38 8  152 258 
 PTB  HN ES   2    9 2 56.42                             130   -0.24 5  152 258 
 PTB  HN I         9 3  1.59        13.9 0.36            132            152 258 
 OCA  HN ES        9 2 57.37                             129   -0.6610  159 352 
 OCA  HN I         9 3  1.90        22.6 0.34            131            159 352 
 ZAR  HZ EP   1    9 2 40.74                             121   -0.13 7  207 291 
 ZAR  HN ES        9 3  6.23                             121   -0.08 9  207 291 
 ZAR  HN I         9 3 11.76         7.8 0.28            123            207 291 
 CHI  HN ES   1    9 3 15.44                             116   -0.32 6  252 196 
                                                                                
