 2013 1211 0552  0.8 L   6.822 -73.174150.1  RSN  9 0.5 1.5LRSN                1
 GAP=180        1.13       4.9     7.0  9.7  0.3307E+01  0.1303E+02 -0.2709E+01E
 Epicentro: LOS SANTOS - SANTANDER                                             3
 ACTION:UPD 14-01-13 10:17 OP:ep   STATUS:               ID:20131211055200 L   I
 OLDACT:REG 13-12-11 06:23 OP:jn   STATUS:               ID:20131211055000     3
 2013-12-11-0550-00M.COL___285                                                 6
 STAT SP IPHASW D HRMM SECON CODA AMPLIT PERI AZIMU VELO AIN AR TRES W  DIS CAZ7
 BAR2 SZ EP        552 21.21                             170    0.1710 25.5 182 
 BAR2 SZ ES        552 36.20                             170   -0.5910 25.5 182 
 BAR2 SZ I         552 37.02        11.6 0.34            170           25.5 182 
 BRR  HZ EP        552 22.95                             155    0.7010 67.3 298 
 BRR  HN ES        552 39.64                             155    0.6910 67.3 298 
 BRR  HZ I         552 43.91         5.6 0.14            153           67.3 298 
 RUS  HZ EP   1    552 25.01                             144   -0.21 7  103 174 
 RUS  HN ES   1    552 44.08                             144   -0.15 7  103 174 
 RUS  HZ I         552 45.56         3.5 0.28            146            103 174 
 PTB  HZ EP   1    552 28.17                             133    0.23 7  145 258 
 PTB  HN ES   1    552 49.02                             133   -0.05 7  145 258 
 PTB  HZ I         552 51.11         4.9 0.28            133            145 258 
 OCA  HN ES   1    552 51.21                             131   -0.17 7  157 354 
 OCA  HZ I         552 54.11         3.9 0.26            132            157 354 
 SPBC HN ES   1    552 52.47                             130    0.30 7  163 218 
 ZAR  HE ES   1    552 57.91                             124   -0.50 6  200 292 
 NOR  HN ES   1    553  3.81                             119   -0.88 6  234 234 
 NOR  HZ I         553 10.26         1.8 0.50            120            234 234 
 SML  HN ES   1    553  4.72                             119   -1.08 6  240 336 
                                                                                
