 2011  411 0937 45.9 L   6.729 -73.097139.4  RSN  4 0.3 1.7LRSN                1
 GAP=179        0.66      11.9     9.4  9.4 -0.4101E+02 -0.8395E+01 -0.3597E+02E
 Epicentro: JORDAN - SANTANDER                                                 3
 ACTION:UP  11-06-22 15:30 OP:REBC STATUS:               ID:20110411093745 L   I
 2011-04-11-0920-00M.COL___139                                                 6
 STAT SP IPHASW D HRMM SECON CODA AMPLIT PERI AZIMU VELO SNR AR TRES W  DIS CAZ7
 BAR2 SZ EP   2    938  4.81                             173     0.1 5   18 212 
 BAR2 SZ ES   2    938 19.57                             173     0.2 5   18 212 
 BAR2 SZ I         938 21.42        14.2 0.18                            18 212 
 BRR  HZ EP   1    938  6.56                             148    -0.4 8   80 302 
 BRR  HZ I         938  6.94        14.4 0.13                            80 302 
 BRR  HN ES   2    938 23.47                             148     0.2 5   80 302 
 PAM  SZ EP   1    938  7.47                             148    -0.2 8   81  33 
 PAM  SZ I         938  7.76         5.8 0.17                            81  33 
 PAM  SN ES   2    938 24.32                             148    -0.3 5   81  33 
 GRA  SZ EP        938 11.48                             134     0.310  132  14 
 GRA  SZ I         938 12.62         9.4 0.33                           132  14 
                                                                                
