 2012  811 0053 37.6 L   6.839 -72.983131.6  RSN  4 0.3 1.3LRSN                1
 GAP=227        0.67       6.5    12.7  7.9  0.4820E+02 -0.3297E+02 -0.3315E+01E
 Epicentro: CEPITA - SANTANDER                                                 3
 ACTION:UPD 12-09-10 11:55 OP:ep   STATUS:               ID:20120811005337 L   I
 2012-08-11-0050-00M.COL___218                                                 6
 STAT SP IPHASW D HRMM SECON CODA AMPLIT PERI AZIMU VELO AIN AR TRES W  DIS CAZ7
 BAR2 SZ EP   1    053 55.67                             164   -0.23 7 35.1 219 
 BAR2 SZ ES   1    054 10.74                             164    0.61 7 35.1 219 
 BAR2 SZ I         054 11.81         7.0 0.16                          35.1 219 
 GIR2 SZ EP   1    053 55.77                             164    0.01 7 35.3 319 
 GIR2 SZ ES   1    054  9.63                             164   -0.26 7 35.3 319 
 BRR  HZ EP   2    053 58.91                             145    0.67 5 85.9 290 
 BRR  HN ES   1    054 14.10                             145   -0.21 7 85.9 290 
 RUS  HZ EP   1    054  0.46                             139    0.07 7  105 186 
 RUS  HN ES   1    054 17.85                             139   -0.29 7  105 186 
 RUS  HZ I         054 19.68         2.8 0.32                           105 186 
                                                                                
