 2016  611 0912 56.6 L   6.816 -73.063152.7  RSN 17 0.6 2.1LRSN                1
 GAP=126        1.18       3.4     5.2  7.0 -0.4608E+01  0.3070E+00  0.8793E+01E
 Epicentro: LOS SANTOS - SANTANDER                                             3
 ACTION:UPD 16-07-21 22:17 OP:rebc STATUS:               ID:20160611091256 L   I
 OLDACT:UP  16-06-11 20:16 OP:dani STATUS:               ID:20160611090744     3
 OLDACT:REG 16-06-11 13:33 OP:dani STATUS:               ID:20160611090744     3
 2016-06-11-0907-44M.COL___328                                                 6
 STAT SP IPHASW D HRMM SECON CODA AMPLIT PERI AZIMU VELO AIN AR TRES W  DIS CAZ7
 BAR2 EZ EP     D  913 16.94                             169   -0.1710 28.0 208 
 BAR2 EZ I         913 34.73        33.7 0.28                          28.0 208 
 PAM  EZ EP     D  913 19.98                             154    0.8510 70.5  35 
 PAM  EN ES        913 37.14                             154    0.4010 70.5  35 
 PAM  EZ I         913 39.37        18.8 0.28                          70.5  35 
 BRR  HZ EP        913 18.70                             151   -0.1710 78.6 294 
 BRR  HN ES        913 35.82                             151   -0.4510 78.6 294 
 BRR  HZ I         913 39.55        27.1 0.36                          78.6 294 
 RUS  HZ EP        913 20.94                             145   -0.1510  102 181 
 RUS  HE ES   2    913 39.91                             145   -0.32 5  102 181 
 RUS  HZ I         913 41.03         6.7 0.30                           102 181 
 PTB  HZ EP   4    913 23.79                             132   -1.13 0  157 259 
 PTB  HN ES   4    913 45.07                             132   -1.98 0  157 259 
 PTB  HZ I         913 52.03        12.4 0.31                           157 259 
 OCA  HZ EP     D  913 25.10                             131   -0.27 9  160 350 
 OCA  HN ES        913 48.05                             131    0.19 9  160 350 
 OCA  HZ I         913 55.45        21.1 0.20                           160 350 
 SPBC HZ EP        913 25.89                             129   -0.37 9  170 221 
 SPBC HE ES        913 48.75                             129   -0.68 9  170 221 
 SPBC HZ I         913 55.80        19.0 0.26                           170 221 
 NOR  HZ EP        913 32.82                             119   -0.77 8  243 235 
 NOR  HE ES   4    914  1.78                             119   -0.69 0  243 235 
 NOR  HZ I         914  3.76         9.7 0.20                           243 235 
 CHI  HZ EP        913 35.30                             118    0.21 8  253 197 
 CHI  HE ES        914  5.39                             118    0.24 8  253 197 
 CHI  HZ I         914  8.01         9.3 0.50                           253 197 
 ROSC BZ EP        913 37.18                             117    1.45 8  259 213 
 ROSC BN ES        914  7.24                             117    0.95 8  259 213 
 ROSC BZ I         914 10.78        18.5 0.40                           259 213 
 HEL  HZ EP   9    913 40.71                             115    2.57 0  281 256 
 HEL  HE ES        914 13.27                             114    0.12 7  281 256 
 HEL  HZ I         914 15.35         4.7 0.40                           281 256 
 PTGC HZ EP        913 40.13                             113   -0.42 7  307 160 
 PTGC HN ES        914 14.17                             113   -0.69 7  307 160 
 PTGC HZ I         914 16.17         5.8 0.42                           307 160 
 GUY2CHZ EP   4 C  913 39.83                             113   -1.60 0  310 235 
 GUY2CHE ES   4    914 19.43                             113    2.99 0  310 235 
 GUY2CHZ I         914 24.32         7.2 0.36                           310 235 
 LL6C HZ EP        913 41.62                             112   -0.80 7  324 356 
 CBOC HZ EP        913 45.20                             110    0.39 7  343 252 
 CBOC HE ES        914 22.87                             110    0.42 7  343 252 
 CBOC HZ I         914 29.37         2.1 0.20                           343 252 
 PRA  HZ EP        913 51.13                             107    0.11 6  398 211 
 PRA  HN ES        914 33.52                             107    0.01 6  398 211 
 PRA  HZ I         914 38.14         8.3 0.30                           398 211 
 ORTC HZ EP   2    913 50.95                             107   -0.56 3  402 217 
 ORTC HN ES   2    914 34.77                             107    0.40 3  402 217 
 ORTC HZ I         914 38.33         4.2 0.22                           402 217 
                                                                                
