 2013 1211 0039  1.7 L   6.779 -73.149143.2  RSN 12 0.4 2.2LRSN                1
 GAP= 72        0.77       2.6     3.1  4.6 -0.1058E+01  0.2870E+01 -0.3046E+00E
 Epicentro: LOS SANTOS - SANTANDER                                             3
 ACTION:UPD 14-01-13 10:17 OP:ep   STATUS:               ID:20131211003901 L   I
 OLDACT:REG 13-12-11 08:04 OP:jn   STATUS:               ID:20131211003741     3
 2013-12-11-0037-41M.COL___253                                                 6
 STAT SP IPHASW D HRMM SECON CODA AMPLIT PERI AZIMU VELO AIN AR TRES W  DIS CAZ7
 BAR2 SZ EP        039 20.88                             171   -0.1310 21.0 190 
 BAR2 SZ ES        039 36.10                             171    0.0510 21.0 190 
 BAR2 SZ I         039 37.16        82.0 0.38            170           21.0 190 
 BRR  HZ EP        039 23.04                             152    0.3810 72.0 300 
 BRR  HN ES   2    039 40.17                             152    1.19 5 72.0 300 
 BRR  HZ I         039 44.33        33.2 0.14            149           72.0 300 
 PAM  SZ EP        039 24.10                             150    0.3010 79.4  39 
 PAM  SN ES        039 40.77                             150   -0.2410 79.4  39 
 PAM  SZ I         039 43.48        14.6 0.46            153           79.4  39 
 RUS  HZ EP        039 25.01                             144   -0.0610 98.3 176 
 RUS  HN ES        039 43.00                             144   -0.2710 98.3 176 
 RUS  HZ I         039 44.27        16.9 0.48            147           98.3 176 
 PTB  HZ EP        039 27.77                             131   -0.66 9  147 260 
 PTB  HN ES   1    039 48.84                             131   -0.41 7  147 260 
 PTB  HZ I         039 51.84        19.9 0.14            131            147 260 
 TAM  HZ IP     C  039 29.36                             130    0.17 9  155 104 
 SPBC HZ EP   1    039 30.09                             129    0.24 7  161 219 
 SPBC HN ES        039 51.83                             129    0.05 9  161 219 
 SPBC HZ I         039 53.22        25.8 0.20            129            161 219 
 OCA  HN ES   1    039 51.99                             128   -0.17 7  163 353 
 OCA  HZ I         039 58.31        25.1 0.24            129            163 353 
 ZAR  HZ EP        039 34.23                             122    0.15 9  205 293 
 ZAR  HN ES   1    039 59.42                             122    0.12 6  205 293 
 ZAR  HZ I         040  4.93        19.5 0.10            122            205 293 
 NOR  HN ES   1    040  4.69                             118   -0.07 6  233 235 
 NOR  HZ I         040 13.61        17.0 0.18            119            233 235 
 CHI  HZ EP        039 39.11                             117    0.07 8  246 195 
 CHI  HN ES   2    040  9.31                             117    1.17 4  246 195 
 CHI  HZ I         040 14.42         6.7 0.26            118            246 195 
 SML  HZ EP   1    039 37.89                             117   -0.54 6  246 336 
 SML  HE ES   2    040  7.38                             117    0.32 4  246 336 
                                                                                
