 2016  511 0059 12.5 L   6.823 -73.141150.2  RSN 17 0.4 2.4LRSN                1
 GAP=118        1.02       2.5     4.3  5.0 -0.8824E+00  0.4652E+01  0.1282E+01E
 Epicentro: LOS SANTOS - SANTANDER                                             3
 ACTION:UPD 16-08-18 17:44 OP:cam  STATUS:               ID:20160511005912 L   I
 OLDACT:UP  16-05-15 07:32 OP:ar   STATUS:               ID:20160511005912 L   3
 OLDACT:UP  16-05-11 13:28 OP:drio STATUS:               ID:20160511005749     3
 OLDACT:UP  16-05-11 13:27 OP:drio STATUS:               ID:20160511005749     3
 OLDACT:REG 16-05-11 12:17 OP:drio STATUS:               ID:20160511005749     3
 2016-05-11-0057-49M.COL___288                                                 6
 STAT SP IPHASW D HRMM SECON CODA AMPLIT PERI AZIMU VELO AIN AR TRES W  DIS CAZ7
 BAR2 EZ EP        059 32.76                             170    0.0210 26.0 190 
 BAR2 EZ ES        059 48.01                             170   -0.5010 26.0 190 
 BAR2 EZ I         059 49.42        50.5 0.26            168           26.0 190 
 BRR  HZ IP     D  059 34.57                             153    0.4610 70.5 296 
 BRR  HN ES        059 51.53                             153    0.5810 70.5 296 
 BRR  HZ I         059 52.16        54.8 0.10            149           70.5 296 
 PAM  EZ EP        059 35.60                             152    0.5210 75.1  40 
 PAM  EN ES        059 53.02                             152    0.3510 75.1  40 
 PAM  EZ I         059 55.14        50.2 0.62            155           75.1  40 
 RUS  HZ EP        059 36.97                             144    0.0810  103 176 
 RUS  HN ES        059 55.54                             144   -0.3610  103 176 
 RUS  HZ I         059 56.62        12.0 0.22            146            103 176 
 PTB  HZ EP        059 39.38                             133   -0.56 9  149 258 
 PTB  HN ES   4    1 0  0.03                             133   -1.31 0  149 258 
 PTB  HZ I         1 0  6.62        26.0 0.18            131            149 258 
 OCA  HZ EP        059 40.93                             131   -0.02 9  158 353 
 OCA  HN ES        1 0  2.60                             131   -0.52 9  158 353 
 OCA  HZ I         1 0 12.38        55.5 0.42            131            158 353 
 SPBC HZ EP        059 41.45                             130   -0.13 9  166 219 
 SPBC HN ES        1 0  3.47                             130   -0.78 9  166 219 
 SPBC HZ I         1 0  9.69        21.8 0.20            129            166 219 
 ZAR  HZ EP   4    059 46.98                             123    1.77 0  204 291 
 ZAR  HN ES        1 0 10.93                             123    0.22 9  204 291 
 ZAR  HZ I         1 0 16.14        34.0 0.24            122            204 291 
 NOR  HZ EP        059 49.07                             119    0.36 8  237 234 
 NOR  HN ES        1 0 17.24                             119    0.29 8  237 234 
 NOR  HZ I         1 0 22.90        12.1 0.18            119            237 234 
 SML  HZ EP        059 48.96                             119   -0.21 8  242 335 
 SML  HE ES        1 0 17.58                             119   -0.18 8  242 335 
 SML  HZ I         1 0 24.53        26.4 0.10            118            242 335 
 CHI  HZ EP        059 51.11                             118    0.36 8  251 195 
 CHI  HE ES        1 0 21.11                             118    0.54 8  251 195 
 CHI  HZ I         1 0 22.72        10.7 0.36            118            251 195 
 HEL  HZ EP   4    059 54.85                             115    1.76 0  273 255 
 HEL  HN ES   4    1 0 27.61                             115    2.88 0  273 255 
 HEL  HZ I         1 0 32.07        13.1 0.38            115            273 255 
 PTGC HZ EP        059 56.31                             112   -0.52 7  311 159 
 PTGC HE ES   4    1 0 29.90                             112   -1.49 0  311 159 
 PRA  HZ EP   4    1 0  7.93                             107    1.44 0  395 209 
 PRA  HE ES        1 0 48.81                             107    0.23 6  395 209 
 PRA  HZ I         1 0 53.84        13.5 0.46            107            395 209 
 ORTC HZ EP        1 0  7.22                             107    0.35 6  398 216 
 ORTC HE ES   4    1 0 50.76                             107    1.49 0  398 216 
 ORTC HZ I         1 0 56.76         8.7 0.54            107            398 216 
 SJC  HZ EP        1 0  7.09                             106   -0.92 6  407 327 
 SJC  HE ES   4    1 0 48.08                             106   -3.21 0  407 327 
 SJC  HZ I         1 0 52.49         4.9 0.52            106            407 327 
 CRJC HZ EP   4    1 0 13.39                             104   -1.45 0  465   4 
 CRJC HN ES   4    1 0 58.42                             104   -5.02 0  465   4 
 CRJC HZ I         1 1  8.21         4.5 0.18            105            465   4 
                                                                                
