 2010  611 0049  3.3 L   7.385 -73.240126.4  RSN  7 0.2 1.6LRSN                1
 GAP=179        0.59       2.6     7.8  4.8 -0.5828E+01  0.1255E+02  0.4732E+00E
 Epicentro: EL PLAYON - SANTANDER                                              3
 ACTION:UP  10-08-24 10:09 OP:vdl  STATUS:               ID:20100611004903 L   I
 2010-06-11-0046-22S.COL___117                                                 6
 STAT SP IPHASW D HRMM SECON CODA AMPLIT PERI AZIMU VELO SNR AR TRES W  DIS CAZ7
 GIR2 SZ IP        049 20.94                             164     0.210   34 171 
 GIR2 SZ ES   1    049 34.57                             164     0.2 7   34 171 
 GUE  SZ IP        049 22.05                             153    -0.210   60  35 
 GUE  SZ ES   1    049 36.93                             153     0.0 7   60  35 
 BRI  SZ IP        049 22.32                             153     0.310   61  53 
 BRI  SZ ES   1    049 36.17                             153    -0.5 7   61  53 
 GRA  SZ EP        049 22.74                             148     0.010   73  41 
 GRA  SZ ES   1    049 38.29                             148     0.4 7   73  41 
 BAR2 SZ IP        049 23.98                             143     0.110   88 176 
 BAR2 SZ ES   1    049 39.65                             143    -0.3 7   88 176 
 OCA  SZ EP        049 24.23                             141    -0.110   95 355 
 OCA  SZ ES   1    049 40.59                             141    -0.1 7   95 355 
 OCA  SZ I         049 42.88         9.2 0.19                            95 355 
 RUS  HZ EP   1    049 30.78                             124    -0.4 7  166 174 
 RUS  HZ I         049 31.69         3.8 0.19                           166 174 
 RUS  HE ES   2    049 53.38                             124     0.4 5  166 174 
                                                                                
