 2011 1011 0050 31.5 L   6.761 -73.131132.0  RSN  8 0.4 2.0LRSN                1
 GAP=140        0.85       4.7     4.9  6.8  0.2505E+01  0.8561E+01 -0.1272E+01E
 Epicentro: LOS SANTOS - SANTANDER                                             3
 ACTION:UPD 12-07-13 16:03 OP:ep   STATUS:               ID:20111011005031 L   I
 2011-10-11-0040-00M.COL___171                                                 6
 STAT SP IPHASW D HRMM SECON CODA AMPLIT PERI AZIMU VELO AIN AR TRES W  DIS CAZ7
 BAR2 SZ EP        050 49.25                             171   -0.1010 19.5 197 
 BAR2 SZ ES   1    051  3.28                             171   -0.03 7 19.5 197 
 BAR2 SZ I         051  6.10        44.2 0.31                          19.5 197 
 BRR  HZ EP        050 51.18                             149   -0.1710 74.7 301 
 BRR  HN ES   1    051  7.82                             149    0.95 7 74.7 301 
 BRR  HZ I         051  9.57        29.0 0.19                          74.7 301 
 PAM  SZ EP        050 52.18                             148   -0.2010 79.8  37 
 PAM  SN ES   1    051  8.81                             148    0.11 7 79.8  37 
 RUS  HZ EP   1    050 53.32                             142   -0.23 7 96.2 177 
 RUS  HN ES   1    051 10.76                             142   -0.02 7 96.2 177 
 RUS  HZ I         051 13.67        18.2 0.22                          96.2 177 
 OCA  SZ EP   1    050 59.55                             126    0.38 7  165 353 
 OCA  SZ I         051 27.30        10.0 0.28                           165 353 
 ZAR  HN ES        051 27.65                             119   -0.62 8  207 293 
 HEL  HZ EP   1    051 11.41                             112    0.35 6  273 257 
 HEL  HZ I         051 48.18         5.4 0.17                           273 257 
 RREF HZ EP   1    051 17.61                             108    0.75 5  320 230 
 RREF HZ I         052  2.28         4.1 0.35                           320 230 
                                                                                
