 2017  111 0639  1.4 L   6.374 -73.427121.1  RSN 10 0.4 1.6LRSN                1
 GAP= 90        0.78       3.1     2.3  4.3  0.1559E+01  0.1651E+01  0.2714E+01E
 Epicentro: CHIMA - SANTANDER                                                  3
 ACTION:UPD 17-05-22 15:58 OP:jn   STATUS:               ID:20170111063901 L   I
 OLDACT:UP  17-01-11 16:33 OP:and  STATUS:               ID:20170111063745     3
 OLDACT:UP  17-01-11 16:33 OP:and  STATUS:               ID:20170111063745     3
 OLDACT:UP  17-01-11 16:32 OP:and  STATUS:               ID:20170111063745     3
 OLDACT:REG 17-01-11 12:48 OP:and  STATUS:               ID:20170111063745     3
 2017-01-11-0638-00M.COL___346                                                 6
 STAT SP IPHASW D HRMM SECON CODA AMPLIT PERI AZIMU VELO AIN AR TRES W  DIS CAZ7
 BAR2 EZ EP        639 18.37                             162   -0.1310 36.3  48 
 BAR2 EZ ES        639 31.91                             162    0.0910 36.3  48 
 BAR2 EZ I         639 33.45        21.7 0.42            164           36.3  48 
 RUS  HZ EP        639 20.19                             150   -0.1210 65.5 144 
 RUS  HN ES        639 35.06                             150    0.0110 65.5 144 
 RUS  HZ I         639 36.73         4.4 0.28            153           65.5 144 
 BRR  HZ EP        639 20.67                             142   -0.4110 86.9 339 
 BRR  HN ES        639 36.06                             142   -0.3510 86.9 339 
 BRR  HZ I         639 37.37         7.0 0.12            143           86.9 339 
 PTB  HZ EP   3    639 22.04                             133   -1.40 2  115 279 
 PTB  HE ES        639 40.70                             133    0.0810  115 279 
 PTB  HZ I         639 44.17         7.3 0.12            134            115 279 
 PAM  EZ EP        639 25.83                             129    0.0610  134  37 
 PAM  EN ES        639 45.03                             129    0.2710  134  37 
 PAM  EZ I         639 47.07         3.2 0.19            131            134  37 
 TAM  HZ EP        639 29.92                             120   -0.05 9  181  88 
 TAM  HN ES        639 52.60                             120    0.37 9  181  88 
 ZAR  HZ EP        639 31.77                             117   -0.26 9  201 308 
 ZAR  HN ES        639 56.14                             117    0.24 9  201 308 
 ZAR  HZ I         639 59.91         6.5 0.31            118            201 308 
 GUY2CHZ EP        639 38.97                             111    0.92 8  249 239 
 GUY2CHN ES   4    640 11.06                             111    4.44 0  249 239 
 GUY2CHZ I         640 15.47         2.3 0.48                           249 239 
 PTGC HZ EP        639 40.45                             108   -0.51 7  280 149 
 PTGC HN ES   3    640 11.14                             108   -0.66 2  280 149 
 CBOC HZ EP        639 42.75                             108    0.23 7  292 259 
                                                                                
