 2012 1111 0637  7.5 L   6.797 -73.130149.7  RSN  6 0.4 1.7LRSN                1
 GAP=184        1.16       5.5    11.9  8.2  0.2238E+02  0.1608E+02  0.4158E+01E
 Epicentro: LOS SANTOS - SANTANDER                                             3
 ACTION:UPD 12-12-05 15:32 OP:}ep  STATUS:               ID:20121111063707 L   I
 2012-11-11-0630-00M.COL___230                                                 6
 STAT SP IPHASW D HRMM SECON CODA AMPLIT PERI AZIMU VELO AIN AR TRES W  DIS CAZ7
 BAR2 SZ EP        637 27.70                             171    0.0910 23.3 194 
 BAR2 SZ ES        637 43.32                             171    0.0310 23.3 194 
 BAR2 SZ I         637 44.18         7.2 0.20                          23.3 194 
 GIR2 SZ EP        637 28.33                             167    0.6610 32.0 347 
 GIR2 SZ ES        637 43.49                             167    0.1010 32.0 347 
 BRR  HZ EP        637 29.13                             153   -0.0510 72.9 298 
 BRR  HN ES        637 46.52                             153    0.4410 72.9 298 
 BRR  HN I         637 47.24         8.5 0.26                          72.9 298 
 RUS  HZ EP        637 32.00                             145    0.3910  100 177 
 RUS  HN ES        637 49.73                             145   -0.6810  100 177 
 PTB  HZ EP        637 34.52                             133   -0.43 9  149 259 
 PTB  HN I         638  0.85         9.5 0.24                           149 259 
 OCA  HN ES        637 57.81                             130   -0.73 9  161 353 
                                                                                
