 2014  211 0359  9.0 L   6.794 -73.145150.7  RSN  9 0.4 2.0LRSN                1
 GAP=137        1.05       3.9     4.3  6.6 -0.1591E+01  0.4808E+01  0.6251E+01E
 Epicentro: LOS SANTOS - SANTANDER                                             3
 ACTION:UPD 14-03-10 08:09 OP:ep   STATUS:               ID:20140211035909 L   I
 OLDACT:REG 14-02-11 07:58 OP:carl STATUS:               ID:20140211035736     3
 2014-02-11-0357-36M.COL___230                                                 6
 STAT SP IPHASW D HRMM SECON CODA AMPLIT PERI AZIMU VELO AIN AR TRES W  DIS CAZ7
 BAR2 SZ EP     C  359 29.00                             171   -0.2010 22.7 191 
 BAR2 SZ ES        359 44.31                             171   -0.6610 22.7 191 
 BAR2 SZ I         359 47.17        38.2 0.33            169           22.7 191 
 BRR  HZ EP     D  359 30.92                             153    0.2210 71.6 299 
 BRR  HN ES        359 48.45                             153    0.8210 71.6 299 
 BRR  HZ I         359 52.12        17.7 0.29            154           71.6 299 
 PAM  SZ EP        359 31.92                             152    0.1610 77.8  39 
 PAM  SN ES        359 49.29                             152   -0.2310 77.8  39 
 PAM  SZ I         359 51.06        13.7 0.43            157           77.8  39 
 RUS  HZ EP        359 32.87                             145   -0.3110 99.9 176 
 RUS  HN ES        359 52.66                             145    0.6110 99.9 176 
 RUS  HZ I         359 54.39         6.0 0.26            146           99.9 176 
 PTB  HZ EP        359 35.95                             133   -0.42 9  148 259 
 PTB  HN ES        359 57.07                             133   -0.65 9  148 259 
 PTB  HZ I         4 0  2.42        12.7 0.22            135            148 259 
 SPBC HZ EP        359 37.99                             130    0.16 9  163 219 
 SPBC HN ES        4 0  0.38                             130    0.05 9  163 219 
 SPBC HZ I         4 0  7.09        19.5 0.39            132            163 219 
 ZAR  HN ES        4 0  7.61                             123    0.22 9  204 292 
 NOR  HN ES        4 0 12.96                             120   -0.09 8  234 235 
 CHI  HZ EP        359 47.18                             118    0.28 8  248 195 
 CHI  HN ES        4 0 16.59                             118    0.12 8  248 195 
 CHI  HZ I         4 0 20.54         4.1 0.36            120            248 195 
                                                                                
