 2014 1011 0641 36.4 L   7.353 -73.077143.4  RSN 18 0.6 2.4LRSN                1
 GAP=107        1.21       3.0     4.1  6.4  0.1991E+01  0.5694E+01  0.1959E+01E
 Epicentro: MATANZA - SANTANDER                                                3
 ACTION:UPD 14-11-29 23:48 OP:nd   STATUS:               ID:20141011064137dL   I
 OLDACT:REG 14-10-11 13:01 OP:fm   STATUS:               ID:20141011063736     3
 2014-10-11-0637-36M.COL___291                                                 6
 STAT SP IPHASW D HRMM SECON CODA AMPLIT PERI AZIMU VELO AIN AR TRES W  DIS CAZ7
 PAM  SZ EP     D  641 57.31                             163    0.6810 41.7  92 
 PAM  SN ES        642 12.69                             163    0.2710 41.7  92 
 PAM  SZ I         642 15.63        33.1 0.66            162           41.7  92 
 BRR  HZ EP        641 57.79                             151    0.2710 75.2 249 
 BRR  HN ES        642 13.82                             151   -0.1810 75.2 249 
 BRR  HZ I         642 17.75        49.9 0.24            143           75.2 249 
 BAR2 SZ EP     C  641 58.81                             148    0.3410 84.9 188 
 BAR2 SZ ES   1    642 15.77                             148    0.08 7 84.9 188 
 BAR2 SZ I         642 17.11       135.5 0.26            140           84.9 188 
 OCA  HZ EP        641 59.86                             143    0.3510  102 345 
 OCA  HN ES        642 17.82                             143    0.2810  102 345 
 OCA  HZ I         642 20.03        68.7 0.38            140            102 345 
 RUS  HZ EP        642  4.69                             129   -0.40 9  161 180 
 RUS  HN ES   1    642 27.13                             129   -0.34 7  161 180 
 RUS  HZ I         642 29.04         8.9 0.36            122            161 180 
 TAM  HZ EP   1    642  5.07                             126   -0.69 7  175 125 
 TAM  HN ES        642 28.21                             126   -0.45 9  175 125 
 TAM  HZ I         642 31.61        24.7 0.42            121            175 125 
 PTB  HZ EP        642  5.83                             126   -0.12 9  177 240 
 PTB  HN ES        642 28.91                             126   -0.10 9  177 240 
 PTB  HZ I         642 31.26        28.0 0.26            119            177 240 
 SML  HZ EP        642  6.82                             123   -0.82 9  194 326 
 SML  HN ES        642 31.04                             123   -0.97 9  194 326 
 SML  HZ I         642 36.69        53.1 0.26            119            194 326 
 ZAR  HZ EP        642  7.75                             123   -0.23 9  197 275 
 ZAR  HN ES        642 32.39                             123   -0.22 9  197 275 
 ZAR  HZ I         642 36.08        44.3 0.56            117            197 275 
 SPBC HZ EP        642 10.94                             120    0.70 8  218 210 
 SPBC HN ES        642 36.98                             120    0.34 8  218 210 
 SPBC HZ I         642 45.46        13.7 0.30            114            218 210 
 URE  HZ EP   1    642 17.35                             114    1.04 6  275 279 
 URE  HE ES   4    642 44.58                             114   -2.86 0  275 279 
 URE  HZ I         642 53.73        27.0 0.18            109            275 279 
 ARGC HZ EP   1    642 20.00                             111    0.22 5  305 335 
 ARGC HE ES        642 53.65                             111    0.04 7  305 335 
 ARGC HZ I         642 57.01         8.1 0.18            108            305 335 
 CHI  HZ EP   1    642 19.71                             111   -1.07 5  310 194 
 CHI  HN ES        642 54.72                             111   -0.69 7  310 194 
 CHI  HZ I         643  4.37         4.6 0.22            106            310 194 
 ROSC BZ EP   4    642 22.76                             111    1.97 0  310 206 
 ROSC BN ES   1    642 54.72                             111   -0.70 5  310 206 
 ROSC BZ I         643  8.24         6.7 0.30            106            310 206 
 GUY2CHZ EP        642 26.48                             109    1.50 6  346 227 
 GUY2CHE ES   4    642 59.78                             109   -3.10 0  346 227 
 GUY2CHZ I         643 12.78         8.1 0.62                           346 227 
 SJC  HZ EP   4    642 25.56                             108   -1.06 0  364 321 
 SJC  HN ES   4    643  2.90                             108   -2.89 0  364 321 
 SJC  HZ I         643  5.98        20.9 0.30            104            364 321 
 CBOC HZ EP   4    642 28.66                             108    1.95 0  364 243 
 CBOC HN ES   4    643  3.75                             108   -2.21 0  364 243 
 CBOC HZ I         643 23.44         3.4 0.28            103            364 243 
 TOL  SZ EP   4    642 32.77                             106    2.33 0  394 219 
 TOL  SN ES   4    643 16.54                             106    3.94 0  394 219 
 TOL  SZ I         643 22.40        14.3 0.34            102            394 219 
                                                                                
