 2012 1211 0457 15.9 L   6.768 -73.143149.5  RSN  8 0.4 1.7LRSN                1
 GAP=138        0.83       4.5     4.9  7.2  0.4145E+00  0.6567E+01  0.1275E+01E
 Epicentro: LOS SANTOS - SANTANDER                                             3
 ACTION:UPD 13-01-04 14:26 OP:ep   STATUS:               ID:20121211045715 L   I
 2012-12-11-0450-00M.COL___242                                                 6
 STAT SP IPHASW D HRMM SECON CODA AMPLIT PERI AZIMU VELO AIN AR TRES W  DIS CAZ7
 BAR2 SZ EP   1    457 36.14                             172    0.21 7 20.0 193 
 BAR2 SZ ES   1    457 51.28                             172   -0.25 7 20.0 193 
 BAR2 SZ I         457 52.41        20.9 0.18                          20.0 193 
 GIR2 SZ EP   1    457 35.66                             166   -0.46 7 34.8 351 
 GIR2 SZ ES   1    457 51.68                             166   -0.20 7 34.8 351 
 GIR2 SZ I         457 52.72         7.8 0.12                          34.8 351 
 BRR  HZ EP   1    457 38.07                             152    0.50 7 73.2 301 
 BRR  HN ES   1    457 55.26                             152    0.79 7 73.2 301 
 BRR  HZ I         457 56.40         8.2 0.13                          73.2 301 
 PAM  SZ EP   1    457 38.52                             151   -0.15 7 79.9  38 
 PAM  SN ES   1    457 56.01                             151   -0.41 7 79.9  38 
 RUS  HZ EP   1    457 40.07                             145    0.29 7 97.1 176 
 RUS  HN ES   1    457 58.76                             145    0.36 7 97.1 176 
 RUS  HZ I         457 59.67         4.4 0.20                          97.1 176 
 PTB  HZ EP   1    457 42.76                             133   -0.40 7  147 260 
 PTB  HN ES   1    458  3.70                             133   -0.71 7  147 260 
 PTB  HZ I         458  7.56         4.9 0.19                           147 260 
 OCA  HN ES   1    458  7.67                             130    0.27 7  164 353 
 OCA  HZ I         458 13.05         3.7 0.27                           164 353 
 ZAR  HN ES   1    458 14.50                             123    0.10 6  206 293 
 ZAR  HZ I         458 21.16         6.4 0.42                           206 293 
                                                                                
