 2013 1211 0457 27.8 L   6.753 -73.165149.3  RSN  6 0.5 1.3LRSN                1
 GAP=180        1.17       6.1     9.1 10.9  0.7353E+01 -0.1018E+02  0.8755E+00E
 Epicentro: LOS SANTOS - SANTANDER                                             3
 ACTION:UPD 14-01-13 10:17 OP:ep   STATUS:               ID:20131211045727 L   I
 OLDACT:REG 13-12-11 06:21 OP:jn   STATUS:               ID:20131211045000     3
 2013-12-11-0450-00M.COL___285                                                 6
 STAT SP IPHASW D HRMM SECON CODA AMPLIT PERI AZIMU VELO AIN AR TRES W  DIS CAZ7
 BAR2 SZ EP        457 47.80                             173    0.0510 17.9 186 
 BAR2 SZ ES        458  3.04                             173   -0.2810 17.9 186 
 BAR2 SZ I         458  4.74         8.6 0.48            169           17.9 186 
 BRR  HZ EP        457 49.95                             153    0.5810 72.0 303 
 BRR  HN ES        458  6.86                             153    0.6610 72.0 303 
 BRR  HZ I         458 12.97         2.9 0.72            150           72.0 303 
 RUS  HZ EP        457 51.39                             146   -0.1510 95.6 175 
 RUS  HN ES   1    458 10.16                             146    0.09 7 95.6 175 
 RUS  HZ I         458 11.50         1.9 0.30            147           95.6 175 
 PTB  HN ES   1    458 14.87                             133   -0.97 7  145 261 
 PTB  HZ I         458 18.25         2.8 0.20            132            145 261 
 SPBC HN ES   1    458 18.14                             131    0.02 7  158 220 
 SPBC HZ I         458 25.04         2.3 0.42            131            158 220 
 OCA  HN ES   1    458 18.56                             129   -0.94 7  165 354 
                                                                                
