 2016  311 0654  3.9 L   6.782 -73.166142.9  RSN  6 0.2 1.3LRSN                1
 GAP=135        0.54       2.0     2.9  3.8 -0.6332E+00  0.4357E+01  0.4412E+00E
 Epicentro: LOS SANTOS - SANTANDER                                             3
 ACTION:UPD 16-05-13 21:23 OP:cam  STATUS:               ID:20160311065403 L   I
 OLDACT:REG 16-03-11 13:49 OP:cara STATUS:               ID:20160311064750     3
 2016-03-11-0647-50M.COL___261                                                 6
 STAT SP IPHASW D HRMM SECON CODA AMPLIT PERI AZIMU VELO AIN AR TRES W  DIS CAZ7
 BAR2 EZ EP        654 22.93                             171   -0.2410 21.1 185 
 BAR2 EZ ES        654 37.95                             171   -0.2310 21.1 185 
 BAR2 EZ I         654 39.20         8.6 0.32            167           21.1 185 
 PAM  EZ IP        654 26.04                             149    0.0210 80.4  40 
 PAM  EZ I         654 26.18         7.3 0.20            155           80.4  40 
 PAM  EN ES        654 43.43                             149    0.1710 80.4  40 
 RUS  HZ EP        654 27.26                             144   -0.0110 98.8 175 
 RUS  HN ES        654 45.65                             144    0.1710 98.8 175 
 RUS  HZ I         654 46.58         1.8 0.30            144           98.8 175 
 SPBC HZ EP        654 31.57                             129   -0.35 9  160 219 
 SPBC HN ES        654 54.02                             129    0.26 9  160 219 
 SPBC HZ I         654 59.71         2.5 0.26            127            160 219 
 ZAR  HZ EP        654 36.37                             122    0.32 9  203 293 
 ZAR  HN ES        655  1.00                             122   -0.10 9  203 293 
 ZAR  HZ I         655 10.09         2.3 0.38            120            203 293 
 CHI  HZ EP        654 41.25                             117    0.06 8  246 195 
 CHI  HN ES        655 10.26                             117   -0.00 8  246 195 
 CHI  HZ I         655 18.72         0.9 0.58            117            246 195 
                                                                                
