 2012  211 0020 35.7 L   6.726 -73.363126.0  RSN  6 0.3 1.5LRSN                1
 GAP= 99        0.50       6.5     4.4  5.7 -0.6935E+01 -0.7792E+00  0.5265E+01E
 ACTION:UP  12-03-07 16:29 OP:epov STATUS:               ID:20120211002035 L   I
 2012-02-11-0020-00M.COL___188                                                 6
 STAT SP IPHASW D HRMM SECON CODA AMPLIT PERI AZIMU VELO AIN AR TRES W  DIS CAZ7
 BAR2 SZ ES   2    021  6.54                             168    0.01 5 24.8 127 
 BAR2 SZ I         021  7.55        15.9 0.28                          24.8 127 
 GIR2 SZ EP        020 53.47                             160   -0.0410 43.3  26 
 GIR2 SZ ES   3    021  6.32                             160   -1.05 2 43.3  26 
 BRR  HZ EP        020 54.13                             154    0.1610 57.1 318 
 BRR  HZ I         020 54.30        23.5 0.14                          57.1 318 
 BRR  HN ES   1    021  8.43                             154    0.25 7 57.1 318 
 RUS  HZ EP   3    020 58.26                             141    0.92 2 97.2 161 
 RUS  HN ES   3    021 14.78                             141    0.59 2 97.2 161 
 RUS  HZ I         021 16.22         2.6 0.38                          97.2 161 
 PAM  SZ EP        020 57.47                             140   -0.0710 99.8  47 
 PTB  HZ EP        020 58.60                             133   -0.2310  123 260 
 PTB  HZ I         021  0.77         3.1 0.22                           123 260 
                                                                                
