 2012  611 0844 47.6 L   6.723 -73.146141.0  RSN  5 0.4 1.1LRSN                1
 GAP=140        0.67       7.5     5.2  8.8 -0.1053E+02  0.1494E+02 -0.2213E+02E
 Epicentro: JORDAN - SANTANDER                                                 3
 ACTION:UPD 12-08-06 17:48 OP:ep   STATUS:               ID:20120611084447 L   I
 2012-06-11-0840-00M.COL___201                                                 6
 STAT SP IPHASW D HRMM SECON CODA AMPLIT PERI AZIMU VELO AIN AR TRES W  DIS CAZ7
 BAR2 SZ EP   1    845  7.08                             174    0.56 7 15.1 196 
 BAR2 SZ ES   1    845 21.56                             174    0.28 7 15.1 196 
 BAR2 SZ I         845 22.88         3.5 0.19            173           15.1 196 
 PAM  SZ EP   1    845  9.74                             148    0.00 7 84.1  36 
 PAM  SE ES   2    845 26.47                             148   -0.54 5 84.1  36 
 RUS  HE ES   2    845 27.24                             145   -0.74 5 92.1 176 
 PTB  HZ EP   1    845 13.81                             131   -0.25 7  146 262 
 PTB  HZ I         845 14.88         1.1 0.10            132            146 262 
 PTB  HN ES   1    845 34.69                             131    0.00 7  146 262 
 ZAR  HN ES   2    845 45.27                             121   -0.16 4  207 294 
                                                                                
