 2013  411 0832 45.7 L   6.715 -73.170144.5  RSN  5 0.2 1.3LRSN                1
 GAP=178        0.58       3.8     4.0  4.4  0.5654E+01  0.4903E+01  0.4333E+01E
 Epicentro: VILLANUEVA - SANTANDER                                             3
 ACTION:UPD 13-05-22 14:37 OP:EP   STATUS:               ID:20130411083245 L   I
 2013-04-11-0828-43M.COL___212                                                 6
 STAT SP IPHASW D HRMM SECON CODA AMPLIT PERI AZIMU VELO AIN AR TRES W  DIS CAZ7
 BAR2 SZ EP        833  4.58                             174   -0.4710 13.7 186 
 BAR2 SZ ES        833 20.09                             174   -0.0310 13.7 186 
 BAR2 SZ I         833 22.68         4.9 0.48            168           13.7 186 
 GIR2 SZ ES        833 21.06                             164    0.0910 40.3 356 
 BRR  HZ EP        833  7.22                             151    0.3210 73.9 306 
 BRR  HN ES        833 23.35                             151   -0.0610 73.9 306 
 BRR  HN I         833 25.48         4.3 0.46            151           73.9 306 
 RUS  HZ EP        833  8.76                             146    0.0410 91.5 174 
 RUS  HN ES        833 26.79                             146    0.1410 91.5 174 
 RUS  HN I         833 29.42         0.9 0.16            145           91.5 174 
 PTB  HZ EP        833 12.26                             133    0.04 9  144 262 
 PTB  HN ES        833 32.80                             133   -0.08 9  144 262 
 PTB  HN I         833 38.86         5.1 0.28            131            144 262 
                                                                                
