 2017 1011 0608 25.3 L   6.812 -73.146147.3  RSN 10 0.5 2.2LRSN                1
 GAP=126        0.81       3.6     3.6  5.0 -0.4123E+01  0.3451E+01  0.3901E+01E
 Epicentro: LOS SANTOS - SANTANDER                                             3
 ACTION:UPD 17-11-07 19:30 OP:rebc STATUS:               ID:20171011060825 L   I
 OLDACT:UP  17-10-11 19:00 OP:leo  STATUS:               ID:20171011055741     3
 OLDACT:REG 17-10-11 14:08 OP:leo  STATUS:               ID:20171011055741     3
 2017-10-11-0558-00M.COL___438                                                 6
 STAT SP IPHASW D HRMM SECON CODA AMPLIT PERI AZIMU VELO AIN AR TRES W  DIS CAZ7
 BAR2 EZ IP     D  6 8 44.99                             170   -0.1010 24.6 189 
 BAR2 EZ ES        6 9  0.51                             170   -0.0510 24.6 189 
 BAR2 EZ I         6 9  1.25        57.3 0.14            168           24.6 189 
 PAM  EZ IP        6 8 47.75                             151    0.1810 76.4  40 
 PAM  EN ES        6 9  4.96                             151   -0.0210 76.4  40 
 PAM  EZ I         6 9  7.08        39.2 0.50            155           76.4  40 
 RUS  HZ EP        6 8 48.92                             144   -0.3210  102 176 
 RUS  HE ES        6 9  7.86                             144   -0.0910  102 176 
 RUS  HZ I         6 9  8.79        34.3 0.28            144            102 176 
 SPBC HZ EP        6 8 54.00                             129    0.04 9  164 219 
 SPBC HE ES        6 9 16.33                             129   -0.02 9  164 219 
 SPBC HZ I         6 9 19.30        40.3 0.10            129            164 219 
 YPLC HZ EP        6 8 55.58                             127    0.32 9  178 152 
 YPLC HN ES        6 9 18.95                             127    0.28 9  178 152 
 YPLC HZ I         6 9 21.90        11.4 0.24            128            178 152 
 NOR  HZ EP        6 9  1.68                             119    0.54 8  235 234 
 NOR  HE ES        6 9 28.66                             119   -0.48 8  235 234 
 NOR  HZ I         6 9 36.25        11.9 0.26            119            235 234 
 CHI  HZ EP        6 9  3.14                             117   -0.02 8  250 195 
 CHI  HN ES        6 9 32.90                             117    0.16 8  250 195 
 CHI  HZ I         6 9 39.38         4.3 0.32            118            250 195 
 GUY2CHZ EP   4    6 9 10.47                             112    1.46 0  302 235 
 GUY2CHE ES        6 9 43.72                             112    0.58 7  302 235 
 GUY2CHZ I         6 9 54.07         6.2 0.30                           302 235 
 PTGC HZ EP        6 9  8.28                             112   -1.03 7  310 159 
 PTGC HN ES   4    6 9 41.65                             112   -2.03 0  310 159 
 PTGC HZ I         6 9 43.89         7.4 0.36            113            310 159 
 DBB  EZ EP   3    6 9 14.50                             110    1.73 2  339 274 
 DBB  EN ES   3    6 9 47.71                             110   -2.13 2  339 274 
 DBB  EZ I         6 9 51.73         6.7 0.40            110            339 274 
                                                                                
