 2012  711 0055 59.5 L   6.811 -73.145134.1  RSN 15 0.6 2.6LRSN                1
 GAP= 71        1.32       4.4     4.7  8.2 -0.5454E+00  0.1134E+02  0.4774E+01E
 Epicentro: LOS SANTOS - SANTANDER                                             3
 ACTION:UPD 12-08-14 11:44 OP:ep   STATUS:               ID:20120711005559 L   I
 2012-07-11-0050-00M.COL___188                                                 6
 STAT SP IPHASW D HRMM SECON CODA AMPLIT PERI AZIMU VELO AIN AR TRES W  DIS CAZ7
 BAR2 SZ EP   1    056 17.95                             169     0.2 7   25 190 
 BAR2 SZ ES   1    056 31.63                             169    -0.3 7   25 190 
 BAR2 SZ I         056 34.04        90.6 0.21            169             25 190 
 BRR  HZ EP        056 19.82                             150     0.510   71 298 
 BRR  HN ES   1    056 35.26                             150     0.4 7   71 298 
 BRR  HZ I         056 40.88       112.8 0.10            149             71 298 
 PAM  SZ EP   1    056 20.75                             149     0.4 7   76  40 
 PAM  SZ I         056 21.15       100.1 0.20            153             76  40 
 PAM  SN ES   1    056 37.26                             149     0.6 7   76  40 
 RUS  HZ EP   1    056 22.07                             141    -0.1 7  102 176 
 RUS  HN ES        056 39.57                             141    -0.310  102 176 
 PTB  HZ EP   1    056 24.57                             129    -1.0 7  148 258 
 PTB  HN ES   1    056 45.28                             129    -0.6 7  148 258 
 PTB  HZ I         056 48.49        32.9 0.15            129            148 258 
 TAM  HZ EP   1    056 26.31                             128     0.1 7  155 105 
 TAM  HZ I         056 26.59        37.6 0.08            133            155 105 
 TAM  HN ES   1    056 46.97                             128    -0.2 7  155 105 
 OCA  HZ EP   1    056 26.13                             127    -0.6 7  159 353 
 OCA  HN ES   1    056 47.64                             127    -0.4 7  159 353 
 OCA  HZ I         056 51.00        83.8 0.32            129            159 353 
 ZAR  HZ EP   1    056 31.06                             120    -0.1 6  204 292 
 ZAR  HN ES   1    056 56.02                             120     0.2 6  204 292 
 ZAR  HZ I         057  1.96        32.4 0.31            121            204 292 
 NOR  SZ EP   1    056 33.71                             116    -0.9 6  235 234 
 NOR  SN ES   1    057  2.19                             116     0.1 6  235 234 
 CHI  HZ EP   1    056 36.34                             114    -0.3 6  250 195 
 CHI  HN ES        057  5.15                             114    -0.5 8  250 195 
 ROSC BN ES   1    057  8.68                             114     2.2 6  254 211 
 ROSC BZ I         057 14.58        37.6 0.73            116            254 211 
 HEL  HZ EP   1    056 40.06                             112     0.9 6  272 256 
 HEL  HN ES        057  9.83                             112    -0.3 8  272 256 
 HEL  HZ I         057 16.33        14.0 0.38            113            272 256 
 DBB  SZ EP   1    056 46.33                             107    -0.2 5  340 274 
 TOL  SZ EP   1    056 48.23                             107     0.9 5  344 225 
 PRA  HZ EP        056 52.98                             104     0.3 6  393 209 
