 2017  911 0537 14.2 L   6.808 -73.143148.0  RSN 14 0.4 1.7LRSN                1
 GAP=112        0.71       2.6     2.9  4.3  0.7830E-01  0.2442E+01  0.3428E+01E
 Epicentro: LOS SANTOS - SANTANDER                                             3
 ACTION:UPD 17-10-05 19:11 OP:rebc STATUS:               ID:20170911053714 L   I
 OLDACT:UP  17-09-11 20:03 OP:and  STATUS:               ID:20170911052742d    3
 OLDACT:UP  17-09-11 20:02 OP:and  STATUS:               ID:20170911052742d    3
 OLDACT:DUP 17-09-11 19:52 OP:and  STATUS:               ID:20170911052742d    3
 2017-09-11-0528-00M.COL___419                                                 6
 STAT SP IPHASW D HRMM SECON CODA AMPLIT PERI AZIMU VELO AIN AR TRES W  DIS CAZ7
 BAR2 EZ EP     D  537 33.90                             170   -0.2210 24.2 190 
 BAR2 EZ ES   2    537 49.02                             170   -0.63 5 24.2 190 
 BAR2 EZ I         537 51.86        12.7 0.25            168           24.2 190 
 BRR  HZ IP     D  537 35.69                             153    0.1110 71.0 298 
 BRR  HN ES        537 52.57                             153    0.3110 71.0 298 
 BRR  HZ I         537 55.95         9.4 0.24            151           71.0 298 
 PAM  EZ IP     D  537 36.88                             152    0.2810 76.5  40 
 PAM  EN ES        537 54.05                             152   -0.0310 76.5  40 
 PAM  EZ I         537 56.35         7.0 0.66            156           76.5  40 
 RUS  HZ EP        537 38.09                             144   -0.1410  101 176 
 RUS  HN ES        537 56.91                             144   -0.0710  101 176 
 RUS  HZ I         537 57.73        11.1 0.24            145            101 176 
 SPBC HZ EP        537 42.88                             129   -0.07 9  164 219 
 SPBC HN ES        538  5.48                             129    0.10 9  164 219 
 SPBC HZ I         538 12.04         9.5 0.12            129            164 219 
 YPLC HZ EP        537 44.34                             127    0.12 9  177 152 
 YPLC HN ES   3    538  8.82                             127    1.19 2  177 152 
 YPLC HZ I         538  9.34         8.5 0.29            129            177 152 
 ZAR  HZ EP        537 46.38                             123   -0.40 9  204 292 
 ZAR  HN ES        538 11.83                             123   -0.37 9  204 292 
 ZAR  HZ I         538 17.42         5.5 0.41            123            204 292 
 NOR  HZ EP        537 50.57                             119    0.43 8  235 234 
 NOR  HN ES   1    538 18.64                             119    0.47 6  235 234 
 NOR  HZ I         538 25.76         4.8 0.20            119            235 234 
 CHI  HZ EP   1    537 52.02                             117   -0.10 6  250 195 
 CHI  HE ES   1    538 21.86                             117    0.16 6  250 195 
 CHI  HZ I         538 25.03         2.8 0.07            118            250 195 
 GUY2CHZ EP   3    537 59.21                             113    1.21 2  302 235 
 GUY2CHN ES   4    538 34.60                             113    2.44 0  302 235 
 GUY2CHZ I         538 40.12         2.4 0.26                           302 235 
 PTGC HZ EP   1    537 57.37                             112   -0.87 5  309 159 
 PTGC HN ES   4    538 30.49                             112   -2.10 0  309 159 
 PTGC HZ I         538 36.12         3.8 0.26            114            309 159 
 CBOC HZ EP   1    538  2.07                             110    0.80 5  334 252 
 CBOC HN ES   2    538 36.82                             110   -1.16 3  334 252 
 CBOC HZ I         538 44.44         0.6 0.22            111            334 252 
 PRA  HZ EP   1    538  8.38                             107    0.48 4  393 210 
 PRA  HN ES        538 49.38                             107   -0.41 6  393 210 
 PRA  HZ I         538 53.98         2.2 0.26            108            393 210 
 SJC  HZ EP   4    538  8.01                             106   -1.76 0  409 327 
 SJC  HN ES   4    538 49.46                             106   -3.65 0  409 327 
 SJC  HZ I         538 59.02         0.7 0.28            107            409 327 
                                                                                
