 2014  811 0701  9.6 L   6.765 -73.124150.6  RSN  8 0.5 1.6LRSN                1
 GAP=202        1.30       5.7     7.3  8.1  0.1023E+02  0.8160E+01 -0.4719E+01E
 Epicentro: LOS SANTOS - SANTANDER                                             3
 ACTION:UPD 14-09-15 21:48 OP:nd   STATUS:               ID:20140811070109 L   I
 OLDACT:UP  14-08-11 17:14 OP:cam  STATUS:               ID:20140811070000     3
 OLDACT:REG 14-08-11 13:56 OP:cam  STATUS:               ID:20140811070000     3
 2014-08-11-0700-00M.COL___285                                                 6
 STAT SP IPHASW D HRMM SECON CODA AMPLIT PERI AZIMU VELO AIN AR TRES W  DIS CAZ7
 BAR2 SZ EP        7 1 29.59                             172   -0.1610 20.2 199 
 BAR2 SZ ES        7 1 45.59                             172    0.1310 20.2 199 
 BAR2 SZ I         7 1 46.61         5.2 0.16            170           20.2 199 
 BRR  HZ EP     C  7 1 31.47                             152   -0.0210 75.2 300 
 BRR  HE ES        7 1 48.84                             152    0.2810 75.2 300 
 BRR  HZ I         7 1 51.47         7.3 0.38            149           75.2 300 
 RUS  HZ EP        7 1 33.97                             146    0.4210 96.6 177 
 RUS  HE ES        7 1 51.95                             146   -0.2810 96.6 177 
 RUS  HZ I         7 1 53.55         2.7 0.32            147           96.6 177 
 PTB  HZ EP        7 1 36.28                             133   -0.83 9  149 260 
 PTB  HN ES        7 1 58.67                             133    0.10 9  149 260 
 PTB  HZ I         7 2  2.14         4.0 0.34            131            149 260 
 SPBC HZ EP        7 1 38.53                             130    0.20 9  162 221 
 SPBC HN ES        7 2  0.51                             130   -0.24 9  162 221 
 SPBC HZ I         7 2  3.35         6.8 0.18            130            162 221 
 ZAR  HZ EP        7 1 44.24                             123    1.51 8  208 293 
 ZAR  HN ES        7 2  8.19                             123   -0.39 8  208 293 
 ZAR  HZ I         7 2 14.51         4.1 0.26            122            208 293 
 SML  HZ EP        7 1 46.11                             118   -0.87 8  248 335 
 SML  HN ES   4    7 2 14.56                             118   -1.57 0  248 335 
 SML  HZ I         7 2 21.18         6.7 0.26            118            248 335 
 PRA  HZ EP   4    7 2  4.33                             107    1.29 0  390 210 
 PRA  HN ES        7 2 44.78                             107    0.06 6  390 210 
 PRA  HZ I         7 2 51.31         1.2 0.22            108            390 210 
 SJC  HZ EP   4    7 2  3.50                             106   -2.35 0  414 327 
                                                                                
