 2013  511 0230  9.7 L   6.176 -73.677111.1  RSN 11 0.4 2.1LRSN                1
 GAP= 67        0.88       2.6     3.1  6.3 -0.2260E+01  0.4996E+01  0.2025E+01E
 Epicentro: LA PAZ - SANTANDER                                                 3
 ACTION:UPD 13-06-20 09:49 OP:ep   STATUS:               ID:20130511023009 L   I
 2013-05-11-0230-00M.COL___256                                                 6
 STAT SP IPHASW D HRMM SECON CODA AMPLIT PERI AZIMU VELO AIN AR TRES W  DIS CAZ7
 BAR2 SZ EP        230 27.78                             145    0.2310 71.5  50 
 BAR2 SZ ES   1    230 41.65                             145    0.15 7 71.5  50 
 BAR2 SZ I         230 42.98       161.7 0.34            145           71.5  50 
 RUS  HZ IP     D  230 27.77                             145   -0.2310 72.8 115 
 RUS  HN ES   1    230 41.82                             145   -0.48 7 72.8 115 
 RUS  HZ I         230 43.03        12.4 0.38            147           72.8 115 
 PTB  HZ EP        230 28.40                             136   -0.6810 95.2 295 
 PTB  HN ES   1    230 43.81                             136   -0.41 7 95.2 295 
 PTB  HZ I         230 46.16        23.7 0.12            134           95.2 295 
 BRR  HZ IP     C  230 29.84                             134    0.1010  103 358 
 BRR  HN ES   1    230 45.95                             134    0.56 7  103 358 
 BRR  HZ I         230 48.83        15.3 0.12            132            103 358 
 GIR2 SZ EP        230 31.04                             131    0.1910  113  28 
 GIR2 SZ ES        230 47.82                             131    0.4510  113  28 
 GIR2 SZ I         230 49.56        14.0 0.14            130            113  28 
 NOR  HZ EP   1    230 34.14                             122   -0.03 7  148 243 
 NOR  HE ES   1    230 53.14                             122   -0.15 7  148 243 
 NOR  HZ I         230 55.40        18.3 0.40            121            148 243 
 PAM  SZ EP   1    230 36.78                             119   -0.01 7  168  40 
 PAM  SE ES        230 57.61                             119   -0.34 9  168  40 
 PAM  SZ I         231  1.47         7.9 0.38            119            168  40 
 CHI  HZ EP        230 36.72                             119   -0.30 9  171 182 
 CHI  HE ES   1    230 58.79                             119    0.43 7  171 182 
 CHI  HZ I         231  0.52        11.7 0.32            119            171 182 
 HEL  HZ EP   1    230 41.72                             114    1.04 6  205 271 
 HEL  HE ES   1    231  4.92                             114    0.04 6  205 271 
 HEL  HZ I         231  9.92         5.7 0.26            113            205 271 
 URE  HZ EP   4    230 46.75                             107   -0.83 0  269 310 
 URE  HN ES   4    231 15.41                             107   -1.75 0  269 310 
 SML  HZ EP        230 49.96                             105   -0.46 7  294 351 
 SML  HN ES   1    231 22.11                             105   -0.11 5  294 351 
 SML  HZ I         231 32.75        15.8 0.10            104            294 351 
 PRA  HZ EP   1    230 52.03                             104    0.38 5  303 206 
 PRA  HN ES   1    231 25.11                             104    0.71 5  303 206 
 PRA  HZ I         231 30.34        11.4 0.30            104            303 206 
                                                                                
