 2015  511 0338  9.7 L   6.807 -73.073130.7  RSN  4 0.2 1.7LRSN                1
 GAP=231        0.56       2.6     4.4  9.4 -0.5111E+01 -0.2838E+01  0.3202E+01E
 Epicentro: LOS SANTOS - SANTANDER                                             3
 ACTION:UPD 15-09-10 22:03 OP:cam  STATUS:               ID:20150511033809 L   I
 OLDACT:UP  15-05-11 16:11 OP:mh   STATUS:               ID:20150511032741     3
 OLDACT:UP  15-05-11 16:10 OP:mh   STATUS:               ID:20150511032741     3
 OLDACT:UP  15-05-11 16:10 OP:mh   STATUS:               ID:20150511032741     3
 OLDACT:UP  15-05-11 16:10 OP:mh   STATUS:               ID:20150511032741     3
 OLDACT:REG 15-05-11 12:51 OP:mh   STATUS:               ID:20150511032741     3
 2015-05-11-0327-41M.COL___276                                                 6
 STAT SP IPHASW D HRMM SECON CODA AMPLIT PERI AZIMU VELO AIN AR TRES W  DIS CAZ7
 OCA  HZ EP        338 36.65                             126   -0.3010  161 350 
 OCA  HN ES        338 58.26                             126    0.0710  161 350 
 OCA  HZ I         339  2.39         9.9 0.42            138            161 350 
 SPBC HZ EP        338 38.02                             124    0.3310  169 221 
 SPBC HN ES        338 59.37                             124   -0.1310  169 221 
 SPBC HZ I         339  8.41         3.8 0.18            134            169 221 
 ZAR  HZ EP        338 42.10                             118    0.09 9  211 291 
 ZAR  HN ES        339  7.37                             118    0.18 9  211 291 
 ZAR  HZ I         339 12.38         4.5 0.58            128            211 291 
 HEL  HN ES        339 21.34                             111   -0.29 8  280 256 
                                                                                
