 2010 1111 0109 39.2 L   6.814 -73.006146.0  RSN  4 0.2 1.9LRSN                1
 GAP=252        0.44       4.6     8.3  5.3  0.2922E+02 -0.1765E+02 -0.6949E+01E
 Epicentro: CEPITA - SANTANDER                                                 3
 ACTION:UP  10-12-17 16:51 OP:REBC STATUS:               ID:20101111010939 L   I
 2010-11-11-0105-01S.COL___129                                                 6
 STAT SP IPHASW D HRMM SECON CODA AMPLIT PERI AZIMU VELO SNR AR TRES W  DIS CAZ7
 BAR2 SZ EP   1    1 9 59.09                             167     0.0 7   32 219 
 BAR2 SZ I         1 9 59.86        10.8 0.41                            32 219 
 BAR2 SZ ES   2    110 14.10                             167    -0.4 5   32 219 
 BRR  HZ EP        110  1.08                             148    -0.110   85 293 
 BRR  HZ I         110  2.63        17.2 0.25                            85 293 
 BRR  HN ES        110 18.41                             148     0.110   85 293 
 RUS  HZ EP        110  3.11                             143     0.010  102 185 
 RUS  HN ES        110 21.82                             143     0.110  102 185 
 RUS  HZ I         110 23.63         3.9 0.71                           102 185 
 PRA  HN ES   2    111 16.07                             106    -0.3 3  401 211 
 PRA  HZ I         111 19.43         8.1 0.21                           401 211 
                                                                                
