 2014  711 0204 41.3 L   6.764 -73.440122.5  RSN  4 0.3 1.3LRSN                1
 GAP=162        0.71       4.9     4.2  5.9  0.9483E+01  0.5365E+01  0.6577E+01E
 Epicentro: EL CARMEN - SANTANDER                                              3
 ACTION:UPD 15-03-16 20:42 OP:nd   STATUS:               ID:20140711020441 L   I
 OLDACT:REG 14-07-11 12:39 OP:stll STATUS:               ID:20140711015816     3
 2014-07-11-0158-16M.COL___259                                                 6
 STAT SP IPHASW D HRMM SECON CODA AMPLIT PERI AZIMU VELO AIN AR TRES W  DIS CAZ7
 BAR2 SZ EP        2 4 58.32                             163   -0.1110 34.2 124 
 BAR2 SZ ES        2 5 11.39                             163   -0.4210 34.2 124 
 BRR  HZ EP        2 4 58.68                             157    0.0210 48.4 322 
 BRR  HN ES        2 5 12.58                             157    0.3510 48.4 322 
 BRR  HZ I         2 5 13.41        10.4 0.58            153           48.4 322 
 RUS  HZ EP        2 5  3.02                             137   -0.0810  104 158 
 RUS  HN ES        2 5 20.52                             137    0.3910  104 158 
 RUS  HZ I         2 5 21.79         2.3 0.28            136            104 158 
 PTB  HZ EP        2 5  3.46                             134    0.0710  115 258 
 PTB  HN ES        2 5 20.42                             134   -0.2110  115 258 
 PTB  HZ I         2 5 30.95         2.5 0.32            128            115 258 
                                                                                
