 2017  811 0302 23.2 L   6.828 -73.065147.0  RSN 15 0.8 1.7LRSN                1
 GAP=189        1.51       5.3     6.0  7.4  0.1427E+02  0.9711E+01  0.6489E+01E
 Epicentro: LOS SANTOS - SANTANDER                                             3
 ACTION:UPD 17-09-04 20:19 OP:rebc STATUS:               ID:20170811030223 L   I
 OLDACT:UP  17-08-23 14:43 OP:nlst STATUS:               ID:20170811030223 L   3
 OLDACT:DUP 17-08-11 15:31 OP:dhb  STATUS:               ID:20170811025742d    3
 2017-08-11-0258-00M.COL___413                                                 6
 STAT SP IPHASW D HRMM SECON CODA AMPLIT PERI AZIMU VELO AIN AR TRES W  DIS CAZ7
 BAR2 EZ IP     D  3 2 43.08                             168    0.0010 29.1 207 
 BAR2 EZ ES        3 2 58.14                             168   -0.4710 29.1 207 
 BAR2 EZ I         3 2 59.46         9.1 0.11            162           29.1 207 
 BRR  HZ IP        3 2 44.87                             150    0.0310 77.9 293 
 BRR  HN ES        3 3  2.04                             150    0.2910 77.9 293 
 BRR  HZ I         3 3  5.22        11.8 0.11            148           77.9 293 
 RUS  HZ EP        3 2 47.26                             143    0.0110  103 181 
 RUS  HN ES        3 3  6.35                             143    0.3110  103 181 
 RUS  HZ I         3 3  7.78         7.1 0.34            141            103 181 
 SPBC HZ EP        3 2 52.08                             128   -0.46 9  171 221 
 SPBC HN ES        3 3 15.45                             128    0.00 9  171 221 
 SPBC HZ I         3 3 20.45         8.1 0.23            126            171 221 
 YPLC HZ IP     C  3 2 53.78                             127    0.86 9  175 154 
 YPLC HN ES        3 3 16.20                             127    0.07 9  175 154 
 YPLC HZ I         3 3 18.61         8.1 0.23            128            175 154 
 ZAR  HZ EP        3 2 57.44                             122    1.00 8  211 290 
 ZAR  HE ES        3 3 23.17                             122    0.78 8  211 290 
 ZAR  HZ I         3 3 31.24         4.2 0.12            121            211 290 
 NOR  HZ EP        3 3  0.11                             118    0.16 8  244 235 
 NOR  HN ES   4    3 3 27.82                             118   -0.82 0  244 235 
 NOR  HZ I         3 3 29.63         4.4 0.15            117            244 235 
 CHI  HZ EP        3 3  1.06                             117   -0.47 8  254 197 
 CHI  HN ES        3 3 30.50                             117   -0.95 8  254 197 
 CHI  HZ I         3 3 34.05         2.3 0.27            116            254 197 
 HEL  HZ EP        3 3  5.63                             114    1.14 7  282 256 
 HEL  HN ES        3 3 36.35                             114   -0.38 7  282 256 
 HEL  HZ I         3 3 42.04         3.9 0.55            114            282 256 
 PTGC HZ EP        3 3  6.79                             112   -0.26 7  308 160 
 PTGC HN ES        3 3 40.31                             112   -0.98 7  308 160 
 PTGC HZ I         3 3 50.56         3.6 0.24            113            308 160 
 GUY2CHZ EP        3 3  8.81                             112    0.95 7  310 235 
 GUY2CHN ES   4    3 3 45.06                             112    2.33 0  310 235 
 GUY2CHZ I         3 3 53.39         3.1 0.50                           310 235 
 CBOC HZ EP        3 3 11.48                             109    0.26 7  343 252 
 CBOC HN ES        3 3 47.58                             109   -1.12 7  343 252 
 CBOC HZ I         3 4  4.48         0.9 0.26            109            343 252 
 PRA  HZ EP     D  3 3 17.71                             106    0.14 6  399 210 
 PRA  HN ES        3 4  0.03                             106    0.03 6  399 210 
 PRA  HZ I         3 4  3.21         2.1 0.38            106            399 210 
 ORTC HZ EP        3 3 17.97                             106   -0.08 6  403 217 
 ORTC HN ES        3 4  1.02                             106    0.17 6  403 217 
 ORTC HZ I         3 4  7.14         1.2 0.15            106            403 217 
 SJC  HZ EP     D  3 3 18.03                             106   -1.02 6  412 326 
 SJC  HN ES   1    3 3 58.56                             106   -4.08 4  412 326 
 SJC  HZ I         3 3 58.72         0.5 0.10            107            412 326 
                                                                                
