 2017  811 0855 59.4 L   6.827 -73.088142.4  RSN  7 0.4 1.3LRSN                1
 GAP=245        0.79       4.2     5.6  5.7  0.1035E+02  0.7065E+01  0.1095E+01E
 Epicentro: LOS SANTOS - SANTANDER                                             3
 ACTION:UPD 17-09-04 20:19 OP:rebc STATUS:               ID:20170811085559 L   I
 OLDACT:REG 17-08-11 13:01 OP:dhb  STATUS:               ID:20170811084742     3
 2017-08-11-0848-00M.COL___410                                                 6
 STAT SP IPHASW D HRMM SECON CODA AMPLIT PERI AZIMU VELO AIN AR TRES W  DIS CAZ7
 BAR2 EZ IP     D  856 18.58                             168   -0.1710 27.9 202 
 BAR2 EZ ES        856 33.60                             168   -0.2310 27.9 202 
 BAR2 EZ I         856 34.63         3.3 0.24            162           27.9 202 
 BRR  HZ IP     D  856 20.15                             150   -0.3210 75.6 294 
 BRR  HN ES        856 37.18                             150    0.3010 75.6 294 
 BRR  HZ I         856 40.76         6.9 0.14            147           75.6 294 
 RUS  HZ EP        856 23.63                             142    0.5810  103 180 
 RUS  HN ES        856 41.41                             142   -0.0610  103 180 
 RUS  HZ I         856 43.46         1.6 0.17            142            103 180 
 SPBC HZ EP        856 28.00                             127   -0.28 9  170 220 
 SPBC HN ES        856 51.04                             127    0.25 9  170 220 
 SPBC HZ I         856 57.21         3.9 0.08            126            170 220 
 ZAR  HZ EP        856 32.45                             121    0.29 8  209 291 
 ZAR  HN ES        856 57.49                             121   -0.21 8  209 291 
 ZAR  HZ I         857  1.88         2.8 0.12            121            209 291 
 CHI  HN ES   2    857  6.03                             116   -1.06 4  253 196 
 GUY2CHN ES   2    857 18.45                             111    0.28 4  308 235 
 GUY2CHZ I         857 23.68         1.0 0.24                           308 235 
                                                                                
