 2016  411 0523 19.4 L   6.812 -73.147143.7  RSN 17 0.5 2.1LRSN                1
 GAP=119        1.02       3.1     3.6  5.1 -0.4225E+01  0.3505E+01  0.6264E+00E
 Epicentro: LOS SANTOS - SANTANDER                                             3
 ACTION:UPD 16-05-05 14:20 OP:rebc STATUS:               ID:20160411052319 L   I
 OLDACT:UP  16-04-11 17:42 OP:mh   STATUS:               ID:20160411051746     3
 OLDACT:REG 16-04-11 13:15 OP:mh   STATUS:               ID:20160411051746     3
 2016-04-11-0517-46M.COL___285                                                 6
 STAT SP IPHASW D HRMM SECON CODA AMPLIT PERI AZIMU VELO AIN AR TRES W  DIS CAZ7
 BAR2 EZ EP     D  523 38.87                             170    0.1010 24.6 189 
 BAR2 EZ ES        523 53.58                             170   -0.3310 24.6 189 
 BAR2 EZ I         523 56.85        30.6 0.37            168           24.6 189 
 PAM  EZ IP     C  523 41.68                             151    0.3710 76.5  40 
 PAM  EN ES        523 58.92                             151    0.5010 76.5  40 
 PAM  EZ I         524  1.21        20.1 0.28            155           76.5  40 
 RUS  HZ EP        523 42.86                             143   -0.1410  102 176 
 RUS  HN ES   1    524  1.56                             143    0.11 7  102 176 
 RUS  HZ I         524  2.93         9.2 0.30            145            102 176 
 PTB  HZ EP        523 45.38                             132   -0.79 9  148 258 
 PTB  HN ES        524  6.59                             132   -0.49 9  148 258 
 PTB  HZ I         524 13.12        21.8 0.80            131            148 258 
 OCA  HN EP        523 47.07                             129   -0.32 9  159 353 
 OCA  HZ ES        524  9.49                             129    0.24 9  159 353 
 SPBC HZ EP        523 47.81                             128    0.02 9  164 219 
 SPBC HE ES        524 10.29                             128    0.33 9  164 219 
 SPBC HZ I         524 17.43        31.6 0.50            129            164 219 
 ZAR  HZ EP        523 52.35                             122    0.74 9  203 292 
 ZAR  HN ES   1    524 16.67                             122   -0.09 6  203 292 
 ZAR  HZ I         524 21.61        16.1 0.30            122            203 292 
 NOR  HZ EP        523 54.83                             118   -0.21 8  235 234 
 NOR  HN ES        524 22.19                             118   -0.67 8  235 234 
 NOR  HZ I         524 30.15        10.0 0.24            119            235 234 
 CHI  HZ EP        523 57.33                             117    0.26 8  250 195 
 CHI  HN ES        524 26.43                             117   -0.06 8  250 195 
 CHI  HZ I         524 29.34        10.5 0.62            118            250 195 
 ROSC BZ EP   1    523 58.49                             116    1.01 6  254 211 
 ROSC BN ES   4    524 28.83                             116    1.62 0  254 211 
 ROSC BZ I         524 32.90        22.6 0.45            117            254 211 
 HEL  HZ EP   1    523 59.96                             114    0.47 6  272 256 
 HEL  HE ES   1    524 31.55                             114    0.77 6  272 256 
 HEL  HZ I         524 36.62         5.9 0.30            115            272 256 
 URE  HE ES   4    524 29.53                             113   -2.63 0  283 292 
 SOCV BZ EP        524  1.64                             112   -0.61 7  301  57 
 SOCV BN ES   4    524 32.32                             112   -3.39 0  301  57 
 GUY2CHZ EP   1    524  3.74                             112    0.80 5  302 235 
 GUY2CHN ES   4    524 39.18                             112    2.24 0  302 235 
 GUY2CHZ I         524 44.95         7.5 0.60                           302 235 
 LL6C HZ EP   4    524  3.63                             110   -1.20 0  324 358 
 LL6C HN ES   4    524 37.51                             110   -2.78 0  324 358 
 LL6C HZ I         524 45.21         4.8 0.45            112            324 358 
 CBOC HZ EP        524  6.65                             109    0.43 7  334 252 
 CBOC HN ES        524 42.03                             109   -0.74 7  334 252 
 CBOC HZ I         524 55.34         2.0 0.41            110            334 252 
 SDV  BZ EP        524  8.46                             108   -0.78 6  360  50 
 SDV  BE ES   4    524 45.76                             108   -2.39 0  360  50 
 SDV  BZ I         524 48.85         1.3 0.50            110            360  50 
 ORTC HZ EP        524 13.29                             106   -0.03 6  396 216 
 ORTC HN ES        524 55.64                             106    0.23 6  396 216 
 ORTC HZ I         524 60.00         5.3 0.22            107            396 216 
                                                                                
