 2017  911 0852  8.7 L   6.797 -73.125148.9  RSN  8 0.3 1.5LRSN                1
 GAP=121        0.62       3.0     3.4  4.0  0.3025E+01 -0.1346E+00 -0.3550E+00E
 Epicentro: LOS SANTOS - SANTANDER                                             3
 ACTION:UPD 17-10-05 19:11 OP:rebc STATUS:               ID:20170911085208 L   I
 OLDACT:UP  17-09-11 17:37 OP:and  STATUS:               ID:20170911084740d    3
 OLDACT:UP  17-09-11 17:36 OP:and  STATUS:               ID:20170911084740d    3
 OLDACT:UP  17-09-11 17:36 OP:and  STATUS:               ID:20170911084740d    3
 OLDACT:UP  17-09-11 17:35 OP:and  STATUS:               ID:20170911084740d    3
 OLDACT:DUP 17-09-11 17:32 OP:and  STATUS:               ID:20170911084740d    3
 OLDACT:UP  17-09-11 17:31 OP:and  STATUS:               ID:20170911084739     3
 OLDACT:UP  17-09-11 17:09 OP:and  STATUS:               ID:20170911084739     3
 OLDACT:UP  17-09-11 17:08 OP:and  STATUS:               ID:20170911084739     3
 OLDACT:UP  17-09-11 17:08 OP:and  STATUS:               ID:20170911084739     3
 OLDACT:UP  17-09-11 17:04 OP:and  STATUS:               ID:20170911084739     3
 OLDACT:UP  17-09-11 17:04 OP:and  STATUS:               ID:20170911084739     3
 OLDACT:UP  17-09-11 17:03 OP:and  STATUS:               ID:20170911084739     3
 OLDACT:UP  17-09-11 17:03 OP:and  STATUS:               ID:20170911084739     3
 OLDACT:UP  17-09-11 17:02 OP:and  STATUS:               ID:20170911084739     3
 OLDACT:UP  17-09-11 17:02 OP:and  STATUS:               ID:20170911084739     3
 OLDACT:UP  17-09-11 17:01 OP:and  STATUS:               ID:20170911084739     3
 OLDACT:UP  17-09-11 17:01 OP:and  STATUS:               ID:20170911084739     3
 OLDACT:UP  17-09-11 16:59 OP:and  STATUS:               ID:20170911084739     3
 OLDACT:REG 17-09-11 13:43 OP:mg   STATUS:               ID:20170911084739     3
 2017-09-11-0848-00M.COL___409                                                 6
 STAT SP IPHASW D HRMM SECON CODA AMPLIT PERI AZIMU VELO AIN AR TRES W  DIS CAZ7
 BAR2 EZ EP        852 28.55                             171   -0.1410 23.5 196 
 BAR2 EZ ES        852 43.84                             171   -0.4610 23.5 196 
 BAR2 EZ I         852 46.22         7.7 0.34            169           23.5 196 
 BRR  HZ IP     D  852 30.36                             152    0.0710 73.3 298 
 BRR  HN ES        852 47.31                             152    0.1710 73.3 298 
 BRR  HZ I         852 48.41         4.1 0.36            151           73.3 298 
 PAM  EZ IP     D  852 31.42                             152    0.2510 76.3  38 
 RUS  HZ EP        852 32.87                             145    0.1610  100 177 
 RUS  HN ES        852 51.66                             145    0.2210  100 177 
 RUS  HZ I         852 52.51         4.0 0.26            145            100 177 
 SPBC HZ EP        852 37.55                             129    0.02 9  164 220 
 SPBC HN ES        853  0.23                             129    0.20 9  164 220 
 SPBC HZ I         853  4.25         4.1 0.18            129            164 220 
 ZAR  HZ EP        852 41.68                             123    0.12 8  206 292 
 ZAR  HN ES        853  6.90                             123   -0.30 8  206 292 
 ZAR  HZ I         853 11.75         3.3 0.36            123            206 292 
 NOR  HZ EP   2    852 44.66                             119   -0.11 4  236 235 
 NOR  HN ES   3    853 12.35                             119   -0.56 2  236 235 
 NOR  HZ I         853 13.56         1.7 0.14            119            236 235 
 PTGC HZ IP     C  852 51.98                             112   -0.57 7  308 159 
                                                                                
