 2015  611 0908 52.4 L   6.778 -73.107149.2  RSN  6 0.3 1.5LRSN                1
 GAP=204        0.70       3.4     5.6  6.0  0.6500E+01 -0.2580E+01 -0.3358E+01E
 Epicentro: LOS SANTOS - SANTANDER                                             3
 ACTION:UPD 15-09-10 22:11 OP:cam  STATUS:               ID:20150611090852 L   I
 OLDACT:REG 15-06-11 13:49 OP:stll STATUS:               ID:20150611085750     3
 2015-06-11-0857-50M.COL___279                                                 6
 STAT SP IPHASW D HRMM SECON CODA AMPLIT PERI AZIMU VELO AIN AR TRES W  DIS CAZ7
 BAR2 EZ EP        9 9 12.41                             171    0.0210 22.2 202 
 BAR2 EZ ES   1    9 9 27.65                             171   -0.36 7 22.2 202 
 BAR2 EZ I         9 9 28.63         7.2 0.20            169           22.2 202 
 BRR  HZ EP        9 9 14.19                             152    0.0210 76.1 299 
 BRR  HN ES        9 9 31.25                             152    0.0810 76.1 299 
 BRR  HZ I         9 9 37.93         8.8 0.36            149           76.1 299 
 RUS  HZ EP        9 9 16.52                             145    0.2410 98.0 178 
 RUS  HE ES   1    9 9 35.32                             145    0.39 7 98.0 178 
 RUS  HZ I         9 9 36.80         2.4 0.50            149           98.0 178 
 SPBC HZ EP   1    9 9 21.38                             130    0.16 7  164 221 
 SPBC HN ES        9 9 43.23                             130   -0.48 9  164 221 
 SPBC HZ I         9 9 45.63         3.9 0.10            131            164 221 
 ZAR  HE ES   1    9 9 51.87                             123    0.46 6  209 292 
 ZAR  HZ I         9 9 56.53         2.6 0.20            123            209 292 
 SML  HZ EP   1    9 9 28.91                             118   -0.71 6  248 335 
 SML  HE ES   1    9 9 58.72                             118    0.04 6  248 335 
 SML  HZ I         910  1.16         3.4 0.10            119            248 335 
                                                                                
