 2011  711 0840 38.4 L   6.760 -73.110150.2  RSN 10 0.4 2.0LRSN                1
 GAP=160        0.70       2.9     4.7  5.2 -0.6149E+01  0.3151E+01  0.1780E+01E
 Epicentro: LOS SANTOS - SANTANDER                                             3
 ACTION:UPD 12-07-25 13:59 OP:epov STATUS:               ID:20110711084038 L   I
 2011-07-11-0837-09S.COL___140                                                 6
 STAT SP IPHASW D HRMM SECON CODA AMPLIT PERI AZIMU VELO AIN AR TRES W  DIS CAZ7
 BAR2 SZ EP   1    840 58.22                             172   -0.33 8 20.2 203 
 BAR2 SZ ES   1    841 14.13                             172   -0.10 8 20.2 203 
 BAR2 SZ I         841 16.10        22.9 0.32                          20.2 203 
 BRR  HZ EP   1    841  0.21                             151   -0.18 8 76.8 300 
 BRR  HN ES   1    841 17.51                             151    0.00 8 76.8 300 
 BRR  HZ I         841 22.15        22.0 0.13                          76.8 300 
 RUS  HZ EP   1    841  2.28                             146   -0.03 8 96.0 178 
 RUS  HN ES   1    841 20.93                             146    0.00 8 96.0 178 
 RUS  HZ I         841 22.26        11.6 0.26                          96.0 178 
 BRI  SZ EP   1    841  2.86                             142   -0.11 8  111  18 
 BRI  SZ ES   1    841 22.16                             142    0.06 8  111  18 
 BRI  SZ I         841 27.20         8.6 0.34                           111  18 
 GRA  SZ EP        841  5.04                             137    0.7010  129  15 
 GRA  SZ ES   1    841 24.93                             137    0.39 7  129  15 
 GRA  SZ I         841 27.69         9.9 0.28                           129  15 
 OCA  SZ EP   1    841  6.93                             130   -0.62 7  165 352 
 OCA  SZ ES   1    841 29.66                             130   -0.60 7  165 352 
 OCA  SZ I         841 35.09        12.6 0.36                           165 352 
 NOR  SZ EP   1    841 14.35                             119   -0.16 6  235 236 
 NOR  SN ES   1    841 42.88                             119    0.24 6  235 236 
 CHI  HZ EP   1    841 15.65                             118   -0.40 6  245 196 
 CHI  HZ I         841 51.30         8.3 0.34                           245 196 
 HEL  HE ES   1    841 51.43                             115    0.45 6  275 257 
 HEL  HZ I         841 56.54        10.6 0.45                           275 257 
 PRA  HZ EP   1    841 32.13                             107    0.23 5  390 210 
 PRA  HN ES   1    842 13.79                             107    0.19 5  390 210 
                                                                                
