 2012  811 0635 58.4 L   6.711 -73.183147.6  RSN  4 0.1 1.3LRSN                1
 GAP=226        0.34       3.6     3.4  3.7  0.6061E+01  0.1462E+01  0.4373E+00E
 Epicentro: VILLANUEVA - SANTANDER                                             3
 ACTION:UPD 12-09-10 11:55 OP:ep   STATUS:               ID:20120811063558 L   I
 2012-08-11-0630-00M.COL___218                                                 6
 STAT SP IPHASW D HRMM SECON CODA AMPLIT PERI AZIMU VELO AIN AR TRES W  DIS CAZ7
 BAR2 SZ EP   1    636 18.01                             175   -0.09 7 13.1 180 
 BAR2 SZ I         636 18.32         8.6 0.10                          13.1 180 
 BAR2 SZ ES   1    636 33.40                             175   -0.05 7 13.1 180 
 BRR  HZ EP   1    636 19.86                             152    0.00 7 73.1 307 
 BRR  HZ I         636 20.46         3.2 0.10                          73.1 307 
 BRR  HN ES   1    636 36.67                             152    0.08 7 73.1 307 
 RUS  HZ EP   1    636 21.93                             147    0.24 7 91.2 173 
 RUS  HZ I         636 22.84         2.1 0.14                          91.2 173 
 RUS  HN ES   1    636 39.78                             147   -0.07 7 91.2 173 
 PTB  HZ EP   1    636 24.84                             134   -0.18 7  142 262 
 PTB  HE ES   1    636 45.84                             134    0.06 7  142 262 
                                                                                
