 2012 1011 0854 13.0 L   6.759 -73.145151.7  RSN  5 0.3 1.9LRSN                1
 GAP=138        0.49       4.6     4.8  6.1  0.5529E+01  0.6390E+01 -0.1253E+01E
 Epicentro: LOS SANTOS - SANTANDER                                             3
 ACTION:UPD 12-11-22 17:03 OP:ep   STATUS:               ID:20121011085413 L   I
 2012-10-11-0850-00M.COL___229                                                 6
 STAT SP IPHASW D HRMM SECON CODA AMPLIT PERI AZIMU VELO AIN AR TRES W  DIS CAZ7
 BAR2 SZ EP   1    854 33.23                             173   -0.05 7 18.9 193 
 BAR2 SZ ES   2    854 48.67                             173   -0.42 5 18.9 193 
 BRR  HZ EP   1    854 35.18                             153    0.24 7 73.5 302 
 BRR  HZ I         854 35.46        12.4 0.17                          73.5 302 
 BRR  HE ES   2    854 52.67                             153    0.63 5 73.5 302 
 PAM  SZ EP   1    854 36.16                             151    0.09 7 80.8  37 
 PAM  SN ES   2    854 53.77                             151   -0.28 5 80.8  37 
 PAM  SN I         854 54.68        14.7 0.14                          80.8  37 
 RUS  HZ EP   1    854 37.17                             146    0.12 7 96.1 176 
 RUS  HN ES   2    854 55.73                             146   -0.06 5 96.1 176 
 RUS  HN I         854 57.64         6.5 0.25                          96.1 176 
 ZAR  HZ EP   1    854 45.70                             123   -0.34 6  206 293 
 ZAR  HN ES   2    855 11.50                             123   -0.30 4  206 293 
 ZAR  HN I         855 18.26        11.8 0.15                           206 293 
                                                                                
