 2012  811 0315 58.5 L   6.760 -73.159147.8  RSN  4 0.2 1.2LRSN                1
 GAP=233        0.42       4.5     4.5  5.2  0.1011E+02 -0.1664E+01 -0.9079E+00E
 Epicentro: LOS SANTOS - SANTANDER                                             3
 ACTION:UPD 12-09-10 11:55 OP:ep   STATUS:               ID:20120811031558 L   I
 2012-08-11-0310-00M.COL___218                                                 6
 STAT SP IPHASW D HRMM SECON CODA AMPLIT PERI AZIMU VELO AIN AR TRES W  DIS CAZ7
 BAR2 SZ EP   1    316 18.35                             172    0.04 7 18.8 188 
 BAR2 SZ I         316 18.62         6.7 0.12                          18.8 188 
 BAR2 SZ ES   1    316 33.57                             172   -0.18 7 18.8 188 
 BRR  HZ EP   1    316 20.13                             153    0.19 7 72.1 302 
 BRR  HZ I         316 20.50         3.1 0.09                          72.1 302 
 BRR  HN ES   1    316 36.67                             153    0.02 7 72.1 302 
 RUS  HZ EP   1    316 21.92                             145   -0.25 7 96.3 175 
 RUS  HN ES   1    316 40.87                             145    0.25 7 96.3 175 
 RUS  HZ I         316 42.05         1.0 0.23                          96.3 175 
 PTB  HE ES   1    316 46.39                             133   -0.06 7  145 260 
                                                                                
