 2010  511 0820  4.7 L   6.738 -73.029127.5  RSN  5 0.4 1.0LRSN                1
 GAP=173        0.91       6.7    27.6 11.1 -0.1156E+03 -0.1368E+03  0.9875E+01E
 Epicentro: ARATOCA - SANTANDER                                                3
 ACTION:UP  10-08-24 10:04 OP:vdl  STATUS:               ID:20100511082004 L   I
 2010-05-11-0818-34S.COL___104                                                 6
 STAT SP IPHASW D HRMM SECON CODA AMPLIT PERI AZIMU VELO AIN AR TRES W  DIS CAZ7
 BAR2 SZ EP        820 22.15                             170     0.010   24 227 
 BAR2 SZ ES   1    820 35.29                             170    -0.5 7   24 227 
 BRR  HE ES   3    820 41.35                             146     0.7 2   86 298 
 RUS  HZ EP        820 26.35                             141     0.210   94 184 
 RUS  HZ I         820 27.31         1.9 0.11                            94 184 
 RUS  HN ES   3    820 43.75                             141     0.8 2   94 184 
 GUE  SZ EP        820 27.57                             134    -0.610  121   5 
 GRA  SZ EP        820 29.11                             131     0.410  129  11 
 GRA  SZ ES   1    820 47.73                             131     0.3 7  129  11 
                                                                                
