 2012  811 0942 19.6 L   6.796 -73.125146.8  RSN  6 0.4 1.4LRSN                1
 GAP=191        0.72       6.4     6.3  7.8  0.2131E+02  0.1199E+02  0.9051E+01E
 Epicentro: LOS SANTOS - SANTANDER                                             3
 ACTION:UPD 12-09-10 11:55 OP:ep   STATUS:               ID:20120811094219 L   I
 2012-08-11-0940-00M.COL___218                                                 6
 STAT SP IPHASW D HRMM SECON CODA AMPLIT PERI AZIMU VELO AIN AR TRES W  DIS CAZ7
 BAR2 SZ EP   1    942 39.11                             171   -0.23 7 23.5 196 
 BAR2 SZ ES   1    942 54.26                             171   -0.49 7 23.5 196 
 BAR2 SZ I         942 55.57         8.9 0.27                          23.5 196 
 GIR2 SZ ES   1    942 54.96                             167    0.10 7 32.1 346 
 BRR  HZ EP   1    942 41.04                             152    0.07 7 73.4 298 
 BRR  HE ES   1    942 58.19                             152    0.54 7 73.4 298 
 RUS  HZ EP   1    942 43.73                             144    0.33 7  100 177 
 RUS  HN ES   1    943  1.89                             144   -0.08 7  100 177 
 RUS  HZ I         943  3.02         2.3 0.29                           100 177 
 PTB  HE ES   1    943  8.33                             132    0.25 7  150 259 
 ZAR  HN ES   1    943 17.21                             122   -0.66 6  206 292 
                                                                                
