 2017  711 0115 58.1 L   7.444 -73.162130.7  RSN  7 0.5 1.7LRSN                1
 GAP=191        1.09       8.2     5.3  8.9 -0.2250E+01  0.1948E+02 -0.1727E+01E
 Epicentro: EL PLAYON - SANTANDER                                              3
 ACTION:UPD 17-08-30 15:31 OP:rebc STATUS:               ID:20170711011558 L   I
 OLDACT:UP  17-07-11 13:37 OP:dnl  STATUS:               ID:20170711010739     3
 OLDACT:REG 17-07-11 12:57 OP:dnl  STATUS:               ID:20170711010739     3
 2017-07-11-0108-00M.COL___378                                                 6
 STAT SP IPHASW D HRMM SECON CODA AMPLIT PERI AZIMU VELO AIN AR TRES W  DIS CAZ7
 PAM  EZ EP        116 17.68                             157    0.3910 52.3 103 
 PAM  EE ES        116 32.70                             157    0.4210 52.3 103 
 PAM  EZ I         116 35.55        13.6 0.30            159           52.3 103 
 BRR  HZ EP        116 17.53                             150   -0.0810 71.3 239 
 BRR  HN ES        116 32.64                             150   -0.2210 71.3 239 
 BRR  HZ I         116 34.67        14.4 0.16            148           71.3 239 
 BAR2 EZ IP     C  116 19.36                             142   -0.1710 94.2 181 
 BAR2 EZ ES        116 35.77                             142   -0.5010 94.2 181 
 PTB  HZ EP        116 25.94                             123   -0.56 9  175 235 
 PTB  HN ES   4    116 46.37                             123   -2.31 0  175 235 
 PTB  HZ I         116 51.71         2.7 0.54            124            175 235 
 ZAR  HZ EP   2    116 27.68                             121   -0.13 4  187 272 
 ZAR  HE ES        116 51.12                             121    0.11 9  187 272 
 ZAR  HZ I         116 53.98        10.3 0.42            122            187 272 
 SPBC HZ EP   4    116 34.50                             116    2.85 0  222 207 
 SPBC HE ES   4    116 59.66                             116    1.81 0  222 207 
 SPBC HZ I         117  3.86         5.7 0.30            117            222 207 
 GUY2CHZ EP   4    116 48.53                             106    2.31 0  346 225 
 GUY2CHN ES        117 25.10                             106    1.32 6  346 225 
 GUY2CHZ I         117 30.56         1.9 0.48                           346 225 
                                                                                
