 2013  211 0124 20.0 L   6.769 -73.143144.5  RSN  7 0.3 1.3LRSN                1
 GAP=138        0.63       3.3     3.7  5.5  0.1095E+01  0.3776E+01  0.3859E+01E
 Epicentro: LOS SANTOS - SANTANDER                                             3
 ACTION:UPD 13-03-12 09:32 OP:ep   STATUS:               ID:20130211012420 L   I
 2013-02-11-0120-00M.COL___241                                                 6
 STAT SP IPHASW D HRMM SECON CODA AMPLIT PERI AZIMU VELO AIN AR TRES W  DIS CAZ7
 BAR2 SZ EP        124 39.35                             172   -0.1110 20.0 192 
 BAR2 SZ ES   1    124 54.55                             172   -0.05 7 20.0 192 
 BAR2 SZ I         124 55.92         7.0 0.50            170           20.0 192 
 BRR  HZ EP     D  124 41.27                             152    0.1110 73.1 301 
 BRR  HN ES   1    124 58.31                             152    0.67 7 73.1 301 
 PAM  SZ EP   1    124 42.31                             150    0.04 7 79.9  38 
 PAM  SN ES   1    124 59.32                             150   -0.29 7 79.9  38 
 PAM  SZ I         125  1.34         3.8 0.27            155           79.9  38 
 RUS  HZ EP   1    124 43.64                             144    0.22 7 97.1 176 
 RUS  HN ES   1    125  1.55                             144   -0.11 7 97.1 176 
 RUS  HZ I         125  4.70         1.4 0.30            146           97.1 176 
 PTB  HZ EP   1    124 46.33                             132   -0.54 7  147 260 
 PTB  HN ES   1    125  7.39                             132   -0.41 7  147 260 
 PTB  HZ I         125 13.09         3.1 0.16            133            147 260 
 ZAR  HN ES   1    125 17.96                             122    0.03 6  206 293 
 CHI  HZ EP   1    124 57.75                             117    0.43 6  245 195 
 CHI  HN ES   1    125 26.48                             117    0.09 6  245 195 
                                                                                
