 2017  511 0820 23.5 L   6.762 -73.157152.0  RSN  4 0.3 1.3LRSN                1
 GAP=233        0.81       6.8     6.8  8.1  0.3154E+02 -0.2558E+01 -0.5111E+01E
 Epicentro: LOS SANTOS - SANTANDER                                             3
 ACTION:UPD 17-06-16 13:35 OP:jn   STATUS:               ID:20170511082023 L   I
 OLDACT:REG 17-05-11 13:39 OP:osc  STATUS:               ID:20170511081737     3
 2017-05-11-0818-00M.COL___353                                                 6
 STAT SP IPHASW D HRMM SECON CODA AMPLIT PERI AZIMU VELO AIN AR TRES W  DIS CAZ7
 BRR  HZ EP        820 45.14                             153   -0.2010 72.2 302 
 BRR  HE ES        821  2.29                             153   -0.1110 72.2 302 
 RUS  HZ EP        820 47.39                             146   -0.1610 96.5 175 
 RUS  HN ES        821  6.66                             146    0.3210 96.5 175 
 PTB  HZ EP        820 50.87                             134    0.11 9  146 260 
 PTB  HN ES        821 11.62                             134   -0.44 9  146 260 
 PTB  HZ I         821 18.37         2.3 0.36            129            146 260 
 ZAR  HE ES        821 22.63                             124    0.60 9  204 293 
                                                                                
