 2012 1011 0729 57.4 L   6.783 -73.129146.5  RSN  6 0.1 1.5LRSN                1
 GAP=139        0.34       2.3     2.6  3.2  0.1180E+01  0.9692E+00  0.4545E+00E
 Epicentro: LOS SANTOS - SANTANDER                                             3
 ACTION:UPD 12-11-22 17:03 OP:ep   STATUS:               ID:20121011072957 L   I
 2012-10-11-0730-00M.COL___229                                                 6
 STAT SP IPHASW D HRMM SECON CODA AMPLIT PERI AZIMU VELO AIN AR TRES W  DIS CAZ7
 BAR2 SZ EP   1    730 17.07                             171   -0.06 7 21.9 196 
 BAR2 SZ ES   1    730 32.71                             171    0.22 7 21.9 196 
 BAR2 SZ I         730 32.92         8.2 0.31                          21.9 196 
 GIR2 SZ EP   1    730 17.16                             166   -0.10 7 33.4 348 
 GIR2 SZ ES   1    730 32.55                             166   -0.17 7 33.4 348 
 BRR  HZ EP   1    730 18.86                             152    0.05 7 73.7 299 
 BRR  HZ I         730 20.80         4.6 0.20                          73.7 299 
 BRR  HN ES   1    730 35.63                             152    0.15 7 73.7 299 
 PAM  SZ EP   1    730 19.97                             151    0.22 7 77.7  38 
 PAM  SZ I         730 20.17         7.2 0.20                          77.7  38 
 PAM  SN ES   1    730 37.05                             151   -0.10 7 77.7  38 
 PAM  SN I         730 38.02        10.3 0.40                          77.7  38 
 RUS  HZ EP   1    730 21.11                             144   -0.02 7 98.6 177 
 RUS  HN ES   1    730 39.51                             144   -0.09 7 98.6 177 
 RUS  HZ I         730 41.14         2.0 0.28                          98.6 177 
 ZAR  HN ES   1    730 55.61                             122   -0.11 6  206 292 
 ZAR  HN I         730 56.24         4.3 0.16                           206 292 
                                                                                
