 2016  311 0005 56.6 L   6.782 -73.112146.0  RSN  7 0.3 1.5LRSN                1
 GAP=142        0.63       2.5     3.2  4.4 -0.1152E+01  0.6751E+01  0.1137E+01E
 Epicentro: LOS SANTOS - SANTANDER                                             3
 ACTION:UPD 16-05-13 21:23 OP:cam  STATUS:               ID:20160311000556 L   I
 OLDACT:REG 16-03-11 12:30 OP:cara STATUS:               ID:20160311000007     3
 2016-03-11-0000-07M.COL___274                                                 6
 STAT SP IPHASW D HRMM SECON CODA AMPLIT PERI AZIMU VELO AIN AR TRES W  DIS CAZ7
 BAR2 EZ IP        0 6 16.21                             171   -0.0310 22.3 200 
 BAR2 EZ ES        0 6 31.81                             171    0.2510 22.3 200 
 BAR2 EZ I         0 6 32.59         9.9 0.20            170           22.3 200 
 PAM  EZ IP     C  0 6 18.89                             151    0.0910 76.7  36 
 PAM  EE ES        0 6 36.23                             151    0.1110 76.7  36 
 PAM  EZ I         0 6 38.03         3.5 0.46            154           76.7  36 
 RUS  HZ EP        0 6 19.86                             145   -0.3610 98.4 178 
 RUS  HN ES        0 6 38.39                             145   -0.2510 98.4 178 
 RUS  HZ I         0 6 40.14         2.1 0.34            146           98.4 178 
 ZAR  HZ EP        0 6 29.62                             122    0.12 8  208 292 
 ZAR  HN ES        0 6 54.81                             122   -0.35 8  208 292 
 ZAR  HZ I         0 7  0.02         3.5 0.20            123            208 292 
 NOR  HZ EP        0 6 32.17                             118   -0.38 8  237 235 
 NOR  HE ES        0 7  0.88                             118    0.29 8  237 235 
 NOR  HZ I         0 7  3.54         2.7 0.24            119            237 235 
 CHI  HZ EP        0 6 34.23                             117    0.02 8  248 196 
 CHI  HN ES        0 7  3.76                             117    0.21 8  248 196 
 CHI  HZ I         0 7  6.25         1.3 0.26            119            248 196 
 GUY2CHZ EP        0 6 41.00                             112    0.56 7  303 235 
 GUY2CHN ES        0 7 14.61                             112   -0.02 7  303 235 
 GUY2CHZ I         0 7 22.75         2.8 0.78                           303 235 
                                                                                
