 2014 1011 0951 47.8 L   6.757 -73.171137.9  RSN  7 0.4 1.2LRSN                1
 GAP=135        0.89       5.3     4.5  7.9 -0.1498E+01  0.1082E+02 -0.2877E+00E
 Epicentro: LOS SANTOS - SANTANDER                                             3
 ACTION:UPD 14-11-29 23:48 OP:nd   STATUS:               ID:20141011095147 L   I
 OLDACT:DUP 14-10-11 14:26 OP:fm   STATUS:               ID:20141011094745d    3
 2014-10-11-0947-44M.COL___291                                                 6
 STAT SP IPHASW D HRMM SECON CODA AMPLIT PERI AZIMU VELO AIN AR TRES W  DIS CAZ7
 BAR2 SZ EP   1    952  6.37                             172    0.01 7 18.3 184 
 BAR2 SZ ES   1    952 20.39                             172   -0.46 7 18.3 184 
 BAR2 SZ I         952 22.73         7.5 0.26            171           18.3 184 
 BRR  HZ EP   1    952  8.38                             151    0.31 7 71.2 303 
 BRR  HE ES   1    952 24.84                             151    0.94 7 71.2 303 
 BRR  HZ I         952 25.74         4.8 0.32            149           71.2 303 
 PAM  SZ EP   1    952  9.69                             148    0.19 7 82.8  39 
 PAM  SN ES        952 26.09                             148   -0.3610 82.8  39 
 PAM  SZ I         952 28.99         3.5 0.78            152           82.8  39 
 RUS  HZ EP   1    952 10.88                             143    0.45 7 96.1 174 
 RUS  HN ES   1    952 28.25                             143    0.16 7 96.1 174 
 RUS  HZ I         952 31.30         1.3 0.20            146           96.1 174 
 PTB  HZ EP   1    952 12.98                             131   -0.79 7  144 260 
 PTB  HN ES        952 33.89                             131   -0.16 9  144 260 
 PTB  HZ I         952 39.84         1.7 0.52            131            144 260 
 ZAR  HZ EP   1    952 19.74                             121    0.11 6  203 294 
 ZAR  HE ES   1    952 44.33                             121   -0.15 6  203 294 
 ZAR  HZ I         952 52.51         1.5 0.20            121            203 294 
 GUY2CHN ES   4    953  8.39                             111    4.64 0  296 235 
 GUY2CHZ I         953 14.64         0.5 0.26                           296 235 
                                                                                
