 2010  311 0504 29.1 L   6.822 -73.079144.9  RSN 12 0.5 2.6LRSN                1
 GAP=131        0.87       4.3     6.1  5.9 -0.4521E+01  0.1494E+01  0.3401E+01E
 Epicentro: LOS SANTOS - SANTANDER                                             3
 ACTION:UP  10-08-24 09:53 OP:vdl  STATUS:               ID:20100311050429 L   I
 2010-03-11-0500-38S.COL___091                                                 6
 STAT SP IPHASW D HRMM SECON CODA AMPLIT PERI AZIMU VELO SNR AR TRES W  DIS CAZ7
 BAR2 SZ IP        5 4 48.74                             169     0.010   28 204 
 BAR2 SZ ES   1    5 5  3.37                             169    -0.6 7   28 204 
 BRR  HZ IP        5 4 50.54                             150     0.110   77 294 
 BRR  HN ES   1    5 5  7.46                             150     0.3 7   77 294 
 BRR  HZ I         5 5 10.27        59.5 0.33                            77 294 
 RUS  BZ EP   1    5 4 52.75                             143    -0.1 7  103 180 
 RUS  BN ES   2    5 5 12.09                             143     0.6 5  103 180 
 RUS  BZ I         5 5 12.68        46.6 0.27                           103 180 
 OCA  SZ EP   1    5 4 57.31                             130     0.1 7  159 350 
 OCA  SZ ES   2    5 5 18.96                             130    -0.1 5  159 350 
 OCA  SZ I         5 5 23.66        74.5 0.53                           159 350 
 CHI  HZ IP        5 5  7.08                             116    -0.1 8  253 197 
 CHI  HN ES   2    5 5 36.72                             116    -0.2 4  253 197 
 CHI  HZ I         5 5 39.67        13.7 0.46                           253 197 
 ROSC BZ EP   1    5 5  8.64                             116     0.8 6  259 212 
 ROSC BZ I         5 5 47.12        19.5 0.44                           259 212 
 HEL  HZ EP   1    5 5  9.97                             114    -0.1 6  280 256 
 HEL  HN ES   2    5 5 42.06                             114     0.0 4  280 256 
 HEL  HZ I         5 5 48.02        16.3 0.58                           280 256 
 RREF BZ EP   1    5 5 16.98                             110     1.0 5  329 230 
 RREF BE ES   2    5 5 52.98                             110     0.4 3  329 230 
 RREF BZ I         5 6  1.03        15.7 0.28                           329 230 
 DBB  SZ IP        5 5 16.55                             109    -0.8 6  347 274 
 TOL  SZ EP   2    5 5 18.43                             109     0.3 3  350 225 
 TOL  SZ ES   3    5 5 56.64                             109     0.3 2  350 225 
 SDV  BZ EP        5 5 18.28                             108     0.0 6  353  50 
 SDV  BZ I         5 5 19.33        14.6 0.09                           353  50 
 PRA  HZ EP   1    5 5 22.33                             106    -0.9 4  398 210 
 PRA  HE ES   2    5 6  4.46                             106    -1.0 3  398 210 
 PRA  HZ I         5 6 10.99        15.1 0.74                           398 210 
                                                                                
