 2015  911 0133  8.6 L   6.723 -73.041149.2  RSN  5 0.3 1.6LRSN                1
 GAP=243        0.89       5.1     6.8  6.4  0.1559E+02  0.7313E+01 -0.1254E+01E
 Epicentro: ARATOCA - SANTANDER                                                3
 ACTION:UPD 15-10-28 16:25 OP:cam  STATUS:               ID:20150911013308 L   I
 OLDACT:REG 15-09-11 12:33 OP:drio STATUS:               ID:20150911012736     3
 2015-09-11-0127-36M.COL___353                                                 6
 STAT SP IPHASW D HRMM SECON CODA AMPLIT PERI AZIMU VELO AIN AR TRES W  DIS CAZ7
 BAR2 EZ EP        133 29.15                             171    0.5010 21.3 227 
 BAR2 EZ ES        133 44.39                             171    0.1410 21.3 227 
 BAR2 EZ I         133 46.80         6.7 0.42            168           21.3 227 
 BRR  HZ EP        133 31.02                             149    0.0010 85.5 300 
 BRR  HE ES        133 48.61                             149    0.1410 85.5 300 
 RUS  HZ EP        133 31.79                             147   -0.3510 91.9 183 
 RUS  HN ES        133 49.93                             147   -0.5310 91.9 183 
 RUS  HZ I         133 54.61         4.3 0.40            147           91.9 183 
 SPBC HZ EP        133 37.93                             130    0.40 9  164 224 
 SPBC HN ES        134  0.36                             130    0.30 9  164 224 
 SPBC HZ I         134  2.86         6.4 0.34            130            164 224 
 ZAR  HZ EP        133 42.50                             121   -0.27 8  218 293 
 ZAR  HE ES        134  8.95                             121   -0.43 8  218 293 
 ZAR  HZ I         134 13.68         5.1 0.42            122            218 293 
                                                                                
