 2012 1211 0246 58.6 L   6.766 -73.158145.5  RSN  6 0.4 1.6LRSN                1
 GAP=181        0.83       7.8     7.1  9.7  0.3001E+02 -0.4540E+01 -0.1396E+02E
 Epicentro: LOS SANTOS - SANTANDER                                             3
 ACTION:UPD 13-01-04 14:26 OP:ep   STATUS:               ID:20121211024658 L   I
 2012-12-11-0240-00M.COL___242                                                 6
 STAT SP IPHASW D HRMM SECON CODA AMPLIT PERI AZIMU VELO AIN AR TRES W  DIS CAZ7
 BAR2 SZ EP   1    247 17.98                             172   -0.12 7 19.4 188 
 BAR2 SZ ES   1    247 32.61                             172   -0.72 7 19.4 188 
 BAR2 SZ I         247 34.84        17.2 0.42                          19.4 188 
 GIR2 SZ EP   1    247 18.10                             166   -0.22 7 34.8 354 
 GIR2 SZ I         247 35.52         5.9 0.14                          34.8 354 
 BRR  HZ EP   1    247 19.95                             152    0.21 7 71.9 302 
 BRR  HN ES   1    247 37.03                             152    0.79 7 71.9 302 
 BRR  HZ I         247 42.10         7.0 0.14                          71.9 302 
 RUS  HZ EP   1    247 22.18                             145    0.14 7 96.9 175 
 RUS  HN ES   1    247 40.67                             145    0.33 7 96.9 175 
 RUS  HZ I         247 41.63         4.8 0.28                          96.9 175 
 PTB  HN ES   1    247 46.01                             132   -0.20 7  146 260 
 PTB  HZ I         247 48.40         5.8 0.16                           146 260 
 ZAR  HE ES   1    247 55.98                             122   -0.35 6  204 293 
 ZAR  HZ I         248  2.89         6.3 0.38                           204 293 
 MON  HZ EP   4    247 45.06                             108   -2.66 0  355 309 
 MON  HN ES   4    248 24.50                             108   -1.54 0  355 309 
                                                                                
