 2010  611 0250 32.6 L   6.307 -73.361 20.2  RSN  4 0.2 1.7LRSN                1
 GAP=226        0.61       2.4    12.4  7.7  0.1537E+02  0.6799E+02  0.5621E+01E
 Epicentro: GUAPOTA - SANTANDER                                                3
 ACTION:UP  10-08-24 10:09 OP:vdl  STATUS:               ID:20100611025032 L   I
 2010-06-11-0245-48S.COL___117                                                 6
 STAT SP IPHASW D HRMM SECON CODA AMPLIT PERI AZIMU VELO SNR AR TRES W  DIS CAZ7
 BAR2 SZ IP        250 40.03                             117     0.410   37  32 
 BAR2 SZ ES   1    250 45.05                             117    -0.1 7   37  32 
 RUS  HZ IP     D  250 42.58                             109     0.110   55 146 
 RUS  HN ES   1    250 50.02                             109    -0.2 7   55 146 
 RUS  HZ I         250 51.11        36.6 0.21                            55 146 
 GIR2 SZ EP        250 46.55                             101    -0.310   87  12 
 BRI  SZ EP   1    250 57.74                              56     0.0 7  168  22 
                                                                                
