 2011 1111 0758 31.1 L   6.776 -73.124144.1  RSN  9 0.4 2.0LRSN                1
 GAP=140        0.81       3.5     4.5  6.1 -0.6053E+00  0.1049E+02  0.3896E+00E
 Epicentro: LOS SANTOS - SANTANDER                                             3
 ACTION:UPD 12-07-13 16:09 OP:ep   STATUS:               ID:20111111075831 L   I
 2011-11-11-0756-40S.COL___178                                                 6
 STAT SP IPHASW D HRMM SECON CODA AMPLIT PERI AZIMU VELO AIN AR TRES W  DIS CAZ7
 BAR2 SZ EP   1    758 50.78                             171    0.25 7 21.3 198 
 BAR2 SZ I         758 51.19        30.1 0.10                          21.3 198 
 BAR2 SZ ES   1    759  5.46                             171   -0.19 7 21.3 198 
 BRR  HZ EP   1    758 52.26                             151   -0.04 7 74.6 299 
 BRR  HZ I         758 53.09        32.5 0.11                          74.6 299 
 BRR  HN ES   1    759  9.41                             151    0.60 7 74.6 299 
 PAM  SZ EP   1    758 53.66                             150    0.45 7 78.0  37 
 PAM  SN ES   1    759 10.31                             150   -0.12 7 78.0  37 
 PAM  SZ I         759 11.86         8.3 0.16                          78.0  37 
 RUS  HZ EP   1    758 54.84                             144    0.32 7 97.8 177 
 RUS  HZ I         758 55.74        10.5 0.10                          97.8 177 
 RUS  HN ES        759 12.60                             144   -0.1610 97.8 177 
 OCA  SZ EP   1    758 58.78                             129   -0.82 7  163 352 
 OCA  SZ I         759 25.33        12.2 0.43                           163 352 
 ZAR  HZ EP   1    759  3.24                             122   -0.57 6  207 293 
 ZAR  HN ES   1    759 29.10                             122   -0.19 6  207 293 
 ZAR  HZ I         759 34.78        19.0 0.28                           207 293 
 NOR  SZ EP   1    759  6.56                             118   -0.25 6  235 235 
 NOR  SN ES   1    759 34.64                             118    0.00 6  235 235 
 CHI  HZ EP   1    759  9.16                             117    0.63 6  247 196 
 CHI  HN ES   1    759 36.97                             117   -0.73 6  247 196 
 CHI  HZ I         759 44.50         4.2 0.27                           247 196 
 HEL  HZ EP   1    759 12.25                             114    0.80 6  274 256 
 HEL  HN ES   1    759 42.95                             114    0.05 6  274 256 
 HEL  HZ I         759 49.25         9.0 0.33                           274 256 
                                                                                
