 2015  411 0208 54.0 L   6.203 -73.711 97.0  RSN  6 0.4 1.6LRSN                1
 GAP=158        1.01       4.3     4.9  9.2  0.2367E+01 -0.2990E+01 -0.2215E+01E
 Epicentro: LANDAZURI - SANTANDER                                              3
 ACTION:UPD 15-06-03 16:54 OP:cam  STATUS:               ID:20150411020854 L   I
 OLDACT:REG 15-04-11 14:02 OP:carl STATUS:               ID:20150411020750     3
 2015-04-11-0207-50M.COL___263                                                 6
 STAT SP IPHASW D HRMM SECON CODA AMPLIT PERI AZIMU VELO AIN AR TRES W  DIS CAZ7
 SPBC HZ EP        2 9 10.11                             140   -0.2910 72.8 213 
 SPBC HN ES        2 9 23.42                             140    0.2110 72.8 213 
 SPBC HZ I         2 9 26.33        17.7 0.20            145           72.8 213 
 RUS  HZ EP        2 9 11.67                             139    0.3310 77.5 116 
 PTB  HZ EP        2 9 11.00                             134   -0.7810 90.4 294 
 PTB  HN ES        2 9 25.44                             134   -0.2210 90.4 294 
 PTB  HZ I         2 9 28.47         6.4 0.28            135           90.4 294 
 NOR  HZ EP        2 9 17.22                             119   -0.19 9  146 241 
 NOR  HN ES        2 9 35.74                             119    0.06 9  146 241 
 NOR  HZ I         2 9 37.78         8.0 0.34            122            146 241 
 ZAR  HN ES        2 9 45.07                             113    0.71 9  191 318 
 ZAR  HZ I         2 9 49.67         7.2 0.28            114            191 318 
 GUY2CHZ EP        2 9 25.61                             110    0.21 8  213 240 
 GUY2CHE ES        2 9 50.15                             110    0.25 8  213 240 
 GUY2CHZ I         2 9 52.82         3.1 0.30                           213 240 
                                                                                
