 2016  311 0618 25.2 L   6.805 -73.151148.0  RSN  8 0.2 2.1LRSN                1
 GAP= 73        0.62       1.9     2.4  3.9 -0.2006E+00  0.2092E+01  0.1635E+00E
 Epicentro: LOS SANTOS - SANTANDER                                             3
 ACTION:UPD 16-05-13 21:23 OP:cam  STATUS:               ID:20160311061825 L   I
 OLDACT:DUP 16-03-11 18:09 OP:cara STATUS:               ID:20160311061352d    3
 OLDACT:REG 16-03-11 13:45 OP:cara STATUS:               ID:20160311061351     3
 2016-03-11-0613-51M.COL___261                                                 6
 STAT SP IPHASW D HRMM SECON CODA AMPLIT PERI AZIMU VELO AIN AR TRES W  DIS CAZ7
 BAR2 EZ EP     D  618 45.03                             170   -0.0910 23.8 188 
 BAR2 EZ ES        619  0.72                             170    0.0810 23.8 188 
 BAR2 EZ I         619  1.53        28.7 0.24            169           23.8 188 
 PAM  EZ EP        618 47.85                             151    0.1910 77.3  40 
 PAM  EZ I         618 48.10        43.2 0.20            154           77.3  40 
 PAM  EN ES        619  5.37                             151    0.2010 77.3  40 
 RUS  HZ EP        618 49.02                             144   -0.2010  101 176 
 RUS  HN ES        619  7.92                             144   -0.0410  101 176 
 RUS  HZ I         619  9.05        10.6 0.32            144            101 176 
 TAM  HZ IP     C  618 53.44                             131    0.31 9  156 105 
 TAM  HN ES        619 14.58                             131   -0.33 9  156 105 
 OCA  HZ EP        618 53.03                             130   -0.60 9  160 353 
 OCA  HN ES        619 15.95                             130    0.15 9  160 353 
 OCA  HZ I         619 18.65        19.5 0.16            131            160 353 
 SPBC HZ EP        618 53.99                             130    0.11 9  163 219 
 SPBC HN ES        619 16.00                             130   -0.25 9  163 219 
 SPBC HZ I         619 20.66        17.6 0.38            129            163 219 
 ZAR  HZ EP        618 57.88                             123    0.16 9  203 292 
 ZAR  HN ES        619 23.03                             123   -0.05 9  203 292 
 ZAR  HZ I         619 28.23        13.7 0.26            122            203 292 
 CHI  HZ EP        619  3.30                             118    0.23 8  249 195 
 CHI  HN ES        619 32.87                             118    0.26 8  249 195 
 CHI  HZ I         619 38.51         4.6 0.38            118            249 195 
                                                                                
