 2010 1211 0451  3.7 L   6.813 -73.119139.6  RSN 13 0.3 2.5LRSN                1
 GAP=138        0.54       2.2     6.1  4.4 -0.5602E+01  0.1079E+02 -0.1367E+01E
 Epicentro: LOS SANTOS - SANTANDER                                             3
 ACTION:UP  11-01-14 15:24 OP:pat  STATUS:               ID:20101211045103 L   I
 2010-12-11-0448-40S.COL___136                                                 6
 STAT SP IPHASW D HRMM SECON CODA AMPLIT PERI AZIMU VELO SNR AR TRES W  DIS CAZ7
 BAR2 SZ IP        451 22.68                             169     0.010   26 196 
 BAR2 SZ ES   1    451 37.61                             169     0.2 7   26 196 
 BAR2 SZ I         451 40.28        54.6 0.28                            26 196 
 GIR2 SZ EP   1    451 22.66                             167     0.0 7   30 344 
 RUS  HZ EP        451 26.82                             142    -0.210  102 178 
 RUS  HN ES        451 45.01                             142    -0.110  102 178 
 RUS  HZ I         451 47.26        45.0 0.17                           102 178 
 GRA  SZ EP        451 28.30                             136     0.110  123  16 
 GRA  SZ ES   1    451 47.46                             136     0.1 7  123  16 
 GRA  SZ I         451 49.12        43.9 0.23                           123  16 
 OCA  SZ EP   1    451 31.31                             128    -0.2 7  159 352 
 OCA  SZ ES   2    451 52.54                             128    -0.6 5  159 352 
 OCA  SZ I         451 56.65        34.0 0.14                           159 352 
 YOP  SZ EP   1    451 33.62                             125     0.3 7  179 154 
 YOP  SZ I         452  0.90        25.3 0.27                           179 154 
 CHI  HZ EP   2    451 41.20                             115    -0.1 4  251 196 
 CHI  HE ES   2    452  9.95                             115    -0.7 4  251 196 
 CHI  HZ I         452 17.22        14.0 0.26                           251 196 
 ROSC BZ EP   1    451 42.33                             115     0.5 6  256 211 
 ROSC BE ES   2    452 11.96                             115     0.4 4  256 211 
 ROSC BZ I         452 19.95        31.7 0.26                           256 211 
 HEL  HZ EP   2    451 44.16                             113     0.2 4  275 256 
 HEL  HZ I         452 22.49        16.0 0.23                           275 256 
 GUY  SZ EP   2    451 47.87                             111     0.4 4  305 235 
 RREF HZ EP   2    451 49.68                             109    -0.3 3  325 230 
 RREF HZ I         452 35.13        18.8 0.73                           325 230 
 TOL  SZ EP   2    451 52.49                             108     0.4 3  347 225 
 PRA  HZ EP   2    451 56.39                             105    -1.0 3  395 210 
 PRA  HN ES   2    452 38.99                             105    -0.2 3  395 210 
                                                                                
