 2011  711 0712 10.4 L   6.773 -73.113149.8  RSN  6 0.2 1.3LRSN                1
 GAP=186        0.46       2.5     4.6  4.1 -0.1704E+00  0.6001E+00 -0.9357E+00E
 Epicentro: LOS SANTOS - SANTANDER                                             3
 ACTION:UPD 12-07-25 13:59 OP:epov STATUS:               ID:20110711071210 L   I
 2011-07-11-0708-47S.COL___140                                                 6
 STAT SP IPHASW D HRMM SECON CODA AMPLIT PERI AZIMU VELO AIN AR TRES W  DIS CAZ7
 BAR2 SZ EP   1    712 30.30                             171   -0.23 7 21.5 201 
 BAR2 SZ ES   1    712 45.94                             171   -0.25 7 21.5 201 
 BAR2 SZ I         712 48.05         5.0 0.26                          21.5 201 
 BTL  SZ EP   1    712 30.56                             171    0.00 7 23.5 313 
 BTL  SZ ES   1    712 46.02                             171   -0.24 7 23.5 313 
 BRR  HZ EP   1    712 32.23                             152   -0.06 7 75.8 299 
 BRR  HE ES   1    712 49.62                             152    0.29 7 75.8 299 
 BRR  HZ I         712 53.28         4.4 0.13                          75.8 299 
 RUS  HZ EP   1    712 34.36                             145   -0.02 7 97.5 178 
 RUS  HZ I         712 34.93         1.7 0.19                          97.5 178 
 RUS  HN ES   1    712 53.46                             145    0.41 7 97.5 178 
 OCA  SZ EP   1    712 39.49                             130    0.10 7  164 352 
 OCA  SZ ES   1    713  2.07                             130    0.11 7  164 352 
 OCA  SZ I         713  4.07         3.1 0.40                           164 352 
 NOR  SN ES   1    713 14.59                             119   -0.12 6  236 236 
                                                                                
