 2012  511 0925 48.1 L   6.703 -73.152153.9  RSN  6 0.4 1.7LRSN                1
 GAP=181        0.84       5.1     6.4  9.3  0.7750E+01 -0.3496E+01 -0.1013E+02E
 Epicentro: VILLANUEVA - SANTANDER                                             3
 ACTION:UP  12-07-05 12:04 OP:pat  STATUS:               ID:20120511092548 L   I
 2012-05-11-0920-00M.COL___195                                                 6
 STAT SP IPHASW D HRMM SECON CODA AMPLIT PERI AZIMU VELO SNR AR TRES W  DIS CAZ7
 BAR2 SZ EP   1    926  8.77                             175     0.2 7   13 195 
 BAR2 SZ I         926 13.15         6.9 0.49                            13 195 
 BRR  HZ EP   1    926 10.89                             152     0.4 7   76 306 
 BRR  HN ES   1    926 28.21                             152     0.3 7   76 306 
 BRR  HZ I         926 30.55         8.4 0.17                            76 306 
 RUS  HZ EP   1    926 11.38                             148    -0.6 7   90 175 
 RUS  HN ES   1    926 30.75                             148     0.1 7   90 175 
 PTB  HZ EP   1    926 15.92                             134     0.3 7  145 263 
 PTB  HN ES   1    926 36.45                             134    -0.5 7  145 263 
 OCA  HZ EP   1    926 18.25                             129     0.2 7  171 354 
 OCA  HN ES   1    926 40.88                             129    -0.5 7  171 354 
 OCA  HZ I         926 44.49         9.1 0.22                           171 354 
 ZAR  HZ EP   1    926 21.47                             124     0.0 6  208 295 
 ZAR  HN ES   1    926 47.55                             124     0.0 6  208 295 
 ZAR  HZ I         926 53.57         2.8 0.07                           208 295 
                                                                                
