 2015  411 0052 19.2 L   6.810 -73.145150.7  RSN  9 0.5 2.1LRSN                1
 GAP=136        1.14       3.8     4.7  6.5 -0.1597E+01  0.9383E+01 -0.1809E+01E
 Epicentro: LOS SANTOS - SANTANDER                                             3
 ACTION:UPD 15-06-03 16:54 OP:cam  STATUS:               ID:20150411005219 L   I
 OLDACT:REG 15-04-11 14:00 OP:carl STATUS:               ID:20150411004750     3
 2015-04-11-0047-50M.COL___263                                                 6
 STAT SP IPHASW D HRMM SECON CODA AMPLIT PERI AZIMU VELO AIN AR TRES W  DIS CAZ7
 BAR2 EZ EP        052 39.37                             170   -0.0410 24.4 190 
 BAR2 EZ ES        052 54.83                             170   -0.3710 24.4 190 
 BRR  HZ EP        052 41.28                             153    0.4610 70.7 298 
 BRR  HN ES        052 58.78                             153    1.0610 70.7 298 
 BRR  HZ I         053  3.10        17.5 0.24            153           70.7 298 
 PAM  SZ EP        052 42.17                             152    0.3210 76.5  40 
 PAM  SN ES        052 59.56                             152    0.0110 76.5  40 
 PAM  SZ I         053  1.56        22.9 0.58            156           76.5  40 
 RUS  HZ EP        052 43.25                             145   -0.2310  102 176 
 RUS  HN ES        053  2.19                             145   -0.2610  102 176 
 RUS  HZ I         053  4.58         9.3 0.44            148            102 176 
 PTB  HZ EP        052 46.32                             133   -0.25 9  148 258 
 PTB  HN ES        053  7.39                             133   -0.55 9  148 258 
 PTB  HZ I         053 14.80        15.8 0.38            134            148 258 
 SPBC HZ EP        052 48.01                             130   -0.12 9  164 219 
 SPBC HN ES        053 10.72                             130   -0.01 9  164 219 
 SPBC HZ I         053 13.53        25.8 0.18            132            164 219 
 ZAR  HZ EP        052 51.27                             124   -0.63 9  204 292 
 ZAR  HN ES        053 17.19                             124   -0.24 9  204 292 
 ZAR  HZ I         053 19.94        10.9 0.14            125            204 292 
 SML  HZ EP        052 55.88                             119   -0.09 8  243 335 
 SML  HE ES        053 24.25                             119   -0.42 8  243 335 
 SML  HZ I         053 27.26        25.5 0.10            121            243 335 
 GUY2CHZ EP        053  4.11                             113    1.02 7  302 235 
 GUY2CHN ES        053 37.89                             113    0.55 7  302 235 
 GUY2CHZ I         053 46.31         5.6 0.38                           302 235 
                                                                                
