 2012  911 0956 59.2 L   6.768 -73.135146.1  RSN 14 0.4 2.7LRSN                1
 GAP= 67        0.72       3.0     2.5  3.9  0.6703E+00  0.1524E+01  0.3177E+01E
 Epicentro: LOS SANTOS - SANTANDER                                             3
 ACTION:UPD 12-10-22 14:18 OP:ep   STATUS:               ID:20120911095659 L   I
 2012-09-11-0950-00M.COL___227                                                 6
 STAT SP IPHASW D HRMM SECON CODA AMPLIT PERI AZIMU VELO AIN AR TRES W  DIS CAZ7
 BAR2 SZ EP        957 18.84                             172    0.0010 20.2 195 
 BAR2 SZ ES        957 33.80                             172   -0.3310 20.2 195 
 BAR2 SZ I         957 38.20       180.6 0.42                          20.2 195 
 GIR2 SZ EP        957 18.91                             166   -0.1410 34.9 349 
 GIR2 SZ ES   1    957 34.43                             166   -0.07 7 34.9 349 
 BRR  HZ IP     C  957 20.72                             152    0.1410 74.0 300 
 BRR  HN ES        957 38.00                             152    0.7810 74.0 300 
 BRR  HZ I         957 40.52        73.9 0.18                          74.0 300 
 PAM  SZ EP        957 21.68                             150    0.0810 79.4  37 
 PAM  SZ I         957 21.92       140.0 0.16                          79.4  37 
 PAM  SN ES   1    957 38.78                             150   -0.27 7 79.4  37 
 RUS  HZ EP        957 22.76                             145    0.0010 97.0 177 
 RUS  HN ES   1    957 40.90                             145   -0.21 7 97.0 177 
 RUS  HZ I         957 44.55        48.7 0.31                          97.0 177 
 PTB  HZ EP   1    957 26.13                             132   -0.15 7  148 260 
 PTB  HE ES   1    957 46.74                             132   -0.63 7  148 260 
 PTB  HZ I         957 52.79        51.6 0.38                           148 260 
 TAM  HZ EP        957 26.95                             131    0.20 9  153 104 
 TAM  HZ I         957 27.32        64.1 0.42                           153 104 
 TAM  HN ES   1    957 48.46                             131    0.26 7  153 104 
 YOP  SZ EP   1    957 29.24                             127    0.30 7  175 153 
 YOP  SE ES   2    957 51.99                             127   -0.12 4  175 153 
 YOP  SZ I         957 54.04        57.9 0.16                           175 153 
 ZAR  HZ EP   1    957 31.52                             122   -0.43 6  207 293 
 ZAR  HN ES   1    957 57.39                             122   -0.08 6  207 293 
 ZAR  HZ I         958  3.35        61.3 0.35                           207 293 
 NOR  SZ EP   1    957 34.62                             119   -0.25 6  234 235 
 NOR  SN ES   1    958  3.06                             119    0.39 6  234 235 
 NOR  SZ I         958  7.17        59.6 0.20                           234 235 
 CHI  HZ EP   1    957 36.60                             117   -0.02 6  246 196 
 CHI  HZ I         957 39.61        25.5 0.28                           246 196 
 CHI  HN ES   1    958  5.31                             117   -0.46 6  246 196 
 HEL  HZ EP   2    957 40.17                             115    0.67 4  272 257 
 HEL  HZ I         958 17.23        23.8 0.33                           272 257 
 DBB  SZ EP        957 46.32                             109   -0.57 7  341 275 
 ANIL HZ EP   1    957 49.58                             109    0.72 5  356 225 
 ANIL HN ES   2    958 28.18                             109    0.61 3  356 225 
                                                                                
