 2016  611 0643 40.1 L   6.787 -73.197133.3  RSN  4 0.4 1.5LRSN                1
 GAP=181        1.05       6.1     7.4  8.4 -0.1292E+02  0.5790E+01 -0.1240E+02E
 Epicentro: ZAPATOCA - SANTANDER                                               3
 ACTION:UPD 16-07-21 22:17 OP:rebc STATUS:               ID:20160611064337 L   I
 OLDACT:UP  16-06-14 14:38 OP:nlst STATUS:               ID:20160611064337 L   3
 OLDACT:UP  16-06-11 18:38 OP:dani STATUS:               ID:20160611063746     3
 OLDACT:REG 16-06-11 13:14 OP:dani STATUS:               ID:20160611063746     3
 2016-06-11-0637-46M.COL___331                                                 6
 STAT SP IPHASW D HRMM SECON CODA AMPLIT PERI AZIMU VELO AIN AR TRES W  DIS CAZ7
 BAR2 EZ EP     C  643 58.21                             170    0.0010 21.6 176 
 BAR2 EZ ES        644 12.44                             170    0.1110 21.6 176 
 BAR2 EZ I         644 13.97         5.6 0.14                          21.6 176 
 BRR  HZ EP     C  644  0.12                             152    0.4410 67.0 302 
 BRR  HN ES        644 14.30                             152   -0.6510 67.0 302 
 BRR  HZ I         644 18.06         4.5 0.12                          67.0 302 
 PTB  HZ EP        644  5.40                             130   -0.14 9  142 259 
 PTB  HN ES        644 25.68                             130    0.30 9  142 259 
 PTB  HZ I         644 28.19         4.1 0.12                           142 259 
 OCA  HZ EP     D  644  6.97                             126   -0.60 9  161 355 
 OCA  HN ES        644 29.52                             126    0.54 9  161 355 
 OCA  HZ I         644 33.66         8.2 0.34                           161 355 
                                                                                
