 2012  811 0254 34.5 L   6.761 -73.270142.8  RSN  6 0.4 1.4LRSN                1
 GAP=108        0.74       6.6     5.9  7.9 -0.5833E+01  0.1172E+02 -0.1461E+02E
 Epicentro: ZAPATOCA - SANTANDER                                               3
 ACTION:UPD 12-09-10 11:55 OP:ep   STATUS:               ID:20120811025434 L   I
 2012-08-11-0250-00M.COL___218                                                 6
 STAT SP IPHASW D HRMM SECON CODA AMPLIT PERI AZIMU VELO AIN AR TRES W  DIS CAZ7
 BAR2 SZ EP   1    254 53.73                             171    0.03 7 21.0 153 
 BAR2 SZ ES   1    255  8.41                             171   -0.29 7 21.0 153 
 BAR2 SZ I         255  9.39         6.7 0.38                          21.0 153 
 GIR2 SZ EP   1    254 53.81                             165   -0.13 7 36.1  13 
 GIR2 SZ ES   1    255  9.35                             165    0.23 7 36.1  13 
 BRR  HZ EP   1    254 55.59                             155    0.78 7 62.1 308 
 BRR  HZ I         254 56.05         5.4 0.14                          62.1 308 
 PAM  SZ EP   1    254 56.68                             146   -0.49 7 89.8  45 
 RUS  HE ES   1    255 16.15                             144    0.22 7 98.2 168 
 PTB  HZ EP   1    254 59.86                             134   -0.06 7  134 259 
 PTB  HN ES   1    255 19.45                             134   -0.33 7  134 259 
                                                                                
