 2010  411 0350  4.6 L   7.026 -73.029122.2  RSN  4 0.3 1.5LRSN                1
 GAP=283        0.70       7.2     7.0  5.9  0.1198E+02  0.1120E+02  0.9547E+01E
 Epicentro: PIEDECUESTA - SANTANDER                                            3
 ACTION:UPD 10-08-24 09:58 OP:vdl  STATUS:               ID:20100411035004 L   I
 2010-04-11-0347-28S.COL___097                                                 6
 STAT SP IPHASW D HRMM SECON CODA AMPLIT PERI AZIMU VELO AIN AR TRES W  DIS CAZ7
 BAR2 SZ EP        350 22.70                             156     0.210   51 200 
 BAR2 SZ ES        350 36.32                             156     0.010   51 200 
 BRR  HZ EP        350 23.30                             146    -0.310   76 277 
 BRR  HN ES        350 38.46                             146     0.110   76 277 
 BRR  HZ I         350 41.60         5.7 0.14                            76 277 
 HEL  HZ EP   2    350 45.78                             108    -0.2 4  291 252 
 HEL  HN ES   2    351 19.04                             108     0.8 4  291 252 
 HEL  HZ I         351 21.43         2.3 0.51                           291 252 
 RREF BZ EP        350 53.17                             105     0.2 6  348 228 
 RREF BE ES   1    351 29.94                             105    -0.7 5  348 228 
 RREF BZ I         351 39.83         1.4 0.24                           348 228 
                                                                                
