 2014 1011 0242 28.4 L   6.766 -73.165142.2  RSN 10 0.5 1.7LRSN                1
 GAP=136        1.03       3.7     4.5  7.2 -0.4297E+01  0.6906E+01  0.1352E+00E
 Epicentro: LOS SANTOS - SANTANDER                                             3
 ACTION:UPD 14-11-29 23:48 OP:nd   STATUS:               ID:20141011024228 L   I
 OLDACT:REG 14-10-11 12:48 OP:fm   STATUS:               ID:20141011023747     3
 2014-10-11-0237-47M.COL___295                                                 6
 STAT SP IPHASW D HRMM SECON CODA AMPLIT PERI AZIMU VELO AIN AR TRES W  DIS CAZ7
 BAR2 SZ EP   1    242 47.39                             172   -0.09 7 19.3 186 
 BAR2 SZ ES   1    243  2.46                             172    0.06 7 19.3 186 
 BAR2 SZ I         243  4.41        18.1 0.30            167           19.3 186 
 BRR  HZ EP        242 49.69                             152    0.5610 71.3 302 
 BRR  HE ES        243  5.71                             152    0.3810 71.3 302 
 BRR  HZ I         243 11.41         6.9 0.14            154           71.3 302 
 PAM  SZ EP        242 50.63                             149    0.1710 81.7  39 
 PAM  SN ES        243  7.87                             149    0.1710 81.7  39 
 PAM  SZ I         243 10.40         7.0 0.60            146           81.7  39 
 RUS  HZ EP   1    242 51.45                             144   -0.05 7 97.0 175 
 RUS  HZ I         243 10.80         4.4 0.52            139           97.0 175 
 PTB  HZ EP        242 54.63                             132   -0.15 9  145 260 
 PTB  HN ES        243 14.64                             132   -0.75 9  145 260 
 PTB  HZ I         243 18.49         6.1 0.32            131            145 260 
 SPBC HZ EP   1    242 55.42                             129   -0.76 7  159 219 
 SPBC HN ES        243 17.80                             129   -0.08 9  159 219 
 SPBC HZ I         243 20.88         3.6 0.22            126            159 219 
 OCA  HZ EP   4    242 55.17                             128   -1.56 0  164 354 
 OCA  HN ES        243 18.08                             128   -0.78 9  164 354 
 OCA  HZ I         243 20.37         4.4 0.18            127            164 354 
 ZAR  HZ EP   1    243  1.20                             122    0.68 6  204 293 
 ZAR  HN ES        243 26.15                             122    0.54 9  204 293 
 ZAR  HZ I         243 28.77         6.5 0.16            121            204 293 
 SML  HZ EP   1    243  5.15                             116    0.08 6  246 336 
 SML  HE ES        243 33.33                             116   -0.37 8  246 336 
 SML  HZ I         243 40.96        10.7 0.10            115            246 336 
 GUY2CHZ EP   4    243  6.50                             112   -4.86 0  297 235 
 GUY2CHE ES   1    243 45.43                             112    0.53 5  297 235 
 GUY2CHZ I         243 56.52         1.5 0.72                           297 235 
                                                                                
