 2014  511 0124 44.9 L   6.815 -73.172136.1  RSN  8 0.5 1.5LRSN                1
 GAP=133        1.13       3.6     4.8 10.0 -0.1830E+01  0.1810E+02  0.1863E+01E
 Epicentro: LOS SANTOS - SANTANDER                                             3
 ACTION:UPD 15-03-16 16:56 OP:nd   STATUS:               ID:20140511012444 L   I
 OLDACT:DUP 14-05-11 16:09 OP:carl STATUS:               ID:20140511011812d    3
 2014-05-11-0118-11M.COL___245                                                 6
 STAT SP IPHASW D HRMM SECON CODA AMPLIT PERI AZIMU VELO AIN AR TRES W  DIS CAZ7
 PAM  SZ EP        125  6.63                             149    0.4910 78.0  42 
 PAM  SE ES        125 22.10                             149   -0.6010 78.0  42 
 PAM  SZ I         125 25.75         4.7 0.32            155           78.0  42 
 RUS  HZ EP        125  7.77                             141   -0.0910  103 175 
 RUS  HN ES        125 26.26                             141    0.4910  103 175 
 RUS  HZ I         125 28.04         6.3 0.16            145            103 175 
 PTB  HZ EP        125 10.45                             130   -0.42 9  145 258 
 PTB  HN ES        125 30.63                             130   -0.49 9  145 258 
 PTB  HZ I         125 38.43         5.9 0.56            133            145 258 
 SPBC HZ EP        125 12.84                             127    0.21 9  163 218 
 SPBC HN ES        125 34.38                             127    0.12 9  163 218 
 ZAR  HN ES        125 41.94                             121    0.99 9  201 292 
 NOR  HZ EP        125 19.43                             116   -0.51 8  233 234 
 NOR  HE ES        125 46.86                             116   -0.42 8  233 234 
 NOR  HZ I         125 52.81         2.7 0.22            120            233 234 
 SML  HE ES        125 48.66                             116    0.03 8  241 336 
 CHI  HE ES        125 51.43                             115    0.17 8  250 194 
 CHI  HZ I         125 55.39         1.9 0.32            119            250 194 
                                                                                
