 2011  211 0301  0.4 L   7.010 -72.994  4.0  RSN  5 0.4 1.1LRSN                1
 GAP=172        0.83       2.7     7.0  8.8 -0.7634E+01 -0.9253E+01  0.6267E+00E
 Epicentro: PIEDECUESTA - SANTANDER                                            3
 ACTION:UP  11-03-28 15:07 OP:jfem STATUS:               ID:20110211030100 L   I
 2011-02-11-0258-12S.COL___136                                                 6
 STAT SP IPHASW D HRMM SECON CODA AMPLIT PERI AZIMU VELO SNR AR TRES W  DIS CAZ7
 BTL  SZ IP        3 1  6.06                              47    -0.110   32 252 
 BAR2 SZ EP   1    3 1  8.95                              47     0.0 7   51 204 
 BAR2 SZ ES   2    3 1 15.02                              47    -0.6 5   51 204 
 BAR2 SZ I         3 1 16.45        14.2 0.48                            51 204 
 GRA  SZ EP   1    3 1 16.18                              47     0.0 7   99  12 
 GRA  SZ ES   2    3 1 27.75                              47    -0.7 5   99  12 
 GRA  SZ I         3 1 29.57         4.1 0.37                            99  12 
 RUS  HZ EP   1    3 1 20.86                              47     0.5 7  124 185 
 RUS  HZ I         3 1 21.59         3.1 0.17                           124 185 
 RUS  HN ES   2    3 1 35.49                              47    -0.3 5  124 185 
 OCA  SZ EP   1    3 1 23.06                              47     0.6 7  141 345 
 OCA  SZ ES   2    3 1 39.49                              47    -0.2 5  141 345 
 OCA  SZ I         3 1 42.04         4.2 0.30                           141 345 
                                                                                
