 2010 1011 0855 25.8 L   6.746 -73.112151.9  RSN  5 0.4 2.0LRSN                1
 GAP=213        0.83       7.7    11.7  9.7 -0.3242E+02 -0.4185E+01  0.7662E+01E
 Epicentro: JORDAN - SANTANDER                                                 3
 ACTION:UP  11-02-18 11:09 OP:tino STATUS:               ID:20101011085525 L   I
 2010-10-11-0851-56S.COL___121                                                 6
 STAT SP IPHASW D HRMM SECON CODA AMPLIT PERI AZIMU VELO SNR AR TRES W  DIS CAZ7
 BAR2 SZ EP   2    855 46.05                             173    -0.1 5   19 205 
 BAR2 SZ ES   2    856  1.22                             173    -0.7 5   19 205 
 BAR2 SZ I         856  3.15         9.4 0.34                            19 205 
 BRR  HZ IP     C  855 48.27                             151     0.310   78 301 
 BRR  HZ I         855 48.56        23.7 0.18                            78 301 
 BRR  HN ES   1    856  5.73                             151     0.4 7   78 301 
 OCA  SZ EP   1    855 55.28                             130     0.1 7  167 352 
 OCA  SZ ES   1    856 17.70                             130    -0.4 7  167 352 
 OCA  SZ I         856 22.66         9.5 0.36                           167 352 
 HEL  HZ EP   2    856  6.17                             116    -0.4 4  274 257 
 HEL  HN ES   2    856 37.57                             116    -0.8 4  274 257 
 HEL  HZ I         856 45.09         2.8 0.51                           274 257 
 PRA  HZ EP   2    856 19.52                             108     0.3 3  389 210 
 PRA  HZ I         856 22.03         7.5 0.13                           389 210 
                                                                                
