 2013 1211 0132  5.7 L   6.683 -73.200144.0  RSN  4 0.4 1.3LRSN                1
 GAP=219        0.89       9.3     6.8  8.1  0.3014E+02  0.1120E+02  0.1096E+01E
 Epicentro: VILLANUEVA - SANTANDER                                             3
 ACTION:UPD 14-01-13 10:17 OP:ep   STATUS:               ID:20131211013205 L   I
 OLDACT:REG 13-12-11 06:17 OP:jn   STATUS:               ID:20131211013000     3
 2013-12-11-0130-00M.COL___285                                                 6
 STAT SP IPHASW D HRMM SECON CODA AMPLIT PERI AZIMU VELO AIN AR TRES W  DIS CAZ7
 BAR2 SZ EP        132 24.79                             175   -0.1610 10.3 169 
 BAR2 SZ ES        132 39.46                             175   -0.4810 10.3 169 
 BAR2 SZ I         132 40.68         6.4 0.28            169           10.3 169 
 BRR  HN ES   2    132 44.50                             151    1.24 5 73.4 310 
 RUS  HZ EP        132 28.75                             146    0.2910 88.4 172 
 RUS  HN ES        132 46.33                             146    0.1410 88.4 172 
 RUS  HZ I         132 47.82         1.5 0.46            145           88.4 172 
 PTB  HZ EP        132 31.65                             133   -0.19 9  140 264 
 PTB  HN ES        132 52.28                             133    0.08 9  140 264 
 PTB  HZ I         132 58.01         3.8 0.36            130            140 264 
                                                                                
