 2015 1111 0052 50.5 L   6.569 -73.526112.0  RSN 20 0.5 2.4LRSN                1
 GAP= 61        1.09       2.4     3.3  6.0 -0.2197E+01  0.1127E+02 -0.1452E+01E
 Epicentro: EL CARMEN - SANTANDER                                              3
 ACTION:UPD 15-12-28 16:09 OP:cam  STATUS:               ID:20151111005251dL   I
 OLDACT:UP  15-11-11 14:57 OP:dnl  STATUS:               ID:20151111004748     3
 OLDACT:UP  15-11-11 14:57 OP:dnl  STATUS:               ID:20151111004748     3
 OLDACT:REG 15-11-11 12:46 OP:dnl  STATUS:               ID:20151111004748     3
 2015-11-11-0047-48M.COL___319                                                 6
 STAT SP IPHASW D HRMM SECON CODA AMPLIT PERI AZIMU VELO AIN AR TRES W  DIS CAZ7
 BAR2 EZ EP     D  053  6.82                             160    0.2310 38.1  86 
 BAR2 EZ ES        053 19.17                             160    0.0310 38.1  86 
 BAR2 EZ I         053 20.48       341.9 0.36            167           38.1  86 
 BRR  HZ EP        053  7.51                             149   -0.0510 62.9 341 
 BRR  HN ES        053 21.40                             149    0.5210 62.9 341 
 BRR  HZ I         053 27.16        64.7 0.10            151           62.9 341 
 RUS  HZ EP     D  053  9.84                             139   -0.3410 89.4 147 
 RUS  HN ES        053 25.68                             139    0.1510 89.4 147 
 RUS  HZ I         053 27.10        30.6 0.19            145           89.4 147 
 SPBC HZ EP        053 11.76                             130   -0.3710  118 211 
 SPBC HN ES        053 28.30                             130   -0.7110  118 211 
 SPBC HZ I         053 34.06        91.8 0.11            133            118 211 
 PAM  EZ IPg       053 13.25                             129   -0.0610  125  47 
 PAM  EN ES        053 31.04                             129   -0.0610  125  47 
 PAM  EZ I         053 35.55        18.6 0.32            135            125  47 
 ZAR  HZ EP        053 19.01                             117    0.76 9  179 305 
 ZAR  HN ES   4    053 41.77                             117    1.87 0  179 305 
 ZAR  HZ I         053 43.30        73.8 0.29            121            179 305 
 OCA  HZ EP        053 19.07                             116   -0.12 9  186   7 
 OCA  HN ES        053 41.70                             116    0.13 9  186   7 
 NOR  HZ EP        053 18.60                             116   -0.42 9  186 233 
 NOR  HN ES   4    053 39.96                             116   -1.31 0  186 233 
 NOR  HZ I         053 44.03        51.5 0.17            120            186 233 
 ROSC BZ EP   4    053 23.64                             113    1.44 0  210 205 
 ROSC BN ES   4    053 48.65                             113    1.72 0  210 205 
 ROSC BZ I         053 53.79        16.6 0.32            117            210 205 
 CHI  HZ EP   3    053 23.48                             113    0.66 2  216 186 
 CHI  HN ES        053 47.99                             113   -0.03 8  216 186 
 CHI  HZ I         053 51.72         8.5 0.22            117            216 186 
 HEL  HZ EP        053 24.34                             112    0.47 8  226 259 
 HEL  HN ES        053 49.75                             112   -0.15 8  226 259 
 HEL  HZ I         053 55.03        26.2 0.21            115            226 259 
 GUY2CHZ EP        053 26.93                             109   -0.13 8  252 234 
 GUY2CHN ES        053 56.86                             109    1.29 8  252 234 
 GUY2CHZ I         054  5.12        20.6 0.33                           252 234 
 SML  HZ EP        053 26.66                             109   -0.01 8  254 346 
 SML  HE ES   4    053 56.70                             109    1.82 0  254 346 
 SML  HZ I         054  0.04        51.2 0.09            112            254 346 
 URE  HZ EP        053 26.40                             108   -0.68 8  257 301 
 URE  HN ES        053 54.39                             108   -1.22 8  257 301 
 URE  HZ I         053 58.46        26.0 0.19            111            257 301 
 ELA  HZ EP   4    053 32.18                             107    1.74 0  281 228 
 ELA  HN ES        054  1.05                             107   -0.55 7  281 228 
 ELA  HZ I         054  6.64        14.0 0.38            110            281 228 
 CBOC HZ EP        053 31.14                             106    0.52 7  286 254 
 CBOC HN ES        054  2.35                             106    0.44 7  286 254 
 CBOC HZ I         054  8.40         9.0 0.24            109            286 254 
 MON  HZ EP   4    053 35.53                             103   -1.22 0  340 316 
 MON  HN ES        054 12.68                             103   -0.14 7  340 316 
 MON  HZ I         054 13.70        11.0 0.19            106            340 316 
 ORTC HZ EP        053 38.41                             102    0.31 6  351 213 
 ORTC HN ES        054 15.81                             102    0.59 6  351 213 
 ORTC HZ I         054 18.13         8.9 0.10            105            351 213 
 PAL  HN ES        054 16.57                             102    0.01 6  357 239 
 PAL  HZ I         054 20.54         8.9 0.15            105            357 239 
 SJC  HZ EP   4    053 44.03                              99   -1.30 0  411 334 
 SJC  HN ES   4    054 26.14                              99   -1.96 0  411 334 
 SJC  HZ I         054 31.16         3.1 0.17            102            411 334 
                                                                                
