 2011  511 0803 49.0 L   6.856 -73.154142.0  RSN  4 0.2 1.3LRSN                1
 GAP=276        0.50       7.5     9.0  8.1 -0.3658E+02 -0.1706E+02 -0.5824E+01E
 Epicentro: LOS SANTOS - SANTANDER                                             3
 ACTION:UP  11-06-29 08:52 OP:tino STATUS:               ID:20110511080349 L   I
 2011-05-11-0800-05S.COL___137                                                 6
 STAT SP IPHASW D HRMM SECON CODA AMPLIT PERI AZIMU VELO SNR AR TRES W  DIS CAZ7
 BTL  SZ EP        8 4  8.18                             174     0.110   14 299 
 BTL  SZ ES   3    8 4 22.01                             174    -0.9 2   14 299 
 BRR  HZ EP        8 4  9.43                             154    -0.110   68 294 
 BRR  HN ES   2    8 4 25.90                             154     0.3 5   68 294 
 BRR  HZ I         8 4 30.11         2.8 0.24                            68 294 
 GRA  SZ EP        8 4 13.38                             138    -0.110  120  19 
 GRA  SZ ES   2    8 4 32.78                             138     0.3 5  120  19 
 GRA  SZ I         8 4 34.59         3.2 0.28                           120  19 
 OCA  SZ EP        8 4 16.38                             130    -0.1 9  154 353 
 OCA  SZ I         8 4 41.62         4.2 0.49                           154 353 
                                                                                
