 2016  811 0837 54.2 L   7.539 -73.549105.2  RSN 22 0.4 2.3LRSN                1
 GAP= 99        0.97       2.8     2.9  5.2 -0.3166E+00  0.1103E+01 -0.2183E+01E
 Epicentro: SABANA DE TORRES - SANTANDER                                       3
 ACTION:UPD 16-10-29 15:34 OP:rebc STATUS:               ID:20160811083754 L   I
 OLDACT:UP  16-08-11 14:36 OP:dani STATUS:               ID:20160811082145d    3
 OLDACT:UP  16-08-11 14:36 OP:dani STATUS:               ID:20160811082145d    3
 OLDACT:UP  16-08-11 14:35 OP:dani STATUS:               ID:20160811082145d    3
 OLDACT:UP  16-08-11 14:33 OP:dani STATUS:               ID:20160811082145d    3
 OLDACT:UP  16-08-11 14:29 OP:dani STATUS:               ID:20160811082145d    3
 OLDACT:UP  16-08-11 14:29 OP:dani STATUS:               ID:20160811082145d    3
 OLDACT:DUP 16-08-11 14:20 OP:dani STATUS:               ID:20160811082145d    3
 2016-08-11-0828-00M.COL___368                                                 6
 STAT SP IPHASW D HRMM SECON CODA AMPLIT PERI AZIMU VELO AIN AR TRES W  DIS CAZ7
 BRR  HZ EP        838  9.47                             152   -0.4110 51.0 201 
 BRR  HN ES        838 21.77                             152   -0.3010 51.0 201 
 BRR  HZ I         838 23.29        50.2 0.14                          51.0 201 
 PAM  HZ EP        838 13.69                             134   -0.2110 96.3 103 
 PAM  HE ES        838 29.30                             134    0.0710 96.3 103 
 PAM  HZ I         838 30.92        80.4 0.20                          96.3 103 
 BAR2 EZ EP        838 15.01                             129    0.0010  112 159 
 BAR2 EZ ES        838 31.45                             129    0.2510  112 159 
 BAR2 EZ I         838 32.87        74.5 0.68                           112 159 
 ZAR  HZ EP        838 17.46                             121   -0.46 9  145 268 
 ZAR  HN ES        838 36.64                             121    0.25 9  145 268 
 ZAR  HZ I         838 41.65        30.7 0.12                           145 268 
 PTB  HZ EP        838 17.62                             120   -0.80 9  149 222 
 PTB  HN ES        838 37.36                             120    0.09 9  149 222 
 PTB  HZ I         838 40.91        31.6 0.20                           149 222 
 RUS  HZ EP        838 23.80                             114    0.43 9  189 164 
 RUS  HE ES        838 46.88                             114    0.79 9  189 164 
 RUS  HZ I         838 49.91         9.7 0.18                           189 164 
 SPBC HZ EP        838 25.94                             110   -0.01 8  217 196 
 SPBC HE ES   4    838 51.77                             110    1.09 0  217 196 
 SPBC HZ I         838 54.06        28.1 0.23                           217 196 
 URE  HZ EP   4    838 24.48                             110   -1.79 0  220 276 
 URE  HZ I         838 55.97        22.6 0.21                           220 276 
 LL6C HZ EP        838 29.15                             107    0.05 8  245   7 
 LL6C HE ES        838 57.02                             107    0.74 8  245   7 
 NOR  HZ EP        838 31.33                             106    0.06 8  263 214 
 NOR  HE ES   4    839  3.06                             106    2.92 0  263 214 
 NOR  HZ I         839  6.73        13.3 0.24                           263 214 
 HEL  HZ EP   4    838 33.85                             106    1.95 0  265 236 
 HEL  HN ES   4    839  4.79                             106    3.53 0  265 236 
 HEL  HZ I         839 10.53        10.8 0.30                           265 236 
 ARGC HZ EP   4    838 30.57                             105   -1.21 0  268 343 
 ARGC HN ES   4    839  3.61                             105    2.56 0  268 343 
 ARGC HZ I         839 20.52        11.9 0.46                           268 343 
 SOCV BZ EP        838 36.38                             102   -0.22 7  308  74 
 SOCV BN ES   4    839  7.50                             102   -2.13 0  308  74 
 SJC  HZ EP   4    838 35.94                             102   -1.70 0  316 326 
 SJC  HN ES   4    839  8.22                             102   -3.27 0  316 326 
 SJC  HZ I         839 18.23         4.3 0.46                           316 326 
 CHI  HZ EP        838 39.01                             102    0.23 7  322 184 
 CHI  HZ I         839 29.28         5.8 0.53                           322 184 
 GUY2CHZ EP   9    838 41.74                             101    2.53 0  325 218 
 GUY2CHE ES        839 17.32                             101    0.51 7  325 218 
 GUY2CHZ I         839 22.92         6.9 0.37                           325 218 
 CBOC HZ EP        838 39.92                             101    0.61 7  329 236 
 CBOC HZ I         839 25.14         3.6 0.40                           329 236 
 ELA  HZ EP   4    838 46.13                             100    2.69 0  360 215 
 ELA  HZ I         839 29.71         6.5 0.45                           360 215 
 CRJC HZ EP   9    838 44.62                              98   -2.12 0  392  11 
 CRJC HZ ES        839 24.93                              98   -0.63 6  392  11 
 CRJC HZ I         839 31.53        14.6 0.24                           392  11 
 PTGC HZ EP        838 47.07                              97   -0.68 6  401 157 
 PTGC HE ES        839 28.73                              97   -0.75 6  401 157 
 PTGC HZ I         839 39.51         6.8 0.44                           401 157 
 PAL  HZ EP        838 50.54                              97    0.44 5  420 226 
 PRA  HZ EP   4    838 55.87                              96    2.38 0  448 199 
 PRA  HZ I         839 49.41         4.6 0.34                           448 199 
                                                                                
