 2013  311 0015 53.6 L   6.782 -73.159148.0  RSN  7 0.4 1.6LRSN                1
 GAP=136        0.69       5.7     5.1  8.9 -0.3662E-01 -0.1759E+01  0.4403E+00E
 Epicentro: LOS SANTOS - SANTANDER                                             3
 ACTION:UPD 13-04-09 14:01 OP:ep   STATUS:               ID:20130311001553 L   I
 2013-03-11-0010-00M.COL___231                                                 6
 STAT SP IPHASW D HRMM SECON CODA AMPLIT PERI AZIMU VELO AIN AR TRES W  DIS CAZ7
 BAR2 SZ I         016 30.63         5.2 0.38            157           21.1 187 
 BRR  HZ EP   1    016 15.31                             153    0.35 7 70.9 301 
 BRR  HN ES   1    016 32.25                             153    0.61 7 70.9 301 
 BRR  HZ I         016 34.43         5.1 0.48            156           70.9 301 
 PAM  SZ EP        016 16.18                             151   -0.0110 79.9  39 
 PAM  SE ES   2    016 33.27                             151   -0.55 5 79.9  39 
 PAM  SZ I         016 35.08         4.5 0.32            149           79.9  39 
 RUS  HZ EP   2    016 17.47                             145    0.05 5 98.7 175 
 RUS  HZ I         016 34.93        13.2 0.78            131           98.7 175 
 RUS  HN ES   2    016 35.71                             145   -0.30 5 98.7 175 
 PTB  HZ EP   1    016 20.62                             133    0.05 7  146 260 
 PTB  HN ES   2    016 40.95                             133   -0.68 5  146 260 
 PTB  HN I         016 43.32         6.6 0.18            127            146 260 
 ZAR  HE ES   2    016 50.80                             123   -0.70 4  204 293 
 ZAR  HE I         016 53.90         8.3 0.14            120            204 293 
 SML  HN ES   2    016 58.71                             118   -0.53 4  245 336 
                                                                                
