 2017  311 0538 15.3 L   5.753 -73.910109.4  RSN 13 0.5 1.4LRSN                1
 GAP= 75        1.03       2.4     3.0  5.4 -0.9518E+00  0.3831E+00  0.1133E+01E
 Epicentro: ALBANIA - SANTANDER                                                3
 ACTION:UPD 17-05-25 18:39 OP:jn   STATUS:               ID:20170311053815 L   I
 OLDACT:UP  17-03-11 14:50 OP:and  STATUS:               ID:20170311053745     3
 OLDACT:UP  17-03-11 14:49 OP:and  STATUS:               ID:20170311053745     3
 OLDACT:UP  17-03-11 14:49 OP:and  STATUS:               ID:20170311053745     3
 OLDACT:UP  17-03-11 14:47 OP:and  STATUS:               ID:20170311053745     3
 OLDACT:UP  17-03-11 14:47 OP:and  STATUS:               ID:20170311053745     3
 OLDACT:UP  17-03-11 14:47 OP:and  STATUS:               ID:20170311053745     3
 OLDACT:UP  17-03-11 14:46 OP:and  STATUS:               ID:20170311053745     3
 OLDACT:UP  17-03-11 14:46 OP:and  STATUS:               ID:20170311053745     3
 OLDACT:UP  17-03-11 14:46 OP:and  STATUS:               ID:20170311053745     3
 OLDACT:UP  17-03-11 14:45 OP:and  STATUS:               ID:20170311053745     3
 OLDACT:REG 17-03-11 12:38 OP:and  STATUS:               ID:20170311053745     3
 2017-03-11-0538-00M.COL___388                                                 6
 STAT SP IPHASW D HRMM SECON CODA AMPLIT PERI AZIMU VELO AIN AR TRES W  DIS CAZ7
 SPBC HZ IP     D  538 30.01                             168   -0.2710 21.2 238 
 SPBC HN ES        538 41.60                             168   -0.3910 21.2 238 
 RUS  HZ EP        538 35.38                             137    0.3710 92.8  80 
 RUS  HN ES        538 50.41                             137    0.0110 92.8  80 
 RUS  HZ I         538 51.33         4.7 0.24            136           92.8  80 
 PTB  HZ EP   3    538 34.60                             132   -0.89 2  106 325 
 PTB  HN ES        538 51.82                             132    0.5710  106 325 
 PTB  HZ I         538 53.10         2.4 0.12            130            106 325 
 BAR2 EZ EP        538 37.83                             128    0.4610  123  41 
 BAR2 EZ ES        538 55.03                             128    0.4310  123  41 
 BAR2 EZ I         538 57.58        15.4 0.46            126            123  41 
 CHI  HZ EP   2    538 38.78                             127    0.89 5  126 171 
 CHI  HN ES        538 55.15                             127   -0.3810  126 171 
 CHI  HZ I         538 56.68         2.3 0.30            127            126 171 
 BRR  HZ EP        538 39.94                             121    0.03 9  151   8 
 BRR  HN ES   4    539  1.52                             121    2.40 0  151   8 
 BRR  HZ I         539  2.10         5.9 0.13            120            151   8 
 GUY2CHZ EP        538 42.80                             118    0.13 9  171 250 
 GUY2CHN ES   3    539  5.86                             118    1.83 2  171 250 
 GUY2CHZ  IAML     539  6.94         1.7 0.40                           171 250 
 ZAR  HZ EP        538 46.71                             111   -0.64 8  219 331 
 ZAR  HN ES        539 11.72                             111   -0.64 8  219 331 
 ZAR  HZ I         539 17.28         2.9 0.23            110            219 331 
 PAM  EZ EP   3    538 49.24                             111    1.10 2  221  37 
 PAM  EN ES        539 13.07                             111   -0.69 8  221  37 
 PAM  EZ I         539 21.14         1.7 0.16            110            221  37 
 TAM  HZ EP        538 51.08                             108    0.55 8  246  72 
 PRA  HZ EP        538 50.56                             108   -0.41 8  250 206 
 PRA  HN ES        539 19.33                             108    0.53 8  250 206 
 PRA  HZ I         539 24.69         2.2 0.32            108            250 206 
 ORTC HN ES        539 19.49                             108    0.30 8  252 216 
 PTGC HZ EP        538 51.83                             107   -0.39 8  261 131 
 PTGC HN ES        539 20.68                             107   -0.36 8  261 131 
                                                                                
