 2015  111 0641 17.1 L   6.815 -73.172140.7  RSN 20 0.5 2.6LRSN                1
 GAP= 69        1.09       2.7     2.8  4.9  0.2123E+00  0.4144E+01  0.7507E-01E
 Epicentro: LOS SANTOS - SANTANDER                                             3
 ACTION:UPD 15-03-02 15:38 OP:nd   STATUS:               ID:20150111064117 L   I
 OLDACT:UP  15-01-11 16:57 OP:cam  STATUS:               ID:20150111063809     3
 OLDACT:REG 15-01-11 14:25 OP:cam  STATUS:               ID:20150111063809     3
 2015-01-11-0638-09M.COL___253                                                 6
 STAT SP IPHASW D HRMM SECON CODA AMPLIT PERI AZIMU VELO AIN AR TRES W  DIS CAZ7
 BAR2 EZ IP     D  641 36.28                             170    0.1410 24.6 183 
 BAR2 EZ ES        641 50.69                             170   -0.3110 24.6 183 
 BAR2 EZ I         641 52.09        49.9 0.22            171           24.6 183 
 BRR  HZ IP     D  641 38.20                             153    0.7010 67.8 299 
 BRR  HN ES        641 54.45                             153    1.0310 67.8 299 
 BRR  HN I         641 59.49       103.6 0.22            150           67.8 299 
 PAM  SZ IP     C  641 39.36                             150    0.5510 78.1  42 
 PAM  SN ES        641 55.95                             150    0.1910 78.1  42 
 PAM  SZ I         641 58.23        92.1 0.44            152           78.1  42 
 RUS  HZ EP        641 40.36                             142   -0.1310  102 174 
 RUS  HN ES        641 58.16                             142   -0.5710  102 174 
 RUS  HZ I         641 59.63        48.0 0.38            146            102 174 
 PTB  HZ EP        641 43.17                             131   -0.24 9  145 258 
 PTB  HN ES        642  3.55                             131   -0.39 9  145 258 
 PTB  HZ I         642  6.97        42.1 0.26            131            145 258 
 OCA  HZ EP     D  641 44.78                             129   -0.05 9  158 354 
 OCA  HN ES        642  6.22                             129   -0.24 9  158 354 
 OCA  HZ I         642 10.43        53.4 0.20            130            158 354 
 TAM  HZ IP     D  641 44.66                             129   -0.02 9  158 105 
 TAM  HZ I         641 44.75        85.4 0.20            133            158 105 
 TAM  HE ES        642  5.63                             129   -0.57 9  158 105 
 SPBC HZ EP        641 45.26                             128    0.11 9  163 218 
 SPBC HE ES        642  7.45                             128    0.41 9  163 218 
 SPBC HZ I         642  9.42        52.4 0.24            130            163 218 
 ZAR  HZ EP        641 49.30                             122    0.44 9  201 292 
 ZAR  HN ES        642 13.54                             122   -0.10 9  201 292 
 ZAR  HZ I         642 21.24        29.2 0.26            122            201 292 
 NOR  HZ EP     D  641 52.86                             118    0.49 8  233 234 
 NOR  HE ES        642 19.54                             118   -0.36 8  233 234 
 SML  HZ EP        641 52.67                             117   -0.47 8  241 336 
 SML  HN ES        642 20.99                             117   -0.27 8  241 336 
 SML  HZ I         642 31.11        43.3 0.10            117            241 336 
 CHI  HZ EP        641 54.56                             116   -0.04 8  249 194 
 HEL  HZ EP   4    641 58.35                             114    1.58 0  270 255 
 HEL  HN ES        642 27.21                             114   -0.52 8  270 255 
 HEL  HZ I         642 34.92        13.1 0.28            115            270 255 
 URE  HZ EP        641 56.75                             113   -0.79 7  280 292 
 URE  HE ES        642 28.50                             113   -0.59 7  280 292 
 URE  HZ I         642 37.23        16.7 0.16            114            280 292 
 CBOC HZ EP        642  4.06                             109    0.53 7  331 252 
 DBB  SZ EP        642  4.62                             109    0.61 7  336 274 
 DBB  SZ ES   4    642 38.90                             109   -1.71 0  336 274 
 DBB  SZ I         642 46.39        33.0 0.38            110            336 274 
 TOL  SZ EP   4    642  6.27                             108    1.23 0  343 224 
 TOL  SE ES   4    642 40.06                             108   -2.38 0  343 224 
 TOL  SZ I         642 48.76        27.2 0.24            110            343 224 
 MON  HZ EP   4 C  642  4.28                             108   -1.23 0  350 308 
 MON  HN ES        642 42.65                             108   -0.63 6  350 308 
 MON  HZ I         642 43.45         6.6 0.16            109            350 308 
 ORTC HZ EP        642 11.28                             105    0.49 6  395 216 
 PAL  HZ EP        642 12.14                             105    0.25 6  404 239 
                                                                                
