 2017  611 0541 45.1 L   6.770 -73.202156.2  RSN  4 0.2 1.2LRSN                1
 GAP=274        0.50       5.4     6.0  5.3  0.4810E+01 -0.4489E-01  0.4484E+01E
 Epicentro: ZAPATOCA - SANTANDER                                               3
 ACTION:UPD 17-09-14 16:51 OP:jn   STATUS:               ID:20170611054145 L   I
 OLDACT:REG 17-06-11 13:17 OP:osc  STATUS:               ID:20170611053731     3
 2017-06-11-0538-00M.COL___356                                                 6
 STAT SP IPHASW D HRMM SECON CODA AMPLIT PERI AZIMU VELO AIN AR TRES W  DIS CAZ7
 BRR  HZ EP        542  7.17                             155    0.0010 67.6 304 
 BRR  HE ES        542 24.41                             155    0.0010 67.6 304 
 BRR  HZ I         542 27.40         1.3 0.18            149           67.6 304 
 PTB  HZ EP        542 12.04                             136   -0.28 9  141 260 
 PTB  HE ES   2    542 33.31                             136   -0.28 5  141 260 
 PTB  HZ I         542 38.06         1.8 0.17            132            141 260 
 SPBC HE ES   2    542 36.67                             133    0.46 5  157 218 
 ZAR  HZ EP        542 18.06                             125    0.29 9  200 294 
 ZAR  HN ES        542 43.28                             125   -0.00 9  200 294 
 ZAR  HZ I         542 49.30         2.5 0.40            124            200 294 
                                                                                
