 2017  911 0442 17.8 L   6.783 -73.099140.2  RSN  4 0.3 1.1LRSN                1
 GAP=143        0.76       4.2     6.4  6.4  0.3234E+01 -0.6976E+01 -0.1459E+01E
 Epicentro: LOS SANTOS - SANTANDER                                             3
 ACTION:UPD 17-10-05 19:11 OP:rebc STATUS:               ID:20170911044217 L   I
 OLDACT:DUP 17-09-11 18:46 OP:and  STATUS:               ID:20170911043740d    3
 OLDACT:REG 17-09-11 13:00 OP:mg   STATUS:               ID:20170911043739     3
 2017-09-11-0438-00M.COL___419                                                 6
 STAT SP IPHASW D HRMM SECON CODA AMPLIT PERI AZIMU VELO AIN AR TRES W  DIS CAZ7
 BAR2 EZ EP        442 36.78                             170    0.0410 23.0 204 
 BAR2 EZ ES        442 50.97                             170   -0.5510 23.0 204 
 BAR2 EZ I         442 55.82         3.9 0.62            170           23.0 204 
 PAM  EZ EP        442 39.37                             150    0.0610 75.7  36 
 PAM  EN ES   1    442 56.28                             150    0.18 7 75.7  36 
 PAM  EZ I         442 57.89         2.2 0.26            155           75.7  36 
 BRR  HZ EP        442 38.38                             150   -0.2810 76.6 298 
 BRR  HN ES        442 55.28                             150    0.3410 76.6 298 
 BRR  HZ I         442 58.60         2.5 0.20            152           76.6 298 
 RUS  HZ EP        442 40.85                             143    0.0110 98.5 179 
 RUS  HN ES        442 59.12                             143    0.3010 98.5 179 
 RUS  HZ I         443  2.18         1.2 0.22            146           98.5 179 
                                                                                
