 2010 1211 0325 10.3 L   6.807 -73.422132.0  RSN  4 0.3 1.4LRSN                1
 GAP=204        0.60       5.7    34.5 13.2 -0.9228E+01  0.2640E+03 -0.3234E+02E
 Epicentro: SAN VICENTE DE CHUCURI - SANTANDER                                 3
 ACTION:UP  11-01-14 15:24 OP:pat  STATUS:               ID:20101211032510 L   I
 2010-12-11-0319-56S.COL___136                                                 6
 STAT SP IPHASW D HRMM SECON CODA AMPLIT PERI AZIMU VELO SNR AR TRES W  DIS CAZ7
 BAR2 SZ EP   2    325 29.01                             164     0.4 5   35 132 
 BAR2 SZ ES   2    325 42.64                             164    -0.3 5   35 132 
 BAR2 SZ I         325 45.26        10.1 0.06                            35 132 
 RUS  HZ EP   1    325 32.94                             139    -0.4 7  108 160 
 RUS  HE ES   1    325 51.46                             139     0.2 7  108 160 
 RUS  HZ I         325 52.60         3.8 0.26                           108 160 
 GRA  SZ EP   2    325 35.73                             131     0.3 5  137  30 
 GRA  SZ ES   3    325 54.37                             131    -0.6 2  137  30 
 GRA  SZ I         325 56.74         2.6 0.07                           137  30 
 OCA  SZ EP   2    325 37.53                             126     0.1 5  159   4 
 OCA  SZ I         326  3.97         4.3 0.26                           159   4 
                                                                                
