 2017  711 0131  8.8 L   6.838 -73.144150.2  RSN 14 0.4 2.2LRSN                1
 GAP=111        0.92       3.3     3.1  5.5 -0.3209E+00  0.3191E+01  0.1654E+01E
 Epicentro: LOS SANTOS - SANTANDER                                             3
 ACTION:UPD 17-08-30 15:31 OP:rebc STATUS:               ID:20170711013108 L   I
 OLDACT:UP  17-07-11 13:43 OP:dnl  STATUS:               ID:20170711012740     3
 OLDACT:REG 17-07-11 12:57 OP:dnl  STATUS:               ID:20170711012740     3
 2017-07-11-0128-00M.COL___377                                                 6
 STAT SP IPHASW D HRMM SECON CODA AMPLIT PERI AZIMU VELO AIN AR TRES W  DIS CAZ7
 BAR2 EZ IP     D  131 28.86                             169   -0.2210 27.5 189 
 BAR2 EZ ES        131 44.46                             169   -0.4210 27.5 189 
 BAR2 EZ I         131 45.09        50.5 0.28            170           27.5 189 
 BRR  HZ IP     C  131 30.66                             154    0.3010 69.5 295 
 BRR  HE ES        131 47.77                             154    0.6110 69.5 295 
 BRR  HZ I         131 49.04        25.2 0.36            150           69.5 295 
 PAM  EZ EP        131 31.80                             152    0.4710 74.1  41 
 PAM  EE ES        131 49.04                             152    0.1610 74.1  41 
 PAM  EZ I         131 51.05        54.2 0.54            152           74.1  41 
 PTB  HZ EP        131 35.71                             133   -0.54 9  149 257 
 PTB  HE ES        131 56.94                             133   -0.71 9  149 257 
 PTB  HZ I         132  1.76         9.6 0.16            131            149 257 
 SPBC HZ EP   2    131 38.85                             130    0.87 5  167 218 
 SPBC HE ES        132  0.61                             130   -0.12 9  167 218 
 SPBC HZ I         132  4.66        28.3 0.24            128            167 218 
 YPLC HZ IP     D  131 39.27                             127   -0.02 9  180 152 
 YPLC HN ES        132  3.24                             127    0.18 9  180 152 
 YPLC HZ I         132  4.34        19.0 0.22            128            180 152 
 ZAR  HZ EP   2    131 41.51                             124    0.08 4  203 291 
 ZAR  HE ES        132  7.00                             124    0.15 9  203 291 
 ZAR  HZ I         132 13.64        23.3 0.38            121            203 291 
 NOR  HZ EP        131 44.89                             119   -0.20 8  237 234 
 NOR  HN ES   4    132 12.14                             119   -1.24 0  237 234 
 NOR  HZ I         132 17.07         8.0 0.32            118            237 234 
 HEL  HZ EP   4    131 50.90                             116    1.50 0  273 255 
 HEL  HN ES        132 21.14                             116    0.09 8  273 255 
 HEL  HZ I         132 27.82         7.1 0.40            114            273 255 
 GUY2CHZ EP   4    131 54.82                             113    1.89 0  304 234 
 GUY2CHN ES   4    132 30.63                             113    3.30 0  304 234 
 GUY2CHZ I         132 35.14         8.3 0.34                           304 234 
 PTGC HZ EP   4    131 52.07                             112   -1.24 0  312 159 
 PTGC HN ES   4    132 25.54                             112   -2.47 0  312 159 
 PTGC HZ I         132 27.34        16.7 0.44            112            312 159 
 LL6C HZ EP   2    131 53.53                             111   -0.72 3  321 358 
 LL6C HN ES        132 29.09                             111   -0.59 7  321 358 
 LL6C HZ I         132 39.25        10.8 0.64            110            321 358 
 CBOC HZ EP   2    131 56.92                             111    0.82 3  335 251 
 CBOC HE ES        132 33.44                             111    0.47 7  335 251 
 CBOC HZ I         132 36.99         2.2 0.18            109            335 251 
 SJC  HZ IP   4 C  132  3.06                             107   -1.08 0  406 327 
 SJC  HN ES   4    132 44.24                             107   -3.05 0  406 327 
 SJC  HZ I         132 51.72         3.6 0.54            106            406 327 
                                                                                
