 2010 1211 0648 46.4 L   6.792 -73.121148.0  RSN 12 0.4 2.2LRSN                1
 GAP=138        0.77       3.6     8.5  7.9 -0.1469E+02  0.2516E+02 -0.5076E+00E
 Epicentro: LOS SANTOS - SANTANDER                                             3
 ACTION:UP  11-01-14 15:24 OP:pat  STATUS:               ID:20101211064846 L   I
 2010-12-11-0640-00M.COL___136                                                 6
 STAT SP IPHASW D HRMM SECON CODA AMPLIT PERI AZIMU VELO SNR AR TRES W  DIS CAZ7
 BAR2 SZ EP   1    649  6.17                             171    -0.1 8   23 197 
 BAR2 SZ ES   2    649 21.80                             171     0.0 5   23 197 
 BAR2 SZ I         649 23.07        47.6 0.08                            23 197 
 GIR2 SZ EP   1    649  6.55                             167     0.2 8   33 346 
 RUS  HZ EP   1    649 10.22                             145    -0.1 8  100 178 
 RUS  HN ES   1    649 28.86                             145    -0.1 8  100 178 
 RUS  HZ I         649 30.64        23.4 0.34                           100 178 
 GUE  SZ EP   2    649 11.69                             140     0.3 5  117  11 
 GRA  SZ EP   1    649 11.97                             138     0.1 7  126  16 
 GRA  SZ ES        649 32.07                             138     0.410  126  16 
 GRA  SZ I         649 33.06        13.6 0.42                           126  16 
 OCA  SZ EP   1    649 14.12                             130    -0.9 7  161 352 
 OCA  SZ ES   2    649 36.49                             130    -0.8 5  161 352 
 OCA  SZ I         649 41.87        15.1 0.29                           161 352 
 YOP  SZ EP   2    649 16.80                             127     0.4 5  177 154 
 YOP  SZ I         649 44.90        11.8 0.66                           177 154 
 NOR  SN ES   2    649 50.86                             119     0.3 4  237 235 
 CHI  HZ EP   1    649 24.30                             118     0.1 6  249 196 
 CHI  HE ES   2    649 53.07                             118    -0.7 4  249 196 
 CHI  HZ I         649 59.60        10.0 0.34                           249 196 
 HEL  HZ EP   2    649 27.92                             115     0.9 4  274 256 
 HEL  HZ I         650  5.32        10.2 0.55                           274 256 
 RREF HZ EP   2    649 33.36                             111     0.5 4  323 230 
 RREF HE ES   2    650  9.57                             111     0.5 4  323 230 
 RREF HZ I         650 17.56        10.8 0.53                           323 230 
 PRA  HZ EP   2    649 39.36                             107    -0.7 3  393 210 
 PRA  HN ES   2    650 21.99                             107     0.0 3  393 210 
                                                                                
