 2010  511 0629 37.3 L   6.778 -73.020139.0  RSN 11 0.4 1.7LRSN                1
 GAP=136        1.03       3.8     7.8  7.0 -0.1388E+02 -0.8788E+01  0.3601E+01E
 Epicentro: CEPITA - SANTANDER                                                 3
 ACTION:UP  10-08-24 10:04 OP:vdl  STATUS:               ID:20100511062937 L   I
 2010-05-11-0626-15S.COL___104                                                 6
 STAT SP IPHASW D HRMM SECON CODA AMPLIT PERI AZIMU VELO AIN AR TRES W  DIS CAZ7
 BAR2 SZ IP        629 56.31                             169     0.110   27 221 
 BAR2 SZ ES   1    630 10.91                             169     0.0 7   27 221 
 BRR  HZ EP        629 58.98                             147     0.410   85 296 
 BRR  HN ES   1    630 15.82                             147     0.7 7   85 296 
 BRR  HZ I         630 20.20        11.8 0.07                            85 296 
 RUS  HZ EP        630  0.27                             143     0.110   98 184 
 RUS  HZ I         630  1.41         3.7 0.52                            98 184 
 RUS  HN ES   1    630 17.68                             143    -0.4 7   98 184 
 BRI  SZ EP        630  0.92                             140     0.510  107  13 
 BRI  SZ ES   1    630 18.25                             140    -0.2 7  107  13 
 GUE  SZ EP        630  1.46                             138     0.010  117   5 
 GUE  SZ ES   1    630 19.88                             138    -0.4 7  117   5 
 GRA  SZ IP        630  2.23                             136     0.410  125  11 
 GRA  SZ ES   1    630 20.83                             136    -0.2 7  125  11 
 OCA  SZ EP        630  4.91                             127    -0.6 9  165 348 
 OCA  SZ ES   1    630 26.61                             127    -1.0 7  165 348 
 OCA  SZ I         630 32.91         6.6 0.50                           165 348 
 ROSC BN ES   2    630 45.53                             115     0.0 4  258 214 
 ROSC BZ I         630 52.72         5.4 0.51                           258 214 
 RREF BN ES   2    631  0.63                             109    -0.2 3  331 231 
 RREF BZ I         631  6.68         2.7 0.26                           331 231 
 SDV  BZ EP        630 26.11                             108     0.1 6  351  48 
 SDV  BZ I         630 26.87         1.8 0.12                           351  48 
 PRA  HZ EP        630 30.87                             105    -0.3 6  397 212 
 PRA  HN ES   1    631 12.19                             105    -1.0 4  397 212 
 PRA  HZ I         631 19.47         2.4 0.38                           397 212 
                                                                                
