 2016  611 0252 52.5 L   7.137 -73.351109.9  RSN  4 0.6 1.5LRSN                1
 GAP=258        1.16       9.3    13.5 11.0  0.3757E+02  0.5824E+02  0.4114E+02E
 Epicentro: LEBRIJA - SANTANDER                                                3
 ACTION:UPD 16-07-21 22:17 OP:rebc STATUS:               ID:20160611025252 L   I
 OLDACT:UP  16-06-11 14:43 OP:dani STATUS:               ID:20160611024741     3
 OLDACT:UP  16-06-11 14:42 OP:dani STATUS:               ID:20160611024741     3
 OLDACT:UP  16-06-11 14:41 OP:dani STATUS:               ID:20160611024741     3
 OLDACT:UP  16-06-11 14:40 OP:dani STATUS:               ID:20160611024741     3
 OLDACT:REG 16-06-11 12:30 OP:dani STATUS:               ID:20160611024741     3
 2016-06-11-0247-41M.COL___331                                                 6
 STAT SP IPHASW D HRMM SECON CODA AMPLIT PERI AZIMU VELO AIN AR TRES W  DIS CAZ7
 BRR  HZ EP     C  253  7.78                             158   -0.3210 40.1 265 
 BRR  HE ES        253 20.53                             158    0.2710 40.1 265 
 BRR  HZ I         253 21.11        12.4 0.12                          40.1 265 
 BAR2 EZ ES        253 22.95                             148   -0.1810 63.0 163 
 BAR2 EZ I         253 24.32         7.8 0.54                          63.0 163 
 PTB  HZ EP   2    253 14.61                             124   -1.32 5  139 242 
 PTB  HN ES   4    253 30.58                             124   -3.61 0  139 242 
 PTB  HZ I         253 35.11         6.4 0.20                           139 242 
 SPBC HZ EP        253 21.50                             116    0.87 9  183 206 
 SPBC HE ES        253 42.37                             116   -0.20 9  183 206 
 SPBC HZ I         253 47.28         4.0 0.14                           183 206 
                                                                                
