 2015 1111 0228  7.0 L   6.747 -73.098138.3  RSN  4 0.4 2.2LRSN                1
 GAP=145        0.93       6.0     7.2  7.9 -0.4169E+01 -0.5930E+01  0.8816E+01E
 Epicentro: LOS SANTOS - SANTANDER                                             3
 *VENEZUELA-SIN REPORTE EN AGENCIAS INTERNACIONALES                            3
 ACTION:UPD 15-12-28 16:10 OP:cam  STATUS:               ID:20151111022807 L   I
 OLDACT:UP  15-11-11 16:16 OP:dnl  STATUS:               ID:20151111021750     3
 OLDACT:REG 15-11-11 13:07 OP:dnl  STATUS:               ID:20151111021750     3
 2015-11-11-0217-50M.COL___319                                                 6
 STAT SP IPHASW D HRMM SECON CODA AMPLIT PERI AZIMU VELO AIN AR TRES W  DIS CAZ7
 BAR2 EZ EP        228 25.63                             172   -0.0710 19.5 209 
 BAR2 EZ ES        228 39.65                             172   -0.6010 19.5 209 
 BAR2 EZ I         228 41.98        55.9 0.18            172           19.5 209 
 BRR  HZ EP        228 27.49                             148   -0.3610 78.7 300 
 BRR  HN ES        228 44.49                             148    0.4110 78.7 300 
 BRR  HZ I         228 47.59        22.7 0.23            150           78.7 300 
 PAM  EZ EP     D  228 28.42                             149   -0.1510 79.0  34 
 PAM  EN ES        228 45.60                             149    0.2510 79.0  34 
 PAM  EZ I         228 47.64        36.6 0.45            152           79.0  34 
 RUS  HZ EP        228 29.98                             144    0.3610 94.5 179 
 RUS  HN ES   2    228 47.82                             144    0.59 5 94.5 179 
 RUS  HZ I         228 49.47        29.9 0.41            146           94.5 179 
                                                                                
