 2017  111 0745 58.4 L   6.787 -73.114150.0  RSN  5 0.4 0.9LRSN                1
 GAP=141        0.77       4.3     4.1  6.6 -0.1805E+01  0.2123E+01  0.3834E+01E
 Epicentro: LOS SANTOS - SANTANDER                                             3
 ACTION:UPD 17-05-22 15:58 OP:jn   STATUS:               ID:20170111074558 L   I
 OLDACT:UP  17-01-11 16:55 OP:and  STATUS:               ID:20170111073749d    3
 OLDACT:UP  17-01-11 16:55 OP:and  STATUS:               ID:20170111073749d    3
 OLDACT:DUP 17-01-11 16:53 OP:and  STATUS:               ID:20170111073749d    3
 OLDACT:UP  17-01-11 16:52 OP:and  STATUS:               ID:20170111073748     3
 OLDACT:UP  17-01-11 16:52 OP:and  STATUS:               ID:20170111073748     3
 OLDACT:UP  17-01-11 16:51 OP:and  STATUS:               ID:20170111073748     3
 OLDACT:REG 17-01-11 12:53 OP:and  STATUS:               ID:20170111073748     3
 2017-01-11-0738-00M.COL___340                                                 6
 STAT SP IPHASW D HRMM SECON CODA AMPLIT PERI AZIMU VELO AIN AR TRES W  DIS CAZ7
 BAR2 EZ EP        746 18.37                             171   -0.1910 22.8 199 
 BAR2 EZ ES   3    746 35.95                             171    1.69 2 22.8 199 
 BRR  HZ EP        746 20.74                             152    0.4910 75.0 298 
 BRR  HN ES        746 37.25                             152   -0.0110 75.0 298 
 PAM  EZ EP        746 21.02                             152   -0.0110 76.3  37 
 PAM  EN ES        746 38.47                             152   -0.2010 76.3  37 
 RUS  HZ EP        746 22.84                             145    0.3610 99.0 178 
 RUS  HN ES        746 41.07                             145   -0.1810 99.0 178 
 PTB  HZ EP        746 25.65                             132   -0.38 9  151 260 
 PTB  HN ES        746 47.50                             132   -0.05 9  151 260 
 PTB  HZ I         746 49.17         1.0 0.16            132            151 260 
                                                                                
