 2010  811 0500 51.2 L   6.799 -73.058147.4  RSN  5 0.2 1.0LRSN                1
 GAP=168        0.40       3.4     5.9  5.9  0.3950E+00 -0.1529E+02 -0.4207E+01E
 Epicentro: LOS SANTOS - SANTANDER                                             3
 ACTION:UP  10-09-07 10:54 OP:vdl  STATUS:               ID:20100811050051 L   I
 2010-08-11-0458-45S.COL___125                                                 6
 STAT SP IPHASW D HRMM SECON CODA AMPLIT PERI AZIMU VELO SNR AR TRES W  DIS CAZ7
 BAR2 SZ EP   2    5 1 10.92                             169    -0.2 5   27 211 
 BAR2 SZ ES   2    5 1 27.00                             169     0.3 5   27 211 
 BAR2 SZ I         5 1 27.53         3.5 0.17                            27 211 
 BRR  HZ EP   1    5 1 13.11                             150     0.0 7   80 295 
 BRR  HN ES   1    5 1 30.04                             150    -0.1 7   80 295 
 RUS  HZ EP   2    5 1 15.14                             144     0.0 5  100 182 
 RUS  HE ES   2    5 1 33.61                             144    -0.2 5  100 182 
 RUS  HZ I         5 1 34.58         1.5 0.40                           100 182 
 GUE  SZ EP   2    5 1 15.85                             140    -0.1 5  115   7 
 GUE  SZ I         5 1 16.45         0.9 0.15                           115   7 
 GRA  SZ EP   1    5 1 16.67                             138     0.2 7  123  13 
 GRA  SZ ES   2    5 1 35.87                             138    -0.2 5  123  13 
 GRA  SZ I         5 1 37.54         2.4 0.38                           123  13 
                                                                                
