 2013  411 0452  0.8 L   6.705 -73.229142.9  RSN  4 0.4 1.5LRSN                1
 GAP=207        1.05       8.8     8.2  9.1  0.3640E+02  0.1722E+02  0.2663E+01E
 Epicentro: VILLANUEVA - SANTANDER                                             3
 ACTION:UPD 13-05-22 14:37 OP:EP   STATUS:               ID:20130411045200 L   I
 2013-04-11-0448-50M.COL___211                                                 6
 STAT SP IPHASW D HRMM SECON CODA AMPLIT PERI AZIMU VELO AIN AR TRES W  DIS CAZ7
 BAR2 SZ ES        452 34.21                             174   -0.6510 13.5 157 
 BAR2 SZ I         452 35.15         5.3 0.32            173           13.5 157 
 BRR  HZ EP        452 21.99                             152    0.4310 69.4 310 
 BRR  HN ES   1    452 38.15                             152    0.42 7 69.4 310 
 BRR  HN I         452 41.72         9.6 0.20            151           69.4 310 
 RUS  HZ EP        452 23.62                             146   -0.0110 91.3 170 
 RUS  HN ES        452 41.82                             146    0.4010 91.3 170 
 RUS  HN I         452 43.65         4.1 0.24            148           91.3 170 
 PTB  HZ EP        452 26.05                             133   -0.53 9  137 262 
 PTB  HN ES        452 46.75                             133    0.08 9  137 262 
 PTB  HN I         452 51.10         4.2 0.22            133            137 262 
                                                                                
