 2013  411 0059  1.7 L   6.806 -73.178142.7  RSN  9 0.4 2.6LRSN                1
 GAP= 69        0.96       3.2     3.2  5.3 -0.1766E+01 -0.4942E+00  0.2706E-01E
 Epicentro: LOS SANTOS - SANTANDER                                             3
 ACTION:UPD 13-05-22 14:37 OP:EP   STATUS:               ID:20130411005901 L   I
 2013-04-11-0058-40M.COL___212                                                 6
 STAT SP IPHASW D HRMM SECON CODA AMPLIT PERI AZIMU VELO AIN AR TRES W  DIS CAZ7
 BAR2 SZ EP        059 21.14                             170    0.1410 23.6 181 
 BAR2 SZ ES        059 35.76                             170   -0.2710 23.6 181 
 BAR2 SZ I         059 39.09        55.8 0.40            170           23.6 181 
 GIR2 SZ EP        059 21.17                             167    0.1610 30.2 357 
 GIR2 SZ ES        059 35.70                             167   -0.3510 30.2 357 
 BRR  HZ IP     C  059 22.91                             153    0.5510 67.8 299 
 BRR  HN ES        059 39.46                             153    1.0110 67.8 299 
 BRR  HN I         059 40.46       113.0 0.24            153           67.8 299 
 RUS  HZ EP        059 25.31                             143    0.0610  102 174 
 RUS  HE ES        059 43.52                             143   -0.0810  102 174 
 PTB  HZ EP        059 27.74                             132   -0.41 9  144 258 
 PTB  HN ES        059 48.38                             132   -0.37 9  144 258 
 PTB  HZ I         059 50.46        22.3 0.48            132            144 258 
 CAPV BZ IP     D  059 29.23                             131    0.19 9  151  39 
 CAPV BZ ES        059 50.26                             131   -0.08 9  151  39 
 TAM  HZ IP     D  059 29.72                             129    0.21 9  159 105 
 TAM  HN ES        059 51.10                             129   -0.07 9  159 105 
 OCA  HZ EP        059 29.52                             129   -0.19 9  159 354 
 OCA  HN ES        059 50.99                             129   -0.54 9  159 354 
 OCA  HN I         059 54.29        85.1 0.20            130            159 354 
 NOR  HZ EP   1    059 36.73                             118   -0.29 6  232 234 
 NOR  HN ES        1 0  4.52                             118   -0.02 8  232 234 
 NOR  HN I         1 0  8.98        38.7 0.18            119            232 234 
                                                                                
