 2011  511 0218  0.3 L   6.822 -73.047131.6  RSN  6 0.2 1.4LRSN                1
 GAP=167        0.66       3.6     7.5  7.4 -0.2327E+01 -0.1906E+02 -0.4632E+01E
 Epicentro: LOS SANTOS - SANTANDER                                             3
 ACTION:UP  11-06-29 08:52 OP:tino STATUS:               ID:20110511021800 L   I
 2011-05-11-0215-46S.COL___131                                                 6
 STAT SP IPHASW D HRMM SECON CODA AMPLIT PERI AZIMU VELO SNR AR TRES W  DIS CAZ7
 BTL  SZ EP        218 18.53                             168     0.210   27 294 
 BAR2 SZ EP   1    218 18.29                             167    -0.1 7   29 210 
 BAR2 SZ I         218 26.49         5.9 0.73                            29 210 
 BAR2 SZ ES   1    218 32.31                             167    -0.2 7   29 210 
 BRR  HZ EP   1    218 19.95                             147    -0.5 7   80 293 
 BRR  HN ES   1    218 36.53                             147     0.3 7   80 293 
 BRR  HZ I         218 52.25        13.5 0.28                            80 293 
 RUS  HZ I         218 24.05         2.4 0.42                           103 182 
 BRI  SZ EP   1    218 22.50                             140     0.1 7  103  16 
 RUS  HZ EP   1    218 23.19                             140     0.3 7  103 182 
 RUS  HE ES   1    218 40.34                             140    -0.1 7  103 182 
 BRI  SZ I         218 43.22         4.2 0.35                           103  16 
 GRA  SZ EP   1    218 23.70                             135    -0.2 7  121  13 
 GRA  SZ ES   1    218 42.25                             135     0.0 7  121  13 
 GRA  SZ I         218 45.62         4.4 0.29                           121  13 
                                                                                
