 2014  411 0307 38.1 L   6.786 -73.068102.6  RSN  5 0.3 1.0LRSN                1
 GAP=249        0.82       6.4     6.1 19.4  0.1876E+02 -0.3476E+02 -0.3495E+02E
 Epicentro: LOS SANTOS - SANTANDER                                             3
 ACTION:UPD 14-05-13 23:07 OP:nd   STATUS:               ID:20140411030737 L   I
 OLDACT:UP  14-04-15 04:25 OP:CAM  STATUS:               ID:20140411030737 L   3
 OLDACT:REG 14-04-11 16:30 OP:stll STATUS:               ID:20140411025819     3
 2014-04-11-0258-19M.COL___246                                                 6
 STAT SP IPHASW D HRMM SECON CODA AMPLIT PERI AZIMU VELO AIN AR TRES W  DIS CAZ7
 RUS  HZ EP        3 7 57.66                             133   -0.0810 98.8 181 
 RUS  HZ I         3 8 18.49         1.5 0.22            148           98.8 181 
 PTB  HZ EP        3 8  2.42                             118   -0.38 9  156 260 
 PTB  HN ES        3 8 22.47                             118    0.38 9  156 260 
 PTB  HZ I         3 8 27.53         2.8 0.12            158            156 260 
 SPBC HZ EP        3 8  4.22                             116    0.06 9  168 222 
 SPBC HN ES   4    3 8 25.50                             116    0.99 0  168 222 
 ZAR  HZ EP        3 8  9.71                             110    0.60 8  213 292 
 ZAR  HN ES        3 8 32.88                             110   -0.44 8  213 292 
 NOR  HN ES        3 8 39.13                             107   -0.12 8  241 236 
                                                                                
