 2012  511 0831 47.9 L   6.775 -73.129141.1  RSN 13 0.4 2.7LRSN                1
 GAP=140        0.96       3.2     4.8  6.4  0.3486E+00  0.8381E+01  0.5667E+01E
 Epicentro: LOS SANTOS - SANTANDER                                             3
 ACTION:UP  12-07-05 12:04 OP:pat  STATUS:               ID:20120511083147 L   I
 2012-05-11-0830-00M.COL___195                                                 6
 STAT SP IPHASW D HRMM SECON CODA AMPLIT PERI AZIMU VELO SNR AR TRES W  DIS CAZ7
 BAR2 SZ EP        832  7.13                             171     0.210   21 196 
 BAR2 SZ ES   1    832 21.52                             171    -0.2 7   21 196 
 BAR2 SZ I         832 22.93       135.5 0.12                            21 196 
 BRR  HZ EP        832  9.06                             151     0.410   74 300 
 BRR  HN ES   1    832 25.83                             151     0.9 7   74 300 
 BRR  HZ I         832 27.10       130.9 0.13                            74 300 
 PAM  SZ EP   1    832 10.03                             150     0.4 7   78  37 
 PAM  SZ I         832 10.31       162.4 0.20                            78  37 
 PAM  SN ES   1    832 26.35                             150    -0.3 7   78  37 
 RUS  HZ EP   1    832 11.04                             144     0.1 7   98 177 
 RUS  HN ES   1    832 28.59                             144    -0.4 7   98 177 
 RUS  HZ I         832 30.93        86.0 0.36                            98 177 
 PTB  HZ EP   1    832 13.89                             131    -0.7 7  149 260 
 PTB  HN ES   1    832 34.94                             131    -0.5 7  149 260 
 PTB  HZ I         832 37.13        67.8 0.17                           149 260 
 OCA  HZ EP   1    832 15.49                             128    -0.6 7  163 353 
 OCA  HE ES   1    832 37.62                             128    -0.5 7  163 353 
 OCA  HZ I         832 39.32       119.2 0.38                           163 353 
 ZAR  HZ EP   1    832 20.20                             121    -0.1 6  207 293 
 ZAR  HN ES        832 45.70                             121     0.1 8  207 293 
 ZAR  HZ I         832 53.15        71.2 0.18                           207 293 
 CHI  HZ EP   1    832 25.35                             116     0.3 6  246 196 
 CHI  HN ES   1    832 53.68                             116    -0.4 6  246 196 
 CHI  HZ I         832 57.84        26.7 0.39                           246 196 
 ROSC BZ EP   1    832 25.77                             116     0.2 6  251 212 
 ROSC BN ES   1    832 54.32                             116    -0.7 6  251 212 
 ROSC BZ I         833  0.90        40.9 0.34                           251 212 
 VIL  SZ EP   1    832 31.25                             111     0.4 5  301 192 
 VIL  SN ES   1    833  4.97                             111     0.7 5  301 192 
 VIL  SZ I         833  8.80        14.5 0.34                           301 192 
 DBB  SZ EP   1    832 35.43                             108     0.0 5  341 275 
 PRA  HZ EP   1    832 41.06                             106     0.0 4  391 210 
 PRA  HN ES   1    833 22.52                             106     0.0 4  391 210 
 YOT  HZ EP   1    832 49.95                             102    -0.8 4  471 229 
 YOT  HZ I         832 54.87         4.6 0.29                           471 229 
 YOT  HN ES   1    833 40.33                             102     0.6 4  471 229 
                                                                                
