 2017  911 0921 17.1 L   5.859 -73.814106.8  RSN  6 0.3 1.3LRSN                1
 GAP=144        0.55       3.3     3.1  5.4 -0.6486E+01 -0.2284E+00 -0.9520E+00E
 Epicentro: JESUS MARIA - SANTANDER                                            3
 ACTION:UPD 17-10-05 19:11 OP:rebc STATUS:               ID:20170911092117 L   I
 OLDACT:UP  17-09-11 16:29 OP:and  STATUS:               ID:20170911091744d    3
 OLDACT:UP  17-09-11 16:29 OP:and  STATUS:               ID:20170911091744d    3
 OLDACT:DUP 17-09-11 16:24 OP:and  STATUS:               ID:20170911091744d    3
 2017-09-11-0918-00M.COL___406                                                 6
 STAT SP IPHASW D HRMM SECON CODA AMPLIT PERI AZIMU VELO AIN AR TRES W  DIS CAZ7
 SPBC HZ IP     C  921 32.24                             160   -0.0610 36.6 231 
 SPBC HN ES        921 44.17                             160    0.0110 36.6 231 
 SPBC HZ I         921 45.67         4.7 0.24            160           36.6 231 
 RUS  HZ EP        921 35.79                             140    0.1810 81.0  87 
 BAR2 EZ IP   3 D  921 37.18                             132   -0.30 2  107  41 
 BAR2 EZ ES        921 53.37                             132   -0.0210  107  41 
 BAR2 EZ I         921 55.56         6.5 0.34            131            107  41 
 NOR  HZ IP     C  921 38.32                             128   -0.2610  121 254 
 NOR  HN ES        921 55.57                             128    0.2210  121 254 
 NOR  HZ I         921 56.55         5.5 0.24            128            121 254 
 BRR  HZ EP   3    921 41.86                             123    1.65 2  138   5 
 BRR  HN ES        921 58.10                             123   -0.16 9  138   5 
 BRR  HZ I         922  1.53         5.2 0.38            122            138   5 
 ZAR  HZ EP   4    921 52.94                             111    4.45 0  214 327 
 ZAR  HN ES   4    922 10.27                             111   -2.73 0  214 327 
 ZAR  HZ I         922 17.75         1.0 0.34            111            214 327 
                                                                                
