 2015  411 0133 16.4 L   6.784 -73.168153.5  RSN  8 0.5 2.1LRSN                1
 GAP=135        1.31       4.8     5.9  8.2  0.2100E+01  0.1122E+02 -0.6676E+01E
 Epicentro: LOS SANTOS - SANTANDER                                             3
 ACTION:UPD 15-06-03 16:54 OP:cam  STATUS:               ID:20150411013316 L   I
 OLDACT:REG 15-04-11 14:01 OP:carl STATUS:               ID:20150411012742     3
 2015-04-11-0127-42M.COL___263                                                 6
 STAT SP IPHASW D HRMM SECON CODA AMPLIT PERI AZIMU VELO AIN AR TRES W  DIS CAZ7
 BAR2 EZ EP        133 36.97                             172    0.0710 21.2 184 
 BAR2 EZ ES        133 52.34                             172   -0.5710 21.2 184 
 BAR2 EZ I         133 53.09        27.0 0.24            171           21.2 184 
 BRR  HZ IP     C  133 38.83                             154    0.5310 70.0 301 
 BRR  HN ES        133 56.34                             154    0.9410 70.0 301 
 BRR  HZ I         133 59.57        14.3 0.64            151           70.0 301 
 PAM  SZ EP        133 39.74                             151    0.1510 80.3  40 
 PAM  SN ES        133 57.07                             151   -0.6310 80.3  40 
 PAM  SZ I         133 59.36        13.1 0.66            155           80.3  40 
 RUS  HZ EP        133 41.23                             146    0.4410 99.0 175 
 RUS  HN ES        133 59.59                             146   -0.2410 99.0 175 
 RUS  HZ I         134  0.84        10.1 0.24            148           99.0 175 
 PTB  HZ EP        133 43.80                             134    0.05 9  145 259 
 PTB  HN ES        134  4.79                             134   -0.30 9  145 259 
 PTB  HZ I         134 12.11        16.9 0.56            133            145 259 
 OCA  HE ES        134  8.95                             131    0.84 9  162 354 
 ZAR  HZ EP        133 48.98                             124   -0.20 9  202 293 
 ZAR  HN ES        134 14.58                             124   -0.19 9  202 293 
 ZAR  HZ I         134 20.65        11.3 0.36            124            202 293 
 SML  HZ EP        133 52.99                             119   -0.53 8  244 336 
 SML  HN ES        134 21.61                             119   -0.88 8  244 336 
 SML  HZ I         134 26.58        16.5 0.28            120            244 336 
                                                                                
