 2012 1211 0614 48.5 L   6.842 -73.192139.0  RSN 12 0.4 2.2LRSN                1
 GAP=129        0.78       2.9     4.0  6.2  0.8330E+00  0.1137E+02  0.2044E+01E
 Epicentro: ZAPATOCA - SANTANDER                                               3
 ACTION:UPD 13-01-04 14:26 OP:ep   STATUS:               ID:20121211061448 L   I
 2012-12-11-0610-00M.COL___242                                                 6
 STAT SP IPHASW D HRMM SECON CODA AMPLIT PERI AZIMU VELO AIN AR TRES W  DIS CAZ7
 GIR2 SZ EP   1    615  7.29                             169    0.08 7 26.2 360 
 GIR2 SZ ES   1    615 22.15                             169    0.32 7 26.2 360 
 GIR2 SZ I         615 23.15        22.9 0.11                          26.2 360 
 BAR2 SZ EP   1    615  7.48                             168    0.09 7 27.6 178 
 BAR2 SZ ES   1    615 21.68                             168   -0.47 7 27.6 178 
 BAR2 SZ I         615 24.62        62.1 0.28                          27.6 178 
 BRR  HZ EP   1    615  9.05                             154    0.53 7 64.5 297 
 BRR  HN ES   4    615 25.96                             154    1.80 0 64.5 297 
 BRR  HZ I         615 26.65        25.8 0.14                          64.5 297 
 PAM  SZ EP   1    615 10.10                             149    0.12 7 77.4  45 
 PAM  SN ES   1    615 26.96                             149    0.21 7 77.4  45 
 PAM  SZ I         615 29.00        34.9 0.46                          77.4  45 
 RUS  HZ EP   1    615 11.94                             141   -0.01 7  106 173 
 RUS  HN ES   1    615 30.18                             141   -0.08 7  106 173 
 RUS  HZ I         615 32.18        16.4 0.34                           106 173 
 PTB  HZ EP   1    615 14.12                             131   -0.41 7  144 257 
 PTB  HN ES   1    615 34.81                             131   -0.04 7  144 257 
 PTB  HZ I         615 37.85        23.9 0.19                           144 257 
 OCA  HN ES   1    615 36.38                             129   -0.70 7  155 355 
 OCA  HZ I         615 42.05        12.1 0.24                           155 355 
 ZAR  HN ES   1    615 44.97                             122    0.71 6  198 291 
 ZAR  HZ I         615 50.77        24.2 0.40                           198 291 
 SML  HN ES   1    615 51.68                             117   -0.10 6  237 336 
 CHI  HZ EP   1    615 26.13                             115   -0.03 6  252 194 
 CHI  HN ES   1    615 55.09                             115   -0.46 6  252 194 
 CHI  HZ I         616  3.46         6.1 0.38                           252 194 
 HEL  HZ EP   1    615 28.80                             114    0.87 6  268 255 
 HEL  HE ES   1    615 58.66                             114   -0.05 6  268 255 
 HEL  HZ I         616  6.90        10.8 0.42                           268 255 
 MON  HE ES   1    616 12.77                             108   -1.05 5  347 308 
 MON  HZ I         616 13.46         4.7 0.18                           347 308 
 SJC  HN ES   4    616 22.71                             105   -2.88 0  403 327 
                                                                                
