 2015  911 0720 41.9 L   6.823 -73.146143.6  RSN 13 0.4 1.9LRSN                1
 GAP=183        0.84       2.2     3.7  4.7 -0.1106E+01  0.5629E+01 -0.2906E+00E
 Epicentro: LOS SANTOS - SANTANDER                                             3
 ACTION:UPD 15-10-28 16:25 OP:cam  STATUS:               ID:20150911072041 L   I
 OLDACT:REG 15-09-11 12:56 OP:drio STATUS:               ID:20150911071748     3
 2015-09-11-0717-48M.COL___350                                                 6
 STAT SP IPHASW D HRMM SECON CODA AMPLIT PERI AZIMU VELO AIN AR TRES W  DIS CAZ7
 BAR2 EZ EP        721  1.40                             169    0.1210 25.8 189 
 BAR2 EZ ES        721 16.78                             169    0.3510 25.8 189 
 BAR2 EZ I         721 17.57        22.7 0.14            169           25.8 189 
 BRR  HZ EP        721  3.23                             153    0.5310 70.0 297 
 BRR  HN ES   4    721 20.58                             153    1.62 0 70.0 297 
 BRR  HZ I         721 25.42         8.7 0.16            150           70.0 297 
 RUS  HZ EP        721  5.53                             143   -0.0510  103 176 
 RUS  HE ES        721 23.81                             143   -0.2810  103 176 
 RUS  HZ I         721 25.21         9.6 0.28            146            103 176 
 PTB  HZ EP        721  8.30                             131   -0.39 9  148 258 
 PTB  HN ES        721 29.41                             131   -0.21 9  148 258 
 PTB  HZ I         721 31.42         8.0 0.16            131            148 258 
 OCA  HZ EP        721 10.10                             130    0.34 9  158 353 
 OCA  HE ES        721 31.22                             130   -0.30 9  158 353 
 OCA  HZ I         721 36.21        19.3 0.30            131            158 353 
 SPBC HZ EP        721 10.38                             128    0.00 9  165 218 
 SPBC HN ES        721 32.26                             128   -0.37 9  165 218 
 SPBC HZ I         721 35.09        19.3 0.30            129            165 218 
 ZAR  HZ EP        721 13.66                             122   -0.40 9  203 291 
 ZAR  HE ES        721 39.38                             122    0.20 9  203 291 
 ZAR  HZ I         721 44.71         5.9 0.30            122            203 291 
 NOR  HZ EP   4    721 18.25                             118    0.63 0  236 234 
 NOR  HE ES   4    721 44.81                             118   -0.70 0  236 234 
 SML  HZ EP        721 18.08                             117   -0.03 8  241 335 
 SML  HN ES        721 46.15                             117   -0.23 8  241 335 
 SML  HZ I         721 50.54        11.2 0.10            119            241 335 
 HEL  HZ EP        721 21.05                             114   -0.98 8  273 255 
 HEL  HN ES        721 54.03                             114    0.67 8  273 255 
 HEL  HZ I         722  0.49         3.3 0.20            115            273 255 
 GUY2CHZ EP        721 26.17                             112    0.64 7  303 234 
 GUY2CHN ES        721 59.89                             112    0.30 7  303 234 
 GUY2CHZ I         722  6.35         3.8 0.32                           303 234 
 TOL  SZ EP        721 30.67                             109    0.43 7  345 224 
 TOL  SE ES        722  7.85                             109   -0.12 7  345 224 
 TOL  SZ I         722 12.80         2.8 0.70            110            345 224 
 PRA  HZ EP        721 35.82                             106    0.26 6  394 209 
 PRA  HN ES        722 17.40                             106   -0.05 6  394 209 
 PRA  HZ I         722 24.93         2.3 0.20            108            394 209 
 ORTC HZ EP        721 35.98                             106    0.04 6  397 216 
 ORTC HE ES        722 17.91                             106   -0.22 6  397 216 
 ORTC HZ I         722 24.17         2.4 0.42            107            397 216 
                                                                                
