 2016  211 0639  9.1 L   5.964 -74.146  1.2  RSN 16 0.8 1.8LRSN                1
 GAP= 73        1.76       2.9     3.1  5.9 -0.2063E+01  0.3332E+01  0.2955E+00E
 Epicentro: LA BELLEZA - SANTANDER                                             3
 ACTION:UPD 16-03-04 21:25 OP:rebc STATUS:               ID:20160211063909 L   I
 OLDACT:REG 16-02-11 13:31 OP:ak   STATUS:               ID:20160211063750     3
 2016-02-11-0637-50M.COL___310                                                 6
 STAT SP IPHASW D HRMM SECON CODA AMPLIT PERI AZIMU VELO AIN AR TRES W  DIS CAZ7
 SPBC HZ EP        639 14.74                              47   -0.7810 35.4 167 
 SPBC HE ES        639 19.60                              47   -0.9510 35.4 167 
 SPBC HZ I         639 20.54        58.3 0.22             47           35.4 167 
 PTB  HZ EP     D  639 20.89                              47   -0.1410 72.3 332 
 PTB  HN ES        639 30.10                              47   -0.2610 72.3 332 
 PTB  HZ I         639 30.96        30.2 0.20             47           72.3 332 
 NOR  HZ EP        639 24.18                              47    0.2010 91.5 241 
 NOR  HN ES        639 35.41                              47   -0.2110 91.5 241 
 NOR  HZ I         639 37.81        33.1 0.18             47           91.5 241 
 RUS  HZ EP     D  639 27.72                              47   -0.7110  118  94 
 RUS  HE ES   4    639 40.86                              47   -2.68 0  118  94 
 RUS  HZ I         639 41.97         8.4 0.40             47            118  94 
 ROSC BZ EP   9    639 31.82                              47    2.30 0  126 189 
 ROSC BN ES        639 48.00                                    0.2210  126 189 
 ROSC BZ I         639 54.35        11.3 0.35             47            126 189 
 BAR2 EZ EP        639 29.23                              47   -0.3510  127  57 
 BAR2 EZ ES        639 46.30                              47    0.7110  127  57 
 BAR2 EZ I         639 50.68        14.3 0.38             47            127  57 
 HEL  HZ EP        639 33.61                              47   -0.33 9  155 279 
 HEL  HN ES        639 52.26                              47   -1.09 9  155 279 
 HEL  HZ I         639 55.23        20.9 0.32             47            155 279 
 GUY2CHZ EP        639 35.31                              47    0.84 9  158 239 
 GUY2CHN ES        639 54.14                              47   -0.15 9  158 239 
 GUY2CHZ I         639 56.60        17.5 0.22                           158 239 
 ELA  HZ EP        639 39.53                              37    0.99 9  185 229 
 ELA  HN ES        640  1.35                              37   -0.19 9  185 229 
 ELA  HZ I         640  3.79        11.3 0.32             37            185 229 
 ZAR  HZ EP        639 37.47                              37   -0.63 9  186 335 
 ZAR  HN ES        639 59.51                              37   -1.24 9  186 335 
 ZAR  HZ I         640  1.56         8.2 0.24             37            186 335 
 CBOC HZ EP        639 42.06                              37    1.20 8  207 267 
 CBOC HN ES        640  6.17                              37    0.50 8  207 267 
 CBOC HZ I         640  8.99         6.2 0.30             37            207 267 
 VIL  SZ EP   4    639 44.11                              37    2.81 0  211 166 
 VIL  SN ES   4    640 13.53                              37    7.08 0  211 166 
 ANIL HZ EP   4    639 43.90                              37    1.97 0  214 221 
 ANIL HE ES        640  8.52                              37    0.94 8  214 221 
 PAM  EZ EP   4    639 44.56                              37    1.60 0  221  46 
 PAM  EN ES        640  9.87                              37    0.46 8  221  46 
 PAM  EZ I         640 13.22        24.0 0.26             37            221  46 
 ORTC HZ EP   1    639 48.62                              37    1.55 6  258 208 
 ORTC HE ES        640 16.92                              37    0.20 8  258 208 
 ORTC HN ES   4    640 18.95                              37    2.23 0  258 208 
 ORTC HZ I         640 22.43        11.5 0.28             37            258 208 
 PAL  HZ EP   4    639 50.47                              37    2.58 0  264 244 
 PAL  HN ES   4    640 22.04                              37    3.86 0  264 244 
 PAL  HZ I         640 26.45         4.3 0.60             37            264 244 
 SML  HZ EP        639 55.19                              36    1.21 7  314   1 
 SML  HE ES        640 30.03                              36    1.02 7  314   1 
 SML  HZ I         640 38.61         2.7 0.25             36            314   1 
                                                                                
