 2013  711 0117 58.5 L   6.060 -73.785102.8  RSN  6 0.5 1.5LRSN                1
 GAP=139        1.24       6.1     4.2 11.1 -0.5468E+01  0.1369E+02  0.1197E+02E
 Epicentro: EL PEON - SANTANDER                                                3
 ACTION:UPD 13-08-12 10:36 OP:ep   STATUS:               ID:20130711011758 L   I
 OLDACT:REG 13-07-11 07:20 OP:nd   STATUS:               ID:20130711010959     3
 2013-07-11-0109-59M.COL___266                                                 6
 STAT SP IPHASW D HRMM SECON CODA AMPLIT PERI AZIMU VELO AIN AR TRES W  DIS CAZ7
 RUS  HZ EP        118 16.15                             140   -0.4010 79.9 103 
 RUS  HN ES        118 30.21                             140   -0.4310 79.9 103 
 RUS  HZ I         118 31.21         2.4 0.16            144           79.9 103 
 BAR2 SZ EP        118 17.15                             136    0.2110 89.0  49 
 BAR2 SZ ES        118 32.00                             136    0.6510 89.0  49 
 BAR2 SZ I         118 33.26        13.9 0.48            139           89.0  49 
 PTB  HZ IP     C  118 15.93                             135   -0.9010 91.3 306 
 PTB  HN ES        118 30.77                             135   -0.3810 91.3 306 
 PTB  HZ I         118 33.16         7.1 0.60            137           91.3 306 
 BRR  HZ EP        118 19.28                             127    0.1810  116   4 
 BRR  HN ES   2    118 35.58                             127    0.39 5  116   4 
 BRR  HZ I         118 36.82         8.3 0.44            130            116   4 
 NOR  HZ EP        118 20.91                             123    0.1610  132 245 
 NOR  HN ES        118 38.89                             123    0.7610  132 245 
 NOR  HZ I         118 40.28        21.5 0.30            126            132 245 
 GUY2CHZ EP     C  118 28.79                             112    0.35 9  198 242 
 GUY2CHN ES   2    118 51.20                             112   -0.61 4  198 242 
 GUY2CHZ I         118 57.17         2.5 0.68                           198 242 
                                                                                
