 2013  911 0843  0.9 L   6.810 -73.154148.6  RSN  8 0.3 1.6LRSN                1
 GAP=135        0.79       3.6     4.3  5.9 -0.4628E+01  0.1936E+01  0.9921E+00E
 Epicentro: LOS SANTOS - SANTANDER                                             3
 ACTION:UPD 13-10-22 09:21 OP:ep   STATUS:               ID:20130911084300 L   I
 OLDACT:UP  13-09-11 10:39 OP:cam  STATUS:               ID:20130911083959     3
 OLDACT:REG 13-09-11 08:43 OP:cam  STATUS:               ID:20130911083959     3
 2013-09-11-0839-59M.COL___269                                                 6
 STAT SP IPHASW D HRMM SECON CODA AMPLIT PERI AZIMU VELO AIN AR TRES W  DIS CAZ7
 BAR2 SZ EP        843 20.78                             170   -0.1010 24.2 188 
 BAR2 SZ ES        843 36.49                             170    0.0210 24.2 188 
 BAR2 SZ I         843 36.73         7.1 0.16            174           24.2 188 
 BRR  HZ EP        843 22.57                             153    0.3010 69.9 298 
 BRR  HN ES        843 39.55                             153    0.6010 69.9 298 
 BRR  HZ I         843 43.81         8.4 0.14            139           69.9 298 
 PAM  SZ EP     C  843 23.74                             151    0.3510 77.1  41 
 PAM  SN ES        843 40.73                             151   -0.2110 77.1  41 
 PAM  SZ I         843 42.81        10.1 0.60            137           77.1  41 
 RUS  HZ EP   1    843 25.26                             144    0.26 7  102 176 
 RUS  HN ES   2    843 43.21                             144   -0.59 5  102 176 
 RUS  HZ I         843 44.39         3.4 0.22            138            102 176 
 PTB  HZ EP   1    843 27.85                             133   -0.18 7  147 258 
 PTB  HN ES        843 48.90                             133   -0.30 9  147 258 
 PTB  HZ I         843 51.40         4.4 0.16            120            147 258 
 OCA  HN ES        843 50.92                             130   -0.56 9  159 353 
 SPBC HZ EP   2    843 29.44                             130   -0.19 5  163 219 
 SPBC HN ES   1    843 51.83                             130   -0.22 7  163 219 
 SML  HZ EP   2    843 37.55                             118    0.02 4  242 335 
 SML  HZ I         844 10.61         5.5 0.10            106            242 335 
                                                                                
