 2015  111 0939 54.4 L   6.809 -73.139149.6  RSN  6 0.4 1.7LRSN                1
 GAP=198        1.07       4.1     7.4  7.3 -0.1897E+01  0.6017E+01 -0.6200E+01E
 Epicentro: LOS SANTOS - SANTANDER                                             3
 ACTION:UPD 15-03-02 15:38 OP:nd   STATUS:               ID:20150111093954 L   I
 OLDACT:UP  15-01-11 17:27 OP:cam  STATUS:               ID:20150111093819     3
 OLDACT:REG 15-01-11 14:42 OP:cam  STATUS:               ID:20150111093819     3
 2015-01-11-0938-19M.COL___205                                                 6
 STAT SP IPHASW D HRMM SECON CODA AMPLIT PERI AZIMU VELO AIN AR TRES W  DIS CAZ7
 BAR2 EZ EP        940 14.58                             170    0.0410 24.4 191 
 BAR2 EZ ES        940 29.63                             170   -0.6010 24.4 191 
 BAR2 EZ I         940 33.15         7.7 0.22            171           24.4 191 
 BRR  HZ EP        940 16.60                             153    0.6010 71.4 298 
 BRR  HE ES        940 33.67                             153    0.8410 71.4 298 
 BRR  HE I         940 42.19        13.3 0.58            151           71.4 298 
 OCA  HZ EP        940 23.16                             131    0.20 9  159 353 
 OCA  HE ES        940 45.08                             131   -0.13 9  159 353 
 OCA  HZ I         940 51.03         3.2 0.50            134            159 353 
 SPBC HZ EP        940 23.37                             130    0.03 9  164 219 
 SPBC HN ES        940 45.63                             130   -0.25 9  164 219 
 SPBC HZ I         940 48.47         8.0 0.28            134            164 219 
 ZAR  HZ EP        940 27.07                             123   -0.09 9  204 292 
 ZAR  HE ES        940 52.41                             123   -0.27 9  204 292 
 ZAR  HZ I         940 59.22         4.8 0.24            126            204 292 
 SML  HZ EP        940 31.07                             118   -0.14 8  243 335 
 SML  HN ES        940 59.24                             118   -0.66 8  243 335 
                                                                                
