 2012 1011 0044  3.3 L   6.792 -73.163152.2  RSN  5 0.2 1.6LRSN                1
 GAP=181        0.44       6.2     7.1  7.0  0.3563E+02 -0.1424E+02 -0.1215E+02E
 Epicentro: LOS SANTOS - SANTANDER                                             3
 ACTION:UPD 12-11-22 17:03 OP:ep   STATUS:               ID:20121011004403 L   I
 2012-10-11-0040-00M.COL___229                                                 6
 STAT SP IPHASW D HRMM SECON CODA AMPLIT PERI AZIMU VELO AIN AR TRES W  DIS CAZ7
 BAR2 SZ EP   1    044 23.47                             171   -0.20 7 22.2 185 
 BAR2 SZ I         044 37.92        10.6 0.10                          22.2 185 
 GIR2 SZ EP   2    044 23.47                             167   -0.27 5 31.9 354 
 BRR  HZ EP   1    044 25.19                             154    0.13 7 69.9 300 
 BRR  HZ I         044 25.45         9.1 0.14                          69.9 300 
 BRR  HN ES   1    044 42.23                             154    0.18 7 69.9 300 
 RUS  HZ EP   1    044 27.90                             145    0.28 7 99.9 175 
 RUS  HN ES   1    044 46.47                             145   -0.14 7 99.9 175 
 RUS  HN I         044 46.94         4.0 0.26                          99.9 175 
 ZAR  HE ES   1    045  1.35                             124   -0.18 6  203 293 
                                                                                
