 2013  311 0120 29.6 L   6.803 -73.190145.0  RSN 10 0.5 1.9LRSN                1
 GAP=131        0.83       4.2     6.5 10.3  0.3459E+01  0.2876E+02  0.7843E+01E
 Epicentro: ZAPATOCA - SANTANDER                                               3
 ACTION:UPD 13-04-09 14:01 OP:ep   STATUS:               ID:20130311012029 L   I
 2013-03-11-0120-00M.COL___231                                                 6
 STAT SP IPHASW D HRMM SECON CODA AMPLIT PERI AZIMU VELO AIN AR TRES W  DIS CAZ7
 BAR2 SZ EP   1    120 49.04                             170   -0.05 7 23.4 178 
 BAR2 SZ ES   2    121  4.54                             170    0.22 5 23.4 178 
 BRR  HZ EP        120 50.94                             154    0.5710 66.7 300 
 BRR  HN ES   4    121  8.33                             154    1.73 0 66.7 300 
 BRR  HZ I         121 12.64         6.5 0.26            157           66.7 300 
 PAM  SZ EP   2    120 51.93                             150    0.07 5 80.3  42 
 PAM  SN ES   2    121  9.23                             150   -0.03 5 80.3  42 
 PAM  SZ I         121 11.21         3.7 0.50            151           80.3  42 
 RUS  HZ EP   2    120 52.92                             143   -0.36 5  101 173 
 RUS  HZ I         121 12.66         4.2 0.28            139            101 173 
 PTB  HZ EP   1    120 55.95                             133   -0.08 7  143 258 
 PTB  HN ES   2    121 15.77                             133   -0.91 5  143 258 
 PTB  HZ I         121 18.77        10.5 0.70            133            143 258 
 OCA  HN ES   2    121 19.98                             130    0.30 5  159 355 
 OCA  HN I         121 23.17        43.2 0.24            132            159 355 
 ZAR  HZ EP        121  1.62                             123    0.16 9  199 293 
 ZAR  HN ES   2    121 27.19                             123    0.83 4  199 293 
 SML  HN ES        121 33.27                             118   -0.94 8  241 336 
 SML  HN I         121 38.78        24.5 0.10            119            241 336 
 CHI  HZ EP   1    121  7.32                             117    0.21 6  248 194 
 CHI  HN ES   2    121 35.69                             117   -0.72 4  248 194 
 CHI  HN I         121 38.83         6.1 0.32            115            248 194 
 HEL  HZ EP   2    121  8.79                             115   -0.42 4  267 255 
 HEL  HN ES   2    121 40.75                             115    0.61 4  267 255 
 HEL  HN I         121 50.74         4.5 0.52            115            267 255 
                                                                                
