 2017 1011 0155 58.6 L   6.786 -73.134144.5  RSN  4 0.1 1.6LRSN                1
 GAP=178        0.36       2.7     4.2  3.0 -0.8741E+01  0.3881E+01 -0.1191E+01E
 Epicentro: LOS SANTOS - SANTANDER                                             3
 ACTION:UPD 17-11-07 19:30 OP:rebc STATUS:               ID:20171011015558 L   I
 OLDACT:DUP 17-10-11 16:21 OP:leo  STATUS:               ID:20171011014125d    3
 2017-10-11-0148-00M.COL___438                                                 6
 STAT SP IPHASW D HRMM SECON CODA AMPLIT PERI AZIMU VELO AIN AR TRES W  DIS CAZ7
 BAR2 EZ EP        156 17.98                             171   -0.1210 22.0 194 
 BAR2 EZ ES        156 33.22                             171   -0.0510 22.0 194 
 BAR2 EZ I         156 38.16         8.3 0.54            170           22.0 194 
 PAM  EZ EP        156 20.87                             150    0.1110 77.8  38 
 PAM  EE ES        156 38.01                             150    0.0110 77.8  38 
 PAM  EZ I         156 38.43         6.1 0.30            155           77.8  38 
 RUS  HZ EP     C  156 22.00                             144   -0.1610 98.9 177 
 RUS  HN ES        156 40.60                             144    0.1110 98.9 177 
 RUS  HZ I         156 41.62         3.9 0.30            148           98.9 177 
 SPBC HZ EP        156 27.11                             129    0.10 9  163 220 
 SPBC HN ES        156 49.14                             129    0.01 9  163 220 
 SPBC HZ I         156 51.62        11.7 0.10            131            163 220 
                                                                                
