 2013  411 0854 27.0 L   6.788 -73.151148.2  RSN  6 0.5 2.2LRSN                1
 GAP=182        1.26       5.6     8.1  8.8  0.5854E+01  0.8179E+01  0.2613E+01E
 Epicentro: LOS SANTOS - SANTANDER                                             3
 ACTION:UPD 13-05-22 14:37 OP:EP   STATUS:               ID:20130411085427 L   I
 2013-04-11-0848-46M.COL___212                                                 6
 STAT SP IPHASW D HRMM SECON CODA AMPLIT PERI AZIMU VELO AIN AR TRES W  DIS CAZ7
 BAR2 SZ EP        854 47.06                             171    0.2010 21.9 189 
 BAR2 SZ ES        855  2.13                             171   -0.2510 21.9 189 
 BAR2 SZ I         855  3.52        23.7 0.16            173           21.9 189 
 GIR2 SZ EP        854 47.16                             167    0.2010 32.5 352 
 GIR2 SZ ES        855  2.89                             167    0.3310 32.5 352 
 BRR  HZ IP     D  854 48.89                             153    0.5010 71.3 300 
 BRR  HE ES        855  5.86                             153    0.7710 71.3 300 
 BRR  HN I         855  6.54        25.0 0.30            153           71.3 300 
 RUS  HZ EP        854 51.06                             145    0.1910 99.3 176 
 RUS  HN ES        855  8.98                             145   -0.5310 99.3 176 
 PTB  HZ EP        854 53.83                             133   -0.23 9  147 259 
 PTB  HN ES        855 14.75                             133   -0.43 9  147 259 
 OCA  HN ES        855 16.91                             130   -1.00 9  162 353 
 OCA  HN I         855 19.92        32.5 0.28            130            162 353 
                                                                                
