 2012  111 0522 39.9 L   6.790 -73.089140.7  RSN 12 0.3 2.0LRSN                1
 GAP=144        0.59       2.7     3.5  4.0 -0.7843E+00  0.2934E+01  0.1146E+01E
 Epicentro: LOS SANTOS - SANTANDER                                             3
 ACTION:UP  12-02-03 08:16 OP:REBC STATUS:               ID:20120111052239 L   I
 2012-01-11-0520-00M.COL___186                                                 6
 STAT SP IPHASW D HRMM SECON CODA AMPLIT PERI AZIMU VELO SNR AR TRES W  DIS CAZ7
 BAR2 SZ EP        522 58.88                             170    -0.110   24 205 
 BAR2 SZ ES   1    523 13.71                             170    -0.1 7   24 205 
 BAR2 SZ I         523 14.82        36.6 0.22                            24 205 
 GIR2 SZ EP   1    522 59.02                             166    -0.1 7   34 340 
 GIR2 SZ ES   1    523 13.43                             166    -0.6 7   34 340 
 PAM  SZ EP        523  1.82                             151     0.410   75  35 
 PAM  SN ES   2    523 18.93                             151     0.7 5   75  35 
 BRR  HZ IP     C  523  0.75                             150    -0.210   77 297 
 BRR  HE ES   1    523 17.62                             150     0.4 7   77 297 
 BRR  HZ I         523 20.87        21.7 0.12                            77 297 
 RUS  HZ EP   1    523  2.84                             143    -0.3 7   99 180 
 RUS  HE ES   1    523 21.44                             143     0.3 7   99 180 
 RUS  HZ I         523 22.51         8.7 0.26                            99 180 
 PTB  HZ EP   1    523  7.05                             130     0.0 7  154 260 
 PTB  HN ES   2    523 28.24                             130     0.0 5  154 260 
 OCA  SZ EP   1    523  7.93                             128    -0.1 7  162 351 
 OCA  SZ ES   2    523 29.69                             128    -0.3 5  162 351 
 OCA  SZ I         523 33.49        13.6 0.31                           162 351 
 ZAR  HZ EP   1    523 12.88                             120     0.2 6  210 292 
 ZAR  HN ES   2    523 38.43                             120     0.1 4  210 292 
 ZAR  HZ I         523 43.48        21.8 0.30                           210 292 
 NOR  SE ES   2    523 44.31                             117     0.4 4  239 236 
 CHI  HZ EP   1    523 17.19                             116    -0.2 6  249 197 
 CHI  HE ES   2    523 46.75                             116     0.1 4  249 197 
 CHI  HZ I         523 53.73         5.3 0.54                           249 197 
 HEL  HZ EP   2    523 20.78                             113     0.2 4  278 256 
 HEL  HN ES   2    523 52.11                             113    -0.1 4  278 256 
 HEL  HZ I         523 56.93         3.7 0.39                           278 256 
 PRA  HZ EP   1    523 33.50                             105     0.0 4  394 210 
 PRA  HE ES   2    524 15.50                             105     0.1 3  394 210 
                                                                                
