 2012  111 0021  0.7 L   6.762 -73.137148.0  RSN  5 0.4 1.0LRSN                1
 GAP=139        0.70       6.5     5.4  8.5 -0.5016E+01 -0.3430E+01  0.1621E+02E
 Epicentro: LOS SANTOS - SANTANDER                                             3
 ACTION:UP  12-02-03 08:16 OP:REBC STATUS:               ID:20120111002100 L   I
 2012-01-11-0020-00M.COL___187                                                 6
 STAT SP IPHASW D HRMM SECON CODA AMPLIT PERI AZIMU VELO SNR AR TRES W  DIS CAZ7
 GIR2 SZ ES   2    021 36.02                             166    -0.4 5   36 350 
 BRR  HZ EP   1    021 22.29                             152     0.0 7   74 301 
 BRR  HE ES   1    021 39.75                             152     0.7 7   74 301 
 PAM  SZ EP   1    021 23.23                             151    -0.1 7   80  37 
 PAM  SE ES   2    021 40.51                             151    -0.4 5   80  37 
 RUS  HZ EP   1    021 24.67                             146     0.3 7   96 176 
 RUS  HE ES   2    021 42.80                             146     0.0 5   96 176 
 RUS  HZ I         021 44.08         1.7 0.37                            96 176 
 PTB  HZ EP   1    021 27.67                             133    -0.2 7  148 261 
 PTB  HE ES   1    021 48.63                             133    -0.4 7  148 261 
                                                                                
