 2017  511 0835 28.2 L   6.724 -73.215159.3  RSN  4 0.3 0.9LRSN                1
 GAP=223        0.87       7.5     7.3  8.7  0.3655E+02 -0.2239E+01 -0.4730E+01E
 Epicentro: VILLANUEVA - SANTANDER                                             3
 ACTION:UPD 17-06-16 13:35 OP:jn   STATUS:               ID:20170511083528 L   I
 OLDACT:DUP 17-05-11 14:21 OP:edw  STATUS:               ID:20170511082726d    3
 OLDACT:REG 17-05-11 13:40 OP:osc  STATUS:               ID:20170511082725     3
 2017-05-11-0828-00M.COL___353                                                 6
 STAT SP IPHASW D HRMM SECON CODA AMPLIT PERI AZIMU VELO AIN AR TRES W  DIS CAZ7
 BRR  HZ EP        835 50.72                             155   -0.0010 69.3 308 
 BRR  HN ES        836  8.47                             155    0.1810 69.3 308 
 RUS  HZ EP        835 53.22                             148    0.4110 93.1 171 
 RUS  HN ES        836 11.59                             148   -0.4210 93.1 171 
 PTB  HZ EP        835 55.27                             137   -0.26 9  139 262 
 PTB  HN ES        836 17.28                             137    0.43 9  139 262 
 PTB  HZ I         836 23.12         0.9 0.32            132            139 262 
 ZAR  HN ES        836 26.48                             126   -0.44 9  200 295 
                                                                                
