 2014 1011 0348  8.2 L   6.858 -73.204137.4  RSN  4 0.2 1.2LRSN                1
 GAP=242        0.49       5.0     4.1  8.6  0.1420E+02 -0.1207E+02 -0.2403E+02E
 Epicentro: ZAPATOCA - SANTANDER                                               3
 ACTION:UPD 14-11-29 23:48 OP:nd   STATUS:               ID:20141011034808 L   I
 OLDACT:DUP 14-10-11 16:57 OP:fm   STATUS:               ID:20141011033747d    3
 OLDACT:DUP 14-10-11 16:54 OP:fm   STATUS:               ID:20141011033746d    3
 2014-10-11-0337-44M.COL___296                                                 6
 STAT SP IPHASW D HRMM SECON CODA AMPLIT PERI AZIMU VELO AIN AR TRES W  DIS CAZ7
 RUS  HZ EP        348 31.47                             140   -0.1710  108 173 
 RUS  HN ES        348 50.04                             140    0.0910  108 173 
 RUS  HZ I         348 50.77         1.4 0.32            143            108 173 
 PTB  HZ EP        348 34.28                             131    0.28 9  143 256 
 PTB  HN ES        348 54.25                             131    0.09 9  143 256 
 PTB  HZ I         348 57.52         2.1 0.14            131            143 256 
 SPBC HN ES        348 57.83                             127   -0.15 9  164 216 
 SPBC HZ I         349  2.43         3.5 0.38            128            164 216 
 ZAR  HN ES        349  3.23                             122   -0.17 9  196 291 
 ZAR  HZ I         349 10.33         2.4 0.26            122            196 291 
                                                                                
