 2015  411 0604 18.2 L   6.722 -73.157147.2  RSN  5 0.3 1.6LRSN                1
 GAP=138        0.85       4.5     4.4  6.2 -0.1793E+01  0.3243E+01  0.7538E+00E
 Epicentro: VILLANUEVA - SANTANDER                                             3
 ACTION:UPD 15-06-03 16:54 OP:cam  STATUS:               ID:20150411060418 L   I
 OLDACT:REG 15-04-11 14:06 OP:carl STATUS:               ID:20150411055748     3
 2015-04-11-0557-48M.COL___263                                                 6
 STAT SP IPHASW D HRMM SECON CODA AMPLIT PERI AZIMU VELO AIN AR TRES W  DIS CAZ7
 BAR2 EZ EP        6 4 37.76                             174   -0.0810 14.6 191 
 BAR2 EZ ES        6 4 52.73                             174   -0.4410 14.6 191 
 BAR2 EZ I         6 4 53.84        12.5 0.36            175           14.6 191 
 BRR  HZ EP        6 4 39.88                             152    0.2010 74.6 305 
 BRR  HN ES        6 4 57.08                             152    0.6410 74.6 305 
 BRR  HZ I         6 4 59.93         6.8 0.14            152           74.6 305 
 PAM  SZ EP        6 4 41.02                             149    0.0110 84.9  36 
 PAM  SN ES        6 4 58.58                             149   -0.2310 84.9  36 
 PAM  SZ I         6 5  0.88         5.3 0.44            150           84.9  36 
 RUS  HZ EP        6 4 41.55                             147    0.0710 92.1 175 
 RUS  HN ES        6 4 59.97                             147    0.3210 92.1 175 
 RUS  HZ I         6 5  1.20         8.8 0.30            149           92.1 175 
 PTB  HZ EP        6 4 44.85                             133   -0.17 9  145 262 
 PTB  HN ES        6 5  5.56                             133   -0.40 9  145 262 
 PTB  HZ I         6 5  6.60         4.8 0.10            135            145 262 
                                                                                
