 2013  611 0726 30.1 L   6.729 -73.174150.8  RSN  5 0.3 1.1LRSN                1
 GAP=197        0.64       6.0     4.8  7.9  0.1368E+02  0.9268E+00 -0.1383E+02E
 Epicentro: VILLANUEVA - SANTANDER                                             3
 ACTION:UPD 14-01-08 09:54 OP:ep   STATUS:               ID:20130611072630 L   I
 OLDACT:UP  13-06-11 10:26 OP:cam  STATUS:               ID:20130611071959     3
 OLDACT:UP  13-06-11 10:26 OP:cam  STATUS:               ID:20130611071959     3
 OLDACT:UP  13-06-11 10:25 OP:cam  STATUS:               ID:20130611071959     3
 OLDACT:UP  13-06-11 10:25 OP:cam  STATUS:               ID:20130611071959     3
 OLDACT:REG 13-06-11 07:59 OP:cam  STATUS:               ID:20130611071959     3
 2013-06-11-0719-59M.COL___260                                                 6
 STAT SP IPHASW D HRMM SECON CODA AMPLIT PERI AZIMU VELO AIN AR TRES W  DIS CAZ7
 BAR2 SZ EP        726 49.93                             174   -0.2210 15.2 184 
 BAR2 SZ ES   1    727  5.70                             174   -0.13 7 15.2 184 
 RUS  HZ EP   1    726 54.07                             147    0.28 7 93.1 174 
 RUS  HN ES   1    727 12.62                             147    0.33 7 93.1 174 
 RUS  HZ I         727 13.27         1.5 0.20            146           93.1 174 
 PTB  HZ EP   1    726 56.80                             134   -0.24 7  143 262 
 PTB  HN ES        727 17.87                             134   -0.23 9  143 262 
 PTB  HZ I         727 20.35         1.9 0.20            133            143 262 
 ZAR  HN ES   1    727 29.08                             123    0.65 6  204 294 
 SML  HN ES   2    727 36.94                             118    0.06 4  250 337 
                                                                                
