 2017  311 0851 30.5 L   6.961 -72.971186.8  RSN  4 0.3 1.1LRSN                1
 GAP=260        0.57       6.8     7.7  5.9  0.2860E+02 -0.7671E+01 -0.1103E+02E
 Epicentro: SANTA BARBARA - SANTANDER                                          3
 ACTION:UPD 17-05-25 18:39 OP:jn   STATUS:               ID:20170311085130 L   I
 OLDACT:UP  17-04-27 13:02 OP:nlst STATUS:               ID:20170311085130 L   3
 OLDACT:UP  17-03-11 16:35 OP:and  STATUS:               ID:20170311084741d    3
 OLDACT:UP  17-03-11 16:35 OP:and  STATUS:               ID:20170311084741d    3
 OLDACT:UP  17-03-11 16:35 OP:and  STATUS:               ID:20170311084741d    3
 OLDACT:UP  17-03-11 16:35 OP:and  STATUS:               ID:20170311084741d    3
 OLDACT:DUP 17-03-11 16:33 OP:and  STATUS:               ID:20170311084741d    3
 OLDACT:UP  17-03-11 16:16 OP:and  STATUS:               ID:20170311084739     3
 OLDACT:REG 17-03-11 12:49 OP:and  STATUS:               ID:20170311084739     3
 2017-03-11-0848-00M.COL___391                                                 6
 STAT SP IPHASW D HRMM SECON CODA AMPLIT PERI AZIMU VELO AIN AR TRES W  DIS CAZ7
 BRR  HZ EP        851 56.93                             155    0.1210 83.5 281 
 BRR  HN ES        852 17.23                             155   -0.0910 83.5 281 
 RUS  HZ EP   2    851 59.46                             147   -0.17 5  119 186 
 RUS  HE ES   1    852 22.53                             147    0.18 7  119 186 
 RUS  HZ I         852 23.13         1.6 0.22            143            119 186 
 PTB  HZ EP        852  3.08                             136    0.12 9  171 254 
 PTB  HN ES   1    852 27.89                             136   -0.39 7  171 254 
 PTB  HZ I         852 31.49         0.9 0.20            132            171 254 
 ZAR  HZ EP        852  6.88                             129   -0.23 8  217 286 
 ZAR  HN ES   2    852 36.58                             129    0.93 4  217 286 
                                                                                
