 2012 1011 0653 25.1 L   6.157 -73.585116.1  RSN  9 0.3 1.7LRSN                1
 GAP= 75        0.66       2.5     3.0  6.3 -0.1236E+01  0.7206E+01  0.6887E-01E
 Epicentro: LA PAZ - SANTANDER                                                 3
 ACTION:UPD 12-11-22 17:03 OP:ep   STATUS:               ID:20121011065325 L   I
 2012-10-11-0650-00M.COL___229                                                 6
 STAT SP IPHASW D HRMM SECON CODA AMPLIT PERI AZIMU VELO AIN AR TRES W  DIS CAZ7
 RUS  HZ EP   1    653 43.22                             150   -0.06 7 62.8 118 
 RUS  HN ES   1    653 56.72                             150   -0.76 7 62.8 118 
 RUS  HN I         653 59.21         5.7 0.24                          62.8 118 
 BAR2 SZ EP   1    653 43.26                             149    0.17 7 65.5  43 
 BAR2 SZ ES   1    653 57.10                             149   -0.03 7 65.5  43 
 BAR2 SZ I         653 59.17        23.9 0.44                          65.5  43 
 BRR  HZ EP   1    653 45.55                             134   -0.29 7  106 352 
 BRR  HZ I         653 46.14         6.2 0.13                           106 352 
 BRR  HN ES   1    654  2.43                             134    0.40 7  106 352 
 GIR2 SZ EP   1    653 46.56                             133    0.11 7  111  23 
 GIR2 SZ ES   1    654  3.58                             133    0.47 7  111  23 
 NOR  SN ES   1    654 10.84                             122    0.03 7  157 245 
 PAM  SZ EP   1    653 52.00                             122   -0.03 7  163  37 
 PAM  SN ES   1    654 13.11                             122    0.07 7  163  37 
 PAM  SN I         654 15.88         6.9 0.36                           163  37 
 CHI  HZ EP   1    653 52.77                             120    0.16 7  170 186 
 CHI  HN ES   1    654 14.56                             120    0.49 7  170 186 
 CHI  HN I         654 18.45        15.0 0.38                           170 186 
 ZAR  HZ EP   1    653 55.21                             115   -0.57 6  204 316 
 ZAR  HE ES   1    654 19.42                             115   -0.30 6  204 316 
 ZAR  HE I         654 20.51        10.9 0.17                           204 316 
 HEL  HN ES   1    654 22.86                             114    0.09 6  215 271 
 HEL  HN I         654 24.84         3.7 0.24                           215 271 
                                                                                
