 2017  711 0235  5.4 L   6.863 -73.160148.0  RSN 20 0.6 2.4LRSN                1
 GAP=108        1.38       4.1     4.4  7.1 -0.9668E+00  0.7055E+01  0.2552E+01E
 Epicentro: ZAPATOCA - SANTANDER                                               3
 ACTION:UPD 17-08-30 15:31 OP:rebc STATUS:               ID:20170711023505 L   I
 OLDACT:UP  17-07-11 13:59 OP:dnl  STATUS:               ID:20170711022742     3
 OLDACT:UP  17-07-11 13:58 OP:dnl  STATUS:               ID:20170711022742     3
 OLDACT:REG 17-07-11 13:00 OP:dnl  STATUS:               ID:20170711022742     3
 2017-07-11-0228-00M.COL___365                                                 6
 STAT SP IPHASW D HRMM SECON CODA AMPLIT PERI AZIMU VELO AIN AR TRES W  DIS CAZ7
 BAR2 EZ IP     D  235 25.11                             168   -0.3410 30.0 185 
 BAR2 EZ ES        235 40.10                             168   -0.9810 30.0 185 
 BAR2 EZ I         235 41.38        81.5 0.18            168           30.0 185 
 BRR  HZ IP     C  235 26.91                             154    0.3610 66.7 294 
 BRR  HE ES        235 44.14                             154    1.1010 66.7 294 
 BRR  HZ I         235 47.13        45.2 0.26            152           66.7 294 
 PAM  EZ EP     C  235 28.17                             152    0.5510 73.3  44 
 PAM  EN ES        235 45.35                             152    0.4110 73.3  44 
 PAM  EZ I         235 47.32        46.1 0.52            154           73.3  44 
 PTB  HZ EP        235 31.85                             133   -0.70 9  148 256 
 PTB  HN ES        235 52.97                             133   -0.75 9  148 256 
 PTB  HZ I         235 54.81        25.6 0.42            131            148 256 
 SPBC HZ EP        235 34.12                             129   -0.38 9  168 217 
 SPBC HE ES        235 56.77                             129   -0.42 9  168 217 
 SPBC HZ I         236  1.99        47.1 0.10            128            168 217 
 YPLC HZ IP     D  235 35.57                             126   -0.46 9  184 152 
 YPLC HE ES        236  0.22                             126    0.31 9  184 152 
 YPLC HZ I         236  2.36        22.5 0.28            127            184 152 
 ZAR  HZ EP        235 37.89                             123    0.30 9  200 290 
 ZAR  HE ES        236  3.02                             123    0.33 9  200 290 
 ZAR  HZ I         236  8.28        25.8 0.30            123            200 290 
 TABC EZ EP        235 42.82                             119    0.98 8  235 210 
 TABC EZ ES        236 11.14                             119    0.88 8  235 210 
 TABC EZ I         236 13.63        22.3 0.26            119            235 210 
 NOR  HZ EP        235 41.16                             119   -0.41 8  238 233 
 NOR  HN ES        236  9.06                             119   -0.71 8  238 233 
 NOR  HZ I         236 18.46        16.4 0.42            118            238 233 
 ROSC BZ EP   9    235 45.29                             117    1.08 0  258 210 
 ROSC BN ES        236 15.43                             117   -0.13 8  258 210 
 ROSC BZ I         236 19.94        41.1 0.40            117            258 210 
 HEL  HZ EP   4    235 46.86                             115    1.10 0  272 254 
 HEL  HN ES        236 17.58                             115    0.34 8  272 254 
 HEL  HZ I         236 23.19        13.1 0.28            115            272 254 
 GUY2CHZ EP        235 50.07                             112    0.64 7  304 234 
 GUY2CHN ES   4    236 27.38                             112    3.61 0  304 234 
 GUY2CHZ I         236 31.37        11.6 0.30                           304 234 
 PTGC HZ EP   4    235 48.37                             111   -1.79 0  316 159 
 PTGC HN ES   4    236 22.14                             111   -2.92 0  316 159 
 PTGC HZ I         236 24.37        14.2 0.42            112            316 159 
 LL6C HZ EP   4    235 47.42                             111   -2.99 0  318 358 
 LL6C HN ES        236 24.53                             111   -0.97 7  318 358 
 LL6C HZ I         236 31.20         7.6 0.46            111            318 358 
 CBOC HZ EP   2    235 53.02                             110    0.53 3  334 251 
 CBOC HN ES   4    236 28.15                             110   -1.07 0  334 251 
 CBOC HZ I         236 33.53         4.3 0.36            110            334 251 
 DBB  EZ EP   2    235 52.68                             110   -0.06 3  337 273 
 DBB  EN ES   4    236 27.21                             110   -2.45 0  337 273 
 DBB  EZ I         236 29.87         7.5 0.30            110            337 273 
 ARGC HZ EP   4    235 55.29                             109    0.96 0  352 340 
 ARGC HN ES   4    236 34.60                             109    2.11 0  352 340 
 ARGC HZ I         236 41.05         3.1 0.54            109            352 340 
 APAC HZ EP   2    235 59.05                             107   -0.20 3  395 287 
 APAC HE ES        236 41.10                             107   -0.15 6  395 287 
 APAC HZ I         236 45.88         8.2 0.36            106            395 287 
 SJC  HZ EP   2    235 59.38                             106   -0.88 3  403 327 
 SJC  HN ES   4    236 40.07                             106   -2.98 0  403 327 
 SJC  HZ I         236 44.16         4.9 0.78            106            403 327 
 MACC HZ EP   4    236 12.39                             102   -2.57 0  527 188 
 MACC HN ES   4    237  3.90                             102   -5.31 0  527 188 
 MACC HZ I         237 13.38         2.2 0.32            102            527 188 
                                                                                
