 2016  711 0911 38.4 L   6.814 -73.170147.5  RSN  4 0.2 1.5LRSN                1
 GAP=243        0.51       5.4     6.6  9.3  0.2532E+02 -0.3498E+02 -0.2826E+02E
 Epicentro: LOS SANTOS - SANTANDER                                             3
 ACTION:UPD 17-03-29 16:49 OP:lp   STATUS:               ID:20160711091138 L   I
 OLDACT:DUP 16-07-11 16:34 OP:dnl  STATUS:               ID:20160711090743d    3
 OLDACT:REG 16-07-11 12:57 OP:lv   STATUS:               ID:20160711090742     3
 2016-07-11-0907-42M.COL___326                                                 6
 STAT SP IPHASW D HRMM SECON CODA AMPLIT PERI AZIMU VELO AIN AR TRES W  DIS CAZ7
 RUS  HZ EP   2    912  2.36                             144   -0.06 5  102 175 
 RUS  HN ES   2    912 21.22                             144    0.05 5  102 175 
 RUS  HZ I         912 22.08         4.9 0.26            149            102 175 
 PTB  HZ EP        912  5.01                             133   -0.2610  145 258 
 PTB  HN ES        912 25.97                             133   -0.2810  145 258 
 PTB  HZ I         912 28.14         3.2 0.18            135            145 258 
 SPBC HZ EP        912  7.12                             129    0.1610  163 218 
 SPBC HN ES        912 29.42                             129    0.1610  163 218 
 SPBC HZ I         912 31.76         6.9 0.26            133            163 218 
 ZAR  HZ EP   2    912 10.64                             123    0.02 5  201 292 
 ZAR  HE ES        912 36.06                             123    0.29 9  201 292 
 ZAR  HZ I         912 41.69         1.7 0.16            125            201 292 
                                                                                
