 2012  311 0735 51.9 L   6.741 -73.174144.0  RSN 10 0.4 1.7LRSN                1
 GAP=136        0.90       4.7     4.6  6.6 -0.6972E+00  0.4573E+01  0.2539E+01E
 ACTION:UP  12-03-31 23:18 OP:EP   STATUS:               ID:20120311073551 L   I
 2012-03-11-0730-00M.COL___193                                                 6
 STAT SP IPHASW D HRMM SECON CODA AMPLIT PERI AZIMU VELO SNR AR TRES W  DIS CAZ7
 BAR2 SZ EP        736 10.91                             173    -0.310   17 183 
 BAR2 SZ ES   1    736 26.42                             173     0.2 7   17 183 
 BAR2 SZ I         736 27.25         8.6 0.33                            17 183 
 BRR  HZ EP        736 13.07                             152     0.210   72 304 
 BRR  HN ES        736 29.84                             152     0.610   72 304 
 BRR  HZ I         736 34.06        10.0 0.14                            72 304 
 PAM  SZ EP   1    736 14.01                             149    -0.4 7   84  38 
 PAM  SE ES   1    736 31.32                             149    -0.6 7   84  38 
 RUS  HZ EP   1    736 15.16                             145     0.1 7   94 174 
 RUS  HE ES   1    736 33.41                             145     0.3 7   94 174 
 RUS  HZ I         736 35.13         7.2 0.36                            94 174 
 PTB  HZ EP   1    736 17.95                             133    -0.4 7  144 261 
 PTB  HN ES   1    736 38.53                             133    -0.4 7  144 261 
 PTB  HZ I         736 41.44         4.4 0.10                           144 261 
 OCA  SZ EP   1    736 21.19                             128     0.5 7  166 354 
 ZAR  HZ EP   2    736 24.03                             122    -0.2 4  204 294 
 ZAR  HN ES   1    736 49.15                             122    -0.2 6  204 294 
 ZAR  HZ I         736 55.44         7.1 0.25                           204 294 
 NOR  SE ES   1    736 53.74                             119    -0.4 6  228 235 
 CHI  HZ EP   1    736 29.01                             118     0.3 6  242 195 
 CHI  HZ I         737  3.90         2.7 0.49                           242 195 
 HEL  HZ EP   2    736 31.91                             115     0.4 4  268 257 
 HEL  HZ I         737  9.97         3.2 0.57                           268 257 
                                                                                
