 2013  611 0600 31.4 L   6.767 -73.173151.0  RSN  8 0.4 1.8LRSN                1
 GAP=178        0.94       4.3     6.2  6.3  0.6462E+01  0.2831E+01 -0.3872E+00E
 Epicentro: LOS SANTOS - SANTANDER                                             3
 ACTION:UPD 14-01-08 09:54 OP:ep   STATUS:               ID:20130611060031 L   I
 OLDACT:UP  13-06-11 10:12 OP:cam  STATUS:               ID:20130611055959     3
 OLDACT:REG 13-06-11 07:52 OP:cam  STATUS:               ID:20130611055959     3
 2013-06-11-0559-59M.COL___260                                                 6
 STAT SP IPHASW D HRMM SECON CODA AMPLIT PERI AZIMU VELO AIN AR TRES W  DIS CAZ7
 BAR2 SZ EP        6 0 51.50                             172   -0.0710 19.3 183 
 BAR2 SZ ES   1    6 1  6.82                             172   -0.50 7 19.3 183 
 BAR2 SZ I         6 1  8.02        20.7 0.20            172           19.3 183 
 GIR2 SZ EP        6 0 51.44                             166   -0.3310 34.6 356 
 GIR2 SZ ES        6 1  7.69                             166    0.0210 34.6 356 
 BRR  HZ EP     C  6 0 53.39                             154    0.3310 70.5 302 
 BRR  HN ES        6 1 10.66                             154    0.6910 70.5 302 
 BRR  HZ I         6 1 14.45        10.0 0.48            149           70.5 302 
 RUS  HZ EP        6 0 55.44                             146    0.0310 97.2 174 
 RUS  HN ES        6 1 14.16                             146    0.0010 97.2 174 
 RUS  HZ I         6 1 15.10         6.2 0.36            149           97.2 174 
 PTB  HZ EP   1    6 0 58.90                             134    0.44 7  144 260 
 PTB  HN ES        6 1 19.06                             134   -0.53 9  144 260 
 PTB  HZ I         6 1 24.71         5.6 0.30            132            144 260 
 OCA  HN ES   2    6 1 23.75                             130    0.69 5  164 354 
 SML  HZ EP   1    6 1  8.12                             118   -0.42 6  246 336 
 SML  HN ES   1    6 1 36.74                             118   -0.78 6  246 336 
 SML  HZ I         6 1 45.89        10.2 0.26            118            246 336 
 PRA  HZ EP   1    6 1 25.27                             108    0.73 4  387 209 
                                                                                
