 2011 1111 0438 58.5 L   6.497 -73.274156.6  RSN  4 0.3 1.4LRSN                1
 GAP=140        0.66      10.3    11.3  9.4  0.8972E+02  0.2265E+02 -0.5711E+01E
 Epicentro: SOCORRO - SANTANDER                                                3
 ACTION:UPD 12-07-13 16:09 OP:ep   STATUS:               ID:20111111043858 L   I
 2011-11-11-0436-49S.COL___178                                                 6
 STAT SP IPHASW D HRMM SECON CODA AMPLIT PERI AZIMU VELO AIN AR TRES W  DIS CAZ7
 BAR2 SZ EP   1    439 18.86                             174   -0.44 7 14.6  44 
 BAR2 SZ I         439 20.83         3.9 0.16                          14.6  44 
 BAR2 SZ ES   1    439 35.30                             174   -0.22 7 14.6  44 
 RUS  HN ES   1    439 39.59                             155    0.17 7 70.1 162 
 RUS  HZ I         439 41.71         3.9 0.37                          70.1 162 
 BRR  HZ EP   1    439 21.97                             151    0.48 7 83.0 324 
 BRR  HN ES   1    439 39.65                             151    0.22 7 83.0 324 
 BRR  HZ I         439 43.63         5.0 0.15                          83.0 324 
 ZAR  HN ES   1    439 57.73                             124   -0.30 6  207 302 
                                                                                
