 2017  211 0939 45.0 L   6.825 -73.139140.6  RSN  6 0.3 1.5LRSN                1
 GAP=136        0.68       3.5     3.7  5.2  0.1028E+01  0.1957E+01 -0.2482E+01E
 Epicentro: LOS SANTOS - SANTANDER                                             3
 ACTION:UPD 17-05-24 15:35 OP:jn   STATUS:               ID:20170211093945 L   I
 OLDACT:UP  17-02-11 17:49 OP:and  STATUS:               ID:20170211093747     3
 OLDACT:REG 17-02-11 13:06 OP:and  STATUS:               ID:20170211093747     3
 2017-02-11-0938-00M.COL___334                                                 6
 STAT SP IPHASW D HRMM SECON CODA AMPLIT PERI AZIMU VELO AIN AR TRES W  DIS CAZ7
 BAR2 EZ EP     C  940  3.82                             169   -0.2310 26.2 191 
 BAR2 EZ ES        940 18.68                             169   -0.2510 26.2 191 
 BAR2 EZ I         940 19.96         4.2 0.19            170           26.2 191 
 BRR  HZ EP        940  5.92                             152    0.3910 70.6 296 
 BRR  HN ES   3    940 22.73                             152    1.16 2 70.6 296 
 BRR  HZ I         940 26.19         9.6 0.42            148           70.6 296 
 PAM  EZ IP     D  940  6.71                             151    0.2310 74.8  40 
 PAM  EN ES        940 23.20                             151   -0.0610 74.8  40 
 PAM  EZ I         940 25.68         6.4 0.46            152           74.8  40 
 RUS  HZ EP        940  8.27                             142   -0.1510  103 177 
 RUS  HN ES        940 26.92                             142    0.2110  103 177 
 RUS  HZ I         940 28.29         3.6 0.34            146            103 177 
 PTB  HZ EP   9    940 11.08                             130   -0.57 0  149 258 
 PTB  HN ES        940 32.16                                    0.27 9  149 258 
 PTB  HZ I         940 33.96         3.0 0.18            130            149 258 
 ZAR  HN ES        940 41.80                             121   -0.28 9  204 291 
 ZAR  HZ I         940 50.57         3.8 0.10            121            204 291 
                                                                                
