 2011  111 0252 29.6 L   6.762 -73.125142.7  RSN  9 0.3 2.1LRSN                1
 GAP=161        0.61       2.6     4.4  7.2 -0.4493E+01  0.1301E+02  0.8973E-01E
 Epicentro: LOS SANTOS - SANTANDER                                             3
 ACTION:UP  11-02-08 08:40 OP:pat  STATUS:               ID:20110111025229 L   I
 2011-01-11-0250-40S.COL___136                                                 6
 STAT SP IPHASW D HRMM SECON CODA AMPLIT PERI AZIMU VELO SNR AR TRES W  DIS CAZ7
 BAR2 SZ EP        252 49.01                             172     0.210   20 199 
 BAR2 SZ I         253  7.01        26.1 0.33                            20 199 
 RUS  HZ EP   1    252 52.90                             144     0.2 7   96 177 
 RUS  HN ES   1    253 10.70                             144    -0.1 7   96 177 
 RUS  HZ I         253 12.92         8.6 0.31                            96 177 
 GRA  SZ EP   1    252 54.84                             135     0.0 7  129  16 
 GRA  SZ ES   1    253 14.56                             135     0.0 7  129  16 
 GRA  SZ I         253 17.36        14.0 0.26                           129  16 
 OCA  SZ EP   1    252 57.90                             128    -0.2 7  165 353 
 OCA  SZ ES   1    253 20.15                             128    -0.2 7  165 353 
 OCA  SZ I         253 24.33        29.6 0.31                           165 353 
 NOR  SZ EP   1    253  4.99                             118    -0.1 6  234 236 
 NOR  SN ES   1    253 32.41                             118    -0.4 6  234 236 
 CHI  HZ EP   1    253  6.89                             117     0.1 6  245 196 
 CHI  HN ES   1    253 35.35                             117    -0.4 6  245 196 
 CHI  HZ I         253 41.88         6.2 0.45                           245 196 
 HEL  HZ EP   2    253 10.17                             114     0.4 4  273 257 
 HEL  HN ES   1    253 40.96                             114    -0.2 6  273 257 
 HEL  HZ I         253 48.72         8.8 0.25                           273 257 
 GUY  SE ES   1    253 47.72                             112     0.8 5  301 236 
 GUY  SZ I         253 58.93        19.3 0.39                           301 236 
 PRA  HZ EP   1    253 22.33                             106    -0.4 4  390 210 
                                                                                
