 2010  511 0835 58.3 L   6.779 -73.073141.7  RSN 13 0.5 2.0LRSN                1
 GAP=132        1.02       4.4     7.7  7.4 -0.1853E+02  0.1549E+02 -0.5201E+01E
 Epicentro: LOS SANTOS - SANTANDER                                             3
 ACTION:UP  10-08-24 10:04 OP:vdl  STATUS:               ID:20100511083558 L   I
 2010-05-11-0834-00S.COL___104                                                 6
 STAT SP IPHASW D HRMM SECON CODA AMPLIT PERI AZIMU VELO AIN AR TRES W  DIS CAZ7
 BAR2 SZ EP        836 17.44                             170     0.010   24 210 
 BAR2 SZ ES   1    836 32.12                             170    -0.3 7   24 210 
 BRR  HZ EP        836 20.00                             148     0.510   79 297 
 BRR  HZ I         836 20.23        31.6 0.11                            79 297 
 RUS  HZ EP        836 21.45                             144     0.010   98 181 
 RUS  HN ES   1    836 39.31                             144    -0.2 7   98 181 
 RUS  HZ I         836 41.79         5.8 0.35                            98 181 
 BRI  SZ EP        836 21.90                             141     0.110  108  16 
 GUE  SZ EP        836 22.57                             138    -0.110  117   8 
 GRA  SZ EP        836 23.37                             136     0.210  126  14 
 GRA  SZ ES   1    836 42.72                             136     0.1 7  126  14 
 OCA  SZ EP        836 26.08                             128    -0.6 9  164 350 
 OCA  SZ I         836 54.84         9.4 0.30                           164 350 
 CHI  HZ EP   1    836 35.71                             116    -0.1 6  249 197 
 CHI  HN ES   2    837  5.18                             116     0.2 4  249 197 
 CHI  HZ I         837 11.16         5.6 0.28                           249 197 
 ROSC BZ EP   2    836 37.45                             116     1.0 4  255 213 
 ROSC BZ I         837 12.23         8.6 0.30                           255 213 
 HEL  HZ EP        836 39.70                             113     0.6 7  279 257 
 HEL  HN ES   2    837 10.02                             113    -0.9 4  279 257 
 HEL  HZ I         837 16.00         5.9 0.39                           279 257 
 RREF BZ EP        836 45.71                             110     0.9 7  326 231 
 RREF BN ES   2    837 20.53                             110    -0.5 3  326 231 
 RREF BZ I         837 29.28         5.6 0.30                           326 231 
 SDV  BZ EP        836 47.06                             108    -0.6 6  356  49 
 SDV  BZ I         836 48.01         2.2 0.37                           356  49 
 PRA  HZ EP        836 51.17                             106    -0.8 6  394 211 
 PRA  HN ES   2    837 32.86                             106    -0.9 3  394 211 
 PRA  HZ I         837 40.08         4.9 0.38                           394 211 
                                                                                
