 2013  911 0212  1.7 L   7.485 -73.216133.8  RSN  4 0.1 1.4LRSN                1
 GAP=139        0.38       2.2     2.2  3.9 -0.1781E-01  0.2583E+01 -0.1204E+01E
 Epicentro: EL PLAYON - SANTANDER                                              3
 ACTION:UPD 13-10-22 09:21 OP:ep   STATUS:               ID:20130911021201 L   I
 OLDACT:UP  13-09-11 09:11 OP:cam  STATUS:               ID:20130911020960d    3
 OLDACT:DUP 13-09-11 09:10 OP:cam  STATUS:               ID:20130911020960d    3
 2013-09-11-0209-59M.COL___269                                                 6
 STAT SP IPHASW D HRMM SECON CODA AMPLIT PERI AZIMU VELO AIN AR TRES W  DIS CAZ7
 PAM  SZ EP        212 21.72                             155    0.1210 59.2 106 
 PAM  SN ES        212 37.09                             155   -0.0410 59.2 106 
 PAM  SZ I         212 37.83         5.7 0.42            156           59.2 106 
 BRR  HZ EP        212 21.41                             151   -0.0210 68.9 233 
 BRR  HN ES        212 36.76                             151   -0.0610 68.9 233 
 BRR  HZ I         212 37.37         6.5 0.26            150           68.9 233 
 PTB  HZ EP   1    212 29.86                             124   -0.26 7  172 233 
 PTB  HN ES   1    212 52.53                             124    0.23 7  172 233 
 PTB  HZ I         212 55.11         2.4 0.18            124            172 233 
 SML  HN ES        212 52.45                             124    0.01 9  173 327 
                                                                                
