 2013  411 0715  5.3 L   6.765 -73.149141.5  RSN  6 0.5 1.5LRSN                1
 GAP=139        1.20       6.4     6.6  7.7  0.1572E+01 -0.3310E+01 -0.3075E+01E
 Epicentro: LOS SANTOS - SANTANDER                                             3
 ACTION:UPD 13-05-22 14:37 OP:EP   STATUS:               ID:20130411071505 L   I
 2013-04-11-0708-43M.COL___211                                                 6
 STAT SP IPHASW D HRMM SECON CODA AMPLIT PERI AZIMU VELO AIN AR TRES W  DIS CAZ7
 BAR2 SZ EP        715 24.44                             172    0.0710 19.4 191 
 BAR2 SZ I         715 24.56         6.3 0.24            174           19.4 191 
 BAR2 SZ ES        715 38.85                             172   -0.3710 19.4 191 
 GIR2 SZ EP        715 24.71                             165    0.1110 35.0 352 
 GIR2 SZ ES        715 38.93                             165   -0.7110 35.0 352 
 BRR  HZ EP        715 26.37                             151    0.2710 72.8 301 
 BRR  HN ES        715 43.29                             151    0.9810 72.8 301 
 BRR  HN I         715 48.88         7.4 0.56            149           72.8 301 
 RUS  HZ EP        715 28.49                             144    0.1110 96.7 176 
 RUS  HN ES        715 46.71                             144    0.3510 96.7 176 
 PTB  HZ EP        715 31.25                             131   -0.59 9  147 260 
 PTB  HN ES        715 52.22                             131   -0.31 9  147 260 
 CAPV BZ EP        715 32.66                             130   -0.02 9  153  37 
                                                                                
