 2013  411 0830 11.9 L   6.850 -73.158149.0  RSN  6 0.5 1.9LRSN                1
 GAP=182        1.18       5.4     7.7  9.4  0.6642E+01  0.1815E+00 -0.2278E+01E
 Epicentro: LOS SANTOS - SANTANDER                                             3
 ACTION:UPD 13-05-22 14:37 OP:EP   STATUS:               ID:20130411083011 L   I
 2013-04-11-0828-43M.COL___212                                                 6
 STAT SP IPHASW D HRMM SECON CODA AMPLIT PERI AZIMU VELO AIN AR TRES W  DIS CAZ7
 GIR2 SZ EP        830 31.91                             170    0.1010 25.6 351 
 BAR2 SZ EP        830 32.16                             169    0.1310 28.6 185 
 BAR2 SZ ES        830 47.90                             169    0.1710 28.6 185 
 BAR2 SZ I         830 49.75         9.3 0.12            170           28.6 185 
 BRR  HZ IP     C  830 33.72                             154    0.5310 67.5 295 
 BRR  HN ES        830 50.45                             154    0.6510 67.5 295 
 BRR  HN I         830 54.03        18.3 0.44            154           67.5 295 
 RUS  HZ EP        830 36.66                             143    0.2910  106 176 
 RUS  HN ES        830 54.82                             143   -0.6410  106 176 
 RUS  HN I         830 58.53         5.2 0.42            147            106 176 
 PTB  HZ EP        830 38.84                             133   -0.27 9  148 257 
 PTB  HN ES        830 59.94                             133   -0.40 9  148 257 
 PTB  HN I         831  5.40        13.1 0.38            134            148 257 
 OCA  HN ES        831  1.03                             131   -0.78 9  155 353 
 OCA  HN I         831  6.09        25.8 0.20            134            155 353 
                                                                                
