 2014  311 0359 12.7 L   6.794 -73.120149.7  RSN 11 0.4 2.1LRSN                1
 GAP=121        0.81       2.4     4.2  6.0  0.2271E+00  0.7196E+01 -0.6455E+00E
 Epicentro: LOS SANTOS - SANTANDER                                             3
 OLDACT:REG 14-03-11 07:31 OP:fm   STATUS:               ID:20140311035809     3
 ACTION:UPD 14-04-09 23:16 OP:nd   STATUS:               ID:20140311035912 L   I
 OLDACT:UP  14-03-11 12:50 OP:fm   STATUS:               ID:20140311035809     3
 2014-03-11-0358-09M.COL___235                                                 6
 STAT SP IPHASW D HRMM SECON CODA AMPLIT PERI AZIMU VELO AIN AR TRES W  DIS CAZ7
 BAR2 SZ ES   2    359 48.39                             171   -0.12 5 23.3 197 
 BAR2 SZ I         359 49.33        41.8 0.32            163           23.3 197 
 PAM  SZ EP        359 35.70                             152    0.4110 76.2  38 
 PAM  SN ES        359 52.77                             152   -0.1210 76.2  38 
 RUS  HZ EP        359 36.86                             145    0.0610 99.8 178 
 RUS  HN ES        359 55.56                             145   -0.0310 99.8 178 
 OCA  HZ EP   1    359 40.99                             130   -0.44 7  161 352 
 OCA  HN ES   1    4 0  4.09                             130    0.26 7  161 352 
 OCA  SZ I         4 0  7.73         7.8 0.26            122            161 352 
 SPBC HZ EP        359 41.83                             130    0.19 9  164 220 
 SPBC HN ES        4 0  4.18                             130   -0.02 9  164 220 
 SPBC SZ I         4 0 10.62        10.5 0.36            119            164 220 
 ZAR  HZ EP   1    359 46.53                             123    0.81 6  207 292 
 ZAR  HE ES        4 0 10.76                             123   -0.69 8  207 292 
 ZAR  SZ I         4 0 17.52         7.9 0.30            113            207 292 
 SML  HZ EP        359 49.16                             118   -0.60 8  245 335 
 SML  HE ES        4 0 19.07                             118    0.42 8  245 335 
 SML  SZ I         4 0 24.27        13.7 0.06            110            245 335 
 CHI  HZ EP   2    359 51.05                             118    0.40 4  249 196 
 CHI  HN ES   1    4 0 20.49                             118    0.25 6  249 196 
 CHI  SZ I         4 0 23.73         5.7 1.76            110            249 196 
 ROSC BZ EP   4 D  359 53.57                             117    2.42 0  254 212 
 ROSC SZ I         4 0 23.90         8.4 1.70            109            254 212 
 ROSC BN ES   4    4 0 25.10                             117    3.97 0  254 212 
 URE  HE ES   4    4 0 24.18                             114   -2.55 0  287 292 
 PTGC HZ EP   1    359 56.13                             112   -0.44 5  307 159 
 PTGC HN ES   2    4 0 30.08                             112   -0.70 4  307 159 
 PTGC SZ I         4 0 33.28        10.3 0.52            106            307 159 
 ORTC HN ES   4    4 0 50.96                             107    1.79 0  397 217 
 SJC  HZ EP   4    4 0  7.09                             106   -1.57 0  411 327 
 SJC  HN ES   4    4 0 50.24                             106   -2.05 0  411 327 
 SJC  SZ I         4 1  2.18         7.9 2.90            100            411 327 
                                                                                
