 2017  311 0800 49.3 L   6.823 -73.103142.7  RSN  7 0.3 0.9LRSN                1
 GAP=103        0.76       3.4     3.0  6.7 -0.8714E+00  0.2888E+01 -0.2676E+01E
 Epicentro: LOS SANTOS - SANTANDER                                             3
 ACTION:UPD 17-05-25 18:39 OP:jn   STATUS:               ID:20170311080049 L   I
 OLDACT:UP  17-03-11 16:03 OP:and  STATUS:               ID:20170311075743     3
 OLDACT:UP  17-03-11 16:03 OP:and  STATUS:               ID:20170311075743     3
 OLDACT:UP  17-03-11 16:02 OP:and  STATUS:               ID:20170311075743     3
 OLDACT:UP  17-03-11 16:01 OP:and  STATUS:               ID:20170311075743     3
 OLDACT:UP  17-03-11 16:01 OP:and  STATUS:               ID:20170311075743     3
 OLDACT:REG 17-03-11 12:46 OP:and  STATUS:               ID:20170311075743     3
 2017-03-11-0758-00M.COL___391                                                 6
 STAT SP IPHASW D HRMM SECON CODA AMPLIT PERI AZIMU VELO AIN AR TRES W  DIS CAZ7
 PAM  EZ IP     D  8 1 11.36                             152    0.4110 72.5  38 
 PAM  EN ES        8 1 27.47                             152   -0.3210 72.5  38 
 PAM  EZ I         8 1 30.60         2.3 0.22            154           72.5  38 
 BRR  HZ EP        8 1 10.46                             151    0.1210 74.3 295 
 BRR  HN ES   4    8 1 29.30                             151    2.58 0 74.3 295 
 RUS  HZ EP        8 1 12.53                             142   -0.4410  103 179 
 RUS  HN ES        8 1 31.45                             142    0.0610  103 179 
 RUS  HZ I         8 1 32.72         1.0 0.27            146            103 179 
 TAM  HZ IP     D  8 1 16.68                             131    0.26 9  151 106 
 PTB  HZ EP   2    8 1 15.89                             130   -0.65 5  153 258 
 PTB  HN ES        8 1 38.16                             130    0.41 9  153 258 
 PTB  HZ I         8 1 41.23         1.0 0.18            133            153 258 
 SPBC HN ES        8 1 40.44                             127   -0.06 9  168 220 
 ZAR  HZ EP        8 1 21.70                             121   -0.26 8  208 291 
 ZAR  HN ES        8 1 47.33                             121   -0.06 8  208 291 
                                                                                
