 2016  811 0747 38.8 L   6.747 -73.130144.0  RSN  8 0.4 1.7LRSN                1
 GAP=141        1.13       5.5     4.6  7.6  0.3687E+00  0.1143E+02 -0.1291E+01E
 Epicentro: LOS SANTOS - SANTANDER                                             3
 ACTION:UPD 16-10-29 15:34 OP:rebc STATUS:               ID:20160811074738 L   I
 OLDACT:UP  16-08-11 14:05 OP:dani STATUS:               ID:20160811073728     3
 OLDACT:REG 16-08-11 12:37 OP:dani STATUS:               ID:20160811073728     3
 2016-08-11-0738-00M.COL___368                                                 6
 STAT SP IPHASW D HRMM SECON CODA AMPLIT PERI AZIMU VELO AIN AR TRES W  DIS CAZ7
 BAR2 EZ EP        747 58.02                             173   -0.1110 18.0 199 
 BAR2 EZ ES        748 13.26                             173    0.0510 18.0 199 
 BAR2 EZ I         748 14.46        16.1 0.74                          18.0 199 
 BRR  HZ EP     C  748  0.19                             151    0.1610 75.7 302 
 BRR  HN ES        748 17.19                             151    0.6110 75.7 302 
 BRR  HZ I         748 21.23        11.3 0.12                          75.7 302 
 PAM  EZ EP        748  1.10                             149    0.0410 81.0  36 
 PAM  HE ES        748 17.98                             149   -0.4410 81.0  36 
 PAM  EZ I         748 19.60         7.1 0.20                          81.0  36 
 RUS  HZ EP        748  2.32                             145    0.3610 94.6 177 
 RUS  HE ES        748 20.17                             145    0.1510 94.6 177 
 RUS  HZ I         748 21.96         4.6 0.26                          94.6 177 
 PTB  HZ EP        748  4.85                             131   -0.85 9  148 261 
 PTB  HE ES        748 25.81                             131   -0.86 9  148 261 
 PTB  HZ I         748 28.65         7.5 0.16                           148 261 
 SPBC HZ EP   4    748  3.49                             129   -3.36 0  160 221 
 SPBC HZ I         748 30.85        11.1 0.11                           160 221 
 ZAR  HZ EP        748 11.99                             121    0.44 8  208 293 
 ZAR  HE ES        748 37.28                             121    0.20 8  208 293 
 ZAR  HZ I         748 45.04         7.6 0.50                           208 293 
 NOR  HE ES   4    748 43.05                             118    1.19 0  233 236 
 HEL  HN ES        748 50.66                             114    0.37 8  272 257 
 HEL  HZ I         748 57.24         2.2 0.37                           272 257 
                                                                                
