 2013  311 0856  7.6 L   6.692 -73.152148.7  RSN  6 0.3 1.8LRSN                1
 GAP=228        0.68       7.6     6.6  6.8  0.2044E+02  0.1177E+02  0.2242E+00E
 Epicentro: VILLANUEVA - SANTANDER                                             3
 ACTION:UPD 13-04-09 14:01 OP:ep   STATUS:               ID:20130311085606 L   I
 2013-03-11-0850-00M.COL___231                                                 6
 STAT SP IPHASW D HRMM SECON CODA AMPLIT PERI AZIMU VELO AIN AR TRES W  DIS CAZ7
 BAR2 SZ EP   1    856 27.69                             176    0.24 7 11.6 197 
 BAR2 SZ ES        856 42.41                             176   -0.4910 11.6 197 
 BAR2 SZ I         856 45.45         6.7 0.28            176           11.6 197 
 BRR  HZ IP     C  856 29.57                             151    0.1310 77.0 307 
 BRR  HN ES        856 46.74                             151    0.2910 77.0 307 
 BRR  HN I         856 47.59        18.2 0.20            146           77.0 307 
 RUS  HN ES   2    856 49.49                             148    0.48 5 88.8 175 
 RUS  HN I         856 51.82         5.2 0.40            147           88.8 175 
 PTB  HZ EP   1    856 34.33                             133   -0.29 7  145 263 
 PTB  HN ES   1    856 55.65                             133   -0.02 7  145 263 
 PTB  HN I         857  0.86         8.3 0.46            129            145 263 
 ZAR  HN ES   2    857  6.34                             122   -0.15 4  208 295 
 ZAR  HN I         857 13.53         6.5 0.30            119            208 295 
 SML  HZ EP   4    856 44.34                             116   -1.24 0  254 337 
 SML  HN ES   4    857 12.81                             116   -2.36 0  254 337 
 SML  HN I         857 21.50        10.6 0.10            115            254 337 
                                                                                
