 2016  511 0056 50.7 L   6.821 -73.168150.3  RSN 13 0.4 2.1LRSN                1
 GAP=133        0.86       2.5     3.3  4.8 -0.1082E+01  0.5497E+01 -0.2560E+00E
 Epicentro: LOS SANTOS - SANTANDER                                             3
 ACTION:UPD 16-08-18 17:44 OP:cam  STATUS:               ID:20160511005650 L   I
 OLDACT:UP  16-05-11 13:31 OP:drio STATUS:               ID:20160511004747d    3
 OLDACT:UP  16-05-11 13:22 OP:drio STATUS:               ID:20160511004747d    3
 OLDACT:UP  16-05-11 13:21 OP:drio STATUS:               ID:20160511004747d    3
 OLDACT:UP  16-05-11 13:21 OP:drio STATUS:               ID:20160511004747d    3
 OLDACT:DUP 16-05-11 13:15 OP:drio STATUS:               ID:20160511004747d    3
 OLDACT:UP  16-05-11 13:14 OP:drio STATUS:               ID:20160511004746d    3
 OLDACT:UP  16-05-11 13:14 OP:drio STATUS:               ID:20160511004746d    3
 OLDACT:UP  16-05-11 13:13 OP:drio STATUS:               ID:20160511004746d    3
 OLDACT:UP  16-05-11 13:11 OP:drio STATUS:               ID:20160511004746d    3
 OLDACT:DUP 16-05-11 13:08 OP:drio STATUS:               ID:20160511004746d    3
 2016-05-11-0047-44M.COL___288                                                 6
 STAT SP IPHASW D HRMM SECON CODA AMPLIT PERI AZIMU VELO AIN AR TRES W  DIS CAZ7
 BAR2 EZ EP        057 10.92                             170   -0.0410 25.3 184 
 BAR2 EZ ES        057 26.90                             170    0.1710 25.3 184 
 BAR2 EZ I         057 27.96        21.4 0.18            168           25.3 184 
 BRR  HZ EP        057 12.74                             154    0.5310 67.9 298 
 BRR  HN ES   4    057 30.34                             154    1.39 0 67.9 298 
 BRR  HZ I         057 34.69        23.0 0.24            150           67.9 298 
 PAM  EZ EP        057 13.70                             152    0.2610 77.2  42 
 PAM  EE ES        057 31.11                             152   -0.0310 77.2  42 
 PAM  EZ I         057 32.87         9.6 0.44            157           77.2  42 
 RUS  HZ EP        057 14.97                             144   -0.1610  103 175 
 RUS  HN ES        057 33.65                             144   -0.4910  103 175 
 RUS  HZ I         057 34.74        11.9 0.28            147            103 175 
 PTB  HZ EP        057 17.35                             133   -0.57 9  146 258 
 PTB  HN ES        057 38.92                             133   -0.19 9  146 258 
 PTB  HZ I         057 44.11        15.4 0.18            132            146 258 
 SPBC HZ EP        057 19.80                             130    0.18 9  163 218 
 SPBC HE ES        057 42.32                             130    0.17 9  163 218 
 SPBC HZ I         057 44.73        22.3 0.30            130            163 218 
 ZAR  HZ EP   4    057 24.93                             124    1.76 0  201 292 
 ZAR  HN ES        057 48.86                             124    0.40 9  201 292 
 ZAR  HZ I         057 56.02        24.0 0.32            123            201 292 
 NOR  HZ EP        057 26.73                             119    0.05 8  234 234 
 NOR  HN ES        057 54.82                             119    0.12 8  234 234 
 NOR  HZ I         058  2.76         9.8 0.34            120            234 234 
 SML  HZ EP        057 27.40                             119    0.10 8  241 336 
 SML  HN ES        057 55.86                             119    0.06 8  241 336 
 SML  HZ I         057 58.80        23.9 0.10            120            241 336 
 CHI  HZ EP        057 28.87                             118   -0.00 8  250 194 
 CHI  HN ES        057 58.17                             118   -0.44 8  250 194 
 CHI  HZ I         058  7.99         4.9 0.42            120            250 194 
 HEL  HZ EP        057 31.05                             116    0.05 8  270 255 
 HEL  HN ES        058  1.93                             116   -0.46 8  270 255 
 HEL  HZ I         058 11.05         5.8 0.32            116            270 255 
 URE  HZ EP   4    057 35.36                             115    3.67 0  281 292 
 URE  HN ES   4    058  1.86                             115   -1.77 0  281 292 
 PTGC HZ EP   4    057 33.84                             112   -1.32 0  312 158 
 PTGC HE ES   4    058  4.76                             112   -5.03 0  312 158 
 PRA  HZ EP        057 45.29                             107    0.77 6  393 209 
 PRA  HE ES        058 27.20                             107    0.74 6  393 209 
 PRA  HZ I         058 30.28         4.5 0.44            109            393 209 
 SJC  HZ EP        057 44.84                             106   -1.24 6  406 327 
 SJC  HN ES   4    058 26.40                             106   -2.83 0  406 327 
 SJC  HZ I         058 38.84         2.8 0.36            108            406 327 
 CRJC HZ EP   4    057 51.06                             104   -2.06 0  465   4 
 CRJC HE ES   4    058 40.01                             104   -1.77 0  465   4 
                                                                                
