 2012 1211 0400 53.1 L   6.754 -73.157149.4  RSN  8 0.4 1.7LRSN                1
 GAP=137        0.85       4.8     5.5  7.7  0.4063E+01  0.2478E+01 -0.9210E+00E
 Epicentro: LOS SANTOS - SANTANDER                                             3
 ACTION:UPD 13-01-04 14:26 OP:ep   STATUS:               ID:20121211040053 L   I
 2012-12-11-0400-00M.COL___242                                                 6
 STAT SP IPHASW D HRMM SECON CODA AMPLIT PERI AZIMU VELO AIN AR TRES W  DIS CAZ7
 BAR2 SZ EP   1    4 1 13.09                             173    0.02 7 18.1 189 
 BAR2 SZ ES   1    4 1 27.70                             173   -0.94 7 18.1 189 
 BAR2 SZ I         4 1 30.22        12.4 0.17                          18.1 189 
 GIR2 SZ EP   1    4 1 13.00                             166   -0.33 7 36.1 354 
 GIR2 SZ ES   1    4 1 29.35                             166    0.23 7 36.1 354 
 BRR  HN ES   1    4 1 32.29                             153    0.71 7 72.7 303 
 PAM  SZ EP   1    4 1 15.85                             150   -0.13 7 82.1  38 
 RUS  HZ EP   1    4 1 17.23                             146    0.38 7 95.6 175 
 RUS  HE ES   1    4 1 35.82                             146    0.43 7 95.6 175 
 RUS  HZ I         4 1 38.35         4.9 0.46                          95.6 175 
 PTB  HZ EP   1    4 1 20.02                             133   -0.15 7  146 261 
 PTB  HN ES   1    4 1 40.92                             133   -0.36 7  146 261 
 PTB  HZ I         4 1 43.22         6.4 0.15                           146 261 
 OCA  HE ES   1    4 1 44.84                             129    0.04 7  165 354 
 ZAR  HE ES   1    4 1 51.47                             123    0.05 6  205 294 
                                                                                
