 2012  211 0405 24.4 L   6.789 -73.136156.0  RSN  6 0.3 1.3LRSN                1
 GAP=138        0.55       6.6     4.5  8.7  0.1607E+01  0.1826E+01  0.2502E+02E
 ACTION:UP  12-03-07 16:29 OP:epov STATUS:               ID:20120211040524 L   I
 2012-02-11-0400-00M.COL___188                                                 6
 STAT SP IPHASW D HRMM SECON CODA AMPLIT PERI AZIMU VELO AIN AR TRES W  DIS CAZ7
 BAR2 SZ EP        4 5 45.13                             172   -0.1510 22.3 193 
 BAR2 SZ I         4 6  2.00         4.9 0.28                          22.3 193 
 GIR2 SZ EP   3    4 5 45.28                             167   -0.09 2 32.7 349 
 BRR  HZ EP        4 5 47.18                             153    0.4010 72.7 299 
 BRR  HZ I         4 5 47.38         7.4 0.14                          72.7 299 
 BRR  HN ES   2    4 6  4.29                             153    0.08 5 72.7 299 
 PAM  SN ES   2    4 6  5.51                             152   -0.46 5 77.7  38 
 RUS  HZ EP        4 5 49.22                             146    0.1010 99.2 177 
 RUS  HN ES   3    4 6  8.73                             146    0.36 2 99.2 177 
 RUS  HZ I         4 6  9.75         1.5 0.43                          99.2 177 
 PTB  HZ EP        4 5 52.06                             134   -0.27 9  149 259 
 PTB  HE ES   1    4 6 13.99                             134   -0.09 7  149 259 
 PTB  HZ I         4 6 20.46         2.8 0.44                           149 259 
                                                                                
