 2013  411 0928 11.1 L   6.815 -73.184147.8  RSN  7 0.4 2.2LRSN                1
 GAP=134        1.18       5.0     6.6  7.6 -0.4555E+00 -0.3636E+01 -0.2160E+01E
 Epicentro: ZAPATOCA - SANTANDER                                               3
 ACTION:UPD 13-05-22 14:37 OP:EP   STATUS:               ID:20130411092811 L   I
 2013-04-11-0918-44M.COL___211                                                 6
 STAT SP IPHASW D HRMM SECON CODA AMPLIT PERI AZIMU VELO AIN AR TRES W  DIS CAZ7
 BAR2 SZ EP        928 31.08                             170    0.0410 24.6 179 
 BAR2 SZ I         928 31.39        36.1 0.32            170           24.6 179 
 BAR2 SZ ES        928 46.48                             170   -0.0810 24.6 179 
 GIR2 SZ EP        928 31.08                             168    0.0810 29.2 358 
 GIR2 SZ ES        928 45.99                             168   -0.5010 29.2 358 
 BRR  HZ IP     C  928 32.87                             154    0.6110 66.7 299 
 BRR  HN ES        928 49.73                             154    1.0010 66.7 299 
 BRR  HN I         928 50.67        40.6 0.16            150           66.7 299 
 RUS  HZ EP        928 35.05                             144   -0.1810  103 174 
 RUS  HZ I         928 35.74         7.4 0.30            144            103 174 
 RUS  HN ES        928 54.02                             144    0.0010  103 174 
 PTB  HZ EP        928 37.56                             133   -0.37 9  144 258 
 PTB  HN ES        928 58.40                             133   -0.42 9  144 258 
 PTB  HN I         929  4.13        30.0 0.28            131            144 258 
 CAPV BZ EP        928 39.09                             132    0.26 9  151  40 
 OCA  HN ES        929  0.86                             130   -0.61 9  158 355 
 OCA  HN I         929  4.35        40.5 0.24            129            158 355 
                                                                                
