 2013  211 0516 14.5 L   6.769 -73.152150.9  RSN  6 0.4 1.2LRSN                1
 GAP=137        0.82       5.4     5.4  7.9 -0.3788E+01  0.5459E+01 -0.3963E+01E
 Epicentro: LOS SANTOS - SANTANDER                                             3
 ACTION:UPD 13-03-12 09:32 OP:ep   STATUS:               ID:20130211051614 L   I
 2013-02-11-0510-00M.COL___241                                                 6
 STAT SP IPHASW D HRMM SECON CODA AMPLIT PERI AZIMU VELO AIN AR TRES W  DIS CAZ7
 BAR2 SZ EP        516 34.48                             172   -0.1910 19.8 190 
 BRR  HZ IP     C  516 36.52                             153    0.2710 72.3 301 
 BRR  HN ES   1    516 53.96                             153    0.74 7 72.3 301 
 BRR  HZ I         516 57.50         1.9 0.14            136           72.3 301 
 PAM  SZ IP     C  516 37.54                             151    0.1110 80.5  38 
 PAM  SN ES   1    516 54.80                             151   -0.52 7 80.5  38 
 RUS  HZ EP   1    516 38.91                             146    0.40 7 97.2 175 
 RUS  HN ES   1    516 57.19                             146   -0.06 7 97.2 175 
 RUS  HZ I         517  0.70         1.6 0.34            138           97.2 175 
 PTB  HZ EP        516 41.61                             133   -0.15 9  146 260 
 PTB  HN ES   1    517  2.39                             133   -0.64 7  146 260 
 PTB  HZ I         517  7.89         1.6 0.22            119            146 260 
 SML  HZ EP   1    516 51.49                             118   -0.21 6  247 336 
 SML  HZ I         517 23.81         3.3 0.10            107            247 336 
                                                                                
