 2016 1011 0643 36.4 L   6.778 -73.147141.6  RSN 12 0.5 2.1LRSN                1
 GAP= 72        1.27       4.0     4.1  7.6 -0.1431E+01  0.6327E+01 -0.2045E+01E
 Epicentro: LOS SANTOS - SANTANDER                                             3
 ACTION:UPD 16-11-09 19:18 OP:rebc STATUS:               ID:20161011064336 L   I
 OLDACT:UP  16-10-11 17:26 OP:ar   STATUS:               ID:20161011063744     3
 OLDACT:UP  16-10-11 17:25 OP:ar   STATUS:               ID:20161011063744     3
 OLDACT:REG 16-10-11 13:37 OP:ar   STATUS:               ID:20161011063744     3
 2016-10-11-0638-00M.COL___363                                                 6
 STAT SP IPHASW D HRMM SECON CODA AMPLIT PERI AZIMU VELO AIN AR TRES W  DIS CAZ7
 BAR2 EZ EP        643 55.45                             171    0.0010 20.9 191 
 BAR2 EZ ES        644 10.09                             171   -0.2410 20.9 191 
 BAR2 EZ I         644 11.09        37.2 0.30            172           20.9 191 
 BRR  HZ IP     D  643 57.47                             151    0.3410 72.3 300 
 BRR  HN ES        644 14.17                             151    0.8510 72.3 300 
 BRR  HZ I         644 19.05        29.6 0.12            150           72.3 300 
 PAM  EZ EP        643 58.44                             149    0.1810 79.4  38 
 RUS  HZ EP        644  0.06                             144    0.5310 98.1 176 
 RUS  HN ES        644 17.78                             144    0.1810 98.1 176 
 RUS  HZ I         644 18.23        15.1 0.40            147           98.1 176 
 PTB  HZ EP        644  2.29                             131   -0.65 9  147 260 
 PTB  HN ES        644 23.09                             131   -0.58 9  147 260 
 PTB  HZ I         644 25.56         9.9 0.34            132            147 260 
 TAM  HZ EP   4    644  6.03                             130    2.36 0  155 104 
 TAM  HN ES        644 24.81                             130   -0.16 9  155 104 
 SPBC HZ EP        644  4.51                             128    0.16 9  161 219 
 SPBC HN ES        644 25.84                             128   -0.35 9  161 219 
 SPBC HZ I         644 28.59        17.5 0.28            130            161 219 
 OCA  HZ EP        644  4.02                             128   -0.56 9  163 353 
 OCA  HN ES        644 25.69                             128   -0.91 9  163 353 
 OCA  HZ I         644 30.36        32.5 0.34            130            163 353 
 ZAR  HZ EP        644  9.30                             121    0.68 9  205 293 
 ZAR  HN ES        644 34.54                             121    0.75 9  205 293 
 ZAR  HZ I         644 40.53        15.4 0.48            122            205 293 
 NOR  HZ EP        644 12.12                             118    0.43 8  233 235 
 NOR  HN ES        644 38.68                             118   -0.56 8  233 235 
 NOR  HZ I         644 45.19         6.4 0.18            119            233 235 
 GUY2CHZ EP   4    644 21.40                             112    1.79 0  300 235 
 GUY2CHN ES        644 52.95                             112   -0.39 7  300 235 
 GUY2CHZ I         645  4.17         3.5 0.58                           300 235 
 PTGC HZ EP   4    644 18.42                             111   -1.36 0  306 158 
 PTGC HE ES   4    644 51.54                             111   -2.11 0  306 158 
 SJC  HZ EP   4    644 30.50                             105   -1.52 0  411 327 
 SJC  HN ES   4    645 11.70                             105   -3.74 0  411 327 
 SJC  HZ I         645 16.03         3.3 0.46            106            411 327 
                                                                                
