 2017  911 0407 22.5 L   6.809 -73.159145.0  RSN 13 0.4 1.7LRSN                1
 GAP=110        0.74       2.4     2.9  4.9  0.3168E+00  0.4990E+01  0.2053E+01E
 Epicentro: LOS SANTOS - SANTANDER                                             3
 ACTION:UPD 17-10-05 19:11 OP:rebc STATUS:               ID:20170911040722 L   I
 OLDACT:UP  17-09-11 18:12 OP:and  STATUS:               ID:20170911035742d    3
 OLDACT:UP  17-09-11 18:11 OP:and  STATUS:               ID:20170911035742d    3
 OLDACT:UP  17-09-11 18:10 OP:and  STATUS:               ID:20170911035742d    3
 OLDACT:DUP 17-09-11 18:01 OP:and  STATUS:               ID:20170911035742d    3
 2017-09-11-0358-00M.COL___419                                                 6
 STAT SP IPHASW D HRMM SECON CODA AMPLIT PERI AZIMU VELO AIN AR TRES W  DIS CAZ7
 BAR2 EZ EP        4 7 42.00                             170   -0.1010 24.2 186 
 BAR2 EZ ES   1    4 7 56.62                             170   -0.73 7 24.2 186 
 BAR2 EZ I         4 7 58.20        13.2 0.14            168           24.2 186 
 BRR  HZ IP     C  4 7 43.72                             153    0.2210 69.4 298 
 BRR  HN ES   2    4 8  0.76                             153    0.90 5 69.4 298 
 BRR  HZ I         4 8  3.33         6.8 0.39            151           69.4 298 
 PAM  EZ EP        4 7 44.92                             150    0.2310 77.6  41 
 PAM  EN ES        4 8  2.06                             150    0.1010 77.6  41 
 PAM  EZ I         4 8  4.14         7.3 0.50            155           77.6  41 
 RUS  HZ EP        4 7 46.14                             143   -0.1610  102 175 
 RUS  HN ES        4 8  4.93                             143    0.1010  102 175 
 RUS  HZ I         4 8  5.69        11.2 0.26            145            102 175 
 SPBC HZ EP        4 7 50.76                             129   -0.21 9  163 218 
 SPBC HN ES        4 8 13.07                             129   -0.07 9  163 218 
 SPBC HZ I         4 8 19.38         8.8 0.10            129            163 218 
 YPLC HZ EP        4 7 52.38                             126   -0.06 9  178 151 
 YPLC HN ES        4 8 15.93                             126    0.17 9  178 151 
 YPLC HZ I         4 8 17.29         4.3 0.28            129            178 151 
 ZAR  HZ EP        4 7 54.48                             122   -0.27 9  202 292 
 ZAR  HN ES        4 8 19.48                             122   -0.39 9  202 292 
 ZAR  HZ I         4 8 25.09         4.5 0.28            123            202 292 
 NOR  HZ EP        4 7 58.21                             118    0.05 8  234 234 
 NOR  HN ES        4 8 26.52                             118    0.58 8  234 234 
 NOR  HZ I         4 8 30.61         3.2 0.24            119            234 234 
 CHI  HN ES        4 8 29.54                             117   -0.15 8  249 195 
 GUY2CHZ EP   4    4 8  7.78                             112    1.74 0  301 234 
 GUY2CHN ES   4    4 8 42.11                             112    2.14 0  301 234 
 GUY2CHZ I         4 8 48.17         2.1 0.28                           301 234 
 PTGC HZ EP   3    4 8  5.19                             111   -1.34 2  310 158 
 PTGC HN ES   3    4 8 39.04                             111   -1.81 2  310 158 
 PTGC HZ I         4 8 40.98         4.5 0.50            113            310 158 
 CBOC HZ EP   1    4 8 10.25                             110    0.96 5  332 252 
 CBOC HN ES   2    4 8 44.89                             110   -0.87 3  332 252 
 CBOC HZ I         4 8 51.47         1.0 0.40            111            332 252 
 PRA  HZ EP   2 C  4 8 16.51                             106    0.46 3  392 209 
 PRA  HN ES        4 8 57.85                             106    0.06 6  392 209 
 PRA  HZ I         4 9  4.35         2.1 0.20            108            392 209 
                                                                                
