 2016 1211 0403 59.9 L   6.799 -73.124151.8  RSN 13 0.4 1.9LRSN                1
 GAP=221        0.84       4.0     5.1  4.7  0.5050E+01  0.2782E+01  0.5990E+01E
 Epicentro: LOS SANTOS - SANTANDER                                             3
 ACTION:UPD 17-01-11 20:13 OP:rebc STATUS:               ID:20161211040359 L   I
 OLDACT:UP  16-12-11 16:40 OP:edw  STATUS:               ID:20161211035747     3
 OLDACT:UP  16-12-11 16:37 OP:edw  STATUS:               ID:20161211035747     3
 OLDACT:REG 16-12-11 12:43 OP:edw  STATUS:               ID:20161211035747     3
 2016-12-11-0358-00M.COL___370                                                 6
 STAT SP IPHASW D HRMM SECON CODA AMPLIT PERI AZIMU VELO AIN AR TRES W  DIS CAZ7
 BAR2 EZ EP        4 4 20.28                             171    0.0510 23.8 196 
 BAR2 EZ ES        4 4 35.54                             171   -0.5810 23.8 196 
 BAR2 EZ I         4 4 36.87        22.7 0.26            160           23.8 196 
 BRR  HZ EP        4 4 22.13                             153    0.3410 73.3 298 
 BRR  HN ES        4 4 39.20                             153    0.3110 73.3 298 
 BRR  HZ I         4 4 43.15        14.0 0.28            144           73.3 298 
 RUS  HZ EP        4 4 24.25                             145    0.0510  100 177 
 RUS  HN ES        4 4 43.19                             145    0.0110  100 177 
 RUS  HZ I         4 4 44.49         8.5 0.38            141            100 177 
 PTB  HZ EP   9    4 4 27.18                             133   -0.36 0  150 259 
 PTB  HN ES        4 4 47.88                             133   -0.89 9  150 259 
 PTB  HZ I         4 4 54.75         4.9 0.10            126            150 259 
 ZAR  HZ EP   2    4 4 32.99                             123    0.05 4  206 292 
 ZAR  HN ES   2    4 4 58.09                             123   -0.65 4  206 292 
 ZAR  HZ I         4 5  3.66         8.2 0.40            119            206 292 
 CHI  HZ EP        4 4 38.20                             118    0.23 8  249 196 
 CHI  HN ES        4 5  7.96                             118    0.28 8  249 196 
 CHI  HZ I         4 5 11.78         3.4 0.35            116            249 196 
 ROSC BZ EP   4    4 4 40.23                             118    1.78 0  254 212 
 ROSC BN ES   4    4 5 10.93                             118    2.39 0  254 212 
 ROSC BZ I         4 5 14.95        11.7 0.45            115            254 212 
 GUY2CHZ EP   4    4 4 45.71                             113    1.74 0  303 235 
 GUY2CHN ES   4    4 5 16.87                             113   -1.51 0  303 235 
 GUY2CHZ I         4 5 26.51         3.9 0.32                           303 235 
 PTGC HZ EP        4 4 43.46                             113   -0.43 7  308 159 
 PTGC HN ES   4    4 5 15.62                             113   -2.61 0  308 159 
 LL6C HZ EP   4    4 4 26.22                             111   -19.6 0  325 357 
 LL6C HN ES   4    4 5  1.76                             111   -20.0 0  325 357 
 ELA  HE ES   4    4 5 20.70                             111   -3.38 0  331 230 
 CBOC HZ EP        4 4 47.11                             111   -0.18 7  336 252 
 CBOC HE ES   2    4 5 25.34                             111    1.05 3  336 252 
 CBOC HZ I         4 5 36.51         1.1 0.48            108            336 252 
 PRA  HZ EP        4 4 53.35                             107   -0.38 6  393 210 
 PRA  HN ES        4 5 35.47                             107   -0.27 6  393 210 
 PRA  HZ I         4 5 42.00         3.3 0.34            106            393 210 
 ORTC HZ EP   4    4 4 55.08                             107    0.93 0  397 216 
 ORTC HN ES   2    4 5 36.99                             107    0.49 3  397 216 
 ORTC HZ I         4 5 46.67         2.0 0.16            106            397 216 
 PAL  HZ EP   2    4 4 55.84                             107    0.37 3  408 239 
 PAL  HN ES   2    4 5 38.36                             107   -0.47 3  408 239 
 SJC  HZ EP   4    4 4 54.42                             107   -1.38 0  411 327 
 SJC  HN ES   4    4 5 36.13                             107   -3.29 0  411 327 
                                                                                
