 2012  911 0815 32.1 L   6.759 -73.144148.5  RSN  7 0.3 1.8LRSN                1
 GAP=139        0.48       4.0     4.2  4.6 -0.1528E+00 -0.1470E+01  0.3565E+00E
 Epicentro: LOS SANTOS - SANTANDER                                             3
 ACTION:UPD 12-10-22 14:18 OP:ep   STATUS:               ID:20120911081532 L   I
 2012-09-11-0810-00M.COL___227                                                 6
 STAT SP IPHASW D HRMM SECON CODA AMPLIT PERI AZIMU VELO AIN AR TRES W  DIS CAZ7
 BAR2 SZ EP   2    815 51.73                             172   -0.23 5 18.9 193 
 BAR2 SZ ES   1    816  7.65                             172    0.18 7 18.9 193 
 BAR2 SZ I         816  9.63        14.2 0.18                          18.9 193 
 GIR2 SZ EP   1    815 51.97                             166   -0.23 7 35.8 351 
 BRR  HZ EP        815 53.80                             152    0.1410 73.7 302 
 BRR  HZ I         815 54.10        18.1 0.19                          73.7 302 
 BRR  HE ES   1    816 10.74                             152    0.24 7 73.7 302 
 PAM  SZ EP        815 54.65                             150   -0.1410 80.8  37 
 PAM  SZ I         815 55.20        13.9 0.18                          80.8  37 
 RUS  HZ EP   1    815 55.98                             146    0.20 7 96.0 176 
 RUS  HE ES   2    816 13.92                             146   -0.35 5 96.0 176 
 RUS  HZ I         816 15.80         4.6 0.32                          96.0 176 
 PTB  HZ EP   1    815 59.02                             133   -0.19 7  147 261 
 PTB  HN ES   2    816 19.99                             133   -0.39 5  147 261 
 PRA  HZ EP   1    816 25.77                             107    0.53 4  388 210 
 PRA  HZ I         816 27.72         1.7 0.24                           388 210 
                                                                                
