 2017 1211 0644 16.2 L   6.829 -73.368124.0  RSN  6 0.3 1.2LRSN                1
 GAP= 89        0.71       2.8     3.0  6.5 -0.3131E+01  0.5369E+01 -0.1979E+01E
 Epicentro: SAN VICENTE DE CHUCURI - SANTANDER                                 3
 ACTION:UPD 18-01-04 13:19 OP:rebc STATUS:               ID:20171211064416 L   I
 OLDACT:UP  17-12-11 20:46 OP:mg   STATUS:               ID:20171211063747     3
 OLDACT:REG 17-12-11 14:37 OP:edw  STATUS:               ID:20171211063747     3
 2017-12-11-0638-00M.COL___475                                                 6
 STAT SP IPHASW D HRMM SECON CODA AMPLIT PERI AZIMU VELO AIN AR TRES W  DIS CAZ7
 BAR2 EZ EP        644 34.10                             164    0.5610 33.2 142 
 BAR2 EZ ES   2    644 47.50                             164    0.46 5 33.2 142 
 BAR2 EZ I         644 48.28        18.2 0.22            170           33.2 142 
 PAM  EZ EP        644 37.45                             141    0.1310 92.9  53 
 PAM  EN ES        644 53.51                             141   -0.2410 92.9  53 
 PAM  EZ I         644 56.43         1.5 0.25            148           92.9  53 
 PTB  HZ EP        644 39.29                             132   -0.0410  125 255 
 PTB  HN ES        644 57.09                             132   -0.2410  125 255 
 PTB  HZ I         645  2.17         0.8 0.14            134            125 255 
 SPBC HZ EP        644 41.78                             126   -0.23 9  152 211 
 SPBC HN ES        645  1.90                             126   -0.22 9  152 211 
 SPBC HZ I         645  9.39         1.8 0.12            130            152 211 
 OCA  HZ EP        644 42.28                             125   -0.25 9  156   2 
 OCA  HN ES        645  2.85                             125   -0.18 9  156   2 
 OCA  HZ I         645  7.70         4.5 0.22            130            156   2 
 ZAR  HZ EP        644 45.09                             121    0.27 9  180 294 
 ZAR  HN ES        645  7.42                             121    0.31 9  180 294 
 ZAR  HZ I         645 13.60         1.2 0.08            124            180 294 
                                                                                
