 2015  111 0605  7.5 L   6.769 -73.157144.0  RSN  7 0.5 1.6LRSN                1
 GAP=234        1.15       5.1     6.6  7.2  0.1409E+02  0.8508E+01  0.4939E+01E
 Epicentro: LOS SANTOS - SANTANDER                                             3
 ACTION:UPD 15-03-02 15:38 OP:nd   STATUS:               ID:20150111060507 L   I
 OLDACT:UP  15-01-11 16:50 OP:cam  STATUS:               ID:20150111055805     3
 OLDACT:REG 15-01-11 14:23 OP:cam  STATUS:               ID:20150111055805     3
 2015-01-11-0558-05M.COL___253                                                 6
 STAT SP IPHASW D HRMM SECON CODA AMPLIT PERI AZIMU VELO AIN AR TRES W  DIS CAZ7
 BAR2 EZ EP        6 5 26.78                             172   -0.1210 19.7 188 
 BAR2 EZ ES        6 5 41.51                             172   -0.4810 19.7 188 
 BAR2 EZ I         6 5 42.81         8.0 0.18            169           19.7 188 
 BRR  HZ EP        6 5 28.69                             152    0.1510 71.8 301 
 BRR  HN ES        6 5 45.83                             152    0.9110 71.8 301 
 BRR  HN I         6 5 46.15        24.3 0.24            150           71.8 301 
 RUS  HZ EP        6 5 30.43                             144   -0.4610 97.2 175 
 RUS  HN ES        6 5 49.28                             144    0.1910 97.2 175 
 RUS  HZ I         6 5 50.33         3.3 0.36            145           97.2 175 
 PTB  HZ EP        6 5 33.54                             132   -0.66 9  146 260 
 PTB  HN ES        6 5 54.44                             132   -0.55 9  146 260 
 PTB  HZ I         6 5 57.25         2.9 0.10            131            146 260 
 SPBC HZ EP        6 5 35.91                             129    0.33 9  160 219 
 SPBC HN ES        6 5 57.28                             129   -0.17 9  160 219 
 SPBC HZ I         6 6  1.19         5.6 0.16            129            160 219 
 ZAR  HZ EP        6 5 39.84                             122   -0.06 9  204 293 
 ZAR  HN ES        6 6  5.28                             122    0.15 9  204 293 
 ZAR  HZ I         6 6 11.43         3.8 0.34            122            204 293 
 CHI  HZ EP        6 5 45.15                             117    0.40 8  245 195 
 CHI  HN ES        6 6 14.45                             117    0.68 8  245 195 
                                                                                
