 2010 1111 0235 18.6 L   6.797 -73.111153.2  RSN  6 0.3 1.6LRSN                1
 GAP=163        0.75       4.6     7.1  7.6 -0.1027E+02 -0.1246E+02  0.6408E+01E
 Epicentro: LOS SANTOS - SANTANDER                                             3
 ACTION:UP  10-12-17 16:51 OP:REBC STATUS:               ID:20101111023518 L   I
 2010-11-11-0231-31S.COL___129                                                 6
 STAT SP IPHASW D HRMM SECON CODA AMPLIT PERI AZIMU VELO SNR AR TRES W  DIS CAZ7
 BAR2 SZ EP        235 38.90                             171    -0.210   24 200 
 BAR2 SZ I         235 57.12        10.0 0.73                            24 200 
 BRR  HZ EP        235 40.98                             153     0.310   75 297 
 BRR  HN ES        235 57.87                             153    -0.110   75 297 
 BRR  HZ I         236  0.46        12.9 0.24                            75 297 
 RUS  HZ EP   1    235 42.80                             145    -0.2 7  100 178 
 RUS  HN ES   2    236  2.34                             145     0.2 5  100 178 
 RUS  HZ I         236  3.16         3.1 0.75                           100 178 
 GRA  SZ EP   1    235 44.78                             139     0.4 7  125  16 
 GRA  SZ ES   1    236  4.88                             139     0.3 7  125  16 
 GRA  SZ I         236 10.43         5.4 0.08                           125  16 
 OCA  SZ EP        235 47.15                             131    -0.4 9  161 352 
 OCA  SZ I         236 18.52         8.4 0.67                           161 352 
 NOR  SZ EP   1    235 55.42                             120     0.3 6  238 235 
 NOR  SN ES   2    236 23.71                             120     0.2 4  238 235 
 NOR  SZ I         236 26.72         0.9 0.02                           238 235 
                                                                                
