 2012  311 0607 12.6 L   6.875 -73.235135.5  RSN  4 0.2 1.3LRSN                1
 GAP=120        0.60      10.6     5.1  9.1 -0.3353E+02 -0.1360E+02  0.5393E+02E
 ACTION:UP  12-03-31 23:18 OP:EP   STATUS:               ID:20120311060712 L   I
 2012-03-11-0600-00M.COL___193                                                 6
 STAT SP IPHASW D HRMM SECON CODA AMPLIT PERI AZIMU VELO SNR AR TRES W  DIS CAZ7
 BAR2 SZ EP        6 7 31.39                             166     0.210   32 169 
 BAR2 SZ I         6 7 46.47         5.7 0.39                            32 169 
 BRR  HZ EP        6 7 32.17                             155     0.210   59 296 
 BRR  HN ES   1    6 7 47.22                             155     0.2 7   59 296 
 BRR  HZ I         6 7 48.11         4.5 0.12                            59 296 
 PAM  SZ EP   1    6 7 33.81                             148     0.0 7   78  49 
 PAM  SE ES   1    6 7 50.00                             148    -0.3 7   78  49 
 PTB  HZ EP   1    6 7 37.66                             131    -0.4 7  140 255 
 PTB  HN ES   1    6 7 57.68                             131    -0.2 7  140 255 
                                                                                
