 2014 1011 0552 23.8 L   6.780 -73.132157.2  RSN  6 0.5 1.3LRSN                1
 GAP=202        1.10       5.2     9.4 10.6  0.1219E+02 -0.2491E+01 -0.1985E+02E
 Epicentro: LOS SANTOS - SANTANDER                                             3
 ACTION:UPD 14-11-29 23:48 OP:nd   STATUS:               ID:20141011055223 L   I
 OLDACT:REG 14-10-11 12:59 OP:fm   STATUS:               ID:20141011054738     3
 2014-10-11-0547-38M.COL___291                                                 6
 STAT SP IPHASW D HRMM SECON CODA AMPLIT PERI AZIMU VELO AIN AR TRES W  DIS CAZ7
 BAR2 SZ ES   1    553  0.72                             172   -0.44 7 21.5 195 
 BAR2 SZ I         553  2.29        13.8 0.84            172           21.5 195 
 BRR  HZ EP        552 46.91                             153    0.5610 73.6 300 
 BRR  HN ES        553  4.53                             153    0.6110 73.6 300 
 BRR  HZ I         553  6.36         2.1 0.42            152           73.6 300 
 RUS  HZ EP   1    552 48.92                             147    0.36 7 98.3 177 
 RUS  HN ES        553  7.37                             147   -0.4910 98.3 177 
 RUS  HZ I         553  9.65         1.6 0.30            148           98.3 177 
 PTB  HN ES   1    553 12.98                             134   -0.71 7  149 260 
 PTB  HZ I         553 15.95         1.4 0.10            134            149 260 
 SPBC HE ES        553 16.15                             132    0.12 9  162 220 
 SPBC HZ I         553 17.97         3.5 0.82            132            162 220 
 SML  HZ EP   1    553  0.83                             119   -0.57 6  246 335 
 SML  HN ES        553 30.41                             119   -0.30 8  246 335 
 SML  HZ I         553 34.72         2.0 0.24            120            246 335 
                                                                                
