 2016 1111 0930 41.4 L   6.669 -73.185144.4  RSN  4 0.2 1.2LRSN                1
 GAP=229        0.64       7.4     4.9  5.4  0.1529E+02  0.9193E+01  0.2889E+01E
 Epicentro: VILLANUEVA - SANTANDER                                             3
 ACTION:UPD 17-10-26 21:06 OP:lp   STATUS:               ID:20161111093041 L   I
 OLDACT:REG 16-11-11 14:46 OP:ar   STATUS:               ID:20161111092746     3
 2016-11-11-0928-00M.COL___331                                                 6
 STAT SP IPHASW D HRMM SECON CODA AMPLIT PERI AZIMU VELO AIN AR TRES W  DIS CAZ7
 BAR2 EZ EP        931  0.88                             177    0.2610 8.53 178 
 BAR2 EZ ES        931 15.28                             177   -0.3610 8.53 178 
 BRR  HN ES        931 19.52                             151    0.3010 75.8 310 
 PTB  HZ EP        931  7.65                             133    0.01 9  141 264 
 PTB  HN ES        931 28.25                             133    0.11 9  141 264 
 PTB  HZ I         931 33.47         1.8 0.15            130            141 264 
 ZAR  HZ EP        931 13.73                             122   -0.19 8  206 296 
 ZAR  HN ES        931 39.10                             122   -0.23 8  206 296 
 ZAR  HZ I         931 44.83         1.7 0.25            120            206 296 
                                                                                
