 2012 1211 0701 11.7 L   6.882 -73.152153.7  RSN  4 0.3 1.3LRSN                1
 GAP=244        0.54       6.7     7.6  6.6  0.2686E+02  0.7423E+01 -0.3434E+01E
 Epicentro: LOS SANTOS - SANTANDER                                             3
 ACTION:UPD 13-01-04 14:27 OP:ep   STATUS:               ID:20121211070111 L   I
 2012-12-11-0700-00M.COL___242                                                 6
 STAT SP IPHASW D HRMM SECON CODA AMPLIT PERI AZIMU VELO AIN AR TRES W  DIS CAZ7
 BAR2 SZ EP   1    7 1 32.37                             168   -0.14 7 32.2 186 
 BAR2 SZ ES   1    7 1 48.33                             168   -0.39 7 32.2 186 
 BAR2 SZ I         7 1 49.65         4.5 0.16                          32.2 186 
 BRR  HZ EP   1    7 1 33.74                             155    0.24 7 66.6 292 
 BRR  HN ES   1    7 1 50.70                             155    0.22 7 66.6 292 
 BRR  HZ I         7 1 52.73         2.9 0.12                          66.6 292 
 RUS  HN ES   1    7 1 56.88                             143    0.32 7  110 176 
 PTB  HZ EP   1    7 1 39.26                             133   -0.20 7  149 255 
 PTB  HZ I         7 2  0.88         2.1 0.56                           149 255 
 PTB  HN ES   2    7 2  0.95                             133   -0.15 5  149 255 
                                                                                
