 2013  311 0008 21.9 L   6.866 -73.295123.6  RSN  7 0.4 1.8LRSN                1
 GAP=124        0.62       3.7     4.9  5.4  0.7036E+01 -0.8420E+00 -0.6244E+00E
 Epicentro: BETULIA - SANTANDER                                                3
 ACTION:UPD 13-04-09 14:01 OP:ep   STATUS:               ID:20130311000821 L   I
 2013-03-11-0000-00M.COL___231                                                 6
 STAT SP IPHASW D HRMM SECON CODA AMPLIT PERI AZIMU VELO AIN AR TRES W  DIS CAZ7
 BAR2 SZ EP   2    0 8 39.36                             164    0.27 5 32.7 158 
 BAR2 SZ ES   1    0 8 52.26                             164   -0.27 7 32.7 158 
 BAR2 SZ I         0 8 53.64        60.7 0.48            169           32.7 158 
 BRR  HZ EP     D  0 8 39.75                             155    0.1510 53.2 300 
 BRR  HN ES        0 8 53.61                             155    0.1610 53.2 300 
 BRR  HN I         0 8 54.41        28.9 0.14            153           53.2 300 
 PAM  SZ EP   2    0 8 42.19                             144   -0.03 5 84.1  51 
 PAM  SE ES   2    0 8 58.58                             144    0.47 5 84.1  51 
 PAM  SZ I         0 9  1.16         4.4 0.24            144           84.1  51 
 RUS  HZ EP        0 8 44.39                             136    0.1010  110 168 
 RUS  HN ES   2    0 9  0.92                             136   -0.86 5  110 168 
 RUS  HZ I         0 9  1.86        15.4 0.64            140            110 168 
 OCA  HZ EP   2    0 8 47.66                             126   -0.04 5  152 359 
 OCA  HN ES   2    0 9  7.42                             126   -0.43 5  152 359 
 OCA  HZ I         0 9 12.20         9.5 0.48            125            152 359 
 ZAR  HZ EP   2    0 8 51.51                             119    0.49 4  186 292 
 ZAR  HN ES   2    0 9 13.53                             119   -0.24 4  186 292 
 ZAR  HZ I         0 9 19.97         4.0 0.14            120            186 292 
 SML  HN ES   2    0 9 21.34                             114   -1.03 4  230 338 
                                                                                
