 2014  111 0930 34.7 L   6.793 -73.118146.5  RSN 10 0.3 1.7LRSN                1
 GAP=140        0.81       2.5     3.4  4.9 -0.1562E+01  0.6152E+01  0.1364E+01E
 Epicentro: LOS SANTOS - SANTANDER                                             3
 ACTION:UPD 14-03-13 09:54 OP:ep   STATUS:               ID:20140111093034 L   I
 OLDACT:REG 14-01-11 09:43 OP:carl STATUS:               ID:20140111093000     3
 2014-01-11-0930-00M.COL___285                                                 6
 STAT SP IPHASW D HRMM SECON CODA AMPLIT PERI AZIMU VELO AIN AR TRES W  DIS CAZ7
 BAR2 SZ EP        930 54.43                             171   -0.0110 23.3 198 
 BAR2 SZ ES        931  9.43                             171   -0.3910 23.3 198 
 BAR2 SZ I         931 13.51        10.6 0.42            167           23.3 198 
 PAM  SZ EP        930 57.37                             151    0.4310 76.1  37 
 PAM  SN ES        931 14.39                             151    0.1310 76.1  37 
 RUS  HZ EP        930 58.31                             144   -0.1610 99.6 178 
 RUS  HN ES        931 17.04                             144    0.0410 99.6 178 
 RUS  HZ I         931 18.24         2.2 0.44            146           99.6 178 
 PTB  HZ EP        931  1.38                             132   -0.63 9  151 259 
 PTB  HN ES        931 22.90                             132   -0.39 9  151 259 
 PTB  HZ I         931 29.87         6.8 0.40            132            151 259 
 OCA  HE ES        931 25.59                             129    0.18 9  161 352 
 SPBC HZ EP        931  3.43                             129    0.03 9  165 220 
 SPBC HN ES        931 26.05                             129    0.28 9  165 220 
 SPBC HZ I         931 32.57         9.3 0.32            130            165 220 
 ZAR  HZ EP        931  7.11                             122   -0.43 8  207 292 
 ZAR  HN ES        931 33.46                             122    0.33 8  207 292 
 ZAR  HZ I         931 38.97         6.5 0.52            124            207 292 
 NOR  HZ EP        931 10.49                             118   -0.22 8  237 235 
 NOR  HN ES        931 38.99                             118    0.21 8  237 235 
 NOR  HZ I         931 42.13         5.7 0.18            120            237 235 
 CHI  HZ EP        931 12.13                             117   -0.33 8  249 196 
 CHI  HN ES        931 42.18                             117    0.28 8  249 196 
 CHI  HZ I         931 49.58         1.4 0.34            119            249 196 
 GUY2CHZ EP        931 19.05                             112    0.46 7  303 235 
 GUY2CHN ES        931 53.45                             112    0.63 7  303 235 
 GUY2CHZ I         931 59.38         2.7 0.34                           303 235 
                                                                                
