 2010  211 0641  5.2 L   6.827 -72.982137.8  RSN  6 0.5 1.3LRSN                1
 GAP=150        0.85       9.2    26.6 10.3 -0.2176E+03 -0.1653E+03  0.5198E+02E
 Epicentro: CEPITA - SANTANDER                                                 3
 ACTION:UP  10-08-24 09:48 OP:vdl  STATUS:               ID:20100211064105 L   I
 2010-02-11-0639-50S.COL___084                                                 6
 STAT SP IPHASW D HRMM SECON CODA AMPLIT PERI AZIMU VELO SNR AR TRES W  DIS CAZ7
 BAR2 SZ EP        641 24.05                             165    -0.110   34 221 
 BAR2 SZ ES   1    641 39.12                             165     0.2 7   34 221 
 GIR2 SZ EP   3    641 25.07                             165     1.0 2   36 320 
 GIR2 SZ ES   3    641 39.69                             165     0.9 2   36 320 
 GUE  SZ EP   1    641 29.41                             139     0.7 7  111   3 
 GRA  SZ EP        641 28.64                             137    -0.510  119  10 
 GRA  SZ ES   1    641 47.67                             137    -0.1 7  119  10 
 CHI  HZ EP   1    641 44.01                             115     0.6 6  257 199 
 CHI  HN ES   1    642 12.64                             115    -0.5 6  257 199 
 CHI  HZ I         642 18.41         1.2 0.36                           257 199 
 SDV  BZ EP   1    641 53.52                             108     0.4 5  345  49 
                                                                                
