 2010  811 0044 51.1 L   6.783 -73.115148.0  RSN  8 0.2 2.1LRSN                1
 GAP=162        0.47       2.4     4.9  4.5 -0.3813E+01 -0.2186E+01  0.2235E+01E
 Epicentro: LOS SANTOS - SANTANDER                                             3
 ACTION:UP  10-09-07 10:54 OP:vdl  STATUS:               ID:20100811004451 L   I
 2010-08-11-0042-48S.COL___125                                                 6
 STAT SP IPHASW D HRMM SECON CODA AMPLIT PERI AZIMU VELO SNR AR TRES W  DIS CAZ7
 BAR2 SZ EP        045 10.92                             171    -0.110   22 200 
 BAR2 SZ ES   2    045 26.29                             171    -0.2 5   22 200 
 BAR2 SZ I         045 27.55        32.8 0.14                            22 200 
 BRR  HZ EP        045 12.83                             152     0.110   75 299 
 BRR  HE ES   1    045 29.72                             152     0.1 7   75 299 
 BRR  HZ I         045 32.61        28.0 0.17                            75 299 
 RUS  HZ EP   1    045 14.79                             145    -0.2 7   99 178 
 RUS  HE ES   2    045 33.83                             145     0.3 5   99 178 
 RUS  HZ I         045 36.30        11.0 0.28                            99 178 
 GRA  SZ IP        045 16.70                             137     0.110  127  16 
 GRA  SZ ES   1    045 36.71                             137     0.2 7  127  16 
 GRA  SZ I         045 37.78        18.2 0.41                           127  16 
 OCA  SZ EP   1    045 19.39                             130    -0.4 7  163 352 
 OCA  SZ ES   2    045 42.04                             130    -0.2 5  163 352 
 OCA  SZ I         045 46.09        18.5 0.23                           163 352 
 CHI  HZ EP   1    045 28.90                             118     0.1 6  248 196 
 CHI  HE ES   2    045 58.15                             118    -0.1 4  248 196 
 CHI  HZ I         046  1.55         7.0 0.47                           248 196 
 RREF HZ EP   2    045 37.88                             111     0.4 3  323 230 
 RREF HE ES   2    046 13.26                             111    -0.4 3  323 230 
 RREF HZ I         046 23.30         8.9 0.30                           323 230 
 PRA  HZ EP   2    045 45.29                             107     0.6 3  392 210 
 PRA  HZ I         046 32.45         5.7 0.41                           392 210 
                                                                                
