 2014  411 0613 17.6 L   6.824 -73.159138.1  RSN 11 0.4 1.8LRSN                1
 GAP=182        0.88       2.3     4.2  7.1  0.4955E-02  0.4745E+01 -0.8637E+00E
 Epicentro: LOS SANTOS - SANTANDER                                             3
 ACTION:UPD 14-05-13 23:07 OP:nd   STATUS:               ID:20140411061317 L   I
 OLDACT:UP  14-04-15 04:25 OP:CAM  STATUS:               ID:20140411061317 L   3
 OLDACT:UP  14-04-11 17:44 OP:stll STATUS:               ID:20140411060808     3
 OLDACT:REG 14-04-11 13:00 OP:stll STATUS:               ID:20140411060808     3
 2014-04-11-0608-08M.COL___236                                                 6
 STAT SP IPHASW D HRMM SECON CODA AMPLIT PERI AZIMU VELO AIN AR TRES W  DIS CAZ7
 RUS  HZ EP        613 40.64                             141   -0.1310  103 175 
 RUS  HZ I         613 41.47         6.0 0.34            143            103 175 
 RUS  HN ES        613 58.89                             141    0.0210  103 175 
 PTB  HZ EP        613 43.37                             130   -0.45 9  147 258 
 PTB  HN ES        614  4.24                             130   -0.07 9  147 258 
 PTB  HZ I         614  6.91         8.4 0.52            129            147 258 
 OCA  HN ES        614  6.35                             128   -0.08 9  157 354 
 SPBC HZ EP        613 45.79                             127    0.20 9  164 218 
 SPBC HZ I         613 46.21         9.8 0.10            127            164 218 
 SPBC HN ES        614  7.91                             127    0.46 9  164 218 
 ZAR  HZ EP        613 49.41                             121    0.15 9  202 292 
 ZAR  HE ES        614 14.37                             121    0.37 9  202 292 
 ZAR  HZ I         614 20.53         7.9 0.36            120            202 292 
 NOR  HZ EP        613 53.20                             117    0.31 8  235 234 
 NOR  HE ES        614 20.11                             117   -0.34 8  235 234 
 NOR  HZ I         614 28.78         4.6 0.22            117            235 234 
 SML  HZ EP        613 53.11                             116   -0.32 8  241 335 
 SML  HN ES        614 21.26                             116   -0.15 8  241 335 
 SML  HZ I         614 31.68         5.8 0.22            116            241 335 
 CHI  HZ EP   1    613 55.26                             115    0.18 6  251 195 
 CHI  HN ES        614 24.38                             115    0.03 8  251 195 
 CHI  HZ I         614 35.34         2.5 0.36            116            251 195 
 HEL  HZ EP        613 58.28                             113    0.98 8  271 255 
 HEL  HN ES   1    614 28.52                             113    0.22 6  271 255 
 HEL  HZ I         614 35.14         3.3 0.36            113            271 255 
 GUY2CHN ES        614 33.60                             111   -1.03 7  302 234 
 PRA  HN ES        614 52.20                             105   -0.50 6  394 209 
                                                                                
