 2015 1011 0556 56.4 L   6.808 -73.098150.9  RSN  9 0.5 1.4LRSN                1
 GAP=205        1.08       3.6     5.7  6.5  0.3695E+01  0.9662E+01 -0.7501E-01E
 Epicentro: LOS SANTOS - SANTANDER                                             3
 ACTION:UPD 15-12-22 20:39 OP:cam  STATUS:               ID:20151011055656 L   I
 OLDACT:UP  15-10-11 17:38 OP:ak   STATUS:               ID:20151011054750     3
 OLDACT:REG 15-10-11 13:19 OP:ak   STATUS:               ID:20151011054750     3
 2015-10-11-0547-50M.COL___340                                                 6
 STAT SP IPHASW D HRMM SECON CODA AMPLIT PERI AZIMU VELO AIN AR TRES W  DIS CAZ7
 BAR2 EZ EP        557 16.89                             170    0.1610 25.6 201 
 BAR2 EZ ES        557 32.58                             170    0.0210 25.6 201 
 BAR2 EZ I         557 34.28         4.0 0.13            165           25.6 201 
 BRR  HZ EP        557 19.12                             152    0.7310 75.5 296 
 BRR  HN ES        557 36.07                             152    0.5610 75.5 296 
 BRR  HZ I         557 38.97         4.7 0.14            150           75.5 296 
 RUS  HZ EP        557 20.51                             145   -0.2310  101 179 
 RUS  HN ES        557 39.39                             145   -0.3110  101 179 
 RUS  HZ I         557 40.77         2.7 0.28            143            101 179 
 SPBC HZ EP        557 25.99                             130    0.28 9  167 220 
 SPBC HN ES        557 48.30                             130   -0.25 9  167 220 
 SPBC HZ I         557 52.78         4.2 0.24            128            167 220 
 ZAR  HZ EP   1    557 29.90                             123    0.21 6  209 291 
 ZAR  HE ES        557 55.01                             123   -0.62 8  209 291 
 SML  HZ EP        557 32.90                             118   -0.62 8  245 334 
 SML  HE ES        558  2.06                             118   -0.38 8  245 334 
 CHI  HZ EP   1    557 34.74                             118    0.07 6  251 196 
 CHI  HN ES        558  3.90                             118   -0.59 8  251 196 
 CHI  HZ I         558 14.29         1.3 0.50            118            251 196 
 HEL  HZ EP   1    557 37.24                             115   -0.26 6  277 256 
 HEL  HN ES        558  8.96                             115   -0.58 7  277 256 
 HEL  HZ I         558 16.54         1.3 0.28            115            277 256 
 GUY2CHZ EP        557 41.48                             113    0.65 7  306 235 
 GUY2CHN ES        558 16.36                             113    0.91 7  306 235 
 GUY2CHZ I         558 22.75         1.3 0.38                           306 235 
                                                                                
