 2012  611 0552 48.7 L   6.817 -73.170147.9  RSN  5 0.3 1.4LRSN                1
 GAP=181        0.60       5.3     5.8  9.3  0.5314E+01  0.1991E+02 -0.1190E+02E
 Epicentro: LOS SANTOS - SANTANDER                                             3
 ACTION:UPD 12-08-06 17:48 OP:ep   STATUS:               ID:20120611055247 L   I
 2012-06-11-0550-00M.COL___201                                                 6
 STAT SP IPHASW D HRMM SECON CODA AMPLIT PERI AZIMU VELO AIN AR TRES W  DIS CAZ7
 BAR2 SZ EP   1    553  8.44                             170   -0.19 7 24.9 183 
 BAR2 SZ ES   1    553 24.51                             170    0.35 7 24.9 183 
 BAR2 SZ I         553 25.13         7.9 0.11            169           24.9 183 
 RUS  HE ES   1    553 31.45                             144   -0.17 7  103 175 
 RUS  HZ I         553 32.72         4.5 0.31            144            103 175 
 PTB  HZ EP   1    553 16.07                             133    0.42 7  146 258 
 PTB  HN ES   1    553 36.26                             133   -0.40 7  146 258 
 PTB  HZ I         553 38.49         1.7 0.12            133            146 258 
 OCA  HN ES   2    553 38.72                             130   -0.32 5  158 354 
 ZAR  HN ES   2    553 46.49                             123    0.36 4  201 292 
                                                                                
