 2016 1011 0729  9.2 L   7.372 -73.184132.2  RSN  6 0.3 1.9LRSN                1
 GAP=103        0.76       3.3     3.3  5.5 -0.1589E+01  0.6327E+01 -0.1426E+01E
 Epicentro: EL PLAYON - SANTANDER                                              3
 ACTION:UPD 16-11-09 19:18 OP:rebc STATUS:               ID:20161011072909 L   I
 OLDACT:REG 16-10-11 13:40 OP:ar   STATUS:               ID:20161011071745     3
 2016-10-11-0718-00M.COL___360                                                 6
 STAT SP IPHASW D HRMM SECON CODA AMPLIT PERI AZIMU VELO AIN AR TRES W  DIS CAZ7
 PAM  EZ EP        729 28.90                             157    0.3010 53.6  94 
 PAM  EN ES        729 43.92                             157    0.1610 53.6  94 
 PAM  EZ I         729 44.92        15.5 0.20            159           53.6  94 
 BRR  HZ IP     C  729 28.57                             152    0.0710 65.3 243 
 BRR  HN ES        729 43.62                             152    0.0310 65.3 243 
 BRR  HZ I         729 44.33        12.3 0.10            152           65.3 243 
 BAR2 EZ EP        729 30.48                             145    0.3010 86.2 180 
 BAR2 EZ ES        729 45.99                             145   -0.5810 86.2 180 
 BAR2 EZ I         729 48.64        16.9 0.44            146           86.2 180 
 OCA  HZ EP        729 30.37                             141   -0.4910 97.1 351 
 OCA  HN ES        729 47.89                             141    0.1110 97.1 351 
 OCA  HZ I         729 49.30        16.8 0.28            143           97.1 351 
 PTB  HZ EP        729 37.11                             125    0.07 9  168 237 
 PTB  HN ES        729 59.03                             125    0.25 9  168 237 
 PTB  HZ I         730  0.31         6.8 0.24            126            168 237 
 ZAR  HZ EP        729 38.51                             122   -0.27 9  185 274 
 ZAR  HN ES        730  1.96                             122    0.07 9  185 274 
 ZAR  HZ I         730  4.46        10.7 0.14            123            185 274 
                                                                                
