 2016  611 0051 29.3 L   6.923 -73.127140.7  RSN  6 0.2 1.2LRSN                1
 GAP=284        0.53       4.3     3.1  4.5 -0.1774E+01  0.5553E+01 -0.2692E+01E
 Epicentro: PIEDECUESTA - SANTANDER                                            3
 ACTION:UPD 16-07-21 22:17 OP:rebc STATUS:               ID:20160611005129 L   I
 OLDACT:UP  16-06-11 14:07 OP:dani STATUS:               ID:20160611004742     3
 OLDACT:UP  16-06-11 14:04 OP:dani STATUS:               ID:20160611004742     3
 OLDACT:REG 16-06-11 12:14 OP:dani STATUS:               ID:20160611004742     3
 2016-06-11-0047-42M.COL___337                                                 6
 STAT SP IPHASW D HRMM SECON CODA AMPLIT PERI AZIMU VELO AIN AR TRES W  DIS CAZ7
 BAR2 EZ EP        051 48.81                             165    0.1510 37.1 189 
 BAR2 EZ ES        052  3.81                             165    0.0310 37.1 189 
 RUS  HZ EP        051 53.59                             139    0.0310  114 178 
 RUS  HN ES        052 12.49                             139   -0.0210  114 178 
 RUS  HZ I         052 13.02         1.5 0.26                           114 178 
 PTB  HZ EP        051 56.35                             130    0.04 9  153 254 
 PTB  HN ES        052 17.24                             130   -0.16 9  153 254 
 PTB  HZ I         052 24.61         2.0 0.48                           153 254 
 SPBC HE ES        052 21.14                             126   -0.26 9  175 217 
 NOR  HZ EP        052  5.41                             116   -0.36 8  244 232 
 NOR  HE ES        052 34.70                             116    0.46 8  244 232 
 NOR  HZ I         052 37.35         1.5 0.16                           244 232 
 GUY2CHZ EP   4    052 16.56                             111    2.81 0  311 233 
 GUY2CHN ES        052 48.57                             111    0.13 7  311 233 
                                                                                
