 2014  211 0623 48.8 L   6.813 -73.152145.6  RSN 11 0.4 2.0LRSN                1
 GAP=135        1.05       2.7     4.2  6.0 -0.2358E+01  0.8965E+01 -0.8917E+00E
 Epicentro: LOS SANTOS - SANTANDER                                             3
 ACTION:UPD 14-03-10 08:09 OP:ep   STATUS:               ID:20140211062348 L   I
 OLDACT:REG 14-02-11 07:43 OP:carl STATUS:               ID:20140211062000     3
 2014-02-11-0620-00M.COL___167                                                 6
 STAT SP IPHASW D HRMM SECON CODA AMPLIT PERI AZIMU VELO AIN AR TRES W  DIS CAZ7
 BAR2 SZ EP        624  8.56                             170    0.1310 24.6 188 
 BAR2 SZ ES        624 23.56                             170   -0.1910 24.6 188 
 BAR2 SZ I         624 26.06        31.4 0.36            169           24.6 188 
 PAM  SZ EP        624 11.37                             151    0.4210 76.7  41 
 PAM  SN ES        624 28.68                             151    0.4410 76.7  41 
 RUS  HZ EP        624 12.43                             143   -0.2010  102 176 
 RUS  HN ES        624 31.40                             143    0.1710  102 176 
 RUS  HZ I         624 32.39         4.4 0.30            146            102 176 
 PTB  HZ EP        624 15.29                             132   -0.42 9  147 258 
 PTB  HN ES        624 36.35                             132   -0.36 9  147 258 
 PTB  HZ I         624 38.66        13.4 0.16            132            147 258 
 OCA  HZ EP        624 16.34                             130   -0.61 9  159 353 
 OCA  HN ES        624 39.22                             130    0.31 9  159 353 
 OCA  HZ I         624 46.16        11.0 0.28            132            159 353 
 SPBC HZ EP        624 17.41                             129    0.07 9  164 218 
 SPBC HN ES        624 38.82                             129   -0.79 9  164 218 
 SPBC HZ I         624 46.77        13.3 0.44            130            164 218 
 ZAR  HZ EP        624 21.04                             122   -0.07 9  203 292 
 ZAR  HE ES        624 46.77                             122    0.46 9  203 292 
 ZAR  HZ I         624 52.76         8.3 0.24            123            203 292 
 NOR  HZ EP        624 24.89                             118    0.35 8  235 234 
 NOR  HN ES        624 52.43                             118    0.00 8  235 234 
 NOR  HZ I         624 58.61         9.7 0.16            120            235 234 
 SML  HZ EP        624 24.88                             118   -0.36 8  242 335 
 SML  HN ES        624 53.17                             118   -0.50 8  242 335 
 SML  HZ I         624 58.21        12.4 0.10            119            242 335 
 CHI  HZ EP        624 26.51                             117   -0.10 8  250 195 
 CHI  HN ES        624 55.86                             117   -0.25 8  250 195 
 CHI  HZ I         625  5.69         2.7 0.26            119            250 195 
 GUY2CHZ EP        624 33.27                             112    0.85 7  301 234 
 GUY2CHN ES        625  7.62                             112    1.16 7  301 234 
 GUY2CHZ I         625 13.74         4.8 0.46                           301 234 
                                                                                
