 2016  911 0450 42.3 L   6.817 -73.112151.6  RSN 25 0.4 2.4LRSN                1
 GAP=103        0.95       2.5     3.0  4.1 -0.2192E+01  0.8845E+00  0.1071E+00E
 Epicentro: LOS SANTOS - SANTANDER                                             3
 ACTION:UPD 17-08-17 21:08 OP:lp   STATUS:               ID:20160911045042 L   I
 OLDACT:UP  16-09-11 15:38 OP:dani STATUS:               ID:20160911044729     3
 OLDACT:UP  16-09-11 15:38 OP:dani STATUS:               ID:20160911044729     3
 OLDACT:UP  16-09-11 15:37 OP:dani STATUS:               ID:20160911044729     3
 OLDACT:REG 16-09-11 12:30 OP:dani STATUS:               ID:20160911044729     3
 2016-09-11-0448-00M.COL___345                                                 6
 STAT SP IPHASW D HRMM SECON CODA AMPLIT PERI AZIMU VELO AIN AR TRES W  DIS CAZ7
 BAR2 EZ EP        451  2.73                             170    0.0910 26.1 197 
 BAR2 EZ ES        451 18.30                             170   -0.2510 26.1 197 
 BAR2 EZ I         451 18.99        70.1 0.24            166           26.1 197 
 PAM  EZ EP        451  5.74                             153    0.8610 73.5  38 
 PAM  EE ES        451 22.93                             153    0.4110 73.5  38 
 PAM  EZ I         451 24.92        69.9 0.48            153           73.5  38 
 BRR  HZ EP     D  451  4.64                             153    0.4610 73.7 296 
 BRR  HN ES        451 21.60                             153    0.3310 73.7 296 
 BRR  HZ I         451 24.77        35.3 0.46            149           73.7 296 
 RUS  HZ EP        451  6.71                             145    0.0010  102 178 
 RUS  HN ES        451 25.75                             145   -0.0310  102 178 
 RUS  HZ I         451 26.51        31.4 0.26            140            102 178 
 PTB  HZ EP        451  9.63                             133   -0.44 9  152 258 
 PTB  HE ES   4    451 30.41                             133   -1.35 0  152 258 
 PTB  HZ I         451 33.44        24.3 0.14            128            152 258 
 OCA  HZ EP        451 10.84                             131   -0.06 9  159 352 
 OCA  HN ES        451 32.73                             131   -0.51 9  159 352 
 OCA  HZ I         451 37.68        42.3 0.32            129            159 352 
 SPBC HZ EP        451 11.51                             130   -0.06 9  167 220 
 SPBC HN ES        451 33.98                             130   -0.45 9  167 220 
 SPBC HZ I         451 40.15        42.6 0.22            125            167 220 
 ZAR  HZ EP        451 15.21                             123   -0.16 8  207 291 
 ZAR  HE ES        451 40.78                             123   -0.42 8  207 291 
 ZAR  HZ I         451 43.14        18.1 0.24            120            207 291 
 NOR  HZ EP        451 18.77                             119   -0.00 8  239 235 
 NOR  HE ES        451 47.10                             119   -0.16 8  239 235 
 NOR  HZ I         451 52.38        20.4 0.14            116            239 235 
 CHI  HZ EP        451 20.91                             118    0.32 8  251 196 
 CHI  HN ES        451 50.30                             118   -0.19 8  251 196 
 CHI  HZ I         451 54.31        19.3 0.59            115            251 196 
 ROSC BZ EP   9    451 22.60                             118    1.51 0  256 212 
 ROSC BN ES        451 53.60                             117    0.71 8  256 212 
 ROSC BZ I         451 56.58        28.4 0.45            114            256 212 
 HEL  HZ EP   4    451 24.91                             116    1.68 0  276 256 
 HEL  HN ES   4    451 53.98                             116   -1.20 0  276 256 
 HEL  HZ I         452  0.84        13.9 0.23            112            276 256 
 URE  HZ EP        451 23.37                             115   -0.56 7  287 291 
 URE  HE ES   4    451 54.59                             115   -1.84 0  287 291 
 URE  HZ I         452  5.48        13.6 0.26            111            287 291 
 SOCV BZ EP        451 25.71                             114    0.60 7  297  57 
 SOCV BE ES        451 57.58                             114   -0.95 7  297  57 
 GUY2CHZ EP        451 27.19                             113    0.58 7  305 235 
 GUY2CHN ES   4    452  4.42                             113    3.22 0  305 235 
 GUY2CHZ I         452  9.02        14.3 0.34                           305 235 
 VIL  EZ EP        451 26.16                             113   -0.08 7  306 192 
 VIL  EZ I         452  3.43        24.0 0.42            110            306 192 
 PTGC HZ EP        451 25.83                             113   -0.60 7  309 159 
 PTGC HE ES   4    451 59.16                             113   -1.72 0  309 159 
 PTGC HZ I         452  4.32        18.6 0.45            110            309 159 
 LL6C HZ EP        451 28.10                             112    0.09 7  323 357 
 LL6C HE ES   2    452  3.25                             112   -0.45 3  323 357 
 LL6C HZ I         452  9.72         7.0 0.37            109            323 357 
 ELA  HZ EP   9    451 32.31                             111    2.48 0  333 230 
 ELA  HN ES        452  8.98                             110   -0.43 7  333 230 
 ELA  HZ I         452 19.53         8.9 0.49            108            333 230 
 CBOC HZ EP   4    451 31.05                             111    1.16 0  338 252 
 CBOC HE ES        452  7.60                             111    0.55 7  338 252 
 CBOC HZ I         452 10.88         3.6 0.18            108            338 252 
 ARGC HN ES   4    452 15.80                             109    4.85 0  359 340 
 PAL  HZ EP        451 38.30                             107    0.19 6  410 239 
 PAL  HE ES   4    452 23.84                             107    2.17 0  410 239 
 PAL  HZ I         452 24.33         4.6 0.25            104            410 239 
 SJC  HZ EP   4    451 36.78                             107   -1.29 0  410 326 
 SJC  HE ES   4    452 17.98                             107   -3.63 0  410 326 
 SJC  HZ I         452 26.10         4.7 0.45            104            410 326 
 CRJC HZ EP   4    451 42.95                             104   -1.72 0  466   3 
 CRJC HN ES   4    452 30.88                             104   -2.48 0  466   3 
 CRJC HZ I         452 35.22         7.3 0.15            102            466   3 
 SMAR HZ EP   2    451 49.18                             103    1.01 2  496 346 
 SMAR HN ES   4    452 36.79                             103   -2.79 0  496 346 
 URI  HZ EP        451 55.22                             101    0.15 4  554  13 
                                                                                
