 2012  211 0959 10.9 L   6.801 -73.147146.1  RSN 14 0.4 1.9LRSN                1
 GAP=136        0.56       3.6     3.7  4.9 -0.2934E+01  0.4520E+01  0.6511E+01E
 ACTION:UP  12-03-07 16:29 OP:epov STATUS:               ID:20120211095910 L   I
 2012-02-11-0957-59S.COL___188                                                 6
 STAT SP IPHASW D HRMM SECON CODA AMPLIT PERI AZIMU VELO AIN AR TRES W  DIS CAZ7
 BAR2 SZ EP        959 30.53                             170   -0.0310 23.4 190 
 BAR2 SZ ES   1    959 45.63                             170   -0.27 7 23.4 190 
 BAR2 SZ I         959 48.83        16.3 0.44                          23.4 190 
 GIR2 SZ EP   2    959 30.67                             167    0.08 5 31.1 350 
 BRR  HZ EP        959 32.47                             153    0.4110 71.0 298 
 BRR  HN ES   2    959 48.87                             153    0.29 5 71.0 298 
 BRR  HZ I         959 51.64        14.6 0.52                          71.0 298 
 PAM  SZ EP        959 33.24                             151    0.1110 77.4  40 
 PAM  SN ES   1    959 50.44                             151   -0.05 7 77.4  40 
 RUS  HZ EP        959 34.62                             144   -0.0610  101 176 
 RUS  HZ I         959 54.80         9.5 0.22                           101 176 
 PTB  HZ EP        959 37.32                             132   -0.55 9  148 259 
 PTB  HZ I        10 0  5.82         7.9 0.60                           148 259 
 OCA  SZ EP   2    959 39.17                             130   -0.04 5  160 353 
 ZAR  HZ EP   3    959 42.75                             122   -0.59 2  204 292 
 ZAR  HN ES   2   10 0  8.02                             122   -0.63 4  204 292 
 ZAR  HZ I        10 0 16.10         8.0 0.24                           204 292 
 NOR  SZ EP   2    959 46.59                             118   -0.04 4  235 234 
 NOR  SN ES   1   10 0 14.95                             118    0.44 6  235 234 
 CHI  HZ EP        959 48.67                             117    0.06 8  249 195 
 CHI  HZ I        10 0 23.93         4.0 0.56                           249 195 
 HEL  HZ EP   2    959 51.83                             115    0.72 4  272 256 
 HEL  HZ I        10 0 28.99         4.2 0.56                           272 256 
 GUY  SZ EP   2    959 54.62                             112   -0.15 4  304 235 
 GUY  SZ I        10 0 40.76         7.3 0.50                           304 235 
 RREF HZ EP   3    959 58.07                             111    1.03 2  322 229 
 RREF HE ES   3   10 0 34.17                             111    1.13 2  322 229 
 RREF HZ I        10 0 40.26         5.3 0.26                           322 229 
 PRA  HZ EP       10 0  4.26                             106   -0.16 6  392 210 
 PRA  HN ES   3   10 0 46.36                             106    0.18 1  392 210 
                                                                                
