 2014 1011 0043 58.6 L   7.268 -74.002 78.9  RSN  7 0.5 1.6LRSN                1
 GAP=149        0.98       4.9     6.4 16.0  0.2174E+02 -0.6623E+02 -0.4671E+02E
 Epicentro: PUERTO WILCHES - SANTANDER                                         3
 ACTION:UPD 14-11-29 23:48 OP:nd   STATUS:               ID:20141011004358 L   I
 OLDACT:UP  14-10-11 14:54 OP:fm   STATUS:               ID:20141011003747d    3
 OLDACT:UP  14-10-11 14:53 OP:fm   STATUS:               ID:20141011003747d    3
 OLDACT:DUP 14-10-11 14:46 OP:fm   STATUS:               ID:20141011003747d    3
 2014-10-11-0037-46M.COL___301                                                 6
 STAT SP IPHASW D HRMM SECON CODA AMPLIT PERI AZIMU VELO AIN AR TRES W  DIS CAZ7
 PTB  HN ES   1    044 27.64                             125   -0.86 7 95.0 212 
 ZAR  HZ EP   1    044 15.82                             124    0.15 7 97.7 285 
 ZAR  HE ES        044 29.61                             124    0.6310 97.7 285 
 ZAR  HZ I         044 32.70         6.5 0.10             96           97.7 285 
 SML  HZ EP   1    044 23.68                             109    0.04 7  170 357 
 SML  HE ES   1    044 42.78                             109   -0.39 7  170 357 
 SML  HZ I         044 48.88         5.9 0.10             56            170 357 
 RUS  HZ EP   1    044 26.16                             108    0.34 7  183 146 
 RUS  HN ES        044 47.06                             108    0.02 9  183 146 
 MON  HZ EP        044 33.18                             102    0.22 8  248 312 
 MON  HE ES        044 59.17                             102   -0.59 8  248 312 
 GUY2CHZ EP   4    045  6.64                             101   30.21 0  272 214 
 GUY2CHN ES   4    045 25.72                             101   19.79 0  272 214 
 GUY2CHZ I         045 28.30         1.9 0.54                           272 214 
 PAL  HZ EP   4    044 51.65                              98    4.56 0  363 224 
 PAL  HN ES   4    044 58.87                              98   -26.0 0  363 224 
 PRA  HN ES   4    045 41.08                              97    7.14 0  405 194 
 PRA  HZ I         045 44.36         1.9 0.26             55            405 194 
 YOT  HZ EP   4    044 54.50                              96   -2.83 0  446 216 
 YOT  HN ES   4    045  3.69                              96   -39.5 0  446 216 
 MAL  SZ EP   4    044 58.57                              95   -7.10 0  516 226 
                                                                                
