 2017  711 0625 41.3 L   6.067 -73.286  4.0  RSN 11 0.6 1.8LRSN                1
 GAP=218        1.38       4.9     5.9  7.3 -0.2049E+02  0.2593E+02 -0.1469E+02E
 Epicentro: GAMBITA - SANTANDER                                                3
 ACTION:UPD 17-08-30 15:31 OP:rebc STATUS:               ID:20170711062541 L   I
 OLDACT:UP  17-07-11 15:18 OP:dnl  STATUS:               ID:20170711061740     3
 OLDACT:UP  17-07-11 15:17 OP:dnl  STATUS:               ID:20170711061740     3
 OLDACT:UP  17-07-11 15:17 OP:dnl  STATUS:               ID:20170711061740     3
 OLDACT:REG 17-07-11 13:05 OP:dnl  STATUS:               ID:20170711061740     3
 2017-07-11-0618-00M.COL___365                                                 6
 STAT SP IPHASW D HRMM SECON CODA AMPLIT PERI AZIMU VELO AIN AR TRES W  DIS CAZ7
 BAR2 EZ IP     C  625 50.52                              47   -0.5910 59.2  11 
 BAR2 EZ ES   4    625 57.25                              47   -1.51 0 59.2  11 
 BAR2 EZ I         625 58.61        39.5 0.20             47           59.2  11 
 SPBC HZ EP        625 56.85                              47   -0.0510 98.4 242 
 SPBC HE ES        626  7.83                              47   -1.2310 98.4 242 
 SPBC HZ I         626 10.52        37.2 0.44             47           98.4 242 
 BRR  HZ IP     C  626  1.28                              47    0.5610  124 338 
 BRR  HE ES        626 15.74                              47   -0.1310  124 338 
 BRR  HZ I         626 21.75        17.7 0.14             47            124 338 
 YPLC HE ES   4    626 21.31                              47    5.16 0  125 126 
 YPLC HZ I         626 28.04        12.3 0.34             47            125 126 
 PTB  HZ EP        626  3.73                              47    0.67 9  140 292 
 PTB  HN ES        626 19.93                              47   -0.11 9  140 292 
 PTB  HZ I         626 22.17        11.6 0.34             47            140 292 
 PAM  EZ EP        626  6.48                              47    0.61 9  155  25 
 PAM  EN ES        626 24.33                              47   -0.71 9  155  25 
 PAM  EZ I         626 27.69        17.6 0.20             47            155  25 
 NOR  HZ EP        626 10.48                              37    0.87 9  184 252 
 NOR  HE ES        626 31.99                              37    0.29 9  184 252 
 NOR  HZ I         626 33.11         6.8 0.66             47            184 252 
 ZAR  HZ EP   2    626 16.09                              37    0.20 4  235 312 
 ZAR  HN ES        626 42.66                              37   -0.21 8  235 312 
 ZAR  HZ I         626 45.94         7.0 0.22             37            235 312 
 PTGC HZ EP   4    626 21.49                              37    4.57 0  243 148 
 PTGC HE ES   4    626 51.64                              37    6.94 0  243 148 
 PTGC HZ I         626 52.95         7.7 0.30             37            243 148 
 GUY2CHZ EP   9    626 20.53                              37    2.35 0  248 248 
 GUY2CHN ES     C  626 49.50                              37    0.20 8  248 248 
 GUY2CHZ I         626 51.74         5.1 0.24                           248 248 
 HEL  HZ EP   2    626 18.65                              37    0.57 4  249 273 
 HEL  HE ES        626 47.04                              37    0.28 8  249 273 
 HEL  HZ I         626 47.91         4.6 0.22             37            249 273 
                                                                                
