 2014  811 0006 39.8 L   6.720 -73.211147.0  RSN  5 0.2 1.5LRSN                1
 GAP=220        0.64       5.0     4.6  5.7  0.1201E+02  0.6760E+01 -0.1901E+01E
 Epicentro: VILLANUEVA - SANTANDER                                             3
 ACTION:UPD 14-09-15 21:48 OP:nd   STATUS:               ID:20140811000639 L   I
 OLDACT:REG 14-08-11 12:33 OP:cam  STATUS:               ID:20140811000000     3
 2014-08-11-0000-00M.COL___285                                                 6
 STAT SP IPHASW D HRMM SECON CODA AMPLIT PERI AZIMU VELO AIN AR TRES W  DIS CAZ7
 BAR2 SZ EP        0 6 59.18                             174   -0.2310 14.5 167 
 BAR2 SZ ES        0 7 14.93                             174    0.2110 14.5 167 
 BAR2 SZ I         0 7 16.18         5.0 0.28            179           14.5 167 
 BRR  HZ EP        0 7  1.33                             153    0.3410 70.0 308 
 BRR  HN ES        0 7 17.42                             153   -0.1110 70.0 308 
 BRR  HZ I         0 7 27.50         9.7 0.32            153           70.0 308 
 RUS  HE ES        0 7 21.08                             146   -0.2010 92.6 171 
 RUS  HE I         0 7 22.70         4.0 0.16            155           92.6 171 
 PTB  HZ EP        0 7  6.16                             134    0.08 9  139 262 
 PTB  HN ES        0 7 26.81                             134    0.22 9  139 262 
 PTB  HZ I         0 7 29.82         4.5 0.18            138            139 262 
 ZAR  HN ES        0 7 36.74                             123   -0.37 9  201 295 
                                                                                
