 2011  811 0301 37.7 L   6.782 -73.132146.7  RSN  8 0.4 2.2LRSN                1
 GAP=184        0.78       3.2     6.8  6.1 -0.4098E+01  0.7984E+01  0.2008E+01E
 Epicentro: LOS SANTOS - SANTANDER                                             3
 ACTION:UPD 12-07-13 15:51 OP:ep   STATUS:               ID:20110811030137 L   I
 2011-08-11-0259-35S.COL___150                                                 6
 STAT SP IPHASW D HRMM SECON CODA AMPLIT PERI AZIMU VELO AIN AR TRES W  DIS CAZ7
 BAR2 SZ EP        3 1 57.68                             171    0.2610 21.6 195 
 BAR2 SZ ES   1    3 2 12.59                             171   -0.21 7 21.6 195 
 BAR2 SZ I         3 2 14.46        62.0 0.24                          21.6 195 
 BRR  HZ IP     C  3 1 59.57                             152    0.4810 73.5 299 
 BRR  HE ES   1    3 2 16.23                             152    0.46 7 73.5 299 
 BRR  HZ I         3 2 19.52        25.6 0.19                          73.5 299 
 RUS  HZ EP   1    3 2  1.35                             145   -0.05 7 98.5 177 
 RUS  HN ES   1    3 2 19.58                             145   -0.31 7 98.5 177 
 RUS  HZ I         3 2 21.56        14.0 0.33                          98.5 177 
 OCA  SZ EP        3 2  5.57                             129   -0.73 9  162 353 
 OCA  SZ ES   1    3 2 28.49                             129   -0.11 7  162 353 
 OCA  SZ I         3 2 35.14        17.1 0.30                           162 353 
 NOR  SZ EP   1    3 2 13.63                             119    0.13 6  235 235 
 NOR  SN ES   1    3 2 40.68                             119   -0.73 6  235 235 
 CHI  HZ EP   1    3 2 15.70                             117    0.41 6  247 196 
 CHI  HE ES   1    3 2 44.64                             117    0.04 6  247 196 
 CHI  HZ I         3 2 53.69         6.5 0.49                           247 196 
 RREF HZ EP   2    3 2 24.24                             111    0.37 3  322 230 
 RREF HN ES   2    3 2 59.76                             111   -0.11 3  322 230 
 RREF HZ I         3 3  9.96         8.9 0.26                           322 230 
 PRA  HZ EP   1    3 2 31.57                             107    0.43 4  391 210 
 PRA  HE ES   1    3 3 12.46                             107   -0.36 4  391 210 
                                                                                
