 2017 1111 0711 20.5 L   6.160 -73.805 98.7  RSN  8 0.5 1.7LRSN                1
 GAP= 90        1.17       3.4     3.1  7.6 -0.1255E+01  0.5391E+00  0.2589E+01E
 Epicentro: LANDAZURI - SANTANDER                                              3
 ACTION:UPD 17-12-12 19:54 OP:rebc STATUS:               ID:20171111071120 L   I
 OLDACT:REG 17-11-11 14:24 OP:dnl  STATUS:               ID:20171111070639     3
 2017-11-11-0707-00M.COL___435                                                 6
 STAT SP IPHASW D HRMM SECON CODA AMPLIT PERI AZIMU VELO AIN AR TRES W  DIS CAZ7
 SPBC HZ EP        711 36.22                             145   -0.1510 63.5 208 
 SPBC HE ES        711 49.18                             145    0.4210 63.5 208 
 SPBC HZ I         711 50.58        12.5 0.28            146           63.5 208 
 PTB  HZ EP        711 37.04                             137   -0.7810 83.4 300 
 PTB  HN ES        711 50.77                             137   -0.5710 83.4 300 
 PTB  HZ I         711 51.40         9.4 0.26            137           83.4 300 
 BAR2 EZ IP     D  711 37.92                             137   -0.2410 83.8  55 
 BAR2 EZ ES        711 51.72                             137   -0.2210 83.8  55 
 BAR2 EZ I         711 53.02        30.9 0.48            138           83.8  55 
 BRR  HZ EP        711 39.44                             130   -0.3210  105   6 
 BRR  HE ES        711 55.45                             130    0.6610  105   6 
 BRR  HZ I         711 58.39         5.2 0.10            130            105   6 
 NOR  HZ EP        711 43.05                             122    0.2310  135 241 
 NOR  HN ES        712  0.14                             122   -0.0910  135 241 
 NOR  HZ I         712  3.76         6.8 0.14            123            135 241 
 YPLC HZ EP        711 47.30                             115   -0.31 9  179 118 
 YPLC HN ES        712  9.23                             115    0.46 9  179 118 
 YPLC HZ I         712 10.06         8.4 0.34            115            179 118 
 ZAR  HZ EP        711 48.42                             114   -0.10 9  188 322 
 ZAR  HN ES        712 11.30                             114    0.91 9  188 322 
 ZAR  HZ I         712 13.76         7.2 0.22            113            188 322 
 GUY2CHZ EP        711 51.23                             112    0.56 9  201 239 
 GUY2CHN ES        712 14.12                             112   -0.09 9  201 239 
 GUY2CHZ I         712 21.30         3.5 0.40                           201 239 
                                                                                
