 2012  611 0953 28.0 L   6.622 -73.746 93.7  RSN  5 0.4 1.4LRSN                1
 GAP=126        0.66       5.9     4.2 11.3  0.3453E+01  0.1918E+02 -0.2397E+02E
 Epicentro: EL CARMEN DE CHUCURI - SANTANDER                                   3
 ACTION:UPD 12-08-06 17:48 OP:ep   STATUS:               ID:20120611095327 L   I
 2012-06-11-0950-00M.COL___201                                                 6
 STAT SP IPHASW D HRMM SECON CODA AMPLIT PERI AZIMU VELO AIN AR TRES W  DIS CAZ7
 BAR2 SZ EP   1    953 43.54                             144    0.06 7 62.4  93 
 BAR2 SZ I         953 43.75        11.0 0.09            151           62.4  93 
 BAR2 SZ ES   1    953 55.86                             144    0.29 7 62.4  93 
 PTB  HZ EP   1    953 44.11                             137   -0.37 7 79.1 263 
 PTB  HE ES   2    953 57.09                             137   -0.27 5 79.1 263 
 PTB  HZ I         954  1.07         4.4 0.10            137           79.1 263 
 RUS  HE ES   2    954  3.17                             127   -0.23 5  109 138 
 ZAR  HZ EP   1    953 52.69                             117    0.49 7  156 308 
 ZAR  HZ I         953 53.73         6.2 0.14            118            156 308 
 ZAR  HN ES   2    954 11.41                             117    0.32 5  156 308 
 OCA  HN ES   2    954 16.31                             112   -0.88 4  185  15 
                                                                                
