 2012 1011 0439 17.9 L   6.771 -73.092147.0  RSN  9 0.4 2.0LRSN                1
 GAP=145        0.69       3.6     4.3  5.8  0.5681E+00  0.6373E+01  0.6840E+01E
 Epicentro: LOS SANTOS - SANTANDER                                             3
 ACTION:UPD 12-11-22 17:03 OP:ep   STATUS:               ID:20121011043917 L   I
 2012-10-11-0437-59S.COL___226                                                 6
 STAT SP IPHASW D HRMM SECON CODA AMPLIT PERI AZIMU VELO AIN AR TRES W  DIS CAZ7
 BAR2 SZ EP   1    439 37.76                             171    0.15 7 22.2 207 
 BAR2 SZ ES   1    439 53.02                             171    0.00 7 22.2 207 
 BAR2 SZ I         439 55.38        26.2 0.44                          22.2 207 
 GIR2 SZ EP   1    439 37.65                             166   -0.15 7 35.8 342 
 GIR2 SZ ES   1    439 53.14                             166   -0.22 7 35.8 342 
 PAM  SZ EP   1    439 40.42                             151    0.28 7 76.3  35 
 PAM  SZ I         439 40.77        22.2 0.22                          76.3  35 
 PAM  SN ES   1    439 57.65                             151    0.13 7 76.3  35 
 BRR  HZ EP   1    439 39.51                             150   -0.02 7 77.9 298 
 BRR  HZ I         439 39.81        24.0 0.24                          77.9 298 
 BRR  HE ES   1    439 56.88                             150    0.45 7 77.9 298 
 RUS  HZ EP   1    439 41.17                             145   -0.32 7 97.2 179 
 RUS  HN ES   1    439 59.84                             145   -0.08 7 97.2 179 
 RUS  HN I         440  1.85        12.9 0.16                          97.2 179 
 ZAR  HN ES   1    440 16.06                             122   -0.93 6  211 292 
 ZAR  HN I         440 21.52        12.0 0.27                           211 292 
 CHI  HZ EP   1    439 55.62                             117    0.15 6  247 197 
 CHI  HZ I         439 56.29         3.1 0.33                           247 197 
 CHI  HN ES   1    440 24.48                             117   -0.33 6  247 197 
 CHI  HN I         440 27.54         9.1 0.28                           247 197 
 HEL  HE ES   1    440 31.35                             115    0.81 6  277 257 
 HEL  HN I         440 36.21         3.7 0.32                           277 257 
 PRA  HN ES   2    440 53.95                             107    0.70 3  392 211 
 PRA  HN I         440 58.27         2.8 0.25                           392 211 
                                                                                
