 2016 1211 0934 27.5 L   6.785 -73.182142.0  RSN  7 0.4 1.4LRSN                1
 GAP=232        0.90       4.5     5.4  6.1  0.1175E+02  0.9735E+01  0.1051E+02E
 Epicentro: LOS SANTOS - SANTANDER                                             3
 ACTION:UPD 17-01-11 20:14 OP:rebc STATUS:               ID:20161211093427 L   I
 OLDACT:DUP 16-12-11 15:44 OP:lv   STATUS:               ID:20161211092745d    3
 2016-12-11-0928-00M.COL___364                                                 6
 STAT SP IPHASW D HRMM SECON CODA AMPLIT PERI AZIMU VELO AIN AR TRES W  DIS CAZ7
 BAR2 EZ EP        934 46.30                             171   -0.3410 21.4 180 
 BAR2 EZ ES        935  1.56                             171   -0.0010 21.4 180 
 BAR2 EZ I         935  4.12         6.5 0.31            168           21.4 180 
 BRR  HZ EP        934 48.16                             153    0.0710 68.5 301 
 BRR  HN ES        935  4.63                             153    0.4810 68.5 301 
 BRR  HZ I         935  6.27         8.9 0.44            151           68.5 301 
 RUS  HZ EP        934 50.32                             143   -0.4710 99.3 174 
 RUS  HN ES        935  9.20                             143    0.2510 99.3 174 
 RUS  HZ I         935  9.96         1.1 0.23            143           99.3 174 
 PTB  HZ EP        934 53.50                             132   -0.27 9  143 259 
 PTB  HE ES        935 13.83                             132   -0.43 9  143 259 
 PTB  HZ I         935 17.03         2.1 0.11            131            143 259 
 ZAR  HZ EP   4    935  1.73                             122    2.35 0  201 293 
 ZAR  HE ES        935 24.32                             122    0.07 9  201 293 
 ZAR  HZ I         935 29.63         2.0 0.12            122            201 293 
 CHI  HZ EP        935  5.42                             117    0.71 8  246 194 
 CHI  HN ES        935 33.41                             117   -0.32 8  246 194 
 CHI  HZ I         935 37.51         1.5 0.25            117            246 194 
 PRA  HZ EP        935 20.97                             106    0.48 6  389 209 
 PRA  HE ES        936  2.28                             106    0.45 6  389 209 
 PRA  HZ I         936  7.53         1.5 0.30            107            389 209 
                                                                                
