 2011  811 0922 53.9 L   6.781 -73.143136.5  RSN 13 0.4 2.6LRSN                1
 GAP=138        0.66       2.6     4.4  4.2 -0.3141E+01  0.6489E+01  0.1237E+01E
 Epicentro: LOS SANTOS - SANTANDER                                             3
 ACTION:UPD 12-07-13 15:51 OP:ep   STATUS:               ID:20110811092253 L   I
 2011-08-11-0919-30S.COL___150                                                 6
 STAT SP IPHASW D HRMM SECON CODA AMPLIT PERI AZIMU VELO AIN AR TRES W  DIS CAZ7
 BAR2 SZ IP        923 12.74                             171    0.3610 21.3 192 
 BAR2 SZ ES        923 26.61                             171   -0.1910 21.3 192 
 BAR2 SZ I         923 29.89       101.3 0.26                          21.3 192 
 BRR  HZ IP     C  923 14.57                             150    0.4310 72.5 300 
 BRR  HZ I         923 15.02       211.4 0.10                          72.5 300 
 BRR  HN ES   1    923 30.36                             150    0.43 7 72.5 300 
 PAM  SZ EP   1    923 15.58                             149    0.34 7 78.8  38 
 PAM  SN ES   1    923 31.54                             149   -0.33 7 78.8  38 
 PAM  SZ I         923 34.28        49.0 0.40                          78.8  38 
 RUS  HZ EP        923 16.77                             142    0.1710 98.5 176 
 RUS  HN ES   1    923 34.02                             142   -0.28 7 98.5 176 
 RUS  HZ I         923 36.56        44.5 0.44                          98.5 176 
 OCA  SZ EP        923 21.41                             127   -0.31 9  162 353 
 OCA  SZ ES   2    923 42.19                             127   -1.22 5  162 353 
 OCA  SZ I         923 46.33        71.4 0.31                           162 353 
 NOR  SZ EP   1    923 28.63                             116   -0.38 6  234 235 
 NOR  SN ES   1    923 56.17                             116   -0.23 6  234 235 
 CHI  HZ EP   1    923 31.04                             115    0.15 6  247 195 
 CHI  HN ES   1    923 59.80                             115    0.05 6  247 195 
 CHI  HZ I         924  4.57        20.2 0.24                           247 195 
 VIL  SN ES   2    924  9.43                             110   -0.63 4  301 192 
 VIL  SZ I         924 19.99        19.9 0.66                           301 192 
 RREF HZ EP   2    923 38.80                             109   -0.73 3  321 230 
 RREF HN ES   2    924 15.46                             109    0.33 3  321 230 
 RREF HZ I         924 24.45        34.7 0.46                           321 230 
 DBB  SZ EP   1    923 41.14                             108    0.06 5  340 275 
 TOL  SZ EP   2    923 42.03                             108    0.37 3  342 225 
 ANIL HZ EP   2    923 43.21                             107   -0.01 3  356 225 
 ANIL HE ES   2    924 21.42                             107   -0.27 3  356 225 
 PRA  HZ EP        923 46.80                             105   -0.12 6  390 210 
 PRA  HN ES   1    924 28.02                             105   -0.26 4  390 210 
                                                                                
