 2012 1211 0732 15.9 L   6.703 -73.157146.0  RSN  4 0.2 1.1LRSN                1
 GAP=229        0.47       5.1     5.4  7.8  0.1504E+02 -0.1291E+02 -0.7222E+01E
 Epicentro: VILLANUEVA - SANTANDER                                             3
 ACTION:UPD 13-01-04 14:27 OP:ep   STATUS:               ID:20121211073215 L   I
 2012-12-11-0730-00M.COL___242                                                 6
 STAT SP IPHASW D HRMM SECON CODA AMPLIT PERI AZIMU VELO AIN AR TRES W  DIS CAZ7
 BAR2 SZ EP   1    732 35.23                             175   -0.12 7 12.6 193 
 BRR  HZ EP   1    732 37.07                             151   -0.23 7 75.8 306 
 BRR  HN ES   1    732 54.21                             151    0.18 7 75.8 306 
 BRR  HZ I         732 58.49         2.1 0.14                          75.8 306 
 RUS  HZ EP   1    732 39.24                             147    0.34 7 90.0 175 
 RUS  HN ES   1    732 56.73                             147   -0.15 7 90.0 175 
 PTB  HN ES   1    733  3.39                             133   -0.03 7  145 263 
 PTB  HZ I         733  5.74         2.2 0.17                           145 263 
                                                                                
