 2013  111 0339 12.8 L   6.785 -73.129141.3  RSN  8 0.5 2.3LRSN                1
 GAP=185        1.26       4.6     6.2  7.8  0.7824E+01  0.1416E+02  0.5529E+01E
 Epicentro: LOS SANTOS - SANTANDER                                             3
 ACTION:UPD 13-02-15 09:13 OP:ep   STATUS:               ID:20130111033912 L   I
 2013-01-11-0337-51M.COL___178                                                 6
 STAT SP IPHASW D HRMM SECON CODA AMPLIT PERI AZIMU VELO AIN AR TRES W  DIS CAZ7
 BAR2 SZ EP        339 31.84                             171    0.0210 22.1 196 
 BAR2 SZ ES        339 46.54                             171   -0.1510 22.1 196 
 BAR2 SZ I         339 47.78        48.3 0.18            169           22.1 196 
 BRR  HZ EP        339 33.88                             151    0.3210 73.6 299 
 BRR  HN ES        339 50.65                             151    0.8610 73.6 299 
 BRR  HN I         339 51.00        59.8 0.22            150           73.6 299 
 RUS  HZ EP        339 35.90                             143   -0.0410 98.8 177 
 RUS  HN ES        339 54.30                             143    0.2810 98.8 177 
 RUS  HN I         339 55.79        49.5 0.30            143           98.8 177 
 PTB  HZ EP        339 38.97                             131   -0.53 9  149 260 
 PTB  HN ES        339 59.50                             131   -0.86 9  149 260 
 PTB  HN I         340  2.00        32.5 0.24            130            149 260 
 OCA  HN ES        340  1.94                             128   -0.91 9  162 353 
 OCA  HN I         340  5.75        45.2 0.24            129            162 353 
 ZAR  HZ EP        339 45.73                             121    0.57 8  206 292 
 ZAR  HN ES        340 10.82                             121    0.39 8  206 292 
 ZAR  HN I         340 16.06        19.3 0.14            121            206 292 
 CHI  HZ EP        339 50.12                             116    0.03 8  248 196 
 CHI  HN ES        340 18.86                             116   -0.35 8  248 196 
 CHI  HN I         340 26.37         8.7 0.28            116            248 196 
 HEL  HZ EP        339 53.55                             114    0.65 8  274 256 
 HEL  HN ES        340 23.89                             114   -0.32 8  274 256 
 HEL  HN I         340 27.72         6.0 0.40            113            274 256 
                                                                                
