 2016  511 0542 12.4 L   6.799 -73.137142.0  RSN  9 0.3 1.5LRSN                1
 GAP=138        0.74       2.6     3.6  4.7  0.5283E+00  0.5098E+01  0.8667E+00E
 Epicentro: LOS SANTOS - SANTANDER                                             3
 ACTION:UPD 16-08-18 17:44 OP:cam  STATUS:               ID:20160511054212 L   I
 OLDACT:UP  16-05-11 16:24 OP:drio STATUS:               ID:20160511053745     3
 OLDACT:REG 16-05-11 12:29 OP:drio STATUS:               ID:20160511053745     3
 2016-05-11-0537-45M.COL___285                                                 6
 STAT SP IPHASW D HRMM SECON CODA AMPLIT PERI AZIMU VELO AIN AR TRES W  DIS CAZ7
 BAR2 EZ EP        542 31.43                             170   -0.1410 23.4 192 
 BAR2 EZ ES        542 46.28                             170   -0.2510 23.4 192 
 BAR2 EZ I         542 47.58        10.8 0.16            168           23.4 192 
 BRR  HZ EP        542 33.32                             152    0.1310 72.1 298 
 BRR  HN ES        542 49.96                             152    0.5510 72.1 298 
 BRR  HZ I         542 53.97         8.2 0.12            146           72.1 298 
 PAM  EZ EP        542 34.22                             150    0.0410 76.8  39 
 PAM  EN ES        542 51.24                             150    0.0710 76.8  39 
 PAM  EZ I         542 53.61         3.4 0.40            154           76.8  39 
 RUS  HZ EP        542 35.58                             143   -0.1810  100 177 
 RUS  HE ES        542 54.11                             143    0.1210  100 177 
 RUS  HZ I         542 55.41         2.3 0.38            145            100 177 
 PTB  HZ EP        542 39.52                             131    0.38 9  149 259 
 PTB  HN ES   4    542 58.82                             131   -1.19 0  149 259 
 PTB  HZ I         543  5.83         2.6 0.14            129            149 259 
 SPBC HZ EP        542 40.62                             128   -0.04 9  164 219 
 SPBC HN ES        543  2.32                             128   -0.38 9  164 219 
 SPBC HZ I         543  7.69         4.7 0.10            128            164 219 
 ZAR  HZ EP   4    542 46.81                             121    2.12 0  205 292 
 ZAR  HE ES        543  9.71                             121   -0.18 9  205 292 
 ZAR  HZ I         543 17.46         2.7 0.12            120            205 292 
 SML  HZ EP   4    542 46.99                             117   -1.87 0  244 335 
 SML  HE ES        543 16.75                             117   -0.56 8  244 335 
 SML  HZ I         543 25.96         3.9 0.10            117            244 335 
 PRA  HZ EP        543  6.31                             106    0.48 6  392 210 
 PRA  HE ES   4    543 49.34                             106    1.83 0  392 210 
 PRA  HZ I         543 54.55         1.8 0.28            107            392 210 
                                                                                
