 2011  811 0832 15.8 L   6.847 -73.300120.1  RSN 12 0.4 2.3LRSN                1
 GAP=103        0.72       2.3     4.3  4.1 -0.3739E+00  0.2842E+01 -0.8447E+00E
 Epicentro: ZAPATOCA - SANTANDER                                               3
 ACTION:UPD 12-07-25 14:07 OP:epov STATUS:               ID:20110811083215 L   I
 2011-08-11-0820-00M.COL___151                                                 6
 STAT SP IPHASW D HRMM SECON CODA AMPLIT PERI AZIMU VELO AIN AR TRES W  DIS CAZ7
 GIR2 SZ EP   2    832 33.22                             166    0.91 5 28.2  25 
 BAR2 SZ IP        832 32.80                             165    0.2610 31.0 155 
 BAR2 SZ ES        832 45.63                             165    0.0110 31.0 155 
 BAR2 SZ I         832 47.17       191.3 0.14                          31.0 155 
 BRR  HZ IP     D  832 33.19                             154    0.0210 53.9 302 
 BRR  HE ES        832 46.93                             154    0.1810 53.9 302 
 BRR  HZ I         832 48.01        77.2 0.11                          53.9 302 
 RUS  HZ EP        832 37.42                             136   -0.3110  108 167 
 RUS  HE ES        832 54.30                             136   -0.5710  108 167 
 RUS  HZ I         832 57.22        12.6 0.31                           108 167 
 OCA  SZ EP        832 42.09                             124    0.51 9  154 359 
 OCA  SZ ES   1    833  1.56                             124   -0.16 7  154 359 
 OCA  SZ I         833  3.17        54.6 0.28                           154 359 
 NOR  SZ EP   1    832 49.04                             114    0.06 6  224 231 
 NOR  SN ES   1    833 14.66                             114   -0.22 6  224 231 
 CHI  HZ EP   1    832 52.79                             111    0.47 6  250 191 
 CHI  HN ES   2    833 21.17                             111    0.35 4  250 191 
 CHI  HZ I         833 25.09         4.5 0.47                           250 191 
 RREF HZ EP   2    832 59.89                             106    0.04 3  313 227 
 RREF HN ES   2    833 34.44                             106    0.21 3  313 227 
 RREF HZ I         833 42.70         5.1 0.15                           313 227 
 DBB  SZ EP   1    832 59.72                             105   -0.56 5  322 274 
 COD  HZ EP   1    833  1.91                             104   -0.60 5  342 357 
 COD  HN ES   1    833 38.48                             104   -0.49 5  342 357 
 COD  HZ I         833 46.16         7.5 0.06                           342 357 
 SDV  BZ EP   1    833  5.78                             103   -0.38 5  370  52 
 PRA  HZ EP   2    833  8.75                             102    0.65 3  388 207 
 PRA  HE ES   2    833 49.62                             102    0.70 3  388 207 
                                                                                
