 2016  211 0819 18.7 L   6.832 -73.114149.3  RSN 28 0.5 2.8LRSN                1
 GAP= 72        1.08       2.3     2.6  4.7 -0.1143E+01  0.3017E+01  0.1608E+00E
 Epicentro: LOS SANTOS - SANTANDER                                             3
 ACTION:UPD 16-03-04 21:25 OP:rebc STATUS:               ID:20160211081918 L   I
 OLDACT:REG 16-02-11 13:39 OP:ak   STATUS:               ID:20160211081750     3
 2016-02-11-0817-50M.COL___283                                                 6
 STAT SP IPHASW D HRMM SECON CODA AMPLIT PERI AZIMU VELO AIN AR TRES W  DIS CAZ7
 BAR2 EZ IP     D  819 38.90                             169    0.0410 27.6 196 
 BAR2 EZ ES        819 54.26                             169   -0.3210 27.6 196 
 BAR2 EZ I         819 55.61       100.9 0.32            169           27.6 196 
 PAM  EZ EP        819 41.75                             153    0.7310 72.4  39 
 PAM  EN ES        819 58.98                             153    0.5510 72.4  39 
 PAM  EZ I         820  1.07        79.6 0.22            153           72.4  39 
 RUS  HZ EP        819 42.68                             144   -0.3810  104 178 
 RUS  HN ES        820  1.79                             144   -0.2610  104 178 
 RUS  HZ I         820  4.84        31.6 0.24            143            104 178 
 PTB  HZ EP        819 45.64                             132   -0.71 9  152 258 
 PTB  HN ES        820  7.08                             132   -0.83 9  152 258 
 PTB  HZ I         820 12.84       109.2 0.22            131            152 258 
 TAM  HZ IP     D  819 47.10                             132    0.65 9  153 107 
 TAM  HZ I         820  7.92        73.2 0.36            132            153 107 
 TAM  HE ES        820  8.37                             132    0.28 9  153 107 
 OCA  HZ EP        819 47.23                             131    0.21 9  157 352 
 OCA  HN ES        820  9.32                             131    0.23 9  157 352 
 OCA  HZ I         820 15.50       142.7 0.26            131            157 352 
 SPBC HZ EP        819 47.80                             129   -0.16 9  168 219 
 SPBC HN ES        820 10.50                             129   -0.27 9  168 219 
 SPBC HZ I         820 17.08       186.4 0.36            128            168 219 
 ZAR  HZ EP        819 51.53                             123   -0.06 8  206 291 
 ZAR  HN ES        820 17.30                             123    0.06 8  206 291 
 ZAR  HZ I         820 23.34       107.0 0.28            122            206 291 
 NOR  HZ EP        819 55.07                             119   -0.11 8  240 234 
 NOR  HN ES        820 23.29                             119   -0.34 8  240 234 
 NOR  HZ I         820 26.68        69.6 0.20            118            240 234 
 SML  HZ EP        819 55.24                             118   -0.11 8  242 334 
 SML  HN ES        820 23.88                             118   -0.05 8  242 334 
 SML  HZ I         820 26.98        55.9 0.13            118            242 334 
 CHI  HZ EP        819 56.85                             117   -0.24 8  253 196 
 CHI  HN ES        820 26.63                             117   -0.39 8  253 196 
 CHI  HZ I         820 32.03        26.4 0.46            117            253 196 
 ROSC BZ EP        819 58.31                             117    0.75 8  258 211 
 ROSC BN ES   4    820 30.34                             117    2.48 0  258 211 
 ROSC BZ I         820 36.84        84.9 0.45            116            258 211 
 HEL  HZ EP        819 59.61                             115    0.03 7  276 255 
 HEL  HN ES        820 31.60                             115    0.13 7  276 255 
 HEL  HZ I         820 37.65        38.7 0.36            115            276 255 
 URE  HZ EP   4    819 58.77                             114   -1.41 0  286 291 
 URE  HN ES   4    820 29.05                             114   -3.47 0  286 291 
 URE  HZ I         820 45.74        25.7 0.16            114            286 291 
 SOCV BZ EP        820  0.37                             113   -1.00 7  296  57 
 SOCV BN ES   4    820 32.53                             113   -2.12 0  296  57 
 GUY2CHZ EP        820  2.88                             113   -0.16 7  306 235 
 GUY2CHE ES        820 38.60                             113    0.98 7  306 235 
 GUY2CHZ I         820 45.78        73.1 0.78                           306 235 
 VIL  SZ EP        820  2.39                             112   -0.38 7  308 192 
 VIL  SN ES        820 37.56                             112    0.42 7  308 192 
 PTGC HZ EP   4    820  1.68                             112   -1.28 0  311 160 
 PTGC HN ES   4    820 34.82                             112   -2.66 0  311 160 
 PTGC HZ I         820 42.26        15.5 0.24            112            311 160 
 LL6C HZ EP        820  3.66                             111   -0.52 7  321 357 
 LL6C HE ES        820 40.04                             111    0.40 7  321 357 
 LL6C HZ I         820 46.95         8.8 0.42            111            321 357 
 CRECREZ EP   4    820  4.74                             111   -0.30 0  323 230 
 CRECREN ES   4    820 40.79                             111   -0.39 0  323 230 
 CBOC HZ EP        820  6.56                             110    0.27 7  338 252 
 CBOC HN ES        820 44.37                             110    0.97 7  338 252 
 CBOC HZ I         820 54.74        11.9 0.58            110            338 252 
 DBB  SZ EP        820  6.45                             110   -0.26 7  343 274 
 DBB  SZ ES        820 43.36                             110   -0.79 7  343 274 
 ANIL HZ EP        820 10.14                             109    0.90 6  362 225 
 ANIL HN ES        820 49.62                             109    0.97 6  362 225 
 ORTC HZ EP        820 12.96                             107   -0.38 6  400 216 
 ORTC HN ES        820 56.41                             107    0.47 6  400 216 
 ORTC HZ I         821  4.65        18.0 0.52            106            400 216 
 ELOV BZ EP        820 12.52                             107   -0.90 6  402  87 
 SJC  HZ EP   4    820 12.37                             106   -1.90 0  408 326 
 SJC  HN ES   4    820 53.68                             106   -3.92 0  408 326 
 SJC  HZ I         820 59.61         9.3 0.26            106            408 326 
 PAL  HZ EP        820 14.43                             106   -0.13 6  411 239 
 PAL  HN ES   4    820 56.11                             106   -2.02 0  411 239 
 PAL  HZ I         821  9.41        11.7 0.54            106            411 239 
 CRJC HZ EP   9    820 18.37                             104   -2.49 0  464   3 
 CRJC HN ES        821  6.28                                   -0.57 5  464   3 
 CRJC HZ I         821 12.28        15.5 0.46            104            464   3 
 MACC HZ EP   4    820 25.31                             102   -2.69 0  525 189 
 GARC HZ EP   4    820 32.80                             101   -1.82 0  578 207 
 GARC HN ES   4    821 23.89                             101    -9.9 0  578 207 
 GARC HZ I         821 36.51        10.6 0.20            100            578 207 
                                                                                
