 2011  311 0133  3.3 L   6.781 -73.205136.1  RSN  7 0.3 1.6LRSN                1
 GAP=152        0.53       2.5     4.5  5.2 -0.5020E+01  0.9969E+01 -0.1049E+01E
 Epicentro: ZAPATOCA - SANTANDER                                               3
 ACTION:UP  11-06-16 14:32 OP:jfem STATUS:               ID:20110311013303 L   I
 2011-03-11-0129-40S.COL___135                                                 6
 STAT SP IPHASW D HRMM SECON CODA AMPLIT PERI AZIMU VELO SNR AR TRES W  DIS CAZ7
 BAR2 SZ EP   1    133 22.02                             171     0.3 7   21 174 
 BAR2 SZ ES   1    133 36.06                             171     0.0 7   21 174 
 RUS  HZ EP   1    133 26.43                             142     0.4 7   99 172 
 RUS  HN ES   2    133 43.60                             142    -0.1 5   99 172 
 GRA  SZ EP   1    133 27.85                             134    -0.2 7  130  20 
 GRA  SZ ES   1    133 47.45                             134     0.1 7  130  20 
 OCA  SZ EP   1    133 31.04                             127     0.0 7  162 356 
 OCA  SZ ES   1    133 52.24                             127    -0.4 7  162 356 
 OCA  SZ I         133 55.97         9.2 0.29                           162 356 
 NOR  SZ EP   1    133 37.99                             117     0.2 6  228 234 
 NOR  SN ES   1    134  4.56                             117    -0.1 6  228 234 
 NOR  SZ I         134 10.27         0.9 0.48                           228 234 
 CHI  HZ EP   1    133 39.67                             115    -0.4 6  245 194 
 CHI  HE ES   2    134  8.35                             115    -0.4 4  245 194 
 HEL  HZ EP   1    133 42.25                             113     0.0 6  265 256 
 HEL  HE ES   2    134 13.16                             113     0.5 4  265 256 
 HEL  HZ I         134 21.09         5.0 0.36                           265 256 
                                                                                
