 2017 1211 0405 45.3 L   6.811 -73.154140.0  RSN  9 0.5 1.6LRSN                1
 GAP=111        1.23       3.6     4.4  7.6 -0.6664E+00  0.8282E+01  0.4938E+01E
 Epicentro: LOS SANTOS - SANTANDER                                             3
 ACTION:UPD 18-01-04 13:19 OP:rebc STATUS:               ID:20171211040545 L   I
 OLDACT:DUP 17-12-11 18:33 OP:edw  STATUS:               ID:20171211035748d    3
 OLDACT:UP  17-12-11 18:30 OP:edw  STATUS:               ID:20171211035747     3
 OLDACT:UP  17-12-11 18:29 OP:edw  STATUS:               ID:20171211035747     3
 OLDACT:UP  17-12-11 18:28 OP:edw  STATUS:               ID:20171211035747     3
 OLDACT:REG 17-12-11 14:16 OP:edw  STATUS:               ID:20171211035747     3
 2017-12-11-0358-00M.COL___466                                                 6
 STAT SP IPHASW D HRMM SECON CODA AMPLIT PERI AZIMU VELO AIN AR TRES W  DIS CAZ7
 BAR2 EZ EP     C  4 6  4.21                             170   -0.0510 24.4 187 
 BAR2 EZ ES        4 6 19.23                             170    0.1910 24.4 187 
 BAR2 EZ I         4 6 21.72        12.6 0.26            168           24.4 187 
 PAM  EZ EP        4 6  7.10                             150    0.2210 77.0  41 
 PAM  EN ES        4 6 24.14                             150    0.4310 77.0  41 
 PAM  EZ I         4 6 26.53         7.2 0.48            155           77.0  41 
 PTB  HZ EP        4 6 11.06                             131   -0.68 9  147 258 
 PTB  HN ES        4 6 31.59                             131   -0.77 9  147 258 
 PTB  HZ I         4 6 33.83         3.2 0.14            132            147 258 
 OCA  HZ EP        4 6 12.99                             128   -0.05 9  159 353 
 OCA  HN ES        4 6 33.97                             128   -0.70 9  159 353 
 SPBC HZ EP        4 6 13.23                             128   -0.17 9  164 218 
 SPBC HN ES        4 6 35.66                             128    0.34 9  164 218 
 SPBC HZ I         4 6 41.49         7.9 0.26            129            164 218 
 YPLC HZ EP        4 6 14.65                             125   -0.18 9  178 151 
 YPLC HN ES        4 6 38.04                             125    0.17 9  178 151 
 YPLC HZ I         4 6 39.49         4.8 0.26            128            178 151 
 ZAR  HZ EP        4 6 17.62                             121    0.38 9  203 292 
 ZAR  HN ES        4 6 42.59                             121    0.44 9  203 292 
 ZAR  HZ I         4 6 47.96         6.8 0.26            124            203 292 
 CHI  HZ EP        4 6 22.71                             116   -0.08 8  250 195 
 CHI  HN ES        4 6 51.07                             116   -0.96 8  250 195 
 CHI  HZ I         4 6 58.87         1.9 0.46            118            250 195 
 GUY2CHZ EP        4 6 29.88                             111    1.23 7  301 234 
 GUY2CHN ES        4 7  3.21                             111    0.76 7  301 234 
 GUY2CHZ I         4 7 13.18         1.9 0.54                           301 234 
                                                                                
