 2013  311 0341 57.0 L   6.808 -73.158147.7  RSN  7 0.5 1.6LRSN                1
 GAP=135        1.05       6.2     6.4  9.9 -0.4658E+01  0.5823E+01 -0.3945E+01E
 Epicentro: LOS SANTOS - SANTANDER                                             3
 ACTION:UPD 13-04-09 14:01 OP:ep   STATUS:               ID:20130311034156 L   I
 2013-03-11-0340-00M.COL___231                                                 6
 STAT SP IPHASW D HRMM SECON CODA AMPLIT PERI AZIMU VELO AIN AR TRES W  DIS CAZ7
 BAR2 SZ EP   1    342 16.90                             171    0.04 7 24.0 186 
 BAR2 SZ ES   1    342 31.80                             171   -0.56 7 24.0 186 
 BAR2 SZ I         342 33.43         8.2 0.42            169           24.0 186 
 BRR  HZ EP   1    342 18.89                             153    0.63 7 69.6 298 
 BRR  HN ES        342 35.66                             153    0.8110 69.6 298 
 BRR  HZ I         342 39.48         4.8 0.16            148           69.6 298 
 PAM  SZ EP   1    342 19.96                             151    0.54 7 77.6  41 
 PAM  SN ES   1    342 36.39                             151   -0.53 7 77.6  41 
 PAM  SN I         342 37.23         5.8 0.42            154           77.6  41 
 RUS  HZ EP   2    342 21.11                             144    0.11 5  102 175 
 RUS  HN ES   2    342 39.68                             144   -0.04 5  102 175 
 RUS  HZ I         342 40.15         3.2 0.58            147            102 175 
 PTB  HZ EP   1    342 23.43                             133   -0.58 7  147 258 
 PTB  HN ES        342 44.66                             133   -0.42 9  147 258 
 PTB  HZ I         342 52.08         2.9 0.26            131            147 258 
 OCA  HN ES   2    342 46.98                             130   -0.50 5  159 354 
 OCA  HN I         342 49.60        13.7 0.22            130            159 354 
 SML  HN ES   1    343  1.71                             118   -0.41 6  242 335 
 SML  HN I         343  7.91         8.7 0.10            118            242 335 
                                                                                
