 2013  511 0242 52.8 L   6.879 -73.330122.9  RSN 16 0.5 2.5LRSN                1
 GAP= 52        1.07       2.9     3.3  5.4 -0.1077E+01  0.2954E+01  0.1941E+00E
 Epicentro: BETULIA - SANTANDER                                                3
 ACTION:UPD 13-06-20 09:49 OP:ep   STATUS:               ID:20130511024252 L   I
 2013-05-11-0240-00M.COL___256                                                 6
 STAT SP IPHASW D HRMM SECON CODA AMPLIT PERI AZIMU VELO AIN AR TRES W  DIS CAZ7
 GIR2 SZ IP     D  243  9.78                             167    0.1410 26.7  34 
 GIR2 SZ ES   1    243 23.08                             167    0.31 7 26.7  34 
 GIR2 SZ I         243 25.39        73.2 0.30            164           26.7  34 
 BAR2 SZ IP     D  243 10.25                             163    0.1810 35.7 153 
 BAR2 SZ ES   1    243 23.01                             163   -0.52 7 35.7 153 
 BAR2 SZ I         243 24.60       350.5 0.46            163           35.7 153 
 BRR  HZ IP     D  243 10.58                             157    0.3010 49.1 301 
 BRR  HN ES   1    243 24.87                             157    0.96 7 49.1 301 
 BRR  HZ I         243 31.85        66.4 0.14            156           49.1 301 
 PAM  SZ EP        243 13.33                             143    0.0510 86.3  54 
 PAM  SN ES   1    243 29.73                             143    0.49 7 86.3  54 
 PAM  SZ I         243 31.86        69.7 0.32            140           86.3  54 
 RUS  HZ EP        243 14.88                             135   -0.5010  112 166 
 RUS  HN ES   1    243 32.72                             135   -0.27 7  112 166 
 RUS  HZ I         243 33.99        25.3 0.26            134            112 166 
 PTB  HZ EP        243 15.52                             130   -0.8010  130 253 
 PTB  HN ES   1    243 33.37                             130   -1.28 7  130 253 
 OCA  HZ EP        243 18.35                             126   -0.11 9  150   0 
 OCA  HN ES   1    243 38.11                             126   -0.35 7  150   0 
 OCA  HZ I         243 41.08       107.4 0.46            123            150   0 
 TAM  HZ IP     C  243 21.10                             121    0.06 9  177 106 
 TAM  HZ I         243 42.09        36.2 0.14            119            177 106 
 TAM  HN ES   1    243 43.02                             121   -0.04 7  177 106 
 ZAR  HZ EP        243 22.21                             120    0.72 9  182 292 
 ZAR  HN ES   2    243 44.28                             120    0.42 4  182 292 
 NOR  HZ EP        243 26.36                             114    0.23 8  224 230 
 NOR  HN ES   1    243 51.93                             114   -0.18 6  224 230 
 NOR  HZ I         243 57.16        21.6 0.46            113            224 230 
 SML  HZ EP        243 26.70                             114    0.23 8  228 339 
 SML  HN ES   1    243 51.30                             114   -1.42 6  228 339 
 SML  HZ I         244  2.41        82.3 0.22            112            228 339 
 ROSC BZ EP   4    243 31.87                             112    2.31 0  251 206 
 ROSC BN ES   4    244  2.39                             112    4.17 0  251 206 
 CHI  HZ EP        243 30.21                             112    0.40 8  253 190 
 CHI  HN ES   1    243 59.01                             112    0.34 6  253 190 
 CHI  HZ I         244  2.67         8.5 0.40            110            253 190 
 HEL  HZ EP   4    243 31.40                             111    1.41 0  255 253 
 HEL  HN ES        243 59.34                             111    0.35 8  255 253 
 HEL  HZ I         244  4.34        19.9 0.56            110            255 253 
 URE  HZ EP   4    243 29.62                             111   -0.70 0  262 292 
 URE  HN ES   4    243 58.78                             111   -0.80 0  262 292 
 COD  HZ EP   1    243 39.42                             105    0.23 5  338 358 
 COD  HN ES   1    244 15.69                             105    0.32 5  338 358 
 COD  HZ I         244 24.79         8.3 0.54            103            338 358 
 SDV  BZ EP        243 42.63                             103   -0.70 6  371  53 
 SDV  BN ES   4    244 19.65                             103   -3.09 0  371  53 
 PRA  HZ EP   1    243 45.45                             102    0.03 4  390 206 
 PRA  HN ES   1    244 26.91                             102    0.46 4  390 206 
 PRA  HZ I         244 32.06        14.0 0.32            101            390 206 
 SJC  HZ EP   4    243 44.38                             102   -1.15 0  391 329 
 SJC  HN ES   4    244 23.94                             102   -2.71 0  391 329 
                                                                                
