 2014  911 0343 13.6 L   6.792 -73.130149.6  RSN 20 0.4 2.6LRSN                1
 GAP= 72        0.92       2.8     3.1  4.5 -0.6582E+00  0.2755E+01  0.1523E+01E
 Epicentro: LOS SANTOS - SANTANDER                                             3
 ACTION:UPD 14-10-03 23:03 OP:nd   STATUS:               ID:20140911034313 L   I
 OLDACT:UP  14-09-11 13:53 OP:mh   STATUS:               ID:20140911034000     3
 OLDACT:UP  14-09-11 13:51 OP:mh   STATUS:               ID:20140911034000     3
 OLDACT:UP  14-09-11 13:51 OP:mh   STATUS:               ID:20140911034000     3
 OLDACT:UP  14-09-11 13:50 OP:mh   STATUS:               ID:20140911034000     3
 OLDACT:UP  14-09-11 13:48 OP:mh   STATUS:               ID:20140911034000     3
 OLDACT:REG 14-09-11 12:16 OP:mh   STATUS:               ID:20140911034000     3
 2014-09-11-0340-00M.COL___285                                                 6
 STAT SP IPHASW D HRMM SECON CODA AMPLIT PERI AZIMU VELO AIN AR TRES W  DIS CAZ7
 BAR2 SZ IP     D  343 33.76                             171    0.0410 22.8 195 
 BAR2 SZ ES        343 48.83                             171   -0.5610 22.8 195 
 BAR2 SZ I         343 51.42        68.2 0.32            170           22.8 195 
 BRR  HZ IP     D  343 35.71                             152    0.4010 73.2 299 
 BRR  HN ES        343 53.14                             152    0.9210 73.2 299 
 BRR  HZ I         343 56.77        40.9 0.20            151           73.2 299 
 PAM  SZ EP        343 36.48                             152    0.2410 77.0  38 
 PAM  SN ES   1    343 53.69                             152   -0.18 7 77.0  38 
 PAM  SZ I         343 55.91        40.8 0.48            150           77.0  38 
 RUS  HZ EP     C  343 37.62                             145   -0.0710 99.5 177 
 RUS  HN ES        343 56.27                             145   -0.1910 99.5 177 
 RUS  HZ I         343 57.62        30.5 0.28            142           99.5 177 
 PTB  HZ EP   1    343 40.29                             133   -0.77 7  149 259 
 PTB  HN ES   1    344  1.69                             133   -0.76 7  149 259 
 PTB  HZ I         344  7.49        49.8 0.30            130            149 259 
 TAM  HZ EP     C  343 41.94                             132    0.50 9  153 105 
 TAM  HZ I         344  2.59        25.9 0.36            130            153 105 
 TAM  HN ES   1    344  3.01                             132   -0.12 7  153 105 
 SPBC HZ EP     C  343 42.60                             130    0.13 9  164 220 
 SPBC HN ES        344  4.92                             130   -0.04 9  164 220 
 SPBC HZ I         344 11.49        98.3 0.22            127            164 220 
 ZAR  HZ EP        343 46.06                             123   -0.48 8  206 292 
 ZAR  HN ES   1    344 12.48                             123    0.28 6  206 292 
 ZAR  HZ I         344 18.07        56.2 0.48            121            206 292 
 CTAB SZ EP   4    343 50.57                             120    0.94 0  230 211 
 NOR  HZ EP   1    343 49.54                             119   -0.15 6  236 235 
 NOR  HN ES        344 18.44                             119    0.63 8  236 235 
 NOR  HZ I         344 21.68        37.3 0.22            117            236 235 
 SML  HZ EP        343 50.39                             118   -0.26 8  245 335 
 SML  HN ES   1    344 18.94                             118   -0.58 6  245 335 
 SML  HZ I         344 25.99        43.7 0.24            116            245 335 
 CHI  HZ EP        343 51.65                             118    0.15 8  248 196 
 CHI  HN ES   1    344 20.33                             118   -0.71 6  248 196 
 CHI  HZ I         344 26.77        14.6 0.34            116            248 196 
 ROSC BZ EP   4    343 53.33                             117    1.35 0  253 211 
 ROSC BN ES   4    344 24.83                             117    2.94 0  253 211 
 ROSC BZ I         344 31.45        40.7 0.45            115            253 211 
 HEL  HZ EP   1    343 53.77                             115   -0.44 6  274 256 
 HEL  HN ES   1    344 25.83                             115   -0.03 6  274 256 
 HEL  HZ I         344 33.29        20.9 0.24            113            274 256 
 URE  HZ EP   4    343 53.28                             114   -1.84 0  286 292 
 URE  HN ES   4    344 24.74                             114   -2.73 0  286 292 
 URE  HZ I         344 35.84        21.9 0.18            112            286 292 
 GUY2CHZ EP   1    343 57.79                             113    0.26 5  302 235 
 GUY2CHN ES   4    344 35.70                             113    3.94 0  302 235 
 GUY2CHZ I         344 40.40        21.6 0.34                           302 235 
 VIL  SZ EP   4    343 54.91                             113   -2.26 0  303 192 
 VIL  SN ES   1    344 31.26                             113    0.14 5  303 192 
 VIL  SZ I         344 41.14        16.4 0.58            111            303 192 
 CBOC HZ EP   4    344  1.02                             110    0.15 0  335 252 
 CBOC HN ES   4    344 36.86                             110   -0.86 0  335 252 
 TOL  SZ EP        344  2.40                             110    0.29 7  344 225 
 ANIL HZ EP   4    344  5.17                             109    1.51 0  358 225 
 ANIL HN ES   4    344 43.64                             109    0.97 0  358 225 
 PRA  HZ EP        344  6.91                             107   -0.39 6  392 210 
 PRA  HN ES        344 49.82                             107    0.66 6  392 210 
 PRA  HZ I         344 54.96        26.6 0.62            105            392 210 
 ORTC HZ EP   1    344  7.16                             107   -0.56 4  396 216 
 ORTC HE ES   1    344 49.69                             107   -0.22 4  396 216 
 ORTC HZ I         344 55.51        11.4 0.65            105            396 216 
 SJC  HZ EP   4    344  6.84                             106   -2.69 0  411 327 
 SJC  HN ES   4    344 48.69                             106   -4.44 0  411 327 
 SJC  HZ I         344 54.42         7.6 0.31            105            411 327 
                                                                                
