 2013  311 0757 23.0 L   6.776 -73.135151.2  RSN  7 0.4 1.9LRSN                1
 GAP=139        0.81       4.3     5.1  7.5  0.9447E+00  0.1204E+02 -0.7011E+00E
 Epicentro: LOS SANTOS - SANTANDER                                             3
 ACTION:UPD 13-04-09 14:01 OP:ep   STATUS:               ID:20130311075724dL   I
 2013-03-11-0750-00M.COL___231                                                 6
 STAT SP IPHASW D HRMM SECON CODA AMPLIT PERI AZIMU VELO AIN AR TRES W  DIS CAZ7
 BAR2 SZ EP   1    757 42.47                             172   -0.75 7 21.0 195 
 BAR2 SZ ES   1    757 58.91                             172   -0.10 7 21.0 195 
 BAR2 SZ I         758  1.32        11.7 0.38            171           21.0 195 
 BRR  HZ EP        757 45.17                             152    0.3210 73.6 300 
 BRR  HN ES   1    758  2.24                             152    0.33 7 73.6 300 
 BRR  HN I         758  3.08        24.1 0.28            149           73.6 300 
 PAM  SZ EP   1    757 46.09                             152    0.24 7 78.7  38 
 PAM  SN ES        758  3.38                             152   -0.3210 78.7  38 
 PAM  SN I         758  4.41         9.9 0.24            153           78.7  38 
 RUS  HZ EP   1    757 47.30                             146    0.22 7 97.8 177 
 RUS  HN ES        758  6.10                             146    0.2310 97.8 177 
 RUS  HN I         758  7.58         6.8 0.36            149           97.8 177 
 PTB  HZ EP   1    757 50.06                             133   -0.40 7  148 260 
 PTB  HN ES   2    758 10.95                             133   -0.94 5  148 260 
 PTB  HN I         758 16.88        15.2 0.32            132            148 260 
 OCA  HN ES   2    758 14.64                             130    0.04 5  163 353 
 OCA  HN I         758 20.64        15.1 0.22            130            163 353 
 ZAR  HN ES   1    758 22.23                             123    0.47 6  206 293 
 ZAR  HN I         758 26.93         7.6 0.18            123            206 293 
                                                                                
