 2017  811 0117 59.5 L   6.823 -73.044136.8  RSN  4 0.4 1.2LRSN                1
 GAP=249        1.02       6.2     9.3  8.2  0.1500E+02  0.1680E+01  0.5964E+01E
 Epicentro: LOS SANTOS - SANTANDER                                             3
 ACTION:UPD 17-09-04 20:18 OP:rebc STATUS:               ID:20170811011759 L   I
 OLDACT:UP  17-08-11 14:35 OP:dhb  STATUS:               ID:20170811010740d    3
 OLDACT:DUP 17-08-11 14:29 OP:dhb  STATUS:               ID:20170811010740d    3
 OLDACT:REG 17-08-11 12:18 OP:dhb  STATUS:               ID:20170811010738     3
 2017-08-11-0108-00M.COL___410                                                 6
 STAT SP IPHASW D HRMM SECON CODA AMPLIT PERI AZIMU VELO AIN AR TRES W  DIS CAZ7
 BAR2 HZ EP        118 18.73                             167    0.4710 29.7 211 
 BAR2 HZ ES        118 32.66                             167   -0.1910 29.7 211 
 BAR2 HZ I         118 35.45         4.2 0.13            162           29.7 211 
 BRR  HZ EP        118 19.78                             148   -0.5110 80.2 293 
 BRR  HN ES        118 36.73                             148    0.2510 80.2 293 
 BRR  HZ I         118 38.82         4.1 0.22            146           80.2 293 
 RUS  HZ EP        118 22.16                             141   -0.4510  103 182 
 RUS  HN ES        118 40.80                             141    0.2010  103 182 
 RUS  HZ I         118 42.91         1.4 0.26            141            103 182 
 SPBC HZ EP        118 28.85                             125    0.58 9  172 221 
 SPBC HN ES        118 50.38                             125   -0.30 9  172 221 
 SPBC HE ES        118 50.63                             125            172 221 
 SPBC HZ I         118 55.87         1.6 0.15            125            172 221 
                                                                                
