 2011  511 0829 13.0 L   6.753 -73.065143.6  RSN  4 0.2 1.8LRSN                1
 GAP=203        0.62       6.0     8.2  8.3 -0.1943E+02 -0.2541E+02  0.6334E+01E
 Epicentro: LOS SANTOS - SANTANDER                                             3
 ACTION:UP  11-06-29 08:52 OP:tino STATUS:               ID:20110511082913 L   I
 2011-05-11-0824-50S.COL___132                                                 6
 STAT SP IPHASW D HRMM SECON CODA AMPLIT PERI AZIMU VELO SNR AR TRES W  DIS CAZ7
 BAR2 SZ EP        829 32.33                             171     0.010   22 216 
 BAR2 SZ I         829 32.68        14.1 0.11                            22 216 
 BAR2 SZ ES   2    829 47.01                             171    -0.4 5   22 216 
 BTL  SZ EP        829 32.76                             169     0.310   29 309 
 BRR  HZ EP        829 34.18                             149    -0.310   82 299 
 BRR  HZ I         829 34.60        12.6 0.09                            82 299 
 BRR  HN ES   1    829 51.38                             149     0.1 7   82 299 
 GRA  SZ EP        829 38.23                             136     0.010  128  13 
 GRA  SZ ES   1    829 57.92                             136     0.0 7  128  13 
 GRA  SZ I         829 58.98         6.7 0.50                           128  13 
                                                                                
