 2010  111 0257 55.1 L   6.875 -73.003136.2  RSN  9 0.4 2.0LRSN                1
 GAP=135        0.80       3.5     6.4  6.2 -0.9730E+01  0.4526E+01 -0.2200E+01E
 Epicentro: CEPITA - SANTANDER                                                 3
 ACTION:UP  10-08-24 09:43 OP:vdl  STATUS:               ID:20100111025755 L   I
 2010-01-11-0254-36S.COL___097                                                 6
 STAT SP IPHASW D HRMM SECON CODA AMPLIT PERI AZIMU VELO SNR AR TRES W  DIS CAZ7
 GIR2 SZ EP   1    258 13.86                             167     0.3 7   31 317 
 BAR2 SZ IP        258 14.07                             164     0.110   37 212 
 BAR2 SZ ES   1    258 28.86                             164     0.2 7   37 212 
 RUS  BZ EP   1    258 18.24                             139    -0.3 7  109 185 
 RUS  BE ES   1    258 36.62                             139    -0.2 7  109 185 
 RUS  BZ I         258 39.16         5.5 0.25                           109 185 
 OCA  SZ IP        258 21.89                             128    -0.2 9  155 347 
 OCA  SZ I         258 30.58        14.6 0.05                           155 347 
 OCA  SZ ES   1    258 42.97                             128    -0.2 7  155 347 
 CHI  HZ EP   1    258 32.69                             114    -0.9 6  261 198 
 CHI  HN ES   1    259  3.87                             114     0.2 6  261 198 
 CHI  HZ I         259 10.93         3.9 0.46                           261 198 
 HEL  HZ EP   1    258 36.59                             111    -0.2 5  289 255 
 HEL  HZ I         259 12.92         7.6 0.51                           289 255 
 RREF BZ IP        258 43.64                             108     0.8 7  339 230 
 RREF BE ES   1    259 19.97                             108    -0.1 5  339 230 
 RREF BZ I         259 25.70         5.1 0.33                           339 230 
 SDV  BZ IP        258 43.03                             107     0.3 7  343  50 
 SDV  BE ES   2    259 20.00                             107     0.1 3  343  50 
 PRA  HE ES   1    259 32.93                             104     0.0 4  407 211 
 PRA  HZ I         259 37.49         5.3 0.44                           407 211 
                                                                                
