 2017  111 0123 36.6 L   6.783 -73.100144.6  RSN  7 0.3 1.5LRSN                1
 GAP=143        0.70       3.5     3.6  4.5  0.1423E+01  0.1409E+01  0.9210E+00E
 Epicentro: LOS SANTOS - SANTANDER                                             3
 ACTION:UPD 17-05-22 15:57 OP:jn   STATUS:               ID:20170111012336 L   I
 OLDACT:UP  17-01-11 13:36 OP:and  STATUS:               ID:20170111011742     3
 OLDACT:UP  17-01-11 13:35 OP:and  STATUS:               ID:20170111011742     3
 OLDACT:UP  17-01-11 13:35 OP:and  STATUS:               ID:20170111011742     3
 OLDACT:REG 17-01-11 12:28 OP:and  STATUS:               ID:20170111011742     3
 2017-01-11-0118-00M.COL___355                                                 6
 STAT SP IPHASW D HRMM SECON CODA AMPLIT PERI AZIMU VELO AIN AR TRES W  DIS CAZ7
 BAR2 EZ EP        123 55.87                             171   -0.1710 22.9 203 
 BAR2 EZ ES        124 10.92                             171   -0.3210 22.9 203 
 BAR2 EZ I         124 12.21         8.9 0.16            169           22.9 203 
 PAM  EZ EP        123 58.64                             151    0.0910 75.8  36 
 PAM  EN ES        124 15.80                             151    0.0810 75.8  36 
 PAM  EZ I         124 18.00         3.7 0.17            153           75.8  36 
 BRR  HZ EP        123 57.75                             151   -0.1410 76.6 298 
 BRR  HN ES        124 15.07                             151    0.5310 76.6 298 
 RUS  HZ EP        123 59.87                             144   -0.1710 98.4 179 
 RUS  HE ES     C  124 18.54                             144    0.1810 98.4 179 
 RUS  HZ I         124 20.01         2.3 0.20            146           98.4 179 
 PTB  HZ EP   9    124  2.63                             131   -1.22 0  152 260 
 PTB  HN ES        124 23.96                             132    0.04 9  152 260 
 PTB  HZ I         124 29.84         4.6 0.22            130            152 260 
 ZAR  HN ES        124 34.78                             121   -0.40 8  209 292 
 ZAR  HZ I         124 40.04         3.5 0.25            121            209 292 
 GUY2CHZ EP        124 20.86                             112    0.40 7  304 236 
 GUY2CHN ES   4    124 57.49                             112    2.79 0  304 236 
 GUY2CHZ I         125  2.49         1.8 0.46                           304 236 
                                                                                
