 2014  611 0957 22.3 L   6.823 -73.162144.5  RSN  9 0.4 1.7LRSN                1
 GAP=133        0.90       3.0     5.2  6.5 -0.4972E+01  0.1247E+02 -0.6930E+00E
 Epicentro: LOS SANTOS - SANTANDER                                             3
 ACTION:UPD 14-07-01 22:52 OP:nd   STATUS:               ID:20140611095722 L   I
 OLDACT:REG 14-06-11 13:45 OP:mh   STATUS:               ID:20140611094820     3
 2014-06-11-0948-20M.COL___244                                                 6
 STAT SP IPHASW D HRMM SECON CODA AMPLIT PERI AZIMU VELO AIN AR TRES W  DIS CAZ7
 BAR2 SZ EP        957 41.95                             169    0.1310 25.6 185 
 BAR2 SZ ES   1    957 57.23                             169    0.18 7 25.6 185 
 BAR2 SZ I         957 58.72        11.9 0.17            166           25.6 185 
 PAM  SZ EP        957 45.07                             151    0.7310 76.7  42 
 PAM  SN ES   1    958  1.59                             151    0.07 7 76.7  42 
 PAM  SZ I         958  3.71         4.1 0.10            157           76.7  42 
 RUS  HZ EP        957 45.78                             143   -0.3410  103 175 
 RUS  HN ES   1    958  4.27                             143   -0.42 7  103 175 
 RUS  HZ I         958  5.96         5.0 0.44            148            103 175 
 PTB  HZ EP        957 48.70                             132   -0.35 9  146 258 
 PTB  HN ES   1    958 10.13                             132    0.22 7  146 258 
 PTB  HZ I         958 17.59         8.1 0.15            131            146 258 
 OCA  HZ EP   1    957 49.79                             130   -0.47 7  158 354 
 OCA  HN ES        958 11.53                             130   -0.54 9  158 354 
 OCA  HZ I         958 19.05         4.5 0.27            132            158 354 
 SPBC HZ EP        957 51.16                             128    0.38 9  164 218 
 SPBC HN ES   1    958 12.99                             128   -0.00 7  164 218 
 SPBC HZ I         958 20.65         7.4 0.14            130            164 218 
 NOR  HZ EP        957 58.69                             118    0.73 8  235 234 
 NOR  HE ES   1    958 25.74                             118   -0.03 6  235 234 
 NOR  HZ I         958 32.60         4.9 0.10            120            235 234 
 SML  HZ EP        957 58.38                             117   -0.15 8  241 335 
 SML  HN ES   1    958 26.96                             117    0.17 6  241 335 
 SML  HZ I         958 34.13         8.6 0.05            119            241 335 
 PRA  HZ EP        958 15.32                             106   -0.61 6  393 209 
 PRA  HN ES        958 57.49                             106   -0.27 6  393 209 
 PRA  HZ I         959  4.78         2.0 0.20            109            393 209 
 SJC  HZ EP   4    958 14.58                             106   -2.88 0  406 327 
 SJC  HN ES   4    958 57.52                             106   -2.96 0  406 327 
                                                                                
