 2015  211 0724 27.9 L   6.758 -73.136139.9  RSN  8 0.5 1.4LRSN                1
 GAP=140        1.18       4.6     4.8  7.3 -0.2484E+01  0.1130E+02  0.2062E+01E
 Epicentro: LOS SANTOS - SANTANDER                                             3
 ACTION:UPD 15-04-30 21:25 OP:nd   STATUS:               ID:20150211072427 L   I
 OLDACT:REG 15-02-11 13:22 OP:fm   STATUS:               ID:20150211071742     3
 2015-02-11-0717-42M.COL___284                                                 6
 STAT SP IPHASW D HRMM SECON CODA AMPLIT PERI AZIMU VELO AIN AR TRES W  DIS CAZ7
 BAR2 EZ EP        724 47.02                             172    0.2610 19.0 196 
 BAR2 EZ ES        725  1.74                             172    0.2910 19.0 196 
 BAR2 EZ I         725  3.07         5.8 0.12            172           19.0 196 
 BRR  HZ EP        724 48.94                             150    0.3210 74.4 301 
 BRR  HE ES        725  5.57                             150    0.8010 74.4 301 
 BRR  HZ I         725  6.90         6.7 0.20            150           74.4 301 
 PAM  SZ EP        724 49.82                             149    0.1310 80.4  37 
 PAM  SE ES        725  5.72                             149   -0.9610 80.4  37 
 PAM  SZ I         725 11.49         2.8 0.66            152           80.4  37 
 RUS  HZ EP        724 50.65                             144   -0.1010 95.9 176 
 RUS  HE ES        725  8.88                             144    0.3210 95.9 176 
 RUS  HZ I         725 10.48         2.0 0.34            147           95.9 176 
 PTB  HZ EP        724 54.02                             131   -0.41 9  148 261 
 PTB  HN ES        725 14.65                             131   -0.46 9  148 261 
 PTB  HZ I         725 18.60         2.9 0.20            132            148 261 
 SPBC HZ EP        724 56.04                             128    0.35 9  160 220 
 SPBC HN ES        725 16.51                             128   -0.85 9  160 220 
 SPBC HZ I         725 23.27         4.8 0.24            130            160 220 
 ZAR  HZ EP        725  0.47                             121    0.20 8  207 293 
 ZAR  HE ES        725 25.33                             121   -0.18 8  207 293 
 ZAR  HZ I         725 31.63         3.1 0.32            122            207 293 
 GUY2CHZ EP   1    725 11.14                             111    0.08 5  299 236 
 GUY2CHE ES        725 44.85                             111    0.14 7  299 236 
 GUY2CHZ I         725 53.76         1.2 0.30                           299 236 
                                                                                
