 2010  711 0725 54.8 L   6.764 -73.110140.0  RSN  6 0.4 1.5LRSN                1
 GAP=160        0.97       6.7    11.2 10.5 -0.1124E+02 -0.2932E+02 -0.1604E+02E
 Epicentro: LOS SANTOS - SANTANDER                                             3
 ACTION:UPD 10-12-01 15:16 OP:pat  STATUS:               ID:20100711072554 L   I
 2010-07-11-0720-54S.COL___120                                                 6
 STAT SP IPHASW D HRMM SECON CODA AMPLIT PERI AZIMU VELO AIN AR TRES W  DIS CAZ7
 BAR2 SZ EP   1    726 13.36                             171    -0.3 7   21 203 
 BAR2 SZ ES   1    726 28.10                             171    -0.3 7   21 203 
 BAR2 SZ I         726 29.55        11.2 0.37                            21 203 
 BRR  HZ EP        726 15.26                             150    -0.410   77 300 
 BRR  HZ I         726 15.65        16.4 0.09                            77 300 
 BRR  HE ES   1    726 32.33                             150     0.5 7   77 300 
 RUS  HZ EP   2    726 17.96                             144     0.3 5   96 178 
 RUS  HN ES   2    726 36.04                             144     0.5 5   96 178 
 RUS  HZ I         726 36.73         3.5 0.25                            96 178 
 BRI  SZ EP   2    726 18.83                             140     0.5 5  111  18 
 BRI  SZ I         726 42.57         4.8 0.64                           111  18 
 GUE  SZ EP   1    726 19.84                             137     0.6 7  120  10 
 GUE  SZ I         726 41.17         1.9 0.35                           120  10 
 GRA  SZ EP   1    726 19.32                             135    -0.4 7  128  15 
 GRA  SZ I         726 20.58         4.9 0.26                           128  15 
 GRA  SZ ES   1    726 39.11                             135    -0.1 7  128  15 
                                                                                
