 2012 1011 0124 51.2 L   6.769 -73.119139.9  RSN  7 0.3 1.9LRSN                1
 GAP=141        0.67       3.4     4.8  5.7  0.1644E+01  0.4801E+01  0.5929E+01E
 Epicentro: LOS SANTOS - SANTANDER                                             3
 ACTION:UPD 12-11-22 17:03 OP:ep   STATUS:               ID:20121011012451 L   I
 2012-10-11-0120-00M.COL___229                                                 6
 STAT SP IPHASW D HRMM SECON CODA AMPLIT PERI AZIMU VELO AIN AR TRES W  DIS CAZ7
 BAR2 SZ EP   1    125 10.05                             171   -0.07 7 20.7 200 
 BAR2 SZ ES   1    125 24.50                             171   -0.34 7 20.7 200 
 BAR2 SZ I         125 26.67        28.9 0.20                          20.7 200 
 GIR2 SZ EP   1    125 10.25                             165   -0.09 7 35.3 346 
 GIR2 SZ ES   1    125 24.80                             165   -0.43 7 35.3 346 
 BRR  HZ EP   1    125 11.97                             150   -0.05 7 75.5 300 
 BRR  HZ I         125 12.32         8.6 0.12                          75.5 300 
 BRR  HN ES   1    125 29.05                             150    0.83 7 75.5 300 
 PAM  SZ EP   1    125 13.11                             149    0.21 7 78.3  36 
 PAM  SZ I         125 13.34        22.1 0.22                          78.3  36 
 PAM  SN ES   1    125 29.74                             149   -0.04 7 78.3  36 
 RUS  HZ EP   1    125 14.24                             144    0.08 7 96.9 178 
 RUS  HN ES   1    125 32.33                             144    0.30 7 96.9 178 
 RUS  HN I         125 33.92        12.7 0.22                          96.9 178 
 ZAR  HN ES   1    125 48.69                             120   -0.40 6  208 293 
 ZAR  HZ I         125 54.68         6.5 0.24                           208 293 
 CHI  HZ EP   1    125 28.46                             116    0.11 6  246 196 
 CHI  HN ES   1    125 57.01                             116   -0.28 6  246 196 
 CHI  HN I         126  4.06         6.7 0.26                           246 196 
                                                                                
