 2013  211 0608 46.2 L   6.779 -73.163149.9  RSN  5 0.4 1.2LRSN                1
 GAP=135        0.84       5.7     4.8  7.9 -0.3620E+01  0.8148E+00  0.3465E+01E
 Epicentro: LOS SANTOS - SANTANDER                                             3
 ACTION:UPD 13-03-12 09:32 OP:ep   STATUS:               ID:20130211060846 L   I
 2013-02-11-0600-00M.COL___241                                                 6
 STAT SP IPHASW D HRMM SECON CODA AMPLIT PERI AZIMU VELO AIN AR TRES W  DIS CAZ7
 BAR2 SZ EP        6 9  6.32                             172    0.0510 20.8 186 
 BAR2 SZ ES   2    6 9 22.10                             172    0.17 5 20.8 186 
 BRR  HZ EP        6 9  8.24                             153    0.4810 70.7 301 
 BRR  HN ES   1    6 9 25.10                             153    0.52 7 70.7 301 
 BRR  HZ I         6 9 25.82         4.9 0.12            153           70.7 301 
 PAM  SZ EP        6 9  9.09                             150    0.0710 80.4  40 
 PAM  SN ES   1    6 9 26.11                             150   -0.72 7 80.4  40 
 PAM  SZ I         6 9 28.26         4.2 0.44            155           80.4  40 
 RUS  HZ EP        6 9 10.29                             145    0.1010 98.4 175 
 RUS  HN ES   1    6 9 28.97                             145    0.05 7 98.4 175 
 RUS  HZ I         6 9 30.75         1.1 0.26            147           98.4 175 
 PTB  HZ EP     C  6 9 12.90                             133   -0.39 9  145 260 
 PTB  HE ES        6 9 34.06                             133   -0.37 9  145 260 
 PTB  HZ I         6 9 41.15         2.7 0.44            134            145 260 
                                                                                
