 2010  511 0330 48.0 L   6.769 -73.043147.4  RSN  9 0.5 1.9LRSN                1
 GAP=168        1.13       4.9     9.9  8.1 -0.1929E+02  0.2405E+01 -0.8102E+00E
 Epicentro: LOS SANTOS - SANTANDER                                             3
 ACTION:UP  10-08-24 10:04 OP:vdl  STATUS:               ID:20100511033047 L   I
 2010-05-11-0327-44S.COL___104                                                 6
 STAT SP IPHASW D HRMM SECON CODA AMPLIT PERI AZIMU VELO AIN AR TRES W  DIS CAZ7
 BAR2 SZ EP        331  7.84                             170     0.010   25 218 
 BAR2 SZ ES   1    331 22.54                             170    -0.8 7   25 218 
 BRR  HZ IP     C  331 10.40                             149     0.410   83 297 
 BRR  HZ I         331 10.66        33.4 0.13                            83 297 
 BRR  HN ES   1    331 27.75                             149     0.6 7   83 297 
 RUS  HZ EP        331 11.68                             145     0.110   97 183 
 RUS  HN ES   1    331 30.11                             145     0.0 7   97 183 
 RUS  HZ I         331 31.75         7.7 0.26                            97 183 
 BRI  SZ EP        331 12.36                             142     0.410  108  15 
 GUE  SZ EP        331 12.78                             139    -0.210  118   6 
 GRA  SZ IP        331 13.65                             137     0.310  126  12 
 GRA  SZ ES   1    331 33.56                             137     0.3 7  126  12 
 OCA  SZ EP        331 15.87                             129    -1.0 9  165 349 
 OCA  SZ ES   2    331 38.62                             129    -0.8 5  165 349 
 OCA  SZ I         331 44.99         6.6 0.43                           165 349 
 RREF BZ EP        331 35.25                             111     0.3 7  328 231 
 RREF BN ES   2    332 10.86                             111    -0.7 3  328 231 
 RREF BZ I         332 14.96         3.2 0.67                           328 231 
 PRA  HZ EP        331 41.70                             107    -0.2 6  395 211 
 PRA  HE ES   2    332 23.57                             107    -0.3 3  395 211 
 PRA  HZ I         332 31.84         2.8 0.46                           395 211 
                                                                                
