 2015 1111 0159  9.9 L   7.407 -73.171135.4  RSN  6 0.2 2.3LRSN                1
 GAP=108        0.63       3.4     3.1  4.6 -0.4867E-02  0.4048E+01 -0.1043E+01E
 Epicentro: EL PLAYON - SANTANDER                                              3
 ACTION:UPD 15-12-28 16:10 OP:cam  STATUS:               ID:20151111015751 L   I
 OLDACT:UP  15-11-23 14:21 OP:cam  STATUS:               ID:20151111015751 L   3
 OLDACT:UPD 15-11-19 06:50 OP:CARA STATUS:               ID:20151111015751 L   3
 2015-11-11-0157-51M.COL___319                                                 6
 STAT SP IPHASW D HRMM SECON CODA AMPLIT PERI AZIMU VELO AIN AR TRES W  DIS CAZ7
 PAM  EZ EP        159 29.83                             158    0.1410 52.6  98 
 PAM  EN ES        159 44.84                             158   -0.2610 52.6  98 
 BRR  HN EP        159 29.87                             152    0.0810 68.3 241 
 BRR  HE ES        159 45.13                             152   -0.1610 68.3 241 
 BAR2 EZ EP        159 31.71                             144    0.1610 90.1 181 
 OCA  HZ EP        159 31.82                             143    0.1510 93.4 350 
 OCA  HN ES        159 48.90                             143    0.2810 93.4 350 
 SML  HZ EP        159 38.99                             123   -0.55 9  183 327 
 SML  HN ES   4    2 0  1.02                             123   -1.63 0  183 327 
 SML  HZ I         2 0  2.02        13.0 0.24            123            183 327 
 ZAR  HZ EP        159 39.85                             123   -0.03 9  186 273 
 ZAR  HN ES        2 0  3.33                             123    0.09 9  186 273 
 ZAR  HN I         2 0  5.75        26.8 0.12            122            186 273 
                                                                                
