 2017  311 0817 55.7 L   6.786 -73.134150.0  RSN  8 0.4 1.1LRSN                1
 GAP=121        0.98       4.2     4.1  6.0  0.3437E+00  0.2515E+01  0.4117E+01E
 Epicentro: LOS SANTOS - SANTANDER                                             3
 ACTION:UPD 17-05-25 18:39 OP:jn   STATUS:               ID:20170311081755 L   I
 OLDACT:DUP 17-03-11 16:08 OP:and  STATUS:               ID:20170311080743d    3
 2017-03-11-0808-00M.COL___391                                                 6
 STAT SP IPHASW D HRMM SECON CODA AMPLIT PERI AZIMU VELO AIN AR TRES W  DIS CAZ7
 BAR2 EZ EP        818 15.85                             171    0.0010 22.1 194 
 BAR2 EZ ES        818 30.83                             171   -0.7110 22.1 194 
 BRR  HZ EP        818 17.66                             152    0.2110 73.1 299 
 BRR  HN ES        818 34.58                             152    0.2010 73.1 299 
 BRR  HZ I         818 35.15         2.1 0.36            156           73.1 299 
 PAM  EZ IP     D  818 18.63                             151    0.2110 77.8  38 
 PAM  EN ES        818 36.08                             151   -0.0410 77.8  38 
 PAM  EZ I         818 47.93         2.1 0.24            150           77.8  38 
 RUS  HZ EP        818 20.15                             145    0.3610 98.9 177 
 RUS  HN ES        818 38.84                             145    0.2910 98.9 177 
 RUS  HZ I         818 39.55         2.9 0.36            149           98.9 177 
 PTB  HZ EP        818 22.74                             133   -0.40 9  149 260 
 PTB  HN ES        818 45.03                             133    0.52 9  149 260 
 PTB  HZ I         818 47.04         1.1 0.14            137            149 260 
 SPBC HZ EP        818 24.99                             130    0.47 9  163 220 
 SPBC HN ES        818 46.56                             130   -0.42 9  163 220 
 SPBC HZ I         818 49.61         1.8 0.09            135            163 220 
 ZAR  HZ EP   2    818 27.64                             123   -1.00 4  206 292 
 ZAR  HN ES        818 54.03                             123   -0.28 8  206 292 
 PTGC HZ EP        818 39.00                             112   -0.56 7  307 159 
                                                                                
