 2017 1011 0841 27.0 L   6.795 -73.180138.8  RSN  4 0.1 1.4LRSN                1
 GAP=183        0.34       2.5     3.9  2.9 -0.7402E+01  0.3894E+01 -0.1310E+01E
 Epicentro: LOS SANTOS - SANTANDER                                             3
 ACTION:UPD 17-11-07 19:30 OP:rebc STATUS:               ID:20171011084127 L   I
 OLDACT:REG 17-10-11 18:48 OP:leo  STATUS:               ID:20171011083741     3
 2017-10-11-0838-00M.COL___435                                                 6
 STAT SP IPHASW D HRMM SECON CODA AMPLIT PERI AZIMU VELO AIN AR TRES W  DIS CAZ7
 BAR2 EZ EP        841 45.85                             170    0.0310 22.4 181 
 BAR2 EZ ES        842  0.46                             170   -0.0110 22.4 181 
 BAR2 EZ I         842  1.59         6.2 0.36            169           22.4 181 
 PAM  EZ EP        841 48.85                             149    0.1410 80.3  41 
 PAM  EN ES        842  5.52                             149   -0.0810 80.3  41 
 PAM  EZ I         842  7.99         5.3 0.32            154           80.3  41 
 RUS  HZ EP        841 49.95                             142   -0.1510  100 174 
 RUS  HN ES        842  8.17                             142    0.0810  100 174 
 RUS  HZ I         842 10.63         2.3 0.38            145            100 174 
 SPBC HZ EP        841 54.74                             128   -0.01 9  160 218 
 SPBC HN ES        842 16.36                             128    0.00 9  160 218 
 SPBC HZ I         842 23.66         4.6 0.38            129            160 218 
                                                                                
