 2013  811 0658  6.3 L   6.770 -73.150136.0  RSN 20 0.5 2.8LRSN 3.2WRSN        1
 SPEC AVERAGE  MO 13.9 ST 39.4 OM  2.1 f0 7.08 R0.3112 AL 0.00 WI 20.3 MW  3.2 3
 SPEC SD       MO  0.2 ST 44.3 OM  0.4 f0 3.05 R0.1585 AL      WI      MW  0.1 3
 GAP= 72        1.18       3.3     3.7  5.4 -0.1849E+01  0.6173E+01  0.2551E+01E
 Epicentro: LOS SANTOS - SANTANDER                                             3
 SPEC ZAR HH N MO 14.0 ST113.5 OM  2.2 f0 10.0 R0.1554 AL 0.00 WI 21.1 MW  3.3 3
 SPEC ZAR HH N T 659 2 K 0.000 GD  246 VS 4.20 DE 3.20 Q0300.0 QA 0.60 VS 4.20 3
 SPEC NOR HH N MO 13.9 ST 98.5 OM  2.1 f0 10.0 R0.1554 AL 0.00 WI 31.6 MW  3.2 3
 SPEC NOR HH N T 659 6 K 0.000 GD  268 VS 4.20 DE 3.20 Q0300.0 QA 0.60 VS 4.20 3
 SPEC SPBCHH N MO 14.0 ST122.0 OM  2.3 f0 10.0 R0.1554 AL 0.00 WI 25.5 MW  3.3 3
 SPEC SPBCHH N T 65854 K 0.000 GD  209 VS 4.20 DE 3.20 Q0300.0 QA 0.60 VS 4.20 3
 SPEC TAM HH Z MO 14.3 ST  8.5 OM  1.8 f0 6.07 R0.4633 AL 0.00 WI  9.4 MW  3.5 3
 SPEC TAM HH Z T 65832 K 0.000 GD  206 VP 7.60 DE 3.20 Q0300.0 QA 0.60 VS 4.20 3
 SPEC PTB HH N MO 13.8 ST 54.0 OM  2.1 f0 9.03 R0.1721 AL 0.00 WI 22.7 MW  3.1 3
 SPEC PTB HH N T 65850 K 0.000 GD  200 VS 4.20 DE 3.20 Q0300.0 QA 0.60 VS 4.20 3
 SPEC RUS HH N MO 13.9 ST  3.6 OM  2.3 f0 3.32 R0.4681 AL 0.00 WI 14.2 MW  3.2 3
 SPEC RUS HH N T 65846 K 0.000 GD  167 VS 4.20 DE 3.20 Q0300.0 QA 0.60 VS 4.20 3
 SPEC PRA HH N MO 13.4 ST 36.9 OM  1.4 f0 10.7 R0.1452 AL 0.00 WI 15.0 MW  2.9 3
 SPEC PRA HH N T 65938 K 0.000 GD  412 VS 4.20 DE 3.20 Q0300.0 QA 0.60 VS 4.20 3
 SPEC HEL HH N MO 13.8 ST  8.9 OM  1.9 f0 5.02 R0.3096 AL 0.00 WI 29.0 MW  3.1 3
 SPEC HEL HH N T 65916 K 0.000 GD  303 VS 4.20 DE 3.20 Q0300.0 QA 0.60 VS 4.20 3
 SPEC PAM SH N MO 14.1 ST  3.5 OM  2.5 f0 2.88 R0.5396 AL 0.00 WI 15.1 MW  3.3 3
 SPEC PAM SH N T 65843 K 0.000 GD  157 VS 4.20 DE 3.20 Q0300.0 QA 0.60 VS 4.20 3
 SPEC CBOCHH E MO 13.7 ST  9.7 OM  1.8 f0 5.28 R0.2943 AL 0.00 WI 20.0 MW  3.1 3
 SPEC CBOCHH E T 65928 K 0.000 GD  358 VS 4.20 DE 3.20 Q0300.0 QA 0.60 VS 4.20 3
 SPEC CHI HH N MO 14.0 ST  2.3 OM  2.2 f0 2.61 R0.5954 AL 0.00 WI 23.2 MW  3.3 3
 SPEC CHI HH N T 659 9 K 0.000 GD  280 VS 4.20 DE 3.20 Q0300.0 QA 0.60 VS 4.20 3
 SPEC BRR HH Z MO 13.8 ST 11.3 OM  1.4 f0 10.0 R0.2812 AL 0.00 WI 16.7 MW  3.1 3
 SPEC BRR HH Z T 65825 K 0.000 GD  154 VP 7.60 DE 3.20 Q0300.0 QA 0.60 VS 4.20 3
 ACTION:UPD 14-01-14 09:01 OP:ep   STATUS:               ID:20130811065806 L   I
 OLDACT:UP  13-08-11 16:06 OP:jn   STATUS:               ID:20130811065642     3
 OLDACT:UP  13-08-11 16:04 OP:jn   STATUS:               ID:20130811065642     3
 OLDACT:REG 13-08-11 15:32 OP:jn   STATUS:               ID:20130811065642     3
 2013-08-11-0656-42M.COL___236                                                 6
 STAT SP IPHASW D HRMM SECON CODA AMPLIT PERI AZIMU VELO AIN AR TRES W  DIS CAZ7
 BAR2 SZ IP     D  658 24.89                             171    0.2110 20.0 190 
 BAR2 SZ ES        658 38.59                             171   -0.4410 20.0 190 
 BAR2 SZ I         658 40.73       169.1 0.18            173           20.0 190 
 GIR2 SZ EP        658 24.98                             165    0.0810 34.5 352 
 GIR2 SZ ES        658 39.67                             165    0.2510 34.5 352 
 GIR2 SZ I         658 41.56       151.4 0.38            143           34.5 352 
 BRR  HZ EP     C  658 26.79                             150    0.3210 72.5 301 
 BRR  HE ES   4    658 43.58                             150    1.37 0 72.5 301 
 BRR  HZ I         658 46.87        86.6 0.28            131           72.5 301 
 PAM  SZ EP        658 27.77                             148    0.1110 80.2  38 
 PAM  SN ES        658 44.23                             148   -0.0910 80.2  38 
 PAM  SZ I         658 46.79       218.7 0.50            122           80.2  38 
 RUS  HZ EP        658 28.85                             143   -0.0010 97.3 176 
 RUS  HN ES        658 47.15                             143    0.7010 97.3 176 
 RUS  HZ I         658 49.04       118.5 0.38            127           97.3 176 
 PTB  HZ EP        658 31.49                             130   -0.89 9  147 260 
 PTB  HN ES        658 52.02                             130   -0.72 9  147 260 
 PTB  HZ I         658 56.56        84.0 0.22            113            147 260 
 TAM  HZ IP     C  658 33.26                             128    0.09 9  155 104 
 SPBC HZ EP        658 33.65                             127   -0.13 9  160 220 
 SPBC HN ES        658 55.11                             127   -0.12 9  160 220 
 SPBC HZ I         658 59.13       116.2 0.18            112            160 220 
 OCA  HZ EP        658 33.17                             127   -1.00 9  163 353 
 OCA  HZ I         659  0.31        90.7 0.28            107            163 353 
 ZAR  HZ EP        658 37.84                             120   -0.37 9  205 293 
 ZAR  HE ES        659  3.80                             120    0.69 9  205 293 
 ZAR  HZ I         659  9.67        85.7 0.36            105            205 293 
 NOR  HZ EP        658 41.41                             117    0.18 8  232 235 
 NOR  HN ES        659  8.13                             117   -0.35 8  232 235 
 NOR  HZ I         659 16.21        65.9 0.22            103            232 235 
 CHI  HZ EP        658 43.18                             115    0.08 8  245 195 
 CHI  HN ES        659 11.29                             115   -0.53 8  245 195 
 CHI  HZ I         659 15.60        32.9 0.26            103            245 195 
 SML  HN ES   1    659 11.83                             115    0.73 6  247 336 
 ROSC BZ EP        658 44.70                             115    1.14 8  250 211 
 HEL  HZ EP        658 46.91                             113    1.02 8  271 256 
 HEL  HN ES        659 16.91                             113    0.14 8  271 256 
 HEL  HZ I         659 21.95        31.5 0.26            101            271 256 
 VIL  SZ EP   1    658 48.43                             110   -0.47 5  300 192 
 VIL  SZ I         659 31.38        42.9 0.34            100            300 192 
 CBOC HZ EP        658 53.02                             108    0.37 7  332 253 
 CBOC HE ES        659 29.21                             108    0.39 7  332 253 
 CBOC HZ I         659 32.92        12.5 0.53             98            332 253 
 DBB  SZ EP   1    658 52.54                             108   -0.83 5  339 275 
 DBB  SZ I         659 37.14        23.2 0.46             98            339 275 
 COD  HZ EP   4    658 52.53                             107   -2.15 0  352 355 
 COD  HZ I         659 39.83         9.0 0.54             97            352 355 
 PRA  HZ EP        658 58.79                             105   -0.34 6  389 210 
 PRA  HN ES        659 39.98                             105   -0.36 6  389 210 
 PRA  HZ I         659 46.72        28.5 0.46             97            389 210 
                                                                                
