 2015 1011 0751  6.3 L   7.034 -73.256138.5  RSN 12 0.4 1.9LRSN                1
 GAP=109        0.83       2.0     3.0  4.5 -0.5628E+00  0.4922E+01  0.6356E+00E
 Epicentro: LEBRIJA - SANTANDER                                                3
 ACTION:UPD 15-12-22 20:39 OP:cam  STATUS:               ID:20151011075106 L   I
 OLDACT:REG 15-10-11 13:26 OP:ak   STATUS:               ID:20151011074741     3
 2015-10-11-0747-41M.COL___340                                                 6
 STAT SP IPHASW D HRMM SECON CODA AMPLIT PERI AZIMU VELO AIN AR TRES W  DIS CAZ7
 BAR2 EZ IP     C  751 26.12                             159    0.2210 49.5 171 
 BAR2 EZ ES        751 41.49                             159    0.2910 49.5 171 
 BAR2 EZ I         751 43.91        12.8 0.16            160           49.5 171 
 BRR  HZ EP        751 26.16                             159    0.5410 51.0 279 
 BRR  HN ES        751 41.02                             159    0.3310 51.0 279 
 BRR  HZ I         751 43.94        16.0 0.13            157           51.0 279 
 PAM  EZ EP        751 27.74                             152    0.4310 70.1  61 
 PAM  EN ES        751 43.40                             152   -0.3110 70.1  61 
 PAM  EZ I         751 46.52        10.3 0.26            158           70.1  61 
 RUS  HZ EP        751 31.37                             135   -0.1510  128 171 
 RUS  HN ES        751 50.88                             135   -0.3210  128 171 
 RUS  HZ I         751 52.87         3.4 0.30            137            128 171 
 OCA  HZ EP        751 31.43                             134   -0.1410  133 357 
 OCA  HN ES        751 51.06                             134   -0.2210  133 357 
 OCA  HZ I         751 54.48        37.6 0.32            137            133 357 
 SPBC HZ EP   1    751 36.14                             125    0.48 7  177 211 
 SPBC HN ES        751 58.42                             125   -0.14 9  177 211 
 SPBC HZ I         752  7.71         9.0 0.37            126            177 211 
 ZAR  HZ EP        751 35.77                             124   -0.44 9  184 286 
 ZAR  HN ES        751 59.69                             124    0.15 9  184 286 
 ZAR  HZ I         752  3.16         8.3 0.26            125            184 286 
 SML  HZ EP        751 39.43                             119    0.00 8  215 335 
 SML  HE ES        752  4.80                             119   -0.47 8  215 335 
 SML  HZ I         752  7.62        15.2 0.14            122            215 335 
 NOR  HZ EP   1    751 42.66                             116    0.31 6  241 228 
 NOR  HE ES        752 10.35                             116   -0.12 8  241 228 
 NOR  HZ I         752 15.45         7.4 0.22            118            241 228 
 HEL  HZ EP   1    751 46.46                             114    0.76 6  268 250 
 HEL  HE ES        752 15.93                             114   -0.50 8  268 250 
 HEL  HZ I         752 26.01         3.9 0.20            115            268 250 
 CHI  HZ EP        751 45.82                             113   -0.27 8  271 191 
 CHI  HN ES        752 16.60                             113   -0.53 8  271 191 
 CHI  HZ I         752 22.81         2.3 0.40            115            271 191 
 GUY2CHZ EP   1    751 50.93                             110    0.64 5  307 230 
 GUY2CHN ES        752 24.61                             110    0.00 7  307 230 
 GUY2CHZ I         752 37.83         4.2 0.72                           307 230 
 SJC  HZ EP   4    751 57.04                             106   -1.25 0  381 326 
 SJC  HN ES   4    752 33.27                             106   -5.58 0  381 326 
                                                                                
