 2013  411 0025 47.8 L   6.837 -73.152150.0  RSN 27 0.5 3.4LRSN 3.6WRSN        1
 SPEC AVERAGE  MO 14.4 ST 27.4 OM  2.9 f0 3.52 R0.4947 AL 2.58 WI 30.2 MW  3.6 3
 SPEC SD       MO  0.2 ST 30.1 OM  0.4 f0 1.26 R0.2478 AL      WI      MW  0.2 3
 GAP= 69        1.18       2.6     3.3  4.8 -0.2882E+01  0.2551E+01 -0.1160E+01E
 Epicentro: LOS SANTOS - SANTANDER                                             3
 SPEC TAM HH N MO 14.4 ST  3.9 OM  2.7 f0 2.18 R0.6743 AL 2.40 WI 21.3 MW  3.6 3
 SPEC TAM HH N T 02637 K 0.000 GD  217 VS 4.20 DE 3.20 Q0300.0 QA 0.60 VS 4.20 3
 SPEC PRA HH E MO 14.4 ST 20.8 OM  2.4 f0 3.85 R0.3818 AL 2.48 WI 31.5 MW  3.6 3
 SPEC PRA HH E T 02722 K 0.000 GD  422 VS 4.20 DE 3.20 Q0300.0 QA 0.60 VS 4.20 3
 SPEC ROSCBH Z MO 14.4 ST 10.2 OM  2.5 f0 3.16 R0.4652 AL 3.19 WI 24.5 MW  3.5 3
 SPEC ROSCBH Z T 02658 K 0.000 GD  296 VS 4.20 DE 3.20 Q0300.0 QA 0.60 VS 4.20 3
 SPEC PTB HH E MO 14.4 ST 31.1 OM  2.7 f0 4.41 R0.3333 AL 2.16 WI 33.3 MW  3.6 3
 SPEC PTB HH E T 02636 K 0.000 GD  210 VS 4.20 DE 3.20 Q0300.0 QA 0.60 VS 4.20 3
 SPEC RUS HH E MO 14.2 ST  8.4 OM  2.5 f0 3.48 R0.4224 AL 2.81 WI 17.5 MW  3.4 3
 SPEC RUS HH E T 02630 K 0.000 GD  183 VS 4.20 DE 3.20 Q0300.0 QA 0.60 VS 4.20 3
 SPEC HEL HH N MO 14.3 ST  8.7 OM  2.4 f0 3.19 R0.4608 AL 2.07 WI 38.7 MW  3.5 3
 SPEC HEL HH N T 027 0 K 0.000 GD  310 VS 4.20 DE 3.20 Q0300.0 QA 0.60 VS 4.20 3
 SPEC NOR HH E MO 14.5 ST 93.8 OM  2.7 f0 5.79 R0.2539 AL 3.66 WI 28.4 MW  3.6 3
 SPEC NOR HH E T 02651 K 0.000 GD  280 VS 4.20 DE 3.20 Q0300.0 QA 0.60 VS 4.20 3
 SPEC OCA HH N MO 14.9 ST 77.2 OM  3.2 f0 4.03 R0.3648 AL 2.73 WI 33.7 MW  3.9 3
 SPEC OCA HH N T 02637 K 0.000 GD  216 VS 4.20 DE 3.20 Q0300.0 QA 0.60 VS 4.20 3
 SPEC COD HH E MO 14.1 ST  1.8 OM  2.1 f0 2.23 R0.6592 AL 1.13 WI 31.3 MW  3.3 3
 SPEC COD HH E T 02712 K 0.000 GD  375 VS 4.20 DE 3.20 Q0300.0 QA 0.60 VS 4.20 3
 SPEC CHI HH N MO 14.5 ST 14.6 OM  2.6 f0 3.31 R0.4441 AL 2.73 WI 39.5 MW  3.6 3
 SPEC CHI HH N T 02654 K 0.000 GD  293 VS 4.20 DE 3.20 Q0300.0 QA 0.60 VS 4.20 3
 SPEC BRR HH E MO 14.4 ST 56.7 OM  2.8 f0 5.41 R0.2717 AL 4.10 WI 36.2 MW  3.6 3
 SPEC BRR HH E T 02627 K 0.000 GD  164 VS 4.20 DE 3.20 Q0300.0 QA 0.60 VS 4.20 3
 SPEC BAR2SH Z MO 14.8 ST  1.5 OM  3.2 f0 1.22 R1.2049 AL 1.48 WI 26.8 MW  3.8 3
 SPEC BAR2SH Z T 02623 K 0.000 GD  152 VS 4.20 DE 3.20 Q0300.0 QA 0.60 VS 4.20 3
 ACTION:UPD 13-05-22 14:37 OP:EP   STATUS:               ID:20130411002547 L   I
 2013-04-11-0018-49M.COL___212                                                 6
 STAT SP IPHASW D HRMM SECON CODA AMPLIT PERI AZIMU VELO AIN AR TRES W  DIS CAZ7
 GIR2 SZ IP     C  026  8.30                             169    0.4510 27.1 350 
 GIR2 SZ ES        026 23.40                             169   -0.1010 27.1 350 
 BAR2 SZ IP        026  8.20                             169    0.2010 27.3 187 
 BAR2 SZ ES        026 23.56                             169   -0.2110 27.3 187 
 BAR2 SZ I         026 26.18       500.2 0.38            167           27.3 187 
 BRR  HZ IP     C  026 10.06                             154    0.8210 68.6 296 
 BRR  HE ES   4    026 27.64                             154    1.65 0 68.6 296 
 RUS  HZ IP     D  026 12.11                             143   -0.1310  105 176 
 RUS  HE ES        026 30.52                             143   -0.8110  105 176 
 RUS  HE I         026 31.89       425.0 0.48            142            105 176 
 CAPV BZ IP     C  026 16.06                             133    0.79 9  147  39 
 CAPV BZ ES        026 36.53                             133   -0.18 9  147  39 
 PTB  HZ EP        026 15.15                             133    0.05 9  148 257 
 PTB  HN ES        026 35.72                             133   -0.70 9  148 257 
 PTB  HE I         026 42.14       426.1 0.24            128            148 257 
 OCA  HZ EP        026 16.40                             131    0.37 9  156 353 
 OCA  HN ES        026 37.44                             131   -0.63 9  156 353 
 TAM  HZ IP     C  026 16.38                             131    0.42 9  157 106 
 TAM  HZ I         026 16.53       246.5 0.34            132            157 106 
 TAM  HN ES        026 38.10                             131    0.16 9  157 106 
 CTAU SZ IP   4    026 22.87                             123    1.51 0  206 209 
 CTAU SZ I         026 24.03       199.4 0.12            120            206 209 
 CTAU SZ ES        026 48.50                             123    0.95 8  206 209 
 CTAB SZ EP   4    026 25.40                             119    1.29 0  233 210 
 CTAB SZ I         026 26.74       174.2 0.40            117            233 210 
 CTAB SZ ES        026 52.94                             119    0.48 8  233 210 
 NOR  HZ EP        026 23.79                             119   -0.16 8  237 234 
 NOR  HE ES        026 51.61                             119   -0.55 8  237 234 
 NOR  HN I         026 58.36       394.4 0.18            116            237 234 
 SML  HZ EP        026 24.38                             119    0.18 8  240 335 
 CHI  HZ EP        026 26.19                             117    0.07 8  252 195 
 CHI  HN ES        026 55.23                             117   -0.80 8  252 195 
 CHI  HE I         027  2.17       168.5 0.28            115            252 195 
 ROSC BZ IP   4 D  026 27.76                             117    1.29 0  256 210 
 ROSC BE ES        026 56.97                             117    0.32 8  256 210 
 HEL  HZ EP        026 28.88                             115    0.64 8  272 255 
 HEL  HN ES        027  0.68                             115    0.88 8  272 255 
 HEL  HN I         027  7.84        86.1 0.28            112            272 255 
 URE  HZ EP        026 28.00                             114   -0.81 7  282 291 
 URE  HN ES   4    026 59.39                             114   -1.42 0  282 291 
 SOCV BZ EP        026 30.24                             113   -0.60 7  300  58 
 VIL  SZ EP        026 31.32                             112   -0.51 7  307 191 
 VIL  SE ES   4    027  8.31                             112    2.12 0  307 191 
 DBB  SZ EP        026 35.05                             110   -0.26 7  338 274 
 DBB  SZ I         027 16.33        47.5 0.48            108            338 274 
 COD  HZ EP        026 36.14                             110    0.30 7  344 355 
 COD  HN ES        027 13.08                             110   -0.25 7  344 355 
 COD  HE I         027 19.43        36.7 0.46            108            344 355 
 SDV  BZ IP     C  026 37.57                             109   -0.17 6  358  51 
 PRA  HZ EP        026 41.54                             107   -0.28 6  395 209 
 PRA  HE ES        027 23.43                             107   -0.55 6  395 209 
 PRA  HE I         027 29.21        70.3 0.24            105            395 209 
 SJA  SZ EP        026 43.83                             106    0.91 6  404 193 
 SJC  HZ EP        026 42.20                             106   -0.82 6  405 327 
 ELOV BZ IP     C  026 42.11                             106   -0.89 6  406  87 
 YOT  HZ EP        026 50.87                             104   -0.32 5  474 228 
 SMAR HZ EP        026 53.27                             103    0.01 4  493 346 
                                                                                
