 2010 1211 0917 27.9 L   6.776 -73.157139.3  RSN 12 0.5 2.8LRSN                1
 GAP=135        1.02       6.0     7.7  8.0 -0.1748E+02  0.2489E+02  0.1793E+01E
 Epicentro: LOS SANTOS - SANTANDER                                             3
 ACTION:UP  11-01-14 15:24 OP:pat  STATUS:               ID:20101211091727 L   I
 2010-12-11-0915-30S.COL___136                                                 6
 STAT SP IPHASW D HRMM SECON CODA AMPLIT PERI AZIMU VELO SNR AR TRES W  DIS CAZ7
 BAR2 SZ EP        917 46.69                             171     0.010   21 188 
 BAR2 SZ ES   1    918  1.41                             171     0.1 7   21 188 
 BAR2 SZ I         918  3.04       240.7 0.29                            21 188 
 GIR2 SZ EP        917 46.79                             166     0.010   34 353 
 RUS  HZ EP        917 50.57                             143    -0.210   98 175 
 RUS  HE ES   1    918  8.93                             143     0.3 7   98 175 
 RUS  HZ I         918 10.63        81.9 0.28                            98 175 
 GRA  SZ EP   1    917 52.53                             135    -0.3 7  129  18 
 YOP  SZ EP   1    917 57.13                             125    -0.1 7  177 153 
 YOP  SZ I         917 58.03        31.0 0.34                           177 153 
 NOR  SZ EP   1    918  2.68                             117    -0.3 6  232 235 
 NOR  SE ES   1    918 29.84                             117    -0.5 6  232 235 
 CHI  HZ EP        918  4.58                             116    -0.3 8  246 195 
 CHI  HE ES   2    918 34.18                             116     0.4 4  246 195 
 CHI  HZ I         918 43.63        32.2 0.55                           246 195 
 ROSC BZ EP        918  6.22                             116     0.9 8  250 211 
 ROSC BZ I         918 42.73        84.9 0.36                           250 211 
 HEL  HZ EP   1    918  8.52                             114     1.0 6  270 256 
 HEL  HZ I         918 45.13        45.1 0.26                           270 256 
 RREF HZ EP        918 13.65                             110     0.2 7  319 230 
 RREF HE ES   1    918 47.99                             110    -1.0 5  319 230 
 RREF HZ I         918 56.35        44.1 0.31                           319 230 
 TOL  SZ EP   1    918 16.29                             108     0.7 5  341 225 
 PRA  HZ EP        918 19.99                             105    -0.8 6  389 210 
 PRA  HN ES   1    919  2.11                             105     0.0 4  389 210 
                                                                                
