 2010 1211 0900 59.6 L   6.762 -73.091145.0  RSN  4 0.3 1.5LRSN                1
 GAP=188        0.56       3.6    23.9  7.8  0.2262E+01  0.4932E+02 -0.6800E+01E
 Epicentro: LOS SANTOS - SANTANDER                                             3
 ACTION:UP  11-01-14 15:24 OP:pat  STATUS:               ID:20101211090059 L   I
 2010-12-11-0857-30S.COL___137                                                 6
 STAT SP IPHASW D HRMM SECON CODA AMPLIT PERI AZIMU VELO SNR AR TRES W  DIS CAZ7
 BAR2 SZ EP   1    9 1 18.95                             171    -0.2 7   21 209 
 BAR2 SZ ES   2    9 1 33.89                             171    -0.5 5   21 209 
 BAR2 SZ I         9 1 35.97         8.8 0.31                            21 209 
 RUS  HZ EP   1    9 1 23.08                             145     0.1 7   96 180 
 RUS  HE ES   1    9 1 41.40                             145     0.2 7   96 180 
 RUS  HZ I         9 1 42.79         4.1 0.49                            96 180 
 OCA  SZ EP   1    9 1 28.16                             129    -0.2 7  165 351 
 OCA  SZ ES   2    9 1 51.39                             129     0.6 5  165 351 
 OCA  SZ I         9 1 55.17         5.1 0.18                           165 351 
 CHI  HZ EP   2    9 1 37.00                             117     0.0 4  246 197 
 CHI  HE ES   2    9 2  6.29                             117     0.1 4  246 197 
 CHI  HZ I         9 2 15.93         2.3 0.22                           246 197 
                                                                                
