 2014  711 0523 38.3 L   6.847 -73.133144.8  RSN  9 0.4 1.7LRSN                1
 GAP=173        1.02       5.6     4.3  6.0 -0.2043E+01  0.2897E+01  0.2545E+01E
 Epicentro: LOS SANTOS - SANTANDER                                             3
 ACTION:UPD 15-03-16 20:42 OP:nd   STATUS:               ID:20140711052338 L   I
 OLDACT:REG 14-07-11 12:43 OP:stll STATUS:               ID:20140711051812     3
 2014-07-11-0518-12M.COL___256                                                 6
 STAT SP IPHASW D HRMM SECON CODA AMPLIT PERI AZIMU VELO AIN AR TRES W  DIS CAZ7
 BAR2 SZ EP        523 57.95                             168    0.0110 28.7 191 
 BAR2 SZ ES        524 13.33                             168    0.0810 28.7 191 
 BAR2 SZ I         524 18.59        11.5 0.42            169           28.7 191 
 BRR  HZ EP        523 59.70                             153    0.4110 70.1 294 
 BRR  HN ES        524 15.95                             153    0.3010 70.1 294 
 BRR  HZ I         524 19.68         6.6 0.12            142           70.1 294 
 RUS  HZ EP        524  2.15                             142   -0.1910  106 177 
 RUS  HN ES        524 21.27                             142    0.1910  106 177 
 PTB  HZ EP        524  4.76                             131   -0.66 9  150 257 
 PTB  HN ES        524 25.78                             131   -0.78 9  150 257 
 TAM  HZ EP        524  5.48                             130   -0.44 9  155 107 
 SPBC HN ES        524 30.06                             128    0.33 9  168 218 
 NOR  HZ EP        524 14.26                             118   -0.17 8  239 234 
 NOR  HE ES        524 42.37                             118   -0.23 8  239 234 
 NOR  HZ I         524 48.88         3.8 0.16            113            239 234 
 HEL  HZ EP        524 19.40                             114    0.64 8  275 255 
 HEL  HZ I         524 57.75         2.3 0.20            109            275 255 
 GUY2CHZ EP        524 23.19                             112    0.85 7  305 234 
 GUY2CHN ES        524 56.70                             112    0.02 7  305 234 
 GUY2CHZ I         525  5.91         2.5 0.66                           305 234 
                                                                                
