 2013  911 0320 23.1 L   6.807 -73.147147.5  RSN 13 0.5 2.4LRSN                1
 GAP=136        1.04       3.0     4.2  5.4 -0.5431E+00  0.7390E+01  0.2634E+00E
 Epicentro: LOS SANTOS - SANTANDER                                             3
 ACTION:UPD 13-10-22 09:21 OP:ep   STATUS:               ID:20130911032023 L   I
 OLDACT:UP  13-09-11 09:32 OP:cam  STATUS:               ID:20130911031959     3
 OLDACT:UP  13-09-11 09:32 OP:cam  STATUS:               ID:20130911031959     3
 OLDACT:UP  13-09-11 09:31 OP:cam  STATUS:               ID:20130911031959     3
 OLDACT:REG 13-09-11 07:49 OP:cam  STATUS:               ID:20130911031959     3
 2013-09-11-0319-59M.COL___269                                                 6
 STAT SP IPHASW D HRMM SECON CODA AMPLIT PERI AZIMU VELO AIN AR TRES W  DIS CAZ7
 BAR2 SZ EP        320 42.96                             170   -0.0210 24.1 189 
 BAR2 SZ ES        320 57.95                             170   -0.5210 24.1 189 
 BAR2 SZ I         320 58.94        55.1 0.18            169           24.1 189 
 BRR  HZ IP        320 44.86                             153    0.4310 70.7 298 
 BRR  HN ES        321  2.07                             153    1.0210 70.7 298 
 BRR  HZ I         321  5.64        39.0 0.40            150           70.7 298 
 PAM  SZ IP     D  320 45.75                             151    0.2510 76.9  40 
 PAM  SN ES        321  2.97                             151    0.0210 76.9  40 
 PAM  SZ I         321  3.47        22.2 0.36            155           76.9  40 
 RUS  HZ EP        320 46.88                             144   -0.2310  101 176 
 RUS  HE ES        321  5.60                             144   -0.2110  101 176 
 RUS  HZ I         321  6.61        24.3 0.32            147            101 176 
 PTB  HZ EP        320 49.82                             132   -0.41 9  148 259 
 PTB  HN ES   1    321 10.50                             132   -0.88 7  148 259 
 PTB  HZ I         321 16.04        31.6 0.18            132            148 259 
 OCA  HZ EP   1    320 51.36                             130   -0.14 7  159 353 
 OCA  HN ES        321 13.02                             130   -0.61 9  159 353 
 OCA  HZ I         321 17.52        39.9 0.22            132            159 353 
 SPBC HZ EP        320 51.96                             129    0.16 9  164 219 
 SPBC HE ES        321 14.20                             129    0.02 9  164 219 
 SPBC HZ I         321 21.45        29.8 0.22            130            164 219 
 ZAR  HZ EP        320 55.82                             123    0.18 9  204 292 
 ZAR  HN ES        321 21.60                             123    0.60 9  204 292 
 ZAR  HZ I         321 26.70        37.8 0.72            123            204 292 
 NOR  HZ EP        320 59.46                             119    0.47 8  235 234 
 NOR  HN ES   1    321 26.76                             119   -0.20 6  235 234 
 NOR  HZ I         321 29.85        26.6 0.18            120            235 234 
 SML  HZ EP   1    320 59.68                             118   -0.08 6  243 335 
 SML  HN ES   1    321 28.08                             118   -0.26 6  243 335 
 SML  HZ I         321 32.68        38.1 0.22            119            243 335 
 CHI  HZ EP   1    321  1.06                             117    0.06 6  249 195 
 ROSC BZ EP   4    321  3.25                             117    1.85 0  253 211 
 URE  HZ EP        321  4.04                             114   -0.19 7  283 292 
 URE  HN ES   1    321 35.27                             114   -1.02 6  283 292 
 PRA  HZ EP        321 17.31                             107    0.54 6  393 209 
 SJC  HZ EP   4    321 17.61                             106   -1.04 0  408 327 
                                                                                
