 2014  311 0110  3.4 L   6.461 -73.565115.0  RSN  4 0.5 1.4LRSN                1
 GAP=135        1.03      12.5     8.1 12.4  0.7979E+02 -0.3476E+00 -0.3446E+02E
 Epicentro: SANTA HELENA DEL OPON - SANTANDER                                  3
 ACTION:UPD 14-04-09 23:16 OP:nd   STATUS:               ID:20140311011003 L   I
 OLDACT:DUP 14-03-11 10:24 OP:fm   STATUS:               ID:20140311010813d    3
 2014-03-11-0108-12M.COL___238                                                 6
 STAT SP IPHASW D HRMM SECON CODA AMPLIT PERI AZIMU VELO AIN AR TRES W  DIS CAZ7
 BAR2 SZ ES   2    110 32.53                             157   -0.63 5 44.8  71 
 RUS  HZ EP        110 23.26                             142    0.4610 82.4 140 
 RUS  HN ES        110 37.92                             142   -0.0310 82.4 140 
 PTB  HZ EP     C  110 22.76                             136   -0.7010 99.0 275 
 PTB  HE ES        110 39.29                             136    0.1710 99.0 275 
 PTB  HZ I         110 41.27         4.9 0.10            137           99.0 275 
 ZAR  HZ EP   2    110 31.38                             118   -0.33 4  183 309 
 ZAR  HN ES   1    110 54.52                             118    0.72 7  183 309 
 ZAR  HZ I         110 59.54         2.9 0.36            118            183 309 
                                                                                
