 2014 1111 0213 14.6 L   7.065 -73.120158.5  RSN  4 0.3 1.2LRSN                1
 GAP=264        0.71       6.5     5.9  6.0  0.1866E+02 -0.3596E+01 -0.5030E+01E
 Epicentro: FLORIDABLANCA - SANTANDER                                          3
 ACTION:UPD 14-12-19 15:41 OP:nd   STATUS:               ID:20141111021314 L   I
 OLDACT:ARG 14-11-11 12:37 OP:stll STATUS:               ID:20141111020746     3
 2014-11-11-0207-46M.COL___296                                                 6
 STAT SP IPHASW D HRMM SECON CODA AMPLIT PERI AZIMU VELO AIN AR TRES W  DIS CAZ7
 BAR2 SZ EP        213 36.85                             161    0.2610 52.7 187 
 BAR2 SZ ES        213 53.34                             161   -0.4410 52.7 187 
 BRR  HZ EP        213 36.51                             156   -0.3010 65.5 274 
 BRR  HN ES        213 54.54                             156    0.3810 65.5 274 
 RUS  HZ EP        213 41.84                             139    0.1010  130 178 
 RUS  HE ES        214  3.10                             139    0.1510  130 178 
 RUS  HZ I         214  5.30         1.2 0.52            136            130 178 
 PTB  HZ EP        213 43.44                             133   -0.11 9  159 249 
 PTB  HN ES        214  6.12                             133   -0.05 9  159 249 
 PTB  HZ I         214  8.51         3.3 0.16            131            159 249 
                                                                                
