 2015  111 0750  8.8 L   6.786 -73.159151.8  RSN 10 0.3 1.9LRSN                1
 GAP=193        0.86       3.0     4.8  5.0 -0.4173E+01  0.3279E+01 -0.1214E+01E
 Epicentro: LOS SANTOS - SANTANDER                                             3
 ACTION:UPD 15-03-02 15:38 OP:nd   STATUS:               ID:20150111075008 L   I
 OLDACT:UP  15-01-11 17:05 OP:cam  STATUS:               ID:20150111074816     3
 OLDACT:REG 15-01-11 14:33 OP:cam  STATUS:               ID:20150111074816     3
 2015-01-11-0748-16M.COL___252                                                 6
 STAT SP IPHASW D HRMM SECON CODA AMPLIT PERI AZIMU VELO AIN AR TRES W  DIS CAZ7
 BAR2 EZ EP        750 29.08                             172   -0.0610 21.5 187 
 BAR2 EZ ES        750 44.55                             172   -0.4310 21.5 187 
 BAR2 EZ I         750 45.93        12.1 0.34            170           21.5 187 
 BRR  HZ EP     C  750 30.94                             154    0.3510 70.7 300 
 BRR  HN ES        750 48.05                             154    0.4810 70.7 300 
 BRR  HZ I         750 51.06         7.2 0.12            151           70.7 300 
 PTB  HZ EP        750 35.63                             134   -0.50 9  146 259 
 PTB  HN ES        750 57.17                             134   -0.26 9  146 259 
 PTB  HZ I         750 59.81        10.2 0.26            133            146 259 
 SPBC HZ EP        750 37.89                             131    0.30 9  161 219 
 SPBC HN ES        751  0.27                             131    0.25 9  161 219 
 SPBC HZ I         751  6.52        12.1 0.22            131            161 219 
 OCA  HZ EP        750 37.81                             131    0.08 9  162 354 
 OCA  HN ES        751  0.52                             131    0.24 9  162 354 
 OCA  HN I         751  5.70        17.6 0.20            132            162 354 
 ZAR  HZ EP        750 41.51                             124   -0.08 9  203 293 
 ZAR  HE ES        751  7.44                             124    0.30 9  203 293 
 ZAR  HZ I         751 12.92         8.7 0.36            124            203 293 
 NOR  HZ EP        750 44.63                             120   -0.05 8  233 235 
 NOR  HN ES        751 12.26                             120   -0.39 8  233 235 
 NOR  HZ I         751 16.99         7.9 0.20            121            233 235 
 SML  HZ EP        750 45.75                             119   -0.13 8  245 336 
 SML  HE ES        751 14.06                             119   -0.72 8  245 336 
 SML  HZ I         751 16.97         9.5 0.24            120            245 336 
 HEL  HZ EP        750 49.63                             116    0.48 8  270 256 
 HEL  HN ES   4    751 21.59                             116    0.99 0  270 256 
 HEL  HZ I         751 28.13         3.2 0.46            117            270 256 
 MON  HZ EP   4    750 56.38                             110   -1.66 0  354 309 
 MON  HN ES   4    751 34.88                             110   -1.56 0  354 309 
 MON  HN I         751 36.10         1.9 0.28            111            354 309 
                                                                                
