 2010 1211 0250 53.3 L   6.744 -73.149139.4  RSN 14 0.4 2.3LRSN                1
 GAP=136        0.69       3.3     6.4  6.0 -0.9518E+01  0.1074E+02  0.7379E+00E
 Epicentro: JORDAN - SANTANDER                                                 3
 ACTION:UP  11-01-14 15:24 OP:pat  STATUS:               ID:20101211025053 L   I
 2010-12-11-0240-00M.COL___136                                                 6
 STAT SP IPHASW D HRMM SECON CODA AMPLIT PERI AZIMU VELO SNR AR TRES W  DIS CAZ7
 BAR2 SZ IP        251 11.90                             173    -0.110   17 193 
 BAR2 SZ ES   1    251 27.12                             173     0.5 7   17 193 
 BAR2 SZ I         251 28.67        85.7 0.26                            17 193 
 GIR2 SZ EP        251 11.96                             164    -0.410   37 352 
 RUS  HZ EP        251 15.74                             144    -0.210   94 176 
 RUS  HN ES   2    251 33.78                             144     0.2 5   94 176 
 RUS  HZ I         251 35.75        20.6 0.36                            94 176 
 GUE  SZ EP        251 18.09                             136     0.210  123  12 
 GRA  SZ IP        251 18.68                             134     0.210  132  17 
 GRA  SZ I         251 19.85        30.1 0.37                           132  17 
 GRA  SZ ES   1    251 37.89                             134    -0.2 7  132  17 
 YOP  SZ EP   1    251 22.26                             126    -0.1 7  174 152 
 NOR  SZ EP   2    251 27.84                             118    -0.4 4  231 236 
 CHI  HZ EP   1    251 29.82                             116    -0.1 6  243 195 
 CHI  HE ES   2    251 58.73                             116     0.2 4  243 195 
 CHI  HZ I         252  2.83        11.9 0.60                           243 195 
 ROSC BZ EP   2    251 31.23                             116     0.8 4  247 212 
 ROSC BZ I         252  5.71        22.8 0.81                           247 212 
 HEL  HZ EP   2    251 33.48                             114     0.5 4  270 257 
 HEL  HN ES   2    252  3.25                             114    -0.7 4  270 257 
 HEL  HZ I         252 11.74         6.4 0.24                           270 257 
 GUY  SZ EP   2    251 36.82                             111     0.7 4  298 236 
 RREF HZ EP   2    251 39.01                             110     0.4 3  318 230 
 RREF HZ I         252 24.47        16.5 0.40                           318 230 
 TOL  SZ EP   2    251 41.69                             108     1.0 3  339 225 
 PRA  HZ EP   2    251 45.43                             106    -0.5 3  386 210 
 PRA  HN ES   2    252 26.47                             106    -0.5 3  386 210 
                                                                                
