 2014  811 0331  2.4 L   6.695 -73.250142.6  RSN  4 0.3 1.2LRSN                1
 GAP=244        0.81       6.6     4.9  6.8  0.2691E+01  0.8509E+01 -0.2879E+01E
 Epicentro: BARICHARA - SANTANDER                                              3
 ACTION:UPD 14-09-15 21:48 OP:nd   STATUS:               ID:20140811033102 L   I
 OLDACT:UP  14-08-11 15:04 OP:cam  STATUS:               ID:20140811033001d    3
 OLDACT:DUP 14-08-11 14:58 OP:cam  STATUS:               ID:20140811033001d    3
 OLDACT:REG 14-08-11 13:00 OP:cam  STATUS:               ID:20140811033000     3
 2014-08-11-0330-00M.COL___285                                                 6
 STAT SP IPHASW D HRMM SECON CODA AMPLIT PERI AZIMU VELO AIN AR TRES W  DIS CAZ7
 BAR2 SZ EP        331 21.86                             174    0.3710 13.6 147 
 BAR2 SZ ES        331 36.17                             174   -0.2110 13.6 147 
 BAR2 SZ I         331 36.79         4.0 0.26            171           13.6 147 
 RUS  HZ EP        331 24.76                             146   -0.3810 90.6 168 
 RUS  HN ES        331 43.08                             146    0.2110 90.6 168 
 RUS  HZ I         331 44.61         2.5 0.58            144           90.6 168 
 PTB  HZ EP        331 27.55                             134   -0.3710  134 263 
 PTB  HN ES        331 48.03                             134    0.2110  134 263 
 PTB  HZ I         331 49.57         1.8 0.28            134            134 263 
 SPBC HZ EP        331 29.53                             131    0.40 9  147 218 
 SPBC HE ES        331 49.76                             131   -0.22 9  147 218 
 SPBC HZ I         331 53.70         2.3 0.32            130            147 218 
                                                                                
