 2013  311 0812 14.4 L   6.789 -73.123151.2  RSN 11 0.5 2.1LRSN                1
 GAP=140        0.90       3.4     4.7  6.1 -0.1899E+01  0.9378E+01 -0.5547E+00E
 Epicentro: LOS SANTOS - SANTANDER                                             3
 ACTION:UPD 13-04-09 14:01 OP:ep   STATUS:               ID:20130311081214 L   I
 2013-03-11-0810-00M.COL___231                                                 6
 STAT SP IPHASW D HRMM SECON CODA AMPLIT PERI AZIMU VELO AIN AR TRES W  DIS CAZ7
 BAR2 SZ EP   1    812 34.75                             171    0.11 7 22.7 197 
 BAR2 SZ ES   1    812 50.47                             171    0.01 7 22.7 197 
 BAR2 SZ I         812 52.05        16.1 0.36            169           22.7 197 
 BRR  HZ EP     C  812 36.67                             153    0.4010 74.0 298 
 BRR  HN ES   1    812 54.20                             153    0.86 7 74.0 298 
 BRR  HN I         812 54.83        26.7 0.24            151           74.0 298 
 PAM  SZ EP        812 37.58                             152    0.4410 76.8  38 
 PAM  SN ES        812 54.85                             152   -0.0410 76.8  38 
 PAM  SN I         812 55.88        13.9 0.24            155           76.8  38 
 RUS  HZ EP   1    812 38.66                             145    0.09 7 99.2 177 
 RUS  HN ES        812 56.99                             145   -0.4510 99.2 177 
 RUS  HN I         812 58.86        10.7 0.18            146           99.2 177 
 PTB  HZ EP        812 41.58                             133   -0.41 9  150 259 
 PTB  HN ES   1    813  2.86                             133   -0.67 7  150 259 
 PTB  HN I         813  8.17        30.6 0.28            132            150 259 
 OCA  HZ EP   1    812 42.88                             131   -0.37 7  162 352 
 OCA  HN ES   1    813  5.52                             131   -0.26 7  162 352 
 OCA  HN I         813  8.71        30.0 0.32            132            162 352 
 ZAR  HZ EP   1    812 47.43                             123   -0.03 6  207 292 
 ZAR  HN ES   2    813 12.81                             123   -0.46 4  207 292 
 SML  HZ EP   1    812 51.29                             118   -0.25 6  246 335 
 SML  HN ES   2    813 19.40                             118   -1.14 4  246 335 
 SML  HN I         813 23.18        26.8 0.10            119            246 335 
 CHI  HZ EP   1    812 51.77                             118   -0.55 6  248 196 
 CHI  HN ES   2    813 22.33                             118    0.41 4  248 196 
 CHI  HN I         813 25.70         3.6 0.28            119            248 196 
 HEL  HN ES   1    813 27.79                             116    0.92 6  274 256 
 PRA  HZ EP   1    813  8.86                             107    0.76 4  392 210 
 PRA  HN ES   2    813 50.77                             107    0.76 3  392 210 
 PRA  HN I         813 55.46         1.9 0.34            108            392 210 
                                                                                
