 2017  311 0739 50.2 L   6.757 -73.122139.6  RSN  7 0.4 1.1LRSN                1
 GAP=142        0.91       6.2     4.9  6.5  0.8248E+00  0.2003E+01 -0.7230E-01E
 Epicentro: LOS SANTOS - SANTANDER                                             3
 ACTION:UPD 17-05-25 18:39 OP:jn   STATUS:               ID:20170311073950 L   I
 OLDACT:UP  17-03-11 15:45 OP:and  STATUS:               ID:20170311073741     3
 OLDACT:REG 17-03-11 12:45 OP:and  STATUS:               ID:20170311073741     3
 2017-03-11-0738-00M.COL___391                                                 6
 STAT SP IPHASW D HRMM SECON CODA AMPLIT PERI AZIMU VELO AIN AR TRES W  DIS CAZ7
 BAR2 EZ EP        740  8.93                             172   -0.0410 19.4 200 
 BAR2 EZ ES        740 23.23                             172   -0.4110 19.4 200 
 BRR  HZ EP        740 10.87                             150   -0.0510 75.8 301 
 BRR  HN ES        740 27.88                             150    0.7710 75.8 301 
 PAM  EZ IP     D  740 11.85                             149   -0.0010 79.5  36 
 RUS  HZ EP   9    740 14.06                             144    1.11 0 95.7 177 
 RUS  HN ES   2    740 31.60                             144   -0.24 5 95.7 177 
 RUS  HZ I         740 32.96         2.1 0.26            142           95.7 177 
 PTB  HZ EP        740 16.60                             130   -0.19 9  150 261 
 PTB  HN ES        740 37.64                             130    0.08 9  150 261 
 SPBC HZ EP        740 18.26                             128    0.26 9  161 221 
 SPBC HN ES   2    740 39.85                             128    0.14 5  161 221 
 SPBC HZ I         740 42.33         1.6 0.09            127            161 221 
 ZAR  HZ EP   2    740 23.27                             120    0.62 4  208 293 
 ZAR  HN ES        740 47.26                             120   -0.74 8  208 293 
                                                                                
