 2017 1211 0238 19.7 L   6.767 -73.169140.0  RSN 11 0.5 1.6LRSN                1
 GAP=111        1.18       3.6     4.4  7.0 -0.1951E+00  0.7213E+01  0.5418E+01E
 Epicentro: LOS SANTOS - SANTANDER                                             3
 ACTION:UPD 18-01-04 13:19 OP:rebc STATUS:               ID:20171211023819 L   I
 OLDACT:UP  17-12-11 17:20 OP:edw  STATUS:               ID:20171211023737     3
 OLDACT:UP  17-12-11 17:19 OP:edw  STATUS:               ID:20171211023737     3
 OLDACT:REG 17-12-11 14:09 OP:edw  STATUS:               ID:20171211023737     3
 2017-12-11-0238-00M.COL___475                                                 6
 STAT SP IPHASW D HRMM SECON CODA AMPLIT PERI AZIMU VELO AIN AR TRES W  DIS CAZ7
 BAR2 EZ EP        238 38.47                             172   -0.0510 19.4 184 
 BAR2 EZ ES        238 53.38                             172    0.1510 19.4 184 
 BAR2 EZ I         238 54.95        13.3 0.22            168           19.4 184 
 PAM  EZ EP        238 41.39                             148   -0.1510 81.8  39 
 PAM  EN ES        238 58.71                             148    0.1010 81.8  39 
 PAM  EZ I         239  0.88         5.4 0.66            155           81.8  39 
 PTB  HZ EP        238 44.54                             131   -1.32 9  145 260 
 PTB  HE ES        239  6.05                             131   -0.25 9  145 260 
 PTB  HZ I         239  8.85         2.2 0.38            132            145 260 
 SPBC HZ EP        238 47.43                             128    0.14 9  159 219 
 SPBC HN ES        239  8.97                             128    0.12 9  159 219 
 SPBC HZ I         239 16.48         6.3 0.24            129            159 219 
 OCA  HZ EP        238 47.25                             128   -0.59 9  164 354 
 OCA  HN ES        239 10.59                             128    0.77 9  164 354 
 OCA  HZ I         239 11.83        10.7 0.26            132            164 354 
 YPLC HZ EP        238 49.00                             126    0.15 9  175 150 
 YPLC HN ES        239 11.30                             126   -0.32 9  175 150 
 YPLC HZ I         239 13.80         5.8 0.26            127            175 150 
 ZAR  HZ EP        238 51.86                             121    0.23 9  203 293 
 ZAR  HN ES        239 16.59                             121    0.03 9  203 293 
 ZAR  HZ I         239 20.17         2.5 0.32            123            203 293 
 CHI  HZ EP        238 56.72                             116    0.14 8  244 195 
 CHI  HE ES   4    239 26.71                             116    1.32 0  244 195 
 CHI  HZ I         239 35.96         1.8 0.40            117            244 195 
 ROSC BZ EP   4    238 59.10                             116    2.12 0  248 211 
 ROSC BN ES   4    239 29.55                             116    3.46 0  248 211 
 ROSC BZ I         239 33.42         3.5 0.35            117            248 211 
 GUY2CHZ EP        239  3.50                             111    0.97 7  297 235 
 GUY2CHN ES   4    239 40.79                             111    4.83 0  297 235 
 GUY2CHZ I         239 44.77         2.0 0.34                           297 235 
 DRL02HZ EP   4    239  3.68                             109   -1.84 0  328 358 
 DRL02HN ES   4    239 39.63                             109   -1.66 0  328 358 
 PRA  HZ EP        239 12.44                             106   -0.02 6  388 209 
 PRA  HN ES        239 54.56                             106    0.91 6  388 209 
 PRA  HZ I         240  1.01         2.2 0.40            107            388 209 
                                                                                
