 2013  911 0137 58.1 L   6.779 -73.197157.7  RSN  4 0.3 1.6LRSN                1
 GAP=196        0.66       4.2     6.0  6.9  0.1033E+02 -0.1311E+02 -0.7790E+01E
 Epicentro: ZAPATOCA - SANTANDER                                               3
 ACTION:UPD 13-10-22 09:21 OP:ep   STATUS:               ID:20130911013758 L   I
 OLDACT:UP  13-09-11 09:05 OP:cam  STATUS:               ID:20130911012959     3
 OLDACT:REG 13-09-11 07:39 OP:cam  STATUS:               ID:20130911012959     3
 2013-09-11-0129-59M.COL___269                                                 6
 STAT SP IPHASW D HRMM SECON CODA AMPLIT PERI AZIMU VELO AIN AR TRES W  DIS CAZ7
 BRR  HZ EP        138 20.44                             156    0.0810 67.5 303 
 BRR  HE ES        138 38.05                             156    0.3210 67.5 303 
 BRR  HZ I         138 41.32         6.7 0.38            154           67.5 303 
 RUS  HZ EP        138 23.03                             147    0.1010 98.9 173 
 RUS  HN ES   1    138 41.89                             147   -0.40 7 98.9 173 
 RUS  HZ I         138 44.00         4.2 0.38            148           98.9 173 
 PTB  HZ EP   1    138 25.69                             136    0.14 7  142 259 
 PTB  HN ES        138 46.76                             136   -0.21 9  142 259 
 PTB  HZ I         138 52.43         8.9 0.26            135            142 259 
 SML  HZ EP   1    138 35.64                             120    0.24 6  244 337 
 SML  HE ES   1    139  3.81                             120   -0.69 6  244 337 
                                                                                
