 2013  511 0723 19.0 L   6.785 -73.176146.0  RSN  7 0.4 1.5LRSN                1
 GAP=133        0.84       3.7     5.4  6.7  0.3037E-02  0.1095E+02  0.3506E+01E
 Epicentro: LOS SANTOS - SANTANDER                                             3
 ACTION:UPD 13-06-20 09:49 OP:ep   STATUS:               ID:20130511072319 L   I
 2013-05-11-0720-00M.COL___256                                                 6
 STAT SP IPHASW D HRMM SECON CODA AMPLIT PERI AZIMU VELO AIN AR TRES W  DIS CAZ7
 BAR2 SZ EP        723 38.32                             171   -0.3010 21.3 182 
 BAR2 SZ ES   1    723 53.71                             171   -0.21 7 21.3 182 
 BAR2 SZ I         723 54.53        10.8 0.22            172           21.3 182 
 BRR  HZ EP   1    723 40.43                             153    0.37 7 69.1 301 
 BRR  HN ES   1    723 57.41                             153    0.93 7 69.1 301 
 BRR  HZ I         724  1.98         4.6 0.40            152           69.1 301 
 PAM  SZ EP   1    723 41.68                             150    0.23 7 80.8  41 
 PAM  SN ES   1    723 58.73                             150   -0.22 7 80.8  41 
 PAM  SZ I         724  0.62         5.5 0.48            154           80.8  41 
 RUS  HZ EP   1    723 42.51                             144   -0.17 7 99.2 174 
 RUS  HN ES   1    724  1.43                             144    0.28 7 99.2 174 
 RUS  HZ I         724  2.05         4.3 0.28            148           99.2 174 
 PTB  HZ EP        723 45.33                             133   -0.33 9  144 259 
 PTB  HN ES   1    724  6.06                             133   -0.40 7  144 259 
 PTB  HZ I         724 10.46         5.0 0.14            134            144 259 
 SML  HN ES        724 24.08                             118   -0.16 8  244 336 
 PRA  HZ EP        724 12.99                             107    0.82 6  389 209 
 PRA  HN ES        724 53.45                             107   -0.19 6  389 209 
                                                                                
