 2011 1211 0200 10.3 L   6.038 -73.721100.8  RSN  5 0.3 1.7LRSN                1
 GAP=145        0.64       4.7     4.1  8.8 -0.9667E+01  0.1762E+02 -0.1369E+02E
 Epicentro: BOLIVAR - SANTANDER                                                3
 ACTION:UPD 12-07-13 16:15 OP:ep   STATUS:               ID:20111211020010 L   I
 2011-12-11-0200-00M.COL___186                                                 6
 STAT SP IPHASW D HRMM SECON CODA AMPLIT PERI AZIMU VELO AIN AR TRES W  DIS CAZ7
 RUS  HZ EP   1    2 0 27.82                             142    0.22 7 72.4 103 
 RUS  HZ I         2 0 39.14         9.1 0.79                          72.4 103 
 RUS  HE ES   1    2 0 40.61                             142   -0.50 7 72.4 103 
 BAR2 SZ EP        2 0 28.42                             137    0.1210 85.5  44 
 BAR2 SZ ES   1    2 0 42.89                             137    0.55 7 85.5  44 
 BAR2 SZ I         2 0 44.38        18.6 0.37                          85.5  44 
 BRR  HZ EP   1    2 0 30.64                             126   -0.35 7  118   0 
 BRR  HN ES   2    2 0 46.84                             126   -0.29 5  118   0 
 GIR2 SZ EP        2 0 32.13                             123   -0.1310  129  27 
 NOR  SZ EP   1    2 0 33.20                             121    0.18 7  138 248 
 NOR  SN ES   1    2 0 50.75                             121    0.01 7  138 248 
                                                                                
