 2015  111 0427 16.4 L   6.806 -73.164146.6  RSN  9 0.5 1.9LRSN                1
 GAP= 70        1.28       4.2     4.0  7.3  0.2443E+00  0.2737E+01 -0.1118E+01E
 Epicentro: LOS SANTOS - SANTANDER                                             3
 ACTION:UPD 15-03-02 15:38 OP:nd   STATUS:               ID:20150111042716 L   I
 OLDACT:DUP 15-01-11 16:14 OP:cam  STATUS:               ID:20150111041817d    3
 2015-01-11-0418-16M.COL___253                                                 6
 STAT SP IPHASW D HRMM SECON CODA AMPLIT PERI AZIMU VELO AIN AR TRES W  DIS CAZ7
 BAR2 EZ IP     D  427 36.32                             170    0.1810 23.7 185 
 BAR2 EZ ES        427 51.19                             170   -0.3410 23.7 185 
 BAR2 EZ I         427 54.75        15.3 0.22            171           23.7 185 
 BRR  HZ IP     D  427 38.19                             153    0.6610 69.1 299 
 BRR  HN ES        427 54.04                             153    0.0410 69.1 299 
 BRR  HZ I         427 57.28         9.0 0.22            153           69.1 299 
 PAM  SZ EP        427 38.33                             151   -0.4310 78.2  41 
 PAM  SN ES        427 56.32                             151    0.1310 78.2  41 
 PAM  SZ I         427 58.99        10.3 0.20            153           78.2  41 
 RUS  HZ EP        427 40.74                             144    0.4410  101 175 
 RUS  HN ES        427 59.15                             144    0.2210  101 175 
 RUS  HZ I         427 59.93        10.0 0.32            146            101 175 
 PTB  HZ EP        427 41.67                             133   -1.60 9  146 258 
 PTB  HN ES        428  4.26                             133    0.03 9  146 258 
 PTB  HZ I         428  6.73        12.1 0.12            134            146 258 
 TAM  HZ EP        427 44.14                             130   -0.21 9  157 105 
 TAM  HZ I         427 44.81        12.3 0.20            134            157 105 
 TAM  HE ES        428  6.27                             130    0.13 9  157 105 
 OCA  HZ EP        427 44.88                             130    0.18 9  159 354 
 OCA  HN ES        428  6.35                             130   -0.41 9  159 354 
 SPBC HZ EP        427 45.25                             129    0.35 9  162 218 
 SPBC HN ES        428  6.83                             129   -0.29 9  162 218 
 SPBC HZ I         428 10.22        14.0 0.24            131            162 218 
 ZAR  HZ EP        427 49.01                             123    0.32 9  202 292 
 ZAR  HN ES        428 14.45                             123    0.59 9  202 292 
 ZAR  HZ I         428 20.45         8.5 0.32            124            202 292 
                                                                                
