 2017 1111 0524 20.8 L   6.769 -73.175134.0  RSN 10 0.4 1.5LRSN                1
 GAP=110        0.97       3.9     3.4  8.2 -0.7973E+00  0.5148E+01  0.1152E+02E
 Epicentro: LOS SANTOS - SANTANDER                                             3
 ACTION:UPD 17-12-12 19:54 OP:rebc STATUS:               ID:20171111052420 L   I
 OLDACT:UP  17-11-11 16:37 OP:dnl  STATUS:               ID:20171111051744d    3
 OLDACT:UP  17-11-11 16:36 OP:dnl  STATUS:               ID:20171111051744d    3
 OLDACT:UP  17-11-11 16:35 OP:dnl  STATUS:               ID:20171111051744d    3
 OLDACT:UP  17-11-11 16:35 OP:dnl  STATUS:               ID:20171111051744d    3
 OLDACT:DUP 17-11-11 16:17 OP:dnl  STATUS:               ID:20171111051744d    3
 OLDACT:UP  17-11-11 16:16 OP:dnl  STATUS:               ID:20171111051743     3
 OLDACT:UP  17-11-11 16:14 OP:dnl  STATUS:               ID:20171111051743     3
 OLDACT:UP  17-11-11 16:14 OP:dnl  STATUS:               ID:20171111051743     3
 OLDACT:UP  17-11-11 16:13 OP:dnl  STATUS:               ID:20171111051743     3
 OLDACT:UP  17-11-11 16:12 OP:dnl  STATUS:               ID:20171111051743     3
 OLDACT:REG 17-11-11 14:19 OP:dnl  STATUS:               ID:20171111051743     3
 2017-11-11-0518-00M.COL___444                                                 6
 STAT SP IPHASW D HRMM SECON CODA AMPLIT PERI AZIMU VELO AIN AR TRES W  DIS CAZ7
 BAR2 EZ IP     C  524 39.01                             171    0.0310 19.6 182 
 BAR2 EZ I         524 55.82         4.3 0.52            172           19.6 182 
 BRR  HZ IP     C  524 40.92                             151    0.2510 70.1 302 
 BRR  HE ES        524 56.73                             151    0.6010 70.1 302 
 BRR  HZ I         525  2.27         7.8 0.12            151           70.1 302 
 PAM  EZ EP        524 42.06                             147   -0.0610 82.1  40 
 PAM  EN ES        524 58.63                             147   -0.0910 82.1  40 
 PAM  EZ I         525  0.96         9.7 0.48            148           82.1  40 
 PTB  HZ EP        524 45.78                             130   -0.74 9  144 260 
 PTB  HN ES        525  5.70                             130   -0.84 9  144 260 
 PTB  HZ I         525  9.25         4.1 0.26            131            144 260 
 SPBC HZ EP        524 47.94                             127   -0.06 9  158 219 
 SPBC HN ES        525  9.03                             127   -0.16 9  158 219 
 SPBC HZ I         525 12.15         4.2 0.38            128            158 219 
 YPLC HZ EP   2    524 49.17                             124   -0.50 4  175 150 
 YPLC HN ES        525 12.27                             124    0.12 9  175 150 
 YPLC HZ I         525 15.61         5.7 0.30            126            175 150 
 ZAR  HZ EP   2    524 52.48                             120    0.11 4  202 293 
 ZAR  HE ES        525 16.94                             120   -0.02 9  202 293 
 ZAR  HZ I         525 22.77         5.1 0.60            121            202 293 
 NOR  HZ EP   2    524 55.88                             117    0.47 4  230 235 
 NOR  HE ES        525 22.87                             117    0.50 8  230 235 
 NOR  HZ I         525 28.56         2.0 0.30            117            230 235 
 URE  HZ EP   2    525  1.88                             111    0.71 4  282 293 
 URE  HN ES   4    525 31.18                             111   -1.45 0  282 293 
 URE  HZ I         525 40.63         3.1 0.20            112            282 293 
 GUY2CHZ EP   4    525  5.59                             110    2.19 0  297 235 
 GUY2CHE ES        525 37.26                             110    0.66 7  297 235 
 GUY2CHZ I         525 46.45         1.2 0.54                           297 235 
                                                                                
