 2011  711 0752 35.8 L   6.741 -73.139151.8  RSN  6 0.3 1.8LRSN                1
 GAP=157        0.60       3.3     7.0  5.9 -0.5565E+01 -0.7174E+01 -0.1281E+01E
 Epicentro: JORDAN - SANTANDER                                                 3
 ACTION:UPD 12-07-25 13:59 OP:epov STATUS:               ID:20110711075235 L   I
 2011-07-11-0750-28S.COL___140                                                 6
 STAT SP IPHASW D HRMM SECON CODA AMPLIT PERI AZIMU VELO AIN AR TRES W  DIS CAZ7
 BAR2 SZ EP   1    752 55.83                             173   -0.24 7 17.1 196 
 BAR2 SZ ES   1    753 11.47                             173   -0.39 7 17.1 196 
 BAR2 SZ I         753 12.13        10.7 0.36                          17.1 196 
 BTL  SZ EP   1    752 56.17                             170   -0.03 7 24.3 324 
 BRR  HZ EP   1    752 57.72                             152   -0.13 7 75.2 303 
 BRR  HZ I         752 58.02        24.2 0.16                          75.2 303 
 BRR  HE ES   1    753 15.25                             152    0.22 7 75.2 303 
 RUS  HZ EP   1    752 59.71                             147   -0.01 7 94.0 176 
 RUS  HZ I         753 18.48         6.8 0.53                          94.0 176 
 RUS  HN ES   1    753 18.72                             147    0.37 7 94.0 176 
 BRI  SZ EP   1    753  0.35                             141   -0.38 7  114  19 
 BRI  SZ ES   1    753 20.33                             141    0.17 7  114  19 
 GRA  SZ EP   1    753  2.66                             137    0.55 7  132  16 
 GRA  SZ ES   1    753 22.51                             137   -0.09 7  132  16 
 GRA  SZ I         753 23.31         5.2 0.29                           132  16 
                                                                                
