 2012  611 0123  7.3 L   6.885 -73.332123.7  RSN  4 0.3 1.3LRSN                1
 GAP=221        0.52       6.8     4.4  8.9  0.1320E+02  0.7917E+01 -0.1645E+02E
 Epicentro: BETULIA - SANTANDER                                                3
 ACTION:UPD 12-08-06 17:48 OP:ep   STATUS:               ID:20120611012307 L   I
 2012-06-11-0120-00M.COL___201                                                 6
 STAT SP IPHASW D HRMM SECON CODA AMPLIT PERI AZIMU VELO AIN AR TRES W  DIS CAZ7
 BAR2 SZ EP        123 24.86                             162    0.2410 36.4 153 
 BAR2 SZ I         123 25.19        15.7 0.10            161           36.4 153 
 BAR2 SZ ES   1    123 37.96                             162   -0.21 7 36.4 153 
 RUS  HE ES   1    123 47.49                             135   -0.16 7  113 166 
 RUS  HZ I         123 48.45         2.5 0.22            133            113 166 
 PTB  HZ EP   2    123 30.39                             130   -0.42 5  130 253 
 PTB  HN ES   1    123 49.43                             130    0.24 7  130 253 
 PTB  HZ I         123 52.52         2.1 0.14            127            130 253 
 ZAR  HN ES   2    123 58.03                             120   -0.28 4  181 292 
                                                                                
