 2012  811 0726 51.0 L   6.793 -73.118142.0  RSN  7 0.4 2.0LRSN                1
 GAP=186        0.88       5.2     6.7  8.1  0.4643E+01  0.1834E+02 -0.4628E+01E
 Epicentro: LOS SANTOS - SANTANDER                                             3
 ACTION:UPD 12-09-10 11:55 OP:ep   STATUS:               ID:20120811072651 L   I
 2012-08-11-0720-00M.COL___218                                                 6
 STAT SP IPHASW D HRMM SECON CODA AMPLIT PERI AZIMU VELO AIN AR TRES W  DIS CAZ7
 BAR2 SZ EP   1    727 10.34                             170    0.20 7 23.4 198 
 BAR2 SZ ES   1    727 24.87                             170   -0.23 7 23.4 198 
 BAR2 SZ I         727 26.05        18.8 0.18                          23.4 198 
 GIR2 SZ EP   1    727 10.42                             166    0.20 7 32.7 345 
 GIR2 SZ ES   1    727 25.12                             166   -0.13 7 32.7 345 
 BRR  HZ EP   1    727 12.25                             151    0.37 7 74.3 298 
 BRR  HN ES   1    727 29.00                             151    0.80 7 74.3 298 
 BRR  HZ I         727 33.77        22.6 0.18                          74.3 298 
 RUS  HN ES   1    727 32.48                             143    0.02 7 99.7 178 
 PTB  HZ EP   1    727 17.48                             131   -0.41 7  151 259 
 PTB  HN ES   1    727 38.10                             131   -0.80 7  151 259 
 OCA  HN ES   1    727 40.30                             128   -0.73 7  161 352 
 ZAR  HZ EP   1    727 23.65                             121    0.16 6  207 292 
 ZAR  HE ES   1    727 49.29                             121    0.43 6  207 292 
 ZAR  HZ I         727 54.15         7.6 0.25                           207 292 
                                                                                
