 2014 1111 0347 48.1 L   6.769 -73.211150.2  RSN  5 0.2 1.0LRSN                1
 GAP=129        0.55       3.6     3.5  5.5  0.2881E+01 -0.4856E+01 -0.3224E+01E
 Epicentro: ZAPATOCA - SANTANDER                                               3
 ACTION:UPD 14-12-19 15:41 OP:nd   STATUS:               ID:20141111034748 L   I
 OLDACT:ARG 14-11-11 12:37 OP:stll STATUS:               ID:20141111033741     3
 2014-11-11-0337-41M.COL___302                                                 6
 STAT SP IPHASW D HRMM SECON CODA AMPLIT PERI AZIMU VELO AIN AR TRES W  DIS CAZ7
 BAR2 SZ EP        348  7.98                             172   -0.2410 19.8 171 
 BRR  HZ EP        348  9.87                             155    0.3610 66.8 304 
 BRR  HN ES        348 26.28                             155    0.0810 66.8 304 
 PAM  SZ I         348 10.96         3.8 0.24            155           84.7  42 
 PAM  SZ EP        348 11.06                             149   -0.1910 84.7  42 
 RUS  HZ EP        348 12.24                             145    0.1110 98.0 172 
 RUS  HN ES        348 30.91                             145    0.0610 98.0 172 
 RUS  HZ I         348 31.26         0.9 0.28            120           98.0 172 
 PTB  HZ EP        348 14.78                             135    0.01 9  140 260 
 PTB  HZ I         348 18.02         0.9 0.26            111            140 260 
 PTB  HN ES        348 35.34                             135   -0.21 9  140 260 
                                                                                
