 2013  111 0845 37.7 L   6.771 -73.168147.4  RSN  5 0.3 1.6LRSN                1
 GAP=233        0.78       5.4     6.1  6.0  0.1462E+02  0.6779E+01  0.1129E+02E
 Epicentro: LOS SANTOS - SANTANDER                                             3
 ACTION:UPD 13-02-15 09:13 OP:ep   STATUS:               ID:20130111084537 L   I
 2013-01-11-0840-00M.COL___242                                                 6
 STAT SP IPHASW D HRMM SECON CODA AMPLIT PERI AZIMU VELO AIN AR TRES W  DIS CAZ7
 BAR2 SZ ES        846 12.51                             172   -0.3710 19.8 185 
 BAR2 SZ I         846 13.19         9.0 0.34            165           19.8 185 
 BRR  HZ EP        845 59.02                             153    0.0210 70.7 302 
 BRR  HN ES        846 16.11                             153    0.5010 70.7 302 
 BRR  HN I         846 16.79        17.7 0.22            151           70.7 302 
 RUS  HZ EP        846  1.59                             145    0.1910 97.6 174 
 RUS  HN ES   1    846 19.74                             145   -0.14 7 97.6 174 
 RUS  HN I         846 21.43         4.3 0.34            142           97.6 174 
 PTB  HZ EP        846  4.03                             133   -0.50 9  145 260 
 PTB  HN ES        846 25.37                             133   -0.09 9  145 260 
 PTB  HN I         846 30.08         5.3 0.60            130            145 260 
 CHI  HZ EP        846 15.27                             118    0.19 8  245 195 
 CHI  HN ES   1    846 44.62                             118    0.38 6  245 195 
 CHI  HN I         846 48.68         2.3 0.56            117            245 195 
                                                                                
