 2013  811 0224 37.5 L   6.851 -73.137147.4  RSN 12 0.5 1.9LRSN                1
 GAP=135        1.06       3.5     4.6  6.3 -0.1495E+01  0.7484E+01  0.3790E+01E
 Epicentro: LOS SANTOS - SANTANDER                                             3
 ACTION:UPD 14-01-14 09:00 OP:ep   STATUS:               ID:20130811022437 L   I
 OLDACT:REG 13-08-11 07:27 OP:jn   STATUS:               ID:20130811021959     3
 2013-08-11-0219-59M.COL___270                                                 6
 STAT SP IPHASW D HRMM SECON CODA AMPLIT PERI AZIMU VELO AIN AR TRES W  DIS CAZ7
 BAR2 SZ EP        224 57.50                             168    0.0310 29.0 190 
 BAR2 SZ ES        225 12.44                             168   -0.5910 29.0 190 
 BAR2 SZ I         225 14.66        12.3 0.20            167           29.0 190 
 BRR  HZ EP        224 59.20                             153    0.4510 69.6 294 
 BRR  HE ES        225 15.90                             153    0.5910 69.6 294 
 BRR  HZ I         225 19.47        12.7 0.14            138           69.6 294 
 PAM  SZ EP        225  0.15                             153    0.5210 72.5  42 
 PAM  SN ES        225 16.75                             153   -0.1210 72.5  42 
 PAM  SZ I         225 19.00        20.9 0.42            138           72.5  42 
 RUS  HZ EP        225  1.66                             143   -0.1710  106 177 
 RUS  HN ES   1    225 21.18                             143    0.39 7  106 177 
 RUS  HZ I         225 22.81         3.1 0.48            132            106 177 
 PTB  HZ EP        225  4.03                             132   -0.78 9  150 257 
 PTB  HN ES   1    225 25.44                             132   -0.65 7  150 257 
 PTB  HZ I         225 31.15        11.9 0.38            118            150 257 
 OCA  HN ES   1    225 26.47                             131   -0.77 7  155 353 
 OCA  HZ I         225 34.40         7.5 0.36            116            155 353 
 SPBC HZ EP   1    225  6.86                             128    0.25 7  168 218 
 SPBC HE ES   1    225 30.24                             128    0.93 7  168 218 
 SPBC HZ I         225 36.08        12.9 0.40            116            168 218 
 ZAR  HN ES   1    225 35.63                             123    0.38 6  203 291 
 ZAR  HZ I         225 42.07        12.7 0.30            110            203 291 
 SML  HZ EP   1    225 13.36                             118   -0.37 6  239 335 
 SML  HN ES   1    225 42.07                             118    0.09 6  239 335 
 SML  HZ I         225 52.21         9.9 0.24            106            239 335 
 NOR  HZ EP   1    225 13.95                             118    0.17 6  239 234 
 NOR  HN ES   1    225 41.25                             118   -0.81 6  239 234 
 NOR  HZ I         225 49.54         6.8 0.16            108            239 234 
 CHI  HZ EP        225 16.05                             117    0.13 8  254 195 
 CHI  HN ES        225 45.61                             117   -0.26 8  254 195 
 CHI  HZ I         225 52.51         2.9 0.54            107            254 195 
 HEL  HZ EP   1    225 17.94                             115   -0.13 6  274 255 
 HEL  HN ES   1    225 50.27                             115    0.57 6  274 255 
 HEL  HZ I         225 56.44         6.2 0.30            105            274 255 
                                                                                
