 2014 1211 0149 49.0 L   6.764 -73.153151.3  RSN  5 0.6 1.4LRSN                1
 GAP=234        1.52       8.8     9.8 12.1  0.1253E+02  0.1284E+02  0.1550E+02E
 Epicentro: LOS SANTOS - SANTANDER                                             3
 ACTION:UPD 15-02-10 17:02 OP:nd   STATUS:               ID:20141211014949 L   I
 OLDACT:REG 14-12-11 12:45 OP:fm   STATUS:               ID:20141211014749     3
 2014-12-11-0147-49M.COL___297                                                 6
 STAT SP IPHASW D HRMM SECON CODA AMPLIT PERI AZIMU VELO AIN AR TRES W  DIS CAZ7
 BRR  HZ EP        150 10.06                             153   -0.7410 72.5 302 
 BRR  HN ES        150 28.39                             153    0.5710 72.5 302 
 BRR  HZ I         150 31.45         5.2 0.44            153           72.5 302 
 RUS  HZ EP        150 13.90                             146    0.8910 96.7 175 
 RUS  HN ES        150 31.02                             146   -0.7410 96.7 175 
 RUS  HZ I         150 34.54         1.0 0.54            148           96.7 175 
 PTB  HZ EP        150 16.65                             133    0.38 9  146 260 
 PTB  HN ES        150 36.99                             133   -0.57 9  146 260 
 PTB  HZ I         150 43.42         2.5 0.16            135            146 260 
 SPBC HZ EP        150 17.15                             131   -0.43 9  160 220 
 SPBC HN ES        150 40.66                             131    0.77 9  160 220 
 SPBC HZ I         150 46.44         5.2 0.12            133            160 220 
 GUY2CHZ EP        150 32.40                             114   -0.12 7  298 235 
 GUY2CHN ES        151  6.40                             114   -0.09 7  298 235 
 GUY2CHZ I         151 16.47         1.8 0.76                           298 235 
                                                                                
