 2013  211 0618  5.0 L   6.789 -73.168144.0  RSN  6 0.3 1.2LRSN                1
 GAP=134        0.78       4.0     4.8  6.7 -0.1602E+01  0.3650E+01  0.1269E+01E
 Epicentro: LOS SANTOS - SANTANDER                                             3
 ACTION:UPD 13-03-12 09:32 OP:ep   STATUS:               ID:20130211061805 L   I
 2013-02-11-0610-00M.COL___241                                                 6
 STAT SP IPHASW D HRMM SECON CODA AMPLIT PERI AZIMU VELO AIN AR TRES W  DIS CAZ7
 BAR2 SZ EP        618 24.44                             171    0.0110 21.8 184 
 BAR2 SZ ES   1    618 39.05                             171   -0.50 7 21.8 184 
 BRR  HZ IP     C  618 26.26                             153    0.3410 69.7 300 
 BRR  HN ES   1    618 42.90                             153    0.71 7 69.7 300 
 BRR  HZ I         618 46.40         4.0 0.46            155           69.7 300 
 PAM  SZ EP        618 27.34                             150    0.1110 79.9  40 
 PAM  SN ES   1    618 44.19                             150   -0.33 7 79.9  40 
 PAM  SZ I         618 47.40         2.2 0.38            156           79.9  40 
 RUS  HZ IP     D  618 28.59                             144    0.0410 99.5 175 
 RUS  HN ES   1    618 47.17                             144    0.29 7 99.5 175 
 RUS  HZ I         618 52.58         0.9 0.62            148           99.5 175 
 PTB  HZ EP        618 31.23                             132   -0.40 9  145 259 
 PTB  HN ES   1    618 52.02                             132   -0.34 7  145 259 
 PTB  HZ I         618 57.17         3.0 0.12            136            145 259 
 OCA  HE ES   1    618 55.17                             129   -0.18 7  161 354 
 OCA  HZ I         618 58.83         2.9 0.46            135            161 354 
                                                                                
