 2017  911 0829 10.3 L   7.329 -73.313113.2  RSN 23 0.6 2.1LRSN                1
 GAP= 88        0.94       3.5     3.1  4.7  0.1405E+01  0.2365E+01 -0.3008E+00E
 Epicentro: RIONEGRO - SANTANDER                                               3
 ACTION:UPD 17-10-05 19:11 OP:rebc STATUS:               ID:20170911082910 L   I
 OLDACT:UP  17-09-11 18:04 OP:and  STATUS:               ID:20170911082740     3
 OLDACT:UP  17-09-11 18:02 OP:and  STATUS:               ID:20170911082740     3
 OLDACT:UP  17-09-11 18:01 OP:and  STATUS:               ID:20170911082740     3
 OLDACT:UP  17-09-11 18:01 OP:and  STATUS:               ID:20170911082740     3
 OLDACT:UP  17-09-11 18:00 OP:and  STATUS:               ID:20170911082740     3
 OLDACT:UP  17-09-11 18:00 OP:and  STATUS:               ID:20170911082740     3
 OLDACT:UP  17-09-11 17:59 OP:and  STATUS:               ID:20170911082740     3
 OLDACT:UP  17-09-11 17:47 OP:and  STATUS:               ID:20170911082740     3
 OLDACT:UP  17-09-11 17:47 OP:and  STATUS:               ID:20170911082740     3
 OLDACT:UP  17-09-11 17:46 OP:and  STATUS:               ID:20170911082740     3
 OLDACT:UP  17-09-11 17:46 OP:and  STATUS:               ID:20170911082740     3
 OLDACT:UP  17-09-11 17:45 OP:and  STATUS:               ID:20170911082740     3
 OLDACT:UP  17-09-11 17:45 OP:and  STATUS:               ID:20170911082740     3
 OLDACT:UP  17-09-11 17:42 OP:and  STATUS:               ID:20170911082740     3
 OLDACT:UP  17-09-11 17:41 OP:and  STATUS:               ID:20170911082740     3
 OLDACT:UP  17-09-11 17:41 OP:and  STATUS:               ID:20170911082740     3
 OLDACT:REG 17-09-11 13:41 OP:mg   STATUS:               ID:20170911082740     3
 2017-09-11-0828-00M.COL___412                                                 6
 STAT SP IPHASW D HRMM SECON CODA AMPLIT PERI AZIMU VELO AIN AR TRES W  DIS CAZ7
 BRR  HZ IP     D  829 26.22                             154   -0.5210 50.4 241 
 BRR  HN ES        829 39.31                             154   -0.2710 50.4 241 
 BRR  HZ I         829 40.45        39.3 0.14            144           50.4 241 
 PAM  EZ IP     C  829 28.81                             147    0.3310 67.7  89 
 PAM  EN ES        829 43.07                             147    0.3910 67.7  89 
 PAM  EZ I         829 44.39        43.6 0.20            147           67.7  89 
 BAR2 EZ IP     D  829 29.09                             141   -0.1110 82.8 170 
 BAR2 EZ ES        829 43.92                             141   -0.0310 82.8 170 
 BAR2 EZ I         829 45.63        48.4 0.36            133           82.8 170 
 RUS  HZ EP        829 36.96                             121    0.17 9  161 171 
 RUS  HN ES        829 56.95                             121   -0.52 9  161 171 
 RUS  HZ I         830  0.06         6.4 0.23            116            161 171 
 ZAR  HZ IP     C  829 36.84                             119   -0.44 9  172 276 
 ZAR  HN ES        829 58.93                             119    0.58 9  172 276 
 ZAR  HZ I         830  1.60        20.5 0.06            114            172 276 
 TAM  HZ IP     D  829 40.10                             115    0.21 9  195 120 
 SPBC HZ EP        829 40.90                             114    0.01 9  204 204 
 SPBC HN ES   3    830  6.15                             114    1.39 2  204 204 
 SPBC HZ I         830  9.93        16.2 0.20            110            204 204 
 URE  HZ EP   9    829 44.69                             109   -1.30 0  249 281 
 URE  HN ES        830 11.97                             109   -0.57 8  249 281 
 URE  HZ I         830 21.10        13.4 0.16            107            249 281 
 NOR  HZ EP        829 47.41                             108    0.11 8  260 221 
 NOR  HN ES   2    830 15.89                             108   -0.28 4  260 221 
 NOR  HZ I         830 22.24        13.1 0.64            106            260 221 
 LL6C HZ EP   3    829 46.35                             108   -1.56 2  266   1 
 LL6C HE ES   3    830 19.31                             108    2.06 2  266   1 
 HEL  HZ EP   3    829 50.90                             107    1.45 2  275 243 
 HEL  HN ES   4    830 22.99                             107    2.99 0  275 243 
 HEL  HZ I         830 26.85         6.4 0.44            105            275 243 
 ROSC BZ EP        829 52.76                             105    0.76 7  297 202 
 ROSC BN ES   3    830 23.39                             105   -1.15 2  297 202 
 ROSC BZ I         830 36.18         6.3 0.30            104            297 202 
 ARGC HZ EP        829 51.04                             105   -0.59 7  298 340 
 ARGC HN ES   3    830 25.66                             105    1.78 2  298 340 
 ARGC HZ I         830 33.32         2.3 0.18            105            298 340 
 CHI  HZ EP   9    829 53.83                             105    1.20 0  302 189 
 CHI  HN ES        830 27.20                             105    0.34 7  302 189 
 CHI  HZ I         830 35.52         3.6 0.58            103            302 189 
 GUY2CHZ EP   3    829 56.70                             104    1.27 2  325 224 
 GUY2CHN ES   4    830 34.72                             104    4.07 0  325 224 
 GUY2CHZ I         830 39.67         6.3 0.62                           325 224 
 CBOC HZ EP        829 57.28                             103    0.51 7  340 242 
 CBOC HN ES   3    830 34.62                             103    1.59 2  340 242 
 SJC  HZ IP   4 D  829 55.96                             102   -1.97 0  350 324 
 SJC  HN ES   4    830 31.38                             102   -3.71 0  350 324 
 SJC  HZ I         830 32.40         3.3 0.40            102            350 324 
 VALLCHZ EP   4    829 56.07                             102   -1.95 0  352   1 
 VALLCHN ES   3    830 34.38                             102   -0.88 2  352   1 
 ELA  HZ EP   9    830  2.21                             102    2.85 0  358 220 
 ELA  HN ES        830 41.48                             100    0.99 6  358 220 
 ELA  HZ I         830 52.43         7.4 0.38            101            358 220 
 APAC HZ I         830 40.05         2.6 0.30            101            366 280 
 PTGC HZ EP        829 59.43                             101   -0.75 6  370 159 
 PTGC HN ES   3    830 37.63                             101   -1.47 2  370 159 
 PTGC HZ I         830 53.60         4.1 0.58            101            370 159 
 ORTC HZ EP   4    830 10.19                              98    2.19 0  435 210 
 ORTC HN ES   4    830 57.08                              98    4.07 0  435 210 
 ORTC HZ I         831  3.39         2.1 0.19             99            435 210 
 PRA  HZ EP   4    830 10.67                              98    2.49 0  436 204 
 PRA  HN ES   4    830 56.80                              98    3.46 0  436 204 
 PRA  HZ I         831  0.74         3.5 0.28             99            436 204 
                                                                                
