 2012  211 0514 38.7 L   6.423 -73.106144.0  RSN  4 0.4 1.4LRSN                1
 GAP=223        0.65      10.1     8.6 12.2  0.2625E+02  0.3653E+02  0.8200E+02E
 ACTION:UP  12-03-07 16:29 OP:epov STATUS:               ID:20120211051438 L   I
 2012-02-11-0510-00M.COL___188                                                 6
 STAT SP IPHASW D HRMM SECON CODA AMPLIT PERI AZIMU VELO AIN AR TRES W  DIS CAZ7
 BAR2 SZ EP        514 57.96                             171   -0.0910 20.5 336 
 BAR2 SZ ES   2    515 13.42                             171    0.26 5 20.5 336 
 BRR  HZ EP   3    515  0.26                             142   -1.34 2  101 319 
 BRR  HZ I         515  7.54         2.6 0.28                           101 319 
 PTB  HZ EP        515  6.06                             131    0.36 9  150 275 
 PTB  HN ES   2    515 26.21                             131   -0.57 5  150 275 
 CHI  HZ EP        515 12.06                             121   -0.11 8  210 199 
 CHI  HZ I         515 37.60         2.8 0.30                           210 199 
                                                                                
