 2013  411 0848 32.1 L   6.721 -73.212144.5  RSN  5 0.3 1.4LRSN                1
 GAP=164        0.90       6.2     6.0  7.1  0.1370E+02  0.1752E+01 -0.2496E+01E
 Epicentro: VILLANUEVA - SANTANDER                                             3
 ACTION:UPD 13-05-22 14:37 OP:EP   STATUS:               ID:20130411084832 L   I
 2013-04-11-0838-44M.COL___212                                                 6
 STAT SP IPHASW D HRMM SECON CODA AMPLIT PERI AZIMU VELO AIN AR TRES W  DIS CAZ7
 BAR2 SZ EP        848 51.29                             174   -0.1510 14.6 167 
 BAR2 SZ ES        849  6.24                             174   -0.2710 14.6 167 
 BAR2 SZ I         849  8.45         5.1 0.28            171           14.6 167 
 GIR2 SZ EP        848 51.39                             164   -0.4910 39.6   3 
 BRR  HZ EP        848 53.14                             153    0.1010 69.8 308 
 BRR  HN ES        849  9.95                             153    0.5810 69.8 308 
 BRR  HN I         849 10.27         9.1 0.22            153           69.8 308 
 RUS  HZ EP        848 55.53                             146    0.3510 92.7 171 
 RUS  HN ES        849 13.28                             146    0.1110 92.7 171 
 RUS  HN I         849 15.22         2.9 0.26            145           92.7 171 
 PTB  HZ EP     C  848 58.35                             134    0.16 9  139 262 
 PTB  HE ES        849 18.11                             134   -0.43 9  139 262 
 PTB  HN I         849 22.41         3.1 0.46            133            139 262 
                                                                                
