 2013  911 0347 41.2 L   6.685 -74.155 69.9  RSN  7 0.3 1.6LRSN                1
 GAP= 87        0.85       2.7     2.8  6.1 -0.1021E+01  0.1374E+00  0.1543E+01E
 Epicentro: PUERTO PARRA - SANTANDER                                           3
 ACTION:UPD 13-10-22 09:21 OP:ep   STATUS:               ID:20130911034741 L   I
 OLDACT:UP  13-09-11 09:50 OP:cam  STATUS:               ID:20130911033959     3
 OLDACT:UP  13-09-11 09:50 OP:cam  STATUS:               ID:20130911033959     3
 OLDACT:REG 13-09-11 07:50 OP:cam  STATUS:               ID:20130911033959     3
 2013-09-11-0339-59M.COL___269                                                 6
 STAT SP IPHASW D HRMM SECON CODA AMPLIT PERI AZIMU VELO AIN AR TRES W  DIS CAZ7
 PTB  HZ EP        347 51.61                             149   -0.5610 37.0 244 
 PTB  HN ES        348  0.58                             149   -0.1810 37.0 244 
 PTB  HZ I         348  1.91        22.4 0.28            130           37.0 244 
 BRR  HZ IP     D  347 54.36                             131   -0.2410 67.7  46 
 BRR  HN ES        348  5.68                             131    0.6010 67.7  46 
 BRR  HZ I         348  9.55         9.1 0.14            116           67.7  46 
 BAR2 SZ EP        347 58.91                             117   -0.1610  108  95 
 BAR2 SZ ES   1    348 12.76                             117   -0.27 7  108  95 
 SPBC HZ EP        347 59.60                             115   -0.0010  115 175 
 SPBC HE ES        348 14.23                             115    0.2510  115 175 
 SPBC HZ I         348 17.32         9.0 0.22            100            115 175 
 ZAR  HZ EP        347 59.74                             114   -0.1810  118 319 
 ZAR  HN ES   1    348 14.84                             114    0.29 7  118 319 
 ZAR  HZ I         348 15.99        15.3 0.54             99            118 319 
 NOR  HN ES   1    348 21.02                             109    0.49 7  147 213 
 NOR  HZ I         348 23.99         7.5 0.16             96            147 213 
 HEL  HZ EP        348  5.63                             107    0.26 9  161 250 
 HEL  HZ I         348 26.78         4.7 0.50             95            161 250 
                                                                                
