 2012  711 0115 18.0 L   6.789 -73.143144.1  RSN 10 0.5 2.2LRSN                1
 GAP= 72        1.23       5.2     4.8  8.3  0.7927E+00  0.4678E+01 -0.7981E+00E
 Epicentro: LOS SANTOS - SANTANDER                                             3
 ACTION:UP  12-08-14 11:44 OP:ep   STATUS:               ID:20120711011518 L   I
 2012-07-11-0110-00M.COL___188                                                 6
 STAT SP IPHASW D HRMM SECON CODA AMPLIT PERI AZIMU VELO AIN AR TRES W  DIS CAZ7
 BAR2 SZ EP   1    115 37.19                             171    -0.3 7   22 191 
 BAR2 SZ ES   1    115 52.08                             171    -0.5 7   22 191 
 BAR2 SZ I         115 53.39        31.8 0.29            170             22 191 
 BRR  HZ EP        115 39.40                             152     0.310   72 299 
 BRR  HZ I         115 41.39        36.7 0.10            147             72 299 
 BRR  HN ES        115 56.40                             152     0.910   72 299 
 PAM  SZ EP   1    115 40.32                             150     0.2 7   78  39 
 PAM  SN ES        115 56.82                             150    -0.510   78  39 
 RUS  HZ EP   1    115 41.40                             144    -0.1 7   99 176 
 RUS  HN ES        116  0.12                             144     0.210   99 176 
 PTB  HZ EP   1    115 44.37                             132    -0.5 7  148 259 
 PTB  HN ES   1    116  5.16                             132    -0.7 7  148 259 
 PTB  HZ I         116  7.42        12.2 0.11            128            148 259 
 TAM  HZ IP     D  115 45.79                             130     0.3 9  154 105 
 TAM  HZ I         115 45.94        28.3 0.20            131            154 105 
 OCA  HZ EP   1    115 46.75                             129     0.4 7  162 353 
 OCA  HN ES   1    116  7.85                             129    -0.6 7  162 353 
 OCA  HZ I         116 11.27        27.6 0.43            127            162 353 
 ZAR  HZ EP   1    115 50.47                             122     0.0 6  205 292 
 ZAR  HN ES        116 15.88                             122     0.1 9  205 292 
 ZAR  HZ I         116 22.51        12.7 0.18            119            205 292 
 NOR  SN ES   2    116 21.68                             118     0.3 4  234 235 
 HEL  HE ES   1    116 28.60                             114    -0.9 6  272 256 
 HEL  HZ I         116 37.23         7.4 0.42            112            272 256 
