 2017  311 0246 15.3 L   6.803 -73.144151.9  RSN  5 0.4 1.0LRSN                1
 GAP=137        0.69       5.4     5.0  5.4 -0.5761E+01  0.4666E+01  0.2354E+01E
 Epicentro: LOS SANTOS - SANTANDER                                             3
 ACTION:UPD 17-05-25 18:39 OP:jn   STATUS:               ID:20170311024615 L   I
 OLDACT:UP  17-03-11 13:47 OP:and  STATUS:               ID:20170311023741     3
 OLDACT:UP  17-03-11 13:47 OP:and  STATUS:               ID:20170311023741     3
 OLDACT:UP  17-03-11 13:47 OP:and  STATUS:               ID:20170311023741     3
 OLDACT:REG 17-03-11 12:26 OP:and  STATUS:               ID:20170311023741     3
 2017-03-11-0238-00M.COL___406                                                 6
 STAT SP IPHASW D HRMM SECON CODA AMPLIT PERI AZIMU VELO AIN AR TRES W  DIS CAZ7
 BAR2 EZ EP        246 35.60                             171   -0.1210 23.7 190 
 BAR2 EZ ES        246 51.80                             171    0.1810 23.7 190 
 BAR2 EZ I         246 53.05         1.9 0.17            169           23.7 190 
 BRR  HZ EP        246 37.34                             154    0.1810 71.2 298 
 BRR  HN ES        246 54.39                             154    0.2110 71.2 298 
 PAM  EZ EP        246 38.31                             152    0.1210 76.9  40 
 PAM  EN ES        246 55.69                             152   -0.3210 76.9  40 
 RUS  HZ EP   2    246 40.57                             145    0.84 5  101 176 
 RUS  HN ES   2    246 58.37                             145   -0.38 5  101 176 
 RUS  HZ I         246 59.79         2.4 0.36            145            101 176 
 PTB  HZ EP        246 42.50                             133   -0.35 9  148 259 
 PTB  HN ES   3    247  3.31                             133   -0.99 2  148 259 
 PTB  HZ I         247  6.22         1.2 0.32            133            148 259 
                                                                                
