 2013  211 0602 20.6 L   6.776 -73.151147.7  RSN  4 0.4 1.0LRSN                1
 GAP=137        0.75       5.7     5.8  9.3  0.1209E+01  0.1331E+02  0.1026E+02E
 Epicentro: LOS SANTOS - SANTANDER                                             3
 ACTION:UPD 13-03-12 09:32 OP:ep   STATUS:               ID:20130211060220 L   I
 2013-02-11-0600-00M.COL___241                                                 6
 STAT SP IPHASW D HRMM SECON CODA AMPLIT PERI AZIMU VELO AIN AR TRES W  DIS CAZ7
 BRR  HZ IP     C  6 2 42.23                             152    0.2310 72.0 301 
 BRR  HE ES   1    6 2 59.20                             152    0.51 7 72.0 301 
 BRR  HZ I         6 3  3.89         1.7 0.14            152           72.0 301 
 PAM  SN ES   1    6 3  0.29                             150   -0.47 7 79.8  39 
 PAM  SZ I         6 3  2.25         2.5 0.54            156           79.8  39 
 RUS  HZ EP   1    6 2 44.63                             145    0.27 7 98.0 176 
 RUS  HN ES   1    6 3  2.86                             145   -0.02 7 98.0 176 
 RUS  HZ I         6 3  4.47         1.0 0.44            150           98.0 176 
 PTB  HZ EP   1 D  6 2 47.23                             133   -0.40 7  147 260 
 PTB  HN ES   1    6 3  8.29                             133   -0.42 7  147 260 
 PTB  HZ I         6 3 12.74         1.8 0.18            135            147 260 
                                                                                
