 2017  211 0753  8.5 L   6.802 -73.153139.1  RSN  5 0.3 1.1LRSN                1
 GAP=136        0.70       4.1     4.0  6.0 -0.4860E+01  0.8358E+01 -0.5137E+01E
 Epicentro: LOS SANTOS - SANTANDER                                             3
 ACTION:UPD 17-05-24 15:35 OP:jn   STATUS:               ID:20170211075308 L   I
 OLDACT:UP  17-02-11 17:21 OP:and  STATUS:               ID:20170211074745d    3
 OLDACT:DUP 17-02-11 17:18 OP:and  STATUS:               ID:20170211074745d    3
 OLDACT:DUP 17-02-11 17:13 OP:and  STATUS:               ID:20170211074744d    3
 OLDACT:UP  17-02-11 17:13 OP:and  STATUS:               ID:20170211074743     3
 OLDACT:REG 17-02-11 12:59 OP:and  STATUS:               ID:20170211074743     3
 2017-02-11-0748-00M.COL___346                                                 6
 STAT SP IPHASW D HRMM SECON CODA AMPLIT PERI AZIMU VELO AIN AR TRES W  DIS CAZ7
 BAR2 EZ EP        753 26.98                             170   -0.3410 23.4 188 
 BAR2 EZ ES        753 41.80                             170   -0.2110 23.4 188 
 BAR2 EZ I         753 43.09         3.2 0.20            171           23.4 188 
 BRR  HZ EP        753 28.96                             152    0.0810 70.4 299 
 BRR  HN ES   2    753 45.65                             152    0.87 5 70.4 299 
 PAM  EZ IP     C  753 29.96                             149   -0.0710 77.7  40 
 PAM  EN ES        753 46.82                             149    0.0010 77.7  40 
 PAM  EZ I         753 48.99         3.6 0.66            151           77.7  40 
 RUS  HZ EP   2    753 31.72                             142    0.11 5  101 176 
 RUS  HN ES        753 49.93                             142    0.2910  101 176 
 RUS  HZ I         753 51.14         1.4 0.48            144            101 176 
 PTB  HZ EP        753 35.20                             130    0.34 9  147 259 
 PTB  HN ES        753 55.09                             130   -0.33 9  147 259 
 PTB  HZ I         753 57.12         1.2 0.20            132            147 259 
                                                                                
