 2016  411 0724 21.3 L   6.799 -73.195139.2  RSN  8 0.3 1.5LRSN                1
 GAP=130        0.68       2.3     3.0  4.9 -0.1163E+01  0.4444E+01 -0.1226E+01E
 Epicentro: ZAPATOCA - SANTANDER                                               3
 ACTION:UPD 16-05-05 14:20 OP:rebc STATUS:               ID:20160411072421 L   I
 OLDACT:UP  16-04-11 18:20 OP:mh   STATUS:               ID:20160411071749     3
 OLDACT:REG 16-04-11 13:20 OP:mh   STATUS:               ID:20160411071749     3
 2016-04-11-0717-49M.COL___282                                                 6
 STAT SP IPHASW D HRMM SECON CODA AMPLIT PERI AZIMU VELO AIN AR TRES W  DIS CAZ7
 BAR2 EZ EP   1    724 40.72                             170    0.58 7 22.9 176 
 BAR2 EZ ES        724 54.47                             170   -0.3610 22.9 176 
 BAR2 EZ I         724 56.36         7.5 0.41            171           22.9 176 
 PAM  EZ EP        724 43.08                             148    0.0210 81.0  42 
 PAM  EN ES        725  0.29                             148    0.2610 81.0  42 
 RUS  HZ EP        724 44.45                             142   -0.0010  101 173 
 RUS  HN ES        725  2.64                             142    0.1310  101 173 
 RUS  HZ I         725  3.00         5.0 0.22            145            101 173 
 PTB  HZ EP        724 46.90                             132   -0.35 9  142 258 
 PTB  HN ES        725  7.70                             132    0.21 9  142 258 
 PTB  HZ I         725 10.12         3.0 0.10            131            142 258 
 SPBC HZ EP        724 48.97                             128   -0.01 9  160 217 
 SPBC HN ES   1    725 10.48                             128   -0.08 7  160 217 
 SPBC HZ I         725 12.96         5.4 0.46            129            160 217 
 OCA  HZ EP        724 49.11                             128    0.04 9  160 355 
 OCA  HN ES        725 10.30                             128   -0.42 9  160 355 
 OCA  HZ I         725 13.53         6.9 0.40            129            160 355 
 ZAR  HN ES        725 17.66                             122    0.28 9  199 293 
 ZAR  HZ I         725 24.95         2.6 0.31            122            199 293 
 CHI  HE ES   2    725 26.81                             116   -0.68 4  247 194 
                                                                                
