 2011 1011 0426 21.4 L   6.765 -73.191143.3  RSN  5 0.4 1.5LRSN                1
 GAP=132        0.89       6.1     6.2 10.9  0.6572E+01  0.1945E+01  0.1854E+01E
 Epicentro: VILLANUEVA - SANTANDER                                             3
 ACTION:UPD 12-07-13 16:03 OP:ep   STATUS:               ID:20111011042622dL   I
 2011-10-11-0420-00M.COL___171                                                 6
 STAT SP IPHASW D HRMM SECON CODA AMPLIT PERI AZIMU VELO AIN AR TRES W  DIS CAZ7
 BAR2 SZ EP   1    426 40.53                             172   -0.08 7 19.1 177 
 BRR  HZ EP   1    426 42.56                             153    0.45 7 68.9 303 
 BRR  HN ES   1    426 59.01                             153    0.72 7 68.9 303 
 BRR  HZ I         427  0.31        13.2 0.10                          68.9 303 
 PAM  SZ EP        426 43.73                             148    0.0310 83.6  41 
 PAM  SN ES   1    427  0.74                             148   -0.38 7 83.6  41 
 PAM  SZ I         427  2.62         4.2 0.37                          83.6  41 
 RUS  HZ EP   1    426 44.82                             144    0.19 7 97.2 173 
 RUS  HN ES   1    427  2.46                             144   -0.31 7 97.2 173 
 RUS  HZ I         427  4.90         4.7 0.24                          97.2 173 
 ZAR  HN ES   1    427 17.38                             122   -0.87 6  201 294 
                                                                                
