 2017  611 0400 27.9 L   6.797 -73.135148.0  RSN 18 0.5 2.4LRSN                1
 GAP=138        1.13       4.1     3.4  6.5  0.2235E+01  0.2434E+01  0.1433E+01E
 Epicentro: LOS SANTOS - SANTANDER                                             3
 ACTION:UPD 17-09-14 16:51 OP:jn   STATUS:               ID:20170611040027 L   I
 OLDACT:REG 17-06-11 13:04 OP:osc  STATUS:               ID:20170611035739     3
 2017-06-11-0358-00M.COL___362                                                 6
 STAT SP IPHASW D HRMM SECON CODA AMPLIT PERI AZIMU VELO AIN AR TRES W  DIS CAZ7
 BRR  HZ IP     C  4 0 49.41                             152    0.1010 72.4 298 
 BRR  HE ES        4 1  6.58                             152    0.5310 72.4 298 
 BRR  HZ I         4 1 10.61        54.3 0.12            151           72.4 298 
 PTB  HZ EP        4 0 54.21                             132   -0.89 9  149 259 
 PTB  HN ES        4 1 15.37                             132   -0.98 9  149 259 
 PTB  HZ I         4 1 20.53        36.3 0.12            132            149 259 
 TAM  HZ IP     C  4 0 55.75                             131    0.15 9  154 105 
 TAM  HN ES        4 1 17.24                             131    0.00 9  154 105 
 TAM  HZ I         4 1 17.74        30.5 0.24            137            154 105 
 SPBC HZ EP        4 0 56.44                             129   -0.13 9  164 219 
 SPBC HN ES        4 1 18.46                             129   -0.50 9  164 219 
 SPBC HZ I         4 1 20.88        18.8 0.13            130            164 219 
 ZAR  HZ EP        4 1  0.62                             122    0.05 8  205 292 
 ZAR  HN ES        4 1 26.69                             122    0.61 8  205 292 
 ZAR  HZ I         4 1 36.16        39.7 0.40            124            205 292 
 NOR  HZ EP        4 1  3.54                             119   -0.25 8  235 235 
 NOR  HN ES        4 1 31.66                             119   -0.16 8  235 235 
 NOR  HZ I         4 1 38.44        26.8 0.20            120            235 235 
 CHI  HZ EP        4 1  5.78                             117    0.11 8  249 195 
 CHI  HN ES        4 1 35.48                             117    0.31 8  249 195 
 CHI  HZ I         4 1 39.02         8.1 0.18            119            249 195 
 ROSC BZ EP   4    4 1  7.49                             117    1.36 0  253 211 
 ROSC BE ES   4    4 1 39.83                             117    3.85 0  253 211 
 ROSC BZ I         4 1 45.21        26.9 0.35            119            253 211 
 HEL  HZ EP        4 1  8.87                             115    0.58 8  273 256 
 HEL  HN ES        4 1 40.78                             115    0.94 8  273 256 
 HEL  HZ I         4 1 46.49        20.2 0.33            116            273 256 
 URE  HZ EP        4 1  8.66                             114   -0.51 7  285 292 
 URE  HN ES   4    4 1 39.67                             114   -1.72 0  285 292 
 URE  HZ I         4 1 51.77        20.6 0.16            115            285 292 
 VIL  EZ EP        4 1 11.72                             112    0.36 7  303 192 
 VIL  EE ES   3    4 1 45.12                             112   -0.18 2  303 192 
 VIL  EZ I         4 1 54.86        10.4 0.30            114            303 192 
 PTGC HZ EP   9    4 1 10.54                             112   -1.18 0  308 159 
 PTGC HN ES        4 1 43.63                                   -1.13 7  308 159 
 PTGC HZ I         4 1 43.99        12.2 0.50            115            308 159 
 CBOC HZ EP        4 1 15.56                             110    0.59 7  335 252 
 DBB  EZ EP        4 1 15.42                             110   -0.14 7  341 274 
 DBB  EN ES        4 1 53.06                             110    0.30 7  341 274 
 DBB  EZ I         4 2  0.97        16.4 0.12            111            341 274 
 ORTC HZ EP        4 1 22.45                             107    0.55 6  396 216 
 ORTC HN ES   4    4 2  6.15                             107    2.10 0  396 216 
 ORTC HZ I         4 2 11.22         5.4 0.18            108            396 216 
 APAC HZ EP        4 1 21.93                             106   -0.33 6  399 288 
 APAC HN ES        4 2  5.03                             106    0.33 6  399 288 
 APAC HZ I         4 2 13.58         5.9 0.30            108            399 288 
 PAL  HZ EP        4 1 23.53                             106    0.35 6  407 239 
 PAL  HN ES        4 2  5.97                             106   -0.37 6  407 239 
 PAL  HZ I         4 2  8.87         6.8 0.28            108            407 239 
 SJC  HZ EP        4 1 22.43                             106   -1.17 6  410 327 
 SJC  HN ES   4    4 2  3.73                             106   -3.35 0  410 327 
 SJC  HZ I         4 2  7.79         3.7 0.44            108            410 327 
                                                                                
