 2015  511 0213 26.0 L   6.189 -73.639117.4  RSN  5 0.5 1.7LRSN                1
 GAP=170        1.02       5.6     6.0 11.0 -0.8693E+01  0.3091E+02 -0.3821E+02E
 Epicentro: LA PAZ - SANTANDER                                                 3
 ACTION:UPD 15-09-10 22:03 OP:cam  STATUS:               ID:20150511021326 L   I
 OLDACT:UP  15-05-11 16:05 OP:mh   STATUS:               ID:20150511020739     3
 OLDACT:UP  15-05-11 16:05 OP:mh   STATUS:               ID:20150511020739     3
 OLDACT:REG 15-05-11 12:46 OP:mh   STATUS:               ID:20150511020739     3
 2015-05-11-0207-39M.COL___276                                                 6
 STAT SP IPHASW D HRMM SECON CODA AMPLIT PERI AZIMU VELO AIN AR TRES W  DIS CAZ7
 BAR2 EZ EP   1    213 44.99                             148    0.69 7 67.4  49 
 BAR2 EZ ES        213 58.43                             148   -0.1110 67.4  49 
 BAR2 EZ I         214  0.39        20.5 0.29            148           67.4  49 
 SPBC HZ EP   1    213 44.87                             145    0.19 7 76.3 219 
 SPBC HN ES        213 58.91                             145   -0.3210 76.3 219 
 SPBC HZ I         214  3.32         7.8 0.36            148           76.3 219 
 ZAR  HZ EP   1    213 56.69                             116    0.62 6  197 317 
 ZAR  HN ES        214 20.10                             116    0.61 9  197 317 
 ZAR  HZ I         214 21.25         7.3 0.40            117            197 317 
 URE  HE ES        214 34.11                             108   -0.30 8  271 310 
 SML  HZ EP        214  6.10                             107   -0.81 7  293 351 
 SML  HN ES        214 38.45                             107   -0.35 7  293 351 
 SML  HZ I         214 53.51         2.7 0.10            107            293 351 
                                                                                
