 2016  811 0637 47.4 L   6.838 -73.122145.0  RSN 11 0.5 1.9LRSN                1
 GAP=243        1.21       5.9     6.8  6.7  0.7040E+01  0.1126E+02  0.3246E+01E
 Epicentro: LOS SANTOS - SANTANDER                                             3
 ACTION:UPD 16-10-29 15:34 OP:rebc STATUS:               ID:20160811063747 L   I
 OLDACT:UP  16-08-11 13:45 OP:dani STATUS:               ID:20160811062144d    3
 OLDACT:UP  16-08-11 13:42 OP:dani STATUS:               ID:20160811062144d    3
 OLDACT:DUP 16-08-11 13:39 OP:dani STATUS:               ID:20160811062144d    3
 OLDACT:UP  16-08-11 13:39 OP:dani STATUS:               ID:20160811062143d    3
 OLDACT:DUP 16-08-11 13:36 OP:dani STATUS:               ID:20160811062143d    3
 OLDACT:UP  16-08-11 13:35 OP:dani STATUS:               ID:20160811062142     3
 OLDACT:UP  16-08-11 13:35 OP:dani STATUS:               ID:20160811062142     3
 OLDACT:REG 16-08-11 12:31 OP:dani STATUS:               ID:20160811062142     3
 2016-08-11-0628-00M.COL___368                                                 6
 STAT SP IPHASW D HRMM SECON CODA AMPLIT PERI AZIMU VELO AIN AR TRES W  DIS CAZ7
 BAR2 EZ EP        638  6.95                             169   -0.0810 28.0 194 
 BAR2 EZ ES        638 22.32                             169   -0.0310 28.0 194 
 BAR2 EZ I         638 23.84        15.2 0.34                          28.0 194 
 BRR  HZ EP        638  8.66                             152    0.1810 71.7 295 
 BRR  HN ES        638 25.60                             152    0.6710 71.7 295 
 BRR  HZ I         638 28.96        13.8 0.14                          71.7 295 
 RUS  HZ EP        638 11.19                             143   -0.1710  105 178 
 RUS  HE ES        638 29.85                             143   -0.2010  105 178 
 RUS  HZ I         638 31.20         4.6 0.20                           105 178 
 PTB  HZ EP     C  638 13.71                             131   -0.90 9  151 257 
 PTB  HN ES        638 35.34                             131   -0.50 9  151 257 
 PTB  HZ I         638 39.03         7.0 0.09                           151 257 
 SPBC HZ EP        638 16.24                             128   -0.06 9  168 219 
 SPBC HE ES        638 38.86                             128    0.01 9  168 219 
 SPBC HZ I         638 45.83        11.2 0.74                           168 219 
 ZAR  HZ EP   2    638 19.83                             122   -0.05 4  205 291 
 ZAR  HZ I         638 50.37        11.7 0.40                           205 291 
 NOR  HZ EP        638 23.60                             118    0.03 8  239 234 
 NOR  HN ES        638 52.02                             118    0.23 8  239 234 
 NOR  HZ I         638 57.57         5.6 0.17                           239 234 
 CHI  HZ EP        638 26.31                             116    0.75 8  253 196 
 CHI  HN ES   2    638 54.30                             116   -1.03 4  253 196 
 HEL  HZ EP        638 28.89                             114    0.93 7  276 255 
 HEL  HZ I         639  6.15         3.9 0.34                           276 255 
 URE  HZ EP        638 27.44                             113   -1.08 7  285 291 
 URE  HN ES   4    638 57.56                             113   -3.05 0  285 291 
 URE  HZ I         639  8.28         4.9 0.26                           285 291 
 GUY2CHZ EP        638 32.38                             112    0.90 7  306 234 
 GUY2CHN ES   4    639 10.10                             112    4.23 0  306 234 
 GUY2CHZ I         639 15.21         4.1 0.25                           306 234 
                                                                                
