 2015  911 0050 18.8 L   6.686 -73.148141.6  RSN  4 0.4 1.3LRSN                1
 GAP=229        0.98       5.6     8.5  7.9  0.8616E+01  0.8082E+01  0.6323E+01E
 Epicentro: VILLANUEVA - SANTANDER                                             3
 ACTION:UPD 15-10-28 16:25 OP:cam  STATUS:               ID:20150911005018 L   I
 OLDACT:REG 15-09-11 12:28 OP:drio STATUS:               ID:20150911004749     3
 2015-09-11-0047-49M.COL___353                                                 6
 STAT SP IPHASW D HRMM SECON CODA AMPLIT PERI AZIMU VELO AIN AR TRES W  DIS CAZ7
 BAR2 EZ EP        050 37.49                             175   -0.2010 11.0 200 
 BAR2 EZ ES        050 51.92                             175   -0.5410 11.0 200 
 BAR2 EZ I         050 53.60         6.7 0.18            172           11.0 200 
 BRR  HZ EP        050 39.63                             150   -0.2210 77.8 307 
 BRR  HE ES        050 56.82                             150    0.5210 77.8 307 
 RUS  HZ EP        050 41.29                             147    0.0810 88.0 175 
 RUS  HE ES        050 59.23                             147    0.5110 88.0 175 
 RUS  HZ I         051  1.21         1.9 0.34            146           88.0 175 
 SPBC HZ EP        050 46.24                             130    0.23 9  153 222 
 SPBC HN ES        051  6.87                             130   -0.40 9  153 222 
 SPBC HZ I         051 10.50         3.3 0.20            130            153 222 
                                                                                
