 2011  211 0410 49.1 L   6.839 -73.199141.0  RSN  6 0.4 1.7LRSN                1
 GAP=152        0.77       4.4    18.6  8.1 -0.3728E+02  0.1996E+02 -0.2765E+01E
 Epicentro: ZAPATOCA - SANTANDER                                               3
 ACTION:UP  11-03-28 15:07 OP:jfem STATUS:               ID:20110211041049 L   I
 2011-02-11-0409-22S.COL___136                                                 6
 STAT SP IPHASW D HRMM SECON CODA AMPLIT PERI AZIMU VELO SNR AR TRES W  DIS CAZ7
 BTL  SZ EP   1    411  8.01                             175     0.0 8   12 319 
 BTL  SZ ES   2    411 23.12                             175     0.4 5   12 319 
 BAR2 SZ EP   1    411  7.89                             169    -0.4 8   27 177 
 BAR2 SZ ES   2    411 23.08                             169    -0.1 5   27 177 
 BAR2 SZ I         411 23.75        11.9 0.37                            27 177 
 RUS  HZ EP   1    411 12.45                             141    -0.3 8  105 173 
 RUS  HN ES   2    411 31.19                             141     0.0 5  105 173 
 RUS  HZ I         411 34.34         4.1 0.71                           105 173 
 GRA  SZ IP        411 14.37                             136     0.610  124  21 
 GRA  SZ ES   2    411 32.39                             136    -0.6 5  124  21 
 GRA  SZ I         411 36.34        11.3 0.29                           124  21 
 OCA  SZ EP   1    411 16.42                             129    -0.2 7  155 355 
 OCA  SZ ES   2    411 37.86                             129    -0.2 5  155 355 
 OCA  SZ I         411 42.77        13.3 0.26                           155 355 
 CHI  HZ EP   1    411 26.73                             116    -0.1 6  251 194 
 CHI  HN ES   2    411 56.66                             116     0.4 4  251 194 
 CHI  HZ I         412  4.16         3.1 0.43                           251 194 
                                                                                
