 2017  711 0856  8.3 L   6.821 -73.144152.1  RSN 23 0.4 2.6LRSN                1
 GAP= 65        0.93       2.7     2.3  4.9  0.4156E+00  0.3180E+01  0.1813E+01E
 Epicentro: LOS SANTOS - SANTANDER                                             3
 ACTION:UPD 17-08-30 15:32 OP:rebc STATUS:               ID:20170711085608 L   I
 OLDACT:UP  17-07-11 15:36 OP:dnl  STATUS:               ID:20170711084743     3
 OLDACT:UP  17-07-11 15:35 OP:dnl  STATUS:               ID:20170711084743     3
 OLDACT:REG 17-07-11 13:10 OP:dnl  STATUS:               ID:20170711084743     3
 2017-07-11-0848-00M.COL___362                                                 6
 STAT SP IPHASW D HRMM SECON CODA AMPLIT PERI AZIMU VELO AIN AR TRES W  DIS CAZ7
 BAR2 EZ IP     C  856 28.41                             170   -0.3310 25.7 190 
 BAR2 EZ I         856 45.31       132.1 0.20            169           25.7 190 
 BRR  HZ IP     C  856 30.43                             154    0.3410 70.3 297 
 BRR  HN ES        856 47.73                             154    0.6410 70.3 297 
 BRR  HZ ES        856 48.01                             154           70.3 297 
 BRR  HZ I         856 50.12       109.1 0.12            154           70.3 297 
 PAM  EZ EP        856 31.39                             152    0.3010 75.4  41 
 PAM  EN ES        856 48.81                             152   -0.0410 75.4  41 
 PAM  EZ I         856 50.76       158.0 0.90            153           75.4  41 
 PTB  HZ EP        856 35.05                             133   -0.81 9  148 258 
 PTB  HE ES        856 56.53                             133   -0.81 9  148 258 
 PTB  HZ I         856 58.67        40.0 0.42            132            148 258 
 TAM  HZ IP     D  856 36.67                             132    0.14 9  155 106 
 TAM  HZ I         856 57.28        37.3 0.36            131            155 106 
 TAM  HN ES        856 58.44                             132   -0.10 9  155 106 
 SPBC HZ EP        856 37.29                             130   -0.19 9  165 219 
 SPBC HN ES        857  0.10                             130   -0.13 9  165 219 
 SPBC HZ I         857  6.18        96.9 0.32            129            165 219 
 YPLC HZ EP        856 38.53                             128   -0.22 9  179 152 
 YPLC HE ES        857  2.28                             128   -0.22 9  179 152 
 YPLC HZ I         857  3.20        38.3 0.26            126            179 152 
 ZAR  HZ EP        856 41.16                             124    0.06 9  203 292 
 ZAR  HE ES        857  7.40                             124    0.72 9  203 292 
 ZAR  HZ I         857 15.01        69.5 0.36            123            203 292 
 TABC EZ EP        856 45.53                             120    0.87 8  232 210 
 TABC EZ ES   4    857 15.09                             120    2.07 0  232 210 
 TABC EZ I         857 18.87        23.0 0.36            119            232 210 
 NOR  HZ EP        856 44.46                             120   -0.11 8  236 234 
 NOR  HE ES        857 12.97                             120    0.11 8  236 234 
 NOR  HZ I         857 17.57        43.9 0.34            119            236 234 
 ROSC BZ EP   9    856 47.88                             118    0.88 0  255 211 
 ROSC BE ES        857 18.15                                    0.08 8  255 211 
 ROSC BZ I         857 22.60        25.9 0.35            117            255 211 
 HEL  HZ EP        856 49.34                             116    0.41 8  273 255 
 HEL  HE ES   4    857 19.60                             116   -1.02 0  273 255 
 HEL  HZ I         857 27.49        24.7 0.32            115            273 255 
 URE  HZ EP        856 49.31                             115   -0.31 7  283 291 
 URE  HE ES        857 21.08                             115   -0.76 7  283 291 
 URE  HZ I         857 27.07        34.1 0.22            114            283 291 
 GUY2CHZ EP        856 52.68                             113    0.30 7  303 234 
 GUY2CHE ES   4    857 29.67                             113    2.91 0  303 234 
 GUY2CHZ I         857 34.68        35.7 0.60                           303 234 
 PTGC HZ EP   4    856 51.26                             113   -1.42 0  311 159 
 PTGC HN ES   4    857 24.35                             113   -2.95 0  311 159 
 PTGC HZ I         857 29.14        12.6 0.34            112            311 159 
 LL6C HZ EP   2    856 53.56                             112   -0.46 3  323 358 
 LL6C HN ES        857 29.59                             112   -0.08 7  323 358 
 LL6C HZ I         857 31.31         6.4 0.40            111            323 358 
 CBOC HZ EP        856 56.14                             111    0.55 7  335 252 
 CBOC HN ES   4    857 31.33                             111   -1.15 0  335 252 
 CBOC HZ I         857 44.24         9.4 0.36            110            335 252 
 DBB  EZ EP   4    856 52.47                             111   -3.58 0  340 274 
 DBB  EE ES        857 33.42                             111    0.13 7  340 274 
 DBB  EZ I         857 37.08        11.0 0.22            110            340 274 
 ORTC HZ EP   2    857  2.42                             107   -0.26 3  397 216 
 ORTC HN ES        857 45.28                             107    0.19 6  397 216 
 ORTC HZ I         857 51.26         7.8 0.20            107            397 216 
 APAC HZ EP        857  2.55                             107   -0.10 6  398 288 
 APAC HE ES        857 44.55                             107   -0.50 6  398 288 
 APAC HZ I         857 55.96        10.7 0.40            107            398 288 
 PAL  HZ EP        857  4.12                             107    0.28 6  407 239 
 PAL  HN ES        857 47.14                             107   -0.02 6  407 239 
 PAL  HZ I         857 52.45        12.9 0.54            106            407 239 
 SJC  HZ EP   4    857  2.88                             107   -0.99 0  407 327 
 SJC  HN ES   4    857 44.29                             107   -2.91 0  407 327 
 SJC  HZ I         857 51.31         8.6 0.52            106            407 327 
 MACC HZ EP   4    857 15.15                             102   -2.30 0  523 189 
 MACC HE ES   4    858  7.22                             102   -4.17 0  523 189 
 MACC HZ I         858 15.96         2.6 0.36            102            523 189 
                                                                                
