 2011  911 0300 14.8 L   6.526 -73.542114.4  RSN 10 0.2 1.7LRSN                1
 GAP= 84        0.39       2.3     2.5  4.8 -0.9084E+00  0.5908E+01  0.6237E+00E
 Epicentro: EL CARMEN DE CHUCURI - SANTANDER                                   3
 ACTION:UPD 12-07-13 15:56 OP:ep   STATUS:               ID:20110911030014 L   I
 2011-09-11-0257-10S.COL___169                                                 6
 STAT SP IPHASW D HRMM SECON CODA AMPLIT PERI AZIMU VELO AIN AR TRES W  DIS CAZ7
 BAR2 SZ IP        3 0 31.47                             159    0.1610 40.4  79 
 BAR2 SZ I         3 0 31.81        26.6 0.27                          40.4  79 
 BAR2 SZ ES   2    3 0 43.67                             159   -0.48 5 40.4  79 
 BRR  HZ EP        3 0 32.38                             147   -0.0510 67.0 344 
 BRR  HZ I         3 0 32.66        10.3 0.17                          67.0 344 
 BRR  HE ES   2    3 0 46.35                             147    0.21 5 67.0 344 
 GIR2 SZ EP   1    3 0 33.04                             145    0.06 7 72.3  32 
 GIR2 SZ ES   2    3 0 47.48                             145    0.35 5 72.3  32 
 RUS  HZ EP   2    3 0 34.30                             141   -0.22 5 86.5 144 
 RUS  HE ES   2    3 0 49.96                             141    0.10 5 86.5 144 
 RUS  HZ I         3 0 51.20         4.2 0.38                          86.5 144 
 PAM  SE ES   2    3 0 56.39                             128   -0.17 5  129  46 
 ZAR  HN ES   2    3 1  4.59                             118   -0.17 4  181 306 
 NOR  SN EP   2    3 0 42.45                             118   -0.59 4  181 234 
 NOR  SE ES   2    3 1  5.04                             118    0.00 4  181 234 
 ZAR  HZ I         3 1  8.06        10.0 0.35                           181 306 
 OCA  SZ EP   2    3 0 44.23                             116    0.01 4  191   7 
 OCA  SZ ES   2    3 1  6.91                             116   -0.22 4  191   7 
 OCA  SZ I         3 1 13.22         8.7 0.57                           191   7 
 HEL  HZ EP   2    3 0 48.28                             112    0.24 4  223 261 
 HEL  HN ES   2    3 1 13.87                             112   -0.06 4  223 261 
 HEL  HZ I         3 1 17.49         3.0 0.38                           223 261 
 RREF HZ EP   2    3 0 54.04                             108    0.41 4  269 228 
 RREF HZ I         3 1 30.29         2.4 0.23                           269 228 
                                                                                
