 2012  311 0215 57.4 L   6.800 -73.138143.0  RSN  6 0.3 1.5LRSN                1
 GAP=138        0.84       5.4     4.9  8.5  0.3594E+01  0.6461E+01  0.5330E+01E
 ACTION:UP  12-03-31 23:18 OP:EP   STATUS:               ID:20120311021557 L   I
 2012-03-11-0210-00M.COL___193                                                 6
 STAT SP IPHASW D HRMM SECON CODA AMPLIT PERI AZIMU VELO SNR AR TRES W  DIS CAZ7
 BAR2 SZ EP   1    216 16.49                             170    -0.2 7   24 192 
 BAR2 SZ I         216 17.12         7.9 0.32                            24 192 
 BAR2 SZ ES   2    216 31.00                             170    -0.7 5   24 192 
 BRR  HZ EP        216 18.66                             152     0.410   72 298 
 BRR  HN ES   1    216 34.86                             152     0.3 7   72 298 
 BRR  HZ I         216 38.71         7.6 0.22                            72 298 
 PAM  SZ EP   1    216 19.11                             150    -0.1 7   77  39 
 PAM  SN ES   1    216 36.17                             150    -0.1 7   77  39 
 RUS  HZ EP        216 21.04                             143     0.210  101 177 
 RUS  HN ES   1    216 39.23                             143     0.1 7  101 177 
 RUS  HZ I         216 41.27         3.6 0.17                           101 177 
 PTB  HZ EP   1    216 23.43                             131    -0.8 7  149 259 
 PTB  HE ES   1    216 45.13                             131     0.0 7  149 259 
 PTB  HZ I         216 47.25         3.1 0.13                           149 259 
 ZAR  HN ES   1    216 54.77                             122    -0.2 6  205 292 
 ZAR  HZ I         217  0.71         4.8 0.68                           205 292 
                                                                                
