 2012  111 0249 33.4 L   6.739 -73.121151.4  RSN  7 0.3 1.7LRSN                1
 GAP=142        0.59       5.0     4.1  5.9  0.4566E+00  0.1104E+01  0.3335E+01E
 Epicentro: JORDAN - SANTANDER                                                 3
 ACTION:UP  12-02-03 08:16 OP:REBC STATUS:               ID:20120111024933 L   I
 2012-01-11-0248-59S.COL___186                                                 6
 STAT SP IPHASW D HRMM SECON CODA AMPLIT PERI AZIMU VELO SNR AR TRES W  DIS CAZ7
 BAR2 SZ EP   1    249 53.60                             173     0.0 7   18 203 
 BAR2 SZ I         249 54.05         7.5 0.35                            18 203 
 BAR2 SZ ES   2    250  9.39                             173     0.0 5   18 203 
 GIR2 SZ EP   1    249 53.82                             165    -0.1 7   38 348 
 GIR2 SZ ES   2    250  9.88                             165    -0.1 5   38 348 
 BRR  HZ EP   1    249 55.69                             152     0.2 7   77 302 
 BRR  HN ES   1    250 13.21                             152     0.5 7   77 302 
 BRR  HZ I         250 15.30        11.1 0.14                            77 302 
 PAM  SZ EP   1    249 56.59                             151     0.1 7   81  35 
 PAM  SE ES   2    250 13.69                             151    -0.7 5   81  35 
 RUS  HZ EP   1    249 57.54                             147     0.3 7   94 177 
 RUS  HN ES   2    250 15.89                             147     0.0 5   94 177 
 PTB  HZ EP   1    250  0.75                             133    -0.2 7  149 262 
 PTB  HN ES   1    250 22.03                             133    -0.5 7  149 262 
 ZAR  HZ EP   2    250  6.57                             123    -0.2 4  209 294 
 ZAR  HN ES   2    250 32.96                             123     0.2 4  209 294 
 ZAR  HZ I         250 38.14         6.4 0.39                           209 294 
                                                                                
