 2013  611 0804 31.5 L   6.768 -73.140142.0  RSN 10 0.4 2.0LRSN                1
 GAP=113        0.96       4.7     4.0  6.2  0.4541E+01  0.7264E+00  0.4293E+00E
 Epicentro: LOS SANTOS - SANTANDER                                             3
 ACTION:UPD 14-01-08 09:54 OP:ep   STATUS:               ID:20130611080431 L   I
 OLDACT:UP  13-06-11 10:32 OP:cam  STATUS:               ID:20130611075959     3
 OLDACT:REG 13-06-11 08:02 OP:cam  STATUS:               ID:20130611075959     3
 2013-06-11-0759-59M.COL___260                                                 6
 STAT SP IPHASW D HRMM SECON CODA AMPLIT PERI AZIMU VELO AIN AR TRES W  DIS CAZ7
 BAR2 SZ EP        8 4 50.54                             172   -0.0610 19.9 193 
 BAR2 SZ ES   1    8 5  5.09                             172   -0.41 7 19.9 193 
 BAR2 SZ I         8 5  6.37        30.9 0.18            174           19.9 193 
 GIR2 SZ EP        8 4 50.47                             165   -0.3510 34.9 350 
 GIR2 SZ ES   1    8 5  5.94                             165    0.05 7 34.9 350 
 BRR  HZ EP        8 4 52.55                             151    0.1910 73.5 301 
 BRR  HN ES        8 5  9.16                             151    0.5210 73.5 301 
 BRR  HZ I         8 5 10.98        14.3 0.16            150           73.5 301 
 RUS  HZ EP        8 4 54.51                             144   -0.1010 97.0 176 
 RUS  HN ES        8 5 13.18                             144    0.5410 97.0 176 
 RUS  HZ I         8 5 14.52        12.5 0.38            147           97.0 176 
 PTB  HZ EP        8 4 57.40                             132   -0.74 9  148 260 
 PTB  HN ES        8 5 18.11                             132   -0.82 9  148 260 
 PTB  HZ I         8 5 21.07        11.8 0.48            131            148 260 
 TAM  HZ IP     D  8 4 58.90                             130    0.17 9  154 104 
 ZAR  HZ EP   2    8 5  4.28                             122    0.39 4  206 293 
 ZAR  HN ES        8 5 29.48                             122    0.32 8  206 293 
 ZAR  HZ I         8 5 31.79        10.0 0.12            121            206 293 
 NOR  HZ EP   1    8 5  7.15                             118    0.32 6  233 235 
 NOR  HN ES   1    8 5 34.53                             118    0.14 6  233 235 
 NOR  HZ I         8 5 36.54         4.3 0.20            119            233 235 
 SML  HZ EP   2    8 5  8.74                             116    0.45 4  247 336 
 SML  HE ES   2    8 5 37.02                             116    0.03 4  247 336 
 SML  HZ I         8 5 44.06         7.9 0.10            116            247 336 
 HEL  HN ES   2    8 5 43.56                             114    0.89 4  272 257 
                                                                                
