 2010 1011 0917 29.3 L   6.790 -73.093145.5  RSN  4 0.4 1.5LRSN                1
 GAP=190        0.97       7.5    12.0 10.4 -0.2408E+02 -0.2615E+02 -0.1474E+02E
 Epicentro: LOS SANTOS - SANTANDER                                             3
 ACTION:UP  11-02-18 11:09 OP:tino STATUS:               ID:20101011091729 L   I
 2010-10-11-0914-40S.COL___121                                                 6
 STAT SP IPHASW D HRMM SECON CODA AMPLIT PERI AZIMU VELO SNR AR TRES W  DIS CAZ7
 BAR2 SZ EP   1    917 48.76                             170    -0.2 7   24 205 
 BAR2 SZ I         917 49.29         7.3 0.09                            24 205 
 BAR2 SZ ES   1    918  3.89                             170    -0.3 7   24 205 
 BRR  HZ IP     D  917 50.81                             151     0.010   77 297 
 BRR  HE ES   1    918  7.99                             151     0.5 7   77 297 
 BRR  HZ I         918 16.96        11.2 0.57                            77 297 
 GRA  SZ IP        917 54.81                             137     0.310  125  15 
 GRA  SZ ES   1    918 14.54                             137     0.4 7  125  15 
 GRA  SZ I         918 15.53         2.5 0.23                           125  15 
 OCA  SZ EP   1    917 57.58                             129    -0.2 7  162 351 
 OCA  SZ I         918  5.91         2.9 0.46                           162 351 
 OCA  SZ ES   1    918 19.20                             129    -0.8 7  162 351 
                                                                                
