 2013  511 0838  7.4 L   6.714 -74.221 62.8  RSN  6 0.5 1.3LRSN                1
 GAP=108        1.11       4.6     3.1  9.7  0.1853E+01 -0.5353E+01  0.1802E+01E
 Epicentro: PUERTO PARRA - SANTANDER                                           3
 ACTION:UPD 13-06-20 09:49 OP:ep   STATUS:               ID:20130511083807 L   I
 2013-05-11-0830-00M.COL___256                                                 6
 STAT SP IPHASW D HRMM SECON CODA AMPLIT PERI AZIMU VELO AIN AR TRES W  DIS CAZ7
 PTB  HZ IP     D  838 16.71                             149   -0.6610 32.4 233 
 PTB  HN ES   1    838 24.97                             149   -0.17 7 32.4 233 
 PTB  HZ I         838 26.66        10.3 0.24            158           32.4 233 
 BRR  HZ IP     D  838 20.45                             125   -0.1710 71.0  52 
 BRR  HN ES   1    838 31.84                             125    0.91 7 71.0  52 
 BRR  HZ I         838 35.54         4.9 0.28            130           71.0  52 
 ZAR  HZ EP        838 24.48                             112   -0.5210  111 321 
 ZAR  HN ES   1    838 38.86                             112    0.14 7  111 321 
 ZAR  HZ I         838 40.72        11.2 0.18            118            111 321 
 BAR2 SZ EP        838 25.90                             111    0.1010  116  97 
 BAR2 SZ ES   1    838 40.35                             111    0.20 7  116  97 
 BAR2 SZ I         838 41.37         7.7 0.26            117            116  97 
 RUS  HZ EP        838 30.92                             104    0.15 9  155 126 
 RUS  HN ES        838 48.77                             104   -0.23 9  155 126 
 RUS  HZ I         838 50.59         2.2 0.42            110            155 126 
 HEL  HE ES        838 49.69                             104    0.83 9  156 248 
                                                                                
