 2012  611 0534 50.5 L   6.832 -73.137147.5  RSN  6 0.3 1.6LRSN                1
 GAP=184        0.57       4.7     4.6  6.8  0.5443E+01  0.9469E+01 -0.2797E+01E
 Epicentro: LOS SANTOS - SANTANDER                                             3
 ACTION:UPD 12-08-06 17:48 OP:ep   STATUS:               ID:20120611053449 L   I
 2012-06-11-0530-00M.COL___201                                                 6
 STAT SP IPHASW D HRMM SECON CODA AMPLIT PERI AZIMU VELO AIN AR TRES W  DIS CAZ7
 BAR2 SZ EP   1    535 10.71                             169    0.33 7 27.0 191 
 BAR2 SZ ES   1    535 25.99                             169    0.08 7 27.0 191 
 BAR2 SZ I         535 27.72         8.5 0.38            166           27.0 191 
 RUS  HZ EP   1    535 14.84                             143    0.21 7  104 177 
 RUS  HN ES   1    535 33.37                             143   -0.12 7  104 177 
 RUS  HZ I         535 34.98         4.5 0.36            145            104 177 
 PTB  HZ EP   1    535 17.20                             132   -0.51 7  149 258 
 PTB  HN ES   1    535 38.69                             132   -0.28 7  149 258 
 PTB  HZ I         535 42.02         3.8 0.16            130            149 258 
 OCA  HE ES   2    535 40.20                             131   -0.33 5  157 353 
 ZAR  HN ES   2    535 49.05                             123    0.72 4  204 291 
 ZAR  HZ I         535 55.74         5.5 0.26            122            204 291 
 HEL  HZ EP   2    535 31.10                             115    0.14 4  274 255 
 HEL  HE ES   2    536  2.71                             115    0.17 4  274 255 
 HEL  HZ I         536  9.10         2.8 0.34            115            274 255 
                                                                                
