 2013  611 0815 29.9 L   6.736 -73.183152.0  RSN  6 0.5 1.5LRSN                1
 GAP=175        1.00       6.1     8.2  8.4  0.2240E+02 -0.4038E+01 -0.1004E+02E
 Epicentro: VILLANUEVA - SANTANDER                                             3
 ACTION:UPD 14-01-08 09:54 OP:ep   STATUS:               ID:20130611081529 L   I
 OLDACT:UP  13-06-11 10:37 OP:cam  STATUS:               ID:20130611080959     3
 OLDACT:REG 13-06-11 08:07 OP:cam  STATUS:               ID:20130611080959     3
 2013-06-11-0809-59M.COL___260                                                 6
 STAT SP IPHASW D HRMM SECON CODA AMPLIT PERI AZIMU VELO AIN AR TRES W  DIS CAZ7
 BAR2 SZ EP        815 50.18                             174   -0.0110 15.9 180 
 BAR2 SZ ES   1    816  5.31                             174   -0.68 7 15.9 180 
 BAR2 SZ I         816  6.55         8.4 0.23            173           15.9 180 
 GIR2 SZ EP        815 50.45                             165   -0.0810 37.9 358 
 BRR  HZ EP   2    815 51.58                             154   -0.19 5 71.4 305 
 BRR  HN ES        816  9.65                             154    0.8510 71.4 305 
 RUS  HZ EP        815 53.96                             147    0.1110 94.0 173 
 RUS  HN ES        816 12.58                             147    0.0810 94.0 173 
 RUS  HZ I         816 13.91         4.2 0.36            147           94.0 173 
 PTB  HZ EP        815 56.83                             135   -0.12 9  143 261 
 PTB  HN ES   1    816 17.57                             135   -0.46 7  143 261 
 PTB  HZ I         816 19.00         4.8 0.10            135            143 261 
 SML  HZ EP   2    816  8.23                             118    0.81 4  248 337 
 SML  HN ES   1    816 35.77                             118   -0.90 6  248 337 
                                                                                
