 2012 1211 0941 41.0 L   6.751 -73.193138.0  RSN  5 0.3 1.5LRSN                1
 GAP=173        0.80       4.9     6.2  6.1  0.9356E+01  0.7674E+01  0.4126E+01E
 Epicentro: VILLANUEVA - SANTANDER                                             3
 ACTION:UPD 13-01-04 14:27 OP:ep   STATUS:               ID:20121211094141 L   I
 2012-12-11-0940-00M.COL___242                                                 6
 STAT SP IPHASW D HRMM SECON CODA AMPLIT PERI AZIMU VELO AIN AR TRES W  DIS CAZ7
 BAR2 SZ EP        941 59.50                             172   -0.0610 17.6 176 
 BAR2 SZ ES        942 13.81                             172   -0.2510 17.6 176 
 BAR2 SZ I         942 15.51         6.4 0.18                          17.6 176 
 GIR2 SZ EP        941 59.85                             165   -0.0210 36.3 360 
 GIR2 SZ ES        942 14.27                             165   -0.3410 36.3 360 
 BRR  HZ EP        942  1.72                             151    0.5310 69.6 305 
 BRR  HN ES   1    942 17.43                             151    0.47 7 69.6 305 
 BRR  HN I         942 23.90         9.4 0.18                          69.6 305 
 RUS  HZ EP        942  3.47                             143   -0.1310 95.7 173 
 RUS  HN ES        942 21.59                             143    0.3410 95.7 173 
 RUS  HN I         942 23.22         6.4 0.28                          95.7 173 
 PTB  HZ EP   1    942  6.29                             131   -0.46 7  142 261 
 PTB  HN ES   1    942 26.64                             131   -0.21 7  142 261 
 PTB  HZ I         942 28.23         2.5 0.10                           142 261 
                                                                                
