 2011 1211 0551 55.6 L   6.719 -73.192139.5  RSN  4 0.3 1.3LRSN                1
 GAP=226        0.68       7.0     7.0  9.3  0.2509E+02 -0.5069E+01 -0.3194E+01E
 Epicentro: VILLANUEVA - SANTANDER                                             3
 ACTION:UPD 12-07-13 16:15 OP:ep   STATUS:               ID:20111211055155 L   I
 2011-12-11-0550-00M.COL___186                                                 6
 STAT SP IPHASW D HRMM SECON CODA AMPLIT PERI AZIMU VELO AIN AR TRES W  DIS CAZ7
 BAR2 SZ EP   1    552 13.93                             174   -0.37 7 14.1 176 
 BAR2 SZ I         552 17.08         4.1 0.51                          14.1 176 
 BRR  HZ EP   1    552 15.79                             151   -0.29 7 71.7 307 
 BRR  HE ES   1    552 32.41                             151    0.33 7 71.7 307 
 BRR  HZ I         552 37.18         7.3 0.16                          71.7 307 
 RUS  HZ EP   1    552 18.24                             145    0.13 7 92.2 172 
 RUS  HN ES   1    552 35.75                             145    0.06 7 92.2 172 
 RUS  HZ I         552 37.45         1.8 0.49                          92.2 172 
 PTB  HZ EP   1    552 21.99                             132    0.55 7  141 262 
 PTB  HN ES   1    552 41.22                             132   -0.39 7  141 262 
                                                                                
