 2011 1111 0009  7.1 L   6.733 -73.120149.4  RSN  6 0.4 1.7LRSN                1
 GAP=143        0.74       4.9     5.1  7.6 -0.3031E+01  0.1489E+02 -0.6118E+01E
 Epicentro: JORDAN - SANTANDER                                                 3
 *BAR2-RUS-BRR                                                                 3
 ACTION:UPD 12-07-13 16:09 OP:ep   STATUS:               ID:20111111000907 L   I
 2011-11-11-0000-00M.COL___170                                                 6
 STAT SP IPHASW D HRMM SECON CODA AMPLIT PERI AZIMU VELO AIN AR TRES W  DIS CAZ7
 BAR2 SZ EP   1    0 9 26.77                             173   -0.25 7 17.0 204 
 BAR2 SZ ES   1    0 9 42.08                             173   -0.51 7 17.0 204 
 BAR2 SZ I         0 9 43.56        11.1 0.25                          17.0 204 
 BRR  HZ EP   1    0 9 29.46                             151    0.50 7 77.4 302 
 BRR  HZ I         0 9 30.05        13.2 0.09                          77.4 302 
 BRR  HN ES   1    0 9 46.51                             151    0.47 7 77.4 302 
 PAM  SZ EP   1    0 9 29.66                             150   -0.26 7 81.6  35 
 PAM  SN ES   1    0 9 47.68                             150   -0.06 7 81.6  35 
 PAM  SZ I         0 9 49.61         5.8 0.52                          81.6  35 
 RUS  HN ES   1    0 9 49.47                             147    0.42 7 93.0 177 
 ZAR  HZ EP   1    0 9 40.54                             122    0.24 6  210 294 
 ZAR  HN ES   1    010  5.88                             122   -0.36 6  210 294 
 ZAR  HZ I         010 12.42         4.4 0.14                           210 294 
 NOR  SN ES   1    010 10.32                             119   -0.35 6  233 236 
                                                                                
