 2011 1011 0206 26.0 L   6.807 -73.147137.4  RSN  7 0.4 1.9LRSN                1
 GAP=136        0.70       4.5     4.9  6.5  0.3624E+01  0.7019E+01  0.3261E+01E
 Epicentro: LOS SANTOS - SANTANDER                                             3
 ACTION:UPD 12-07-13 16:03 OP:ep   STATUS:               ID:20111011020626 L   I
 2011-10-11-0200-00M.COL___171                                                 6
 STAT SP IPHASW D HRMM SECON CODA AMPLIT PERI AZIMU VELO AIN AR TRES W  DIS CAZ7
 BTL  SZ EP        2 6 44.62                             172    0.1310 18.2 313 
 BAR2 SZ EP        2 6 44.58                             170   -0.0210 24.1 189 
 BAR2 SZ ES   1    2 6 59.01                             170   -0.13 7 24.1 189 
 BAR2 SZ I         2 7  0.65        20.8 0.25                          24.1 189 
 BRR  HZ EP   1    2 6 46.37                             151    0.19 7 70.7 298 
 BRR  HE ES   1    2 7  2.52                             151    0.56 7 70.7 298 
 BRR  HZ I         2 7  6.26        19.6 0.34                          70.7 298 
 PAM  SZ EP   1    2 6 47.34                             149    0.08 7 76.9  40 
 PAM  SN ES   1    2 7  3.69                             149   -0.18 7 76.9  40 
 RUS  HZ EP   1    2 6 48.57                             142   -0.39 7  101 176 
 RUS  HN ES   1    2 7  6.86                             142   -0.04 7  101 176 
 RUS  HZ I         2 7  9.08         9.8 0.23                           101 176 
 ZAR  HN ES   1    2 7 21.89                             120   -0.80 6  204 292 
 RREF HZ EP   1    2 7 12.43                             109    0.63 5  322 229 
 RREF HZ I         2 7 55.80         2.7 0.33                           322 229 
                                                                                
