 2010  611 0214 37.9 L   6.647 -74.039 23.5  RSN 12 0.5 3.0LRSN                1
 GAP=104        1.16       4.0     4.0  6.9 -0.7154E+01  0.1179E+02 -0.4858E+01E
 Epicentro: PUERTO PARRA - SANTANDER                                           3
 ACTION:UP  10-08-24 10:09 OP:vdl  STATUS:               ID:20100611021437 L   I
 2010-06-11-0212-30S.COL___117                                                 6
 STAT SP IPHASW D HRMM SECON CODA AMPLIT PERI AZIMU VELO SNR AR TRES W  DIS CAZ7
 BAR2 SZ IP        214 53.34                             102    -0.110   95  94 
 BAR2 SZ ES   1    215  5.52                             102     0.0 7   95  94 
 GIR2 SZ EP        214 54.69                              56    -0.110  105  63 
 RUS  HZ IP     D  214 59.16                              56     0.310  135 128 
 RUS  HE ES   1    215 15.45                              56     0.2 7  135 128 
 RUS  HZ I         215 17.58       303.2 0.40                           135 128 
 GUE  SZ EP        215  3.22                              56    -1.1 9  180  43 
 GUE  SZ ES   1    215 24.82                              56    -0.1 7  180  43 
 BRI  SZ EP        215  4.76                              56     0.4 9  181  49 
 GRA  SZ EP        215  5.94                              56     0.1 9  193  45 
 GRA  SZ ES   1    215 28.30                              56     0.7 7  193  45 
 OCA  SZ EP        215  5.24                              56    -0.5 9  193  24 
 OCA  SZ I         215 44.28        91.2 0.71                           193  24 
 GUY  HZ EP        215  9.20                              56     0.3 8  215 223 
 CHI  HZ EP   2    215 10.85                              56     0.7 4  226 171 
 RREF BZ IP     C  215 12.04                              56    -0.4 8  241 217 
 RREF BN ES   1    215 38.71                              56    -0.6 6  241 217 
 RREF BZ I         215 42.32        76.5 0.37                           241 217 
 DBB  SZ EP        215 12.97                              56     1.0 8  243 280 
 ANIL BZ EP   2    215 17.22                              55     0.2 4  282 212 
 ANIL BN ES   1    215 47.09                              55    -0.6 6  282 212 
 ANIL BZ I         215 56.27       101.1 0.36                           282 212 
                                                                                
