 2017  811 0530 48.6 L   6.697 -72.994144.0  RSN  4 0.4 1.2LRSN                1
 GAP=247        1.02       6.5     9.9  8.4  0.5566E+01  0.7236E+01  0.1825E+00E
 Epicentro: ARATOCA - SANTANDER                                                3
 ACTION:UPD 17-09-04 20:19 OP:rebc STATUS:               ID:20170811053048 L   I
 OLDACT:REG 17-08-11 12:41 OP:dhb  STATUS:               ID:20170811052740     3
 2017-08-11-0528-00M.COL___413                                                 6
 STAT SP IPHASW D HRMM SECON CODA AMPLIT PERI AZIMU VELO AIN AR TRES W  DIS CAZ7
 BAR2 EZ EP        531  7.53                             170   -0.4910 23.8 241 
 BAR2 EZ ES        531 23.57                             170    0.4010 23.8 241 
 BAR2 EZ I         531 24.87         3.9 0.13            169           23.8 241 
 RUS  HZ EP        531 12.07                             147    0.6710 89.5 186 
 RUS  HN ES        531 28.70                             147   -0.4810 89.5 186 
 RUS  HZ I         531 32.60         2.6 0.27            146           89.5 186 
 BRR  HZ EP        531 10.56                             146   -0.2610 91.4 300 
 BRR  HN ES   1    531 28.28                             146    0.12 7 91.4 300 
 SPBC HZ EP        531 17.39                             128    0.15 9  166 226 
 SPBC HN ES        531 39.56                             128   -0.02 9  166 226 
 SPBC HZ I         531 41.69         1.8 0.12            129            166 226 
                                                                                
