 2012  911 0948 56.2 L   6.775 -73.140145.7  RSN 15 0.3 2.6LRSN                1
 GAP= 66        0.63       3.0     2.5  4.1  0.5847E+00  0.1820E+01  0.5193E+01E
 Epicentro: LOS SANTOS - SANTANDER                                             3
 ACTION:UPD 12-10-22 14:18 OP:ep   STATUS:               ID:20120911094856 L   I
 2012-09-11-0944-37M.COL___208                                                 6
 STAT SP IPHASW D HRMM SECON CODA AMPLIT PERI AZIMU VELO AIN AR TRES W  DIS CAZ7
 BAR2 SZ EP        949 15.81                             171    0.0010 20.7 193 
 BAR2 SZ ES   1    949 31.19                             171    0.11 7 20.7 193 
 BAR2 SZ I         949 33.72       121.8 0.40                          20.7 193 
 GIR2 SZ EP        949 15.80                             166   -0.1810 34.1 350 
 BRR  HZ IP     C  949 17.63                             152    0.1510 73.1 300 
 BRR  HZ I         949 19.57        63.5 0.13                          73.1 300 
 BRR  HE ES        949 34.55                             152    0.4910 73.1 300 
 PAM  SZ EP        949 18.56                             150    0.0110 79.1  38 
 PAM  SZ I         949 18.81       112.1 0.18                          79.1  38 
 PAM  SN ES        949 35.77                             150   -0.1810 79.1  38 
 RUS  HZ EP        949 19.62                             145   -0.1610 97.8 176 
 RUS  HE ES   1    949 37.72                             145   -0.42 7 97.8 176 
 PTB  HZ EP   2    949 22.66                             132   -0.55 5  148 260 
 PTB  HE ES   2    949 43.66                             132   -0.59 5  148 260 
 TAM  HZ EP   1    949 23.75                             131   -0.03 7  154 104 
 TAM  HZ I         949 24.00        32.6 0.17                           154 104 
 TAM  HN ES   1    949 45.47                             131    0.20 7  154 104 
 YOP  SZ EP        949 26.22                             127    0.22 9  176 153 
 YOP  SZ I         949 50.83        32.8 0.26                           176 153 
 ZAR  HZ EP   1    949 28.40                             122   -0.44 6  206 293 
 ZAR  HE ES   1    949 53.98                             122   -0.30 6  206 293 
 ZAR  HZ I         950  0.16        33.0 0.23                           206 293 
 NOR  SZ EP   1    949 31.51                             119   -0.33 6  234 235 
 NOR  SN ES   2    950  0.13                             119    0.51 4  234 235 
 NOR  SZ I         950  4.03        36.3 0.25                           234 235 
 CHI  HZ EP   1    949 33.83                             117    0.17 6  246 195 
 CHI  HZ I         949 36.46        14.0 0.32                           246 195 
 ROSC BZ EP   1    949 34.80                             117    0.67 6  251 211 
 ROSC BZ I         950 13.55        41.6 0.60                           251 211 
 HEL  HZ EP   2    949 37.14                             115    0.70 4  272 256 
 HEL  HZ I         950 14.09        12.0 0.30                           272 256 
 TOL  SZ EP   1    949 44.81                             109    0.50 5  342 225 
 PRA  HZ EP   1    949 49.12                             107   -0.39 4  390 210 
 PRA  HN ES   1    950 30.75                             107   -0.31 4  390 210 
                                                                                
