 2015  411 0530 41.3 L   6.391 -73.239 19.9  RSN  5 0.2 1.2LRSN                1
 GAP=133        0.61       1.4     2.9  3.6  0.1376E+01  0.7898E+01  0.1773E+01E
 Epicentro: CONFINES - SANTANDER                                               3
 ACTION:UPD 15-06-03 16:54 OP:cam  STATUS:               ID:20150411053041 L   I
 OLDACT:DUP 15-04-11 16:21 OP:carl STATUS:               ID:20150411051746d    3
 2015-04-11-0517-45M.COL___263                                                 6
 STAT SP IPHASW D HRMM SECON CODA AMPLIT PERI AZIMU VELO AIN AR TRES W  DIS CAZ7
 BAR2 EZ EP        530 46.70                             130    0.1010 23.1  16 
 BAR2 EZ ES        530 50.38                             130   -0.3210 23.1  16 
 BAR2 EZ I         530 51.34        59.1 0.48            133           23.1  16 
 RUS  HZ EP        530 51.72                             108    0.1510 57.7 163 
 RUS  HN ES        530 59.43                             108   -0.1210 57.7 163 
 RUS  HZ I         530 59.73         7.2 0.12            112           57.7 163 
 BRR  HZ EP        530 56.83                             100    0.3010 94.9 327 
 BRR  HN ES        531  8.44                             100    0.0710 94.9 327 
 BRR  HZ I         531 14.44         4.9 0.20            101           94.9 327 
 PAM  SE ES        531 16.14                              98   -0.0210  121  30 
 PTB  HZ EP        531  2.43                              56    0.22 9  136 277 
 PTB  HE ES        531 18.09                              56   -0.40 9  136 277 
 PTB  HZ I         531 19.38         4.6 0.10             56            136 277 
                                                                                
