 2015  411 0915 48.5 L   6.810 -73.140150.2  RSN 10 0.4 2.3LRSN                1
 GAP=137        1.08       3.1     4.4  5.9 -0.2340E+01  0.6809E+01 -0.2118E+01E
 Epicentro: LOS SANTOS - SANTANDER                                             3
 ACTION:UPD 15-06-03 16:54 OP:cam  STATUS:               ID:20150411091548 L   I
 OLDACT:REG 15-04-11 14:09 OP:carl STATUS:               ID:20150411090747     3
 2015-04-11-0907-47M.COL___263                                                 6
 STAT SP IPHASW D HRMM SECON CODA AMPLIT PERI AZIMU VELO AIN AR TRES W  DIS CAZ7
 BAR2 EZ IP     D  916  8.74                             170    0.0510 24.5 191 
 BAR2 EZ ES        916 24.09                             170   -0.3510 24.5 191 
 BAR2 EZ I         916 25.01        30.3 0.30            169           24.5 191 
 BRR  HZ IP     C  916 10.59                             153    0.4610 71.2 298 
 BRR  HN ES        916 27.96                             153    0.9510 71.2 298 
 BRR  HZ I         916 31.01        28.8 0.30            149           71.2 298 
 PAM  SZ EP        916 11.49                             152    0.3710 76.2  40 
 PAM  SN ES        916 28.84                             152    0.0710 76.2  40 
 PAM  SZ I         916 30.89        48.9 0.56            155           76.2  40 
 RUS  HZ EP        916 12.62                             144   -0.1510  102 176 
 RUS  HN ES        916 31.56                             144   -0.1410  102 176 
 RUS  HZ I         916 32.97         9.1 0.44            149            102 176 
 PTB  HZ EP        916 15.42                             133   -0.49 9  149 258 
 PTB  HN ES        916 36.81                             133   -0.47 9  149 258 
 PTB  HZ I         916 44.12        26.4 0.36            132            149 258 
 OCA  HZ EP        916 16.92                             131   -0.15 9  159 353 
 OCA  HN ES        916 39.09                             131   -0.26 9  159 353 
 OCA  HZ I         916 43.57        31.8 0.16            131            159 353 
 SPBC HZ EP        916 17.74                             130    0.28 9  164 219 
 SPBC HN ES        916 39.39                             130   -0.66 9  164 219 
 SPBC HZ I         916 45.62        28.8 0.24            131            164 219 
 ZAR  HZ EP        916 21.40                             123    0.15 9  204 292 
 ZAR  HN ES        916 46.82                             123    0.02 9  204 292 
 ZAR  HZ I         916 56.61        13.0 0.50            123            204 292 
 NOR  HZ EP        916 25.30                             119    0.69 8  236 234 
 NOR  HN ES        916 53.22                             119    0.44 8  236 234 
 NOR  HZ I         916 56.22         7.5 0.28            120            236 234 
 SML  HZ EP        916 24.71                             118   -0.59 8  243 335 
 SML  HN ES        916 53.59                             118   -0.41 8  243 335 
 SML  HZ I         917  4.72        24.8 0.24            119            243 335 
                                                                                
