 2010 1111 0226 52.1 L   5.983 -73.694117.0  RSN  7 0.3 1.5LRSN                1
 GAP=109        0.81       3.9     3.7  8.7 -0.5722E+01  0.1411E+02 -0.1422E+01E
 Epicentro: VELEZ - SANTANDER                                                  3
 ACTION:UP  10-12-17 16:51 OP:REBC STATUS:               ID:20101111022652 L   I
 2010-11-11-0224-12S.COL___129                                                 6
 STAT SP IPHASW D HRMM SECON CODA AMPLIT PERI AZIMU VELO SNR AR TRES W  DIS CAZ7
 RUS  HZ EP        227 10.90                             148     0.210   68  98 
 RUS  HN ES        227 25.22                             148     0.010   68  98 
 RUS  HZ I         227 26.56         3.3 0.64                            68  98 
 BAR2 SZ EP        227 11.97                             140     0.210   88  40 
 BAR2 SZ ES   1    227 27.38                             140     0.3 7   88  40 
 BAR2 SZ I         227 29.44        29.6 1.02                            88  40 
 BRR  HZ EP        227 14.48                             130    -0.110  124 359 
 BRR  HN ES        227 31.70                             130    -0.410  124 359 
 BRR  HZ I         227 34.29         5.9 0.41                           124 359 
 NOR  SZ EP        227 15.81                             126    -0.2 9  138 251 
 NOR  SE ES        227 34.63                             126     0.0 9  138 251 
 NOR  SZ I         227 36.60         1.1 0.06                           138 251 
 HEL  HN ES   2    227 48.68                             115     1.0 4  204 277 
 HEL  HZ I         227 53.29         3.1 0.71                           204 277 
 RREF HN ES   1    227 50.94                             114    -0.2 6  219 237 
 RREF HZ I         227 55.21         2.6 0.06                           219 237 
 PRA  HZ I         227 34.62         9.8 1.35                           284 208 
 PRA  HN ES   2    228  2.27                             107    -0.7 4  284 208 
                                                                                
