 2014 1211 0833 30.4 L   6.757 -73.171144.7  RSN  7 0.4 1.3LRSN                1
 GAP=135        1.14       5.3     4.8  7.6 -0.9687E+00  0.1087E+02  0.5820E+01E
 Epicentro: LOS SANTOS - SANTANDER                                             3
 ACTION:UPD 15-02-10 17:02 OP:nd   STATUS:               ID:20141211083330 L   I
 OLDACT:REG 14-12-11 13:05 OP:fm   STATUS:               ID:20141211082748     3
 2014-12-11-0827-48M.COL___298                                                 6
 STAT SP IPHASW D HRMM SECON CODA AMPLIT PERI AZIMU VELO AIN AR TRES W  DIS CAZ7
 BAR2 EZ EP        833 50.19                             172    0.3410 18.3 184 
 BAR2 EZ ES        834  5.16                             172    0.1710 18.3 184 
 BAR2 EZ I         834  8.80         9.3 0.48            176           18.3 184 
 BRR  HZ EP        833 51.81                             152    0.3410 71.3 303 
 BRR  HN ES        834  8.50                             152    0.6210 71.3 303 
 BRR  HZ I         834 13.16         3.9 0.28            153           71.3 303 
 PAM  SZ EP     D  833 53.26                             149    0.3910 82.8  39 
 PAM  SN ES        834  9.84                             149   -0.5310 82.8  39 
 PAM  SZ I         834 16.02         3.3 0.52            151           82.8  39 
 RUS  HZ EP        833 53.02                             145   -0.7410 96.1 174 
 RUS  HN ES        834 11.95                             145   -0.0110 96.1 174 
 RUS  HZ I         834 14.33         1.9 0.30            151           96.1 174 
 PTB  HZ EP        833 56.87                             132   -0.13 9  144 260 
 PTB  HE ES        834 17.19                             132   -0.52 9  144 260 
 PTB  HZ I         834 20.57         1.8 0.18            136            144 260 
 ZAR  HN ES        834 27.34                             122   -0.60 9  203 294 
 ZAR  HZ I         834 33.46         1.9 0.26            125            203 294 
 GUY2CHZ EP        834 13.77                             112    0.34 7  296 235 
 GUY2CHN ES        834 47.45                             112    0.48 7  296 235 
 GUY2CHZ I         834 56.98         0.9 0.28                           296 235 
                                                                                
