 2016  711 0310  6.3 L   6.502 -73.368128.7  RSN  6 0.3 1.3LRSN                1
 GAP= 94        0.69       3.3     3.2  4.9  0.1006E+01  0.6570E+01  0.2529E+01E
 Epicentro: SIMACOTA - SANTANDER                                               3
 ACTION:UPD 17-03-29 16:49 OP:lp   STATUS:               ID:20160711031006 L   I
 OLDACT:REG 16-07-11 12:32 OP:lv   STATUS:               ID:20160711030746     3
 2016-07-11-0307-46M.COL___331                                                 6
 STAT SP IPHASW D HRMM SECON CODA AMPLIT PERI AZIMU VELO AIN AR TRES W  DIS CAZ7
 BAR2 EZ EP        310 23.82                             169   -0.0510 22.8  64 
 BAR2 EZ ES        310 37.41                             169   -0.1610 22.8  64 
 BAR2 EZ I         310 39.20         9.0 0.24            175           22.8  64 
 RUS  HZ EP        310 26.69                             148    0.1510 74.4 155 
 RUS  HE ES     C  310 42.19                             148   -0.1310 74.4 155 
 RUS  HZ I         310 43.62         3.9 0.19            151           74.4 155 
 BRR  HZ EP        310 26.12                             147    0.1110 77.0 330 
 BRR  HE ES        310 41.71                             147    0.3410 77.0 330 
 BRR  HZ I         310 44.69         4.9 0.30            148           77.0 330 
 PTB  HZ EP        310 28.94                             134   -0.4810  120 272 
 PTB  HE ES        310 47.21                             134   -0.2410  120 272 
 PTB  HZ I         310 49.12         3.9 0.14            134            120 272 
 SPBC HZ EP        310 29.56                             134   -0.1010  122 220 
 SPBC HN ES        310 48.27                             134    0.3910  122 220 
 SPBC HZ I         310 52.22         5.5 0.10            134            122 220 
 CBOC HZ EP        310 49.26                             109    0.47 7  301 257 
 CBOC HN ES        311 21.76                             109   -0.16 7  301 257 
 CBOC HZ I         311 28.90         0.5 0.12            110            301 257 
                                                                                
