 2011  511 0649 24.9 L   5.774 -74.094 68.1  RSN  4 0.1 1.8LRSN                1
 GAP=207        0.36       5.6     4.7 17.2 -0.2173E+02 -0.5245E+01 -0.9165E+01E
 Epicentro: FLORIAN - SANTANDER                                                3
 ACTION:UP  11-06-29 08:52 OP:tino STATUS:               ID:20110511064924 L   I
 2011-05-11-0646-11S.COL___132                                                 6
 STAT SP IPHASW D HRMM SECON CODA AMPLIT PERI AZIMU VELO SNR AR TRES W  DIS CAZ7
 NOR  SZ EP        649 40.37                             121     0.010   89 255 
 BAR2 SZ EP   1    649 45.63                             110    -0.2 7  135  48 
 BAR2 SZ ES   2    650  2.16                             110     0.1 5  135  48 
 BAR2 SZ I         650  3.84        12.5 0.56                           135  48 
 BRR  HZ EP   1    649 47.75                             107     0.2 7  153  16 
 BRR  HZ I         649 48.00        13.1 0.16                           153  16 
 BRR  HN ES   2    650  5.23                             107    -0.1 5  153  16 
 HEL  HZ EP   3    649 49.20                             106    -0.3 2  165 286 
                                                                                
