 2017  211 0756 39.3 L   6.254 -72.974  1.8  RSN  5 0.4 0.7LRSN                1
 GAP=183        0.85       2.0     4.9  6.3 -0.3405E+01 -0.3982E+01  0.6312E+00E
 Epicentro: COROMORO - SANTANDER                                               3
 ACTION:UPD 17-05-24 15:35 OP:jn   STATUS:               ID:20170211075639 L   I
 OLDACT:UP  17-02-11 17:23 OP:and  STATUS:               ID:20170211074746d    3
 OLDACT:DUP 17-02-11 17:22 OP:and  STATUS:               ID:20170211074746d    3
 OLDACT:UP  17-02-11 17:21 OP:and  STATUS:               ID:20170211074745d    3
 OLDACT:DUP 17-02-11 17:18 OP:and  STATUS:               ID:20170211074745d    3
 OLDACT:DUP 17-02-11 17:13 OP:and  STATUS:               ID:20170211074744d    3
 OLDACT:UP  17-02-11 17:13 OP:and  STATUS:               ID:20170211074743     3
 OLDACT:REG 17-02-11 12:59 OP:and  STATUS:               ID:20170211074743     3
 2017-02-11-0748-00M.COL___346                                                 6
 STAT SP IPHASW D HRMM SECON CODA AMPLIT PERI AZIMU VELO AIN AR TRES W  DIS CAZ7
 RUS  HZ IP     C  756 46.97                              47   -0.0910 41.8 197 
 RUS  HN ES        756 53.10                              47   -0.0110 41.8 197 
 RUS  HZ I         756 53.76         3.4 0.15             47           41.8 197 
 BAR2 EZ EP        756 46.61                              47   -0.5110 43.9 328 
 BAR2 EZ ES   2    756 52.41                              47   -0.80 5 43.9 328 
 BAR2 EZ I         756 53.17        11.4 0.28             47           43.9 328 
 PAM  EZ EP        756 59.38                              47   -0.1010  124  14 
 PAM  EN ES        757 15.52                              47    0.3110  124  14 
 BRR  HZ EP   3    757  0.26                              47    1.14 2  125 319 
 BRR  HN ES   2    757 14.86                              47    0.29 5  125 319 
 PTB  HZ IP     C  757  6.12                              47    0.58 9  167 281 
                                                                                
