 2012  411 0712 27.9 L   7.352 -73.162132.4  RSN  4 0.1 1.5LRSN                1
 GAP=206        0.39       5.2     2.9  4.1 -0.8450E+01  0.5055E+01 -0.4693E+01E
 Epicentro: RIONEGRO - SANTANDER                                               3
 ACTION:UPD 12-07-05 11:52 OP:tino STATUS:               ID:20120411071227 L   I
 2012-04-11-0710-00M.COL___176                                                 6
 STAT SP IPHASW D HRMM SECON CODA AMPLIT PERI AZIMU VELO AIN AR TRES W  DIS CAZ7
 PAM  SZ EP   1    712 47.43                             158     0.2 7   51  92 
 PAM  SN ES        713  2.21                             158    -0.110   51  92 
 BRR  HZ EP        712 47.21                             152    -0.110   66 246 
 BRR  HN ES        713  2.57                             152     0.110   66 246 
 BRR  HZ I         713  3.42         5.7 0.12                            66 246 
 BAR2 SZ ES   1    713  5.10                             146     0.0 7   84 182 
 BAR2 SZ I         713 33.65         7.6 0.68                            84 182 
 PTB  HZ EP   1    712 55.87                             125     0.0 7  169 238 
 PTB  HE ES   1    713 17.55                             125    -0.1 7  169 238 
                                                                                
