 2015  911 0939 28.8 L   6.799 -73.160135.8  RSN 11 0.4 1.9LRSN                1
 GAP=181        1.03       3.3     4.4  6.7 -0.3142E+01  0.1089E+02 -0.5658E+01E
 Epicentro: LOS SANTOS - SANTANDER                                             3
 ACTION:UPD 15-10-28 16:25 OP:cam  STATUS:               ID:20150911093928 L   I
 OLDACT:REG 15-09-11 13:16 OP:drio STATUS:               ID:20150911093747     3
 2015-09-11-0937-47M.COL___347                                                 6
 STAT SP IPHASW D HRMM SECON CODA AMPLIT PERI AZIMU VELO AIN AR TRES W  DIS CAZ7
 BAR2 EZ EP        939 47.47                             170    0.2310 23.0 186 
 BAR2 EZ ES        940  1.31                             170   -0.3110 23.0 186 
 BAR2 EZ I         940  3.45        28.7 0.14            167           23.0 186 
 BRR  HZ EP        939 49.47                             151    0.6510 69.9 299 
 BRR  HN ES   4    940  6.10                             151    1.68 0 69.9 299 
 BRR  HZ I         940  8.98        15.0 0.14            147           69.9 299 
 RUS  HZ EP        939 51.43                             142   -0.1710  101 175 
 RUS  HE ES        940  9.86                             142    0.4810  101 175 
 RUS  HZ I         940 11.52         9.8 0.40            140            101 175 
 PTB  HZ EP        939 54.18                             130   -0.66 9  146 259 
 PTB  HN ES        940 15.08                             130   -0.06 9  146 259 
 PTB  HZ I         940 18.08        12.7 0.46            127            146 259 
 OCA  HZ EP        939 56.14                             127   -0.22 9  160 354 
 OCA  HE ES        940 17.80                             127   -0.05 9  160 354 
 OCA  HZ I         940 19.48        14.1 0.26            127            160 354 
 SPBC HZ EP        939 56.50                             127    0.04 9  162 219 
 SPBC HZ I         940 15.77         9.1 0.10            124            162 219 
 SPBC HE ES        940 17.57                             127   -0.46 9  162 219 
 ZAR  HZ EP        940  1.06                             120    0.58 9  203 292 
 ZAR  HE ES        940 25.54                             120    0.36 9  203 292 
 ZAR  HZ I         940 33.31         8.5 0.24            118            203 292 
 NOR  HZ EP        940  3.96                             116    0.12 8  233 234 
 NOR  HE ES        940 30.44                             116   -0.72 8  233 234 
 NOR  HZ I         940 38.62         4.1 0.12            115            233 234 
 SML  HZ EP        940  4.12                             115   -0.72 8  243 336 
 SML  HN ES   4    940 31.64                             115   -1.30 0  243 336 
 SML  HZ I         940 35.55         7.9 0.30            114            243 336 
 HEL  HZ EP        940  8.72                             113    0.36 8  271 256 
 HEL  HN ES        940 39.21                             113   -0.00 8  271 256 
 HEL  HZ I         940 49.11         4.2 0.64            111            271 256 
 GUY2CHZ EP   4    940 13.00                             110    1.17 0  300 235 
 GUY2CHN ES        940 45.93                             110    0.55 7  300 235 
 GUY2CHZ I         940 52.64         3.1 0.28                           300 235 
                                                                                
