 2014 1011 0839 48.5 L   6.802 -73.199138.5  RSN  4 0.3 1.3LRSN                1
 GAP=196        0.74       6.3     6.0 13.5  0.2541E+02 -0.2472E+02 -0.4867E+02E
 Epicentro: ZAPATOCA - SANTANDER                                               3
 ACTION:UPD 14-11-29 23:48 OP:nd   STATUS:               ID:20141011083948 L   I
 OLDACT:DUP 14-10-11 13:43 OP:fm   STATUS:               ID:20141011083747d    3
 2014-10-11-0837-46M.COL___291                                                 6
 STAT SP IPHASW D HRMM SECON CODA AMPLIT PERI AZIMU VELO AIN AR TRES W  DIS CAZ7
 RUS  HZ EP        840 11.63                             142    0.0010  101 173 
 RUS  HN ES        840 29.76                             142    0.1210  101 173 
 RUS  HZ I         840 30.56         1.5 0.58            150            101 173 
 PTB  HZ EP   1    840 14.29                             132   -0.09 7  142 258 
 PTB  HN ES        840 34.15                             132   -0.40 9  142 258 
 PTB  HZ I         840 38.17         1.5 0.18            135            142 258 
 ZAR  HN ES        840 45.00                             122    0.57 9  199 293 
 ZAR  HZ I         840 53.53         3.7 0.26            124            199 293 
 SML  HZ EP   4    840 22.01                             116   -2.46 0  241 337 
 SML  HE ES   1    840 52.13                             116   -0.38 6  241 337 
 SML  HZ I         840 57.60         1.9 0.24            118            241 337 
                                                                                
