 2014 1011 0541 54.4 L   7.096 -73.063169.4  RSN  8 0.5 1.6LRSN                1
 GAP=125        1.28       5.2     8.7  9.6 -0.6775E+01  0.1068E+02 -0.8829E+00E
 Epicentro: FLORIDABLANCA - SANTANDER                                          3
 ACTION:UPD 14-11-29 23:48 OP:nd   STATUS:               ID:20141011054154 L   I
 OLDACT:DUP 14-10-11 17:08 OP:fm   STATUS:               ID:20141011053742d    3
 2014-10-11-0537-41M.COL___291                                                 6
 STAT SP IPHASW D HRMM SECON CODA AMPLIT PERI AZIMU VELO AIN AR TRES W  DIS CAZ7
 PAM  SN ES   1    542 35.58                             164   -0.68 7 48.3  56 
 PAM  SZ I         542 37.49         5.1 0.46            167           48.3  56 
 BAR2 SZ ES   1    542 36.67                             161    0.47 7 57.3 193 
 BAR2 SZ I         542 37.38        10.3 0.22            160           57.3 193 
 BRR  HZ EP        542 18.87                             156    0.6810 71.7 271 
 BRR  HN ES        542 37.02                             156    0.2810 71.7 271 
 OCA  HZ EP   1    542 22.80                             141    0.67 7  130 347 
 OCA  HN ES        542 43.65                             141   -0.1010  130 347 
 OCA  HZ I         542 46.87         5.2 0.74            141            130 347 
 RUS  HZ EP        542 22.60                             140   -0.2810  133 181 
 RUS  HN ES        542 44.88                             140   -0.2110  133 181 
 PTB  HZ EP        542 24.20                             133   -0.76 9  166 248 
 PTB  HN ES        542 48.01                             133   -0.78 9  166 248 
 PTB  HZ I         542 52.75         2.4 0.22            132            166 248 
 SPBC HN ES        542 54.52                             129    0.80 9  195 215 
 SPBC HZ I         543  1.35         2.7 0.22            129            195 215 
 SML  HZ EP   1    542 30.03                             125    0.08 6  219 330 
 SML  HE ES   4    542 55.79                             125   -1.88 0  219 330 
 SML  HZ I         543  2.15         6.8 0.10            125            219 330 
                                                                                
