 2013  411 0655 23.4 L   6.772 -73.145147.6  RSN  6 0.4 1.7LRSN                1
 GAP=139        1.07       6.4     6.2  8.2  0.4594E+01 -0.8948E+01 -0.1451E+02E
 Epicentro: LOS SANTOS - SANTANDER                                             3
 ACTION:UPD 13-05-22 14:37 OP:EP   STATUS:               ID:20130411065523 L   I
 2013-04-11-0648-44M.COL___211                                                 6
 STAT SP IPHASW D HRMM SECON CODA AMPLIT PERI AZIMU VELO AIN AR TRES W  DIS CAZ7
 BAR2 SZ EP        655 42.99                             172   -0.2110 20.2 192 
 BAR2 SZ ES        655 57.94                             172   -0.7010 20.2 192 
 BAR2 SZ I         655 59.96         7.7 0.30            171           20.2 192 
 GIR2 SZ EP        655 43.69                             166    0.3010 34.4 351 
 BRR  HZ EP        655 45.16                             152    0.3110 72.8 301 
 BRR  HN ES        656  2.10                             152    0.5410 72.8 301 
 BRR  HN I         656  3.40        15.5 0.20            152           72.8 301 
 RUS  HZ EP        655 47.51                             145    0.3910 97.4 176 
 RUS  HN ES        656  5.88                             145    0.2710 97.4 176 
 RUS  HN I         656  7.40         7.0 0.44            146           97.4 176 
 PTB  HZ EP        655 49.98                             132   -0.50 9  147 260 
 PTB  HN ES        656 11.37                             132   -0.22 9  147 260 
 PTB  HN I         656 14.66         9.0 0.18            133            147 260 
 CAPV BZ EP        655 50.85                             132   -0.33 9  152  37 
                                                                                
