 2012  911 0916 19.1 L   6.773 -73.159139.8  RSN 13 0.3 2.5LRSN                1
 GAP= 65        0.63       2.6     2.5  3.9 -0.7032E+00 -0.5705E-01  0.3913E+01E
 Epicentro: LOS SANTOS - SANTANDER                                             3
 ACTION:UPD 12-10-22 14:18 OP:ep   STATUS:               ID:20120911091619 L   I
 2012-09-11-0910-00M.COL___227                                                 6
 STAT SP IPHASW D HRMM SECON CODA AMPLIT PERI AZIMU VELO AIN AR TRES W  DIS CAZ7
 BAR2 SZ IP        916 38.15                             171    0.1710 20.2 188 
 BAR2 SZ ES   1    916 52.35                             171   -0.34 7 20.2 188 
 BAR2 SZ I         916 54.24        74.9 0.38                          20.2 188 
 GIR2 SZ EP        916 38.11                             166   -0.0710 34.0 353 
 GIR2 SZ ES   1    916 53.04                             166    0.01 7 34.0 353 
 BRR  HZ IP     C  916 39.90                             151    0.2410 71.5 301 
 BRR  HN ES        916 56.19                             151    0.5310 71.5 301 
 BRR  HZ I         917  0.95        40.2 0.14                          71.5 301 
 PAM  SZ EP        916 40.93                             149    0.0110 80.6  39 
 PAM  SE ES   1    916 57.37                             149   -0.54 7 80.6  39 
 PAM  SZ I         917  0.03        82.5 0.47                          80.6  39 
 RUS  HZ EP        916 42.14                             143    0.0510 97.7 175 
 RUS  HE ES   1    916 59.90                             143   -0.10 7 97.7 175 
 RUS  HZ I         917  2.70        45.5 0.27                          97.7 175 
 PTB  HZ EP   2    916 45.25                             131   -0.19 5  146 260 
 PTB  HN ES   1    917  5.98                             131    0.02 7  146 260 
 TAM  HZ IP     C  916 46.54                             129    0.13 9  156 104 
 YOP  SZ EP   1    916 48.53                             125   -0.02 7  177 152 
 YOP  SZ I         917 16.36        39.6 0.37                           177 152 
 ZAR  HZ EP   1    916 50.70                             121   -0.48 6  204 293 
 ZAR  HN ES   1    917 15.78                             121   -0.40 6  204 293 
 ZAR  HZ I         917 22.65        19.9 0.32                           204 293 
 NOR  SZ EP   1    916 53.97                             117   -0.24 6  232 235 
 NOR  SN ES   1    917 21.38                             117   -0.19 6  232 235 
 NOR  SZ I         917 27.33        18.5 0.22                           232 235 
 CHI  HZ EP   2    916 55.60                             116   -0.55 4  245 195 
 CHI  HE ES   1    917 25.35                             116    0.33 6  245 195 
 ROSC BZ EP   1    916 57.20                             116    0.63 6  249 211 
 ROSC BN ES   1    917 25.10                             116   -0.67 6  249 211 
 ROSC BZ I         917 32.57        25.9 0.52                           249 211 
 PRA  HZ EP   1    917 12.03                             106   -0.04 4  389 210 
 PRA  HN ES   1    917 53.65                             106    0.30 4  389 210 
 PRA  HZ I         918  0.69        18.7 0.24                           389 210 
                                                                                
