 2013 1111 0402 47.5 L   6.808 -73.175145.0  RSN  9 0.5 1.8LRSN                1
 GAP=180        1.12       4.0     5.8  7.2  0.4199E+01  0.6139E+00 -0.8120E+01E
 Epicentro: LOS SANTOS - SANTANDER                                             3
 ACTION:UPD 14-01-09 16:27 OP:ep   STATUS:               ID:20131111040247 L   I
 OLDACT:REG 13-11-11 07:48 OP:nd   STATUS:               ID:20131111040000     3
 2013-11-11-0400-00M.COL___273                                                 6
 STAT SP IPHASW D HRMM SECON CODA AMPLIT PERI AZIMU VELO AIN AR TRES W  DIS CAZ7
 BAR2 SZ EP        4 3  7.17                             170    0.1010 23.9 182 
 BAR2 SZ ES        4 3 22.29                             170   -0.0310 23.9 182 
 BAR2 SZ I         4 3 23.55        18.9 0.38            170           23.9 182 
 BRR  HZ EP        4 3  9.03                             154    0.6210 68.0 299 
 BRR  HN ES        4 3 25.16                             154    0.4610 68.0 299 
 BRR  HZ I         4 3 29.67         7.8 0.42            150           68.0 299 
 RUS  HZ EP        4 3 11.34                             143    0.0610  102 174 
 RUS  HN ES        4 3 29.61                             143   -0.2010  102 174 
 RUS  HZ I         4 3 32.43         7.2 0.48            147            102 174 
 PTB  HZ EP        4 3 14.02                             133   -0.14 9  145 258 
 PTB  HN ES        4 3 34.54                             133   -0.39 9  145 258 
 PTB  HZ I         4 3 42.73         8.3 0.28            132            145 258 
 OCA  HZ EP        4 3 16.00                             130    0.35 9  159 354 
 OCA  HN ES   2    4 3 37.07                             130   -0.53 5  159 354 
 OCA  HZ I         4 3 42.98         6.6 0.17            132            159 354 
 SPBC HZ EP        4 3 15.89                             129    0.05 9  162 218 
 SPBC HN ES        4 3 37.35                             129   -0.57 9  162 218 
 SPBC HZ I         4 3 43.19        11.9 0.24            131            162 218 
 ZAR  HZ EP   2    4 3 19.99                             123    0.42 4  201 292 
 ZAR  HN ES        4 3 45.30                             123    0.72 9  201 292 
 ZAR  HZ I         4 3 52.51         7.0 0.60            123            201 292 
 SML  HZ EP        4 3 23.70                             118   -0.17 8  242 336 
 SML  HN ES        4 3 50.96                             118   -1.26 8  242 336 
 SML  HZ I         4 3 55.09         9.4 0.10            119            242 336 
 SJC  HZ EP   4    4 3 41.32                             106   -1.44 0  407 327 
 SJC  HN ES   4    4 4 22.20                             106   -3.65 0  407 327 
 SJC  HZ I         4 4 28.31         1.3 0.28            107            407 327 
                                                                                
