 2015  411 0149 56.9 L   6.818 -73.140147.8  RSN  8 0.4 2.5LRSN                1
 GAP=136        1.07       3.9     4.5  6.4 -0.5635E+00  0.8778E+01 -0.2726E+01E
 Epicentro: LOS SANTOS - SANTANDER                                             3
 ACTION:UPD 15-06-03 16:54 OP:cam  STATUS:               ID:20150411014956 L   I
 OLDACT:REG 15-04-11 14:01 OP:carl STATUS:               ID:20150411014748     3
 2015-04-11-0147-48M.COL___263                                                 6
 STAT SP IPHASW D HRMM SECON CODA AMPLIT PERI AZIMU VELO AIN AR TRES W  DIS CAZ7
 BAR2 EZ IP     C  150 16.76                             170   -0.0310 25.4 191 
 BAR2 EZ ES        150 32.22                             170   -0.1110 25.4 191 
 BAR2 EZ I         150 33.09        53.9 0.16            170           25.4 191 
 BRR  HZ IP     C  150 18.55                             153    0.3310 70.8 297 
 BRR  HN ES        150 35.45                             153    0.5810 70.8 297 
 BRR  HZ I         150 38.44        43.7 0.28            151           70.8 297 
 PAM  SZ EP        150 19.63                             152    0.4410 75.5  40 
 PAM  SN ES        150 36.56                             152   -0.0510 75.5  40 
 PAM  SZ I         150 38.60        65.8 0.46            155           75.5  40 
 RUS  HZ EP        150 20.82                             144   -0.1410  103 176 
 RUS  HN ES        150 39.54                             144   -0.2110  103 176 
 RUS  HZ I         150 41.18        23.5 0.30            146            103 176 
 PTB  HZ EP        150 23.45                             132   -0.64 9  149 258 
 PTB  HN ES        150 44.41                             132   -0.91 9  149 258 
 PTB  HZ I         150 47.26        33.8 0.10            132            149 258 
 ZAR  HZ EP        150 29.46                             123    0.03 9  204 292 
 ZAR  HN ES        150 55.08                             123    0.25 9  204 292 
 ZAR  HZ I         151  1.27        31.7 0.22            123            204 292 
 NOR  HZ EP        150 33.36                             119    0.47 8  236 234 
 NOR  HE ES        151  1.70                             119    0.71 8  236 234 
 NOR  HZ I         151  6.88        21.3 0.16            120            236 234 
 SML  HZ EP        150 33.10                             118   -0.34 8  242 335 
 SML  HN ES        151  1.61                             118   -0.36 8  242 335 
 SML  HZ I         151  4.64        39.0 0.10            119            242 335 
                                                                                
