 2012  311 0721 33.6 L   6.775 -73.095142.1  RSN  6 0.3 1.4LRSN                1
 GAP=144        0.74       5.0     5.2  6.8  0.5491E+01  0.6860E+01  0.1817E+01E
 ACTION:UP  12-03-31 23:18 OP:EP   STATUS:               ID:20120311072133 L   I
 2012-03-11-0720-00M.COL___193                                                 6
 STAT SP IPHASW D HRMM SECON CODA AMPLIT PERI AZIMU VELO SNR AR TRES W  DIS CAZ7
 BAR2 SZ ES   1    722  7.76                             171     0.0 7   22 205 
 BAR2 SZ I         722  8.85        11.2 0.30                            22 205 
 PAM  SZ EP   1    721 55.77                             151     0.4 7   76  35 
 PAM  SN ES   1    722 11.82                             151    -0.5 7   76  35 
 BRR  HZ EP        721 54.77                             150     0.010   77 298 
 BRR  HE ES        722 11.48                             150     0.310   77 298 
 RUS  HZ EP   1    721 56.91                             144     0.1 7   98 179 
 RUS  HE ES   1    722 14.70                             144    -0.1 7   98 179 
 RUS  HZ I         722 16.06         2.6 0.27                            98 179 
 PTB  HZ EP   1    722  0.36                             130    -0.4 7  153 260 
 PTB  HZ I         722 23.26         2.2 0.16                           153 260 
 ZAR  HE ES   1    722 31.75                             121    -0.3 6  210 292 
 ZAR  HZ I         722 37.62         3.1 0.33                           210 292 
                                                                                
