 2014  911 0311 15.2 L   6.684 -73.187152.6  RSN  4 0.3 1.3LRSN                1
 GAP=224        0.66       5.8     5.6  7.0  0.1866E+02 -0.2000E+01  0.1734E+01E
 Epicentro: VILLANUEVA - SANTANDER                                             3
 ACTION:UPD 14-10-03 23:03 OP:nd   STATUS:               ID:20140911031115 L   I
 OLDACT:UP  14-09-11 13:09 OP:mh   STATUS:               ID:20140911031000     3
 OLDACT:REG 14-09-11 12:15 OP:mh   STATUS:               ID:20140911031000     3
 2014-09-11-0310-00M.COL___285                                                 6
 STAT SP IPHASW D HRMM SECON CODA AMPLIT PERI AZIMU VELO AIN AR TRES W  DIS CAZ7
 BRR  HZ EP        311 36.99                             153   -0.2410 74.5 309 
 BRR  HN ES        311 54.44                             153   -0.0110 74.5 309 
 BRR  HZ I         311 57.67         4.1 0.40            150           74.5 309 
 RUS  HZ EP        311 38.95                             149    0.1810 88.3 172 
 RUS  HN ES   1    311 57.34                             149    0.16 7 88.3 172 
 RUS  HZ I         311 58.65         1.7 0.26            150           88.3 172 
 PTB  HZ EP        311 42.03                             135   -0.09 9  141 264 
 PTB  HN ES        312  2.88                             135   -0.27 9  141 264 
 PTB  HZ I         312  8.95         3.3 0.30            133            141 264 
 ZAR  HN ES   1    312 14.63                             124    0.73 6  205 296 
 ZAR  HZ I         312 20.31         2.6 0.08            124            205 296 
                                                                                
