 2013  111 0235 55.4 L   6.608 -73.508144.8  RSN  4 0.3 1.6LRSN                1
 GAP=117        0.65       5.0     5.0  7.8  0.1143E+02 -0.1129E+02 -0.3726E+01E
 Epicentro: EL CARMEN DE CHUCURI - SANTANDER                                   3
 ACTION:UPD 13-02-15 09:13 OP:ep   STATUS:               ID:20130111023555 L   I
 2013-01-11-0230-00M.COL___242                                                 6
 STAT SP IPHASW D HRMM SECON CODA AMPLIT PERI AZIMU VELO AIN AR TRES W  DIS CAZ7
 BAR2 SZ EP        236 15.63                             165    0.4010 36.1  93 
 BAR2 SZ I         236 30.59         6.8 0.48            154           36.1  93 
 BRR  HZ EP        236 15.77                             156   -0.0510 59.6 338 
 BRR  HN ES        236 31.59                             156   -0.1710 59.6 338 
 BRR  HN I         236 37.34         9.5 0.20            147           59.6 338 
 RUS  HZ EP   1    236 17.97                             146   -0.48 7 92.1 149 
 RUS  HN ES        236 36.46                             146    0.0210 92.1 149 
 RUS  HN I         236 38.06         5.3 0.44            142           92.1 149 
 PTB  HN ES        236 36.98                             142    0.0710  105 266 
 PTB  HN I         236 37.56        11.2 0.12            142            105 266 
                                                                                
