 2011  811 0802  0.3 L   6.717 -73.224139.1  RSN  4 0.2 1.3LRSN                1
 GAP=213        0.51       3.8     7.8  5.1  0.1298E+02  0.5279E+01  0.6907E+01E
 Epicentro: VILLANUEVA - SANTANDER                                             3
 ACTION:UPD 12-07-13 15:51 OP:ep   STATUS:               ID:20110811080200 L   I
 2011-08-11-0800-00S.COL___149                                                 6
 STAT SP IPHASW D HRMM SECON CODA AMPLIT PERI AZIMU VELO AIN AR TRES W  DIS CAZ7
 BAR2 SZ EP        8 2 18.76                             174   -0.1910 14.5 162 
 BAR2 SZ ES   1    8 2 33.32                             174   -0.20 7 14.5 162 
 BAR2 SZ I         8 2 35.30         6.3 0.06                          14.5 162 
 BRR  HZ EP   1    8 2 20.48                             152   -0.10 7 69.1 309 
 BRR  HE ES   1    8 2 36.63                             152    0.20 7 69.1 309 
 BRR  HZ I         8 2 41.80         4.7 0.19                          69.1 309 
 RUS  HZ EP        8 2 22.91                             145    0.1310 92.4 170 
 RUS  HZ I         8 2 23.89         1.7 0.08                          92.4 170 
 RUS  HN ES   1    8 2 40.58                             145    0.24 7 92.4 170 
 CHI  HZ EP   1    8 2 36.73                             117    0.33 6  238 194 
 CHI  HZ I         8 2 37.84         1.5 0.18                           238 194 
 CHI  HN ES   1    8 3  4.19                             117   -0.38 6  238 194 
                                                                                
