 2011  911 0126 18.3 L   6.825 -73.141142.8  RSN  5 0.3 1.5LRSN                1
 GAP=136        0.48       5.2     6.0  8.1  0.1084E+02  0.1698E+02  0.4171E+01E
 Epicentro: LOS SANTOS - SANTANDER                                             3
 ACTION:UPD 12-07-13 15:56 OP:ep   STATUS:               ID:20110911012618 L   I
 2011-09-11-0124-40S.COL___169                                                 6
 STAT SP IPHASW D HRMM SECON CODA AMPLIT PERI AZIMU VELO AIN AR TRES W  DIS CAZ7
 BAR2 SZ ES   2    126 52.60                             169   -0.11 5 26.2 190 
 BAR2 SZ I         126 54.19         5.3 0.41                          26.2 190 
 BRR  HZ EP   1    126 39.09                             152    0.02 7 70.4 296 
 BRR  HN ES   2    126 55.84                             152    0.56 5 70.4 296 
 BRR  HZ I         127  3.86        10.0 0.49                          70.4 296 
 PAM  SE ES   2    126 56.79                             151   -0.21 5 74.9  41 
 RUS  HZ EP   2    126 42.24                             142    0.29 5  103 176 
 RUS  HN ES   2    127  0.18                             142   -0.23 5  103 176 
 RUS  HZ I         127  0.30         1.7 0.30                           103 176 
 ZAR  HN ES   2    127 15.14                             122   -0.46 4  204 291 
 ZAR  HZ I         127 23.84         4.6 0.10                           204 291 
                                                                                
