 2017  711 0521 33.9 L   6.722 -73.163139.3  RSN  7 0.5 1.6LRSN                1
 GAP=243        1.17       6.8     7.6  8.6  0.7612E+01  0.1555E+02  0.2922E+01E
 Epicentro: VILLANUEVA - SANTANDER                                             3
 ACTION:UPD 17-08-30 15:31 OP:rebc STATUS:               ID:20170711052133 L   I
 OLDACT:UP  17-07-11 14:39 OP:dnl  STATUS:               ID:20170711051739     3
 OLDACT:UP  17-07-11 14:38 OP:dnl  STATUS:               ID:20170711051739     3
 OLDACT:REG 17-07-11 13:04 OP:dnl  STATUS:               ID:20170711051739     3
 2017-07-11-0518-00M.COL___365                                                 6
 STAT SP IPHASW D HRMM SECON CODA AMPLIT PERI AZIMU VELO AIN AR TRES W  DIS CAZ7
 BAR2 EZ EP        521 52.29                             174   -0.2610 14.5 188 
 BAR2 EZ ES        522  7.09                             174   -0.0510 14.5 188 
 BAR2 EZ I         522  8.13        13.1 0.14            171           14.5 188 
 BRR  HZ EP        521 54.22                             150   -0.2610 74.1 305 
 BRR  HN ES        522 11.05                             150    0.4910 74.1 305 
 BRR  HZ I         522 15.52         6.5 0.15            149           74.1 305 
 PTB  HZ EP        521 59.29                             131   -0.70 9  144 262 
 PTB  HN ES        522 19.74                             131   -0.64 9  144 262 
 PTB  HZ I         522 22.53         3.0 0.18            131            144 262 
 SPBC HZ EP        522  1.45                             129    0.34 9  155 220 
 SPBC HN ES        522 22.83                             129    0.46 9  155 220 
 SPBC HZ I         522 26.43         7.1 0.22            130            155 220 
 ZAR  HZ EP        522  6.88                             121    0.82 8  206 295 
 ZAR  HN ES        522 31.16                             121   -0.01 8  206 295 
 ZAR  HZ I         522 36.23         5.0 0.28            122            206 295 
 GUY2CHZ EP   4    522 17.45                             112    1.02 0  295 236 
 GUY2CHE ES   4    522 53.15                             112    3.51 0  295 236 
 GUY2CHZ I         522 57.28         2.3 0.24                           295 236 
 SJC  HZ EP   4    522 27.30                             104   -2.64 0  415 328 
 SJC  HN ES   4    523  5.96                             104   -7.73 0  415 328 
 SJC  HZ I         523 12.85         1.3 0.42            106            415 328 
                                                                                
