 2017  511 0310 30.8 L   6.799 -73.191149.3  RSN 11 0.3 1.8LRSN                1
 GAP=131        0.89       4.0     4.1  7.5  0.1886E+01 -0.3333E+01  0.7255E+00E
 Epicentro: ZAPATOCA - SANTANDER                                               3
 ACTION:UPD 17-06-16 13:34 OP:jn   STATUS:               ID:20170511031030 L   I
 OLDACT:UP  17-05-15 19:25 OP:nlst STATUS:               ID:20170511031030 L   3
 OLDACT:UP  17-05-11 17:13 OP:osc  STATUS:               ID:20170511030730     3
 OLDACT:REG 17-05-11 13:06 OP:osc  STATUS:               ID:20170511030730     3
 2017-05-11-0308-00M.COL___362                                                 6
 STAT SP IPHASW D HRMM SECON CODA AMPLIT PERI AZIMU VELO AIN AR TRES W  DIS CAZ7
 BRR  HZ EP     C  310 52.32                             155    0.2610 66.9 301 
 BRR  HN ES   1    311  9.26                             155    0.59 7 66.9 301 
 BRR  HZ I         311 11.79        11.4 0.26            150           66.9 301 
 PAM  EZ EP        310 53.32                             150   -0.2210 80.7  42 
 PAM  EE ES   4    311 10.78                             150   -0.54 0 80.7  42 
 PAM  EZ I         311 12.59         9.7 0.42            156           80.7  42 
 RUS  HZ EP        310 54.61                             144   -0.2710  101 173 
 RUS  HN ES        311 13.80                             144    0.1110  101 173 
 RUS  HZ I         311 14.31        16.1 0.32            144            101 173 
 PTB  HZ EP        310 57.21                             134   -0.37 9  143 258 
 PTB  HN ES        311 18.10                             134   -0.40 9  143 258 
 PTB  HZ I         311 25.18         6.9 0.44            131            143 258 
 SPBC HE ES   2    311 20.96                             130   -0.48 5  160 218 
 YPLC HZ EP   4    310 59.17                             127   -1.86 0  179 150 
 YPLC HN ES   4    311 24.88                             127    0.23 0  179 150 
 YPLC HZ I         311 25.78         9.6 0.26            129            179 150 
 ZAR  HE ES        311 28.37                             124    0.27 9  200 293 
 ZAR  HZ I         311 38.79         4.5 0.20            122            200 293 
 NOR  HZ EP        311  6.57                             120    0.32 8  231 234 
 NOR  HE ES        311 33.98                             120    0.03 8  231 234 
 NOR  HZ I         311 42.27         4.8 0.16            118            231 234 
 CHI  HZ EP   1    311  8.83                             118    0.33 6  247 194 
 CHI  HE ES   1    311 37.98                             118    0.04 6  247 194 
 CHI  HZ I         311 47.95         2.3 0.24            118            247 194 
 HEL  HZ EP   9    311 13.36                             116    2.75 0  267 256 
 HEL  HE ES        311 43.95                             116   -0.50 8  267 256 
 HEL  HZ I         311 49.74         3.0 0.52            115            267 256 
 SJC  HZ EP   9    311 24.37                             106   -1.76 0  407 328 
 SJC  HN ES        312  6.23                             107   -1.33 6  407 328 
                                                                                
