 2010  711 0131 12.6 L   6.785 -73.083149.6  RSN  4 0.2 1.5LRSN                1
 GAP=166        0.46       3.3     6.2  6.3  0.2095E+01 -0.2355E+02 -0.1960E+01E
 Epicentro: LOS SANTOS - SANTANDER                                             3
 ACTION:UPD 10-12-01 15:16 OP:pat  STATUS:               ID:20100711013112 L   I
 2010-07-11-0126-56S.COL___120                                                 6
 STAT SP IPHASW D HRMM SECON CODA AMPLIT PERI AZIMU VELO AIN AR TRES W  DIS CAZ7
 BAR2 SZ EP        131 32.55                             171    -0.110   24 208 
 BAR2 SZ ES   2    131 48.47                             171     0.1 5   24 208 
 BAR2 SZ I         131 49.16        13.2 0.20                            24 208 
 BRR  HZ EP   1    131 34.57                             151     0.0 7   78 297 
 BRR  HE ES        131 51.65                             151     0.010   78 297 
 BRR  HZ I         131 55.14         7.1 0.39                            78 297 
 RUS  HZ EP   1    131 36.46                             145    -0.1 7   99 180 
 RUS  HZ I         131 37.51         2.8 0.17                            99 180 
 RUS  HN ES   2    131 55.65                             145     0.3 5   99 180 
 GRA  SZ EP        131 38.36                             138     0.210  125  14 
 GRA  SZ ES   2    131 57.86                             138    -0.2 5  125  14 
 GRA  SZ I         131 59.91         2.6 0.41                           125  14 
                                                                                
