 2011  711 0648  2.3 L   6.690 -73.151153.2  RSN  5 0.3 1.5LRSN                1
 GAP=182        0.53       5.0     8.9  5.4  0.6587E+01 -0.1561E+02 -0.8314E+01E
 Epicentro: VILLANUEVA - SANTANDER                                             3
 ACTION:UPD 12-07-25 13:59 OP:epov STATUS:               ID:20110711064802 L   I
 2011-07-11-0640-00M.COL___130                                                 6
 STAT SP IPHASW D HRMM SECON CODA AMPLIT PERI AZIMU VELO AIN AR TRES W  DIS CAZ7
 BAR2 SZ EP   1    648 23.03                             176    0.36 7 11.3 198 
 BAR2 SZ ES   1    648 38.31                             176   -0.23 7 11.3 198 
 BAR2 SZ I         648 39.38         3.8 0.12                          11.3 198 
 GIR2 SZ EP   1    648 22.85                             163   -0.39 7 43.3 354 
 GIR2 SZ ES   1    648 39.66                             163    0.11 7 43.3 354 
 BRR  HZ EP   1    648 24.64                             152    0.02 7 77.3 307 
 BRR  HZ I         648 25.05         6.8 0.11                          77.3 307 
 BRR  HN ES   1    648 42.12                             152    0.11 7 77.3 307 
 GRA  SZ EP   1    648 29.53                             136    0.32 7  138  16 
 OCA  SZ EP   1    648 32.01                             129   -0.33 7  172 354 
 OCA  SZ ES   1    648 55.76                             129    0.01 7  172 354 
 OCA  SZ I         648 58.50         3.4 0.28                           172 354 
                                                                                
