 2012  411 0510 35.9 L   6.758 -73.114142.0  RSN  8 0.3 2.3LRSN                1
 GAP=143        0.88       3.1     4.2  5.5 -0.1427E+01  0.7522E+01 -0.5593E+00E
 Epicentro: LOS SANTOS - SANTANDER                                             3
 ACTION:UPD 12-07-05 11:52 OP:tino STATUS:               ID:20120411051035 L   I
 2012-04-11-0510-00M.COL___176                                                 6
 STAT SP IPHASW D HRMM SECON CODA AMPLIT PERI AZIMU VELO AIN AR TRES W  DIS CAZ7
 BAR2 SZ EP        510 55.14                             172     0.110   20 202 
 BAR2 SZ ES        511  9.85                             172    -0.110   20 202 
 BAR2 SZ I         511 11.32        71.5 0.37                            20 202 
 BRR  HZ IP     D  510 57.05                             150     0.110   77 300 
 BRR  HN ES        511 14.12                             150     0.710   77 300 
 BRR  HZ I         511 18.16        53.7 0.14                            77 300 
 PAM  SZ EP        510 57.97                             150     0.110   79  35 
 PAM  SE ES        511 14.75                             150    -0.210   79  35 
 RUS  HZ EP        510 59.02                             144     0.010   96 178 
 RUS  HN ES        511 16.72                             144    -0.210   96 178 
 RUS  HZ I         511 19.13        26.7 0.36                            96 178 
 OCA  SZ EP        511  4.24                             128    -0.2 9  165 352 
 OCA  SZ ES        511 26.68                             128     0.0 9  165 352 
 ZAR  HZ EP   1    511  8.81                             121     0.1 6  209 293 
 ZAR  HE ES        511 33.41                             121    -0.8 8  209 293 
 ZAR  HZ I         511 36.07        17.9 0.10                           209 293 
 NOR  SZ EP        511 11.40                             118    -0.1 8  235 236 
 NOR  SN ES        511 39.24                             118     0.0 8  235 236 
 HEL  HZ EP   1    511 16.72                             114     0.5 6  274 257 
 HEL  HZ I         511 53.13         9.2 0.34                           274 257 
                                                                                
