 2017  211 0444 14.7 L   7.445 -73.156125.2  RSN  5 0.3 1.2LRSN                1
 GAP=191        0.64       5.2     2.9  6.1 -0.1803E+01  0.6118E+01 -0.5160E+01E
 Epicentro: EL PLAYON - SANTANDER                                              3
 ACTION:UPD 17-05-24 15:35 OP:jn   STATUS:               ID:20170211044414 L   I
 OLDACT:DUP 17-02-11 14:54 OP:and  STATUS:               ID:20170211043749d    3
 OLDACT:UP  17-02-11 14:53 OP:and  STATUS:               ID:20170211043748d    3
 OLDACT:UP  17-02-11 14:52 OP:and  STATUS:               ID:20170211043748d    3
 OLDACT:DUP 17-02-11 14:51 OP:and  STATUS:               ID:20170211043748d    3
 OLDACT:UP  17-02-11 14:50 OP:and  STATUS:               ID:20170211043747     3
 OLDACT:UP  17-02-11 14:49 OP:and  STATUS:               ID:20170211043747     3
 OLDACT:UP  17-02-11 14:46 OP:and  STATUS:               ID:20170211043747     3
 OLDACT:UP  17-02-11 14:46 OP:and  STATUS:               ID:20170211043747     3
 OLDACT:REG 17-02-11 12:39 OP:and  STATUS:               ID:20170211043747     3
 2017-02-11-0438-00M.COL___346                                                 6
 STAT SP IPHASW D HRMM SECON CODA AMPLIT PERI AZIMU VELO AIN AR TRES W  DIS CAZ7
 PAM  EZ EP        444 33.76                             156    0.4710 51.7 103 
 PAM  EN ES        444 47.49                             156   -0.2810 51.7 103 
 BRR  HZ EP        444 33.44                             148   -0.2810 71.9 239 
 BRR  HN ES        444 48.73                             148    0.1810 71.9 239 
 BAR2 EZ EP        444 35.63                             141   -0.0310 94.3 182 
 BAR2 EZ ES        444 51.97                             141   -0.0310 94.3 182 
 BAR2 EZ I         444 52.94         3.5 0.16            140           94.3 182 
 PTB  HZ EP   2    444 42.37                             122   -0.48 4  175 235 
 PTB  HN ES        445  4.91                             122    0.11 9  175 235 
 PTB  HZ I         445  5.39         1.6 0.28            121            175 235 
 ZAR  HE ES        445  7.14                             120   -0.03 9  188 272 
                                                                                
