 2017  111 0742 18.9 L   6.808 -73.213144.3  RSN  4 0.1 0.9LRSN                1
 GAP=146        0.43       2.6     2.5  3.6 -0.1992E+01  0.2415E+01 -0.9660E+00E
 Epicentro: ZAPATOCA - SANTANDER                                               3
 ACTION:UPD 17-05-22 15:58 OP:jn   STATUS:               ID:20170111074218 L   I
 OLDACT:UP  17-01-11 16:52 OP:and  STATUS:               ID:20170111073748     3
 OLDACT:UP  17-01-11 16:52 OP:and  STATUS:               ID:20170111073748     3
 OLDACT:UP  17-01-11 16:51 OP:and  STATUS:               ID:20170111073748     3
 OLDACT:REG 17-01-11 12:53 OP:and  STATUS:               ID:20170111073748     3
 2017-01-11-0738-00M.COL___340                                                 6
 STAT SP IPHASW D HRMM SECON CODA AMPLIT PERI AZIMU VELO AIN AR TRES W  DIS CAZ7
 BAR2 EZ EP        742 38.41                             170    0.0710 24.1 172 
 BAR2 EZ ES        742 53.31                             170   -0.2210 24.1 172 
 PAM  EZ EP        742 41.23                             149    0.0310 81.7  44 
 PAM  EN ES        742 58.68                             149    0.0710 81.7  44 
 PAM  EZ I         743  0.27         1.5 0.56            151           81.7  44 
 RUS  HZ EP        742 42.40                             143   -0.2010  102 172 
 RUS  HE ES        743  1.31                             143    0.2110  102 172 
 PTB  HZ EP        742 45.09                             133    0.01 9  141 258 
 PTB  HN ES        743  5.57                             133    0.05 9  141 258 
 PTB  HZ I         743  9.41         0.9 0.19            133            141 258 
                                                                                
