 2013  911 0428 55.8 L   6.742 -73.189150.1  RSN  4 0.4 1.4LRSN                1
 GAP=228        0.76       6.0     8.1  9.5  0.2136E+02  0.1098E+02 -0.4657E+01E
 Epicentro: VILLANUEVA - SANTANDER                                             3
 ACTION:UPD 13-10-22 09:21 OP:ep   STATUS:               ID:20130911042855 L   I
 OLDACT:REG 13-09-11 10:08 OP:cam  STATUS:               ID:20130911042749     3
 2013-09-11-0427-49M.COL___247                                                 6
 STAT SP IPHASW D HRMM SECON CODA AMPLIT PERI AZIMU VELO AIN AR TRES W  DIS CAZ7
 BRR  HZ EP        429 17.52                             153    0.1610 70.5 305 
 BRR  HN ES        429 34.38                             153    0.1910 70.5 305 
 BRR  HZ I         429 38.51         5.2 0.50            153           70.5 305 
 RUS  HN ES        429 37.84                             147   -0.2410 94.6 173 
 RUS  HZ I         429 38.41         3.8 0.46            151           94.6 173 
 PTB  HZ EP   1    429 22.50                             134   -0.09 7  142 261 
 PTB  HN ES   1    429 42.94                             134   -0.55 7  142 261 
 PTB  HZ I         429 45.20         3.4 0.16            136            142 261 
 SPBC HN ES   2    429 46.75                             132    0.97 5  155 219 
 SPBC HZ I         429 47.49         4.1 0.22            134            155 219 
                                                                                
