 2016 1211 0702  5.7 L   6.775 -73.133144.8  RSN 10 0.4 1.8LRSN                1
 GAP=219        1.01       4.8     5.8  6.0  0.1393E+02  0.6147E+01  0.7810E+01E
 Epicentro: LOS SANTOS - SANTANDER                                             3
 ACTION:UPD 17-01-11 20:14 OP:rebc STATUS:               ID:20161211070205 L   I
 OLDACT:REG 16-12-11 13:01 OP:edw  STATUS:               ID:20161211065742     3
 2016-12-11-0658-00M.COL___373                                                 6
 STAT SP IPHASW D HRMM SECON CODA AMPLIT PERI AZIMU VELO AIN AR TRES W  DIS CAZ7
 BAR2 EZ IP     C  7 2 24.95                             171   -0.2210 20.9 195 
 BAR2 EZ ES        7 2 40.71                             171    0.3610 20.9 195 
 BAR2 EZ I         7 2 44.07         6.3 0.26            166           20.9 195 
 BRR  HZ IP     C  7 2 26.85                             151   -0.0410 73.8 300 
 BRR  HN ES        7 2 43.52                             151    0.1010 73.8 300 
 BRR  HZ I         7 2 47.86        15.8 0.12            150           73.8 300 
 RUS  HZ EP        7 2 29.55                             144    0.4010 97.7 177 
 RUS  HN ES        7 2 47.06                             144   -0.3810 97.7 177 
 RUS  HZ I         7 2 48.18         5.7 0.24            144           97.7 177 
 PTB  HZ EP        7 2 31.79                             132   -0.88 9  149 260 
 PTB  HN ES        7 2 53.54                             132   -0.16 9  149 260 
 PTB  HZ I         7 2 55.31         7.8 0.12            131            149 260 
 ZAR  HZ EP        7 2 38.70                             122    0.37 8  206 293 
 ZAR  HN ES        7 3  3.81                             122    0.04 8  206 293 
 ZAR  HZ I         7 3  9.04         9.7 0.30            122            206 293 
 CHI  HZ EP        7 2 43.91                             117    0.81 8  246 196 
 CHI  HN ES        7 3 12.49                             117    0.23 8  246 196 
 CHI  HZ I         7 3 19.24         2.9 0.38            118            246 196 
 GUY2CHZ EP   4    7 2 51.04                             112    1.82 0  301 235 
 GUY2CHN ES   4    7 3 26.16                             112    3.01 0  301 235 
 GUY2CHZ I         7 3 30.32         3.0 0.22                           301 235 
 PTGC HZ EP        7 2 48.43                             112   -0.73 7  306 159 
 PTGC HE ES   4    7 3 20.99                             112   -2.07 0  306 159 
 PRA  HZ EP        7 2 59.39                             106    0.40 6  390 210 
 PRA  HE ES        7 3 40.41                             106   -0.14 6  390 210 
 PRA  HZ I         7 3 49.22         2.9 0.56            107            390 210 
 SJC  HZ EP   4    7 3  0.05                             105   -1.55 0  412 327 
 SJC  HN ES   4    7 3 41.60                             105   -3.59 0  412 327 
 SJC  HZ I         7 3 44.71         2.6 0.54            107            412 327 
                                                                                
