 2011 1211 0131  8.1 L   6.814 -73.147157.1  RSN  5 0.4 1.2LRSN                1
 GAP=136        0.71       7.6     5.9 10.3 -0.5029E+01 -0.3413E+01  0.1392E+02E
 Epicentro: LOS SANTOS - SANTANDER                                             3
 ACTION:UPD 12-07-13 16:15 OP:ep   STATUS:               ID:20111211013108 L   I
 2011-12-11-0127-42S.COL___155                                                 6
 STAT SP IPHASW D HRMM SECON CODA AMPLIT PERI AZIMU VELO AIN AR TRES W  DIS CAZ7
 BAR2 SZ EP   2    131 28.75                             171   -0.33 5 24.8 189 
 BAR2 SZ I         131 29.94         3.9 0.33                          24.8 189 
 BRR  HZ EP        131 30.79                             154    0.4010 70.4 297 
 BRR  HZ I         131 32.21         3.2 0.15                          70.4 297 
 BRR  HE ES   1    131 48.13                             154    0.31 7 70.4 297 
 PAM  SN ES   2    131 48.90                             153   -0.75 5 76.3  40 
 RUS  HZ EP   2    131 32.94                             146   -0.10 5  102 176 
 RUS  HZ I         131 33.66         1.6 0.19                           102 176 
 RUS  HE ES   2    131 52.85                             146    0.32 5  102 176 
 PTB  HZ EP   2    131 35.70                             134   -0.28 5  148 258 
 PTB  HE ES        131 57.42                             134   -0.34 9  148 258 
                                                                                
