 2013 1211 0947 50.8 L   6.785 -73.156142.9  RSN  5 0.5 1.5LRSN                1
 GAP=235        1.00       7.8     8.3  8.6  0.1565E+02  0.1899E+02  0.7225E+01E
 Epicentro: LOS SANTOS - SANTANDER                                             3
 ACTION:UPD 14-01-13 10:17 OP:ep   STATUS:               ID:20131211094750 L   I
 OLDACT:REG 13-12-11 06:36 OP:jn   STATUS:               ID:20131211094000     3
 2013-12-11-0940-00M.COL___285                                                 6
 STAT SP IPHASW D HRMM SECON CODA AMPLIT PERI AZIMU VELO AIN AR TRES W  DIS CAZ7
 BAR2 SZ EP   1    948 10.02                             171   -0.06 7 21.5 188 
 BAR2 SZ ES        948 24.41                             171   -0.6910 21.5 188 
 BAR2 SZ I         948 28.02        12.8 0.36            168           21.5 188 
 BRR  HZ EP   1    948 12.04                             152    0.38 7 71.1 300 
 BRR  HN ES   1    948 28.76                             152    0.85 7 71.1 300 
 BRR  HZ I         948 32.60         5.7 0.40            152           71.1 300 
 RUS  HZ EP   1    948 14.39                             144    0.21 7 99.0 175 
 RUS  HN ES   1    948 32.92                             144    0.52 7 99.0 175 
 RUS  HZ I         948 34.40         3.2 0.36            146           99.0 175 
 PTB  HZ EP        948 17.00                             131   -0.44 9  146 259 
 PTB  HN ES   1    948 37.86                             131   -0.33 7  146 259 
 PTB  HZ I         948 40.36         4.1 0.34            133            146 259 
 SPBC HZ EP   1    948 19.02                             129    0.10 7  161 219 
 SPBC HN ES   1    948 41.08                             129    0.25 7  161 219 
 SPBC HZ I         948 46.05         4.8 0.26            130            161 219 
                                                                                
