 2010  911 0840 50.8 L   6.800 -73.132148.3  RSN  4 0.1 1.3LRSN                1
 GAP=160        0.37       3.3     6.5  6.9  0.1101E+02 -0.2980E+02 -0.1276E+02E
 Epicentro: LOS SANTOS - SANTANDER                                             3
 ACTION:UP  11-02-18 11:01 OP:tino STATUS:               ID:20100911084050 L   I
 2010-09-11-0838-43S.COL___120                                                 6
 STAT SP IPHASW D HRMM SECON CODA AMPLIT PERI AZIMU VELO SNR AR TRES W  DIS CAZ7
 BAR2 SZ EP        841 10.58                             171    -0.210   24 194 
 BAR2 SZ I         841 29.44         3.1 0.14                            24 194 
 BRR  HZ EP        841 12.30                             153     0.010   73 298 
 BRR  HZ I         841 12.53        10.0 0.12                            73 298 
 BRR  HN ES   1    841 29.08                             153     0.0 7   73 298 
 RUS  HZ EP   1    841 14.88                             144     0.1 7  101 177 
 RUS  HE ES   1    841 33.55                             144     0.0 7  101 177 
 RUS  HZ I         841 34.79         1.0 0.07                           101 177 
 GRA  SZ EP        841 16.27                             138     0.110  125  17 
 GRA  SZ I         841 17.66         3.4 0.33                           125  17 
                                                                                
