 2012  411 0228 34.4 L   5.821 -73.796106.6  RSN  5 0.2 1.6LRSN                1
 GAP=172        0.46       3.4     2.3  5.6  0.1393E+01  0.3268E+01  0.4419E+01E
 Epicentro: JESUS MARIA - SANTANDER                                            3
 ACTION:UPD 12-07-05 11:52 OP:tino STATUS:               ID:20120411022834 L   I
 2012-04-11-0220-00M.COL___176                                                 6
 STAT SP IPHASW D HRMM SECON CODA AMPLIT PERI AZIMU VELO AIN AR TRES W  DIS CAZ7
 RUS  HZ EP   1    228 52.57                             141    -0.2 8   79  84 
 RUS  HN ES   1    229  7.04                             141    -0.1 8   79  84 
 PTB  HZ EP        228 54.37                             131    -0.210  108 317 
 PTB  HN ES        229 10.30                             131     0.010  108 317 
 BAR2 SZ EP        228 55.03                             131     0.110  109  38 
 BAR2 SZ ES   1    229 11.28                             131     0.3 7  109  38 
 BAR2 SZ I         229 12.24         8.9 0.17                           109  38 
 NOR  SZ EP   1    228 56.26                             127     0.3 7  122 257 
 BRR  HZ EP        228 58.01                             122     0.110  143   4 
 BRR  HZ I         228 58.95         5.6 0.27                           143   4 
 BRR  HN ES   1    229 16.19                             122    -0.1 7  143   4 
                                                                                
