 2012  611 0014 34.1 L   6.794 -73.155139.0  RSN  5 0.5 1.8LRSN                1
 GAP=182        0.84       6.6     6.6  9.6  0.1712E+02  0.1401E+02 -0.1425E+02E
 Epicentro: LOS SANTOS - SANTANDER                                             3
 ACTION:UPD 12-08-06 17:48 OP:ep   STATUS:               ID:20120611001432 L   I
 2012-06-11-0010-00M.COL___201                                                 6
 STAT SP IPHASW D HRMM SECON CODA AMPLIT PERI AZIMU VELO AIN AR TRES W  DIS CAZ7
 BAR2 SZ EP        014 53.18                             171    0.2510 22.5 188 
 BAR2 SZ ES   1    015  7.72                             171    0.13 7 22.5 188 
 BAR2 SZ I         015  9.60        18.4 0.27            169           22.5 188 
 RUS  HZ EP   1    014 56.81                             143   -0.37 7  100 175 
 RUS  HE ES   1    015 15.25                             143    0.09 7  100 175 
 RUS  HZ I         015 17.35         6.7 0.26            145            100 175 
 PTB  HZ EP   1    014 59.89                             131   -0.56 7  147 259 
 PTB  HE ES   1    015 20.49                             131   -0.48 7  147 259 
 PTB  HZ I         015 24.25         6.7 0.28            131            147 259 
 OCA  HN ES   2    015 23.01                             128   -0.68 5  161 354 
 ZAR  HZ EP   1    015  6.92                             121    0.86 6  203 292 
 ZAR  HE ES   1    015 31.29                             121    0.31 6  203 292 
 ZAR  HZ I         015 37.27        12.3 0.44            122            203 292 
                                                                                
