 2016  611 0737 35.4 L   6.820 -73.112153.8  RSN  8 0.3 1.9LRSN                1
 GAP=243        0.60       4.1     5.8  4.5  0.8218E+01 -0.4036E+01  0.2811E+01E
 Epicentro: LOS SANTOS - SANTANDER                                             3
 ACTION:UPD 16-07-21 22:17 OP:rebc STATUS:               ID:20160611073735 L   I
 OLDACT:UP  16-06-11 19:02 OP:dani STATUS:               ID:20160611072742     3
 OLDACT:REG 16-06-11 13:18 OP:dani STATUS:               ID:20160611072742     3
 2016-06-11-0727-42M.COL___331                                                 6
 STAT SP IPHASW D HRMM SECON CODA AMPLIT PERI AZIMU VELO AIN AR TRES W  DIS CAZ7
 BAR2 EZ EP        737 55.89                             170   -0.1410 26.3 197 
 BAR2 EZ I         738 12.08        17.2 0.22                          26.3 197 
 BRR  HZ IP     C  737 57.62                             153    0.1010 73.5 296 
 BRR  HN ES        738 14.90                             153    0.1010 73.5 296 
 BRR  HZ I         738 17.27         9.7 0.26                          73.5 296 
 RUS  HZ EP        738  0.01                             145   -0.0510  103 178 
 RUS  HE ES        738 19.25                             145   -0.0710  103 178 
 RUS  HZ I         738 19.60        10.0 0.28                           103 178 
 PTB  HZ EP   9 D  738  2.35                             133   -1.02 0  152 258 
 PTB  HE ES        738 24.23                             131    0.04 9  152 258 
 PTB  HZ I         738 30.76         6.9 0.23                           152 258 
 SPBC HZ EP        738  4.68                             130   -0.19 9  167 220 
 SPBC HN ES   4    738 27.11                             130   -0.78 0  167 220 
 SPBC HZ I         738 33.19        11.9 0.38                           167 220 
 NOR  HZ EP        738 11.68                             120   -0.35 8  239 235 
 NOR  HE ES   4    738 39.91                             120   -0.72 0  239 235 
 NOR  HZ I         738 45.49         7.1 0.16                           239 235 
 CHI  HZ EP        738 14.54                             118    0.68 8  252 196 
 CHI  HN ES   2    738 43.97                             118    0.09 4  252 196 
 GUY2CHZ EP   4    738 22.39                             113    2.55 0  305 235 
 GUY2CHE ES   4    738 59.33                             113    4.80 0  305 235 
 GUY2CHZ I         739  1.09         2.9 0.62                           305 235 
                                                                                
