 2016 1011 0349 51.5 L   6.772 -73.202148.0  RSN  6 0.5 1.5LRSN                1
 GAP=229        1.15       6.1     7.7  9.2  0.2317E+02 -0.1647E+01 -0.3041E+01E
 Epicentro: ZAPATOCA - SANTANDER                                               3
 ACTION:UPD 16-11-09 19:18 OP:rebc STATUS:               ID:20161011034951 L   I
 OLDACT:REG 16-10-11 13:25 OP:ar   STATUS:               ID:20161011034745     3
 2016-10-11-0348-00M.COL___363                                                 6
 STAT SP IPHASW D HRMM SECON CODA AMPLIT PERI AZIMU VELO AIN AR TRES W  DIS CAZ7
 BRR  HZ EP        350 12.50                             154   -0.2210 67.4 303 
 BRR  HN ES        350 29.70                             154    0.4610 67.4 303 
 BRR  HZ I         350 32.68         6.5 0.28            153           67.4 303 
 RUS  HZ EP        350 15.28                             145   -0.0610 98.2 172 
 RUS  HN ES        350 33.64                             145   -0.2610 98.2 172 
 RUS  HZ I         350 34.40         3.5 0.30            146           98.2 172 
 PTB  HZ EP        350 17.18                             134   -0.91 9  141 260 
 PTB  HN ES        350 38.32                             134   -0.48 9  141 260 
 PTB  HZ I         350 40.16         4.5 0.18            133            141 260 
 SPBC HN EP        350 19.94                             131    0.32 9  157 218 
 SPBC HZ ES        350 42.09                             131    0.57 9  157 218 
 ZAR  HZ EP        350 24.50                             124    0.84 9  199 294 
 ZAR  HN ES        350 48.54                             124   -0.17 9  199 294 
 ZAR  HZ I         350 53.82         3.5 0.66            124            199 294 
 CHI  HZ EP   2    350 28.86                             118   -0.01 4  244 194 
 CHI  HN ES   2    350 58.42                             118    0.43 4  244 194 
 CHI  HZ I         351  3.28         2.0 0.38            119            244 194 
                                                                                
