 2013  311 0853  2.2 L   6.657 -73.407123.6  RSN  4 0.5 1.5LRSN                1
 GAP=157        0.82      11.4     8.3 10.6  0.4478E+02  0.4126E+02  0.5000E+02E
 Epicentro: EL CARMEN DE CHUCURI - SANTANDER                                   3
 ACTION:UPD 13-04-09 14:01 OP:ep   STATUS:               ID:20130311085302 L   I
 2013-03-11-0850-00M.COL___231                                                 6
 STAT SP IPHASW D HRMM SECON CODA AMPLIT PERI AZIMU VELO AIN AR TRES W  DIS CAZ7
 BAR2 SZ EP   1    853 19.55                             167    0.34 7 25.8 106 
 BAR2 SZ ES   1    853 32.63                             167    0.14 7 25.8 106 
 BAR2 SZ I         853 33.62         6.9 0.30            170           25.8 106 
 BRR  HZ EP   1    853 20.41                             152    0.11 7 60.1 326 
 BRR  HN ES        853 34.12                             152   -0.3210 60.1 326 
 BRR  HN I         853 34.98         9.8 0.16            152           60.1 326 
 PTB  HZ EP   1    853 23.93                             133   -0.61 7  117 264 
 PTB  HN ES   2    853 42.40                             133    0.43 5  117 264 
 PTB  HN I         853 46.55         4.6 0.26            130            117 264 
 ZAR  HN ES   2    853 54.98                             120    1.08 4  185 300 
 ZAR  HN I         853 57.86         2.9 0.28            120            185 300 
                                                                                
