 2013 1011 0049 38.5 L   6.789 -73.139150.0  RSN  7 0.3 1.9LRSN                1
 GAP=138        0.80       3.5     3.9  6.2  0.1732E+01  0.5177E+01  0.6920E+01E
 Epicentro: LOS SANTOS - SANTANDER                                             3
 ACTION:UPD 13-11-25 09:20 OP:ep   STATUS:               ID:20131011004938 L   I
 OLDACT:UP  13-10-11 13:12 OP:mh   STATUS:               ID:20131011004738     3
 OLDACT:UP  13-10-11 13:12 OP:mh   STATUS:               ID:20131011004738     3
 OLDACT:REG 13-10-11 13:07 OP:mh   STATUS:               ID:20131011004738     3
 2013-10-11-0047-38M.COL___224                                                 6
 STAT SP IPHASW D HRMM SECON CODA AMPLIT PERI AZIMU VELO AIN AR TRES W  DIS CAZ7
 BAR2 SZ EP   1    049 58.63                             171   -0.03 7 22.3 192 
 BAR2 SZ ES   1    050 14.00        18.4 0.08            171   -0.35 7 22.3 192 
 BAR2 SZ I         050 15.24        18.4 0.08            169           22.3 192 
 BRR  HZ EP   1    050  0.44                             153    0.23 7 72.4 299 
 BRR  HN ES        050 17.85                             153    0.7310 72.4 299 
 BRR  HZ I         050 20.90        10.0 0.16            151           72.4 299 
 PAM  SZ EP   1    050  1.49                             151    0.26 7 77.9  39 
 PAM  SN ES        050 18.64                             151   -0.3010 77.9  39 
 PAM  SZ I         050 20.64        26.0 0.56            155           77.9  39 
 RUS  HZ EP   1    050  2.54                             145   -0.08 7 99.3 176 
 RUS  HN ES        050 21.40                             145    0.0010 99.3 176 
 RUS  HZ I         050 24.06         8.0 0.40            146           99.3 176 
 PTB  HZ EP   1    050  5.29                             133   -0.61 7  148 259 
 PTB  HN ES        050 26.90                             133   -0.33 9  148 259 
 PTB  HZ I         050 32.61         6.6 0.22            132            148 259 
 ZAR  HN ES        050 36.82                             123   -0.17 9  205 292 
 ZAR  HN I         050 43.39        14.2 0.32            123            205 292 
 CHI  HZ EP        050 16.60                             118    0.23 8  248 195 
 CHI  HN ES        050 46.05                             118    0.18 8  248 195 
 CHI  HZ I         050 49.70         3.6 0.64            119            248 195 
                                                                                
