 2013  411 0626 59.1 L   6.758 -73.163148.4  RSN  5 0.3 1.5LRSN                1
 GAP=137        0.89       5.5     5.3  6.8  0.4486E+01 -0.5013E+01 -0.9519E+01E
 Epicentro: LOS SANTOS - SANTANDER                                             3
 ACTION:UPD 13-05-22 14:37 OP:EP   STATUS:               ID:20130411062659 L   I
 2013-04-11-0618-48M.COL___211                                                 6
 STAT SP IPHASW D HRMM SECON CODA AMPLIT PERI AZIMU VELO AIN AR TRES W  DIS CAZ7
 BAR2 SZ ES        627 34.24                             173   -0.2610 18.4 187 
 BAR2 SZ I         627 36.64         8.6 0.28            170           18.4 187 
 BRR  HZ EP        627 20.87                             153    0.2510 71.9 303 
 BRR  HN ES        627 37.83                             153    0.4610 71.9 303 
 BRR  HN I         627 38.49         5.4 0.34            152           71.9 303 
 RUS  HZ EP        627 23.06                             146    0.2210 96.1 175 
 RUS  HE ES        627 41.38                             146    0.0610 96.1 175 
 RUS  HN I         627 43.53         3.7 0.28            145           96.1 175 
 PTB  HZ EP        627 26.24                             133    0.16 9  145 261 
 PTB  HN ES        627 46.51                             133   -0.58 9  145 261 
 PTB  HN I         627 52.32         4.7 0.40            132            145 261 
 CAPV BZ EP        627 26.77                             131   -0.43 9  154  37 
                                                                                
