 2010  111 0605 15.2 L   6.837 -73.031141.1  RSN  5 0.2 1.6LRSN                1
 GAP=195        0.48       2.3    14.6  5.0 -0.2391E+01  0.1834E+02 -0.5222E+00E
 Epicentro: CEPITA - SANTANDER                                                 3
 ACTION:UP  10-08-24 09:43 OP:vdl  STATUS:               ID:20100111060515 L   I
 2010-01-11-0559-45S.COL___097                                                 6
 STAT SP IPHASW D HRMM SECON CODA AMPLIT PERI AZIMU VELO SNR AR TRES W  DIS CAZ7
 BAR2 SZ EP   1    6 5 34.26                             166    -0.2 7   32 212 
 BAR2 SZ ES   1    6 5 49.39                             166    -0.1 7   32 212 
 RUS  BZ EP   1    6 5 38.73                             142    -0.1 7  105 183 
 RUS  BE ES   1    6 5 57.29                             142     0.1 7  105 183 
 RUS  BZ I         6 5 57.95         6.6 0.23                           105 183 
 OCA  SZ EP   1    6 5 43.28                             129     0.3 7  158 348 
 OCA  SZ ES   1    6 6  4.56                             129     0.0 7  158 348 
 OCA  SZ I         6 6  8.20         9.1 0.22                           158 348 
 CHI  HZ EP   2    6 5 53.26                             115    -0.2 4  256 198 
 CHI  HZ I         6 5 56.30         1.2 0.41                           256 198 
 CHI  HE ES   1    6 6 23.64                             115     0.3 6  256 198 
 PRA  HZ EP   1    6 6  9.40                             105    -0.3 4  402 211 
 PRA  HZ I         6 6 10.08         1.3 0.29                           402 211 
                                                                                
