 2014  211 0223 19.2 L   6.823 -73.139140.4  RSN  9 0.5 1.9LRSN                1
 GAP=136        1.29       3.5     5.4  8.2 -0.3235E+00  0.8287E+01  0.2505E+01E
 Epicentro: LOS SANTOS - SANTANDER                                             3
 ACTION:UPD 14-03-10 08:09 OP:ep   STATUS:               ID:20140211022319 L   I
 OLDACT:REG 14-02-11 07:34 OP:carl STATUS:               ID:20140211022000     3
 2014-02-11-0220-00M.COL___167                                                 6
 STAT SP IPHASW D HRMM SECON CODA AMPLIT PERI AZIMU VELO AIN AR TRES W  DIS CAZ7
 BRR  HZ EP     C  223 40.40                             152    0.6210 70.6 296 
 BRR  HN ES        223 56.38                             152    0.5810 70.6 296 
 BRR  HZ I         224  1.63        12.6 0.16            152           70.6 296 
 PAM  SZ EP        223 41.32                             151    0.5810 75.0  40 
 PAM  SN ES        223 56.67                             151   -0.8510 75.0  40 
 PAM  SZ I         224  0.76        15.2 0.56            155           75.0  40 
 RUS  HZ EP        223 42.60                             142   -0.0510  103 177 
 RUS  HN ES        224  1.19                             142    0.2810  103 177 
 RUS  HZ I         224  2.38         6.0 0.26            145            103 177 
 PTB  HZ EP        223 45.34                             130   -0.54 9  149 258 
 PTB  HN ES        224  6.05                             130   -0.62 9  149 258 
 PTB  HZ I         224  8.41         7.9 0.16            133            149 258 
 OCA  HN ES        224  8.51                             129    0.02 9  158 353 
 SPBC HZ EP        223 47.12                             127   -0.44 9  166 219 
 SPBC HN ES        224 10.04                             127    0.38 9  166 219 
 SPBC HZ I         224 14.06        12.7 0.70            130            166 219 
 ZAR  HZ EP        223 52.36                             121    1.05 9  204 291 
 ZAR  HN ES        224 15.98                             121   -0.35 9  204 291 
 ZAR  HZ I         224 21.73         7.8 0.24            124            204 291 
 SML  HZ EP        223 54.92                             116   -0.43 8  242 335 
 SML  HN ES        224 23.40                             116   -0.12 8  242 335 
 SML  HZ I         224 25.70         8.8 0.20            120            242 335 
 CHI  HZ EP        223 56.83                             116   -0.10 8  251 195 
 CHI  HN ES        224 25.98                             116   -0.35 8  251 195 
 CHI  HZ I         224 29.62         5.6 0.58            119            251 195 
                                                                                
