 2016  811 0554 10.6 L   6.787 -73.115143.8  RSN  6 0.5 1.4LRSN                1
 GAP=240        1.21       6.6     7.8  8.7  0.1793E+02  0.1782E+02 -0.3798E+01E
 Epicentro: LOS SANTOS - SANTANDER                                             3
 ACTION:UPD 16-10-29 15:34 OP:rebc STATUS:               ID:20160811055410 L   I
 OLDACT:REG 16-08-11 15:00 OP:dani STATUS:               ID:20160811053941     3
 2016-08-11-0548-00M.COL___374                                                 6
 STAT SP IPHASW D HRMM SECON CODA AMPLIT PERI AZIMU VELO AIN AR TRES W  DIS CAZ7
 BAR2 EZ EP        554 30.09                             171    0.1410 22.7 199 
 BAR2 EZ ES        554 44.74                             171   -0.3310 22.7 199 
 BAR2 EZ I         554 46.06         6.4 0.42                          22.7 199 
 BRR  HZ EP        554 31.86                             151    0.1410 74.8 298 
 BRR  HN ES        554 48.73                             151    0.5210 74.8 298 
 BRR  HZ I         554 50.55         2.9 0.20                          74.8 298 
 RUS  HE ES        554 52.09                             144   -0.2010 98.9 178 
 PTB  HZ EP        554 36.93                             131   -0.72 9  151 260 
 PTB  HE ES        554 58.16                             131   -0.62 9  151 260 
 PTB  HZ I         555  3.08         2.7 0.22                           151 260 
 SPBC HZ EP        554 38.85                             128   -0.16 9  164 220 
 SPBC HE ES        555  2.13                             128    0.94 9  164 220 
 SPBC HZ I         555  7.29         3.6 0.07                           164 220 
 ZAR  HZ EP        554 43.82                             121    0.56 8  208 292 
 ZAR  HN ES        555  8.53                             121   -0.24 8  208 292 
 ZAR  HZ I         555 14.39         3.4 0.44                           208 292 
                                                                                
