 2016 1211 0453 11.8 L   6.604 -73.131150.0  RSN  4 0.1 0.9LRSN                1
 GAP=225        0.33       3.6     2.7  3.0  0.2052E+01  0.1677E+01  0.5732E+00E
 Epicentro: SAN GIL - SANTANDER                                                3
 ACTION:UPD 17-01-11 20:13 OP:rebc STATUS:               ID:20161211045311 L   I
 OLDACT:UP  16-12-11 17:46 OP:edw  STATUS:               ID:20161211044744     3
 OLDACT:REG 16-12-11 12:47 OP:edw  STATUS:               ID:20161211044744     3
 2016-12-11-0448-00M.COL___370                                                 6
 STAT SP IPHASW D HRMM SECON CODA AMPLIT PERI AZIMU VELO AIN AR TRES W  DIS CAZ7
 BAR2 EZ EP        453 31.76                             178    0.0410 5.83 258 
 BAR2 EZ ES        453 47.36                             178    0.1010 5.83 258 
 RUS  HE ES   2    453 52.02                             151   -0.28 5 78.8 176 
 BRR  HZ EP        453 34.14                             149   -0.0810 85.0 311 
 BRR  HN ES        453 51.66                             149   -0.0510 85.0 311 
 PTB  HZ EP        453 39.04                             133    0.02 9  147 267 
 PTB  HN ES        454  0.29                             133    0.03 9  147 267 
 PTB  HZ I         454  2.19         0.9 0.08            132            147 267 
                                                                                
