 2013 1011 0836 13.4 L   6.825 -73.157139.3  RSN 16 0.5 2.6LRSN                1
 GAP= 70        0.96       2.6     2.9  5.6 -0.3136E+00  0.4699E+01  0.1180E+01E
 Epicentro: LOS SANTOS - SANTANDER                                             3
 ACTION:UPD 13-11-25 09:20 OP:ep   STATUS:               ID:20131011083613 L   I
 OLDACT:UP  13-10-11 12:31 OP:mh   STATUS:               ID:20131011082959     3
 OLDACT:UP  13-10-11 12:24 OP:mh   STATUS:               ID:20131011082959     3
 OLDACT:UP  13-10-11 12:22 OP:mh   STATUS:               ID:20131011082959     3
 OLDACT:REG 13-10-11 08:46 OP:mh   STATUS:               ID:20131011082959     3
 2013-10-11-0829-59M.COL___273                                                 6
 STAT SP IPHASW D HRMM SECON CODA AMPLIT PERI AZIMU VELO AIN AR TRES W  DIS CAZ7
 BAR2 SZ EP   1    836 32.39                             169    0.07 7 25.9 186 
 BAR2 SZ ES   1    836 46.91                             169   -0.16 7 25.9 186 
 BAR2 SZ I         836 48.00       239.6 0.20            170           25.9 186 
 BRR  HZ EP        836 34.33                             152    0.6110 68.8 297 
 BRR  HN ES   1    836 50.33                             152    0.76 7 68.8 297 
 BRR  HZ I         836 52.70        80.8 0.14            147           68.8 297 
 PAM  SZ EP   1    836 35.33                             150    0.47 7 76.1  42 
 PAM  SN ES   1    836 52.14                             150    0.55 7 76.1  42 
 PAM  SZ I         836 54.85       132.5 0.55            139           76.1  42 
 RUS  HZ EP   1    836 36.46                             142   -0.28 7  103 175 
 RUS  HN ES        836 54.47                             142   -0.4710  103 175 
 RUS  HZ I         836 55.39        28.8 0.28            136            103 175 
 PTB  HZ EP   1    836 38.89                             131   -0.90 7  147 258 
 PTB  HN ES   1    836 59.84                             131   -0.53 7  147 258 
 PTB  HZ I         837  3.06        75.5 0.24            125            147 258 
 OCA  HN ES        837  1.93                             129   -0.50 9  157 353 
 TAM  HZ EP        836 40.80                             129    0.04 9  157 106 
 TAM  HN ES        837  2.08                             129   -0.02 9  157 106 
 OCA  HZ EP   1    836 40.71                             129   -0.24 7  157 353 
 OCA  HZ I         837  5.67        82.2 0.36            120            157 353 
 TAM  HZ I         837  2.66        18.0 0.36            120            157 106 
 SPBC HZ EP   1    836 41.36                             127   -0.19 7  165 218 
 SPBC HN ES   1    837  3.28                             127   -0.22 7  165 218 
 SPBC HZ I         837  7.66        48.2 0.28            122            165 218 
 ZAR  HZ EP   1    836 45.43                             121    0.22 6  202 292 
 ZAR  HN ES   1    837 11.11                             121    1.09 6  202 292 
 ZAR  HZ I         837 17.14        42.5 0.22            115            202 292 
 NOR  HZ EP        836 48.38                             117   -0.45 8  235 234 
 NOR  HN ES   1    837 16.38                             117   -0.08 6  235 234 
 NOR  HZ I         837 18.33        45.7 0.14            111            235 234 
 SML  HZ EP   1    836 48.72                             116   -0.63 6  241 335 
 SML  HN ES        837 16.89                             116   -0.49 8  241 335 
 SML  HZ I         837 21.69        48.3 0.10            109            241 335 
 CHI  HZ EP   1    836 51.51                             115    0.50 6  251 195 
 CHI  HN ES   1    837 20.92                             115    0.58 6  251 195 
 CHI  HZ I         837 25.76         7.7 0.32            110            251 195 
 ROSC BZ EP   4    836 53.58                             115    2.21 0  254 210 
 ROSC BN ES   4    837 22.92                             115    1.94 0  254 210 
 HEL  HZ EP   1    836 54.11                             113    0.87 6  272 255 
 HEL  HN ES        837 23.91                             113   -0.40 8  272 255 
 HEL  HZ I         837 31.34        23.4 0.26            108            272 255 
 URE  HZ EP   4    836 52.92                             112   -1.00 0  282 291 
 URE  HN ES   4    837 24.10                             112   -1.43 0  282 291 
 GUY2CHZ EP   1    836 57.12                             111    0.33 5  302 234 
 GUY2CHN ES   1    837 30.50                             111   -0.12 5  302 234 
 GUY2CHZ I         837 37.58        29.7 0.26                           302 234 
 CBOC HZ EP   1    837  0.82                             109    0.80 5  333 252 
 CBOC HN ES   2    837 36.92                             109    0.54 3  333 252 
 COD  HZ EP   4    837  0.20                             108   -1.00 0  345 355 
 COD  HN ES   4    837 36.65                             108   -1.84 0  345 355 
 PRA  HZ EP   1    837  6.59                             105   -0.33 4  394 209 
 PRA  HN ES   1    837 49.20                             105    0.54 4  394 209 
 PRA  HZ I         837 54.70        11.9 0.30            100            394 209 
 ORTC HZ EP   4    837  5.98                             105   -1.30 0  397 216 
 ORTC HN ES   4    837 47.74                             105   -1.57 0  397 216 
 SJC  HZ EP   4    837  6.72                             105   -1.69 0  406 327 
 SJC  HN ES   4    837 47.54                             105   -3.77 0  406 327 
 MACC HZ EP   4    837 18.82                             101   -3.44 0  523 188 
 MACC HN ES   4    838 10.54                             101   -5.43 0  523 188 
                                                                                
