 2012 1211 0943 43.7 L   6.833 -73.227138.5  RSN  9 0.4 1.9LRSN                1
 GAP=123        0.95       3.5     5.2  7.2 -0.3548E+01  0.1260E+02  0.6195E-01E
 Epicentro: ZAPATOCA - SANTANDER                                               3
 ACTION:UPD 13-01-04 14:27 OP:ep   STATUS:               ID:20121211094343 L   I
 2012-12-11-0940-00M.COL___242                                                 6
 STAT SP IPHASW D HRMM SECON CODA AMPLIT PERI AZIMU VELO AIN AR TRES W  DIS CAZ7
 BAR2 SZ EP        944  2.52                             169   -0.0710 27.1 170 
 BAR2 SZ ES        944 16.98                             169   -0.3010 27.1 170 
 BAR2 SZ I         944 19.85        16.7 0.36                          27.1 170 
 GIR2 SZ EP        944  2.72                             168    0.2710 27.4   8 
 BRR  HN ES   4    944 21.27                             154    2.22 0 61.6 300 
 BRR  HN I         944 25.47        25.0 0.16                          61.6 300 
 PAM  SZ EP        944  5.60                             148    0.2010 80.8  46 
 PAM  SZ I         944  5.79        12.5 0.22                          80.8  46 
 PAM  SE ES        944 22.36                             148    0.0610 80.8  46 
 RUS  HE ES        944 25.34                             141   -0.0510  105 171 
 RUS  HN I         944 26.67        12.5 0.44                           105 171 
 PTB  HZ EP        944  9.61                             132    0.22 9  140 257 
 PTB  HN ES        944 29.95                             132    0.55 9  140 257 
 PTB  HN I         944 35.48        10.2 0.38                           140 257 
 OCA  HN ES   2    944 32.59                             129    0.21 5  156 356 
 SML  HN ES   1    944 45.60                             117   -1.27 6  237 337 
 CHI  HZ EP        944 21.32                             115    0.12 8  250 193 
 CHI  HN ES        944 49.69                             115   -0.72 8  250 193 
                                                                                
