 2010  611 0313 36.5 L   6.784 -73.147137.7  RSN  9 0.4 2.6LRSN                1
 GAP=183        1.01       4.0     7.6  8.4 -0.5634E+01  0.3368E+02 -0.2018E+01E
 Epicentro: LOS SANTOS - SANTANDER                                             3
 ACTION:UP  10-08-24 10:09 OP:vdl  STATUS:               ID:20100611031336 L   I
 2010-06-11-0300-00S.COL___114                                                 6
 STAT SP IPHASW D HRMM SECON CODA AMPLIT PERI AZIMU VELO SNR AR TRES W  DIS CAZ7
 BAR2 SZ IP        313 55.09                             171     0.010   22 191 
 BAR2 SZ ES   1    314  9.60                             171     0.0 7   22 191 
 RUS  HZ IP     C  313 59.04                             143    -0.210   99 176 
 RUS  HZ I         313 59.90        39.4 0.07                            99 176 
 RUS  HN ES   1    314 17.09                             143     0.0 7   99 176 
 OCA  SZ EP        314  3.66                             127    -0.7 9  162 353 
 OCA  SZ ES   1    314 26.88                             127     0.8 7  162 353 
 CHI  HZ EP        314 13.28                             116    -0.2 8  247 195 
 CHI  HE ES   1    314 42.37                             116    -0.1 6  247 195 
 CHI  HZ I         314 50.42        22.2 0.40                           247 195 
 ROSC BZ EP        314 14.97                             115     1.0 8  251 211 
 ROSC BE ES   1    314 43.19                             115     0.0 6  251 211 
 ROSC BZ I         314 48.79        31.1 0.47                           251 211 
 HEL  HZ EP        314 16.53                             113     0.3 8  271 256 
 HEL  HN ES   1    314 46.68                             113    -0.5 6  271 256 
 HEL  HZ I         314 54.19        22.8 0.47                           271 256 
 RREF BZ EP   1    314 22.10                             109     0.0 5  320 230 
 RREF BN ES   1    314 57.34                             109    -0.4 5  320 230 
 RREF BZ I         315  4.81        25.5 0.24                           320 230 
 DBB  SZ EP        314 23.49                             108    -0.1 7  339 275 
 TOL  SZ EP   1    314 24.72                             108     0.5 5  342 225 
                                                                                
