 2012  111 0058 25.6 L   6.785 -73.170149.3  RSN  6 0.3 1.7LRSN                1
 GAP=134        0.57       5.1     4.6  6.7  0.2910E+00  0.2326E+01  0.8131E+01E
 Epicentro: LOS SANTOS - SANTANDER                                             3
 ACTION:UP  12-02-03 08:16 OP:REBC STATUS:               ID:20120111005825 L   I
 2012-01-11-0050-00M.COL___186                                                 6
 STAT SP IPHASW D HRMM SECON CODA AMPLIT PERI AZIMU VELO SNR AR TRES W  DIS CAZ7
 GIR2 SZ EP   1    058 45.78                             167     0.1 7   33 355 
 GIR2 SZ ES   1    059  1.33                             167    -0.1 7   33 355 
 BRR  HZ EP   1    058 47.18                             154     0.2 7   70 301 
 BRR  HE ES   2    059  4.46                             154     0.7 5   70 301 
 BRR  HZ I         059  7.84        11.4 0.20                            70 301 
 PAM  SZ EP   1    058 48.11                             151    -0.2 7   80  40 
 PAM  SE ES   2    059  5.70                             151    -0.4 5   80  40 
 RUS  HZ EP   1    058 49.80                             145     0.2 7   99 174 
 RUS  HN ES   2    059  8.16                             145    -0.1 5   99 174 
 RUS  HZ I         059  9.73         5.2 0.43                            99 174 
 PTB  HZ EP   2    058 52.31                             133    -0.2 5  145 259 
 PTB  HN ES   2    059 13.06                             133    -0.6 5  145 259 
 ZAR  HN ES   2    059 23.28                             123    -0.1 4  202 293 
 ZAR  HZ I         059 28.96         5.5 0.46                           202 293 
                                                                                
