 2016  311 0316  4.7 L   6.768 -73.092144.9  RSN  7 0.3 1.9LRSN                1
 GAP=145        0.79       3.8     6.1  5.4 -0.1228E+02  0.1136E+02 -0.1609E+01E
 Epicentro: LOS SANTOS - SANTANDER                                             3
 ACTION:UPD 16-05-13 21:23 OP:cam  STATUS:               ID:20160311031604 L   I
 OLDACT:REG 16-03-11 12:56 OP:cara STATUS:               ID:20160311030753     3
 2016-03-11-0307-53M.COL___274                                                 6
 STAT SP IPHASW D HRMM SECON CODA AMPLIT PERI AZIMU VELO AIN AR TRES W  DIS CAZ7
 BAR2 EZ IP        316 23.91                             171   -0.2510 21.9 207 
 BAR2 EZ ES        316 39.19                             171   -0.1710 21.9 207 
 BAR2 EZ I         316 40.19        26.5 0.66            168           21.9 207 
 PAM  EZ EP        316 26.70                             151   -0.0410 76.6  34 
 PAM  EN ES        316 44.00                             151    0.0410 76.6  34 
 PAM  EZ I         316 45.99        23.5 0.54            154           76.6  34 
 RUS  HZ EP        316 27.82                             145   -0.2410 96.8 179 
 RUS  HN ES        316 46.86                             145    0.5610 96.8 179 
 RUS  HZ I         316 47.59         4.5 0.38            146           96.8 179 
 SPBC HZ EP        316 32.87                             129   -0.33 9  164 221 
 SPBC HN ES        316 55.13                             129   -0.33 9  164 221 
 SPBC HZ I         317  0.64         7.8 0.10            128            164 221 
 ZAR  HZ EP        316 38.41                             121    0.65 8  211 292 
 ZAR  HE ES   4    317  2.73                             121   -0.84 0  211 292 
 ZAR  HZ I         317  8.32        10.7 0.50            121            211 292 
 CHI  HZ EP        316 42.14                             117    0.02 8  247 197 
 CHI  HN ES        317 11.58                             117    0.25 8  247 197 
 CHI  HZ I         317 14.90         4.5 0.40            118            247 197 
 GUY2CHZ EP   9    316 49.81                             112    1.26 0  304 236 
 GUY2CHE ES        317 24.06                                    0.01 7  304 236 
 GUY2CHZ I         317 31.88         2.0 0.48                           304 236 
                                                                                
