 2013 1111 0730 45.5 L   6.827 -73.175129.8  RSN  7 0.5 1.5LRSN                1
 GAP=180        1.19       4.6     6.3  9.8  0.6314E+01  0.7209E+01 -0.1741E+02E
 Epicentro: LOS SANTOS - SANTANDER                                             3
 ACTION:UPD 14-01-09 16:27 OP:ep   STATUS:               ID:20131111073045 L   I
 OLDACT:REG 13-11-11 08:00 OP:nd   STATUS:               ID:20131111073000     3
 2013-11-11-0730-00M.COL___273                                                 6
 STAT SP IPHASW D HRMM SECON CODA AMPLIT PERI AZIMU VELO AIN AR TRES W  DIS CAZ7
 BAR2 SZ EP        731  2.73                             168   -0.5810 26.0 182 
 BAR2 SZ ES        731 17.77                             168    0.6010 26.0 182 
 BAR2 SZ I         731 19.06         8.7 0.74            171           26.0 182 
 BRR  HZ EP        731  4.83                             151    0.1110 66.9 298 
 BRR  HN ES   2    731 20.64                             151    0.96 5 66.9 298 
 BRR  HZ I         731 25.16         4.3 0.26            150           66.9 298 
 RUS  HZ EP        731  8.52                             139    0.5110  104 174 
 RUS  HN ES        731 24.95                             139   -0.5910  104 174 
 RUS  HZ I         731 26.30         1.9 0.28            145            104 174 
 PTB  HZ EP   4    731  9.49                             129   -1.51 0  145 257 
 PTB  HN ES        731 30.37                             129   -0.50 9  145 257 
 PTB  HZ I         731 34.55         2.9 0.24            131            145 257 
 OCA  HZ EP        731 12.84                             126    0.52 9  157 354 
 OCA  HN ES        731 32.65                             126   -0.57 9  157 354 
 OCA  HZ I         731 37.35         5.2 0.24            129            157 354 
 ZAR  HZ EP     D  731 16.78                             119    0.23 9  200 292 
 ZAR  HN ES        731 40.96                             119    0.22 9  200 292 
 ZAR  HZ I         731 46.88         4.4 0.46            122            200 292 
 SML  HZ EP   4    731 19.52                             114   -1.34 0  240 336 
 SML  HN ES        731 48.16                             114   -0.25 8  240 336 
 SML  HZ I         731 50.63         5.8 0.10            117            240 336 
                                                                                
