 2017  611 0826 13.1 L   6.790 -73.184153.4  RSN  6 0.4 1.7LRSN                1
 GAP=253        0.93       4.4     8.1  8.1  0.7112E+01 -0.1983E+02  0.6702E+01E
 Epicentro: LOS SANTOS - SANTANDER                                             3
 ACTION:UPD 17-09-14 16:51 OP:jn   STATUS:               ID:20170611082612 L   I
 OLDACT:UP  17-07-04 15:32 OP:nlst STATUS:               ID:20170611082612 L   3
 OLDACT:DUP 17-06-11 21:45 OP:dani STATUS:               ID:20170611081739d    3
 OLDACT:UP  17-06-11 21:44 OP:dani STATUS:               ID:20170611081738     3
 OLDACT:UP  17-06-11 21:44 OP:dani STATUS:               ID:20170611081738     3
 OLDACT:UP  17-06-11 21:44 OP:dani STATUS:               ID:20170611081738     3
 OLDACT:UP  17-06-11 21:44 OP:dani STATUS:               ID:20170611081738     3
 OLDACT:UP  17-06-11 21:42 OP:dani STATUS:               ID:20170611081738     3
 OLDACT:REG 17-06-11 13:46 OP:osc  STATUS:               ID:20170611081738     3
 2017-06-11-0818-00M.COL___344                                                 6
 STAT SP IPHASW D HRMM SECON CODA AMPLIT PERI AZIMU VELO AIN AR TRES W  DIS CAZ7
 BRR  HZ EP        826 34.83                             155   -0.1310 68.1 301 
 BRR  HN ES        826 52.34                             155    0.3610 68.1 301 
 BRR  HZ I         827  1.71         4.4 0.36            160           68.1 301 
 PTB  HZ EP        826 39.68                             135   -0.68 9  143 259 
 PTB  HE ES        827  1.08                             135   -0.52 9  143 259 
 PTB  HZ I         827  8.19         5.4 0.42            142            143 259 
 SPBC HZ EP        826 42.03                             131    0.11 9  160 218 
 SPBC HN ES        827  4.35                             131   -0.02 9  160 218 
 SPBC HZ I         827  9.68        10.0 0.40            138            160 218 
 ZAR  HZ EP        826 45.66                             125   -0.09 9  201 293 
 ZAR  HN ES        827 11.32                             125    0.14 9  201 293 
 ZAR  HZ I         827 18.14         4.8 0.30            132            201 293 
 NOR  HZ EP        826 49.54                             121    0.64 8  231 234 
 NOR  HN ES   1    827 17.54                             121    0.75 6  231 234 
 NOR  HZ I         827 18.70         3.9 0.15            128            231 234 
 CHI  HZ EP        826 51.34                             119    0.29 8  247 194 
 CHI  HN ES        827 20.32                             119   -0.30 8  247 194 
 CHI  HZ I         827 30.09         2.3 0.32            126            247 194 
                                                                                
