 2016  511 0528 13.4 L   6.811 -73.138150.7  RSN  7 0.4 1.4LRSN                1
 GAP=137        0.96       3.5     4.4  6.8 -0.1368E+01  0.9193E+01 -0.5053E+01E
 Epicentro: LOS SANTOS - SANTANDER                                             3
 ACTION:UPD 16-08-18 17:44 OP:cam  STATUS:               ID:20160511052813 L   I
 OLDACT:UP  16-05-11 16:15 OP:drio STATUS:               ID:20160511051749     3
 OLDACT:REG 16-05-11 12:29 OP:drio STATUS:               ID:20160511051749     3
 2016-05-11-0517-49M.COL___288                                                 6
 STAT SP IPHASW D HRMM SECON CODA AMPLIT PERI AZIMU VELO AIN AR TRES W  DIS CAZ7
 BAR2 EZ EP        528 33.72                             170    0.1110 24.7 191 
 BAR2 EZ ES        528 49.29                             170   -0.1210 24.7 191 
 BAR2 EZ I         528 50.20         5.2 0.44            171           24.7 191 
 PAM  EZ EP        528 36.52                             152    0.5010 75.9  40 
 PAM  EE ES        528 53.71                             152    0.0110 75.9  40 
 PAM  EZ I         528 55.63         2.6 0.24            154           75.9  40 
 RUS  HZ EP        528 37.55                             144   -0.1310  102 177 
 RUS  HE ES        528 56.41                             144   -0.2410  102 177 
 RUS  HZ I         528 57.44         1.6 0.34            149            102 177 
 PTB  HZ EP        528 40.72                             133   -0.11 9  149 258 
 PTB  HN ES        529  1.67                             133   -0.59 9  149 258 
 PTB  HZ I         529  8.93         2.4 0.38            132            149 258 
 SPBC HZ EP        528 42.67                             130    0.29 9  165 219 
 SPBC HE ES        529  5.43                             130    0.42 9  165 219 
 SPBC HZ I         529  6.65         3.7 0.16            131            165 219 
 ZAR  HZ EP   4    528 48.10                             123    1.93 0  204 292 
 ZAR  HE ES        529 12.32                             123    0.57 9  204 292 
 ZAR  HZ I         529 17.15         2.1 0.48            123            204 292 
 SML  HZ EP        528 49.30                             118   -0.89 8  243 335 
 SML  HE ES        529 19.00                             118    0.08 8  243 335 
 SML  HZ I         529 27.29         4.6 0.10            119            243 335 
                                                                                
