 2014  711 0816 38.4 L   6.832 -73.137140.7  RSN  6 0.5 1.8LRSN                1
 GAP=114        1.26       5.4     5.7  9.6  0.7161E+01 -0.1505E+01 -0.1594E+02E
 Epicentro: LOS SANTOS - SANTANDER                                             3
 ACTION:UPD 15-03-16 20:43 OP:nd   STATUS:               ID:20140711081638 L   I
 OLDACT:REG 14-07-11 12:47 OP:stll STATUS:               ID:20140711080814     3
 2014-07-11-0808-14M.COL___253                                                 6
 STAT SP IPHASW D HRMM SECON CODA AMPLIT PERI AZIMU VELO AIN AR TRES W  DIS CAZ7
 BAR2 SZ EP        816 57.91                             169    0.3710 27.0 191 
 BAR2 SZ ES        817 12.96                             169    0.5210 27.0 191 
 BAR2 SZ I         817 13.73        19.5 0.16            171           27.0 191 
 RUS  HZ EP        817  1.50                             142   -0.4610  104 177 
 RUS  HN ES        817 19.85                             142   -0.4510  104 177 
 RUS  HZ I         817 20.59         5.6 0.46            145            104 177 
 PTB  HZ EP        817  5.86                             130    0.70 9  149 258 
 PTB  HN ES        817 25.40                             130   -0.60 9  149 258 
 PTB  HZ I         817 28.58         8.4 0.26            131            149 258 
 TAM  HZ EP        817  6.10                             129    0.38 9  155 106 
 TAM  HZ I         817  6.49        11.9 0.40            132            155 106 
 OCA  HZ EP        817  5.15                             129   -0.89 9  157 353 
 OCA  HN ES        817 27.48                             129   -0.08 9  157 353 
 OCA  HZ I         817 31.30         8.9 0.50            129            157 353 
 ZAR  HZ EP        817 10.86                             121    0.34 9  204 291 
 ZAR  HN ES        817 35.77                             121    0.23 9  204 291 
 ZAR  HZ I         817 42.52         7.3 0.30            121            204 291 
                                                                                
