 2016 1211 0158 19.5 L   6.677 -73.176139.5  RSN  4 0.2 0.7LRSN                1
 GAP=224        0.52       5.1     4.3  5.6  0.6274E+01  0.7912E+01 -0.8738E+01E
 Epicentro: VILLANUEVA - SANTANDER                                             3
 ACTION:UPD 17-01-11 20:13 OP:rebc STATUS:               ID:20161211015819 L   I
 OLDACT:UP  16-12-11 14:10 OP:edw  STATUS:               ID:20161211015742     3
 OLDACT:REG 16-12-11 12:27 OP:edw  STATUS:               ID:20161211015742     3
 2016-12-11-0158-00M.COL___376                                                 6
 STAT SP IPHASW D HRMM SECON CODA AMPLIT PERI AZIMU VELO AIN AR TRES W  DIS CAZ7
 BAR2 EZ EP   2    158 38.32                             176    0.13 5 9.35 184 
 BAR2 EZ ES        158 52.54                             176   -0.2110 9.35 184 
 BRR  HZ EP        158 40.54                             150    0.2510 76.0 309 
 RUS  HZ EP   2    158 41.51                             146   -0.21 5 87.3 173 
 RUS  HN ES        158 59.18                             146    0.1510 87.3 173 
 RUS  HZ I         159  1.89         0.7 0.16            143           87.3 173 
 PTB  HZ EP        158 45.23                             132   -0.26 9  142 264 
 PTB  HN ES        159  5.83                             132    0.08 9  142 264 
 PTB  HZ I         159  9.43         1.0 0.14            130            142 264 
                                                                                
