 2014  611 0657 43.5 L   6.879 -73.337118.7  RSN  7 0.4 1.4LRSN                1
 GAP= 98        0.87       3.6     3.8  7.3 -0.4422E-01  0.9827E+01 -0.1034E+02E
 Epicentro: BETULIA - SANTANDER                                                3
 ACTION:UPD 14-07-01 22:52 OP:nd   STATUS:               ID:20140611065743 L   I
 OLDACT:UP  14-06-11 16:37 OP:mh   STATUS:               ID:20140611064814     3
 OLDACT:REG 14-06-11 13:37 OP:mh   STATUS:               ID:20140611064814     3
 2014-06-11-0648-14M.COL___253                                                 6
 STAT SP IPHASW D HRMM SECON CODA AMPLIT PERI AZIMU VELO AIN AR TRES W  DIS CAZ7
 BAR2 SZ EP        658  0.68                             162    0.3510 36.0 152 
 BAR2 SZ ES        658 13.41                             162   -0.0110 36.0 152 
 PAM  SZ EP        658  3.77                             142    0.1210 86.8  54 
 PAM  SN ES   1    658 19.48                             142    0.15 7 86.8  54 
 PAM  SZ I         658 23.01         7.0 0.30            148           86.8  54 
 RUS  HZ EP   1    658  5.60                             134   -0.17 7  113 166 
 RUS  HN ES   1    658 23.14                             134    0.02 7  113 166 
 RUS  HZ I         658 25.12         2.4 0.40            143            113 166 
 PTB  HZ EP   1    658  6.04                             129   -0.62 7  129 253 
 PTB  HN ES   1    658 24.02                             129   -0.67 7  129 253 
 PTB  HZ I         658 27.90         4.6 0.11            134            129 253 
 OCA  HZ EP   1    658  8.53                             125   -0.36 7  150   1 
 OCA  HN ES   1    658 27.98                             125   -0.69 7  150   1 
 OCA  HZ I         658 34.57         6.0 0.00            129            150   1 
 ZAR  HZ EP        658 12.44                             119    0.54 9  181 292 
 ZAR  HN ES        658 34.49                             119    0.47 9  181 292 
 ZAR  HZ I         658 42.79         3.7 0.31            123            181 292 
 SML  HZ EP        658 16.64                             113   -0.32 8  227 339 
 SML  HN ES   1    658 43.40                             113    0.37 6  227 339 
                                                                                
