 2012  611 0507 46.5 L   6.803 -73.236128.2  RSN  5 0.3 1.8LRSN                1
 GAP=121        0.61       6.5     8.3  9.1 -0.2596E+02  0.4715E+02 -0.2843E+02E
 Epicentro: ZAPATOCA - SANTANDER                                               3
 ACTION:UPD 12-08-06 17:48 OP:ep   STATUS:               ID:20120611050744 L   I
 2012-06-11-0500-00M.COL___201                                                 6
 STAT SP IPHASW D HRMM SECON CODA AMPLIT PERI AZIMU VELO AIN AR TRES W  DIS CAZ7
 BAR2 SZ EP   1    5 8  4.57                             168    0.49 7 24.0 166 
 BAR2 SZ ES   1    5 8 17.83                             168    0.08 7 24.0 166 
 PAM  SZ EP   1    5 8  7.26                             145   -0.09 7 83.8  45 
 PAM  SN ES   2    5 8 23.10                             145   -0.49 5 83.8  45 
 PTB  HZ EP   1    5 8 10.71                             130   -0.50 7  138 258 
 OCA  HZ EP   2    5 8 13.40                             126   -0.02 5  159 357 
 OCA  HE ES   2    5 8 34.58                             126    0.19 5  159 357 
 OCA  HZ I         5 8 40.72        14.7 0.63            122            159 357 
 ZAR  HZ EP   2    5 8 17.29                             120    0.38 4  195 293 
 ZAR  HZ I         5 8 21.20         3.0 0.14            117            195 293 
                                                                                
