 2016  611 0205 35.5 L   6.766 -73.123152.0  RSN  8 0.5 1.7LRSN                1
 GAP=141        1.07       4.9     5.4  7.4 -0.5179E+01  0.1181E+02  0.4360E+01E
 Epicentro: LOS SANTOS - SANTANDER                                             3
 ACTION:UPD 16-07-21 22:17 OP:rebc STATUS:               ID:20160611020535 L   I
 OLDACT:UP  16-06-11 14:21 OP:dani STATUS:               ID:20160611015743     3
 OLDACT:REG 16-06-11 12:22 OP:dani STATUS:               ID:20160611015743     3
 2016-06-11-0157-43M.COL___337                                                 6
 STAT SP IPHASW D HRMM SECON CODA AMPLIT PERI AZIMU VELO AIN AR TRES W  DIS CAZ7
 BAR2 EZ EP        2 5 56.46                             172    0.6110 20.3 199 
 BAR2 EZ ES        2 6 11.25                             172   -0.4610 20.3 199 
 BAR2 EZ I         2 6 11.73        10.5 0.30                          20.3 199 
 BRR  HZ EP     C  2 5 57.76                             152    0.1810 75.3 300 
 BRR  HZ I         2 6 14.71        10.2 0.34                          75.3 300 
 BRR  HE ES        2 6 15.30                             152    0.5210 75.3 300 
 PAM  EN ES        2 6 16.23                             151   -0.1710 78.8  36 
 PAM  EZ I         2 6 19.15        12.9 0.26                          78.8  36 
 RUS  HZ EP        2 5 59.87                             146    0.2410 96.6 177 
 RUS  HE ES        2 6 18.06                             146   -0.3610 96.6 177 
 RUS  HZ I         2 6 18.88         5.2 0.52                          96.6 177 
 PTB  HZ EP        2 6  2.58                             133   -0.59 9  150 260 
 PTB  HN ES        2 6 24.39                             133   -0.35 9  150 260 
 PTB  HZ I         2 6 27.49         5.2 0.20                           150 260 
 SPBC HZ EP        2 6  4.86                             130    0.47 9  162 221 
 SPBC HN ES        2 6 26.66                             130   -0.25 9  162 221 
 SPBC HZ I         2 6 28.52         6.0 0.32                           162 221 
 NOR  HE ES        2 6 40.22                             119    0.45 8  235 236 
 SJC  HZ EP   2    2 6 30.65                             106   -1.19 3  414 327 
 SJC  HN ES   2    2 7 14.16                             106   -1.59 3  414 327 
                                                                                
