 2011  211 0635 54.6 L   6.760 -73.226143.0  RSN  6 0.3 1.9LRSN                1
 GAP=145        0.68       4.1    10.7  8.9 -0.1556E+02  0.4640E+02 -0.8025E+01E
 Epicentro: ZAPATOCA - SANTANDER                                               3
 ACTION:UP  11-03-28 15:07 OP:jfem STATUS:               ID:20110211063554 L   I
 2011-02-11-0620-00M.COL___138                                                 6
 STAT SP IPHASW D HRMM SECON CODA AMPLIT PERI AZIMU VELO SNR AR TRES W  DIS CAZ7
 BAR2 SZ IP        636 13.70                             172    -0.210   19 166 
 BAR2 SZ ES   2    636 28.89                             172     0.0 5   19 166 
 BAR2 SZ I         636 30.17        31.3 0.25                            19 166 
 RUS  HZ EP   1    636 17.60                             144    -0.3 7   97 171 
 RUS  HN ES   2    636 36.43                             144     0.4 5   97 171 
 RUS  HZ I         636 37.30         6.5 0.33                            97 171 
 GRA  SZ IP        636 20.50                             135     0.310  133  21 
 GRA  SZ ES   2    636 39.58                             135    -0.6 5  133  21 
 GRA  SZ I         636 41.40        10.5 0.54                           133  21 
 OCA  SZ EP   1    636 22.95                             128    -0.1 7  164 356 
 OCA  SZ ES   2    636 45.78                             128     0.5 5  164 356 
 OCA  SZ I         636 48.48        13.4 0.22                           164 356 
 CHI  HZ EP   1    636 31.81                             117     0.3 6  242 193 
 CHI  HZ I         636 55.32         5.3 0.38                           242 193 
 HEL  HZ EP   1    636 33.50                             115    -0.1 6  262 256 
 HEL  HZ I         637 12.38         4.9 0.51                           262 256 
                                                                                
