 2012  911 0447 22.7 L   6.738 -73.165145.2  RSN  4 0.2 1.6LRSN                1
 GAP=230        0.50       5.6     7.2  5.8  0.2564E+02 -0.5308E+01 -0.5181E+01E
 Epicentro: VILLANUEVA - SANTANDER                                             3
 ACTION:UPD 12-10-22 14:18 OP:ep   STATUS:               ID:20120911044722 L   I
 2012-09-11-0440-00M.COL___227                                                 6
 STAT SP IPHASW D HRMM SECON CODA AMPLIT PERI AZIMU VELO AIN AR TRES W  DIS CAZ7
 BAR2 SZ EP   1    447 42.24                             173    0.05 7 16.3 187 
 BAR2 SZ ES   1    447 57.02                             173   -0.34 7 16.3 187 
 BAR2 SZ I         447 58.09         7.8 0.25                          16.3 187 
 BRR  HZ EP        447 43.78                             152   -0.1610 72.9 304 
 BRR  HZ I         447 44.10        10.3 0.15                          72.9 304 
 BRR  HN ES   1    448  0.82                             152    0.36 7 72.9 304 
 RUS  HZ EP   1    447 46.10                             145    0.12 7 94.0 174 
 RUS  HE ES   1    448  4.24                             145    0.14 7 94.0 174 
 PTB  HE ES   2    448  9.99                             132   -0.15 5  144 261 
                                                                                
