 2016  211 0814 15.3 L   6.814 -73.135135.9  RSN  6 0.3 1.4LRSN                1
 GAP=184        0.61       2.1     3.4  6.9  0.6226E+00  0.8189E+00 -0.5828E+01E
 Epicentro: LOS SANTOS - SANTANDER                                             3
 ACTION:UPD 16-03-04 21:25 OP:rebc STATUS:               ID:20160211081415 L   I
 OLDACT:UP  16-02-11 19:15 OP:ak   STATUS:               ID:20160211081150     3
 OLDACT:REG 16-02-11 19:12 OP:ak   STATUS:               ID:20160211081150     3
 2016-02-11-0811-50M.COL___304                                                 6
 STAT SP IPHASW D HRMM SECON CODA AMPLIT PERI AZIMU VELO AIN AR TRES W  DIS CAZ7
 RUS  HZ EP        814 38.24                             141    0.0310  102 177 
 RUS  HN ES        814 56.17                             141    0.0910  102 177 
 PTB  HZ EP        814 41.61                             129   -0.01 9  149 258 
 PTB  HN ES        815  1.96                             129   -0.19 9  149 258 
 PTB  HZ I         815  5.04         2.7 0.16            130            149 258 
 OCA  HZ EP   2    814 43.36                             128    0.63 5  159 353 
 OCA  HN ES        815  4.16                             128    0.03 9  159 353 
 OCA  HZ I         815  7.67         9.6 0.50            130            159 353 
 SPBC HZ EP   2    814 43.00                             126   -0.26 5  165 219 
 SPBC HN ES        815  4.89                             126   -0.17 9  165 219 
 SPBC HZ I         815 11.52         1.7 0.20            129            165 219 
 ZAR  HZ EP   2    814 47.45                             120    0.27 4  205 292 
 ZAR  HN ES        815 12.58                             120    0.54 9  205 292 
 ZAR  HZ I         815 19.01         2.1 0.34            122            205 292 
 SML  HZ EP        814 51.26                             115   -0.04 8  243 335 
 SML  HN ES        815 18.85                             115   -0.52 8  243 335 
 SML  HZ I         815 22.55         2.0 0.11            118            243 335 
                                                                                
