 2012  811 0821 57.6 L   6.763 -73.174142.6  RSN  7 0.3 1.6LRSN                1
 GAP=135        0.58       4.1     3.8  5.6  0.2057E+01  0.3971E+01 -0.9098E-01E
 Epicentro: LOS SANTOS - SANTANDER                                             3
 ACTION:UPD 12-09-10 11:55 OP:ep   STATUS:               ID:20120811082157 L   I
 2012-08-11-0817-41M.COL___207                                                 6
 STAT SP IPHASW D HRMM SECON CODA AMPLIT PERI AZIMU VELO AIN AR TRES W  DIS CAZ7
 BAR2 SZ EP        822 16.79                             172    0.0010 18.9 183 
 BAR2 SZ ES   1    822 31.71                             172   -0.03 7 18.9 183 
 BAR2 SZ I         822 33.04        12.0 0.23                          18.9 183 
 GIR2 SZ EP   1    822 17.08                             165    0.05 7 35.0 356 
 GIR2 SZ ES   1    822 32.36                             165    0.20 7 35.0 356 
 PAM  SZ EP   1    822 19.98                             148    0.16 7 82.5  39 
 RUS  HZ EP   1    822 20.41                             145   -0.38 7 96.8 174 
 RUS  HE ES   1    822 39.13                             145    0.27 7 96.8 174 
 RUS  HZ I         822 40.59         3.7 0.61                          96.8 174 
 PTB  HZ EP   1    822 23.65                             132   -0.34 7  144 260 
 PTB  HN ES   1    822 44.12                             132   -0.43 7  144 260 
 ZAR  HN ES   1    822 55.10                             122    0.32 6  203 294 
 ZAR  HZ I         823  0.93         4.9 0.32                           203 294 
 PRA  HE ES   2    823 32.73                             106    1.09 3  387 209 
                                                                                
