 2016  111 0425 43.7 L   6.811 -73.130142.1  RSN 16 0.5 2.4LRSN                1
 GAP=138        1.11       3.0     3.9  5.4 -0.2383E+01  0.6678E+01  0.2004E+01E
 Epicentro: LOS SANTOS - SANTANDER                                             3
 ACTION:UPD 16-03-09 23:24 OP:cam  STATUS:               ID:20160111042543 L   I
 OLDACT:UP  16-01-11 15:58 OP:mh   STATUS:               ID:20160111041755     3
 OLDACT:REG 16-01-11 12:22 OP:mh   STATUS:               ID:20160111041755     3
 2016-01-11-0417-55M.COL___226                                                 6
 STAT SP IPHASW D HRMM SECON CODA AMPLIT PERI AZIMU VELO AIN AR TRES W  DIS CAZ7
 BAR2 EZ EP        426  3.03                             170    0.1310 24.9 194 
 BAR2 EZ ES        426 17.88                             170   -0.0210 24.9 194 
 BAR2 EZ I         426 18.63        47.6 0.12            169           24.9 194 
 BRR  HZ IP     C  426  4.94                             152    0.4510 72.2 297 
 BRR  HN ES        426 20.92                             152    0.2010 72.2 297 
 BRR  HZ I         426 26.22        36.2 0.66            149           72.2 297 
 PAM  EZ IP     C  426  6.03                             151    0.6510 75.3  39 
 PAM  EN ES        426 22.75                             151    0.4410 75.3  39 
 PAM  EZ I         426 24.69        70.5 0.52            154           75.3  39 
 RUS  HZ IP     D  426  7.07                             143   -0.0810  102 177 
 RUS  HN ES        426 25.37                             143   -0.0910  102 177 
 RUS  HZ I         426 26.67        34.7 0.38            145            102 177 
 PTB  HZ EP     C  426  9.66                             131   -0.87 9  150 259 
 PTB  HN ES        426 31.21                             131   -0.27 9  150 259 
 PTB  HZ I         426 33.38        38.4 0.36            130            150 259 
 OCA  HZ EP   1    426 11.20                             129   -0.41 7  159 352 
 OCA  HN ES        426 32.54                             129   -0.86 9  159 352 
 OCA  HZ I         426 37.92        68.6 0.28            130            159 352 
 SPBC HZ EP   1    426 11.91                             128   -0.18 7  165 219 
 SPBC HN ES        426 33.68                             128   -0.58 9  165 219 
 SPBC HZ I         426 38.93        40.2 0.40            129            165 219 
 ZAR  HZ EP   1    426 15.90                             121   -0.11 6  205 292 
 ZAR  HN ES        426 41.93                             121    0.70 8  205 292 
 ZAR  HZ I         426 48.87        20.8 0.20            121            205 292 
 NOR  HZ EP   1    426 19.53                             117    0.10 6  237 234 
 NOR  HN ES        426 46.69                             117   -0.62 8  237 234 
 NOR  HZ I         426 53.86        16.6 0.34            118            237 234 
 SML  HZ EP        426 19.23                             117   -0.83 8  243 335 
 SML  HN ES   4    426 46.45                             117   -1.99 0  243 335 
 SML  HZ I         426 55.02        31.8 0.10            117            243 335 
 CHI  HZ EP        426 21.07                             116   -0.28 8  250 195 
 CHI  HN ES        426 50.63                             116   -0.11 8  250 195 
 CHI  HZ I         426 53.13         8.8 0.26            118            250 195 
 HEL  HZ EP        426 24.76                             114    0.83 8  274 256 
 HEL  HN ES        426 55.41                             114    0.08 8  274 256 
 HEL  HZ I         427  2.10        11.6 0.28            114            274 256 
 GUY2CHZ EP        426 27.92                             111    0.56 7  303 235 
 GUY2CHN ES        427  2.27                             111    0.84 7  303 235 
 GUY2CHZ I         427  7.91        14.0 0.28                           303 235 
 CBOC HZ EP        426 31.22                             109    0.54 7  336 252 
 CBOC HN ES        427  7.14                             109   -0.20 7  336 252 
 CBOC HZ I         427 10.57         4.6 0.54            110            336 252 
 PRA  HZ EP   1    426 36.69                             106   -0.61 4  394 210 
 PRA  HN ES   4    427 15.14                             106   -3.98 0  394 210 
 PRA  HZ I         427 25.38         7.1 0.30            107            394 210 
 ORTC HZ EP        426 38.00                             106    0.29 6  397 216 
 ORTC HN ES        427 20.12                             106    0.26 6  397 216 
 ORTC HZ I         427 26.02         4.9 0.28            107            397 216 
 PAL  HZ EP   4    426 38.78                             105   -0.19 0  408 239 
 PAL  HN ES   4    427 20.92                             105   -1.18 0  408 239 
                                                                                
