 2016  411 0152  0.1 L   6.448 -73.361135.1  RSN  6 0.3 1.5LRSN                1
 GAP=102        0.75       3.4     3.8  6.6 -0.2900E+01  0.7748E+01 -0.4946E+01E
 Epicentro: SIMACOTA - SANTANDER                                               3
 ACTION:UPD 16-05-05 14:20 OP:rebc STATUS:               ID:20160411015200 L   I
 OLDACT:UP  16-04-11 16:08 OP:mh   STATUS:               ID:20160411014743     3
 OLDACT:REG 16-04-11 12:47 OP:mh   STATUS:               ID:20160411014743     3
 2016-04-11-0147-43M.COL___295                                                 6
 STAT SP IPHASW D HRMM SECON CODA AMPLIT PERI AZIMU VELO AIN AR TRES W  DIS CAZ7
 BAR2 EZ EP        152 18.43                             169   -0.0510 25.3  51 
 BAR2 EZ ES        152 32.31                             169   -0.5210 25.3  51 
 BAR2 EZ I         152 34.01         5.0 0.16            171           25.3  51 
 RUS  HZ EP        152 20.57                             152   -0.0810 68.7 153 
 RUS  HN ES        152 37.07                             152    0.3710 68.7 153 
 SPBC HZ EP   1    152 23.76                             136    0.11 7  118 222 
 SPBC HN ES        152 42.23                             136    0.1910  118 222 
 SPBC HZ I         152 45.17         4.0 0.16            135            118 222 
 PTB  HZ EP        152 23.50                             135   -0.3410  122 275 
 PTB  HN ES        152 42.52                             135    0.1410  122 275 
 NOR  HN ES   1    152 54.56                             121   -0.22 6  194 240 
 NOR  HZ I         153  1.25         2.8 0.62            121            194 240 
 OCA  HN ES        152 56.28                             121    0.43 9  198   1 
 OCA  HZ I         152 58.87         8.2 0.18            121            198   1 
                                                                                
