 2013  711 0912 26.4 L   6.817 -73.211143.9  RSN  4 0.4 1.6LRSN                1
 GAP=205        0.74       4.0     6.2  6.5 -0.6221E+01  0.9553E+01  0.5581E+01E
 Epicentro: ZAPATOCA - SANTANDER                                               3
 ACTION:UPD 13-08-12 10:37 OP:ep   STATUS:               ID:20130711091226 L   I
 OLDACT:REG 13-07-11 07:39 OP:nd   STATUS:               ID:20130711090959     3
 2013-07-11-0909-59M.COL___266                                                 6
 STAT SP IPHASW D HRMM SECON CODA AMPLIT PERI AZIMU VELO AIN AR TRES W  DIS CAZ7
 GIR2 SZ EP        912 45.76                             168    0.0110 29.0   4 
 GIR2 SZ ES        913  0.84                             168   -0.0310 29.0   4 
 GIR2 SZ I         913  2.12         4.2 0.22            167           29.0   4 
 PTB  HZ EP        912 52.37                             133   -0.19 9  141 258 
 PTB  HN ES        913 13.31                             133    0.31 9  141 258 
 PTB  HZ I         913 20.71         5.0 0.48            130            141 258 
 SML  HZ EP   2    913  2.54                             118    0.17 4  239 337 
 SML  HN ES        913 30.21                             118   -0.25 8  239 337 
 SML  HZ I         913 32.98         6.1 0.10            119            239 337 
 PRA  HZ EP        913 20.43                             106    0.84 6  390 208 
 PRA  HN ES        914  0.41                             106   -0.70 6  390 208 
 PRA  HZ I         914  7.90         1.7 0.28            107            390 208 
                                                                                
