 2017 1111 0341 12.1 L   5.908 -73.593123.3  RSN  7 0.4 1.5LRSN                1
 GAP=155        0.96       3.5     5.2  8.9 -0.6393E+01  0.6178E+01  0.4727E+00E
 Epicentro: BARBOSA - SANTANDER                                                3
 ACTION:UPD 17-12-12 19:54 OP:rebc STATUS:               ID:20171111034112 L   I
 OLDACT:UP  17-11-11 15:25 OP:dnl  STATUS:               ID:20171111033744d    3
 OLDACT:UP  17-11-11 15:25 OP:dnl  STATUS:               ID:20171111033744d    3
 OLDACT:UP  17-11-11 15:25 OP:dnl  STATUS:               ID:20171111033744d    3
 OLDACT:UP  17-11-11 14:44 OP:dnl  STATUS:               ID:20171111033744d    3
 OLDACT:DUP 17-11-11 14:40 OP:dnl  STATUS:               ID:20171111033744d    3
 OLDACT:UP  17-11-11 14:39 OP:dnl  STATUS:               ID:20171111033743     3
 OLDACT:REG 17-11-11 14:13 OP:dnl  STATUS:               ID:20171111033743     3
 2017-11-11-0338-00M.COL___444                                                 6
 STAT SP IPHASW D HRMM SECON CODA AMPLIT PERI AZIMU VELO AIN AR TRES W  DIS CAZ7
 SPBC HZ EP        341 30.08                             152   -0.2810 60.2 242 
 SPBC HN ES        341 44.82                             152    0.2410 60.2 242 
 SPBC HZ I         341 45.99        13.1 0.50            152           60.2 242 
 BAR2 EZ EP   2    341 32.96                             142    0.53 5 88.2  31 
 BAR2 EZ ES        341 48.42                             142    0.1610 88.2  31 
 BAR2 EZ I         341 49.78        21.2 0.46            145           88.2  31 
 PTB  HZ EP   3    341 34.53                             133   -0.07 2  118 306 
 PTB  HN ES        341 51.39                             133   -0.7410  118 306 
 PTB  HZ I         341 57.69         1.6 0.28            133            118 306 
 BRR  HZ EP        341 35.96                             129    0.0210  133 354 
 BRR  HE ES        341 54.76                             129    0.2410  133 354 
 BRR  HZ I         341 55.62         4.1 0.12            131            133 354 
 CHI  HE ES        341 56.76                             128   -0.28 9  142 186 
 NOR  HZ EP   2    341 36.70                             127   -0.59 5  146 255 
 NOR  HE ES   4    341 53.81                             127   -3.10 0  146 255 
 NOR  HZ I         341 59.24         6.9 0.16            128            146 255 
 GUY2CHZ EP   2    341 44.38                             116   -0.13 4  210 249 
 GUY2CHN ES        342 10.65                             116    0.88 8  210 249 
 GUY2CHZ I         342 14.61         2.2 0.46                           210 249 
                                                                                
