 2015  311 0517 26.0 L   6.921 -73.444112.2  RSN  7 0.3 1.7LRSN                1
 GAP= 86        0.87       2.5     3.5  5.8  0.5325E+00  0.6491E+01  0.2312E+00E
 Epicentro: SAN VICENTE DE CHUCURI - SANTANDER                                 3
 ACTION:UPD 15-04-30 16:25 OP:nd   STATUS:               ID:20150311051726 L   I
 OLDACT:DUP 15-03-11 15:14 OP:cam  STATUS:               ID:20150311050744d    3
 2015-03-11-0507-43M.COL___281                                                 6
 STAT SP IPHASW D HRMM SECON CODA AMPLIT PERI AZIMU VELO AIN AR TRES W  DIS CAZ7
 BRR  HZ IP     C  517 41.65                             161   -0.0310 36.0 305 
 BRR  HN ES        517 53.76                             161   -0.1510 36.0 305 
 BRR  HZ I         517 54.48        15.1 0.14            163           36.0 305 
 BAR2 EZ IP     D  517 42.95                             156    0.4510 46.5 141 
 BAR2 EZ ES        517 55.44                             156    0.0710 46.5 141 
 BAR2 EZ I         517 57.73        18.4 0.20            156           46.5 141 
 PAM  SN ES        518  2.08                             137    0.3010 94.4  61 
 PAM  SN I         518  4.79        14.7 0.18            139           94.4  61 
 RUS  HZ EP        517 48.72                             130    0.2910  121 161 
 RUS  HN ES        518  5.70                             130   -0.2110  121 161 
 RUS  HZ I         518  8.95         6.4 0.42            130            121 161 
 OCA  HZ EP        517 50.47                             123   -0.04 9  146   5 
 OCA  HN ES        518  8.97                             123   -0.66 9  146   5 
 OCA  HZ I         518 10.59         6.4 0.30            126            146   5 
 SPBC HZ EP        517 50.99                             121   -0.49 9  157 206 
 SPBC HN ES        518 11.10                             121   -0.25 9  157 206 
 SPBC HZ I         518 16.31         6.8 0.22            122            157 206 
 ZAR  HZ EP        517 52.72                             119    0.10 9  168 292 
 ZAR  HE ES        518 13.92                             119    0.54 9  168 292 
 ZAR  HZ I         518 15.17         9.2 0.46            121            168 292 
                                                                                
