 2014  111 0513 25.0 L   6.816 -73.151144.7  RSN 15 0.4 2.2LRSN                1
 GAP=135        0.93       2.3     3.3  4.9 -0.1732E+01  0.6539E+01 -0.1082E+00E
 Epicentro: LOS SANTOS - SANTANDER                                             3
 ACTION:UPD 14-03-13 09:54 OP:ep   STATUS:               ID:20140111051325 L   I
 OLDACT:REG 14-01-11 09:38 OP:carl STATUS:               ID:20140111051000     3
 2014-01-11-0510-00M.COL___285                                                 6
 STAT SP IPHASW D HRMM SECON CODA AMPLIT PERI AZIMU VELO AIN AR TRES W  DIS CAZ7
 BAR2 SZ EP        513 44.64                             170    0.1510 25.0 188 
 BAR2 SZ ES        513 59.88                             170    0.1510 25.0 188 
 BAR2 SZ I         514  1.15        42.9 0.20            169           25.0 188 
 PAM  SZ EP        513 47.52                             151    0.5310 76.4  41 
 PAM  SN ES        514  4.70                             151    0.5110 76.4  41 
 PAM  SZ I         514  6.73        30.1 0.46            154           76.4  41 
 RUS  HZ EP        513 48.57                             143   -0.1610  102 176 
 RUS  HN ES        514  7.19                             143   -0.0910  102 176 
 RUS  HZ I         514  8.44        20.3 0.28            145            102 176 
 PTB  HZ EP        513 51.45                             132   -0.36 9  148 258 
 PTB  HN ES        514 12.34                             132   -0.42 9  148 258 
 PTB  HZ I         514 15.44        16.9 0.38            131            148 258 
 OCA  HZ EP        513 52.74                             130   -0.27 9  158 353 
 OCA  HN ES        514 14.53                             130   -0.36 9  158 353 
 OCA  HZ I         514 23.26        13.5 0.50            131            158 353 
 SPBC HZ EP        513 53.54                             129    0.08 9  164 218 
 SPBC HN ES        514 15.08                             129   -0.62 9  164 218 
 ZAR  HZ EP        513 57.03                             122   -0.17 9  203 292 
 ZAR  HN ES        514 23.07                             122    0.72 9  203 292 
 ZAR  HZ I         514 24.80        12.0 0.14            122            203 292 
 NOR  HZ EP        514  0.67                             118   -0.01 8  235 234 
 NOR  HN ES        514 28.11                             118   -0.43 8  235 234 
 NOR  HZ I         514 34.25        16.6 0.16            119            235 234 
 SML  HZ EP        514  0.96                             117   -0.35 8  242 335 
 SML  HN ES        514 29.17                             117   -0.51 8  242 335 
 SML  HZ I         514 32.94        28.4 0.26            118            242 335 
 CHI  HZ EP        514  2.74                             117   -0.02 8  250 195 
 CHI  HN ES        514 32.04                             117   -0.21 8  250 195 
 CHI  HZ I         514 38.15         7.0 0.32            118            250 195 
 ROSC BZ EP   4    514  4.69                             116    1.55 0  254 211 
 ROSC BN ES   4    514 32.99                             116    0.06 0  254 211 
 HEL  HZ EP        514  5.15                             115    0.06 8  272 255 
 HEL  HN ES        514 37.25                             115    0.85 8  272 255 
 HEL  HZ I         514 44.76         8.8 0.30            115            272 255 
 GUY2CHZ EP        514  9.41                             112    0.84 7  302 234 
 GUY2CHN ES        514 42.40                             112   -0.19 7  302 234 
 GUY2CHZ I         514 50.76         9.9 0.28                           302 234 
 RREF HZ EP   4    514 12.75                             111    1.62 0  322 229 
 RREF HN ES   4    514 48.36                             111    1.22 0  322 229 
 RREF HZ I         514 53.71         9.5 0.24            111            322 229 
 CBOC HZ EP        514 12.06                             110    0.24 7  334 252 
 CBOC HN ES        514 48.31                             110   -0.06 7  334 252 
 CBOC HZ I         515  2.14         2.7 0.24            110            334 252 
 ORTC HZ EP        514 18.86                             106   -0.10 6  397 216 
 ORTC HN ES        515  1.79                             106    0.70 6  397 216 
 ORTC HZ I         515  8.43         5.1 0.42            107            397 216 
                                                                                
