 2016  911 0823 52.8 L   6.861 -73.222122.0  RSN  6 0.4 1.4LRSN                1
 GAP=176        0.96       3.4     5.5  7.8 -0.1281E+01  0.1368E+01 -0.5414E+01E
 Epicentro: ZAPATOCA - SANTANDER                                               3
 ACTION:UPD 17-08-17 21:08 OP:lp   STATUS:               ID:20160911082352 L   I
 OLDACT:DUP 16-09-11 16:07 OP:dnl  STATUS:               ID:20160911081740d    3
 OLDACT:REG 16-09-11 12:54 OP:dani STATUS:               ID:20160911081739     3
 2016-09-11-0818-00M.COL___336                                                 6
 STAT SP IPHASW D HRMM SECON CODA AMPLIT PERI AZIMU VELO AIN AR TRES W  DIS CAZ7
 BAR2 EZ EP        824 10.01                             165    0.2910 30.1 172 
 BAR2 EZ ES        824 23.18                             165    0.2310 30.1 172 
 BAR2 EZ I         824 24.25        21.2 0.26            165           30.1 172 
 BRR  HZ EP        824 10.54                             152   -0.1910 60.6 297 
 BRR  HN ES        824 24.52                             152   -0.2410 60.6 297 
 BRR  HZ I         824 25.43         9.3 0.12            153           60.6 297 
 RUS  HZ EP   2    824 14.78                             136   -0.10 5  108 172 
 RUS  HN ES        824 32.12                             136   -0.0210  108 172 
 RUS  HZ I         824 34.34         1.5 0.36            137            108 172 
 PTB  HZ EP   4    824 15.29                             127   -1.95 0  141 255 
 PTB  HE ES        824 36.99                             127    0.65 9  141 255 
 PTB  HZ I         824 38.11         2.8 0.42            128            141 255 
 OCA  HZ EP        824 19.05                             125    0.48 9  153 356 
 OCA  HN ES        824 38.25                             125   -0.46 9  153 356 
 OCA  HZ I         824 39.37         4.9 0.30            126            153 356 
 SPBC HZ EP   2    824 18.89                             123   -0.69 5  164 215 
 SPBC HE ES        824 39.90                             123   -0.60 9  164 215 
 SPBC HZ I         824 40.92         2.7 0.10            124            164 215 
                                                                                
