 2016  411 0613 38.6 L   6.850 -73.147143.2  RSN 21 0.6 2.4LRSN                1
 GAP= 69        1.17       3.2     3.1  5.6 -0.2056E+01  0.5367E+01  0.5435E+00E
 Epicentro: LOS SANTOS - SANTANDER                                             3
 ACTION:UPD 16-05-05 14:20 OP:rebc STATUS:               ID:20160411061338 L   I
 OLDACT:UP  16-04-11 18:01 OP:mh   STATUS:               ID:20160411060743     3
 OLDACT:REG 16-04-11 13:18 OP:mh   STATUS:               ID:20160411060743     3
 2016-04-11-0607-43M.COL___285                                                 6
 STAT SP IPHASW D HRMM SECON CODA AMPLIT PERI AZIMU VELO AIN AR TRES W  DIS CAZ7
 BAR2 EZ IP     C  613 58.07                             168    0.0110 28.8 188 
 BAR2 EZ ES        614 12.80                             168   -0.4210 28.8 188 
 BAR2 EZ I         614 15.23        60.4 0.20            167           28.8 188 
 PAM  EZ EP        614  0.78                             151    0.4710 73.3  42 
 PAM  EN ES        614 17.76                             151    0.5210 73.3  42 
 PAM  EZ I         614 19.01        39.3 0.36            155           73.3  42 
 RUS  HZ IP     C  614  2.18                             142   -0.3410  106 176 
 RUS  HN ES        614 21.10                             142   -0.0710  106 176 
 RUS  HZ I         614 22.14        41.0 0.18            143            106 176 
 PTB  HZ EP        614  4.59                             131   -0.87 9  149 257 
 PTB  HN ES        614 25.80                             131   -0.60 9  149 257 
 PTB  HZ I         614 27.95        68.4 0.12            130            149 257 
 OCA  HZ EP        614  6.12                             130   -0.08 9  155 353 
 OCA  HN ES        614 28.00                             130    0.28 9  155 353 
 OCA  HZ I         614 34.45        57.2 0.38            131            155 353 
 TAM  HZ IP     D  614  6.48                             129    0.24 9  157 107 
 TAM  HE ES        614 28.07                             129    0.27 9  157 107 
 SPBC HZ IP     C  614  7.01                             128   -0.31 9  167 218 
 SPBC HN ES        614 29.71                             128   -0.00 9  167 218 
 SPBC HZ I         614 35.71        48.5 0.24            127            167 218 
 ZAR  HZ EP        614 10.84                             122    0.18 9  202 291 
 ZAR  HN ES        614 36.17                             122    0.51 9  202 291 
 ZAR  HZ I         614 41.05        38.1 0.26            122            202 291 
 NOR  HZ EP        614 13.99                             118   -0.54 8  238 233 
 NOR  HE ES        614 42.00                             118   -0.54 8  238 233 
 NOR  HZ I         614 49.81        19.2 0.16            118            238 233 
 CHI  HZ EP        614 16.79                             116    0.04 8  254 195 
 CHI  HE ES        614 46.88                             116    0.38 8  254 195 
 CHI  HZ I         614 53.28        11.2 0.36            117            254 195 
 ROSC BZ EP   1    614 17.97                             116    0.86 6  257 210 
 ROSC BN ES   4    614 49.80                             116    2.67 0  257 210 
 ROSC BZ I         614 52.69        18.4 0.35            116            257 210 
 HEL  HZ EP   1    614 19.98                             114    1.15 6  273 255 
 HEL  HN ES        614 49.97                             114   -0.23 8  273 255 
 HEL  HZ I         614 56.35        19.8 0.32            114            273 255 
 URE  HZ EP   4    614 18.10                             113   -1.21 0  282 291 
 URE  HN ES   4    614 48.98                             113   -2.07 0  282 291 
 URE  HZ I         614 56.46                             113            282 291 
 GUY2CHZ EP   1    614 23.07                             111    0.62 5  304 234 
 GUY2CHN ES   4    614 58.83                             111    2.18 0  304 234 
 GUY2CHZ I         615  5.81        20.2 0.62                           304 234 
 PTGC HZ EP   4    614 21.44                             111   -1.51 0  314 159 
 PTGC HN ES   4    614 54.56                             111   -2.97 0  314 159 
 PTGC HZ I         614 57.15        12.0 0.39            112            314 159 
 ELA  HZ EP   4    614 28.33                             109    2.57 0  333 229 
 ELA  HN ES   4    615  7.14                             109    4.61 0  333 229 
 ELA  HZ I         615 11.96         9.7 0.22            110            333 229 
 CBOC HZ EP        614 26.92                             109    1.32 7  335 251 
 CBOC HE ES        615  2.29                             109    0.04 7  335 251 
 CBOC HZ I         615 14.04         5.4 0.30            109            335 251 
 SDV  BZ EP        614 26.86                             108   -1.30 6  357  51 
 SDV  BN ES   4    615  4.27                             108   -2.54 0  357  51 
 SDV  BZ I         615  8.51         3.7 0.65            109            357  51 
 ANIL HZ EP   4    614 28.78                             108    0.01 0  361 224 
 ANIL HE ES   4    615  9.87                             108    1.99 0  361 224 
 ORTC HZ EP        614 32.90                             106   -0.06 6  400 216 
 ORTC HN ES        615 16.33                             106    0.98 6  400 216 
 ORTC HZ I         615 23.53         6.5 0.62            106            400 216 
 SJC  HZ EP        614 32.31                             105   -1.22 6  404 327 
 SJC  HN ES   4    615 12.79                             105   -3.58 0  404 327 
 SJC  HZ I         615 17.77         5.0 0.25            106            404 327 
 PAL  HZ EP        614 34.15                             105    0.14 6  408 238 
 PAL  HN ES        615 17.08                             105   -0.14 6  408 238 
 PAL  HZ I         615 22.18         6.0 0.50            106            408 238 
                                                                                
