 2012  911 0225 58.6 L   6.775 -73.178143.2  RSN  7 0.2 1.6LRSN                1
 GAP=177        0.38       3.7     3.6  4.2  0.6200E+01  0.1868E+01  0.7464E+00E
 Epicentro: LOS SANTOS - SANTANDER                                             3
 ACTION:UPD 12-10-22 14:18 OP:ep   STATUS:               ID:20120911022558 L   I
 2012-09-11-0220-00M.COL___227                                                 6
 STAT SP IPHASW D HRMM SECON CODA AMPLIT PERI AZIMU VELO AIN AR TRES W  DIS CAZ7
 BAR2 SZ ES   1    226 32.77                             172   -0.10 7 20.2 181 
 BAR2 SZ I         226 35.89        14.9 0.34                          20.2 181 
 GIR2 SZ EP        226 18.00                             166   -0.0210 33.7 357 
 BRR  HZ EP   1    226 19.28                             153   -0.08 7 69.6 302 
 BRR  HE ES   2    226 36.08                             153    0.51 5 69.6 302 
 BRR  HZ I         226 40.92         6.3 0.44                          69.6 302 
 RUS  HZ EP   1    226 22.07                             144    0.17 7 98.1 174 
 RUS  HE ES   2    226 39.87                             144   -0.22 5 98.1 174 
 PTB  HN ES   2    226 45.59                             132    0.02 5  144 260 
 ZAR  HN ES   1    226 55.47                             122   -0.17 6  202 293 
 ZAR  HZ I         227  1.29         3.4 0.25                           202 293 
 PRA  HZ EP   1    226 51.60                             106    0.07 4  388 209 
                                                                                
