 2014  111 0717 18.5 L   7.378 -73.152  4.0  RSN  7 0.4 2.2LRSN                1
 GAP=106        1.08       2.3     4.0  8.1  0.1507E+01  0.2517E+02  0.1787E+01E
 Epicentro: RIONEGRO - SANTANDER                                               3
 ACTION:UPD 14-03-13 09:54 OP:ep   STATUS:               ID:20140111071718 L   I
 OLDACT:REG 14-01-11 09:40 OP:carl STATUS:               ID:20140111071000     3
 2014-01-11-0710-00M.COL___285                                                 6
 STAT SP IPHASW D HRMM SECON CODA AMPLIT PERI AZIMU VELO AIN AR TRES W  DIS CAZ7
 PAM  SZ IP     D  717 27.26                              93    0.0810 50.1  95 
 PAM  SN ES        717 33.61                              93   -0.3510 50.1  95 
 PAM  SZ I         717 34.06       123.7 0.38             47           50.1  95 
 OCA  HZ EP        717 33.81                              91   -0.1210 96.9 349 
 OCA  HN ES        717 45.73                              91   -0.2510 96.9 349 
 OCA  HZ I         717 49.41        47.0 0.64             47           96.9 349 
 RUS  HZ EP        717 45.13                              91    0.62 9  164 177 
 RUS  HN ES        718  4.50                              91   -0.31 9  164 177 
 RUS  HZ I         718  7.60        16.2 0.24             47            164 177 
 PTB  HZ EP        717 45.37                              56    0.29 9  171 237 
 PTB  HN ES        718  5.23                              56   -0.58 9  171 237 
 PTB  HZ I         718  6.98        33.5 0.20             47            171 237 
 SML  HZ EP        717 47.71                              56    0.57 9  187 327 
 SML  HE ES        718  9.42                              56   -0.06 9  187 327 
 SML  HZ I         718 13.30        40.4 0.24             37            187 327 
 ZAR  HZ EP        717 48.18                              56    0.83 9  189 274 
 ZAR  HN ES        718  9.33                              56   -0.54 9  189 274 
 ZAR  HZ I         718 11.92        27.6 0.30             37            189 274 
 SPBC HZ EP   4    717 53.61                              56    2.71 0  216 208 
 SPBC HN ES   4    718 19.70                              56    3.53 0  216 208 
 SPBC HZ I         718 21.83        14.2 0.28             37            216 208 
                                                                                
