 2013  811 0435 18.0 L   6.816 -73.172143.2  RSN 18 0.5 2.6LRSN 3.0WRSN        1
 SPEC AVERAGE  MO 13.6 ST  5.6 OM  1.4 f0 7.31 R0.6395 AL 0.00 WI 18.9 MW  3.0 3
 SPEC SD       MO  0.2 ST  4.6 OM  0.4 f0 3.06 R0.7776 AL      WI      MW  0.1 3
 GAP=132        1.11       3.3     4.3  5.3 -0.2964E+01  0.7524E+01  0.1726E+01E
 Epicentro: LOS SANTOS - SANTANDER                                             3
 SPEC ZAR HH Z MO 13.5 ST  9.3 OM  1.7 f0 6.37 R0.2440 AL 0.00 WI 17.4 MW  2.9 3
 SPEC ZAR HH Z T 43613 K 0.000 GD  246 VS 4.20 DE 3.20 Q0300.0 QA 0.60 VS 4.20 3
 SPEC SPBCHH Z MO 13.7 ST0.014 OM  1.2 f0 1.11 R2.5333 AL 0.00 WI 21.7 MW  3.1 3
 SPEC SPBCHH Z T 43545 K 0.000 GD  216 VP 7.60 DE 3.20 Q0300.0 QA 0.60 VS 4.20 3
 SPEC RUS HH Z MO 13.5 ST  3.6 OM  1.1 f0 8.26 R0.3404 AL 0.00 WI 17.9 MW  3.0 3
 SPEC RUS HH Z T 43540 K 0.000 GD  176 VP 7.60 DE 3.20 Q0300.0 QA 0.60 VS 4.20 3
 SPEC PAM SH Z MO 13.5 ST  6.0 OM  1.1 f0 10.0 R0.2812 AL 0.00 WI 15.1 MW  2.9 3
 SPEC PAM SH Z T 43539 K 0.000 GD  163 VP 7.60 DE 3.20 Q0300.0 QA 0.60 VS 4.20 3
 SPEC CBOCHH Z MO 13.3 ST  4.2 OM  0.6 f0 10.0 R0.2812 AL 0.00 WI 32.2 MW  2.8 3
 SPEC CBOCHH Z T 436 4 K 0.000 GD  360 VP 7.60 DE 3.20 Q0300.0 QA 0.60 VS 4.20 3
 SPEC CHI HH Z MO 13.6 ST  1.4 OM  1.0 f0 5.46 R0.5150 AL 0.00 WI 13.5 MW  3.0 3
 SPEC CHI HH Z T 43555 K 0.000 GD  288 VP 7.60 DE 3.20 Q0300.0 QA 0.60 VS 4.20 3
 SPEC BRR HH Z MO 13.9 ST 14.6 OM  1.5 f0 10.0 R0.2812 AL 0.00 WI 14.7 MW  3.2 3
 SPEC BRR HH Z T 43539 K 0.000 GD  158 VP 7.60 DE 3.20 Q0300.0 QA 0.60 VS 4.20 3
 ACTION:UPD 14-01-14 09:00 OP:ep   STATUS:               ID:20130811043518 L   I
 OLDACT:UP  13-08-11 12:57 OP:jn   STATUS:               ID:20130811042960d    3
 OLDACT:DUP 13-08-11 12:49 OP:jn   STATUS:               ID:20130811042960d    3
 OLDACT:REG 13-08-11 07:30 OP:jn   STATUS:               ID:20130811042959     3
 2013-08-11-0429-59M.COL___270                                                 6
 STAT SP IPHASW D HRMM SECON CODA AMPLIT PERI AZIMU VELO AIN AR TRES W  DIS CAZ7
 BAR2 SZ IP     D  435 37.37                             170    0.0110 24.7 183 
 BAR2 SZ ES        435 52.53                             170    0.0810 24.7 183 
 BAR2 SZ I         435 53.36       154.0 0.28            169           24.7 183 
 GIR2 SZ EP        435 37.43                             168    0.1110 29.2 355 
 GIR2 SZ ES        435 52.09                             168   -0.2910 29.2 355 
 GIR2 SZ I         435 54.39       153.1 0.34            161           29.2 355 
 BRR  HZ IP     D  435 39.15                             153    0.4610 67.8 298 
 BRR  HN ES   1    435 55.73                             153    0.92 7 67.8 298 
 BRR  HZ I         435 59.42       127.9 0.39            144           67.8 298 
 PAM  SZ EP        435 40.28                             150    0.2910 78.0  42 
 PAM  SN ES        435 57.12                             150   -0.0110 78.0  42 
 PAM  SZ I         435 59.39       120.1 0.56            143           78.0  42 
 RUS  HZ EP        435 41.38                             143   -0.2710  103 174 
 RUS  HN ES        436  0.22                             143    0.1310  103 174 
 RUS  HZ I         436  1.92        23.1 0.22            137            103 174 
 PTB  HZ EP        435 44.09                             132   -0.44 9  145 258 
 PTB  HN ES        436  4.55                             132   -0.67 9  145 258 
 PTB  HZ I         436 12.43        63.4 0.40            123            145 258 
 OCA  HZ EP        435 45.45                             129   -0.48 9  158 354 
 OCA  HN ES        436  7.74                             129    0.04 9  158 354 
 OCA  HZ I         436 11.96        62.7 0.20            120            158 354 
 SPBC HZ EP   1    435 46.38                             128    0.11 7  163 218 
 SPBC HZ I         436 15.39        33.6 0.22            121            163 218 
 ZAR  HN ES   1    436 14.78                             122   -0.06 6  201 292 
 ZAR  HZ I         436 20.74        61.8 0.20            114            201 292 
 NOR  HZ EP        435 53.48                             118    0.04 8  233 234 
 NOR  HE ES   1    436 21.07                             118   -0.01 6  233 234 
 NOR  HZ I         436 27.98        26.6 0.22            111            233 234 
 CHI  HZ EP        435 55.53                             116   -0.14 8  250 194 
 CHI  HN ES   1    436 24.73                             116   -0.31 6  250 194 
 CHI  HZ I         436 28.90        25.0 0.30            110            250 194 
 ROSC BZ EP        435 57.32                             116    1.33 8  253 210 
 ROSC BN ES   1    436 24.34                             116   -1.27 6  253 210 
 HEL  HE ES   1    436 29.06                             114    0.19 6  270 255 
 HEL  HZ I         436 36.41        27.9 0.54            107            270 255 
 URE  HZ EP   1    435 59.57                             113    1.00 6  280 292 
 GUY2CHZ EP   1    436  1.96                             112    0.62 5  300 234 
 GUY2CHZ I         436 45.72        19.1 0.60                           300 234 
 CBOC HZ EP   1    436  5.19                             110    0.63 5  331 252 
 CBOC HN ES   1    436 41.06                             110    0.20 5  331 252 
 CBOC HZ I         436 50.90         5.1 0.50            103            331 252 
 DBB  SZ EP   1    436  4.03                             109   -1.00 5  336 274 
 COD  HZ EP        436  5.01                             109   -1.04 6  346 355 
 COD  HZ I         436 52.04         8.7 0.50            102            346 355 
                                                                                
