 2017 1211 0415 55.5 L   6.779 -73.156138.7  RSN  8 0.5 1.3LRSN                1
 GAP=112        1.15       4.7     4.6  7.4 -0.3304E+01  0.7422E+01  0.9166E+01E
 Epicentro: LOS SANTOS - SANTANDER                                             3
 ACTION:UPD 18-01-04 13:19 OP:rebc STATUS:               ID:20171211041555 L   I
 OLDACT:UP  17-12-11 19:11 OP:edw  STATUS:               ID:20171211040744d    3
 OLDACT:DUP 17-12-11 19:01 OP:edw  STATUS:               ID:20171211040744d    3
 OLDACT:UP  17-12-11 18:59 OP:edw  STATUS:               ID:20171211040743     3
 OLDACT:REG 17-12-11 14:17 OP:edw  STATUS:               ID:20171211040743     3
 2017-12-11-0408-00M.COL___475                                                 6
 STAT SP IPHASW D HRMM SECON CODA AMPLIT PERI AZIMU VELO AIN AR TRES W  DIS CAZ7
 BAR2 EZ EP        416 14.06                             171   -0.2010 20.8 188 
 BAR2 EZ ES        416 28.99                             171    0.1210 20.8 188 
 PAM  EZ EP        416 16.97                             149   -0.1810 79.9  39 
 PAM  EN ES        416 34.34                             149    0.3210 79.9  39 
 PAM  EZ I         416 36.08         3.4 0.42            155           79.9  39 
 PTB  HZ EP        416 20.81                             131   -0.97 9  146 260 
 PTB  HN ES        416 42.05                             131   -0.21 9  146 260 
 PTB  HZ I         416 48.77         2.0 0.26            132            146 260 
 SPBC HZ EP        416 23.22                             128   -0.03 9  161 219 
 SPBC HE ES        416 45.37                             128    0.50 9  161 219 
 SPBC HZ I         416 51.63         3.6 0.20            130            161 219 
 YPLC HZ EP        416 24.48                             125   -0.19 9  175 151 
 ZAR  HZ EP        416 28.45                             121    0.94 9  204 293 
 ZAR  HN ES        416 51.97                             121   -0.48 9  204 293 
 ZAR  HZ I         416 55.76         2.1 0.34            124            204 293 
 CHI  HZ EP        416 32.42                             116   -0.14 8  246 195 
 CHI  HE ES        417  1.17                             116   -0.27 8  246 195 
 CHI  HZ I         417  4.89         1.4 0.32            119            246 195 
 GUY2CHZ EP        416 39.52                             111    0.96 7  299 235 
 GUY2CHE ES        417 12.41                             111    0.29 7  299 235 
 GUY2CHZ I         417 20.47         0.8 0.58                           299 235 
                                                                                
