 2015  211 0233 53.3 L   6.798 -73.178142.9  RSN  6 0.5 1.2LRSN                1
 GAP=133        1.24       5.8     6.1  9.2 -0.8654E+01  0.8496E+01  0.2001E+01E
 Epicentro: LOS SANTOS - SANTANDER                                             3
 ACTION:UPD 15-04-30 21:24 OP:nd   STATUS:               ID:20150211023353 L   I
 OLDACT:REG 15-02-11 13:01 OP:fm   STATUS:               ID:20150211022746     3
 2015-02-11-0227-46M.COL___293                                                 6
 STAT SP IPHASW D HRMM SECON CODA AMPLIT PERI AZIMU VELO AIN AR TRES W  DIS CAZ7
 BAR2 EZ ES        234 28.13                             171    0.4810 22.7 181 
 BAR2 EZ I         234 31.98         3.9 0.38            169           22.7 181 
 BRR  HZ EP        234 14.04                             153    0.0210 68.3 300 
 BRR  HN ES        234 30.82                             153    0.6810 68.3 300 
 BRR  HZ I         234 35.42         3.9 0.40            152           68.3 300 
 PAM  SZ EP        234 15.68                             149    0.2710 79.9  41 
 PAM  SN ES        234 31.70                             149   -0.9210 79.9  41 
 PAM  SZ I         234 34.38         3.1 0.18            156           79.9  41 
 RUS  HZ EP        234 17.21                             143    0.3910  101 174 
 RUS  HN ES        234 35.03                             143   -0.0910  101 174 
 RUS  HZ I         234 36.36         1.5 0.18            146            101 174 
 PTB  HZ EP        234 19.72                             132   -0.04 9  144 259 
 PTB  HN ES        234 39.84                             132   -0.52 9  144 259 
 PTB  HZ I         234 46.89         3.1 0.56            133            144 259 
 SPBC HN ES        234 42.85                             129   -0.42 9  161 218 
 SPBC HZ I         234 50.34         2.7 0.10            131            161 218 
                                                                                
