 2016 1011 0529 25.4 L   6.792 -73.138144.4  RSN  7 0.5 1.5LRSN                1
 GAP=138        1.26       6.8     5.9  9.9 -0.6297E+01  0.1610E+02 -0.1283E+02E
 Epicentro: LOS SANTOS - SANTANDER                                             3
 ACTION:UPD 16-11-09 19:18 OP:rebc STATUS:               ID:20161011052925 L   I
 OLDACT:REG 16-10-11 13:33 OP:ar   STATUS:               ID:20161011052745     3
 2016-10-11-0528-00M.COL___363                                                 6
 STAT SP IPHASW D HRMM SECON CODA AMPLIT PERI AZIMU VELO AIN AR TRES W  DIS CAZ7
 BAR2 EZ EP        529 44.90                             171    0.0610 22.6 192 
 BAR2 EZ ES        529 59.91                             171   -0.1110 22.6 192 
 BAR2 EZ I         530  1.96         5.6 0.21            172           22.6 192 
 BRR  HZ EP        529 47.00                             152    0.5410 72.4 299 
 BRR  HE ES        530  3.56                             152    0.6710 72.4 299 
 BRR  HZ I         530  7.65         5.6 0.48            151           72.4 299 
 PAM  EZ EP        529 47.85                             150    0.3810 77.6  39 
 PAM  EE ES        530  4.58                             150   -0.1210 77.6  39 
 PAM  EZ I         530  6.94         9.0 0.68            153           77.6  39 
 RUS  HN ES   2    530  6.76                             144   -0.55 5 99.6 176 
 RUS  HZ I         530  8.59         3.4 0.24            148           99.6 176 
 PTB  HN ES        530 12.50                             131   -0.80 9  148 259 
 PTB  HZ I         530 15.06         2.9 0.06            133            148 259 
 OCA  HZ EP   4    529 52.50                             129   -1.19 0  161 353 
 OCA  HE ES        530 14.93                             129   -0.83 9  161 353 
 OCA  HZ I         530 17.82         7.9 0.54            131            161 353 
 ZAR  HZ EP        529 57.46                             122   -0.40 9  205 292 
 ZAR  HN ES        530 23.74                             122    0.55 9  205 292 
 ZAR  HZ I         530 29.06         3.9 0.32            123            205 292 
                                                                                
