 2015  611 0453 55.5 L   6.814 -73.144142.2  RSN 11 0.6 2.1LRSN                1
 GAP=119        1.51       4.3     5.6  7.8 -0.4668E+01  0.1194E+02 -0.3455E+01E
 Epicentro: LOS SANTOS - SANTANDER                                             3
 ACTION:UPD 15-09-10 22:11 OP:cam  STATUS:               ID:20150611045355 L   I
 OLDACT:REG 15-06-11 13:33 OP:stll STATUS:               ID:20150611044748     3
 2015-06-11-0447-48M.COL___291                                                 6
 STAT SP IPHASW D HRMM SECON CODA AMPLIT PERI AZIMU VELO AIN AR TRES W  DIS CAZ7
 BAR2 EZ EP     C  454 14.81                             170    0.1010 24.9 190 
 BAR2 EZ ES        454 29.22                             170   -0.4910 24.9 190 
 BAR2 EZ I         454 31.64        14.8 0.20            169           24.9 190 
 BRR  HZ IP     C  454 16.76                             152    0.5610 70.7 297 
 BRR  HZ I         454 16.96        25.3 0.24            150           70.7 297 
 BRR  HN ES        454 33.74                             152    1.3610 70.7 297 
 PAM  SZ EP        454 17.80                             151    0.5710 76.0  40 
 PAM  SN ES        454 34.46                             151    0.2710 76.0  40 
 PAM  SZ I         454 36.95        21.7 0.58            154           76.0  40 
 RUS  HZ EP        454 18.79                             143   -0.2010  102 176 
 RUS  HN ES        454 37.03                             143   -0.3010  102 176 
 OCA  HZ EP        454 23.19                             129   -0.17 9  159 353 
 OCA  HN ES        454 44.33                             129   -0.78 9  159 353 
 OCA  HZ I         454 48.34        37.2 0.32            131            159 353 
 SPBC HZ EP        454 24.02                             128    0.19 9  165 219 
 SPBC HN ES        454 45.21                             128   -0.74 9  165 219 
 SPBC HZ I         454 51.46         8.8 0.24            129            165 219 
 ZAR  HZ EP        454 28.00                             122    0.36 9  204 292 
 ZAR  HN ES        454 52.58                             122   -0.16 9  204 292 
 ZAR  HZ I         454 59.69        13.5 0.30            122            204 292 
 SML  HZ EP        454 31.16                             117   -0.59 8  242 335 
 SML  HE ES        454 59.11                             117   -0.94 8  242 335 
 SML  HZ I         455  1.69        10.6 0.10            118            242 335 
 HEL  HZ EP        454 36.81                             114    1.24 8  273 255 
 HEL  HE ES        455  6.50                             114   -0.35 8  273 255 
 HEL  HZ I         455 13.97         6.0 0.40            115            273 255 
 SOCV BZ EP        454 37.82                             112   -0.42 7  300  57 
 GUY2CHZ EP        454 39.70                             112    0.66 7  302 235 
 GUY2CHN ES        455 12.17                             112   -0.85 7  302 235 
 GUY2CHZ I         455 22.23         4.4 0.74                           302 235 
                                                                                
