 2014  611 0333 58.0 L   6.904 -73.301113.3  RSN  5 0.2 1.3LRSN                1
 GAP=160        0.40       1.8     4.1  6.5 -0.2021E+01  0.1774E+02 -0.4980E+01E
 Epicentro: BETULIA - SANTANDER                                                3
 ACTION:UPD 14-07-01 22:52 OP:nd   STATUS:               ID:20140611033358 L   I
 OLDACT:REG 14-06-11 13:24 OP:mh   STATUS:               ID:20140611032819     3
 2014-06-11-0328-19M.COL___253                                                 6
 STAT SP IPHASW D HRMM SECON CODA AMPLIT PERI AZIMU VELO AIN AR TRES W  DIS CAZ7
 BAR2 SZ EP   1    334 14.26                             161    0.09 8 36.9 159 
 BAR2 SZ ES   1    334 26.81                             161    0.01 8 36.9 159 
 BAR2 SZ I         334 28.10        11.1 0.17            166           36.9 159 
 OCA  HN ES   1    334 41.74                             123   -0.21 8  148 359 
 OCA  HZ I         334 44.64         3.3 0.27            127            148 359 
 SPBC HN ES        334 44.60                             121    0.0210  163 212 
 SPBC HZ I         334 47.06         1.6 0.14            124            163 212 
 ZAR  HZ EP        334 26.20                             117   -0.1210  184 291 
 ZAR  HN ES   1    334 48.38                             117   -0.04 7  184 291 
 ZAR  HZ I         334 52.30         1.6 0.06            119            184 291 
 SML  HN ES   1    334 57.18                             112    0.38 7  226 338 
                                                                                
