 2011  811 0550 34.5 L   6.767 -73.076132.3  RSN  6 0.5 1.5LRSN                1
 GAP=190        0.88       3.7     8.0  7.4 -0.1951E+00  0.7745E+01  0.2188E+01E
 Epicentro: LOS SANTOS - SANTANDER                                             3
 ACTION:UPD 12-07-13 15:51 OP:ep   STATUS:               ID:20110811055034 L   I
 2011-08-11-0548-34S.COL___150                                                 6
 STAT SP IPHASW D HRMM SECON CODA AMPLIT PERI AZIMU VELO AIN AR TRES W  DIS CAZ7
 BAR2 SZ EP        550 52.72                             170    0.1810 22.6 211 
 BAR2 SZ ES   1    551  6.58                             170    0.00 7 22.6 211 
 BAR2 SZ I         551  8.80        11.2 0.33                          22.6 211 
 BRR  HZ EP        550 54.72                             147   -0.0810 79.7 298 
 BRR  HE ES   1    551 11.37                             147    0.78 7 79.7 298 
 BRR  HZ I         551 15.86        13.4 0.22                          79.7 298 
 RUS  HZ EP   1    550 57.14                             142    0.44 7 96.7 180 
 RUS  HE ES   1    551 13.46                             142   -0.52 7 96.7 180 
 RUS  HZ I         551 16.50         3.0 0.39                          96.7 180 
 OCA  SZ EP   1    551  1.95                             126   -0.36 7  165 351 
 OCA  SZ ES   1    551 23.37                             126   -0.60 7  165 351 
 OCA  SZ I         551 28.76         7.1 0.14                           165 351 
 NOR  SZ EP   1    551 10.33                             115    0.33 6  239 236 
 NOR  SN ES   1    551 36.97                             115   -0.68 6  239 236 
 CHI  HZ EP   1    551 11.96                             114    0.58 6  247 197 
 CHI  HE ES   1    551 39.74                             114   -0.37 6  247 197 
 CHI  HZ I         551 46.94         1.3 0.34                           247 197 
                                                                                
