 2010  811 0010 17.8 L   6.794 -73.077145.1  RSN 11 0.4 2.2LRSN                1
 GAP=131        1.01       4.0     7.4  7.1 -0.1179E+02  0.2608E+01 -0.7048E+00E
 Epicentro: LOS SANTOS - SANTANDER                                             3
 ACTION:UP  10-09-07 10:54 OP:vdl  STATUS:               ID:20100811001017 L   I
 2010-08-11-0007-52S.COL___125                                                 6
 STAT SP IPHASW D HRMM SECON CODA AMPLIT PERI AZIMU VELO SNR AR TRES W  DIS CAZ7
 BAR2 SZ EP        010 37.57                             170     0.210   25 208 
 BAR2 SZ ES   1    010 52.07                             170    -0.6 7   25 208 
 BAR2 SZ I         010 55.78        36.9 0.35                            25 208 
 BRR  HZ EP        010 39.48                             150     0.210   78 296 
 BRR  HE ES   2    010 55.78                             150    -0.3 5   78 296 
 BRR  HZ I         011  0.25        33.9 0.18                            78 296 
 RUS  HZ EP        010 41.44                             144     0.010  100 180 
 RUS  HE ES   1    011  0.25                             144     0.4 7  100 180 
 RUS  HZ I         011  1.93        19.3 0.41                           100 180 
 GUE  SZ EP        010 41.49                             139    -0.910  116   8 
 GUE  SZ I         011  5.38         6.6 0.15                           116   8 
 GRA  SZ EP        010 43.35                             137     0.510  124  14 
 GRA  SZ ES   1    011  2.88                             137     0.5 7  124  14 
 GRA  SZ I         011  4.63        20.0 0.28                           124  14 
 OCA  SZ EP        010 46.41                             129     0.2 9  162 351 
 OCA  SZ ES   2    011  8.54                             129     0.2 5  162 351 
 OCA  SZ I         011 12.98        27.5 0.34                           162 351 
 CHI  HZ EP        010 55.42                             117    -0.2 8  250 197 
 CHI  HE ES   2    011 25.12                             117     0.0 4  250 197 
 CHI  HZ I         011 33.11        10.0 0.41                           250 197 
 HEL  HZ EP   1    010 58.85                             114     0.1 6  279 256 
 HEL  HE ES   2    011 30.25                             114    -0.5 4  279 256 
 HEL  HZ I         011 35.77        11.5 0.65                           279 256 
 RREF HZ EP   2    011  5.00                             110     0.5 3  327 230 
 RREF HE ES   2    011 40.97                             110     0.0 3  327 230 
 RREF HZ I         011 48.49        12.2 0.31                           327 230 
 SDV  BZ EP        011  6.73                             108    -0.5 6  355  49 
 SDV  BZ I         011  7.90         4.5 0.25                           355  49 
 PRA  HZ EP   1    011 11.89                             106     0.2 4  395 211 
 PRA  HN ES   2    011 53.18                             106    -0.5 3  395 211 
 PRA  HZ I         011 57.99         7.6 0.28                           395 211 
                                                                                
