 2011  111 0344 58.4 L   7.359 -73.082135.3  RSN  8 0.4 1.8LRSN                1
 GAP=152        0.86       5.6    13.9 14.8 -0.4090E+02  0.1387E+03 -0.1767E+02E
 Epicentro: MATANZA - SANTANDER                                                3
 ACTION:UP  11-02-08 08:40 OP:pat  STATUS:               ID:20110111034458 L   I
 2011-01-11-0343-01S.COL___135                                                 6
 STAT SP IPHASW D HRMM SECON CODA AMPLIT PERI AZIMU VELO SNR AR TRES W  DIS CAZ7
 GIR2 SZ EP   1    345 17.09                             165     0.2 7   33 202 
 BTL  SZ EP   1    345 18.11                             158     0.3 7   53 203 
 GRA  SZ EP   1    345 18.42                             153     0.1 7   66  28 
 GRA  SZ ES   1    345 34.07                             153     0.2 7   66  28 
 GRA  SZ I         345 35.11        16.5 0.35                            66  28 
 BAR2 SZ EP   1    345 20.16                             146     0.5 7   86 188 
 BAR2 SZ ES   2    345 36.11                             146    -0.2 5   86 188 
 BAR2 SZ I         345 37.54        19.9 0.24                            86 188 
 OCA  SZ EP   1    345 19.87                             141    -0.8 7  101 345 
 OCA  SZ I         345 38.94         7.0 0.20                           101 345 
 RUS  HN ES   1    345 47.88                             127    -0.6 7  162 180 
 NOR  SZ EP   2    345 38.45                             112    -0.2 4  280 225 
 NOR  SN ES   1    346  9.99                             112     0.0 6  280 225 
 HEL  HZ EP   2    345 41.69                             110     0.5 4  300 245 
 HEL  HZ I         346 21.68         2.0 0.38                           300 245 
                                                                                
