 2011  611 0004 56.1 L   6.790 -73.123147.1  RSN  9 0.3 2.2LRSN                1
 GAP=158        0.59       2.8     4.6  4.6 -0.7299E+01  0.3323E+01  0.1401E+00E
 Epicentro: LOS SANTOS - SANTANDER                                             3
 ACTION:UP  11-07-14 19:04 OP:ep   STATUS:               ID:20110611000456 L   I
 2011-06-11-0001-35S.COL___133                                                 6
 STAT SP IPHASW D HRMM SECON CODA AMPLIT PERI AZIMU VELO SNR AR TRES W  DIS CAZ7
 BAR2 SZ EP   1    0 5 15.67                             171    -0.2 7   23 197 
 BAR2 SZ ES   1    0 5 30.94                             171    -0.4 7   23 197 
 BAR2 SZ I         0 5 31.79        39.6 0.17                            23 197 
 BRR  HZ IP     D  0 5 17.55                             152     0.010   74 298 
 BRR  HE ES   1    0 5 34.59                             152     0.3 7   74 298 
 BRR  HZ I         0 5 35.75        37.7 0.11                            74 298 
 RUS  HZ EP   1    0 5 19.67                             144    -0.2 7   99 177 
 RUS  HE ES   1    0 5 38.90                             144     0.4 7   99 177 
 BRI  SZ EP   1    0 5 20.17                             142     0.0 7  109  19 
 BRI  SZ ES   1    0 5 39.15                             142     0.3 7  109  19 
 BRI  SZ I         0 5 43.33        16.8 0.40                           109  19 
 GRA  SZ IP        0 5 21.49                             137     0.010  126  16 
 GRA  SZ ES   1    0 5 41.23                             137    -0.1 7  126  16 
 GRA  SZ I         0 5 42.52        26.1 0.29                           126  16 
 OCA  SZ EP   1    0 5 24.46                             130    -0.2 7  162 352 
 OCA  SZ I         0 5 54.47        16.0 0.40                           162 352 
 NOR  SN ES   1    0 5 59.73                             119    -0.4 6  236 235 
 RREF HZ EP   2    0 5 42.73                             111     0.3 3  323 230 
 RREF HE ES   1    0 6 18.89                             111     0.3 5  323 230 
 RREF HZ I         0 6 27.78        12.3 0.40                           323 230 
 PRA  HZ EP   1    0 5 50.21                             107     0.5 4  392 210 
 PRA  HE ES   1    0 6 31.32                             107    -0.2 4  392 210 
                                                                                
