 2014  811 0056 45.3 L   6.819 -73.166145.0  RSN 16 0.5 2.1LRSN                1
 GAP=133        1.04       2.8     3.9  4.9 -0.1005E+01  0.5834E+01  0.2395E+01E
 Epicentro: LOS SANTOS - SANTANDER                                             3
 ACTION:UPD 14-09-15 21:48 OP:nd   STATUS:               ID:20140811005645 L   I
 OLDACT:UP  14-08-11 14:24 OP:cam  STATUS:               ID:20140811005000     3
 OLDACT:REG 14-08-11 12:37 OP:cam  STATUS:               ID:20140811005000     3
 2014-08-11-0050-00M.COL___285                                                 6
 STAT SP IPHASW D HRMM SECON CODA AMPLIT PERI AZIMU VELO AIN AR TRES W  DIS CAZ7
 BAR2 SZ EP     D  057  4.74                             170   -0.0910 25.1 184 
 BAR2 SZ ES        057 19.94                             170   -0.1610 25.1 184 
 BAR2 SZ I         057 21.29        38.6 0.14            166           25.1 184 
 BRR  HZ IP     C  057  6.57                             153    0.4210 68.2 298 
 BRR  HN ES        057 22.80                             153    0.3410 68.2 298 
 BRR  HZ I         057 27.79        14.3 0.28            147           68.2 298 
 PAM  SZ EP        057  7.66                             151    0.2810 77.3  42 
 PAM  SN ES        057 25.25                             151    0.6110 77.3  42 
 PAM  SZ I         057 27.16        19.6 0.68            148           77.3  42 
 RUS  HZ EP        057  8.68                             143   -0.4110  103 175 
 RUS  HE ES        057 27.43                             143   -0.2610  103 175 
 RUS  HZ I         057 28.57        21.9 0.32            137            103 175 
 PTB  HZ EP        057 11.74                             132   -0.25 9  146 258 
 PTB  HN ES        057 32.41                             132   -0.44 9  146 258 
 PTB  HZ I         057 34.45        12.0 0.10            125            146 258 
 SPBC HZ EP        057 13.59                             129   -0.12 9  163 218 
 SPBC HN ES        057 35.77                             129   -0.14 9  163 218 
 SPBC HZ I         057 43.20        17.9 0.38            122            163 218 
 ZAR  HZ EP        057 17.17                             123   -0.18 9  201 292 
 ZAR  HE ES        057 42.23                             123   -0.16 9  201 292 
 ZAR  HZ I         057 48.63         8.7 0.28            116            201 292 
 NOR  HZ EP        057 20.71                             118   -0.16 8  234 234 
 NOR  HN ES        057 48.72                             118    0.07 8  234 234 
 NOR  HZ I         057 54.43         8.4 0.16            112            234 234 
 SML  HZ EP        057 21.10                             118   -0.43 8  241 336 
 SML  HN ES        057 49.33                             118   -0.50 8  241 336 
 SML  HZ I         057 53.96        19.1 0.26            112            241 336 
 CHI  HZ EP        057 23.04                             117   -0.02 8  250 195 
 CHI  HN ES        057 51.51                             117   -1.04 8  250 195 
 CHI  HZ I         057 57.78         6.8 0.34            111            250 195 
 ROSC BZ EP        057 23.97                             116    0.57 8  253 210 
 ROSC BZ I         057 59.79        13.0 0.40            111            253 210 
 HEL  HZ EP        057 24.75                             115   -0.49 8  270 255 
 HEL  HZ I         058  3.65         7.2 0.26            109            270 255 
 GUY2CHZ EP        057 29.06                             112    0.31 7  301 234 
 GUY2CHN ES        058  3.84                             112    1.16 7  301 234 
 GUY2CHZ I         058 12.39         4.6 0.44                           301 234 
 TOL  SZ EP        057 34.35                             109    0.89 7  343 224 
 PRA  HZ EP        057 38.42                             106   -0.41 6  393 209 
 PRA  HE ES        058 21.02                             106    0.41 6  393 209 
 PRA  HZ I         058 26.74         6.7 0.42            102            393 209 
 ORTC HZ EP        057 39.67                             106    0.48 6  396 216 
 ORTC HN ES        058 22.13                             106    0.88 6  396 216 
 ORTC HZ I         058 29.35         3.2 0.26            102            396 216 
                                                                                
