 2012 1011 0111 17.9 L   6.775 -73.141145.3  RSN  8 0.3 2.0LRSN                1
 GAP=138        0.52       3.2     3.8  4.3  0.2121E+01  0.3353E+01  0.4223E+01E
 Epicentro: LOS SANTOS - SANTANDER                                             3
 ACTION:UP  12-11-22 17:03 OP:ep   STATUS:               ID:20121011011117 L   I
 2012-10-11-0110-00M.COL___229                                                 6
 STAT SP IPHASW D HRMM SECON CODA AMPLIT PERI AZIMU VELO AIN AR TRES W  DIS CAZ7
 BAR2 SZ EP   1    111 37.33                             171   -0.07 7 20.7 193 
 BAR2 SZ I         111 37.88        19.3 0.18                          20.7 193 
 BAR2 SZ ES   1    111 52.09                             171   -0.54 7 20.7 193 
 GIR2 SZ EP   1    111 37.41                             166   -0.16 7 34.1 350 
 GIR2 SZ ES   1    111 52.99                             166    0.05 7 34.1 350 
 BRR  HZ EP   1    111 39.22                             152    0.14 7 73.0 300 
 BRR  HZ I         111 41.02        18.5 0.10                          73.0 300 
 BRR  HE ES   1    111 56.00                             152    0.39 7 73.0 300 
 PAM  SZ EP   1    111 40.31                             150    0.16 7 79.3  38 
 PAM  SZ I         111 40.53        21.5 0.22                          79.3  38 
 PAM  SN ES   1    111 57.47                             150   -0.06 7 79.3  38 
 PAM  SN I         111 58.51        24.3 0.50                          79.3  38 
 RUS  HZ EP   1    111 41.27                             144   -0.11 7 97.7 176 
 RUS  HZ I         111 42.11         6.0 0.11                          97.7 176 
 RUS  HN ES   1    112  0.01                             144    0.30 7 97.7 176 
 RUS  HN I         112  1.93        28.9 0.32                          97.7 176 
 GRA  SZ EP   9    111 45.14                             136    1.85 0  128  17 
 GRA  SZ ES   9    112  4.61                                   -0.35 0  128  17 
 ZAR  HE ES   1    112 15.62                             122   -0.23 6  206 293 
 CHI  HZ EP   1    111 55.54                             117    0.27 6  246 195 
 CHI  HZ I         111 56.12         5.5 0.20                           246 195 
 PRA  HZ EP   1    112 10.78                             106   -0.34 4  390 210 
 PRA  HZ I         112 12.89         3.2 0.19                           390 210 
                                                                                
