 2010  711 0425 41.1 L   7.360 -73.184130.0  RSN  6 0.2 1.5LRSN                1
 GAP=133        0.52       4.4     6.9  5.9 -0.1414E+02  0.1537E+02  0.2696E+01E
 Epicentro: RIONEGRO - SANTANDER                                               3
 ACTION:UPD 10-12-01 15:16 OP:pat  STATUS:               ID:20100711042541 L   I
 2010-07-11-0422-32S.COL___120                                                 6
 STAT SP IPHASW D HRMM SECON CODA AMPLIT PERI AZIMU VELO AIN AR TRES W  DIS CAZ7
 BRI  SZ EP        426  0.39                             154     0.310   58  47 
 BRI  SZ ES   1    426 15.16                             154     0.2 7   58  47 
 BRI  SZ I         426 19.36         4.2 0.29                            58  47 
 GUE  SZ EP        426  0.21                             154    -0.210   59  29 
 GUE  SZ ES   1    426 15.36                             154     0.0 7   59  29 
 GUE  SZ I         426 16.38         6.8 0.30                            59  29 
 BRR  HZ EP        426  0.26                             152     0.110   65 244 
 BRR  HZ I         426  0.45        10.9 0.15                            65 244 
 GRA  SZ EP        426  0.83                             149     0.010   72  36 
 GRA  SZ ES   1    426 15.94                             149    -0.3 7   72  36 
 GRA  SZ I         426 17.59        11.4 0.29                            72  36 
 BAR2 SZ EP   2    426  1.75                             145    -0.1 5   85 180 
 BAR2 SZ ES   2    426 17.86                             145    -0.2 5   85 180 
 BAR2 SZ I         426 19.91         4.5 0.15                            85 180 
 OCA  SZ EP   2    426  2.49                             141    -0.2 5   98 351 
 OCA  SZ ES   2    426 19.75                             141     0.2 5   98 351 
 OCA  SZ I         426 21.36         3.5 0.23                            98 351 
                                                                                
