 2010  611 0602  2.6 L   6.866 -73.099136.0  RSN 12 0.6 1.7LRSN                1
 GAP=160        1.32       5.6    11.1 11.2 -0.3543E+02  0.5503E+02 -0.5700E+01E
 Epicentro: LOS SANTOS - SANTANDER                                             3
 ACTION:UP  10-08-24 10:09 OP:vdl  STATUS:               ID:20100611060202 L   I
 2010-06-11-0600-29S.COL___117                                                 6
 STAT SP IPHASW D HRMM SECON CODA AMPLIT PERI AZIMU VELO SNR AR TRES W  DIS CAZ7
 GIR2 SZ EP   2    6 2 21.13                             169     0.1 5   26 336 
 BAR2 SZ IP        6 2 21.35                             166     0.110   32 197 
 BAR2 SZ ES   1    6 2 36.41                             166     0.6 7   32 197 
 BRI  SZ EP   1    6 2 25.89                             142     1.0 7  100  20 
 BRI  SZ ES   1    6 2 43.29                             142     1.0 7  100  20 
 RUS  HZ EP   1    6 2 25.75                             140    -0.2 7  108 179 
 RUS  HE ES   1    6 2 43.79                             140    -0.4 7  108 179 
 RUS  HZ I         6 2 46.27         3.2 0.31                           108 179 
 GUE  SZ EP   1    6 2 25.89                             140     0.1 7  108  10 
 GRA  SZ EP        6 2 25.46                             137    -0.810  117  16 
 GRA  SZ ES   1    6 2 43.74                             137    -1.0 7  117  16 
 OCA  SZ EP   2    6 2 29.42                             129    -0.1 5  154 351 
 OCA  SZ I         6 2 55.98         5.3 0.27                           154 351 
 CHI  HZ EP   1    6 2 41.07                             114     0.3 6  257 196 
 CHI  HZ I         6 2 42.37         2.8 0.15                           257 196 
 CHI  HN ES        6 3  9.99                             114    -0.5 8  257 196 
 ROSC BZ EP   1    6 2 42.18                             114     1.0 6  262 211 
 ROSC BZ I         6 3 18.33         3.9 0.11                           262 211 
 HEL  HZ EP   1    6 2 42.43                             112    -0.7 6  279 255 
 HEL  HE ES   1    6 3 14.69                             112     0.0 6  279 255 
 HEL  HZ I         6 3 20.18         5.3 0.36                           279 255 
 RREF BZ EP   1    6 2 50.25                             109     0.9 5  330 229 
 RREF BN ES   1    6 3 25.54                             109    -0.3 5  330 229 
 RREF BZ I         6 3 32.39         4.1 0.44                           330 229 
 TOL  SZ EP   2    6 2 51.73                             107     0.2 3  352 224 
                                                                                
