 2010  711 0501  4.2 L   6.821 -74.051 85.8  RSN  8 0.3 1.9LRSN                1
 GAP=140        0.78       3.5     6.5  6.6  0.2206E+01  0.1257E+02  0.1802E+01E
 Epicentro: PUERTO PARRA - SANTANDER                                           3
 ACTION:UPD 10-12-01 15:16 OP:pat  STATUS:               ID:20100711050104 L   I
 2010-07-11-0459-29S.COL___120                                                 6
 STAT SP IPHASW D HRMM SECON CODA AMPLIT PERI AZIMU VELO AIN AR TRES W  DIS CAZ7
 BRR  HZ EP        5 1 17.57                             148    -0.110   49  50 
 BRR  HE ES        5 1 28.16                             148     0.010   49  50 
 BRR  HZ I         5 1 28.87        66.0 0.11                            49  50 
 BAR2 SZ EP        5 1 22.10                             127    -0.210   99 105 
 BAR2 SZ ES   1    5 1 36.37                             127     0.1 7   99 105 
 BAR2 SZ I         5 1 37.39        12.2 0.28                            99 105 
 RUS  HZ EP   1    5 1 27.47                             115    -0.3 7  148 134 
 RUS  HE ES   1    5 1 46.24                             115     0.1 7  148 134 
 GUE  SZ EP        5 1 30.26                             112     0.6 9  167  48 
 GUE  SZ ES   1    5 1 49.74                             112     0.2 7  167  48 
 GUE  SZ I         5 1 51.03        16.7 0.23                           167  48 
 OCA  SZ EP        5 1 30.08                             111    -0.5 9  176  27 
 OCA  SZ ES   2    5 1 51.00                             111    -0.1 4  176  27 
 OCA  SZ I         5 1 54.57        13.3 0.27                           176  27 
 HEL  HZ EP   3    5 1 31.65                             111     0.7 2  178 247 
 HEL  HZ I         5 1 55.31         5.0 0.25                           178 247 
 GRA  SZ ES   2    5 1 51.93                             110    -0.1 4  181  49 
 GRA  SZ I         5 1 54.07        16.3 0.32                           181  49 
 RREF HZ EP   2    5 1 41.35                             104     0.8 4  256 214 
 RREF HZ I         5 2 16.56         5.3 0.24                           256 214 
                                                                                
