 2011  311 0430 37.6 L   6.814 -73.176143.3  RSN 11 0.3 2.0LRSN                1
 GAP=133        0.56       2.5     3.7  4.8 -0.1060E+01  0.7690E+01 -0.8353E+00E
 Epicentro: LOS SANTOS - SANTANDER                                             3
 ACTION:UP  11-06-16 14:33 OP:jfem STATUS:               ID:20110311043037 L   I
 2011-03-11-0428-38S.COL___135                                                 6
 STAT SP IPHASW D HRMM SECON CODA AMPLIT PERI AZIMU VELO SNR AR TRES W  DIS CAZ7
 BAR2 SZ EP   1    430 56.93                             170     0.010   25 182 
 BAR2 SZ ES   1    431 11.99                             170    -0.110   25 182 
 BAR2 SZ I         431 13.45        58.6 0.18                            25 182 
 RUS  HZ EP   1    431  0.87                             143    -0.410  102 174 
 RUS  HN ES   1    431 19.75                             143     0.110  102 174 
 RUS  HZ I         431 20.74        22.3 0.26                           102 174 
 GRA  SZ EP   1    431  2.81                             137     0.210  125  19 
 GRA  SZ ES   2    431 22.09                             137     0.0 6  125  19 
 GRA  SZ I         431 28.50         8.2 0.26                           125  19 
 OCA  SZ EP   1    431  5.39                             129    -0.2 9  158 354 
 OCA  SZ I         431 33.98        12.6 0.17                           158 354 
 YOP  SZ EP   1    431  7.50                             125    -0.3 9  182 153 
 YOP  SN ES   1    431 31.83                             125     0.5 9  182 153 
 NOR  SZ EP   1    431 13.21                             118     0.2 8  233 234 
 NOR  SE ES   1    431 40.79                             118     0.2 8  233 234 
 CHI  HZ EP   1    431 14.82                             117    -0.4 8  249 194 
 CHI  HN ES   2    431 44.59                             117     0.0 5  249 194 
 CHI  HZ I         431 48.42         6.7 0.48                           249 194 
 HEL  HZ EP        431 17.58                             115     0.210  269 255 
 VIL  SN ES   2    431 53.97                             111    -0.9 5  304 191 
 DBB  SZ EP   2    431 25.11                             109     0.5 4  336 274 
 DBB  SZ ES   2    432  0.69                             109    -0.5 4  336 274 
 DBB  SZ I         432  2.81         2.1 0.29                           336 274 
 PRA  HZ EP   1    431 31.33                             106     0.3 6  392 209 
 PRA  HE ES   1    432 12.67                             106     0.0 6  392 209 
                                                                                
