 2012  111 0724 35.0 L   6.758 -73.148147.1  RSN  8 0.4 1.5LRSN                1
 GAP=138        0.75       5.0     5.6  6.5  0.2331E+01  0.4938E+01  0.7966E+01E
 Epicentro: LOS SANTOS - SANTANDER                                             3
 ACTION:UP  12-02-03 08:16 OP:REBC STATUS:               ID:20120111072435 L   I
 2012-01-11-0720-00M.COL___186                                                 6
 STAT SP IPHASW D HRMM SECON CODA AMPLIT PERI AZIMU VELO SNR AR TRES W  DIS CAZ7
 BAR2 SZ EP   1    724 54.57                             172    -0.2 7   19 192 
 BAR2 SZ ES   1    725  9.54                             172    -0.6 7   19 192 
 BAR2 SZ I         725 11.16        10.1 0.18                            19 192 
 GIR2 SZ EP   1    724 54.90                             166    -0.1 7   36 352 
 GIR2 SZ ES   2    725 10.73                             166     0.2 5   36 352 
 BRR  HZ EP   1    724 56.43                             152     0.0 7   73 302 
 BRR  HE ES   1    725 13.92                             152     0.8 7   73 302 
 BRR  HZ I         725 16.65         5.9 0.18                            73 302 
 PAM  SZ EP   1    724 57.96                             150     0.3 7   81  38 
 PAM  SN ES   2    725 14.93                             150    -0.3 5   81  38 
 RUS  HZ EP   1    724 58.61                             145     0.0 7   96 176 
 RUS  HE ES   2    725 17.18                             145     0.2 5   96 176 
 RUS  HZ I         725 20.14         4.1 0.26                            96 176 
 PTB  HZ EP   1    725  1.52                             132    -0.5 7  147 261 
 PTB  HN ES   2    725 22.89                             132    -0.2 5  147 261 
 ZAR  HZ EP   2    725  7.60                             122    -0.1 4  206 293 
 ZAR  HE ES   2    725 32.91                             122    -0.3 4  206 293 
 ZAR  HZ I         725 38.14         3.0 0.30                           206 293 
 CHI  HZ EP   1    725 12.76                             118     0.4 6  244 195 
 CHI  HN ES   2    725 41.76                             118     0.4 4  244 195 
 CHI  HZ I         725 49.51         1.4 0.37                           244 195 
                                                                                
