 2011 1111 0848 17.1 L   6.803 -73.132143.1  RSN 12 0.5 2.7LRSN                1
 GAP=138        0.87       3.1     4.8  6.1 -0.9821E+00  0.1122E+02  0.4676E+01E
 Epicentro: LOS SANTOS - SANTANDER                                             3
 ACTION:UPD 12-07-13 16:09 OP:ep   STATUS:               ID:20111111084817 L   I
 2011-11-11-0846-42S.COL___178                                                 6
 STAT SP IPHASW D HRMM SECON CODA AMPLIT PERI AZIMU VELO AIN AR TRES W  DIS CAZ7
 BAR2 SZ EP   1    848 36.29                             170   -0.12 7 24.0 193 
 BAR2 SZ ES   1    848 50.80                             170   -0.68 7 24.0 193 
 BAR2 SZ I         848 53.37       107.6 0.35                          24.0 193 
 BRR  HZ IP     C  848 38.45                             152    0.4410 72.4 298 
 BRR  HZ I         848 38.78       198.2 0.22                          72.4 298 
 BRR  HE ES   1    848 54.94                             152    0.60 7 72.4 298 
 PAM  SZ EP   1    848 39.33                             151    0.39 7 76.1  39 
 PAM  SZ I         848 39.61        41.4 0.21                          76.1  39 
 PAM  SN ES   1    848 56.20                             151    0.21 7 76.1  39 
 RUS  HZ EP   1    848 40.42                             143   -0.17 7  101 177 
 RUS  HN ES   1    848 58.88                             143   -0.05 7  101 177 
 RUS  HZ I         849  0.47        42.2 0.31                           101 177 
 OCA  SZ EP   1    848 45.11                             129   -0.07 7  160 353 
 OCA  SZ ES        849  6.99                             129   -0.09 9  160 353 
 OCA  SZ I         849 13.05       105.0 0.25                           160 353 
 ZAR  HZ EP   1    848 48.64                             121   -0.85 6  205 292 
 ZAR  HN ES   1    849 13.74                             121   -1.03 6  205 292 
 ZAR  HZ I         849 20.40        39.5 0.20                           205 292 
 CHI  HZ EP   1    848 54.31                             116   -0.41 6  249 195 
 CHI  HZ I         848 57.27        18.4 0.29                           249 195 
 CHI  HN ES   1    849 23.88                             116   -0.19 6  249 195 
 ROSC BZ EP   1    848 55.25                             116    0.07 6  254 211 
 ROSC BZ I         849 34.35        46.3 0.38                           254 211 
 HEL  HZ EP   1    848 58.08                             114    0.74 6  274 256 
 HEL  HN ES   1    849 28.73                             114    0.00 6  274 256 
 HEL  HZ I         849 35.29        34.4 0.35                           274 256 
 GUY  SZ EP   1    849  1.44                             111    0.44 5  305 235 
 GUY  SN ES   1    849 36.22                             111    0.97 5  305 235 
 GUY  SZ I         849 40.90        44.1 0.50                           305 235 
 TOL  SZ EP   1    849  5.21                             109   -0.18 5  345 225 
 PRA  HZ EP   1    849 10.04                             106   -0.60 4  393 210 
 PRA  HN ES   1    849 52.62                             106    0.21 4  393 210 
                                                                                
