 2011  211 0134 15.8 L   6.799 -73.156148.8  RSN  8 0.4 1.8LRSN                1
 GAP=158        0.66       3.2     7.2  6.4 -0.9383E+01  0.1317E+02 -0.2119E+01E
 Epicentro: LOS SANTOS - SANTANDER                                             3
 ACTION:UP  11-03-28 15:07 OP:jfem STATUS:               ID:20110211013416 L   I
 2011-02-11-0132-23S.COL___136                                                 6
 STAT SP IPHASW D HRMM SECON CODA AMPLIT PERI AZIMU VELO SNR AR TRES W  DIS CAZ7
 BTL  SZ EP   1    134 35.94                             173     0.2 8   18 317 
 BAR2 SZ EP   2    134 35.78                             171    -0.1 5   23 188 
 BAR2 SZ ES   1    134 51.66                             171     0.2 8   23 188 
 BAR2 SZ I         134 53.64         7.5 0.24                            23 188 
 RUS  HZ EP   1    134 39.56                             145    -0.3 8  101 175 
 RUS  HN ES   2    134 58.56                             145    -0.1 5  101 175 
 RUS  HZ I         134 59.25         4.2 0.28                           101 175 
 GRA  SZ IP        134 41.41                             138     0.010  126  18 
 GRA  SZ ES   2    135  0.96                             138    -0.4 5  126  18 
 GRA  SZ I         135  3.99         9.3 0.35                           126  18 
 OCA  SZ EP        134 44.30                             130    -0.1 9  160 354 
 OCA  SZ ES   1    135  6.79                             130     0.1 7  160 354 
 OCA  SZ I         135 11.13        15.5 0.33                           160 354 
 CHI  HZ EP   1    134 53.70                             118     0.0 6  248 195 
 CHI  HE ES   2    135 22.77                             118    -0.4 4  248 195 
 CHI  HZ I         135 31.32         2.9 0.47                           248 195 
 HEL  HN ES   2    135 26.52                             115    -1.0 4  271 256 
 HEL  HZ I         135 35.29         5.8 0.31                           271 256 
 RREF HZ EP   1    135  2.77                             111     0.7 5  321 229 
 RREF HN ES   2    135 38.69                             111     0.7 4  321 229 
 RREF HZ I         135 46.39         3.8 0.23                           321 229 
                                                                                
