 2012  111 0629 59.1 L   6.778 -73.158155.6  RSN  5 0.3 1.2LRSN                1
 GAP=234        0.55       7.3     7.2  9.1  0.3242E+02 -0.5688E+01 -0.2157E+02E
 Epicentro: LOS SANTOS - SANTANDER                                             3
 ACTION:UP  12-02-03 08:16 OP:REBC STATUS:               ID:20120111062959 L   I
 2012-01-11-0630-00M.COL___186                                                 6
 STAT SP IPHASW D HRMM SECON CODA AMPLIT PERI AZIMU VELO SNR AR TRES W  DIS CAZ7
 BAR2 SZ EP   1    630 19.47                             172    -0.4 7   21 187 
 BRR  HZ EP   1    630 21.57                             154     0.2 7   71 301 
 BRR  HN ES   2    630 38.75                             154     0.1 5   71 301 
 BRR  HZ I         630 38.81         3.7 0.48                            71 301 
 RUS  HZ EP   2    630 24.18                             146     0.5 5   98 175 
 RUS  HZ I         630 41.86         1.4 0.62                            98 175 
 RUS  HE ES   1    630 42.91                             146     0.1 7   98 175 
 PTB  HZ EP   1    630 26.66                             134    -0.1 7  146 260 
 PTB  HN ES   2    630 48.12                             134    -0.2 5  146 260 
 ZAR  HN ES   2    630 58.12                             124     0.1 4  204 293 
 ZAR  HZ I         631  3.67         1.5 0.41                           204 293 
                                                                                
