 2015  211 0743  6.8 L   6.875 -73.115139.9  RSN  6 0.4 1.4LRSN                1
 GAP=204        1.02       4.2     6.0 10.9  0.5151E+01  0.8121E+00 -0.1975E+02E
 Epicentro: LOS SANTOS - SANTANDER                                             3
 ACTION:UPD 15-04-30 21:25 OP:nd   STATUS:               ID:20150211074306 L   I
 OLDACT:DUP 15-02-11 18:35 OP:fm   STATUS:               ID:20150211073737d    3
 2015-02-11-0737-35M.COL___284                                                 6
 STAT SP IPHASW D HRMM SECON CODA AMPLIT PERI AZIMU VELO AIN AR TRES W  DIS CAZ7
 RUS  HZ EP        743 31.35                             140    0.8010  109 178 
 RUS  HE ES        743 48.55                             140   -0.5610  109 178 
 RUS  HZ I         743 51.46         1.6 0.28            149            109 178 
 PTB  HZ EP        743 33.52                             129   -0.20 9  153 256 
 PTB  HN ES        743 54.93                             129    0.17 9  153 256 
 PTB  HZ I         744  1.47         2.0 0.34            135            153 256 
 SPBC HN ES        743 58.46                             126    0.27 9  172 218 
 SPBC HZ I         744  1.41         2.5 0.28            133            172 218 
 ZAR  HZ EP        743 38.58                             121   -0.26 9  204 290 
 ZAR  HE ES        744  4.36                             121    0.49 9  204 290 
 ZAR  HZ I         744 11.20         4.3 0.30            126            204 290 
 SML  HZ EP        743 42.45                             117    0.06 8  238 334 
 SML  HN ES        744  9.77                             117   -0.42 8  238 334 
 SML  HZ I         744 18.08         2.9 0.22            121            238 334 
 GUY2CHZ EP        743 50.84                             110   -0.12 7  309 234 
 GUY2CHE ES        744 24.85                             110   -0.60 7  309 234 
 GUY2CHZ I         744 36.84         1.0 0.66                           309 234 
                                                                                
