 2014  211 0617 13.5 L   6.819 -73.148147.7  RSN 10 0.4 1.8LRSN                1
 GAP=183        0.86       2.4     4.4  5.5 -0.3765E+00  0.7267E+01 -0.3356E+00E
 Epicentro: LOS SANTOS - SANTANDER                                             3
 ACTION:UPD 14-03-10 08:09 OP:ep   STATUS:               ID:20140211061713 L   I
 OLDACT:DUP 14-02-11 09:28 OP:carl STATUS:               ID:20140211061001d    3
 2014-02-11-0610-00M.COL___167                                                 6
 STAT SP IPHASW D HRMM SECON CODA AMPLIT PERI AZIMU VELO AIN AR TRES W  DIS CAZ7
 BAR2 SZ EP        617 33.52                             170    0.1110 25.4 189 
 BAR2 SZ ES        617 49.36                             170    0.4210 25.4 189 
 BAR2 SZ I         617 51.94        12.7 0.38            169           25.4 189 
 RUS  HN ES        617 56.24                             144   -0.1510  103 176 
 PTB  HZ EP        617 40.52                             132   -0.13 9  148 258 
 PTB  HN ES        618  1.18                             132   -0.64 9  148 258 
 PTB  HZ I         618  3.52         9.7 0.14            133            148 258 
 OCA  HN ES        618  3.78                             130   -0.03 9  158 353 
 SPBC HZ EP        617 42.52                             129    0.22 9  165 218 
 SPBC HN ES        618  4.45                             129   -0.30 9  165 218 
 SPBC HZ I         618  9.80         7.2 0.50            130            165 218 
 ZAR  HN ES        618 11.64                             123    0.34 9  203 292 
 ZAR  HZ I         618 17.60         9.2 0.30            124            203 292 
 NOR  HZ EP        617 48.78                             119   -0.68 8  236 234 
 NOR  HN ES        618 18.07                             119    0.56 8  236 234 
 NOR  HZ I         618 20.83         3.5 0.20            120            236 234 
 SML  HZ EP        617 49.98                             118   -0.04 8  242 335 
 SML  HN ES        618 18.32                             118   -0.19 8  242 335 
 SML  HZ I         618 21.47         9.6 0.28            120            242 335 
 CHI  HZ EP        617 51.62                             117    0.09 8  251 195 
 CHI  HN ES        618 20.87                             117   -0.31 8  251 195 
 CHI  HZ I         618 26.74         2.4 0.26            119            251 195 
 GUY2CHZ EP        617 57.94                             113    0.62 7  302 234 
 GUY2CHE ES        618 31.87                             113    0.37 7  302 234 
 GUY2CHZ I         618 39.03         2.9 0.56                           302 234 
                                                                                
