 2017  411 0707 50.3 L   6.802 -73.155147.4  RSN  4 0.3 1.0LRSN                1
 GAP=135        0.80       4.4     4.2  7.0 -0.2163E+01  0.2477E+01  0.4418E+01E
 Epicentro: LOS SANTOS - SANTANDER                                             3
 ACTION:UPD 17-05-30 21:10 OP:jn   STATUS:               ID:20170411070750 L   I
 OLDACT:DUP 17-04-11 17:34 OP:ewd  STATUS:               ID:20170411065723d    3
 OLDACT:UP  17-04-11 17:33 OP:ewd  STATUS:               ID:20170411065722     3
 OLDACT:REG 17-04-11 12:10 OP:edw  STATUS:               ID:20170411065722     3
 2017-04-11-0658-00M.COL___371                                                 6
 STAT SP IPHASW D HRMM SECON CODA AMPLIT PERI AZIMU VELO AIN AR TRES W  DIS CAZ7
 BRR  HZ EP     C  7 8 11.67                             153    0.1310 70.2 299 
 BRR  HN ES        7 8 28.64                             153    0.5110 70.2 299 
 PAM  EZ IP     D  7 8 12.82                             151    0.1310 77.9  40 
 PAM  EN ES        7 8 29.75                             151   -0.4210 77.9  40 
 PAM  EZ I         7 8 32.27         1.5 0.54            152           77.9  40 
 RUS  HZ EP        7 8 14.31                             144    0.1110  101 175 
 RUS  HN ES        7 8 32.91                             144    0.0510  101 175 
 PTB  HZ EP        7 8 17.13                             133   -0.15 9  147 259 
 PTB  HE ES        7 8 37.90                             133   -0.45 9  147 259 
 PTB  HZ I         7 8 40.16         1.2 0.40            134            147 259 
                                                                                
