 2014  811 0819  2.8 L   6.758 -73.140146.4  RSN  6 0.4 1.5LRSN                1
 GAP=253        1.12       7.1     7.5  8.3  0.8528E+01  0.1470E+02  0.9963E+01E
 Epicentro: LOS SANTOS - SANTANDER                                             3
 ACTION:UPD 14-09-15 21:48 OP:nd   STATUS:               ID:20140811081902 L   I
 OLDACT:UP  14-08-11 17:56 OP:cam  STATUS:               ID:20140811081735     3
 OLDACT:REG 14-08-11 17:45 OP:cam  STATUS:               ID:20140811081735     3
 2014-08-11-0817-35M.COL___266                                                 6
 STAT SP IPHASW D HRMM SECON CODA AMPLIT PERI AZIMU VELO AIN AR TRES W  DIS CAZ7
 BAR2 SZ EP     D  819 22.32                             172   -0.0810 18.9 194 
 BAR2 SZ ES        819 37.20                             172   -0.5010 18.9 194 
 BAR2 SZ I         819 37.95         5.5 0.28            166           18.9 194 
 BRR  HZ EP     C  819 24.40                             152    0.2510 74.1 301 
 BRR  HN ES        819 41.43                             152    0.6010 74.1 301 
 BRR  HZ I         819 42.12         5.8 0.16            151           74.1 301 
 PTB  HZ EP        819 29.51                             132   -0.26 9  148 261 
 PTB  HN ES        819 50.04                             132   -0.78 9  148 261 
 PTB  HZ I         819 54.00         4.3 0.18            131            148 261 
 SPBC HZ EP        819 31.19                             130    0.18 9  160 220 
 SPBC HN ES        819 53.73                             130    0.69 9  160 220 
 SPBC HZ I         819 59.49         3.8 0.30            128            160 220 
 ZAR  HN ES        820  1.15                             122    0.12 8  206 293 
 HEL  HZ EP        819 42.65                             115   -0.31 8  272 257 
 GUY2CHZ EP   4    819 48.51                             113    2.35 0  299 236 
 CBOC HZ EP   4    819 48.44                             110   -1.17 0  333 253 
                                                                                
