 2015  811 0743 54.4 L   6.776 -73.037155.3  RSN 13 0.5 2.1LRSN                1
 GAP=171        1.01       2.8     4.5  7.1 -0.1883E+00 -0.2254E+01  0.4133E+01E
 Epicentro: CEPITA - SANTANDER                                                 3
 ACTION:UPD 15-09-15 23:01 OP:cam  STATUS:               ID:20150811074354 L   I
 OLDACT:UP  15-08-11 18:45 OP:mh   STATUS:               ID:20150811073749     3
 OLDACT:UP  15-08-11 18:44 OP:mh   STATUS:               ID:20150811073749     3
 OLDACT:REG 15-08-11 12:49 OP:mh   STATUS:               ID:20150811073749     3
 2015-08-11-0737-49M.COL___340                                                 6
 STAT SP IPHASW D HRMM SECON CODA AMPLIT PERI AZIMU VELO AIN AR TRES W  DIS CAZ7
 BAR2 EZ EP     C  744 15.49                             170    0.2210 25.9 218 
 BAR2 EZ I         744 33.36        13.7 0.40            171           25.9 218 
 BRR  HZ EP        744 17.32                             150    0.0110 83.1 296 
 BRR  HN ES        744 34.66                             150   -0.4810 83.1 296 
 BRR  HZ I         744 38.79        11.2 0.14            151           83.1 296 
 RUS  HZ EP        744 19.65                             146    0.6910 97.8 183 
 RUS  HN ES   1    744 38.23                             146    0.16 7 97.8 183 
 RUS  HZ I         744 40.06         8.8 0.52            147           97.8 183 
 OCA  HZ EP        744 23.45                             131   -0.48 9  165 349 
 OCA  HN ES        744 47.51                             131    0.59 9  165 349 
 OCA  HZ I         744 49.98        29.0 0.28            131            165 349 
 SPBC HZ EP        744 24.23                             130   -0.00 9  169 223 
 SPBC HN ES        744 47.59                             130    0.13 9  169 223 
 SPBC HZ I         744 48.78        19.5 0.10            131            169 223 
 ZAR  HN ES        744 56.07                             123    0.54 8  216 292 
 NOR  HZ EP   1    744 31.73                             120    0.10 6  243 237 
 NOR  HN ES        745  0.09                             120   -0.54 8  243 237 
 NOR  HZ I         745  2.87         9.9 0.16            120            243 237 
 SML  HZ EP        744 32.00                             119   -0.44 8  251 333 
 SML  HN ES        745  1.55                             119   -0.52 8  251 333 
 SML  HZ I         745  5.52        19.3 0.10            119            251 333 
 PTGC HZ EP        744 38.08                             114    0.08 7  302 161 
 PTGC HN ES        745 11.10                             114   -0.87 7  302 161 
 PTGC HZ I         745 16.26         6.4 0.26            114            302 161 
 GUY2CHZ EP        744 39.89                             113    0.44 7  310 236 
 GUY2CHN ES        745 14.50                             113   -0.05 7  310 236 
 GUY2CHZ I         745 20.17         4.9 0.46                           310 236 
 TOL  SZ EP   4    744 45.71                             111    1.85 0  350 226 
 TOL  SN ES        745 21.61                             111   -0.80 6  350 226 
 TOL  SZ I         745 33.44         2.6 0.52            111            350 226 
 MON  HZ EP   4    744 41.77                             110   -3.34 0  365 308 
 MON  HN ES   4    745 20.57                             110   -4.05 0  365 308 
 MON  HZ I         745 35.74         2.3 0.64            110            365 308 
 ORTC HZ EP        744 49.71                             108    0.41 6  400 218 
 ORTC HN ES        745 32.69                             108    0.61 6  400 218 
 ORTC HZ I         745 40.77         2.3 0.46            108            400 218 
                                                                                
