 2015 1011 0359 56.3 L   6.799 -73.130140.0  RSN 16 0.5 2.2LRSN                1
 GAP=139        1.11       2.7     4.1  5.6 -0.2128E+01  0.8184E+01  0.2027E+01E
 Epicentro: LOS SANTOS - SANTANDER                                             3
 ACTION:UPD 15-12-22 20:38 OP:cam  STATUS:               ID:20151011035956 L   I
 OLDACT:REG 15-10-11 13:09 OP:ak   STATUS:               ID:20151011035748     3
 2015-10-11-0357-48M.COL___340                                                 6
 STAT SP IPHASW D HRMM SECON CODA AMPLIT PERI AZIMU VELO AIN AR TRES W  DIS CAZ7
 BAR2 EZ IP     C  4 0 15.31                             170    0.0810 23.5 194 
 BAR2 EZ ES        4 0 30.02                             170    0.0110 23.5 194 
 BAR2 EZ I         4 0 31.37        31.2 0.16            168           23.5 194 
 BRR  HZ EP        4 0 17.15                             151    0.2410 72.8 298 
 BRR  HN ES        4 0 33.60                             151    0.6010 72.8 298 
 BRR  HZ I         4 0 37.96        38.7 0.22            149           72.8 298 
 PAM  EZ IP     C  4 0 18.35                             150    0.5110 76.4  38 
 PAM  EN ES        4 0 34.96                             150    0.3210 76.4  38 
 PAM  EZ I         4 0 37.27        36.3 0.42            155           76.4  38 
 RUS  HZ EP        4 0 19.28                             143   -0.1810  100 177 
 RUS  HN ES        4 0 37.08                             143   -0.4510  100 177 
 RUS  HZ I         4 0 38.59        17.7 0.26            145            100 177 
 OCA  HZ EP        4 0 23.58                             128   -0.62 9  161 353 
 OCA  HN ES        4 0 45.29                             128   -0.67 9  161 353 
 OCA  HZ I         4 0 51.84        36.8 0.18            130            161 353 
 SPBC HZ EP        4 0 24.24                             128   -0.21 9  164 219 
 SPBC HN ES        4 0 45.77                             128   -0.64 9  164 219 
 SPBC HZ I         4 0 53.42        22.3 0.40            128            164 219 
 ZAR  HN ES        4 0 53.97                             121    0.28 8  206 292 
 NOR  HZ EP        4 0 31.27                             117   -0.56 8  236 235 
 NOR  HN ES        4 1  0.02                             117    0.46 8  236 235 
 NOR  HZ I         4 1  7.71        10.6 0.16            118            236 235 
 SML  HZ EP   1    4 0 31.61                             116   -1.09 6  245 335 
 SML  HN ES        4 1  1.16                             116    0.07 8  245 335 
 SML  HZ I         4 1  7.52        22.6 0.24            118            245 335 
 CHI  HZ EP        4 0 33.66                             116   -0.05 8  249 196 
 CHI  HN ES        4 1  2.57                             116   -0.32 8  249 196 
 CHI  HZ I         4 1  9.45         6.0 0.36            118            249 196 
 ROSC BZ EP        4 0 34.97                             115    0.79 8  253 211 
 ROSC BN ES        4 1  4.03                             115    0.29 8  253 211 
 ROSC BZ I         4 1 11.51        21.8 0.45            117            253 211 
 HEL  HZ EP   1    4 0 36.96                             113    0.56 6  274 256 
 HEL  HE ES        4 1  6.71                             113   -0.97 8  274 256 
 HEL  HZ I         4 1 14.09         8.9 0.44            114            274 256 
 GUY2CHZ EP        4 0 40.40                             111    0.61 7  302 235 
 GUY2CHE ES        4 1 14.23                             111    0.52 7  302 235 
 GUY2CHZ I         4 1 20.57         7.6 0.30                           302 235 
 CBOC HZ EP        4 0 43.67                             109    0.51 7  335 252 
 CBOC HE ES        4 1 19.32                             109   -0.39 7  335 252 
 CBOC HZ I         4 1 25.54         3.0 0.36            110            335 252 
 ORTC HZ EP        4 0 50.82                             105    0.70 6  396 216 
 ORTC HN ES        4 1 31.90                             105   -0.21 6  396 216 
 ORTC HZ I         4 1 37.18         7.0 0.44            107            396 216 
 SJC  HZ EP   4    4 0 50.10                             105   -1.70 0  410 327 
 SJC  HE ES   4    4 1 29.40                             105   -5.69 0  410 327 
 SJC  HZ I         4 1 35.32         4.4 0.42            106            410 327 
                                                                                
