 2016  911 0751 20.8 L   6.824 -73.136144.0  RSN 11 0.5 1.8LRSN                1
 GAP=184        1.24       3.7     5.8  6.8  0.1070E+01  0.5245E+01  0.1840E+01E
 Epicentro: LOS SANTOS - SANTANDER                                             3
 ACTION:UPD 17-08-17 21:08 OP:lp   STATUS:               ID:20160911075120 L   I
 OLDACT:REG 16-09-11 12:52 OP:dani STATUS:               ID:20160911074731     3
 2016-09-11-0748-00M.COL___339                                                 6
 STAT SP IPHASW D HRMM SECON CODA AMPLIT PERI AZIMU VELO AIN AR TRES W  DIS CAZ7
 BAR2 EZ EP        751 40.12                             169   -0.2010 26.1 191 
 BAR2 EZ ES        751 55.72                             169    0.2110 26.1 191 
 BAR2 EZ I         751 56.60        17.9 0.54            159           26.1 191 
 BRR  HZ EP        751 41.89                             152    0.1110 70.9 296 
 BRR  HN ES        751 59.06                             152    0.9510 70.9 296 
 BRR  HZ I         752  3.75         7.3 0.23            138           70.9 296 
 RUS  HZ EP        751 44.23                             143   -0.3710  103 177 
 RUS  HE ES        752  3.03                             143   -0.1110  103 177 
 RUS  HZ I         752  4.60         7.3 0.30            129            103 177 
 PTB  HZ EP        751 47.04                             131   -0.77 9  149 258 
 PTB  HE ES        752  8.72                             131   -0.12 9  149 258 
 PTB  HZ I         752 10.10         6.4 0.14            117            149 258 
 OCA  HZ EP        751 49.29                             130    0.52 9  158 353 
 OCA  HE ES        752  9.94                             130   -0.62 9  158 353 
 OCA  HZ I         752 15.47        21.0 0.18            118            158 353 
 SPBC HZ EP        751 49.17                             128   -0.29 9  166 219 
 SPBC HN ES        752 11.42                             128   -0.37 9  166 219 
 SPBC HZ I         752 15.95        11.5 0.15            115            166 219 
 ZAR  HZ EP        751 52.73                             122   -0.44 9  204 291 
 ZAR  HN ES        752 18.39                             122    0.00 9  204 291 
 ZAR  HZ I         752 23.54         7.7 0.17            110            204 291 
 NOR  HE ES        752 24.52                             118   -0.20 8  237 234 
 CHI  HZ EP        751 58.72                             117   -0.03 8  251 195 
 CHI  HE ES        752 28.56                             117    0.24 8  251 195 
 CHI  HZ I         752 34.04         2.9 0.18            106            251 195 
 ROSC BZ EP        752  0.56                             116    1.39 8  256 211 
 ROSC BZ I         752 37.47         4.5 0.27            106            256 211 
 HEL  HZ EP        752  1.64                             114    0.49 8  274 255 
 HEL  HZ I         752 40.74         3.3 0.45            105            274 255 
                                                                                
