 2017  111 0919 25.0 L   6.759 -73.118142.0  RSN 12 0.5 1.7LRSN                1
 GAP= 95        1.14       4.2     3.4  5.9  0.2283E+01  0.4436E+01  0.4916E+01E
 Epicentro: LOS SANTOS - SANTANDER                                             3
 ACTION:UPD 17-05-22 15:58 OP:jn   STATUS:               ID:20170111091925 L   I
 OLDACT:UP  17-01-11 18:16 OP:and  STATUS:               ID:20170111091744     3
 OLDACT:UP  17-01-11 18:15 OP:and  STATUS:               ID:20170111091744     3
 OLDACT:UP  17-01-11 18:15 OP:and  STATUS:               ID:20170111091744     3
 OLDACT:UP  17-01-11 18:14 OP:and  STATUS:               ID:20170111091744     3
 OLDACT:UP  17-01-11 18:12 OP:and  STATUS:               ID:20170111091744     3
 OLDACT:REG 17-01-11 13:00 OP:and  STATUS:               ID:20170111091744     3
 2017-01-11-0918-00M.COL___337                                                 6
 STAT SP IPHASW D HRMM SECON CODA AMPLIT PERI AZIMU VELO AIN AR TRES W  DIS CAZ7
 BAR2 EZ EP        919 44.15                             172    0.0810 19.8 201 
 BAR2 EZ ES        919 58.20                             172   -0.7810 19.8 201 
 BAR2 EZ I         920  0.28        18.8 0.18            169           19.8 201 
 BRR  HZ EP        919 46.12                             150    0.1210 76.1 300 
 BRR  HN ES        920  2.95                             150    0.5510 76.1 300 
 BRR  HZ I         920  8.38         8.2 0.14            151           76.1 300 
 PAM  EZ EP        919 47.09                             149    0.2010 79.1  36 
 PAM  EN ES        920  3.87                             149   -0.1110 79.1  36 
 PAM  EZ I         920  6.40        11.9 0.56            154           79.1  36 
 RUS  HZ EP        919 48.07                             144    0.0610 95.9 178 
 RUS  HN ES        920  6.00                             144    0.0210 95.9 178 
 RUS  HZ I         920  7.86         6.6 0.26            145           95.9 178 
 PTB  HZ EP        919 51.20                             131   -0.63 9  150 261 
 PTB  HE ES        920 12.77                             131   -0.01 9  150 261 
 PTB  HZ I         920 14.82        10.7 0.14            131            150 261 
 TAM  HZ IP     C  919 52.51                             130    0.54 9  151 104 
 TAM  HN ES        920 13.18                             130    0.15 9  151 104 
 ZAR  HZ EP        919 57.33                             121   -0.31 8  209 293 
 ZAR  HN ES        920 23.38                             121    0.25 8  209 293 
 ZAR  HZ I         920 29.24         5.1 0.28            122            209 293 
 CHI  HZ EP        920  2.69                             117    0.62 8  245 196 
 CHI  HN ES        920 30.94                             117   -0.07 8  245 196 
 CHI  HZ I         920 42.11         1.4 0.34            118            245 196 
 ROSC BZ EP   4    920  4.55                             116    1.92 0  251 212 
 URE  HZ EP        920  5.06                             112   -1.30 7  288 293 
 URE  HN ES   4    920 35.65                             112   -3.00 0  288 293 
 URE  HZ I         920 38.22         5.7 0.16            114            288 293 
 GUY2CHZ EP   4    920 10.24                             111    1.85 0  301 236 
 GUY2CHN ES   4    920 45.58                             111    3.31 0  301 236 
 GUY2CHZ I         920 50.88         2.2 0.36                           301 236 
 PTGC HZ EP        920  7.29                             111   -0.76 7  303 159 
 PTGC HN ES   3    920 40.56                             111   -1.09 2  303 159 
 CBOC HZ EP        920 12.51                             109    0.61 7  335 253 
 CBOC HN ES        920 49.35                             109    0.83 7  335 253 
 CBOC HZ I         920 52.81         1.1 0.24            110            335 253 
 SJC  HZ EP   4    920 19.23                             105   -1.82 0  415 327 
 SJC  HN ES   4    921  0.01                             105   -4.78 0  415 327 
                                                                                
