 2017  411 0643  5.1 L   6.858 -73.482115.8  RSN  4 0.4 1.2LRSN                1
 GAP=174        0.98       6.8     5.5  8.1  0.1727E+02  0.9076E+01  0.1528E+02E
 Epicentro: SAN VICENTE DE CHUCURI - SANTANDER                                 3
 ACTION:UPD 17-05-30 21:10 OP:jn   STATUS:               ID:20170411064305 L   I
 OLDACT:UP  17-04-11 17:28 OP:ewd  STATUS:               ID:20170411063740     3
 OLDACT:REG 17-04-11 12:07 OP:edw  STATUS:               ID:20170411063740     3
 2017-04-11-0638-00M.COL___371                                                 6
 STAT SP IPHASW D HRMM SECON CODA AMPLIT PERI AZIMU VELO AIN AR TRES W  DIS CAZ7
 BRR  HZ EP        643 21.56                             161    0.2710 37.5 317 
 BRR  HN ES        643 34.23                             161    0.3510 37.5 317 
 BAR2 EZ EP        643 21.78                             158   -0.1510 44.3 132 
 BAR2 EZ ES        643 34.40                             158   -0.6310 44.3 132 
 BAR2 EZ I         643 35.53         7.5 0.44            159           44.3 132 
 PTB  HZ EP        643 26.44                             132   -0.1010  113 252 
 PTB  HN ES        643 43.05                             132   -0.1910  113 252 
 PTB  HZ I         643 47.66         1.8 0.44            131            113 252 
 RUS  HZ EP        643 27.21                             132   -0.1710  116 158 
 RUS  HN ES        643 45.37                             132    0.6410  116 158 
                                                                                
