 2010  311 0020 10.5 L   6.822 -73.061144.0  RSN 13 0.3 3.5LRSN                1
 GAP=132        0.64       2.3     4.3  3.9 -0.1641E+01 -0.2116E+00  0.1445E+01E
 Epicentro: LOS SANTOS - SANTANDER                                             3
 ACTION:UP  10-08-24 09:53 OP:vdl  STATUS:               ID:20100311002010 L   I
 2010-03-11-0015-58S.COL___091                                                 6
 STAT SP IPHASW D HRMM SECON CODA AMPLIT PERI AZIMU VELO SNR AR TRES W  DIS CAZ7
 BAR2 SZ IP        020 30.29                             168     0.210   29 208 
 BAR2 SZ ES   1    020 45.46                             168     0.1 7   29 208 
 BRR  HZ IP        020 32.02                             150     0.110   79 294 
 BRR  HZ I         020 32.21       672.3 0.30                            79 294 
 BRR  HE ES        020 48.83                             150     0.210   79 294 
 RUS  BZ IP        020 34.38                             143     0.110  103 181 
 RUS  BE ES   1    020 52.40                             143    -0.4 7  103 181 
 RUS  BZ I         020 54.92       147.2 0.33                           103 181 
 OCA  SZ IP        020 38.46                             129    -0.2 9  159 350 
 OCA  SZ ES   1    021  0.01                             129    -0.5 7  159 350 
 OCA  SZ I         021  5.23       684.0 0.31                           159 350 
 CHI  HZ IP        020 48.89                             116     0.2 8  254 197 
 CHI  HE ES        021 18.32                             116    -0.1 8  254 197 
 CHI  HZ I         021 21.29        67.3 0.23                           254 197 
 HEL  HZ EP   1    020 51.80                             114     0.1 6  282 256 
 HEL  HN ES   3    021 23.70                             114    -0.2 2  282 256 
 HEL  HZ I         021 29.70       138.2 0.61                           282 256 
 GUY  HZ EP   1    020 55.64                             111     0.5 5  310 235 
 RREF BZ EP   1    020 57.23                             110    -0.4 5  330 230 
 RREF BN ES   2    021 34.09                             110    -0.2 3  330 230 
 RREF BZ I         021 42.52       104.5 0.28                           330 230 
 DBB  SZ EP   1    020 58.74                             109    -0.3 5  349 274 
 TOL  SZ EP   1    020 59.37                             108    -0.3 5  352 225 
 TOL  SZ ES   2    021 38.08                             108     0.1 3  352 225 
 SDV  BZ IP        020 59.53                             108     0.0 6  352  50 
 SDV  BZ I         021  0.74       208.7 0.09                           352  50 
 ANIL BZ EP   2    021  2.33                             108     1.1 3  366 225 
 ANIL BZ I         021 48.78       233.8 0.41                           366 225 
 PRA  HZ EP   1    021  4.65                             106    -0.1 4  399 211 
 PRA  HE ES   1    021 46.19                             106    -0.9 4  399 211 
 PRA  HZ I         021 53.00        92.8 0.32                           399 211 
                                                                                
