 2012  211 0533 10.6 L   6.797 -73.137144.1  RSN  5 0.2 1.0LRSN                1
 GAP=138        0.45       5.8     4.2  8.6  0.1422E+01  0.6199E+01  0.3024E+02E
 ACTION:UP  12-03-07 16:29 OP:epov STATUS:               ID:20120211053310 L   I
 2012-02-11-0530-00M.COL___188                                                 6
 STAT SP IPHASW D HRMM SECON CODA AMPLIT PERI AZIMU VELO AIN AR TRES W  DIS CAZ7
 GIR2 SZ EP        533 29.84                             167   -0.2310 31.8 349 
 BRR  HZ EP        533 31.81                             152    0.2010 72.2 298 
 BRR  HN ES   2    533 48.26                             152    0.25 5 72.2 298 
 BRR  HZ I         533 52.80         3.4 0.20                          72.2 298 
 PAM  SN ES   2    533 49.69                             151   -0.08 5 77.0  39 
 RUS  HZ EP        533 34.23                             143    0.0910  100 177 
 RUS  HZ I         533 53.86         1.0 0.28                           100 177 
 PTB  HZ EP        533 37.46                             131   -0.04 9  149 259 
 PTB  HN ES   2    533 58.21                             131   -0.28 5  149 259 
 PTB  HZ I         534  3.61         1.1 0.48                           149 259 
                                                                                
