 2017  411 0423 53.8 L   6.814 -73.154143.1  RSN  4 0.3 0.9LRSN                1
 GAP=244        0.65       6.9     5.7  5.9  0.2827E+02  0.2487E+01 -0.1083E+02E
 Epicentro: LOS SANTOS - SANTANDER                                             3
 ACTION:UPD 17-05-30 21:10 OP:jn   STATUS:               ID:20170411042353 L   I
 OLDACT:DUP 17-04-11 16:33 OP:edw  STATUS:               ID:20170411041743d    3
 2017-04-11-0418-00M.COL___371                                                 6
 STAT SP IPHASW D HRMM SECON CODA AMPLIT PERI AZIMU VELO AIN AR TRES W  DIS CAZ7
 BAR2 EZ ES        424 28.08                             170   -0.1310 24.7 187 
 RUS  HZ EP        424 17.58                             143    0.1810  102 176 
 RUS  HN ES        424 35.91                             143    0.1010  102 176 
 RUS  HZ I         424 36.86         0.8 0.24            136            102 176 
 PTB  HZ EP        424 20.51                             131    0.02 9  147 258 
 PTB  HN ES        424 41.09                             131   -0.23 9  147 258 
 ZAR  HZ EP        424 25.52                             122   -0.40 9  203 292 
 ZAR  HZ I         424 51.25         1.0 0.42            109            203 292 
 ZAR  HN ES        424 51.45                             122    0.47 9  203 292 
                                                                                
