 2013  811 0040 14.0 L   6.766 -73.228144.0  RSN  5 0.5 1.4LRSN                1
 GAP=123        1.12       6.5     6.1  9.6 -0.2149E+01  0.6553E+01 -0.4756E+01E
 Epicentro: ZAPATOCA - SANTANDER                                               3
 ACTION:UPD 14-01-14 09:00 OP:ep   STATUS:               ID:20130811004014 L   I
 OLDACT:REG 13-08-11 07:25 OP:jn   STATUS:               ID:20130811003959     3
 2013-08-11-0039-59M.COL___271                                                 6
 STAT SP IPHASW D HRMM SECON CODA AMPLIT PERI AZIMU VELO AIN AR TRES W  DIS CAZ7
 BAR2 SZ ES   1    040 49.19                             172    0.71 7 19.8 165 
 BRR  HZ EP        040 35.28                             154    0.6010 65.5 305 
 BRR  HN ES   1    040 51.14                             154    0.36 7 65.5 305 
 BRR  HZ I         040 58.27         8.4 0.34            154           65.5 305 
 PAM  SZ EP        040 36.33                             147   -0.2910 86.2  43 
 PAM  SN ES   1    040 53.63                             147   -0.61 7 86.2  43 
 PAM  SZ I         040 55.26         4.8 0.56            152           86.2  43 
 RUS  HZ EP        040 37.48                             144    0.0610 97.9 171 
 RUS  HN ES        040 55.49                             144   -0.1710 97.9 171 
 RUS  HZ I         040 57.56         3.4 0.18            150           97.9 171 
 PTB  HZ EP        040 40.25                             134    0.25 9  138 260 
 PTB  HN ES        040 59.48                             134   -0.76 9  138 260 
 PTB  HZ I         041  2.56         3.0 0.36            136            138 260 
                                                                                
