 2017  111 0710 44.5 L   6.780 -73.176144.3  RSN  6 0.3 1.0LRSN                1
 GAP=134        0.86       4.5     4.0  7.1 -0.2700E+00  0.8968E+01 -0.4029E+01E
 Epicentro: LOS SANTOS - SANTANDER                                             3
 ACTION:UPD 17-05-22 15:58 OP:jn   STATUS:               ID:20170111071044 L   I
 OLDACT:UP  17-01-11 16:44 OP:and  STATUS:               ID:20170111070650     3
 OLDACT:REG 17-01-11 12:50 OP:and  STATUS:               ID:20170111070650     3
 2017-01-11-0707-00M.COL___340                                                 6
 STAT SP IPHASW D HRMM SECON CODA AMPLIT PERI AZIMU VELO AIN AR TRES W  DIS CAZ7
 BAR2 EZ EP        711  3.76                             171   -0.1610 20.7 182 
 BAR2 EZ ES        711 19.10                             171    0.0410 20.7 182 
 BAR2 EZ I         711 19.89         4.0 0.30            172           20.7 182 
 BRR  HZ EP        711  5.83                             153    0.4210 69.4 301 
 PAM  EZ IP     D  711  6.78                             149   -0.0410 81.3  40 
 PAM  EN ES        711 23.97                             149   -0.2410 81.3  40 
 PAM  EZ I         711 26.20         1.6 0.72            153           81.3  40 
 RUS  HZ EP        711  7.95                             144   -0.0410 98.6 174 
 RUS  HN ES        711 26.66                             144    0.3710 98.6 174 
 RUS  HZ I         711 29.16         0.7 0.26            147           98.6 174 
 PTB  HZ EP        711 10.78                             132   -0.25 9  144 259 
 PTB  HN ES        711 31.09                             132   -0.61 9  144 259 
 PTB  HZ I         711 36.37         1.7 0.14            133            144 259 
 ZAR  HZ EP   4    711 18.33                             122    1.69 0  202 293 
 ZAR  HN ES        711 42.24                             122    0.55 9  202 293 
 ZAR  HZ I         711 47.98         1.6 0.28            123            202 293 
                                                                                
