 2017  511 0822 16.5 L   6.824 -73.122148.0  RSN  4 0.2 1.4LRSN                1
 GAP=138        0.54       3.4     4.5  7.8  0.5114E+01  0.2357E+02  0.8432E+01E
 Epicentro: LOS SANTOS - SANTANDER                                             3
 ACTION:UPD 17-06-16 13:35 OP:jn   STATUS:               ID:20170511082216 L   I
 OLDACT:DUP 17-05-11 20:29 OP:osc  STATUS:               ID:20170511081738d    3
 OLDACT:REG 17-05-11 13:39 OP:osc  STATUS:               ID:20170511081737     3
 2017-05-11-0818-00M.COL___353                                                 6
 STAT SP IPHASW D HRMM SECON CODA AMPLIT PERI AZIMU VELO AIN AR TRES W  DIS CAZ7
 PAM  EN ES        822 56.03                             152   -0.0510 73.7  39 
 RUS  HZ EP        822 40.87                             144    0.2410  103 178 
 RUS  HE ES        822 59.42                             144   -0.0510  103 178 
 RUS  HZ I         823  0.80         4.7 0.30            146            103 178 
 PTB  HZ EP        822 43.61                             132   -0.31 9  151 258 
 PTB  HN ES   4    823  4.23                             132   -1.09 0  151 258 
 PTB  HZ I         823  5.81         2.6 0.28            132            151 258 
 ZAR  HE ES        823 14.95                             123    0.18 8  206 291 
 ZAR  HZ I         823 21.48         2.2 0.26            123            206 291 
                                                                                
