 2014 1211 0918 34.2 L   6.804 -73.114145.9  RSN  9 0.5 2.0LRSN                1
 GAP=140        1.08       4.1     4.5  7.1 -0.2394E+01  0.9413E+01  0.4771E+01E
 Epicentro: LOS SANTOS - SANTANDER                                             3
 ACTION:UPD 15-02-10 17:02 OP:nd   STATUS:               ID:20141211091834 L   I
 OLDACT:UP  14-12-11 17:59 OP:mh   STATUS:               ID:20141211091742     3
 OLDACT:REG 14-12-11 13:07 OP:fm   STATUS:               ID:20141211091742     3
 2014-12-11-0917-42M.COL___297                                                 6
 STAT SP IPHASW D HRMM SECON CODA AMPLIT PERI AZIMU VELO AIN AR TRES W  DIS CAZ7
 BRR  HZ EP     C  918 55.84                             152    0.2910 74.1 297 
 BRR  HN ES        919 12.40                             152    0.2210 74.1 297 
 BRR  HZ I         919 16.58        18.8 0.42            150           74.1 297 
 PAM  SZ EP        918 56.82                             152    0.5110 74.9  38 
 PAM  SN ES        919 13.66                             152    0.1310 74.9  38 
 PAM  SZ I         919 15.93        22.1 0.32            155           74.9  38 
 RUS  HZ EP        918 58.08                             144    0.0710  101 178 
 RUS  HN ES        919 16.03                             144   -0.5310  101 178 
 RUS  HZ I         919 16.83         6.4 0.54            147            101 178 
 PTB  HZ EP        919  0.94                             131   -0.58 9  151 259 
 PTB  HN ES        919 23.33                             131    0.52 9  151 259 
 PTB  HZ I         919 24.30        17.3 0.16            132            151 259 
 OCA  HZ EP   1    919  2.33                             130   -0.22 7  160 352 
 OCA  HE ES        919 24.10                             130   -0.54 9  160 352 
 OCA  HZ I         919 27.92        14.1 0.28            131            160 352 
 ZAR  HZ EP   1    919  7.03                             122    0.03 6  207 292 
 ZAR  HN ES        919 32.39                             122   -0.16 8  207 292 
 ZAR  HZ I         919 37.84        14.9 0.38            123            207 292 
 NOR  HZ EP        919 10.65                             118    0.35 8  238 235 
 NOR  HN ES   1    919 37.94                             118   -0.49 6  238 235 
 NOR  HZ I         919 43.89         9.7 0.42            120            238 235 
 HEL  HZ EP        919 13.83                             114   -1.00 7  276 256 
 HEL  HN ES   1    919 46.73                             114    0.23 6  276 256 
 HEL  HZ I         919 52.10         4.8 0.54            116            276 256 
 GUY2CHZ EP        919 19.10                             112    0.91 7  304 235 
 GUY2CHN ES   4    919 53.38                             112    0.90 0  304 235 
 GUY2CHZ I         920  1.43         4.0 0.54                           304 235 
                                                                                
