 2014 1211 0045 49.3 L   5.746 -74.034 99.7  RSN 14 0.4 1.7LRSN                1
 GAP= 84        1.11       2.5     2.4  7.9 -0.1979E+01  0.1496E+01  0.2256E+01E
 Epicentro: FLORIAN - SANTANDER                                                3
 ACTION:UPD 15-02-10 17:02 OP:nd   STATUS:               ID:20141211004549 L   I
 OLDACT:REG 14-12-11 12:43 OP:fm   STATUS:               ID:20141211003743     3
 2014-12-11-0037-43M.COL___300                                                 6
 STAT SP IPHASW D HRMM SECON CODA AMPLIT PERI AZIMU VELO AIN AR TRES W  DIS CAZ7
 NOR  HZ EP        046  7.27                             133   -0.5210 94.7 258 
 NOR  HE ES        046 22.36                             133    0.1910 94.7 258 
 NOR  HZ I         046 24.35        16.2 0.24            125           94.7 258 
 PTB  HZ EP        046  7.95                             132   -0.2110 99.4 332 
 PTB  HN ES        046 22.69                             132   -0.1510 99.4 332 
 PTB  HZ I         046 23.43        10.5 0.18            125           99.4 332 
 RUS  HZ EP        046  9.45                             130   -0.0310  107  81 
 RUS  HN ES        046 25.13                             130   -0.0510  107  81 
 CHI  HZ EP        046 10.76                             124   -0.7110  128 165 
 CHI  HN ES        046 28.66                             124   -0.0810  128 165 
 CHI  HZ I         046 36.25         2.5 0.26            116            128 165 
 BAR2 E  EP        046 12.50                             123    0.7610  133  45 
 BAR2 E  ES        046 29.31                             123    0.1010  133  45 
 BRR  HZ EP        046 14.11                             119    0.37 9  155  13 
 BRR  HE ES        046 33.12                             119    0.35 9  155  13 
 BRR  HZ I         046 37.05         8.5 0.12            112            155  13 
 GUY2CHZ EP        046 15.41                             118    0.65 9  158 249 
 GUY2CHE ES        046 35.16                             118    0.58 9  158 249 
 GUY2CHZ I         046 40.21         4.7 0.50                           158 249 
 HEL  HZ EP        046 16.16                             116   -0.02 9  173 287 
 HEL  HE ES        046 37.35                             116    0.23 9  173 287 
 HEL  HZ I         046 41.49         5.3 0.50            109            173 287 
 RREF HZ EP        046 17.02                             116    0.46 9  173 237 
 RREF HN ES        046 37.96                             116    0.17 9  173 237 
 RREF HZ I         046 42.75         7.7 0.26            109            173 237 
 TOL  SZ EP        046 18.88                             113    0.58 9  192 228 
 TOL  SE ES        046 40.75                             113   -0.14 9  192 228 
 TOL  SZ I         046 45.40        13.8 0.60            107            192 228 
 ZAR  HN ES        046 43.73                             111   -0.82 8  213 335 
 ZAR  HZ I         046 50.79         8.0 0.34            105            213 335 
 CBOC HN ES        046 45.41                             110   -0.74 8  219 274 
 PAM  SN ES        046 48.49                             109   -0.51 8  230  40 
 PAM  SZ I         046 52.18         3.1 0.46            104            230  40 
 ORTC HZ EP        046 23.74                             108   -0.17 8  244 214 
 ORTC HE ES        046 50.25                             108   -0.62 8  244 214 
 ORTC HZ I         046 56.93         3.4 0.54            103            244 214 
                                                                                
