 2017  411 0015 16.7 L   7.001 -73.127128.3  RSN  4 0.4 1.1LRSN                1
 GAP=257        1.16       9.3     8.7  9.5  0.4323E+02  0.2106E+00 -0.1957E+01E
 Epicentro: FLORIDABLANCA - SANTANDER                                          3
 ACTION:UPD 17-05-30 21:10 OP:jn   STATUS:               ID:20170411001516 L   I
 OLDACT:DUP 17-04-11 14:17 OP:edw  STATUS:               ID:20170411000747d    3
 2017-04-11-0008-00M.COL___371                                                 6
 STAT SP IPHASW D HRMM SECON CODA AMPLIT PERI AZIMU VELO AIN AR TRES W  DIS CAZ7
 BAR2 EZ EP        015 34.23                             159   -0.7110 45.6 188 
 BAR2 EZ ES        015 49.88                             159    0.6910 45.6 188 
 BAR2 EZ I         015 52.99         3.6 0.42            151           45.6 188 
 BRR  HZ EP        015 35.77                             151    0.1510 65.7 280 
 BRR  HN ES        015 50.10                             151   -0.3010 65.7 280 
 RUS  HZ EP        015 41.04                             134    0.4510  123 178 
 RUS  HN ES        015 58.78                             134   -0.4710  123 178 
 RUS  HZ I         016  1.63         1.4 0.32            131            123 178 
 PTB  HZ EP        015 43.28                             126    0.24 9  156 251 
 PTB  HN ES        016  3.59                             126   -0.01 9  156 251 
 PTB  HZ I         016 11.47         1.7 0.34            123            156 251 
                                                                                
