 2014  211 0702 49.8 L   6.791 -73.195143.6  RSN  5 0.3 1.4LRSN                1
 GAP=240        0.78       5.1     5.8  7.9  0.1881E+02 -0.1047E+02 -0.1364E+02E
 Epicentro: ZAPATOCA - SANTANDER                                               3
 ACTION:UPD 14-03-10 08:09 OP:ep   STATUS:               ID:20140211070249 L   I
 OLDACT:REG 14-02-11 07:44 OP:carl STATUS:               ID:20140211070000     3
 2014-02-11-0700-00M.COL___167                                                 6
 STAT SP IPHASW D HRMM SECON CODA AMPLIT PERI AZIMU VELO AIN AR TRES W  DIS CAZ7
 RUS  HZ EP        7 3 13.16                             143   -0.1710  100 173 
 RUS  HN ES        7 3 31.80                             143    0.1310  100 173 
 RUS  HZ I         7 3 33.28         2.5 0.34            145            100 173 
 PTB  HZ EP        7 3 15.80                             133   -0.32 9  142 259 
 PTB  HN ES        7 3 36.33                             133   -0.30 9  142 259 
 PTB  HZ I         7 3 42.50         3.4 0.14            132            142 259 
 SPBC HZ EP        7 3 17.66                             129   -0.11 9  159 218 
 SPBC HN ES        7 3 39.58                             129    0.02 9  159 218 
 SPBC HZ I         7 3 45.82         4.4 0.20            129            159 218 
 ZAR  HZ EP        7 3 22.30                             123    0.65 9  199 293 
 ZAR  HN ES        7 3 46.60                             123    0.12 9  199 293 
 ZAR  HZ I         7 3 54.59         3.7 0.20            123            199 293 
 CHI  HZ EP        7 3 26.78                             117   -0.37 8  246 194 
 CHI  HN ES        7 3 56.81                             117    0.54 8  246 194 
 CHI  HZ I         7 3 59.51         0.9 0.24            119            246 194 
                                                                                
