 2013  111 0320 21.1 L   6.714 -73.200142.0  RSN  6 0.3 1.7LRSN                1
 GAP=224        0.69       4.8     4.9  6.0  0.1467E+02  0.1475E+01  0.3848E+01E
 Epicentro: VILLANUEVA - SANTANDER                                             3
 ACTION:UPD 13-02-15 09:13 OP:ep   STATUS:               ID:20130111032021 L   I
 2013-01-11-0317-48M.COL___184                                                 6
 STAT SP IPHASW D HRMM SECON CODA AMPLIT PERI AZIMU VELO AIN AR TRES W  DIS CAZ7
 BAR2 SZ EP        320 40.04                             174   -0.1210 13.6 172 
 BRR  HZ EP        320 41.70                             152   -0.1910 71.3 308 
 BRR  HE ES        320 58.35                             152    0.2810 71.3 308 
 BRR  HE I         321  3.02         6.5 0.54            152           71.3 308 
 RUS  HZ EP        320 43.91                             146    0.0110 91.8 172 
 RUS  HE ES        321  1.61                             146   -0.0410 91.8 172 
 PTB  HZ EP        320 46.75                             133   -0.37 9  140 262 
 PTB  HN ES        321  7.19                             133   -0.19 9  140 262 
 PTB  HN I         321 13.19         5.6 0.54            134            140 262 
 ZAR  HE ES        321 18.41                             122    0.27 9  202 295 
 ZAR  HE I         321 19.73         6.8 0.18            124            202 295 
 CHI  HZ EP        320 58.04                             117    0.57 8  238 194 
                                                                                
