 2017  311 0228 52.8 L   6.775 -73.153147.1  RSN  4 0.3 0.9LRSN                1
 GAP=235        0.54       5.3     4.4  6.8  0.8716E+01  0.2395E+00 -0.1501E+02E
 Epicentro: LOS SANTOS - SANTANDER                                             3
 ACTION:UPD 17-05-25 18:38 OP:jn   STATUS:               ID:20170311022852 L   I
 OLDACT:UP  17-03-11 13:41 OP:and  STATUS:               ID:20170311022745     3
 OLDACT:UP  17-03-11 13:41 OP:and  STATUS:               ID:20170311022745     3
 OLDACT:REG 17-03-11 12:25 OP:and  STATUS:               ID:20170311022745     3
 2017-03-11-0228-00M.COL___406                                                 6
 STAT SP IPHASW D HRMM SECON CODA AMPLIT PERI AZIMU VELO AIN AR TRES W  DIS CAZ7
 BAR2 EZ EP        229 12.41                             172   -0.1710 20.4 189 
 BAR2 EZ ES   2    229 27.46                             172   -0.51 5 20.4 189 
 BRR  HZ EP        229 14.16                             152   -0.0110 71.9 301 
 BRR  HE ES   2    229 31.51                             152    0.70 5 71.9 301 
 RUS  HZ EP   2    229 16.85                             145    0.32 5 97.9 175 
 RUS  HN ES        229 35.11                             145    0.1010 97.9 175 
 PTB  HZ EP        229 19.88                             132    0.08 9  146 260 
 PTB  HN ES        229 40.70                             132   -0.13 9  146 260 
 PTB  HZ I         229 45.04         0.9 0.12            130            146 260 
                                                                                
