 2010  711 0330 39.7 L   6.799 -73.126145.6  RSN  8 0.3 1.7LRSN                1
 GAP=158        0.61       2.9     6.2  4.9 -0.4917E+01 -0.1513E+01 -0.1789E+01E
 Epicentro: LOS SANTOS - SANTANDER                                             3
 ACTION:UPD 10-12-01 15:16 OP:pat  STATUS:               ID:20100711033039 L   I
 2010-07-11-0327-49S.COL___120                                                 6
 STAT SP IPHASW D HRMM SECON CODA AMPLIT PERI AZIMU VELO AIN AR TRES W  DIS CAZ7
 BAR2 SZ EP   2    330 59.14                             170    -0.2 5   24 196 
 BAR2 SZ ES   1    331 14.27                             170    -0.4 7   24 196 
 BAR2 SZ I         331 16.72        15.8 0.38                            24 196 
 BRR  HZ EP        331  0.86                             152    -0.110   73 298 
 BRR  HE ES   1    331 17.82                             152     0.3 7   73 298 
 BRR  HZ I         331 21.58        10.0 0.14                            73 298 
 RUS  HZ EP   1    331  3.28                             144    -0.2 7  100 177 
 RUS  HE ES   1    331 22.34                             144     0.4 7  100 177 
 RUS  HZ I         331 22.85         6.7 0.27                           100 177 
 BRI  SZ EP   1    331  3.56                             142     0.0 7  108  20 
 BRI  SZ ES   2    331 22.10                             142     0.0 5  108  20 
 BRI  SZ I         331 27.60         6.2 0.37                           108  20 
 GUE  SZ EP   1    331  4.35                             139    -0.1 7  116  11 
 GRA  SZ EP        331  4.88                             137     0.010  125  16 
 GRA  SZ ES   1    331 24.82                             137     0.3 7  125  16 
 GRA  SZ I         331 25.57         6.1 0.36                           125  16 
 OCA  SZ EP        331  8.37                             129     0.3 9  161 352 
 OCA  SZ ES   2    331 29.47                             129    -0.7 5  161 352 
 OCA  SZ I         331 34.25         7.0 0.42                           161 352 
 PRA  HZ EP   1    331 33.12                             106    -0.2 4  393 210 
 PRA  HE ES   2    332 15.45                             106     0.3 3  393 210 
 PRA  HZ I         332 21.41         3.1 0.33                           393 210 
                                                                                
