 2011  511 0949 30.6 L   6.773 -73.091148.7  RSN  5 0.1 1.3LRSN                1
 GAP=192        0.46       6.8     8.2  6.4 -0.1059E+02 -0.2106E+02 -0.1358E+01E
 Epicentro: LOS SANTOS - SANTANDER                                             3
 ACTION:UP  11-06-29 08:52 OP:tino STATUS:               ID:20110511094930 L   I
 2011-05-11-0944-01S.COL___132                                                 6
 STAT SP IPHASW D HRMM SECON CODA AMPLIT PERI AZIMU VELO SNR AR TRES W  DIS CAZ7
 BAR2 SZ EP        949 50.38                             171    -0.110   22 207 
 BAR2 SZ I         949 54.97         3.9 0.44                            22 207 
 BTL  SZ EP        949 50.88                             170     0.310   25 310 
 BTL  SZ ES   2    950  6.20                             170     0.0 5   25 310 
 GIR2 SZ ES   2    950  6.32                             166    -0.1 5   36 342 
 BRR  HZ EP        949 52.32                             151    -0.110   78 298 
 BRR  HN ES   2    950  9.48                             151     0.0 5   78 298 
 GRA  SZ EP        949 56.13                             137     0.010  127  14 
 GRA  SZ I         950 16.93         2.8 0.20                           127  14 
                                                                                
