 2011  211 0530  7.5 L   6.787 -73.185140.4  RSN  4 0.4 1.1LRSN                1
 GAP=154        0.85       7.5    32.4 11.3 -0.1245E+03 -0.1054E+03 -0.4081E+01E
 Epicentro: LOS SANTOS - SANTANDER                                             3
 ACTION:UP  11-03-28 15:07 OP:jfem STATUS:               ID:20110211053007 L   I
 2011-02-11-0527-09S.COL___136                                                 6
 STAT SP IPHASW D HRMM SECON CODA AMPLIT PERI AZIMU VELO SNR AR TRES W  DIS CAZ7
 BTL  SZ EP   1    530 26.27                             173    -0.1 8   17 328 
 BTL  SZ ES   2    530 41.65                             173     0.5 5   17 328 
 BAR2 SZ EP   1    530 26.06                             171    -0.4 8   22 180 
 BAR2 SZ ES   2    530 40.87                             171    -0.4 5   22 180 
 BAR2 SZ I         530 42.19         6.1 0.28                            22 180 
 RUS  HZ EP   1    530 30.56                             143    -0.1 8  100 174 
 RUS  HZ I         530 31.34         1.2 0.20                           100 174 
 RUS  HN ES   2    530 49.24                             143     0.5 5  100 174 
 GRA  SZ IP        530 32.94                             135     0.410  128  19 
 GRA  SZ ES   2    530 51.25                             135    -0.8 5  128  19 
 GRA  SZ I         530 53.21         2.2 0.39                           128  19 
                                                                                
