 2014  711 0151  1.0 L   6.788 -73.157140.0  RSN 12 0.4 2.0LRSN                1
 GAP= 71        1.09       3.4     3.5  5.6 -0.2660E+01  0.4417E+01  0.1141E+01E
 Epicentro: LOS SANTOS - SANTANDER                                             3
 ACTION:UPD 15-03-16 20:42 OP:nd   STATUS:               ID:20140711015101 L   I
 OLDACT:REG 14-07-11 12:39 OP:stll STATUS:               ID:20140711014809     3
 2014-07-11-0148-09M.COL___259                                                 6
 STAT SP IPHASW D HRMM SECON CODA AMPLIT PERI AZIMU VELO AIN AR TRES W  DIS CAZ7
 BAR2 SZ EP        151 20.03                             171    0.1010 21.9 187 
 BAR2 SZ ES        151 34.36                             171   -0.3210 21.9 187 
 BAR2 SZ I         151 36.91        35.8 0.44            167           21.9 187 
 BRR  HZ EP        151 22.11                             152    0.5910 70.7 300 
 BRR  HZ I         151 22.23        22.0 0.22            149           70.7 300 
 BRR  HN ES        151 38.52                             152    1.0110 70.7 300 
 PAM  SZ EP        151 23.04                             149    0.3010 79.2  40 
 PAM  SN ES        151 39.27                             149   -0.4110 79.2  40 
 PAM  SZ I         151 42.21        10.2 0.58            149           79.2  40 
 RUS  HZ EP        151 24.18                             143    0.0610 99.4 175 
 RUS  HN ES        151 42.41                             143    0.2710 99.4 175 
 RUS  HZ I         151 45.32         8.3 0.46            139           99.4 175 
 PTB  HZ EP        151 27.03                             131   -0.36 9  146 259 
 PTB  HE ES        151 47.97                             131    0.02 9  146 259 
 PTB  HZ I         151 51.51        13.0 0.12            127            146 259 
 TAM  HZ EP        151 28.10                             129   -0.23 9  156 104 
 OCA  HZ EP        151 28.38                             128   -0.62 9  161 354 
 OCA  HN ES        151 50.76                             128   -0.06 9  161 354 
 OCA  HZ I         151 55.89        14.0 0.30            126            161 354 
 SPBC HZ EP        151 29.09                             128    0.18 9  161 219 
 SPBC HN ES        151 50.29                             128   -0.38 9  161 219 
 SPBC HZ I         151 58.01        18.1 0.28            124            161 219 
 ZAR  HZ EP        151 32.63                             121   -0.40 9  203 293 
 ZAR  HE ES        151 57.81                             121   -0.18 9  203 293 
 ZAR  HZ I         152  4.82        12.9 0.32            118            203 293 
 NOR  HZ EP        151 36.22                             118   -0.01 8  233 235 
 NOR  HN ES        152  3.02                             118   -0.67 8  233 235 
 NOR  HZ I         152 11.11         8.2 0.32            114            233 235 
 HEL  HZ EP   1    151 41.38                             114    0.60 6  271 256 
 HEL  HE ES        152 11.39                             114   -0.39 8  271 256 
 HEL  HZ I         152 17.89         3.7 0.36            111            271 256 
 GUY2CHZ EP        151 45.22                             111    1.05 7  299 235 
 GUY2CHN ES        152 17.83                             111    0.01 7  299 235 
 GUY2CHZ I         152 28.50         4.4 0.32                           299 235 
                                                                                
