 2017  411 0752 39.8 L   6.709 -73.184149.4  RSN  4 0.2 1.1LRSN                1
 GAP=226        0.65       5.2     4.9  5.3  0.1244E+02  0.2869E+01  0.8020E+00E
 Epicentro: VILLANUEVA - SANTANDER                                             3
 ACTION:UPD 17-05-30 21:10 OP:jn   STATUS:               ID:20170411075239 L   I
 OLDACT:UP  17-04-11 17:49 OP:edw  STATUS:               ID:20170411074745     3
 OLDACT:REG 17-04-11 12:14 OP:edw  STATUS:               ID:20170411074745     3
 2017-04-11-0748-00M.COL___371                                                 6
 STAT SP IPHASW D HRMM SECON CODA AMPLIT PERI AZIMU VELO AIN AR TRES W  DIS CAZ7
 BAR2 EZ EP        752 59.52                             175   -0.1610 12.9 179 
 BAR2 EZ ES        753 14.87                             175   -0.3410 12.9 179 
 BAR2 EZ I         753 16.00         2.8 0.18            170           12.9 179 
 BRR  HZ EP        753  1.52                             152    0.0910 73.1 307 
 BRR  HN ES        753 18.60                             152    0.2910 73.1 307 
 BRR  HZ I         753 19.45         3.2 0.38            151           73.1 307 
 RUS  HZ EP        753  3.53                             147    0.3010 90.9 173 
 RUS  HN ES        753 21.62                             147    0.1010 90.9 173 
 RUS  HZ I         753 23.20         1.6 0.38            146           90.9 173 
 PTB  HZ EP        753  6.19                             134   -0.34 9  142 262 
 PTB  HN ES        753 27.42                             134    0.02 9  142 262 
 PTB  HZ I         753 32.06         1.1 0.20            132            142 262 
                                                                                
