 2015  311 0120 37.3 L   6.756 -73.208144.2  RSN  4 0.4 1.9LRSN                1
 GAP=226        1.06       9.7     9.2  9.1 -0.2507E+02  0.2584E+02  0.2221E+02E
 Epicentro: ZAPATOCA - SANTANDER                                               3
 ACTION:UPD 15-04-30 16:24 OP:nd   STATUS:               ID:20150311012037 L   I
 OLDACT:REG 15-03-11 12:47 OP:cam  STATUS:               ID:20150311011737     3
 2015-03-11-0117-37M.COL___287                                                 6
 STAT SP IPHASW D HRMM SECON CODA AMPLIT PERI AZIMU VELO AIN AR TRES W  DIS CAZ7
 BAR2 EZ ES        121 11.59                             173   -0.1910 18.4 171 
 BAR2 EZ I         121 12.37        14.6 0.22            173           18.4 171 
 BRR  HZ EP        120 58.14                             153    0.0110 67.9 305 
 BRR  HE ES        121 14.89                             153    0.5410 67.9 305 
 BRR  HE I         121 15.59        37.9 0.18            152           67.9 305 
 PTB  HZ EP        121  2.98                             133   -0.51 9  140 260 
 PTB  HN ES        121 23.30                             133   -0.58 9  140 260 
 PTB  HZ I         121 26.84         7.1 0.12            133            140 260 
 NOR  HZ EP        121 12.54                             119    0.46 8  226 234 
 NOR  HN ES        121 39.60                             119    0.43 8  226 234 
                                                                                
