 2011  611 0325 36.3 L   6.471 -73.721 95.5  RSN  5 0.2 1.4LRSN                1
 GAP=129        0.54       2.7     3.3  7.6 -0.4368E+01  0.6640E+01 -0.5601E+01E
 Epicentro: SANTA HELENA DEL OPON - SANTANDER                                  3
 ACTION:UP  11-07-14 19:04 OP:ep   STATUS:               ID:20110611032536 L   I
 2011-06-11-0321-12S.COL___133                                                 6
 STAT SP IPHASW D HRMM SECON CODA AMPLIT PERI AZIMU VELO SNR AR TRES W  DIS CAZ7
 BRR  HZ EP   1    325 51.80                             141    -0.4 7   70   1 
 BRR  HZ I         325 59.44        10.9 0.13                            70   1 
 BRR  HE ES   2    326  4.81                             141     0.1 5   70   1 
 RUS  HZ EP   1    325 54.84                             132    -0.2 7   95 132 
 RUS  HN ES   1    326  9.78                             132     0.1 7   95 132 
 RUS  HZ I         326 12.31         5.3 0.24                            95 132 
 NOR  SZ EP   1    326  1.29                             116     0.0 7  162 232 
 NOR  SN ES   1    326 21.03                             116     0.2 7  162 232 
 NOR  SZ I         326 21.55         1.8 0.24                           162 232 
 BRI  SZ EP   1    326  2.60                             115     0.1 7  171  37 
 BRI  SZ ES   1    326 22.91                             115    -0.1 7  171  37 
 BRI  SZ I         326 26.22         4.9 0.41                           171  37 
 GRA  SZ EP   1    326  4.55                             113     0.4 7  186  33 
 GRA  SZ ES   1    326 26.09                             113     0.1 7  186  33 
 GRA  SZ I         326 28.43         4.9 0.27                           186  33 
                                                                                
