 2013  411 0806 15.8 L   6.722 -73.171147.2  RSN  5 0.4 1.2LRSN                1
 GAP=178        1.06       7.1     7.4  8.1  0.1930E+02  0.1605E+02  0.1449E+02E
 Epicentro: VILLANUEVA - SANTANDER                                             3
 ACTION:UPD 13-05-22 14:37 OP:EP   STATUS:               ID:20130411080615 L   I
 2013-04-11-0758-50M.COL___211                                                 6
 STAT SP IPHASW D HRMM SECON CODA AMPLIT PERI AZIMU VELO AIN AR TRES W  DIS CAZ7
 BAR2 SZ EP        8 6 35.21                             174   -0.2710 14.3 185 
 BAR2 SZ ES        8 6 51.20                             174    0.3910 14.3 185 
 GIR2 SZ ES        8 6 50.85                             164   -0.7310 39.6 356 
 BRR  HZ EP        8 6 37.50                             152    0.2510 73.4 306 
 BRR  HN ES        8 6 54.61                             152    0.6410 73.4 306 
 RUS  HZ EP        8 6 39.33                             146    0.2010 92.2 174 
 RUS  HN ES        8 6 57.25                             146   -0.0610 92.2 174 
 RUS  HN I         8 6 59.48         1.8 0.28            144           92.2 174 
 PTB  HZ EP        8 6 42.46                             133   -0.07 9  144 262 
 PTB  HN ES        8 7  2.96                             133   -0.40 9  144 262 
 PTB  HN I         8 7  8.61         3.4 0.58            131            144 262 
                                                                                
