 2010  211 0032  6.8 L   6.789 -73.044150.3  RSN  9 0.4 2.6LRSN                1
 GAP=149        0.69       3.5     6.4  4.8 -0.1162E+02  0.2748E+01  0.2115E+01E
 Epicentro: LOS SANTOS - SANTANDER                                             3
 ACTION:UP  10-08-24 09:48 OP:vdl  STATUS:               ID:20100211003206 L   I
 2010-02-11-0029-17S.COL___094                                                 6
 STAT SP IPHASW D HRMM SECON CODA AMPLIT PERI AZIMU VELO SNR AR TRES W  DIS CAZ7
 BAR2 SZ EP   1    032 26.68                             169    -0.3 7   27 215 
 BAR2 SZ ES   1    032 42.70                             169    -0.1 7   27 215 
 GIR2 SZ EP        032 27.24                             166     0.110   36 333 
 GIR2 SZ ES   1    032 43.11                             166     0.1 7   36 333 
 OCA  SZ EP        032 35.87                             130     0.2 9  163 349 
 OCA  SZ ES   1    032 57.89                             130    -0.4 7  163 349 
 CHI  HZ EP   1    032 44.90                             118     0.0 6  251 198 
 CHI  HN ES   1    033 14.61                             118    -0.1 6  251 198 
 CHI  HZ I         033 19.98        16.2 0.30                           251 198 
 HEL  HZ EP   1    032 48.76                             115     0.4 6  283 257 
 HEL  HZ I         033 26.16        17.0 0.38                           283 257 
 RREF BZ EP   1    032 54.08                             111     0.1 5  330 231 
 RREF BN ES   1    033 31.71                             111     0.9 5  330 231 
 RREF BZ I         033 37.36        21.6 0.22                           330 231 
 DBB  SZ EP   1    032 54.94                             109    -0.8 5  351 274 
 SDV  BZ EP        032 56.35                             109     0.3 6  353  49 
 PRA  HZ EP   1    033  0.34                             107    -0.6 4  397 211 
 PRA  HN ES   1    033 42.81                             107    -0.4 4  397 211 
 PRA  HZ I         033 46.82        17.2 0.47                           397 211 
                                                                                
