 2014 1111 0016 38.4 L   5.833 -73.833103.0  RSN  8 0.4 1.3LRSN                1
 GAP=148        1.02       4.2     3.3  6.6 -0.6145E+01  0.5135E+01 -0.3820E+01E
 Epicentro: JESUS MARIA - SANTANDER                                            3
 ACTION:UPD 14-12-19 15:41 OP:nd   STATUS:               ID:20141111001638 L   I
 OLDACT:DUP 14-11-11 12:46 OP:stll STATUS:               ID:20141111000748d    3
 2014-11-11-0007-47M.COL___308                                                 6
 STAT SP IPHASW D HRMM SECON CODA AMPLIT PERI AZIMU VELO AIN AR TRES W  DIS CAZ7
 SPBC HZ EP        016 52.87                             161   -0.1410 33.2 233 
 SPBC HE ES        017  4.74                             161    0.3110 33.2 233 
 SPBC HZ I         017  7.51        11.8 0.40            150           33.2 233 
 RUS  HZ EP        016 56.27                             138   -0.4610 83.3  85 
 RUS  HZ I         016 56.87         2.4 0.14            135           83.3  85 
 RUS  HN ES        017 10.99                             138   -0.0610 83.3  85 
 PTB  HZ EP        016 57.82                             131   -0.0910  104 319 
 PTB  HN ES        017 12.87                             131   -0.2810  104 319 
 PTB  HZ I         017 15.49         3.1 0.40            121            104 319 
 BAR2 SZ EP        016 58.83                             129    0.0310  111  41 
 BAR2 SZ I         016 59.39         9.1 0.20            123            111  41 
 BAR2 SZ ES        017 15.43                             129    0.6910  111  41 
 NOR  HZ EP        016 59.27                             127   -0.0610  119 256 
 NOR  HN ES        017 15.35                             127   -0.3310  119 256 
 NOR  HZ I         017 17.87         6.3 0.18            117            119 256 
 BRR  HZ EP        017  1.29                             121   -0.29 9  142   5 
 BRR  HN ES        017 19.43                             121   -0.25 9  142   5 
 GUY2CHZ EP        017  6.57                             114   -0.06 9  183 248 
 GUY2CHN ES        017 28.74                             114    0.06 9  183 248 
 GUY2CHZ I         017 34.75         1.0 0.24                           183 248 
 HEL  HZ EP        017  8.68                             113    1.15 9  192 282 
 HEL  HZ I         017 36.37         2.4 0.48            107            192 282 
                                                                                
