 2012  811 0517 55.8 L   6.822 -73.367125.0  RSN  5 0.4 1.4LRSN                1
 GAP=103        0.73       5.2     4.7  9.0  0.4512E+00  0.2404E+01  0.1084E+02E
 Epicentro: ZAPATOCA - SANTANDER                                               3
 ACTION:UPD 12-09-10 11:55 OP:ep   STATUS:               ID:20120811051755 L   I
 2012-08-11-0510-00M.COL___218                                                 6
 STAT SP IPHASW D HRMM SECON CODA AMPLIT PERI AZIMU VELO AIN AR TRES W  DIS CAZ7
 BAR2 SZ EP   1    518 13.43                             165    0.23 7 32.6 141 
 BAR2 SZ ES   1    518 26.58                             165   -0.19 7 32.6 141 
 BRR  HZ EP   1    518 13.75                             157    0.22 7 49.4 310 
 BRR  HZ I         518 14.14         6.4 0.10                          49.4 310 
 BRR  HN ES   1    518 27.91                             157    0.56 7 49.4 310 
 PAM  SN ES   1    518 33.10                             141   -0.43 7 93.3  52 
 RUS  HZ EP   1    518 18.08                             137   -0.06 7  108 163 
 RUS  HE ES   1    518 35.78                             137    0.22 7  108 163 
 PTB  HN ES   1    518 36.44                             132   -0.59 7  124 256 
                                                                                
