 2014  711 0126 26.5 L   6.810 -73.140144.6  RSN 25 0.6 2.6LRSN                1
 GAP= 53        1.35       2.9     3.2  5.5 -0.1044E+01  0.4306E+01  0.2581E+01E
 Epicentro: LOS SANTOS - SANTANDER                                             3
 ACTION:UPD 15-03-16 20:42 OP:nd   STATUS:               ID:20140711012626 L   I
 OLDACT:REG 14-07-11 12:38 OP:stll STATUS:               ID:20140711011820     3
 2014-07-11-0118-20M.COL___259                                                 6
 STAT SP IPHASW D HRMM SECON CODA AMPLIT PERI AZIMU VELO AIN AR TRES W  DIS CAZ7
 BAR2 SZ IP     D  126 46.33                             170    0.3210 24.5 191 
 BAR2 SZ I         126 46.64       142.0 0.10            169           24.5 191 
 BAR2 SZ ES        127  0.89                             170   -0.3310 24.5 191 
 BRR  HZ IP     C  126 48.18                             152    0.6610 71.2 298 
 BRR  HZ I         126 48.36        87.1 0.30            144           71.2 298 
 BRR  HN ES        127  4.49                             152    0.5810 71.2 298 
 PAM  SZ IP     C  126 49.07                             151    0.5610 76.2  40 
 PAM  SZ I         126 49.41        41.7 0.42            142           76.2  40 
 PAM  SN ES        127  5.78                             151    0.1010 76.2  40 
 RUS  HZ EP     C  126 50.22                             143    0.0210  102 176 
 RUS  HE ES        127  8.49                             143   -0.2010  102 176 
 RUS  HZ I         127  9.93        36.1 0.24            136            102 176 
 PTB  HZ EP        126 52.89                             132   -0.55 9  149 258 
 PTB  HE ES        127 14.27                             132   -0.19 9  149 258 
 PTB  HZ I         127 19.42        42.3 0.30            123            149 258 
 TAM  HZ EP        126 54.62                             130    0.57 9  155 105 
 TAM  HZ I         127 15.39        20.8 0.26            122            155 105 
 TAM  HN ES        127 15.43                             130   -0.11 9  155 105 
 OCA  HZ EP   2    126 54.64                             130    0.02 5  159 353 
 OCA  HN ES        127 16.28                             130   -0.28 9  159 353 
 OCA  HZ I         127 22.75        26.0 0.20            120            159 353 
 SPBC HZ EP        126 55.02                             129    0.00 9  164 219 
 SPBC HN ES        127 16.97                             129   -0.29 9  164 219 
 SPBC HZ I         127 19.98        67.5 0.38            120            164 219 
 ZAR  HZ EP        126 58.63                             122   -0.25 9  204 292 
 ZAR  HN ES        127 24.51                             122    0.37 9  204 292 
 ZAR  HZ I         127 31.28        52.7 0.26            114            204 292 
 NOR  HZ IP     C  127  2.49                             118    0.21 8  236 234 
 NOR  HE ES        127 30.30                             118    0.12 8  236 234 
 NOR  HZ I         127 33.87        29.7 0.18            110            236 234 
 SML  HZ EP        127  2.77                             117   -0.21 8  243 335 
 SML  HN ES        127 31.61                             117    0.18 8  243 335 
 SML  HZ I         127 40.39        19.3 0.28            109            243 335 
 CHI  HZ EP        127  4.20                             117   -0.06 8  250 195 
 CHI  HE ES        127 33.60                             117   -0.11 8  250 195 
 ROSC BN ES        127 33.84                             116   -0.63 8  254 211 
 HEL  HZ EP        127  7.40                             114    0.66 8  273 256 
 HEL  HN ES        127 38.68                             114    0.54 8  273 256 
 HEL  HZ I         127 45.37        18.8 0.24            107            273 256 
 URE  HZ EP        127  6.79                             113   -0.74 7  284 292 
 URE  HE ES        127 37.68                             113   -1.85 7  284 292 
 URE  HZ I         127 47.47        16.1 0.28            106            284 292 
 SOCV BZ EP        127  8.27                             112   -1.10 7  300  57 
 SOCV BN ES   4    127 39.78                             112   -3.02 0  300  57 
 GUY2CHZ EP        127 10.46                             112    0.28 7  302 235 
 GUY2CHN ES        127 43.86                             112   -0.39 7  302 235 
 GUY2CHZ I         127 53.00        19.2 0.76                           302 235 
 PTGC HZ EP        127  9.00                             111   -1.39 7  309 159 
 PTGC HN ES   4    127 41.44                             111   -3.18 0  309 159 
 RREF HZ EP        127 14.86                             111    2.14 7  323 229 
 RREF HZ I         127 57.91        15.1 0.52            104            323 229 
 CBOC HZ EP        127 13.92                             110    0.45 7  335 252 
 CBOC HZ I         127 14.98         6.6 0.18            103            335 252 
 CBOC HN ES        127 49.52                             110   -0.58 7  335 252 
 DBB  SZ EP        127 13.74                             109   -0.25 7  340 274 
 DBB  SZ I         127 54.15        30.3 0.64            102            340 274 
 TOL  SZ EP        127 14.89                             109    0.05 7  345 225 
 TOL  SN ES        127 51.64                             109   -0.91 7  345 225 
 TOL  SZ I         127 58.49        35.3 0.62            102            345 225 
 ANIL HZ EP        127 16.69                             108    0.30 6  359 224 
 ANIL HN ES        127 56.96                             108    1.65 6  359 224 
 ANIL HZ I         128  4.16        34.2 0.28            102            359 224 
 PRA  HZ EP        127 20.24                             106    0.12 6  393 210 
 PRA  HE ES        128  1.68                             106   -0.26 6  393 210 
 PRA  HZ I         128  8.08         8.7 0.38            100            393 210 
 ORTC HZ EP        127 20.61                             106    0.09 6  397 216 
 ORTC HN ES        128  2.72                             106    0.07 6  397 216 
 ORTC HZ I         128 10.95         6.0 0.50            100            397 216 
                                                                                
