 2014  411 0249 39.7 L   6.821 -73.152132.0  RSN  9 0.5 2.0LRSN                1
 GAP=182        1.09       2.8     5.1  8.9 -0.8760E+00  0.3947E+01 -0.3344E+01E
 Epicentro: LOS SANTOS - SANTANDER                                             3
 ACTION:UPD 14-05-13 23:07 OP:nd   STATUS:               ID:20140411024939 L   I
 OLDACT:REG 14-04-11 12:55 OP:stll STATUS:               ID:20140411024812     3
 2014-04-11-0248-12M.COL___246                                                 6
 STAT SP IPHASW D HRMM SECON CODA AMPLIT PERI AZIMU VELO AIN AR TRES W  DIS CAZ7
 RUS  HZ EP        250  2.38                             140    0.1010  103 176 
 RUS  HN ES        250 20.05                             140    0.1410  103 176 
 RUS  HZ I         250 23.18         8.1 0.44            146            103 176 
 PTB  HZ EP        250  4.81                             129   -0.73 9  148 258 
 PTB  HE ES        250 25.77                             129    0.06 9  148 258 
 PTB  HZ I         250 30.41        10.2 0.44            132            148 258 
 OCA  HZ EP        250  6.62                             127   -0.10 9  158 353 
 OCA  HN ES        250 28.42                             127    0.61 9  158 353 
 OCA  HZ I         250 31.84        10.6 0.18            131            158 353 
 SPBC HN ES        250 28.17                             126   -0.66 9  165 218 
 ZAR  HZ EP        250 11.70                             119    0.60 9  203 292 
 ZAR  HN ES        250 35.85                             119    0.24 9  203 292 
 ZAR  HZ I         250 41.57        16.9 0.34            123            203 292 
 NOR  HZ EP        250 14.59                             115   -0.14 8  236 234 
 NOR  HN ES        250 41.92                             115   -0.16 8  236 234 
 NOR  HZ I         250 45.82         4.6 0.32            119            236 234 
 SML  HZ EP        250 14.64                             115   -0.66 8  241 335 
 SML  HE ES        250 42.52                             115   -0.57 8  241 335 
 SML  HZ I         250 50.37        16.7 0.28            118            241 335 
 CHI  HZ EP        250 16.74                             114   -0.14 8  251 195 
 CHI  HN ES        250 46.04                             114    0.14 8  251 195 
 CHI  HZ I         250 50.46         6.3 0.28            118            251 195 
 GUY2CHZ EP        250 23.78                             110    1.01 7  302 234 
 GUY2CHE ES        250 57.03                             110    0.64 7  302 234 
 GUY2CHZ I         251  2.88         3.2 0.26                           302 234 
                                                                                
