 2012 1111 0840  1.2 L   5.846 -73.707114.9  RSN  5 0.1 2.0LRSN                1
 GAP=132        0.34       2.3     3.9  5.8  0.8830E+00  0.1768E+02  0.1088E+00E
 Epicentro: PUENTE NACIONAL - SANTANDER                                        3
 ACTION:UPD 12-12-05 15:32 OP:}ep  STATUS:               ID:20121111084003dL   I
 2012-11-11-0840-00M.COL___230                                                 6
 STAT SP IPHASW D HRMM SECON CODA AMPLIT PERI AZIMU VELO AIN AR TRES W  DIS CAZ7
 RUS  HZ EP        840 19.59                             147   -0.0810 69.3  86 
 RUS  HZ I         840 20.02        24.6 0.10                          69.3  86 
 RUS  HN ES        840 34.13                             147    0.0410 69.3  86 
 BAR2 SZ EP        840 21.68                             136   -0.0510  101  35 
 BAR2 SZ I         840 21.97        23.5 0.32                           101  35 
 PTB  HZ EP        840 22.42                             132   -0.0610  113 313 
 CHI  HZ EP        840 25.10                             127    0.0510  135 181 
 BRR  HZ EP        840 25.10                             126    0.12 9  139 360 
                                                                                
