 2016  111 0647 14.7 L   6.804 -73.164140.6  RSN 14 0.4 2.2LRSN                1
 GAP= 70        0.98       2.9     2.8  5.4 -0.7897E+00  0.2386E+01  0.2678E+01E
 Epicentro: LOS SANTOS - SANTANDER                                             3
 ACTION:UPD 16-03-09 23:24 OP:cam  STATUS:               ID:20160111064714 L   I
 OLDACT:UP  16-01-11 16:47 OP:mh   STATUS:               ID:20160111063755     3
 OLDACT:REG 16-01-11 12:25 OP:mh   STATUS:               ID:20160111063755     3
 2016-01-11-0637-55M.COL___229                                                 6
 STAT SP IPHASW D HRMM SECON CODA AMPLIT PERI AZIMU VELO AIN AR TRES W  DIS CAZ7
 BAR2 EZ EP     C  647 33.83                             170    0.1210 23.5 185 
 BAR2 EZ ES        647 48.56                             170    0.0210 23.5 185 
 BAR2 EZ I         647 49.50        46.7 0.36            166           23.5 185 
 BRR  HZ EP        647 35.62                             152    0.4410 69.2 299 
 BRR  HN ES        647 51.80                             152    0.6510 69.2 299 
 BRR  HZ I         647 52.95        36.1 0.12            145           69.2 299 
 PAM  EZ EP        647 36.61                             150    0.1810 78.4  41 
 PAM  EN ES        647 53.40                             150    0.0310 78.4  41 
 PAM  EZ I         647 55.19        25.8 0.16            154           78.4  41 
 RUS  HZ EP   1    647 37.85                             143   -0.14 7  101 175 
 RUS  HN ES        647 56.08                             143   -0.0710  101 175 
 RUS  HZ I         647 58.26        15.7 0.44            144            101 175 
 PTB  HZ EP        647 40.46                             131   -0.61 9  146 259 
 PTB  HN ES        648  1.59                             131   -0.05 9  146 259 
 PTB  HZ I         648  4.86        19.9 0.10            127            146 259 
 TAM  HZ I         647 42.25        21.9 0.36            136            157 105 
 TAM  HZ IP     D  647 42.26                             129    0.09 9  157 105 
 TAM  HN ES        648  3.65                             129    0.06 9  157 105 
 OCA  HZ EP   1    647 42.51                             129   -0.04 7  160 354 
 OCA  HN ES        648  3.31                             129   -0.97 9  160 354 
 OCA  HZ I         648  6.48        38.7 0.24            128            160 354 
 SPBC HZ EP        647 42.77                             128    0.06 9  162 218 
 SPBC HN ES        648  4.22                             128   -0.34 9  162 218 
 SPBC HZ I         648 10.76        31.1 0.26            126            162 218 
 ZAR  HN ES        648 11.57                             122    0.09 9  202 292 
 NOR  HZ EP   1    647 50.56                             118    0.58 6  233 234 
 NOR  HN ES        648 17.79                             118    0.29 8  233 234 
 NOR  HZ I         648 22.48        11.7 0.14            116            233 234 
 SML  HZ EP   4    647 50.91                             117    0.00 0  242 336 
 SML  HN ES   4    648 17.51                             117   -1.64 0  242 336 
 SML  HZ I         648 26.77        17.5 0.10            116            242 336 
 CHI  HZ EP        647 52.08                             116   -0.02 8  249 195 
 CHI  HN ES        648 20.81                             116   -0.46 8  249 195 
 CHI  HZ I         648 28.51         4.9 0.34            116            249 195 
 HEL  HZ EP   1    647 55.68                             114    1.24 6  270 256 
 HEL  HN ES        648 24.85                             114   -0.60 8  270 256 
 HEL  HZ I         648 33.00         6.6 0.34            113            270 256 
 URE  HZ EP   4    647 54.38                             113   -0.91 0  282 292 
 URE  HN ES   4    648 25.67                             113   -1.29 0  282 292 
 URE  HZ I         648 28.98        10.3 0.16            112            282 292 
 GUY2CHZ EP   4    647 59.87                             111    1.96 0  300 234 
 GUY2CHN ES   4    648 34.28                             111    2.66 0  300 234 
                                                                                
