 2011 1211 0523  1.9 L   6.828 -73.399111.6  RSN 14 0.5 2.4LRSN                1
 GAP= 84        1.07       3.9     4.7  6.9 -0.4383E+01  0.1179E+02  0.1806E+01E
 Epicentro: SAN VICENTE DE CHUCURI - SANTANDER                                 3
 ACTION:UPD 12-07-13 16:15 OP:ep   STATUS:               ID:20111211052301 L   I
 2011-12-11-0520-00M.COL___186                                                 6
 STAT SP IPHASW D HRMM SECON CODA AMPLIT PERI AZIMU VELO AIN AR TRES W  DIS CAZ7
 BAR2 SZ EP        523 18.08                             161    0.2010 35.4 137 
 BAR2 SZ ES   1    523 30.13                             161   -0.19 7 35.4 137 
 BAR2 SZ I         523 32.15       181.9 0.28                          35.4 137 
 GIR2 SZ EP        523 17.83                             161    0.0810 35.9  39 
 GIR2 SZ ES   1    523 30.15                             161    0.06 7 35.9  39 
 BRR  HZ IP     C  523 18.16                             156    0.1410 46.3 312 
 BRR  HZ I         523 31.41        51.7 0.35                          46.3 312 
 BRR  HN ES   1    523 31.41                             156    0.85 7 46.3 312 
 PAM  SZ EP        523 22.03                             137   -0.0710 95.8  54 
 PAM  SN ES   1    523 37.92                             137    0.09 7 95.8  54 
 RUS  HZ EP   1    523 23.02                             133   -0.25 7  109 161 
 RUS  HE ES   1    523 39.37                             133   -0.54 7  109 161 
 RUS  HZ I         523 44.40        26.1 0.50                           109 161 
 BRI  SZ EP   1    523 23.78                             130    0.06 7  119  34 
 PTB  HZ IP     C  523 22.55                             129   -1.1910  121 255 
 OCA  SZ EP        523 27.45                             121    0.02 9  156   3 
 OCA  SZ ES   1    523 46.92                             121   -0.39 7  156   3 
 OCA  SZ I         523 53.80        41.1 0.21                           156   3 
 YOP  SE ES   2    523 55.68                             115    0.91 4  196 146 
 YOP  SZ I         523 57.31        26.5 0.21                           196 146 
 NOR  SN ES   1    523 58.64                             112    0.25 6  215 229 
 CHI  HZ EP   1    523 37.74                             109    0.06 6  246 189 
 CHI  HZ I         524 13.41         9.3 0.39                           246 189 
 HEL  HZ EP   1    523 38.21                             109    0.59 6  246 253 
 HEL  HE ES   1    524  4.80                             109   -0.65 6  246 253 
 HEL  HZ I         524  9.31        16.4 0.30                           246 253 
 GUY  SZ EP   1    523 43.09                             106    1.02 6  283 231 
 GUY  SZ I         524 19.45        20.7 0.46                           283 231 
 RREF HZ EP   1    523 45.70                             105    1.05 5  303 225 
 RREF HZ I         524 25.35        10.0 0.19                           303 225 
                                                                                
