 2011 1211 0756 56.3 L   7.414 -73.173132.6  RSN  6 0.1 1.4LRSN                1
 GAP=219        0.27       7.5     2.6  3.7 -0.9196E+01  0.5126E+00  0.1452E+02E
 Epicentro: EL PLAYON - SANTANDER                                              3
 ACTION:UPD 12-07-13 16:15 OP:ep   STATUS:               ID:20111211075656 L   I
 2011-12-11-0750-00M.COL___186                                                 6
 STAT SP IPHASW D HRMM SECON CODA AMPLIT PERI AZIMU VELO AIN AR TRES W  DIS CAZ7
 GIR2 SZ EP   2    757 14.56                             163   -0.03 5 37.2 184 
 PAM  SN ES        757 30.93                             157    0.0010 52.9  99 
 BRR  HZ EP   1    757 15.81                             151   -0.06 7 68.5 240 
 BRR  HN ES   1    757 31.16                             151    0.01 7 68.5 240 
 BRR  HZ I         757 32.40         5.1 0.17                          68.5 240 
 BAR2 SZ EP   1    757 17.75                             144    0.06 7 90.9 181 
 BAR2 SZ I         757 31.26         4.2 0.87                          90.9 181 
 RUS  HZ EP   2    757 24.78                             125   -0.10 5  169 177 
 PTB  HZ EP   2    757 24.71                             124    0.15 4  172 236 
 PTB  HN ES   2    757 46.56                             124   -0.06 4  172 236 
                                                                                
