 2013  411 0014 24.1 L   6.724 -73.216145.7  RSN  5 0.3 1.8LRSN                1
 GAP=162        0.70       4.5     4.5  5.2  0.5983E+01  0.3157E+01  0.1967E+01E
 Epicentro: VILLANUEVA - SANTANDER                                             3
 ACTION:UPD 13-05-22 14:37 OP:EP   STATUS:               ID:20130411001424 L   I
 2013-04-11-0008-49M.COL___212                                                 6
 STAT SP IPHASW D HRMM SECON CODA AMPLIT PERI AZIMU VELO AIN AR TRES W  DIS CAZ7
 BAR2 SZ EP        014 43.50                             174   -0.0810 15.0 166 
 BAR2 SZ ES        014 58.52                             174   -0.2610 15.0 166 
 BAR2 SZ I         014 59.95        16.1 0.16            170           15.0 166 
 GIR2 SZ EP        014 43.78                             164   -0.2210 39.3   4 
 GIR2 SZ ES   1    014 59.26                             164   -0.27 7 39.3   4 
 BRR  HZ EP        014 45.25                             153    0.1210 69.3 308 
 BRR  HN ES        015  2.08                             153    0.5410 69.3 308 
 BRR  HN I         015  2.96        18.4 0.30            151           69.3 308 
 RUS  HZ EP        014 47.47                             146    0.1610 93.1 171 
 RUS  HN ES        015  5.62                             146    0.1910 93.1 171 
 RUS  HN I         015  7.15         5.2 0.24            145           93.1 171 
 PTB  HZ EP        014 50.23                             134   -0.01 9  139 262 
 PTB  HN ES        015 10.31                             134   -0.33 9  139 262 
 PTB  HN I         015 16.46        15.1 0.38            132            139 262 
                                                                                
