 2017  911 0459 27.5 L   6.751 -73.128149.9  RSN  6 0.3 1.3LRSN                1
 GAP=236        0.59       3.1     4.2  4.2  0.2577E+01  0.4243E+01  0.1721E-01E
 Epicentro: LOS SANTOS - SANTANDER                                             3
 ACTION:UPD 17-10-05 19:11 OP:rebc STATUS:               ID:20170911045927 L   I
 OLDACT:UP  17-09-11 19:24 OP:and  STATUS:               ID:20170911045645     3
 OLDACT:REG 17-09-11 13:02 OP:mg   STATUS:               ID:20170911045645     3
 2017-09-11-0457-00M.COL___419                                                 6
 STAT SP IPHASW D HRMM SECON CODA AMPLIT PERI AZIMU VELO AIN AR TRES W  DIS CAZ7
 BAR2 EZ EP        459 47.25                             173   -0.2610 18.5 199 
 BAR2 EZ ES        5 0  3.00                             173   -0.1510 18.5 199 
 BAR2 EZ I         5 0  3.85         3.2 0.31            165           18.5 199 
 BRR  HZ EP        459 49.27                             152   -0.0410 75.6 301 
 BRR  HN ES        5 0  6.60                             152    0.2510 75.6 301 
 BRR  HZ I         5 0  9.95         4.7 0.42            146           75.6 301 
 RUS  HZ EP        459 51.26                             146    0.0210 95.0 177 
 RUS  HN ES        5 0  9.90                             146    0.1110 95.0 177 
 RUS  HZ I         5 0 10.93         2.6 0.22            146           95.0 177 
 SPBC HZ EP        459 56.13                             130    0.11 9  160 221 
 SPBC HN ES        5 0 18.29                             130    0.01 9  160 221 
 SPBC HZ I         5 0 24.55         3.2 0.20            129            160 221 
 ZAR  HZ EP        5 0  0.92                             123    0.33 8  208 293 
 ZAR  HN ES   2    5 0 25.38                             123   -1.04 4  208 293 
 ZAR  HZ I         5 0 34.37         2.5 0.22            121            208 293 
 NOR  HN ES   1    5 0 31.01                             119   -0.20 6  233 236 
                                                                                
