 2015  411 1913 25.7 L   6.802 -73.146142.5  RSN  8 0.4 2.1LRSN                1
 GAP=150        1.00       3.7     5.1  6.5 -0.4911E+01  0.8916E+01 -0.4104E+01E
 Epicentro: LOS SANTOS - SANTANDER                                             3
 ACTION:UPD 15-06-03 16:54 OP:cam  STATUS:               ID:20150411191325 L   I
 OLDACT:UP  15-04-11 23:44 OP:mh   STATUS:               ID:20150411190749     3
 OLDACT:REG 15-04-11 21:11 OP:mh   STATUS:               ID:20150411190749     3
 2015-04-11-1907-49M.COL___266                                                 6
 STAT SP IPHASW D HRMM SECON CODA AMPLIT PERI AZIMU VELO AIN AR TRES W  DIS CAZ7
 BAR2 EZ EP       1913 45.13                             170    0.1710 23.5 190 
 BAR2 EZ ES       1913 59.41                             170   -0.5610 23.5 190 
 BAR2 EZ I        1914  2.17        16.0 0.36            169           23.5 190 
 BRR  HZ EP       1913 46.48                             152   -0.0310 71.1 298 
 BRR  HN ES       1914  3.32                             152    0.5910 71.1 298 
 BRR  HZ I        1914  7.98        19.1 0.24            150           71.1 298 
 PAM  SZ EP       1913 47.94                             150    0.3610 77.2  40 
 PAM  SN ES   1   1914  5.10                             150    0.47 7 77.2  40 
 PAM  SZ I        1914  7.18        27.1 0.48            155           77.2  40 
 OCA  HZ EP       1913 53.22                             129   -0.54 9  160 353 
 OCA  HN ES       1914 15.33                             129   -0.30 9  160 353 
 OCA  HZ I        1914 19.05        19.1 0.22            131            160 353 
 SPBC HN ES       1914 15.84                             128   -0.19 9  163 219 
 ZAR  HZ EP       1913 58.60                             122    0.66 9  204 292 
 ZAR  HN ES       1914 23.28                             122    0.20 9  204 292 
 ZAR  HZ I        1914 29.18        12.7 0.56            123            204 292 
 NOR  HZ EP       1914  1.36                             118    0.09 8  235 234 
 NOR  HN ES   1   1914 28.42                             118   -0.58 6  235 234 
 NOR  HZ I        1914 36.83         5.6 0.14            120            235 234 
 SML  HZ EP   1   1914  2.11                             117   -0.03 6  244 335 
 SML  HN ES       1914 29.95                             117   -0.60 8  244 335 
 SML  HZ I        1914 33.38        21.3 0.10            119            244 335 
                                                                                
