 2017 1111 1754 44.0 L   6.558 -73.762 88.0  RSN  9 0.4 1.5LRSN                1
 GAP= 65        1.05       3.8     3.0  7.5 -0.4089E+01  0.2359E+01  0.6188E+00E
 Epicentro: SANTA HELENA DEL OPON - SANTANDER                                  3
 ACTION:UPD 17-12-12 19:54 OP:rebc STATUS:               ID:20171111175444 L   I
 OLDACT:REG 17-11-11 21:05 OP:mg   STATUS:               ID:20171111174742     3
 2017-11-11-1748-00M.COL___453                                                 6
 STAT SP IPHASW D HRMM SECON CODA AMPLIT PERI AZIMU VELO AIN AR TRES W  DIS CAZ7
 BRR  HZ EP       1754 59.12                             143    0.5910 60.9   5 
 BRR  HN ES   4   1755 11.67                             143    1.83 0 60.9   5 
 BRR  HZ I        1755 16.97         8.5 0.24            144           60.9   5 
 BAR2 EZ EP       1754 59.08                             141   -0.0410 64.2  87 
 BAR2 EZ ES       1755 11.31                             141    0.4310 64.2  87 
 BAR2 EZ I        1755 13.16        28.5 0.22            147           64.2  87 
 PTB  HZ EP       1754 59.40                             136   -0.4510 76.8 268 
 PTB  HN ES       1755 11.71                             136   -0.4710 76.8 268 
 PTB  HZ I        1755 13.63         6.4 0.10            139           76.8 268 
 RUS  HZ EP       1755  2.85                             127   -0.2910  105 134 
 RUS  HN ES       1755 18.04                             127   -0.0010  105 134 
 RUS  HZ I        1755 19.82         3.5 0.32            134            105 134 
 SPBC HZ EP       1755  2.64                             126   -0.0510  106 199 
 SPBC HN ES       1755 17.41                             126    0.1810  106 199 
 SPBC HZ I        1755 18.27        10.0 0.30            132            106 199 
 PAM  EZ EP       1755  7.00                             117   -0.42 9  146  54 
 PAM  EN ES       1755 25.47                             117   -0.19 9  146  54 
 PAM  EZ I        1755 27.99         4.0 0.18            121            146  54 
 ZAR  HZ EP   9   1755 10.61                             114    2.31 0  159 311 
 ZAR  HE ES       1755 30.24                                    0.70 9  159 311 
 ZAR  HZ I        1755 31.85         6.3 0.26            117            159 311 
 NOR  HZ EP       1755  9.56                             114    0.57 9  165 228 
 NOR  HN ES       1755 28.18                             114   -0.27 9  165 228 
 NOR  HZ I        1755 32.01         5.6 0.18            117            165 228 
 GUY2CHZ EP       1755 17.80                             106    0.59 8  231 230 
 GUY2CHN ES   4   1755 45.30                             106    2.22 0  231 230 
 GUY2CHZ I        1755 49.02         2.7 0.40                           231 230 
                                                                                
