 2011  211 1921 38.2 L   6.802 -73.354140.0  RSN  6 0.4 1.4LRSN                1
 GAP=197        0.78       5.3    21.3  7.9 -0.5195E+02  0.5742E+02 -0.3066E+01E
 Epicentro: ZAPATOCA - SANTANDER                                               3
 ACTION:UP  11-03-28 15:07 OP:jfem STATUS:               ID:20110211192138 L   I
 2011-02-11-1920-27S.COL___136                                                 6
 STAT SP IPHASW D HRMM SECON CODA AMPLIT PERI AZIMU VELO SNR AR TRES W  DIS CAZ7
 BTL  SZ EP   1   1921 56.89                             173    -0.1 7   16  37 
 BTL  SZ ES   1   1922 11.98                             173     0.3 7   16  37 
 BAR2 SZ ES   2   1922 11.68                             168    -0.5 5   30 141 
 GIR2 SZ EP   1   1921 57.54                             165     0.2 7   35  30 
 RUS  HZ EP   1   1922  1.86                             141     0.1 7  105 163 
 RUS  HN ES   1   1922 20.21                             141     0.1 7  105 163 
 RUS  HZ I        1922 21.50         4.4 0.35                           105 163 
 GRA  SZ EP   1   1922  3.24                             134    -0.4 7  134  27 
 GRA  SZ I        1922 14.00         4.1 0.34                           134  27 
 CHI  HZ EP   1   1922 15.64                             116     0.6 6  244 190 
 CHI  HZ I        1922 16.32         1.5 0.27                           244 190 
 CHI  HE ES   1   1922 43.16                             116    -0.7 6  244 190 
                                                                                
