 2016 1211 1118 21.7 L   6.747 -73.243149.1  RSN  4 0.4 1.4LRSN                1
 GAP=211        1.06       8.4     7.7  8.5  0.3120E+02  0.7480E+01  0.3764E+01E
 Epicentro: ZAPATOCA - SANTANDER                                               3
 ACTION:UPD 17-01-11 20:14 OP:rebc STATUS:               ID:20161211111821 L   I
 OLDACT:REG 16-12-11 20:58 OP:dnl  STATUS:               ID:20161211111739     3
 2016-12-11-1118-00M.COL___373                                                 6
 STAT SP IPHASW D HRMM SECON CODA AMPLIT PERI AZIMU VELO AIN AR TRES W  DIS CAZ7
 BAR2 EZ EP     D 1118 41.29                             173   -0.3910 18.4 158 
 BAR2 EZ ES       1118 56.71                             173   -0.5210 18.4 158 
 BAR2 EZ I        1118 57.52         6.6 0.28            179           18.4 158 
 BRR  HZ EP       1118 43.09                             155    0.1610 65.3 308 
 BRR  HN ES       1118 59.94                             155    0.4810 65.3 308 
 BRR  HZ I        1119  9.05        12.3 0.40            153           65.3 308 
 RUS  HZ EP       1118 45.34                             146   -0.1610 96.1 169 
 RUS  HE ES       1119  4.61                             146    0.5710 96.1 169 
 RUS  HZ I        1119  5.15         2.1 0.34            153           96.1 169 
 PTB  HZ EP       1118 48.24                             135    0.29 9  136 260 
 PTB  HN ES       1119  7.95                             135   -0.44 9  136 260 
 PTB  HZ I        1119 11.11         2.9 0.38            138            136 260 
                                                                                
