 2010 1011 1730 23.1 L   6.766 -73.113140.1  RSN 10 0.6 2.2LRSN                1
 GAP=181        1.09       7.2    12.0 11.1 -0.4804E+02  0.1410E+02  0.1266E+02E
 Epicentro: LOS SANTOS - SANTANDER                                             3
 ACTION:UP  11-02-18 11:09 OP:tino STATUS:               ID:20101011173023 L   I
 2010-10-11-1727-16S.COL___121                                                 6
 STAT SP IPHASW D HRMM SECON CODA AMPLIT PERI AZIMU VELO SNR AR TRES W  DIS CAZ7
 BAR2 SZ IP     D 1730 42.22                             171     0.210   21 202 
 BAR2 SZ I        1730 42.53        39.4 0.06                            21 202 
 BAR2 SZ ES   2   1730 55.88                             171    -0.9 5   21 202 
 BTL  SZ EP   1   1730 41.58                             170    -0.5 7   24 315 
 BRR  HZ EP   1   1730 44.16                             150     0.2 7   76 300 
 BRR  HZ I        1730 44.44        42.5 0.25                            76 300 
 BRR  HE ES   2   1731  0.98                             150     0.8 5   76 300 
 GUE  SZ EP   1   1730 46.89                             137    -0.7 7  119  10 
 GRA  SZ EP   1   1730 49.16                             135     1.1 7  128  15 
 GRA  SZ ES   2   1731  8.00                             135     0.4 5  128  15 
 GRA  SZ I        1731  9.96        20.6 0.36                           128  15 
 OCA  SZ EP   1   1730 50.76                             128    -0.6 7  164 352 
 NOR  SZ EP   1   1730 58.79                             117     0.2 6  236 236 
 NOR  SE ES   2   1731 26.78                             117     0.4 4  236 236 
 CHI  HZ EP   1   1731  0.26                             116     0.0 6  246 196 
 CHI  HE ES   2   1731 29.45                             116     0.3 4  246 196 
 CHI  HZ I        1731 33.50         4.8 0.35                           246 196 
 HEL  HZ EP   1   1731  2.55                             113    -0.8 6  275 257 
 HEL  HZ I        1731 41.34        10.5 0.60                           275 257 
 PRA  HZ EP   1   1731 16.84                             106     0.6 4  391 210 
 PRA  HE ES   2   1731 57.56                             106    -0.2 3  391 210 
                                                                                
