 2017 1111 1350 47.0 L   6.811 -73.149148.0  RSN 13 0.5 1.8LRSN                1
 GAP=111        0.88       3.3     3.7  6.5 -0.7808E+00  0.1976E+01  0.7959E+01E
 Epicentro: LOS SANTOS - SANTANDER                                             3
 ACTION:UPD 17-12-12 19:54 OP:rebc STATUS:               ID:20171111135047 L   I
 OLDACT:UP  17-11-11 23:21 OP:mg   STATUS:               ID:20171111134740d    3
 OLDACT:DUP 17-11-11 23:12 OP:mg   STATUS:               ID:20171111134740d    3
 OLDACT:UP  17-11-11 23:12 OP:mg   STATUS:               ID:20171111134739     3
 OLDACT:REG 17-11-11 20:41 OP:mg   STATUS:               ID:20171111134739     3
 2017-11-11-1348-00M.COL___456                                                 6
 STAT SP IPHASW D HRMM SECON CODA AMPLIT PERI AZIMU VELO AIN AR TRES W  DIS CAZ7
 BAR2 EZ EP       1351  6.80                             170   -0.1110 24.4 189 
 BAR2 EZ ES   2   1351 21.91                             170   -0.54 5 24.4 189 
 BAR2 EZ I        1351 23.09        16.9 0.16            169           24.4 189 
 BRR  HZ EP       1351  8.51                             153    0.1810 70.3 298 
 BRR  HN ES       1351 25.86                             153    0.8910 70.3 298 
 BRR  HZ I        1351 28.27        22.2 0.26            151           70.3 298 
 PAM  EZ EP       1351  9.42                             152    0.0210 76.7  40 
 PAM  EN ES       1351 26.75                             152   -0.1310 76.7  40 
 PAM  EZ I        1351 29.02         7.8 0.47            154           76.7  40 
 RUS  HZ EP       1351 10.86                             144   -0.1910  102 176 
 RUS  HN ES       1351 29.67                             144   -0.1410  102 176 
 RUS  HZ I        1351 30.58        11.4 0.31            144            102 176 
 PTB  HZ EP   1   1351 13.67                             133   -0.46 7  148 258 
 PTB  HN ES   1   1351 34.76                             133   -0.53 7  148 258 
 PTB  HZ I        1351 36.56         4.9 0.12            131            148 258 
 SPBC HN ES   2   1351 37.62                             130   -0.52 5  164 219 
 SPBC HZ I        1351 42.00         9.3 0.15            129            164 219 
 YPLC HZ EP       1351 17.23                             127    0.17 9  178 151 
 ZAR  HN ES       1351 44.43                             123   -0.42 9  203 292 
 ZAR  HZ I        1351 49.97         7.8 0.42            122            203 292 
 NOR  HN ES   1   1351 50.51                             119   -0.38 6  235 234 
 NOR  HZ I        1351 56.35         3.4 0.22            119            235 234 
 CHI  HN ES       1351 54.52                             118    0.01 8  250 195 
 CHI  HZ I        1351 56.68         3.9 0.36            118            250 195 
 ROSC BN ES       1351 55.93                             117    0.71 8  254 211 
 GUY2CHN ES   3   1352  7.19                             113    2.32 2  302 235 
 GUY2CHZ I        1352 13.04         3.1 0.34                           302 235 
 PRA  HZ EP   1   1351 40.63                             107   -0.05 4  393 209 
 PRA  HN ES   1   1352 22.66                             107    0.09 4  393 209 
 PRA  HZ I        1352 31.53         2.7 0.33            107            393 209 
                                                                                
