 2012  911 1310 21.5 L   6.765 -73.145151.4  RSN  7 0.4 1.7LRSN                1
 GAP=138        0.72       4.8     4.4  6.7  0.1551E+01  0.2896E+01  0.1424E+01E
 Epicentro: LOS SANTOS - SANTANDER                                             3
 ACTION:UPD 12-10-22 14:18 OP:ep   STATUS:               ID:20120911131021 L   I
 2012-09-11-1310-00M.COL___226                                                 6
 STAT SP IPHASW D HRMM SECON CODA AMPLIT PERI AZIMU VELO AIN AR TRES W  DIS CAZ7
 BAR2 SZ EP   1   1310 41.89                             172    0.15 7 19.5 192 
 BAR2 SZ ES   1   1310 57.41                             172   -0.11 7 19.5 192 
 BAR2 SZ I        1310 58.46        15.7 0.38                          19.5 192 
 GIR2 SZ EP   1   1310 41.83                             166   -0.12 7 35.1 351 
 GIR2 SZ ES   1   1310 58.04                             166    0.15 7 35.1 351 
 BRR  HZ EP   1   1310 43.53                             153    0.16 7 73.2 301 
 BRR  HZ I        1310 43.87        10.7 0.29                          73.2 301 
 BRR  HN ES   1   1311  0.95                             153    0.52 7 73.2 301 
 PAM  SZ EP   1   1310 44.59                             151    0.10 7 80.4  38 
 PAM  SZ I        1310 44.74        14.0 0.20                          80.4  38 
 PAM  SN ES   1   1311  1.88                             151   -0.54 7 80.4  38 
 RUS  HZ EP   1   1310 45.45                             146   -0.09 7 96.7 176 
 RUS  HE ES   1   1311  4.59                             146    0.30 7 96.7 176 
 RUS  HZ I        1311  4.97         3.9 0.34                          96.7 176 
 PTB  HN ES   1   1311  9.40                             133   -0.83 7  147 260 
 PTB  HN I        1311 11.05         8.0 0.18                           147 260 
 ZAR  HN ES   1   1311 20.47                             123    0.27 6  206 293 
 ZAR  HZ I        1311 27.04         3.5 0.13                           206 293 
                                                                                
