 2016 1111 1814 32.8 L   6.795 -73.149146.3  RSN  9 0.5 2.4LRSN                1
 GAP=150        1.19       6.5     5.5  7.7 -0.1056E+02  0.1018E+02  0.1351E+02E
 Epicentro: LOS SANTOS - SANTANDER                                             3
 ACTION:UPD 17-10-26 21:06 OP:lp   STATUS:               ID:20161111181432 L   I
 OLDACT:UP  16-11-12 00:41 OP:dnl  STATUS:               ID:20161111175906     3
 OLDACT:REG 16-11-11 21:32 OP:dnl  STATUS:               ID:20161111175906     3
 2016-11-11-1808-00M.COL___343                                                 6
 STAT SP IPHASW D HRMM SECON CODA AMPLIT PERI AZIMU VELO AIN AR TRES W  DIS CAZ7
 BAR2 EZ EP       1814 52.50                             171   -0.0210 22.8 189 
 BAR2 EZ ES       1815  7.16                             171   -0.7210 22.8 189 
 BAR2 EZ I        1815  8.56        66.6 0.32            174           22.8 189 
 BRR  HZ IP     C 1814 54.29                             153    0.2510 71.1 299 
 BRR  HN ES       1815 11.53                             153    0.9510 71.1 299 
 BRR  HZ I        1815 14.51        38.3 0.28            144           71.1 299 
 PAM  EZ EP       1814 55.28                             151    0.1310 78.0  39 
 PAM  EN ES       1815 12.66                             151    0.1110 78.0  39 
 PAM  EZ I        1815 15.14        17.9 0.40            144           78.0  39 
 PTB  HZ EP       1814 59.08                             132   -0.73 9  147 259 
 PTB  HN ES       1815 20.37                             132   -0.48 9  147 259 
 PTB  HZ I        1815 22.20        31.9 0.42            127            147 259 
 ZAR  HZ EP       1815  5.07                             122   -0.24 9  204 292 
 ZAR  HN ES       1815 30.36                             122   -0.27 9  204 292 
 ZAR  HZ I        1815 35.67        25.7 0.34            117            204 292 
 NOR  HZ EP       1815  8.60                             119    0.06 8  234 235 
 NOR  HE ES       1815 36.82                             119    0.44 8  234 235 
 NOR  HZ I        1815 41.32        12.1 0.50            115            234 235 
 ORTC HZ EP       1815 26.94                             106    0.24 6  395 216 
 ORTC HN ES       1816  9.65                             106    0.93 6  395 216 
 ORTC HZ I        1816 13.91         7.9 0.22            103            395 216 
 SJC  HZ EP   4   1815 26.07                             106   -2.37 0  409 327 
 SJC  HZ I        1816  1.96        10.0 0.26            102            409 327 
 SJC  HN ES   4   1816  7.14                             106   -4.68 0  409 327 
 CRJC HZ EP   4   1815 33.03                             103   -2.38 0  468   4 
 CRJC HN ES   4   1816 19.61                             103   -4.61 0  468   4 
 CRJC HZ I        1816 23.76         6.1 0.18                           468   4 
                                                                                
