 2015  411 1849 37.6 L   6.819 -73.127144.5  RSN  8 0.4 2.0LRSN                1
 GAP=138        1.05       4.3     4.8  7.4 -0.2557E+01  0.3275E+01  0.3435E+01E
 Epicentro: LOS SANTOS - SANTANDER                                             3
 ACTION:UPD 15-06-03 16:54 OP:cam  STATUS:               ID:20150411184937 L   I
 OLDACT:UP  15-04-11 23:39 OP:mher STATUS:               ID:20150411184749     3
 OLDACT:REG 15-04-11 20:02 OP:mh   STATUS:               ID:20150411184749     3
 2015-04-11-1847-49M.COL___266                                                 6
 STAT SP IPHASW D HRMM SECON CODA AMPLIT PERI AZIMU VELO AIN AR TRES W  DIS CAZ7
 BAR2 EZ EP       1849 56.72                             169   -0.3610 25.8 194 
 BAR2 EZ ES       1850 12.62                             169    0.3110 25.8 194 
 BAR2 EZ I        1850 13.81        14.3 0.16            168           25.8 194 
 BRR  HZ EP       1849 58.88                             152    0.2710 72.1 296 
 BRR  HN ES       1850 15.25                             152    0.2110 72.1 296 
 BRR  HZ I        1850 19.79        15.0 0.07            152           72.1 296 
 PAM  SZ EP       1849 59.79                             152    0.3310 74.5  39 
 PAM  SN ES   1   1850 16.51                             152   -0.03 7 74.5  39 
 PAM  SZ I        1850 19.00        27.3 0.55            156           74.5  39 
 RUS  HZ EP       1850  0.91                             143   -0.4010  103 177 
 PTB  HN ES       1850 24.84                             131   -0.92 9  150 258 
 OCA  HN ES       1850 26.93                             130   -0.54 9  158 352 
 SPBC HZ EP       1850  6.21                             128   -0.02 9  166 219 
 SPBC HN ES       1850 28.96                             128    0.37 9  166 219 
 SPBC HZ I        1850 35.25         8.0 0.13            130            166 219 
 ZAR  HZ EP       1850 10.54                             122    0.51 8  205 291 
 ZAR  HN ES       1850 35.70                             122    0.33 8  205 291 
 ZAR  HZ I        1850 40.93        10.0 0.36            124            205 291 
                                                                                
