 2017  711 1952 52.4 L   6.687 -73.128124.0  RSN  6 0.3 1.8LRSN                1
 GAP=264        0.78       5.4     5.3  5.7 -0.7721E+01  0.1039E+02  0.5352E+01E
 Epicentro: VILLANUEVA - SANTANDER                                             3
 ACTION:UPD 17-08-30 15:32 OP:rebc STATUS:               ID:20170711195252 L   I
 OLDACT:UP  17-07-12 00:31 OP:dhb  STATUS:               ID:20170711194741     3
 OLDACT:REG 17-07-11 21:35 OP:dhb  STATUS:               ID:20170711194741     3
 2017-07-11-1948-00M.COL___377                                                 6
 STAT SP IPHASW D HRMM SECON CODA AMPLIT PERI AZIMU VELO AIN AR TRES W  DIS CAZ7
 BAR2 EZ EP       1953  8.92                             174   -0.3010 12.1 210 
 BAR2 EZ ES       1953 22.60                             174    0.2610 12.1 210 
 BAR2 EZ I        1953 24.65        22.6 0.16            173           12.1 210 
 BRR  HZ EP       1953 11.32                             145   -0.4910 79.6 306 
 BRR  HN ES       1953 27.32                             145    0.3710 79.6 306 
 BRR  HZ I        1953 30.90        26.2 0.38            143           79.6 306 
 PTB  HZ EP       1953 17.72                             127    0.02 9  148 264 
 PTB  HN ES       1953 37.10                             127   -0.33 9  148 264 
 PTB  HZ I        1953 38.67         4.4 0.08            127            148 264 
 ZAR  HZ EP       1953 24.55                             116    0.27 8  211 295 
 ZAR  HE ES   3   1953 48.32                             116   -0.82 2  211 295 
 ZAR  HZ I        1953 53.98         4.4 0.14            117            211 295 
 NOR  HN ES       1953 52.88                             114    0.01 8  229 237 
 GUY2CHZ EP       1953 35.06                             108    0.58 7  296 237 
 GUY2CHE ES       1954  7.24                             108   -0.06 7  296 237 
 GUY2CHZ I        1954 15.37         2.4 0.28                           296 237 
                                                                                
