 2010  811 1327 40.9 L   6.927 -72.941133.6  RSN  3 0.2 1.6LRSN                1
 GAP=265        0.60       9.5    16.4  9.8  0.1392E+03 -0.1212E+03 -0.6372E+02E
 Epicentro: SANTA BARBARA - SANTANDER                                          3
 ACTION:UP  10-09-07 10:54 OP:vdl  STATUS:               ID:20100811132741 L   I
 2010-08-11-1323-43S.COL___127                                                 6
 STAT SP IPHASW D HRMM SECON CODA AMPLIT PERI AZIMU VELO SNR AR TRES W  DIS CAZ7
 BAR2 SZ EP       1328  0.07                             160     0.210   46 216 
 BAR2 SZ ES   1   1328 14.35                             160    -0.2 7   46 216 
 BAR2 SZ I        1328 17.38         8.7 0.52                            46 216 
 BRR  HZ EP       1328  1.91                             145     0.010   88 283 
 BRR  HN ES       1328 18.16                             145     0.010   88 283 
 BRR  HZ I        1328 19.81        15.2 0.57                            88 283 
 RUS  HZ EP       1328  4.44                             137    -0.310  116 188 
 RUS  HN ES       1328 23.41                             137     0.210  116 188 
 RUS  HZ I        1328 25.34         4.3 0.45                           116 188 
                                                                                
