 2014  511 1104 16.0 L   6.807 -73.188139.1  RSN  5 0.3 1.6LRSN                1
 GAP=131        0.66       2.9     3.4  6.5 -0.3352E+01  0.9521E+01 -0.5414E+01E
 Epicentro: ZAPATOCA - SANTANDER                                               3
 OLDACT:REG 14-05-11 20:44 OP:mh   STATUS:               ID:20140511110000     3
 ACTION:UPD 15-03-16 16:56 OP:nd   STATUS:               ID:20140511110416 L   I
 OLDACT:UP  14-05-11 22:36 OP:com  STATUS:               ID:20140511110000     3
 OLDACT:UP  14-05-11 22:36 OP:com  STATUS:               ID:20140511110000     3
 OLDACT:UP  14-05-11 22:35 OP:com  STATUS:               ID:20140511110000     3
 OLDACT:UP  14-05-11 22:35 OP:com  STATUS:               ID:20140511110000     3
 OLDACT:UP  14-05-11 22:34 OP:com  STATUS:               ID:20140511110000     3
 2014-05-11-1100-00M.COL___273                                                 6
 STAT SP IPHASW D HRMM SECON CODA AMPLIT PERI AZIMU VELO AIN AR TRES W  DIS CAZ7
 PAM  SZ EP       11 4 38.08                             149    0.3910 79.8  42 
 PAM  SN ES       11 4 54.58                             149   -0.0010 79.8  42 
 PAM  SZ I        11 4 56.13         4.4 0.40            151           79.8  42 
 RUS  HZ EP       11 4 39.13                             142   -0.0810  102 173 
 RUS  HN ES       11 4 57.05                             142   -0.2510  102 173 
 RUS  SZ I        11 4 58.53         5.1 0.40            146            102 173 
 PTB  HZ EP       11 4 42.35                             131    0.30 9  143 258 
 PTB  HN ES       11 5  2.54                             131    0.19 9  143 258 
 PTB  SZ I        11 5  5.07         4.4 0.12            133            143 258 
 NOR  HN ES       11 5 18.11                             117   -0.20 8  231 234 
 SML  HZ EP       11 4 51.69                             116   -0.31 8  241 336 
 SML  HE ES   1   11 5 19.61                             116   -0.45 6  241 336 
 SML  SZ I        11 5 23.40         6.6 0.10            118            241 336 
                                                                                
