 2014  311 1643 40.7 L   6.778 -73.136145.9  RSN 13 0.5 2.3LRSN                1
 GAP=139        1.32       3.8     5.3  6.9 -0.1140E+01  0.9884E+01  0.1219E+01E
 Epicentro: LOS SANTOS - SANTANDER                                             3
 ACTION:UPD 14-04-09 23:16 OP:nd   STATUS:               ID:20140311164340 L   I
 OLDACT:REG 14-03-11 17:20 OP:nd   STATUS:               ID:20140311164043     3
 2014-03-11-1640-43M.COL___244                                                 6
 STAT SP IPHASW D HRMM SECON CODA AMPLIT PERI AZIMU VELO AIN AR TRES W  DIS CAZ7
 BAR2 SZ EP       1644  0.45                             171    0.1210 21.2 194 
 BAR2 SZ ES       1644 14.51                             171   -1.1110 21.2 194 
 BAR2 SZ I        1644 18.38        62.4 0.40            173           21.2 194 
 BRR  HZ EP       1644  2.42                             152    0.4110 73.3 300 
 BRR  HN ES       1644 19.65                             152    1.0410 73.3 300 
 BRR  HZ I        1644 21.67        18.5 0.40            146           73.3 300 
 PAM  SZ EP       1644  3.30                             150    0.2710 78.6  38 
 PAM  SN ES       1644 20.48                             150    0.0510 78.6  38 
 PAM  SZ I        1644 22.70        32.1 0.54            143           78.6  38 
 RUS  HZ EP       1644  4.34                             145    0.0310 98.1 177 
 RUS  HN ES       1644 23.00                             145    0.2910 98.1 177 
 RUS  HZ I        1644 24.81        20.2 0.28            140           98.1 177 
 PTB  HZ EP       1644  7.35                             132   -0.41 9  148 260 
 PTB  HN ES       1644 28.17                             132   -0.67 9  148 260 
 PTB  HZ I        1644 34.63        18.7 0.42            126            148 260 
 SPBC HZ EP       1644  9.32                             129    0.20 9  162 220 
 SPBC HN ES       1644 31.38                             129    0.11 9  162 220 
 SPBC HZ I        1644 34.28        28.5 0.18            124            162 220 
 ZAR  HZ EP       1644 12.72                             122   -0.65 8  206 293 
 ZAR  HN ES       1644 38.83                             122   -0.01 8  206 293 
 ZAR  HZ I        1644 44.78        16.6 0.32            116            206 293 
 NOR  HZ EP       1644 16.25                             119   -0.15 8  234 235 
 NOR  HN ES       1644 44.66                             119    0.43 8  234 235 
 NOR  HZ I        1644 48.11        18.6 0.20            113            234 235 
 SML  HZ EP       1644 16.72                             117   -0.92 8  246 335 
 SML  HN ES       1644 46.67                             117    0.23 8  246 335 
 SML  HZ I        1644 49.00        27.7 0.10            111            246 335 
 CHI  HZ EP       1644 18.32                             117    0.12 8  247 196 
 CHI  HN ES       1644 47.01                             117   -0.43 8  247 196 
 CHI  HZ I        1644 57.84         7.4 0.34            112            247 196 
 URE  HZ EP   4   1644 20.63                             113   -1.38 0  286 292 
 URE  HN ES   4   1644 51.60                             113   -2.62 0  286 292 
 URE  HZ I        1645  2.64         7.8 0.16            108            286 292 
 GUY2CHZ EP       1644 25.28                             112    1.00 7  301 235 
 GUY2CHN ES   4   1645  2.05                             112    3.80 0  301 235 
 GUY2CHZ I        1645  4.83        10.3 0.28                           301 235 
 COD  HZ EP   4   1644 28.66                             109   -0.73 0  351 354 
 COD  HZ I        1645  5.56         4.2 0.52            103            351 354 
 COD  HN ES   4   1645  7.04                             109   -0.32 0  351 354 
                                                                                
