 2012  211 1028 12.8 L   6.761 -73.237157.4  RSN  5 0.2 1.7LRSN                1
 GAP=154        0.47       7.9     4.3  8.1  0.2824E+01 -0.6423E+01  0.2200E+02E
 ACTION:UP  12-03-07 16:29 OP:epov STATUS:               ID:20120211102812 L   I
 2012-02-11-1020-00M.COL___188                                                 6
 STAT SP IPHASW D HRMM SECON CODA AMPLIT PERI AZIMU VELO AIN AR TRES W  DIS CAZ7
 BAR2 SZ EP   1   1028 33.43                             173   -0.30 7 19.6 162 
 GIR2 SZ EP   1   1028 34.04                             167    0.10 7 35.5   8 
 BRR  HN ES   1   1028 52.24                             156    0.13 7 65.0 306 
 BRR  HZ I        1029  3.10        11.1 0.35                          65.0 306 
 PTB  HZ EP   1   1028 40.08                             137    0.29 7  137 260 
 PTB  HE ES   1   1029  0.82                             137   -0.05 7  137 260 
 PTB  HZ I        1029  3.82         0.0 0.13                           137 260 
 ZAR  HN ES   1   1029 10.37                             126   -0.21 6  196 294 
 ZAR  HZ I        1029 18.74         2.9 0.16                           196 294 
                                                                                
