 2012 1211 1708 57.0 L   6.798 -73.128153.2  RSN  8 0.4 1.9LRSN                1
 GAP=139        1.15       4.9     5.7  7.3  0.5495E+01  0.1450E+02  0.6171E+00E
 Epicentro: LOS SANTOS - SANTANDER                                             3
 ACTION:UPD 13-01-04 14:27 OP:ep   STATUS:               ID:20121211170857 L   I
 2012-12-11-1705-50M.COL___206                                                 6
 STAT SP IPHASW D HRMM SECON CODA AMPLIT PERI AZIMU VELO AIN AR TRES W  DIS CAZ7
 BAR2 SZ EP       17 9 17.68                             171    0.1810 23.6 195 
 BAR2 SZ ES       17 9 33.59                             171    0.0810 23.6 195 
 BAR2 SZ I        17 9 34.28        13.0 0.36                          23.6 195 
 GIR2 SZ EP       17 9 17.86                             168    0.3210 31.8 347 
 GIR2 SZ ES       17 9 33.68                             168    0.1010 31.8 347 
 BRR  HZ EP       17 9 19.55                             153    0.5310 73.0 298 
 BRR  HE ES       17 9 37.03                             153    0.8110 73.0 298 
 PAM  SE ES       17 9 37.41                             152   -0.4110 76.3  38 
 RUS  HZ EP       17 9 21.61                             145    0.1710  100 177 
 RUS  HN ES       17 9 39.90                             145   -0.6210  100 177 
 RUS  HN I        17 9 41.89         6.3 0.20                           100 177 
 PTB  HZ EP       17 9 24.50                             133   -0.22 9  150 259 
 PTB  HN ES       17 9 45.82                             133   -0.54 9  150 259 
 PTB  HN I        17 9 51.01        14.4 0.52                           150 259 
 ZAR  HZ EP       17 9 30.25                             124    0.15 8  206 292 
 ZAR  HN ES       17 9 55.88                             124   -0.05 8  206 292 
 ZAR  HN I        1710  3.62        10.2 0.30                           206 292 
 SML  HN ES       1710  2.18                             119   -0.93 8  245 335 
                                                                                
