 2014  811 1054 22.2 L   6.786 -73.140142.1  RSN 15 0.4 1.8LRSN                1
 GAP=138        0.99       3.1     4.3  6.5 -0.2533E+01  0.5332E+01  0.6040E+00E
 Epicentro: LOS SANTOS - SANTANDER                                             3
 ACTION:UPD 14-09-15 21:48 OP:nd   STATUS:               ID:20140811105422 L   I
 OLDACT:REG 14-08-11 19:43 OP:spq  STATUS:               ID:20140811104818     3
 2014-08-11-1048-18M.COL___260                                                 6
 STAT SP IPHASW D HRMM SECON CODA AMPLIT PERI AZIMU VELO AIN AR TRES W  DIS CAZ7
 BAR2 SZ IP     D 1054 41.43                             171    0.0510 21.9 192 
 BAR2 SZ ES   1   1054 56.42                             171    0.09 7 21.9 192 
 BAR2 SZ I        1054 57.15        16.8 0.32            172           21.9 192 
 BRR  HZ EP       1054 43.41                             151    0.3610 72.5 299 
 BRR  HN ES       1054 59.87                             151    0.5710 72.5 299 
 BRR  HZ I        1055  4.33        12.6 0.28            149           72.5 299 
 PAM  SZ EP       1054 44.48                             150    0.3810 78.2  38 
 PAM  SN ES   1   1055  0.95                             150   -0.21 7 78.2  38 
 PAM  SZ I        1055  3.68         8.5 0.28            151           78.2  38 
 RUS  HZ EP   1   1054 45.49                             143   -0.01 7 99.0 176 
 RUS  HE ES   1   1055  3.28                             143   -0.38 7 99.0 176 
 RUS  HZ I        1055  4.61         6.4 0.26            146           99.0 176 
 PTB  HZ EP   1   1054 48.26                             131   -0.66 7  148 259 
 PTB  HN ES       1055  8.92                             131   -0.83 9  148 259 
 PTB  HZ I        1055 11.94         5.7 0.26            131            148 259 
 OCA  HE ES       1055 11.81                             128   -0.57 9  162 353 
 OCA  HZ I        1055 19.59         7.8 0.30            129            162 353 
 SPBC HN ES       1055 12.30                             128   -0.01 9  162 219 
 SPBC HZ I        1055 14.31         8.5 0.18            129            162 219 
 ZAR  HZ EP       1054 54.81                             121    0.26 9  205 292 
 ZAR  HN ES       1055 20.36                             121    0.60 9  205 292 
 ZAR  HZ I        1055 25.96         3.6 0.36            121            205 292 
 NOR  HN ES       1055 25.53                             118    0.16 8  234 235 
 NOR  HZ I        1055 27.20         4.2 0.18            119            234 235 
 SML  HZ EP   1   1054 58.19                             116   -0.63 6  245 335 
 SML  HN ES   1   1055 26.96                             116   -0.41 6  245 335 
 SML  HZ I        1055 32.26         9.7 0.06            117            245 335 
 GUY2CHZ EP   4   1055  8.18                             112    2.57 0  301 235 
 GUY2CHE ES   4   1055 42.18                             112    2.71 0  301 235 
 GUY2CHZ I        1055 46.79         2.8 0.26                           301 235 
 TOL  SN ES   4   1055 50.17                             109    2.45 0  343 225 
 TOL  SZ I        1055 56.83         5.5 0.44            110            343 225 
 MON  HN ES   4   1055 47.94                             108   -1.55 0  355 309 
 MON  HZ I        1055 49.06         1.4 0.26            108            355 309 
 PRA  HZ EP       1055 16.06                             106    0.57 6  391 210 
 PRA  HN ES       1055 56.71                             106   -0.34 6  391 210 
 PRA  HZ I        1055 59.94         1.8 0.30            107            391 210 
 SJC  HZ EP   4   1055 15.97                             105   -1.88 0  411 327 
 SJC  HN ES   4   1055 58.02                             105   -3.23 0  411 327 
 SJC  HZ I        1056  1.19         1.3 0.60            106            411 327 
                                                                                
