 2013  311 1711 15.5 L   6.750 -73.157148.1  RSN  5 0.3 1.7LRSN                1
 GAP=137        0.64       5.6     5.2  6.7  0.6404E+01 -0.2824E+01 -0.6193E+01E
 Epicentro: LOS SANTOS - SANTANDER                                             3
 ACTION:UPD 13-04-09 14:01 OP:ep   STATUS:               ID:20130311171115 L   I
 2013-03-11-1710-00M.COL___231                                                 6
 STAT SP IPHASW D HRMM SECON CODA AMPLIT PERI AZIMU VELO AIN AR TRES W  DIS CAZ7
 BAR2 SZ EP   1   1711 35.33                             173    0.02 7 17.7 189 
 BAR2 SZ ES   1   1711 50.39                             173   -0.37 7 17.7 189 
 BAR2 SZ I        1711 53.45        15.2 0.40            166           17.7 189 
 BRR  HZ EP   1   1711 37.21                             152    0.21 7 72.9 303 
 BRR  HZ I        1711 39.77         9.7 0.48            147           72.9 303 
 BRR  HN ES   1   1711 54.27                             152    0.51 7 72.9 303 
 PAM  SZ EP   1   1711 37.90                             150   -0.37 7 82.5  38 
 PAM  SZ I        1711 57.53         6.0 0.46            132           82.5  38 
 RUS  HZ EP   1   1711 39.45                             146    0.35 7 95.2 175 
 RUS  HE ES   1   1711 57.61                             146    0.10 7 95.2 175 
 RUS  HE I        1712  0.17        10.1 0.27            145           95.2 175 
 PTB  HZ EP   1   1711 42.31                             133   -0.15 7  146 261 
 PTB  HE ES   1   1712  3.12                             133   -0.37 7  146 261 
 PTB  HZ I        1712  5.38         5.1 0.13            133            146 261 
                                                                                
