 2015  111 1156 28.2 L   6.818 -73.093146.3  RSN  7 0.6 1.7LRSN                1
 GAP=188        1.33       5.1     8.0  9.7  0.8457E+01 -0.3073E+01 -0.1551E+02E
 Epicentro: LOS SANTOS - SANTANDER                                             3
 ACTION:UPD 15-03-02 15:38 OP:nd   STATUS:               ID:20150111115628 L   I
 OLDACT:UP  15-01-11 21:29 OP:mh   STATUS:               ID:20150111114747     3
 OLDACT:UP  15-01-11 21:29 OP:mh   STATUS:               ID:20150111114747     3
 OLDACT:REG 15-01-11 20:28 OP:mh   STATUS:               ID:20150111114747     3
 2015-01-11-1147-47M.COL___252                                                 6
 STAT SP IPHASW D HRMM SECON CODA AMPLIT PERI AZIMU VELO AIN AR TRES W  DIS CAZ7
 BAR2 EZ EP   1   1156 48.43                             169    0.47 7 26.9 202 
 BAR2 EZ ES   1   1157  3.26                             169   -0.12 7 26.9 202 
 BAR2 EZ I        1157  6.84         5.7 0.42            166           26.9 202 
 BRR  HZ I        1156 50.28        11.8 0.26            146           75.5 295 
 BRR  HZ EP       1156 50.44                             151    0.7910 75.5 295 
 BRR  HN ES       1157  7.02                             151    0.6410 75.5 295 
 RUS  HZ EP       1156 52.51                             143    0.3910  102 179 
 RUS  HN ES       1157 10.43                             143   -0.3610  102 179 
 RUS  HZ I        1157 11.78         3.9 0.22            136            102 179 
 PTB  HZ EP       1156 55.07                             131   -0.69 9  154 259 
 PTB  HN ES       1157 16.73                             131   -0.54 9  154 259 
 PTB  HZ I        1157 18.44         8.0 0.16            124            154 259 
 OCA  HZ EP       1156 56.25                             130   -0.18 9  159 351 
 OCA  HN ES       1157 17.50                             130   -0.96 9  159 351 
 OCA  HZ I        1157 20.49         4.1 0.22            123            159 351 
 ZAR  HZ EP   1   1157  1.55                             122    0.39 6  209 291 
 ZAR  HN ES   1   1157 26.94                             122    0.07 6  209 291 
 ZAR  HZ I        1157 34.95         5.0 0.30            115            209 291 
 SML  HZ EP       1157  4.50                             117   -0.43 8  244 334 
 SML  HN ES       1157 34.27                             117    0.70 8  244 334 
 SML  HZ I        1157 41.97         4.8 0.10            111            244 334 
                                                                                
