 2014  611 1032  6.8 L   7.459 -73.098150.0  RSN 11 0.5 2.2LRSN                1
 GAP=122        0.90       3.4     4.3  6.3 -0.4077E+00  0.1191E+02  0.3695E+01E
 Epicentro: EL PLAYON - SANTANDER                                              3
 ACTION:UPD 14-07-01 22:52 OP:nd   STATUS:               ID:20140611103206 L   I
 OLDACT:REG 14-06-11 20:10 OP:spq  STATUS:               ID:20140611102818     3
 2014-06-11-1028-18M.COL___253                                                 6
 STAT SP IPHASW D HRMM SECON CODA AMPLIT PERI AZIMU VELO AIN AR TRES W  DIS CAZ7
 PAM  SZ EP       1032 28.09                             163    0.1410 45.9 107 
 PAM  SN ES       1032 44.54                             163    0.0910 45.9 107 
 PAM  SZ I        1032 45.95        39.1 0.26            169           45.9 107 
 OCA  HZ EP       1032 29.91                             148    0.1710 89.6 344 
 OCA  HN ES       1032 48.26                             148    0.6210 89.6 344 
 BAR2 SZ EP       1032 30.04                             146   -0.2710 96.3 186 
 BAR2 SZ ES   1   1032 48.25                             146   -0.39 7 96.3 186 
 BAR2 SZ I        1032 49.29        48.4 0.34            144           96.3 186 
 PTB  HZ EP       1032 36.80                             127   -0.46 9  181 236 
 PTB  HN ES       1033  1.03                             127    0.01 9  181 236 
 PTB  HZ I        1033  7.99        15.6 0.26            126            181 236 
 SML  HZ EP       1032 36.95                             127   -0.46 9  183 324 
 SML  HN ES       1033  0.57                             127   -0.72 9  183 324 
 SML  HZ I        1033  2.53        33.3 0.12            128            183 324 
 ZAR  HZ EP       1032 38.59                             125    0.05 9  194 271 
 ZAR  HN ES       1033  3.81                             125    0.52 9  194 271 
 ZAR  HZ I        1033 13.20        16.4 0.14            124            194 271 
 URE  HE ES   4   1033 15.09                             116   -2.58 0  271 277 
 NOR  HZ EP   4   1032 50.00                             114    1.53 0  287 223 
 NOR  HZ I    4   1033 28.66         6.0 0.26            115            287 223 
 HEL  HZ EP   1   1032 50.18                             113   -0.50 5  303 243 
 HEL  HN ES   1   1033 24.75                             113   -0.16 5  303 243 
 HEL  HZ I        1033 34.71         5.9 0.30            113            303 243 
 GUY2CHZ EP   1   1032 57.15                             110    0.76 5  352 226 
 GUY2CHN ES   1   1033 35.70                             110    0.63 5  352 226 
 GUY2CHZ I        1033 43.35         3.2 0.36                           352 226 
 CBOC HZ EP   1   1032 58.72                             109    0.96 5  367 241 
 CBOC HN ES   2   1033 36.54                             109   -0.98 3  367 241 
 CBOC HZ I        1033 41.62         2.2 0.48            109            367 241 
 RREF HN ES   2   1033 40.91                             108    0.41 3  377 221 
 RREF HZ I        1033 54.78         3.4 0.22            109            377 221 
 PRA  HZ EP   1   1033  8.55                             104    0.21 4  459 206 
 PRA  HN ES   4   1033 53.21                             104   -3.13 0  459 206 
 PRA  HZ I        1033 58.83         2.6 0.22            106            459 206 
                                                                                
