 2017 1111 1722 59.3 L   6.749 -73.150141.4  RSN  5 0.4 1.1LRSN                1
 GAP=138        0.96       5.0     5.1  7.8 -0.2132E+01 -0.4661E+00  0.1150E+01E
 Epicentro: LOS SANTOS - SANTANDER                                             3
 ACTION:UPD 17-12-12 19:54 OP:rebc STATUS:               ID:20171111172259 L   I
 OLDACT:REG 17-11-11 21:02 OP:mg   STATUS:               ID:20171111171742     3
 2017-11-11-1718-00M.COL___458                                                 6
 STAT SP IPHASW D HRMM SECON CODA AMPLIT PERI AZIMU VELO AIN AR TRES W  DIS CAZ7
 BAR2 EZ EP       1723 18.25                             172    0.0010 17.7 192 
 BAR2 EZ ES       1723 32.68                             172   -0.3910 17.7 192 
 BRR  HZ EP       1723 20.09                             151    0.0210 73.6 303 
 BRR  HN ES       1723 37.05                             151    0.7510 73.6 303 
 PAM  EZ EP       1723 21.17                             148   -0.1210 82.1  37 
 PAM  EN ES       1723 38.28                             148   -0.2010 82.1  37 
 PAM  EZ I        1723 40.29         3.1 0.46            149           82.1  37 
 RUS  HZ EP       1723 22.39                             144    0.2210 95.0 176 
 RUS  HN ES       1723 40.26                             144    0.2110 95.0 176 
 RUS  HZ I        1723 42.26         1.5 0.30            145           95.0 176 
 PTB  HE ES       1723 45.81                             131   -0.57 9  146 261 
                                                                                
