 2016 1111 1250 14.8 L   6.719 -73.132142.0  RSN  6 0.3 1.6LRSN                1
 GAP=167        0.74       6.0     3.6  5.7 -0.5113E+01  0.4876E+01  0.1007E+01E
 Epicentro: JORDAN - SANTANDER                                                 3
 ACTION:UPD 17-10-26 21:06 OP:lp   STATUS:               ID:20161111125014 L   I
 OLDACT:REG 16-11-11 21:15 OP:dnl  STATUS:               ID:20161111124749     3
 2016-11-11-1248-00M.COL___343                                                 6
 STAT SP IPHASW D HRMM SECON CODA AMPLIT PERI AZIMU VELO AIN AR TRES W  DIS CAZ7
 BAR2 EZ EP       1250 34.16                             174    0.3110 15.1 202 
 BAR2 EZ ES       1250 48.82                             174    0.1210 15.1 202 
 BAR2 EZ I        1250 50.39         8.5 0.20            171           15.1 202 
 BRR  HZ EP       1250 36.13                             150    0.2210 77.1 304 
 BRR  HN ES       1250 52.63                             150    0.2710 77.1 304 
 BRR  HZ I        1250 57.17        14.2 0.30            146           77.1 304 
 PAM  EZ EP       1250 37.12                             148    0.1010 83.6  35 
 PAM  EN ES       1250 53.91                             148   -0.4310 83.6  35 
 PAM  EZ I        1250 56.36         5.1 0.48            149           83.6  35 
 PTB  HZ EP       1250 40.92                             131   -0.56 9  148 262 
 PTB  HN ES       1251  1.96                             131   -0.32 9  148 262 
 PTB  HZ I        1251  5.58         4.8 0.10            130            148 262 
 ZAR  HZ EP   2   1250 47.44                             121   -0.09 4  209 294 
 ZAR  HN ES       1251 13.24                             121    0.19 8  209 294 
 ZAR  HZ I        1251 21.61         2.5 0.10            120            209 294 
 NOR  HZ EP   3   1250 50.95                             118    1.03 2  231 236 
 NOR  HE ES   3   1251 17.66                             118    0.36 2  231 236 
 NOR  HZ I        1251 20.69         2.6 0.40            119            231 236 
                                                                                
