 2010  711 1349  1.4 L   6.788 -73.074141.1  RSN 11 0.4 2.5LRSN                1
 GAP=164        0.71       3.4     6.8  6.4 -0.1013E+02  0.7287E+01  0.4343E+01E
 Epicentro: LOS SANTOS - SANTANDER                                             3
 ACTION:UPD 10-12-01 15:16 OP:pat  STATUS:               ID:20100711134901 L   I
 2010-07-11-1344-44S.COL___120                                                 6
 STAT SP IPHASW D HRMM SECON CODA AMPLIT PERI AZIMU VELO AIN AR TRES W  DIS CAZ7
 BAR2 SZ IP     D 1349 20.60                             169     0.110   25 209 
 BAR2 SZ ES   2   1349 35.44                             169     0.0 5   25 209 
 BAR2 SZ I        1349 36.64        80.3 0.32                            25 209 
 BRR  HZ IP     D 1349 22.51                             149     0.010   79 297 
 BRR  HE ES   2   1349 39.33                             149     0.3 5   79 297 
 BRR  HZ I        1349 43.89       111.6 0.18                            79 297 
 RUS  HZ EP   1   1349 24.59                             143     0.0 7   99 181 
 RUS  HN ES   2   1349 42.42                             143    -0.3 5   99 181 
 RUS  HZ I        1349 45.11        31.5 0.40                            99 181 
 BRI  SZ IP     D 1349 24.31                             141    -0.510  107  17 
 BRI  SZ ES   2   1349 43.00                             141     0.0 5  107  17 
 GUE  SZ EP   1   1349 25.79                             139     0.1 7  116   8 
 GUE  SZ ES   2   1349 44.85                             139     0.2 5  116   8 
 GRA  SZ EP   1   1349 26.60                             136     0.4 7  125  14 
 GRA  SZ ES   2   1349 45.57                             136     0.1 5  125  14 
 OCA  SZ EP   1   1349 29.28                             128    -0.3 7  163 350 
 OCA  SZ ES   2   1349 51.04                             128    -0.5 5  163 350 
 OCA  SZ I        1349 56.21        57.6 0.35                           163 350 
 CHI  HZ EP       1349 39.48                             116     0.5 8  250 197 
 HEL  HZ EP   1   1349 42.26                             113     0.0 6  279 256 
 HEL  HZ I        1350 17.69        12.1 0.36                           279 256 
 RREF HZ EP   1   1349 48.70                             110     0.7 5  327 230 
 RREF HN ES   2   1350 23.90                             110    -0.4 3  327 230 
 RREF HZ I        1350 28.78        12.9 0.61                           327 230 
 PRA  HZ EP   1   1349 54.50                             106    -0.6 4  395 211 
 PRA  HE ES   2   1350 35.89                             106    -1.1 3  395 211 
 PRA  HZ I        1350 42.01        13.4 0.80                           395 211 
                                                                                
