 2015  911 1830  0.1 L   6.790 -73.149140.0  RSN  6 0.3 1.7LRSN                1
 GAP=137        0.69       3.1     3.2  5.5 -0.1617E+01  0.7111E+01 -0.3431E+01E
 Epicentro: LOS SANTOS - SANTANDER                                             3
 ACTION:UPD 15-10-28 16:25 OP:cam  STATUS:               ID:20150911183000 L   I
 OLDACT:REG 15-09-11 20:28 OP:stll STATUS:               ID:20150911182749     3
 2015-09-11-1827-49M.COL___338                                                 6
 STAT SP IPHASW D HRMM SECON CODA AMPLIT PERI AZIMU VELO AIN AR TRES W  DIS CAZ7
 BAR2 EZ ES       1830 34.11                             171    0.3110 22.1 189 
 BAR2 EZ I        1830 35.57        14.7 0.20            170           22.1 189 
 PAM  EZ EP       1830 22.10                             149    0.2910 78.5  39 
 PAM  EZ I        1830 22.29         8.7 0.24            152           78.5  39 
 PAM  EN ES       1830 38.39                             149   -0.3310 78.5  39 
 RUS  HZ EP       1830 23.24                             143   -0.0010 99.5 176 
 RUS  HZ I        1830 24.10         4.1 0.46            143           99.5 176 
 RUS  HN ES       1830 41.15                             143   -0.1110 99.5 176 
 PTB  HZ EP       1830 26.08                             131   -0.50 9  147 259 
 PTB  HN ES       1830 47.15                             131   -0.06 9  147 259 
 PTB  HZ I        1830 49.90         5.1 0.12            131            147 259 
 SPBC HN ES       1830 49.98                             128    0.09 9  162 219 
 SPBC HZ I        1830 53.07         8.8 0.32            128            162 219 
 ZAR  HZ EP       1830 32.56                             121    0.34 9  204 292 
 ZAR  HN ES       1830 57.25                             121    0.01 9  204 292 
 ZAR  HZ I        1830 59.57         4.8 0.10            121            204 292 
                                                                                
