 2016  811 1349  0.4 L   6.799 -73.139131.9  RSN  7 0.4 1.9LRSN                1
 GAP=238        1.04       4.9     5.5  6.6  0.8408E+01  0.1126E+02  0.3237E+01E
 Epicentro: LOS SANTOS - SANTANDER                                             3
 ACTION:UPD 16-10-29 15:34 OP:rebc STATUS:               ID:20160811134900 L   I
 OLDACT:REG 16-08-11 20:51 OP:lv   STATUS:               ID:20160811134759     3
 2016-08-11-1347-59S.COL___340                                                 6
 STAT SP IPHASW D HRMM SECON CODA AMPLIT PERI AZIMU VELO AIN AR TRES W  DIS CAZ7
 BAR2 EZ IP     C 1349 18.30                             170   -0.0510 23.3 192 
 BAR2 EZ ES       1349 32.14                             170   -0.2110 23.3 192 
 BAR2 EZ I        1349 35.43        18.5 0.24                          23.3 192 
 BRR  HZ IP     C 1349 20.12                             150    0.0310 71.9 298 
 BRR  HN ES       1349 35.72                             150    0.2610 71.9 298 
 BRR  HZ I        1349 37.93        16.9 0.16                          71.9 298 
 RUS  HZ EP       1349 22.70                             141   -0.0810  100 176 
 RUS  HE ES       1349 40.78                             141    0.5310  100 176 
 RUS  HZ I        1349 43.27         4.5 0.19                           100 176 
 PTB  HZ EP       1349 25.41                             129   -0.91 9  148 259 
 PTB  HE ES       1349 46.22                             129   -0.33 9  148 259 
 PTB  HZ I        1349 48.06         8.4 0.12                           148 259 
 SPBC HZ EP       1349 27.37                             126   -0.52 9  163 219 
 SPBC HN ES       1349 49.25                             126   -0.09 9  163 219 
 SPBC HZ I        1349 56.12        11.1 0.10                           163 219 
 ZAR  HZ EP       1349 32.65                             119    0.61 9  205 292 
 ZAR  HE ES       1349 56.93                             119    0.20 9  205 292 
 ZAR  HZ I        1350  3.05        11.5 0.30                           205 292 
 GUY2CHZ EP       1349 44.13                             110    0.68 7  302 235 
 GUY2CHN ES       1350 17.37                             110    0.34 7  302 235 
 GUY2CHZ I        1350 24.72         4.9 0.42                           302 235 
                                                                                
