 2016  911 1937 54.8 L   6.809 -73.146146.6  RSN 14 0.3 2.5LRSN                1
 GAP=119        0.76       2.0     2.8  3.7 -0.1025E+01  0.9196E+00  0.1169E+01E
 Epicentro: LOS SANTOS - SANTANDER                                             3
 ACTION:UPD 17-08-17 21:08 OP:lp   STATUS:               ID:20160911193754 L   I
 OLDACT:DUP 16-09-11 22:32 OP:cara STATUS:               ID:20160911192737d    3
 2016-09-11-1928-00M.COL___300                                                 6
 STAT SP IPHASW D HRMM SECON CODA AMPLIT PERI AZIMU VELO AIN AR TRES W  DIS CAZ7
 BAR2 EZ IP     D 1938 14.62                             170    0.0610 24.2 189 
 BAR2 EZ ES       1938 29.86                             170   -0.1010 24.2 189 
 BAR2 EZ I        1938 31.32        57.4 0.18            170           24.2 189 
 BRR  HZ IP       1938 16.40                             153    0.3810 70.7 298 
 BRR  HN ES       1938 32.79                             153    0.2310 70.7 298 
 BRR  HZ I        1938 34.07        64.8 0.10            150           70.7 298 
 PAM  EZ EP       1938 17.43                             151    0.3510 76.7  40 
 PAM  EE ES       1938 34.75                             151    0.3110 76.7  40 
 PAM  EZ I        1938 36.69        99.8 0.54            153           76.7  40 
 RUS  HZ EP       1938 18.60                             144   -0.1210  102 176 
 RUS  HE ES       1938 37.23                             144   -0.1310  102 176 
 RUS  HZ I        1938 38.49        46.6 0.32            146            102 176 
 PTB  HZ EP       1938 21.67                             132   -0.19 9  148 258 
 PTB  HE ES       1938 42.98                             132    0.03 9  148 258 
 PTB  HZ I        1938 47.41        20.3 0.26            131            148 258 
 OCA  HZ EP       1938 22.79                             130   -0.31 9  159 353 
 OCA  HE ES       1938 44.66                             130   -0.50 9  159 353 
 OCA  HZ I        1938 54.35        53.7 0.18            130            159 353 
 SPBC HZ EP       1938 23.58                             129    0.14 9  164 219 
 SPBC HN ES       1938 45.41                             129   -0.36 9  164 219 
 SPBC HZ I        1938 47.32        59.5 0.18            129            164 219 
 ZAR  HZ EP       1938 27.24                             123   -0.03 9  204 292 
 ZAR  HE ES       1938 52.56                             123   -0.02 9  204 292 
 ZAR  HZ I        1938 59.61        20.8 0.14            122            204 292 
 NOR  HZ EP       1938 30.00                             119   -0.65 8  235 234 
 NOR  HE ES       1938 58.64                             119    0.05 8  235 234 
 NOR  HZ I        1939  6.29        20.7 0.50            119            235 234 
 CHI  HZ IP       1938 32.90                             117    0.24 8  250 195 
 CHI  HN ES       1939  2.12                             117   -0.05 8  250 195 
 CHI  HZ I        1939  5.82        17.2 0.60            118            250 195 
 ROSC BZ EP   4   1938 34.43                             117    1.37 0  254 211 
 ROSC BE ES   4   1939  3.75                             117    0.85 0  254 211 
 ROSC BZ I        1939  6.72        39.4 0.30            117            254 211 
 SOCV BZ EP       1938 37.53                             112   -0.32 7  301  57 
 SOCV BN ES   4   1939  9.38                             112   -2.04 0  301  57 
 GUY2CHZ EP     D 1938 39.51                             112    0.99 7  302 235 
 GUY2CHE ES   4   1939 13.93                             112    1.33 0  302 235 
 GUY2CHZ I        1939 20.75        13.8 0.34                           302 235 
 VIL  EZ EP       1938 38.58                             112    0.21 7  304 192 
 VIL  EE ES       1939 12.13                             112   -0.22 7  304 192 
 VIL  EZ I        1939 15.23        27.2 0.40            113            304 192 
                                                                                
