 2014 1011 1243 57.1 L   6.829 -73.143149.9  RSN  8 0.3 1.7LRSN                1
 GAP= 70        0.82       3.0     3.6  4.9 -0.1054E+00  0.1368E+01 -0.8927E+00E
 Epicentro: LOS SANTOS - SANTANDER                                             3
 ACTION:UPD 14-11-29 23:48 OP:nd   STATUS:               ID:20141011124357 L   I
 OLDACT:REG 14-10-11 21:59 OP:stll STATUS:               ID:20141011123743     3
 2014-10-11-1237-43M.COL___292                                                 6
 STAT SP IPHASW D HRMM SECON CODA AMPLIT PERI AZIMU VELO AIN AR TRES W  DIS CAZ7
 BAR2 SZ EP       1244 17.21                             169   -0.0610 26.6 190 
 BAR2 SZ ES       1244 33.01                             169   -0.0110 26.6 190 
 BAR2 SZ I        1244 34.06        12.0 0.26            169           26.6 190 
 BRR  HZ EP       1244 17.94                             154   -0.6710 70.0 296 
 BRR  HN ES       1244 35.89                             154    0.4910 70.0 296 
 PAM  SN ES       1244 36.85                             152   -0.2810 74.7  41 
 PAM  SZ I        1244 39.51         8.1 0.58            155           74.7  41 
 RUS  HZ EP       1244 21.86                             144    0.4010  104 176 
 RUS  HN ES       1244 40.27                             144   -0.2210  104 176 
 RUS  HZ I        1244 42.58         4.0 0.46            145            104 176 
 PTB  HZ EP       1244 24.26                             133   -0.21 9  149 258 
 PTB  HN ES       1244 45.94                             133    0.10 9  149 258 
 PTB  HZ I        1244 51.30         5.8 0.44            133            149 258 
 TAM  HZ EP       1244 25.58                             131    0.45 9  156 106 
 SPBC HZ EP       1244 25.93                             129   -0.22 9  166 218 
 SPBC HN ES       1244 48.93                             129    0.10 9  166 218 
 SPBC HZ I        1244 53.36         7.6 0.20            130            166 218 
 SML  HZ EP       1244 33.76                             119    0.12 8  241 335 
 SML  HN ES       1245  2.28                             119    0.13 8  241 335 
 SML  HZ I        1245  5.29         5.7 0.30            120            241 335 
                                                                                
