 2012  411 1243 36.0 L   6.747 -73.182146.6  RSN  4 0.4 1.8LRSN                1
 GAP=236        0.89      13.4     8.6 10.7  0.4481E+02  0.2252E+02  0.6196E+01E
 Epicentro: VILLANUEVA - SANTANDER                                             3
 ACTION:UPD 12-07-05 11:52 OP:tino STATUS:               ID:20120411124336 L   I
 2012-04-11-1240-00M.COL___177                                                 6
 STAT SP IPHASW D HRMM SECON CODA AMPLIT PERI AZIMU VELO AIN AR TRES W  DIS CAZ7
 BAR2 SZ EP   1   1243 55.75                             173     0.2 7   17 180 
 BAR2 SZ I        1243 55.84         7.0 0.39                            17 180 
 BAR2 SZ ES   1   1244 10.45                             173    -0.4 7   17 180 
 BRR  HZ EP   1   1243 57.60                             153     0.4 7   71 304 
 BRR  HE ES   1   1244 13.99                             153     0.3 7   71 304 
 PTB  HZ EP   1   1244  2.10                             133    -0.5 7  143 261 
 PTB  HN ES   1   1244 23.76                             133     0.5 7  143 261 
 PTB  HZ I        1244 25.09        16.8 0.20                           143 261 
 ZAR  HN ES   1   1244 33.00                             123    -0.6 6  203 294 
                                                                                
