 2013 1211 1454 42.8 L   6.805 -73.140148.0  RSN  7 0.3 2.0LRSN                1
 GAP=137        0.70       3.6     3.4  4.7 -0.2695E+01  0.2719E+01  0.3079E+01E
 Epicentro: LOS SANTOS - SANTANDER                                             3
 ACTION:UPD 14-01-13 10:17 OP:ep   STATUS:               ID:20131211145442 L   I
 OLDACT:UP  13-12-11 15:15 OP:cam  STATUS:               ID:20131211145000     3
 OLDACT:REG 13-12-11 14:47 OP:cam  STATUS:               ID:20131211145000     3
 2013-12-11-1450-00M.COL___285                                                 6
 STAT SP IPHASW D HRMM SECON CODA AMPLIT PERI AZIMU VELO AIN AR TRES W  DIS CAZ7
 BAR2 SZ EP       1455  2.54                             170   -0.1710 24.0 191 
 BAR2 SZ ES       1455 18.20                             170   -0.0410 24.0 191 
 BAR2 SZ I        1455 18.92        16.7 0.46            170           24.0 191 
 BRR  HZ EP       1455  4.41                             153    0.2110 71.4 298 
 BRR  HN ES       1455 21.33                             153    0.4310 71.4 298 
 BRR  HZ I        1455 25.73        29.0 0.44            152           71.4 298 
 PAM  SZ EP       1455  5.28                             152    0.0810 76.6  39 
 PAM  SE ES       1455 22.46                             152   -0.2210 76.6  39 
 PAM  SN I        1455 23.43        33.4 0.44            155           76.6  39 
 RUS  HZ EP       1455  6.82                             144    0.0110  101 176 
 RUS  HE ES       1455 25.61                             144    0.0810  101 176 
 RUS  HZ I        1455 27.49         7.7 0.36            146            101 176 
 PTB  HZ EP       1455  9.42                             132   -0.59 9  148 259 
 PTB  HE ES       1455 31.06                             132   -0.17 9  148 259 
 PTB  HZ I        1455 32.72        14.4 0.46            133            148 259 
 NOR  HZ EP   1   1455 19.30                             119    0.56 6  236 234 
 NOR  HE ES       1455 46.67                             119   -0.11 8  236 234 
 NOR  HZ I        1455 51.68         7.1 0.24            120            236 234 
 CHI  HZ EP   1   1455 21.10                             118    0.40 6  249 195 
                                                                                
