 2011 1011 1022 28.5 L   6.804 -73.157144.0  RSN 10 0.4 1.7LRSN                1
 GAP=135        0.66       3.9     4.6  5.4 -0.8005E+00  0.4768E+01  0.3848E+01E
 Epicentro: LOS SANTOS - SANTANDER                                             3
 ACTION:UPD 12-07-13 16:03 OP:ep   STATUS:               ID:20111011102228 L   I
 2011-10-11-1020-00M.COL___171                                                 6
 STAT SP IPHASW D HRMM SECON CODA AMPLIT PERI AZIMU VELO AIN AR TRES W  DIS CAZ7
 BAR2 SZ EP       1022 47.81                             170   -0.1510 23.5 187 
 BAR2 SZ ES   1   1023  3.19                             170    0.08 7 23.5 187 
 GIR2 SZ EP   3   1022 47.54                             167   -0.45 2 30.7 353 
 BRR  HZ EP       1022 49.66                             152    0.2410 69.9 299 
 BRR  HE ES   1   1023  6.13                             152    0.42 7 69.9 299 
 PAM  SZ EP       1022 50.68                             151    0.0810 77.9  40 
 PAM  SN ES   1   1023  7.43                             151   -0.37 7 77.9  40 
 RUS  HZ EP       1022 51.71                             143   -0.4410  101 175 
 RUS  HN ES   1   1023 10.80                             143    0.23 7  101 175 
 ZAR  HZ EP   3   1023  0.88                             122    0.15 2  203 292 
 ZAR  HE ES   2   1023 25.32                             122   -0.52 4  203 292 
 ZAR  HZ I        1023 32.18         5.6 0.32                           203 292 
 NOR  SN ES   2   1023 31.07                             118   -0.73 4  234 234 
 HEL  HZ EP   2   1023  9.16                             114    0.62 4  271 256 
 HEL  HZ I        1023 45.07         2.6 0.36                           271 256 
 RREF HZ EP   3   1023 14.97                             110    0.45 2  321 229 
 RREF HZ I        1023 59.30         1.8 0.58                           321 229 
 PRA  HZ EP       1023 22.55                             106    0.58 6  392 209 
                                                                                
