 2013  411 1049 10.8 L   6.789 -73.135140.9  RSN  6 0.3 1.5LRSN                1
 GAP=188        0.75       4.6     6.5  6.2  0.1166E+02 -0.8076E+00 -0.2997E+01E
 Epicentro: LOS SANTOS - SANTANDER                                             3
 ACTION:UPD 13-05-22 14:37 OP:EP   STATUS:               ID:20130411104910 L   I
 2013-04-11-1047-50M.COL___208                                                 6
 STAT SP IPHASW D HRMM SECON CODA AMPLIT PERI AZIMU VELO AIN AR TRES W  DIS CAZ7
 BAR2 SZ EP       1049 29.93                             171    0.1410 22.4 194 
 BAR2 SZ ES       1049 44.25                             171   -0.3810 22.4 194 
 BAR2 SZ I        1049 45.99        12.8 0.20            169           22.4 194 
 GIR2 SZ EP       1049 29.94                             166    0.0510 32.7 349 
 GIR2 SZ ES   1   1049 44.96                             166    0.14 7 32.7 349 
 BRR  HZ EP       1049 31.83                             151    0.3510 72.8 299 
 BRR  HN ES   1   1049 48.24                             151    0.60 7 72.8 299 
 BRR  HZ I        1049 53.77         5.7 0.24            149           72.8 299 
 RUS  HZ EP       1049 33.86                             143   -0.0810 99.3 177 
 RUS  HN ES   1   1049 51.75                             143   -0.27 7 99.3 177 
 RUS  HZ I        1049 53.97         2.8 0.42            146           99.3 177 
 PTB  HN ES   1   1049 58.03                             130   -0.19 7  149 259 
 PTB  HZ I        1050  0.71         4.4 0.18            131            149 259 
 SML  HN ES   1   1050 15.08                             116   -0.71 6  245 335 
                                                                                
