 2013  211 1636 36.7 L   6.786 -73.124137.9  RSN  7 0.3 1.9LRSN                1
 GAP=140        0.67       3.1     4.7  5.0 -0.5791E+01  0.1174E+02 -0.2328E+00E
 Epicentro: LOS SANTOS - SANTANDER                                             3
 ACTION:UPD 13-03-12 09:32 OP:ep   STATUS:               ID:20130211163636 L   I
 2013-02-11-1630-00M.COL___240                                                 6
 STAT SP IPHASW D HRMM SECON CODA AMPLIT PERI AZIMU VELO AIN AR TRES W  DIS CAZ7
 BAR2 SZ EP       1636 55.27                             170   -0.0710 22.4 197 
 BAR2 SZ ES       1637 10.04                             170    0.1410 22.4 197 
 BAR2 SZ I        1637 11.27        41.6 0.18            156           22.4 197 
 BRR  HZ EP       1636 57.11                             150   -0.0410 74.0 299 
 BRR  HZ I        1637 18.37        13.8 0.12            130           74.0 299 
 PAM  SZ IP     C 1636 58.20                             149    0.1510 77.1  37 
 PAM  SN ES       1637 14.76                             149    0.0510 77.1  37 
 PAM  SN I        1637 16.08        17.0 0.22            141           77.1  37 
 RUS  HZ EP       1636 59.32                             143   -0.2210 98.9 177 
 RUS  HN ES       1637 17.25                             143   -0.1210 98.9 177 
 RUS  HZ I        1637 19.76         6.3 0.36            143           98.9 177 
 PTB  HZ EP       1637  2.72                             130   -0.49 9  150 260 
 PTB  HN I        1637 26.25        18.8 0.38            117            150 260 
 NOR  HZ EP       1637 12.15                             117    0.07 8  236 235 
 NOR  HN ES       1637 40.06                             117    0.37 8  236 235 
 NOR  HZ I        1637 44.45         5.3 0.12            109            236 235 
 CHI  HZ EP       1637 14.48                             115    0.62 8  248 196 
 CHI  HN ES       1637 42.65                             115   -0.21 8  248 196 
 CHI  HZ I        1637 46.23         2.9 0.56            111            248 196 
                                                                                
