 2015 1011 1338  4.4 L   6.786 -73.103149.0  RSN  7 0.3 1.6LRSN                1
 GAP=143        0.65       3.2     4.9  5.2  0.3413E+01  0.2014E+01 -0.2884E+01E
 Epicentro: LOS SANTOS - SANTANDER                                             3
 ACTION:UPD 15-12-22 20:39 OP:cam  STATUS:               ID:20151011133805dL   I
 OLDACT:DUP 15-10-12 01:06 OP:spq  STATUS:               ID:20151011132749d    3
 2015-10-11-1327-48M.COL___337                                                 6
 STAT SP IPHASW D HRMM SECON CODA AMPLIT PERI AZIMU VELO AIN AR TRES W  DIS CAZ7
 BAR2 EZ EP       1338 24.36                             171   -0.0910 23.1 202 
 BAR2 EZ ES   1   1338 39.48                             171   -0.58 7 23.1 202 
 BAR2 EZ I        1338 42.77         8.0 0.28            170           23.1 202 
 PAM  EN ES   1   1338 44.64                             152    0.22 7 75.8  36 
 PAM  EZ I        1338 46.48         7.3 0.48            156           75.8  36 
 BRR  HZ EP       1338 26.40                             151    0.1910 76.1 298 
 BRR  HN ES       1338 43.52                             151    0.3310 76.1 298 
 BRR  HZ I        1338 50.94         6.8 0.36            151           76.1 298 
 RUS  HZ EP   1   1338 28.77                             145    0.39 7 98.8 179 
 RUS  HN ES   2   1338 46.68                             145   -0.37 5 98.8 179 
 RUS  HZ I        1338 47.95         3.2 0.28            150           98.8 179 
 OCA  HZ EP   1   1338 32.82                             130   -0.38 7  162 352 
 OCA  HE ES       1338 55.73                             130    0.09 9  162 352 
 OCA  HZ I        1339  0.34        10.7 0.40            133            162 352 
 ZAR  HN ES   1   1339  3.28                             122   -0.19 6  209 292 
 ZAR  HZ I        1339  7.48         4.5 0.10            125            209 292 
 SML  HZ EP       1338 41.56                             118   -0.05 8  247 334 
 SML  HE ES   1   1339 10.20                             118   -0.41 6  247 334 
 SML  HZ I        1339 11.45         3.2 0.19            121            247 334 
                                                                                
