 2015  811 1324 41.8 L   6.524 -73.491118.7  RSN  5 0.3 1.8LRSN                1
 GAP=146        0.66       3.4     4.4  8.0 -0.3249E+01  0.2499E+02  0.4721E+00E
 Epicentro: SIMACOTA - SANTANDER                                               3
 ACTION:UPD 15-09-15 23:01 OP:cam  STATUS:               ID:20150811132441 L   I
 OLDACT:UP  15-08-12 00:12 OP:ar   STATUS:               ID:20150811131751d    3
 OLDACT:DUP 15-08-11 23:51 OP:ar   STATUS:               ID:20150811131751d    3
 2015-08-11-1317-50M.COL___340                                                 6
 STAT SP IPHASW D HRMM SECON CODA AMPLIT PERI AZIMU VELO AIN AR TRES W  DIS CAZ7
 BAR2 EZ EP       1324 58.85                             162    0.2710 35.0  77 
 BAR2 EZ ES       1325 11.50                             162   -0.1410 35.0  77 
 BAR2 EZ I        1325 12.95        48.5 0.34            168           35.0  77 
 ZAR  HZ EP       1325 10.54                             118   -0.09 9  185 305 
 ZAR  HN ES       1325 33.21                             118    0.12 9  185 305 
 ZAR  HZ I        1325 37.57        11.8 0.36            120            185 305 
 NOR  HZ EP   2   1325 10.31                             118   -0.45 4  186 235 
 NOR  HN ES       1325 33.06                             118   -0.26 9  186 235 
 NOR  HZ I        1325 36.27         5.8 0.38            120            186 235 
 GUY2CHZ EP   2   1325 18.08                             110   -0.62 4  252 235 
 GUY2CHN ES       1325 47.28                             110   -0.17 8  252 235 
 GUY2CHZ I        1325 51.33         2.8 0.32                           252 235 
 TOL  SN ES       1325 56.55                             107    0.65 7  295 223 
 TOL  SZ I        1325 59.28         2.5 0.76            109            295 223 
                                                                                
