 2010  611 1215 25.8 L   7.276 -73.644 97.9  RSN  7 0.5 2.3LRSN                1
 GAP=221        1.22       5.6    18.7 19.8 -0.3777E+02  0.2282E+03 -0.2532E+02E
 Epicentro: SABANA DE TORRES - SANTANDER                                       3
 ACTION:UP  10-08-24 10:09 OP:vdl  STATUS:               ID:20100611121525 L   I
 2010-06-11-1213-35S.COL___117                                                 6
 STAT SP IPHASW D HRMM SECON CODA AMPLIT PERI AZIMU VELO SNR AR TRES W  DIS CAZ7
 GIR2 SZ EP       1215 41.36                             149     0.310   54 114 
 BAR2 SZ IP       1215 44.52                             134     0.510   91 146 
 BAR2 SZ ES   1   1215 58.09                             134    -0.2 7   91 146 
 GUE  SZ EP       1215 44.05                             131    -0.910  100  52 
 BRI  SZ EP       1215 45.46                             130     0.210  105  62 
 BRI  SZ ES   2   1216  0.17                             130    -0.3 5  105  62 
 OCA  SZ EP       1215 45.91                             128     0.010  112  19 
 OCA  SZ ES   2   1216  1.33                             128    -0.3 5  112  19 
 OCA  SZ I        1216 11.32        41.1 0.40                           112  19 
 GRA  SZ EP       1215 46.90                             127     0.810  115  54 
 GRA  SZ ES   1   1216  1.98                             127     0.0 7  115  54 
 RUS  HZ EP       1215 51.32                             117    -0.6 9  165 158 
                                                                                
