 2017  811 1817 16.0 L   6.769 -73.129144.3  RSN  6 0.3 1.6LRSN                1
 GAP=140        0.79       3.7     4.3  6.2 -0.2260E+01  0.1366E+02 -0.2383E+01E
 Epicentro: LOS SANTOS - SANTANDER                                             3
 ACTION:UPD 17-09-04 20:19 OP:rebc STATUS:               ID:20170811181716 L   I
 OLDACT:REG 17-08-11 21:00 OP:dani STATUS:               ID:20170811180740     3
 2017-08-11-1808-00M.COL___410                                                 6
 STAT SP IPHASW D HRMM SECON CODA AMPLIT PERI AZIMU VELO AIN AR TRES W  DIS CAZ7
 BAR2 EZ IP     C 1817 35.29                             172   -0.0610 20.4 197 
 BAR2 EZ ES       1817 50.25                             172   -0.2210 20.4 197 
 BAR2 EZ I        1817 51.34        11.0 0.13            171           20.4 197 
 BRR  HZ EP       1817 37.62                             151    0.4910 74.4 300 
 PAM  EZ EP     D 1817 38.38                             150    0.2810 78.9  37 
 PAM  EN ES       1817 55.22                             150   -0.1510 78.9  37 
 PAM  EZ I        1817 58.35         6.0 0.36            154           78.9  37 
 RUS  HZ IP     C 1817 39.40                             144    0.1010 97.1 177 
 RUS  HN ES       1817 57.50                             144   -0.0210 97.1 177 
 RUS  HZ I        1818  2.63         2.7 0.20            148           97.1 177 
 ZAR  HZ EP       1817 48.27                             121   -0.34 8  207 293 
 ZAR  HN ES       1818 14.08                             121    0.00 8  207 293 
 ZAR  HZ I        1818 20.31         6.0 0.14            124            207 293 
 NOR  HZ EP       1817 50.85                             118   -0.69 8  234 235 
 NOR  HN ES       1818 19.72                             118    0.41 8  234 235 
 NOR  HZ I        1818 21.49         3.8 0.24            120            234 235 
                                                                                
