 2010 1011 1215 42.6 L   6.770 -73.119138.7  RSN 10 0.5 2.2LRSN                1
 GAP=180        0.83       5.0     8.5  8.3 -0.2359E+02  0.8231E+01  0.8785E+01E
 Epicentro: LOS SANTOS - SANTANDER                                             3
 ACTION:UP  11-02-18 11:09 OP:tino STATUS:               ID:20101011121542 L   I
 2010-10-11-1215-36S.COL___120                                                 6
 STAT SP IPHASW D HRMM SECON CODA AMPLIT PERI AZIMU VELO SNR AR TRES W  DIS CAZ7
 BAR2 SZ IP     D 1216  1.11                             171    -0.210   21 200 
 BAR2 SZ ES   2   1216 15.57                             171    -0.3 5   21 200 
 BAR2 SZ I        1216 17.18        54.9 0.30                            21 200 
 BRR  HZ EP   1   1216  2.93                             150    -0.3 7   75 300 
 BRR  HE ES   2   1216 19.81                             150     0.5 5   75 300 
 BRR  HZ I        1216 20.69        43.9 0.13                            75 300 
 GUE  SZ EP   1   1216  7.10                             137     0.2 7  119  10 
 GRA  SZ EP   1   1216  7.80                             135     0.4 7  128  16 
 GRA  SZ ES   2   1216 27.44                             135     0.7 5  128  16 
 GRA  SZ I        1216 28.58        16.5 0.32                           128  16 
 OCA  SZ EP   1   1216 10.05                             127    -0.6 7  164 352 
 OCA  SZ ES   2   1216 32.35                             127    -0.3 5  164 352 
 OCA  SZ I        1216 35.28        19.2 0.25                           164 352 
 NOR  SZ EP   1   1216 17.29                             117    -0.7 6  235 236 
 NOR  SN ES   2   1216 45.09                             117    -0.5 4  235 236 
 CHI  HZ EP   1   1216 19.87                             116     0.2 6  246 196 
 CHI  HE ES   2   1216 48.96                             116     0.4 4  246 196 
 CHI  HZ I        1216 52.55         8.2 0.33                           246 196 
 HEL  HZ EP   1   1216 23.38                             113     0.7 6  274 257 
 HEL  HZ I        1216 59.49         9.3 0.34                           274 257 
 RREF HZ EP   1   1216 28.78                             109     0.3 5  322 230 
 RREF HE ES   2   1217  4.90                             109     0.7 3  322 230 
 RREF HZ I        1217 12.36         8.7 0.32                           322 230 
 PRA  HZ EP   1   1216 35.31                             105    -0.4 4  391 210 
 PRA  HN ES   2   1217 17.55                             105     0.4 3  391 210 
                                                                                
