 2013  511 1806 58.0 L   6.784 -73.141148.0  RSN  7 0.3 1.8LRSN                1
 GAP=138        0.69       3.9     4.1  6.5 -0.3898E+01 -0.3430E+01  0.1165E+02E
 Epicentro: LOS SANTOS - SANTANDER                                             3
 ACTION:UPD 13-06-20 09:49 OP:ep   STATUS:               ID:20130511180658 L   I
 2013-05-11-1800-00M.COL___256                                                 6
 STAT SP IPHASW D HRMM SECON CODA AMPLIT PERI AZIMU VELO AIN AR TRES W  DIS CAZ7
 BAR2 SZ EP   2   18 7 17.78                             171   -0.06 5 21.7 192 
 BAR2 SZ I        18 7 35.60        16.5 0.31            169           21.7 192 
 BRR  HZ EP   1   18 7 19.58                             153    0.15 7 72.5 300 
 BRR  HN ES       18 7 36.64                             153    0.4710 72.5 300 
 BRR  HZ I        18 7 40.58        15.1 0.28            151           72.5 300 
 PAM  SZ EP       18 7 20.44                             151   -0.0510 78.5  38 
 PAM  SZ I        18 7 20.79        26.6 0.20            152           78.5  38 
 PAM  SN ES   1   18 7 37.61                             151   -0.44 7 78.5  38 
 RUS  HZ EP       18 7 21.61                             145   -0.2010 98.8 176 
 RUS  HE ES   1   18 7 40.65                             145    0.24 7 98.8 176 
 RUS  HZ I        18 7 41.71         7.6 0.22            143           98.8 176 
 PTB  HZ EP   2   18 7 25.28                             133    0.15 5  148 260 
 PTB  HN ES   1   18 7 45.68                             133   -0.64 7  148 260 
 PTB  HZ I        18 7 48.00         7.7 0.12            131            148 260 
 NOR  HZ EP   2   18 7 33.99                             119    0.23 4  234 235 
 NOR  HN ES   1   18 8  1.21                             119   -0.47 6  234 235 
 NOR  HZ I        18 8 11.14         3.3 0.16            118            234 235 
 CHI  HZ EP       18 7 35.99                             118    0.37 8  247 195 
 CHI  HN ES   1   18 8  5.02                             118    0.03 6  247 195 
 CHI  HZ I        18 8 10.51         3.3 0.36            117            247 195 
                                                                                
