 2017  411 1919 20.3 L   5.805 -73.880104.0  RSN 10 0.3 2.0LRSN                1
 GAP=126        0.87       3.6     2.1  5.6  0.8724E+00  0.1481E+00 -0.2269E+01E
 Epicentro: ALBANIA - SANTANDER                                                3
 ACTION:UPD 17-05-30 21:11 OP:jn   STATUS:               ID:20170411191920 L   I
 OLDACT:REG 17-04-11 19:50 OP:cara STATUS:               ID:20170411191532     3
 2017-04-11-1918-00M.COL___374                                                 6
 STAT SP IPHASW D HRMM SECON CODA AMPLIT PERI AZIMU VELO AIN AR TRES W  DIS CAZ7
 SPBC HZ EP       1919 34.82                             164   -0.0010 27.2 232 
 SPBC HE ES       1919 46.36                             164    0.2010 27.2 232 
 RUS  HZ EP       1919 39.17                             137   -0.0210 88.8  84 
 RUS  HN ES       1919 54.10                             137    0.1710 88.8  84 
 RUS  HZ I        1919 55.53         8.6 0.34            140           88.8  84 
 PTB  HZ EP       1919 39.28                             131   -0.5410  103 322 
 PTB  HN ES       1919 54.94                             131   -0.1110  103 322 
 PTB  HZ I        1920  0.47        16.6 0.44            132            103 322 
 NOR  HZ EP       1919 40.58                             129   -0.1810  113 256 
 NOR  HN ES       1919 56.65                             129   -0.0710  113 256 
 NOR  HZ I        1919 59.37        57.8 0.50            129            113 256 
 BAR2 EZ EP       1919 41.99                             128    0.6510  116  42 
 BAR2 EZ ES       1919 57.79                             128    0.0310  116  42 
 BAR2 EZ I        1919 59.74        53.5 0.20            131            116  42 
 ROSC BN EP   4   1919 42.61                             128    0.97 0  117 205 
 ROSC BE ES   4   1919 59.71                             128    1.41 0  117 205 
 ROSC BZ I        1920  2.40        17.7 0.35            128            117 205 
 YPLC HZ EP       1919 47.00                             116    0.07 9  172 105 
 YPLC HN ES       1920  7.12                             116   -0.59 9  172 105 
 YPLC HZ I        1920  9.87        10.4 0.26            118            172 105 
 HEL  HZ EP       1919 49.69                             114    0.69 9  187 283 
 HEL  HE ES       1920 11.41                             114    0.01 9  187 283 
 HEL  HZ I        1920 16.32         8.6 0.26            115            187 283 
 ZAR  HE ES       1920 15.95                             110   -0.31 8  216 330 
 ZAR  HZ I        1920 20.22         9.6 0.32            111            216 330 
 ANIL HZ ES   4   1920 16.71                             109   -1.65 0  223 229 
 ANIL HZ I        1920 23.08        18.2 0.24            110            223 229 
                                                                                
