 2017 1211 1829 31.4 L   6.840 -73.142148.4  RSN  9 0.4 1.8LRSN                1
 GAP=111        0.85       4.6     4.1  7.4 -0.5929E+01 -0.8426E+00  0.1689E+02E
 Epicentro: LOS SANTOS - SANTANDER                                             3
 ACTION:UPD 18-01-04 13:19 OP:rebc STATUS:               ID:20171211182931 L   I
 OLDACT:UP  17-12-12 01:52 OP:mg   STATUS:               ID:20171211182741     3
 OLDACT:REG 17-12-11 22:33 OP:mg   STATUS:               ID:20171211182741     3
 2017-12-11-1828-00M.COL___478                                                 6
 STAT SP IPHASW D HRMM SECON CODA AMPLIT PERI AZIMU VELO AIN AR TRES W  DIS CAZ7
 BAR2 EZ EP       1829 51.23                             169   -0.2510 27.8 189 
 BAR2 EZ ES   2   1830  6.60                             169   -0.51 5 27.8 189 
 BAR2 EZ I        1830  8.09        13.0 0.13            167           27.8 189 
 PAM  EZ EP       1829 54.06                             152    0.3410 73.8  42 
 PAM  EN ES       1830 11.11                             152    0.0010 73.8  42 
 PAM  EZ I        1830 11.79         5.0 0.21            157           73.8  42 
 PTB  HZ EP       1829 58.44                             132   -0.29 9  149 257 
 PTB  HN ES       1830 19.59                             132   -0.43 9  149 257 
 PTB  HZ I        1830 22.07         6.5 0.21            132            149 257 
 SPBC HZ EP       1830  0.57                             129    0.09 9  167 218 
 SPBC HN ES       1830 23.57                             129    0.43 9  167 218 
 SPBC HZ I        1830 27.43         7.1 0.07            129            167 218 
 YPLC HZ EP       1830  1.82                             127    0.04 9  181 152 
 ZAR  HN ES   1   1830 29.81                             123    0.55 6  203 291 
 ZAR  HZ I        1830 35.12         6.3 0.29            123            203 291 
 CHI  HZ EP       1830  9.19                             117   -0.56 8  253 195 
 CHI  HN ES   1   1830 40.57                             117    0.93 6  253 195 
 CHI  HZ I        1830 45.10         1.5 0.32            118            253 195 
 GUY2CHZ EP   2   1830 16.56                             113    1.07 4  304 234 
 GUY2CHE ES   4   1830 52.90                             113    3.05 0  304 234 
 GUY2CHZ I        1830 58.09         4.2 0.38                           304 234 
 PRA  HZ EP   1   1830 24.99                             107   -0.53 4  396 209 
 PRA  HN ES       1831  7.60                             107   -0.10 6  396 209 
 PRA  HZ I        1831 14.22         3.7 0.36            107            396 209 
                                                                                
