 2011 1111 1434  3.3 L   6.835 -73.102137.2  RSN  4 0.4 1.7LRSN                1
 GAP=245        0.95      13.1    15.2  9.2  0.1695E+03 -0.9986E+01 -0.1836E+02E
 Epicentro: LOS SANTOS - SANTANDER                                             3
 ACTION:UPD 12-07-13 16:09 OP:ep   STATUS:               ID:20111111143403 L   I
 2011-11-11-1431-32S.COL___177                                                 6
 STAT SP IPHASW D HRMM SECON CODA AMPLIT PERI AZIMU VELO AIN AR TRES W  DIS CAZ7
 BAR2 SZ EP   1   1434 21.82                             168   -0.21 7 28.3 198 
 BAR2 SZ ES   1   1434 36.38                             168   -0.26 7 28.3 198 
 BAR2 SZ I        1434 38.28         7.9 0.23                          28.3 198 
 BRR  HZ EP       1434 23.24                             150   -0.4610 73.8 294 
 BRR  HZ I        1434 24.80        12.6 0.12                          73.8 294 
 BRR  HN ES       1434 40.12                             150    0.5110 73.8 294 
 RUS  HZ EP   1   1434 27.22                             141    0.71 7  104 179 
 RUS  HE ES   1   1434 44.38                             141   -0.23 7  104 179 
 ZAR  HZ EP   1   1434 35.93                             120    0.39 6  207 291 
 ZAR  HN ES   1   1435  0.17                             120   -0.51 6  207 291 
 ZAR  HZ I        1435  5.39         5.8 0.34                           207 291 
                                                                                
