 2016 1011 1321 35.0 L   6.814 -73.160148.4  RSN  8 0.5 1.6LRSN                1
 GAP=134        1.13       4.6     4.8  7.0 -0.2353E+00  0.5939E+01  0.5919E+01E
 Epicentro: LOS SANTOS - SANTANDER                                             3
 ACTION:UPD 16-11-09 19:18 OP:rebc STATUS:               ID:20161011132657dL   I
 OLDACT:UP  16-10-12 23:13 OP:and  STATUS:               ID:20161011132657dL   3
 OLDACT:DUP 16-10-12 23:06 OP:and  STATUS:               ID:20161011132657dL   3
 OLDACT:UP  16-10-11 23:27 OP:lv   STATUS:               ID:20161011131751     3
 OLDACT:REG 16-10-11 22:09 OP:lv   STATUS:               ID:20161011131751     3
 2016-10-11-1318-00M.COL___372                                                 6
 STAT SP IPHASW D HRMM SECON CODA AMPLIT PERI AZIMU VELO AIN AR TRES W  DIS CAZ7
 BAR2 EZ EP     C 1321 54.72                             170   -0.2710 24.7 186 
 BAR2 EZ ES       1322  9.75                             170   -0.8210 24.7 186 
 BAR2 EZ I        1322 10.94        10.8 0.24            169           24.7 186 
 BRR  HZ EP       1321 56.58                             154    0.2510 69.1 298 
 BRR  HN ES       1322 13.78                             154    0.8210 69.1 298 
 PAM  EZ EP     C 1321 57.74                             151    0.2410 77.2  41 
 PAM  EE ES       1322 15.11                             151    0.0810 77.2  41 
 PAM  EZ I        1322 16.88         5.8 0.50            155           77.2  41 
 RUS  HZ EP       1321 58.99                             144   -0.1510  102 175 
 RUS  HE ES       1322 18.04                             144    0.0710  102 175 
 RUS  HZ I        1322 18.45         5.4 0.26            145            102 175 
 PTB  HZ EP       1322  1.46                             133   -0.63 9  147 258 
 PTB  HN ES       1322 22.68                             133   -0.53 9  147 258 
 PTB  HZ I        1322 26.07         3.3 0.09            131            147 258 
 SPBC HZ EP       1322  4.00                             130    0.26 9  163 218 
 SPBC HN ES       1322 26.91                             130    0.76 9  163 218 
 SPBC HZ I        1322 33.25         6.5 0.09            129            163 218 
 ZAR  HZ EP   2   1322  7.50                             123    0.07 4  202 292 
 ZAR  HE ES       1322 32.49                             123   -0.22 9  202 292 
 ZAR  HZ I        1322 40.67         3.3 0.14            123            202 292 
 CHI  HZ EP       1322 13.02                             117    0.04 8  250 195 
 CHI  HN ES   2   1322 42.94                             117    0.35 4  250 195 
 CHI  HZ I        1322 45.46         2.8 0.46            118            250 195 
                                                                                
