 2014  911 1343 11.8 L   6.800 -73.142148.0  RSN 21 0.5 3.0LRSN 3.6WRSN        1
 SPEC AVERAGE  MO 14.4 ST0.434 OM  2.5 f0 1.29 R1.7010 AL 0.00 WI 30.0 MW  3.6 3
 SPEC SD       MO  0.2 ST0.582 OM  0.3 f00.675 R0.5643 AL      WI      MW  0.2 3
 GAP= 71        1.09       2.5     2.8  4.7 -0.9166E+00  0.4171E+01  0.1823E+01E
 Epicentro: LOS SANTOS - SANTANDER                                             3
 SPEC BAR2SH Z MO 14.4 ST0.573 OM  2.5 f0 1.56 R1.2333 AL-0.00 WI 30.0 MW  3.5 3
 SPEC BAR2SH Z T134345 K 0.000 GD  149 VS 5.20 DE 3.50 Q0750.0 QA 1.50 VS 5.20 3
 SPEC PAM SH Z MO 14.4 ST0.195 OM  2.5 f0 1.05 R1.8324 AL-0.00 WI 30.0 MW  3.6 3
 SPEC PAM SH Z T134350 K 0.000 GD  166 VS 5.20 DE 3.50 Q0750.0 QA 1.50 VS 5.20 3
 SPEC RUS HH Z MO 14.7 ST0.162 OM  2.7 f00.827 R2.3265 AL-0.00 WI 30.0 MW  3.7 3
 SPEC RUS HH Z T134353 K 0.000 GD  179 VS 5.20 DE 3.50 Q0750.0 QA 1.50 VS 5.20 3
 SPEC ZAR HH Z MO 14.1 ST  2.1 OM  2.0 f0 2.95 R0.6522 AL-0.00 WI 30.0 MW  3.4 3
 SPEC ZAR HH Z T1344 8 K 0.000 GD  252 VS 5.20 DE 3.50 Q0750.0 QA 1.50 VS 5.20 3
 SPEC CHI HH Z MO 14.5 ST0.102 OM  2.3 f00.821 R2.3435 AL-0.00 WI 30.0 MW  3.6 3
 SPEC CHI HH Z T134417 K 0.000 GD  289 VS 5.20 DE 3.50 Q0750.0 QA 1.50 VS 5.20 3
 SPEC ROSCBH Z MO 14.5 ST0.192 OM  2.3 f0 1.01 R1.9050 AL-0.00 WI 30.0 MW  3.6 3
 SPEC ROSCBH Z T134422 K 0.000 GD  293 VS 5.20 DE 3.50 Q0750.0 QA 1.50 VS 5.20 3
 SPEC HEL HH Z MO 14.4 ST0.148 OM  2.2 f00.982 R1.9593 AL-0.00 WI 30.0 MW  3.5 3
 SPEC HEL HH Z T134422 K 0.000 GD  309 VS 5.20 DE 3.50 Q0750.0 QA 1.50 VS 5.20 3
 SPECGUY2CHH Z MO 14.5 ST  0.1 OM  2.3 f00.908 R  2.12 AL-0.00 WI 30.0 MW  3.6 3
 SPECGUY2CHH Z T134428 K       GD335.4 VS 5.20 DE 3.50 Q0750.0 QA 1.50 VS 5.20 3
 SPEC CBOCHH Z MO 14.2 ST0.276 OM  1.9 f0 1.44 R1.3361 AL-0.00 WI 30.0 MW  3.4 3
 SPEC CBOCHH Z T134433 K 0.000 GD  365 VS 5.20 DE 3.50 Q0750.0 QA 1.50 VS 5.20 3
 SPEC TOL SH Z MO 14.9 ST0.432 OM  2.6 f00.969 R1.9856 AL-0.00 WI 30.0 MW  3.9 3
 SPEC TOL SH Z T134436 K 0.000 GD  374 VS 5.20 DE 3.50 Q0750.0 QA 1.50 VS 5.20 3
 SPEC PRA HH Z MO 14.1 ST0.203 OM  1.8 f0 1.34 R1.4358 AL-0.00 WI 30.0 MW  3.4 3
 SPEC PRA HH Z T134446 K 0.000 GD  419 VS 5.20 DE 3.50 Q0750.0 QA 1.50 VS 5.20 3
 OLDACT:REG 14-09-11 20:53 OP:carl STATUS:               ID:20140911133820     3
 ACTION:UPD 14-10-03 23:04 OP:nd   STATUS:               ID:20140911134311 L   I
 OLDACT:UP  14-09-12 00:36 OP:carl STATUS:               ID:20140911133820     3
 2014-09-11-1338-20M.COL___284                                                 6
 STAT SP IPHASW D HRMM SECON CODA AMPLIT PERI AZIMU VELO AIN AR TRES W  DIS CAZ7
 BAR2 SZ IP     C 1343 31.70                             171   -0.0410 23.4 191 
 BAR2 SZ ES       1343 47.29                             171    0.0310 23.4 191 
 BAR2 SZ I        1343 48.49       160.8 0.46            168           23.4 191 
 BRR  HZ IP     D 1343 33.63                             153    0.3810 71.6 298 
 BRR  HN ES       1343 51.05                             153    1.1010 71.6 298 
 BRR  HZ I        1343 52.47       108.0 0.20            154           71.6 298 
 PAM  SZ IP       1343 34.53                             151    0.2510 77.2  39 
 PAM  SN ES       1343 51.67                             151   -0.1110 77.2  39 
 PAM  SZ I        1343 54.31       259.0 0.60            150           77.2  39 
 RUS  HZ EP       1343 35.57                             144   -0.2310  101 176 
 RUS  HN ES       1343 54.51                             144    0.0110  101 176 
 RUS  HZ I        1343 55.84       153.5 0.32            141            101 176 
 PTB  HZ EP       1343 38.16                             132   -0.86 9  148 259 
 PTB  HN ES       1343 59.94                             132   -0.28 9  148 259 
 PTB  HZ I        1344  1.26       145.0 0.36            132            148 259 
 TAM  HZ IP     D 1343 39.81                             131    0.15 9  155 105 
 TAM  HZ I        1344  0.75        49.4 0.32            128            155 105 
 TAM  HN ES       1344  1.27                             131   -0.08 9  155 105 
 OCA  HZ EP       1343 40.00                             130   -0.33 9  160 353 
 OCA  HN ES       1344  2.46                             130   -0.09 9  160 353 
 OCA  HZ I        1344  6.89       120.2 0.22            129            160 353 
 SPBC HZ EP       1343 40.45                             130   -0.08 9  163 219 
 SPBC HN ES       1344  2.39                             130   -0.52 9  163 219 
 SPBC HZ I        1344  5.01       148.5 0.30            128            163 219 
 ZAR  HZ EP       1343 44.29                             123   -0.18 9  204 292 
 ZAR  HN ES       1344 10.08                             123    0.16 9  204 292 
 ZAR  HZ I        1344 12.61        98.8 0.20            122            204 292 
 NOR  HZ EP       1343 47.37                             119   -0.36 8  235 235 
 NOR  HN ES       1344 15.09                             119   -0.63 8  235 235 
 NOR  HZ I        1344 17.69        84.8 0.28            117            235 235 
 SML  HZ EP       1343 48.18                             118   -0.43 8  244 335 
 SML  HN ES       1344 16.79                             118   -0.50 8  244 335 
 SML  HZ I        1344 18.73        87.9 0.10            117            244 335 
 CHI  HZ EP       1343 49.66                             118   -0.01 8  249 195 
 CHI  HN ES       1344 18.61                             118   -0.56 8  249 195 
 CHI  HZ I        1344 25.28        39.3 0.56            116            249 195 
 ROSC BZ EP   4   1343 51.05                             117    0.95 0  253 211 
 ROSC BN ES   4   1344 23.97                             117    4.03 0  253 211 
 ROSC BZ I        1344 26.48        81.0 0.30            115            253 211 
 HEL  HZ EP       1343 53.66                             115    1.46 8  272 256 
 HEL  HN ES       1344 23.67                             115   -0.02 8  272 256 
 HEL  HZ I        1344 30.84        59.4 0.44            114            272 256 
 GUY2CHZ EP       1343 55.96                             113    0.38 7  301 235 
 GUY2CHN ES       1344 30.39                             113    0.69 7  301 235 
 GUY2CHZ I        1344 38.29        72.6 0.28                           301 235 
 CBOC HZ EP       1343 59.41                             110    0.52 7  334 252 
 CBOC HN ES       1344 35.06                             110   -0.52 7  334 252 
 CBOC HZ I        1344 42.73        23.8 0.44            109            334 252 
 DBB  SZ IP     C 1343 59.34                             110   -0.11 7  340 274 
 DBB  SZ ES       1344 36.10                             110   -0.49 7  340 274 
 TOL  SZ EP       1344  0.99                             110    0.78 7  344 225 
 TOL  SN ES       1344 38.48                             110    0.54 7  344 225 
 TOL  SZ I        1344 49.68        88.2 0.64            108            344 225 
 ANIL HZ EP       1344  2.55                             109    0.79 6  358 225 
 ANIL HN ES       1344 40.47                             109   -0.22 6  358 225 
 ANIL HZ I        1344 45.55        12.8 0.34            107            358 225 
 PRA  HZ EP       1344  5.06                             107   -0.39 6  392 210 
 PRA  HN ES       1344 48.09                             107    0.82 6  392 210 
 PRA  HZ I        1344 52.03        45.2 0.32            105            392 210 
 ORTC HZ EP       1344  6.02                             107    0.16 6  396 216 
 ORTC HN ES       1344 47.67                             107   -0.32 6  396 216 
 ORTC HZ I        1344 55.34        30.0 0.22            105            396 216 
 SJC  HZ EP   4   1344  5.60                             106   -1.90 0  409 327 
 SJC  HN ES   4   1344 47.42                             106   -3.50 0  409 327 
                                                                                
