 2013  811 1214  3.4 L   6.787 -73.155144.0  RSN 15 0.4 2.1LRSN                1
 GAP=136        0.97       3.4     4.1  5.6 -0.3180E+01  0.5524E+01  0.4791E+01E
 Epicentro: LOS SANTOS - SANTANDER                                             3
 ACTION:UPD 14-01-14 09:01 OP:ep   STATUS:               ID:20130811121403 L   I
 OLDACT:DUP 13-08-11 18:58 OP:jn   STATUS:               ID:20130811120960d    3
 OLDACT:UP  13-08-11 18:55 OP:jn   STATUS:               ID:20130811120959     3
 OLDACT:UP  13-08-11 18:55 OP:jn   STATUS:               ID:20130811120959     3
 OLDACT:REG 13-08-11 17:11 OP:jn   STATUS:               ID:20130811120959     3
 2013-08-11-1209-59M.COL___270                                                 6
 STAT SP IPHASW D HRMM SECON CODA AMPLIT PERI AZIMU VELO AIN AR TRES W  DIS CAZ7
 BAR2 SZ EP       1214 22.91                             171    0.1710 21.8 188 
 BAR2 SZ ES       1214 37.91                             171    0.0410 21.8 188 
 BAR2 SZ I        1214 39.34        35.1 0.34            175           21.8 188 
 GIR2 SZ EP       1214 22.88                             167    0.0310 32.5 352 
 GIR2 SZ ES       1214 37.79                             167   -0.2710 32.5 352 
 GIR2 SZ I        1214 39.93        20.5 0.20            154           32.5 352 
 BRR  HZ EP     C 1214 24.56                             152    0.2610 71.0 300 
 BRR  HN ES       1214 41.57                             152    0.9310 71.0 300 
 BRR  HZ I        1214 45.91        30.6 0.38            140           71.0 300 
 PAM  SZ EP       1214 25.64                             150    0.1510 79.1  39 
 PAM  SN ES       1214 42.04                             150   -0.7110 79.1  39 
 PAM  SZ I        1214 44.96        17.0 0.54            134           79.1  39 
 RUS  HZ EP   1   1214 26.83                             144   -0.01 7 99.3 175 
 RUS  HN ES       1214 45.33                             144    0.1710 99.3 175 
 RUS  HZ I        1214 46.46        10.4 0.28            136           99.3 175 
 PTB  HZ EP       1214 29.47                             132   -0.59 9  146 259 
 PTB  HN ES       1214 50.23                             132   -0.67 9  146 259 
 PTB  HZ I        1214 52.65        14.6 0.18            121            146 259 
 SPBC HN ES   1   1214 53.85                             129    0.30 7  161 219 
 SPBC HZ I        1214 58.15        19.8 0.38            120            161 219 
 OCA  HE ES   1   1214 54.19                             129    0.47 7  162 354 
 ZAR  HN ES   1   1215  0.77                             122   -0.06 6  204 293 
 ZAR  HZ I        1215  6.06        15.5 0.26            111            204 293 
 NOR  HZ EP   1   1214 38.79                             118   -0.02 6  233 235 
 NOR  HN ES       1215  6.01                             118   -0.45 8  233 235 
 NOR  HZ I        1215  9.39         8.5 0.14            110            233 235 
 CHI  HZ EP   1   1214 40.99                             117    0.21 6  247 195 
 CHI  HN ES   1   1215  9.97                             117   -0.00 6  247 195 
 CHI  HZ I        1215 15.68         8.0 0.36            109            247 195 
 RREF HE ES   1   1215 25.73                             111    0.72 5  320 229 
 RREF HZ I        1215 34.88         7.4 0.42            104            320 229 
 COD  HZ EP   4   1214 50.50                             108   -1.31 0  350 355 
 COD  HZ I        1215 34.88         3.1 0.54            101            350 355 
 PRA  HZ EP   1   1214 56.58                             106   -0.04 4  390 210 
 PRA  HN ES   1   1215 38.36                             106    0.20 4  390 210 
 PRA  HZ I        1215 45.36         7.4 0.58            101            390 210 
 SJC  HZ EP   4   1214 56.76                             105   -2.17 0  410 327 
 SJC  HN ES   4   1215 38.85                             105   -3.43 0  410 327 
 SJC  HZ I        1215 50.25         3.1 0.34            100            410 327 
                                                                                
