 2016  911 1555 43.6 L   6.784 -73.143146.9  RSN 11 0.4 2.1LRSN                1
 GAP=138        0.87       2.8     3.7  4.7 -0.3290E+01  0.2638E+01  0.1588E+01E
 Epicentro: LOS SANTOS - SANTANDER                                             3
 ACTION:UPD 17-08-17 21:08 OP:lp   STATUS:               ID:20160911155543 L   I
 OLDACT:DUP 16-09-11 23:19 OP:lv   STATUS:               ID:20160911154735d    3
 2016-09-11-1548-00M.COL___309                                                 6
 STAT SP IPHASW D HRMM SECON CODA AMPLIT PERI AZIMU VELO AIN AR TRES W  DIS CAZ7
 BAR2 EZ EP       1556  3.23                             171   -0.1410 21.6 192 
 BAR2 EZ ES       1556 18.40                             171   -0.3510 21.6 192 
 BAR2 EZ I        1556 21.22        26.5 0.27            168           21.6 192 
 BRR  HZ EP       1556  5.10                             152    0.1310 72.3 300 
 BRR  HE ES       1556 22.40                             152    0.8010 72.3 300 
 BRR  HZ I        1556 25.01        14.4 0.16            151           72.3 300 
 PAM  EZ EP       1556  5.94                             151   -0.1010 78.6  39 
 PAM  EE ES       1556 23.42                             151   -0.1010 78.6  39 
 PAM  EZ I        1556 25.67        23.0 0.42            154           78.6  39 
 RUS  HZ EP       1556  7.53                             144    0.1610 98.8 176 
 RUS  HN ES       1556 25.99                             144    0.1110 98.8 176 
 RUS  HZ I        1556 27.15        16.0 0.30            144           98.8 176 
 PTB  HZ EP       1556 10.13                             132   -0.56 9  148 260 
 PTB  HN ES       1556 31.31                             132   -0.48 9  148 260 
 PTB  HZ I        1556 33.59        12.0 0.15            131            148 260 
 OCA  HZ EP       1556 12.29                             129    0.09 9  162 353 
 OCA  HE ES       1556 34.40                             129   -0.08 9  162 353 
 OCA  HZ I        1556 38.86        29.4 0.19            131            162 353 
 NOR  HZ EP       1556 18.75                             119   -0.59 8  234 235 
 NOR  HN ES       1556 47.40                             119    0.21 8  234 235 
 NOR  HZ I        1556 52.33        14.7 0.15            118            234 235 
 CHI  HZ EP       1556 21.34                             117    0.12 8  247 195 
 CHI  HN ES       1556 50.67                             117    0.14 8  247 195 
 CHI  HZ I        1557  0.69         6.2 0.44            117            247 195 
 ROSC BZ EP   9   1556 23.88                             117    2.22 0  251 211 
 ROSC BN ES       1556 53.07                                   -0.47 8  251 211 
 ROSC BZ I        1557  1.44        11.3 0.50            117            251 211 
 HEL  HZ EP   9   1556 26.26                             115    2.37 0  272 256 
 HEL  HN ES       1556 57.42                                   -0.23 8  272 256 
 HEL  HZ I        1557  3.40         8.8 0.30            115            272 256 
 GUY2CHZ EP       1556 27.77                             113    0.57 7  300 235 
 GUY2CHE ES       1557  1.52                             113    0.33 7  300 235 
 GUY2CHZ I        1557  9.45         7.7 0.30                           300 235 
                                                                                
