 2016  311 1541  5.9 L   6.238 -73.697100.4  RSN  7 0.4 1.5LRSN                1
 GAP= 93        0.89       3.8     3.3  7.3 -0.4664E+01  0.1187E+02 -0.1125E+02E
 Epicentro: LANDAZURI - SANTANDER                                              3
 ACTION:UPD 16-05-13 21:23 OP:cam  STATUS:               ID:20160311154105 L   I
 OLDACT:UP  16-03-12 01:09 OP:ar   STATUS:               ID:20160311152725     3
 OLDACT:REG 16-03-11 23:24 OP:ar   STATUS:               ID:20160311152725     3
 2016-03-11-1534-00M.COL___2442                                                6
 STAT SP IPHASW D HRMM SECON CODA AMPLIT PERI AZIMU VELO AIN AR TRES W  DIS CAZ7
 BAR2 EZ EP       1541 22.57                             143   -0.0310 69.1  55 
 BAR2 EZ ES       1541 35.79                             143    0.1910 69.1  55 
 BAR2 EZ I        1541 37.48        32.6 0.48            150           69.1  55 
 SPBC HZ EP   4   1541 25.72                             139    2.72 0 77.0 213 
 SPBC BN ES       1541 36.34                             139    0.0210 77.0 213 
 SPBC HZ I        1541 42.95         6.6 0.10            143           77.0 213 
 RUS  HZ EP       1541 23.15                             140   -0.4910 77.9 119 
 RUS  HN ES       1541 37.39                             140   -0.0510 77.9 119 
 RUS  HZ I        1541 38.43         2.9 0.18            146           77.9 119 
 NOR  HZ EP       1541 30.04                             119    0.11 9  150 240 
 NOR  HN ES       1541 48.68                             119    0.04 9  150 240 
 NOR  HZ I        1541 49.74         5.7 0.14            123            150 240 
 PAM  HZ EP       1541 32.77                             116    0.71 9  164  42 
 PAM  EE ES   2   1541 51.75                             116   -0.68 5  164  42 
 ZAR  HZ EP       1541 33.47                             112   -0.73 9  189 317 
 ZAR  HN ES       1541 56.35                             112    0.11 9  189 317 
 ZAR  HZ I        1541 57.70         6.3 0.44            117            189 317 
 GUY2CBZ EP       1541 38.22                             109    0.34 8  216 239 
 GUY2CHN ES   4   1542  5.05                             109    2.25 0  216 239 
 GUY2CBZ I        1542  8.92         2.5 0.54                           216 239 
                                                                                
