 2013  211 1118 17.4 L   6.831 -73.183140.0  RSN  7 0.4 1.9LRSN                1
 GAP=130        0.89       3.4     4.5  6.6 -0.1420E+01  0.6823E+01 -0.2965E+01E
 Epicentro: ZAPATOCA - SANTANDER                                               3
 ACTION:UPD 13-03-12 09:32 OP:ep   STATUS:               ID:20130211111817 L   I
 2013-02-11-1110-00M.COL___240                                                 6
 STAT SP IPHASW D HRMM SECON CODA AMPLIT PERI AZIMU VELO AIN AR TRES W  DIS CAZ7
 BAR2 SZ EP       1118 36.42                             169    0.0210 26.4 180 
 BAR2 SZ I        1118 36.80        12.8 0.30            172           26.4 180 
 BAR2 SZ ES   1   1118 51.03                             169   -0.19 7 26.4 180 
 BRR  HZ EP       1118 38.33                             153    0.7110 66.0 298 
 BRR  HN ES   1   1118 54.12                             153    0.72 7 66.0 298 
 BRR  HN I        1118 55.16        29.0 0.20            149           66.0 298 
 PAM  SZ IP     C 1118 39.25                             149    0.2410 77.6  43 
 PAM  SN ES       1118 55.82                             149   -0.0510 77.6  43 
 PAM  SN I        1118 56.97        14.7 0.26            149           77.6  43 
 RUS  HZ EP       1118 40.96                             141    0.1010  104 174 
 RUS  HN ES       1118 58.81                             141   -0.3610  104 174 
 RUS  HZ I        1119  0.34         3.9 0.36            145            104 174 
 PTB  HZ EP       1118 43.50                             131   -0.09 9  144 257 
 PTB  HN ES       1119  3.73                             131   -0.29 9  144 257 
 PTB  HZ I        1119  6.44         6.2 0.14            130            144 257 
 OCA  HN ES       1119  5.84                             129   -0.51 9  156 354 
 OCA  HN I        1119 10.55        30.7 0.22            127            156 354 
 SML  HZ EP       1118 52.98                             117   -0.20 8  239 336 
 SML  HN ES   2   1119 20.61                             117   -0.48 4  239 336 
 SML  HZ I        1119 31.86         4.4 0.10            116            239 336 
                                                                                
