 2017 1211 1218 18.0 L   6.829 -73.166144.0  RSN  9 0.4 1.7LRSN                1
 GAP=111        0.75       3.3     2.8  6.0  0.6437E-01  0.3841E+01  0.7098E+01E
 Epicentro: LOS SANTOS - SANTANDER                                             3
 ACTION:UPD 18-01-04 13:19 OP:rebc STATUS:               ID:20171211121818 L   I
 OLDACT:UP  17-12-12 00:21 OP:mg   STATUS:               ID:20171211120742     3
 OLDACT:REG 17-12-11 21:45 OP:mg   STATUS:               ID:20171211120742     3
 2017-12-11-1208-00M.COL___475                                                 6
 STAT SP IPHASW D HRMM SECON CODA AMPLIT PERI AZIMU VELO AIN AR TRES W  DIS CAZ7
 BAR2 EZ EP       1218 37.54                             169    0.0210 26.3 184 
 BAR2 EZ ES   2   1218 52.71                             169   -0.01 5 26.3 184 
 BAR2 EZ I        1218 53.88        14.6 0.18            167           26.3 184 
 PAM  EZ EP       1218 40.41                             151    0.4010 76.4  42 
 PAM  EN ES       1218 57.11                             151   -0.0410 76.4  42 
 PAM  EZ I        1218 58.06         7.8 0.20            155           76.4  42 
 PTB  HZ EP       1218 44.13                             132   -0.59 9  146 257 
 PTB  HN ES       1219  5.06                             132   -0.47 9  146 257 
 PTB  HZ I        1219  7.20         3.8 0.18            132            146 257 
 SPBC HZ EP       1218 46.46                             128   -0.05 9  164 218 
 SPBC HN ES       1219  9.17                             128    0.45 9  164 218 
 SPBC HZ I        1219 13.60         9.7 0.18            129            164 218 
 YPLC HZ EP       1218 47.72                             126   -0.38 9  181 151 
 YPLC HN ES       1219 11.62                             126    0.08 9  181 151 
 YPLC HZ I        1219 12.84         6.1 0.34            127            181 151 
 ZAR  HZ EP   2   1218 50.12                             122    0.09 4  201 292 
 ZAR  HN ES       1219 15.20                             122    0.22 9  201 292 
 ZAR  HZ I        1219 21.84         7.0 0.36            124            201 292 
 CHI  HZ EP   2   1218 55.73                             116   -0.19 4  251 194 
 CHI  HN ES   2   1219 24.52                             116   -0.95 4  251 194 
 CHI  HZ I        1219 32.00         1.7 0.42            118            251 194 
 GUY2CHZ EP       1219  1.84                             112    0.27 7  301 234 
 GUY2CHN ES       1219 35.92                             112    0.39 7  301 234 
 GUY2CHZ I        1219 44.49         2.6 0.58                           301 234 
 PRA  HZ EP       1219 11.84                             106    0.14 6  394 209 
 PRA  HN ES   2   1219 54.52                             106    0.97 3  394 209 
 PRA  HZ I        1219 56.52         2.2 0.25            107            394 209 
                                                                                
