 2014  511 1736 56.0 L   6.790 -73.159151.7  RSN  8 0.5 2.0LRSN                1
 GAP=135        1.13       3.9     4.8  7.6 -0.2323E+01  0.7170E+01 -0.1375E+00E
 Epicentro: LOS SANTOS - SANTANDER                                             3
 ACTION:UPD 15-03-16 16:56 OP:nd   STATUS:               ID:20140511173656 L   I
 OLDACT:UP  14-05-12 00:44 OP:com  STATUS:               ID:20140511173000     3
 OLDACT:UP  14-05-12 00:44 OP:com  STATUS:               ID:20140511173000     3
 OLDACT:REG 14-05-11 21:07 OP:mh   STATUS:               ID:20140511173000     3
 2014-05-11-1730-00M.COL___273                                                 6
 STAT SP IPHASW D HRMM SECON CODA AMPLIT PERI AZIMU VELO AIN AR TRES W  DIS CAZ7
 BRR  HN ES       1737 35.56                             154    0.8410 70.4 300 
 PAM  SZ EP       1737 19.59                             151    0.6410 79.2  40 
 PAM  SN ES       1737 36.46                             151   -0.4010 79.2  40 
 PAM  SZ I        1737 39.00         4.5 0.07            155           79.2  40 
 RUS  HZ EP       1737 20.06                             145   -0.2110 99.6 175 
 RUS  HN ES       1737 39.01                             145   -0.1910 99.6 175 
 RUS  HZ I        1737 42.02         3.7 0.43            146           99.6 175 
 PTB  HZ EP       1737 22.76                             134   -0.55 9  146 259 
 PTB  HN ES       1737 44.60                             134   -0.01 9  146 259 
 PTB  HZ I        1737 46.97         8.3 0.05            135            146 259 
 SPBC HZ EP       1737 24.70                             131   -0.09 9  161 219 
 SPBC HN ES       1737 46.97                             131   -0.28 9  161 219 
 SPBC HZ I        1737 53.94       197.4 0.10            132            161 219 
 ZAR  HN ES       1737 53.84                             124   -0.44 9  203 293 
 ZAR  HZ I        1737 56.96         4.0 0.47            126            203 293 
 NOR  HZ EP       1737 32.70                             120    0.82 8  233 234 
 NOR  HN ES       1738  0.07                             120    0.20 8  233 234 
 NOR  HZ I        1738  3.44        68.2 0.03            121            233 234 
 SML  HZ EP       1737 33.11                             119    0.10 8  244 336 
 SML  HE ES       1738  1.40                             119   -0.47 8  244 336 
 SML  HZ I        1738  1.87         2.6 0.10            121            244 336 
                                                                                
