 2016 1111 1643 35.7 L   6.799 -73.143148.0  RSN  6 0.5 2.1LRSN                1
 GAP=152        1.21       8.2     5.8  8.9 -0.1532E+02  0.1180E+02  0.1605E+02E
 Epicentro: LOS SANTOS - SANTANDER                                             3
 ACTION:UPD 17-10-26 21:06 OP:lp   STATUS:               ID:20161111164335 L   I
 OLDACT:REG 16-11-11 21:27 OP:dnl  STATUS:               ID:20161111162602     3
 2016-11-11-1638-00M.COL___343                                                 6
 STAT SP IPHASW D HRMM SECON CODA AMPLIT PERI AZIMU VELO AIN AR TRES W  DIS CAZ7
 BAR2 EZ IP     D 1643 55.49                             171   -0.0710 23.2 191 
 BAR2 EZ ES       1644 11.08                             171   -0.0010 23.2 191 
 BAR2 EZ I        1644 13.38        30.2 0.40            170           23.2 191 
 BRR  HN ES       1644 14.47                             153    0.6910 71.6 299 
 BRR  HZ I        1644 17.90        22.5 0.50            149           71.6 299 
 PAM  EZ EP       1643 58.35                             151    0.2310 77.3  39 
 PAM  EN ES       1644 15.33                             151   -0.2910 77.3  39 
 PAM  EZ I        1644 17.89        16.3 0.60            154           77.3  39 
 PTB  HZ EP       1644  2.40                             132   -0.44 9  148 259 
 PTB  HN ES       1644 23.06                             132   -0.98 9  148 259 
 PTB  HZ I        1644 30.70        15.8 0.36            132            148 259 
 ZAR  HZ EP   2   1644  9.22                             123    0.92 4  204 292 
 ZAR  HE ES       1644 33.73                             123   -0.02 9  204 292 
 ZAR  HZ I        1644 41.90        10.8 0.42            123            204 292 
 NOR  HZ EP       1644 11.51                             119   -0.04 8  235 235 
 NOR  HN ES       1644 40.38                             119    0.85 8  235 235 
 NOR  HZ I        1644 45.24         9.9 0.30            120            235 235 
                                                                                
