 2011 1111 1800 44.1 L   6.808 -73.130138.2  RSN  8 0.3 2.3LRSN                1
 GAP=138        0.56       2.1     3.1  4.1 -0.8020E+00  0.3570E+01  0.9921E+00E
 Epicentro: LOS SANTOS - SANTANDER                                             3
 ACTION:UPD 12-07-13 16:09 OP:ep   STATUS:               ID:20111111180044 L   I
 2011-11-11-1758-04S.COL___179                                                 6
 STAT SP IPHASW D HRMM SECON CODA AMPLIT PERI AZIMU VELO AIN AR TRES W  DIS CAZ7
 BAR2 SZ EP       18 1  2.81                             169   -0.0510 24.6 194 
 BAR2 SZ ES   1   18 1 17.46                             169   -0.02 7 24.6 194 
 BAR2 SZ I        18 1 19.04        40.4 0.16                          24.6 194 
 BRR  HZ EP       18 1  4.80                             151    0.2810 72.3 297 
 BRR  HE ES   1   18 1 20.76                             151    0.33 7 72.3 297 
 BRR  HZ I        18 1 25.83        60.5 0.14                          72.3 297 
 PAM  SZ EP       18 1  5.80                             150    0.3810 75.6  39 
 PAM  SN ES       18 1 21.81                             150   -0.2310 75.6  39 
 RUS  HZ EP       18 1  7.02                             142   -0.1710  101 177 
 RUS  HN ES   1   18 1 25.10                             142   -0.09 7  101 177 
 OCA  SZ EP       18 1 11.84                             128    0.05 9  160 352 
 OCA  SZ ES   1   18 1 32.92                             128   -0.45 7  160 352 
 OCA  SZ I        18 1 37.81        23.7 0.50                           160 352 
 ZAR  HZ EP   2   18 1 15.56                             120   -0.65 4  205 292 
 ZAR  HE ES   1   18 1 41.18                             120   -0.07 6  205 292 
 ZAR  HZ I        18 1 47.41        21.2 0.34                           205 292 
 NOR  SZ EP   1   18 1 19.65                             117    0.02 6  237 235 
 NOR  SE ES   1   18 1 47.13                             117   -0.20 6  237 235 
 CHI  HZ EP   1   18 1 21.31                             115   -0.24 6  250 195 
 CHI  HE ES   1   18 1 51.12                             115    0.37 6  250 195 
 CHI  HZ I        18 1 55.98         6.6 0.30                           250 195 
                                                                                
