 2010  411 1820 59.6 L   6.751 -73.072142.0  RSN  7 0.4 2.3LRSN                1
 GAP=272        0.83       8.5     8.4  9.3 -0.1293E+02  0.9431E+01  0.4786E+02E
 Epicentro: LOS SANTOS - SANTANDER                                             3
 ACTION:UP  10-08-24 09:58 OP:vdl  STATUS:               ID:20100411182059 L   I
 2010-04-11-1820-05S.COL___097                                                 6
 STAT SP IPHASW D HRMM SECON CODA AMPLIT PERI AZIMU VELO AIN AR TRES W  DIS CAZ7
 BAR2 SZ EP   1   1821 18.61                             171    -0.2 7   22 215 
 BAR2 SZ ES   2   1821 33.50                             171    -0.2 5   22 215 
 BRR  HZ EP       1821 20.80                             149    -0.210   81 299 
 BRR  HE ES   1   1821 38.05                             149     0.4 7   81 299 
 BRR  HZ I        1821 41.51        29.8 0.13                            81 299 
 HEL  HZ EP       1821 40.33                             113    -0.1 7  279 257 
 HEL  HN ES   1   1822 11.57                             113    -0.6 6  279 257 
 HEL  HZ I        1822 17.13         6.7 0.28                           279 257 
 RREF BZ EP       1821 45.98                             110     0.0 7  325 231 
 RREF BE ES   1   1822 21.87                             110    -0.2 5  325 231 
 RREF BZ I        1822 30.18        10.0 0.30                           325 231 
 TOL  SZ EP       1821 48.95                             108     1.0 6  346 226 
 ANIL BN ES   2   1822 29.19                             108     0.8 3  359 226 
 PRA  HZ EP       1821 52.50                             106    -0.5 6  391 211 
 PRA  HN ES   2   1822 34.32                             106    -0.2 3  391 211 
 PRA  HZ I        1822 38.48         7.0 0.59                           391 211 
                                                                                
