 2014  711 1325 44.0 L   6.702 -73.181150.3  RSN  5 0.3 1.9LRSN                1
 GAP=203        0.79       5.5     6.1  6.9 -0.5707E+00  0.1092E+02 -0.1346E+02E
 Epicentro: VILLANUEVA - SANTANDER                                             3
 ACTION:UPD 15-03-16 20:43 OP:nd   STATUS:               ID:20140711132544 L   I
 OLDACT:UP  14-07-11 21:25 OP:cam  STATUS:               ID:20140711132000     3
 OLDACT:REG 14-07-11 19:44 OP:cam  STATUS:               ID:20140711132000     3
 2014-07-11-1320-00M.COL___282                                                 6
 STAT SP IPHASW D HRMM SECON CODA AMPLIT PERI AZIMU VELO AIN AR TRES W  DIS CAZ7
 BAR2 SZ ES       1326 19.15                             175   -0.4210 12.2 181 
 BRR  HZ EP       1326  5.99                             152    0.2510 73.8 307 
 BRR  HN ES       1326 23.22                             152    0.4910 73.8 307 
 BRR  HN I        1326 23.89        26.4 0.20            150           73.8 307 
 PTB  HZ EP       1326 10.97                             134    0.17 9  142 263 
 PTB  HE ES       1326 31.71                             134   -0.03 9  142 263 
 PTB  HZ I        1326 37.12         4.3 0.50            132            142 263 
 ZAR  HN ES       1326 41.94                             123   -0.44 9  205 295 
 SML  HZ EP   1   1326 21.46                             117   -0.28 6  252 337 
 SML  HN ES       1326 51.16                             117   -0.04 8  252 337 
 SML  HZ I        1326 53.13         4.8 0.10            118            252 337 
                                                                                
