 2012 1011 1418 58.7 L   6.499 -73.634107.1  RSN  4 0.1 1.6LRSN                1
 GAP=215        0.28       8.9    11.8  9.4  0.9475E+02  0.6134E+02  0.5217E+02E
 Epicentro: SANTA HELENA DEL OPON - SANTANDER                                  3
 ACTION:UPD 12-11-22 17:03 OP:ep   STATUS:               ID:20121011141858 L   I
 2012-10-11-1410-00M.COL___229                                                 6
 STAT SP IPHASW D HRMM SECON CODA AMPLIT PERI AZIMU VELO AIN AR TRES W  DIS CAZ7
 BAR2 SZ EP   3   1419 15.01                             153    0.10 2 51.0  78 
 BAR2 SZ ES   2   1419 27.54                             153    0.01 5 51.0  78 
 BAR2 SZ I        1419 29.20        11.9 0.28                          51.0  78 
 BRR  HZ E        1419 15.53                                           67.8 353 
 BRR  HZ EP   3   1419 15.53                             145   -0.10 2 67.8 353 
 BRR  HN ES   1   1419 28.81                             145    0.01 7 67.8 353 
 BRR  HN I        1419 30.39        12.0 0.44                          67.8 353 
 GIR2 SZ EP   3   1419 16.69                             140   -0.08 2 80.5  37 
 RUS  HZ EP   3   1419 18.19                             137    0.11 2 90.7 138 
 RUS  HN ES   3   1419 33.06                             137   -0.10 2 90.7 138 
 RUS  HN E        1419 33.06                                           90.7 138 
                                                                                
