 2017 1211 1232 27.0 L   7.608 -73.151143.5  RSN  6 0.4 1.7LRSN                1
 GAP=131        0.89       3.2     6.0  7.8 -0.2207E+01  0.2190E+02 -0.5888E+01E
 Epicentro: EL PLAYON - SANTANDER                                              3
 ACTION:UPD 18-01-04 13:19 OP:rebc STATUS:               ID:20171211123227 L   I
 OLDACT:REG 17-12-11 21:48 OP:mg   STATUS:               ID:20171211122743     3
 2017-12-11-1228-00M.COL___475                                                 6
 STAT SP IPHASW D HRMM SECON CODA AMPLIT PERI AZIMU VELO AIN AR TRES W  DIS CAZ7
 PAM  EZ EP       1232 48.16                             157    0.2010 58.0 121 
 PAM  EN ES       1233  4.26                             157   -0.0310 58.0 121 
 PAM  EZ I        1233  5.25        25.6 0.20            160           58.0 121 
 OCA  HZ EP       1232 48.31                             152    0.0910 72.1 345 
 OCA  HN ES   1   1233  5.03                             152    0.29 7 72.1 345 
 OCA  HZ I        1233  6.26        19.5 0.14            153           72.1 345 
 BAR2 EZ EP       1232 51.25                             140    0.1410  112 182 
 BAR2 EZ ES       1233  9.07                             140   -0.8110  112 182 
 BAR2 EZ I    2   1233 11.13         8.5 0.42            141            112 182 
 PTB  HZ EP       1232 57.73                             124    0.19 9  186 231 
 PTB  HN ES       1233 21.81                             124    0.47 9  186 231 
 PTB  HZ I        1233 23.72         2.1 0.14            125            186 231 
 DRL03HZ EP       1232 59.11                             122    0.18 9  200 350 
 DRL03HN ES       1233 23.60                             122   -0.22 9  200 350 
 SJC  HZ EP   2   1233 12.98                             109   -1.17 3  337 319 
 SJC  HN ES   2   1233 49.79                             109   -1.12 3  337 319 
 SJC  HZ I        1233 51.33         1.4 0.19            110            337 319 
                                                                                
