 2010  511 1810 56.5 L   6.754 -72.988145.5  RSN  7 0.5 1.9LRSN                1
 GAP=175        0.81       5.2    11.8  9.0 -0.2573E+02 -0.1634E+02  0.6171E+01E
 Epicentro: CEPITA - SANTANDER                                                 3
 ACTION:UP  10-08-24 10:04 OP:vdl  STATUS:               ID:20100511181056 L   I
 2010-05-11-1809-48S.COL___104                                                 6
 STAT SP IPHASW D HRMM SECON CODA AMPLIT PERI AZIMU VELO AIN AR TRES W  DIS CAZ7
 BAR2 SZ EP   1   1811 15.99                             169    -0.2 7   28 230 
 BAR2 SZ ES   2   1811 31.72                             169     0.1 5   28 230 
 BRR  HZ EP   1   1811 18.57                             147    -0.2 7   89 296 
 BRR  HZ I        1811 18.80        32.1 0.15                            89 296 
 BRR  HN ES   2   1811 36.17                             147     0.1 5   89 296 
 RUS  HZ EP   1   1811 20.09                             145     0.2 7   96 186 
 RUS  HN ES   2   1811 38.32                             145     0.2 5   96 186 
 RUS  HZ I        1811 39.76         5.2 0.25                            96 186 
 BRI  SZ EP   1   1811 20.60                             141     0.2 7  108  11 
 BRI  SZ ES   2   1811 37.60                             141    -1.4 5  108  11 
 GUE  SZ EP   1   1811 21.94                             139     0.5 7  119   3 
 GUE  SZ ES   2   1811 41.79                             139     0.9 5  119   3 
 GRA  SZ EP   1   1811 21.58                             137    -0.2 7  127   9 
 GRA  SZ ES   2   1811 41.50                             137    -0.1 5  127   9 
 PRA  HZ EP   1   1811 50.32                             106    -0.3 4  397 212 
                                                                                
