 2010  611 1440 40.3 L   6.780 -73.289135.8  RSN  6 0.3 1.9LRSN                1
 GAP=192        0.69       3.1    15.2  6.5 -0.7338E+01  0.1017E+02 -0.5373E+01E
 Epicentro: ZAPATOCA - SANTANDER                                               3
 ACTION:UP  10-08-24 10:09 OP:vdl  STATUS:               ID:20100611144040 L   I
 2010-06-11-1438-59S.COL___117                                                 6
 STAT SP IPHASW D HRMM SECON CODA AMPLIT PERI AZIMU VELO SNR AR TRES W  DIS CAZ7
 BAR2 SZ EP       1440 58.86                             170     0.110   24 151 
 BAR2 SZ ES   1   1441 12.89                             170    -0.3 7   24 151 
 GIR2 SZ EP       1440 59.03                             165     0.110   35  18 
 GIR2 SZ ES   2   1441 13.60                             165     0.2 5   35  18 
 RUS  HZ EP       1441  3.19                             142     0.110  101 167 
 RUS  HE ES   1   1441 20.83                             142    -0.1 7  101 167 
 RUS  HZ I        1441 22.22         6.9 0.21                           101 167 
 BRI  SZ EP   1   1441  4.65                             137     0.7 7  117  28 
 GRA  SZ IP       1441  4.92                             133    -0.410  133  24 
 GRA  SZ ES   1   1441 24.85                             133     0.0 7  133  24 
 OCA  SZ EP   1   1441  7.65                             127    -0.3 7  161 359 
 OCA  SZ ES   1   1441 29.71                             127     0.2 7  161 359 
 OCA  SZ I        1441 33.46        20.3 0.17                           161 359 
                                                                                
