 2017  311 1950 35.4 L   6.721 -73.204140.8  RSN  8 0.3 2.0LRSN                1
 GAP=131        0.85       3.2     3.6  5.3  0.1406E+01  0.4897E+01  0.2902E+01E
 Epicentro: VILLANUEVA - SANTANDER                                             3
 ACTION:UPD 17-05-25 18:39 OP:jn   STATUS:               ID:20170311195035 L   I
 OLDACT:DUP 17-03-12 01:14 OP:cara STATUS:               ID:20170311194743d    3
 2017-03-11-1948-00M.COL___403                                                 6
 STAT SP IPHASW D HRMM SECON CODA AMPLIT PERI AZIMU VELO AIN AR TRES W  DIS CAZ7
 BAR2 EZ EP       1950 54.65                             174    0.3610 14.5 171 
 BAR2 EZ ES       1951  8.74                             174   -0.2810 14.5 171 
 BAR2 EZ I        1951 10.53        22.8 0.40            170           14.5 171 
 BRR  HZ EP       1950 56.20                             152    0.2210 70.5 307 
 BRR  HN ES       1951 12.48                             152    0.4510 70.5 307 
 BRR  HZ I        1951 17.87        25.0 0.44            152           70.5 307 
 PAM  EZ EP       1950 57.76                             146   -0.0310 88.2  39 
 PAM  EE ES       1951 14.95                             146   -0.3010 88.2  39 
 PAM  EZ I        1951 17.83        12.3 0.42            152           88.2  39 
 RUS  HZ EP       1950 58.21                             145    0.1110 92.6 172 
 RUS  HN ES       1951 15.92                             145    0.1210 92.6 172 
 RUS  HZ I        1951 17.46        17.9 0.32            144           92.6 172 
 PTB  HZ EP       1951  0.92                             132   -0.34 9  140 262 
 PTB  HN ES       1951 20.78                             132   -0.65 9  140 262 
 PTB  HZ I        1951 24.07        15.6 0.22            132            140 262 
 ZAR  HZ EP       1951  7.10                             122   -0.18 9  202 295 
 ZAR  HN ES       1951 32.60                             122    0.45 9  202 295 
 ZAR  HZ I        1951 37.24        11.5 0.24            123            202 295 
 CHI  HZ EP       1951 11.45                             117   -0.29 8  239 194 
 CHI  HN ES       1951 40.41                             117    0.34 8  239 194 
 CHI  HZ I        1951 56.74         5.9 0.24            117            239 194 
 GUY2CHZ EP   4   1951 19.20                             112    1.57 0  291 235 
 GUY2CHN ES   4   1951 51.61                             112    1.05 0  291 235 
 GUY2CHZ  IAML    1952  1.24         3.4 0.62                           291 235 
                                                                                
