 2012  811 1635 23.4 L   6.732 -73.196141.7  RSN  5 0.2 2.1LRSN                1
 GAP=226        0.44       4.1     3.7  4.2  0.9046E+01  0.1740E+01 -0.2027E+01E
 Epicentro: VILLANUEVA - SANTANDER                                             3
 ACTION:UPD 12-09-10 11:55 OP:ep   STATUS:               ID:20120811163523 L   I
 2012-08-11-1630-00M.COL___218                                                 6
 STAT SP IPHASW D HRMM SECON CODA AMPLIT PERI AZIMU VELO AIN AR TRES W  DIS CAZ7
 BAR2 SZ EP       1635 42.32                             173   -0.1310 15.6 174 
 BAR2 SZ ES   1   1635 57.06                             173   -0.22 7 15.6 174 
 BAR2 SZ I        1635 58.67        18.8 0.24                          15.6 174 
 BRR  HZ EP       1635 44.18                             152    0.0610 70.4 306 
 BRR  HZ I        1635 44.58        25.1 0.13                          70.4 306 
 BRR  HN ES   1   1636  0.36                             152    0.12 7 70.4 306 
 RUS  HZ EP   1   1635 46.20                             145   -0.11 7 93.7 172 
 RUS  HE ES   1   1636  4.52                             145    0.38 7 93.7 172 
 PTB  HZ EP   1   1635 49.45                             132   -0.02 7  141 261 
 PTB  HZ I        1636  1.42        29.1 0.80                           141 261 
 PTB  HE ES   1   1636  9.49                             132   -0.27 7  141 261 
 ZAR  HZ EP   1   1635 55.49                             122    0.09 6  202 295 
 ZAR  HN ES   1   1636 20.52                             122    0.19 6  202 295 
 ZAR  HZ I        1636 26.30         8.6 0.22                           202 295 
                                                                                
