 2011 1011 1628 15.2 L   6.786 -73.146143.9  RSN  5 0.4 1.6LRSN                1
 GAP=137        0.65       4.3     6.6  8.4 -0.1701E+01  0.8911E+01  0.2280E+01E
 Epicentro: LOS SANTOS - SANTANDER                                             3
 ACTION:UPD 12-07-13 16:03 OP:ep   STATUS:               ID:20111011162815 L   I
 2011-10-11-1623-34S.COL___167                                                 6
 STAT SP IPHASW D HRMM SECON CODA AMPLIT PERI AZIMU VELO AIN AR TRES W  DIS CAZ7
 BAR2 SZ EP       1628 34.54                             171    0.0110 21.8 191 
 BAR2 SZ I        1628 53.43         4.7 0.36                          21.8 191 
 BRR  HZ EP       1628 36.20                             151    0.0510 71.9 300 
 BRR  HZ I        1628 44.85        16.8 0.38                          71.9 300 
 BRR  HN ES   2   1628 53.14                             151    0.62 5 71.9 300 
 PAM  SZ EP       1628 37.41                             150    0.1610 78.6  39 
 PAM  SE ES   1   1628 54.01                             150   -0.47 7 78.6  39 
 RUS  HZ EP       1628 38.68                             143    0.0710 99.0 176 
 RUS  HE ES   1   1628 56.75                             143   -0.16 7 99.0 176 
 ZAR  HE ES   3   1629 10.93                             121   -1.87 2  205 293 
                                                                                
