 2013  611 1754 27.8 L   6.813 -73.178147.1  RSN  6 0.4 2.0LRSN                1
 GAP=235        0.82       5.9     5.3 10.5  0.5196E+01 -0.2893E+01  0.9692E+01E
 Epicentro: LOS SANTOS - SANTANDER                                             3
 ACTION:UPD 14-01-08 09:54 OP:ep   STATUS:               ID:20130611175427 L   I
 OLDACT:REG 13-06-11 14:59 OP:mh   STATUS:               ID:20130611174959     3
 2013-06-11-1749-59M.COL___260                                                 6
 STAT SP IPHASW D HRMM SECON CODA AMPLIT PERI AZIMU VELO AIN AR TRES W  DIS CAZ7
 BAR2 SZ EP   1   1754 47.47                             170   -0.15 7 24.4 181 
 BRR  HZ EP     C 1754 49.26                             154    0.3710 67.4 299 
 BRR  HN ES   1   1755  5.60                             154    0.26 7 67.4 299 
 BRR  HN I        1755  6.86        36.6 0.24            148           67.4 299 
 RUS  HZ EP   1   1754 51.76                             144   -0.06 7  102 174 
 RUS  HN ES   2   1755 10.44                             144   -0.11 5  102 174 
 RUS  HN I        1755 11.50        12.4 0.40            140            102 174 
 PTB  HZ EP       1754 54.22                             133   -0.38 9  145 258 
 PTB  HN ES       1755 14.96                             133   -0.54 9  145 258 
 PTB  HN I        1755 20.21        13.2 0.42            128            145 258 
 ZAR  HN ES       1755 25.05                             123    0.04 9  200 292 
 ZAR  HN I        1755 31.85         7.6 0.20            121            200 292 
 NOR  HN ES       1755 31.78                             119    0.62 8  233 234 
 NOR  HN I        1755 41.44         8.7 0.18            116            233 234 
                                                                                
