 2017 1111 1350 11.5 L   6.771 -73.120148.5  RSN 13 0.5 1.8LRSN                1
 GAP=115        1.09       4.0     4.9  6.1 -0.4325E+01  0.6584E+01  0.5797E+01E
 Epicentro: LOS SANTOS - SANTANDER                                             3
 ACTION:UPD 17-12-12 19:54 OP:rebc STATUS:               ID:20171111135011 L   I
 OLDACT:UP  17-11-11 23:12 OP:mg   STATUS:               ID:20171111134739     3
 OLDACT:REG 17-11-11 20:41 OP:mg   STATUS:               ID:20171111134739     3
 2017-11-11-1348-00M.COL___456                                                 6
 STAT SP IPHASW D HRMM SECON CODA AMPLIT PERI AZIMU VELO AIN AR TRES W  DIS CAZ7
 BAR2 EZ EP       1350 31.52                             172    0.0810 21.0 199 
 BAR2 HN ES       1350 46.72                             172   -0.2510 21.0 199 
 BAR2 EZ I        1350 48.10        22.8 0.18            168           21.0 199 
 BRR  HZ EP       1350 33.56                             152    0.3610 75.3 300 
 BRR  HN ES       1350 50.99                             152    0.8810 75.3 300 
 BRR  HZ I        1350 53.78        17.1 0.28            150           75.3 300 
 PAM  EZ EP       1350 33.77                             151   -0.3110 78.1  36 
 PAM  EN ES       1350 51.60                             151   -0.0610 78.1  36 
 PAM  EZ I        1350 54.66         3.1 0.18            156           78.1  36 
 RUS  HZ EP       1350 35.42                             145    0.1110 97.2 178 
 RUS  HN ES       1350 53.73                             145   -0.1310 97.2 178 
 RUS  HZ I        1350 55.31         7.9 0.42            145           97.2 178 
 PTB  HZ EP       1350 38.19                             132   -0.73 9  150 260 
 PTB  HN ES   2   1350 59.32                             132   -0.97 5  150 260 
 PTB  HZ I        1351  2.52         3.6 0.25            131            150 260 
 SPBC HZ EP       1350 40.45                             130    0.27 9  163 220 
 SPBC HN ES       1351  1.89                             130   -0.63 9  163 220 
 SPBC HZ I        1351  7.16         8.6 0.24            129            163 220 
 YPLC HZ EP   1   1350 41.75                             128    0.63 7  173 152 
 ZAR  HZ EP   1   1350 44.27                             122   -0.28 6  208 293 
 ZAR  HE ES   2   1351  9.57                             122   -0.73 4  208 293 
 ZAR  HZ I        1351 16.15         7.4 0.15            123            208 293 
 NOR  HZ EP       1350 47.16                             119   -0.31 8  235 236 
 NOR  HE ES       1351 15.98                             119    0.47 8  235 236 
 NOR  HZ I        1351 22.03         3.2 0.14            119            235 236 
 CHI  HZ EP       1350 49.77                             118    0.64 8  246 196 
 CHI  HN ES       1351 18.06                             118   -0.40 8  246 196 
 CHI  HZ I        1351 27.54         3.2 0.36            119            246 196 
 ROSC BN ES   1   1351 19.49                             117    0.08 6  252 212 
 ROSC BZ I        1351 22.62        15.9 0.13            118            252 212 
 GUY2CHZ EP   1   1350 54.32                             113   -1.00 5  302 236 
 GUY2CHN ES   2   1351 30.81                             113    1.33 4  302 236 
 GUY2CHZ I        1351 34.80         2.9 0.18                           302 236 
 PRA  HZ EP   1   1351  5.80                             107    0.81 4  391 210 
 PRA  HE ES   2   1351 47.74                             107    1.06 3  391 210 
 PRA  HZ I        1351 55.92         2.7 0.45            108            391 210 
                                                                                
