 2014 1211 1505 35.0 L   6.797 -73.196141.9  RSN  5 0.3 1.7LRSN                1
 GAP=130        0.82       3.2     4.3  8.0 -0.3452E+01  0.1149E+02 -0.3398E+01E
 Epicentro: ZAPATOCA - SANTANDER                                               3
 ACTION:UPD 15-02-10 17:02 OP:nd   STATUS:               ID:20141211150535 L   I
 OLDACT:ARG 14-12-11 21:09 OP:stll STATUS:               ID:20141211145744     3
 2014-12-11-1457-44M.COL___297                                                 6
 STAT SP IPHASW D HRMM SECON CODA AMPLIT PERI AZIMU VELO AIN AR TRES W  DIS CAZ7
 PAM  SZ I        15 5 57.20        14.2 0.24            155           81.3  42 
 PAM  SZ EP       15 5 57.24                             149    0.1810 81.3  42 
 PAM  SN ES       15 6 14.23                             149   -0.0310 81.3  42 
 RUS  HZ EP       15 5 58.13                             143   -0.2810  101 173 
 RUS  HN ES       15 6 16.82                             143    0.1710  101 173 
 RUS  HZ I        15 6 17.82         4.3 0.34            131            101 173 
 PTB  HZ EP       15 6  1.28                             132    0.12 9  142 259 
 PTB  HN ES       15 6 21.95                             132    0.39 9  142 259 
 PTB  HZ I        15 6 29.39         4.4 0.32            119            142 259 
 SPBC HZ EP       15 6  3.20                             129    0.33 9  159 217 
 SPBC HN ES       15 6 23.95                             129   -0.64 9  159 217 
 SPBC HZ I        15 6 32.27        14.7 0.14            117            159 217 
 SML  HN ES       15 6 39.06                             117   -0.37 8  242 337 
                                                                                
