 2015  111 1217 22.7 L   6.828 -73.150141.4  RSN 16 0.5 2.6LRSN                1
 GAP= 70        1.04       2.9     2.9  5.0 -0.7533E+00  0.3381E+01  0.7578E+00E
 Epicentro: LOS SANTOS - SANTANDER                                             3
 ACTION:UPD 15-03-02 15:38 OP:nd   STATUS:               ID:20150111121722 L   I
 OLDACT:UP  15-01-11 21:39 OP:mh   STATUS:               ID:20150111120743     3
 OLDACT:UP  15-01-11 21:38 OP:mh   STATUS:               ID:20150111120743     3
 OLDACT:UP  15-01-11 21:38 OP:mh   STATUS:               ID:20150111120743     3
 OLDACT:REG 15-01-11 20:29 OP:mh   STATUS:               ID:20150111120743     3
 2015-01-11-1207-43M.COL___252                                                 6
 STAT SP IPHASW D HRMM SECON CODA AMPLIT PERI AZIMU VELO AIN AR TRES W  DIS CAZ7
 BAR2 EZ EP     C 1217 42.04                             169    0.2110 26.3 188 
 BAR2 EZ ES       1217 56.40                             169   -0.3910 26.3 188 
 BAR2 EZ I        1217 57.83        74.3 0.20            168           26.3 188 
 BRR  HZ EP   1   1217 43.85                             152    0.61 7 69.4 296 
 BRR  HN ES       1217 59.84                             152    0.5510 69.4 296 
 BRR  HZ I        1218  2.25        54.3 0.48            150           69.4 296 
 PAM  SZ EP       1217 44.84                             150    0.5510 75.4  41 
 PAM  SN ES       1218  1.17                             150    0.0010 75.4  41 
 PAM  SZ I        1218  3.91        48.3 0.44            154           75.4  41 
 RUS  HZ EP   1   1217 46.00                             142   -0.21 7  104 176 
 RUS  HN ES       1218  4.12                             142   -0.4710  104 176 
 RUS  HZ I        1218  5.30        36.6 0.30            143            104 176 
 PTB  HZ EP       1217 48.59                             131   -0.70 9  148 258 
 PTB  HN ES       1218  9.84                             131   -0.22 9  148 258 
 PTB  HZ I        1218 15.49        25.2 0.12            130            148 258 
 TAM  HZ EP       1217 50.26                             129    0.15 9  156 106 
 TAM  HN ES       1218 11.81                             129    0.28 9  156 106 
 OCA  HZ EP       1217 50.61                             129    0.27 9  157 353 
 OCA  HN ES   1   1218 11.64                             129   -0.30 7  157 353 
 OCA  HZ I        1218 15.71        32.5 0.16            130            157 353 
 SPBC HZ EP       1217 50.87                             128   -0.16 9  165 218 
 SPBC HN ES       1218 12.99                             128   -0.17 9  165 218 
 SPBC HZ I        1218 16.07        64.1 0.12            127            165 218 
 ZAR  HZ EP       1217 53.68                             122   -0.98 9  202 291 
 ZAR  HN ES       1218 20.09                             122    0.47 9  202 291 
 ZAR  HZ I        1218 28.01        42.6 0.26            121            202 291 
 NOR  HZ EP       1217 58.24                             117   -0.05 8  236 234 
 NOR  HN ES       1218 26.17                             117    0.08 8  236 234 
 NOR  HZ I        1218 31.24        31.7 0.16            117            236 234 
 SML  HZ EP       1217 57.87                             117   -0.85 8  241 335 
 SML  HN ES   1   1218 26.73                             117   -0.12 6  241 335 
 SML  HZ I        1218 32.85        38.1 0.10            117            241 335 
 ROSC BZ EP   1   1218  1.50                             115    0.69 6  255 211 
 ROSC BN ES   4   1218 30.95                             115    0.39 0  255 211 
 ROSC BZ I        1218 36.51        32.8 0.55            116            255 211 
 HEL  HZ EP       1218  3.20                             114    0.51 8  272 255 
 HEL  HN ES       1218 34.00                             114    0.09 8  272 255 
 HEL  HZ I        1218 40.87        13.7 0.30            114            272 255 
 URE  HZ EP   4   1218  3.39                             113    0.05 0  282 291 
 URE  HN ES   4   1218 32.61                             113   -2.47 0  282 291 
 URE  HZ I        1218 35.29        20.6 0.10            113            282 291 
 VIL  SZ EP   1   1218  5.65                             111   -0.56 5  306 191 
 VIL  SE ES   1   1218 40.02                             111   -0.16 5  306 191 
 VIL  SZ I        1218 49.80        17.5 0.38            111            306 191 
 TOL  SZ EP       1218 11.85                             108    0.89 7  345 224 
 TOL  SN ES   1   1218 49.10                             108    0.47 5  345 224 
 TOL  SZ I        1218 56.50        32.3 0.13            109            345 224 
 SDV  BZ EP   4   1218  9.83                             107   -2.52 0  359  51 
 SDV  BN ES   4   1218 46.86                             107   -4.25 0  359  51 
                                                                                
