 2010  711 1948 59.0 L   6.806 -73.104145.0  RSN  8 0.3 2.0LRSN                1
 GAP=160        0.71       4.7     8.4  8.4 -0.4898E+01 -0.2280E+01 -0.1093E+02E
 Epicentro: LOS SANTOS - SANTANDER                                             3
 ACTION:UPD 10-12-01 15:16 OP:pat  STATUS:               ID:20100711194859 L   I
 2010-07-11-1944-31S.COL___120                                                 6
 STAT SP IPHASW D HRMM SECON CODA AMPLIT PERI AZIMU VELO AIN AR TRES W  DIS CAZ7
 BAR2 SZ EP   1   1949 18.53                             170     0.0 7   25 200 
 BAR2 SZ ES   2   1949 33.44                             170    -0.4 5   25 200 
 BAR2 SZ I        1949 34.63        18.5 0.45                            25 200 
 BRR  HZ EP   1   1949 20.36                             151     0.1 7   75 296 
 BRR  HE ES   2   1949 37.35                             151     0.5 5   75 296 
 BRR  HZ I        1949 39.04        22.5 0.06                            75 296 
 RUS  HZ EP   1   1949 22.54                             144    -0.2 7  101 179 
 RUS  HE ES   2   1949 41.42                             144     0.2 5  101 179 
 RUS  HZ I        1949 43.35         9.7 0.34                           101 179 
 BRI  SZ EP   1   1949 22.21                             142    -0.4 7  106  19 
 GUE  SZ EP   1   1949 23.85                             140     0.3 7  115  10 
 GRA  SZ EP   1   1949 24.51                             137     0.5 7  124  15 
 OCA  SZ EP   1   1949 27.22                             129     0.0 7  160 351 
 OCA  SZ ES   2   1949 48.56                             129    -0.7 5  160 351 
 OCA  SZ I        1949 54.62        11.8 0.27                           160 351 
 HEL  HZ EP   1   1949 39.42                             114    -0.3 6  277 256 
 HEL  HZ I        1950 17.08         5.6 0.56                           277 256 
                                                                                
