 2013 1111 1944  5.9 L   6.793 -73.151142.0  RSN  5 0.3 1.4LRSN                1
 GAP=136        0.70       3.7     3.5  6.1 -0.1361E+01  0.1634E+01  0.3624E+01E
 Epicentro: LOS SANTOS - SANTANDER                                             3
 ACTION:UPD 14-01-09 16:27 OP:ep   STATUS:               ID:20131111194405 L   I
 OLDACT:REG 13-11-11 15:59 OP:stll STATUS:               ID:20131111193818     3
 2013-11-11-1938-18M.COL___216                                                 6
 STAT SP IPHASW D HRMM SECON CODA AMPLIT PERI AZIMU VELO AIN AR TRES W  DIS CAZ7
 BAR2 SZ EP       1944 24.68                             171   -0.4310 22.5 189 
 BAR2 SZ I        1945  8.68        13.4 0.62            163           22.5 189 
 BRR  HZ EP       1944 27.09                             152    0.4110 71.0 299 
 BRR  HZ I        1944 27.26         6.2 0.26            157           71.0 299 
 BRR  HN ES       1944 43.02                             152    0.1710 71.0 299 
 PAM  SZ EP       1944 28.01                             150    0.1910 78.3  40 
 PAM  SZ I        1944 28.33         3.3 0.24            146           78.3  40 
 PAM  SN ES       1944 44.65                             150   -0.2310 78.3  40 
 RUS  HZ EP       1944 29.34                             143    0.0610 99.9 176 
 RUS  HZ I        1944 30.00         2.6 0.20            136           99.9 176 
 RUS  HN ES       1944 47.64                             143    0.1610 99.9 176 
 PTB  HZ EP       1944 32.33                             131   -0.21 9  147 259 
 PTB  HN ES       1944 53.11                             131   -0.17 9  147 259 
 PTB  HZ I        1944 55.06         4.2 0.20            131            147 259 
                                                                                
