 2015  911 1411  4.9 L   6.694 -73.177143.6  RSN  5 0.5 1.6LRSN                1
 GAP=147        1.26      12.4     6.8  9.6  0.8953E+01  0.5434E+01 -0.2301E+02E
 Epicentro: VILLANUEVA - SANTANDER                                             3
 ACTION:UPD 15-10-28 16:25 OP:cam  STATUS:               ID:20150911141104 L   I
 OLDACT:DUP 15-09-12 00:07 OP:stll STATUS:               ID:20150911140751d    3
 2015-09-11-1407-50M.COL___351                                                 6
 STAT SP IPHASW D HRMM SECON CODA AMPLIT PERI AZIMU VELO AIN AR TRES W  DIS CAZ7
 BAR2 EZ EP       1411 24.61                             175    0.4910 11.3 183 
 BAR2 EZ ES       1411 38.53                             175   -0.5610 11.3 183 
 BAR2 EZ I        1411 40.38        11.4 0.32            173           11.3 183 
 BRR  HZ EP       1411 26.37                             151    0.3110 74.7 308 
 BRR  HN ES       1411 43.34                             151    0.8110 74.7 308 
 PAM  EZ EP       1411 27.13                             147   -0.5210 88.8  36 
 PAM  EZ I        1411 28.14         6.6 0.32            149           88.8  36 
 PTB  HZ EP       1411 31.42                             133    0.17 9  142 263 
 PTB  HN ES       1411 51.57                             133   -0.21 9  142 263 
 PTB  HZ I        1411 57.52         3.0 0.54            131            142 263 
 ZAR  HZ EP       1411 37.48                             122    0.07 8  206 296 
 ZAR  HE ES       1412  1.98                             122   -0.75 8  206 296 
 ZAR  HZ I        1412  9.21         4.1 0.28            121            206 296 
                                                                                
