 2011 1011 1717 45.6 L   6.771 -73.094146.8  RSN  5 0.2 1.8LRSN                1
 GAP=145        0.44       3.3     4.3  4.8 -0.9004E+00 -0.1819E+01  0.3330E+01E
 Epicentro: LOS SANTOS - SANTANDER                                             3
 ACTION:UPD 12-07-13 16:03 OP:ep   STATUS:               ID:20111011171745 L   I
 2011-10-11-1700-00M.COL___171                                                 6
 STAT SP IPHASW D HRMM SECON CODA AMPLIT PERI AZIMU VELO AIN AR TRES W  DIS CAZ7
 BAR2 SZ EP       1718  5.16                             171   -0.1710 22.1 206 
 BAR2 SZ I        1718  5.45         9.7 0.42                          22.1 206 
 BAR2 SZ ES   2   1718 20.95                             171    0.23 5 22.1 206 
 GIR2 SZ EP       1718  5.51                             165   -0.0210 35.7 342 
 PAM  SZ EP       1718  8.14                             151    0.2610 76.5  35 
 PAM  SN ES   1   1718 24.99                             151   -0.25 7 76.5  35 
 BRR  HZ EP       1718  7.28                             150    0.0410 77.7 299 
 BRR  HE ES   1   1718 24.14                             150    0.02 7 77.7 299 
 BRR  HZ I        1718 30.71        19.5 0.28                          77.7 299 
 RUS  HZ EP       1718  9.12                             145   -0.1010 97.2 179 
 RUS  HE ES   2   1718 27.85                             145    0.22 5 97.2 179 
                                                                                
