 2010  611 1523 54.4 L   6.764 -73.237115.7  RSN  5 0.1 1.2LRSN                1
 GAP=198        0.40       3.7    16.3  5.7 -0.4658E+02  0.3910E+02 -0.1112E+02E
 Epicentro: ZAPATOCA - SANTANDER                                               3
 ACTION:UP  10-08-24 10:09 OP:vdl  STATUS:               ID:20100611152354 L   I
 2010-06-11-1522-01S.COL___117                                                 6
 STAT SP IPHASW D HRMM SECON CODA AMPLIT PERI AZIMU VELO SNR AR TRES W  DIS CAZ7
 BAR2 SZ EP       1524 10.40                             169     0.110   20 163 
 BAR2 SZ ES   1   1524 22.82                             169     0.1 7   20 163 
 GIR2 SZ EP       1524 10.51                             162    -0.110   35   8 
 RUS  HN ES   2   1524 31.04                             137    -0.2 5   98 170 
 RUS  HZ I        1524 35.18         3.2 0.22                            98 170 
 GUE  SZ EP       1524 17.12                             130     0.110  123  16 
 GUE  SZ ES       1524 34.59                             130    -0.110  123  16 
 GRA  SZ ES   2   1524 36.38                             127     0.3 5  133  21 
                                                                                
