 2017  311 1459 48.7 L   7.053 -72.876177.9  RSN  5 0.3 2.0LRSN                1
 GAP=109        0.70       3.9     3.8  5.8 -0.5601E+00  0.4003E+01  0.1661E+01E
 Epicentro: SANTA BARBARA - SANTANDER                                          3
 ACTION:UPD 17-05-25 18:39 OP:jn   STATUS:               ID:20170311145948 L   I
 OLDACT:REG 17-03-11 21:28 OP:ar   STATUS:               ID:20170311145449     3
 2017-03-11-1458-00M.COL___403                                                 6
 STAT SP IPHASW D HRMM SECON CODA AMPLIT PERI AZIMU VELO AIN AR TRES W  DIS CAZ7
 PAM  EZ EP       15 0 12.95                             168    0.1010 37.2  32 
 PAM  EE ES       15 0 31.75                             168    0.0510 37.2  32 
 PAM  EZ I        15 0 33.81        13.2 0.44            169           37.2  32 
 RUS  HZ EP       15 0 17.47                             142   -0.2710  130 190 
 RUS  HN ES       15 0 40.41                             142    0.0010  130 190 
 RUS  HZ I        15 0 40.59         5.3 0.38            143            130 190 
 TAM  HZ EP       15 0 17.61                             140   -0.09 9  138 120 
 SPBC HZ EP       15 0 24.20                             129    0.71 9  204 221 
 SPBC HN ES       15 0 50.46                             129   -0.18 9  204 221 
 SPBC HZ I        15 0 54.67         8.1 0.11            130            204 221 
 ZAR  HZ EP       15 0 24.99                             126   -0.37 8  224 283 
 ZAR  HN ES       15 0 54.02                             126    0.05 8  224 283 
 ZAR  HZ I        15 0 55.25        16.4 0.14            127            224 283 
                                                                                
