 2017 1011 1957 48.0 L   6.806 -73.192144.0  RSN  7 0.3 1.7LRSN                1
 GAP=110        0.41       1.8     3.2  3.5 -0.4010E+00  0.2148E+01  0.1028E+01E
 Epicentro: ZAPATOCA - SANTANDER                                               3
 ACTION:UPD 17-11-07 19:30 OP:rebc STATUS:               ID:20171011195748 L   I
 OLDACT:UP  17-10-11 22:26 OP:mg   STATUS:               ID:20171011194744     3
 OLDACT:UP  17-10-11 22:26 OP:mg   STATUS:               ID:20171011194744     3
 OLDACT:REG 17-10-11 20:10 OP:lv   STATUS:               ID:20171011194744     3
 2017-10-11-1948-00M.COL___450                                                 6
 STAT SP IPHASW D HRMM SECON CODA AMPLIT PERI AZIMU VELO AIN AR TRES W  DIS CAZ7
 BAR2 EZ IP     D 1958  7.33                             170   -0.1010 23.6 177 
 BAR2 EZ ES       1958 22.64                             170    0.0610 23.6 177 
 BAR2 EZ I        1958 24.39        17.0 0.28            169           23.6 177 
 PAM  EZ IP     C 1958 10.27                             150    0.0610 80.3  43 
 PAM  EN ES       1958 27.52                             150   -0.0110 80.3  43 
 PAM  EZ I        1958 30.37        11.2 0.30            153           80.3  43 
 RUS  HZ EP       1958 11.42                             143   -0.2410  102 173 
 RUS  HN ES       1958 30.11                             143   -0.0110  102 173 
 RUS  HZ I        1958 31.03        13.9 0.22            145            102 173 
 YPLC HN ES       1958 41.52                             126    0.17 9  180 150 
 ZAR  HZ EP   4   1958 17.88                             123   -1.94 0  199 293 
 ZAR  HN ES   2   1958 44.87                             123    0.24 4  199 293 
 ZAR  HZ I        1958 51.16         5.5 0.25            121            199 293 
 CHI  HZ EP   2   1958 25.55                             117    0.02 4  248 194 
 CHI  HN ES   1   1958 54.79                             117   -0.01 6  248 194 
 CHI  HZ I        1958 59.36         3.0 0.38            117            248 194 
 GUY2CHZ EP   3   1958 32.62                             112    1.52 2  297 234 
 GUY2CHE ES   4   1959  6.98                             112    2.27 0  297 234 
 GUY2CHZ I        1959 12.65         1.4 0.28                           297 234 
                                                                                
