 2014 1111 1713  0.6 L   6.827 -73.190143.7  RSN  4 0.5 1.3LRSN                1
 GAP=146        1.21       7.3     6.7 11.9 -0.2024E+02  0.2970E+02  0.1000E+01E
 Epicentro: ZAPATOCA - SANTANDER                                               3
 ACTION:UPD 14-12-19 15:42 OP:nd   STATUS:               ID:20141111171300 L   I
 OLDACT:UP  14-11-11 23:30 OP:cam  STATUS:               ID:20141111170817     3
 OLDACT:REG 14-11-11 22:13 OP:cam  STATUS:               ID:20141111170817     3
 2014-11-11-1708-17M.COL___298                                                 6
 STAT SP IPHASW D HRMM SECON CODA AMPLIT PERI AZIMU VELO AIN AR TRES W  DIS CAZ7
 PAM  SZ EP       1713 22.91                             150    0.2710 78.4  44 
 PAM  SN ES       1713 40.00                             150    0.1610 78.4  44 
 PAM  SZ I        1713 41.94         4.8 0.54            153           78.4  44 
 RUS  HZ EP       1713 23.52                             142   -0.8610  104 173 
 RUS  HE ES       1713 43.15                             142    0.2110  104 173 
 RUS  HZ I        1713 44.17         1.9 0.38            146            104 173 
 PTB  HZ EP       1713 26.88                             132   -0.12 9  144 257 
 PTB  HN ES       1713 47.05                             132   -0.56 9  144 257 
 PTB  HZ I        1713 50.55         3.2 0.40            134            144 257 
 NOR  HZ EP       1713 36.46                             118    0.50 8  233 233 
 NOR  HE ES       1714  4.30                             118    0.75 8  233 233 
                                                                                
