 2012  911 1110 11.9 L   6.788 -73.153145.0  RSN  7 0.4 1.7LRSN                1
 GAP=136        0.70       5.4     5.2  7.6  0.9921E+01  0.1145E+02  0.8657E+01E
 Epicentro: LOS SANTOS - SANTANDER                                             3
 ACTION:UPD 12-10-22 14:18 OP:ep   STATUS:               ID:20120911111011 L   I
 2012-09-11-1110-00M.COL___227                                                 6
 STAT SP IPHASW D HRMM SECON CODA AMPLIT PERI AZIMU VELO AIN AR TRES W  DIS CAZ7
 BAR2 SZ EP   1   1110 31.60                             171    0.15 7 21.9 188 
 BAR2 SZ ES   1   1110 46.52                             171   -0.15 7 21.9 188 
 BAR2 SZ I        1110 48.83        15.2 0.30                          21.9 188 
 GIR2 SZ ES   1   1110 46.55                             167   -0.31 7 32.4 352 
 BRR  HZ EP   1   1110 33.44                             152    0.44 7 71.1 300 
 BRR  HZ I        1110 33.72         8.5 0.28                          71.1 300 
 BRR  HN ES   1   1110 50.03                             152    0.60 7 71.1 300 
 PAM  SN ES   2   1110 51.39                             150   -0.12 5 78.9  39 
 PAM  SN I        1110 52.51        10.8 0.38                          78.9  39 
 RUS  HZ EP   1   1110 35.35                             144   -0.18 7 99.3 176 
 RUS  HN ES   1   1110 53.87                             144   -0.06 7 99.3 176 
 RUS  HZ I        1110 55.73         3.8 0.30                          99.3 176 
 PTB  HN ES   1   1110 59.76                             132    0.10 7  147 259 
 PTB  HN I        1111  1.65         7.4 0.24                           147 259 
 ZAR  HN ES   1   1111  8.81                             122   -0.74 6  204 293 
                                                                                
