 2013  211 1948 28.9 L   6.750 -73.141148.2  RSN  4 0.4 2.0LRSN                1
 GAP=158        0.95      12.7     6.6  9.9 -0.5223E+02 -0.1461E+02  0.5891E+02E
 Epicentro: LOS SANTOS - SANTANDER                                             3
 ACTION:UPD 13-03-12 09:32 OP:ep   STATUS:               ID:20130211194828 L   I
 2013-02-11-1940-00M.COL___240                                                 6
 STAT SP IPHASW D HRMM SECON CODA AMPLIT PERI AZIMU VELO AIN AR TRES W  DIS CAZ7
 BAR2 SZ IP     C 1948 48.85                             173    0.1110 18.1 195 
 BAR2 SZ ES   2   1949  4.75                             173    0.55 5 18.1 195 
 BAR2 SZ I        1949  5.17        23.6 0.22            143           18.1 195 
 BRR  HZ I        1948 50.79        17.4 0.26            157           74.4 302 
 BRR  HZ EP       1948 50.85                             152    0.3510 74.4 302 
 BRR  HN ES       1949  7.79                             152    0.4510 74.4 302 
 PAM  SZ EP       1948 51.75                             150    0.1310 81.4  37 
 PAM  SZ I        1948 51.90        30.6 0.22            142           81.4  37 
 PAM  SN ES       1949  8.77                             150   -0.5610 81.4  37 
 PTB  HZ EP       1948 55.84                             132   -0.20 9  147 261 
 PTB  HN ES       1949 16.68                             132   -0.51 9  147 261 
 PTB  HZ I        1949 19.24         9.0 0.14            122            147 261 
                                                                                
