 2015  111 1251 29.3 L   5.937 -73.718117.4  RSN 18 0.4 2.2LRSN                1
 GAP= 85        0.99       2.1     2.5  4.7 -0.1437E+01  0.2622E+01 -0.3829E+00E
 Epicentro: GUAVATA - SANTANDER                                                3
 ACTION:UPD 15-03-02 15:38 OP:nd   STATUS:               ID:20150111125129 L   I
 OLDACT:UP  15-01-11 21:47 OP:mh   STATUS:               ID:20150111124744     3
 OLDACT:UP  15-01-11 21:47 OP:mh   STATUS:               ID:20150111124744     3
 OLDACT:UP  15-01-11 21:45 OP:mh   STATUS:               ID:20150111124744     3
 OLDACT:REG 15-01-11 20:29 OP:mh   STATUS:               ID:20150111124744     3
 2015-01-11-1247-44M.COL___255                                                 6
 STAT SP IPHASW D HRMM SECON CODA AMPLIT PERI AZIMU VELO AIN AR TRES W  DIS CAZ7
 SPBC HZ EP       1251 46.42                             155    0.0610 50.3 231 
 SPBC HN ES       1251 59.33                             155   -0.3310 50.3 231 
 SPBC HZ I        1252  2.20        67.0 0.10            153           50.3 231 
 RUS  HZ EP       1251 48.42                             147    0.3010 70.5  94 
 RUS  HN ES       1252  2.81                             147    0.0110 70.5  94 
 BAR2 EZ EP       1251 49.94                             139    0.4710 93.6  39 
 BAR2 EZ ES       1252  5.69                             139    0.5010 93.6  39 
 PTB  HZ EP       1251 49.19                             135   -0.9510  105 309 
 PTB  HN ES       1252  6.37                             135   -0.0310  105 309 
 PTB  HZ I        1252  6.81        21.2 0.28            133            105 309 
 BRR  HZ EP       1251 52.43                             129    0.1210  129   0 
 BRR  HN ES       1252 10.49                             129    0.2410  129   0 
 BRR  HZ I        1252 14.54        24.8 0.14            129            129   0 
 ROSC BN ES   4   1252 15.67                             127    2.95 0  138 209 
 CHI  HZ EP       1251 54.25                             126   -0.08 9  145 181 
 CHI  HN ES       1252 13.65                             126   -0.20 9  145 181 
 CHI  HZ I        1252 18.58        12.6 0.30            126            145 181 
 PAM  SN ES       1252 22.43                             117   -0.34 9  192  36 
 HEL  HZ EP       1252  0.50                             116    0.14 9  202 278 
 HEL  HN ES   4   1252 24.60                             116    0.02 0  202 278 
 HEL  HZ I        1252 28.43        24.8 0.52            115            202 278 
 VIL  SZ EP   1   1251 59.80                             116   -0.18 6  202 179 
 VIL  SN ES   4   1252 22.31                             116   -1.60 0  202 179 
 ZAR  HZ EP       1252  1.05                             114   -0.04 8  213 324 
 ZAR  HN ES       1252 25.38                             114   -0.51 8  213 324 
 ZAR  HZ I        1252 31.83        19.4 0.40            114            213 324 
 RREF HZ EP   4   1252  1.85                             114   -0.10 0  214 238 
 RREF HN ES   4   1252 27.59                             114    0.17 0  214 238 
 TAM  HZ EP       1252  2.24                             113    0.32 8  220  75 
 TAM  HN ES       1252 26.76                             113   -0.60 8  220  75 
 TAM  HZ I        1252 29.55                             115            220  75 
 TOL  SZ EP       1252  4.12                             112    0.50 8  232 230 
 TOL  SN ES       1252 30.21                             112   -0.18 8  232 230 
 TOL  SZ I        1252 34.79        24.4 0.38            112            232 230 
 ANIL HZ EP       1252  5.01                             111   -0.12 8  246 230 
 ANIL HN ES   1   1252 33.57                             111    0.49 6  246 230 
 CBOC HZ EP       1252  6.32                             110    0.39 8  254 268 
 CBOC HN ES       1252 35.25                             110    0.75 8  254 268 
 CBOC HZ I        1252 50.15         8.5 0.16            109            254 268 
 OCA  HZ EP       1252  6.70                             109    0.31 8  258  10 
 OCA  HN ES       1252 35.95                             109    0.63 8  258  10 
 OCA  HZ I        1252 40.58        11.9 0.26            110            258  10 
 ORTC HZ EP       1252  8.86                             108   -0.01 7  281 217 
 ORTC HN ES   1   1252 39.20                             108   -0.53 6  281 217 
 ORTC HZ I        1252 44.37         8.4 0.31            107            281 217 
 PAL  HZ EP   4   1252 11.71                             106   -0.14 0  306 248 
 PAL  HN ES   4   1252 46.32                             106    1.28 0  306 248 
 PAL  HZ I        1252 48.84         7.1 0.19            106            306 248 
 SML  HZ EP       1252 12.42                             105   -0.85 7  319 353 
 SML  HN ES       1252 46.88                             105   -0.69 7  319 353 
 SML  HZ I        1252 51.45        10.7 0.28            105            319 353 
                                                                                
