 2016  211 1159 37.0 L   6.649 -73.139144.2  RSN  6 0.4 1.8LRSN                1
 GAP=185        0.62       7.3     5.2  6.2 -0.1678E+02  0.1129E+02 -0.1588E+02E
 Epicentro: VILLANUEVA - SANTANDER                                             3
 ACTION:UPD 16-03-04 21:25 OP:rebc STATUS:               ID:20160211115937 L   I
 OLDACT:REG 16-02-11 20:28 OP:dnl  STATUS:               ID:20160211115746     3
 2016-02-11-1157-46M.COL___312                                                 6
 STAT SP IPHASW D HRMM SECON CODA AMPLIT PERI AZIMU VELO AIN AR TRES W  DIS CAZ7
 BAR2 EZ EP       1159 56.67                             177    0.4610 7.93 217 
 BAR2 EZ ES       12 0 11.09                             177   -0.1210 7.93 217 
 BAR2 EZ I        12 0 12.68        14.5 0.18            170           7.93 217 
 PAM  EZ EP       1159 59.63                             146   -0.2310 90.5  32 
 PAM  EE ES   4   12 0 15.56                             146   -2.15 0 90.5  32 
 PAM  EZ I        12 0 19.37         5.1 0.33            152           90.5  32 
 PTB  HZ EP       12 0  3.64                             132   -0.03 9  146 265 
 PTB  HN ES   2   12 0 24.61                             132    0.11 5  146 265 
 PTB  HZ I        12 0 26.81        11.8 0.12            130            146 265 
 SPBC HZ EP   2   12 0  3.66                             131   -0.56 5  151 223 
 SPBC HN ES   2   12 0 25.49                             131    0.01 5  151 223 
 SPBC HZ I        12 0 32.75         8.3 0.09            130            151 223 
 ZAR  HZ EP   2   12 0 10.70                             121    0.60 4  212 296 
 ZAR  HN ES   2   12 0 35.66                             121   -0.28 4  212 296 
 ZAR  HZ I        12 0 41.25         8.5 0.25            121            212 296 
 NOR  HZ EP   4   12 0  7.33                             119   -4.36 0  226 238 
 NOR  HE ES   3   12 0 37.60                             119   -1.16 2  226 238 
 NOR  HZ I        12 0 44.76         5.4 0.16            119            226 238 
                                                                                
