 2013  411 1024 58.0 L   6.786 -73.163142.4  RSN  7 0.4 1.4LRSN                1
 GAP=181        0.93       4.9     6.7  8.1  0.3295E+01  0.1188E+02  0.5199E+00E
 Epicentro: LOS SANTOS - SANTANDER                                             3
 ACTION:UPD 13-05-22 14:37 OP:EP   STATUS:               ID:20130411102458 L   I
 2013-04-11-1020-00M.COL___245                                                 6
 STAT SP IPHASW D HRMM SECON CODA AMPLIT PERI AZIMU VELO AIN AR TRES W  DIS CAZ7
 BAR2 SZ EP   1   1025 16.80                             171   -0.34 7 21.5 186 
 BAR2 SZ ES   1   1025 32.23                             171    0.12 7 21.5 186 
 BAR2 SZ I        1025 32.96        10.1 0.28            169           21.5 186 
 GIR2 SZ ES   1   1025 31.97                             166   -0.35 7 32.6 354 
 GIR2 SZ I        1025 32.67         4.4 0.46            167           32.6 354 
 BRR  HZ EP       1025 19.29                             152    0.6010 70.3 300 
 BRR  HE ES   1   1025 35.70                             152    0.84 7 70.3 300 
 RUS  HZ EP   1   1025 21.54                             143    0.27 7 99.1 175 
 RUS  HE ES   1   1025 39.16                             143   -0.30 7 99.1 175 
 PTB  HZ EP       1025 24.35                             132   -0.10 9  146 259 
 PTB  HN ES       1025 44.74                             132   -0.38 9  146 259 
 PTB  HZ I        1025 48.52         2.0 0.16            131            146 259 
 OCA  HN ES   1   1025 47.61                             128   -0.50 7  162 354 
 SML  HE ES   2   1026  2.43                             117   -0.51 4  244 336 
                                                                                
