 2013 1211 1951 21.2 L   6.722 -73.197144.9  RSN  4 0.2 1.7LRSN                1
 GAP=225        0.46       4.1     5.0  3.8  0.1322E+02  0.3942E+01  0.1852E+01E
 Epicentro: VILLANUEVA - SANTANDER                                             3
 ACTION:UPD 14-01-13 10:17 OP:ep   STATUS:               ID:20131211195121 L   I
 OLDACT:REG 13-12-11 16:39 OP:cam  STATUS:               ID:20131211195000     3
 2013-12-11-1950-00M.COL___285                                                 6
 STAT SP IPHASW D HRMM SECON CODA AMPLIT PERI AZIMU VELO AIN AR TRES W  DIS CAZ7
 BAR2 SZ EP       1951 40.51                             174   -0.0610 14.5 174 
 BAR2 SZ ES       1951 55.41                             174   -0.2710 14.5 174 
 BAR2 SZ I        1951 56.03        27.2 0.32            169           14.5 174 
 BRR  HZ EP       1951 42.27                             152    0.0310 71.1 307 
 BRR  HN ES       1951 58.86                             152    0.2110 71.1 307 
 RUS  HZ EP       1951 44.41                             146    0.1210 92.6 172 
 RUS  HN ES       1952  2.44                             146    0.1310 92.6 172 
 RUS  HZ I        1952  5.15         3.6 0.32            144           92.6 172 
 PTB  HZ EP       1951 47.29                             133   -0.16 9  141 262 
 PTB  HN ES   2   1952  7.89                             133   -0.05 5  141 262 
 PTB  HZ I        1952  9.48         5.6 0.14            132            141 262 
                                                                                
