 2014 1011 1435 31.6 L   6.735 -73.154136.1  RSN  6 0.3 1.5LRSN                1
 GAP=138        0.88       4.3     5.7  6.2 -0.1826E+01  0.8962E+01  0.3542E+01E
 Epicentro: LOS SANTOS - SANTANDER                                             3
 ACTION:UPD 14-11-29 23:48 OP:nd   STATUS:               ID:20141011143531 L   I
 OLDACT:REG 14-10-11 22:05 OP:stll STATUS:               ID:20141011142740     3
 2014-10-11-1427-40M.COL___292                                                 6
 STAT SP IPHASW D HRMM SECON CODA AMPLIT PERI AZIMU VELO AIN AR TRES W  DIS CAZ7
 BAR2 SZ EP       1435 50.41                             173    0.4410 16.1 191 
 BAR2 SZ ES       1436  3.74                             173   -0.5410 16.1 191 
 BAR2 SZ I        1436  6.32        20.5 0.24            170           16.1 191 
 BRR  HZ EP       1435 51.88                             150   -0.0410 74.1 304 
 BRR  HZ I        1435 52.13        13.3 0.28            146           74.1 304 
 BRR  HN ES       1436  8.18                             150    0.4310 74.1 304 
 PAM  SZ EP       1435 53.04                             147   -0.1910 83.6  37 
 PAM  SZ I        1435 53.20         7.3 0.24            149           83.6  37 
 PAM  SN ES       1436 10.10                             147    0.0210 83.6  37 
 RUS  HZ EP       1435 54.12                             144    0.2010 93.5 175 
 RUS  HZ I        1435 55.03         2.4 0.28            142           93.5 175 
 RUS  HE ES       1436 11.38                             144    0.0710 93.5 175 
 PTB  HZ EP       1435 57.05                             130   -0.57 9  146 262 
 PTB  HZ I        1436  4.76         1.8 0.22            127            146 262 
 SPBC HZ EP       1435 58.95                             128    0.14 9  157 220 
 SPBC HZ I        1436  1.29         4.8 0.30            125            157 220 
                                                                                
