 2017  511 1348  7.4 L   6.598 -73.418152.5  RSN  4 0.3 1.2LRSN                1
 GAP=185        0.68       7.0     6.4  9.1  0.2533E+02 -0.6409E+01  0.7024E+01E
 Epicentro: HATO - SANTANDER                                                   3
 ACTION:UPD 17-06-16 13:35 OP:jn   STATUS:               ID:20170511134807 L   I
 OLDACT:REG 17-05-11 21:05 OP:lv   STATUS:               ID:20170511133726     3
 2017-05-11-1338-00M.COL___374                                                 6
 STAT SP IPHASW D HRMM SECON CODA AMPLIT PERI AZIMU VELO AIN AR TRES W  DIS CAZ7
 BRR  HZ EP       1348 28.63                             156   -0.3110 65.0 330 
 BRR  HN ES   1   1348 45.76                             156   -0.00 7 65.0 330 
 RUS  HZ EP       1348 31.03                             149    0.1710 86.3 155 
 RUS  HN ES   2   1348 49.45                             149    0.27 5 86.3 155 
 RUS  HZ I        1348 50.92         2.4 0.30            151           86.3 155 
 PTB  HZ EP   1   1348 32.12                             141   -0.07 7  115 267 
 PTB  HN ES   1   1348 51.21                             141   -0.33 7  115 267 
 PTB  HZ I        1348 55.59         1.9 0.29            138            115 267 
 ZAR  HN ES   1   1349  3.66                             126    0.69 7  187 302 
 ZAR  HZ I        1349  9.82         1.7 0.17            126            187 302 
                                                                                
