 2010  211 1225 14.9 L   6.723 -72.825138.1  RSN  6 0.4 2.2LRSN                1
 GAP=249        0.63       8.2    12.7  8.6 -0.5551E+02 -0.7187E+01  0.4138E+02E
 Epicentro: MOLAGAVITA - SANTANDER                                             3
 ACTION:UP  10-08-24 09:48 OP:vdl  STATUS:               ID:20100211122514 L   I
 2010-02-11-1223-20S.COL___094                                                 6
 STAT SP IPHASW D HRMM SECON CODA AMPLIT PERI AZIMU VELO SNR AR TRES W  DIS CAZ7
 BAR2 SZ IP       1225 34.42                             163     0.310   42 250 
 BAR2 SZ ES   2   1225 48.75                             163    -0.4 5   42 250 
 GIR2 SZ EP   1   1225 34.49                             157    -0.1 7   57 314 
 GIR2 SZ ES   2   1225 49.63                             157    -0.4 5   57 314 
 CHI  HZ EP   1   1225 52.84                             115     0.3 6  252 203 
 CHI  HE ES   2   1226 22.12                             115     0.2 4  252 203 
 CHI  HZ I        1226 26.36         6.2 0.53                           252 203 
 RREF BZ EP   1   1226  3.29                             108     0.0 5  344 234 
 RREF BN ES   2   1226 42.00                             108     0.9 3  344 234 
 RREF BZ I        1226 46.53         8.4 0.26                           344 234 
 TOL  SZ EP   1   1226  4.83                             107    -0.3 5  364 230 
 TOL  SZ ES   2   1226 44.53                             107     0.1 3  364 230 
 PRA  HZ EP   1   1226  8.62                             105    -0.9 4  404 215 
 PRA  HE ES   2   1226 51.48                             105    -0.6 3  404 215 
 PRA  HZ I        1226 56.94         7.2 0.55                           404 215 
                                                                                
