 2013  711 1832 37.2 L   6.419 -73.350 44.8  RSN  5 0.3 2.8LRSN                1
 GAP=123        0.81       3.3     5.6  8.4  0.5321E+01  0.3365E+02  0.7625E+01E
 Epicentro: SIMACOTA - SANTANDER                                               3
 ACTION:UPD 13-08-12 10:37 OP:ep   STATUS:               ID:20130711183237 L   I
 OLDACT:REG 13-07-11 16:02 OP:stll STATUS:               ID:20130711182851     3
 2013-07-11-1828-51M.COL___219                                                 6
 STAT SP IPHASW D HRMM SECON CODA AMPLIT PERI AZIMU VELO AIN AR TRES W  DIS CAZ7
 BAR2 SZ IP     D 1832 45.29                             144    0.0410 26.6  44 
 BAR2 SZ ES       1832 51.38                             144   -0.1310 26.6  44 
 BAR2 SZ I        1832 53.04       342.7 0.22            153           26.6  44 
 RUS  HZ EP       1832 49.66                             113    0.3110 65.3 153 
 GIR2 SZ EP       1832 49.97                             108   -0.0610 75.0  13 
 GIR2 SZ ES       1832 59.75                             108   -0.2610 75.0  13 
 BRR  HZ EP       1832 51.31                             104    0.1510 86.0 332 
 BRR  HN ES       1833  2.49                             104    0.4710 86.0 332 
 BRR  HN I        1833  3.62       505.1 0.16            111           86.0 332 
 PTB  HZ EP       1832 55.14                              97   -0.5510  123 276 
                                                                                
