 2016  411 1350 18.1 L   7.323 -73.203129.7  RSN  4 0.4 1.3LRSN                1
 GAP=172        0.68       7.9     4.0  8.6 -0.2479E+00  0.2002E+02  0.6391E+01E
 Epicentro: RIONEGRO - SANTANDER                                               3
 ACTION:UPD 16-05-05 14:20 OP:rebc STATUS:               ID:20160411135018 L   I
 OLDACT:DUP 16-04-12 01:26 OP:dnl  STATUS:               ID:20160411134748d    3
 2016-04-11-1347-47M.COL___295                                                 6
 STAT SP IPHASW D HRMM SECON CODA AMPLIT PERI AZIMU VELO AIN AR TRES W  DIS CAZ7
 PAM  EZ EP       1350 37.26                             156   -0.0710 55.6  88 
 PAM  EE ES       1350 52.33                             156   -0.0210 55.6  88 
 PAM  EZ I        1350 53.33         4.1 0.14            159           55.6  88 
 BAR2 EZ EP   2   1350 37.96                             146   -0.50 5 80.8 178 
 BAR2 EZ ES   2   1350 55.06                             146    0.68 5 80.8 178 
 BAR2 EZ I        1350 55.71         3.1 0.07            147           80.8 178 
 PTB  HZ EP       1350 45.28                             125   -0.02 9  163 238 
 PTB  HN ES   2   1351  6.04                             125   -0.51 5  163 238 
 PTB  HZ I        1351  8.53         2.2 0.22            126            163 238 
 ZAR  HZ EP   2   1350 48.46                             122    1.10 4  184 276 
 ZAR  HN ES       1351 10.16                             122   -0.06 9  184 276 
 ZAR  HZ I        1351 11.31         3.6 0.20            123            184 276 
                                                                                
