 2016  911 1143 33.1 L   6.800 -73.177139.7  RSN  7 0.3 1.8LRSN                1
 GAP=234        0.82       4.1     4.4  5.6  0.7454E+01  0.7194E+01  0.7100E+01E
 Epicentro: LOS SANTOS - SANTANDER                                             3
 ACTION:UPD 17-08-17 21:08 OP:lp   STATUS:               ID:20160911114333 L   I
 OLDACT:DUP 16-09-11 22:03 OP:lv   STATUS:               ID:20160911113745d    3
 2016-09-11-1138-00M.COL___306                                                 6
 STAT SP IPHASW D HRMM SECON CODA AMPLIT PERI AZIMU VELO AIN AR TRES W  DIS CAZ7
 BAR2 EZ EP       1143 51.70                             170   -0.3410 22.9 181 
 BAR2 EZ ES       1144  6.62                             170   -0.1510 22.9 181 
 BAR2 EZ I        1144  7.50        18.4 0.22            167           22.9 181 
 BRR  HZ EP       1143 53.33                             152   -0.1410 68.2 300 
 BRR  HN ES       1144  9.64                             152    0.3310 68.2 300 
 BRR  HZ I        1144 11.74        13.7 0.28            149           68.2 300 
 RUS  HZ EP       1143 56.11                             142   -0.2110  101 174 
 RUS  HN ES       1144 14.72                             142    0.3210  101 174 
 RUS  HZ I        1144 16.08         6.3 0.16            142            101 174 
 PTB  HZ EP       1144  0.04                             131    0.73 9  144 259 
 PTB  HN ES       1144 19.19                             131   -0.52 9  144 259 
 PTB  HZ I        1144 22.42         7.0 0.15            129            144 259 
 ZAR  HN ES       1144 29.70                             121    0.09 9  201 293 
 ZAR  HZ I        1144 36.81         9.5 0.12            121            201 293 
 NOR  HZ EP       1144  8.01                             117   -0.21 8  232 234 
 NOR  HE ES       1144 35.50                             117   -0.08 8  232 234 
 NOR  HZ I        1144 41.72         7.3 0.14            117            232 234 
 CHI  HZ EP       1144 10.48                             116    0.07 8  248 194 
 CHI  HE ES       1144 39.62                             116    0.14 8  248 194 
 CHI  HZ I        1144 43.03         3.0 0.14            116            248 194 
                                                                                
