 2014  711 1008 21.7 L   6.778 -73.159145.8  RSN  4 0.4 1.4LRSN                1
 GAP=211        0.94       5.6     7.9 11.7 -0.9868E+01  0.3486E+02 -0.2561E+02E
 Epicentro: LOS SANTOS - SANTANDER                                             3
 ACTION:UPD 15-03-16 20:43 OP:nd   STATUS:               ID:20140711100821 L   I
 OLDACT:UP  14-07-11 20:18 OP:cam  STATUS:               ID:20140711100001d    3
 OLDACT:UP  14-07-11 20:18 OP:cam  STATUS:               ID:20140711100001d    3
 OLDACT:DUP 14-07-11 20:12 OP:cam  STATUS:               ID:20140711100001d    3
 2014-07-11-1000-00M.COL___282                                                 6
 STAT SP IPHASW D HRMM SECON CODA AMPLIT PERI AZIMU VELO AIN AR TRES W  DIS CAZ7
 BAR2 SZ EP       10 8 41.32                             172    0.0510 20.7 187 
 BAR2 SZ ES       10 8 56.68                             172    0.1410 20.7 187 
 BAR2 SZ I        10 8 57.91         5.2 0.50            171           20.7 187 
 PTB  HZ EP   1   10 8 49.16                             132    0.68 7  146 260 
 PTB  HE ES       10 9  9.68                             132    0.30 9  146 260 
 PTB  HE I        10 9 15.41         2.0 0.56            132            146 260 
 SPBC HN ES       10 9 11.32                             130   -0.62 9  160 219 
 SML  HE ES       10 9 26.74                             117   -0.44 8  245 336 
 SML  HE I        10 9 32.90         3.2 0.26            118            245 336 
                                                                                
