 2017  111 1415 46.9 L   6.781 -73.165147.3  RSN  6 0.3 1.6LRSN                1
 GAP=135        0.87       3.8     4.5  5.8 -0.1802E+01  0.2654E+01  0.5759E+01E
 Epicentro: LOS SANTOS - SANTANDER                                             3
 ACTION:UPD 17-05-22 15:58 OP:jn   STATUS:               ID:20170111141546 L   I
 OLDACT:UP  17-01-11 23:11 OP:ar   STATUS:               ID:20170111140760d    3
 OLDACT:UP  17-01-11 23:10 OP:ar   STATUS:               ID:20170111140760d    3
 OLDACT:DUP 17-01-11 23:08 OP:ar   STATUS:               ID:20170111140760d    3
 2017-01-11-1407-59S.COL___309                                                 6
 STAT SP IPHASW D HRMM SECON CODA AMPLIT PERI AZIMU VELO AIN AR TRES W  DIS CAZ7
 BAR2 EZ EP       1416  6.78                             172    0.0710 20.9 185 
 BAR2 EZ ES       1416 21.79                             172   -0.3410 20.9 185 
 BAR2 EZ I        1416 23.15        14.1 0.16            170           20.9 185 
 BRR  HZ EP       1416  8.36                             153    0.1510 70.4 301 
 BRR  HN ES       1416 25.47                             153    0.6710 70.4 301 
 PAM  EZ EP       1416  9.67                             150    0.1710 80.4  40 
 PAM  EN ES       1416 26.78                             150   -0.3110 80.4  40 
 PAM  EZ I        1416 29.14         6.6 0.48            152           80.4  40 
 RUS  HZ EP       1416 10.60                             145   -0.1010 98.6 175 
 RUS  HE ES       1416 29.40                             145    0.1710 98.6 175 
 RUS  HZ I        1416 30.49         3.8 0.16            145           98.6 175 
 PTB  HZ EP       1416 13.22                             133   -0.58 9  145 259 
 PTB  HN ES       1416 34.47                             133   -0.29 9  145 259 
 PTB  HZ I        1416 37.23         7.3 0.12            133            145 259 
 CHI  HZ EP       1416 24.82                             118    0.38 8  246 195 
 CHI  HN ES       1416 53.74                             118    0.05 8  246 195 
 CHI  HZ I        1416 57.54         2.0 0.44            118            246 195 
                                                                                
