 2012  611 1032  6.8 L   6.794 -73.158145.5  RSN  6 0.4 1.8LRSN                1
 GAP=135        0.84       4.5     4.8  8.6  0.9744E+00  0.1530E+02 -0.4002E+01E
 Epicentro: LOS SANTOS - SANTANDER                                             3
 ACTION:UPD 12-08-06 17:48 OP:ep   STATUS:               ID:20120611103205 L   I
 2012-06-11-1030-00M.COL___201                                                 6
 STAT SP IPHASW D HRMM SECON CODA AMPLIT PERI AZIMU VELO AIN AR TRES W  DIS CAZ7
 BAR2 SZ EP   1   1032 26.26                             171   -0.10 9 22.5 187 
 BAR2 SZ ES   1   1032 42.15                             171    0.52 9 22.5 187 
 BAR2 SZ I        1032 43.44        14.2 0.41            174           22.5 187 
 PAM  SZ EP   1   1032 29.36                             150    0.32 9 78.7  40 
 PAM  SN ES   1   1032 46.62                             150    0.21 9 78.7  40 
 RUS  HZ EP   1   1032 30.36                             144   -0.10 9  100 175 
 RUS  HN ES   1   1032 48.52                             144   -0.42 9  100 175 
 PTB  HZ EP   1   1032 33.22                             132   -0.37 8  146 259 
 PTB  HN ES   1   1032 54.36                             132   -0.14 8  146 259 
 PTB  HZ I        1032 56.65         5.2 0.46            133            146 259 
 OCA  HN ES   1   1032 56.36                             129   -0.85 8  161 354 
 OCA  HZ I        1033  2.31        10.7 0.24            130            161 354 
 ZAR  HZ EP   1   1032 39.91                             122    0.81 7  203 292 
 ZAR  HE ES       1033  4.40                             122    0.1010  203 292 
 ZAR  HZ I        1033 10.08         7.2 0.32            123            203 292 
                                                                                
