 2012 1111 1030 36.5 L   5.936 -74.165 72.3  RSN  5 0.4 1.3LRSN                1
 GAP=118        0.83       5.9     4.5 18.4  0.1638E+02  0.4341E+02  0.7884E+02E
 Epicentro: LA BELLEZA - SANTANDER                                             3
 ACTION:UPD 12-12-05 15:32 OP:}ep  STATUS:               ID:20121111103036 L   I
 2012-11-11-1030-00M.COL___230                                                 6
 STAT SP IPHASW D HRMM SECON CODA AMPLIT PERI AZIMU VELO AIN AR TRES W  DIS CAZ7
 PTB  HZ EP       1030 51.00                             129    0.2610 74.2 334 
 PTB  HN ES   1   1031  1.98                             129    0.12 7 74.2 334 
 PTB  HZ I        1031  4.19         7.5 0.22                          74.2 334 
 RUS  HN ES   1   1031 10.88                             115   -0.60 7  120  92 
 RUS  HN I        1031 13.83         5.7 0.52                           120  92 
 CHI  HZ EP   1   1031  0.39                             109    0.65 7  152 162 
 CHI  HN ES   1   1031 18.07                             109    0.19 7  152 162 
 HEL  HZ EP   1   1030 59.98                             109    0.13 7  154 281 
 HEL  HN ES   1   1031 17.74                             109   -0.34 7  154 281 
 HEL  HN I        1031 22.12         3.8 0.42                           154 281 
 RREF HZ EP   1   1031  1.89                             107   -0.68 7  174 229 
 RREF HZ I        1031 22.66         2.4 0.26                           174 229 
                                                                                
