 2014  911 1307 27.6 L   6.131 -73.323154.0  RSN 11 0.5 2.1LRSN                1
 GAP=108        1.16       3.9     4.6  6.3 -0.7728E+01  0.4205E+01  0.4824E+01E
 Epicentro: SUAITA - SANTANDER                                                 3
 ACTION:UPD 14-10-03 23:04 OP:nd   STATUS:               ID:20140911130727 L   I
 OLDACT:REG 14-09-11 20:53 OP:carl STATUS:               ID:20140911125819     3
 2014-09-11-1258-19M.COL___284                                                 6
 STAT SP IPHASW D HRMM SECON CODA AMPLIT PERI AZIMU VELO AIN AR TRES W  DIS CAZ7
 RUS  HZ EP       13 7 48.93                             166   -0.0210 37.4 135 
 RUS  HN ES       13 8  6.46                             166    0.8610 37.4 135 
 RUS  HZ I        13 8 11.27         8.4 0.26            166           37.4 135 
 BAR2 SZ EP       13 7 48.98                             160   -0.1610 53.2  17 
 BAR2 SZ ES       13 8  4.75                             160   -1.1910 53.2  17 
 BAR2 SZ I        13 8  8.06        14.6 0.16            164           53.2  17 
 SPBC HZ EP       13 7 51.60                             146    0.1410 98.5 237 
 SPBC HN ES       13 8 10.36                             146    0.2910 98.5 237 
 SPBC HZ I        13 8 15.42        26.9 0.24            147           98.5 237 
 BRR  HZ EP       13 7 52.85                             141    0.2310  116 338 
 BRR  HN ES       13 8 12.90                             141    0.7710  116 338 
 PTB  HZ EP       13 7 53.48                             137   -0.5410  133 290 
 PTB  HN ES       13 8 14.23                             137   -0.3910  133 290 
 PTB  HZ I        13 8 16.43        18.3 0.32            140            133 290 
 PAM  SZ EP       13 7 56.29                             134    0.17 9  150  27 
 PAM  SN ES       13 8 18.25                             134   -0.12 9  150  27 
 CHI  HZ EP       13 7 58.26                             129    0.24 9  172 195 
 CHI  HN ES       13 8 21.34                             129   -0.41 9  172 195 
 CHI  HZ I        13 8 22.87         8.9 0.36            132            172 195 
 NOR  HZ EP       13 7 58.69                             127    0.17 9  182 250 
 NOR  HN ES       13 8 22.50                             127   -0.13 9  182 250 
 NOR  HZ I        13 8 27.21        15.8 0.18            130            182 250 
 GUY2CHZ EP       13 8  6.03                             119    0.30 8  247 246 
 GUY2CHE ES       13 8 35.54                             119    0.07 8  247 246 
 GUY2CHZ I        13 8 43.81         6.8 0.26                           247 246 
 TOL  SZ EP       13 8  9.35                             116    0.30 7  280 232 
 TOL  SN ES       13 8 41.54                             116    0.17 7  280 232 
 TOL  SZ I        13 8 46.07        12.9 0.40            118            280 232 
 PRA  HZ EP       13 8 12.43                             112   -0.58 7  319 213 
 PRA  HN ES       13 8 48.01                             112   -0.42 7  319 213 
 PRA  HZ I        13 8 52.42         6.5 0.32            115            319 213 
                                                                                
