 2013  511 1912  1.2 L   6.789 -73.128153.8  RSN  8 0.4 1.8LRSN                1
 GAP=139        0.91       4.1     4.5  6.3 -0.2456E+01  0.4607E+01  0.3616E+01E
 Epicentro: LOS SANTOS - SANTANDER                                             3
 ACTION:UPD 13-06-20 09:49 OP:ep   STATUS:               ID:20130511191201 L   I
 2013-05-11-1910-00M.COL___256                                                 6
 STAT SP IPHASW D HRMM SECON CODA AMPLIT PERI AZIMU VELO AIN AR TRES W  DIS CAZ7
 BAR2 SZ EP       1912 21.73                             171   -0.0410 22.5 195 
 GIR2 SZ EP   2   1912 21.80                             167   -0.06 5 32.9 347 
 GIR2 SZ ES       1912 38.04                             167    0.0510 32.9 347 
 GIR2 SZ I        1912 39.31        11.9 0.11            167           32.9 347 
 BRR  HZ EP       1912 23.59                             153    0.2510 73.5 299 
 BRR  HN ES       1912 41.22                             153    0.6010 73.5 299 
 BRR  HZ I        1912 45.43        11.7 0.28            152           73.5 299 
 PAM  SZ EP       1912 24.64                             152    0.3910 77.1  38 
 PAM  SN ES       1912 41.94                             152   -0.3010 77.1  38 
 PAM  SZ I        1912 43.86        10.5 0.54            155           77.1  38 
 RUS  HZ EP       1912 25.58                             146   -0.0710 99.2 177 
 RUS  HN ES       1912 44.52                             146   -0.2010 99.2 177 
 RUS  HZ I        1912 45.36         5.1 0.28            148           99.2 177 
 PTB  HZ EP   1   1912 28.44                             133   -0.54 7  149 259 
 PTB  HN ES       1912 49.99                             133   -0.66 9  149 259 
 PTB  HZ I        1912 51.82        11.1 0.14            134            149 259 
 NOR  HZ EP   1   1912 37.67                             120    0.18 6  236 235 
 NOR  HN ES   1   1913  6.69                             120    0.88 6  236 235 
 NOR  HZ I        1913 10.00         5.8 0.22            121            236 235 
 SML  HZ EP   2   1912 38.34                             119   -0.15 4  246 335 
 SML  HN ES   1   1913  7.02                             119   -0.56 6  246 335 
                                                                                
