 2012  411 1717 17.9 L   6.431 -73.605 24.6  RSN  4 0.2 1.7LRSN                1
 GAP=208        0.54       3.8     1.8  3.2 -0.2169E+01  0.5274E+00  0.3963E+01E
 Epicentro: SANTA HELENA DEL OPON - SANTANDER                                  3
 ACTION:UPD 12-07-05 11:52 OP:tino STATUS:               ID:20120411171717 L   I
 2012-04-11-1710-00M.COL___177                                                 6
 STAT SP IPHASW D HRMM SECON CODA AMPLIT PERI AZIMU VELO AIN AR TRES W  DIS CAZ7
 BAR2 SZ ES   1   1717 34.03                             115    -0.1 7   50  69 
 BAR2 SZ I        1717 34.55        49.3 0.09                            50  69 
 BRR  HZ EP   1   1717 30.14                             106    -0.3 7   76 351 
 BRR  HE ES   1   1717 40.36                             106     0.2 7   76 351 
 PTB  HZ EP       1717 33.35                              71     0.210   95 277 
 PTB  HN ES   1   1717 44.88                              71    -0.2 7   95 277 
 PTB  HZ I        1717 46.48        17.7 0.18                            95 277 
 PAM  SZ EP       1717 39.92                              56     0.2 9  142  45 
 PAM  SN ES   1   1717 56.51                              56    -0.2 7  142  45 
                                                                                
