 2011  811 1619 27.6 L   6.780 -73.066145.8  RSN  6 0.3 2.0LRSN                1
 GAP=191        0.53       3.5     7.0  4.5  0.9766E+01  0.7504E+01  0.4982E+01E
 Epicentro: LOS SANTOS - SANTANDER                                             3
 ACTION:UPD 12-07-13 15:51 OP:ep   STATUS:               ID:20110811161927 L   I
 2011-08-11-1619-04S.COL___150                                                 6
 STAT SP IPHASW D HRMM SECON CODA AMPLIT PERI AZIMU VELO AIN AR TRES W  DIS CAZ7
 BAR2 SZ EP       1619 47.44                             170    0.1910 24.4 212 
 BAR2 SZ ES   1   1620  2.29                             170   -0.28 7 24.4 212 
 BAR2 SZ I        1620  4.84        29.7 0.46                          24.4 212 
 BRR  HZ EP       1619 49.43                             150    0.1710 80.0 297 
 BRR  HE ES   1   1620  6.27                             150    0.11 7 80.0 297 
 BRR  HZ I        1620  7.48        20.2 0.12                          80.0 297 
 RUS  HZ EP       1619 51.33                             144    0.1610 98.1 181 
 RUS  HN ES   1   1620  9.54                             144   -0.02 7 98.1 181 
 RUS  HZ I        1620 10.95        15.6 0.30                          98.1 181 
 OCA  SZ ES   2   1620 17.83                             129   -0.74 5  164 350 
 NOR  SZ EP       1620  3.93                             118   -0.03 8  241 236 
 CHI  HZ EP       1620  5.02                             117   -0.31 8  249 197 
 CHI  HE ES   2   1620 34.46                             117   -0.30 4  249 197 
 CHI  HZ I        1620 42.83         5.2 0.50                           249 197 
                                                                                
