 2015  111 1910  2.0 L   6.794 -73.137153.4  RSN  7 0.5 1.7LRSN                1
 GAP=184        1.17       5.0     6.6 10.5 -0.8353E+00 -0.8351E+01  0.3735E+01E
 Epicentro: LOS SANTOS - SANTANDER                                             3
 ACTION:UPD 15-03-02 15:38 OP:nd   STATUS:               ID:20150111191002 L   I
 OLDACT:UP  15-01-11 23:05 OP:mh   STATUS:               ID:20150111190744     3
 OLDACT:UP  15-01-11 23:04 OP:mh   STATUS:               ID:20150111190744     3
 OLDACT:UP  15-01-11 23:04 OP:mh   STATUS:               ID:20150111190744     3
 OLDACT:REG 15-01-11 20:51 OP:mh   STATUS:               ID:20150111190744     3
 2015-01-11-1907-44M.COL___256                                                 6
 STAT SP IPHASW D HRMM SECON CODA AMPLIT PERI AZIMU VELO AIN AR TRES W  DIS CAZ7
 BAR2 EZ EP   1   1910 22.62                             171    0.11 7 22.9 193 
 BAR2 EZ I        1910 51.21         6.0 0.11            169           22.9 193 
 BRR  HZ EP       1910 24.60                             153    0.5910 72.3 299 
 BRR  HN ES       1910 41.91                             153    0.7110 72.3 299 
 BRR  HZ I        1910 45.30        10.2 0.40            158           72.3 299 
 RUS  HZ EP       1910 26.01                             146   -0.4210 99.9 177 
 RUS  HN ES   1   1910 45.29                             146   -0.22 7 99.9 177 
 RUS  HZ I        1910 46.21         4.1 0.40            142           99.9 177 
 PTB  HZ EP       1910 29.33                             134   -0.31 9  149 259 
 PTB  HN ES       1910 50.93                             134   -0.29 9  149 259 
 PTB  HZ I        1910 52.53         7.2 0.14            135            149 259 
 OCA  HZ EP       1910 31.51                             131    0.56 9  161 353 
 OCA  HN ES       1910 52.69                             131   -0.87 9  161 353 
 ZAR  HN ES       1911  0.51                             124   -0.32 9  205 292 
 ZAR  HZ I        1911  6.62        10.5 0.28            125            205 292 
 NOR  HZ EP   1   1910 38.69                             120    0.50 6  235 235 
 NOR  HN ES   1   1911  6.47                             120    0.02 6  235 235 
 NOR  HZ I        1911 12.09         4.0 0.36            120            235 235 
                                                                                
