 2014 1011 1635 23.9 L   6.785 -73.162141.1  RSN  8 0.4 1.8LRSN                1
 GAP= 99        1.16       4.9     4.2  7.2  0.4830E-01  0.2525E+01 -0.1409E+01E
 Epicentro: LOS SANTOS - SANTANDER                                             3
 ACTION:UPD 14-11-29 23:48 OP:nd   STATUS:               ID:20141011163523 L   I
 OLDACT:REG 14-10-11 22:17 OP:stll STATUS:               ID:20141011162748     3
 2014-10-11-1627-48M.COL___292                                                 6
 STAT SP IPHASW D HRMM SECON CODA AMPLIT PERI AZIMU VELO AIN AR TRES W  DIS CAZ7
 BAR2 SZ EP       1635 43.09                             171    0.1510 21.5 186 
 BAR2 SZ ES       1635 57.43                             171   -0.3510 21.5 186 
 BAR2 SZ I        1635 58.86        19.4 0.26            171           21.5 186 
 BRR  HZ EP       1635 44.49                             152   -0.0210 70.4 300 
 BRR  HN ES       1636  1.49                             152    0.9110 70.4 300 
 PAM  SZ EP       1635 45.73                             149   -0.0510 79.8  40 
 PAM  SN ES       1636  2.40                             149   -0.4310 79.8  40 
 PAM  SZ I        1636  4.77        16.6 0.48            151           79.8  40 
 RUS  HZ EP       1635 47.47                             143    0.3810 99.1 175 
 RUS  HN ES       1636  5.36                             143    0.1810 99.1 175 
 RUS  HZ I        1636  7.34         6.1 0.24            145           99.1 175 
 PTB  HZ EP       1635 49.47                             131   -0.84 9  146 259 
 PTB  HN ES       1636 10.71                             131   -0.19 9  146 259 
 PTB  HZ I        1636 12.45         9.4 0.14            131            146 259 
 TAM  HZ EP       1635 51.35                             129    0.01 9  156 104 
 SPBC HN ES       1636 13.45                             128   -0.15 9  161 219 
 SPBC HZ I        1636 16.32         9.3 0.26            129            161 219 
 ZAR  HZ EP       1635 56.71                             121    0.77 9  203 293 
 ZAR  HN ES       1636 20.51                             121   -0.42 9  203 293 
 ZAR  HZ I        1636 28.36         7.0 0.16            122            203 293 
                                                                                
