 2017  311 1053 37.1 L   6.651 -73.004179.6  RSN  8 0.4 1.7LRSN                1
 GAP=162        1.08       4.7     6.4  7.0  0.1767E+01  0.8623E+01  0.8199E+01E
 Epicentro: ARATOCA - SANTANDER                                                3
 ACTION:UPD 17-05-25 18:39 OP:jn   STATUS:               ID:20170311105337 L   I
 OLDACT:UP  17-03-11 22:12 OP:ar   STATUS:               ID:20170311104742     3
 OLDACT:REG 17-03-11 21:12 OP:ar   STATUS:               ID:20170311104742     3
 2017-03-11-1048-00M.COL___400                                                 6
 STAT SP IPHASW D HRMM SECON CODA AMPLIT PERI AZIMU VELO AIN AR TRES W  DIS CAZ7
 BAR2 EZ IP     C 1054  0.66                             173   -0.1410 20.7 252 
 BAR2 EZ ES       1054 19.12                             173   -0.1410 20.7 252 
 BAR2 EZ I        1054 19.34        11.7 0.18            169           20.7 252 
 PAM  EZ EP       1054  3.35                             155    0.0210 83.2  24 
 PAM  EN ES       1054 23.26                             155   -0.5210 83.2  24 
 PAM  EZ I        1054 25.44         4.5 0.40            157           83.2  24 
 RUS  HZ EP       1054  3.78                             154    0.3810 84.4 186 
 RUS  HN ES       1054 23.80                             154   -0.0910 84.4 186 
 RUS  HZ I        1054 24.50         5.1 0.26            153           84.4 186 
 BRR  HZ EP       1054  3.55                             151    0.3810 93.0 303 
 BRR  HN ES       1054 24.34                             151    0.8610 93.0 303 
 PTB  HZ EP       1054  7.31                             136   -0.82 9  161 266 
 PTB  HE ES   2   1054 31.26                             136   -1.05 5  161 266 
 PTB  HZ I        1054 32.26         8.6 0.16            135            161 266 
 SPBC HZ EP       1054  8.25                             136   -0.05 9  162 227 
 SPBC HE ES   4   1054 34.37                             136    1.76 0  162 227 
 SPBC HZ I        1054 37.86         5.5 0.12            135            162 227 
 ZAR  HZ EP   4   1054 16.93                             126    2.93 0  225 295 
 ZAR  HN ES       1054 42.67                             126   -0.09 8  225 295 
 ZAR  HZ I        1054 48.95         6.1 0.30            126            225 295 
 CHI  HZ EP       1054 15.89                             125    0.09 8  238 200 
 CHI  HN ES       1054 46.26                             125    0.29 8  238 200 
 CHI  HZ I        1054 50.34         1.3 0.30            125            238 200 
                                                                                
