 2017  711 1124 48.8 L   6.560 -73.145142.9  RSN  4 0.3 1.5LRSN                1
 GAP=315        0.56       7.0     4.3  5.2  0.5334E+01  0.5629E+01  0.6935E+01E
 Epicentro: SAN GIL - SANTANDER                                                3
 ACTION:UPD 17-08-30 15:32 OP:rebc STATUS:               ID:20170711112448 L   I
 OLDACT:REG 17-07-11 20:23 OP:dhb  STATUS:               ID:20170711111744     3
 2017-07-11-1118-00M.COL___371                                                 6
 STAT SP IPHASW D HRMM SECON CODA AMPLIT PERI AZIMU VELO AIN AR TRES W  DIS CAZ7
 BAR2 EZ IP     C 1125  7.82                             177   -0.0210 5.41 311 
 BAR2 EZ ES       1125 22.48                             177   -0.2210 5.41 311 
 BAR2 EZ I        1125 23.96         6.9 0.22            170           5.41 311 
 BRR  HZ EP       1125 10.74                             146    0.1310 87.1 314 
 BRR  HN ES       1125 27.79                             146    0.1610 87.1 314 
 BRR  HZ I        1125 29.66        15.1 0.32            141           87.1 314 
 PTB  HZ EP       1125 15.31                             132    0.04 9  145 269 
 PTB  HN ES       1125 36.01                             132    0.09 9  145 269 
 PTB  HZ I        1125 37.77         2.2 0.10            130            145 269 
 ZAR  HE ES   2   1125 47.38                             120   -0.95 4  215 299 
 ZAR  HZ I        1125 54.65         2.0 0.12            118            215 299 
                                                                                
