 2011 1011 1350 17.9 L   6.728 -73.106141.5  RSN  5 0.3 1.8LRSN                1
 GAP=145        0.43       5.0     4.9  5.2  0.6018E+01 -0.8342E+01 -0.5816E+01E
 Epicentro: JORDAN - SANTANDER                                                 3
 ACTION:UPD 12-07-13 16:03 OP:ep   STATUS:               ID:20111011135018 L   I
 2011-10-11-1349-08S.COL___168                                                 6
 STAT SP IPHASW D HRMM SECON CODA AMPLIT PERI AZIMU VELO AIN AR TRES W  DIS CAZ7
 BAR2 SZ EP       1350 36.98                             173    0.0410 17.2 209 
 BAR2 SZ ES   1   1350 51.57                             173   -0.19 7 17.2 209 
 BAR2 SZ I        1350 52.74        10.9 0.28                          17.2 209 
 BRR  HZ EP       1350 38.99                             149   -0.1010 79.0 302 
 BRR  HZ I        1350 39.35        12.9 0.10                          79.0 302 
 BRR  HN ES   1   1350 55.82                             149    0.23 7 79.0 302 
 PAM  SZ EP       1350 40.06                             148    0.1310 81.2  34 
 PAM  SN ES   3   1350 56.43                             148   -0.66 2 81.2  34 
 RUS  HZ EP   2   1350 40.58                             145   -0.10 5 92.4 178 
 RUS  HN ES   3   1350 58.85                             145    0.43 2 92.4 178 
 ZAR  HE ES   3   1351 15.48                             120   -1.04 2  211 294 
                                                                                
