 2011  311 1357 33.8 L   6.648 -73.524108.6  RSN  9 0.4 2.4LRSN                1
 GAP= 89        0.93       3.3     3.9  7.3 -0.2022E+01  0.1322E+02 -0.1899E+01E
 Epicentro: EL CARMEN DE CHUCURI - SANTANDER                                   3
 ACTION:UP  11-06-16 14:33 OP:jfem STATUS:               ID:20110311135733 L   I
 2011-03-11-1355-58S.COL___135                                                 6
 STAT SP IPHASW D HRMM SECON CODA AMPLIT PERI AZIMU VELO SNR AR TRES W  DIS CAZ7
 BAR2 SZ IP       1357 49.78                             159     0.310   38  99 
 BAR2 SZ ES       1358  1.97                             159     0.210   38  99 
 BAR2 SZ I        1358  3.72       182.6 0.48                            38  99 
 RUS  HZ EP       1357 53.56                             136    -0.210   97 150 
 RUS  HN ES   1   1358  8.74                             136    -0.6 7   97 150 
 RUS  HZ I        1358 11.24        38.5 0.18                            97 150 
 GRA  SZ EP   1   1357 59.03                             120    -0.2 7  158  30 
 GRA  SZ ES   1   1358 19.74                             120     0.6 7  158  30 
 GRA  SZ I        1358 21.34        34.0 0.36                           158  30 
 OCA  SZ EP   1   1358  0.85                             117    -0.5 7  177   7 
 OCA  SZ ES   1   1358 22.26                             117    -0.6 7  177   7 
 OCA  SZ I        1358 28.71        36.0 0.31                           177   7 
 YOP  SZ EP   1   1358  2.33                             115    -0.1 7  188 139 
 YOP  SE ES   1   1358 25.08                             115     0.2 7  188 139 
 YOP  SZ I        1358 26.81        43.1 0.46                           188 139 
 NOR  SZ EP   1   1358  2.34                             115    -0.4 7  191 231 
 NOR  SN ES   1   1358 25.01                             115    -0.3 7  191 231 
 CHI  HZ EP   1   1358  7.41                             111     0.5 6  224 186 
 CHI  HE ES   2   1358 32.79                             111     0.0 4  224 186 
 CHI  HZ I        1358 39.69        14.2 0.37                           224 186 
 HEL  HZ EP   1   1358  8.09                             110     0.9 6  228 257 
 HEL  HE ES       1358 33.23                             110    -0.1 8  228 257 
 HEL  HZ I        1358 38.74        18.2 0.36                           228 257 
 DBB  SZ EP   1   1358 15.56                             104     0.3 5  300 278 
                                                                                
