 2013  711 1610 47.2 L   6.772 -73.187137.5  RSN  6 0.4 1.8LRSN                1
 GAP=135        1.13       6.4     6.1  7.6 -0.1542E+01  0.9277E+00 -0.8524E+01E
 Epicentro: VILLANUEVA - SANTANDER                                             3
 ACTION:UPD 13-08-12 10:37 OP:ep   STATUS:               ID:20130711161047 L   I
 OLDACT:REG 13-07-11 15:57 OP:stll STATUS:               ID:20130711160851     3
 2013-07-11-1608-51M.COL___227                                                 6
 STAT SP IPHASW D HRMM SECON CODA AMPLIT PERI AZIMU VELO AIN AR TRES W  DIS CAZ7
 BAR2 SZ EP       1611  5.83                             171    0.1110 19.9 178 
 BAR2 SZ ES       1611 20.26                             171    0.0510 19.9 178 
 BAR2 SZ I        1611 21.58        10.0 0.18            172           19.9 178 
 GIR2 SZ EP       1611  5.98                             165    0.0610 33.9 359 
 GIR2 SZ ES       1611 20.05                             165   -0.5210 33.9 359 
 BRR  HZ EP       1611  7.84                             152    0.5610 68.8 303 
 BRR  HE ES       1611 23.62                             152    0.6510 68.8 303 
 BRR  HE I        1611 25.29        18.6 0.20            151           68.8 303 
 RUS  HN ES       1611 27.75                             143    0.1010 97.9 173 
 PTB  HZ EP       1611 13.09                             131    0.10 9  143 260 
 PTB  HN ES       1611 32.35                             131   -0.79 9  143 260 
 PTB  HN I        1611 35.70         8.0 0.62            131            143 260 
 CAPV BZ EP       1611 13.92                             129   -0.47 9  155  39 
                                                                                
