 2012  311 1738 23.5 L   6.747 -73.174134.2  RSN  6 0.4 1.9LRSN                1
 GAP=230        0.89       6.1     7.5  7.8  0.2561E+02  0.1607E+02  0.9838E+01E
 ACTION:UP  12-03-31 23:19 OP:EP   STATUS:               ID:20120311173823 L   I
 2012-03-11-1736-36M.COL___178                                                 6
 STAT SP IPHASW D HRMM SECON CODA AMPLIT PERI AZIMU VELO SNR AR TRES W  DIS CAZ7
 BAR2 SZ EP   1   1738 41.92                             172     0.3 7   17 183 
 BAR2 SZ ES   1   1738 55.69                             172    -0.1 7   17 183 
 BRR  HZ EP   1   1738 43.58                             150     0.2 7   72 304 
 BRR  HN ES   1   1738 59.18                             150     0.2 7   72 304 
 BRR  HZ I        1739  4.01        21.6 0.17                            72 304 
 RUS  HZ EP   1   1738 46.16                             143     0.5 7   95 174 
 RUS  HN ES   1   1739  2.39                             143    -0.6 7   95 174 
 PTB  HZ EP   1   1738 48.51                             130    -0.6 7  144 261 
 PTB  HN ES   1   1739  9.27                             130     0.1 7  144 261 
 PTB  HZ I        1739 13.02         8.9 0.10                           144 261 
 ZAR  HZ EP   1   1738 54.44                             120    -0.7 6  203 294 
 ZAR  HN ES   1   1739 20.11                             120     0.3 6  203 294 
 ZAR  HZ I        1739 26.08        10.2 0.26                           203 294 
 CHI  HZ EP   1   1739  0.06                             115     0.2 6  242 195 
 CHI  HZ I        1739  1.68         4.0 0.25                           242 195 
 CHI  HN ES   1   1739 28.61                             115     0.4 6  242 195 
                                                                                
