 2016  811 1957 18.6 L   6.765 -73.191142.9  RSN  6 0.4 1.7LRSN                1
 GAP=230        0.89       5.4     4.8  6.3  0.3011E+01  0.6077E+01  0.3858E+01E
 Epicentro: LOS SANTOS - SANTANDER                                             3
 ACTION:UPD 16-10-29 15:34 OP:rebc STATUS:               ID:20160811195718 L   I
 OLDACT:REG 16-08-11 21:05 OP:lv   STATUS:               ID:20160811194759     3
 2016-08-11-1947-59S.COL___346                                                 6
 STAT SP IPHASW D HRMM SECON CODA AMPLIT PERI AZIMU VELO AIN AR TRES W  DIS CAZ7
 BAR2 EZ EP       1957 37.64                             172   -0.2110 19.1 177 
 BAR2 EZ ES       1957 52.72                             172   -0.1010 19.1 177 
 BAR2 EZ I        1957 53.83        13.7 0.22                          19.1 177 
 BRR  HZ EP       1957 39.20                             153   -0.1510 68.9 303 
 BRR  HN ES       1957 55.92                             153    0.4210 68.9 303 
 BRR  HZ I        1957 56.67        21.7 0.42                          68.9 303 
 RUS  HZ EP       1957 41.87                             144    0.0010 97.2 173 
 RUS  HE ES       1958  0.09                             144    0.1110 97.2 173 
 RUS  HZ I        1958  1.34         6.5 0.30                          97.2 173 
 PTB  HZ EP       1957 44.34                             133   -0.53 9  142 260 
 PTB  HN ES       1958  5.24                             133   -0.08 9  142 260 
 PTB  HZ I        1958  7.29         3.9 0.10                           142 260 
 NOR  HZ EP       1957 54.50                             119    0.97 8  228 235 
 NOR  HN ES       1958 20.49                             119   -0.25 8  228 235 
 NOR  HZ I        1958 26.41         2.9 0.22                           228 235 
 GUY2CHZ EP   9   1958  4.23                             112    2.82 0  295 235 
 GUY2CHN ES       1958 37.55                                   -0.03 7  295 235 
 GUY2CHZ I        1958 43.75         1.7 0.24                           295 235 
                                                                                
