 2010  911 1718 29.7 L   6.760 -73.083150.9  RSN  7 0.4 2.1LRSN                1
 GAP=166        0.67       5.0    10.0  8.7 -0.3057E+01 -0.1893E+02 -0.8757E+01E
 Epicentro: LOS SANTOS - SANTANDER                                             3
 ACTION:UP  11-02-18 11:02 OP:tino STATUS:               ID:20100911171829 L   I
 2010-09-11-1716-11S.COL___120                                                 6
 STAT SP IPHASW D HRMM SECON CODA AMPLIT PERI AZIMU VELO SNR AR TRES W  DIS CAZ7
 BAR2 SZ EP   1   1718 49.93                             171     0.0 7   22 211 
 BAR2 SZ ES   2   1719  5.09                             171    -0.6 5   22 211 
 BAR2 SZ I        1719  6.69        24.8 0.23                            22 211 
 BTL  SZ EP   1   1718 50.24                             170     0.2 7   27 311 
 GIR2 SZ EP   2   1718 51.04                             166     0.9 5   37 341 
 GIR2 SZ ES   3   1719  7.31                             166     1.2 2   37 341 
 BRR  HZ IP     C 1718 51.73                             151    -0.210   79 299 
 BRR  HZ I        1718 52.14        38.6 0.12                            79 299 
 BRR  HN ES   2   1719  9.12                             151    -0.1 5   79 299 
 RUS  HZ EP   1   1718 53.87                             146     0.2 7   96 180 
 RUS  HN ES   2   1719 12.13                             146    -0.2 5   96 180 
 RUS  HZ I        1719 13.86         9.1 0.26                            96 180 
 GUE  SZ EP   1   1718 54.76                             139    -0.4 7  120   8 
 GRA  SZ EP   1   1718 55.72                             137     0.1 7  128  14 
 GRA  SZ ES   2   1719 15.81                             137     0.0 5  128  14 
                                                                                
