 2010 1011 1759 57.3 L   6.762 -73.089145.5  RSN  8 0.3 2.2LRSN                1
 GAP=183        0.56       4.2     5.6  6.2 -0.1100E+02  0.2750E+01  0.9244E+01E
 Epicentro: LOS SANTOS - SANTANDER                                             3
 ACTION:UP  11-02-18 11:09 OP:tino STATUS:               ID:20101011175957 L   I
 2010-10-11-1756-07S.COL___121                                                 6
 STAT SP IPHASW D HRMM SECON CODA AMPLIT PERI AZIMU VELO SNR AR TRES W  DIS CAZ7
 BAR2 SZ EP   1   18 0 16.83                             171     0.0 7   21 209 
 BAR2 SZ ES   2   18 0 32.12                             171     0.0 5   21 209 
 BAR2 SZ I        18 0 33.88        44.2 0.34                            21 209 
 BRR  HZ IP     C 18 0 18.70                             150    -0.210   79 299 
 BRR  HZ I        18 0 18.95        43.8 0.13                            79 299 
 BRR  HE ES   2   18 0 36.24                             150     0.6 5   79 299 
 GRA  SZ EP   1   18 0 22.65                             136    -0.1 7  128  14 
 GRA  SZ ES   2   18 0 42.66                             136     0.1 5  128  14 
 GRA  SZ I        18 0 43.52        15.1 0.41                           128  14 
 NOR  SZ EP   1   18 0 32.81                             118    -0.5 6  238 236 
 NOR  SE ES   2   18 1  0.79                             118    -0.6 4  238 236 
 CHI  HZ EP   1   18 0 34.84                             117     0.1 6  246 197 
 CHI  HE ES   2   18 1  3.92                             117     0.0 4  246 197 
 CHI  HZ I        18 1 12.22         8.8 0.40                           246 197 
 HEL  HZ EP   1   18 0 38.60                             114     0.5 6  277 257 
 HEL  HN ES   2   18 1  9.52                             114    -0.3 4  277 257 
 HEL  HZ I        18 1 15.82         8.5 0.54                           277 257 
 RREF HZ EP   1   18 0 43.90                             111     0.2 5  324 231 
 RREF HE ES   2   18 1 20.29                             111     0.5 3  324 231 
 RREF HZ I        18 1 28.01         9.9 0.49                           324 231 
 PRA  HZ EP   1   18 0 51.14                             106     0.4 4  391 211 
 PRA  HE ES   2   18 1 32.52                             106     0.1 3  391 211 
                                                                                
