 2011 1211 1913 49.9 L   6.832 -73.111135.9  RSN  4 0.2 1.6LRSN                1
 GAP=244        0.37       5.4     9.0  5.1  0.3166E+02  0.6693E+01  0.6846E+01E
 Epicentro: LOS SANTOS - SANTANDER                                             3
 ACTION:UPD 12-07-13 16:15 OP:ep   STATUS:               ID:20111211191349 L   I
 2011-12-11-1910-00M.COL___186                                                 6
 STAT SP IPHASW D HRMM SECON CODA AMPLIT PERI AZIMU VELO AIN AR TRES W  DIS CAZ7
 BAR2 SZ EP   1   1914  8.30                             168   -0.14 7 27.6 197 
 BAR2 SZ ES   2   1914 22.68                             168   -0.23 5 27.6 197 
 BAR2 SZ I        1914 25.61        10.9 0.20                          27.6 197 
 BRR  HZ EP   1   1914 10.25                             150    0.15 7 73.0 295 
 BRR  HN ES   2   1914 25.87                             150    0.02 5 73.0 295 
 RUS  HZ EP   1   1914 13.04                             141    0.09 7  104 178 
 RUS  HN ES   2   1914 31.18                             141    0.26 5  104 178 
 RUS  HZ I        1914 33.28         6.3 0.45                           104 178 
 CTAU SZ EP   1   1914 22.59                             120   -0.17 6  208 210 
 CTAU SZ I        1914 53.13         4.2 0.47                           208 210 
                                                                                
