 2012  411 1531 26.9 L   6.770 -73.138149.0  RSN  7 0.4 2.1LRSN                1
 GAP=156        0.87       6.2     5.2  7.6 -0.8102E+01  0.8325E+01  0.1435E+02E
 Epicentro: LOS SANTOS - SANTANDER                                             3
 ACTION:UPD 12-07-05 11:52 OP:tino STATUS:               ID:20120411153126 L   I
 2012-04-11-1530-00M.COL___177                                                 6
 STAT SP IPHASW D HRMM SECON CODA AMPLIT PERI AZIMU VELO AIN AR TRES W  DIS CAZ7
 BAR2 SZ EP       1531 46.91                             172     0.110   20 194 
 BAR2 SZ ES   1   1532  1.95                             172    -0.4 7   20 194 
 BAR2 SZ I        1532  3.01        37.0 0.27                            20 194 
 BRR  HZ EP   1   1531 48.87                             152     0.4 7   74 300 
 BRR  HE ES   1   1532  5.97                             152     0.6 7   74 300 
 BRR  HZ I        1532  6.80        25.9 0.10                            74 300 
 PAM  SZ EP   1   1531 49.94                             151     0.4 7   79  38 
 PAM  SN ES   1   1532  6.93                             151    -0.3 7   79  38 
 PTB  HZ EP   1   1531 53.78                             133    -0.3 7  148 260 
 PTB  HE ES   1   1532 15.07                             133    -0.3 7  148 260 
 PTB  HZ I        1532 22.00        11.0 0.26                           148 260 
 ZAR  HZ EP   1   1531 58.89                             123    -0.8 6  206 293 
 ZAR  HN ES   1   1532 25.23                             123    -0.1 6  206 293 
 NOR  SZ EP   1   1532  3.20                             119     0.6 6  233 235 
 NOR  SN ES   1   1532 30.98                             119     0.4 6  233 235 
 PRA  HZ EP   1   1532 19.68                             107    -0.5 4  390 210 
 PRA  HE ES   1   1533  1.74                             107    -0.1 4  390 210 
                                                                                
