 2013  311 1741 14.5 L   6.761 -73.158141.3  RSN  5 0.4 1.6LRSN                1
 GAP=137        0.83       6.9     6.5  8.6  0.1000E+02 -0.3751E+01 -0.9282E+01E
 Epicentro: LOS SANTOS - SANTANDER                                             3
 ACTION:UPD 13-04-09 14:01 OP:ep   STATUS:               ID:20130311174114 L   I
 2013-03-11-1740-00M.COL___231                                                 6
 STAT SP IPHASW D HRMM SECON CODA AMPLIT PERI AZIMU VELO AIN AR TRES W  DIS CAZ7
 BAR2 SZ EP   1   1741 33.52                             172    0.04 7 18.9 188 
 BAR2 SZ ES   1   1741 47.71                             172   -0.60 7 18.9 188 
 BAR2 SZ I        1741 51.69        11.3 0.40            175           18.9 188 
 BRR  HZ EP   1   1741 35.58                             151    0.38 7 72.2 302 
 BRR  HN ES   1   1741 51.99                             151    0.63 7 72.2 302 
 BRR  HN I        1741 56.93        12.1 0.21            154           72.2 302 
 PAM  SZ EP   1   1741 36.06                             149   -0.41 7 81.6  38 
 RUS  HZ EP   1   1741 37.84                             144    0.36 7 96.4 175 
 RUS  HN ES   1   1741 55.68                             144    0.25 7 96.4 175 
 RUS  HN I        1741 57.94         8.0 0.23            151           96.4 175 
 PTB  HZ EP   1   1741 40.55                             131   -0.34 7  146 260 
 PTB  HN ES   1   1742  1.09                             131   -0.40 7  146 260 
 PTB  HZ I        1742  3.02         3.3 0.17            137            146 260 
                                                                                
