 2012 1111 1607 24.2 L   6.744 -73.226145.3  RSN  6 0.4 1.6LRSN                1
 GAP=217        0.85       6.0     6.7  8.0  0.2012E+02  0.1145E+02  0.1261E+02E
 Epicentro: VILLANUEVA - SANTANDER                                             3
 ACTION:UPD 12-12-05 15:32 OP:}ep  STATUS:               ID:20121111160724 L   I
 2012-11-11-1600-00M.COL___230                                                 6
 STAT SP IPHASW D HRMM SECON CODA AMPLIT PERI AZIMU VELO AIN AR TRES W  DIS CAZ7
 BAR2 SZ EP       16 7 43.26                             173   -0.3710 17.5 164 
 BAR2 SZ ES   1   16 7 58.23                             173   -0.59 7 17.5 164 
 BAR2 SZ I        16 8  0.58        13.5 0.28                          17.5 164 
 BRR  HZ EP   1   16 7 45.01                             154   -0.02 7 67.0 307 
 BRR  HN ES   1   16 8  2.06                             154    0.76 7 67.0 307 
 RUS  HZ EP   1   16 7 47.65                             145    0.15 7 95.5 170 
 RUS  HE ES   1   16 8  6.22                             145    0.51 7 95.5 170 
 RUS  HZ I        16 8  7.58         6.1 0.30                          95.5 170 
 PTB  HZ EP   1   16 7 50.05                             134   -0.16 7  138 261 
 PTB  HN ES   1   16 8 10.16                             134   -0.37 7  138 261 
 PTB  HZ I        16 8 14.83         4.2 0.20                           138 261 
 ZAR  HN ES   1   16 8 20.90                             123    0.09 6  198 295 
 ZAR  HZ I        16 8 29.51         3.2 0.48                           198 295 
 CHI  HZ EP   1   16 8  1.58                             118    0.64 6  240 193 
 CHI  HN ES   1   16 8 29.40                             118   -0.24 6  240 193 
 CHI  HZ I        16 8 34.68         2.3 0.72                           240 193 
                                                                                
