 2013  311 1959 46.2 L   6.838 -73.126146.8  RSN 25 0.6 3.1LRSN 3.4WRSN        1
 SPEC AVERAGE  MO 14.1 ST 15.3 OM  2.7 f0 3.50 R0.4808 AL 2.40 WI 29.7 MW  3.4 3
 SPEC SD       MO  0.2 ST 17.2 OM  0.4 f0 1.29 R0.1706 AL      WI      MW  0.1 3
 GAP= 71        1.40       2.7     3.4  5.6 -0.2359E+01  0.3256E+01  0.1046E+01E
 Epicentro: LOS SANTOS - SANTANDER                                             3
 SPEC PRA HH E MO 14.0 ST  2.2 OM  2.0 f0 2.48 R0.5927 AL 1.95 WI 42.8 MW  3.3 3
 SPEC PRA HH E T20 121 K 0.000 GD  423 VS 4.20 DE 3.20 Q0300.0 QA 0.60 VS 4.20 3
 SPEC RUS HH E MO 14.1 ST  1.3 OM  2.4 f0 2.02 R0.7277 AL 2.54 WI 20.0 MW  3.3 3
 SPEC RUS HH E T20 028 K 0.000 GD  180 VS 4.20 DE 3.20 Q0300.0 QA 0.60 VS 4.20 3
 SPEC HEL HH N MO 13.9 ST  3.5 OM  2.0 f0 3.19 R0.4608 AL 2.18 WI 45.6 MW  3.2 3
 SPEC HEL HH N T20 056 K 0.000 GD  311 VS 4.20 DE 3.20 Q0300.0 QA 0.60 VS 4.20 3
 SPEC NOR HH E MO 14.2 ST 46.1 OM  2.4 f0 5.75 R0.2557 AL 3.51 WI 31.8 MW  3.4 3
 SPEC NOR HH E T20 049 K 0.000 GD  280 VS 4.20 DE 3.20 Q0300.0 QA 0.60 VS 4.20 3
 SPEC OCA HH N MO 14.4 ST 42.4 OM  2.7 f0 4.86 R0.3025 AL 2.65 WI 22.7 MW  3.6 3
 SPEC OCA HH N T20 035 K 0.000 GD  214 VS 4.20 DE 3.20 Q0300.0 QA 0.60 VS 4.20 3
 SPEC ANILHH E MO 14.4 ST  4.7 OM  2.4 f0 2.41 R0.6100 AL 2.12 WI 28.0 MW  3.5 3
 SPEC ANILHH E T20 115 K 0.000 GD  390 VS 4.20 DE 3.20 Q0300.0 QA 0.60 VS 4.20 3
 SPEC CHI HH N MO 14.0 ST  1.2 OM  2.1 f0 2.10 R0.7000 AL 1.79 WI 27.0 MW  3.3 3
 SPEC CHI HH N T20 052 K 0.000 GD  292 VS 4.20 DE 3.20 Q0300.0 QA 0.60 VS 4.20 3
 SPEC BRR HH N MO 14.3 ST 27.0 OM  2.7 f0 4.58 R0.3210 AL 3.34 WI 23.0 MW  3.5 3
 SPEC BRR HH N T20 024 K 0.000 GD  163 VS 4.20 DE 3.20 Q0300.0 QA 0.60 VS 4.20 3
 SPEC BAR2SH Z MO 14.0 ST  9.0 OM  2.4 f0 4.12 R0.3568 AL 1.53 WI 26.8 MW  3.3 3
 SPEC BAR2SH Z T20 020 K 0.000 GD  149 VS 4.20 DE 3.20 Q0300.0 QA 0.60 VS 4.20 3
 ACTION:UPD 13-04-09 14:01 OP:ep   STATUS:               ID:20130311195946 L   I
 2013-03-11-1958-50M.COL___210                                                 6
 STAT SP IPHASW D HRMM SECON CODA AMPLIT PERI AZIMU VELO AIN AR TRES W  DIS CAZ7
 BAR2 SZ IP       20 0  6.10                             169    0.0010 27.8 193 
 BAR2 SZ ES       20 0 21.02                             169   -0.5610 27.8 193 
 BAR2 SZ I        20 0 22.52       228.0 0.50            168           27.8 193 
 BRR  HZ IP     C 20 0  7.84                             153    0.3310 71.2 295 
 BRR  HE ES       20 0 24.97                             153    0.8810 71.2 295 
 BRR  HN I        20 0 25.72       388.1 0.42            148           71.2 295 
 PAM  SZ IP     D 20 0  8.81                             152    0.5010 72.8  40 
 PAM  SE ES       20 0 25.90                             152    0.3910 72.8  40 
 PAM  SN I        20 0 26.95       277.1 0.48            152           72.8  40 
 RUS  HZ EP       20 0 10.05                             143   -0.3410  105 177 
 RUS  HN ES       20 0 28.78                             143   -0.4510  105 177 
 RUS  HE I        20 0 30.55       158.4 0.36            142            105 177 
 CAPV BZ IP     D 20 0 13.77                             133    0.46 9  145  38 
 CAPV BZ ES       20 0 33.84                             133   -0.58 9  145  38 
 PTB  HZ IP     C 20 0 12.51                             132   -1.06 9  151 257 
 PTB  HN ES       20 0 34.53                             132   -0.34 9  151 257 
 PTB  HE I        20 0 35.65       160.0 0.28            128            151 257 
 TAM  HZ IP     D 20 0 14.22                             131    0.30 9  154 107 
 TAM  HN ES       20 0 35.00                             131   -0.51 9  154 107 
 OCA  HZ EP       20 0 14.31                             131    0.03 9  156 352 
 OCA  HE ES       20 0 36.45                             131    0.31 9  156 352 
 OCA  HN I        20 0 40.73       545.0 0.22            128            156 352 
 ZAR  HZ EP       20 0 18.80                             122   -0.01 9  205 291 
 ZAR  HE ES       20 0 44.30                             122    0.10 9  205 291 
 ZAR  HN I        20 0 49.61       222.6 0.40            119            205 291 
 CTAU SZ EP       20 0 20.93                             122    1.16 8  207 209 
 CTAB SZ EP       20 0 23.72                             119    1.16 8  235 211 
 CTAB SZ ES       20 0 52.11                             119    1.23 8  235 211 
 NOR  HZ IP     D 20 0 22.01                             118   -0.47 8  239 234 
 NOR  HN ES       20 0 50.07                             118   -0.68 8  239 234 
 NOR  HE I        20 0 55.44       172.6 0.46            116            239 234 
 SML  HZ EP       20 0 22.24                             118   -0.38 8  241 334 
 SML  HE ES       20 0 51.13                             118    0.14 8  241 334 
 CHI  HZ EP       20 0 24.28                             117   -0.22 8  253 195 
 CHI  HE ES       20 0 54.10                             117   -0.24 8  253 195 
 CHI  HN I        20 0 56.45        47.6 0.40            115            253 195 
 ROSC BZ EP       20 0 25.45                             116    0.52 8  257 211 
 ROSC BN ES       20 0 55.84                             116    0.73 8  257 211 
 ROSC BZ I        20 1  4.28        46.1 0.35            115            257 211 
 HEL  HZ EP       20 0 28.37                             115    1.51 8  275 255 
 HEL  HE ES       20 0 58.04                             115   -0.49 8  275 255 
 HEL  HN I        20 1  5.80        39.9 0.44            112            275 255 
 URE  HZ EP       20 0 26.57                             114   -0.85 7  284 291 
 SOCV BZ IP     C 20 0 28.24                             113   -0.64 7  297  57 
 VIL  SZ EP       20 0 30.59                             112    0.37 7  308 192 
 VIL  SE ES       20 1  3.90                             112   -0.62 7  308 192 
 RREF HZ EP       20 0 32.99                             111    0.06 7  326 229 
 RREF HE ES       20 1  8.32                             111   -1.02 7  326 229 
 RREF HZ I        20 1 22.92        31.0 0.36            109            326 229 
 COD  HZ EP       20 0 34.36                             109    0.15 7  344 354 
 COD  HE ES       20 1 11.06                             109   -0.56 7  344 354 
 COD  HN I        20 1 17.73        13.7 0.20            108            344 354 
 SDV  BZ EP       20 0 35.98                             109    0.15 6  356  50 
 ANIL HE ES       20 1 15.93                             108    0.04 6  362 224 
 PRA  HZ EP       20 0 39.94                             106   -0.41 6  397 210 
 PRA  HN ES       20 1 21.98                             106   -0.57 6  397 210 
 PRA  HE I        20 1 25.20        25.7 0.38            105            397 210 
 SJC  HE EPg      20 0 40.36                             106   -1.21 6  407 326 
 SJC  HN I        20 1 24.81        32.3 0.32            104            407 326 
                                                                                
