 2014  211 1229 12.8 L   6.907 -73.218130.8  RSN  4 0.5 1.7LRSN                1
 GAP=178        1.20       6.9     8.5 13.9 -0.1282E+02  0.4778E+02 -0.1982E+02E
 Epicentro: BETULIA - SANTANDER                                                3
 ACTION:UPD 14-03-10 08:09 OP:ep   STATUS:               ID:20140211122912 L   I
 OLDACT:REG 14-02-11 16:22 OP:mh   STATUS:               ID:20140211122849     3
 2014-02-11-1228-49M.COL___220                                                 6
 STAT SP IPHASW D HRMM SECON CODA AMPLIT PERI AZIMU VELO AIN AR TRES W  DIS CAZ7
 BAR2 SZ EP   1   1229 30.88                             164   -0.05 8 35.0 174 
 BAR2 SZ ES   1   1229 45.67                             164    0.57 8 35.0 174 
 BAR2 SZ I        1229 47.13        14.2 0.10            168           35.0 174 
 PTB  HZ EP       1229 37.49                             129   -0.6010  143 254 
 PTB  HN ES       1229 57.41                             129   -0.4310  143 254 
 PTB  HZ I        1229 58.46         6.0 0.25            131            143 254 
 OCA  HN ES       1229 58.63                             128   -0.3810  148 356 
 ZAR  HZ EP       1229 43.93                             120    0.88 9  192 290 
 ZAR  HN ES       1230  7.05                             120    0.38 9  192 290 
 ZAR  HZ I        1230 12.89         5.2 0.21            122            192 290 
                                                                                
