 2015  911 1028 35.8 L   6.831 -73.138145.7  RSN 20 0.5 2.4LRSN 3.3WRSN        1
 SPEC AVERAGE  MO 14.1 ST0.300 OM  2.3 f0 1.72 R3.7724 AL 0.00 WI 30.0 MW  3.3 3
 SPEC SD       MO  0.8 ST0.272 OM  0.8 f0 1.00 R6.0084 AL      WI      MW  0.5 3
 GAP= 70        1.18       2.8     3.2  5.3 -0.8344E+00  0.2738E+01 -0.1288E+00E
 Epicentro: LOS SANTOS - SANTANDER                                             3
 SPEC OCA HH Z MO 13.9 ST0.427 OM  1.9 f0 1.99 R0.9668 AL-0.00 WI 30.0 MW  3.2 3
 SPEC OCA HH Z T102923 K 0.000 GD  214 VS 5.20 DE 3.50 Q0750.0 QA 1.50 Q1 0.00 3
 SPEC SPBCHH Z MO 13.9 ST0.460 OM  1.8 f0 2.18 R0.8826 AL-0.00 WI 30.0 MW  3.2 3
 SPEC SPBCHH Z T102925 K 0.000 GD  220 VS 5.20 DE 3.50 Q0750.0 QA 1.50 Q1 0.00 3
 SPEC ZAR HH Z MO 13.5 ST0.760 OM  1.4 f0 3.36 R0.5726 AL-0.00 WI 30.0 MW  3.0 3
 SPEC ZAR HH Z T102932 K 0.000 GD  250 VS 5.20 DE 3.50 Q0750.0 QA 1.50 Q1 0.00 3
 SPEC HEL HH Z MO 13.8 ST0.043 OM  1.6 f0 1.03 R1.8680 AL-0.00 WI 30.0 MW  3.1 3
 SPEC HEL HH Z T102946 K 0.000 GD  310 VS 5.20 DE 3.50 Q0750.0 QA 1.50 Q1 0.00 3
 SPECGUY2CHH Z MO 15.7 ST0.005 OM  3.5 f00.112 R 17.18 AL-0.00 WI 30.0 MW  4.4 3
 SPECGUY2CHH Z T102951 K 0.000 GD  337 VS 5.20 DE 3.50 Q0750.0 QA 1.50 Q1 0.00 3
 SPEC TOL SH Z MO 13.6 ST0.107 OM  1.3 f0 1.65 R1.1661 AL-0.00 WI 30.0 MW  3.0 3
 SPEC TOL SH Z T1030 0 K 0.000 GD  376 VS 5.20 DE 3.50 Q0750.0 QA 1.50 Q1 0.00 3
 OLDACT:DUP 15-09-11 23:09 OP:stll STATUS:               ID:20150911101750d    3
 OLDACT:DUP 15-09-11 22:45 OP:stll STATUS:               ID:20150911101749d    3
 ACTION:UPD 15-10-28 16:25 OP:cam  STATUS:               ID:20150911102835 L   I
 OLDACT:UP  15-09-11 23:25 OP:stll STATUS:               ID:20150911101750d    3
 2015-09-11-1025-20M.COL___350                                                 6
 STAT SP IPHASW D HRMM SECON CODA AMPLIT PERI AZIMU VELO AIN AR TRES W  DIS CAZ7
 BAR2 EZ IP     C 1028 55.72                             169    0.2710 26.8 191 
 BAR2 EZ ES       1029 10.71                             169   -0.1010 26.8 191 
 BAR2 EZ I        1029 12.18        36.5 0.50            167           26.8 191 
 BRR  HZ IP     C 1028 57.49                             153    0.6410 70.5 296 
 BRR  HN ES       1029 14.20                             153    0.8910 70.5 296 
 BRR  HZ I        1029 17.46        43.2 0.36            146           70.5 296 
 RUS  HZ EP       1028 59.79                             143    0.0510  104 177 
 RUS  HZ I        1029  0.96        21.4 0.14            142            104 177 
 RUS  HE ES       1029 18.37                             143   -0.0810  104 177 
 PTB  HZ EP       1029  1.97                             132   -0.89 9  149 258 
 PTB  HE ES       1029 23.41                             132   -0.59 9  149 258 
 PTB  HZ I        1029 25.81        28.7 0.14            127            149 258 
 TAM  HZ EP     D 1029  4.15                             130    0.72 9  155 106 
 TAM  HN ES       1029 24.09                             130   -0.93 9  155 106 
 TAM  HZ I        1029 24.78        23.2 0.34            131            155 106 
 OCA  HZ EP       1029  4.39                             130    0.63 9  157 353 
 OCA  HN ES       1029 25.45                             130   -0.14 9  157 353 
 OCA  HZ I        1029 29.97        68.1 0.26            127            157 353 
 SPBC HZ EP       1029  4.72                             128    0.17 9  166 218 
 SPBC HE ES       1029 26.71                             128   -0.30 9  166 218 
 SPBC HZ I        1029 32.66        30.6 0.22            125            166 218 
 ZAR  HZ EP       1029  7.89                             122   -0.26 9  204 291 
 ZAR  HE ES       1029 33.52                             122    0.10 9  204 291 
 ZAR  HZ I        1029 39.92        35.8 0.42            118            204 291 
 NOR  HZ EP       1029 11.74                             118   -0.03 8  237 234 
 NOR  HN ES       1029 40.04                             118    0.18 8  237 234 
 NOR  HZ I        1029 46.12        17.6 0.16            115            237 234 
 SML  HZ EP       1029 12.60                             118    0.51 8  241 335 
 SML  HE ES       1029 39.97                             118   -0.45 8  241 335 
 SML  HZ I        1029 44.52        28.2 0.10            115            241 335 
 CHI  HZ EP       1029 14.11                             117    0.28 8  252 195 
 CHI  HZ I        1029 15.94        10.4 0.18            115            252 195 
 CHI  HN ES       1029 43.57                             117    0.04 8  252 195 
 HEL  HZ EP       1029 16.80                             115    0.64 8  274 255 
 HEL  HN ES       1029 47.65                             115   -0.02 8  274 255 
 HEL  HZ I        1029 55.41        11.8 0.28            112            274 255 
 URE  HZ EP       1029 16.49                             114   -0.29 7  283 291 
 URE  HE ES   4   1029 46.75                             114   -2.02 0  283 291 
 URE  HZ I        1029 56.84        13.5 0.22            111            283 291 
 SOCV BZ EP     C 1029 17.64                             112   -0.87 7  299  57 
 SOCV BN ES   4   1029 48.47                             112   -3.38 0  299  57 
 GUY2CHZ EP       1029 20.03                             112    0.36 7  304 234 
 GUY2CHN ES       1029 53.18                             112   -0.73 7  304 234 
 GUY2CHZ I        1030  4.02        16.1 0.68                           304 234 
 ELA  HZ EP   4   1029 24.18                             110    1.25 0  332 229 
 ELA  HE ES       1029 59.50                             110   -0.23 7  332 229 
 ELA  HZ I        1030 11.09         9.4 0.52            108            332 229 
 DBB  SZ EP       1029 22.78                             109   -0.53 7  340 274 
 DBB  SZ I        1030 12.42        26.9 0.44            107            340 274 
 TOL  SZ EP       1029 25.39                             109    1.03 6  347 224 
 TOL  SN ES       1030  2.24                             109   -0.03 6  347 224 
 PRA  HZ EP       1029 29.91                             106    0.24 6  395 209 
 PRA  HN ES       1030 11.48                             106   -0.24 6  395 209 
 PRA  HZ I        1030 16.38        10.0 0.30            105            395 209 
 SJC  HZ EP       1029 29.83                             106   -1.21 6  407 327 
 SJC  HN ES   4   1030  9.62                             106   -4.54 0  407 327 
 SJC  HZ I        1030 14.04         5.0 0.54            104            407 327 
                                                                                
