 2016 1111 1317  6.0 L   6.713 -73.199151.4  RSN  4 0.3 1.7LRSN                1
 GAP=225        0.62       7.5     4.5  5.9  0.1323E+02  0.4308E+01 -0.4593E+01E
 Epicentro: VILLANUEVA - SANTANDER                                             3
 ACTION:UPD 17-10-26 21:06 OP:lp   STATUS:               ID:20161111131706 L   I
 OLDACT:DUP 16-11-11 22:38 OP:dnl  STATUS:               ID:20161111130745d    3
 2016-11-11-1308-00M.COL___343                                                 6
 STAT SP IPHASW D HRMM SECON CODA AMPLIT PERI AZIMU VELO AIN AR TRES W  DIS CAZ7
 BAR2 EZ EP       1317 26.03                             175   -0.1110 13.5 172 
 BAR2 EZ ES       1317 41.74                             175   -0.1210 13.5 172 
 BAR2 EZ I        1317 42.12        11.1 0.30            177           13.5 172 
 BRR  HZ IP     C 1317 27.85                             153    0.0910 71.5 308 
 BRR  HN ES       1317 44.94                             153    0.2010 71.5 308 
 BRR  HZ I        1317 48.30        12.8 0.48            149           71.5 308 
 PTB  HZ EP   2   1317 32.33                             135   -0.43 5  140 262 
 PTB  HN ES       1317 53.88                             135    0.22 9  140 262 
 PTB  HZ I        1317 55.63         4.9 0.30            135            140 262 
 ZAR  HZ EP   2   1317 39.38                             124    0.74 4  203 295 
 ZAR  HE ES       1318  3.71                             124   -0.41 9  203 295 
 ZAR  HZ I        1318  9.37         4.1 0.44            123            203 295 
                                                                                
