 2011  711 1112  5.1 L   6.765 -73.102146.1  RSN  5 0.4 1.6LRSN                1
 GAP=164        0.80       4.7     7.2  8.4 -0.9743E+01  0.9542E+00 -0.1606E+01E
 Epicentro: LOS SANTOS - SANTANDER                                             3
 ACTION:UPD 12-07-25 14:00 OP:epov STATUS:               ID:20110711111205 L   I
 2011-07-11-1110-52S.COL___140                                                 6
 STAT SP IPHASW D HRMM SECON CODA AMPLIT PERI AZIMU VELO AIN AR TRES W  DIS CAZ7
 BAR2 SZ EP   1   1112 24.32                             171   -0.37 7 21.0 205 
 BAR2 SZ ES   1   1112 39.29                             171   -0.70 7 21.0 205 
 BAR2 SZ I        1112 41.17        14.5 0.20                          21.0 205 
 BRR  HZ EP   1   1112 26.25                             151   -0.35 7 77.3 299 
 BRR  HZ I        1112 28.21        13.1 0.11                          77.3 299 
 BRR  HN ES   1   1112 43.65                             151    0.25 7 77.3 299 
 RUS  HZ EP   1   1112 28.53                             145   -0.02 7 96.4 179 
 RUS  HN ES   1   1112 47.47                             145    0.60 7 96.4 179 
 RUS  HZ I        1112 48.46         2.9 0.29                          96.4 179 
 GRA  SZ EP   1   1112 30.58                             136    0.04 7  128  15 
 GRA  SZ ES   1   1112 50.84                             136    0.43 7  128  15 
 GRA  SZ I        1112 55.26         4.1 0.29                           128  15 
 NOR  SN ES   1   1113  9.28                             118    0.25 6  236 236 
                                                                                
