 2016  711 1058  3.1 L   6.781 -73.164150.0  RSN  8 0.3 1.9LRSN                1
 GAP=135        0.66       2.7     4.0  5.2  0.1872E+01 -0.1827E+01  0.2365E+01E
 Epicentro: LOS SANTOS - SANTANDER                                             3
 ACTION:UPD 17-03-29 16:49 OP:lp   STATUS:               ID:20160711105803 L   I
 OLDACT:UP  16-07-12 00:09 OP:dani STATUS:               ID:20160711104507     3
 OLDACT:UP  16-07-12 00:09 OP:dani STATUS:               ID:20160711104507     3
 OLDACT:UP  16-07-12 00:09 OP:dani STATUS:               ID:20160711104507     3
 OLDACT:REG 16-07-12 00:00 OP:dani STATUS:               ID:20160711104507     3
 2016-07-11-1056-00M.COL___490                                                 6
 STAT SP IPHASW D HRMM SECON CODA AMPLIT PERI AZIMU VELO AIN AR TRES W  DIS CAZ7
 BRR  HZ EP       1058 24.74                             153    0.0410 70.5 301 
 BRR  BN ES       1058 41.99                             153    0.4710 70.5 301 
 BRR  HZ I        1058 45.83        11.7 0.16            153           70.5 301 
 PAM  EZ EP       1058 25.75                             151   -0.2210 80.3  40 
 PAM  HN ES   4   1058 41.35                             151   -2.43 0 80.3  40 
 PAM  EZ I        1058 45.05        16.5 0.46            155           80.3  40 
 RUS  HZ EP       1058 27.32                             145    0.1510 98.7 175 
 RUS  BE ES       1058 45.63                             145   -0.2810 98.7 175 
 RUS  HN I        1058 46.81        17.6 0.46            146           98.7 175 
 SPBC HZ EP       1058 31.57                             131   -0.12 9  160 219 
 SPBC HN ES       1058 53.76                             131   -0.20 9  160 219 
 SPBC HZ I        1058 57.17        12.3 0.16            131            160 219 
 ZAR  HZ EP   4   1058 38.02                             123    2.27 0  203 293 
 ZAR  BN ES       1059  0.85                             123   -0.34 9  203 293 
 ZAR  HZ I        1059  3.93         5.0 0.28            124            203 293 
 CHI  HZ EP       1058 41.11                             118    0.31 8  246 195 
 CHI  BN ES       1059 10.43                             118    0.26 8  246 195 
 CHI  HZ I        1059 15.98         2.9 0.24            119            246 195 
 GUY2CBE ES   4   1059 23.11                             113    2.57 0  298 235 
 PRA  HZ EP       1058 56.48                             107    0.01 6  389 209 
 PRA  HN ES   4   1059 34.25                             107   -3.83 0  389 209 
 PRA  HZ I        1059 45.08         3.4 0.50            108            389 209 
 SJC  HZ EP   4   1058 57.48                             106   -1.43 0  410 327 
 SJC  HN ES   4   1059 38.49                             106   -3.93 0  410 327 
 SJC  HZ I        1059 42.30         2.3 0.66            108            410 327 
                                                                                
