 2010  911 1110 47.3 L   6.848 -72.985137.3  RSN  4 0.5 1.3LRSN                1
 GAP=228        0.86      14.5    26.3 15.0  0.2863E+03 -0.1851E+03 -0.7984E+02E
 Epicentro: CEPITA - SANTANDER                                                 3
 ACTION:UP  11-02-18 11:02 OP:tino STATUS:               ID:20100911111047 L   I
 2010-09-11-1106-49S.COL___120                                                 6
 STAT SP IPHASW D HRMM SECON CODA AMPLIT PERI AZIMU VELO SNR AR TRES W  DIS CAZ7
 GIR2 SZ EP   2   1111  6.58                             165     0.6 5   34 318 
 GIR2 SZ ES   3   1111 21.36                             165     0.7 2   34 318 
 BAR2 SZ EP   1   1111  6.19                             164     0.0 7   36 218 
 BAR2 SZ ES   2   1111 19.92                             164    -1.1 5   36 218 
 BAR2 SZ I        1111 22.25         5.5 0.20                            36 218 
 BRR  HZ EP   1   1111  7.99                             146    -0.4 7   85 290 
 BRR  HN ES   2   1111 25.53                             146     0.6 5   85 290 
 RUS  HZ EP   1   1111 10.70                             140     0.1 7  106 186 
 RUS  HE ES   2   1111 29.29                             140     0.5 5  106 186 
 RUS  HZ I        1111 29.95         2.6 0.21                           106 186 
                                                                                
