 2014  611 1636 52.1 L   6.859 -73.305122.5  RSN  9 0.4 1.9LRSN                1
 GAP=104        0.90       3.5     5.3  6.1  0.2803E+00  0.8916E+01 -0.5007E+01E
 Epicentro: ZAPATOCA - SANTANDER                                               3
 ACTION:UPD 14-07-01 22:53 OP:nd   STATUS:               ID:20140611163652 L   I
 OLDACT:REG 14-06-11 20:51 OP:spq  STATUS:               ID:20140611162820     3
 2014-06-11-1628-20M.COL___256                                                 6
 STAT SP IPHASW D HRMM SECON CODA AMPLIT PERI AZIMU VELO AIN AR TRES W  DIS CAZ7
 BAR2 SZ IP     D 1637  9.65                             164    0.4710 32.5 155 
 BAR2 SZ ES       1637 22.49                             164   -0.0310 32.5 155 
 BAR2 SZ I        1637 24.03        46.7 0.26            155           32.5 155 
 BRR  HZ IP       1637  9.92                             155    0.2410 52.7 301 
 BRR  HE ES       1637 24.01                             155    0.5910 52.7 301 
 BRR  HZ I        1637 32.23        21.4 0.42            155           52.7 301 
 PAM  SE ES       1637 27.98                             144   -0.3510 85.4  52 
 PAM  SZ I        1637 31.85         9.7 0.28            142           85.4  52 
 RUS  HZ EP   1   1637 14.02                             136   -0.36 7  110 167 
 RUS  HZ I        1637 35.01         4.6 0.32            127            110 167 
 PTB  HN ES   2   1637 32.91                             129   -1.30 5  132 255 
 OCA  HZ EP       1637 17.89                             126   -0.03 9  153 359 
 OCA  HE ES       1637 37.68                             126   -0.40 9  153 359 
 OCA  HZ I        1637 41.44        15.8 0.54            124            153 359 
 ZAR  HZ EP   1   1637 21.26                             119    0.16 7  185 292 
 SML  HZ EP       1637 26.19                             114    0.13 8  231 339 
 SML  HN ES       1637 52.30                             114   -0.27 8  231 339 
 SML  HZ I        1637 56.46        16.2 0.30            111            231 339 
 CHI  HN ES   2   1637 57.28                             112   -0.29 4  251 191 
 URE  HN ES   4   1637 57.24                             110   -2.28 0  265 292 
                                                                                
