 2014  611 1714  0.3 L   6.807 -73.137151.5  RSN 12 0.4 1.9LRSN                1
 GAP=202        0.91       3.3     5.4  5.8  0.3772E+01  0.3710E+01  0.1812E+01E
 Epicentro: LOS SANTOS - SANTANDER                                             3
 ACTION:UPD 14-07-01 22:53 OP:nd   STATUS:               ID:20140611171400 L   I
 OLDACT:REG 14-06-11 20:54 OP:spq  STATUS:               ID:20140611170818     3
 2014-06-11-1708-18M.COL___259                                                 6
 STAT SP IPHASW D HRMM SECON CODA AMPLIT PERI AZIMU VELO AIN AR TRES W  DIS CAZ7
 BAR2 SZ EP   1   1714 20.94                             171    0.34 7 24.3 192 
 BAR2 SZ ES   1   1714 36.21                             171   -0.25 7 24.3 192 
 BAR2 SZ I        1714 37.17        13.9 0.24            167           24.3 192 
 BRR  HE ES       1714 39.12                             153    0.0710 71.6 298 
 RUS  HZ EP       1714 24.99                             145    0.3610  101 177 
 RUS  HN ES       1714 43.86                             145    0.2210  101 177 
 RUS  HZ I        1714 44.67         8.3 0.26            144            101 177 
 PTB  HN ES   1   1714 48.77                             133   -0.50 7  149 259 
 SPBC HZ EP   1   1714 29.87                             130    0.55 7  164 219 
 SPBC HN ES       1714 51.63                             130   -0.35 9  164 219 
 SPBC HZ I        1714 54.35        10.2 0.26            128            164 219 
 ZAR  HN ES   1   1714 58.68                             124   -0.11 6  205 292 
 ZAR  HZ I        1715  6.12         6.0 0.56            121            205 292 
 NOR  HZ EP       1714 36.62                             120    0.16 8  236 234 
 NOR  HN ES       1715  5.42                             120    0.73 8  236 234 
 NOR  HZ I        1715  7.50         5.4 0.14            118            236 234 
 SML  HZ EP   1   1714 37.00                             119   -0.18 6  243 335 
 SML  HN ES       1715  5.82                             119   -0.15 8  243 335 
 SML  HZ I        1715  9.94         9.7 0.10            118            243 335 
 CHI  HZ EP       1714 37.34                             118   -1.06 8  250 195 
 CHI  HN ES       1715  7.71                             118   -0.43 8  250 195 
 CHI  HZ I        1715 11.95         5.7 0.56            117            250 195 
 GUY2CHZ EP       1714 44.55                             113    0.27 7  302 235 
 GUY2CHN ES   4   1715 20.44                             113    1.83 0  302 235 
 GUY2CHZ I        1715 27.21         3.0 0.32                           302 235 
 RREF HZ EP   4   1714 48.85                             112    2.05 0  323 229 
 RREF HN ES   4   1715 26.36                             112    3.27 0  323 229 
 RREF HZ I        1715 32.94         3.5 0.38            111            323 229 
 PRA  HZ EP   2   1714 54.09                             107   -0.03 3  393 210 
                                                                                
