 2012  611 1200 53.7 L   6.790 -73.138147.0  RSN 12 0.5 2.5LRSN                1
 GAP=138        0.86       3.4     4.2  6.4 -0.1505E+01  0.1125E+02  0.2081E+01E
 Epicentro: LOS SANTOS - SANTANDER                                             3
 ACTION:UP  12-08-06 17:48 OP:ep   STATUS:               ID:20120611120052 L   I
 2012-06-11-1200-00M.COL___201                                                 6
 STAT SP IPHASW D HRMM SECON CODA AMPLIT PERI AZIMU VELO AIN AR TRES W  DIS CAZ7
 BAR2 SZ EP       12 1 13.35                             171   -0.0610 22.4 192 
 BAR2 SZ ES   1   12 1 29.40                             171    0.58 7 22.4 192 
 BAR2 SZ I        12 1 31.27        77.4 0.20            169           22.4 192 
 PAM  SZ EP   1   12 1 16.26                             151    0.24 7 77.7  39 
 PAM  SN ES   1   12 1 33.52                             151    0.06 7 77.7  39 
 RUS  HZ EP   1   12 1 17.23                             144   -0.21 7 99.5 176 
 RUS  HE ES   1   12 1 35.82                             144   -0.18 7 99.5 176 
 RUS  HZ I        12 1 37.39        27.3 0.17            146           99.5 176 
 PTB  HZ EP   1   12 1 20.31                             132   -0.46 7  148 259 
 PTB  HN ES   1   12 1 40.93                             132   -0.99 7  148 259 
 PTB  HZ I        12 1 46.80        33.0 0.33            132            148 259 
 OCA  HZ EP   1   12 1 22.44                             130    0.27 7  161 353 
 OCA  HN ES   1   12 1 44.37                             130   -0.04 7  161 353 
 OCA  HZ I        12 1 48.51        71.9 0.21            133            161 353 
 ZAR  HZ EP   1   12 1 25.97                             122   -0.32 6  205 292 
 ZAR  HE ES   1   12 1 51.43                             122   -0.32 6  205 292 
 NOR  SZ EP   1   12 1 29.31                             119   -0.14 6  235 235 
 NOR  SN ES   1   12 1 57.59                             119    0.21 6  235 235 
 CHI  HZ EP   1   12 1 30.72                             117   -0.61 6  248 195 
 CHI  HN ES   1   12 2  0.47                             117   -0.25 6  248 195 
 CHI  HZ I        12 2  9.14        16.7 0.35            119            248 195 
 HEL  HZ EP   1   12 1 34.69                             115    0.71 6  273 256 
 HEL  HE ES   1   12 2  6.70                             115    1.26 6  273 256 
 HEL  HZ I        12 2 13.17        22.1 0.26            116            273 256 
 DBB  SZ EP   1   12 1 40.99                             110   -0.29 5  340 274 
 DBB  SZ ES   1   12 2 18.55                             110    0.12 5  340 274 
 TOL  SZ EP   1   12 1 42.88                             109    0.95 5  343 225 
 PRA  HZ EP   1   12 1 46.87                             107   -0.28 4  391 210 
 PRA  HN ES   1   12 2 29.74                             107    0.86 4  391 210 
                                                                                
