 2017 1011 1543  1.3 L   6.083 -73.718106.2  RSN 10 0.4 1.9LRSN                1
 GAP= 78        1.02       3.4     3.4  6.0 -0.5971E+01  0.5093E+01 -0.1759E+01E
 Epicentro: VELEZ - SANTANDER                                                  3
 ACTION:UPD 17-11-07 19:30 OP:rebc STATUS:               ID:20171011154301 L   I
 OLDACT:REG 17-10-11 16:52 OP:lv   STATUS:               ID:20171011153738     3
 2017-10-11-1538-00M.COL___441                                                 6
 STAT SP IPHASW D HRMM SECON CODA AMPLIT PERI AZIMU VELO AIN AR TRES W  DIS CAZ7
 SPBC HZ EP       1543 17.39                             148   -0.4310 61.7 220 
 SPBC HN ES       1543 30.92                             148    0.2110 61.7 220 
 SPBC HZ I        1543 33.36        24.1 0.20            148           61.7 220 
 RUS  HZ EP       1543 19.43                             143    0.2410 73.3 107 
 RUS  HN ES       1543 32.69                             143   -0.4610 73.3 107 
 RUS  HZ I        1543 35.00        18.0 0.18            144           73.3 107 
 BAR2 EZ EP       1543 19.86                             140    0.3910 81.7  46 
 BAR2 EZ ES       1543 34.15                             140    0.5010 81.7  46 
 BAR2 EZ I        1543 35.14        68.4 0.36            141           81.7  46 
 NOR  HZ EP       1543 24.33                             123   -0.28 9  140 246 
 NOR  HN ES       1543 42.43                             123   -0.36 9  140 246 
 NOR  HZ I        1543 44.58        13.7 0.16            124            140 246 
 CHI  HZ EP       1543 26.71                             119   -0.55 9  161 181 
 CHI  HN ES       1543 47.29                             119   -0.23 9  161 181 
 CHI  HZ I        1543 51.70         6.0 0.30            120            161 181 
 YPLC HZ IP     D 1543 27.93                             118    0.49 9  166 117 
 YPLC HN ES   4   1543 49.58                             118    1.75 0  166 117 
 YPLC HZ I        1543 51.35        15.4 0.46            119            166 117 
 PAM  EZ EP       1543 29.44                             116    0.12 9  179  39 
 PAM  EN ES       1543 50.82                             116   -0.35 9  179  39 
 PAM  EZ I        1543 52.93         6.4 0.14            117            179  39 
 ZAR  HZ EP       1543 30.48                             113   -0.63 9  200 321 
 ZAR  HN ES   4   1543 55.74                             113    1.38 0  200 321 
 ZAR  HZ I        1543 59.42        17.5 0.30            114            200 321 
 GUY2CHZ EP       1543 32.80                             112    0.50 8  206 243 
 GUY2CHN ES       1543 57.13                             112    0.65 8  206 243 
 GUY2CHZ I        1544  2.54         6.4 0.38                           206 243 
 PRA  HZ EP       1543 41.84                             104    0.03 7  292 206 
 PRA  HN ES       1544 13.74                             104    0.32 7  292 206 
 PRA  HZ I        1544 20.01         4.9 0.26            105            292 206 
                                                                                
