 2016  211 1102 36.7 L   6.793 -73.151137.6  RSN 11 0.5 2.1LRSN                1
 GAP=136        0.90       3.3     4.1  8.0 -0.2790E+01  0.1070E+02 -0.3195E+01E
 Epicentro: LOS SANTOS - SANTANDER                                             3
 ACTION:UPD 16-03-04 21:25 OP:rebc STATUS:               ID:20160211110236 L   I
 OLDACT:REG 16-02-11 20:23 OP:dnl  STATUS:               ID:20160211105747     3
 2016-02-11-1057-47M.COL___309                                                 6
 STAT SP IPHASW D HRMM SECON CODA AMPLIT PERI AZIMU VELO AIN AR TRES W  DIS CAZ7
 BAR2 EZ EP       11 2 55.38                             170    0.0810 22.4 189 
 BAR2 EZ ES   2   11 3  9.38                             170   -0.45 5 22.4 189 
 BAR2 EZ I        11 3 11.57        18.5 0.20            169           22.4 189 
 BAR2 EZ E        11 3 11.81                                           22.4 189 
 PAM  EZ EP       11 2 58.39                             149    0.3110 78.4  39 
 PAM  EN ES       11 3 15.06                             149    0.2810 78.4  39 
 PAM  EZ I        11 3 17.55        37.8 0.68            154           78.4  39 
 RUS  HZ EP   2   11 3  0.40                             142    0.84 5 99.8 176 
 RUS  HE ES       11 3 17.37                             142   -0.0610 99.8 176 
 RUS  HZ I        11 3 19.11         9.9 0.28            145           99.8 176 
 PTB  HZ EP   2   11 3  2.58                             130   -0.33 5  147 259 
 PTB  HE ES       11 3 23.03                             130   -0.35 9  147 259 
 PTB  HZ I    2   11 3 25.53        14.8 0.14            131            147 259 
 OCA  HZ EP       11 3  3.73                             128   -0.69 9  161 353 
 OCA  HN ES       11 3 25.65                             128   -0.43 9  161 353 
 OCA  HZ I        11 3 29.16        26.0 0.36            130            161 353 
 SPBC HZ EP   2   11 3  4.76                             127    0.31 5  162 219 
 SPBC HE ES   2   11 3 25.98                             127   -0.15 5  162 219 
 SPBC HZ I        11 3 32.74        12.3 0.10            129            162 219 
 ZAR  HZ EP   4   11 3  9.64                             121    1.07 0  204 292 
 ZAR  HE ES       11 3 34.48                             121    1.03 9  204 292 
 ZAR  HZ I        11 3 39.60        17.3 0.34            122            204 292 
 NOR  HZ EP   2   11 3 12.09                             117    0.26 4  234 235 
 NOR  HE ES   2   11 3 39.00                             117   -0.26 4  234 235 
 NOR  HZ I        11 3 41.44         6.7 0.14            118            234 235 
 CHI  HZ EP   2   11 3 13.46                             116   -0.36 4  248 195 
 CHI  HN ES   2   11 3 42.40                             116   -0.40 4  248 195 
 HEL  HZ EP   4   11 3 17.87                             113    1.48 0  271 256 
 HEL  HE ES   2   11 3 46.73                             113   -0.64 4  271 256 
 HEL  HZ I        11 3 54.66         5.0 0.44            115            271 256 
 URE  HZ EP   3   11 3 18.14                             112    0.82 2  284 292 
 URE  HN ES   4   11 3 45.89                             112   -3.14 0  284 292 
 URE  HZ I        11 3 49.65        17.9 0.12            114            284 292 
 SOCV BZ EP   4   11 3 17.48                             111   -1.97 0  302  57 
 SOCV BN ES   4   11 3 48.70                             111   -4.13 0  302  57 
                                                                                
