 2012  411 1712 23.0 L   6.766 -73.132147.0  RSN  5 0.2 1.5LRSN                1
 GAP=159        0.54       5.7     3.2  5.3 -0.4000E+01  0.2075E+01  0.6342E+00E
 Epicentro: LOS SANTOS - SANTANDER                                             3
 ACTION:UPD 12-07-05 11:52 OP:tino STATUS:               ID:20120411171223 L   I
 2012-04-11-1710-00M.COL___177                                                 6
 STAT SP IPHASW D HRMM SECON CODA AMPLIT PERI AZIMU VELO AIN AR TRES W  DIS CAZ7
 BAR2 SZ EP       1712 42.82                             172     0.110   20 196 
 BAR2 SZ ES   1   1712 58.05                             172    -0.1 7   20 196 
 BAR2 SZ I        1712 59.05         6.2 0.27                            20 196 
 BRR  HZ EP       1712 44.64                             152     0.110   74 301 
 BRR  HZ I        1712 47.79        14.9 0.31                            74 301 
 BRR  HE ES   1   1713  1.59                             152     0.3 7   74 301 
 PAM  SZ EP       1712 45.62                             150     0.110   79  37 
 PAM  SE ES   1   1713  2.69                             150    -0.3 7   79  37 
 PTB  HZ EP   1   1712 49.91                             132    -0.3 7  149 260 
 PTB  HN ES   1   1713 11.29                             132    -0.1 7  149 260 
 PTB  HZ I        1713 18.07         1.8 0.16                           149 260 
 ZAR  HE ES   1   1713 21.24                             122    -0.2 6  207 293 
                                                                                
