 2016  911 1800 46.4 L   6.778 -73.141143.8  RSN  8 0.3 1.9LRSN                1
 GAP=138        0.70       2.6     2.9  4.3  0.2929E+00  0.3631E+01  0.2237E+01E
 Epicentro: LOS SANTOS - SANTANDER                                             3
 ACTION:UPD 17-08-17 21:08 OP:lp   STATUS:               ID:20160911180046 L   I
 OLDACT:REG 16-09-11 20:28 OP:lv   STATUS:               ID:20160911175735     3
 2016-09-11-1758-00M.COL___309                                                 6
 STAT SP IPHASW D HRMM SECON CODA AMPLIT PERI AZIMU VELO AIN AR TRES W  DIS CAZ7
 BAR2 EZ EP       18 1  5.82                             171    0.0610 21.0 193 
 BAR2 EZ ES       18 1 20.99                             171    0.1410 21.0 193 
 BAR2 EZ I        18 1 22.27        33.4 0.16            170           21.0 193 
 BRR  HZ EP       18 1  7.58                             152    0.1310 72.9 300 
 BRR  HN ES       18 1 24.01                             152    0.1610 72.9 300 
 BRR  HZ I        18 1 25.25        22.4 0.12            150           72.9 300 
 PAM  EZ EP       18 1  8.54                             150    0.0210 78.9  38 
 PAM  EE ES       18 1 25.80                             150    0.0510 78.9  38 
 PAM  EZ I        18 1 27.84        19.5 0.50            153           78.9  38 
 RUS  HZ EP       18 1  9.91                             144    0.1110 98.1 176 
 RUS  HN ES       18 1 27.73                             144   -0.3010 98.1 176 
 RUS  HZ I        18 1 29.34         5.3 0.30            145           98.1 176 
 PTB  HZ EP       18 1 12.66                             131   -0.57 9  148 260 
 PTB  HE ES       18 1 33.69                             131   -0.45 9  148 260 
 PTB  HZ I        18 1 38.90         6.2 0.30            131            148 260 
 ZAR  HZ EP       18 1 18.85                             122   -0.03 8  205 293 
 ZAR  HN ES       18 1 44.27                             122    0.07 8  205 293 
 ZAR  HZ I        18 1 50.40        10.2 0.42            122            205 293 
 CHI  HZ EP       18 1 23.82                             117    0.05 8  246 195 
 CHI  HN ES       18 1 52.98                             117    0.08 8  246 195 
 CHI  HZ I        18 1 56.59         5.2 0.64            118            246 195 
 GUY2CHZ EP   4   18 1 31.93                             112    2.10 0  300 235 
 GUY2CHE ES       18 2  4.46                             112    0.78 7  300 235 
 GUY2CHZ I        18 2 11.89         3.2 0.32                           300 235 
                                                                                
