 2010  911 1003 36.4 L   6.792 -73.028147.7  RSN 12 0.3 2.3LRSN                1
 GAP=172        0.58       3.2     6.2  5.6 -0.8179E+01  0.4437E+01  0.2575E+01E
 Epicentro: CEPITA - SANTANDER                                                 3
 ACTION:UP  11-02-18 11:01 OP:tino STATUS:               ID:20100911100336 L   I
 2010-09-11-0958-52S.COL___120                                                 6
 STAT SP IPHASW D HRMM SECON CODA AMPLIT PERI AZIMU VELO SNR AR TRES W  DIS CAZ7
 BAR2 SZ EP   1   10 3 56.28                             169    -0.1 7   28 218 
 BAR2 SZ ES   2   10 4 11.90                             169    -0.1 5   28 218 
 BAR2 SZ I        10 4 13.23        26.1 0.24                            28 218 
 GIR2 SZ EP   2   10 3 56.36                             165    -0.1 5   37 330 
 GIR2 SZ ES   3   10 4 12.31                             165     0.2 2   37 330 
 BRR  HZ IP     D 10 3 58.16                             149    -0.410   83 295 
 BRR  HZ I        10 3 58.36        69.9 0.12                            83 295 
 BRR  HE ES   2   10 4 15.66                             149    -0.1 5   83 295 
 RUS  HZ EP   1   10 4  0.21                             144    -0.1 7  100 184 
 RUS  HN ES   2   10 4 19.02                             144     0.1 5  100 184 
 RUS  HZ I        10 4 20.02        14.8 0.17                           100 184 
 GUE  SZ EP   1   10 4  1.31                             140     0.1 7  115   6 
 GRA  SZ EP   1   10 4  1.87                             138     0.2 7  123  12 
 GRA  SZ ES   2   10 4 21.85                             138     0.5 5  123  12 
 GRA  SZ I        10 4 24.46        26.6 0.22                           123  12 
 OCA  SZ EP   2   10 4  5.49                             129     0.3 5  163 349 
 OCA  SZ ES   3   10 4 27.38                             129    -0.2 2  163 349 
 OCA  SZ I        10 4 32.35        46.7 0.31                           163 349 
 CHI  HZ EP   1   10 4 14.40                             117    -0.2 6  251 198 
 CHI  HZ I        10 4 16.82         7.2 0.34                           251 198 
 CHI  HN ES   2   10 4 43.97                             117    -0.3 4  251 198 
 ROSC BZ EP   1   10 4 16.04                             116     0.7 6  259 214 
 ROSC BE ES   2   10 4 46.55                             116     0.9 4  259 214 
 ROSC BZ I        10 4 51.47        12.0 0.39                           259 214 
 HEL  HZ EP   2   10 4 17.63                             114    -0.5 4  284 257 
 HEL  HZ I        10 4 55.80        10.0 0.20                           284 257 
 GUY  SZ EP   1   10 4 21.51                             112     0.2 5  312 236 
 GUY  SN ES   2   10 4 56.76                             112     0.4 3  312 236 
 PRA  HZ EP   2   10 4 30.19                             106    -0.5 3  398 211 
 PRA  HN ES   3   10 5 12.51                             106    -0.5 1  398 211 
 PRA  HZ I        10 5 15.87         6.9 0.12                           398 211 
                                                                                
