 2011  811 1023 54.0 L   6.778 -73.050146.3  RSN  5 0.3 1.8LRSN                1
 GAP=193        0.52       2.8     8.1  4.5  0.7925E+01 -0.8524E+01 -0.1357E+01E
 Epicentro: LOS SANTOS - SANTANDER                                             3
 ACTION:UPD 12-07-13 15:51 OP:ep   STATUS:               ID:20110811102354 L   I
 2011-08-11-1023-41S.COL___150                                                 6
 STAT SP IPHASW D HRMM SECON CODA AMPLIT PERI AZIMU VELO AIN AR TRES W  DIS CAZ7
 BAR2 SZ EP       1024 13.66                             170   -0.0610 25.3 215 
 BAR2 SZ ES   1   1024 28.89                             170   -0.22 7 25.3 215 
 BAR2 SZ I        1024 30.33        15.6 0.34                          25.3 215 
 BRR  HZ EP       1024 15.56                             149   -0.2610 81.7 296 
 BRR  HN ES   1   1024 33.03                             149    0.19 7 81.7 296 
 BRR  HZ I        1024 34.38        18.2 0.26                          81.7 296 
 RUS  HZ EP       1024 17.88                             145    0.2710 98.0 182 
 RUS  HN ES   1   1024 35.99                             145   -0.04 7 98.0 182 
 RUS  HZ I        1024 37.45         6.1 0.24                          98.0 182 
 OCA  SZ EP       1024 22.63                             129   -0.08 9  164 350 
 OCA  SZ ES   2   1024 45.82                             129    0.71 5  164 350 
 CHI  HZ EP       1024 31.71                             117   -0.08 8  249 198 
 CHI  HN ES   2   1025  1.62                             117    0.34 4  249 198 
                                                                                
