 2012  811 1841 41.9 L   6.763 -73.149145.4  RSN  6 0.1 2.0LRSN                1
 GAP=138        0.33       2.0     1.7  3.2  0.4596E-01  0.4411E+00  0.1621E+01E
 Epicentro: LOS SANTOS - SANTANDER                                             3
 ACTION:UPD 12-09-10 11:55 OP:ep   STATUS:               ID:20120811184141 L   I
 2012-08-11-1840-00M.COL___219                                                 6
 STAT SP IPHASW D HRMM SECON CODA AMPLIT PERI AZIMU VELO AIN AR TRES W  DIS CAZ7
 BAR2 SZ EP       1842  1.47                             172    0.0910 19.2 191 
 BAR2 SZ I        1842 18.18        31.6 0.25                          19.2 191 
 BRR  HZ EP       1842  3.26                             152    0.1910 72.9 302 
 BRR  HZ I        1842  3.60        35.3 0.18                          72.9 302 
 BRR  HN ES       1842 19.64                             152    0.0210 72.9 302 
 PAM  SZ EP       1842  4.13                             150   -0.1210 80.8  38 
 PAM  SN ES       1842 21.68                             150   -0.0310 80.8  38 
 RUS  HZ EP       1842  5.32                             145    0.0310 96.5 176 
 RUS  HN ES   1   1842 23.52                             145   -0.05 7 96.5 176 
 RUS  HZ I        1842 25.73         8.1 0.42                          96.5 176 
 PTB  HZ EP   1   1842  8.53                             132   -0.17 7  147 260 
 PTB  HE ES   1   1842 29.56                             132   -0.08 7  147 260 
 PTB  HZ I        1842 34.62         7.5 0.31                           147 260 
 ZAR  HE ES   1   1842 39.73                             122   -0.07 6  205 293 
 ZAR  HZ I        1842 46.53        11.2 0.35                           205 293 
                                                                                
