 2011 1111 1043  8.9 L   6.517 -74.069 79.3  RSN  5 0.3 1.5LRSN                1
 GAP=135        0.58       3.7     2.6 10.8  0.4069E+01  0.1610E+02  0.2424E+02E
 Epicentro: PUERTO PARRA - SANTANDER                                           3
 ACTION:UPD 12-07-13 16:09 OP:ep   STATUS:               ID:20111111104308 L   I
 2011-11-11-1041-14S.COL___178                                                 6
 STAT SP IPHASW D HRMM SECON CODA AMPLIT PERI AZIMU VELO AIN AR TRES W  DIS CAZ7
 BRR  HZ EP       1043 23.88                             131    0.0210 76.3  31 
 BRR  HE ES       1043 35.30                             131   -0.2510 76.3  31 
 BRR  HZ I        1043 36.63        30.1 0.10                          76.3  31 
 BAR2 SZ EP       1043 26.67                             123    0.3410 98.4  85 
 BAR2 SZ ES   1   1043 39.98                             123    0.03 7 98.4  85 
 BAR2 SZ I        1043 41.00         6.5 0.21                          98.4  85 
 RUS  HZ EP   2   1043 29.90                             115   -0.02 5  129 122 
 RUS  HE ES   1   1043 46.17                             115   -0.18 7  129 122 
 RUS  HZ I        1043 49.08         2.2 0.24                           129 122 
 ZAR  HZ EP   2   1043 29.66                             113   -0.73 5  139 321 
 ZAR  HE ES   1   1043 47.53                             113    0.35 7  139 321 
 ZAR  HZ I        1043 49.50         7.6 0.10                           139 321 
 HEL  HZ EP   1   1043 33.66                             109   -0.24 7  166 258 
 HEL  HN ES   1   1043 53.57                             109    0.13 7  166 258 
 HEL  HZ I        1043 56.42         3.7 0.25                           166 258 
                                                                                
