 2017  211 1710 20.0 L   6.809 -73.124149.6  RSN  4 0.2 1.5LRSN                1
 GAP=139        0.67       3.7     5.4  5.5 -0.4606E+00 -0.1886E+01  0.9242E+00E
 Epicentro: LOS SANTOS - SANTANDER                                             3
 ACTION:UPD 17-05-24 15:35 OP:jn   STATUS:               ID:20170211171020 L   I
 OLDACT:REG 17-02-11 22:07 OP:edw  STATUS:               ID:20170211170744     3
 2017-02-11-1708-00M.COL___352                                                 6
 STAT SP IPHASW D HRMM SECON CODA AMPLIT PERI AZIMU VELO AIN AR TRES W  DIS CAZ7
 BAR2 EZ EP       1710 39.85                             170   -0.2910 24.8 195 
 BAR2 EZ ES       1710 55.60                             170   -0.2410 24.8 195 
 BAR2 EZ I        1710 55.83        12.0 0.22            171           24.8 195 
 BRR  HZ EP       1710 41.58                             153   -0.1010 72.9 297 
 BRR  HN ES       1710 58.76                             153    0.1910 72.9 297 
 PAM  EZ EP       1710 42.90                             152    0.3910 75.1  39 
 PAM  EN ES       1710 59.94                             152   -0.1110 75.1  39 
 PAM  EZ I        1711  1.93         5.0 0.54            151           75.1  39 
 RUS  HZ EP       1710 44.06                             144   -0.1510  101 177 
 RUS  HN ES       1711  3.39                             144    0.3110  101 177 
 RUS  HZ I        1711  4.01         4.0 0.38            145            101 177 
                                                                                
