 2012  311 1054 35.6 L   6.798 -73.158137.9  RSN  8 0.4 1.6LRSN                1
 GAP=135        0.95       6.0     5.4  8.6 -0.1783E+01  0.2182E+02 -0.2458E+01E
 ACTION:UP  12-03-31 23:18 OP:EP   STATUS:               ID:20120311105435 L   I
 2012-03-11-1050-00M.COL___193                                                 6
 STAT SP IPHASW D HRMM SECON CODA AMPLIT PERI AZIMU VELO SNR AR TRES W  DIS CAZ7
 BAR2 SZ ES   1   1055  9.20                             170     0.4 7   23 187 
 BAR2 SZ I        1055 10.99        14.6 0.16                            23 187 
 BRR  HZ EP   1   1054 56.16                             151     0.3 7   70 299 
 BRR  HZ I        1054 56.39        15.4 0.14                            70 299 
 PAM  SZ EP   1   1054 56.74                             149    -0.3 7   78  40 
 PAM  SZ I        1054 57.62         3.9 0.21                            78  40 
 PAM  SE ES   1   1055 13.68                             149    -0.1 7   78  40 
 RUS  HZ EP   1   1054 58.24                             142    -0.3 7  100 175 
 RUS  HN ES   1   1055 16.66                             142     0.2 7  100 175 
 RUS  HZ I        1055 18.15         4.9 0.19                           100 175 
 PTB  HZ EP   1   1055  1.08                             130    -0.7 7  146 259 
 PTB  HN ES   1   1055 21.82                             130    -0.4 7  146 259 
 PTB  HZ I        1055 24.14         4.1 0.15                           146 259 
 ZAR  HZ EP   1   1055  8.22                             121     0.8 6  203 292 
 ZAR  HN ES   1   1055 32.04                             121    -0.2 6  203 292 
 ZAR  HZ I        1055 37.58         5.6 0.25                           203 292 
 HEL  HZ EP   1   1055 15.90                             113     0.6 6  271 256 
 HEL  HN ES   1   1055 46.29                             113     0.1 6  271 256 
 HEL  HZ I        1055 52.51         2.9 0.37                           271 256 
 PRA  HZ EP   1   1055 28.75                             105     0.0 4  391 209 
                                                                                
