 2013  611 1321 22.5 L   6.772 -73.033144.9  RSN  9 0.4 2.4LRSN                1
 GAP=194        0.78       3.3     5.7  6.3 -0.9321E+00  0.1274E+02  0.3003E+01E
 Epicentro: CEPITA - SANTANDER                                                 3
 ACTION:UPD 14-01-08 09:54 OP:ep   STATUS:               ID:20130611132122 L   I
 OLDACT:UP  13-06-11 18:20 OP:mh   STATUS:               ID:20130611131959     3
 OLDACT:UP  13-06-11 18:18 OP:mh   STATUS:               ID:20130611131959     3
 OLDACT:REG 13-06-11 14:35 OP:mh   STATUS:               ID:20130611131959     3
 2013-06-11-1319-59M.COL___260                                                 6
 STAT SP IPHASW D HRMM SECON CODA AMPLIT PERI AZIMU VELO AIN AR TRES W  DIS CAZ7
 BAR2 SZ EP       1321 42.38                             169    0.2610 25.9 220 
 BAR2 SZ ES   1   1321 57.59                             169    0.19 7 25.9 220 
 BAR2 SZ I        1321 58.65        49.3 0.16            169           25.9 220 
 BRR  HZ IP     C 1321 44.20                             148   -0.1510 83.6 296 
 BRR  HN ES   1   1322  1.08                             148   -0.28 7 83.6 296 
 BRR  HN I        1322  1.71        59.5 0.32            147           83.6 296 
 RUS  HZ EP   1   1321 46.26                             144    0.28 7 97.5 183 
 RUS  HN ES       1322  4.12                             144   -0.1510 97.5 183 
 RUS  HN I        1322  6.53        35.3 0.36            144           97.5 183 
 OCA  HN ES   1   1322 13.65                             128    0.00 7  165 349 
 OCA  HN I        1322 17.42        56.4 0.22            128            165 349 
 NOR  HZ EP   1   1321 58.14                             117   -1.00 6  243 237 
 NOR  HN ES       1322 27.26                             117   -0.43 8  243 237 
 NOR  HN I        1322 31.57        14.3 0.16            117            243 237 
 CHI  HZ EP   1   1322  0.51                             117    0.25 6  249 198 
 CHI  HN ES   2   1322 29.21                             117   -0.47 4  249 198 
 CHI  HN I        1322 32.00        10.1 0.32            116            249 198 
 SML  HN ES   2   1322 29.45                             116    0.22 4  252 333 
 SML  HN I        1322 33.08        32.8 0.10            116            252 333 
 GUY2CHZ EP   1   1322  7.48                             111    0.41 5  310 237 
 GUY2CHE ES       1322 42.75                             111    0.94 7  310 237 
 GUY2CHE I        1322 46.72         5.8 0.38                           310 237 
 PRA  HZ EP   1   1322 15.96                             106   -0.50 4  396 211 
 PRA  HN ES   2   1322 58.83                             106    0.31 3  396 211 
 PRA  HN I        1323  3.26         5.0 0.38            106            396 211 
                                                                                
