 2015  311 1629 53.0 L   6.844 -73.179142.7  RSN  6 0.2 1.8LRSN                1
 GAP=137        0.50       3.0     3.5  4.8 -0.4993E+01  0.8261E+01 -0.3594E+01E
 Epicentro: ZAPATOCA - SANTANDER                                               3
 ACTION:UPD 15-04-30 16:25 OP:nd   STATUS:               ID:20150311162953 L   I
 OLDACT:REG 15-03-11 21:27 OP:spq  STATUS:               ID:20150311162748     3
 2015-03-11-1627-48M.COL___284                                                 6
 STAT SP IPHASW D HRMM SECON CODA AMPLIT PERI AZIMU VELO AIN AR TRES W  DIS CAZ7
 BAR2 EZ EP       1630 12.17                             168   -0.1710 27.9 181 
 BAR2 EZ ES   1   1630 27.23                             168   -0.21 7 27.9 181 
 BAR2 EZ I        1630 28.13         7.1 0.26            169           27.9 181 
 BRR  HZ EP       1630 13.88                             154    0.4010 65.7 296 
 PAM  SZ EP       1630 14.81                             151    0.0210 76.2  44 
 PAM  SE ES       1630 31.85                             151    0.0410 76.2  44 
 PAM  SZ I        1630 34.11        12.4 0.62            156           76.2  44 
 PTB  HZ EP       1630 19.20                             132   -0.25 9  145 257 
 PTB  HN ES   1   1630 40.08                             132   -0.03 7  145 257 
 PTB  HZ I        1630 45.07         6.4 0.12            132            145 257 
 SPBC HZ EP   1   1630 21.58                             128    0.19 7  165 217 
 SPBC HE ES   1   1630 43.71                             128    0.15 7  165 217 
 SPBC HZ I        1630 48.90         6.1 0.20            130            165 217 
 SML  HZ EP   1   1630 28.52                             117   -0.25 6  238 336 
 SML  HN ES   1   1630 56.68                             117   -0.02 6  238 336 
 SML  HZ I        1631  0.08         9.4 0.10            120            238 336 
                                                                                
