 2011 1111 1944 52.8 L   6.776 -73.141148.3  RSN 18 0.4 3.4LRSN                1
 GAP=115        0.74       2.1     3.0  3.7 -0.1177E+01  0.3118E+01  0.1390E+01E
 Epicentro: LOS SANTOS - SANTANDER                                             3
 ACTION:UPD 12-07-13 16:09 OP:ep   STATUS:               ID:20111111194452 L   I
 2011-11-11-1942-46S.COL___179                                                 6
 STAT SP IPHASW D HRMM SECON CODA AMPLIT PERI AZIMU VELO AIN AR TRES W  DIS CAZ7
 BAR2 SZ IP       1945 12.71                             172    0.0110 20.9 193 
 BAR2 SZ ES       1945 28.36                             172    0.1510 20.9 193 
 BAR2 SZ I        1945 30.76       923.3 0.35                          20.9 193 
 BTL  SZ EP       1945 12.97                             171    0.2610 21.0 318 
 GIR2 SZ EP       1945 12.76                             166   -0.1010 33.9 350 
 BRR  HZ IP     D 1945 14.58                             152    0.2510 72.9 300 
 BRR  HZ I        1945 14.75       637.9 0.12                          72.9 300 
 BRR  HE ES       1945 31.54                             152    0.4310 72.9 300 
 PAM  SZ EP       1945 15.58                             151    0.1810 79.1  38 
 PAM  SN ES       1945 32.83                             151   -0.1910 79.1  38 
 RUS  HZ EP       1945 16.54                             145   -0.0910 97.9 176 
 RUS  HE ES       1945 34.94                             145   -0.2610 97.9 176 
 RUS  HZ I        1945 36.41       308.0 0.27                          97.9 176 
 BRI  SZ EP       1945 17.25                             141    0.1310  111  20 
 OCA  SZ EP       1945 21.23                             130   -0.34 9  163 353 
 OCA  SZ I        1945 50.18       163.6 0.35                           163 353 
 YOP  SZ EP   1   1945 23.20                             127    0.40 7  176 153 
 YOP  SN ES   2   1945 45.85                             127   -0.33 4  176 153 
 ZAR  HZ EP       1945 24.84                             123   -0.73 8  205 293 
 ZAR  HE ES   1   1945 50.49                             123   -0.63 6  205 293 
 ZAR  HZ I        1945 56.57       285.7 0.25                           205 293 
 NOR  SZ EP       1945 28.45                             119   -0.12 8  234 235 
 NOR  SN ES       1945 56.25                             119   -0.21 8  234 235 
 CHI  HZ EP       1945 30.55                             118    0.15 8  246 195 
 CHI  HE ES       1945 59.26                             118   -0.45 8  246 195 
 CHI  HZ I        1946  9.65       133.5 0.52                           246 195 
 ROSC BZ EP   1   1945 30.43                             117   -0.43 6  251 211 
 ROSC BN ES       1946  0.84                             117    0.31 8  251 211 
 ROSC BZ I        1946  8.21       227.6 0.29                           251 211 
 HEL  HZ EP       1945 33.56                             115    0.42 8  272 256 
 HEL  HN ES   1   1946  4.81                             115    0.22 6  272 256 
 HEL  HZ I        1946 10.36       107.7 0.32                           272 256 
 VIL  SZ EP   1   1945 35.99                             113   -0.08 5  301 192 
 VIL  SN ES   1   1946  9.36                             113   -0.45 5  301 192 
 VIL  SZ I        1946 15.82        69.7 0.44                           301 192 
 RREF HZ EP       1945 39.45                             111    0.53 7  320 230 
 RREF HZ I        1946 21.88       155.4 0.32                           320 230 
 TOL  SZ EP   1   1945 41.93                             110    0.93 5  342 225 
 PRA  HZ EP       1945 45.83                             107   -0.36 6  390 210 
 PRA  HN ES   1   1946 28.21                             107    0.39 4  390 210 
                                                                                
