 2015 1011 1233 51.9 L   6.812 -73.139146.0  RSN 15 0.3 2.1LRSN                1
 GAP= 71        0.76       2.1     2.8  4.2 -0.6058E+00  0.1963E+01  0.8683E+00E
 Epicentro: LOS SANTOS - SANTANDER                                             3
 ACTION:UPD 15-12-22 20:39 OP:cam  STATUS:               ID:20151011123351 L   I
 OLDACT:REG 15-10-11 20:40 OP:spq  STATUS:               ID:20151011122746     3
 2015-10-11-1227-46M.COL___337                                                 6
 STAT SP IPHASW D HRMM SECON CODA AMPLIT PERI AZIMU VELO AIN AR TRES W  DIS CAZ7
 BAR2 EZ EP       1234 11.24                             170   -0.3010 24.7 191 
 BAR2 EZ ES   1   1234 26.53                             170   -0.37 7 24.7 191 
 BAR2 EZ I        1234 27.92        19.5 0.40            168           24.7 191 
 BRR  HZ EP       1234 13.00                             153   -0.0310 71.2 297 
 BRR  HN ES       1234 30.09                             153    0.5410 71.2 297 
 BRR  HZ I        1234 33.97        19.1 0.28            151           71.2 297 
 PAM  EZ EP     D 1234 14.15                             151    0.1410 75.9  40 
 PAM  EN ES       1234 30.92                             151   -0.3710 75.9  40 
 PAM  EZ I        1234 33.07        21.2 0.46            156           75.9  40 
 RUS  HZ EP       1234 15.59                             144   -0.1310  102 177 
 RUS  HN ES       1234 34.73                             144    0.4010  102 177 
 RUS  HZ I        1234 35.84        12.5 0.20            145            102 177 
 TAM  HZ EP     C 1234 19.66                             131    0.14 9  155 106 
 OCA  HZ EP   1   1234 20.25                             130    0.18 7  159 353 
 OCA  HE ES       1234 42.45                             130    0.37 9  159 353 
 OCA  HZ I        1234 45.27        21.2 0.28            132            159 353 
 SPBC HZ EP       1234 20.62                             129    0.11 9  165 219 
 SPBC HN ES       1234 42.62                             129   -0.24 9  165 219 
 SPBC HZ I        1234 48.39        19.8 0.20            129            165 219 
 ZAR  HZ EP   1   1234 24.83                             122    0.49 6  204 292 
 ZAR  HN ES       1234 49.42                             122   -0.25 9  204 292 
 ZAR  HZ I        1234 54.75        15.5 0.28            123            204 292 
 NOR  HZ EP       1234 27.72                             118   -0.02 8  236 234 
 NOR  HE ES       1234 55.38                             118   -0.35 8  236 234 
 NOR  HZ I        1235  1.27         8.4 0.16            119            236 234 
 SML  HZ EP       1234 27.81                             118   -0.59 8  243 335 
 SML  HE ES   1   1234 56.54                             118   -0.36 6  243 335 
 SML  HZ I        1235  0.05        12.4 0.10            119            243 335 
 CHI  HZ EP       1234 29.78                             117    0.06 8  250 195 
 CHI  HN ES   1   1234 59.08                             117   -0.18 6  250 195 
 CHI  HZ I        1235  7.02         4.5 0.48            118            250 195 
 HEL  HZ EP   4   1234 33.53                             115    1.34 0  273 256 
 HEL  HE ES   1   1235  3.89                             115    0.23 6  273 256 
 HEL  HZ I        1235 10.90         5.5 0.54            116            273 256 
 URE  HN ES   4   1235  2.32                             114   -2.70 0  284 292 
 URE  HZ I        1235  3.46        10.2 0.16            115            284 292 
 GUY2CHZ EP   1   1234 36.48                             112    0.85 5  303 235 
 GUY2CHN ES   4   1235 11.35                             112    1.58 0  303 235 
 GUY2CHZ I        1235 19.56         5.2 0.38                           303 235 
 SJC  HZ EP   4   1234 45.50                             106   -1.84 0  409 327 
 SJC  HE ES   4   1235 26.85                             106   -3.77 0  409 327 
 SJC  HZ I        1235 30.65         3.0 0.50            107            409 327 
                                                                                
