 2011  311 1121 17.5 L   6.810 -73.193139.3  RSN  4 0.1 1.5LRSN                1
 GAP=153        0.40       2.8     4.6  4.1 -0.7720E+01  0.8683E+01 -0.3481E+01E
 Epicentro: ZAPATOCA - SANTANDER                                               3
 ACTION:UP  11-06-16 14:33 OP:jfem STATUS:               ID:20110311112117 L   I
 2011-03-11-1117-45S.COL___135                                                 6
 STAT SP IPHASW D HRMM SECON CODA AMPLIT PERI AZIMU VELO SNR AR TRES W  DIS CAZ7
 BAR2 SZ EP       1121 36.41                             170     0.110   24 177 
 BAR2 SZ ES       1121 51.02                             170     0.010   24 177 
 BAR2 SZ I        1121 53.89         9.6 0.28                            24 177 
 RUS  HZ EP   1   1121 40.51                             142    -0.2 7  102 173 
 RUS  HZ I        1121 41.11         2.9 0.09                           102 173 
 RUS  HN ES   1   1121 58.89                             142     0.1 7  102 173 
 GRA  SZ EP   1   1121 42.05                             135    -0.1 7  126  20 
 GRA  SZ ES   1   1122  1.53                             135     0.1 7  126  20 
 GRA  SZ I        1122  4.44         5.5 0.32                           126  20 
 NOR  SZ EP   1   1121 52.73                             117     0.3 6  231 234 
 NOR  SE ES   1   1122 19.55                             117    -0.2 6  231 234 
                                                                                
