 2014  311 1621 50.6 L   6.818 -73.176143.8  RSN  8 0.3 1.9LRSN                1
 GAP=132        0.74       2.5     3.5  5.0 -0.2523E+01  0.6188E+01 -0.1387E+01E
 Epicentro: LOS SANTOS - SANTANDER                                             3
 ACTION:UPD 14-04-09 23:16 OP:nd   STATUS:               ID:20140311162150 L   I
 OLDACT:REG 14-03-11 17:18 OP:nd   STATUS:               ID:20140311162048     3
 2014-03-11-1620-48M.COL___242                                                 6
 STAT SP IPHASW D HRMM SECON CODA AMPLIT PERI AZIMU VELO AIN AR TRES W  DIS CAZ7
 BAR2 SZ EP       1622 10.16                             170    0.0910 25.0 182 
 BAR2 SZ ES   1   1622 24.54                             170   -0.68 7 25.0 182 
 BAR2 SZ I        1622 26.60        17.1 0.34            169           25.0 182 
 PAM  SZ EP       1622 12.91                             150    0.2210 78.0  42 
 PAM  SN ES       1622 30.00                             150    0.1210 78.0  42 
 PAM  SZ I        1622 32.33        11.9 0.18            154           78.0  42 
 RUS  HZ EP       1622 14.04                             143   -0.3310  103 174 
 RUS  HN ES       1622 33.00                             143    0.1310  103 174 
 RUS  HZ I        1622 35.73         6.6 0.40            144            103 174 
 PTB  HZ EP       1622 16.98                             132   -0.21 9  145 258 
 PTB  HN ES       1622 38.16                             132    0.26 9  145 258 
 PTB  HZ I        1622 40.52         8.9 0.14            133            145 258 
 SPBC HZ EP       1622 19.16                             129    0.21 9  163 218 
 SPBC HN ES       1622 41.51                             129    0.49 9  163 218 
 SPBC HZ I        1622 46.26        14.1 0.20            130            163 218 
 NOR  HZ EP       1622 26.42                             118    0.32 8  233 234 
 NOR  HN ES       1622 53.17                             118   -0.58 8  233 234 
 NOR  HZ I        1622 57.93         5.5 0.20            120            233 234 
 SML  HZ EP       1622 26.73                             117   -0.08 8  240 336 
 SML  HN ES       1622 54.90                             117   -0.12 8  240 336 
 SML  HZ I        1622 58.12        15.4 0.10            119            240 336 
 CHI  HZ EP       1622 28.19                             117   -0.17 8  250 194 
 CHI  HN ES   2   1622 57.43                             117   -0.34 4  250 194 
 CHI  HZ I        1623  1.72         3.2 0.32            118            250 194 
                                                                                
