 2015  111 1827 38.3 L   6.859 -73.136145.3  RSN 21 0.5 2.5LRSN                1
 GAP= 69        1.05       2.9     3.2  4.9 -0.2014E+01  0.1924E+01  0.5589E-01E
 Epicentro: LOS SANTOS - SANTANDER                                             3
 ACTION:UPD 15-03-02 15:38 OP:nd   STATUS:               ID:20150111182738 L   I
 OLDACT:UP  15-01-11 23:34 OP:mh   STATUS:               ID:20150111181746     3
 OLDACT:UP  15-01-11 23:34 OP:mh   STATUS:               ID:20150111181746     3
 OLDACT:UP  15-01-11 23:02 OP:mh   STATUS:               ID:20150111181746     3
 OLDACT:UP  15-01-11 23:01 OP:mh   STATUS:               ID:20150111181746     3
 OLDACT:REG 15-01-11 20:50 OP:mh   STATUS:               ID:20150111181746     3
 2015-01-11-1817-46M.COL___256                                                 6
 STAT SP IPHASW D HRMM SECON CODA AMPLIT PERI AZIMU VELO AIN AR TRES W  DIS CAZ7
 BAR2 EZ EP       1827 58.12                             168    0.0810 30.0 190 
 BAR2 EZ ES       1828 13.71                             168    0.2910 30.0 190 
 BAR2 EZ I        1828 15.59                             164           30.0 190 
 BRR  HZ IP     D 1827 59.72                             153    0.4110 69.3 293 
 BRR  HN ES       1828 16.37                             153    0.6910 69.3 293 
 BRR  HZ I        1828 20.17        56.0 0.12            151           69.3 293 
 PAM  SZ EP       1828  0.54                             153    0.3910 71.7  42 
 PAM  SN ES       1828 17.24                             153    0.0610 71.7  42 
 PAM  SZ I        1828 18.00        71.0 0.20            150           71.7  42 
 RUS  HZ EP   1   1828  2.29                             142   -0.21 7  107 177 
 RUS  HN ES       1828 21.00                             142   -0.3610  107 177 
 RUS  HZ I        1828 22.27        15.6 0.18            137            107 177 
 PTB  HZ EP       1828  4.75                             131   -0.72 9  150 256 
 PTB  HN ES       1828 25.71                             131   -0.94 9  150 256 
 PTB  HZ I        1828 27.41        44.4 0.16            128            150 256 
 OCA  HZ EP       1828  6.22                             131    0.23 9  154 352 
 OCA  HN ES       1828 26.53                             131   -1.05 9  154 352 
 OCA  HZ I        1828 31.70        31.5 0.16            128            154 352 
 TAM  HZ IP     D 1828  6.55                             130    0.52 9  156 107 
 TAM  HZ I        1828 27.21        17.3 0.26            126            156 107 
 TAM  HN ES   1   1828 27.29                             130   -0.35 7  156 107 
 SPBC HZ EP   1   1828  7.21                             128   -0.12 7  169 218 
 SPBC HN ES       1828 29.74                             128   -0.23 9  169 218 
 SPBC HZ I        1828 35.97        44.4 0.14            123            169 218 
 ZAR  HZ EP       1828 10.68                             122    0.09 9  203 290 
 ZAR  HN ES   1   1828 36.16                             122    0.40 6  203 290 
 ZAR  HZ I        1828 41.22        54.9 0.34            119            203 290 
 SML  HZ EP       1828 14.49                             118    0.17 8  238 334 
 SML  HN ES   4   1828 44.67                             118    2.27 0  238 334 
 SML  HZ I        1828 46.22        46.2 0.10            115            238 334 
 NOR  HZ EP   1   1828 14.24                             118   -0.29 6  239 233 
 NOR  HN ES       1828 43.15                             118    0.38 8  239 233 
 NOR  HZ I        1828 45.22        28.3 0.16            114            239 233 
 CHI  HZ EP   1   1828 16.86                             116    0.15 6  255 195 
 CHI  HN ES   1   1828 46.17                             116   -0.49 6  255 195 
 CHI  HZ I        1828 54.93        11.0 0.38            112            255 195 
 ROSC BZ EP   9   1828 18.70                             116    1.61 0  259 210 
 ROSC BN ES       1828 49.23                             116    0.29 8  259 210 
 ROSC BZ I        1828 53.86        17.8 0.55            112            259 210 
 HEL  HZ EP       1828 19.39                             114    0.58 8  275 255 
 HEL  HN ES   1   1828 50.81                             114    0.42 6  275 255 
 HEL  HZ I        1828 56.78        26.5 0.24            111            275 255 
 URE  HZ EP   4   1828 24.03                             114    4.82 0  282 291 
 URE  HZ I        1828 30.01        13.6 0.18            110            282 291 
 URE  HN ES   4   1828 56.12                             114    5.02 0  282 291 
 VIL  SZ EP   1   1828 22.60                             111    0.13 5  310 192 
 VIL  SN ES   4   1828 55.52                             111   -1.38 0  310 192 
 VIL  SZ I        1829  0.07        16.8 0.34            108            310 192 
 RREF HZ EP   4   1828 26.39                             110    1.37 0  327 229 
 RREF HN ES   4   1829  5.27                             110    3.82 0  327 229 
 RREF HZ I        1829  9.07        14.2 0.30            107            327 229 
 TOL  SZ EP   4   1828 28.55                             109    1.37 0  349 224 
 TOL  SN ES   4   1829  7.79                             109    2.49 0  349 224 
 TOL  SZ I        1829 12.01        34.8 0.38            106            349 224 
 MON  HZ EP   4   1828 20.28                             109   -6.65 0  350 307 
 MON  HN ES   4   1829  1.41                             109   -3.44 0  350 307 
 MON  HZ I        1829  5.36         6.9 0.24            106            350 307 
 SDV  BZ EP       1828 27.16                             108   -0.60 6  355  51 
 SDV  BN ES   4   1829  2.40                             108   -3.92 0  355  51 
 ORTC HZ EP   1   1828 32.92                             106    0.00 4  401 216 
 ORTC HN ES       1829 15.55                             106    0.05 6  401 216 
 ORTC HZ I        1829 24.00         8.3 0.36            103            401 216 
 SJC  HZ EP   4   1828 32.07                             106   -1.22 0  404 326 
 SJC  HN ES   4   1829  9.31                             106   -6.85 0  404 326 
                                                                                
