 2017  111 1038 32.6 L   6.766 -73.135140.4  RSN  4 0.4 1.1LRSN                1
 GAP=244        0.79       9.8     6.3  8.1  0.3309E+02  0.1138E+02 -0.1476E+02E
 Epicentro: LOS SANTOS - SANTANDER                                             3
 ACTION:UPD 17-05-22 15:58 OP:jn   STATUS:               ID:20170111103832 L   I
 OLDACT:REG 17-01-11 17:51 OP:ar   STATUS:               ID:20170111103759     3
 2017-01-11-1037-59S.COL___309                                                 6
 STAT SP IPHASW D HRMM SECON CODA AMPLIT PERI AZIMU VELO AIN AR TRES W  DIS CAZ7
 BAR2 EZ EP       1038 51.46                             172   -0.0110 19.9 195 
 BAR2 EZ ES       1039  6.11                             172   -0.1210 19.9 195 
 BAR2 EZ I        1039  7.38         4.9 0.68            171           19.9 195 
 RUS  HZ EP   2   1038 55.87                             145    0.37 5 96.7 177 
 RUS  HN ES   2   1039 14.10                             145    0.71 5 96.7 177 
 RUS  HZ I        1039 14.65         1.0 0.44            146           96.7 177 
 PTB  HZ EP       1038 58.59                             131   -0.55 9  148 260 
 PTB  HE ES       1039 19.74                             131   -0.13 9  148 260 
 PTB  HZ I        1039 22.99         1.3 0.48            130            148 260 
 ZAR  HZ EP   2   1039  5.55                             121    0.63 4  207 293 
 ZAR  HN ES       1039 30.64                             121    0.46 8  207 293 
 ZAR  HZ I        1039 35.88         1.5 0.28            121            207 293 
                                                                                
