 2012 1111 1413 23.4 L   6.795 -73.132153.0  RSN 10 0.5 2.0LRSN                1
 GAP=138        0.91       3.9     4.8  6.6 -0.1058E+01  0.6693E+01  0.3690E+01E
 Epicentro: LOS SANTOS - SANTANDER                                             3
 ACTION:UPD 12-12-05 15:32 OP:}ep  STATUS:               ID:20121111141323 L   I
 2012-11-11-1410-00M.COL___230                                                 6
 STAT SP IPHASW D HRMM SECON CODA AMPLIT PERI AZIMU VELO AIN AR TRES W  DIS CAZ7
 BAR2 SZ IP     D 1413 44.07                             171    0.1610 23.1 194 
 BAR2 SZ ES   1   1413 59.33                             171   -0.57 7 23.1 194 
 BAR2 SZ I        1414  1.77        36.3 0.42                          23.1 194 
 GIR2 SZ EP   1   1413 44.11                             168    0.14 7 32.1 348 
 GIR2 SZ ES   1   1414  0.44                             168    0.44 7 32.1 348 
 BRR  HZ IP     C 1413 45.90                             153    0.4610 72.8 298 
 BRR  HN ES   1   1414  2.91                             153    0.30 7 72.8 298 
 BRR  HZ I        1414  6.26         9.9 0.22                          72.8 298 
 PAM  SZ EP   1   1413 46.82                             152    0.44 7 76.9  38 
 PAM  SN ES   1   1414  4.05                             152   -0.24 7 76.9  38 
 PAM  SN I        1414  5.40        17.5 0.42                          76.9  38 
 RUS  HZ EP   1   1413 47.86                             145    0.02 7 99.9 177 
 RUS  HN ES   1   1414  6.49                             145   -0.40 7 99.9 177 
 RUS  HZ I        1414  7.89         9.9 0.26                          99.9 177 
 PTB  HZ EP       1413 50.79                             133   -0.31 9  149 259 
 PTB  HN ES   1   1414 12.10                             133   -0.60 7  149 259 
 PTB  HZ I        1414 17.74        18.9 0.40                           149 259 
 OCA  HZ EP   1   1413 51.23                             131   -1.13 7  161 353 
 OCA  HN ES   1   1414 15.19                             131    0.25 7  161 353 
 ZAR  HN ES   1   1414 22.21                             124   -0.10 6  206 292 
 CHI  HZ EP   1   1414  1.31                             119   -0.20 6  248 196 
 CHI  HE ES   1   1414 31.97                             119    0.75 6  248 196 
 CHI  HZ I        1414 36.68         2.8 0.46                           248 196 
 HEL  HN ES   1   1414 36.30                             116    0.38 6  273 256 
 HEL  HZ I        1414 42.34         7.6 0.32                           273 256 
                                                                                
