 2011  611 1142 43.7 L   6.786 -73.113141.4  RSN 10 0.2 1.9LRSN                1
 GAP=159        0.49       2.1     4.0  3.7 -0.3678E+01  0.1252E+01  0.7582E+00E
 Epicentro: LOS SANTOS - SANTANDER                                             3
 ACTION:UP  11-07-14 19:04 OP:ep   STATUS:               ID:20110611114243 L   I
 2011-06-11-1139-18S.COL___133                                                 6
 STAT SP IPHASW D HRMM SECON CODA AMPLIT PERI AZIMU VELO SNR AR TRES W  DIS CAZ7
 BTL  SZ EP   1   1143  3.05                             171     0.3 7   23 311 
 BAR2 SZ EP   1   1143  2.73                             170     0.0 7   23 200 
 BAR2 SZ ES   1   1143 17.55                             170    -0.1 7   23 200 
 BAR2 SZ I        1143 20.04        13.3 0.26                            23 200 
 BRR  HZ EP   1   1143  4.70                             150     0.1 7   75 298 
 BRR  HN ES   1   1143 21.05                             150     0.2 7   75 298 
 BRR  HZ I        1143 27.72        22.1 0.24                            75 298 
 RUS  HZ EP   1   1143  7.01                             143     0.2 7   99 178 
 RUS  HE ES   1   1143 24.88                             143    -0.1 7   99 178 
 RUS  HZ I        1143 26.62        10.0 0.25                            99 178 
 BRI  SZ EP   1   1143  7.34                             140     0.2 7  109  19 
 BRI  SZ I        1143 32.13         9.2 0.34                           109  19 
 GRA  SZ EP   1   1143  8.51                             136     0.0 7  126  16 
 GRA  SZ ES   1   1143 27.73                             136    -0.2 7  126  16 
 GRA  SZ I        1143 29.31        11.3 0.22                           126  16 
 OCA  SZ EP   1   1143 11.42                             128    -0.4 7  162 352 
 OCA  SZ I        1143 37.51        12.9 0.08                           162 352 
 NOR  SZ EP   1   1143 19.25                             117    -0.1 6  237 235 
 NOR  SE ES   1   1143 47.14                             117    -0.1 6  237 235 
 CHI  HZ EP   1   1143 21.11                             116     0.1 6  248 196 
 CHI  HN ES   1   1143 50.15                             116    -0.1 6  248 196 
 CHI  HZ I        1143 57.82         3.9 0.08                           248 196 
 PRA  HZ EP   1   1143 37.53                             106     0.4 4  392 210 
 PRA  HN ES   1   1144 18.16                             106    -0.6 4  392 210 
                                                                                
