 2013 1111 1951 34.2 L   6.116 -73.754104.2  RSN  4 0.0 1.3LRSN                1
 GAP=193        0.30       2.4     1.5  4.1  0.5153E+00  0.6223E+00  0.4491E+01E
 Epicentro: BOLIVAR - SANTANDER                                                3
 ACTION:UPD 14-01-09 16:27 OP:ep   STATUS:               ID:20131111195134 L   I
 OLDACT:REG 13-11-11 16:00 OP:stll STATUS:               ID:20131111194818     3
 2013-11-11-1948-18M.COL___222                                                 6
 STAT SP IPHASW D HRMM SECON CODA AMPLIT PERI AZIMU VELO AIN AR TRES W  DIS CAZ7
 RUS  HZ EP       1951 52.30                             141    0.0310 78.3 108 
 RUS  HZ I        1951 52.53         2.8 0.30            146           78.3 108 
 BAR2 SZ ES       1952  6.27                             139   -0.0310 82.3  50 
 BAR2 SZ I        1952  7.94        21.4 0.40            146           82.3  50 
 PTB  HZ EP       1951 52.57                             135   -0.0510 90.7 301 
 PTB  HN ES       1952  7.02                             135    0.0210 90.7 301 
 PTB  HZ I        1952 10.32         3.1 0.10            140           90.7 301 
 BRR  HZ EP       1951 54.32                             130    0.0110  110   2 
 BRR  HN ES       1952 10.02                             130    0.0210  110   2 
                                                                                
