 2011  111 1548  2.5 L   6.790 -73.132152.5  RSN  4 0.1 1.5LRSN                1
 GAP=223        0.33       4.5     5.0  4.4 -0.4673E+01  0.7468E+01  0.2541E+01E
 Epicentro: LOS SANTOS - SANTANDER                                             3
 ACTION:UP  11-02-08 08:40 OP:pat  STATUS:               ID:20110111154802 L   I
 2011-01-11-1540-00M.COL___136                                                 6
 STAT SP IPHASW D HRMM SECON CODA AMPLIT PERI AZIMU VELO SNR AR TRES W  DIS CAZ7
 BTL  SZ EP   1   1548 22.97                             172     0.1 7   21 313 
 BTL  SZ ES   2   1548 38.70                             172    -0.1 5   21 313 
 BAR2 SZ EP   1   1548 22.98                             171     0.1 7   23 195 
 BAR2 SZ ES   2   1548 38.63                             171    -0.2 5   23 195 
 BAR2 SZ I        1548 39.42         8.4 0.36                            23 195 
 RUS  HZ EP   1   1548 26.70                             146    -0.1 7   99 177 
 RUS  HN ES   2   1548 45.87                             146     0.1 5   99 177 
 RUS  HZ I        1548 47.02         4.6 0.59                            99 177 
 NOR  SZ EP   1   1548 38.51                             120    -0.2 6  235 235 
 NOR  SN ES   2   1549  7.03                             120     0.1 4  235 235 
                                                                                
