 2013  311 1625 47.7 L   6.792 -73.140149.5  RSN  8 0.4 1.9LRSN                1
 GAP=138        0.86       5.2     4.8  6.7  0.5579E+01  0.8949E+01  0.6204E+01E
 Epicentro: LOS SANTOS - SANTANDER                                             3
 ACTION:UPD 13-04-09 14:01 OP:ep   STATUS:               ID:20130311162547 L   I
 2013-03-11-1620-00M.COL___231                                                 6
 STAT SP IPHASW D HRMM SECON CODA AMPLIT PERI AZIMU VELO AIN AR TRES W  DIS CAZ7
 BAR2 SZ EP   1   1626  7.56                             171   -0.20 7 22.6 192 
 BAR2 SZ ES   1   1626 23.34                             171   -0.07 7 22.6 192 
 BAR2 SZ I        1626 25.91        16.6 0.38            159           22.6 192 
 BRR  HZ IP     C 1626  9.76                             153    0.4510 72.2 299 
 BRR  HN ES   1   1626 26.91                             153    0.75 7 72.2 299 
 BRR  HN I        1626 28.25        30.1 0.19            147           72.2 299 
 PAM  SZ EP   1   1626 10.54                             151    0.21 7 77.7  39 
 PAM  SN ES   1   1626 27.32                             151   -0.66 7 77.7  39 
 PAM  SZ I        1626 28.99         8.2 0.40            156           77.7  39 
 RUS  HZ EP   1   1626 11.63                             145   -0.12 7 99.6 176 
 RUS  HN ES   1   1626 30.82                             145    0.31 7 99.6 176 
 RUS  HZ I        1626 33.23         5.3 0.41            134           99.6 176 
 PTB  HZ EP       1626 14.68                             133   -0.33 9  148 259 
 PTB  HN ES   1   1626 35.52                             133   -0.80 7  148 259 
 PTB  HZ I        1626 43.29        15.6 0.50            124            148 259 
 ZAR  HZ EP   1   1626 20.31                             123   -0.18 6  205 292 
 ZAR  HN ES       1626 46.14                             123    0.08 9  205 292 
 ZAR  HZ I        1626 54.12         7.9 0.30            117            205 292 
 CHI  HZ EP   1   1626 25.54                             118    0.01 6  248 195 
 PRA  HZ EP   1   1626 41.88                             107    0.58 4  392 210 
 PRA  HZ I        1627 29.03         3.0 0.38            102            392 210 
                                                                                
