 2012  511 1238 48.4 L   6.822 -73.130142.4  RSN  6 0.4 1.9LRSN                1
 GAP=137        0.74       4.6     5.7  6.9  0.2693E+01  0.2792E+01  0.2589E+01E
 Epicentro: LOS SANTOS - SANTANDER                                             3
 ACTION:UP  12-07-05 12:04 OP:pat  STATUS:               ID:20120511123848 L   I
 2012-05-11-1230-00M.COL___195                                                 6
 STAT SP IPHASW D HRMM SECON CODA AMPLIT PERI AZIMU VELO SNR AR TRES W  DIS CAZ7
 BAR2 SZ EP       1239  7.52                             169    -0.110   26 193 
 BAR2 SZ ES   1   1239 22.43                             169    -0.3 7   26 193 
 BAR2 SZ I        1239 23.42        14.8 0.28                            26 193 
 BRR  HZ EP       1239  9.26                             152     0.110   72 296 
 BRR  HZ I        1239 10.58        25.9 0.10                            72 296 
 BRR  HE ES   1   1239 25.84                             152     0.4 7   72 296 
 PAM  SZ EP       1239 10.32                             151     0.310   74  40 
 PAM  SN ES   1   1239 27.03                             151     0.1 7   74  40 
 RUS  HZ EP       1239 11.82                             142    -0.110  103 177 
 RUS  HN ES   2   1239 30.45                             142     0.1 5  103 177 
 RUS  HZ I        1239 32.07         5.2 0.28                           103 177 
 OCA  HZ EP   3   1239 16.00                             129    -0.2 2  158 352 
 OCA  HE ES   2   1239 36.78                             129    -1.1 5  158 352 
 ZAR  HZ EP   2   1239 21.19                             121     0.5 4  205 291 
 ZAR  HE ES   2   1239 45.34                             121    -0.5 4  205 291 
 ZAR  HZ I        1239 51.34         8.6 0.40                           205 291 
                                                                                
