 2017  111 1553 47.1 L   6.790 -73.101140.0  RSN  5 0.5 1.3LRSN                1
 GAP=143        1.18       6.1     6.1  8.7 -0.3572E+01  0.7223E+01  0.2615E+01E
 Epicentro: LOS SANTOS - SANTANDER                                             3
 ACTION:UPD 17-05-22 15:58 OP:jn   STATUS:               ID:20170111155347 L   I
 OLDACT:REG 17-01-11 20:15 OP:ar   STATUS:               ID:20170111154759     3
 2017-01-11-1547-59S.COL___303                                                 6
 STAT SP IPHASW D HRMM SECON CODA AMPLIT PERI AZIMU VELO AIN AR TRES W  DIS CAZ7
 BAR2 EZ EP       1554  5.95                             170   -0.1310 23.7 202 
 BAR2 EZ ES       1554 20.53                             170   -0.3310 23.7 202 
 BAR2 EZ I        1554 22.44         5.6 0.40            170           23.7 202 
 PAM  EZ EP       1554  8.54                             150   -0.0710 75.2  36 
 PAM  EN ES       1554 25.19                             150   -0.1710 75.2  36 
 PAM  EZ I        1554 27.99         5.1 0.34            153           75.2  36 
 BRR  HZ EP       1554  7.61                             150   -0.3510 76.1 297 
 BRR  HN ES       1554 25.08                             150    0.8810 76.1 297 
 RUS  HZ EP       1554 10.38                             143    0.1510 99.3 179 
 RUS  HN ES       1554 28.50                             143    0.2610 99.3 179 
 RUS  HZ I        1554 29.32         2.0 0.46            145           99.3 179 
 PTB  HZ EP       1554 14.61                             130    0.53 9  152 260 
 PTB  HN ES       1554 34.27                             130   -0.82 9  152 260 
 PTB  HZ I        1554 40.21         2.3 0.16            130            152 260 
                                                                                
