 2016 1111 1342 13.8 L   6.814 -73.172142.8  RSN 15 0.6 2.5LRSN                1
 GAP=141        1.25       6.0     5.5  7.7 -0.7540E+01  0.8415E+01  0.1903E+02E
 Epicentro: LOS SANTOS - SANTANDER                                             3
 ACTION:UPD 17-10-26 21:06 OP:lp   STATUS:               ID:20161111134213 L   I
 OLDACT:UP  16-11-11 22:46 OP:dnl  STATUS:               ID:20161111133732     3
 OLDACT:UP  16-11-11 22:46 OP:dnl  STATUS:               ID:20161111133732     3
 OLDACT:UP  16-11-11 22:45 OP:dnl  STATUS:               ID:20161111133732     3
 OLDACT:REG 16-11-11 21:17 OP:dnl  STATUS:               ID:20161111133732     3
 2016-11-11-1338-00M.COL___343                                                 6
 STAT SP IPHASW D HRMM SECON CODA AMPLIT PERI AZIMU VELO AIN AR TRES W  DIS CAZ7
 BAR2 HZ IP     C 1342 32.98                             170   -0.1410 24.6 183 
 BAR2 HZ ES       1342 47.68                             170   -0.4910 24.6 183 
 BAR2 HZ I        1342 49.81        92.7 0.58            163           24.6 183 
 BRR  HZ EP       1342 34.81                             153    0.3410 67.9 299 
 BRR  HN ES       1342 51.43                             153    0.8610 67.9 299 
 BRR  HZ I        1342 54.41        58.9 0.30            154           67.9 299 
 PAM  HZ EP       1342 35.89                             150    0.1210 78.0  42 
 PAM  HN ES       1342 52.77                             150   -0.1110 78.0  42 
 PAM  HZ I        1342 55.19        66.0 0.46            161           78.0  42 
 PTB  HZ EP       1342 39.51                             132   -0.82 9  145 258 
 PTB  HN ES       1343  0.65                             132   -0.34 9  145 258 
 PTB  HZ I        1343  7.10        24.9 0.16            132            145 258 
 ZAR  HZ EP       1342 45.47                             122   -0.27 9  201 292 
 ZAR  HE ES       1343 10.84                             122    0.20 9  201 292 
 ZAR  HZ I        1343 16.41        26.9 0.32            125            201 292 
 NOR  HZ EP       1342 49.01                             118   -0.22 8  233 234 
 NOR  HE ES       1343 16.23                             118   -0.62 8  233 234 
 NOR  HZ I        1343 21.72        24.5 0.24            119            233 234 
 ROSC BZ EP       1342 52.88                             116    1.11 8  253 210 
 ROSC BN ES   4   1343 23.67                             116    2.30 0  253 210 
 ROSC BZ I        1343 29.26        24.4 0.45            118            253 210 
 PTGC HZ IP   4 C 1342 56.23                             111   -1.61 0  311 158 
 PTGC HN ES   4   1343 29.74                             111   -2.43 0  311 158 
 PTGC HZ I        1343 34.49        26.1 0.26            113            311 158 
 LL6C HZ EP   4   1342 38.96                             110   -20.2 0  323 358 
 LL6C HE ES   4   1343 12.21                             110   -22.4 0  323 358 
 LL6C HZ I        1343 19.72         8.7 0.48            115            323 358 
 ELA  HZ EP   4   1343  1.85                             110    1.43 0  328 229 
 ELA  HN ES   4   1343 40.56                             110    3.79 0  328 229 
 ELA  HZ I        1343 44.82        13.4 0.44            112            328 229 
 CBOC HZ EP   4   1343  1.38                             109    1.02 0  331 252 
 CBOC HN ES   4   1343 35.51                             109   -1.15 0  331 252 
 CBOC HZ I        1343 41.52         4.2 0.18            112            331 252 
 PRA  HZ EP       1343  6.96                             106   -0.28 6  392 209 
 PRA  HE ES       1343 50.07                             106    1.16 6  392 209 
 PRA  HZ I        1343 55.56        10.4 0.50            108            392 209 
 ORTC HZ EP       1343  7.22                             106   -0.38 6  395 216 
 ORTC HN ES       1343 50.09                             106    0.55 6  395 216 
 ORTC HZ I        1343 55.88         8.7 0.34            108            395 216 
 SJC  HZ EP   4   1343  6.98                             105   -1.97 0  406 327 
 SJC  HN ES   4   1343 48.05                             105   -3.90 0  406 327 
 SJC  HZ I        1343 52.70         4.2 0.64            109            406 327 
 CRJC HZ EP   4   1343 13.53                             103   -2.55 0  466   4 
 CRJC HE ES   4   1344  0.89                             103   -3.74 0  466   4 
 CRJC HZ I        1344  5.50         9.8 0.58            107            466   4 
                                                                                
