 2013 1211 1110 47.0 L   7.060 -73.220132.1  RSN  5 0.4 1.7LRSN                1
 GAP=178        0.89       3.6     6.5  9.5  0.1921E+01  0.2002E+02 -0.1360E+02E
 Epicentro: GIRON - SANTANDER                                                  3
 ACTION:UPD 14-01-13 10:17 OP:ep   STATUS:               ID:20131211111047 L   I
 OLDACT:REG 13-12-11 14:38 OP:cam  STATUS:               ID:20131211111000     3
 2013-12-11-1110-00M.COL___285                                                 6
 STAT SP IPHASW D HRMM SECON CODA AMPLIT PERI AZIMU VELO AIN AR TRES W  DIS CAZ7
 BAR2 SZ EP       1111  6.55                             157    0.5410 51.8 175 
 BAR2 SZ ES       1111 20.92                             157    0.1010 51.8 175 
 BAR2 SZ I        1111 22.12        34.0 0.16            161           51.8 175 
 RUS  HN ES       1111 30.70                             133   -0.6210  130 173 
 RUS  HN I        1111 32.42         5.9 0.26            137            130 173 
 OCA  HN ES   1   1111 30.90                             132    0.25 7  131 355 
 PTB  HZ EP       1111 13.13                             128    0.17 9  148 247 
 PTB  HE ES       1111 33.26                             128    0.07 9  148 247 
 PTB  HZ I        1111 35.53         3.4 0.20            130            148 247 
 SML  HZ EP       1111 19.56                             118   -0.13 8  214 334 
 SML  HN ES       1111 44.71                             118   -0.46 8  214 334 
 SML  HZ I        1111 52.32         5.3 0.10            119            214 334 
                                                                                
