 2016  911 1143  6.4 L   6.783 -73.154139.7  RSN  8 0.3 2.0LRSN                1
 GAP=136        0.79       2.8     3.2  5.0 -0.1238E+01  0.4352E+01 -0.1679E+01E
 Epicentro: LOS SANTOS - SANTANDER                                             3
 ACTION:UPD 17-08-17 21:08 OP:lp   STATUS:               ID:20160911114306 L   I
 OLDACT:REG 16-09-11 20:13 OP:lv   STATUS:               ID:20160911113744     3
 2016-09-11-1138-00M.COL___306                                                 6
 STAT SP IPHASW D HRMM SECON CODA AMPLIT PERI AZIMU VELO AIN AR TRES W  DIS CAZ7
 BAR2 EZ IP     D 1143 25.09                             171   -0.2110 21.3 188 
 BAR2 EZ ES       1143 40.13                             171    0.1210 21.3 188 
 BAR2 EZ I        1143 41.15        24.5 0.20            171           21.3 188 
 BRR  HZ EP       1143 27.05                             151    0.1110 71.3 300 
 BRR  HN ES       1143 43.32                             151    0.3910 71.3 300 
 BRR  HZ I        1143 46.53        11.8 0.14            150           71.3 300 
 PAM  EZ EP       1143 28.09                             149   -0.0510 79.4  39 
 PAM  EN ES       1143 45.08                             149    0.0110 79.4  39 
 PAM  EZ I        1143 47.34        20.0 0.24            153           79.4  39 
 RUS  HZ EP       1143 29.66                             143    0.1910 98.8 175 
 RUS  HN ES       1143 47.40                             143   -0.0310 98.8 175 
 RUS  HZ I        1143 48.80         7.9 0.32            147           98.8 175 
 PTB  HZ EP       1143 32.27                             131   -0.53 9  146 259 
 PTB  HN ES       1143 52.84                             131   -0.52 9  146 259 
 PTB  HZ I        1144  0.18        10.9 0.13            131            146 259 
 OCA  HZ EP       1143 34.50                             128    0.05 9  162 354 
 OCA  HN ES       1143 55.92                             128   -0.38 9  162 354 
 OCA  HZ I        1143 58.33        19.8 0.32            130            162 354 
 ZAR  HZ EP       1143 39.18                             121    0.70 9  204 293 
 ZAR  HN ES       1144  3.59                             121    0.12 9  204 293 
 ZAR  HZ I        1144  9.79        16.7 0.28            122            204 293 
 NOR  HN ES       1144  9.16                             117    0.10 8  233 235 
 NOR  HZ I        1144 11.30         5.5 0.21            119            233 235 
                                                                                
