 2015 1011 1047 12.7 L   6.812 -73.145146.0  RSN 13 0.3 1.8LRSN                1
 GAP=136        0.74       2.4     3.7  4.5  0.3942E+00  0.5635E+01  0.1739E+01E
 Epicentro: LOS SANTOS - SANTANDER                                             3
 ACTION:UPD 15-12-22 20:39 OP:cam  STATUS:               ID:20151011104712 L   I
 OLDACT:DUP 15-10-11 22:37 OP:spq  STATUS:               ID:20151011103743d    3
 2015-10-11-1037-42M.COL___340                                                 6
 STAT SP IPHASW D HRMM SECON CODA AMPLIT PERI AZIMU VELO AIN AR TRES W  DIS CAZ7
 BAR2 EZ EP       1047 32.27                             170   -0.0910 24.6 190 
 BAR2 EZ ES   1   1047 47.05                             170   -0.66 7 24.6 190 
 BAR2 EZ I        1047 48.09        13.0 0.28            172           24.6 190 
 BRR  HZ EP       1047 33.78                             153   -0.0410 70.6 298 
 BRR  HN ES       1047 50.92                             153    0.6110 70.6 298 
 BRR  HZ I        1047 54.15        18.4 0.28            150           70.6 298 
 PAM  EZ EP       1047 35.05                             151    0.2010 76.3  40 
 PAM  EN ES       1047 52.03                             151   -0.1210 76.3  40 
 PAM  EZ I        1047 54.17         9.5 0.38            152           76.3  40 
 RUS  HZ EP   1   1047 36.26                             144   -0.28 7  102 176 
 RUS  HE ES   1   1047 55.17                             144    0.01 7  102 176 
 RUS  HZ I        1047 55.87         8.1 0.28            147            102 176 
 OCA  HZ EP   1   1047 41.03                             130    0.15 7  159 353 
 OCA  HN ES       1048  3.27                             130    0.38 9  159 353 
 OCA  HZ I        1048 10.27        13.8 0.32            130            159 353 
 SPBC HZ EP       1047 41.43                             129    0.14 9  164 219 
 ZAR  HZ EP       1047 45.06                             122   -0.03 9  204 292 
 ZAR  HE ES       1048  9.90                             122   -0.48 9  204 292 
 ZAR  HZ I        1048 15.38         7.8 0.23            123            204 292 
 NOR  HE ES   2   1048 16.65                             118    0.20 4  236 234 
 NOR  HZ I        1048 17.80         3.4 0.20            120            236 234 
 SML  HZ EP       1047 48.89                             118   -0.30 8  243 335 
 SML  HE ES   1   1048 17.11                             118   -0.56 6  243 335 
 SML  HZ I        1048 25.56         6.9 0.10            118            243 335 
 CHI  HZ EP       1047 50.47                             117   -0.05 8  250 195 
 CHI  HE ES   1   1048 20.25                             117    0.20 6  250 195 
 CHI  HZ I        1048 23.02         4.0 0.38            119            250 195 
 HEL  HZ EP       1047 52.84                             115   -0.10 8  272 256 
 GUY2CHZ EP   1   1047 57.15                             112    0.76 5  302 235 
 GUY2CHE ES   4   1048 33.75                             112    3.27 0  302 235 
 GUY2CHZ I        1048 36.79         2.7 0.10                           302 235 
 SJC  HZ EP   4   1048  6.28                             106   -1.84 0  408 327 
 SJC  HN ES   4   1048 48.98                             106   -2.39 0  408 327 
 SJC  HZ I        1048 50.89         1.6 0.64            106            408 327 
                                                                                
