 2011  411 1538 57.5 L   6.701 -73.091138.0  RSN  7 0.4 2.3LRSN                1
 GAP=188        0.85       7.0     7.5  7.5 -0.3406E+02  0.1602E+01  0.1495E+01E
 Epicentro: JORDAN - SANTANDER                                                 3
 ACTION:UP  11-06-22 15:30 OP:REBC STATUS:               ID:20110411153857 L   I
 2011-04-11-1534-11S.COL___140                                                 6
 STAT SP IPHASW D HRMM SECON CODA AMPLIT PERI AZIMU VELO SNR AR TRES W  DIS CAZ7
 BAR2 SZ IP       1539 16.40                             173     0.310   16 220 
 BAR2 SZ ES   1   1539 30.69                             173     0.1 7   16 220 
 BAR2 SZ I        1539 32.79        44.5 0.21                            16 220 
 GIR2 SZ EP   1   1539 16.53                             162    -0.2 7   43 345 
 BRR  HZ EP       1539 18.23                             147    -0.310   82 303 
 BRR  HZ I        1539 18.69        60.7 0.10                            82 303 
 BRR  HN ES   1   1539 35.26                             147     0.4 7   82 303 
 PAM  SZ EP       1539 19.27                             147     0.010   83  31 
 PAM  SE ES   1   1539 35.47                             147    -0.8 7   83  31 
 GRA  SZ EP       1539 23.28                             133     0.410  135  14 
 GRA  SZ ES   1   1539 42.80                             133     0.2 7  135  14 
 GRA  SZ I        1539 44.04        16.7 0.47                           135  14 
 OCA  SZ EP   2   1539 25.85                             126    -0.5 4  172 352 
 OCA  SZ I        1539 52.65        20.6 0.11                           172 352 
 NOR  SZ EP   2   1539 32.80                             117     0.1 4  234 238 
 NOR  SN ES   1   1539 59.76                             117    -0.4 6  234 238 
                                                                                
