 2013  311 1545  6.6 L   6.796 -73.121148.9  RSN 12 0.4 2.7LRSN                1
 GAP=140        0.90       2.8     4.1  5.1 -0.7335E+00  0.5606E+01  0.2474E+01E
 Epicentro: LOS SANTOS - SANTANDER                                             3
 ACTION:UPD 13-04-09 14:01 OP:ep   STATUS:               ID:20130311154506 L   I
 2013-03-11-1540-00M.COL___231                                                 6
 STAT SP IPHASW D HRMM SECON CODA AMPLIT PERI AZIMU VELO AIN AR TRES W  DIS CAZ7
 BAR2 SZ IP       1545 26.66                             171    0.0610 23.5 197 
 BAR2 SZ ES       1545 41.79                             171   -0.4210 23.5 197 
 BAR2 SZ I        1545 44.68       136.9 0.30            167           23.5 197 
 BRR  HZ IP     C 1545 28.57                             152    0.3510 73.8 298 
 BRR  HN ES       1545 45.83                             152    0.7310 73.8 298 
 BRR  HZ I        1545 50.40        51.2 0.29            149           73.8 298 
 PAM  SZ EP       1545 29.51                             152    0.4510 76.0  38 
 PAM  SE ES       1545 46.30                             152   -0.2910 76.0  38 
 PAM  SZ I        1545 48.89        39.7 0.36            158           76.0  38 
 RUS  HZ EP       1545 30.50                             145   -0.1110  100 178 
 RUS  HE ES   1   1545 49.34                             145   -0.01 7  100 178 
 RUS  HE I        1545 51.22        59.6 0.19            146            100 178 
 PTB  HZ EP       1545 33.59                             132   -0.46 9  150 259 
 PTB  HE ES   1   1545 54.94                             132   -0.52 7  150 259 
 PTB  HZ I        1546  1.97        81.7 0.41            132            150 259 
 OCA  HZ EP   1   1545 35.17                             130   -0.05 7  161 352 
 OCA  HN ES   1   1545 57.83                             130    0.28 7  161 352 
 OCA  HZ I        1546  1.62        54.1 0.31            133            161 352 
 ZAR  HZ EP   1   1545 39.00                             123   -0.51 6  207 292 
 ZAR  HN ES   1   1546  5.60                             123    0.41 6  207 292 
 ZAR  HZ I        1546 11.51        46.0 0.44            123            207 292 
 SML  HZ EP   1   1545 43.02                             118   -0.54 6  245 335 
 SML  HN ES   1   1546 11.56                             118   -0.83 6  245 335 
 CHI  HZ EP       1545 44.67                             118    0.17 8  249 196 
 CHI  HN ES       1546 13.74                             118   -0.32 8  249 196 
 CHI  HZ I        1546 19.62        20.4 0.74            120            249 196 
 ROSC BZ EP   1   1545 45.60                             117    0.61 6  254 212 
 ROSC BN ES   1   1546 15.62                             117    0.67 6  254 212 
 ROSC BZ I        1546 21.62        38.7 0.25            119            254 212 
 HEL  HZ EP   1   1545 47.72                             115    0.48 6  275 256 
 HEL  HN ES   1   1546 18.47                             115   -0.48 6  275 256 
 HEL  HZ I        1546 25.91        32.0 0.24            116            275 256 
 PRA  HZ EP   1   1545 59.99                             107   -0.34 4  393 210 
 PRA  HN ES   1   1546 42.44                             107    0.19 4  393 210 
 PRA  HZ I        1546 46.17        14.6 0.33            109            393 210 
 SJC  HN EP   4   1546  0.42                             106   -2.05 0  411 327 
                                                                                
