 2013  411 1202 40.2 L   6.933 -73.178144.5  RSN  8 0.5 1.9LRSN                1
 GAP=200        1.03       4.8     7.2  6.2  0.1239E+02  0.1660E+00 -0.2318E+01E
 Epicentro: BETULIA - SANTANDER                                                3
 ACTION:UPD 13-05-22 14:37 OP:EP   STATUS:               ID:20130411120240 L   I
 2013-04-11-1200-00M.COL___245                                                 6
 STAT SP IPHASW D HRMM SECON CODA AMPLIT PERI AZIMU VELO AIN AR TRES W  DIS CAZ7
 BAR2 SZ EP       12 3  0.05                             165    0.0110 37.7 181 
 BAR2 SZ ES       12 3 15.13                             165   -0.3910 37.7 181 
 BAR2 SZ I        12 3 16.19        33.6 0.20            158           37.7 181 
 BRR  HZ EP       12 3  1.03                             155    0.3310 62.1 288 
 BRR  HN ES       12 3 17.46                             155    0.7610 62.1 288 
 RUS  HZ EP       12 3  4.86                             140   -0.0810  116 175 
 RUS  HN ES       12 3 24.14                             140   -0.1110  116 175 
 RUS  HZ I        12 3 25.69         7.6 0.28            136            116 175 
 PTB  HZ EP       12 3  6.99                             132   -0.07 9  148 253 
 PTB  HN ES       12 3 27.70                             132   -0.32 9  148 253 
 PTB  HZ I        12 3 33.48         9.0 0.10            127            148 253 
 SML  HZ EP       12 3 14.78                             119   -0.36 8  229 335 
 SML  HN ES   2   12 3 41.62                             119   -0.79 4  229 335 
 CHI  HZ EP       12 3 19.87                             115    0.60 8  262 194 
 CHI  HN ES   1   12 3 48.75                             115   -1.01 6  262 194 
 CHI  HZ I        12 3 56.94         3.4 0.28            114            262 194 
 SJC  HZ EP   1   12 3 33.43                             106   -0.61 4  395 326 
 PRA  HZ EP       12 3 35.87                             106    0.90 6  403 208 
                                                                                
