 2013  811 1417 41.3 L   6.788 -73.139148.3  RSN  9 0.5 2.0LRSN                1
 GAP=138        1.20       5.2     5.4  7.9 -0.1248E+01  0.7416E+01  0.1046E+02E
 Epicentro: LOS SANTOS - SANTANDER                                             3
 ACTION:UPD 14-01-14 09:01 OP:ep   STATUS:               ID:20130811141741 L   I
 OLDACT:REG 13-08-11 17:16 OP:jn   STATUS:               ID:20130811140959     3
 2013-08-11-1409-59M.COL___270                                                 6
 STAT SP IPHASW D HRMM SECON CODA AMPLIT PERI AZIMU VELO AIN AR TRES W  DIS CAZ7
 BAR2 SZ EP       1418  1.21                             171    0.0210 22.1 193 
 BAR2 SZ ES       1418 16.87                             171    0.1510 22.1 193 
 BAR2 SZ I        1418 19.76        12.0 0.20            165           22.1 193 
 BRR  HZ EP       1418  3.03                             152    0.2610 72.5 299 
 BRR  HN ES       1418 20.53                             152    0.9910 72.5 299 
 BRR  HZ I        1418 23.66        18.6 0.56            147           72.5 299 
 PAM  SZ EP       1418  3.92                             151    0.1310 78.0  38 
 PAM  SN ES       1418 20.92                             151   -0.4410 78.0  38 
 PAM  SZ I        1418 23.24        12.1 0.50            149           78.0  38 
 RUS  HZ EP       1418  5.12                             145   -0.0610 99.2 176 
 RUS  HN ES       1418 23.27                             145   -0.5510 99.2 176 
 RUS  HZ I        1418 27.30         6.6 0.38            137           99.2 176 
 PTB  HZ EP       1418  7.83                             132   -0.66 9  148 259 
 PTB  HN ES       1418 29.17                             132   -0.56 9  148 259 
 PTB  HZ I        1418 31.30        16.7 0.46            125            148 259 
 SPBC HZ EP   1   1418  9.96                             130    0.05 7  163 220 
 SPBC HZ I        1418 41.35        23.9 0.26            122            163 220 
 ZAR  HN ES   1   1418 39.22                             123   -0.33 6  205 292 
 ZAR  HZ I        1418 45.70        20.6 0.32            117            205 292 
 NOR  HN ES   1   1418 44.91                             119   -0.20 6  235 235 
 NOR  HZ I        1418 50.72        11.6 0.40            112            235 235 
 CHI  HZ EP       1418 19.52                             118    0.53 8  248 195 
 CHI  HE ES   1   1418 49.61                             118    1.20 6  248 195 
 CHI  HZ I        1418 54.38         3.2 0.22            111            248 195 
                                                                                
