 2011 1111 1917 57.9 L   6.756 -73.131144.6  RSN  5 0.4 1.5LRSN                1
 GAP=140        0.68       5.2     6.6 10.2  0.9273E+01  0.1728E+02  0.1393E+02E
 Epicentro: LOS SANTOS - SANTANDER                                             3
 ACTION:UPD 12-07-13 16:09 OP:ep   STATUS:               ID:20111111191757 L   I
 2011-11-11-1917-28S.COL___179                                                 6
 STAT SP IPHASW D HRMM SECON CODA AMPLIT PERI AZIMU VELO AIN AR TRES W  DIS CAZ7
 BAR2 SZ EP   2   1918 16.60                             172   -0.70 5 19.0 197 
 BAR2 SZ I        1918 35.97         7.3 0.44                          19.0 197 
 BRR  HZ EP   1   1918 19.13                             151    0.00 7 75.0 301 
 BRR  HZ I        1918 24.05        15.1 0.46                          75.0 301 
 BRR  HN ES   1   1918 36.05                             151    0.34 7 75.0 301 
 PAM  SN ES   1   1918 37.40                             150   -0.11 7 80.2  36 
 RUS  HZ EP   1   1918 21.67                             145    0.50 7 95.7 177 
 RUS  HE ES   1   1918 39.12                             145   -0.22 7 95.7 177 
 RUS  HZ I        1918 41.76         2.7 0.30                          95.7 177 
 ZAR  HN ES   2   1918 55.53                             121   -0.60 4  207 293 
                                                                                
