 2014 1111 1450 17.2 L   6.030 -73.701114.9  RSN 12 0.4 2.1LRSN                1
 GAP= 79        1.08       2.9     3.5  6.0 -0.3229E+01  0.2206E+01  0.2118E+01E
 Epicentro: VELEZ - SANTANDER                                                  3
 ACTION:UPD 14-12-19 15:42 OP:nd   STATUS:               ID:20141111145017 L   I
 OLDACT:UP  14-11-11 23:12 OP:cam  STATUS:               ID:20141111144816     3
 OLDACT:REG 14-11-11 19:41 OP:cam  STATUS:               ID:20141111144816     3
 2014-11-11-1448-16M.COL___303                                                 6
 STAT SP IPHASW D HRMM SECON CODA AMPLIT PERI AZIMU VELO AIN AR TRES W  DIS CAZ7
 SPBC HZ EP     D 1450 34.75                             151    0.2610 58.6 225 
 SPBC HN ES       1450 47.88                             151   -0.0510 58.6 225 
 RUS  HZ EP     D 1450 36.02                             147    0.2310 70.1 102 
 RUS  HN ES       1450 50.45                             147    0.2010 70.1 102 
 RUS  HZ I        1450 51.99        22.1 0.30            149           70.1 102 
 PTB  HZ EP       1450 36.53                             136   -0.9510  101 304 
 PTB  HE ES       1450 53.17                             136   -0.0810  101 304 
 PTB  HZ I        1450 56.43        23.3 0.20            136            101 304 
 BRR  HZ EP     D 1450 39.35                             130    0.2610  119 359 
 BRR  HE ES       1450 56.65                             130    0.5210  119 359 
 BRR  HZ I        1450 59.66        32.5 0.10            132            119 359 
 NOR  HZ EP       1450 41.25                             126    0.15 9  139 248 
 NOR  HN ES       1450 59.22                             126   -0.48 9  139 248 
 NOR  HZ I        1451  1.83        53.6 0.16            127            139 248 
 CHI  HZ EP       1450 43.00                             123   -0.14 9  155 181 
 CHI  HN ES       1451  2.96                             123   -0.38 9  155 181 
 CHI  HZ I        1451  6.93         6.7 0.22            124            155 181 
 PAM  SZ EP       1450 46.52                             118    0.39 9  182  37 
 PAM  SE ES       1451  7.99                             118   -0.67 9  182  37 
 PAM  SZ I        1451 12.37         8.2 0.22            120            182  37 
 HEL  HZ EP       1450 48.58                             115    0.33 9  203 275 
 HEL  HE ES   4   1451 14.30                             115    1.88 0  203 275 
 HEL  HZ I        1451 16.73        17.0 0.34            116            203 275 
 TOL  SZ EP       1450 52.67                             111    0.29 8  240 228 
 TOL  SN ES       1451 20.49                             111    0.70 8  240 228 
 TOL  SZ I        1451 22.92        20.0 0.44            112            240 228 
 PRA  HZ EP       1450 56.82                             106   -0.70 7  288 207 
 PRA  HN ES       1451 29.39                             106    0.46 7  288 207 
 PRA  HZ I        1451 34.66         6.7 0.26            108            288 207 
 ORTC HZ EP       1450 57.52                             106   -0.30 7  290 216 
 SJC  HZ EP   4   1451 15.82                              98   -1.98 0  458 339 
 SJC  HN ES   4   1452  0.86                              98   -4.18 0  458 339 
 SJC  HZ I        1452  5.98         2.1 0.32             99            458 339 
                                                                                
