 2012 1111 1342 33.5 L   6.743 -73.135148.3  RSN  7 0.4 1.6LRSN                1
 GAP=186        0.79       4.8     6.0  6.7  0.5048E+01  0.7434E+01  0.9438E+01E
 Epicentro: JORDAN - SANTANDER                                                 3
 ACTION:UPD 12-12-05 15:32 OP:}ep  STATUS:               ID:20121111134233 L   I
 2012-11-11-1340-00M.COL___229                                                 6
 STAT SP IPHASW D HRMM SECON CODA AMPLIT PERI AZIMU VELO AIN AR TRES W  DIS CAZ7
 BAR2 SZ EP       1342 53.31                             173   -0.0310 17.5 198 
 BAR2 SZ ES   1   1343  8.35                             173   -0.46 7 17.5 198 
 BAR2 SZ I        1343 11.14        11.8 0.24                          17.5 198 
 GIR2 SZ EP   1   1342 53.53                             165   -0.14 7 37.7 350 
 GIR2 SZ ES   1   1343  9.34                             165   -0.05 7 37.7 350 
 BRR  HZ EP       1342 55.36                             152    0.1910 75.4 302 
 BRR  HE ES   1   1343 12.70                             152    0.63 7 75.4 302 
 BRR  HZ I        1343 15.26         7.7 0.12                          75.4 302 
 RUS  HZ EP   1   1342 57.10                             146    0.03 7 94.2 177 
 RUS  HN ES   1   1343 15.83                             146    0.39 7 94.2 177 
 RUS  HZ I        1343 17.29         3.6 0.32                          94.2 177 
 PTB  HZ EP   1   1342 59.99                             133   -0.70 7  148 261 
 PTB  HN ES   1   1343 21.31                             133   -0.59 7  148 261 
 PTB  HZ I        1343 28.55         7.6 0.32                           148 261 
 CHI  HZ EP   1   1343 11.13                             118    0.40 6  243 196 
 CHI  HN ES   1   1343 39.67                             118   -0.09 6  243 196 
 CHI  HZ I        1343 44.36         2.2 0.58                           243 196 
 HEL  HN ES   2   1343 46.17                             115    0.91 4  272 257 
                                                                                
