 2015  811 1125 49.3 L   6.811 -73.108145.1  RSN 10 0.4 2.0LRSN                1
 GAP=248        0.82       4.3     5.9  6.4  0.1992E+01  0.1371E+02  0.6679E+01E
 Epicentro: LOS SANTOS - SANTANDER                                             3
 ACTION:UPD 15-09-15 23:01 OP:cam  STATUS:               ID:20150811112549 L   I
 OLDACT:REG 15-08-11 20:35 OP:ar   STATUS:               ID:20150811111750     3
 2015-08-11-1117-50M.COL___340                                                 6
 STAT SP IPHASW D HRMM SECON CODA AMPLIT PERI AZIMU VELO AIN AR TRES W  DIS CAZ7
 BAR2 EZ EP       1126  8.82                             170   -0.1210 25.6 199 
 BAR2 EZ ES       1126 24.21                             170   -0.0110 25.6 199 
 BAR2 EZ I        1126 25.47        18.5 0.20            163           25.6 199 
 BRR  HZ EP       1126 10.61                             151    0.0210 74.3 296 
 BRR  HN ES       1126 27.71                             151    0.5410 74.3 296 
 BRR  HZ I        1126 30.86        14.7 0.20            148           74.3 296 
 SPBC HE ES       1126 40.03                             128   -0.55 9  167 220 
 SPBC HZ I        1126 43.78        38.5 0.10            127            167 220 
 ZAR  HZ EP   2   1126 22.61                             122    0.52 4  207 291 
 ZAR  HE ES       1126 47.05                             122   -0.58 8  207 291 
 ZAR  HZ I        1126 52.00         9.4 0.26            122            207 291 
 NOR  HZ EP   2   1126 25.19                             118   -0.28 4  239 235 
 NOR  HE ES   2   1126 53.62                             118   -0.03 4  239 235 
 NOR  HZ I        1126 58.16         4.8 0.18            118            239 235 
 CHI  HE ES   2   1126 56.70                             117   -0.12 4  251 196 
 CHI  HZ I        1126 59.78         6.8 0.52            117            251 196 
 HEL  HN ES   2   1127  2.10                             114    0.39 4  276 256 
 HEL  HZ I        1127  6.95         4.4 0.28            114            276 256 
 GUY2CHZ EP   2   1126 32.49                             112   -0.89 4  305 235 
 GUY2CHZ I        1126 49.46         7.8 0.26                           305 235 
 GUY2CHE ES   4   1127 11.34                             112    3.61 0  305 235 
 TOL  SZ EP       1126 38.66                             109    0.66 6  347 225 
 TOL  SN ES       1127 16.56                             109    0.60 6  347 225 
 TOL  SZ I        1127 22.46         3.5 0.46            109            347 225 
 MON  HZ EP   2   1126 38.10                             108   -0.50 3  356 308 
 MON  HN ES   4   1127 13.99                             108   -3.03 0  356 308 
 MON  HZ I        1127 15.18         1.5 0.50            109            356 308 
                                                                                
