 2016  411 1925 21.9 L   6.788 -73.328120.4  RSN 13 0.5 2.1LRSN                1
 GAP= 85        1.25       3.4     4.1  7.1 -0.4086E+01  0.8716E+01 -0.2112E+01E
 Epicentro: ZAPATOCA - SANTANDER                                               3
 ACTION:UPD 16-05-05 14:20 OP:rebc STATUS:               ID:20160411192521 L   I
 OLDACT:UP  16-04-12 00:42 OP:ar   STATUS:               ID:20160411191750d    3
 OLDACT:DUP 16-04-12 00:15 OP:ar   STATUS:               ID:20160411191750d    3
 2016-04-11-1917-49M.COL___289                                                 6
 STAT SP IPHASW D HRMM SECON CODA AMPLIT PERI AZIMU VELO AIN AR TRES W  DIS CAZ7
 BAR2 EZ EP       1925 38.48                             167   -0.1210 27.0 143 
 BAR2 EZ ES       1925 51.17                             167   -0.4410 27.0 143 
 BAR2 EZ I        1925 54.87        26.1 0.56            169           27.0 143 
 PAM  EZ EP       1925 42.42                             140   -0.1910 92.4  49 
 PAM  EN ES       1925 59.45                             140    0.7010 92.4  49 
 PAM  EZ I        1926  1.11        23.3 0.20            145           92.4  49 
 RUS  HZ EP       1925 42.94                             137   -0.5010  103 165 
 RUS  HN ES       1926  0.67                             137    0.4410  103 165 
 PTB  HZ EP   9   1925 43.36                             130   -1.65 0  128 258 
 PTB  HN ES       1926  1.35                             130   -0.0210  128 258 
 PTB  HZ I        1926  6.15        21.4 0.26            131            128 258 
 SPBC HE ES       1926  6.96                             125   -0.11 9  150 213 
 SPBC HZ I        1926 14.97        19.1 0.22            126            150 213 
 OCA  HZ EP       1925 47.51                             123   -0.89 9  160   0 
 OCA  HN ES       1926  9.25                             123    0.18 9  160   0 
 OCA  HZ I        1926 12.39        33.1 0.50            126            160   0 
 ZAR  HZ EP       1925 50.84                             119   -0.06 9  186 295 
 ZAR  HN ES       1926 14.11                             119    0.61 9  186 295 
 ZAR  HZ I        1926 17.81        21.9 0.32            120            186 295 
 NOR  HZ EP       1925 54.81                             115    0.40 8  218 232 
 NOR  HN ES       1926 19.13                             115   -0.63 8  218 232 
 NOR  HZ I        1926 24.71         9.1 0.20            116            218 232 
 CHI  HZ EP       1925 58.83                             112    1.15 8  243 191 
 CHI  HN ES       1926 25.28                             112   -0.30 8  243 191 
 CHI  HZ I        1926 34.04         3.4 0.34            114            243 191 
 HEL  HE ES       1926 26.82                             111   -0.56 8  252 255 
 HEL  HZ I        1926 31.34         6.4 0.36            112            252 255 
 URE  HN ES   4   1926 27.00                             110   -2.34 0  266 294 
 URE  HZ I        1926 34.38        14.4 0.18            111            266 294 
 GUY2CHZ EP   4   1926  4.02                             108    1.52 0  284 233 
 GUY2CHN ES       1926 34.95                             108    0.80 7  284 233 
 GUY2CHZ I        1926 41.78         4.2 0.24                           284 233 
 SOCV BZ EP       1926  5.82                             106   -0.19 7  319  59 
 SOCV BN ES   4   1926 38.80                             106   -1.60 0  319  59 
                                                                                
