 2011 1111 1807 23.6 L   6.766 -73.093149.2  RSN  6 0.3 2.1LRSN                1
 GAP=145        0.57       2.6     4.5  4.3  0.4155E+00 -0.1623E+01 -0.2124E+01E
 Epicentro: LOS SANTOS - SANTANDER                                             3
 ACTION:UPD 12-07-13 16:09 OP:ep   STATUS:               ID:20111111180723 L   I
 2011-11-11-1804-52S.COL___179                                                 6
 STAT SP IPHASW D HRMM SECON CODA AMPLIT PERI AZIMU VELO AIN AR TRES W  DIS CAZ7
 BAR2 SZ EP       18 7 43.62                             171   -0.0410 21.6 207 
 BAR2 SZ ES       18 7 59.28                             171    0.0110 21.6 207 
 BAR2 SZ I        18 8  0.51        17.2 0.16                          21.6 207 
 PAM  SZ EP       18 7 46.44                             152    0.2410 76.9  34 
 PAM  SE ES   1   18 8  3.54                             152   -0.26 7 76.9  34 
 BRR  HZ EP       18 7 45.57                             151    0.0110 78.1 299 
 BRR  HZ I        18 7 45.90        42.1 0.15                          78.1 299 
 BRR  HE ES       18 8  2.94                             151    0.2810 78.1 299 
 RUS  HZ EP       18 7 47.68                             146    0.2210 96.6 179 
 RUS  HE ES       18 8  5.84                             146   -0.1910 96.6 179 
 OCA  SZ EP       18 7 52.56                             129   -0.09 9  165 351 
 OCA  SZ ES   1   18 8 14.88                             129   -0.39 7  165 351 
 OCA  SZ I        18 8 20.16        14.5 0.34                           165 351 
 NOR  SE ES   2   18 8 27.29                             119   -0.81 4  237 236 
                                                                                
