 2017  511 1223  0.6 L   6.754 -73.190150.9  RSN  4 0.3 1.0LRSN                1
 GAP=229        0.62       5.9     6.0  6.3  0.2508E+02 -0.1335E+01 -0.1098E+01E
 Epicentro: VILLANUEVA - SANTANDER                                             3
 ACTION:UPD 17-06-16 13:35 OP:jn   STATUS:               ID:20170511122300 L   I
 OLDACT:UP  17-05-11 22:32 OP:lv   STATUS:               ID:20170511121743     3
 OLDACT:REG 17-05-11 21:01 OP:lv   STATUS:               ID:20170511121743     3
 2017-05-11-1218-00M.COL___374                                                 6
 STAT SP IPHASW D HRMM SECON CODA AMPLIT PERI AZIMU VELO AIN AR TRES W  DIS CAZ7
 BRR  HZ EP       1223 22.34                             154    0.0710 69.7 304 
 BRR  HN ES       1223 38.89                             154   -0.2510 69.7 304 
 RUS  HZ EP       1223 24.68                             146    0.0910 96.0 173 
 RUS  HN ES   1   1223 43.44                             146    0.17 7 96.0 173 
 RUS  HZ I        1223 45.14         0.9 0.10            141           96.0 173 
 PTB  HZ EP   1   1223 27.20                             134   -0.33 7  142 260 
 PTB  HN ES   1   1223 48.29                             134   -0.22 7  142 260 
 PTB  HZ I        1223 53.43         2.3 0.52            130            142 260 
 ZAR  HZ EP   1   1223 32.90                             124   -0.27 6  202 294 
 ZAR  HN ES       1223 59.05                             124    0.50 9  202 294 
                                                                                
