 2016 1211 1212 29.7 L   6.758 -73.185139.8  RSN  4 0.3 1.1LRSN                1
 GAP=230        0.90       6.9     6.6  7.3  0.2297E+02  0.5933E+01  0.2427E+01E
 Epicentro: LOS SANTOS - SANTANDER                                             3
 ACTION:UPD 17-01-11 20:14 OP:rebc STATUS:               ID:20161211121229 L   I
 OLDACT:REG 16-12-11 20:59 OP:dnl  STATUS:               ID:20161211120746     3
 2016-12-11-1208-00M.COL___376                                                 6
 STAT SP IPHASW D HRMM SECON CODA AMPLIT PERI AZIMU VELO AIN AR TRES W  DIS CAZ7
 BAR2 EZ EP       1212 48.78                             172    0.2310 18.4 179 
 BAR2 EZ ES       1213  2.91                             172   -0.3210 18.4 179 
 BAR2 EZ I        1213  7.21         3.1 0.68            172           18.4 179 
 BRR  HZ EP       1212 50.17                             152    0.0110 69.8 304 
 BRR  HN ES       1213  6.24                             152    0.1510 69.8 304 
 BRR  HZ I        1213  9.98         3.4 0.18            153           69.8 304 
 RUS  HZ EP       1212 52.99                             144    0.3910 96.4 173 
 RUS  HN ES       1213 10.33                             144   -0.1010 96.4 173 
 RUS  HZ I        1213 12.68         1.3 0.30            147           96.4 173 
 PTB  HZ EP       1212 55.02                             132   -0.73 9  143 260 
 PTB  HE ES       1213 16.37                             132    0.33 9  143 260 
 PTB  HZ I        1213 19.71         2.2 0.14            134            143 260 
                                                                                
