 2013  911 1929 49.7 L   6.791 -73.153148.3  RSN  7 0.3 1.8LRSN                1
 GAP=136        0.86       3.6     3.8  5.6  0.1623E+01  0.4382E+01 -0.4107E+01E
 Epicentro: LOS SANTOS - SANTANDER                                             3
 ACTION:UPD 13-10-22 09:21 OP:ep   STATUS:               ID:20130911192949 L   I
 OLDACT:REG 13-09-11 15:27 OP:carl STATUS:               ID:20130911192959     3
 2013-09-11-1929-59M.COL___269                                                 6
 STAT SP IPHASW D HRMM SECON CODA AMPLIT PERI AZIMU VELO AIN AR TRES W  DIS CAZ7
 BAR2 SZ EP       1930  9.59                             171   -0.0710 22.2 188 
 BAR2 SZ ES       1930 24.82                             171   -0.3610 22.2 188 
 BAR2 SZ I        1930 27.08        13.5 0.26            170           22.2 188 
 BRR  HZ EP       1930 11.60                             153    0.4510 71.0 300 
 BRR  HN ES       1930 28.58                             153    0.7310 71.0 300 
 BRR  HN I        1930 32.55        22.3 0.18            152           71.0 300 
 PAM  SZ EP       1930 12.59                             151    0.2810 78.7  40 
 PAM  SN ES       1930 29.72                             151   -0.1910 78.7  40 
 PAM  SZ I        1930 31.64        11.1 0.54            155           78.7  40 
 RUS  HZ EP       1930 13.71                             145    0.0410 99.6 176 
 RUS  HN ES       1930 32.22                             145   -0.1210 99.6 176 
 RUS  HZ I        1930 33.47         4.6 0.30            148           99.6 176 
 PTB  HZ EP       1930 16.86                             133    0.03 9  147 259 
 PTB  HE ES       1930 37.63                             133   -0.32 9  147 259 
 PTB  HZ I        1930 44.68         5.7 0.36            133            147 259 
 ZAR  HZ EP   1   1930 22.69                             123    0.37 6  204 293 
 ZAR  HN ES       1930 47.52                             123   -0.20 9  204 293 
 ZAR  HZ I        1930 51.88         5.8 0.42            124            204 293 
 SML  HZ EP       1930 26.14                             118   -0.44 8  244 336 
 SML  HE ES       1930 54.92                             118   -0.38 8  244 336 
                                                                                
