 2015 1211 1742 16.9 L   6.807 -73.149147.8  RSN 18 0.6 2.9LRSN 3.4WRSN        1
 SPEC AVERAGE  MO 14.2 ST0.862 OM  2.6 f0 1.95 R1.2265 AL 0.00 WI 40.0 MW  3.4 3
 SPEC SD       MO  0.2 ST0.608 OM  0.5 f00.702 R0.4538 AL      WI      MW  0.2 3
 GAP=136        1.20       3.3     4.4  6.0 -0.1973E+01  0.8043E+01  0.1263E+01E
 Epicentro: LOS SANTOS - SANTANDER                                             3
 SPEC BAR2EH Z MO 14.1 ST  1.3 OM  2.2 f0 2.59 R0.7429 AL-0.00 WI 40.0 MW  3.3 3
 SPEC BAR2EH Z T174250 K 0.000 GD  149 VS 5.20 DE 3.50 Q0750.0 QA 1.50 VS 3.50 3
 SPEC BRR HH Z MO 14.0 ST  1.6 OM  2.1 f0 2.87 R0.6704 AL-0.00 WI 40.0 MW  3.3 3
 SPEC BRR HH Z T174254 K 0.000 GD  163 VS 5.20 DE 3.50 Q0750.0 QA 1.50 VS 3.50 3
 SPEC PAM EH Z MO 13.8 ST0.294 OM  1.9 f0 1.91 R1.0073 AL-0.00 WI 40.0 MW  3.2 3
 SPEC PAM EH Z T174255 K 0.000 GD  166 VS 5.20 DE 3.50 Q0750.0 QA 1.50 VS 3.50 3
 SPEC OCA HH Z MO 14.2 ST  1.7 OM  2.2 f0 2.49 R0.7727 AL-0.00 WI 40.0 MW  3.4 3
 SPEC OCA HH Z T1743 6 K 0.000 GD  217 VS 5.20 DE 3.50 Q0750.0 QA 1.50 VS 3.50 3
 SPEC ROSCBH Z MO 14.5 ST0.198 OM  2.3 f0 1.02 R1.8863 AL-0.00 WI 40.0 MW  3.6 3
 SPEC ROSCBH Z T174325 K 0.000 GD  293 VS 5.20 DE 3.50 Q0750.0 QA 1.50 VS 3.50 3
 SPECGUY2CHH Z MO 14.4 ST0.086 OM  2.2 f00.797 R2.4141 AL-0.00 WI 40.0 MW  3.6 3
 SPECGUY2CHH Z T174334 K 0.000 GD  335 VS 5.20 DE 3.50 Q0750.0 QA 1.50 Q1 0.00 3
 SPEC PRA HH Z MO 14.5 ST0.127 OM  2.2 f00.844 R2.2796 AL-0.00 WI 40.0 MW  3.6 3
 SPEC PRA HH Z T174351 K 0.000 GD  418 VS 5.20 DE 3.50 Q0750.0 QA 1.50 VS 3.50 3
 OLDACT:REG 15-12-11 23:40 OP:mh   STATUS:               ID:20151211173749     3
 ACTION:UPD 16-02-04 15:04 OP:cam  STATUS:               ID:20151211174216 L   I
 OLDACT:UP  15-12-12 02:02 OP:mh   STATUS:               ID:20151211173749     3
 2015-12-11-1737-49M.COL___337                                                 6
 STAT SP IPHASW D HRMM SECON CODA AMPLIT PERI AZIMU VELO AIN AR TRES W  DIS CAZ7
 BAR2 EZ EP       1742 37.01                             170    0.1910 24.0 189 
 BAR2 EZ ES       1742 51.97                             170   -0.3610 24.0 189 
 BAR2 EZ I        1742 53.18       182.6 0.30            169           24.0 189 
 BRR  HZ IP     C 1742 38.74                             153    0.4810 70.5 298 
 BRR  HN ES       1742 55.79                             153    0.8910 70.5 298 
 BRR  HZ I        1742 59.54       126.7 0.38            145           70.5 298 
 PAM  EZ IP     C 1742 39.76                             151    0.4210 77.0  40 
 PAM  EN ES       1742 56.95                             151    0.1310 77.0  40 
 PAM  EZ I        1743  0.02        56.1 0.44            149           77.0  40 
 RUS  HZ EP       1742 40.75                             144   -0.1810  101 176 
 RUS  HN ES       1742 59.36                             144   -0.3010  101 176 
 RUS  HZ I        1743  0.89        71.0 0.24            143            101 176 
 PTB  HZ EP       1742 43.36                             132   -0.68 9  148 259 
 PTB  HN ES       1743  5.00                             132   -0.19 9  148 259 
 PTB  HZ I        1743 10.84        43.2 0.14            127            148 259 
 OCA  HZ EP   1   1742 44.36                             130   -0.96 7  159 353 
 OCA  HN ES       1743  7.55                             130    0.08 9  159 353 
 OCA  HZ I        1743 14.95       155.5 0.44            125            159 353 
 SPBC HZ EP       1742 45.81                             129    0.20 9  164 219 
 SPBC HN ES       1743  7.33                             129   -0.66 9  164 219 
 SPBC HZ I        1743 12.13       105.7 0.15            125            164 219 
 ZAR  HZ EP       1742 49.51                             123    0.07 9  203 292 
 ZAR  HN ES       1743 14.64                             123   -0.16 9  203 292 
 ZAR  HZ I        1743 19.88        85.1 0.24            118            203 292 
 NOR  HZ EP   1   1742 52.93                             119    0.14 6  235 234 
 NOR  HN ES       1743 20.49                             119   -0.27 8  235 234 
 NOR  HZ I        1743 27.65        40.2 0.20            115            235 234 
 SML  HZ EP   1   1742 53.21                             118   -0.37 6  243 335 
 SML  HN ES       1743 21.48                             118   -0.68 8  243 335 
 SML  HZ I        1743 31.14        93.8 0.10            114            243 335 
 ROSC BZ EP   4   1742 56.82                             117    1.61 0  253 211 
 ROSC BN ES   4   1743 26.99                             117    1.92 0  253 211 
 ROSC BZ I        1743 31.40       107.6 0.40            114            253 211 
 HEL  HZ EP   1   1742 59.04                             115    1.82 6  272 256 
 HEL  HN ES       1743 29.24                             115    0.58 8  272 256 
 HEL  HZ I        1743 36.82        25.9 0.32            111            272 256 
 SOCV BZ EP   4   1742 58.71                             113   -1.34 0  301  57 
 SOCV BN ES   4   1743 30.38                             113   -3.31 0  301  57 
 GUY2CHZ EP   1   1743  1.05                             113    0.41 5  301 235 
 GUY2CHN ES   4   1743 36.09                             113    1.35 0  301 235 
 GUY2CHZ I        1743 42.99        31.9 0.60                           301 235 
 VIL  SZ EP       1743  0.65                             112    0.14 7  304 191 
 VIL  SN ES   4   1743 33.26                             112   -1.25 0  304 191 
 PTGC HZ EP   4   1743  0.09                             112   -0.88 0  310 159 
 PTGC HN ES   4   1743 33.29                             112   -2.03 0  310 159 
 PTGC HZ I        1743 39.40        23.5 0.42            110            310 159 
 DBB  SZ EP       1743  3.58                             110   -0.86 7  339 274 
 DBB  SZ I        1743 44.74        80.2 0.34            106            339 274 
 PRA  HZ EP   1   1743 10.39                             107   -0.18 4  392 209 
 PRA  HN ES       1743 53.38                             107    0.96 6  392 209 
 PRA  HZ I        1743 58.87        41.0 0.42            104            392 209 
 SJC  HZ EP   4   1743 10.45                             106   -2.01 0  408 327 
 SJC  HN ES   4   1743 51.79                             106   -3.98 0  408 327 
 SJC  HZ I        1744  6.90        14.9 0.26            103            408 327 
                                                                                
