 2010  111 1151 59.7 L   6.949 -73.021142.5  RSN  9 0.4 2.4LRSN                1
 GAP=196        0.68       3.9     9.8  6.9 -0.8820E+01  0.3123E+02  0.3630E+01E
 Epicentro: PIEDECUESTA - SANTANDER                                            3
 ACTION:UP  10-08-24 09:43 OP:vdl  STATUS:               ID:20100111115159 L   I
 2010-01-11-1149-49S.COL___097                                                 6
 STAT SP IPHASW D HRMM SECON CODA AMPLIT PERI AZIMU VELO SNR AR TRES W  DIS CAZ7
 GIR2 SZ EP   1   1152 18.86                             170     0.1 7   24 307 
 GIR2 SZ ES   2   1152 33.58                             170    -0.1 5   24 307 
 BAR2 SZ IP       1152 19.58                             162     0.110   43 204 
 BAR2 SZ ES   2   1152 34.55                             162    -0.4 5   43 204 
 RUS  BZ EP   1   1152 24.28                             139    -0.1 7  117 183 
 RUS  BE ES   2   1152 43.85                             139     0.2 5  117 183 
 RUS  BZ I        1152 45.31        18.7 0.23                           117 183 
 OCA  SZ EP   1   1152 26.66                             131     0.2 7  146 347 
 OCA  SZ ES   2   1152 47.41                             131     0.1 5  146 347 
 CHI  HZ EP   1   1152 39.16                             114    -0.2 6  268 197 
 CHI  HZ I        1152 40.22        16.4 0.39                           268 197 
 CHI  HN ES   2   1153 10.26                             114    -0.1 4  268 197 
 ROSC BZ EP   1   1152 40.37                             114     0.4 6  274 212 
 ROSC BE ES   2   1153 12.06                             114     0.6 4  274 212 
 ROSC BZ I        1153 22.13        13.2 0.31                           274 212 
 HEL  HZ EP   1   1152 40.87                             112    -0.9 5  290 253 
 HEL  HZ I        1153 18.17        10.2 0.25                           290 253 
 RREF BZ EP       1152 48.79                             109     0.6 7  343 229 
 RREF BN ES   2   1153 25.93                             109     0.0 3  343 229 
 RREF BZ I        1153 34.30        16.3 0.43                           343 229 
 PRA  HZ EP   1   1152 54.62                             105    -1.0 4  413 210 
 PRA  HN ES   2   1153 39.19                             105     0.0 3  413 210 
                                                                                
