 2010  711 1623 21.3 L   6.824 -73.054140.0  RSN  5 0.3 1.4LRSN                1
 GAP=166        0.56       4.9     9.8  9.8  0.7752E+01 -0.4858E+02 -0.1967E+02E
 Epicentro: LOS SANTOS - SANTANDER                                             3
 ACTION:UPD 10-12-01 15:16 OP:pat  STATUS:               ID:20100711162321 L   I
 2010-07-11-1620-50S.COL___120                                                 6
 STAT SP IPHASW D HRMM SECON CODA AMPLIT PERI AZIMU VELO AIN AR TRES W  DIS CAZ7
 BAR2 SZ EP   1   1623 40.31                             168    -0.1 7   29 209 
 BAR2 SZ ES   2   1623 55.02                             168    -0.2 5   29 209 
 BRR  HZ EP   1   1623 42.10                             149    -0.2 7   79 293 
 BRR  HE ES   2   1623 58.96                             149     0.3 5   79 293 
 BRR  HZ I        1624  4.78         8.4 0.50                            79 293 
 RUS  HZ EP   1   1623 44.74                             142     0.1 7  103 182 
 BRI  SZ EP   1   1623 43.86                             142    -0.3 7  103  16 
 RUS  HE ES   2   1624  3.03                             142     0.1 5  103 182 
 RUS  HZ I        1624  3.94         2.4 0.27                           103 182 
 GRA  SZ EP   1   1623 46.05                             137     0.5 7  121  13 
                                                                                
