 2017 1211 1941 44.6 L   6.821 -73.153143.3  RSN 19 0.7 2.4LRSN                1
 GAP= 65        1.45       3.2     3.9  7.1  0.3230E+00  0.6919E+01  0.3002E+01E
 Epicentro: LOS SANTOS - SANTANDER                                             3
 ACTION:UPD 18-01-04 13:19 OP:rebc STATUS:               ID:20171211194144 L   I
 OLDACT:UP  17-12-12 04:21 OP:osc  STATUS:               ID:20171211193130     3
 OLDACT:REG 17-12-11 22:45 OP:mg   STATUS:               ID:20171211193130     3
 2017-12-11-1938-00M.COL___479                                                 6
 STAT SP IPHASW D HRMM SECON CODA AMPLIT PERI AZIMU VELO AIN AR TRES W  DIS CAZ7
 BAR2 EZ EP       1942  3.78                             169   -0.1710 25.4 187 
 BAR2 EZ ES       1942 18.87                             169   -0.1910 25.4 187 
 BAR2 EZ I        1942 20.07       106.7 0.18            168           25.4 187 
 PAM  EZ EP     C 1942  6.61                             151    0.1610 76.2  41 
 PAM  EN ES       1942 23.53                             151    0.0110 76.2  41 
 PAM  EZ I        1942 28.08        18.0 0.34            150           76.2  41 
 PTB  HZ EP       1942 10.42                             131   -0.89 9  147 258 
 PTB  HE ES       1942 31.86                             131   -0.29 9  147 258 
 PTB  HZ I        1942 33.28        18.1 0.24            132            147 258 
 TAM  HZ EP       1942 12.14                             130   -0.05 9  157 106 
 TAM  HZ I        1942 32.80        15.7 0.36            128            157 106 
 TAM  HN ES       1942 33.66                             130   -0.06 9  157 106 
 OCA  HZ EP       1942 12.24                             129   -0.23 9  158 353 
 OCA  HN ES       1942 34.93                             129    0.70 9  158 353 
 OCA  HZ I        1942 37.93        70.6 0.30            130            158 353 
 SPBC HZ EP       1942 12.77                             128   -0.23 9  164 218 
 SPBC HN ES       1942 34.97                             128   -0.20 9  164 218 
 SPBC HZ I        1942 41.12        27.3 0.13            128            164 218 
 YPLC HZ EP       1942 14.19                             126   -0.23 9  179 151 
 YPLC HN ES       1942 38.16                             126    0.45 9  179 151 
 YPLC HZ I        1942 40.55        16.8 0.28            124            179 151 
 ZAR  HZ EP       1942 17.58                             122    0.89 9  202 292 
 ZAR  HE ES       1942 42.35                             122    0.61 9  202 292 
 ZAR  HZ I        1942 47.53        31.2 0.54            123            202 292 
 ROSC BZ EP       1942 24.00                             116    1.28 8  254 211 
 ROSC BN ES   4   1942 47.13                             116   -5.35 0  254 211 
 ROSC BZ I        1942 56.35        18.6 0.40            116            254 211 
 URE  HZ EP       1942 24.60                             113   -0.74 7  282 292 
 URE  HE ES       1942 55.59                             113   -1.55 7  282 292 
 DRL03HZ EP       1942 26.93                             113    1.13 7  287 353 
 DRL03HN ES       1942 57.65                             113   -0.31 7  287 353 
 GUY2CHZ EP       1942 28.38                             112    0.24 7  302 234 
 GUY2CHN ES       1943  2.67                             112    0.55 7  302 234 
 GUY2CHZ I        1943 10.38        16.4 0.38                           302 234 
 VIL  EZ EP       1942 27.47                             111   -0.64 7  305 191 
 VIL  EN ES       1943  2.71                             111    0.64 7  305 191 
 PTGC HZ EP       1942 26.88                             111   -1.71 7  311 159 
 PTGC HE ES   4   1943  0.86                             111   -2.07 0  311 159 
 LL6C HE ES       1943  5.10                             110   -0.16 7  323 358 
 CBOC HZ EP       1942 31.92                             109    0.54 7  334 252 
 CBOC HE ES   4   1943  2.34                             109   -5.54 0  334 252 
 PRA  HZ EP       1942 37.55                             106   -0.64 6  394 209 
 PRA  HE ES       1943 21.07                             106    1.06 6  394 209 
 PRA  HZ I        1943 26.55        14.0 0.26            106            394 209 
 ORTC HZ EP       1942 39.08                             106    0.51 6  397 216 
 ORTC HN ES   4   1943 22.96                             106    2.28 0  397 216 
 ORTC HZ I        1943 28.20         7.7 0.26            106            397 216 
 SJC  HZ EP   4   1942 37.77                             105   -2.01 0  407 327 
 SJC  HE ES   4   1943 19.59                             105   -3.24 0  407 327 
 SJC  HZ I        1943 23.69         5.8 0.52            105            407 327 
                                                                                
