 2010  811 1230 49.4 L   6.834 -73.038143.2  RSN  5 0.2 1.6LRSN                1
 GAP=170        0.57       3.1     5.8  5.8 -0.3889E+00 -0.1391E+02 -0.3136E+01E
 Epicentro: CEPITA - SANTANDER                                                 3
 ACTION:UP  10-09-07 10:54 OP:vdl  STATUS:               ID:20100811123049 L   I
 2010-08-11-1226-39S.COL___127                                                 6
 STAT SP IPHASW D HRMM SECON CODA AMPLIT PERI AZIMU VELO SNR AR TRES W  DIS CAZ7
 BAR2 SZ EP       1231  8.87                             167    -0.110   31 211 
 BAR2 SZ ES   1   1231 23.98                                    -0.2 7   31 211 
 BAR2 SZ I        1231 25.55         7.8 0.70                            31 211 
 BRR  HZ EP       1231 10.66                             149    -0.210   80 292 
 BRR  HN ES       1231 27.67                             149     0.110   80 292 
 BRR  HZ I        1231 31.03        11.1 0.28                            80 292 
 RUS  HZ EP   1   1231 13.25                             142     0.1 7  104 183 
 RUS  HN ES   1   1231 31.84                             142     0.1 7  104 183 
 RUS  HZ I        1231 32.73         3.2 0.12                           104 183 
 GUE  SZ EP   1   1231 13.96                             141     0.5 7  111   6 
 GRA  SZ EP       1231 13.73                             138    -0.110  119  13 
 GRA  SZ ES   1   1231 32.89                             138    -0.1 7  119  13 
 GRA  SZ I        1231 36.04         7.7 0.03                           119  13 
                                                                                
