 2012  711 1751 23.4 L   6.687 -73.410122.0  RSN  4 0.3 1.2LRSN                1
 GAP=148        0.79       5.7     5.8  7.2  0.1804E+02  0.1037E+02  0.9784E+01E
 Epicentro: EL CARMEN DE CHUCURI - SANTANDER                                   3
 ACTION:UPD 12-08-14 11:44 OP:ep   STATUS:               ID:20120711175123 L   I
 2012-07-11-1750-00M.COL___193                                                 6
 STAT SP IPHASW D HRMM SECON CODA AMPLIT PERI AZIMU VELO AIN AR TRES W  DIS CAZ7
 BAR2 SZ EP       1751 40.37                             167     0.110   27 113 
 BAR2 SZ ES   1   1751 52.81                             167    -0.6 7   27 113 
 BAR2 SZ I        1751 54.40         5.6 0.28            170             27 113 
 BRR  HZ EP       1751 41.11                             153    -0.110   57 324 
 BRR  HZ I        1751 41.85         5.3 0.31            153             57 324 
 BRR  HN ES       1751 55.34                             153     0.310   57 324 
 RUS  HZ EP       1751 44.67                             140     0.210   95 158 
 RUS  HN ES       1752  0.95                             140     0.110   95 158 
 PTB  HZ EP       1751 45.29                             133    -0.310  117 262 
 PTB  HN ES   1   1752  3.11                             133     0.1 7  117 262 
 PTB  HZ I        1752  8.16         1.6 0.19            131            117 262 
