 2015  211 1328 56.8 L   6.801 -73.150144.8  RSN  8 0.4 1.8LRSN                1
 GAP=136        1.09       3.8     4.6  6.5 -0.1299E+00  0.7616E+01 -0.3667E+01E
 Epicentro: LOS SANTOS - SANTANDER                                             3
 ACTION:UPD 15-04-30 21:25 OP:nd   STATUS:               ID:20150211132856 L   I
 OLDACT:ARG 15-02-11 20:09 OP:stll STATUS:               ID:20150211132745     3
 2015-02-11-1327-45M.COL___290                                                 6
 STAT SP IPHASW D HRMM SECON CODA AMPLIT PERI AZIMU VELO AIN AR TRES W  DIS CAZ7
 BAR2 EZ EP       1329 16.18                             170   -0.1110 23.4 189 
 BAR2 EZ ES       1329 31.26                             170   -0.2510 23.4 189 
 BAR2 EZ I        1329 32.93        15.4 0.24            171           23.4 189 
 BRR  HZ EP       1329 18.08                             152    0.2910 70.8 299 
 BRR  HE ES       1329 34.94                             152    0.7510 70.8 299 
 PAM  SZ EP       1329 18.89                             151   -0.0110 77.6  40 
 PAM  SN ES       1329 35.98                             151   -0.1810 77.6  40 
 PAM  SZ I        1329 38.48        17.5 0.54            153           77.6  40 
 RUS  HZ EP       1329 20.55                             144    0.1110  101 176 
 RUS  HZ I        1329 20.74         3.9 0.24            147            101 176 
 RUS  HN ES       1329 39.09                             144    0.1910  101 176 
 PTB  HZ EP       1329 23.11                             132   -0.52 9  147 259 
 PTB  HE ES       1329 44.16                             132   -0.41 9  147 259 
 PTB  HZ I        1329 49.87         8.8 0.28            132            147 259 
 SPBC HZ EP       1329 25.01                             129   -0.17 9  163 219 
 SPBC HN ES       1329 47.20                             129   -0.14 9  163 219 
 ZAR  HZ EP       1329 30.34                             122    1.23 9  204 292 
 ZAR  HE ES       1329 54.15                             122   -0.18 9  204 292 
 ZAR  HZ I        1330  1.68         7.0 0.32            123            204 292 
 SML  HZ EP       1329 33.14                             117   -0.17 8  243 335 
 SML  HN ES       1330  1.24                             117   -0.58 8  243 335 
                                                                                
