 2017 1011 1640 39.0 L   6.771 -73.157137.7  RSN  8 0.4 1.7LRSN                1
 GAP=112        0.97       3.6     3.9  6.4  0.3704E+00  0.9567E+01  0.6328E+01E
 Epicentro: LOS SANTOS - SANTANDER                                             3
 ACTION:UPD 17-11-07 19:30 OP:rebc STATUS:               ID:20171011164039 L   I
 OLDACT:REG 17-10-11 19:27 OP:lv   STATUS:               ID:20171011163742     3
 2017-10-11-1638-00M.COL___435                                                 6
 STAT SP IPHASW D HRMM SECON CODA AMPLIT PERI AZIMU VELO AIN AR TRES W  DIS CAZ7
 BAR2 EZ EP       1640 57.57                             171   -0.0110 20.0 188 
 BAR2 EZ ES       1641 12.14                             171    0.0610 20.0 188 
 BAR2 EZ I        1641 13.83        16.3 0.14            170           20.0 188 
 PAM  EZ EP       1641  0.52                             148   -0.0310 80.6  39 
 PAM  EN ES       1641 17.71                             148    0.3410 80.6  39 
 PAM  EZ I        1641 19.80         6.5 0.46            152           80.6  39 
 RUS  HZ EP       1641  1.53                             143   -0.1910 97.5 175 
 RUS  HN ES       1641 19.67                             143    0.2110 97.5 175 
 RUS  HZ I        1641 21.08         6.1 0.20            144           97.5 175 
 YPLC HZ EP       1641  8.17                             125    0.18 9  175 150 
 YPLC HN ES       1641 29.71                             125   -0.90 9  175 150 
 YPLC HZ I        1641 32.57         8.1 0.30            127            175 150 
 ZAR  HN ES       1641 35.25                             120   -0.58 9  204 293 
 ZAR  HZ I        1641 41.77         4.7 0.11            121            204 293 
 NOR  HZ EP       1641 13.90                             117   -0.05 8  232 235 
 NOR  HN ES       1641 40.95                             117   -0.27 8  232 235 
 NOR  HZ I        1641 45.73         4.7 0.14            118            232 235 
 CHI  HZ EP       1641 15.73                             116   -0.15 8  245 195 
 CHI  HN ES       1641 45.28                             116    0.63 8  245 195 
 CHI  HZ I        1641 50.43         2.2 0.24            117            245 195 
 GUY2CHZ EP       1641 22.85                             111    0.94 7  298 235 
 GUY2CHN ES       1641 55.45                             111    0.06 7  298 235 
 GUY2CHZ I        1642  3.91         4.6 0.34                           298 235 
                                                                                
