 2012  711 1048 43.7 L   6.762 -73.170137.7  RSN  7 0.4 2.1LRSN                1
 GAP=135        1.05       4.3     4.6  7.1 -0.7286E+00  0.6582E+01 -0.4141E+01E
 Epicentro: LOS SANTOS - SANTANDER                                             3
 ACTION:UPD 12-08-14 11:44 OP:ep   STATUS:               ID:20120711104843 L   I
 2012-07-11-1040-00M.COL___187                                                 6
 STAT SP IPHASW D HRMM SECON CODA AMPLIT PERI AZIMU VELO AIN AR TRES W  DIS CAZ7
 BAR2 SZ EP       1049  2.57                             172     0.310   19 184 
 BAR2 SZ ES   1   1049 16.67                             172    -0.1 7   19 184 
 BAR2 SZ I        1049 18.23        22.6 0.25            171             19 184 
 BRR  HZ EP       1049  4.43                             151     0.510   71 303 
 BRR  HZ I        1049  4.98        52.2 0.10            149             71 303 
 BRR  HE ES       1049 20.04                             151     0.310   71 303 
 PAM  SZ EP       1049  5.64                             148     0.310   82  39 
 PAM  SN ES       1049 22.42                             148     0.110   82  39 
 RUS  HZ EP       1049  6.51                             143     0.110   97 174 
 RUS  HE ES       1049 23.67                             143    -0.410   97 174 
 RUS  HZ I        1049 26.42        11.4 0.28            145             97 174 
 PTB  HZ EP       1049  9.23                             131    -0.5 9  144 260 
 PTB  HN ES       1049 29.79                             131    -0.2 9  144 260 
 PTB  HZ I        1049 32.61         9.1 0.10            130            144 260 
 OCA  HZ EP       1049 11.35                             127    -0.4 9  164 354 
 OCA  HE ES   1   1049 32.72                             127    -0.9 7  164 354 
 OCA  HZ I        1049 34.79        29.9 0.24            128            164 354 
 ZAR  HZ EP       1049 15.72                             121     0.2 9  203 294 
 ZAR  HN ES   1   1049 40.66                             121     0.3 6  203 294 
 ZAR  HZ I        1049 49.25         8.9 0.21            121            203 294 
