 2017  211 1144 11.7 L   5.920 -73.597125.6  RSN  6 0.3 1.5LRSN                1
 GAP=120        0.90       3.1     4.6  7.9  0.3834E+01  0.1526E+02  0.4105E+01E
 Epicentro: BARBOSA - SANTANDER                                                3
 ACTION:UPD 17-05-24 15:35 OP:jn   STATUS:               ID:20170211114411 L   I
 OLDACT:REG 17-02-11 21:43 OP:edw  STATUS:               ID:20170211113744     3
 2017-02-11-1138-00M.COL___346                                                 6
 STAT SP IPHASW D HRMM SECON CODA AMPLIT PERI AZIMU VELO AIN AR TRES W  DIS CAZ7
 RUS  HZ IP     D 1144 30.59                             154   -0.0410 57.0  93 
 RUS  HN ES       1144 45.30                             154   -0.0710 57.0  93 
 RUS  HZ I        1144 46.10         3.0 0.26            163           57.0  93 
 BAR2 EZ EP       1144 32.27                             143    0.0710 87.3  32 
 BAR2 EZ ES       1144 47.94                             143   -0.2110 87.3  32 
 BAR2 EZ I        1144 49.51        15.5 0.12            147           87.3  32 
 PTB  HZ EP       1144 33.52                             134   -0.7810  117 306 
 PTB  HN ES       1144 51.66                             134   -0.2410  117 306 
 PTB  HZ I        1144 55.24         2.8 0.38            135            117 306 
 BRR  HZ EP       1144 35.73                             130    0.1210  132 354 
 BRR  HE ES       1144 54.65                             130    0.4310  132 354 
 BRR  HZ I        1145 22.64        15.3 0.40            133            132 354 
 CHI  HZ EP       1144 37.30                             128    0.03 9  144 186 
 CHI  HN ES       1144 57.53                             128    0.35 9  144 186 
 CHI  HZ I        1145  3.74         3.6 0.44            136            144 186 
 ZAR  HN ES       1145 11.51                             115    0.55 8  223 321 
                                                                                
