 2013  411 1226 41.4 L   6.735 -73.137136.6  RSN  5 0.4 1.4LRSN                1
 GAP=201        0.86       5.9     7.7  8.4  0.1869E+02  0.6993E+01 -0.7903E+01E
 Epicentro: JORDAN - SANTANDER                                                 3
 ACTION:UPD 13-05-22 14:37 OP:EP   STATUS:               ID:20130411122641 L   I
 2013-04-11-1220-00M.COL___245                                                 6
 STAT SP IPHASW D HRMM SECON CODA AMPLIT PERI AZIMU VELO AIN AR TRES W  DIS CAZ7
 BAR2 SZ EP       1226 59.86                             173    0.0710 16.6 198 
 BAR2 SZ ES   1   1227 13.43                             173   -0.72 7 16.6 198 
 BAR2 SZ I        1227 15.11         9.4 0.59            169           16.6 198 
 BRR  HZ EP       1227  1.77                             149   -0.0610 75.7 303 
 BRR  HE ES   1   1227 18.66                             149    0.89 7 75.7 303 
 RUS  HZ EP   1   1227  3.80                             144    0.08 7 93.4 176 
 RUS  HN ES   1   1227 21.37                             144    0.23 7 93.4 176 
 RUS  HZ I        1227 24.03         1.6 0.40            143           93.4 176 
 PTB  HZ EP       1227  7.65                             130    0.05 9  148 262 
 PTB  HN ES   1   1227 27.63                             130   -0.42 7  148 262 
 PTB  HZ I        1227 29.88         4.7 0.30            130            148 262 
 SML  HN ES   1   1227 46.72                             115   -0.34 6  251 336 
                                                                                
