 2015  111 1338 26.2 L   6.802 -73.123141.1  RSN  5 0.4 1.7LRSN                1
 GAP=204        0.95       6.5     6.5  7.2 -0.8532E+01  0.7957E+01 -0.1390E+02E
 Epicentro: LOS SANTOS - SANTANDER                                             3
 ACTION:UPD 15-03-02 15:38 OP:nd   STATUS:               ID:20150111133826 L   I
 OLDACT:UP  15-01-11 23:40 OP:mh   STATUS:               ID:20150111133550     3
 OLDACT:UP  15-01-11 23:39 OP:mh   STATUS:               ID:20150111133550     3
 OLDACT:REG 15-01-11 23:37 OP:mh   STATUS:               ID:20150111133550     3
 2015-01-11-1335-50M.COL___255                                                 6
 STAT SP IPHASW D HRMM SECON CODA AMPLIT PERI AZIMU VELO AIN AR TRES W  DIS CAZ7
 BAR2 EZ EP   1   1338 45.87                             170    0.54 7 24.1 196 
 BAR2 EZ ES       1338 59.96                             170   -0.2610 24.1 196 
 BAR2 EZ I        1339  2.05         7.9 0.12            170           24.1 196 
 BRR  HZ EP       1338 47.27                             151    0.2610 73.3 297 
 BRR  HN ES       1339  3.68                             151    0.4710 73.3 297 
 BRR  HZ I        1339  8.89        10.8 0.12            149           73.3 297 
 PTB  HZ EP       1338 52.76                             130   -0.31 9  150 259 
 PTB  HN ES       1339 13.50                             130   -0.49 9  150 259 
 PTB  HZ I        1339 17.41         5.1 0.16            132            150 259 
 OCA  HZ EP       1338 54.23                             128    0.03 9  160 352 
 OCA  HN ES   1   1339 15.33                             128   -0.68 7  160 352 
 OCA  HZ I        1339 17.03         5.9 0.34            131            160 352 
 ZAR  HZ EP       1338 58.51                             121   -0.11 8  206 292 
 ZAR  HN ES   1   1339 24.60                             121    0.72 6  206 292 
 ZAR  HZ I        1339 27.07         5.3 0.14            123            206 292 
                                                                                
