 2015  511 1009 22.8 L   6.891 -73.017147.3  RSN  6 0.4 1.5LRSN                1
 GAP=196        0.91       3.9     6.7  6.6  0.1139E+02 -0.4007E+01 -0.9352E+01E
 Epicentro: PIEDECUESTA - SANTANDER                                            3
 ACTION:UPD 15-09-10 22:03 OP:cam  STATUS:               ID:20150511100922 L   I
 OLDACT:UP  15-05-11 21:28 OP:drio STATUS:               ID:20150511100750     3
 OLDACT:UP  15-05-11 21:21 OP:drio STATUS:               ID:20150511100750     3
 OLDACT:REG 15-05-11 20:22 OP:drio STATUS:               ID:20150511100750     3
 2015-05-11-1007-50M.COL___273                                                 6
 STAT SP IPHASW D HRMM SECON CODA AMPLIT PERI AZIMU VELO AIN AR TRES W  DIS CAZ7
 BAR2 EZ EP       10 9 43.68                             165    0.6710 37.8 209 
 BAR2 EZ ES       10 9 58.86                             165    0.1010 37.8 209 
 BAR2 EZ I        1010  0.29         4.4 0.30            163           37.8 209 
 BRR  HZ EP       10 9 44.57                             150   -0.1110 80.5 287 
 BRR  HN ES       1010  1.98                             150    0.2510 80.5 287 
 RUS  HZ EP       10 9 47.22                             141   -0.2510  111 184 
 RUS  HN ES       1010  6.48                             141   -0.2110  111 184 
 RUS  HZ I        1010  9.50         2.3 0.24            142            111 184 
 OCA  HZ EP       10 9 50.23                             131   -0.32 9  153 347 
 OCA  HN ES       1010 11.71                             131   -0.48 9  153 347 
 ZAR  HZ EP       10 9 56.11                             121   -0.28 8  214 288 
 ZAR  HN ES       1010 22.35                             121   -0.23 8  214 288 
 ZAR  HZ I        1010 27.91         3.4 0.30            121            214 288 
 SML  HZ EP       10 9 59.94                             118    0.69 8  241 331 
 SML  HN ES       1010 27.89                             118    0.22 8  241 331 
 SML  HZ I        1010 34.80         4.2 0.28            118            241 331 
                                                                                
