 2013  211 1531  2.6 L   6.822 -73.094151.3  RSN 16 0.5 2.7LRSN                1
 GAP=142        1.18       3.4     4.7  6.8 -0.1071E+01  0.8519E+01  0.3877E+01E
 Epicentro: LOS SANTOS - SANTANDER                                             3
 ACTION:UPD 13-03-12 09:32 OP:ep   STATUS:               ID:20130211153102 L   I
 2013-02-11-1530-00M.COL___240                                                 6
 STAT SP IPHASW D HRMM SECON CODA AMPLIT PERI AZIMU VELO AIN AR TRES W  DIS CAZ7
 BAR2 SZ IP     D 1531 23.01                             169   -0.0110 27.2 201 
 PAM  SZ IP     D 1531 25.80                             153    0.6510 71.9  37 
 PAM  SZ I        1531 25.91       123.5 0.22            149           71.9  37 
 PAM  SN ES       1531 42.91                             153    0.2110 71.9  37 
 BRR  HZ IP     C 1531 24.80                             152    0.1910 75.1 295 
 BRR  HN ES       1531 42.37                             152    0.6210 75.1 295 
 BRR  HZ I        1531 45.22        82.8 0.30            143           75.1 295 
 RUS  HZ IP     D 1531 26.98                             144   -0.1210  103 179 
 RUS  HN ES       1531 45.82                             144   -0.3610  103 179 
 RUS  HZ I        1531 46.77        98.9 0.34            133            103 179 
 RUS  HZ E      C 1538 40.65                                            103 179 
 PTB  HZ EP       1531 30.01                             132   -0.60 9  154 258 
 PTB  HZ ES   1   1531 51.50                             132   -0.92 7  154 258 
 OCA  HZ EP   1   1531 31.96                             131    0.72 7  159 351 
 OCA  HN ES       1531 52.98                             131   -0.56 9  159 351 
 OCA  HZ I        1531 57.57        36.4 0.18            122            159 351 
 ZAR  HZ EP       1531 35.82                             123   -0.08 8  208 291 
 ZAR  HN ES       1532  1.55                             123   -0.29 8  208 291 
 ZAR  HZ I        1532  6.59        50.6 0.26            113            208 291 
 NOR  HZ EP       1531 39.20                             119   -0.14 8  241 235 
 NOR  HN ES       1532  8.87                             119    0.90 8  241 235 
 SML  HZ EP   1   1531 39.26                             119   -0.35 6  244 334 
 SML  HN ES   1   1532  7.03                             119   -1.41 6  244 334 
 SML  HZ I        1532 12.05        87.7 0.26            110            244 334 
 CHI  HZ EP       1531 40.91                             118   -0.17 8  253 196 
 CHI  HN I        1531 43.08        42.8 0.14            108            253 196 
 CHI  HN ES       1532 10.25                             118   -0.80 8  253 196 
 ROSC BZ EP   4   1531 43.08                             117    1.46 0  258 212 
 ROSC BZ I        1532 17.50        53.4 0.35            108            258 212 
 HEL  HZ EP       1531 44.56                             115    0.74 7  278 256 
 HEL  HN ES       1532 16.61                             115    0.68 7  278 256 
 HEL  HZ I        1532 21.78        17.9 0.22            106            278 256 
 VIL  SZ EP   1   1531 46.57                             113   -0.15 5  307 193 
 DBB  SZ EP   1   1531 51.07                             110    0.09 5  345 274 
 COD  HZ EP   1   1531 51.20                             110    0.17 5  346 354 
 COD  HZ I        1531 52.99         8.7 0.48            103            346 354 
 ANIL HZ EP       1531 53.55                             109    0.22 6  363 225 
 ANIL HZ I        1532 43.58        17.4 0.36            101            363 225 
                                                                                
