 2012  411 1314 24.9 L   6.781 -73.161151.4  RSN  5 0.4 1.5LRSN                1
 GAP=147        0.82       9.0     5.2  8.6 -0.7101E+01  0.7346E+01  0.6136E+01E
 Epicentro: LOS SANTOS - SANTANDER                                             3
 ACTION:UPD 12-07-05 11:52 OP:tino STATUS:               ID:20120411131424 L   I
 2012-04-11-1310-00M.COL___177                                                 6
 STAT SP IPHASW D HRMM SECON CODA AMPLIT PERI AZIMU VELO AIN AR TRES W  DIS CAZ7
 BAR2 SZ EP       1314 45.25                             172     0.110   21 186 
 BAR2 SZ I        1314 45.50         6.5 0.19                            21 186 
 BAR2 SZ ES   1   1315  0.99                             172     0.0 7   21 186 
 BRR  HZ EP   1   1314 46.97                             154     0.3 7   71 301 
 BRR  HN ES   1   1315  4.17                             154     0.6 7   71 301 
 PAM  SZ EP   1   1314 48.12                             151     0.2 7   80  40 
 PAM  SZ I        1314 48.39         6.7 0.17                            80  40 
 PAM  SN ES   1   1315  5.15                             151    -0.6 7   80  40 
 PTB  HZ EP   1   1314 51.79                             134    -0.3 7  146 260 
 PTB  HN ES   1   1315 13.04                             134    -0.3 7  146 260 
 ZAR  HE ES   1   1315 22.98                             124    -0.2 6  203 293 
                                                                                
