 2017 1111 1953 24.5 L   5.908 -73.750107.4  RSN  4 0.1 1.3LRSN                1
 GAP=156        0.34       3.1     1.8  3.9 -0.3933E+01  0.3031E+01 -0.7385E+00E
 Epicentro: SUCRE - SANTANDER                                                  3
 ACTION:UPD 17-12-12 19:54 OP:rebc STATUS:               ID:20171111195324 L   I
 OLDACT:REG 17-11-11 21:20 OP:mg   STATUS:               ID:20171111194706     3
 2017-11-11-1948-00M.COL___435                                                 6
 STAT SP IPHASW D HRMM SECON CODA AMPLIT PERI AZIMU VELO AIN AR TRES W  DIS CAZ7
 RUS  HZ EP       1953 42.56                             143    0.0010 73.9  91 
 RUS  HN ES       1953 56.63                             143   -0.0010 73.9  91 
 RUS  HZ I        1953 58.55         2.9 0.22            148           73.9  91 
 BAR2 EZ EP       1953 44.12                             134   -0.0610 98.3  40 
 BAR2 EZ ES       1953 59.58                             134    0.0610 98.3  40 
 BAR2 EZ I        1954  1.09        14.6 0.30            139           98.3  40 
 NOR  HZ EP       1953 46.70                             125   -0.1710  130 253 
 NOR  HN ES       1954  4.28                             125   -0.0310  130 253 
 NOR  HZ I        1954  7.14         5.0 0.12            129            130 253 
 GUY2CHZ EP       1953 54.46                             114    0.18 9  194 247 
 GUY2CHN ES       1954 17.56                             114    0.06 9  194 247 
 GUY2CHZ I        1954 21.72         0.9 0.18                           194 247 
                                                                                
