 2017  111 1737 54.6 L   6.795 -73.109145.1  RSN  4 0.3 1.5LRSN                1
 GAP=141        0.83       4.7     6.6  7.3 -0.1301E+01 -0.1843E+01 -0.3115E+01E
 Epicentro: LOS SANTOS - SANTANDER                                             3
 ACTION:UPD 17-05-22 15:58 OP:jn   STATUS:               ID:20170111173754 L   I
 OLDACT:DUP 17-01-12 00:44 OP:ar   STATUS:               ID:20170111172701d    3
 OLDACT:DUP 17-01-12 00:39 OP:ar   STATUS:               ID:20170111172760d    3
 2017-01-11-1727-59S.COL___303                                                 6
 STAT SP IPHASW D HRMM SECON CODA AMPLIT PERI AZIMU VELO AIN AR TRES W  DIS CAZ7
 BAR2 EZ EP       1738 13.85                             170   -0.3310 23.8 200 
 BAR2 EZ ES       1738 28.95                             170   -0.4910 23.8 200 
 BAR2 EZ I        1738 30.04         8.9 0.26            171           23.8 200 
 BRR  HZ EP       1738 15.66                             151   -0.2610 75.1 297 
 BRR  HN ES       1738 32.91                             151    0.3810 75.1 297 
 PAM  EZ EP       1738 16.88                             151    0.2410 75.3  37 
 PAM  EN ES       1738 33.88                             151    0.0610 75.3  37 
 PAM  EZ I        1738 35.89         9.3 0.56            151           75.3  37 
 RUS  HZ EP   2   1738 18.44                             144    0.19 5 99.8 178 
 RUS  HN ES       1738 37.04                             144    0.3610 99.8 178 
 RUS  HZ I        1738 37.62         2.9 0.24            145           99.8 178 
                                                                                
