 2010 1111 1104 12.2 L   6.766 -73.093150.0  RSN 11 0.4 2.4LRSN                1
 GAP=165        0.77       2.8     4.9  5.1 -0.3690E+01  0.1932E+01 -0.2359E+00E
 Epicentro: LOS SANTOS - SANTANDER                                             3
 ACTION:UP  10-12-17 16:51 OP:REBC STATUS:               ID:20101111110412 L   I
 2010-11-11-1100-30S.COL___129                                                 6
 STAT SP IPHASW D HRMM SECON CODA AMPLIT PERI AZIMU VELO SNR AR TRES W  DIS CAZ7
 BAR2 SZ EP       11 4 32.29                             171     0.010   22 208 
 BAR2 SZ ES   1   11 4 47.59                             171    -0.4 7   22 208 
 BAR2 SZ I        11 4 49.30        73.0 0.37                            22 208 
 BRR  HZ EP       11 4 34.43                             151     0.210   78 299 
 BRR  HE ES       11 4 51.66                             151     0.310   78 299 
 BRR  HZ I        11 4 53.45        59.9 0.21                            78 299 
 RUS  HZ EP       11 4 36.18                             146     0.110   97 179 
 RUS  HE ES       11 4 54.94                             146     0.210   97 179 
 RUS  HZ I        11 4 56.43        34.4 0.16                            97 179 
 GUE  SZ EP       11 4 37.74                             140     0.210  119   9 
 GRA  SZ EP       11 4 37.48                             138    -0.510  128  14 
 GRA  SZ ES   2   11 4 57.38                             138    -0.7 5  128  14 
 GRA  SZ I        11 4 59.20        24.9 0.26                           128  14 
 OCA  SZ EP   1   11 4 41.28                             130     0.0 7  165 351 
 OCA  SZ ES       11 5  4.14                             130     0.2 9  165 351 
 OCA  SZ I        11 5  8.65        23.8 0.07                           165 351 
 NOR  SZ EP   1   11 4 48.17                             119    -0.3 6  238 236 
 NOR  SN ES   1   11 5 16.31                             119    -0.5 6  238 236 
 ROSC BZ EP   2   11 4 50.34                             118    -0.2 4  253 213 
 ROSC BZ I        11 5 28.03        14.1 0.32                           253 213 
 HEL  HZ EP   2   11 4 53.27                             115     0.1 4  277 257 
 HEL  HE ES   2   11 5 24.16                             115    -1.0 4  277 257 
 HEL  HZ I        11 5 31.76        15.2 0.26                           277 257 
 RREF HZ EP   1   11 4 59.20                             112     0.4 5  324 231 
 RREF HN ES   2   11 5 34.84                             112    -0.3 3  324 231 
 RREF HZ I        11 5 41.84        17.7 0.17                           324 231 
 PRA  HZ EP   2   11 5  5.74                             107    -0.1 3  392 211 
 PRA  HN ES   2   11 5 48.52                             107     0.8 3  392 211 
                                                                                
