 2017 1211 1051 19.3 L   6.808 -73.185143.8  RSN  8 0.3 1.7LRSN                1
 GAP=108        0.65       2.1     2.6  5.1  0.5649E+00  0.3230E+01  0.3687E+01E
 Epicentro: ZAPATOCA - SANTANDER                                               3
 ACTION:UPD 18-01-04 13:19 OP:rebc STATUS:               ID:20171211105119 L   I
 OLDACT:REG 17-12-11 21:28 OP:mg   STATUS:               ID:20171211104739     3
 2017-12-11-1048-00M.COL___469                                                 6
 STAT SP IPHASW D HRMM SECON CODA AMPLIT PERI AZIMU VELO AIN AR TRES W  DIS CAZ7
 BAR2 EZ EP       1051 38.40                             170   -0.2710 23.9 179 
 BAR2 EZ ES   2   1051 53.52                             170   -0.28 5 23.9 179 
 BAR2 EZ I        1051 56.26        13.3 0.26            169           23.9 179 
 PAM  EZ EP       1051 41.39                             150   -0.0110 79.6  42 
 PAM  EN ES       1051 58.65                             150   -0.0210 79.6  42 
 PAM  EZ I        1052  1.53         5.6 0.38            155           79.6  42 
 PTB  HZ EP       1051 45.52                             132   -0.17 9  144 258 
 PTB  HN ES       1052  5.97                             132   -0.34 9  144 258 
 PTB  HZ I        1052 11.28         2.6 0.14            134            144 258 
 OCA  HZ EP       1051 47.40                             129    0.11 9  159 355 
 OCA  HE ES       1052  9.22                             129    0.07 9  159 355 
 OCA  HZ I        1052 12.98        10.2 0.27            133            159 355 
 YPLC HZ EP       1051 48.82                             126   -0.38 9  180 150 
 YPLC HE ES       1052 13.03                             126    0.47 9  180 150 
 YPLC HZ I        1052 13.80         7.7 0.26            130            180 150 
 ZAR  HZ EP       1051 51.30                             123    0.18 9  200 292 
 ZAR  HN ES       1052 16.43                             123    0.46 9  200 292 
 ZAR  HZ I        1052 21.68         3.3 0.12            125            200 292 
 CHI  HZ EP       1051 56.67                             117   -0.15 8  248 194 
 CHI  HN ES       1052 26.60                             117    0.48 8  248 194 
 CHI  HZ I        1052 32.30         1.6 0.35            119            248 194 
 PRA  HZ EP       1052 12.42                             106   -0.13 6  391 209 
 PRA  HE ES       1052 54.03                             106   -0.09 6  391 209 
 PRA  HZ I        1053  0.89         2.3 0.36            108            391 209 
                                                                                
