 2017  611 1957  0.1 L   6.853 -73.317125.8  RSN  6 0.6 1.8LRSN                1
 GAP=162        1.07       6.3     4.0  9.6  0.6513E+01 -0.4299E+01  0.6201E+01E
 Epicentro: BETULIA - SANTANDER                                                3
 ACTION:UPD 17-09-14 16:51 OP:jn   STATUS:               ID:20170611195700 L   I
 OLDACT:UP  17-06-12 00:14 OP:dani STATUS:               ID:20170611194740d    3
 OLDACT:UP  17-06-12 00:13 OP:dani STATUS:               ID:20170611194740d    3
 OLDACT:UP  17-06-12 00:12 OP:dani STATUS:               ID:20170611194740d    3
 OLDACT:UP  17-06-12 00:12 OP:dani STATUS:               ID:20170611194740d    3
 OLDACT:UP  17-06-12 00:12 OP:dani STATUS:               ID:20170611194740d    3
 OLDACT:UP  17-06-12 00:12 OP:dani STATUS:               ID:20170611194740d    3
 OLDACT:DUP 17-06-12 00:09 OP:dani STATUS:               ID:20170611194740d    3
 2017-06-11-1948-00M.COL___341                                                 6
 STAT SP IPHASW D HRMM SECON CODA AMPLIT PERI AZIMU VELO AIN AR TRES W  DIS CAZ7
 BRR  HZ EP       1957 18.22                             156    0.1410 51.9 303 
 BRR  HN ES       1957 32.36                             156    0.3010 51.9 303 
 BRR  HZ I        1957 33.94        18.7 0.14            156           51.9 303 
 PTB  HZ EP       1957 23.42                             131   -0.5210  131 255 
 PTB  HE ES   3   1957 41.30                             131   -1.19 2  131 255 
 PTB  HZ I        1957 45.44         7.2 0.20            131            131 255 
 SPBC HZ EP   3   1957 27.42                             125    0.86 2  157 212 
 SPBC HE ES       1957 47.31                             125    0.15 9  157 212 
 SPBC HZ I        1957 53.57         8.8 0.17            125            157 212 
 TAM  HZ EP       1957 28.75                             122    0.43 9  175 105 
 TAM  HE ES       1957 49.76                             122   -0.55 9  175 105 
 ZAR  HZ EP       1957 30.00                             120    0.73 9  184 293 
 ZAR  HE ES       1957 51.33                             120   -0.65 9  184 293 
 ZAR  HZ I        1957 56.33        12.8 0.36            122            184 293 
 NOR  HZ EP   3   1957 31.42                             115   -2.11 2  223 230 
 NOR  HN ES   3   1958  0.81                             115    1.25 2  223 230 
 NOR  HZ I        1958  1.12         3.7 0.40            116            223 230 
                                                                                
