 2015  411 1518 10.4 L   6.506 -73.046117.5  RSN  4 0.1 1.7LRSN                1
 GAP=249        0.32       4.5     2.2  6.5 -0.6429E+01 -0.6358E+01  0.1905E+02E
 Epicentro: MOGOTES - SANTANDER                                                3
 ACTION:UPD 15-06-03 16:54 OP:cam  STATUS:               ID:20150411151810 L   I
 OLDACT:UP  15-04-11 22:43 OP:mher STATUS:               ID:20150411150749     3
 OLDACT:REG 15-04-11 19:57 OP:mh   STATUS:               ID:20150411150749     3
 2015-04-11-1507-49M.COL___269                                                 6
 STAT SP IPHASW D HRMM SECON CODA AMPLIT PERI AZIMU VELO AIN AR TRES W  DIS CAZ7
 BAR2 EZ EP       1518 26.60                             171    0.0310 17.8 302 
 BAR2 EZ I    1   1518 45.38        11.7 0.15            164           17.8 302 
 BRR  HZ EP   1   1518 30.68                             137   -0.06 7 99.1 312 
 BRR  HN ES       1518 46.64                             137    0.0810 99.1 312 
 BRR  HZ I        1519 16.56        15.1 1.17            141           99.1 312 
 PAM  SZ EP       1518 31.52                             137    0.0510 99.8  23 
 PAM  SE ES       1518 47.79                             137   -0.0710 99.8  23 
 PAM  SZ I        1518 50.36         9.1 0.20            147           99.8  23 
 PTB  HN ES       1518 56.06                             123   -0.06 9  156 271 
 PTB  HZ I        1518 58.70         8.0 0.26            129            156 271 
                                                                                
