 2013  711 1753 39.1 L   6.780 -73.148146.9  RSN  7 0.3 2.0LRSN                1
 GAP= 72        0.80       4.4     4.0  5.0  0.1253E+01 -0.4691E+01 -0.1168E+01E
 Epicentro: LOS SANTOS - SANTANDER                                             3
 ACTION:UPD 13-08-12 10:37 OP:ep   STATUS:               ID:20130711175339 L   I
 OLDACT:DUP 13-07-11 19:14 OP:stll STATUS:               ID:20130711174852d    3
 2013-07-11-1748-51M.COL___218                                                 6
 STAT SP IPHASW D HRMM SECON CODA AMPLIT PERI AZIMU VELO AIN AR TRES W  DIS CAZ7
 BAR2 SZ EP       1753 58.92                             171    0.1310 21.1 190 
 BAR2 SZ ES       1754 13.68                             171   -0.5010 21.1 190 
 BAR2 SZ I        1754 15.50         8.7 0.50            170           21.1 190 
 GIR2 SZ EP       1753 58.87                             167   -0.0710 33.4 351 
 GIR2 SZ ES       1754 14.30                             167   -0.1410 33.4 351 
 BRR  HZ EP       1754  0.68                             152    0.2910 72.1 300 
 BRR  HN ES       1754 17.55                             152    0.5310 72.1 300 
 BRR  HN I        1754 18.16        26.1 0.44            153           72.1 300 
 RUS  HZ EP       1754  2.78                             145    0.0110 98.4 176 
 RUS  HN ES       1754 21.46                             145    0.1910 98.4 176 
 RUS  HN I        1754 23.24        17.8 0.26            144           98.4 176 
 PTB  HZ EP       1754  5.62                             132   -0.45 9  147 260 
 PTB  HE ES       1754 27.06                             132   -0.07 9  147 260 
 PTB  HE I        1754 28.95        15.1 0.16            133            147 260 
 CAPV BZ EP       1754  6.44                             132   -0.29 9  151  37 
 TAM  HZ IP     D 1754  7.11                             131    0.30 9  155 104 
                                                                                
