 2015  711 1413 15.0 L   6.773 -73.149142.0  RSN  4 0.2 1.8LRSN                1
 GAP=258        0.49       4.2     4.1  5.0  0.2790E+01  0.1120E+02  0.2225E+01E
 Epicentro: LOS SANTOS - SANTANDER                                             3
 ACTION:UPD 15-09-08 21:48 OP:cam  STATUS:               ID:20150711141314 L   I
 OLDACT:UP  15-07-27 16:26 OP:cam  STATUS:               ID:20150711141314 L   3
 OLDACT:UP  15-07-27 16:26 OP:cam  STATUS:               ID:20150711141314 L   3
 OLDACT:UP  15-07-27 09:46 OP:SPQ  STATUS:               ID:20150711141314 L   3
 OLDACT:REG 15-07-11 21:32 OP:ar   STATUS:               ID:20150711140747     3
 2015-07-11-1407-47M.COL___343                                                 6
 STAT SP IPHASW D HRMM SECON CODA AMPLIT PERI AZIMU VELO AIN AR TRES W  DIS CAZ7
 BAR2 EZ EP       1413 33.87                             171   -0.2410 20.3 191 
 BAR2 EZ ES       1413 49.19                             171    0.1710 20.3 191 
 BAR2 EZ I        1413 50.67         9.7 0.32            171           20.3 191 
 ZAR  HZ EP   1   1413 47.63                             121    0.35 6  205 293 
 ZAR  HE ES       1414 12.36                             121   -0.10 9  205 293 
 ZAR  HZ I        1414 18.32         9.4 0.34            122            205 293 
 NOR  HZ EP       1413 50.19                             118   -0.09 8  233 235 
 NOR  HN ES       1414 17.79                             118   -0.02 8  233 235 
 NOR  HZ I        1414 20.11         5.5 0.30            119            233 235 
 GUY2CHZ EP   2   1413 58.72                             112    0.53 4  299 235 
 GUY2CHZ I        1414 40.84         3.5 0.44                           299 235 
                                                                                
