 2016 1211 1120 16.1 L   6.729 -73.124143.7  RSN  4 0.3 1.0LRSN                1
 GAP=234        0.82       8.5    12.5  6.7  0.8050E+02  0.1616E+02  0.6616E+01E
 Epicentro: JORDAN - SANTANDER                                                 3
 ACTION:UPD 17-01-11 20:14 OP:rebc STATUS:               ID:20161211112015 L   I
 OLDACT:UP  16-12-14 15:54 OP:nlst STATUS:               ID:20161211112015 L   3
 OLDACT:DUP 16-12-11 21:48 OP:dnl  STATUS:               ID:20161211111740d    3
 OLDACT:REG 16-12-11 20:58 OP:dnl  STATUS:               ID:20161211111739     3
 2016-12-11-1118-00M.COL___373                                                 6
 STAT SP IPHASW D HRMM SECON CODA AMPLIT PERI AZIMU VELO AIN AR TRES W  DIS CAZ7
 BAR2 EZ EP       1120 35.50                             173    0.1110 16.4 203 
 BAR2 EZ ES       1120 49.88                             173   -0.5310 16.4 203 
 BAR2 EZ I        1120 51.68         1.7 0.11            165           16.4 203 
 BRR  HZ EP       1120 37.64                             150    0.2310 77.3 303 
 BRR  HN ES       1120 54.26                             150    0.2410 77.3 303 
 RUS  HZ EP       1120 38.98                             146   -0.1310 92.6 177 
 RUS  HE ES       1120 57.40                             146    0.3710 92.6 177 
 RUS  HZ I        1120 59.57         1.4 0.46            143           92.6 177 
 PTB  HZ EP       1120 42.69                             131   -0.34 9  149 262 
 PTB  HE ES   4   1121  2.99                             131   -1.02 0  149 262 
 PTB  HZ I        1121  7.00         2.2 0.18            129            149 262 
                                                                                
