 2011 1011 1904 44.0 L   5.803 -73.855108.6  RSN  5 0.3 1.8LRSN                1
 GAP=173        0.75       5.1     4.1 10.8 -0.9014E+01  0.1531E+02 -0.8739E+01E
 Epicentro: ALBANIA - SANTANDER                                                3
 ACTION:UPD 12-07-13 16:03 OP:ep   STATUS:               ID:20111011190444 L   I
 2011-10-11-1903-32S.COL___168                                                 6
 STAT SP IPHASW D HRMM SECON CODA AMPLIT PERI AZIMU VELO AIN AR TRES W  DIS CAZ7
 RUS  HZ EP       19 5  3.26                             139    0.1510 86.0  83 
 RUS  HN ES   1   19 5 17.78                             139   -0.23 7 86.0  83 
 BAR2 SZ I        19 5 23.49        10.2 0.18                           115  40 
 NOR  SZ EP       19 5  4.61                             129   -0.4810  115 257 
 NOR  SN ES   1   19 5 21.98                             129    0.45 7  115 257 
 BAR2 SZ ES   1   19 5 21.95                             130    0.11 7  115  40 
 BRR  HZ EP       19 5  8.34                             122    0.39 9  145   6 
 BRR  HZ I        19 5  9.37        16.7 0.16                           145   6 
 BRR  HN ES   1   19 5 26.21                             122   -0.40 7  145   6 
 ZAR  HE ES   3   19 5 40.41                             111   -0.25 2  217 329 
 ZAR  HZ I        19 5 41.41         3.4 0.14                           217 329 
                                                                                
