 2017  611 1248 26.4 L   6.365 -73.491112.4  RSN 12 0.5 1.9LRSN                1
 GAP=104        0.97       3.1     4.6  6.9  0.1652E+01 -0.2565E+01  0.4258E+01E
 Epicentro: CONTRATACION - SANTANDER                                           3
 ACTION:UPD 17-09-14 16:51 OP:jn   STATUS:               ID:20170611124826 L   I
 OLDACT:UP  17-06-11 22:36 OP:edw  STATUS:               ID:20170611124740     3
 OLDACT:REG 17-06-11 20:23 OP:edw  STATUS:               ID:20170611124740     3
 2017-06-11-1248-00M.COL___341                                                 6
 STAT SP IPHASW D HRMM SECON CODA AMPLIT PERI AZIMU VELO AIN AR TRES W  DIS CAZ7
 BRR  HZ IP     D 1248 44.78                             140   -0.3610 85.6 343 
 BRR  HN ES       1249  0.05                             140    0.2910 85.6 343 
 BRR  HZ I        1249  6.26        17.3 0.14            145           85.6 343 
 SPBC HZ EP       1248 46.42                             135   -0.2010  102 219 
 SPBC HN ES       1249  1.91                             135   -0.4710  102 219 
 SPBC HZ I        1249  7.31        36.2 0.10            138            102 219 
 PTB  HZ IP   9 D 1248 45.69                             132   -1.42 0  109 280 
 PTB  HN ES       1249  1.77                             132   -0.0610  109 280 
 PTB  HZ I        1249  3.37         9.4 0.12            136            109 280 
 TABC EZ EP   4   1248 54.95                             119    1.22 0  169 208 
 NOR  HZ EP       1248 53.01                             118   -0.96 9  177 240 
 NOR  HN ES   4   1249 13.65                             118   -1.81 0  177 240 
 NOR  HZ I        1249 17.36         9.2 0.18            122            177 240 
 TAM  HZ EP   2   1248 55.20                             116   -0.02 4  188  88 
 TAM  HE ES   2   1249 17.42                             116   -0.27 4  188  88 
 ROSC BZ EP   2   1248 55.43                             116   -0.67 4  192 209 
 ROSC BN ES   4   1249 20.63                             116    1.38 0  192 209 
 CHI  HZ EP       1248 57.03                             115    0.71 9  194 188 
 CHI  HN ES       1249 20.27                             115    0.63 9  194 188 
 CHI  HZ I        1249 27.41         2.9 0.38            119            194 188 
 ZAR  HZ EP       1248 56.18                             115    0.16 9  196 310 
 ZAR  HN ES       1249 19.41                             115    0.29 9  196 310 
 ZAR  HZ I        1249 23.97        23.8 0.42            119            196 310 
 HEL  HZ EP       1248 59.88                             111   -0.02 8  226 265 
 HEL  HN ES   1   1249 26.69                             111    0.67 6  226 265 
 HEL  HZ I        1249 31.38         5.8 0.24            115            226 265 
 VIL  EZ EP   2   1249  2.49                             109    0.16 4  250 185 
 VIL  EN ES   4   1249 33.23                             109    2.88 0  250 185 
 URE  HN ES   2   1249 34.53                             107   -0.21 4  273 304 
 ORTC HZ EP       1249 12.29                             103    0.22 7  334 216 
 ORTC HN ES   4   1249 49.15                             103    1.47 0  334 216 
 ORTC HZ I        1249 52.93         4.6 0.46            106            334 216 
                                                                                
