 2011 1211 1729 48.6 L   6.669 -73.168152.8  RSN  5 0.1 1.6LRSN                1
 GAP=177        0.35       4.1     3.5  6.0  0.3629E+01 -0.4472E+01 -0.3518E+01E
 Epicentro: VILLANUEVA - SANTANDER                                             3
 ACTION:UPD 12-07-13 16:15 OP:ep   STATUS:               ID:20111211172948 L   I
 2011-12-11-1727-39S.COL___152                                                 6
 STAT SP IPHASW D HRMM SECON CODA AMPLIT PERI AZIMU VELO AIN AR TRES W  DIS CAZ7
 BAR2 SZ EP   1   1730  8.85                             177   -0.04 7 8.62 190 
 BAR2 SZ I        1730  9.36         5.5 0.17                          8.62 190 
 GIR2 SZ EP   1   1730  9.33                             163   -0.23 7 45.4 356 
 BRR  HZ EP   1   1730 11.07                             152    0.21 7 77.2 309 
 BRR  HZ I        1730 11.35        21.3 0.16                          77.2 309 
 BRR  HN ES   2   1730 28.35                             152    0.14 5 77.2 309 
 RUS  HZ EP   1   1730 12.20                             149    0.08 7 86.4 174 
 RUS  HN ES   2   1730 30.45                             149    0.00 5 86.4 174 
 RUS  HZ I        1730 33.02         4.2 0.17                          86.4 174 
 PTB  HZ EP   1   1730 15.76                             134    0.00 7  143 264 
 PTB  HN ES   1   1730 36.84                             134   -0.09 7  143 264 
                                                                                
