 2013  711 1605 19.7 L   6.297 -73.643108.0  RSN  4 0.2 1.5LRSN                1
 GAP=161        0.63       4.8     2.9  6.1  0.4310E+01  0.2647E+01 -0.3040E+01E
 Epicentro: SANTA HELENA DEL OPON - SANTANDER                                  3
 ACTION:UPD 13-08-12 10:37 OP:ep   STATUS:               ID:20130711160519 L   I
 OLDACT:REG 13-07-11 15:55 OP:stll STATUS:               ID:20130711155849     3
 2013-07-11-1558-49M.COL___227                                                 6
 STAT SP IPHASW D HRMM SECON CODA AMPLIT PERI AZIMU VELO AIN AR TRES W  DIS CAZ7
 BAR2 SZ EP       16 5 36.72                             149    0.2110 60.5  57 
 BAR2 SZ ES       16 5 49.77                             149    0.1310 60.5  57 
 RUS  HZ EP       16 5 37.81                             142   -0.1610 76.4 126 
 RUS  HN ES       16 5 52.22                             142   -0.0210 76.4 126 
 RUS  HN I        16 5 54.72         4.9 0.18            144           76.4 126 
 PTB  HZ EP       16 5 39.05                             136    0.3510 93.9 287 
 PTB  HN ES       16 5 53.34                             136   -0.2110 93.9 287 
 PTB  HN I        16 5 55.60        14.3 0.44            138           93.9 287 
 GIR2 SZ EP       16 5 39.07                             134   -0.3110 99.7  30 
                                                                                
