 2010  711 1855 33.1 L   6.765 -73.031146.3  RSN  8 0.4 1.9LRSN                1
 GAP=170        0.75       5.0     9.0  7.8 -0.1795E+02  0.7699E+01  0.5797E+00E
 Epicentro: CEPITA - SANTANDER                                                 3
 ACTION:UPD 10-12-01 15:16 OP:pat  STATUS:               ID:20100711185533 L   I
 2010-07-11-1851-31S.COL___120                                                 6
 STAT SP IPHASW D HRMM SECON CODA AMPLIT PERI AZIMU VELO AIN AR TRES W  DIS CAZ7
 BAR2 SZ EP   1   1855 52.61                             170    -0.2 7   26 221 
 BAR2 SZ ES   2   1856  8.05                             170    -0.2 5   26 221 
 BRR  HZ EP   1   1855 54.75                             148    -0.3 7   84 297 
 BRR  HE ES   2   1856 11.91                             148    -0.3 5   84 297 
 BRR  HZ I        1856 13.19        17.7 0.13                            84 297 
 RUS  HZ EP   1   1855 56.54                             145    -0.1 7   97 183 
 RUS  HE ES   2   1856 15.47                             145     0.5 5   97 183 
 RUS  HZ I        1856 16.95         8.1 0.32                            97 183 
 BRI  SZ EP   1   1855 57.07                             142     0.0 7  108  14 
 BRI  SZ ES   2   1856 16.65                             142     0.9 5  108  14 
 GUE  SZ EP   1   1855 57.73                             139    -0.3 7  118   6 
 GRA  SZ EP   1   1855 58.40                             137     0.0 7  126  11 
 GRA  SZ ES   2   1856 18.43                             137     0.2 5  126  11 
 HEL  HZ EP   1   1856 15.53                             114     0.9 6  283 257 
 HEL  HZ I        1856 50.57         3.7 0.27                           283 257 
 PRA  HZ EP   1   1856 26.95                             106    -0.1 4  395 211 
 PRA  HZ I        1856 28.29         4.3 0.67                           395 211 
                                                                                
