 2014  611 1530 23.9 L   6.865 -73.171143.6  RSN  5 0.2 1.8LRSN                1
 GAP=200        0.53       2.9     7.5 10.6 -0.3624E+00 -0.5266E+02 -0.6452E+01E
 Epicentro: ZAPATOCA - SANTANDER                                               3
 ACTION:UPD 14-07-01 22:53 OP:nd   STATUS:               ID:20140611153023 L   I
 OLDACT:REG 14-06-11 20:45 OP:spq  STATUS:               ID:20140611152816     3
 2014-06-11-1528-16M.COL___253                                                 6
 STAT SP IPHASW D HRMM SECON CODA AMPLIT PERI AZIMU VELO AIN AR TRES W  DIS CAZ7
 RUS  HZ EP   2   1530 48.08                             141    0.10 5  108 175 
 PTB  HZ EP       1530 50.68                             132    0.1110  147 256 
 PTB  HN ES       1531 11.18                             132   -0.2010  147 256 
 SPBC HZ EP       1530 52.25                             128   -0.3510  167 217 
 SPBC HN ES       1531 15.19                             128    0.2010  167 217 
 SPBC HZ I        1531 18.48         6.3 0.14            124            167 217 
 SML  HZ EP   1   1530 59.33                             118   -0.23 6  236 335 
 SML  HN ES   1   1531 27.66                             118    0.27 6  236 335 
 SML  HZ I        1531 30.59         7.1 0.26            116            236 335 
 NOR  HZ EP   1   1531  0.13                             118    0.42 6  237 233 
 NOR  HN ES   1   1531 27.67                             118    0.03 6  237 233 
 NOR  HZ I        1531 34.59         4.1 0.14            115            237 233 
                                                                                
