 2010 1211 1001 58.0 L   6.812 -73.109141.7  RSN  4 0.1 1.2LRSN                1
 GAP=163        0.30       2.9    16.7  6.0 -0.3605E+02  0.3721E+02 -0.3002E+01E
 Epicentro: LOS SANTOS - SANTANDER                                             3
 ACTION:UP  11-01-14 15:24 OP:pat  STATUS:               ID:20101211100158 L   I
 2010-12-11-0959-50S.COL___136                                                 6
 STAT SP IPHASW D HRMM SECON CODA AMPLIT PERI AZIMU VELO SNR AR TRES W  DIS CAZ7
 BAR2 SZ EP       10 2 17.19                             169     0.010   26 199 
 BAR2 SZ I        10 2 17.63         4.7 0.15                            26 199 
 BAR2 SZ ES   3   10 2 31.94                             169    -0.2 2   26 199 
 GIR2 SZ EP   3   10 2 17.09                             167     0.0 2   31 342 
 RUS  HZ EP       10 2 21.35                             143     0.010  102 178 
 RUS  HN ES   1   10 2 39.67                             143     0.0 7  102 178 
 RUS  HZ I        10 2 41.71         2.1 0.40                           102 178 
 GRA  SZ ES   1   10 2 41.86                             137     0.0 7  123  16 
 GRA  SZ I        10 2 44.76         2.6 0.80                           123  16 
                                                                                
