 2015  911 1857 13.7 L   6.794 -73.162141.1  RSN 14 0.6 2.4LRSN                1
 GAP= 70        1.46       4.0     4.0  7.2 -0.1467E+01  0.8501E+01  0.6172E+00E
 Epicentro: LOS SANTOS - SANTANDER                                             3
 ACTION:UPD 15-10-28 16:25 OP:cam  STATUS:               ID:20150911185713 L   I
 OLDACT:DUP 15-09-12 01:19 OP:stll STATUS:               ID:20150911184750d    3
 2015-09-11-1847-48M.COL___335                                                 6
 STAT SP IPHASW D HRMM SECON CODA AMPLIT PERI AZIMU VELO AIN AR TRES W  DIS CAZ7
 BAR2 EZ IP     C 1857 33.09                             171    0.3210 22.4 186 
 BAR2 EZ ES       1857 47.81                             171    0.1710 22.4 186 
 BAR2 EZ I        1857 49.36        44.1 0.18            170           22.4 186 
 BRR  HZ IP     C 1857 34.96                             152    0.6610 69.9 300 
 BRR  HN ES       1857 51.29                             152    0.9510 69.9 300 
 BRR  HZ I        1857 52.61        48.8 0.28            146           69.9 300 
 PAM  EZ IP     C 1857 35.81                             149    0.2610 79.0  40 
 PAM  EZ I        1857 36.19        85.4 0.20            147           79.0  40 
 PAM  EN ES       1857 52.88                             149    0.3110 79.0  40 
 RUS  HZ EP       1857 37.02                             143    0.0410  100 175 
 RUS  HN ES       1857 54.98                             143   -0.1410  100 175 
 RUS  HZ I        1857 56.64        21.4 0.32            141            100 175 
 PTB  HZ EP       1857 39.85                             131   -0.29 9  146 259 
 PTB  HN ES       1857 59.68                             131   -1.06 9  146 259 
 PTB  HZ I        1858  3.07        22.1 0.20            126            146 259 
 TAM  HZ EP       1857 41.41                             129    0.23 9  157 105 
 TAM  HE ES       1858  1.64                             129   -0.97 9  157 105 
 TAM  HZ I        1858  3.53        23.6 0.52            127            157 105 
 OCA  HN ES       1858  3.05                             128   -0.50 9  161 354 
 OCA  HZ I        1858  8.17        51.4 0.26            124            161 354 
 SPBC HZ EP       1857 42.30                             128    0.59 9  162 219 
 SPBC HN ES       1858  2.87                             128   -0.67 9  162 219 
 SPBC HZ I        1858  5.59        40.6 0.12            124            162 219 
 ZAR  HZ EP       1857 46.19                             121    0.47 9  203 292 
 ZAR  HN ES       1858 11.39                             121    0.72 9  203 292 
 ZAR  HZ I        1858 16.89        35.9 0.28            117            203 292 
 NOR  HZ EP       1857 49.77                             118    0.79 8  233 234 
 NOR  HN ES       1858 16.01                             118   -0.48 8  233 234 
 NOR  HZ I        1858 23.86        19.4 0.18            114            233 234 
 SML  HZ EP       1857 49.05                             116   -1.02 8  244 336 
 SML  HE ES       1858 17.22                             116   -1.20 8  244 336 
 SML  HZ I        1858 23.45        17.3 0.10            112            244 336 
 HEL  HZ EP       1857 53.98                             114    0.49 8  270 256 
 HEL  HE ES       1858 24.17                             114   -0.33 8  270 256 
 HEL  HZ I        1858 32.22        16.0 0.32            110            270 256 
 GUY2CHZ EP       1857 57.21                             112    0.30 7  299 235 
 GUY2CHN ES       1858 30.29                             112   -0.30 7  299 235 
 GUY2CHZ I        1858 39.77         7.7 0.72                           299 235 
 DBB  SZ EP       1858  0.74                             109   -0.07 7  338 274 
 DBB  SZ I        1858 45.06        22.2 0.60            105            338 274 
                                                                                
