 2012  311 1130 18.2 L   6.751 -73.171138.3  RSN  6 0.3 1.6LRSN                1
 GAP=135        0.76       4.9     4.4  6.9  0.2135E+01  0.8043E+01 -0.1685E+01E
 ACTION:UP  12-03-31 23:18 OP:EP   STATUS:               ID:20120311113018 L   I
 2012-03-11-1130-00M.COL___193                                                 6
 STAT SP IPHASW D HRMM SECON CODA AMPLIT PERI AZIMU VELO SNR AR TRES W  DIS CAZ7
 BAR2 SZ EP   1   1130 36.96                             172     0.2 7   18 184 
 BAR2 SZ I        1130 37.51         6.8 0.11                            18 184 
 BAR2 SZ ES   1   1130 51.43                             172     0.1 7   18 184 
 BRR  HZ EP   1   1130 38.97                             151     0.4 7   72 303 
 BRR  HZ I        1130 39.32        16.3 0.11                            72 303 
 BRR  HN ES   1   1130 54.88                             151     0.5 7   72 303 
 PAM  SZ EP   1   1130 39.97                             147     0.0 7   83  39 
 PAM  SZ I        1130 40.23        13.1 0.15                            83  39 
 PAM  SN ES   1   1130 56.48                             147    -0.5 7   83  39 
 RUS  HZ EP   1   1130 41.05                             144     0.3 7   95 174 
 RUS  HN ES   1   1130 58.20                             144    -0.3 7   95 174 
 RUS  HZ I        1131  1.75         3.9 0.28                            95 174 
 PTB  HZ EP   1   1130 43.79                             131    -0.4 7  144 261 
 PTB  HZ I        1130 45.10         3.6 0.13                           144 261 
 PTB  HN ES   1   1131  4.26                             131    -0.2 7  144 261 
 ZAR  HZ EP   1   1130 50.12                             121     0.0 6  204 294 
 ZAR  HN ES   1   1131 14.65                             121    -0.3 6  204 294 
 ZAR  HZ I        1131 20.79         6.3 0.26                           204 294 
                                                                                
