 2014  711 1448 29.3 L   6.812 -73.173155.7  RSN  4 0.5 1.9LRSN                1
 GAP=199        1.11       6.1     9.4 10.6  0.2642E+02 -0.2168E+02 -0.2117E+02E
 Epicentro: LOS SANTOS - SANTANDER                                             3
 ACTION:UPD 15-03-16 20:43 OP:nd   STATUS:               ID:20140711144829 L   I
 OLDACT:UP  14-07-11 22:06 OP:cam  STATUS:               ID:20140711144000     3
 OLDACT:REG 14-07-11 19:51 OP:cam  STATUS:               ID:20140711144000     3
 2014-07-11-1440-00M.COL___282                                                 6
 STAT SP IPHASW D HRMM SECON CODA AMPLIT PERI AZIMU VELO AIN AR TRES W  DIS CAZ7
 BRR  HZ EP       1448 51.98                             155    0.6110 68.0 299 
 BRR  HE ES       1449  8.97                             155    0.3910 68.0 299 
 BRR  HZ I        1449 11.62        22.5 0.44            154           68.0 299 
 RUS  HZ EP       1448 53.77                             145   -0.3910  102 174 
 RUS  HE ES       1449 13.40                             145   -0.1410  102 174 
 RUS  HE I        1449 13.96         6.9 0.20            147            102 174 
 PTB  HZ EP       1448 57.03                             135    0.16 9  145 258 
 PTB  HN ES       1449 18.10                             135   -0.27 9  145 258 
 PTB  HZ I        1449 21.55         5.6 0.16            135            145 258 
 SML  HZ EP   1   1449  6.83                             120    0.57 6  241 336 
 SML  HN ES       1449 34.17                             120   -0.91 8  241 336 
 SML  HN I        1449 34.25         8.2 0.10            121            241 336 
                                                                                
