 2017 1111 1220 29.2 L   6.804 -73.124152.1  RSN  7 0.5 1.7LRSN                1
 GAP=157        1.11       6.1     5.8  8.2 -0.1306E+02  0.1602E+02 -0.2492E+01E
 Epicentro: LOS SANTOS - SANTANDER                                             3
 ACTION:UPD 17-12-12 19:54 OP:rebc STATUS:               ID:20171111122029 L   I
 OLDACT:UP  17-11-11 22:55 OP:mg   STATUS:               ID:20171111121743d    3
 OLDACT:UP  17-11-11 22:55 OP:mg   STATUS:               ID:20171111121743d    3
 OLDACT:DUP 17-11-11 22:49 OP:mg   STATUS:               ID:20171111121743d    3
 OLDACT:UP  17-11-11 22:49 OP:mg   STATUS:               ID:20171111121742     3
 OLDACT:REG 17-11-11 20:33 OP:mg   STATUS:               ID:20171111121742     3
 2017-11-11-1218-00M.COL___441                                                 6
 STAT SP IPHASW D HRMM SECON CODA AMPLIT PERI AZIMU VELO AIN AR TRES W  DIS CAZ7
 BAR2 EZ EP       1220 49.64                             171   -0.0110 24.2 195 
 BAR2 EZ ES       1221  5.00                             171   -0.5710 24.2 195 
 BAR2 EZ I    2   1221  5.58        12.7 0.32            172           24.2 195 
 BRR  HZ EP       1220 51.42                             153    0.2410 73.1 297 
 BRR  HN ES       1221  8.87                             153    0.5710 73.1 297 
 BRR  HZ I        1221 13.53        10.7 0.24            150           73.1 297 
 PAM  EZ EP       1220 52.61                             152    0.5810 75.6  38 
 PAM  EN ES       1221  9.62                             152   -0.1810 75.6  38 
 PAM  EZ I        1221 11.70         9.8 0.70            154           75.6  38 
 PTB  HZ EP       1220 56.51                             133   -0.44 9  150 259 
 PTB  HN ES   2   1221 18.02                             133   -0.54 5  150 259 
 PTB  HZ I        1221 19.33         2.9 0.16            133            150 259 
 SPBC HN ES       1221 21.09                             130   -0.06 9  165 220 
 ZAR  HZ EP       1221  1.61                             123   -0.71 8  206 292 
 ZAR  HN ES       1221 28.03                             123   -0.09 8  206 292 
 ZAR  HZ I        1221 33.19         8.3 0.29            124            206 292 
 NOR  HN ES       1221 34.67                             119    0.75 8  237 235 
 NOR  HZ I        1221 36.81         2.3 0.29            121            237 235 
                                                                                
