 2016  811 1500  0.1 L   6.769 -73.082138.1  RSN  7 0.3 1.8LRSN                1
 GAP=146        0.65       3.0     3.7  5.3 -0.2011E+01  0.7544E+01  0.3842E+01E
 Epicentro: LOS SANTOS - SANTANDER                                             3
 ACTION:UPD 16-10-29 15:34 OP:rebc STATUS:               ID:20160811150000 L   I
 OLDACT:REG 16-08-11 20:53 OP:lv   STATUS:               ID:20160811145759     3
 2016-08-11-1457-59S.COL___340                                                 6
 STAT SP IPHASW D HRMM SECON CODA AMPLIT PERI AZIMU VELO AIN AR TRES W  DIS CAZ7
 BAR2 EZ EP       15 0 18.73                             170   -0.0910 22.4 210 
 BAR2 EZ ES       15 0 33.61                             170    0.2210 22.4 210 
 BAR2 EZ I        15 0 34.74        20.8 0.28                          22.4 210 
 PAM  EZ EP       15 0 21.75                             150    0.3110 76.0  34 
 PAM  EE ES       15 0 37.60                             150   -0.4710 76.0  34 
 PAM  EZ I        15 0 41.79         8.2 0.19                          76.0  34 
 RUS  HZ EP   2   15 0 23.28                             143    0.42 5 96.9 180 
 RUS  HN ES   2   15 0 40.91                             143    0.32 5 96.9 180 
 RUS  HZ I        15 0 42.94        10.6 0.24                          96.9 180 
 SPBC HZ EP   2   15 0 27.75                             127   -0.48 5  165 222 
 SPBC HE ES   2   15 0 50.30                             127    0.15 5  165 222 
 SPBC HZ I        15 0 52.39        12.9 0.24                           165 222 
 ZAR  HZ EP   2   15 0 32.83                             120   -0.07 4  212 292 
 ZAR  HE ES       15 0 58.73                             120    0.26 8  212 292 
 ZAR  HZ I        15 1  2.78         5.8 0.11                           212 292 
 CHI  HZ EP       15 0 37.24                             116   -0.02 8  247 197 
 CHI  HN ES       15 1  6.19                             116   -0.03 8  247 197 
 CHI  HZ I        15 1 11.47         2.5 0.10                           247 197 
 GUY2CHZ EP   2   15 0 44.38                             110    0.56 4  305 236 
 GUY2CHN ES       15 1 17.31                             110   -0.59 7  305 236 
 GUY2CHZ I        15 1 27.24         2.8 0.40                           305 236 
                                                                                
