 2014  111 1918 58.9 L   6.763 -73.183149.7  RSN  4 0.2 1.4LRSN                1
 GAP=230        0.58       4.7     4.4  4.7  0.1015E+02  0.1776E+01  0.4071E+00E
 Epicentro: VILLANUEVA - SANTANDER                                             3
 ACTION:UPD 14-03-13 09:54 OP:ep   STATUS:               ID:20140111191858 L   I
 OLDACT:REG 14-01-11 16:09 OP:stll STATUS:               ID:20140111191805     3
 2014-01-11-1918-05M.COL___249                                                 6
 STAT SP IPHASW D HRMM SECON CODA AMPLIT PERI AZIMU VELO AIN AR TRES W  DIS CAZ7
 BAR2 SZ EP       1919 18.64                             172   -0.2810 18.9 180 
 BAR2 SZ ES       1919 34.27                             172   -0.2710 18.9 180 
 BAR2 SZ I        1919 35.91         7.9 0.36            165           18.9 180 
 BRR  HZ EP       1919 20.61                             154    0.2210 69.7 303 
 BRR  HE ES       1919 37.37                             154    0.2110 69.7 303 
 RUS  HZ EP       1919 22.81                             146    0.0310 96.9 173 
 RUS  HN ES       1919 41.67                             146    0.2610 96.9 173 
 RUS  HZ I        1919 42.76         3.1 0.30            143           96.9 173 
 PTB  HZ EP       1919 25.71                             134   -0.05 9  143 260 
 PTB  HN ES       1919 46.58                             134   -0.14 9  143 260 
 PTB  HZ I        1919 53.65         2.6 0.44            130            143 260 
                                                                                
