 2013  811 1211 18.9 L   6.801 -73.168145.2  RSN 19 0.3 2.9LRSN 3.2WRSN        1
 SPEC AVERAGE  MO 13.8 ST 28.6 OM  2.2 f0 6.65 R0.3922 AL 0.00 WI 26.1 MW  3.2 3
 SPEC SD       MO  0.2 ST 38.3 OM  0.6 f0 3.29 R0.2388 AL      WI      MW  0.1 3
 GAP= 70        0.75       2.0     2.2  3.6 -0.4467E+00  0.1734E+01  0.1154E+01E
 Epicentro: LOS SANTOS - SANTANDER                                             3
 SPEC TAM HH N MO 14.2 ST  1.0 OM  2.5 f0 1.73 R0.8983 AL 0.00 WI 21.5 MW  3.4 3
 SPEC TAM HH N T1212 7 K 0.000 GD  213 VS 4.20 DE 3.20 Q0300.0 QA 0.60 VS 4.20 3
 SPEC PTB HH N MO 13.8 ST 75.2 OM  2.1 f0 10.0 R0.1554 AL 0.00 WI 36.3 MW  3.1 3
 SPEC PTB HH N T1212 1 K 0.000 GD  205 VS 4.20 DE 3.20 Q0300.0 QA 0.60 VS 4.20 3
 SPEC RUS HH N MO 13.7 ST  4.9 OM  2.1 f0 4.24 R0.3665 AL 0.00 WI 19.9 MW  3.1 3
 SPEC RUS HH N T1212 0 K 0.000 GD  176 VS 4.20 DE 3.20 Q0300.0 QA 0.60 VS 4.20 3
 SPEC NOR HH N MO 13.9 ST100.6 OM  2.1 f0 10.0 R0.1554 AL 0.00 WI 31.9 MW  3.2 3
 SPEC NOR HH N T121220 K 0.000 GD  274 VS 4.20 DE 3.20 Q0300.0 QA 0.60 VS 4.20 3
 SPEC PAM SH N MO 13.8 ST  1.9 OM  2.2 f0 2.92 R0.5322 AL 0.00 WI 24.1 MW  3.2 3
 SPEC PAM SH N T121157 K 0.000 GD  165 VS 4.20 DE 3.20 Q0300.0 QA 0.60 VS 4.20 3
 SPEC COD HH Z MO 13.4 ST  3.7 OM  0.7 f0 8.80 R0.3195 AL 0.00 WI 34.0 MW  2.9 3
 SPEC COD HH Z T1212 5 K 0.000 GD  377 VP 7.60 DE 3.20 Q0300.0 QA 0.60 VS 4.20 3
 SPEC BRR HH Z MO 14.0 ST 12.9 OM  1.6 f0 8.84 R0.3181 AL 0.00 WI 14.7 MW  3.3 3
 SPEC BRR HH Z T121139 K 0.000 GD  160 VP 7.60 DE 3.20 Q0300.0 QA 0.60 VS 4.20 3
 ACTION:UPD 14-01-14 09:01 OP:ep   STATUS:               ID:20130811121118 L   I
 OLDACT:UP  13-08-11 18:55 OP:jn   STATUS:               ID:20130811120959     3
 OLDACT:UP  13-08-11 18:55 OP:jn   STATUS:               ID:20130811120959     3
 OLDACT:REG 13-08-11 17:11 OP:jn   STATUS:               ID:20130811120959     3
 2013-08-11-1209-59M.COL___270                                                 6
 STAT SP IPHASW D HRMM SECON CODA AMPLIT PERI AZIMU VELO AIN AR TRES W  DIS CAZ7
 BAR2 SZ IP     D 1211 38.53                             170    0.0710 23.1 184 
 BAR2 SZ ES       1211 53.73                             170    0.0110 23.1 184 
 BAR2 SZ I        1211 56.33       222.1 0.28            170           23.1 184 
 BRR  HZ IP     C 1211 40.33                             153    0.4610 69.0 299 
 BRR  HN ES       1211 56.67                             153    0.4410 69.0 299 
 BRR  HZ I        1212  1.53       149.2 0.24            136           69.0 299 
 PAM  SZ EP       1211 41.33                             150    0.1810 78.9  41 
 PAM  SN ES       1211 58.35                             150   -0.1510 78.9  41 
 PAM  SZ I        1212  1.02        80.4 0.54            134           78.9  41 
 RUS  HZ EP       1211 42.48                             144   -0.1410  101 175 
 RUS  HN ES       1212  0.92                             144   -0.2010  101 175 
 RUS  HZ I        1212  3.27        79.5 0.30            132            101 175 
 PTB  HZ EP       1211 45.06                             132   -0.55 9  145 259 
 PTB  HE ES       1212  6.00                             132   -0.44 9  145 259 
 PTB  HZ I        1212  8.95        94.7 0.16            117            145 259 
 TAM  HZ IP     D 1211 46.96                             130    0.21 9  157 105 
 TAM  HN ES       1212  8.42                             130   -0.06 9  157 105 
 OCA  HZ EP       1211 46.59                             130   -0.54 9  160 354 
 OCA  HN ES       1212  8.85                             130   -0.30 9  160 354 
 OCA  HZ I        1212 16.85        75.9 0.32            113            160 354 
 SPBC HZ EP       1211 47.45                             129    0.23 9  162 218 
 SPBC HE ES       1212  9.48                             129    0.17 9  162 218 
 SPBC HZ I        1212 15.80       125.9 0.24            115            162 218 
 ZAR  HZ EP       1211 51.06                             123   -0.01 9  202 292 
 ZAR  HE ES   1   1212 15.77                             123   -0.40 6  202 292 
 ZAR  HZ I        1212 21.75        63.1 0.26            109            202 292 
 NOR  HZ EP       1211 54.48                             119    0.09 8  233 234 
 NOR  HN ES       1212 22.52                             119    0.44 8  233 234 
 NOR  HZ I        1212 30.42        66.6 0.20            107            233 234 
 SML  HN ES   1   1212 24.78                             117    0.95 6  243 336 
 CHI  HZ EP       1211 56.64                             117    0.13 8  248 195 
 CHI  HN ES       1212 25.80                             117   -0.05 8  248 195 
 CHI  HZ I        1212 32.33        36.7 0.36            106            248 195 
 ROSC BZ EP   4   1211 58.16                             117    1.30 0  252 211 
 ROSC BN ES   4   1212 28.49                             117    2.02 0  252 211 
 HEL  HZ EP       1211 58.43                             115   -0.40 8  270 256 
 HEL  HN ES   2   1212 30.05                             115    0.08 4  270 256 
 HEL  HZ I        1212 38.87        42.8 0.36            104            270 256 
 GUY2CHZ EP   1   1212  2.59                             112    0.32 5  299 234 
 GUY2CHZ I        1212 44.79        54.9 0.30                           299 234 
 RREF HZ EP   1   1212  5.27                             111    0.46 5  320 229 
 RREF HZ I        1212 50.38        42.8 0.46            102            320 229 
 COD  HZ EP   4   1212  6.48                             109   -0.74 0  348 355 
 COD  HZ I        1212 55.06        13.2 0.48            100            348 355 
 PRA  HZ EP       1212 11.99                             106   -0.28 6  391 209 
 PRA  HN ES       1212 53.70                             106   -0.20 6  391 209 
 PRA  HZ I        1213  0.87        47.4 0.36             99            391 209 
 ORTC HZ EP   1   1212 12.88                             106    0.24 4  394 216 
 ORTC HZ I        1213  2.49        22.7 0.40             99            394 216 
 SJC  HZ EP   4   1212 11.57                             106   -2.71 0  408 327 
 SJC  HZ I        1212 57.05         9.6 0.40             99            408 327 
                                                                                
