 2017 1211 1152 44.0 L   6.778 -73.170139.2  RSN  6 0.3 1.6LRSN                1
 GAP=144        0.79       4.2     3.7  8.1 -0.1295E+01  0.7069E+01  0.1397E+02E
 Epicentro: LOS SANTOS - SANTANDER                                             3
 ACTION:UPD 18-01-04 13:19 OP:rebc STATUS:               ID:20171211115244 L   I
 OLDACT:UP  17-12-12 00:13 OP:mg   STATUS:               ID:20171211114742d    3
 OLDACT:DUP 17-12-12 00:08 OP:mg   STATUS:               ID:20171211114742d    3
 2017-12-11-1148-00M.COL___466                                                 6
 STAT SP IPHASW D HRMM SECON CODA AMPLIT PERI AZIMU VELO AIN AR TRES W  DIS CAZ7
 BAR2 EZ EP       1153  2.86                             171    0.0610 20.6 184 
 BAR2 EZ ES   2   1153 17.53                             171    0.08 5 20.6 184 
 BAR2 EZ I        1153 19.18         5.8 0.20            169           20.6 184 
 PAM  EZ EP       1153  5.84                             148    0.0810 81.0  40 
 PAM  EN ES       1153 22.67                             148   -0.0510 81.0  40 
 PAM  EZ I        1153 23.69         6.1 0.18            154           81.0  40 
 PTB  HZ EP       1153  9.51                             131   -0.65 9  145 260 
 PTB  HN ES       1153 30.25                             131   -0.31 9  145 260 
 PTB  HZ I        1153 35.64         4.6 0.40            132            145 260 
 ZAR  HZ EP   2   1153 15.87                             121    0.00 4  202 293 
 ZAR  HN ES       1153 41.34                             121    0.62 9  202 293 
 ZAR  HZ I        1153 45.92         6.4 0.27            123            202 293 
 CHI  HZ EP       1153 21.16                             116    0.14 8  246 195 
 CHI  HN ES       1153 50.20                             116    0.31 8  246 195 
 CHI  HZ I        1153 54.06         2.4 0.42            118            246 195 
 GUY2CHZ EP   9   1153 29.31                             111    2.40 0  298 235 
 GUY2CHN ES   4   1154  3.90                             111    1.13 0  298 235 
 GUY2CHZ I        1154  9.16         1.7 0.30                           298 235 
                                                                                
