 2015  311 1133 48.9 L   6.812 -73.034146.4  RSN  4 0.2 1.6LRSN                1
 GAP=210        0.40       5.4    11.4  5.5  0.5378E+02 -0.3804E+02 -0.2039E+02E
 Epicentro: CEPITA - SANTANDER                                                 3
 ACTION:UPD 15-04-30 16:25 OP:nd   STATUS:               ID:20150311113348 L   I
 OLDACT:REG 15-03-11 20:53 OP:spq  STATUS:               ID:20150311112748     3
 2015-03-11-1127-48M.COL___287                                                 6
 STAT SP IPHASW D HRMM SECON CODA AMPLIT PERI AZIMU VELO AIN AR TRES W  DIS CAZ7
 BAR2 EZ EP       1134  8.80                             168    0.0910 29.4 214 
 BAR2 EZ ES   1   1134 24.28                             168    0.10 7 29.4 214 
 BAR2 EZ I        1134 24.85         8.4 0.14            175           29.4 214 
 BRR  HZ EP       1134 10.86                             149    0.1610 81.7 294 
 BRR  HE ES   1   1134 27.73                             149   -0.01 7 81.7 294 
 BRR  HZ I        1134 29.01        11.7 0.30            151           81.7 294 
 RUS  HZ EP   1   1134 12.65                             144   -0.12 7  102 183 
 RUS  HE ES   1   1134 31.19                             144   -0.22 7  102 183 
 RUS  HZ I        1134 32.06         3.0 0.50            149            102 183 
 SML  HZ EP   1   1134 26.00                             117    0.02 6  248 333 
 SML  HE ES   1   1134 54.60                             117   -0.33 6  248 333 
 SML  HZ I        1135  0.82         4.8 0.10            117            248 333 
                                                                                
