 2010  511 1746 22.1 L   6.732 -73.061149.1  RSN  5 0.3 1.9LRSN                1
 GAP=166        0.56       4.2     8.2  6.7 -0.8912E+01 -0.1081E-01  0.4609E+01E
 Epicentro: JORDAN - SANTANDER                                                 3
 ACTION:UP  10-08-24 10:04 OP:vdl  STATUS:               ID:20100511174622 L   I
 2010-05-11-1744-23S.COL___104                                                 6
 STAT SP IPHASW D HRMM SECON CODA AMPLIT PERI AZIMU VELO AIN AR TRES W  DIS CAZ7
 BAR2 SZ EP   1   1746 41.73                             172    -0.3 7   21 221 
 BAR2 SZ ES   2   1746 57.13                             172    -0.5 5   21 221 
 BRR  HZ EP   1   1746 44.51                             149     0.2 7   83 300 
 BRR  HE ES   2   1747  1.77                             149     0.2 5   83 300 
 BRR  HZ I        1747  3.45        16.7 0.14                            83 300 
 RUS  HZ EP   1   1746 45.97                             147     0.3 7   93 181 
 RUS  HN ES   2   1747  4.30                             147     0.3 5   93 181 
 RUS  HZ I        1747  5.70         9.5 0.62                            93 181 
 BRI  SZ EP   1   1746 46.46                             141    -0.2 7  113  15 
 BRI  SZ ES   2   1747  5.99                             141     0.2 5  113  15 
 PRA  HZ EP   1   1747 15.39                             107    -0.1 4  390 211 
 PRA  HN ES   2   1747 56.91                             107    -0.3 3  390 211 
 PRA  HZ I        1748  3.35         2.0 0.32                           390 211 
                                                                                
