 2011  611 1339 42.8 L   6.780 -73.067148.0  RSN  6 0.3 1.7LRSN                1
 GAP=165        0.57       3.6     6.7  6.0  0.6403E+00  0.2315E+00  0.4612E+01E
 Epicentro: LOS SANTOS - SANTANDER                                             3
 ACTION:UP  11-07-14 19:04 OP:ep   STATUS:               ID:20110611133942 L   I
 2011-06-11-1336-13S.COL___133                                                 6
 STAT SP IPHASW D HRMM SECON CODA AMPLIT PERI AZIMU VELO SNR AR TRES W  DIS CAZ7
 BRR  HZ EP       1340  4.56                             150    -0.210   80 297 
 BRR  HN ES   1   1340 21.92                             150     0.1 7   80 297 
 BRR  HZ I        1340 24.49        24.1 0.14                            80 297 
 RUS  HZ EP   1   1340  6.54                             145    -0.1 7   98 181 
 RUS  HN ES   1   1340 25.12                             145    -0.1 7   98 181 
 RUS  HZ I        1340 26.58         9.7 0.51                            98 181 
 BRI  SZ EP   1   1340  7.21                             142     0.3 7  108  16 
 NOR  SZ EP   1   1340 18.95                             118    -0.4 6  241 236 
 NOR  SZ I        1340 51.08         1.1 0.30                           241 236 
 CHI  HZ EP   1   1340 20.67                             117     0.0 6  249 197 
 CHI  HZ I        1340 21.40         3.2 0.14                           249 197 
 PRA  HZ EP   1   1340 37.07                             107     0.3 4  395 211 
 PRA  HE ES   1   1341 19.37                             107     0.6 4  395 211 
                                                                                
