 2011  511 1119  3.6 L   6.807 -73.153144.1  RSN  9 0.2 1.7LRSN                1
 GAP=154        0.37       2.8     5.0  4.6 -0.3870E+01  0.3313E+01  0.1311E+00E
 Epicentro: LOS SANTOS - SANTANDER                                             3
 ACTION:UP  11-06-29 08:52 OP:tino STATUS:               ID:20110511111903 L   I
 2011-05-11-1116-23S.COL___129                                                 6
 STAT SP IPHASW D HRMM SECON CODA AMPLIT PERI AZIMU VELO SNR AR TRES W  DIS CAZ7
 BTL  SZ EP   1   1119 23.08                             173     0.2 7   18 314 
 BAR2 SZ EP   1   1119 22.88                             170    -0.2 7   24 188 
 BAR2 SZ ES   2   1119 38.32                             170     0.1 5   24 188 
 BAR2 SZ I        1119 39.63        11.3 0.35                            24 188 
 GIR2 SZ EP   1   1119 22.87                             167    -0.2 7   30 352 
 BRR  HZ EP   1   1119 24.58                             153     0.1 7   70 298 
 BRR  HZ I        1119 29.57        12.9 0.09                            70 298 
 BRR  HN ES   2   1119 40.92                             153     0.1 5   70 298 
 RUS  HZ EP   2   1119 27.12                             143    -0.1 5  101 176 
 RUS  HN ES   2   1119 45.76                             143     0.1 5  101 176 
 RUS  HZ I        1119 47.45         7.2 0.30                           101 176 
 BRI  SZ EP   2   1119 27.63                             141     0.3 5  108  21 
 BRI  SZ I        1119 50.45         4.9 0.61                           108  21 
 GRA  SZ EP   2   1119 28.59                             137    -0.1 5  125  18 
 GRA  SZ ES   2   1119 48.05                             137    -0.2 5  125  18 
 GRA  SZ I        1119 49.17         4.5 0.27                           125  18 
 HEL  HZ EP   2   1119 43.39                             114    -0.3 4  271 256 
 HEL  HZ I        1120 22.64         4.6 0.33                           271 256 
 PRA  HZ EP   2   1119 57.66                             106     0.6 3  392 209 
 PRA  HN ES   2   1120 38.66                             106    -0.2 3  392 209 
                                                                                
