 2011  311 1729 49.6 L   6.802 -73.192134.7  RSN  7 0.3 1.9LRSN                1
 GAP=154        0.61       3.2     6.5  6.0 -0.1393E+02  0.2307E+02 -0.7496E+01E
 Epicentro: ZAPATOCA - SANTANDER                                               3
 ACTION:UP  11-06-16 14:33 OP:jfem STATUS:               ID:20110311172949 L   I
 2011-03-11-1727-06S.COL___135                                                 6
 STAT SP IPHASW D HRMM SECON CODA AMPLIT PERI AZIMU VELO SNR AR TRES W  DIS CAZ7
 BAR2 SZ EP   1   1730  8.16                             170     0.2 8   23 178 
 BAR2 SZ ES   1   1730 22.35                             170     0.1 8   23 178 
 BAR2 SZ I        1730 23.96        26.9 0.24                            23 178 
 RUS  HZ EP   1   1730 12.71                             141     0.3 8  101 173 
 RUS  HN ES   1   1730 29.90                             141    -0.2 8  101 173 
 RUS  HZ I        1730 32.42         7.4 0.38                           101 173 
 GRA  SZ EP       1730 13.87                             134    -0.210  127  20 
 GRA  SZ ES       1730 32.82                             134    -0.310  127  20 
 OCA  SZ EP       1730 17.35                             127     0.310  160 355 
 OCA  SZ I        1730 37.60        11.3 0.50                           160 355 
 NOR  SZ EP   1   1730 24.30                             116     0.0 6  231 234 
 NOR  SN ES   1   1730 51.22                             116    -0.2 6  231 234 
 HEL  HZ EP   1   1730 29.04                             113     0.3 6  267 255 
 HEL  HZ I        1731  3.63         4.5 0.45                           267 255 
 PRA  HZ EP   1   1730 41.85                             105    -0.7 5  390 209 
 PRA  HE ES   1   1731 23.59                             105    -0.2 5  390 209 
                                                                                
