 2017 1211 1934 26.8 L   6.808 -73.160143.1  RSN  9 0.4 1.9LRSN                1
 GAP=110        0.91       3.0     3.3  5.6 -0.4673E+00  0.5388E+01  0.2290E+01E
 Epicentro: LOS SANTOS - SANTANDER                                             3
 ACTION:UPD 18-01-04 13:19 OP:rebc STATUS:               ID:20171211193426 L   I
 OLDACT:UP  17-12-12 04:10 OP:osc  STATUS:               ID:20171211191617     3
 OLDACT:REG 17-12-11 22:43 OP:mg   STATUS:               ID:20171211191617     3
 2017-12-11-1928-00M.COL___482                                                 6
 STAT SP IPHASW D HRMM SECON CODA AMPLIT PERI AZIMU VELO AIN AR TRES W  DIS CAZ7
 BAR2 EZ EP       1934 45.93                             170   -0.2210 24.0 186 
 BAR2 EZ ES       1935  1.30                             170    0.0810 24.0 186 
 BAR2 EZ I        1935  2.18        10.4 0.03            169           24.0 186 
 PAM  EZ EP       1934 48.87                             150    0.0910 77.8  41 
 PAM  EN ES       1935  6.03                             150    0.1210 77.8  41 
 PAM  EZ I        1935  6.65         8.2 0.18            153           77.8  41 
 PTB  HZ EP       1934 52.67                             132   -0.77 9  146 258 
 PTB  HN ES       1935 13.79                             132   -0.42 9  146 258 
 PTB  HZ I        1935 14.72         6.8 0.16            132            146 258 
 SPBC HZ EP       1934 54.88                             128   -0.21 9  163 218 
 SPBC HE ES       1935 17.36                             128    0.23 9  163 218 
 SPBC HZ I        1935 22.94         9.9 0.13            129            163 218 
 YPLC HZ EP       1934 56.38                             126   -0.20 9  178 151 
 YPLC HN ES       1935 19.96                             126    0.17 9  178 151 
 YPLC HZ I        1935 21.32         9.6 0.26            127            178 151 
 ZAR  HZ EP       1934 58.98                             122    0.08 9  202 292 
 ZAR  HE ES       1935 24.29                             122    0.36 9  202 292 
 ZAR  HZ I        1935 28.79         8.5 0.30            123            202 292 
 DRL03HE ES       1935 40.42                             113   -0.03 7  288 353 
 GUY2CHZ EP       1935 11.40                             112    1.19 7  300 234 
 GUY2CHE ES       1935 44.51                             112    0.45 7  300 234 
 GUY2CHZ I        1935 56.25         4.6 0.44                           300 234 
 PRA  HZ EP       1935 20.16                             106   -0.09 6  392 209 
 PRA  HE ES       1936  1.53                             106   -0.39 6  392 209 
 PRA  HZ I        1936  7.20         3.3 0.38            107            392 209 
 SJC  HZ EP   4   1935 20.19                             105   -1.92 0  408 327 
 SJC  HN ES   4   1936  0.89                             105   -4.34 0  408 327 
                                                                                
