 2014  311 1745 37.2 L   6.792 -73.130146.7  RSN 12 0.4 2.2LRSN                1
 GAP=139        0.96       2.8     3.9  5.2 -0.5478E+00  0.5129E+01  0.3961E+00E
 Epicentro: LOS SANTOS - SANTANDER                                             3
 ACTION:UPD 14-04-09 23:16 OP:nd   STATUS:               ID:20140311174537 L   I
 OLDACT:REG 14-03-11 17:26 OP:nd   STATUS:               ID:20140311174048     3
 2014-03-11-1740-48M.COL___244                                                 6
 STAT SP IPHASW D HRMM SECON CODA AMPLIT PERI AZIMU VELO AIN AR TRES W  DIS CAZ7
 BAR2 SZ EP       1745 57.05                             171    0.1010 22.8 195 
 BAR2 SZ ES       1746 12.06                             171   -0.2810 22.8 195 
 BAR2 SZ I        1746 14.83        68.7 0.32            169           22.8 195 
 BRR  HZ EP     C 1745 59.03                             152    0.4510 73.2 298 
 BRR  HN ES       1746 16.02                             152    0.7810 73.2 298 
 BRR  HZ I        1746 21.36        19.2 0.50            151           73.2 298 
 PAM  SZ EP       1745 59.85                             151    0.3410 77.0  38 
 PAM  SN ES       1746 16.87                             151   -0.0210 77.0  38 
 PAM  SZ I        1746 19.30        20.2 0.20            157           77.0  38 
 RUS  HZ EP     D 1746  0.95                             144   -0.0410 99.6 177 
 RUS  HN ES       1746 19.16                             144   -0.3710 99.6 177 
 RUS  HZ I        1746 20.96        15.0 0.28            148           99.6 177 
 PTB  HZ EP       1746  4.13                             132   -0.27 9  149 259 
 PTB  HN ES       1746 24.98                             132   -0.63 9  149 259 
 PTB  HZ I        1746 31.02        23.8 0.44            133            149 259 
 SPBC HZ EP       1746  6.01                             129    0.18 9  164 220 
 SPBC HN ES       1746 27.98                             129   -0.16 9  164 220 
 SPBC HZ I        1746 33.79        25.5 0.38            131            164 220 
 ZAR  HZ EP       1746 10.07                             122    0.14 8  206 292 
 ZAR  HN ES       1746 35.81                             122    0.37 8  206 292 
 ZAR  HZ I        1746 42.29        19.2 0.30            124            206 292 
 NOR  HZ EP       1746 12.97                             119   -0.13 8  236 235 
 NOR  HN ES       1746 41.28                             119    0.19 8  236 235 
 NOR  HZ I        1746 44.98        13.4 0.18            121            236 235 
 SML  HZ EP       1746 13.85                             117   -0.21 8  245 335 
 SML  HN ES       1746 41.86                             117   -0.94 8  245 335 
 CHI  HZ EP       1746 14.72                             117   -0.20 8  248 196 
 CHI  HN ES       1746 44.72                             117    0.39 8  248 196 
 GUY2CHZ EP   4   1746 21.90                             112    0.93 0  302 235 
 GUY2CHN ES   4   1746 58.79                             112    3.69 0  302 235 
 GUY2CHZ I        1747  3.86        10.1 0.30                           302 235 
 SJC  HZ EP   4   1746 31.21                             106   -1.80 0  411 327 
 SJC  HN ES   4   1747 11.76                             106   -4.77 0  411 327 
 SJC  HZ I        1747 14.88         3.6 0.68            108            411 327 
                                                                                
