 2013  211 1934 38.3 L   6.710 -73.113144.0  RSN  4 0.4 2.1LRSN                1
 GAP=177        1.05      10.7     7.0  8.5 -0.3351E+02  0.5633E+01  0.1067E+02E
 Epicentro: JORDAN - SANTANDER                                                 3
 ACTION:UPD 13-03-12 09:32 OP:ep   STATUS:               ID:20130211193438 L   I
 2013-02-11-1930-00M.COL___240                                                 6
 STAT SP IPHASW D HRMM SECON CODA AMPLIT PERI AZIMU VELO AIN AR TRES W  DIS CAZ7
 BAR2 SZ EP       1934 57.97                             174    0.3910 15.1 211 
 BAR2 SZ ES       1935 12.65                             174    0.0310 15.1 211 
 BAR2 SZ I        1935 13.75        32.8 0.36            173           15.1 211 
 BRR  HZ EP       1935  0.01                             149    0.2610 79.5 304 
 BRR  HN ES       1935 16.96                             149    0.4810 79.5 304 
 BRR  HN I        1935 20.67        50.9 0.24            147           79.5 304 
 PAM  SZ IP     D 1935  0.87                             149    0.1810 83.2  33 
 PAM  SN ES       1935 17.53                             149   -0.6210 83.2  33 
 PAM  SN I        1935 18.58        17.6 0.22            150           83.2  33 
 PTB  HZ EP       1935  4.80                             131   -0.51 9  150 263 
 PTB  HN ES   1   1935 25.80                             131   -0.57 7  150 263 
 PTB  HZ I        1935 28.26        11.9 0.20            131            150 263 
                                                                                
