 2011 1111 1627 39.8 L   6.804 -73.052141.2  RSN  4 0.1 1.5LRSN                1
 GAP=149        0.35       3.3     5.2  4.5  0.8759E+01 -0.9923E+01 -0.5934E+01E
 Epicentro: LOS SANTOS - SANTANDER                                             3
 ACTION:UPD 12-07-13 16:09 OP:ep   STATUS:               ID:20111111162739 L   I
 2011-11-11-1624-12S.COL___178                                                 6
 STAT SP IPHASW D HRMM SECON CODA AMPLIT PERI AZIMU VELO AIN AR TRES W  DIS CAZ7
 BAR2 SZ EP   1   1627 58.91                             168   -0.11 7 27.5 212 
 BAR2 SZ ES   1   1628 13.80                             168   -0.17 7 27.5 212 
 BAR2 SZ I        1628 15.34         7.4 0.19                          27.5 212 
 PAM  SZ EP   1   1628  1.30                             152    0.11 7 70.8  33 
 BRR  HZ EP       1628  1.03                             149   -0.0210 80.3 295 
 BRR  HE ES   1   1628 17.69                             149    0.10 7 80.3 295 
 BRR  HZ I        1628 20.56        10.7 0.51                          80.3 295 
 RUS  HZ EP   1   1628  3.11                             143   -0.06 7  101 182 
 RUS  HN ES   1   1628 21.53                             143    0.17 7  101 182 
 RUS  HZ I        1628 22.43         2.6 0.18                           101 182 
                                                                                
