 2014  711 1937 47.5 L   6.814 -73.149139.7  RSN 18 0.4 2.1LRSN                1
 GAP=135        0.87       2.2     3.2  4.6 -0.1863E+01  0.4220E+01  0.1451E+01E
 Epicentro: LOS SANTOS - SANTANDER                                             3
 ACTION:UPD 15-03-16 20:43 OP:nd   STATUS:               ID:20140711193747 L   I
 OLDACT:REG 14-07-12 03:13 OP:spq  STATUS:               ID:20140711192809     3
 2014-07-11-1928-09M.COL___265                                                 6
 STAT SP IPHASW D HRMM SECON CODA AMPLIT PERI AZIMU VELO AIN AR TRES W  DIS CAZ7
 BAR2 SZ EP       1938  6.63                             169    0.2210 24.8 189 
 BAR2 SZ ES   1   1938 20.61                             169   -0.57 7 24.8 189 
 BAR2 SZ I        1938 22.90        37.6 0.22            168           24.8 189 
 BRR  HZ IP     C 1938  8.56                             152    0.6410 70.1 298 
 BRR  HN ES       1938 24.21                             152    0.3610 70.1 298 
 BRR  HZ I        1938 28.44        19.4 0.16            149           70.1 298 
 PAM  SZ EP       1938  9.48                             150    0.4810 76.5  40 
 PAM  SN ES       1938 25.85                             150    0.0710 76.5  40 
 PAM  SZ I        1938 27.29         6.3 0.18            154           76.5  40 
 RUS  HZ EP       1938 10.59                             142   -0.1710  102 176 
 RUS  HE ES       1938 28.87                             142   -0.0410  102 176 
 RUS  HZ I        1938 29.78         8.2 0.42            143            102 176 
 PTB  HZ EP       1938 13.44                             131   -0.52 9  148 258 
 PTB  HN ES       1938 33.93                             131   -0.67 9  148 258 
 PTB  HZ I        1938 36.95        11.9 0.14            129            148 258 
 OCA  HZ EP       1938 14.99                             128   -0.19 9  159 353 
 OCA  HN ES       1938 36.84                             128    0.06 9  159 353 
 OCA  HZ I        1938 41.36        15.2 0.24            129            159 353 
 SPBC HZ EP       1938 15.61                             127   -0.00 9  164 219 
 SPBC HE ES       1938 37.27                             127   -0.28 9  164 219 
 SPBC HZ I        1938 38.82        11.4 0.14            127            164 219 
 ZAR  HZ EP       1938 19.42                             121   -0.02 9  203 292 
 ZAR  HN ES       1938 44.53                             121    0.16 9  203 292 
 ZAR  HZ I        1938 51.01         9.2 0.07            121            203 292 
 NOR  HZ EP       1938 23.22                             117    0.29 8  235 234 
 NOR  HN ES       1938 50.32                             117   -0.26 8  235 234 
 NOR  HZ I        1938 57.11        10.2 0.16            117            235 234 
 SML  HZ EP   1   1938 23.03                             116   -0.58 6  242 335 
 SML  HN ES   1   1938 51.11                             116   -0.67 6  242 335 
 SML  HZ I        1938 57.06        16.0 0.10            117            242 335 
 CHI  HZ EP   1   1938 24.32                             116   -0.68 6  250 195 
 CHI  HN ES   1   1938 54.59                             116    0.32 6  250 195 
 CHI  HZ I        1939  0.01         5.9 0.26            116            250 195 
 ROSC BN ES       1938 54.83                             115   -0.14 8  254 211 
 ROSC BZ I        1939  2.89        12.7 0.45            115            254 211 
 GUY2CHZ EP   1   1938 31.16                             111    0.28 5  302 234 
 GUY2CHN ES       1939  5.45                             111    0.72 7  302 234 
 GUY2CHZ I        1939 11.08         4.4 0.29                           302 234 
 RREF HN ES       1939  9.80                             110    0.50 7  322 229 
 RREF HZ I        1939 18.31         5.4 0.26            110            322 229 
 TOL  SZ EP       1938 35.07                             108   -0.53 7  344 224 
 TOL  SN ES       1939 13.59                             108    0.47 7  344 224 
 TOL  SZ I        1939 23.22        10.7 0.44            108            344 224 
 PRA  HN ES   1   1939 23.24                             105    0.62 4  393 209 
 PRA  HZ I        1939 29.19         5.9 0.32            106            393 209 
 ORTC HZ EP       1938 41.32                             105   -0.00 6  396 216 
 ORTC HN ES       1939 22.99                             105   -0.32 6  396 216 
 ORTC HZ I        1939 29.58         3.6 0.40            106            396 216 
 SJC  HZ EP   4   1938 41.29                             105   -1.39 0  408 327 
 SJC  HN ES   4   1939 20.54                             105   -5.19 0  408 327 
 SJC  HZ I        1939 26.77         3.1 0.51            105            408 327 
                                                                                
