 2014  311 1135 56.6 L   7.215 -73.075149.0  RSN  6 0.4 1.9LRSN                1
 GAP=109        1.06       4.3     5.2  8.1  0.3024E+01  0.1530E+02 -0.5910E+01E
 Epicentro: BUCARAMANGA - SANTANDER                                            3
 ACTION:UPD 14-04-09 23:16 OP:nd   STATUS:               ID:20140311113556 L   I
 OLDACT:REG 14-03-11 17:09 OP:nd   STATUS:               ID:20140311113045     3
 2014-03-11-1130-45M.COL___231                                                 6
 STAT SP IPHASW D HRMM SECON CODA AMPLIT PERI AZIMU VELO AIN AR TRES W  DIS CAZ7
 PAM  SZ EP       1136 17.94                             163    0.3810 43.7  72 
 PAM  SN ES       1136 34.31                             163    0.4010 43.7  72 
 PAM  SZ I        1136 36.10         8.5 0.22            165           43.7  72 
 BAR2 SZ EP       1136 18.53                             154    0.1510 69.9 190 
 BAR2 SZ ES       1136 35.09                             154   -0.2710 69.9 190 
 BAR2 SZ I        1136 36.90        15.4 0.14            156           69.9 190 
 RUS  HZ EP       1136 24.45                             133    0.10 9  146 180 
 RUS  HN ES       1136 45.42                             133   -0.57 9  146 180 
 PTB  HZ EP       1136 25.73                             129   -0.16 9  170 244 
 PTB  HN ES       1136 48.66                             129   -0.07 9  170 244 
 PTB  HZ I        1136 50.00         6.2 0.40            130            170 244 
 ZAR  HZ EP       1136 29.25                             124    0.49 9  199 279 
 ZAR  HN ES       1136 54.51                             124    0.66 9  199 279 
 ZAR  HZ I        1136 55.92         5.9 0.10            125            199 279 
 SML  HZ EP       1136 29.05                             123   -0.48 8  207 328 
 SML  HN ES       1136 54.43                             123   -0.79 8  207 328 
 SML  HZ I        1136 58.22        11.7 0.22            124            207 328 
                                                                                
