 2017  411 1655 18.7 L   6.812 -73.219136.3  RSN  5 0.2 1.3LRSN                1
 GAP=147        0.50       2.9     3.0  4.4 -0.5537E+00  0.1755E+01 -0.1479E+01E
 Epicentro: ZAPATOCA - SANTANDER                                               3
 ACTION:UPD 17-05-30 21:11 OP:jn   STATUS:               ID:20170411165518 L   I
 OLDACT:REG 17-04-11 19:37 OP:cara STATUS:               ID:20170411164748     3
 2017-04-11-1648-00M.COL___374                                                 6
 STAT SP IPHASW D HRMM SECON CODA AMPLIT PERI AZIMU VELO AIN AR TRES W  DIS CAZ7
 BAR2 EZ EP       1655 37.32                             169    0.1010 24.6 170 
 BAR2 EZ ES       1655 51.45                             169   -0.2110 24.6 170 
 BAR2 EZ I        1655 53.31         8.5 0.42            170           24.6 170 
 PAM  EZ EP       1655 40.14                             147   -0.0710 81.9  45 
 PAM  EZ I        1656  0.06         3.6 0.62            131           81.9  45 
 RUS  HZ EP       1655 41.87                             141    0.1710  103 172 
 RUS  HN ES       1655 59.83                             141    0.2010  103 172 
 RUS  HZ I        1656  0.97         1.7 0.22            138            103 172 
 PTB  HZ EP       1655 44.07                             131   -0.13 9  140 258 
 PTB  HN ES       1656  4.23                             131    0.15 9  140 258 
 PTB  HZ I        1656  9.31         2.9 0.12            125            140 258 
 CHI  HN ES       1656 24.43                             115   -0.32 8  248 193 
 CHI  HZ I        1656 29.47         1.6 0.38            109            248 193 
                                                                                
