 2016  911 1452 38.1 L   6.758 -73.136152.5  RSN  7 0.3 1.7LRSN                1
 GAP=140        0.77       3.6     3.3  5.1 -0.3425E+00  0.5214E+01  0.1881E+00E
 Epicentro: LOS SANTOS - SANTANDER                                             3
 ACTION:UPD 17-08-17 21:08 OP:lp   STATUS:               ID:20160911145238 L   I
 OLDACT:REG 16-09-11 20:20 OP:lv   STATUS:               ID:20160911144740     3
 2016-09-11-1448-00M.COL___309                                                 6
 STAT SP IPHASW D HRMM SECON CODA AMPLIT PERI AZIMU VELO AIN AR TRES W  DIS CAZ7
 BAR2 EZ EP       1452 58.57                             173    0.0610 19.1 196 
 BAR2 EZ ES       1453 14.27                             173   -0.1210 19.1 196 
 BAR2 EZ I        1453 15.70        12.6 0.34            173           19.1 196 
 BRR  HZ IP     C 1453  0.48                             153    0.2810 74.4 301 
 BRR  HE ES       1453 17.87                             153    0.4610 74.4 301 
 BRR  HZ I        1453 22.00         8.6 0.13            151           74.4 301 
 PAM  EZ EP       1453  1.42                             151    0.1710 80.3  37 
 PAM  EE ES       1453 19.16                             151   -0.1210 80.3  37 
 PAM  EZ I        1453 19.89         4.9 0.17            153           80.3  37 
 RUS  HZ EP       1453  2.14                             146   -0.1010 95.9 177 
 RUS  HN ES       1453 21.01                             146   -0.0310 95.9 177 
 RUS  HZ I        1453 22.62         6.1 0.31            150           95.9 177 
 PTB  HZ EP       1453  5.32                             133   -0.37 9  148 261 
 PTB  HN ES       1453 26.66                             133   -0.51 9  148 261 
 PTB  HZ I        1453 28.24         5.7 0.15            134            148 261 
 ZAR  HZ EP       1453 11.19                             123   -0.12 8  207 293 
 ZAR  HE ES       1453 37.02                             123   -0.17 8  207 293 
 ZAR  HZ I        1453 43.89         9.4 0.32            124            207 293 
 GUY2CHE ES       1453 56.71                             114    0.73 7  299 236 
 GUY2CHZ I        1454  5.88         2.3 0.38                           299 236 
                                                                                
