 2016  511 1716 13.5 L   6.784 -73.141154.0  RSN 10 0.5 1.7LRSN                1
 GAP=138        1.09       4.3     4.4  6.7 -0.1097E+01  0.8729E+01  0.8455E+01E
 Epicentro: LOS SANTOS - SANTANDER                                             3
 ACTION:UPD 16-08-18 17:44 OP:cam  STATUS:               ID:20160511171613 L   I
 OLDACT:UP  16-05-11 21:11 OP:edw  STATUS:               ID:20160511170743     3
 OLDACT:UP  16-05-11 21:09 OP:edw  STATUS:               ID:20160511170743     3
 OLDACT:REG 16-05-11 18:47 OP:ak   STATUS:               ID:20160511170743     3
 2016-05-11-1707-43M.COL___301                                                 6
 STAT SP IPHASW D HRMM SECON CODA AMPLIT PERI AZIMU VELO AIN AR TRES W  DIS CAZ7
 BAR2 EZ IP     D 1716 33.90                             172   -0.2210 21.7 192 
 BAR2 EZ ES       1716 50.15                             172   -0.0310 21.7 192 
 BAR2 EZ I        1716 52.20         9.2 0.40            168           21.7 192 
 BRR  HZ EP       1716 36.02                             154    0.3710 72.6 300 
 BRR  HE ES       1716 54.01                             154    1.1110 72.6 300 
 PAM  EZ EP       1716 37.04                             152    0.3510 78.4  38 
 PAM  EN ES       1716 54.26                             152   -0.4910 78.4  38 
 PAM  EZ I        1716 56.12         9.5 0.20            157           78.4  38 
 RUS  HZ EP       1716 37.87                             146   -0.1010 98.7 176 
 RUS  HE ES       1716 57.13                             146    0.0910 98.7 176 
 RUS  HZ I        1716 58.97         3.0 0.20            145           98.7 176 
 PTB  HZ EP       1716 40.91                             134   -0.29 9  148 260 
 PTB  HN ES       1717  2.21                             134   -0.57 9  148 260 
 PTB  HZ I        1717  7.80         9.5 0.24            134            148 260 
 ZAR  HE ES       1717 11.84                             124   -0.64 8  205 293 
 NOR  HZ EP       1716 49.09                             120   -0.60 8  234 235 
 NOR  HN ES       1717 18.12                             120    0.23 8  234 235 
 NOR  HZ I        1717 21.63         7.1 0.18            121            234 235 
 CHI  HZ EP   2   1716 51.69                             119    0.16 4  247 195 
 CHI  HN ES       1717 20.94                             119   -0.22 8  247 195 
 CHI  HZ I        1717 29.24         2.7 0.32            119            247 195 
 CBOC HZ EP   2   1717  1.59                             111    0.79 3  334 252 
 CBOC HN ES       1717 37.99                             111    0.33 7  334 252 
 PRA  HZ EP       1717  7.23                             108    0.03 6  391 210 
 PRA  HN ES       1717 49.76                             108    0.71 6  391 210 
 PRA  HZ I        1717 55.03         2.0 0.47            109            391 210 
                                                                                
