 2015 1011 1106 18.2 L   6.792 -73.126147.4  RSN  6 0.3 1.6LRSN                1
 GAP=139        0.68       4.4     4.1  5.6  0.5706E+01  0.3585E+01 -0.1318E+01E
 Epicentro: LOS SANTOS - SANTANDER                                             3
 ACTION:UPD 15-12-22 20:39 OP:cam  STATUS:               ID:20151011110618 L   I
 OLDACT:DUP 15-10-11 22:57 OP:spq  STATUS:               ID:20151011105749d    3
 2015-10-11-1057-48M.COL___340                                                 6
 STAT SP IPHASW D HRMM SECON CODA AMPLIT PERI AZIMU VELO AIN AR TRES W  DIS CAZ7
 BAR2 EZ EP       11 6 37.87                             171   -0.1610 23.0 196 
 BAR2 EZ ES   1   11 6 52.98                             171   -0.51 7 23.0 196 
 BAR2 EZ I        11 6 55.46         6.2 0.24            171           23.0 196 
 BRR  HZ EP       11 6 39.65                             152   -0.0210 73.5 298 
 BRR  HN ES       11 6 56.87                             152    0.4610 73.5 298 
 BRR  HZ I        11 7  1.84         6.6 0.50            150           73.5 298 
 PAM  EZ EP       11 6 40.83                             151    0.2710 76.7  38 
 PAM  EN ES   1   11 6 57.82                             151   -0.17 7 76.7  38 
 PAM  EZ I        11 6 58.61         4.4 0.20            154           76.7  38 
 RUS  HZ EP   1   11 6 42.39                             145    0.33 7 99.6 177 
 RUS  HN ES   2   11 7  0.68                             145    0.03 5 99.6 177 
 ZAR  HZ EP       11 6 50.60                             122   -0.41 8  206 292 
 ZAR  HN ES       11 7 16.57                             122   -0.02 8  206 292 
 ZAR  HZ I        11 7 22.07         5.1 0.30            123            206 292 
 SML  HE ES   1   11 7 23.79                             118   -0.11 6  245 335 
 SML  HZ I        11 7 27.60         2.9 0.09            119            245 335 
                                                                                
