 2014  911 1058 39.1 L   6.807 -73.105149.1  RSN 11 0.5 2.0LRSN                1
 GAP=204        1.11       3.4     5.3  6.0  0.2391E+01  0.5261E+01  0.9652E+00E
 Epicentro: LOS SANTOS - SANTANDER                                             3
 ACTION:UPD 14-10-03 23:04 OP:nd   STATUS:               ID:20140911105839 L   I
 OLDACT:REG 14-09-11 20:50 OP:carl STATUS:               ID:20140911105820     3
 2014-09-11-1058-20M.COL___287                                                 6
 STAT SP IPHASW D HRMM SECON CODA AMPLIT PERI AZIMU VELO AIN AR TRES W  DIS CAZ7
 BAR2 SZ IP     C 1058 59.21                             170    0.0910 25.3 200 
 BAR2 SZ ES       1059 14.58                             170   -0.1910 25.3 200 
 BAR2 SZ I        1059 15.86        11.8 0.38            167           25.3 200 
 BRR  HZ EP       1059  1.32                             152    0.5510 74.9 296 
 BRR  HN ES       1059 18.70                             152    1.0010 74.9 296 
 BRR  HZ I        1059 23.43        12.0 0.14            149           74.9 296 
 RUS  HZ EP       1059  3.08                             144   -0.0910  101 179 
 RUS  HN ES       1059 21.63                             144   -0.3610  101 179 
 RUS  HZ I        1059 23.26         4.1 0.44            146            101 179 
 PTB  HZ EP       1059  6.11                             132   -0.60 9  152 259 
 PTB  HN ES       1059 27.50                             132   -0.78 9  152 259 
 PTB  HZ I        1059 33.11        12.0 0.40            131            152 259 
 SPBC HZ EP       1059  8.40                             129    0.26 9  167 220 
 SPBC HN ES       1059 30.84                             129    0.02 9  167 220 
 SPBC HZ I        1059 37.31        18.0 0.32            130            167 220 
 ZAR  HZ EP       1059 12.14                             123    0.02 8  208 291 
 ZAR  HN ES       1059 37.98                             123    0.07 8  208 291 
 ZAR  HZ I        1059 43.71        10.4 0.54            123            208 291 
 NOR  HE ES       1059 43.65                             119   -0.14 8  239 235 
 SML  HZ EP       1059 15.86                             118   -0.13 8  245 334 
 SML  HN ES       1059 44.00                             118   -0.81 8  245 334 
 SML  HZ I        1059 48.85        14.0 0.22            119            245 334 
 CHI  HZ EP       1059 17.43                             118    0.28 8  251 196 
 CHI  HE ES       1059 46.87                             118   -0.00 8  251 196 
 CHI  HZ I        1059 50.69         4.2 0.30            119            251 196 
 GUY2CHZ EP       1059 23.48                             113    0.19 7  305 235 
 GUY2CHE ES       1059 58.57                             113    0.78 7  305 235 
 GUY2CHZ I        11 0  6.06         7.0 0.80                           305 235 
 PRA  HZ EP       1059 33.53                             107    0.50 6  395 210 
 PRA  HN ES       11 0 14.36                             107   -0.78 6  395 210 
 PRA  HZ I        11 0 20.58         4.0 0.60            108            395 210 
                                                                                
