 2017 1111 1121 12.7 L   6.807 -73.147142.0  RSN 19 0.6 2.2LRSN                1
 GAP= 65        0.85       2.9     2.5  5.3  0.2965E+00  0.3392E+01  0.4567E+01E
 Epicentro: LOS SANTOS - SANTANDER                                             3
 ACTION:UPD 17-12-12 19:54 OP:rebc STATUS:               ID:20171111112112 L   I
 OLDACT:UP  17-11-11 22:18 OP:mg   STATUS:               ID:20171111111741     3
 OLDACT:REG 17-11-11 20:29 OP:mg   STATUS:               ID:20171111111741     3
 2017-11-11-1118-00M.COL___447                                                 6
 STAT SP IPHASW D HRMM SECON CODA AMPLIT PERI AZIMU VELO AIN AR TRES W  DIS CAZ7
 BAR2 EZ EP     C 1121 31.72                             170   -0.1710 24.0 189 
 BAR2 EZ ES   2   1121 46.16                             170   -0.70 5 24.0 189 
 BAR2 EZ I        1121 47.93        39.0 0.20            167           24.0 189 
 BRR  HZ IP     C 1121 33.50                             152    0.0910 70.7 298 
 BRR  HN ES       1121 50.24                             152    0.6710 70.7 298 
 BRR  HZ I        1121 54.51        38.6 0.14            146           70.7 298 
 PAM  EZ EP       1121 34.47                             151   -0.0110 76.9  40 
 PAM  EN ES       1121 51.24                             151   -0.2410 76.9  40 
 PAM  EZ I        1121 53.44        32.0 0.50            149           76.9  40 
 PTB  HZ EP       1121 39.03                             131   -0.33 9  148 259 
 PTB  HN ES   2   1121 59.44                             131   -0.72 5  148 259 
 PTB  HZ I        1122  1.66        16.6 0.12            126            148 259 
 TAM  HZ IP     D 1121 40.15                             130    0.04 9  155 105 
 TAM  HN ES       1122  1.36                             130   -0.13 9  155 105 
 TAM  HZ I        1122  3.83        11.3 0.40            128            155 105 
 SPBC HN ES   2   1122  3.71                             128    0.71 5  164 219 
 SPBC HZ I        1122 11.24        14.2 0.11            123            164 219 
 YPLC HZ IP     D 1121 42.29                             126    0.00 9  178 151 
 YPLC HN ES       1122  5.92                             126    0.55 9  178 151 
 YPLC HZ I        1122  8.73        19.4 0.28            123            178 151 
 ZAR  HZ EP   2   1121 44.51                             122   -0.35 4  204 292 
 ZAR  HN ES   1   1122 10.58                             122    0.64 6  204 292 
 ZAR  HZ I        1122 15.25        21.5 0.10            117            204 292 
 NOR  HZ EP   2   1121 48.28                             118    0.04 4  235 234 
 NOR  HN ES       1122 15.77                             118   -0.20 8  235 234 
 NOR  HZ I        1122 21.56        17.6 0.16            114            235 234 
 CHI  HZ EP   2   1121 50.69                             116    0.43 4  249 195 
 CHI  HN ES       1122 18.98                             116   -0.58 8  249 195 
 CHI  HZ I        1122 25.80         4.9 0.28            113            249 195 
 URE  HZ EP   4   1121 56.76                             113    3.22 0  283 292 
 URE  HZ I        1122 32.28        12.5 0.20            109            283 292 
 DRL03HZ EP   1   1121 53.24                             113   -0.80 5  288 353 
 DRL03HN ES   2   1122 27.51                             113    1.22 4  288 353 
 GUY2CHZ EP   2   1121 57.19                             112    1.02 4  301 235 
 GUY2CHN ES   1   1122 30.64                             112    0.57 5  301 235 
 GUY2CHZ I        1122 37.15         7.4 0.36                           301 235 
 VIL  EE ES   3   1122 31.62                             111    1.81 2  304 192 
 CBOC HZ EP   1   1121 59.10                             109   -0.37 5  334 252 
 CBOC HN ES   3   1122 33.71                             109   -2.24 2  334 252 
 CBOC HZ I        1122 47.89         3.5 0.31            106            334 252 
 DBB  EZ EP       1121 59.79                             109   -0.21 7  339 274 
 DBB  EN ES   1   1122 36.02                             109   -0.88 5  339 274 
 DBB  EZ I        1122 38.90         4.5 0.11            105            339 274 
 PRA  HZ EP   2   1122  7.20                             106    1.05 3  393 209 
 PRA  HE ES   1   1122 47.49                             106   -0.36 4  393 209 
 PRA  HZ I        1122 53.67         6.4 0.27            103            393 209 
 ORTC HZ EP   1   1122  7.25                             106    0.70 4  396 216 
 ORTC HN ES   1   1122 48.65                             106    0.10 4  396 216 
 ORTC HZ I        1122 56.60         2.4 0.23            103            396 216 
 SJC  HN ES   4   1122 47.51                             105   -3.72 0  409 327 
 SJC  HZ I        1122 51.36         7.0 0.45            102            409 327 
                                                                                
