 2016  111 1255 55.6 L   6.794 -73.146149.4  RSN 14 0.4 2.0LRSN                1
 GAP=137        1.06       2.7     3.8  5.4 -0.1899E+01  0.5389E+01  0.5818E+00E
 Epicentro: LOS SANTOS - SANTANDER                                             3
 ACTION:UPD 16-03-09 23:24 OP:cam  STATUS:               ID:20160111125555 L   I
 OLDACT:REG 16-01-11 19:37 OP:drio STATUS:               ID:20160111124755     3
 2016-01-11-1247-55M.COL___242                                                 6
 STAT SP IPHASW D HRMM SECON CODA AMPLIT PERI AZIMU VELO AIN AR TRES W  DIS CAZ7
 BAR2 EZ EP       1256 15.45                             171   -0.1810 22.6 190 
 BAR2 EZ ES       1256 30.98                             171   -0.3010 22.6 190 
 BAR2 EZ I        1256 33.08        13.6 0.34            171           22.6 190 
 BRR  HZ EP       1256 17.57                             153    0.4310 71.6 299 
 BRR  HE ES       1256 34.89                             153    0.9310 71.6 299 
 BRR  HZ I        1256 41.25        12.6 0.26            151           71.6 299 
 PAM  EZ EP       1256 18.40                             151    0.1910 77.9  39 
 PAM  EN ES       1256 35.85                             151   -0.0210 77.9  39 
 PAM  EZ I        1256 37.45         7.4 0.40            154           77.9  39 
 RUS  HZ EP       1256 19.84                             145    0.2010 99.9 176 
 RUS  HN ES       1256 38.53                             145    0.1210 99.9 176 
 RUS  HZ I        1256 41.58         8.9 0.24            147           99.9 176 
 PTB  HZ EP       1256 22.25                             133   -0.58 9  148 259 
 PTB  HE EP       1256 22.63                             133            148 259 
 PTB  HN ES       1256 43.81                             133   -0.28 9  148 259 
 PTB  HZ I        1256 47.08        12.4 0.12            133            148 259 
 OCA  HZ EP       1256 24.17                             130   -0.07 9  161 353 
 OCA  HN ES       1256 46.44                             130   -0.16 9  161 353 
 OCA  HZ I        1256 51.47        35.4 0.32            131            161 353 
 SPBC HE ES       1256 45.52                             130   -1.19 9  163 219 
 ZAR  HZ EP       1256 28.28                             123   -0.01 9  204 292 
 ZAR  HN ES       1256 54.01                             123    0.20 9  204 292 
 ZAR  HZ I        1256 59.21        10.6 0.44            123            204 292 
 NOR  HZ EP       1256 31.41                             119   -0.07 8  234 235 
 NOR  HN ES       1256 59.26                             119   -0.22 8  234 235 
 NOR  HZ I        1257  2.85        10.6 0.18            120            234 235 
 SML  HZ EP       1256 32.54                             118    0.06 8  244 335 
 SML  HE ES       1257  0.69                             118   -0.57 8  244 335 
 SML  HZ I        1257 12.11        21.3 0.24            119            244 335 
 CHI  HZ EP       1256 33.66                             118    0.26 8  248 195 
 CHI  HN ES       1257  3.12                             118    0.21 8  248 195 
 CHI  HZ I        1257 12.65         2.8 0.48            120            248 195 
 HEL  HZ EP   4   1256 37.59                             115    1.63 0  272 256 
 HEL  HE ES       1257  7.68                             115    0.22 8  272 256 
 HEL  HZ I        1257 15.20         4.7 0.28            116            272 256 
 GUY2CHZ EP   4   1256 40.69                             113    1.38 0  301 235 
 GUY2CHN ES       1257 14.19                             113    0.77 7  301 235 
 GUY2CHZ I        1257 21.81         4.8 0.34                           301 235 
 PRA  HZ EP       1256 48.82                             107   -0.33 6  391 210 
 PRA  HN ES       1257 31.62                             107    0.68 6  391 210 
 PRA  HZ I        1257 38.99         4.1 0.24            108            391 210 
                                                                                
