 2010 1111 1420  1.8 L   6.798 -73.112141.6  RSN  5 0.3 1.8LRSN                1
 GAP=162        0.73       4.0     8.1  7.4 -0.2436E+01 -0.1720E+02 -0.7910E+01E
 Epicentro: LOS SANTOS - SANTANDER                                             3
 ACTION:UP  10-12-17 16:51 OP:REBC STATUS:               ID:20101111142001 L   I
 2010-11-11-1417-58S.COL___129                                                 6
 STAT SP IPHASW D HRMM SECON CODA AMPLIT PERI AZIMU VELO SNR AR TRES W  DIS CAZ7
 BAR2 SZ EP       1420 20.84                             170    -0.110   24 199 
 BAR2 SZ ES   1   1420 35.31                             170    -0.6 7   24 199 
 BAR2 SZ I        1420 37.23        15.2 0.24                            24 199 
 BRR  HZ EP       1420 22.66                             151    -0.110   75 297 
 BRR  HZ I        1420 23.09        17.3 0.11                            75 297 
 BRR  HE ES   1   1420 39.29                             151     0.3 7   75 297 
 RUS  HZ EP   1   1420 25.15                             143     0.0 7  100 178 
 RUS  HE ES   1   1420 43.81                             143     0.5 7  100 178 
 RUS  HZ I        1420 44.99         7.3 0.29                           100 178 
 GUE  SZ EP       1420 26.03                             139    -0.110  116  10 
 GRA  SZ EP       1420 26.65                             136     0.010  125  16 
 GRA  SZ ES   1   1420 46.22                             136     0.3 7  125  16 
 GRA  SZ I        1420 47.58         7.0 0.38                           125  16 
                                                                                
