 2011 1011 1430 53.6 L   6.765 -73.151139.6  RSN 10 0.4 2.1LRSN                1
 GAP=137        0.79       3.3     4.4  5.7 -0.7913E+00  0.8209E+01  0.4517E+01E
 Epicentro: LOS SANTOS - SANTANDER                                             3
 ACTION:UPD 12-07-13 16:03 OP:ep   STATUS:               ID:20111011143053 L   I
 2011-10-11-1420-00M.COL___171                                                 6
 STAT SP IPHASW D HRMM SECON CODA AMPLIT PERI AZIMU VELO AIN AR TRES W  DIS CAZ7
 BAR2 SZ EP       1431 12.24                             172   -0.1510 19.4 190 
 BAR2 SZ ES   1   1431 26.64                             172   -0.42 7 19.4 190 
 BAR2 SZ I        1431 29.96        38.7 0.24                          19.4 190 
 BRR  HZ IP     D 1431 14.17                             151    0.0310 72.6 301 
 BRR  HZ I        1431 19.21        21.6 0.36                          72.6 301 
 BRR  HN ES   1   1431 30.31                             151    0.12 7 72.6 301 
 PAM  SZ IP       1431 15.18                             149   -0.1710 80.8  38 
 PAM  SN ES   1   1431 32.31                             149   -0.02 7 80.8  38 
 RUS  HZ EP       1431 16.28                             144   -0.1710 96.8 176 
 RUS  HN ES   1   1431 35.00                             144    0.71 7 96.8 176 
 OCA  SZ EP   2   1431 22.52                             128    0.74 5  164 354 
 OCA  SZ ES   1   1431 44.35                             128    0.58 7  164 354 
 OCA  SZ I        1431 49.35        13.5 0.33                           164 354 
 ZAR  HN ES   1   1431 50.05                             121   -0.75 6  205 293 
 ZAR  HZ I        1431 55.37        16.4 0.24                           205 293 
 NOR  SZ EP       1431 28.49                             117   -0.17 8  232 235 
 NOR  SN ES   1   1431 56.22                             117    0.19 6  232 235 
 CHI  HZ EP       1431 30.02                             116   -0.50 8  245 195 
 CHI  HN ES   2   1431 59.82                             116    0.49 4  245 195 
 HEL  HZ EP       1431 33.57                             114    0.25 8  271 257 
 HEL  HZ I        1432 10.80         8.0 0.40                           271 257 
 RREF HZ EP   1   1431 39.96                             110    0.84 5  319 230 
 RREF HN ES   3   1432 15.60                             110    0.96 2  319 230 
                                                                                
