 2012  511 1329 25.2 L   6.719 -73.194150.8  RSN  5 0.3 1.9LRSN                1
 GAP=226        0.81       7.9     7.2  7.7  0.3070E+02  0.5027E+01  0.5341E+00E
 Epicentro: VILLANUEVA - SANTANDER                                             3
 ACTION:UP  12-07-05 12:04 OP:pat  STATUS:               ID:20120511132925 L   I
 2012-05-11-1327-50M.COL___181                                                 6
 STAT SP IPHASW D HRMM SECON CODA AMPLIT PERI AZIMU VELO SNR AR TRES W  DIS CAZ7
 BAR2 SZ EP       1329 45.12                             174    -0.210   14 175 
 BAR2 SZ ES   1   1330  0.47                             174    -0.5 7   14 175 
 BAR2 SZ I        1330  2.98        14.6 0.22                            14 175 
 BRR  HZ EP       1329 47.04                             153     0.110   72 307 
 BRR  HZ I        1329 47.25        24.4 0.28                            72 307 
 BRR  HN ES   1   1330  4.44                             153     0.5 7   72 307 
 RUS  HZ EP       1329 49.18                             147     0.310   92 172 
 RUS  HN ES   1   1330  7.51                             147     0.1 7   92 172 
 RUS  HZ I        1330  9.14         6.6 0.58                            92 172 
 PTB  HZ EP       1329 51.82                             135    -0.2 9  141 262 
 PTB  HN ES   1   1330 12.94                             135     0.0 7  141 262 
 PTB  HZ I        1330 15.11         7.6 0.32                           141 262 
 ZAR  HN ES   2   1330 23.00                             124    -0.4 4  203 295 
 ZAR  HZ I        1330 28.80        10.9 0.58                           203 295 
                                                                                
