 2012 1211 1225 40.4 L   6.788 -73.178143.5  RSN  5 0.4 1.8LRSN                1
 GAP=142        0.94       4.5     5.4  6.9 -0.6838E+01  0.8141E+01  0.4905E+01E
 Epicentro: LOS SANTOS - SANTANDER                                             3
 ACTION:UPD 13-01-04 14:27 OP:ep   STATUS:               ID:20121211122540 L   I
 2012-12-11-1220-00M.COL___238                                                 6
 STAT SP IPHASW D HRMM SECON CODA AMPLIT PERI AZIMU VELO AIN AR TRES W  DIS CAZ7
 BAR2 SZ EP       1225 59.49                             171   -0.2010 21.6 181 
 BAR2 SZ ES       1226 15.19                             171    0.4310 21.6 181 
 BAR2 SZ I        1226 17.29        13.7 0.28                          21.6 181 
 PAM  SZ EP       1226  2.64                             149    0.1010 80.7  41 
 PAM  SN ES       1226 19.96                             149    0.1210 80.7  41 
 PAM  SN I        1226 20.74        13.0 0.72                          80.7  41 
 RUS  HZ EP       1226  3.66                             144   -0.1610 99.5 174 
 RUS  HN ES       1226 21.42                             144   -0.6910 99.5 174 
 RUS  HN I        1226 23.98         5.6 0.40                          99.5 174 
 PTB  HZ EP       1226  6.69                             132   -0.12 9  144 259 
 PTB  HN ES       1226 27.31                             132   -0.12 9  144 259 
 PTB  HN I        1226 33.21        14.7 0.28                           144 259 
 CHI  HZ EP       1226 17.82                             117    0.13 8  246 194 
 CHI  HN ES       1226 47.63                             117    0.82 8  246 194 
 CHI  HN I        1226 50.84         5.6 0.24                           246 194 
                                                                                
