 2013  111 1036 50.1 L   6.774 -73.128147.8  RSN  6 0.4 1.5LRSN                1
 GAP=140        1.12       6.1     5.7  8.9  0.7733E+01  0.1678E+02  0.7542E+01E
 Epicentro: LOS SANTOS - SANTANDER                                             3
 ACTION:UPD 13-02-15 09:13 OP:ep   STATUS:               ID:20130111103650 L   I
 2013-01-11-1028-42M.COL___171                                                 6
 STAT SP IPHASW D HRMM SECON CODA AMPLIT PERI AZIMU VELO AIN AR TRES W  DIS CAZ7
 BAR2 SZ EP       1037 10.24                             171    0.2810 21.0 197 
 BAR2 SZ ES       1037 25.57                             171    0.1410 21.0 197 
 BAR2 SZ I        1037 27.87         7.5 0.26            170           21.0 197 
 BRR  HZ EP       1037 12.35                             152    0.6810 74.3 300 
 BRR  HN ES       1037 29.09                             152    0.6110 74.3 300 
 BRR  HN I        1037 29.94        14.2 0.28            152           74.3 300 
 PAM  SN ES       1037 29.49                             151   -0.6710 78.4  37 
 PAM  SN I        1037 31.21         4.4 0.20            154           78.4  37 
 RUS  HZ EP       1037 13.90                             145    0.0310 97.6 177 
 RUS  HZ I        1037 14.95         1.6 0.46            146           97.6 177 
 RUS  HN ES       1037 32.25                             145   -0.1410 97.6 177 
 PTB  HZ EP       1037 17.05                             132   -0.34 9  149 260 
 PTB  HN ES       1037 38.19                             132   -0.47 9  149 260 
 PTB  HN I        1037 43.89         9.9 0.26            133            149 260 
 ZAR  HN ES       1037 48.33                             122   -0.32 8  207 293 
                                                                                
