 2011 1111 1742 33.6 L   6.193 -73.973 92.9  RSN  6 0.3 1.8LRSN                1
 GAP=126        0.63       2.9     2.7  8.6 -0.3836E+00  0.5549E+01 -0.2415E+01E
 Epicentro: CIMITARRA - SANTANDER                                              3
 ACTION:UPD 12-07-13 16:09 OP:ep   STATUS:               ID:20111111174233 L   I
 2011-11-11-1738-48S.COL___179                                                 6
 STAT SP IPHASW D HRMM SECON CODA AMPLIT PERI AZIMU VELO AIN AR TRES W  DIS CAZ7
 BAR2 SZ EP       1742 52.04                             130    0.0110 98.0  63 
 BAR2 SZ ES   1   1743  6.24                             130   -0.18 7 98.0  63 
 BAR2 SZ I        1743  7.18        14.8 0.35                          98.0  63 
 RUS  HZ EP   1   1742 52.92                             129   -0.02 7  104 109 
 RUS  HE ES   1   1743  8.56                             129    0.52 7  104 109 
 BRR  HZ EP       1742 52.29                             128   -0.1110  105  16 
 BRR  HN ES       1743  7.12                             128    0.0510  105  16 
 BRR  HZ I        1743  8.27        21.5 0.14                           105  16 
 NOR  SE ES   1   1743  9.70                             123   -0.37 7  121 235 
 ZAR  HZ EP   1   1743  0.18                             114    0.43 7  174 326 
 ZAR  HE ES   1   1743 20.41                             114    0.25 7  174 326 
 ZAR  HZ I        1743 23.83         7.7 0.07                           174 326 
 PAM  SN ES   1   1743 23.85                             112   -0.56 7  189  48 
                                                                                
