 2013 1111 1743 45.8 L   6.838 -73.168148.2  RSN  7 0.6 2.0LRSN                1
 GAP=132        1.56       7.8     8.2 10.2 -0.2636E+01  0.1324E+01 -0.1323E+02E
 Epicentro: LOS SANTOS - SANTANDER                                             3
 ACTION:UPD 14-01-09 16:27 OP:ep   STATUS:               ID:20131111174345 L   I
 OLDACT:UP  13-12-03 10:12 OP:ep   STATUS:               ID:20131111174345 L   3
 OLDACT:DUP 13-11-11 19:27 OP:stll STATUS:               ID:20131111173819d    3
 2013-11-11-1738-18M.COL___222                                                 6
 STAT SP IPHASW D HRMM SECON CODA AMPLIT PERI AZIMU VELO AIN AR TRES W  DIS CAZ7
 BAR2 SZ IP     D 1744  6.02                             169    0.2610 27.2 183 
 BAR2 SZ I        1744  6.31        28.9 0.30            169           27.2 183 
 BAR2 SZ ES       1744 20.30                             169   -1.0610 27.2 183 
 BRR  HZ IP     C 1744  7.82                             154    0.8810 67.1 296 
 BRR  HZ I        1744  8.03        21.1 0.28            151           67.1 296 
 BRR  HN ES       1744 24.18                             154    0.7110 67.1 296 
 PAM  SZ EP       1744  8.89                             152    0.7510 75.8  43 
 PAM  SZ I        1744  9.11        24.5 0.20            154           75.8  43 
 PAM  SN ES       1744 25.75                             152    0.1510 75.8  43 
 RUS  HZ EP       1744 10.06                             143    0.0010  105 175 
 RUS  HN ES   4   1744 27.07                             143   -1.95 0  105 175 
 RUS  HZ I        1744 29.48         6.1 0.28            144            105 175 
 PTB  HZ EP   1   1744 12.60                             133   -0.18 7  146 257 
 PTB  HN ES   1   1744 33.34                             133   -0.52 7  146 257 
 PTB  HZ I        1744 38.88        11.7 0.20            131            146 257 
 CAPV BZ EP       1744 12.51                             133   -0.68 9  148  40 
 SML  HZ EP       1744 21.30                             118   -0.69 8  239 335 
 SML  HN ES       1744 49.76                             118   -0.50 8  239 335 
 SML  HZ I        1744 54.53        11.7 0.10            118            239 335 
                                                                                
