 2012  911 1346  4.4 L   6.647 -73.493 13.7  RSN  4 0.4 1.0LRSN                1
 GAP=150        0.72       8.3    11.9 13.6  0.7896E+02  0.1402E+03  0.6378E+02E
 Epicentro: EL CARMEN DE CHUCURI - SANTANDER                                   3
 ACTION:UPD 12-10-22 14:18 OP:ep   STATUS:               ID:20120911134604 L   I
 2012-09-11-1340-00M.COL___226                                                 6
 STAT SP IPHASW D HRMM SECON CODA AMPLIT PERI AZIMU VELO AIN AR TRES W  DIS CAZ7
 BAR2 SZ EP   1   1346 10.70                             108   -0.02 7 34.9 100 
 BAR2 SZ I        1346 30.91         9.5 0.27                          34.9 100 
 BRR  HZ EP   1   1346 13.52                             100   -0.09 7 56.3 335 
 BRR  HZ I        1346 14.79        14.9 0.30                          56.3 335 
 RUS  HZ EP   1   1346 19.82                              96   -0.11 7 95.0 151 
 RUS  HZ I        1346 46.81         2.9 0.20                          95.0 151 
 ZAR  HZ EP   1   1346 31.70                              56    0.74 7  177 302 
 ZAR  HN ES   1   1346 51.26                              56   -0.45 7  177 302 
                                                                                
