 2013  511 1555 37.4 L   6.756 -73.139146.4  RSN  5 0.3 1.9LRSN                1
 GAP=139        0.75       5.6     4.7  6.9 -0.6166E+01 -0.1589E+01  0.8444E+01E
 Epicentro: LOS SANTOS - SANTANDER                                             3
 ACTION:UPD 13-06-20 09:49 OP:ep   STATUS:               ID:20130511155537 L   I
 2013-05-11-1550-00M.COL___255                                                 6
 STAT SP IPHASW D HRMM SECON CODA AMPLIT PERI AZIMU VELO AIN AR TRES W  DIS CAZ7
 BAR2 SZ EP       1555 57.02                             172    0.0110 18.7 195 
 BAR2 SZ ES   1   1556 12.37                             172    0.06 7 18.7 195 
 BRR  HZ EP       1555 58.82                             152    0.0410 74.3 302 
 BRR  HZ I        1555 59.08        28.3 0.28            150           74.3 302 
 BRR  HN ES       1556 15.97                             152    0.5010 74.3 302 
 PAM  SZ EP       1555 59.99                             150    0.1210 80.8  37 
 PAM  SN ES       1556 17.02                             150   -0.3910 80.8  37 
 PAM  SZ I        1556 18.50         9.6 0.40            153           80.8  37 
 RUS  HZ EP   1   1556  1.05                             145    0.20 7 95.7 176 
 RUS  HN ES   2   1556 19.22                             145    0.07 5 95.7 176 
 PTB  HZ EP   2   1556  4.07                             132   -0.32 5  148 261 
 PTB  HN ES   1   1556 24.70                             132   -0.76 7  148 261 
 PTB  HZ I        1556 30.59         5.7 0.32            131            148 261 
                                                                                
