 2011 1011 1053 50.9 L   6.862 -73.057144.0  RSN  5 0.3 1.4LRSN                1
 GAP=145        0.63       8.6    14.1 16.9  0.4364E+02  0.2264E+02  0.5114E+02E
 Epicentro: LOS SANTOS - SANTANDER                                             3
 ACTION:UPD 12-07-13 16:03 OP:ep   STATUS:               ID:20111011105350 L   I
 2011-10-11-1040-00M.COL___171                                                 6
 STAT SP IPHASW D HRMM SECON CODA AMPLIT PERI AZIMU VELO AIN AR TRES W  DIS CAZ7
 GIR2 SZ EP       1054 10.65                             169    0.3710 28.3 328 
 GIR2 SZ ES   3   1054 25.69                             169    0.29 2 28.3 328 
 BAR2 SZ ES   3   1054 25.33                             167   -0.55 2 32.9 205 
 PAM  SZ EP   2   1054 11.61                             155   -0.67 5 65.9  37 
 BRR  HZ EP       1054 12.04                             151   -0.1710 77.2 291 
 BRR  HZ I        1054 36.18         4.9 0.28                          77.2 291 
 RUS  HZ EP       1054 14.96                             142   -0.0110  107 182 
                                                                                
