 2017 1211 1850 16.8 L   6.396 -73.677 99.2  RSN 10 0.5 1.8LRSN                1
 GAP= 59        0.96       2.5     3.0  7.6 -0.1303E+01 -0.4522E+01  0.1147E+01E
 Epicentro: SANTA HELENA DEL OPON - SANTANDER                                  3
 ACTION:UPD 18-01-04 13:19 OP:rebc STATUS:               ID:20171211185016 L   I
 OLDACT:UP  17-12-12 01:58 OP:mg   STATUS:               ID:20171211184741     3
 OLDACT:UP  17-12-12 01:57 OP:mg   STATUS:               ID:20171211184741     3
 OLDACT:REG 17-12-11 22:36 OP:mg   STATUS:               ID:20171211184741     3
 2017-12-11-1848-00M.COL___470                                                 6
 STAT SP IPHASW D HRMM SECON CODA AMPLIT PERI AZIMU VELO AIN AR TRES W  DIS CAZ7
 BAR2 EZ EP       1850 33.01                             147    0.3610 58.9  68 
 BAR2 EZ ES   2   1850 45.73                             147    0.74 5 58.9  68 
 BAR2 EZ I        1850 47.14        52.0 0.20            147           58.9  68 
 PTB  HZ EP   1   1850 33.89                             136   -0.67 7 87.6 280 
 PTB  HN ES       1850 48.26                             136   -0.1310 87.6 280 
 PTB  HZ I        1850 50.63        11.1 0.16            135           87.6 280 
 SPBC HZ EP       1850 35.33                             134    0.1910 93.1 208 
 SPBC HN ES       1850 49.04                             134   -0.3910 93.1 208 
 SPBC HZ I        1850 52.14        20.0 0.32            134           93.1 208 
 PAM  EZ EP       1850 41.04                             120   -0.31 9  150  46 
 PAM  EN ES       1851  0.10                             120   -0.38 9  150  46 
 PAM  EZ I        1851  5.75         4.6 0.22            119            150  46 
 ZAR  HZ EP       1850 43.93                             115    0.13 9  178 313 
 ZAR  HN ES   2   1851  5.77                             115    0.93 4  178 313 
 ZAR  HZ I        1851 10.65        12.9 0.18            113            178 313 
 YPLC HZ EP       1850 44.07                             115   -0.16 9  181 128 
 YPLC HN EP       1850 44.41                             114            181 128 
 YPLC HE ES       1851  6.00                             115    0.40 9  181 128 
 YPLC HZ I        1851  7.74        12.2 0.26            114            181 128 
 YPLC HN I        1851  8.69        15.1 0.27                           181 128 
 CHI  HZ EP   1   1850 45.35                             113   -0.91 6  195 182 
 CHI  HN ES       1851  9.62                             113    0.40 9  195 182 
 CHI  HZ I        1851 12.76         2.2 0.26            112            195 182 
 OCA  HN ES       1851 11.37                             111    0.25 8  208  11 
 OCA  HZ I        1851 15.68        15.2 0.12            110            208  11 
 GUY2CHZ EP   2   1850 51.46                             110    1.43 4  227 235 
 GUY2CHN ES   2   1851 16.11                             110    0.19 4  227 235 
 GUY2CHZ I        1851 21.11         4.3 0.29                           227 235 
 PRA  HZ EP   1   1851  0.36                             103   -0.76 5  325 204 
 PRA  HN ES   1   1851 36.14                             103    0.47 5  325 204 
 PRA  HZ I        1851 42.77         2.1 0.30            100            325 204 
                                                                                
