 2014  311 1732 33.1 L   6.786 -73.164145.0  RSN  8 0.5 1.9LRSN                1
 GAP=135        1.20       5.3     5.0  7.6 -0.1149E+01  0.1205E+02  0.2192E+01E
 Epicentro: LOS SANTOS - SANTANDER                                             3
 ACTION:UPD 14-04-09 23:16 OP:nd   STATUS:               ID:20140311173233 L   I
 OLDACT:DUP 14-03-11 18:14 OP:nd   STATUS:               ID:20140311173049d    3
 2014-03-11-1730-48M.COL___244                                                 6
 STAT SP IPHASW D HRMM SECON CODA AMPLIT PERI AZIMU VELO AIN AR TRES W  DIS CAZ7
 BAR2 SZ EP       1732 52.58                             171   -0.0110 21.5 185 
 BAR2 SZ ES       1733  7.67                             171   -0.1310 21.5 185 
 BAR2 SZ I        1733  9.12        27.0 0.38            170           21.5 185 
 BRR  HZ EP       1732 54.55                             153    0.4510 70.2 300 
 BRR  HN ES       1733 11.45                             153    0.9610 70.2 300 
 BRR  HZ I        1733 16.02        20.4 0.12            150           70.2 300 
 PAM  SZ EP       1732 55.54                             150    0.1710 79.8  40 
 PAM  SN ES       1733 12.52                             150   -0.2310 79.8  40 
 PAM  SZ I        1733 15.36         9.9 0.48            155           79.8  40 
 RUS  HZ EP       1732 56.69                             144    0.0310 99.2 175 
 RUS  HN ES       1733 14.65                             144   -0.4010 99.2 175 
 RUS  HZ I        1733 16.84         7.8 0.24            148           99.2 175 
 PTB  HZ EP       1732 59.39                             132   -0.39 9  146 259 
 PTB  HN ES       1733 20.06                             132   -0.55 9  146 259 
 PTB  HZ I        1733 28.78        10.9 0.34            132            146 259 
 ZAR  HZ EP       1733  4.99                             122   -0.36 9  203 293 
 ZAR  HN ES       1733 29.79                             122   -0.73 9  203 293 
 ZAR  HZ I        1733 36.92        11.5 0.40            123            203 293 
 NOR  HZ EP       1733  8.94                             119    0.44 8  232 234 
 NOR  HN ES       1733 36.84                             119    0.72 8  232 234 
 NOR  HZ I        1733 43.08         8.0 0.14            120            232 234 
 GUY2CHZ EP   4   1733 17.89                             112    1.52 0  299 235 
 GUY2CHN ES   4   1733 51.99                             112    1.85 0  299 235 
 GUY2CHZ I        1734  0.98         4.4 0.50                           299 235 
                                                                                
