 2015 1011 1123 12.5 L   6.776 -73.100143.2  RSN  4 0.1 1.3LRSN                1
 GAP=144        0.43       3.6     5.7  5.6  0.9674E+01 -0.1869E+02 -0.7206E+01E
 Epicentro: LOS SANTOS - SANTANDER                                             3
 ACTION:UPD 15-12-22 20:39 OP:cam  STATUS:               ID:20151011112312 L   I
 OLDACT:DUP 15-10-11 23:19 OP:spq  STATUS:               ID:20151011111749d    3
 2015-10-11-1117-48M.COL___340                                                 6
 STAT SP IPHASW D HRMM SECON CODA AMPLIT PERI AZIMU VELO AIN AR TRES W  DIS CAZ7
 BAR2 EZ EP       1123 31.51                             171   -0.2710 22.3 204 
 BAR2 EZ ES   1   1123 46.73                             171   -0.10 7 22.3 204 
 BAR2 EZ I        1123 47.70         5.5 0.14            169           22.3 204 
 PAM  EZ EP       1123 34.48                             151    0.1110 76.4  35 
 BRR  HZ EP   1   1123 33.66                             150   -0.03 7 76.9 298 
 BRR  HN ES       1123 50.30                             150    0.0710 76.9 298 
 BRR  HZ I        1123 52.20         8.6 0.38            150           76.9 298 
 RUS  HZ EP   1   1123 35.95                             144    0.17 7 97.7 179 
 RUS  HN ES   1   1123 54.06                             144    0.12 7 97.7 179 
 RUS  HZ I        1123 56.01         1.2 0.24            144           97.7 179 
                                                                                
