 2011  611 1722 58.2 L   6.774 -73.121141.7  RSN 10 0.3 2.5LRSN                1
 GAP=159        0.75       3.9     5.8  5.7 -0.1366E+02 -0.5805E-01  0.4368E+01E
 Epicentro: LOS SANTOS - SANTANDER                                             3
 ACTION:UP  11-07-14 19:04 OP:ep   STATUS:               ID:20110611172258 L   I
 2011-06-11-1721-53S.COL___133                                                 6
 STAT SP IPHASW D HRMM SECON CODA AMPLIT PERI AZIMU VELO SNR AR TRES W  DIS CAZ7
 BAR2 SZ EP       1723 17.27                             171     0.010   21 199 
 BAR2 SZ ES   1   1723 32.14                             171     0.0 7   21 199 
 BAR2 SZ I        1723 33.41       113.2 0.19                            21 199 
 BRR  HZ EP       1723 19.10                             151     0.010   75 299 
 BRR  HN ES   1   1723 35.92                             151     0.5 7   75 299 
 BRR  HZ I        1723 38.59        94.4 0.22                            75 299 
 PAM  SZ EP       1723 20.21                             150     0.210   78  37 
 PAM  SZ I        1723 20.43        33.6 0.12                            78  37 
 BRI  SZ EP       1723 21.90                             140     0.110  110  19 
 BRI  SZ ES   1   1723 40.20                             140     0.0 7  110  19 
 BRI  SZ I        1723 45.71        46.6 0.38                           110  19 
 GRA  SZ EP       1723 23.12                             136    -0.110  128  16 
 GRA  SZ ES   1   1723 42.20                             136    -0.5 7  128  16 
 GRA  SZ I        1723 43.76        55.1 0.41                           128  16 
 OCA  SZ EP   1   1723 26.17                             128    -0.3 7  163 352 
 OCA  SZ I        1723 50.95        55.5 0.44                           163 352 
 NOR  SZ EP   1   1723 33.36                             118    -0.4 6  235 235 
 NOR  SE ES   1   1724  0.70                             118    -0.7 6  235 235 
 CHI  HZ EP   1   1723 35.51                             116     0.1 6  247 196 
 CHI  HE ES   1   1724  4.48                             116     0.0 6  247 196 
 CHI  HZ I        1724 12.04        11.3 0.43                           247 196 
 DBB  SZ EP   1   1723 46.49                             109     0.7 5  342 275 
 PRA  HZ EP   1   1723 51.79                             106     0.4 4  391 210 
                                                                                
