 2013  611 1604 10.6 L   6.811 -73.145145.6  RSN 13 0.4 2.4LRSN                1
 GAP=111        0.83       2.8     3.1  4.8  0.3148E+00  0.3567E+01  0.2438E+00E
 Epicentro: LOS SANTOS - SANTANDER                                             3
 ACTION:UPD 14-01-08 09:54 OP:ep   STATUS:               ID:20130611160410 L   I
 OLDACT:UP  13-06-11 18:31 OP:mh   STATUS:               ID:20130611155959     3
 OLDACT:UP  13-06-11 18:28 OP:mh   STATUS:               ID:20130611155959     3
 OLDACT:REG 13-06-11 14:45 OP:mh   STATUS:               ID:20130611155959     3
 2013-06-11-1559-59M.COL___260                                                 6
 STAT SP IPHASW D HRMM SECON CODA AMPLIT PERI AZIMU VELO AIN AR TRES W  DIS CAZ7
 BAR2 SZ EP     C 16 4 30.33                             170    0.0710 24.5 190 
 BAR2 SZ ES   1   16 4 45.65                             170    0.08 7 24.5 190 
 BAR2 SZ I        16 4 46.28        26.6 0.28            168           24.5 190 
 GIR2 SZ EP   1   16 4 30.31                             168    0.07 7 30.1 350 
 GIR2 SZ ES   1   16 4 45.83                             168    0.29 7 30.1 350 
 GIR2 SZ I        16 4 46.77        20.0 0.12            165           30.1 350 
 BRR  HZ EP     C 16 4 32.25                             153    0.5210 70.7 298 
 BRR  HN ES   1   16 4 48.92                             153    0.74 7 70.7 298 
 BRR  HN I        16 4 50.07        96.7 0.26            148           70.7 298 
 RUS  HZ EP       16 4 34.17                             144   -0.2810  102 176 
 RUS  HN ES       16 4 52.56                             144   -0.4610  102 176 
 RUS  HN I        16 4 53.55        30.1 0.36            144            102 176 
 PTB  HZ EP       16 4 37.10                             132   -0.51 9  148 258 
 PTB  HN ES   1   16 4 58.39                             132   -0.26 7  148 258 
 PTB  HZ I        16 5  3.92        20.5 0.24            129            148 258 
 TAM  HZ EP   1   16 4 38.45                             131    0.14 7  155 105 
 TAM  HN ES       16 4 59.93                             131    0.03 9  155 105 
 NOR  HZ EP   1   16 4 46.46                             118    0.03 6  235 234 
 NOR  HE ES       16 5 14.15                             118   -0.20 8  235 234 
 NOR  HE I        16 5 20.62        35.3 0.28            117            235 234 
 SML  HZ EP   1   16 4 46.87                             118   -0.26 6  243 335 
 SML  HN ES       16 5 15.01                             118   -0.58 8  243 335 
 SML  HN I        16 5 21.35        47.1 0.10            117            243 335 
 CHI  HZ EP   1   16 4 48.54                             117    0.10 6  250 195 
 CHI  HN ES   2   16 5 17.44                             117   -0.50 4  250 195 
 CHI  HN I        16 5 21.41        22.9 0.26            116            250 195 
 HEL  HZ EP   1   16 4 52.00                             115    1.13 6  272 256 
 HEL  HN ES   2   16 5 22.21                             115   -0.05 4  272 256 
 HEL  HN I        16 5 31.20        12.7 0.38            113            272 256 
 GUY2CHZ EP   1   16 4 54.49                             112    0.18 5  302 235 
 GUY2CHE ES   4   16 5 31.83                             112    3.44 0  302 235 
 GUY2CHE I        16 5 37.14        20.9 0.36                           302 235 
 COD  HZ EP   1   16 4 59.24                             109    0.38 5  347 355 
 COD  HN ES   2   16 5 35.53                             109   -0.94 3  347 355 
 COD  HN I        16 5 41.45         9.9 0.50            109            347 355 
 PRA  HZ EP   1   16 5  4.01                             106   -0.26 4  393 209 
 PRA  HN ES       16 5 46.80                             106    0.69 6  393 209 
 PRA  HN I        16 5 50.93        10.7 0.68            106            393 209 
                                                                                
