 2014  211 1740 33.6 L   6.815 -73.178143.4  RSN  4 0.4 1.7LRSN                1
 GAP=242        0.80      11.8    10.1 13.2  0.9164E+02 -0.3780E+02 -0.6249E+02E
 Epicentro: LOS SANTOS - SANTANDER                                             3
 ACTION:UPD 14-03-10 08:09 OP:ep   STATUS:               ID:20140211174033 L   I
 OLDACT:REG 14-02-11 16:12 OP:mh   STATUS:               ID:20140211174000     3
 2014-02-11-1740-00M.COL___199                                                 6
 STAT SP IPHASW D HRMM SECON CODA AMPLIT PERI AZIMU VELO AIN AR TRES W  DIS CAZ7
 RUS  HZ EP   1   1740 56.79                             143   -0.45 8  103 174 
 RUS  HN ES   1   1741 15.96                             143    0.27 8  103 174 
 RUS  HZ I        1741 17.65         4.6 0.22            149            103 174 
 PTB  HZ EP   1   1740 59.84                             132   -0.23 8  145 258 
 PTB  HN ES   1   1741 20.07                             132   -0.66 8  145 258 
 SPBC HZ EP       1741  2.14                             128    0.3310  162 218 
 SPBC HN ES   2   1741 24.13                             128    0.30 5  162 218 
 SPBC HZ I        1741 27.89         4.4 0.24            133            162 218 
 ZAR  HE ES   1   1741 30.86                             122    0.51 7  200 292 
 ZAR  HE I        1741 38.07        13.8 0.53            125            200 292 
                                                                                
