 2011 1111 1236 60.0 L   7.380 -73.190127.1  RSN  7 0.2 2.3LRSN                1
 GAP=103        0.48       2.3     2.5  3.5  0.7645E-01  0.2127E+01 -0.3191E+00E
 Epicentro: EL PLAYON - SANTANDER                                              3
 ACTION:UPD 12-07-13 16:09 OP:ep   STATUS:               ID:20111111123660 L   I
 2011-11-11-1233-16S.COL___178                                                 6
 STAT SP IPHASW D HRMM SECON CODA AMPLIT PERI AZIMU VELO AIN AR TRES W  DIS CAZ7
 PAM  SZ EP       1237 19.04                             156    0.1710 54.3  95 
 PAM  SN ES       1237 33.34                             156   -0.2810 54.3  95 
 BRR  HZ EP       1237 18.77                             151    0.0310 65.1 242 
 BRR  HE ES       1237 33.25                             151   -0.1510 65.1 242 
 BRR  HZ I        1237 35.21        76.4 0.10                          65.1 242 
 BAR2 SZ IP       1237 20.65                             143    0.1110 87.1 179 
 BAR2 SZ ES       1237 36.81                             143    0.2110 87.1 179 
 BAR2 SZ I        1237 38.29        50.6 0.21                          87.1 179 
 OCA  SZ EP       1237 21.01                             141   -0.0810 96.0 351 
 OCA  SZ ES   1   1237 37.90                             141    0.32 7 96.0 351 
 OCA  SZ I        1237 39.47        16.9 0.29                          96.0 351 
 RUS  HZ EP   1   1237 27.55                             124   -0.25 7  165 176 
 ZAR  HZ EP   1   1237 28.91                             121   -0.27 7  185 274 
 ZAR  HN ES   1   1237 52.01                             121    0.03 7  185 274 
 ZAR  HZ I        1237 55.43        17.8 0.34                           185 274 
 NOR  SZ EP   1   1237 39.18                             110    0.12 6  274 223 
                                                                                
