 2017 1111 1221 28.1 L   6.811 -73.138150.2  RSN 18 0.6 2.2LRSN                1
 GAP= 66        1.00       3.1     2.8  5.1 -0.8360E+00  0.1327E+01  0.3588E+01E
 Epicentro: LOS SANTOS - SANTANDER                                             3
 ACTION:UPD 17-12-12 19:54 OP:rebc STATUS:               ID:20171111122128 L   I
 OLDACT:UP  17-11-11 22:49 OP:mg   STATUS:               ID:20171111121742     3
 OLDACT:REG 17-11-11 20:33 OP:mg   STATUS:               ID:20171111121742     3
 2017-11-11-1218-00M.COL___441                                                 6
 STAT SP IPHASW D HRMM SECON CODA AMPLIT PERI AZIMU VELO AIN AR TRES W  DIS CAZ7
 BAR2 EZ IP     C 1221 48.17                             170   -0.0810 24.6 191 
 BAR2 EZ ES       1222  3.80                             170   -0.2010 24.6 191 
 BAR2 EZ I    2   1222  4.89        32.7 0.34            168           24.6 191 
 BRR  HZ EP       1221 50.23                             153    0.5310 71.4 297 
 BRR  HN ES       1222  7.36                             153    0.7810 71.4 297 
 BRR  HZ I        1222 11.35        21.4 0.16            154           71.4 297 
 PAM  EZ EP       1221 50.96                             152    0.3010 75.9  40 
 PAM  EN ES       1222  8.26                             152   -0.0410 75.9  40 
 PAM  EZ I        1222 10.51        26.9 0.24            155           75.9  40 
 PTB  HZ EP       1221 54.78                             133   -0.71 9  149 258 
 PTB  HN ES       1222 16.22                             133   -0.66 9  149 258 
 PTB  HZ I        1222 22.05        17.3 0.24            132            149 258 
 TAM  HZ IP     C 1221 56.33                             132    0.29 9  155 105 
 TAM  HN ES       1222 17.91                             132    0.04 9  155 105 
 TAM  HZ I        1222 19.39         8.9 0.33            133            155 105 
 SPBC HZ EP       1221 57.15                             130    0.11 9  165 219 
 SPBC HN ES       1222 19.63                             130   -0.01 9  165 219 
 SPBC HZ I        1222 26.63        24.2 0.29            129            165 219 
 YPLC HZ IP     C 1221 58.30                             127    0.06 9  177 152 
 YPLC HN ES   2   1222 20.78                             127   -1.00 4  177 152 
 YPLC HZ I        1222 29.71         9.9 0.33            127            177 152 
 ZAR  HZ EP   1   1222  1.16                             123    0.33 6  204 292 
 ZAR  HN ES       1222 26.06                             123   -0.34 9  204 292 
 ZAR  HZ I        1222 32.69        17.8 0.14            124            204 292 
 NOR  HZ EP       1222  4.15                             119   -0.04 8  236 234 
 NOR  HN ES       1222 32.94                             119    0.56 8  236 234 
 NOR  HZ I        1222 39.41        12.5 0.32            119            236 234 
 CHI  HZ EP       1222  6.20                             118    0.05 8  250 195 
 CHI  HN ES       1222 35.39                             118   -0.48 8  250 195 
 CHI  HZ I        1222 39.58         7.4 0.42            118            250 195 
 ROSC BZ EP   9   1222  7.89                             117    1.31 0  254 211 
 ROSC BN ES       1222 37.82                             117   -0.12 8  254 211 
 ROSC BZ I        1222 45.99        16.3 0.35            117            254 211 
 GUY2CHZ EP   2   1222 13.69                             113    1.66 4  303 235 
 GUY2CHN ES   1   1222 46.85                             113    0.53 5  303 235 
 GUY2CHZ I        1222 54.80        10.5 0.44                           303 235 
 PTGC HZ EP   2   1222 11.01                             112   -1.19 4  309 159 
 PTGC HN ES   3   1222 44.19                             112   -2.45 2  309 159 
 PTGC HZ I        1222 56.69         9.4 0.44            113            309 159 
 DRL02HZ EP   1   1222 13.44                             111   -0.38 5  324 357 
 DRL02HN ES   1   1222 48.92                             111   -0.59 5  324 357 
 DBB  EN ES       1222 52.20                             110   -0.85 7  340 274 
 DBB  EZ I        1222 53.77         4.1 0.28            111            340 274 
 PRA  HZ EP       1222 22.56                             107    0.66 6  393 210 
 PRA  HN ES       1223  3.85                             107   -0.05 6  393 210 
 PRA  HZ I        1223 12.33         7.8 0.53            107            393 210 
 SJC  HZ EP   9   1222 20.73                             106   -2.98 0  409 327 
 SJC  HN ES   4   1223  3.41                             106   -0.73 0  409 327 
 SJC  HZ I        1223 14.43         2.1 0.31            107            409 327 
 CRJC HZ EP   4   1222 26.23                             104   -4.31 0  466   3 
 CRJC HN ES   4   1223 16.24                             104   -3.03 0  466   3 
 CRJC HZ I        1223 31.50         8.4 0.27            105            466   3 
                                                                                
