 2011 1211 1459 36.6 L   6.757 -73.150141.1  RSN 11 0.5 1.9LRSN                1
 GAP=138        0.92       4.6     5.9  7.0 -0.6720E+01  0.1134E+02  0.3294E+01E
 Epicentro: LOS SANTOS - SANTANDER                                             3
 ACTION:UPD 12-07-13 16:15 OP:ep   STATUS:               ID:20111211145936 L   I
 2011-12-11-1457-36S.COL___152                                                 6
 STAT SP IPHASW D HRMM SECON CODA AMPLIT PERI AZIMU VELO AIN AR TRES W  DIS CAZ7
 BAR2 SZ EP   1   1459 55.50                             172   -0.11 8 18.5 191 
 BAR2 SZ ES   1   15 0 10.21                             172   -0.20 8 18.5 191 
 BAR2 SZ I        15 0 14.56        21.4 0.22                          18.5 191 
 GIR2 SZ EP   1   1459 55.83                             165   -0.05 8 35.9 352 
 BRR  HZ EP   1   1459 57.13                             151   -0.26 8 73.2 302 
 BRR  HZ I        15 0  1.59        18.0 0.11                          73.2 302 
 BRR  HN ES   2   15 0 14.29                             151    0.71 5 73.2 302 
 PAM  SZ EP   1   1459 58.40                             149   -0.20 8 81.4  38 
 PAM  SN ES   1   15 0 15.16                             149   -0.58 8 81.4  38 
 PAM  SZ I        15 0 20.34         9.6 0.37                          81.4  38 
 RUS  HZ EP   1   1459 59.75                             144    0.17 8 95.8 176 
 RUS  HN ES   1   15 0 18.07                             144    0.59 8 95.8 176 
 PTB  HZ EP       15 0  2.63                             131   -0.4610  146 261 
 PTB  HN ES   1   15 0 23.56                             131   -0.18 7  146 261 
 PTB  HZ I        15 0 29.22         7.4 0.22                           146 261 
 OCA  SZ EP   1   15 0  5.89                             128    0.86 7  165 354 
 OCA  SZ ES   2   15 0 27.76                             128    0.58 5  165 354 
 OCA  SZ I        15 0 32.75        13.9 0.39                           165 354 
 CTAU SZ EP   1   15 0  9.90                             122    1.07 7  198 210 
 NOR  SZ EP   1   15 0 11.65                             118   -0.10 7  232 235 
 NOR  SN ES   2   15 0 39.16                             118    0.02 4  232 235 
 CHI  HZ EP   1   15 0 12.67                             116   -0.88 6  244 195 
 PRA  HZ EP   1   15 0 29.75                             106    0.28 5  388 210 
                                                                                
