 2016  611 1834 17.6 L   6.806 -73.144140.4  RSN 14 0.5 2.2LRSN                1
 GAP= 71        1.17       3.5     3.3  6.1 -0.2570E+01  0.4021E+01  0.3374E+01E
 Epicentro: LOS SANTOS - SANTANDER                                             3
 ACTION:UPD 16-07-21 22:17 OP:rebc STATUS:               ID:20160611183417 L   I
 OLDACT:UP  16-06-12 00:28 OP:edw  STATUS:               ID:20160611182745     3
 OLDACT:UP  16-06-12 00:27 OP:edw  STATUS:               ID:20160611182745     3
 OLDACT:REG 16-06-11 21:28 OP:edw  STATUS:               ID:20160611182745     3
 2016-06-11-1827-45M.COL___340                                                 6
 STAT SP IPHASW D HRMM SECON CODA AMPLIT PERI AZIMU VELO AIN AR TRES W  DIS CAZ7
 BAR2 EZ EP       1834 36.53                             170   -0.0510 24.0 190 
 BAR2 EZ ES       1834 51.16                             170   -0.2410 24.0 190 
 BAR2 EZ I        1834 52.22        34.6 0.32                          24.0 190 
 BRR  HZ EP       1834 38.55                             152    0.4010 71.1 298 
 BRR  HN ES       1834 55.14                             152    0.9510 71.1 298 
 BRR  HZ I        1835  0.45        25.2 0.52                          71.1 298 
 PAM  EZ EP       1834 39.36                             150    0.1610 76.8  40 
 PAM  EN ES       1834 56.33                             150    0.2810 76.8  40 
 PAM  EZ I        1834 58.32        41.2 0.50                          76.8  40 
 RUS  HZ EP       1834 40.86                             143    0.0010  101 176 
 RUS  HE ES       1834 58.77                             143   -0.2410  101 176 
 RUS  HZ I        1835  0.63        17.2 0.44                           101 176 
 PTB  HZ EP       1834 43.60                             131   -0.55 9  148 259 
 PTB  HN ES       1835  4.89                             131    0.02 9  148 259 
 PTB  HZ I        1835  7.30        21.8 0.20                           148 259 
 TAM  HZ EP       1834 44.93                             129    0.09 9  155 105 
 TAM  HE ES       1835  6.16                             129    0.06 9  155 105 
 OCA  HZ EP       1834 44.77                             128   -0.66 9  160 353 
 OCA  HE ES       1835  6.46                             128   -0.69 9  160 353 
 OCA  HZ I        1835 10.61        54.3 0.16                           160 353 
 SPBC HN ES       1835  7.17                             128   -0.52 9  164 219 
 NOR  HZ EP       1834 53.06                             117   -0.01 8  235 234 
 NOR  HN ES       1835 20.38                             117   -0.36 8  235 234 
 NOR  HZ I        1835 27.84        12.4 0.18                           235 234 
 CHI  HZ EP       1834 56.12                             116    1.06 8  249 195 
 CHI  HN ES       1835 23.70                             116   -0.59 8  249 195 
 CHI  HZ I        1835 27.22         7.6 0.34                           249 195 
 HEL  HZ EP   4   1834 59.23                             114    1.66 0  272 256 
 HEL  HE ES       1835 29.03                             114    0.27 8  272 256 
 HEL  HZ I        1835 34.95         7.2 0.32                           272 256 
 GUY2CHZ EP       1835  1.71                             111    0.70 7  302 235 
 GUY2CHN ES       1835 35.50                             111    0.62 7  302 235 
 GUY2CHZ I        1835 41.89         5.9 0.26                           302 235 
 CBOC HZ EP   4   1835  5.44                             109    1.11 0  334 252 
 CBOC HN ES       1835 40.24                             109   -0.55 7  334 252 
 SJC  HZ EP   4   1835 11.14                             105   -1.79 0  409 327 
 SJC  HE ES   4   1835 52.27                             105   -3.83 0  409 327 
 SJC  HZ I        1835 56.20         7.8 0.52                           409 327 
                                                                                
