 2016  511 1805 23.0 L   6.773 -73.184146.0  RSN 11 0.5 1.8LRSN                1
 GAP=133        1.01       3.3     4.0  5.5 -0.2091E+01  0.3579E+01  0.2685E+01E
 Epicentro: LOS SANTOS - SANTANDER                                             3
 ACTION:UPD 16-08-18 17:44 OP:cam  STATUS:               ID:20160511180523 L   I
 OLDACT:REG 16-05-11 22:54 OP:mh   STATUS:               ID:20160511175744     3
 2016-05-11-1757-44M.COL___304                                                 6
 STAT SP IPHASW D HRMM SECON CODA AMPLIT PERI AZIMU VELO AIN AR TRES W  DIS CAZ7
 BAR2 EZ EP       18 5 42.40                             172   -0.1910 20.0 179 
 BAR2 EZ ES       18 5 58.06                             172    0.1910 20.0 179 
 BAR2 EZ I        18 6  0.38         9.9 0.28            166           20.0 179 
 BRR  HZ EP       18 5 44.54                             153    0.5010 69.0 302 
 BRR  HE ES       18 6  1.12                             153    0.6510 69.0 302 
 BRR  HZ I        18 6  4.77        14.1 0.23            153           69.0 302 
 PAM  EZ EP       18 5 45.52                             149   -0.0210 82.4  41 
 PAM  EN ES       18 6  2.89                             149   -0.2310 82.4  41 
 PAM  EZ I        18 6  4.82         8.8 0.52            159           82.4  41 
 RUS  HZ EP       18 5 46.58                             145   -0.0010 98.0 173 
 RUS  HN ES       18 6  4.87                             145   -0.1110 98.0 173 
 RUS  HZ I        18 6  6.52         5.5 0.36            145           98.0 173 
 PTB  HZ EP       18 5 49.14                             133   -0.41 9  143 260 
 PTB  HN ES       18 6 10.05                             133   -0.22 9  143 260 
 PTB  HZ I        18 6 11.46         7.1 0.13            133            143 260 
 SPBC HZ EP   2   18 5 50.26                             130   -0.78 5  158 218 
 SPBC HN ES       18 6 13.26                             130    0.35 9  158 218 
 SPBC HZ I        18 6 20.64        11.0 0.19            130            158 218 
 ZAR  HZ EP   2   18 5 55.36                             123    0.20 4  201 293 
 ZAR  HE ES       18 6 19.68                             123   -0.58 9  201 293 
 ZAR  HZ I        18 6 30.98         5.7 0.24            125            201 293 
 NOR  HZ EP   2   18 6  0.35                             119    2.17 4  229 234 
 NOR  HE ES       18 6 25.54                             119   -0.08 8  229 234 
 NOR  HZ I        18 6 34.52         5.4 0.14            120            229 234 
 CHI  HZ EP       18 6  0.47                             118    0.20 8  245 194 
 CHI  HE ES       18 6 28.80                             118   -0.55 8  245 194 
 CHI  HZ I        18 6 37.05         2.3 0.25            119            245 194 
 LL6C HZ EP       18 6  8.55                             110   -0.47 7  328 358 
 LL6C HE ES   4   18 6 30.08                             110   -14.8 0  328 358 
 LL6C HZ I        18 6 31.51         6.9 0.40            114            328 358 
 PRA  HZ EP       18 6 16.77                             107    0.80 6  387 209 
 PRA  HN ES       18 6 56.94                             107   -0.35 6  387 209 
 PRA  HZ I        18 7  4.85         2.6 0.43            109            387 209 
                                                                                
