 2010  111 1944 47.4 L   6.038 -73.621115.1  RSN  5 0.2 1.6LRSN                1
 GAP=174        0.42       3.5    10.9  9.9 -0.2722E+02  0.8658E+02 -0.1417E+02E
 Epicentro: CHIPATA - SANTANDER                                                3
 ACTION:UP  10-08-24 09:43 OP:vdl  STATUS:               ID:20100111194447 L   I
 2010-01-11-1940-06S.COL___097                                                 6
 STAT SP IPHASW D HRMM SECON CODA AMPLIT PERI AZIMU VELO SNR AR TRES W  DIS CAZ7
 RUS  BZ EP   1   1945  5.19                             150    -0.2 7   62 105 
 RUS  BN ES   2   1945 19.84                             150     0.4 5   62 105 
 RUS  BZ I        1945 21.28         8.2 0.52                            62 105 
 BAR2 SZ EP   1   1945  6.30                             144     0.2 7   78  38 
 BAR2 SZ ES   2   1945 20.38                             144    -0.4 5   78  38 
 GIR2 SZ EP   1   1945  9.97                             129     0.1 7  124  22 
 GIR2 SZ ES   2   1945 27.40                             129    -0.1 5  124  22 
 CHI  HZ EP   1   1945 13.22                             123    -0.2 7  156 185 
 CHI  HN ES   2   1945 33.65                             123    -0.1 5  156 185 
 CHI  HZ I        1945 35.34         3.7 0.24                           156 185 
 PRA  HZ EP   1   1945 28.32                             106     0.1 5  293 209 
 PRA  HE ES   2   1946  0.23                             106     0.2 4  293 209 
 PRA  HZ I        1946  7.86         3.7 0.50                           293 209 
                                                                                
