 2010 1211 1926 35.5 L   6.814 -73.159139.7  RSN  6 0.1 1.7LRSN                1
 GAP=158        0.39       2.0    11.4  3.7 -0.6031E+01  0.1707E+02 -0.1380E+00E
 Epicentro: LOS SANTOS - SANTANDER                                             3
 ACTION:UP  11-01-14 15:24 OP:pat  STATUS:               ID:20101211192635 L   I
 2010-12-11-1925-14S.COL___136                                                 6
 STAT SP IPHASW D HRMM SECON CODA AMPLIT PERI AZIMU VELO SNR AR TRES W  DIS CAZ7
 BAR2 SZ ES   2   1927  9.30                             169     0.1 5   25 186 
 BAR2 SZ I        1927 10.75        15.0 0.30                            25 186 
 GIR2 SZ EP       1926 54.67                             167     0.210   30 353 
 GIR2 SZ ES   1   1927  9.08                             167    -0.1 7   30 353 
 RUS  HZ EP       1926 58.83                             142     0.010  102 175 
 RUS  HN ES   1   1927 16.99                             142     0.0 7  102 175 
 RUS  HZ I        1927 18.69         5.2 0.33                           102 175 
 GRA  SZ ES   2   1927 19.10                             136    -0.3 5  125  18 
 OCA  SZ EP       1927  3.19                             128     0.0 9  159 354 
 OCA  SZ I        1927 29.52        10.7 0.34                           159 354 
 CHI  HZ EP       1927 12.95                             116    -0.1 8  250 195 
 CHI  HN ES   2   1927 42.05                             116    -0.2 4  250 195 
 CHI  HZ I        1927 45.29         2.9 0.64                           250 195 
                                                                                
