 2016  511 1816 19.5 L   6.802 -73.165144.8  RSN 20 0.4 2.4LRSN                1
 GAP=134        0.98       2.7     3.4  4.7 -0.1354E+01  0.4071E+01  0.2780E+01E
 Epicentro: LOS SANTOS - SANTANDER                                             3
 ACTION:UPD 16-08-18 17:44 OP:cam  STATUS:               ID:20160511181619 L   I
 OLDACT:UP  16-05-15 07:33 OP:ar   STATUS:               ID:20160511181619 L   3
 OLDACT:UP  16-05-11 23:28 OP:mh   STATUS:               ID:20160511180747     3
 OLDACT:UP  16-05-11 23:27 OP:mh   STATUS:               ID:20160511180747     3
 OLDACT:UP  16-05-11 23:27 OP:mh   STATUS:               ID:20160511180747     3
 OLDACT:UP  16-05-11 23:27 OP:mh   STATUS:               ID:20160511180747     3
 OLDACT:UP  16-05-11 23:26 OP:mh   STATUS:               ID:20160511180747     3
 OLDACT:UP  16-05-11 23:26 OP:mh   STATUS:               ID:20160511180747     3
 OLDACT:UP  16-05-11 23:26 OP:mh   STATUS:               ID:20160511180747     3
 OLDACT:UP  16-05-11 23:26 OP:mh   STATUS:               ID:20160511180747     3
 OLDACT:UP  16-05-11 23:24 OP:mh   STATUS:               ID:20160511180747     3
 OLDACT:UP  16-05-11 23:23 OP:mh   STATUS:               ID:20160511180747     3
 OLDACT:UP  16-05-11 23:23 OP:mh   STATUS:               ID:20160511180747     3
 OLDACT:UP  16-05-11 23:23 OP:mh   STATUS:               ID:20160511180747     3
 OLDACT:UP  16-05-11 23:22 OP:mh   STATUS:               ID:20160511180747     3
 OLDACT:REG 16-05-11 22:54 OP:mh   STATUS:               ID:20160511180747     3
 2016-05-11-1807-47M.COL___303                                                 6
 STAT SP IPHASW D HRMM SECON CODA AMPLIT PERI AZIMU VELO AIN AR TRES W  DIS CAZ7
 BAR2 EZ EP       1816 38.98                             170   -0.0110 23.3 185 
 BAR2 EZ ES       1816 53.87                             170   -0.3410 23.3 185 
 BAR2 EZ I        1816 55.24        56.1 0.32            168           23.3 185 
 BRR  HZ EP       1816 40.86                             153    0.4510 69.2 299 
 BRR  HN ES       1816 57.74                             153    1.0110 69.2 299 
 BRR  HZ I        1817  2.14        40.8 0.11            147           69.2 299 
 PAM  EZ EP       1816 41.78                             150    0.1210 78.6  41 
 PAM  EN ES       1816 58.88                             150   -0.0910 78.6  41 
 PAM  EZ I        1817  1.18        70.2 0.56            151           78.6  41 
 RUS  HZ EP       1816 43.08                             143   -0.0910  101 175 
 RUS  HN ES       1817  1.61                             143   -0.0310  101 175 
 RUS  HZ I        1817  2.75        35.9 0.32            142            101 175 
 PTB  HZ EP       1816 45.62                             132   -0.56 9  146 259 
 PTB  HN ES       1817  6.77                             132   -0.23 9  146 259 
 PTB  HZ I        1817  8.96        19.7 0.40            127            146 259 
 OCA  HZ EP       1816 48.22                             129    0.55 9  160 354 
 OCA  HN ES       1817  8.62                             129   -1.03 9  160 354 
 OCA  HZ I        1817 12.31        49.3 0.16            127            160 354 
 SPBC HZ EP   4   1816 47.85                             129    0.06 0  162 218 
 SPBC HN ES   4   1817  9.80                             129   -0.08 0  162 218 
 SPBC HZ I        1817 16.13        46.6 0.44            125            162 218 
 ZAR  HZ EP       1816 51.57                             122   -0.07 9  202 292 
 ZAR  HN ES       1817 16.97                             122    0.24 9  202 292 
 ZAR  HZ I        1817 24.01        20.1 0.41            119            202 292 
 NOR  HZ EP       1816 54.73                             118   -0.25 8  233 234 
 NOR  HN ES       1817 22.70                             118    0.03 8  233 234 
 NOR  HZ I        1817 30.82        20.3 0.18            115            233 234 
 CHI  HZ EP       1816 57.14                             117    0.05 8  248 195 
 CHI  HN ES       1817 26.51                             117    0.08 8  248 195 
 CHI  HZ I        1817 30.51        13.9 0.44            115            248 195 
 ROSC BZ EP   9   1816 59.11                             116    1.66 0  252 211 
 ROSC BE ES       1817 28.21                             117   -0.51 8  252 211 
 ROSC BZ I        1817 32.65        25.3 0.35            114            252 211 
 HEL  HZ EP       1816 59.97                             115    0.55 8  270 256 
 HEL  HN ES       1817 30.28                             115   -0.29 8  270 256 
 HEL  HZ I        1817 36.97        12.8 0.42            112            270 256 
 URE  HZ EP   9   1816 58.73                             113   -1.54 0  282 292 
 URE  HN ES       1817 30.37                             114   -0.17 7  282 292 
 PTGC HZ EP   4   1817  2.08                             111   -1.33 0  310 158 
 PTGC HN ES   4   1817 34.57                             111   -3.11 0  310 158 
 PTGC HZ I        1817 40.68        20.1 0.52            110            310 158 
 LL6C HZ EP   9   1817  3.59                             110   -1.51 0  325 358 
 LL6C HN ES       1817 38.90                             110   -0.27 7  325 358 
 LL6C HZ I        1817 42.46         7.0 0.45            108            325 358 
 CBOC HZ EP   4   1817  2.78                             110   -3.35 0  332 252 
 CBOC HN ES   4   1817 43.74                             110    1.23 0  332 252 
 DBB  SZ EP   4   1817  0.09                             109   -6.57 0  337 274 
 DBB  SZ I        1817 46.81        26.0 0.64            107            337 274 
 PRA  HZ EP       1817 12.87                             106    0.00 6  391 209 
 PRA  HN ES       1817 54.64                             106    0.13 6  391 209 
 PRA  HZ I        1817 59.31         7.9 0.22            104            391 209 
 ORTC HZ EP       1817 13.24                             106   -0.00 6  394 216 
 ORTC HN ES       1817 55.57                             106    0.40 6  394 216 
 ORTC HZ I        1818  2.70         7.7 0.52            104            394 216 
 PAL  HZ EP   1   1817 13.86                             106   -0.54 4  404 239 
 PAL  HN ES       1817 56.57                             106   -0.67 6  404 239 
 PAL  HZ I        1818  1.37         4.7 0.22            104            404 239 
 SJC  HZ EP   4   1817 13.15                             106   -1.70 0  408 327 
 SJC  HN ES   4   1817 53.97                             106   -4.06 0  408 327 
 SJC  HZ I        1817 58.31         4.9 0.60            104            408 327 
                                                                                
