 2015  811 1720 58.3 L   6.231 -72.878  0.0  RSN  5 0.6 1.6LRSN                1
 GAP=248        1.50       4.4    21.3 15.1  0.6060E+02  0.2527E+03  0.3763E+02E
 Epicentro: ONZAGA - SANTANDER                                                 3
 ACTION:UPD 15-09-15 23:01 OP:cam  STATUS:               ID:20150811172059dL   I
 OLDACT:REG 15-08-11 21:29 OP:ar   STATUS:               ID:20150811171750     3
 2015-08-11-1717-50M.COL___316                                                 6
 STAT SP IPHASW D HRMM SECON CODA AMPLIT PERI AZIMU VELO AIN AR TRES W  DIS CAZ7
 RUS  HZ EP       1721  6.06                              47   -0.5610 43.8 211 
 RUS  HN ES       1721 12.97                              47   -0.1310 43.8 211 
 RUS  HZ I        1721 13.53        23.5 0.72             47           43.8 211 
 BAR2 EZ EP       1721  6.89                              47   -0.7410 52.2 320 
 BAR2 EZ ES       1721 14.17                              47   -0.7310 52.2 320 
 BAR2 EZ I        1721 15.03        52.7 0.20             47           52.2 320 
 BRR  HZ EP       1721 20.57                              47    0.8410  134 316 
 BRR  HE ES       1721 37.24                              47    0.8010  134 316 
 BRR  HZ I        1721 38.43        15.8 0.38             47            134 316 
 SPBC HN ES   2   1721 40.17                              47    0.00 5  147 244 
 CHI  HZ EP       1721 30.42                              37    0.59 9  201 208 
 CHI  HN ES       1721 54.72                              37    0.31 9  201 208 
 CHI  HZ I        1722  2.42         4.9 0.52             37            201 208 
                                                                                
