 2017 1211 1056  2.8 L   6.811 -73.173149.0  RSN 19 0.6 2.3LRSN                1
 GAP=109        0.95       2.1     3.1  5.4 -0.1166E+01  0.3976E+01  0.6489E+00E
 Epicentro: LOS SANTOS - SANTANDER                                             3
 ACTION:UPD 18-01-04 13:19 OP:rebc STATUS:               ID:20171211105602 L   I
 OLDACT:UP  17-12-11 23:29 OP:mg   STATUS:               ID:20171211104740d    3
 OLDACT:DUP 17-12-11 23:06 OP:mg   STATUS:               ID:20171211104740d    3
 OLDACT:REG 17-12-11 21:28 OP:mg   STATUS:               ID:20171211104739     3
 2017-12-11-1048-00M.COL___469                                                 6
 STAT SP IPHASW D HRMM SECON CODA AMPLIT PERI AZIMU VELO AIN AR TRES W  DIS CAZ7
 BAR2 EZ EP       1056 22.67                             170   -0.2110 24.2 182 
 BAR2 EZ ES   2   1056 37.99                             170   -0.51 5 24.2 182 
 BAR2 EZ I        1056 38.95        42.7 0.26            169           24.2 182 
 PAM  EZ IP     D 1056 25.72                             151    0.2610 78.4  42 
 PAM  EN ES       1056 42.86                             151   -0.2410 78.4  42 
 PAM  EZ I        1056 45.80        24.4 0.40            155           78.4  42 
 PTB  HZ EP       1056 29.06                             133   -0.78 9  145 258 
 PTB  HN ES       1056 50.39                             133   -0.50 9  145 258 
 PTB  HZ I        1056 55.55        15.3 0.16            132            145 258 
 OCA  HZ EP       1056 31.14                             131   -0.12 9  159 354 
 OCA  HN ES       1056 53.58                             131    0.16 9  159 354 
 OCA  HZ I        1056 56.65        43.2 0.22            132            159 354 
 SPBC HZ EP       1056 31.92                             130    0.41 9  162 218 
 SPBC HN ES       1056 54.31                             130    0.45 9  162 218 
 SPBC HZ I        1056 57.89        27.1 0.14            130            162 218 
 YPLC HZ EP       1056 33.00                             127   -0.12 9  179 151 
 YPLC HN ES       1056 57.15                             127    0.41 9  179 151 
 YPLC HZ I        1056 58.11        20.7 0.25            130            179 151 
 ZAR  HZ EP       1056 35.21                             123    0.04 9  201 292 
 ZAR  HE ES       1057  1.13                             123    0.75 9  201 292 
 ZAR  HZ I        1057  6.79        19.6 0.40            123            201 292 
 CHI  HZ EP       1056 40.99                             118    0.22 8  249 194 
 CHI  HN ES       1057 10.31                             118   -0.04 8  249 194 
 CHI  HZ I        1057 15.34         9.6 0.38            119            249 194 
 ROSC BZ EP   9   1056 43.53                             117    2.44 0  252 210 
 ROSC BN ES   4   1057 14.32                             118    0.96 0  252 210 
 ROSC BZ I        1057 17.50        26.5 0.40            118            252 210 
 URE  HZ EP       1056 43.24                             114   -0.47 7  281 292 
 URE  HN ES   3   1057 13.11                             114   -2.48 2  281 292 
 URE  HZ I        1057 23.99        10.8 0.40            115            281 292 
 DRL03HZ EP       1056 44.91                             114    0.48 7  287 353 
 DRL03HN ES       1057 17.78                             114    0.91 7  287 353 
 GUY2CHZ EP   2   1056 47.67                             113    1.26 4  299 234 
 GUY2CHN ES       1057 20.09                             113   -0.30 7  299 234 
 GUY2CHZ I        1057 29.05        11.8 0.70                           299 234 
 PTGC HZ EP   2   1056 45.88                             112   -1.22 3  311 158 
 PTGC HN ES   3   1057 19.36                             112   -2.26 2  311 158 
 PTGC HZ I        1057 20.22        15.4 0.31            114            311 158 
 LL6C HZ EP       1056 48.14                             111   -0.39 7  324 358 
 LL6C HN ES       1057 23.64                             111   -0.52 7  324 358 
 LL6C HZ I        1057 32.74         3.2 0.31            112            324 358 
 CBOC HZ EP       1056 50.17                             111    0.56 7  331 252 
 CBOC HN ES       1057 25.87                             111   -0.22 7  331 252 
 CBOC HZ I        1057 40.39         3.6 0.28            111            331 252 
 PRA  HZ EP       1056 56.55                             107    0.12 6  392 209 
 PRA  HN ES       1057 38.06                             107   -0.17 6  392 209 
 PRA  HZ I        1057 45.17         9.3 0.30            108            392 209 
 ORTC HZ EP       1056 56.65                             107   -0.14 6  395 216 
 ORTC HN ES   2   1057 40.34                             107    1.48 3  395 216 
 ORTC HZ I        1057 46.58         5.5 0.32            108            395 216 
 PAL  HZ EP       1056 57.91                             106    0.02 6  404 239 
 PAL  HN ES       1057 40.56                             106   -0.26 6  404 239 
 PAL  HZ I        1057 44.59         3.4 0.20            107            404 239 
 SJC  HZ EP   2   1056 56.84                             106   -1.36 3  407 327 
 SJC  HN ES   4   1057 37.80                             106   -3.58 0  407 327 
 SJC  HZ I        1057 47.91         2.2 0.58            107            407 327 
                                                                                
