 2013  211 1035 51.6 L   6.808 -73.155144.5  RSN  8 0.5 1.7LRSN                1
 GAP=135        0.99       4.2     5.0  8.0  0.2491E+01  0.1206E+02  0.6179E+01E
 Epicentro: LOS SANTOS - SANTANDER                                             3
 ACTION:UPD 13-03-12 09:32 OP:ep   STATUS:               ID:20130211103551 L   I
 2013-02-11-1030-00M.COL___240                                                 6
 STAT SP IPHASW D HRMM SECON CODA AMPLIT PERI AZIMU VELO AIN AR TRES W  DIS CAZ7
 BAR2 SZ EP   1   1036 10.90                             170   -0.14 7 24.1 187 
 BAR2 SZ ES   1   1036 25.24                             170   -1.01 7 24.1 187 
 BAR2 SZ I        1036 28.01         9.9 0.20            168           24.1 187 
 BRR  HZ EP   1   1036 12.67                             153    0.19 7 69.8 298 
 BRR  HN ES   1   1036 29.75                             153    0.94 7 69.8 298 
 BRR  HZ I        1036 33.37         9.3 0.26            152           69.8 298 
 PAM  SZ EP   1   1036 13.56                             151   -0.07 7 77.3  41 
 PAM  SE ES       1036 30.89                             151    0.0410 77.3  41 
 PAM  SZ I        1036 32.57         5.7 0.48            156           77.3  41 
 RUS  HZ EP       1036 15.59                             143    0.3410  102 175 
 RUS  HN ES       1036 34.03                             143    0.3010  102 175 
 RUS  HZ I        1036 35.86         3.9 0.32            145            102 175 
 PTB  HZ EP       1036 17.74                             132   -0.60 9  147 258 
 PTB  HN ES   1   1036 39.06                             132   -0.17 7  147 258 
 PTB  HZ I        1036 42.90         5.1 0.20            132            147 258 
 OCA  HN ES   1   1036 41.17                             130   -0.42 7  159 353 
 ZAR  HN ES       1036 49.10                             122    0.19 9  203 292 
 ZAR  HN I        1036 53.87        12.7 0.58            124            203 292 
 CHI  HZ EP   1   1036 29.64                             117    0.39 6  249 195 
 CHI  HN ES   2   1036 58.05                             117   -0.60 4  249 195 
 CHI  HN I        1037  4.43         3.4 0.28            118            249 195 
                                                                                
