 2013  811 1540  2.5 L   6.728 -73.141146.8  RSN  8 0.4 1.8LRSN                1
 GAP=140        0.88       4.4     4.4  6.1 -0.2393E+01  0.3123E+01  0.3985E+01E
 Epicentro: JORDAN - SANTANDER                                                 3
 ACTION:UPD 14-01-14 09:01 OP:ep   STATUS:               ID:20130811154003dL   I
 OLDACT:REG 13-08-11 17:32 OP:jn   STATUS:               ID:20130811153959     3
 2013-08-11-1539-59M.COL___270                                                 6
 STAT SP IPHASW D HRMM SECON CODA AMPLIT PERI AZIMU VELO AIN AR TRES W  DIS CAZ7
 BAR2 SZ EP       1540 22.20                             174    0.0810 15.6 197 
 BAR2 SZ ES       1540 37.59                             174    0.1610 15.6 197 
 BAR2 SZ I        1540 38.42        14.8 0.18            171           15.6 197 
 GIR2 SZ EP   1   1540 22.40                             164   -0.13 7 39.3 352 
 GIR2 SZ ES       1540 37.55                             164   -0.6110 39.3 352 
 GIR2 SZ I        1540 38.65        12.0 0.20            163           39.3 352 
 BRR  HZ EP       1540 24.27                             151    0.2510 75.8 304 
 BRR  HN ES       1540 41.54                             151    0.7310 75.8 304 
 BRR  HZ I        1540 42.22        15.6 0.18            148           75.8 304 
 PAM  SZ EP       1540 25.32                             149    0.1310 83.4  36 
 PAM  SN ES       1540 42.60                             149   -0.2910 83.4  36 
 PAM  SZ I        1540 44.80         8.3 0.50            152           83.4  36 
 RUS  HZ EP       1540 25.92                             146    0.1310 92.5 176 
 RUS  HE ES   1   1540 44.24                             146    0.28 7 92.5 176 
 RUS  HZ I        1540 45.96         4.8 0.36            147           92.5 176 
 PTB  HZ EP   1   1540 29.00                             132   -0.48 7  147 262 
 PTB  HN ES   1   1540 50.12                             132   -0.39 7  147 262 
 PTB  HZ I        1540 55.95         8.1 0.18            131            147 262 
 SPBC HN ES   1   1540 51.93                             130   -0.47 7  157 221 
 SPBC HZ I        1540 55.32        11.5 0.18            129            157 221 
 ZAR  HE ES   1   1541  0.98                             122   -0.05 6  208 294 
 ZAR  HZ I        1541  6.92         9.8 0.28            121            208 294 
                                                                                
