 2010  111 1135 22.2 L   6.784 -73.136150.7  RSN 16 0.5 4.0LRSN                1
 GAP=123        0.71       3.7     5.3  5.9 -0.6477E+01  0.1107E+02  0.1876E+01E
 Epicentro: LOS SANTOS - SANTANDER                                             3
 ACTION:UP  10-08-24 09:43 OP:vdl  STATUS:               ID:20100111113522 L   I
 2010-01-11-1133-41S.COL___097                                                 6
 STAT SP IPHASW D HRMM SECON CODA AMPLIT PERI AZIMU VELO SNR AR TRES W  DIS CAZ7
 BAR2 SZ IP       1135 42.33                             171     0.010   22 194 
 BAR2 SZ ES   2   1135 58.33                             171     0.2 5   22 194 
 GIR2 SZ IP       1135 42.58                             167     0.110   33 349 
 GIR2 SZ ES   2   1135 57.91                             167    -0.4 5   33 349 
 RUS  BZ IP       1135 46.16                             145    -0.110   99 177 
 RUS  BE ES   2   1136  5.10                             145     0.0 5   99 177 
 RUS  BZ I        1136  7.27      1657.7 0.24                            99 177 
 OCA  SZ EP   1   1135 51.21                             130     0.2 7  162 353 
 OCA  SZ ES   2   1136 13.81                             130     0.2 5  162 353 
 CHI  HZ EP   1   1135 59.76                             118    -0.2 6  247 196 
 CHI  HN ES   2   1136 29.32                             118    -0.2 4  247 196 
 CHI  HZ I        1136 32.79       367.1 0.65                           247 196 
 ROSC BZ EP   1   1136  1.46                             118     1.0 6  252 211 
 ROSC BN ES   2   1136 29.64                             118    -0.7 4  252 211 
 ROSC BZ I        1136 35.47       534.5 0.50                           252 211 
 HEL  HZ EP   1   1136  1.74                             116    -1.0 6  273 256 
 HEL  HE ES   2   1136 34.24                             116    -0.1 4  273 256 
 HEL  HZ I        1136 41.66       575.3 0.48                           273 256 
 GUY  HZ EP   1   1136  6.85                             113     0.9 5  301 235 
 GUY  HE ES   2   1136 40.19                             113     0.0 4  301 235 
 RREF BZ EP   1   1136  8.09                             112    -0.4 5  321 230 
 RREF BN ES   2   1136 45.02                             112     0.4 3  321 230 
 RREF BZ I        1136 51.93       484.7 0.61                           321 230 
 DBB  SZ EP   1   1136  9.61                             110    -0.4 5  341 275 
 TOL  SZ EP   1   1136 11.16                             110     0.6 5  343 225 
 TOL  SZ ES   2   1136 49.14                             110     0.8 3  343 225 
 SDV  BZ EP   1   1136 12.62                             109     0.2 5  361  50 
 PRA  HZ EP   1   1136 15.16                             107    -0.6 4  391 210 
 PRA  HE ES   2   1136 58.01                             107     0.5 3  391 210 
 GUA  SZ EP   1   1136 24.58                             104    -0.6 4  472 173 
 SOL  SZ EP   1   1136 25.08                             104    -0.6 3  477 263 
 MAL  SZ EP   1   1136 35.20                             101    -0.1 3  557 237 
                                                                                
