 2013  411 1311 57.9 L   6.797 -73.177144.0  RSN  5 0.5 1.5LRSN                1
 GAP=177        1.07       8.6     9.0  9.6  0.8445E+01  0.3015E+02  0.9205E+01E
 Epicentro: LOS SANTOS - SANTANDER                                             3
 ACTION:UPD 13-05-22 14:37 OP:EP   STATUS:               ID:20130411131157 L   I
 2013-04-11-1310-00M.COL___245                                                 6
 STAT SP IPHASW D HRMM SECON CODA AMPLIT PERI AZIMU VELO AIN AR TRES W  DIS CAZ7
 BAR2 SZ EP   1   1312 17.46                             170    0.20 7 22.6 182 
 BAR2 SZ ES       1312 32.61                             170    0.2110 22.6 182 
 BAR2 SZ I        1312 33.45        14.6 0.20            166           22.6 182 
 GIR2 SZ EP       1312 17.50                             167    0.1810 31.2 357 
 GIR2 SZ ES       1312 31.77                             167   -0.7310 31.2 357 
 GIR2 SZ I        1312 33.56         5.7 0.26            169           31.2 357 
 BRR  HN ES   1   1312 35.89                             153    1.01 7 68.4 300 
 RUS  HN ES   1   1312 39.85                             143    0.03 7  101 174 
 RUS  HZ I        1312 41.58         2.6 0.42            142            101 174 
 PTB  HZ EP       1312 24.13                             132   -0.24 9  144 259 
 PTB  HN ES   1   1312 44.74                             132   -0.31 7  144 259 
 PTB  HZ I        1312 49.26         3.5 0.22            131            144 259 
                                                                                
