 2016 1111 1338 13.9 L   6.769 -73.149142.0  RSN  8 0.5 2.3LRSN                1
 GAP=153        1.22       7.4     5.6  8.2 -0.1193E+02  0.1116E+02  0.1054E+02E
 Epicentro: LOS SANTOS - SANTANDER                                             3
 ACTION:UPD 17-10-26 21:06 OP:lp   STATUS:               ID:20161111133813 L   I
 OLDACT:UP  16-11-11 22:52 OP:dnl  STATUS:               ID:20161111133732     3
 OLDACT:UP  16-11-11 22:46 OP:dnl  STATUS:               ID:20161111133732     3
 OLDACT:UP  16-11-11 22:46 OP:dnl  STATUS:               ID:20161111133732     3
 OLDACT:UP  16-11-11 22:46 OP:dnl  STATUS:               ID:20161111133732     3
 OLDACT:UP  16-11-11 22:45 OP:dnl  STATUS:               ID:20161111133732     3
 OLDACT:REG 16-11-11 21:17 OP:dnl  STATUS:               ID:20161111133732     3
 2016-11-11-1338-00M.COL___343                                                 6
 STAT SP IPHASW D HRMM SECON CODA AMPLIT PERI AZIMU VELO AIN AR TRES W  DIS CAZ7
 BAR2 EZ EP       1338 33.20                             172    0.2010 19.9 191 
 BAR2 EZ ES       1338 47.82                             172   -0.0810 19.9 191 
 BAR2 EZ I        1338 49.48        50.5 0.20            174           19.9 191 
 BRR  HZ EP       1338 34.97                             151    0.2610 72.6 301 
 BRR  HE ES       1338 52.05                             151    1.1010 72.6 301 
 BRR  HZ I        1338 55.15        31.0 0.18            143           72.6 301 
 PAM  EZ EP       1338 36.00                             149    0.1210 80.2  38 
 PAM  EN ES       1338 52.43                             149   -0.6010 80.2  38 
 PAM  EZ I        1338 55.35        32.6 0.52            141           80.2  38 
 PTB  HZ EP       1338 39.77                             131   -0.69 9  147 260 
 PTB  HN ES       1339  0.68                             131   -0.51 9  147 260 
 PTB  HZ I        1339  2.81        18.6 0.32            124            147 260 
 ZAR  HZ EP       1338 46.06                             121   -0.13 9  205 293 
 ZAR  HE ES       1339 11.19                             121   -0.20 9  205 293 
 ZAR  HZ I        1339 17.93        17.9 0.38            114            205 293 
 NOR  HZ EP   2   1338 49.63                             118    0.47 4  232 235 
 NOR  HE ES       1339 16.56                             118   -0.11 8  232 235 
 NOR  HZ I        1339 21.17        13.9 0.40            112            232 235 
 PRA  HZ EP       1339  7.76                             106    0.85 6  389 210 
 PRA  HE ES   4   1339 49.88                             106    1.61 0  389 210 
 PRA  HZ I        1339 56.03         5.1 0.28            101            389 210 
 SJC  HZ EP   4   1339  7.60                             105   -2.04 0  412 327 
 SJC  HZ I        1339 32.07         4.9 0.26            100            412 327 
                                                                                
