 2016  811 1417 33.2 L   6.797 -73.142146.0  RSN 16 0.5 2.4LRSN                1
 GAP=120        1.06       3.3     3.7  5.1 -0.1595E+01  0.3942E+01  0.3013E+01E
 Epicentro: LOS SANTOS - SANTANDER                                             3
 ACTION:UPD 16-10-29 15:34 OP:rebc STATUS:               ID:20160811141733 L   I
 OLDACT:REG 16-08-11 20:52 OP:lv   STATUS:               ID:20160811140759     3
 2016-08-11-1407-59S.COL___340                                                 6
 STAT SP IPHASW D HRMM SECON CODA AMPLIT PERI AZIMU VELO AIN AR TRES W  DIS CAZ7
 BAR2 EZ EP       1417 52.74                             171   -0.1010 23.1 191 
 BAR2 EZ ES       1418  7.67                             171   -0.5010 23.1 191 
 BAR2 EZ I        1418  9.60        53.7 0.22                          23.1 191 
 BRR  HZ IP     C 1417 54.60                             152    0.2110 71.7 299 
 BRR  HE ES       1418 11.59                             152    0.6610 71.7 299 
 BRR  HZ I        1418 15.49        37.1 0.14                          71.7 299 
 PAM  EZ EP       1417 55.77                             151    0.3410 77.4  39 
 PAM  EE ES       1418 13.04                             151    0.2710 77.4  39 
 PAM  EZ I        1418 14.95        90.9 0.52                          77.4  39 
 RUS  HZ EP       1417 57.19                             144    0.2510  100 176 
 RUS  HN ES       1418 15.73                             144    0.2710  100 176 
 RUS  HZ I        1418 16.63        33.1 0.36                           100 176 
 PTB  HZ EP       1417 59.63                             132   -0.57 9  148 259 
 PTB  HN ES       1418 20.55                             132   -0.73 9  148 259 
 PTB  HZ I        1418 22.53        22.0 0.14                           148 259 
 SPBC HZ EP       1418  1.76                             129    0.06 9  163 219 
 SPBC HN ES       1418 23.39                             129   -0.56 9  163 219 
 SPBC HZ I        1418 27.12        46.3 0.16                           163 219 
 ZAR  HZ EP       1418  5.92                             122    0.22 9  205 292 
 ZAR  HN ES       1418 30.63                             122   -0.43 9  205 292 
 ZAR  HZ I        1418 36.85        31.9 0.26                           205 292 
 NOR  HZ EP       1418  9.38                             119    0.44 8  235 235 
 NOR  HE ES       1418 37.29                             119    0.45 8  235 235 
 NOR  HZ I        1418 42.45        19.1 0.14                           235 235 
 CHI  HZ EP       1418 11.06                             117    0.18 8  248 195 
 CHI  HN ES       1418 40.11                             117   -0.16 8  248 195 
 CHI  HZ I        1418 43.99        18.5 0.36                           248 195 
 GUY2CHZ EP   4   1418 18.11                             112    1.29 0  301 235 
 GUY2CHN ES       1418 50.92                             112    0.06 7  301 235 
 GUY2CHZ I        1418 58.91        10.1 0.33                           301 235 
 PTGC HZ EP       1418 16.04                             112   -0.96 7  308 159 
 PTGC HE ES   4   1418 49.35                             112   -1.83 0  308 159 
 PTGC HZ I        1418 54.23        31.1 0.30                           308 159 
 LL6C HZ EP       1418 18.10                             110   -0.83 7  325 358 
 LL6C HE ES   4   1418 51.86                             110   -2.76 0  325 358 
 LL6C HZ I        1418 59.71        12.4 0.36                           325 358 
 ELA  HZ EP   4   1418 21.36                             110    1.30 0  329 230 
 ELA  HE ES   4   1418 58.41                             110    1.79 0  329 230 
 ELA  HZ I        1419  5.48         7.0 0.20                           329 230 
 CBOC HZ EP       1418 20.96                             110    0.82 7  334 252 
 CBOC HN ES       1418 56.76                             110   -0.01 7  334 252 
 CBOC HZ I        1419  0.12         2.9 0.18                           334 252 
 PRA  HZ EP       1418 26.66                             107   -0.04 6  392 210 
 PRA  HE ES       1419  9.01                             107    0.56 6  392 210 
 PRA  HZ I        1419 14.16        11.0 0.23                           392 210 
 SJC  HZ EP   4   1418 26.97                             106   -1.84 0  410 327 
 SJC  HE ES   4   1419  7.79                             106   -4.41 0  410 327 
 SJC  HZ I        1419 12.79         4.0 0.28                           410 327 
                                                                                
