 2013  811 1552 12.2 L   6.722 -73.158147.5  RSN  7 0.3 1.6LRSN                1
 GAP=138        0.80       4.5     4.3  6.1 -0.3212E+01  0.4323E+01 -0.3785E+01E
 Epicentro: VILLANUEVA - SANTANDER                                             3
 ACTION:UPD 14-01-14 09:01 OP:ep   STATUS:               ID:20130811155212 L   I
 OLDACT:REG 13-08-11 17:32 OP:jn   STATUS:               ID:20130811154959     3
 2013-08-11-1549-59M.COL___270                                                 6
 STAT SP IPHASW D HRMM SECON CODA AMPLIT PERI AZIMU VELO AIN AR TRES W  DIS CAZ7
 BAR2 SZ EP       1552 32.02                             174    0.1810 14.6 191 
 BAR2 SZ ES       1552 47.09                             174   -0.1110 14.6 191 
 BAR2 SZ I        1552 49.49        13.1 0.20            173           14.6 191 
 GIR2 SZ EP   1   1552 32.16                             164   -0.11 7 39.6 354 
 GIR2 SZ ES   1   1552 47.74                             164   -0.23 7 39.6 354 
 GIR2 SZ I        1552 50.84         6.7 0.22            166           39.6 354 
 BRR  HZ EP       1552 33.95                             152    0.2810 74.6 305 
 BRR  HN ES       1552 51.09                             152    0.6310 74.6 305 
 BRR  HZ I        1552 51.96         8.3 0.50            153           74.6 305 
 PAM  SZ EP       1552 35.01                             149   -0.0010 85.0  37 
 PAM  SN ES       1552 52.49                             149   -0.3510 85.0  37 
 RUS  HN ES   1   1552 53.98                             147    0.30 7 92.1 175 
 RUS  HZ I        1552 55.20         5.6 0.46            148           92.1 175 
 PTB  HZ EP   1   1552 38.70                             133   -0.31 7  145 262 
 PTB  HN ES       1552 59.42                             133   -0.53 9  145 262 
 PTB  HZ I        1553  2.79         6.4 0.70            134            145 262 
 SML  HN ES   1   1553 18.97                             117    0.05 6  251 336 
                                                                                
