 2010  211 1355 46.5 L   6.745 -72.959143.6  RSN  6 0.4 2.2LRSN                1
 GAP=198        0.59       6.1    12.2  7.7 -0.5327E+02  0.1455E+02  0.1022E+02E
 Epicentro: CEPITA - SANTANDER                                                 3
 ACTION:UP  10-08-24 09:48 OP:vdl  STATUS:               ID:20100211135546 L   I
 2010-02-11-1339-50S.COL___086                                                 6
 STAT SP IPHASW D HRMM SECON CODA AMPLIT PERI AZIMU VELO SNR AR TRES W  DIS CAZ7
 BAR2 SZ EP   1   1356  5.91                             167    -0.1 7   30 236 
 BAR2 SZ ES   2   1356 20.95                             167    -0.3 5   30 236 
 GUE  SZ EP   1   1356 11.23                             138     0.0 7  120   2 
 GUE  SZ ES   2   1356 30.86                             138     0.3 5  120   2 
 CHI  HZ EP   1   1356 23.84                             117    -0.2 6  249 200 
 CHI  HE ES   2   1356 54.08                             117     0.6 4  249 200 
 CHI  HZ I        1357  2.04         5.0 0.59                           249 200 
 RREF HZ EP   1   1356 34.59                             109     0.7 5  334 232 
 RREF HE ES   2   1357 11.13                             109     0.2 3  334 232 
 RREF HZ I        1357 14.37         8.2 0.26                           334 232 
 TOL  SZ EP   1   1356 35.31                             108    -0.5 5  354 228 
 TOL  SZ ES   2   1357 13.57                             108    -0.8 3  354 228 
 PRA  HZ EP   1   1356 40.47                             106    -0.1 4  397 213 
 PRA  HN ES   2   1357 23.33                             106     0.6 3  397 213 
 PRA  HZ I        1357 25.15         6.0 0.15                           397 213 
                                                                                
