 2012  211 1457  3.4 L   6.876 -73.355164.8  RSN  4 0.3                        1
 GAP=215        0.70      12.1     7.3 10.8 -0.1194E+02 -0.1996E+02  0.2885E+02E
 ACTION:UP  12-03-07 16:29 OP:epov STATUS:               ID:20120211145703 L   I
 2012-02-11-1450-00M.COL___188                                                 6
 STAT SP IPHASW D HRMM SECON CODA AMPLIT PERI AZIMU VELO AIN AR TRES W  DIS CAZ7
 GIR2 SZ EP   1   1457 24.69                             170   -0.55 7 28.7  39 
 BRR  HZ EP   1   1457 25.94                             163    0.39 7 47.0 303 
 BRR  HN ES   1   1457 43.11                             163    0.25 7 47.0 303 
 PTB  HZ EP   1   1457 30.58                             140    0.31 7  127 253 
 PTB  HN ES   1   1457 51.02                             140   -0.25 7  127 253 
 ZAR  HE ES   1   1457 59.05                             130   -0.19 7  179 292 
                                                                                
