 2010 1011 1845  4.0 L   6.698 -73.090148.0  RSN  6 0.3 1.9LRSN                1
 GAP=189        0.61       6.6     9.3  8.8 -0.2420E+02 -0.1994E+02  0.1627E+02E
 Epicentro: JORDAN - SANTANDER                                                 3
 ACTION:UP  11-02-18 11:09 OP:tino STATUS:               ID:20101011184504 L   I
 2010-10-11-1842-16S.COL___121                                                 6
 STAT SP IPHASW D HRMM SECON CODA AMPLIT PERI AZIMU VELO SNR AR TRES W  DIS CAZ7
 BAR2 SZ EP   1   1845 23.83                             174     0.1 7   16 221 
 BAR2 SZ ES   2   1845 39.34                             174     0.2 5   16 221 
 BTL  SZ EP   1   1845 23.67                             168    -0.4 7   31 321 
 BRR  HZ EP   1   1845 25.67                             149    -0.4 7   82 303 
 BRR  HZ I        1845 25.97        15.0 0.14                            82 303 
 BRR  HE ES   2   1845 43.27                             149     0.0 5   82 303 
 GUE  SZ EP   1   1845 30.20                             137     0.5 7  126   8 
 NOR  SN ES   2   1846  8.08                             119     0.5 4  234 238 
 CHI  HZ EP   1   1845 40.87                             119     0.0 6  240 197 
                                                                                
