 2015  611 1640 33.7 L   6.827 -72.881121.5  RSN  6 0.4 1.6LRSN                1
 GAP=244        0.71       3.4     9.8 14.0 -0.1562E+02 -0.6911E+02  0.1135E+02E
 Epicentro: SAN ANDRES - SANTANDER                                             3
 ACTION:UPD 15-09-10 22:11 OP:cam  STATUS:               ID:20150611164033 L   I
 OLDACT:REG 15-06-11 21:33 OP:ak   STATUS:               ID:20150611163747     3
 2015-06-11-1637-47M.COL___306                                                 6
 STAT SP IPHASW D HRMM SECON CODA AMPLIT PERI AZIMU VELO AIN AR TRES W  DIS CAZ7
 SPBC HZ EP       1641  2.35                             119   -0.3610  185 225 
 SPBC HN ES       1641 25.55                             119    0.1910  185 225 
 SPBC HZ I        1641 32.31         5.8 0.13            124            185 225 
 SML  HZ EP   1   1641 10.72                             111    0.42 7  255 329 
 SML  HN ES       1641 38.84                             111   -0.04 9  255 329 
 NOR  HZ EP       1641 10.80                             110   -0.24 9  261 238 
 NOR  HN ES       1641 40.20                             110   -0.01 9  261 238 
 NOR  HZ I        1641 43.86         2.6 0.26            115            261 238 
 GUY2CHZ EP       1641 18.79                             106   -0.51 8  327 237 
 GUY2CHN ES       1641 54.47                             106   -0.42 8  327 237 
 GUY2CHZ I        1641 59.33         1.8 0.42                           327 237 
 RREF HZ EP       1641 22.23                             104    0.48 7  346 232 
 RREF HN ES       1641 59.89                             104    0.62 7  346 232 
 RREF HZ I        1642  7.40         0.9 0.44            109            346 232 
 PRA  HZ EP       1641 29.14                             101    0.58 6  410 213 
 PRA  HN ES       1642 11.22                             101   -0.17 6  410 213 
 PRA  HZ I        1642 15.48         1.6 0.48            106            410 213 
                                                                                
