 2013 1111 1112 35.7 L   6.891 -73.015145.8  RSN  5 0.5 1.7LRSN                1
 GAP=197        1.16       6.4    16.5 11.1  0.6271E+02 -0.4757E+02 -0.3726E+02E
 Epicentro: PIEDECUESTA - SANTANDER                                            3
 ACTION:UPD 14-01-09 16:27 OP:ep   STATUS:               ID:20131111111235 L   I
 OLDACT:REG 13-11-11 15:45 OP:stll STATUS:               ID:20131111110818     3
 2013-11-11-1108-18M.COL___215                                                 6
 STAT SP IPHASW D HRMM SECON CODA AMPLIT PERI AZIMU VELO AIN AR TRES W  DIS CAZ7
 BAR2 SZ EP       1112 55.94                             165    0.1910 37.9 209 
 BAR2 SZ ES       1113 11.63                             165    0.2710 37.9 209 
 BAR2 SZ I        1113 12.24        16.7 0.12            168           37.9 209 
 BRR  HZ EP       1112 57.75                             149    0.3010 80.7 287 
 BRR  HN ES       1113 14.61                             149    0.2310 80.7 287 
 BRR  HZ I        1113 17.95         7.2 0.38            149           80.7 287 
 RUS  HN ES       1113 18.64                             141   -0.7110  111 184 
 RUS  HZ I        1113 19.66         5.2 0.24            146            111 184 
 OCA  HE ES       1113 24.97                             131    0.08 9  153 347 
 OCA  HZ I        1113 29.69         3.3 0.16            132            153 347 
 SML  HZ EP       1113 12.52                             118    0.43 8  241 331 
 SML  HN ES       1113 39.43                             118   -1.02 8  241 331 
 SML  HZ I        1113 45.11         5.3 0.10            119            241 331 
                                                                                
