 2016  211 1931 55.6 L   6.809 -73.194138.0  RSN  9 0.3 2.1LRSN                1
 GAP=130        0.51       2.2     2.1  4.4 -0.1067E+01  0.3454E+01  0.2883E+00E
 Epicentro: ZAPATOCA - SANTANDER                                               3
 ACTION:UPD 16-03-04 21:25 OP:rebc STATUS:               ID:20160211193155 L   I
 OLDACT:REG 16-02-11 20:47 OP:dnl  STATUS:               ID:20160211192747     3
 2016-02-11-1927-47M.COL___313                                                 6
 STAT SP IPHASW D HRMM SECON CODA AMPLIT PERI AZIMU VELO AIN AR TRES W  DIS CAZ7
 BAR2 EZ EP   2   1932 13.90                             170   -0.44 5 24.1 177 
 BAR2 EZ ES   2   1932 28.34                             170   -0.59 5 24.1 177 
 BAR2 EZ I        1932 30.85        25.1 0.16            169           24.1 177 
 PAM  EZ EP     C 1932 17.31                             149    0.1210 80.1  43 
 PAM  EN ES       1932 34.10                             149    0.0910 80.1  43 
 PAM  EZ I        1932 36.46        29.0 0.50            152           80.1  43 
 RUS  HZ EP       1932 18.45                             142   -0.2910  102 173 
 RUS  HN ES       1932 37.03                             142    0.2710  102 173 
 RUS  HZ I        1932 38.16        17.2 0.30            144            102 173 
 PTB  HZ EP   2   1932 20.91                             131   -0.59 5  143 258 
 PTB  HE ES       1932 41.71                             131    0.02 9  143 258 
 PTB  HZ I        1932 43.07        15.1 0.18            129            143 258 
 SPBC HZ EP       1932 23.20                             128   -0.10 9  161 217 
 SPBC HN ES       1932 44.93                             128    0.05 9  161 217 
 SPBC HZ I        1932 48.08        25.8 0.12            127            161 217 
 ZAR  HZ EP   2   1932 27.15                             121    0.13 4  199 292 
 ZAR  HN ES       1932 51.55                             121    0.05 9  199 292 
 ZAR  HZ I        1932 58.11         8.1 0.22            120            199 292 
 NOR  HZ EP   2   1932 30.50                             117   -0.01 4  231 233 
 NOR  HN ES       1932 57.92                             117    0.20 8  231 233 
 NOR  HZ I        1933  6.18        14.3 0.16            117            231 233 
 GUY2CHZ EP   2   1932 38.94                             111    0.48 4  297 234 
 GUY2CHN ES   2   1933 11.63                             111   -0.24 4  297 234 
 GUY2CHZ I        1933 20.43         6.8 0.26                           297 234 
 SOCV BZ EP   4   1932 36.30                             110   -2.47 0  305  58 
 SOCV BE ES   4   1933  7.18                             110   -5.25 0  305  58 
 CBOC HZ EP   2   1932 42.32                             109    0.64 3  329 252 
 CBOC HN ES   2   1933 16.94                             109   -0.66 3  329 252 
 CBOC HZ I        1933 34.14         2.4 0.44            109            329 252 
                                                                                
