 2016  911 1527 36.9 L   6.810 -73.163144.5  RSN 10 0.4 1.7LRSN                1
 GAP=134        0.90       3.1     3.4  5.0 -0.1038E+01  0.4933E+01  0.3125E+01E
 Epicentro: LOS SANTOS - SANTANDER                                             3
 ACTION:UPD 17-08-17 21:08 OP:lp   STATUS:               ID:20160911152736 L   I
 OLDACT:DUP 16-09-11 23:06 OP:lv   STATUS:               ID:20160911151739d    3
 2016-09-11-1518-00M.COL___309                                                 6
 STAT SP IPHASW D HRMM SECON CODA AMPLIT PERI AZIMU VELO AIN AR TRES W  DIS CAZ7
 BAR2 EZ EP       1527 56.22                             170   -0.2110 24.1 185 
 BAR2 EZ ES       1528 11.30                             170   -0.3410 24.1 185 
 BAR2 EZ I        1528 12.48        13.0 0.24            169           24.1 185 
 BRR  HZ IP     C 1527 58.02                             153    0.2010 69.0 299 
 BRR  HN ES       1528 14.21                             153    0.0910 69.0 299 
 BRR  HZ I        1528 19.24        15.2 0.40            151           69.0 299 
 PAM  EZ EP       1527 59.21                             150    0.1710 77.8  41 
 PAM  EN ES       1528 16.63                             150    0.3410 77.8  41 
 PAM  EZ I        1528 18.61         7.1 0.40            155           77.8  41 
 RUS  HZ EP       1528  0.43                             143   -0.2210  102 175 
 RUS  HN ES       1528 19.40                             143    0.2510  102 175 
 RUS  HZ I        1528 20.00         5.6 0.26            146            102 175 
 PTB  HZ EP       1528  2.91                             132   -0.74 9  146 258 
 PTB  HN ES       1528 23.91                             132   -0.57 9  146 258 
 PTB  HZ I        1528 25.83         4.2 0.12            132            146 258 
 SPBC HZ EP       1528  5.12                             129   -0.18 9  163 218 
 SPBC HN ES       1528 27.40                             129   -0.03 9  163 218 
 SPBC HZ I        1528 36.24        14.3 0.09            130            163 218 
 ZAR  HZ EP       1528  9.51                             122    0.44 9  202 292 
 ZAR  HE ES       1528 34.06                             122   -0.08 9  202 292 
 ZAR  HZ I        1528 42.22         3.4 0.16            123            202 292 
 NOR  HZ EP       1528 12.38                             118   -0.11 8  234 234 
 NOR  HE ES       1528 40.83                             118    0.61 8  234 234 
 NOR  HZ I        1528 45.06         3.8 0.30            120            234 234 
 CHI  HZ EP       1528 14.23                             117   -0.39 8  249 195 
 CHI  HN ES       1528 44.18                             117    0.17 8  249 195 
 CHI  HZ I        1528 47.07         1.8 0.08            119            249 195 
 GUY2CHZ EP       1528 20.79                             112    0.42 7  300 234 
 GUY2CHN ES       1528 54.99                             112    0.73 7  300 234 
 GUY2CHZ I        1529  1.48         2.0 0.23                           300 234 
                                                                                
