 2017  811 1121 19.0 L   7.359 -73.015 87.0  RSN  5 0.0 1.5LRSN                1
 GAP=213        0.32       6.4     2.7  4.7  0.1475E+02 -0.4832E+01 -0.8117E+01E
 Epicentro: SURATA - SANTANDER                                                 3
 ACTION:UPD 17-09-04 20:19 OP:rebc STATUS:               ID:20170811112119 L   I
 OLDACT:UP  17-08-11 21:44 OP:dani STATUS:               ID:20170811111749     3
 OLDACT:UP  17-08-11 21:44 OP:dani STATUS:               ID:20170811111749     3
 OLDACT:UP  17-08-11 21:43 OP:dani STATUS:               ID:20170811111749     3
 OLDACT:UP  17-08-11 21:43 OP:dani STATUS:               ID:20170811111749     3
 OLDACT:UP  17-08-11 21:43 OP:dani STATUS:               ID:20170811111749     3
 OLDACT:UP  17-08-11 21:42 OP:dani STATUS:               ID:20170811111749     3
 OLDACT:UP  17-08-11 21:36 OP:dani STATUS:               ID:20170811111749     3
 OLDACT:UP  17-08-11 21:36 OP:dani STATUS:               ID:20170811111749     3
 OLDACT:REG 17-08-11 20:19 OP:dani STATUS:               ID:20170811111749     3
 2017-08-11-1118-00M.COL___410                                                 6
 STAT SP IPHASW D HRMM SECON CODA AMPLIT PERI AZIMU VELO AIN AR TRES W  DIS CAZ7
 BRR  HZ EP       1121 35.07                             133   -0.0510 81.8 250 
 BRR  HE ES       1121 47.72                             133    0.0110 81.8 250 
 BAR2 HZ EP   4   1121 38.39                             132    2.49 0 86.8 192 
 BAR2 HZ ES   4   1121 52.89                             132    3.80 0 86.8 192 
 BAR2 HZ I        1121 58.11         7.4 0.19            128           86.8 192 
 RUS  HZ EP       1121 44.16                             114   -0.00 9  162 183 
 RUS  HE ES   4   1122  1.37                             114   -2.44 0  162 183 
 RUS  HZ I        1122  6.54         5.5 0.41            114            162 183 
 TAM  HN ES       1122  4.27                             112    0.02 9  169 127 
 ZAR  HN ES       1122 11.33                             108    0.04 9  204 274 
                                                                                
