 2013  611 1118 32.0 L   6.806 -73.189145.2  RSN 10 0.5 2.6LRSN                1
 GAP=106        1.02       3.5     4.4  6.8 -0.1494E+01 -0.2199E+01  0.1661E+01E
 Epicentro: ZAPATOCA - SANTANDER                                               3
 ACTION:UPD 14-01-08 09:54 OP:ep   STATUS:               ID:20130611111832 L   I
 OLDACT:REG 13-06-11 20:20 OP:mh   STATUS:               ID:20130611111749     3
 2013-06-11-1117-49M.COL___220                                                 6
 STAT SP IPHASW D HRMM SECON CODA AMPLIT PERI AZIMU VELO AIN AR TRES W  DIS CAZ7
 BAR2 SZ IP     D 1118 51.56                             170    0.0410 23.7 178 
 BAR2 SZ I        1119  7.61        72.1 0.14            168           23.7 178 
 GIR2 SZ EP     D 1118 51.67                             168    0.1410 30.2 359 
 GIR2 SZ ES   1   1119  6.82                             168    0.02 7 30.2 359 
 GIR2 SZ I        1119  8.20        21.2 0.20            169           30.2 359 
 BRR  HZ EP     C 1118 53.41                             154    0.6110 66.7 300 
 BRR  HN ES       1119  9.71                             154    0.6610 66.7 300 
 BRR  HN I        1119 10.90       159.7 0.52            152           66.7 300 
 RUS  HZ EP       1118 55.55                             143   -0.1810  102 173 
 RUS  HN ES   1   1119 14.29                             143    0.02 7  102 173 
 RUS  HN I        1119 15.84        56.7 0.28            142            102 173 
 PTB  HZ EP       1118 58.14                             133   -0.33 9  143 258 
 PTB  HN ES       1119 18.29                             133   -0.86 9  143 258 
 PTB  HN I        1119 24.54        67.5 0.52            131            143 258 
 OCA  HZ EP       1119  0.03                             130   -0.08 9  159 355 
 OCA  HN ES       1119 21.64                             130   -0.43 9  159 355 
 OCA  HN I        1119 24.94        85.9 0.26            130            159 355 
 TAM  HZ IP     C 1118 59.90                             129   -0.14 9  160 105 
 NOR  HZ EP   1   1119  7.90                             119    0.62 6  231 234 
 NOR  HN ES       1119 34.57                             119   -0.27 8  231 234 
 NOR  HN I        1119 42.15        58.2 0.14            118            231 234 
 SML  HZ EP   1   1119  7.99                             118   -0.28 6  241 336 
 SML  HN ES       1119 36.45                             118   -0.15 8  241 336 
 SML  HN I        1119 41.31        44.8 0.10            117            241 336 
 ROSC BN ES   4   1119 42.93                             117    3.53 0  251 210 
 HEL  HZ EP   1   1119 12.83                             115    1.18 6  268 255 
 HEL  HN ES   2   1119 43.01                             115    0.40 4  268 255 
 HEL  HN I        1119 50.22        10.4 0.20            114            268 255 
                                                                                
