 2016  611 1756 46.6 L   6.706 -73.166147.0  RSN  5 0.4 1.4LRSN                1
 GAP=228        1.01       5.9     6.4  7.4  0.7580E+01  0.6817E+01  0.4014E+01E
 Epicentro: VILLANUEVA - SANTANDER                                             3
 ACTION:UPD 16-07-21 22:17 OP:rebc STATUS:               ID:20160611175646 L   I
 OLDACT:UP  16-06-12 00:36 OP:edw  STATUS:               ID:20160611174748d    3
 OLDACT:DUP 16-06-12 00:28 OP:edw  STATUS:               ID:20160611174748d    3
 OLDACT:UP  16-06-12 00:25 OP:edw  STATUS:               ID:20160611174747     3
 OLDACT:REG 16-06-11 21:25 OP:edw  STATUS:               ID:20160611174747     3
 2016-06-11-1747-47M.COL___340                                                 6
 STAT SP IPHASW D HRMM SECON CODA AMPLIT PERI AZIMU VELO AIN AR TRES W  DIS CAZ7
 BAR2 EZ EP       1757  6.40                             175    0.2010 12.7 188 
 BAR2 EZ ES       1757 20.82                             175   -0.6810 12.7 188 
 BAR2 EZ I        1757 22.00         5.2 0.60                          12.7 188 
 BRR  HZ EP       1757  8.34                             151    0.2610 74.9 306 
 BRR  HE ES       1757 25.14                             151    0.3010 74.9 306 
 RUS  HZ EP       1757 10.15                             147    0.3910 90.4 174 
 RUS  HE ES       1757 27.97                             147    0.1410 90.4 174 
 RUS  HZ I        1757 30.70         3.7 0.24                          90.4 174 
 PTB  HZ EP       1757 12.86                             133   -0.45 9  144 263 
 PTB  HE ES       1757 34.19                             133    0.04 9  144 263 
 PTB  HZ I        1757 36.07         4.2 0.11                           144 263 
 SPBC HZ EP       1757 13.69                             131   -0.61 9  154 221 
 SPBC HN ES       1757 36.24                             131    0.32 9  154 221 
                                                                                
