 2013 1111 1142 16.2 L   6.787 -73.108142.3  RSN  9 0.6 1.8LRSN 2.4WRSN        1
 SPEC AVERAGE  MO 12.7 ST 16.8 OM  1.6 f0 13.2 R0.2634 AL 0.00 WI 20.0 MW  2.4 3
 SPEC SD       MO  0.1 ST 18.3 OM  0.8 f0 7.50 R0.2170 AL      WI      MW  0.1 3
 GAP=122        1.41       5.3     6.4  8.1 -0.8895E+01  0.3271E+01  0.2834E+01E
 Epicentro: LOS SANTOS - SANTANDER                                             3
 SPEC BAR2SH Z MO 12.8 ST 42.3 OM  1.0 f0 21.6 R0.0891 AL-0.00 WI 20.0 MW  2.5 3
 SPEC BAR2SH Z T114249 K 0.050 GD  144 VS 5.20 DE 3.20 Q0750.0 QA 1.50 VS 5.20 3
 SPEC PTB HH Z MO 12.8 ST0.148 OM  0.8 f0 3.38 R0.5692 AL-0.00 WI 20.0 MW  2.5 3
 SPEC PTB HH Z T1143 1 K 0.050 GD  208 VS 5.20 DE 3.20 Q0750.0 QA 1.50 VS 5.20 3
 SPEC NOR HH Z MO 12.6 ST  7.9 OM  0.5 f0 14.6 R0.1318 AL-0.00 WI 20.0 MW  2.4 3
 SPEC NOR HH Z T114317 K 0.050 GD  276 VS 5.20 DE 3.20 Q0750.0 QA 1.50 VS 5.20 3
 SPECGUY2CHH Z MO 12.8 ST228.1 OM  0.6 f0 40.0 R 0.048 AL-0.00 WI 20.0 MW  2.4 3
 SPECGUY2CHH Z T114333 K 0.050 GD335.7 VS 5.20 DE 3.20 Q0750.0 QA 1.50 VS 5.20 3
 OLDACT:REG 13-11-11 15:46 OP:stll STATUS:               ID:20131111113820     3
 ACTION:UPD 14-01-09 16:27 OP:ep   STATUS:               ID:20131111114216 L   I
 OLDACT:UP  13-11-11 16:32 OP:stll STATUS:               ID:20131111113820     3
 2013-11-11-1138-20M.COL___215                                                 6
 STAT SP IPHASW D HRMM SECON CODA AMPLIT PERI AZIMU VELO AIN AR TRES W  DIS CAZ7
 BAR2 SZ IP     C 1142 35.77                             170    0.3810 23.1 201 
 BAR2 SZ ES       1142 50.68                             170    0.3110 23.1 201 
 BAR2 SZ I        1142 52.16        23.5 0.18            166           23.1 201 
 BRR  HZ EP       1142 37.48                             151    0.2710 75.5 298 
 BRR  HN ES       1142 54.54                             151    0.9310 75.5 298 
 BRR  SZ I        1142 57.71        10.1 0.30            148           75.5 298 
 BRR  HZ I        1142 57.80         9.7 0.26                          75.5 298 
 RUS  HZ EP       1142 39.73                             144    0.2510 99.0 178 
 RUS  HZ I        1142 40.77         3.6 0.18            144           99.0 178 
 RUS  HN ES       1142 57.17                             144   -0.4810 99.0 178 
 PTB  HZ EP       1142 42.56                             131   -0.66 9  152 260 
 PTB  HN ES       1143  3.39                             131   -0.92 9  152 260 
 PTB  SZ I        1143 11.39         5.7 1.86            129            152 260 
 OCA  HN ES       1143  5.89                             129   -0.54 9  162 352 
 SPBC HZ EP       1142 44.72                             128    0.15 9  165 220 
 SPBC HN ES       1143  6.40                             128   -0.31 9  165 220 
 SPBC SZ I        1143 14.48         9.7 0.34            127            165 220 
 NOR  HZ EP       1142 51.97                             118   -0.02 8  237 235 
 NOR  HN ES       1143 19.32                             118   -0.60 8  237 235 
 NOR  SZ I        1143 28.09         4.7 0.18            118            237 235 
 SOCV BZ EP       1142 58.21                             112   -0.57 7  299  56 
 GUY2CHZ EP       1143  1.21                             112    1.28 7  304 235 
 GUY2CHN ES       1143 34.70                             112    0.66 7  304 235 
 GUY2CSZ I        1143 43.20         3.7 0.46                           304 235 
                                                                                
