 2016  611 1524 31.0 L   6.821 -73.132148.2  RSN 15 0.4 2.3LRSN                1
 GAP=104        0.98       3.6     2.8  4.8 -0.1889E+01  0.3677E+01  0.3359E+01E
 Epicentro: LOS SANTOS - SANTANDER                                             3
 ACTION:UPD 16-07-21 22:17 OP:rebc STATUS:               ID:20160611152431 L   I
 OLDACT:UP  16-06-11 23:50 OP:edw  STATUS:               ID:20160611151745     3
 OLDACT:REG 16-06-11 21:07 OP:edw  STATUS:               ID:20160611151745     3
 2016-06-11-1517-45M.COL___337                                                 6
 STAT SP IPHASW D HRMM SECON CODA AMPLIT PERI AZIMU VELO AIN AR TRES W  DIS CAZ7
 BAR2 EZ EP     D 1524 50.89                             170   -0.0810 26.0 192 
 BAR2 EZ ES       1525  6.22                             170   -0.3310 26.0 192 
 BAR2 EZ I        1525  8.35        32.2 0.22                          26.0 192 
 BRR  HZ EP       1524 52.74                             153    0.3210 71.5 296 
 BRR  HN ES       1525  9.25                             153    0.1210 71.5 296 
 PAM  EZ EP     D 1524 53.81                             152    0.5010 74.6  40 
 PAM  EN ES       1525 10.79                             152    0.0810 74.6  40 
 PAM  EZ I        1525 13.15        28.1 0.54                          74.6  40 
 RUS  HZ EP       1524 55.17                             144    0.0210  103 177 
 RUS  HN ES       1525 13.62                             144   -0.3710  103 177 
 RUS  HZ I        1525 15.12        12.4 0.18                           103 177 
 PTB  HZ EP       1524 57.77                             132   -0.57 9  150 258 
 PTB  HN ES       1525 19.04                             132   -0.63 9  150 258 
 PTB  HZ I        1525 26.21        36.8 0.32                           150 258 
 TAM  HZ EP       1524 58.21                             131   -0.58 9  154 106 
 TAM  HN ES       1525 20.95                             131    0.48 9  154 106 
 SPBC HZ EP       1524 59.89                             129   -0.06 9  166 219 
 SPBC HN ES       1525 23.14                             129    0.61 9  166 219 
 SPBC HZ I        1525 25.34        42.2 0.12                           166 219 
 NOR  HZ EP       1525  7.01                             119   -0.14 8  237 234 
 NOR  HE ES       1525 34.99                             119   -0.36 8  237 234 
 NOR  HZ I        1525 39.65        12.8 0.22                           237 234 
 CHI  HZ EP       1525  8.56                             117   -0.56 8  251 195 
 CHI  HN ES       1525 39.40                             117    0.54 8  251 195 
 CHI  HZ I        1525 46.37         6.9 0.28                           251 195 
 HEL  HZ EP       1525 12.28                             115    0.71 8  274 255 
 HEL  HN ES       1525 43.55                             115    0.34 8  274 255 
 HEL  HZ I        1525 49.21        11.1 0.30                           274 255 
 URE  HZ EP       1525 11.78                             114   -0.47 7  284 291 
 URE  HN ES   4   1525 43.05                             114   -1.37 0  284 291 
 URE  HZ I        1525 55.32         9.1 0.16                           284 291 
 GUY2CHZ EP       1525 15.14                             112    0.12 7  304 235 
 GUY2CHE ES       1525 49.73                             112    0.38 7  304 235 
 GUY2CHZ I        1525 55.73         9.5 0.26                           304 235 
 CBOC HZ EP       1525 18.77                             110    0.50 7  336 252 
 CBOC HE ES       1525 55.49                             110    0.36 7  336 252 
 PRA  HZ EP       1525 24.22                             107   -0.71 6  395 210 
 PRA  HE ES       1526  7.03                             107    0.03 6  395 210 
 PRA  HZ I        1526 10.82         5.7 0.38                           395 210 
 SJC  HZ EP   4   1525 25.10                             106   -1.41 0  408 327 
 SJC  HN ES   4   1526  6.91                             106   -2.89 0  408 327 
 SJC  HZ I        1526 10.90         5.0 0.46                           408 327 
                                                                                
