 2016  611 1222 22.7 L   5.952 -73.709118.1  RSN  7 0.2 1.5LRSN                1
 GAP=135        0.54       2.3     1.9  3.9 -0.1661E+01  0.1918E+01  0.4437E+00E
 Epicentro: GUAVATA - SANTANDER                                                3
 ACTION:UPD 16-07-21 22:17 OP:rebc STATUS:               ID:20160611122222 L   I
 OLDACT:REG 16-06-11 20:54 OP:edw  STATUS:               ID:20160611121741     3
 2016-06-11-1217-41M.COL___340                                                 6
 STAT SP IPHASW D HRMM SECON CODA AMPLIT PERI AZIMU VELO AIN AR TRES W  DIS CAZ7
 SPBC HZ EP       1222 39.66                             155   -0.2510 52.2 231 
 SPBC HE ES       1222 53.63                             155    0.2810 52.2 231 
 RUS  HZ EP       1222 41.66                             148    0.1510 69.6  95 
 RUS  HE ES       1222 55.85                             148   -0.3510 69.6  95 
 RUS  HZ I        1222 58.77         3.9 0.70                          69.6  95 
 BAR2 EZ EP       1222 43.02                             140    0.2710 91.6  39 
 BAR2 EZ ES       1222 58.52                             140    0.1210 91.6  39 
 BAR2 EZ I        1223  0.00        13.1 0.40                          91.6  39 
 PTB  HZ EP       1222 43.37                             135   -0.1910  105 308 
 PTB  HN ES       1222 59.69                             135   -0.1610  105 308 
 PTB  HZ I        1223  1.77         3.1 0.16                           105 308 
 BRR  HE ES       1223  3.46                             129    0.0310  128 360 
 NOR  HZ EP       1222 46.42                             127    0.03 9  136 252 
 NOR  HN ES       1223  5.02                             127    0.13 9  136 252 
 NOR  HZ I        1223  8.41        14.3 0.28                           136 252 
 GUY2CHZ EP       1222 53.67                             116   -0.01 9  200 246 
 GUY2CHN ES       1223 17.83                             116   -0.04 9  200 246 
 GUY2CHZ I        1223 23.80         4.2 0.32                           200 246 
 OCA  HZ EP   4   1222 53.52                             110   -6.06 0  256  10 
 OCA  HN ES   4   1223 20.86                             110   -7.50 0  256  10 
                                                                                
