 2016  311 1812  0.8 L   6.758 -73.126142.0  RSN  6 0.1 1.6LRSN                1
 GAP=160        0.33       3.5     6.2  4.2 -0.1656E+02  0.7866E+01  0.8404E-02E
 Epicentro: LOS SANTOS - SANTANDER                                             3
 ACTION:UPD 16-05-13 21:23 OP:cam  STATUS:               ID:20160311181200 L   I
 OLDACT:REG 16-03-11 23:32 OP:ar   STATUS:               ID:20160311180408     3
 2016-03-11-1810-00M.COL___2660r                                               6
 STAT SP IPHASW D HRMM SECON CODA AMPLIT PERI AZIMU VELO AIN AR TRES W  DIS CAZ7
 BAR2 EZ EP   2   1812 19.91                             172    0.02 5 19.3 199 
 BAR2 EZ ES   2   1812 34.95                             172    0.16 5 19.3 199 
 BAR2 EZ I        1812 36.22        12.6 0.18            158           19.3 199 
 PAM  EZ EP       1812 22.61                             150   -0.1510 79.8  36 
 PAM  EN ES       1812 39.98                             150    0.0910 79.8  36 
 PAM  EZ I        1812 41.89         7.7 0.48            136           79.8  36 
 RUS  HZ EP   2   1812 23.95                             145    0.12 5 95.8 177 
 RUS  HE ES   2   1812 41.56                             145   -0.23 5 95.8 177 
 RUS  HZ I        1812 43.60         6.9 0.30            123           95.8 177 
 ZAR  HZ EP   4   1812 35.12                             121    1.73 0  208 293 
 ZAR  HN ES   4   1812 57.44                             121   -1.38 0  208 293 
 ZAR  HZ I        1813  3.91         4.4 0.14            106            208 293 
 CHI  HZ EP   2   1812 38.04                             117    0.19 4  245 196 
 CHI  HZ I        1813  4.51         1.7 0.54            103            245 196 
 CHI  HN ES   2   1813  6.87                             117    0.11 4  245 196 
 GUY2CHZ EP   4   1812 42.70                             112   -1.43 0  300 236 
 GUY2CHN ES   2   1813 17.85                             112   -0.08 4  300 236 
 GUY2CHZ I        1813 26.15         2.9 0.32                           300 236 
                                                                                
