 2015  211 1354 41.8 L   6.770 -73.157149.5  RSN  4 0.4 1.7LRSN                1
 GAP=247        0.97       7.2     7.5  7.9 -0.7484E+01  0.4901E+01  0.1126E+02E
 Epicentro: LOS SANTOS - SANTANDER                                             3
 ACTION:UPD 15-04-30 21:25 OP:nd   STATUS:               ID:20150211135441 L   I
 OLDACT:ARG 15-02-11 20:09 OP:stll STATUS:               ID:20150211134746     3
 2015-02-11-1347-46M.COL___287                                                 6
 STAT SP IPHASW D HRMM SECON CODA AMPLIT PERI AZIMU VELO AIN AR TRES W  DIS CAZ7
 BAR2 EZ EP       1355  1.66                             172   -0.1810 19.8 188 
 BAR2 EZ ES       1355 17.11                             172   -0.3410 19.8 188 
 BAR2 EZ I        1355 20.27         5.6 0.54            166           19.8 188 
 BRR  HZ EP       1355  3.72                             153    0.3110 71.8 301 
 BRR  HN ES       1355 20.70                             153    0.4510 71.8 301 
 BRR  HZ I        1355 23.82        11.2 0.48            151           71.8 301 
 PTB  HZ EP       1355  8.41                             133   -0.52 9  146 260 
 PTB  HN ES       1355 29.65                             133   -0.43 9  146 260 
 PTB  HZ I        1355 36.81         7.5 0.30            132            146 260 
 SPBC HZ EP       1355 10.63                             130    0.34 9  160 219 
 SPBC HN ES       1355 32.87                             130    0.37 9  160 219 
 SPBC HZ I        1355 39.00         7.5 0.18            130            160 219 
                                                                                
