 2014  811 1102 33.5 L   6.773 -73.097149.5  RSN 12 0.4 1.8LRSN                1
 GAP=144        0.90       3.2     4.2  5.4 -0.1915E+01  0.4575E+01  0.4289E+00E
 Epicentro: LOS SANTOS - SANTANDER                                             3
 ACTION:UPD 14-09-15 21:48 OP:nd   STATUS:               ID:20140811110233 L   I
 OLDACT:REG 14-08-11 19:43 OP:spq  STATUS:               ID:20140811105818     3
 2014-08-11-1058-18M.COL___257                                                 6
 STAT SP IPHASW D HRMM SECON CODA AMPLIT PERI AZIMU VELO AIN AR TRES W  DIS CAZ7
 BAR2 SZ EP       11 2 53.64                             171    0.0710 22.0 205 
 BAR2 SZ ES   1   11 3  9.15                             171   -0.06 7 22.0 205 
 BAR2 SZ I        11 3 10.48        13.0 0.20            169           22.0 205 
 PAM  SZ EP       11 2 56.66                             152    0.5810 76.6  35 
 PAM  SN ES   1   11 3 13.08                             152   -0.60 7 76.6  35 
 PAM  SZ I        11 3 16.42         6.7 0.24            155           76.6  35 
 BRR  HZ EP       11 2 55.72                             151    0.3010 77.3 299 
 BRR  HN ES       11 3 12.93                             151    0.4310 77.3 299 
 BRR  HZ I        11 3 14.61        11.3 0.46            150           77.3 299 
 RUS  HZ EP   1   11 2 57.19                             145   -0.22 7 97.3 179 
 RUS  HE ES   1   11 3 16.00                             145   -0.04 7 97.3 179 
 RUS  HZ I        11 3 17.59         8.7 0.26            147           97.3 179 
 PTB  HZ EP       11 3  0.39                             132   -0.82 9  152 260 
 PTB  HE ES   1   11 3 22.41                             132   -0.40 7  152 260 
 PTB  HZ I        11 3 23.48         6.5 0.14            131            152 260 
 SPBC HZ EP       11 3  2.40                             130   -0.01 9  164 221 
 SPBC HN ES       11 3 24.66                             130   -0.28 9  164 221 
 SPBC HZ I        11 3 31.34         8.3 0.34            130            164 221 
 ZAR  HZ EP       11 3  6.59                             122   -0.24 8  210 292 
 ZAR  HN ES       11 3 33.09                             122    0.28 8  210 292 
 ZAR  HZ I        11 3 38.51         3.8 0.20            123            210 292 
 NOR  HN ES       11 3 38.03                             119    0.03 8  237 236 
 NOR  HZ I        11 3 42.74         4.8 0.26            119            237 236 
 SML  HZ EP       11 3 10.39                             118   -0.50 8  249 334 
 SML  HN ES   1   11 3 40.11                             118    0.07 6  249 334 
 SML  HZ I        11 3 42.63         8.4 0.07            119            249 334 
 HEL  HN ES   4   11 3 49.19                             115    2.88 0  277 257 
 HEL  HZ I        11 3 52.91         3.6 0.30            116            277 257 
 GUY2CHZ EP       11 3 18.01                             113    0.41 7  304 236 
 GUY2CHN ES   4   11 3 55.57                             113    3.59 0  304 236 
 GUY2CHZ I        11 3 59.73         2.9 0.28                           304 236 
 PRA  HZ EP       11 3 27.62                             107    0.45 6  392 210 
 PRA  HN ES   1   11 4  9.87                             107    0.85 4  392 210 
 PRA  HZ I        11 4 12.93         1.5 0.22            108            392 210 
                                                                                
