 2012  611 1100 29.0 L   5.771 -73.917105.9  RSN 15 0.5 2.9LRSN 3.1WRSN        1
 SPEC AVERAGE  MO 13.7 ST  5.3 OM  3.1 f0 4.18 R0.3817 AL 3.14 WI 12.0 MW  3.1 3
 SPEC SD       MO  0.2 ST  4.8 OM  1.1 f00.664 R0.0648 AL      WI      MW  0.1 3
 GAP= 89        1.12       2.9     3.4  8.2 -0.3099E+01  0.3553E+01 -0.1954E+01E
 Epicentro: ALBANIA - SANTANDER                                                3
 SPEC ROSCBH Z MO 13.8 ST  2.2 OM  2.2 f0 3.21 R0.4841 AL 3.11 WI 11.6 MW  3.1 3
 SPEC ROSCBH Z T11 1 5 K 0.000 GD  154 VS 4.20 DE 3.00 Q0230.0 QA 0.60 VS 4.20 3
 SPEC ANILHH Z MO 13.9 ST 13.5 OM  2.2 f0 5.06 R0.3071 AL 2.45 WI 10.9 MW  3.2 3
 SPEC ANILHH Z T11 125 K 0.000 GD  241 VS 4.20 DE 3.00 Q0230.0 QA 0.60 VS 4.20 3
 SPEC HEL HH Z MO 13.6 ST  3.1 OM  1.9 f0 4.08 R0.3809 AL 3.66 WI  9.9 MW  3.0 3
 SPEC HEL HH Z T11 119 K 0.000 GD  212 VS 4.20 DE 3.00 Q0230.0 QA 0.60 VS 4.20 3
 SPEC CHI HH Z MO 13.4 ST  2.4 OM  1.8 f0 4.38 R0.3548 AL 3.34 WI 15.6 MW  2.9 3
 SPEC CHI HH Z T11 1 8 K 0.000 GD  166 VS 4.20 DE 3.00 Q0230.0 QA 0.60 VS 4.20 3
 ACTION:UPD 12-08-06 17:48 OP:ep   STATUS:               ID:20120611110033 L   I
 2012-06-11-1100-00M.COL___201                                                 6
 STAT SP IPHASW D HRMM SECON CODA AMPLIT PERI AZIMU VELO AIN AR TRES W  DIS CAZ7
 RUS  HZ IP     C 11 0 48.48                             135   -0.0110 93.3  82 
 RUS  HN ES   1   11 1  3.23                             135   -0.43 7 93.3  82 
 RUS  HZ I        11 1  4.45        72.4 0.16            125           93.3  82 
 PTB  HZ EP       11 0 48.05                             132   -0.7110  104 325 
 PTB  HN ES   1   11 1  3.34                             132   -0.82 7  104 325 
 NOR  SZ EP       11 0 48.87                             130   -0.3310  108 258 
 NOR  SN ES   1   11 1  4.66                             130   -0.27 7  108 258 
 ROSC BZ EP       11 0 50.72                             130    0.6710  112 203 
 ROSC BN ES   1   11 1  7.72                             130    1.27 7  112 203 
 ROSC BZ I        11 1 15.43       107.2 0.35            119            112 203 
 BAR2 SZ IP     D 11 0 51.18                             127    0.4210  122  42 
 BAR2 SZ ES   1   11 1  8.37                             127    0.66 7  122  42 
 BAR2 SZ I        11 1 10.09       354.1 0.30            119            122  42 
 CHI  HZ EP   1   11 0 51.24                             125   -0.35 7  128 171 
 CHI  HN ES   1   11 1  8.42                             125   -0.77 7  128 171 
 CHI  HZ I        11 1 13.24        71.7 0.25            115            128 171 
 HEL  HZ EP   1   11 0 57.41                             115   -0.09 7  184 285 
 HEL  HN ES   1   11 1 19.68                             115   -0.02 7  184 285 
 HEL  HZ I        11 1 21.55        92.8 0.60            109            184 285 
 TOL  SZ EP       11 0 59.70                             112    0.11 9  204 230 
 TOL  SZ ES   1   11 1 24.00                             112    0.57 6  204 230 
 ZAR  HZ EP   1   11 1  0.28                             110   -0.42 6  217 331 
 ZAR  HN ES   1   11 1 25.74                             110    0.34 6  217 331 
 ZAR  HZ I        11 1 30.76        65.2 0.20            106            217 331 
 ANIL HN ES   1   11 1 26.62                             110    0.51 6  217 229 
 ANIL HZ I        11 1 29.13       281.4 0.31            105            217 229 
 PAM  SZ EP       11 1  1.53                             110   -0.08 8  220  38 
 PAM  SN ES   1   11 1 27.03                             110    0.02 6  220  38 
 PRA  HZ EP       11 1  4.22                             107   -0.54 8  252 205 
 PRA  HN ES   1   11 1 32.46                             107   -0.17 6  252 205 
 SJA  SZ EP   1   11 1  6.93                             105   -0.81 6  276 181 
 SJA  SZ I        11 1 41.91        86.8 0.38            101            276 181 
 OCA  HZ EP   1   11 1  8.27                             104   -0.04 6  281  14 
 OCA  HN ES   1   11 1 39.99                             104    1.04 6  281  14 
 OCA  HZ I        11 1 42.83        74.0 0.28            101            281  14 
 DBB  SZ EP       11 1  9.77                             104    0.61 7  289 299 
                                                                                
