 2015  211 1758 39.8 L   6.633 -73.540102.5  RSN  4 0.7 1.4LRSN                1
 GAP=146        1.79       9.4     7.0 16.2 -0.1308E+02  0.2017E+02 -0.3045E+02E
 Epicentro: EL CARMEN - SANTANDER                                              3
 ACTION:UPD 15-04-30 21:25 OP:nd   STATUS:               ID:20150211175839 L   I
 OLDACT:ARG 15-02-11 20:10 OP:stll STATUS:               ID:20150211175746     3
 2015-02-11-1757-46M.COL___299                                                 6
 STAT SP IPHASW D HRMM SECON CODA AMPLIT PERI AZIMU VELO AIN AR TRES W  DIS CAZ7
 BAR2 EZ EP       1758 55.27                             157    0.3910 39.8  97 
 BAR2 EZ ES       1759  7.69                             157    1.0310 39.8  97 
 BAR2 EZ I        1759  8.96        25.0 0.26            163           39.8  97 
 RUS  HZ EP       1758 59.64                             134    0.4310 96.2 148 
 RUS  HN ES       1759 13.43                             134   -0.9310 96.2 148 
 RUS  HZ I        1759 17.89         2.4 0.34            138           96.2 148 
 PTB  HZ EP       1758 58.98                             131   -0.0910  102 264 
 PTB  HN ES       1759 13.83                             131   -0.2810  102 264 
 PTB  HZ I        1759 19.49         5.6 0.16            134            102 264 
 PAM  SZ EP       1759  2.10                             126    0.5410  121  50 
 PAM  SN ES       1759 17.43                             126   -1.1110  121  50 
                                                                                
