 2016 1111 1352 25.9 L   6.821 -73.179138.4  RSN  9 0.3 2.0LRSN                1
 GAP=138        0.90       4.7     3.9  6.3 -0.4522E+01  0.5138E+01  0.9835E+01E
 Epicentro: ZAPATOCA - SANTANDER                                               3
 ACTION:UPD 17-10-26 21:06 OP:lp   STATUS:               ID:20161111135225 L   I
 OLDACT:REG 16-11-11 21:18 OP:dnl  STATUS:               ID:20161111134744     3
 2016-11-11-1348-00M.COL___343                                                 6
 STAT SP IPHASW D HRMM SECON CODA AMPLIT PERI AZIMU VELO AIN AR TRES W  DIS CAZ7
 BAR2 EZ EP       1352 44.47                             169   -0.1910 25.3 181 
 BAR2 EZ ES       1352 59.20                             169   -0.1110 25.3 181 
 BAR2 EZ I        1353  0.62        33.7 0.24            164           25.3 181 
 BRR  HZ EP       1352 46.11                             153    0.1410 66.8 298 
 BRR  HN ES       1353  1.87                             153    0.2210 66.8 298 
 BRR  HZ I        1353  6.86        30.1 0.26            155           66.8 298 
 PAM  EZ EP       1352 47.35                             149    0.0010 78.1  43 
 PAM  EN ES       1353  4.28                             149    0.1810 78.1  43 
 PAM  EZ I        1353  6.70        22.6 0.50            161           78.1  43 
 PTB  HZ EP       1352 51.34                             131   -0.61 9  145 258 
 PTB  HN ES       1353 12.40                             131    0.11 9  145 258 
 PTB  HZ I        1353 14.10         6.3 0.30            133            145 258 
 ZAR  HZ EP   2   1352 57.71                             121    0.32 4  200 292 
 ZAR  HE ES       1353 22.12                             121    0.14 9  200 292 
 ZAR  HZ I        1353 27.87         7.1 0.22            126            200 292 
 NOR  HZ EP   2   1353  1.07                             117    0.07 4  233 233 
 NOR  HE ES       1353 28.08                             117   -0.32 8  233 233 
 NOR  HZ I        1353 36.40         4.2 0.14            120            233 233 
 LL6C HZ EP   9   1352 49.76                             109   -21.2 0  322 358 
 LL6C HE ES       1353 23.64                                   -1.31 7  322 358 
 LL6C HZ I        1353 33.07        13.8 0.82            115            322 358 
 PRA  HZ EP       1353 19.09                             105   -0.08 6  392 209 
 PRA  HN ES       1354  1.55                             105    0.81 6  392 209 
 PRA  HZ I        1354  5.24         3.1 0.34            108            392 209 
 SJC  HZ EP   4   1353 19.16                             105   -1.57 0  405 327 
 SJC  HN ES   4   1354  0.21                             105   -3.31 0  405 327 
 SJC  HZ I        1354  0.59         1.8 0.30            109            405 327 
                                                                                
