 2017  811 1301 41.6 L   6.754 -73.171154.0  RSN  4 0.4 1.6LRSN                1
 GAP=231        0.81       9.2    10.3  7.2  0.7938E+02  0.1701E+01 -0.3362E+01E
 Epicentro: LOS SANTOS - SANTANDER                                             3
 ACTION:UPD 17-09-04 20:19 OP:rebc STATUS:               ID:20170811130141 L   I
 OLDACT:UP  17-08-11 22:22 OP:dani STATUS:               ID:20170811125739     3
 OLDACT:REG 17-08-11 20:26 OP:dani STATUS:               ID:20170811125739     3
 2017-08-11-1258-00M.COL___410                                                 6
 STAT SP IPHASW D HRMM SECON CODA AMPLIT PERI AZIMU VELO AIN AR TRES W  DIS CAZ7
 BAR2 EZ EP     D 13 2  1.75                             173   -0.4010 17.9 184 
 BAR2 EZ ES       13 2 17.97                             173   -0.2010 17.9 184 
 BAR2 EZ I        13 2 20.20         5.4 0.34            169           17.9 184 
 BRR  HZ EP       13 2  3.81                             154    0.1310 71.4 303 
 BRR  HE ES       13 2 21.18                             154    0.3010 71.4 303 
 BRR  HZ I        13 2 23.52         9.0 0.28            150           71.4 303 
 RUS  HZ EP       13 2  6.35                             147    0.4910 95.7 174 
 RUS  HN ES       13 2 24.65                             147   -0.1210 95.7 174 
 RUS  HZ I        13 2 25.38         3.2 0.20            147           95.7 174 
 ZAR  HZ EP   3   13 2 12.80                             124   -1.76 2  203 294 
 ZAR  HE ES       13 2 40.08                             124   -0.16 9  203 294 
 ZAR  HZ I        13 2 46.01         5.2 0.25            124            203 294 
                                                                                
