 2012  111 1300  3.4 L   6.693 -73.214145.8  RSN  7 0.5 2.1LRSN                1
 GAP=124        1.28       7.5     6.5 11.3  0.5399E+00  0.6650E+01 -0.1115E+02E
 Epicentro: VILLANUEVA - SANTANDER                                             3
 ACTION:UP  12-02-03 08:16 OP:REBC STATUS:               ID:20120111130003 L   I
 2012-01-11-1300-00M.COL___187                                                 6
 STAT SP IPHASW D HRMM SECON CODA AMPLIT PERI AZIMU VELO SNR AR TRES W  DIS CAZ7
 BAR2 SZ EP       13 0 22.84                             175     0.010   12 162 
 BAR2 SZ ES   1   13 0 37.25                             175    -0.8 7   12 162 
 BAR2 SZ I        13 0 38.57        23.2 0.13                            12 162 
 BRR  HZ EP       13 0 24.81                             152     0.210   72 310 
 BRR  HN ES   1   13 0 41.47                             152     0.4 7   72 310 
 BRR  HZ I        13 0 46.27        35.8 0.09                            72 310 
 RUS  HZ EP       13 0 26.87                             147     0.510   90 171 
 RUS  HN ES   1   13 0 45.13                             147     0.8 7   90 171 
 RUS  HZ I        13 0 46.82        14.0 0.40                            90 171 
 PAM  SZ EP       13 0 25.91                             146    -0.610   91  38 
 PTB  HZ EP   1   13 0 29.60                             134     0.1 7  138 263 
 PTB  HN ES   1   13 0 49.76                             134    -0.2 7  138 263 
 ZAR  HZ EP   1   13 0 35.73                             123     0.1 6  202 296 
 ZAR  HN ES   1   13 1  1.47                             123     0.7 6  202 296 
 ZAR  HZ I        13 1  7.71        12.9 0.12                           202 296 
 NOR  SN ES       13 1  3.77                             120    -0.8 8  222 236 
                                                                                
