 2016 1011 1825 52.0 L   6.802 -73.152144.7  RSN 21 0.4 2.5LRSN                1
 GAP= 71        0.93       2.8     2.7  4.5 -0.1049E+01  0.2520E+01  0.2698E+01E
 Epicentro: LOS SANTOS - SANTANDER                                             3
 ACTION:UPD 16-11-09 19:18 OP:rebc STATUS:               ID:20161011182552 L   I
 OLDACT:UP  16-10-11 23:50 OP:and  STATUS:               ID:20161011181745     3
 OLDACT:UP  16-10-11 23:49 OP:and  STATUS:               ID:20161011181745     3
 OLDACT:UP  16-10-11 23:49 OP:and  STATUS:               ID:20161011181745     3
 OLDACT:UP  16-10-11 23:42 OP:and  STATUS:               ID:20161011181745     3
 OLDACT:UP  16-10-11 23:41 OP:and  STATUS:               ID:20161011181745     3
 OLDACT:UP  16-10-11 23:37 OP:and  STATUS:               ID:20161011181745     3
 OLDACT:UP  16-10-11 23:35 OP:and  STATUS:               ID:20161011181745     3
 OLDACT:UP  16-10-11 23:33 OP:and  STATUS:               ID:20161011181745     3
 OLDACT:REG 16-10-11 22:17 OP:lv   STATUS:               ID:20161011181745     3
 2016-10-11-1818-00M.COL___369                                                 6
 STAT SP IPHASW D HRMM SECON CODA AMPLIT PERI AZIMU VELO AIN AR TRES W  DIS CAZ7
 BAR2 EZ IP     D 1826 11.22                             170   -0.2610 23.4 188 
 BAR2 EZ ES       1826 26.54                             170   -0.1610 23.4 188 
 BAR2 EZ I        1826 29.05        89.7 0.32            168           23.4 188 
 BRR  HZ EP     C 1826 13.07                             153    0.0910 70.5 299 
 BRR  HN ES       1826 30.21                             153    0.8610 70.5 299 
 BRR  HZ I        1826 33.31        44.5 0.20            149           70.5 299 
 PAM  EZ EP     C 1826 14.04                             151   -0.0610 77.7  40 
 PAM  EN ES       1826 31.39                             151    0.0410 77.7  40 
 PAM  EZ I        1826 34.49        37.9 0.52            154           77.7  40 
 RUS  HZ IP     D 1826 15.10                             144   -0.5410  101 176 
 RUS  HN ES       1826 34.00                             144   -0.1010  101 176 
 RUS  HZ I        1826 35.32        24.8 0.28            143            101 176 
 PTB  HZ EP       1826 18.51                             132   -0.29 9  147 259 
 PTB  HN ES       1826 38.93                             132   -0.80 9  147 259 
 PTB  HZ I        1826 41.08        24.5 0.16            130            147 259 
 TAM  HZ IP     C 1826 19.64                             130    0.01 9  156 105 
 TAM  HN ES       1826 41.47                             130    0.26 9  156 105 
 TAM  HZ I        1826 41.90        19.4 0.32            133            156 105 
 SPBC HZ EP       1826 20.31                             129   -0.06 9  163 219 
 SPBC HN ES       1826 42.64                             129    0.13 9  163 219 
 SPBC HZ I        1826 50.13        44.9 0.22            127            163 219 
 ZAR  HZ EP       1826 24.03                             122   -0.25 9  203 292 
 ZAR  HE ES       1826 49.43                             122   -0.05 9  203 292 
 ZAR  HZ I        1826 54.41        39.5 0.34            121            203 292 
 TABC EZ EP   4   1826 28.77                             119    1.13 0  230 211 
 TABC EZ ES       1826 56.30                             119    0.84 8  230 211 
 TABC EZ I        1827  2.74        36.5 0.39            118            230 211 
 NOR  HZ EP       1826 27.45                             118   -0.15 8  234 234 
 NOR  HE ES       1826 55.14                             118   -0.24 8  234 234 
 NOR  HZ I        1827  0.77        23.1 0.22            117            234 234 
 CHI  HZ EP       1826 29.43                             117   -0.18 8  249 195 
 CHI  HN ES       1826 58.79                             117   -0.18 8  249 195 
 CHI  HZ I        1827  3.83        16.1 0.44            117            249 195 
 ROSC BZ EP   4   1826 31.77                             116    1.75 0  253 211 
 ROSC BE ES       1827  0.05                             116    0.36 8  253 211 
 ROSC BZ I        1827  5.91        62.8 0.45            116            253 211 
 HEL  HZ EP   4   1826 33.38                             115    1.31 0  271 256 
 HEL  HN ES   4   1827  6.21                             115    2.87 0  271 256 
 HEL  HZ I        1827 10.03        15.8 0.46            114            271 256 
 GUY2CHZ EP       1826 36.44                             112    0.95 7  301 235 
 GUY2CHE ES   4   1827 13.57                             112    4.15 0  301 235 
 GUY2CHZ I        1827 17.45        22.7 0.36                           301 235 
 PTGC HZ EP   4 D 1826 34.37                             111   -1.46 0  309 159 
 PTGC HN ES   4   1827  7.38                             111   -2.66 0  309 159 
 ELA  HZ EP   9   1826 41.60                             110    2.86 0  329 229 
 ELA  HN ES       1827 17.95                             110   -0.12 7  329 229 
 ELA  HZ I        1827 30.48        15.4 0.46            110            329 229 
 CBOC HZ EP       1826 39.52                             110    0.74 7  333 252 
 CBOC HE ES   2   1827 14.64                             110   -0.65 3  333 252 
 CBOC HZ I        1827 28.94         4.7 0.17            109            333 252 
 ANIL HN ES   3   1827 21.47                             108    0.99 2  357 224 
 PRA  HZ EP       1826 44.95                             106   -0.49 6  392 209 
 PRA  HN ES       1827 27.12                             106   -0.02 6  392 209 
 PRA  HZ I        1827 33.44        22.3 0.44            106            392 209 
 PAL  HZ EP       1826 47.43                             106    0.39 6  405 239 
 PAL  HN ES   4   1827 31.99                             106    1.99 0  405 239 
 PAL  HZ I        1827 33.17         3.8 0.20            105            405 239 
 SJC  HZ EP   4   1826 45.46                             106   -1.98 0  409 327 
 SJC  HN ES   4   1827 26.52                             106   -4.19 0  409 327 
 SJC  HZ I        1827 41.20         4.2 0.36            106            409 327 
 CRJC HZ EP   9   1826 51.57                             103   -2.86 0  468   4 
 CRJC HE ES   2   1827 39.44                                   -0.84 2  468   4 
 CRJC HZ I        1827 46.81         7.6 0.19            104            468   4 
                                                                                
