 2013  311 1237 19.8 L   6.786 -73.177146.7  RSN  4 0.5 1.4LRSN                1
 GAP=133        0.96       6.9     6.5 10.4 -0.4766E+01  0.1120E+02  0.7670E+01E
 Epicentro: LOS SANTOS - SANTANDER                                             3
 ACTION:UPD 13-04-09 14:01 OP:ep   STATUS:               ID:20130311123719 L   I
 2013-03-11-1230-00M.COL___231                                                 6
 STAT SP IPHASW D HRMM SECON CODA AMPLIT PERI AZIMU VELO AIN AR TRES W  DIS CAZ7
 BRR  HZ EP       1237 41.24                             153    0.3510 68.9 301 
 BRR  HN ES   1   1237 58.13                             153    0.76 7 68.9 301 
 PAM  SZ EP   1   1237 42.24                             150   -0.04 7 80.8  41 
 PAM  SZ I        1237 42.44         6.3 0.16            154           80.8  41 
 PAM  SN ES   1   1237 59.22                             150   -0.63 7 80.8  41 
 RUS  HZ EP   1   1237 43.82                             144    0.30 7 99.4 174 
 RUS  HN ES   1   1238  2.07                             144    0.02 7 99.4 174 
 RUS  HN I        1238  3.39         2.4 0.18            145           99.4 174 
 PTB  HZ EP       1237 46.21                             133   -0.27 9  144 259 
 PTB  HN ES   1   1238  6.61                             133   -0.70 7  144 259 
 PTB  HZ I        1238 12.05         2.8 0.13            132            144 259 
                                                                                
