 2016  211 1341 45.8 L   6.762 -73.211137.3  RSN  8 0.4 1.8LRSN                1
 GAP=129        0.70       3.7     5.7  8.4 -0.7386E+01  0.2567E+02  0.2125E+01E
 Epicentro: ZAPATOCA - SANTANDER                                               3
 ACTION:UPD 16-03-04 21:25 OP:rebc STATUS:               ID:20160211134145 L   I
 OLDACT:REG 16-02-11 20:32 OP:dnl  STATUS:               ID:20160211133748     3
 2016-02-11-1337-48M.COL___315                                                 6
 STAT SP IPHASW D HRMM SECON CODA AMPLIT PERI AZIMU VELO AIN AR TRES W  DIS CAZ7
 BAR2 EZ EP       1342  4.59                             172    0.2710 19.1 170 
 BAR2 EZ ES   2   1342 19.22                             172    0.44 5 19.1 170 
 BAR2 EZ I        1342 22.38        16.6 0.30            164           19.1 170 
 PAM  EZ EP     D 1342  7.62                             147   -0.0110 85.3  42 
 PAM  EE ES       1342 24.51                             147   -0.1510 85.3  42 
 PAM  EZ I        1342 26.86        13.7 0.36            147           85.3  42 
 RUS  HZ EP   2   1342  8.02                             143   -0.45 5 97.2 172 
 RUS  HE ES   2   1342 26.24                             143    0.08 5 97.2 172 
 RUS  HZ I        1342 28.34         4.8 0.21            142           97.2 172 
 PTB  HZ EP       1342 11.21                             132   -0.14 9  140 260 
 PTB  HZ I        1342 39.05         6.8 0.16            122            140 260 
 SPBC HZ EP   2   1342 13.37                             128    0.46 5  155 218 
 SPBC HE ES   2   1342 34.63                             128    0.58 5  155 218 
 SPBC HZ I        1342 40.25        12.7 0.21            122            155 218 
 ZAR  HZ EP   2   1342 17.91                             121    0.74 4  199 294 
 ZAR  HE ES   2   1342 40.73                             121   -0.92 4  199 294 
 ZAR  HZ I        1342 47.78         8.8 0.30            114            199 294 
 CHI  HZ EP   2   1342 22.90                             116    0.51 4  243 194 
 CHI  HE ES       1342 50.38                             116   -0.56 8  243 194 
 CHI  HZ I        1342 55.59         6.0 0.58            113            243 194 
 ANIL HN ES   2   1343 13.03                             107    0.81 3  349 224 
                                                                                
