 2015  711 1121 25.0 L   6.383 -73.659100.0  RSN 13 0.6 2.1LRSN                1
 GAP= 64        1.22       3.1     4.4  9.5 -0.3422E+01  0.2322E+02 -0.3498E+01E
 Epicentro: SANTA HELENA DEL OPON - SANTANDER                                  3
 ACTION:UPD 15-09-08 21:48 OP:cam  STATUS:               ID:20150711112125 L   I
 OLDACT:UP  15-07-12 00:13 OP:ar   STATUS:               ID:20150711111748     3
 OLDACT:REG 15-07-11 20:41 OP:ar   STATUS:               ID:20150711111748     3
 2015-07-11-1117-48M.COL___340                                                 6
 STAT SP IPHASW D HRMM SECON CODA AMPLIT PERI AZIMU VELO AIN AR TRES W  DIS CAZ7
 BAR2 EZ EP       1121 40.44                             148   -0.3610 57.5  66 
 BAR2 EZ ES       1121 53.16                             148    0.0210 57.5  66 
 BAR2 EZ I        1121 54.54        93.3 0.42            148           57.5  66 
 RUS  HZ EP   2   1121 42.17                             138   -0.93 5 83.7 130 
 RUS  HN ES   2   1121 56.41                             138   -0.83 5 83.7 130 
 RUS  HZ I        1121 58.45        15.9 0.45            136           83.7 130 
 NOR  HZ EP       1121 49.46                             118   -0.78 9  162 236 
 NOR  HN ES       1122 10.15                             118    0.20 9  162 236 
 NOR  HZ I        1122 11.54        19.4 0.26            114            162 236 
 ZAR  HZ EP       1121 51.57                             115   -0.70 9  181 313 
 ZAR  HE ES       1122 14.36                             115    0.81 9  181 313 
 ZAR  HZ I        1122 17.70        32.5 0.28            111            181 313 
 CHI  HN ES       1122 17.81                             113    0.64 9  194 182 
 CHI  HZ I        1122 20.12         8.1 0.20            110            194 182 
 OCA  HZ EP       1121 55.96                             111    0.32 8  209  10 
 OCA  HN ES       1122 20.48                             111    0.93 8  209  10 
 GUY2CHZ EP       1121 58.43                             110    0.11 8  228 236 
 GUY2CHE ES   4   1122 26.18                             110    1.86 0  228 236 
 GUY2CHZ I        1122 28.92         8.7 0.74                           228 236 
 URE  HZ EP   9   1121 59.61                             107   -1.43 0  256 306 
 URE  HN ES       1122 27.88                                    0.14 8  256 306 
 URE  HZ I        1122 34.90        11.3 0.14            105            256 306 
 CBOC HZ EP     D 1122  2.80                             106    0.35 8  267 258 
 CBOC HZ I        1122 29.13         3.5 0.34            104            267 258 
 CBOC HN ES       1122 31.43                             106   -0.25 8  267 258 
 SML  HZ EP       1122  1.84                             106   -0.93 8  271 350 
 SML  HN ES       1122 32.31                             106    0.07 8  271 350 
 SML  HZ I        1122 35.85        13.5 0.10            104            271 350 
 TOL  SZ EP       1122  4.03                             106    0.88 8  271 223 
 TOL  SE ES       1122 33.18                             106    0.26 8  271 223 
 TOL  SZ I        1122 37.35         3.8 0.46            104            271 223 
 DBB  SZ EP   2   1122  5.19                             105    0.01 4  291 284 
 DBB  SZ ES       1122 35.53                             105   -1.01 7  291 284 
 DBB  SZ I        1122 40.15        18.0 0.56            103            291 284 
 PRA  HZ EP   2   1122  9.50                             103    0.25 3  325 205 
 PRA  HN ES   2   1122 43.92                             103    0.15 3  325 205 
 PRA  HZ I        1122 47.17         5.6 0.30            101            325 205 
                                                                                
