 2015 1111 1135 49.9 L   6.811 -73.159145.2  RSN 13 0.3 2.3LRSN                1
 GAP=134        0.73       2.1     2.8  4.5 -0.1191E+01  0.3530E+01  0.2070E+01E
 Epicentro: LOS SANTOS - SANTANDER                                             3
 ACTION:UPD 15-12-28 16:10 OP:cam  STATUS:               ID:20151111113549 L   I
 OLDACT:DUP 15-11-11 23:40 OP:cara STATUS:               ID:20151111112750d    3
 OLDACT:REG 15-11-11 20:51 OP:cara STATUS:               ID:20151111112749     3
 2015-11-11-1127-49M.COL___316                                                 6
 STAT SP IPHASW D HRMM SECON CODA AMPLIT PERI AZIMU VELO AIN AR TRES W  DIS CAZ7
 BAR2 EZ EP       1136  8.86                             170   -0.5710 24.3 186 
 BAR2 EZ ES   4   1136 22.90                             170   -1.80 0 24.3 186 
 BAR2 EZ I        1136 26.15        32.9 0.42            170           24.3 186 
 BRR  HZ EP       1136 11.37                             153    0.5310 69.3 298 
 BRR  HN ES       1136 27.17                             153   -0.0310 69.3 298 
 BRR  HZ I        1136 34.92        23.0 0.16            151           69.3 298 
 PAM  EZ IP     C 1136 12.26                             151    0.2510 77.4  41 
 PAM  EN ES       1136 29.49                             151    0.2010 77.4  41 
 PAM  EZ I        1136 31.54        23.8 0.56            156           77.4  41 
 RUS  HZ EP       1136 13.28                             143   -0.3610  102 175 
 RUS  HN ES       1136 32.21                             143    0.0210  102 175 
 RUS  HZ I        1136 35.24        16.2 0.26            148            102 175 
 OCA  HZ EP       1136 17.79                             130   -0.20 9  159 354 
 OCA  HN ES       1136 39.74                             130   -0.20 9  159 354 
 OCA  HZ I        1136 45.53        49.4 0.38            133            159 354 
 SPBC HZ EP       1136 18.22                             129   -0.09 9  163 218 
 SPBC HN ES       1136 40.90                             129    0.40 9  163 218 
 SPBC HZ I        1136 45.35        35.8 0.18            132            163 218 
 ZAR  HZ EP       1136 22.10                             122    0.03 9  202 292 
 ZAR  HN ES       1136 47.21                             122    0.00 9  202 292 
 ZAR  HZ I        1136 53.15        31.8 0.74            124            202 292 
 NOR  HZ EP       1136 25.44                             118   -0.05 8  234 234 
 NOR  HN ES       1136 53.21                             118   -0.08 8  234 234 
 NOR  HZ I        1137  3.77        10.3 0.14            121            234 234 
 SML  HZ EP   4   1136 25.91                             117   -0.36 0  242 335 
 SML  HE ES   4   1136 53.36                             117   -1.31 0  242 335 
 SML  HZ I        1137  1.01        29.9 0.24            120            242 335 
 CHI  HZ EP       1136 28.06                             117    0.46 8  249 195 
 CHI  HN ES       1136 56.68                             117   -0.36 8  249 195 
 CHI  HZ I        1137  2.55         9.3 0.28            121            249 195 
 HEL  HN ES       1137  0.76                             115   -0.39 8  271 255 
 GUY2CHZ EP       1136 33.86                             112    0.48 7  301 234 
 GUY2CHN ES       1137  7.32                             112   -0.00 7  301 234 
 GUY2CHZ I        1137 14.87         9.5 0.48                           301 234 
 MON  HZ EP   4   1136 36.39                             109   -2.22 0  352 308 
 MON  HE ES   4   1137 15.62                             109   -1.03 0  352 308 
 ORTC HZ EP       1136 43.58                             106   -0.18 6  396 216 
 ORTC HE ES       1137 26.08                             106    0.27 6  396 216 
                                                                                
