 2013  411 1712 10.1 L   6.798 -73.153148.7  RSN  8 0.5 2.0LRSN                1
 GAP=184        0.96       4.8     6.4  7.4  0.1952E+01  0.1055E+02  0.5981E+01E
 Epicentro: LOS SANTOS - SANTANDER                                             3
 ACTION:UPD 13-05-22 14:37 OP:EP   STATUS:               ID:20130411171210 L   I
 2013-04-11-1710-00M.COL___245                                                 6
 STAT SP IPHASW D HRMM SECON CODA AMPLIT PERI AZIMU VELO AIN AR TRES W  DIS CAZ7
 BAR2 SZ EP       1712 30.14                             171    0.0510 23.0 188 
 BAR2 SZ ES   1   1712 44.92                             171   -0.75 7 23.0 188 
 BAR2 SZ I        1712 47.04        31.6 0.28            166           23.0 188 
 GIR2 SZ EP       1712 30.18                             167    0.0410 31.4 352 
 GIR2 SZ ES   1   1712 46.00                             167    0.24 7 31.4 352 
 GIR2 SZ I        1712 47.33        15.8 0.50            167           31.4 352 
 BRR  HZ EP       1712 32.00                             153    0.4510 70.6 299 
 BRR  HE ES   1   1712 49.22                             153    0.96 7 70.6 299 
 BRR  HZ I        1712 52.31        20.9 0.26            150           70.6 299 
 RUS  HZ EP       1712 34.18                             144    0.0410  100 176 
 RUS  HN ES   1   1712 52.66                             144   -0.22 7  100 176 
 RUS  HZ I        1712 53.79        14.6 0.38            145            100 176 
 PTB  HZ EP       1712 36.77                             133   -0.48 9  147 259 
 PTB  HN ES   1   1712 58.03                             133   -0.37 7  147 259 
 PTB  HZ I        1713  3.98        15.3 0.18            131            147 259 
 NOR  HN ES   1   1713 13.95                             119    0.09 6  234 234 
 SML  HE ES   1   1713 14.74                             118   -0.84 6  244 336 
 PRA  HZ EP   1   1713  4.39                             107    0.72 4  391 209 
 PRA  HE ES   1   1713 45.53                             107    0.10 4  391 209 
 PRA  HZ I        1713 52.85         4.0 0.32            108            391 209 
                                                                                
