 2012  611 1236 44.9 L   6.777 -73.136135.7  RSN  7 0.5 2.0LRSN                1
 GAP=244        0.94       6.4     6.7  8.2  0.1544E+02  0.2021E+02  0.4086E+01E
 Epicentro: LOS SANTOS - SANTANDER                                             3
 ACTION:UPD 12-08-06 17:48 OP:ep   STATUS:               ID:20120611123650 L   I
 2012-06-11-1230-00M.COL___201                                                 6
 STAT SP IPHASW D HRMM SECON CODA AMPLIT PERI AZIMU VELO AIN AR TRES W  DIS CAZ7
 BAR2 SZ EP       1237  3.43                             171    0.1310 21.0 194 
 BAR2 SZ ES   1   1237 18.08                             171    0.45 7 21.0 194 
 BAR2 SZ I        1237 21.26        23.4 0.27            170           21.0 194 
 RUS  HZ EP   1   1237  7.46                             142   -0.04 7 97.9 177 
 RUS  HN ES   1   1237 24.73                             142   -0.38 7 97.9 177 
 RUS  HZ I        1237 28.50         8.1 0.22            138           97.9 177 
 PTB  HZ EP   1   1237 10.01                             130   -1.14 7  148 260 
 PTB  HN ES   1   1237 31.08                             130   -0.52 7  148 260 
 PTB  HZ I        1237 36.67        14.1 0.18            120            148 260 
 ZAR  HZ EP   1   1237 16.56                             120   -0.39 6  206 293 
 ZAR  HE ES   1   1237 42.41                             120    0.49 6  206 293 
 ZAR  HZ I        1237 48.82        15.0 0.35            111            206 293 
 NOR  SZ EP       1237 20.17                             116    0.14 8  234 235 
 NOR  SE ES   1   1237 47.54                             116    0.14 6  234 235 
 CHI  HZ EP   1   1237 21.96                             115    0.12 6  246 196 
 CHI  HN ES   1   1237 50.94                             115    0.30 6  246 196 
 CHI  HZ I        1237 54.40         5.3 0.29            109            246 196 
 HEL  HZ EP   1   1237 25.73                             113    1.04 6  272 256 
 HEL  HZ I        1238  2.08         8.4 0.41            106            272 256 
                                                                                
