 2015  611 1054 59.6 L   6.836 -73.138150.9  RSN 10 0.6 1.8LRSN                1
 GAP=202        1.25       4.4     7.3  7.2  0.5141E+01  0.1352E+02 -0.9244E+00E
 Epicentro: LOS SANTOS - SANTANDER                                             3
 ACTION:UPD 15-09-10 22:11 OP:cam  STATUS:               ID:20150611105459 L   I
 OLDACT:REG 15-06-11 20:51 OP:ak   STATUS:               ID:20150611104746     3
 2015-06-11-1047-46M.COL___282                                                 6
 STAT SP IPHASW D HRMM SECON CODA AMPLIT PERI AZIMU VELO AIN AR TRES W  DIS CAZ7
 BAR2 EZ EP       1055 19.85                             170   -0.1010 27.4 190 
 BAR2 EZ ES       1055 35.49                             170   -0.3210 27.4 190 
 BAR2 EZ I        1055 38.14         7.3 0.22            169           27.4 190 
 BRR  HZ EP       1055 22.05                             154    0.7910 70.1 295 
 BRR  HN ES       1055 39.06                             154    0.9110 70.1 295 
 BRR  HZ I        1055 41.33         9.9 0.48            151           70.1 295 
 RUS  HZ EP       1055 24.27                             144    0.1110  105 177 
 RUS  HN ES       1055 42.79                             144   -0.5010  105 177 
 RUS  HZ I        1055 45.33         4.4 0.38            147            105 177 
 SPBC HZ EP       1055 28.66                             130   -0.19 9  167 218 
 SPBC HN ES       1055 50.97                             130   -0.69 9  167 218 
 SPBC HZ I        1055 56.73        10.5 0.10            130            167 218 
 ZAR  HZ EP   1   1055 31.75                             123   -0.58 6  203 291 
 ZAR  HN ES       1055 57.08                             123   -0.76 9  203 291 
 ZAR  HZ I        1056  4.33         5.3 0.32            123            203 291 
 SML  HZ EP       1055 36.21                             119    0.03 8  240 335 
 SML  HN ES   1   1056  4.84                             119    0.13 6  240 335 
 SML  HZ I        1056 12.71         8.7 0.11            120            240 335 
 GUY2CHZ EP       1055 44.64                             113    0.84 7  304 234 
 GUY2CHN ES       1056 18.70                             113    0.43 7  304 234 
 GUY2CHZ I        1056 25.23         2.7 0.53                           304 234 
 MON  HZ EP   4   1055 47.01                             109   -1.60 0  352 308 
 MON  HE ES   4   1056 24.15                             109   -2.68 0  352 308 
 MON  HZ I        1056 28.92         1.3 0.31            110            352 308 
 PRA  HZ EP       1055 54.25                             107    0.48 6  396 209 
 PRA  HN ES       1056 36.08                             107    0.07 6  396 209 
 PRA  HZ I        1056 40.26         1.8 0.09            108            396 209 
 SJC  HZ EP       1055 54.16                             106   -0.85 6  406 327 
                                                                                
