 2014  711 1415 48.0 L   6.776 -73.152152.6  RSN  6 0.5 1.9LRSN                1
 GAP=200        1.10       6.2     7.5  8.3  0.1772E+02  0.2891E+01 -0.1407E+02E
 Epicentro: LOS SANTOS - SANTANDER                                             3
 ACTION:UPD 15-03-16 20:43 OP:nd   STATUS:               ID:20140711141548 L   I
 OLDACT:UP  14-07-11 21:33 OP:cam  STATUS:               ID:20140711141000     3
 OLDACT:REG 14-07-11 19:49 OP:cam  STATUS:               ID:20140711141000     3
 2014-07-11-1410-00M.COL___282                                                 6
 STAT SP IPHASW D HRMM SECON CODA AMPLIT PERI AZIMU VELO AIN AR TRES W  DIS CAZ7
 BAR2 SZ EP       1416  8.38                             172   -0.0410 20.6 189 
 BAR2 SZ ES       1416 23.89                             172   -0.4410 20.6 189 
 BAR2 SZ I        1416 25.25        16.4 0.46            166           20.6 189 
 BRR  HZ EP     D 1416 10.43                             153    0.4810 71.9 301 
 BRR  HZ I        1416 11.90        18.7 0.36            148           71.9 301 
 BRR  HN ES       1416 27.93                             153    0.8810 71.9 301 
 RUS  HZ EP   1   1416 12.50                             146    0.23 7 98.0 176 
 RUS  HN ES   1   1416 30.94                             146   -0.24 7 98.0 176 
 RUS  HZ I        1416 34.59         4.2 0.72            145           98.0 176 
 PTB  HZ EP       1416 15.24                             134   -0.21 9  147 260 
 PTB  HN ES       1416 36.48                             134   -0.36 9  147 260 
 PTB  HZ I        1416 43.83        12.6 0.40            130            147 260 
 ZAR  HZ EP   1   1416 21.09                             124    0.13 6  204 293 
 ZAR  HE ES   1   1416 46.67                             124    0.03 6  204 293 
 ZAR  HZ I        1416 54.73         7.0 0.20            122            204 293 
 SML  HZ EP   1   1416 25.59                             119    0.33 6  246 336 
 SML  HN ES       1416 53.39                             119   -0.92 8  246 336 
 SML  HZ I        1416 58.17        16.1 0.10            119            246 336 
                                                                                
