 2017 1011 1019 42.5 L   6.785 -73.157146.1  RSN 10 0.4 1.8LRSN                1
 GAP=111        1.03       3.5     4.4  6.1  0.1999E+00  0.8512E+01  0.3603E+01E
 Epicentro: LOS SANTOS - SANTANDER                                             3
 ACTION:UPD 17-11-07 19:30 OP:rebc STATUS:               ID:20171011101942 L   I
 OLDACT:REG 17-10-11 16:11 OP:lv   STATUS:               ID:20171011101742     3
 2017-10-11-1018-00M.COL___435                                                 6
 STAT SP IPHASW D HRMM SECON CODA AMPLIT PERI AZIMU VELO AIN AR TRES W  DIS CAZ7
 BAR2 EZ EP       1020  2.19                             171    0.0410 21.5 188 
 BAR2 EZ ES       1020 17.66                             171    0.1910 21.5 188 
 BAR2 EZ I        1020 18.77        16.5 0.19            171           21.5 188 
 PAM  EZ EP       1020  4.82                             150   -0.0710 79.4  39 
 PAM  EN ES       1020 22.42                             150    0.0810 79.4  39 
 PAM  EZ I        1020 24.67         6.0 0.28            153           79.4  39 
 RUS  HZ EP       1020  6.31                             144    0.1210 99.0 175 
 RUS  HN ES       1020 24.99                             144    0.3410 99.0 175 
 RUS  HZ I        1020 26.22         7.0 0.42            145           99.0 175 
 SPBC HZ EP       1020 11.01                             129    0.17 9  161 219 
 SPBC HN ES       1020 33.46                             129    0.52 9  161 219 
 YPLC HZ EP       1020 12.15                             127   -0.10 9  176 151 
 YPLC HN ES       1020 34.59                             127   -0.85 9  176 151 
 YPLC HZ I        1020 36.99         7.8 0.22            129            176 151 
 ZAR  HZ EP       1020 15.00                             122    0.07 9  204 293 
 ZAR  HN ES       1020 39.38                             122   -0.83 9  204 293 
 ZAR  HZ I        1020 46.67         7.5 0.21            123            204 293 
 NOR  HZ EP       1020 18.16                             119    0.11 8  233 235 
 NOR  HN ES   4   1020 44.15                             119   -1.62 0  233 235 
 NOR  HZ I        1020 47.90         4.3 0.18            119            233 235 
 CHI  HZ EP       1020 20.24                             117    0.22 8  247 195 
 CHI  HN ES       1020 48.38                             117   -0.90 8  247 195 
 CHI  HZ I        1020 55.31         2.6 0.35            118            247 195 
 URE  HN ES   4   1020 53.28                             114   -2.26 0  283 292 
 GUY2CHZ EP   9   1020 27.71                             112    1.80 0  299 235 
 GUY2CHN ES       1021  0.83                                   -0.74 7  299 235 
 GUY2CHZ I        1021  8.81         2.9 0.28                           299 235 
 PRA  HZ EP       1020 36.47                             107    0.67 6  390 210 
 PRA  HN ES       1021 17.80                             107    0.43 6  390 210 
 PRA  HZ I        1021 20.79         1.9 0.24            107            390 210 
 SJC  HZ EP   4   1020 36.30                             106   -1.87 0  410 327 
 SJC  HN ES   4   1021 17.58                             106   -4.00 0  410 327 
                                                                                
