 2017 1211 1822  3.4 L   6.784 -73.178144.7  RSN  7 0.2 1.6LRSN                1
 GAP=140        0.55       3.1     2.8  5.4 -0.2844E+01  0.8855E+00  0.5812E+01E
 Epicentro: LOS SANTOS - SANTANDER                                             3
 ACTION:UPD 18-01-04 13:19 OP:rebc STATUS:               ID:20171211182203 L   I
 OLDACT:UP  17-12-12 01:47 OP:mg   STATUS:               ID:20171211181737     3
 OLDACT:UP  17-12-12 01:47 OP:mg   STATUS:               ID:20171211181737     3
 OLDACT:REG 17-12-11 22:32 OP:mg   STATUS:               ID:20171211181737     3
 2017-12-11-1818-00M.COL___478                                                 6
 STAT SP IPHASW D HRMM SECON CODA AMPLIT PERI AZIMU VELO AIN AR TRES W  DIS CAZ7
 BAR2 EZ EP   1   1822 22.41                             171   -0.44 7 21.2 181 
 BAR2 EZ ES   2   1822 38.29                             171    0.27 5 21.2 181 
 BAR2 EZ I        1822 40.82         9.1 0.05            159           21.2 181 
 PAM  EZ EP       1822 25.54                             149   -0.1710 81.0  41 
 PAM  EN ES       1822 43.13                             149    0.0110 81.0  41 
 PAM  EZ I        1822 44.93         3.4 0.23            141           81.0  41 
 PTB  HZ EP       1822 30.16                             133    0.24 9  144 259 
 PTB  HE ES       1822 50.58                             133   -0.03 9  144 259 
 PTB  HZ I        1822 53.16         3.0 0.11            122            144 259 
 OCA  HN ES       1822 54.10                             129    0.25 9  162 354 
 OCA  HZ I        1822 57.69        11.5 0.14            120            162 354 
 ZAR  HN ES   1   1823  0.10                             122   -0.42 6  201 293 
 ZAR  HZ I        1823  7.16         4.3 0.32            113            201 293 
 CHI  HZ EP       1822 40.93                             117    0.19 8  246 194 
 CHI  HZ I        1823  4.64         1.8 0.39            106            246 194 
 GUY2CHZ EP   9   1822 48.58                             112    2.08 0  297 235 
 GUY2CHN ES       1823 22.25                             112    0.04 7  297 235 
 GUY2CHZ I        1823 29.70         2.1 0.32                           297 235 
                                                                                
