 2013  911 1640 39.9 L   6.807 -73.153150.7  RSN 10 0.4 2.1LRSN                1
 GAP=135        0.89       3.0     4.2  5.3  0.3837E+00  0.4462E+01  0.1508E+00E
 Epicentro: LOS SANTOS - SANTANDER                                             3
 ACTION:UPD 13-10-22 09:21 OP:ep   STATUS:               ID:20130911164039 L   I
 OLDACT:REG 13-09-11 15:25 OP:carl STATUS:               ID:20130911163959     3
 2013-09-11-1639-59M.COL___269                                                 6
 STAT SP IPHASW D HRMM SECON CODA AMPLIT PERI AZIMU VELO AIN AR TRES W  DIS CAZ7
 BAR2 SZ EP       1641  0.07                             171   -0.0510 23.9 188 
 BAR2 SZ ES       1641 15.67                             171   -0.2310 23.9 188 
 BAR2 SZ I        1641 16.39        27.7 0.22            170           23.9 188 
 BRR  HZ EP       1641  1.88                             154    0.3710 70.2 298 
 BRR  HN ES       1641 18.86                             154    0.4810 70.2 298 
 BRR  HN I        1641 22.29        75.9 0.18            153           70.2 298 
 PAM  SZ EP       1641  3.03                             152    0.4110 77.3  40 
 PAM  SN ES   1   1641 20.10                             152   -0.26 7 77.3  40 
 PAM  SZ I        1641 21.72        16.8 0.68            154           77.3  40 
 RUS  HZ EP       1641  4.16                             145   -0.0210  101 176 
 RUS  HN ES   1   1641 23.16                             145    0.04 7  101 176 
 RUS  HZ I        1641 24.54        12.9 0.30            146            101 176 
 PTB  HZ EP       1641  6.53                             133   -0.67 9  147 259 
 PTB  HN ES   1   1641 28.35                             133   -0.16 7  147 259 
 PTB  HZ I        1641 29.78        13.0 0.14            133            147 259 
 ZAR  HZ EP       1641 13.09                             124    0.53 9  203 292 
 ZAR  HN ES   1   1641 38.21                             124    0.17 6  203 292 
 ZAR  HZ I        1641 44.29        12.8 0.24            124            203 292 
 NOR  HE ES       1641 44.04                             120    0.08 8  234 234 
 SML  HZ EP       1641 16.71                             119    0.02 8  243 335 
 SML  HN ES       1641 44.53                             119   -0.86 8  243 335 
 CHI  HZ EP       1641 17.91                             118   -0.00 8  249 195 
 CHI  HN ES       1641 47.34                             118   -0.24 8  249 195 
 CHI  HZ I        1641 50.94         6.2 0.40            119            249 195 
 GUY2CHZ EP   4   1641 25.46                             113    1.76 0  301 235 
 GUY2CHE ES   4   1641 59.83                             113    1.95 0  301 235 
 GUY2CHZ I        1642 10.52         5.7 0.40                           301 235 
                                                                                
