 2010  111 1021 46.1 L   6.786 -73.033145.2  RSN 10 0.5 1.8LRSN                1
 GAP=135        0.71       4.3     8.5  5.9 -0.1479E+02  0.1161E+02  0.2098E+01E
 Epicentro: CEPITA - SANTANDER                                                 3
 ACTION:UP  10-08-24 09:43 OP:vdl  STATUS:               ID:20100111102146 L   I
 2010-01-11-1019-44S.COL___097                                                 6
 STAT SP IPHASW D HRMM SECON CODA AMPLIT PERI AZIMU VELO SNR AR TRES W  DIS CAZ7
 BAR2 SZ ES   1   1022 20.65                             169    -0.4 7   27 218 
 GIR2 SZ EP   1   1022  5.90                             165     0.1 7   37 331 
 GIR2 SZ ES   2   1022 21.42                             165     0.2 5   37 331 
 RUS  BZ EP   1   1022  9.79                             144     0.2 7   99 183 
 RUS  BN ES   2   1022 28.78                             144     0.7 5   99 183 
 RUS  BZ I        1022 30.48         6.7 0.60                            99 183 
 OCA  SZ EP   1   1022 14.33                             129    -0.3 7  164 349 
 OCA  SZ ES   2   1022 37.44                             129     0.5 5  164 349 
 NOR  SZ EP   2   1022 21.96                             117    -0.8 4  244 237 
 NOR  SZ ES   2   1022 50.82                             117    -0.6 4  244 237 
 CHI  HZ EP   1   1022 23.73                             117    -0.2 6  251 198 
 CHI  HE ES   2   1022 52.92                             117    -0.6 4  251 198 
 CHI  HZ I        1022 58.12         4.4 0.59                           251 198 
 RREF BZ EP   1   1022 33.95                             110     0.8 5  330 231 
 RREF BN ES   2   1023 10.27                             110     0.4 3  330 231 
 RREF BZ I        1023 18.35         4.3 0.32                           330 231 
 TOL  SZ EP   1   1022 35.98                             109     0.8 5  351 226 
 SDV  BZ EP   2   1022 34.90                             109    -0.2 3  352  49 
 PRA  HZ EP   1   1022 39.64                             106    -0.5 4  397 211 
 PRA  HN ES   2   1023 22.33                             106     0.0 3  397 211 
                                                                                
