 2016  511 1040 41.9 L   6.355 -73.523111.7  RSN  5 0.4 0.9LRSN                1
 GAP=105        0.84       4.3     3.8  8.8  0.4082E+01  0.1200E+02 -0.4828E+01E
 Epicentro: CONTRATACION - SANTANDER                                           3
 ACTION:UPD 16-08-18 17:44 OP:cam  STATUS:               ID:20160511104041 L   I
 OLDACT:UP  16-05-11 20:22 OP:ak   STATUS:               ID:20160511103746     3
 OLDACT:REG 16-05-11 18:20 OP:ak   STATUS:               ID:20160511103746     3
 2016-05-11-1037-46M.COL___279                                                 6
 STAT SP IPHASW D HRMM SECON CODA AMPLIT PERI AZIMU VELO AIN AR TRES W  DIS CAZ7
 BAR2 EZ EP   2   1040 58.36                             156    0.00 5 45.9  55 
 BAR2 EZ ES       1041 11.14                             156   -0.0210 45.9  55 
 RUS  HZ EP       1041  0.08                             145   -0.1210 70.7 136 
 RUS  HN ES       1041 14.54                             145    0.1110 70.7 136 
 RUS  HZ I        1041 15.55         0.7 0.28            148           70.7 136 
 SPBC HZ EP   2   1041  1.46                             135   -0.35 5 98.7 218 
 SPBC HE ES       1041 17.64                             135    0.3310 98.7 218 
 SPBC HZ I        1041 21.01         2.7 0.24            134           98.7 218 
 PTB  HE ES       1041 17.50                             133   -0.6410  105 281 
 PTB  HZ I        1041 20.50         1.5 0.07            132            105 281 
 ZAR  HZ EP   2   1041 11.08                             115   -0.21 4  194 311 
 ZAR  HN ES       1041 34.79                             115    0.61 9  194 311 
 ZAR  HZ I        1041 38.97         1.8 0.19            115            194 311 
                                                                                
