 2017  411 1907 59.9 L   6.789 -73.168139.1  RSN  8 0.3 2.0LRSN                1
 GAP=110        0.81       2.9     3.1  4.8  0.2790E+01  0.2787E+01  0.3309E+01E
 Epicentro: LOS SANTOS - SANTANDER                                             3
 ACTION:UPD 17-05-30 21:11 OP:jn   STATUS:               ID:20170411190759 L   I
 OLDACT:REG 17-04-11 19:49 OP:cara STATUS:               ID:20170411190744     3
 2017-04-11-1908-00M.COL___374                                                 6
 STAT SP IPHASW D HRMM SECON CODA AMPLIT PERI AZIMU VELO AIN AR TRES W  DIS CAZ7
 BAR2 EZ IP       19 8 18.63                             171   -0.0210 21.8 184 
 BAR2 EZ ES       19 8 33.14                             171   -0.1610 21.8 184 
 BAR2 EZ I        19 8 34.53        26.6 0.26            170           21.8 184 
 BRR  HZ IP       19 8 20.50                             152    0.3110 69.7 300 
 BRR  HN ES       19 8 36.09                             152    0.0310 69.7 300 
 BRR  HZ I        19 8 40.70        34.4 0.48            152           69.7 300 
 PAM  EZ IP     D 19 8 21.64                             149    0.1210 79.9  40 
 PAM  EN ES       19 8 38.27                             149   -0.1410 79.9  40 
 PAM  EZ I        19 8 40.21        11.7 0.46            152           79.9  40 
 RUS  HZ EP       19 8 22.68                             143   -0.2010 99.6 175 
 RUS  HN ES       19 8 41.18                             143    0.3510 99.6 175 
 RUS  HZ I        19 8 43.58         9.4 0.20            144           99.6 175 
 PTB  HZ EP       19 8 25.40                             131   -0.64 9  145 259 
 PTB  HN ES       19 8 46.03                             131   -0.43 9  145 259 
 PTB  HZ I        19 8 47.86        16.0 0.16            132            145 259 
 YPLC HZ EP       19 8 28.68                             125   -0.50 9  177 150 
 YPLC HN ES       19 8 52.33                             125    0.27 9  177 150 
 YPLC HZ I        19 8 55.81        19.3 0.24            127            177 150 
 ZAR  HZ EP       19 8 32.00                             121    0.32 9  202 293 
 ZAR  HN ES       19 8 56.98                             121    0.47 9  202 293 
 ZAR  HZ I        19 9  2.09        13.2 0.28            123            202 293 
 CHI  HZ IP       19 8 37.22                             116    0.23 8  247 195 
 CHI  HN ES       19 9  6.13                             116    0.18 8  247 195 
 CHI  HZ I        19 9  9.50         5.2 0.36            117            247 195 
                                                                                
