 2014  311 1352 47.2 L   6.762 -73.150148.3  RSN  5 0.5 2.2LRSN                1
 GAP=138        1.36       7.4     7.1 10.0 -0.4887E+01  0.8362E+01  0.2702E+01E
 Epicentro: LOS SANTOS - SANTANDER                                             3
 ACTION:UPD 14-04-09 23:16 OP:nd   STATUS:               ID:20140311135247 L   I
 OLDACT:REG 14-03-11 17:15 OP:nd   STATUS:               ID:20140311135045     3
 2014-03-11-1350-45M.COL___244                                                 6
 STAT SP IPHASW D HRMM SECON CODA AMPLIT PERI AZIMU VELO AIN AR TRES W  DIS CAZ7
 BAR2 SZ EP       1353  7.24                             172    0.2010 19.1 191 
 BAR2 SZ ES       1353 22.51                             172   -0.0210 19.1 191 
 BAR2 SZ I        1353 23.40        62.8 0.22            172           19.1 191 
 BRR  HZ EP       1353  9.14                             152    0.4410 72.9 302 
 BRR  HN ES       1353 26.42                             152    0.9310 72.9 302 
 BRR  HZ I        1353 29.93        34.3 0.16            149           72.9 302 
 PAM  SZ EP       1353 10.06                             150    0.1710 81.0  38 
 PAM  SN ES       1353 26.75                             150   -0.8410 81.0  38 
 PAM  SZ I        1353 29.11        13.4 0.38            152           81.0  38 
 RUS  HZ EP       1353 10.98                             145    0.0910 96.4 176 
 RUS  HN ES       1353 29.50                             145    0.1210 96.4 176 
 PTB  HZ EP       1353 13.89                             133   -0.36 9  147 260 
 PTB  HN ES       1353 34.49                             133   -0.87 9  147 260 
 PTB  HZ I        1353 41.00        13.6 0.22            132            147 260 
                                                                                
