 2017  311 1415 59.0 L   6.772 -73.109143.6  RSN  5 0.2 1.5LRSN                1
 GAP=143        0.68       3.6     3.6  5.0 -0.1326E+01  0.2769E+01  0.5238E+00E
 Epicentro: LOS SANTOS - SANTANDER                                             3
 ACTION:UPD 17-05-25 18:39 OP:jn   STATUS:               ID:20170311141559 L   I
 OLDACT:REG 17-03-11 21:25 OP:ar   STATUS:               ID:20170311140743     3
 2017-03-11-1408-00M.COL___409                                                 6
 STAT SP IPHASW D HRMM SECON CODA AMPLIT PERI AZIMU VELO AIN AR TRES W  DIS CAZ7
 BAR2 EZ ES       1416 33.07                             171   -0.3410 21.5 202 
 BAR2 EZ I        1416 33.99         9.2 0.20            172           21.5 202 
 BRR  HZ EP       1416 19.94                             150   -0.2610 76.2 299 
 BRR  HN ES       1416 37.09                             150    0.3410 76.2 299 
 PAM  EZ EP       1416 20.83                             150   -0.1410 77.3  36 
 PAM  EN ES       1416 38.24                             150    0.1210 77.3  36 
 PAM  EZ I        1416 40.36         8.6 0.68            151           77.3  36 
 RUS  HZ EP       1416 22.29                             144   -0.0010 97.3 178 
 RUS  HN ES       1416 40.68                             144    0.2110 97.3 178 
 RUS  HZ I        1416 41.16         4.1 0.40            146           97.3 178 
 PTB  HZ EP       1416 26.43                             131    0.33 9  151 260 
 PTB  HE ES       1416 46.98                             131   -0.26 9  151 260 
 PTB  HZ I        1416 48.29         4.1 0.16            132            151 260 
                                                                                
