 2014  211 1131 54.9 L   6.773 -73.168134.8  RSN  7 0.4 1.8LRSN                1
 GAP=198        0.79       4.3     5.4  7.8  0.2396E+01  0.1016E+02  0.2733E+01E
 Epicentro: LOS SANTOS - SANTANDER                                             3
 ACTION:UPD 14-03-10 08:09 OP:ep   STATUS:               ID:20140211113154 L   I
 OLDACT:REG 14-02-11 16:03 OP:mh   STATUS:               ID:20140211113000     3
 2014-02-11-1130-00M.COL___192                                                 6
 STAT SP IPHASW D HRMM SECON CODA AMPLIT PERI AZIMU VELO AIN AR TRES W  DIS CAZ7
 BAR2 SZ EP   1   1132 13.03                             171   -0.09 8 20.1 185 
 BAR2 SZ ES   1   1132 27.59                             171    0.23 8 20.1 185 
 BAR2 SZ I        1132 29.10        21.8 0.23            159           20.1 185 
 RUS  HZ EP   1   1132 17.43                             142    0.07 8 97.9 175 
 RUS  HZ I        1132 38.01         3.2 0.17            129           97.9 175 
 PTB  HZ EP   1   1132 19.81                             130   -0.89 7  145 260 
 PTB  HN ES       1132 40.47                             130   -0.3710  145 260 
 PTB  HZ I        1132 46.23         7.4 0.23            125            145 260 
 ZAR  HZ EP   1   1132 27.04                             120    0.53 7  203 293 
 ZAR  HN ES   1   1132 51.32                             120    0.13 7  203 293 
 ZAR  HZ I        1132 56.39         7.6 0.08            115            203 293 
 NOR  HZ EP   1   1132 29.43                             116   -0.16 7  231 235 
 NOR  HN ES   1   1132 57.41                             116    0.74 7  231 235 
 NOR  HZ I        1133  2.67         4.1 0.17            109            231 235 
 SML  HZ EP   4   1132 29.49                             115   -1.60 0  245 336 
 SML  HN ES   1   1132 59.58                             115    0.23 6  245 336 
 SML  HZ I        1133  1.85         7.9 0.12            109            245 336 
 PRA  HZ EP   4   1132 45.77                             105   -1.82 0  388 209 
 PRA  HN ES       1133 28.92                             105    0.20 6  388 209 
                                                                                
