 2017 1011 1920  2.7 L   6.760 -73.103140.4  RSN 11 0.4 1.9LRSN                1
 GAP=117        0.78       2.9     3.2  5.1 -0.2730E+00  0.4533E+01  0.3091E+01E
 Epicentro: LOS SANTOS - SANTANDER                                             3
 ACTION:UPD 17-11-07 19:30 OP:rebc STATUS:               ID:20171011192002 L   I
 OLDACT:UP  17-10-11 22:14 OP:mg   STATUS:               ID:20171011191738     3
 OLDACT:UP  17-10-11 22:14 OP:mg   STATUS:               ID:20171011191738     3
 OLDACT:UP  17-10-11 22:13 OP:mg   STATUS:               ID:20171011191738     3
 OLDACT:REG 17-10-11 20:09 OP:lv   STATUS:               ID:20171011191738     3
 2017-10-11-1918-00M.COL___447                                                 6
 STAT SP IPHASW D HRMM SECON CODA AMPLIT PERI AZIMU VELO AIN AR TRES W  DIS CAZ7
 BAR2 EZ IP     C 1920 21.46                             171   -0.1810 20.5 205 
 BAR2 EZ ES       1920 36.53                             171    0.1210 20.5 205 
 BAR2 EZ I        1920 37.47        23.0 0.16            167           20.5 205 
 PAM  EZ EP       1920 24.51                             150    0.1110 78.1  35 
 PAM  EN ES       1920 41.45                             150    0.1310 78.1  35 
 PAM  EZ I        1920 43.63        14.2 0.44            155           78.1  35 
 RUS  HZ IP     C 1920 25.34                             144   -0.2610 95.9 179 
 RUS  HN ES       1920 43.39                             144   -0.0710 95.9 179 
 RUS  HZ I        1920 46.04        16.6 0.27            143           95.9 179 
 SPBC HZ EP       1920 30.46                             128   -0.31 9  163 221 
 SPBC HN ES       1920 53.48                             128    0.83 9  163 221 
 SPBC HZ I        1920 59.03         9.3 0.11            128            163 221 
 YPLC HZ EP       1920 32.03                             127    0.51 9  171 152 
 YPLC HN ES       1920 53.57                             127   -0.42 9  171 152 
 YPLC HZ I        1920 58.24        18.1 0.24            127            171 152 
 ZAR  HZ EP   4   1920 32.49                             121   -2.96 0  210 293 
 ZAR  HN ES       1921  0.71                             121   -0.27 8  210 293 
 NOR  HZ EP       1920 37.94                             117   -0.34 8  236 236 
 NOR  HN ES       1921  5.96                             117   -0.06 8  236 236 
 NOR  HZ I        1921 11.09         6.3 0.26            118            236 236 
 CHI  HZ EP   1   1920 40.12                             116    0.32 6  246 196 
 CHI  HN ES   1   1921  8.45                             116   -0.27 6  246 196 
 CHI  HZ I        1921 12.98         3.2 0.28            117            246 196 
 GUY2CHZ EP   3   1920 47.03                             111    0.80 2  303 236 
 GUY2CHN ES   4   1921 23.25                             111    3.08 0  303 236 
 GUY2CHZ I        1921 26.86         3.3 0.24                           303 236 
 PRA  HZ EP   3   1920 57.13                             106    1.25 1  391 210 
 PRA  HN ES   3   1921 35.92                             106   -1.43 1  391 210 
 PRA  HZ I        1921 45.01         3.0 0.32            106            391 210 
 ORTC HZ EP   2   1920 57.14                             106    0.77 3  395 217 
                                                                                
