 2011  411 1742 22.1 L   6.785 -73.111144.5  RSN 18 0.3 3.2LRSN                1
 GAP=105        0.76       2.7     4.0  4.6 -0.2857E+01  0.3412E+01  0.3438E+01E
 Epicentro: LOS SANTOS - SANTANDER                                             3
 ACTION:UP  11-06-22 15:30 OP:REBC STATUS:               ID:20110411174222 L   I
 2011-04-11-1740-20S.COL___140                                                 6
 STAT SP IPHASW D HRMM SECON CODA AMPLIT PERI AZIMU VELO SNR AR TRES W  DIS CAZ7
 BTL  SZ EP       1742 41.73                             171     0.110   23 311 
 BAR2 SZ IP       1742 41.56                             171     0.010   23 200 
 BAR2 SZ ES   1   1742 56.15                             171    -0.6 7   23 200 
 BAR2 SZ I        1742 59.07       602.7 0.38                            23 200 
 GIR2 SZ EP       1742 41.72                             166     0.010   34 344 
 BRR  HZ EP       1742 43.46                             151     0.110   75 298 
 BRR  HN ES   1   1743  0.11                             151     0.2 7   75 298 
 BRR  HZ I        1743  1.63       334.6 0.17                            75 298 
 PAM  SZ EP       1742 44.50                             151     0.410   76  37 
 PAM  SN ES   1   1743  1.30                             151     0.0 7   76  37 
 GRA  SZ EP       1742 47.53                             136     0.210  126  16 
 GRA  SZ ES   1   1743  6.98                             136     0.1 7  126  16 
 GRA  SZ I        1743  8.19       227.7 0.30                           126  16 
 OCA  SZ EP       1742 50.16                             129    -0.4 9  162 352 
 OCA  SZ I        1743 16.83       243.8 0.27                           162 352 
 YOP  SZ EP       1742 52.04                             126     0.3 9  176 154 
 YOP  SE ES   1   1743 14.58                             126    -0.3 7  176 154 
 YOP  SZ I        1743 19.35       104.0 0.51                           176 154 
 NOR  SZ EP   1   1742 57.52                             118    -0.5 6  237 235 
 CHI  HZ EP       1742 59.82                             117     0.1 8  248 196 
 CHI  HN ES   1   1743 28.86                             117    -0.1 6  248 196 
 CHI  HZ I        1743 35.69        76.4 0.33                           248 196 
 HEL  HZ EP   1   1743  2.41                             114    -0.2 6  275 256 
 GUY  SZ EP   1   1743  6.52                             112     0.3 5  306 236 
 GUY  SZ I        1743 48.99       153.8 0.36                           306 236 
 RREF HZ EP   1   1743  8.81                             110     0.4 5  324 230 
 RREF HN ES   2   1743 43.95                             110    -0.6 3  324 230 
 RREF HZ I        1743 53.62        91.8 0.38                           324 230 
 DBB  SZ EP   1   1743  9.48                             109    -0.5 5  343 274 
 TOL  SZ EP   1   1743 10.67                             109     0.2 5  345 225 
 SDV  BZ EP       1743 11.17                             108    -0.7 6  359  50 
 SDV  BZ I        1743 12.12        33.0 0.29                           359  50 
 ANIL HZ EP   1   1743 12.58                             108     0.5 5  359 225 
 PRA  HZ EP       1743 15.02                             106    -0.6 6  392 210 
 PRA  HN ES   1   1743 57.94                             106     0.5 4  392 210 
                                                                                
