 2017  211 1303 56.8 L   6.836 -73.189145.4  RSN  4 0.1 1.3LRSN                1
 GAP=147        0.41       2.7     4.1  3.8 -0.5007E+01  0.3483E+01 -0.9973E+00E
 Epicentro: ZAPATOCA - SANTANDER                                               3
 ACTION:UPD 17-05-24 15:35 OP:jn   STATUS:               ID:20170211130356 L   I
 OLDACT:REG 17-02-11 21:50 OP:edw  STATUS:               ID:20170211125745     3
 2017-02-11-1258-00M.COL___346                                                 6
 STAT SP IPHASW D HRMM SECON CODA AMPLIT PERI AZIMU VELO AIN AR TRES W  DIS CAZ7
 BAR2 EZ EP       13 4 16.25                             169   -0.2110 27.0 178 
 BAR2 EZ ES       13 4 31.83                             169    0.0310 27.0 178 
 BAR2 EZ I        13 4 32.82         6.2 0.22            167           27.0 178 
 PAM  EZ EP       13 4 19.21                             151    0.2210 77.6  44 
 PAM  EN ES       13 4 36.21                             151   -0.0910 77.6  44 
 PAM  EZ I        13 4 37.98         4.4 0.42            155           77.6  44 
 RUS  HZ EP       13 4 20.85                             142    0.0210  105 174 
 RUS  HN ES       13 4 39.62                             142    0.0310  105 174 
 RUS  HZ I        13 4 41.72         1.5 0.20            146            105 174 
 PTB  HZ EP   2   13 4 23.18                             133   -0.21 5  144 257 
 PTB  HN ES   2   13 4 44.33                             133    0.20 5  144 257 
 PTB  HZ I        13 4 51.72         4.5 0.40            130            144 257 
                                                                                
