 2010  911 1650 16.5 L   6.765 -73.087140.5  RSN 12 0.5 2.7LRSN                1
 GAP=166        0.97       4.8     7.7  8.0 -0.1555E+02  0.1292E+02  0.8054E+01E
 Epicentro: LOS SANTOS - SANTANDER                                             3
 ACTION:UP  11-02-18 11:02 OP:tino STATUS:               ID:20100911165016 L   I
 2010-09-11-1647-15S.COL___120                                                 6
 STAT SP IPHASW D HRMM SECON CODA AMPLIT PERI AZIMU VELO SNR AR TRES W  DIS CAZ7
 BAR2 SZ IP       1650 35.31                             171    -0.110   22 209 
 BAR2 SZ ES   2   1650 49.83                             171    -0.4 5   22 209 
 GIR2 SZ IP       1650 36.43                             165     0.810   37 341 
 GIR2 SZ ES   2   1650 51.01                             165     0.3 5   37 341 
 BRR  HZ IP     D 1650 37.26                             149    -0.310   79 299 
 BRR  HZ I        1650 37.66       295.7 0.12                            79 299 
 BRR  HN ES   2   1650 54.33                             149     0.4 5   79 299 
 RUS  HZ IP     C 1650 39.29                             144    -0.110   96 180 
 RUS  HN ES   2   1650 57.09                             144    -0.2 5   96 180 
 RUS  HZ I        1650 58.54        97.3 0.27                            96 180 
 GUE  SZ EP   1   1650 40.38                             137    -0.5 7  119   9 
 GRA  SZ IP       1650 41.36                             135    -0.110  128  14 
 GRA  SZ ES   2   1651  0.30                             135    -0.6 5  128  14 
 CHI  HZ EP   1   1650 53.57                             116    -0.1 6  247 197 
 CHI  HE ES   2   1651 22.42                             116    -0.3 4  247 197 
 CHI  HZ I        1651 25.94        18.0 0.44                           247 197 
 ROSC BZ EP   1   1650 55.34                             115     1.0 6  253 213 
 ROSC BE ES   2   1651 23.96                             115     0.1 4  253 213 
 ROSC BZ I        1651 36.25        20.1 0.41                           253 213 
 HEL  HZ EP   1   1650 56.48                             113    -0.5 6  277 257 
 HEL  HE ES   2   1651 28.15                             113    -0.5 4  277 257 
 HEL  HZ I        1651 34.72        22.6 0.33                           277 257 
 GUY  SZ EP   1   1651  1.19                             111     1.0 5  304 236 
 GUY  SN ES   2   1651 33.62                             111    -0.7 4  304 236 
 TOL  SZ EP       1651  5.30                             108     0.6 6  345 226 
 TOL  SZ ES   2   1651 41.97                             108    -0.4 3  345 226 
 PRA  HZ EP   1   1651  8.63                             106    -1.2 4  392 211 
 PRA  HE ES   2   1651 51.08                             106    -0.3 3  392 211 
 PRA  HZ I        1651 58.13        19.6 0.34                           392 211 
                                                                                
