 2011  511 1910 45.5 L   6.769 -73.095147.3  RSN  5 0.2 1.7LRSN                1
 GAP=162        0.45       4.5     8.5  7.6  0.1019E+02 -0.3082E+02 -0.1407E+02E
 Epicentro: LOS SANTOS - SANTANDER                                             3
 ACTION:UP  11-06-29 08:52 OP:tino STATUS:               ID:20110511191045 L   I
 2011-05-11-1909-22S.COL___129                                                 6
 STAT SP IPHASW D HRMM SECON CODA AMPLIT PERI AZIMU VELO SNR AR TRES W  DIS CAZ7
 BAR2 SZ ES   2   1911 20.79                             171     0.1 5   22 206 
 BAR2 SZ I        1911 22.34         8.6 0.24                            22 206 
 BRR  HZ EP   1   1911  7.05                             151    -0.1 7   78 299 
 BRR  HN ES   2   1911 24.27                             151     0.2 5   78 299 
 BRR  HZ I        1911 37.36        17.3 0.35                            78 299 
 RUS  HZ EP   1   1911  9.34                             145     0.2 7   97 179 
 RUS  HN ES   2   1911 27.26                             145    -0.3 5   97 179 
 RUS  HZ I        1911 28.54         3.9 0.35                            97 179 
 BRI  SZ EP   1   1911  9.72                             141     0.1 7  110  17 
 BRI  SZ I        1911 33.21         7.6 0.46                           110  17 
 GRA  SZ EP   2   1911 10.82                             137    -0.2 5  128  15 
 GRA  SZ I        1911 32.82         8.3 0.33                           128  15 
                                                                                
