 2013  211 1806  5.1 L   6.717 -73.205146.7  RSN  5 0.3 1.8LRSN                1
 GAP=222        0.71       5.5     5.3  5.5  0.1401E+02  0.3978E+01  0.3114E+01E
 Epicentro: VILLANUEVA - SANTANDER                                             3
 ACTION:UPD 13-03-12 09:32 OP:ep   STATUS:               ID:20130211180605 L   I
 2013-02-11-1800-00M.COL___240                                                 6
 STAT SP IPHASW D HRMM SECON CODA AMPLIT PERI AZIMU VELO AIN AR TRES W  DIS CAZ7
 BAR2 SZ EP       18 6 24.27                             174   -0.4710 14.0 170 
 BAR2 SZ ES       18 6 40.03                             174    0.0110 14.0 170 
 BAR2 SZ I        18 6 40.04        21.8 0.42            169           14.0 170 
 BRR  HZ EP       18 6 26.38                             153    0.0110 70.7 308 
 BRR  HE ES       18 6 43.30                             153    0.3810 70.7 308 
 BRR  HZ I        18 6 53.75        12.6 0.38            147           70.7 308 
 RUS  HZ EP       18 6 28.45                             147    0.0510 92.1 172 
 RUS  HN ES       18 6 46.68                             147    0.1410 92.1 172 
 RUS  HZ I        18 6 48.15         5.9 0.36            151           92.1 172 
 PTB  HZ EP       18 6 31.39                             134   -0.09 9  140 262 
 PTB  HN ES       18 6 51.80                             134   -0.21 9  140 262 
 PTB  HZ I        18 7  1.26         6.5 0.07            132            140 262 
 CHI  HZ EP   2   18 6 42.77                             119    1.01 4  238 194 
                                                                                
