 2017  511 1938 50.1 L   6.775 -73.159144.0  RSN 11 0.4 2.1LRSN                1
 GAP=111        0.91       3.5     3.6  5.7 -0.6082E+00  0.4195E+01  0.6081E+01E
 Epicentro: LOS SANTOS - SANTANDER                                             3
 ACTION:UPD 17-06-16 13:35 OP:jn   STATUS:               ID:20170511193850 L   I
 OLDACT:REG 17-05-11 21:26 OP:lv   STATUS:               ID:20170511193741     3
 2017-05-11-1938-00M.COL___371                                                 6
 STAT SP IPHASW D HRMM SECON CODA AMPLIT PERI AZIMU VELO AIN AR TRES W  DIS CAZ7
 BRR  HZ EP       1939 11.11                             152    0.0510 71.3 301 
 BRR  HN ES       1939 28.27                             152    0.8610 71.3 301 
 BRR  HZ I        1939 28.73        19.9 0.25            151           71.3 301 
 PAM  EZ EP       1939 12.29                             150   -0.0310 80.5  39 
 PAM  EE ES       1939 29.35                             150   -0.3010 80.5  39 
 RUS  HZ EP       1939 13.33                             144   -0.1610 97.9 175 
 RUS  HN ES       1939 31.82                             144    0.0910 97.9 175 
 RUS  HZ I        1939 33.42        92.3 0.04            145           97.9 175 
 PTB  HZ EP       1939 16.44                             132   -0.30 9  146 260 
 PTB  HN ES       1939 37.10                             132   -0.42 9  146 260 
 PTB  HZ I        1939 43.74        12.4 0.31            132            146 260 
 SPBC HZ EP       1939 18.60                             129    0.43 9  160 219 
 SPBC HN ES   2   1939 39.71                             129   -0.35 5  160 219 
 SPBC HZ I        1939 43.21        18.4 0.11            130            160 219 
 YPLC HZ EP       1939 19.74                             127    0.14 9  175 150 
 YPLC HN ES   2   1939 42.00                             127   -0.61 4  175 150 
 ZAR  HZ EP       1939 22.03                             122   -0.37 9  204 293 
 ZAR  HN ES   2   1939 47.24                             122   -0.35 4  204 293 
 ZAR  HZ I        1939 52.66         8.8 0.15            123            204 293 
 NOR  HZ EP       1939 25.46                             118    0.04 8  232 235 
 NOR  HN ES       1939 52.31                             118   -0.66 8  232 235 
 CHI  HZ EP   2   1939 26.81                             117   -0.55 4  246 195 
 CHI  HN ES   2   1939 56.99                             117    0.56 4  246 195 
 CHI  HZ I        1940  0.57         4.9 0.52            118            246 195 
 CBOC HZ EP       1939 37.44                             110    0.76 7  331 252 
 ORTC HZ EP       1939 43.63                             106    0.04 6  392 216 
 ORTC HN ES       1940 25.94                             106    0.63 6  392 216 
                                                                                
