 2015  311 1215  0.9 L   6.817 -73.112150.8  RSN  8 0.4 1.9LRSN                1
 GAP=204        0.77       3.7     6.6  5.6  0.2167E+01  0.5598E+01  0.1116E+01E
 Epicentro: LOS SANTOS - SANTANDER                                             3
 ACTION:UPD 15-04-30 16:25 OP:nd   STATUS:               ID:20150311121500 L   I
 OLDACT:DUP 15-03-12 00:37 OP:spq  STATUS:               ID:20150311120749d    3
 2015-03-11-1207-48M.COL___287                                                 6
 STAT SP IPHASW D HRMM SECON CODA AMPLIT PERI AZIMU VELO AIN AR TRES W  DIS CAZ7
 BAR2 EZ EP       1215 21.28                             170    0.0710 26.1 197 
 BAR2 EZ ES   1   1215 36.46                             170   -0.57 7 26.1 197 
 BAR2 EZ I        1215 39.02        12.9 0.28            163           26.1 197 
 BRR  HZ EP       1215 23.21                             153    0.4710 73.6 296 
 BRR  HN ES       1215 40.17                             153    0.4010 73.6 296 
 BRR  HZ I        1215 44.17        12.7 0.14            145           73.6 296 
 RUS  HZ EP   1   1215 25.58                             144    0.29 7  102 178 
 RUS  HN ES   1   1215 44.20                             144   -0.10 7  102 178 
 RUS  HZ I        1215 45.29         4.2 0.30            146            102 178 
 SPBC HZ EP       1215 29.91                             129   -0.25 9  167 220 
 SPBC HE ES   1   1215 52.63                             129   -0.34 7  167 220 
 SPBC HZ I        1215 57.05        13.7 0.48            128            167 220 
 NOR  HZ EP       1215 37.34                             119   -0.04 8  239 235 
 NOR  HN ES   1   1216  5.80                             119   -0.02 6  239 235 
 NOR  HZ I        1216 15.00         4.5 0.52            118            239 235 
 SML  HZ EP   1   1215 37.58                             118   -0.23 6  244 334 
 SML  HE ES   1   1216  5.74                             118   -0.84 6  244 334 
 SML  HZ I        1216 14.72         8.5 0.26            118            244 334 
 GUY2CHN ES   4   1216 22.60                             113    2.82 0  305 235 
 GUY2CHZ I        1216 27.67         3.4 0.56                           305 235 
 PRA  HZ EP   1   1215 55.27                             107    0.25 4  395 210 
                                                                                
