 2014 1211 1242 11.7 L   6.774 -73.144140.1  RSN 17 0.6 2.5LRSN                1
 GAP= 72        1.55       3.7     4.1  7.2 -0.1110E+01  0.7322E+01  0.1521E+01E
 Epicentro: LOS SANTOS - SANTANDER                                             3
 ACTION:UPD 15-02-10 17:02 OP:nd   STATUS:               ID:20141211124211 L   I
 OLDACT:ARG 14-12-11 21:09 OP:stll STATUS:               ID:20141211123745     3
 2014-12-11-1237-45M.COL___298                                                 6
 STAT SP IPHASW D HRMM SECON CODA AMPLIT PERI AZIMU VELO AIN AR TRES W  DIS CAZ7
 BAR2 EZ EP       1242 30.79                             171    0.2210 20.5 192 
 BAR2 EZ ES       1242 45.08                             171   -0.2310 20.5 192 
 BAR2 EZ I        1242 46.61       120.9 0.18            169           20.5 192 
 BRR  HZ EP       1242 32.43                             151    0.1210 72.8 300 
 BRR  HN ES       1242 49.58                             151    1.1710 72.8 300 
 BRR  HZ I        1242 54.33        64.1 0.12            143           72.8 300 
 PAM  SZ IP     C 1242 33.77                             149    0.3510 79.5  38 
 PAM  SZ I        1242 34.06       153.4 0.24            142           79.5  38 
 PAM  SN ES       1242 50.79                             149    0.4010 79.5  38 
 RUS  HZ EP       1242 34.65                             143   -0.0110 97.7 176 
 RUS  HN ES       1242 52.45                             143   -0.1410 97.7 176 
 RUS  HZ I        1242 54.05        31.1 0.32            136           97.7 176 
 PTB  HZ EP       1242 37.83                             131   -0.33 9  147 260 
 PTB  HE ES       1242 58.38                             131   -0.44 9  147 260 
 PTB  HZ I        1243  0.92        32.5 0.14            122            147 260 
 TAM  HZ EP     C 1242 39.09                             129    0.27 9  154 104 
 TAM  HN ES       1242 59.42                             129   -0.57 9  154 104 
 SPBC HZ EP       1242 39.64                             128    0.10 9  161 220 
 SPBC HE ES       1243  0.73                             128   -0.55 9  161 220 
 SPBC HZ I        1243  8.29        33.6 0.64            120            161 220 
 OCA  HZ IP     D 1242 39.36                             128   -0.47 9  163 353 
 OCA  HN ES       1243  1.13                             128   -0.66 9  163 353 
 OCA  HZ I        1243  5.52        45.7 0.50            119            163 353 
 ZAR  HZ EP       1242 43.94                             121    0.04 8  205 293 
 ZAR  HN ES       1243 10.02                             121    0.99 8  205 293 
 ZAR  HZ I        1243 15.59        54.2 0.34            113            205 293 
 NOR  HZ EP       1242 47.55                             117    0.63 8  233 235 
 NOR  HN ES       1243 14.57                             117    0.16 8  233 235 
 NOR  HZ I        1243 18.12        19.7 0.22            110            233 235 
 CHI  HZ EP       1242 48.97                             116    0.20 8  246 195 
 CHI  HN ES       1243 17.11                             116   -0.59 8  246 195 
 CHI  HZ I        1243 28.12         7.8 0.30            109            246 195 
 SML  HZ EP       1242 47.76                             116   -0.53 8  246 336 
 SML  HN ES       1243 15.98                             116   -0.87 8  246 336 
 SML  HZ I        1243 23.65        47.7 0.10            108            246 336 
 HEL  HZ EP       1242 51.92                             114    0.37 8  272 256 
 HEL  HN ES       1243 21.85                             114   -0.81 8  272 256 
 HEL  HZ I        1243 28.80        12.0 0.38            106            272 256 
 GUY2CHZ EP       1242 56.21                             111    1.35 7  300 235 
 GUY2CHN ES       1243 28.03                             111   -0.51 7  300 235 
 GUY2CHZ I        1243 35.87        10.9 0.22                           300 235 
 DBB  SZ EP       1242 59.07                             108    0.09 7  340 275 
 MON  HZ EP   9   1242 58.63                             107   -2.07 0  356 309 
 MON  HN ES       1243 36.53                                   -0.34 6  356 309 
 MON  HZ I        1243 54.43         9.1 0.72            101            356 309 
 SJC  HZ EP   9   1243  5.65                             105   -1.71 0  412 327 
 SJC  HN ES       1243 45.88                                   -3.20 6  412 327 
 SJC  HZ I        1243 51.17         7.4 0.44             98            412 327 
                                                                                
