 2015  111 1103  5.3 L   6.839 -73.154138.2  RSN  7 0.4 1.6LRSN                1
 GAP=201        1.01       4.2     5.4  7.2  0.4890E+01  0.6958E+01 -0.8211E+01E
 Epicentro: LOS SANTOS - SANTANDER                                             3
 ACTION:UPD 15-03-02 15:38 OP:nd   STATUS:               ID:20150111110305 L   I
 OLDACT:UP  15-01-11 21:09 OP:mh   STATUS:               ID:20150111105749     3
 OLDACT:REG 15-01-11 20:27 OP:mh   STATUS:               ID:20150111105749     3
 2015-01-11-1057-49M.COL___252                                                 6
 STAT SP IPHASW D HRMM SECON CODA AMPLIT PERI AZIMU VELO AIN AR TRES W  DIS CAZ7
 BAR2 EZ EP       11 3 24.40                             168    0.2810 27.5 186 
 BAR2 EZ ES       11 3 38.32                             168   -0.4810 27.5 186 
 BAR2 EZ I        11 3 41.02        11.5 0.33            170           27.5 186 
 BRR  HZ EP       11 3 26.36                             152    0.8910 68.4 296 
 BRR  HN ES       11 3 41.52                             152    0.3110 68.4 296 
 BRR  HZ I        11 3 46.43         7.9 0.48            152           68.4 296 
 RUS  HZ EP   1   11 3 28.77                             141    0.12 7  105 176 
 RUS  HN ES       11 3 46.62                             141   -0.2510  105 176 
 RUS  HZ I        11 3 48.54         3.5 0.36            146            105 176 
 PTB  HZ EP       11 3 31.39                             130   -0.27 9  148 257 
 PTB  HN ES       11 3 52.56                             130    0.34 9  148 257 
 PTB  HZ I        11 3 57.67         5.1 0.36            133            148 257 
 ZAR  HZ EP   1   11 3 37.16                             121    0.16 6  202 291 
 ZAR  HN ES       11 4  1.44                             121   -0.29 9  202 291 
 NOR  HN ES       11 4  8.16                             117   -0.33 8  236 233 
 SML  HZ EP       11 3 40.72                             116   -0.32 8  239 335 
 SML  HN ES       11 4  8.41                             116   -0.50 8  239 335 
 SML  HZ I        11 4 12.37         5.4 0.24            119            239 335 
                                                                                
