 2010  211 1523 33.8 L   6.368 -73.271128.3  RSN  5 0.2 1.5LRSN                1
 GAP=174        0.40       4.3    10.9  6.9 -0.2726E+02  0.3601E+02  0.5523E+01E
 Epicentro: CONFINES - SANTANDER                                               3
 ACTION:UP  10-08-24 09:48 OP:vdl  STATUS:               ID:20100211152333 L   I
 2010-02-11-1520-53S.COL___094                                                 6
 STAT SP IPHASW D HRMM SECON CODA AMPLIT PERI AZIMU VELO SNR AR TRES W  DIS CAZ7
 BAR2 SZ EP   1   1523 51.46                             168     0.0 7   27  21 
 BAR2 SZ ES   2   1524  5.03                             168    -0.1 5   27  21 
 GIR2 SZ EP   1   1523 53.80                             146     0.0 7   79   6 
 GIR2 SZ ES   2   1524  9.64                             146     0.2 5   79   6 
 CHI  HZ EP   1   1524  5.32                             119     0.1 6  199 195 
 CHI  HE ES   2   1524 29.32                             119    -0.3 4  199 195 
 CHI  HZ I        1524 35.52         1.9 0.60                           199 195 
 RREF BZ EP   1   1524 14.40                             110    -0.2 6  281 235 
 RREF BZ I        1524 50.00         1.6 0.24                           281 235 
 PRA  HZ EP   1   1524 21.12                             106     0.0 5  344 211 
 PRA  HE ES   2   1524 58.62                             106     0.6 3  344 211 
 PRA  HZ I        1525  5.31         2.1 0.33                           344 211 
                                                                                
