 2017 1211 1221 10.6 L   6.807 -73.208140.8  RSN  6 0.2 1.6LRSN                1
 GAP=130        0.52       3.6     2.4  5.3 -0.1080E+01  0.1915E+01  0.9823E+01E
 Epicentro: ZAPATOCA - SANTANDER                                               3
 ACTION:UPD 18-01-04 13:19 OP:rebc STATUS:               ID:20171211122110 L   I
 OLDACT:UP  17-12-12 00:26 OP:mg   STATUS:               ID:20171211121741d    3
 OLDACT:DUP 17-12-12 00:23 OP:mg   STATUS:               ID:20171211121741d    3
 2017-12-11-1218-00M.COL___475                                                 6
 STAT SP IPHASW D HRMM SECON CODA AMPLIT PERI AZIMU VELO AIN AR TRES W  DIS CAZ7
 BAR2 EZ EP       1221 29.85                             170    0.1610 23.9 173 
 BAR2 EZ ES   2   1221 44.61                             170    0.07 5 23.9 173 
 BAR2 EZ I        1221 46.35        11.1 0.19            161           23.9 173 
 PAM  EZ EP       1221 32.73                             149    0.1510 81.4  44 
 PAM  EN ES       1221 49.50                             149   -0.1910 81.4  44 
 PAM  EZ I        1221 51.95         6.0 0.48            138           81.4  44 
 PTB  HZ EP       1221 36.46                             132   -0.15 9  141 258 
 PTB  HN ES       1221 57.09                             132    0.23 9  141 258 
 PTB  HZ I        1221 58.58         3.2 0.16            121            141 258 
 ZAR  HE ES       1222  6.34                             122   -0.26 9  197 293 
 ZAR  HZ I        1222 13.58         3.8 0.22            113            197 293 
 CHI  HZ EP       1221 48.00                             116    0.04 8  248 194 
 CHI  HN ES   2   1222 16.35                             116   -0.72 4  248 194 
 CHI  HZ I        1222 20.41         1.6 0.22            107            248 194 
 PRA  HZ EP       1222  3.94                             106    0.26 6  389 209 
 PRA  HZ I        1222 52.12         1.9 0.31            100            389 209 
                                                                                
