 2017  411 1239 38.8 L   6.776 -73.171130.0  RSN  6 0.2 1.5LRSN                1
 GAP=134        0.67       3.2     2.8  4.3  0.3688E+00  0.3126E+01 -0.1052E+01E
 Epicentro: LOS SANTOS - SANTANDER                                             3
 ACTION:UPD 17-05-30 21:11 OP:jn   STATUS:               ID:20170411123938 L   I
 OLDACT:REG 17-04-11 19:29 OP:cara STATUS:               ID:20170411123721     3
 2017-04-11-1238-00M.COL___377                                                 6
 STAT SP IPHASW D HRMM SECON CODA AMPLIT PERI AZIMU VELO AIN AR TRES W  DIS CAZ7
 BAR2 EZ IP       1239 56.83                             171    0.3210 20.3 183 
 BAR2 EZ ES       1240 10.32                             171    0.0310 20.3 183 
 BAR2 EZ I        1240 12.69        13.7 0.36            172           20.3 183 
 BRR  HZ EP   9   1240  0.51                             150    2.28 0 70.1 302 
 BRR  HN ES       1240 16.05                                    0.4110 70.1 302 
 PAM  EZ EP       1239 59.89                             147    0.2410 81.3  40 
 PAM  EN ES       1240 15.61                             147   -0.2810 81.3  40 
 PAM  EZ I        1240 19.68         4.2 0.34            149           81.3  40 
 RUS  HZ EP       1240  0.72                             141   -0.1610 98.2 174 
 RUS  HN ES       1240 18.23                             141    0.1510 98.2 174 
 RUS  HZ I        1240 19.72         2.6 0.42            146           98.2 174 
 PTB  HZ EP       1240  4.07                             129   -0.18 9  144 260 
 PTB  HN ES       1240 23.82                             129   -0.25 9  144 260 
 PTB  HZ I        1240 29.67         3.7 0.40            130            144 260 
 ZAR  HZ EP       1240  9.94                             119   -0.19 9  202 293 
 ZAR  HN ES       1240 34.84                             119    0.30 9  202 293 
 ZAR  HZ I        1240 41.64         5.4 0.30            120            202 293 
                                                                                
