 2011  811 1127 39.7 L   6.811 -73.064142.1  RSN  4 0.1 1.7LRSN                1
 GAP=247        0.35       4.7    12.8  4.3  0.3961E+02  0.2742E+02  0.7793E+01E
 Epicentro: LOS SANTOS - SANTANDER                                             3
 ACTION:UPD 12-07-25 14:07 OP:epov STATUS:               ID:20110811112739 L   I
 2011-08-11-1123-32S.COL___150                                                 6
 STAT SP IPHASW D HRMM SECON CODA AMPLIT PERI AZIMU VELO AIN AR TRES W  DIS CAZ7
 BAR2 SZ EP       1127 59.11                             169    0.0910 27.5 208 
 BAR2 SZ ES   1   1128 13.93                             169   -0.13 7 27.5 208 
 BAR2 SZ I        1128 15.53         7.1 0.42                          27.5 208 
 BRR  HZ EP       1128  0.94                             150    0.0110 78.7 295 
 BRR  HZ I        1128 33.84        13.6 0.54                          78.7 295 
 RUS  HZ EP   2   1128  2.99                             143   -0.21 5  102 181 
 RUS  HN ES   2   1128 21.67                             143    0.17 5  102 181 
 CHI  HZ EP       1128 17.60                             116   -0.03 8  252 197 
                                                                                
