 2010  411 1136 24.2 L   6.796 -73.016140.6  RSN  8 0.5 2.3LRSN                1
 GAP=223        0.79       6.4     9.7  7.6 -0.1126E+02  0.8992E+01  0.1422E+01E
 Epicentro: CEPITA - SANTANDER                                                 3
 ACTION:UPD 10-08-24 09:58 OP:vdl  STATUS:               ID:20100411113624 L   I
 2010-04-11-1133-02S.COL___097                                                 6
 STAT SP IPHASW D HRMM SECON CODA AMPLIT PERI AZIMU VELO AIN AR TRES W  DIS CAZ7
 BAR2 SZ EP       1136 43.55                             168     0.210   29 219 
 BAR2 SZ ES   2   1136 57.32                             168    -1.0 5   29 219 
 BRR  HZ IP     C 1136 45.84                             147     0.210   84 294 
 BRR  HN ES   1   1137  2.83                             147     0.5 7   84 294 
 BRR  HZ I        1137  3.71        45.9 0.19                            84 294 
 OCA  SZ EP       1136 52.36                             128     0.0 9  163 348 
 OCA  SZ ES   2   1137 13.57                             128    -0.8 5  163 348 
 OCA  SZ I        1137 17.92        29.0 0.26                           163 348 
 HEL  HZ EP   1   1137  5.61                             113    -0.1 6  286 257 
 HEL  HZ I        1137 44.27         6.5 0.12                           286 257 
 RREF BZ EP   3   1137 11.82                             109     0.4 2  333 231 
 RREF BE ES   3   1137 47.53                             109    -0.6 2  333 231 
 RREF BZ I        1137 52.55         8.9 0.43                           333 231 
 TOL  SZ EP   3   1137 13.48                             108     0.1 2  353 226 
 DBB  SZ EP       1137 12.56                             108    -0.6 6  354 274 
 PRA  HZ EP   2   1137 18.40                             105     0.0 3  399 211 
 PRA  HE ES   3   1138  0.20                             105    -0.4 1  399 211 
 PRA  HZ I        1138  6.70         4.7 0.48                           399 211 
                                                                                
