 2013  811 1950 59.4 L   6.768 -73.163145.1  RSN  7 0.4 1.7LRSN                1
 GAP=136        0.87       4.3     4.9  9.5  0.5172E+00  0.5833E+01 -0.2214E+01E
 Epicentro: LOS SANTOS - SANTANDER                                             3
 ACTION:UPD 14-01-14 09:01 OP:ep   STATUS:               ID:20130811195059 L   I
 OLDACT:REG 13-08-11 17:53 OP:jn   STATUS:               ID:20130811194959     3
 2013-08-11-1949-59M.COL___272                                                 6
 STAT SP IPHASW D HRMM SECON CODA AMPLIT PERI AZIMU VELO AIN AR TRES W  DIS CAZ7
 BRR  HZ EP       1951 20.62                             152    0.1110 71.4 302 
 BRR  HN ES   1   1951 37.37                             152    0.41 7 71.4 302 
 BRR  HZ I        1951 41.26        11.2 0.16            151           71.4 302 
 PAM  SZ EP       1951 21.74                             149   -0.0710 81.3  39 
 PAM  SN ES   1   1951 38.69                             149   -0.58 7 81.3  39 
 PAM  SZ I        1951 40.62         9.7 0.54            153           81.3  39 
 RUS  HZ EP   1   1951 23.50                             145    0.63 7 97.2 175 
 RUS  HN ES   1   1951 41.16                             145    0.00 7 97.2 175 
 RUS  HZ I        1951 43.86         2.8 0.50            150           97.2 175 
 PTB  HZ EP   1   1951 25.49                             132   -0.63 7  145 260 
 PTB  HN ES   1   1951 46.41                             132   -0.52 7  145 260 
 PTB  HZ I        1951 48.93        10.0 0.10            134            145 260 
 OCA  HN ES   1   1951 50.82                             129    0.53 7  164 354 
 OCA  HZ I        1951 54.66         5.2 0.16            131            164 354 
 ZAR  HE ES   1   1951 57.47                             122    0.43 6  204 293 
 ZAR  HZ I        1952  5.96         7.3 0.14            124            204 293 
 SML  HN ES   1   1952  4.62                             117   -0.41 6  246 336 
                                                                                
