 2010  511 1622 38.0 L   6.770 -73.069145.1  RSN  5 0.4 1.1LRSN                1
 GAP=165        0.68       4.8    10.2 10.0 -0.1594E+02 -0.2324E+02  0.5708E+01E
 Epicentro: LOS SANTOS - SANTANDER                                             3
 ACTION:UP  10-08-24 10:04 OP:vdl  STATUS:               ID:20100511162238 L   I
 2010-05-11-1618-27S.COL___104                                                 6
 STAT SP IPHASW D HRMM SECON CODA AMPLIT PERI AZIMU VELO AIN AR TRES W  DIS CAZ7
 BRR  HZ EP   1   1622 59.82                             149     0.2 7   80 298 
 BRR  HE ES   2   1623 16.12                             149    -0.3 5   80 298 
 RUS  HZ EP   1   1623  1.32                             145    -0.1 7   97 181 
 RUS  HE ES   2   1623 19.69                             145     0.0 5   97 181 
 RUS  HZ I        1623 20.25         2.2 0.44                            97 181 
 BRI  SZ EP   1   1623  1.58                             141    -0.2 7  109  16 
 BRI  SZ ES   2   1623 21.15                             141     0.7 5  109  16 
 GUE  SZ EP   1   1623  3.26                             139     0.5 7  118   8 
 GUE  SZ ES   2   1623 22.20                             139     0.1 5  118   8 
 GRA  SZ EP   1   1623  2.86                             137    -0.4 7  127  13 
 GRA  SZ ES   2   1623 22.20                             137    -0.7 5  127  13 
                                                                                
