 2017  611 1638 57.2 L   6.781 -73.188154.2  RSN  7 0.4 1.9LRSN                1
 GAP=252        0.83       3.6     6.7  7.0  0.1739E+01 -0.1251E+02  0.6954E+01E
 Epicentro: ZAPATOCA - SANTANDER                                               3
 ACTION:UPD 17-09-14 16:51 OP:jn   STATUS:               ID:20170611163857 L   I
 OLDACT:DUP 17-06-12 00:09 OP:edw  STATUS:               ID:20170611163742d    3
 OLDACT:UP  17-06-12 00:08 OP:edw  STATUS:               ID:20170611163741     3
 OLDACT:UP  17-06-12 00:07 OP:edw  STATUS:               ID:20170611163741     3
 OLDACT:REG 17-06-11 20:39 OP:edw  STATUS:               ID:20170611163741     3
 2017-06-11-1638-00M.COL___350                                                 6
 STAT SP IPHASW D HRMM SECON CODA AMPLIT PERI AZIMU VELO AIN AR TRES W  DIS CAZ7
 BRR  HZ IP     D 1639 19.14                             155   -0.0010 68.3 302 
 BRR  HE ES       1639 36.53                             155    0.3010 68.3 302 
 BRR  HZ I        1639 39.67        11.2 0.14            151           68.3 302 
 PTB  HZ EP       1639 24.39                             135   -0.08 9  143 259 
 PTB  HN ES       1639 45.10                             135   -0.61 9  143 259 
 PTB  HZ I        1639 51.50         4.6 0.40            133            143 259 
 SPBC HZ EP       1639 25.50                             132   -0.47 9  159 218 
 SPBC HN ES       1639 48.60                             132    0.21 9  159 218 
 SPBC HZ I        1639 54.82        13.7 0.12            131            159 218 
 ZAR  HZ EP       1639 30.14                             125    0.25 9  201 293 
 ZAR  HN ES       1639 55.31                             125   -0.06 9  201 293 
 ZAR  HZ I        1640  1.28        11.2 0.36            125            201 293 
 NOR  HZ EP       1639 33.57                             121    0.63 8  230 234 
 NOR  HN ES       1640  0.80                             121    0.01 8  230 234 
 NOR  HZ I        1640  8.89         5.0 0.44            121            230 234 
 CHI  HZ EP       1639 34.67                             119   -0.39 8  245 194 
 CHI  HE ES       1640  4.57                             119   -0.00 8  245 194 
 ORTC HN ES       1640 33.41                             108    0.59 6  391 216 
                                                                                
