 2017  611 1128 50.9 L   6.877 -73.122158.5  RSN 19 0.6 2.8LRSN                1
 GAP=105        1.22       4.4     3.7  7.4  0.1979E+01 -0.7833E+00 -0.1565E+01E
 Epicentro: LOS SANTOS - SANTANDER                                             3
 ACTION:UPD 17-09-14 16:51 OP:jn   STATUS:               ID:20170611112850 L   I
 OLDACT:UP  17-06-11 22:06 OP:edw  STATUS:               ID:20170611112740     3
 OLDACT:UP  17-06-11 22:05 OP:edw  STATUS:               ID:20170611112740     3
 OLDACT:UP  17-06-11 22:04 OP:edw  STATUS:               ID:20170611112740     3
 OLDACT:REG 17-06-11 20:04 OP:edw  STATUS:               ID:20170611112740     3
 2017-06-11-1128-00M.COL___341                                                 6
 STAT SP IPHASW D HRMM SECON CODA AMPLIT PERI AZIMU VELO AIN AR TRES W  DIS CAZ7
 BRR  HZ EP     C 1129 14.08                             155    0.7410 70.0 291 
 BRR  HN ES       1129 30.95                             155    0.0810 70.0 291 
 BRR  HZ I        1129 34.98       135.0 0.12            153           70.0 291 
 PTB  HZ EP       1129 18.84                             134   -0.44 9  152 256 
 PTB  HN ES       1129 41.47                             134    0.02 9  152 256 
 PTB  HZ I        1129 42.68        84.8 0.12            133            152 256 
 TAM  HZ IP     C 1129 20.24                             133    0.67 9  155 108 
 TAM  HE ES       1129 42.00                             133    0.03 9  155 108 
 TAM  HZ I        1129 42.64        43.7 0.52            136            155 108 
 SPBC HZ EP       1129 21.08                             130   -0.05 9  171 218 
 SPBC HE ES       1129 44.56                             130   -0.18 9  171 218 
 SPBC HZ I        1129 49.91        87.7 0.24            129            171 218 
 ZAR  HZ EP       1129 24.63                             125    0.52 9  203 290 
 ZAR  HN ES       1129 49.91                             125   -0.13 9  203 290 
 ZAR  HZ I        1129 56.38       124.7 0.28            125            203 290 
 TABC EZ EP   4   1129 29.81                             121    1.51 0  239 210 
 TABC EZ ES   4   1130  0.73                             121    3.22 0  239 210 
 TABC EZ I        1130  4.53        42.7 0.36            121            239 210 
 NOR  HZ EP       1129 28.10                             120   -0.01 8  242 233 
 NOR  HE ES       1129 57.17                             120    0.01 8  242 233 
 NOR  HZ I        1130  0.25        50.0 0.22            120            242 233 
 CHI  HZ EP       1129 30.20                             119   -0.05 8  258 195 
 CHI  HE ES   1   1130  0.76                             119   -0.20 6  258 195 
 CHI  HZ I        1130  1.88        16.4 0.30            119            258 195 
 HEL  HZ EP   4   1129 34.11                             117    1.84 0  277 254 
 HEL  HE ES   4   1130  2.75                             117   -1.81 0  277 254 
 HEL  HZ I        1130 11.52        49.0 0.28            117            277 254 
 URE  HZ EP       1129 32.34                             116   -0.18 7  283 290 
 URE  HE ES       1130  4.31                             116   -0.69 7  283 290 
 URE  HZ I        1130  7.47        57.3 0.14            116            283 290 
 VIL  EZ EP   9   1129 35.63                             114   -0.25 0  312 192 
 VIL  EN ES       1130  9.48                             114   -1.26 7  312 192 
 VIL  EZ I        1130 17.50        25.2 0.34            114            312 192 
 PTGC HZ IP     C 1129 35.02                             113   -1.08 7  316 160 
 PTGC HN ES   4   1130  8.35                             113   -3.04 0  316 160 
 PTGC HZ I        1130 13.48        36.7 0.28            114            316 160 
 CBOC HZ EP   4 D 1129 40.15                             112    1.23 0  339 251 
 CBOC HN ES       1130 15.30                             112   -1.10 7  339 251 
 CBOC HZ I        1130 30.59        13.6 0.62            112            339 251 
 DBB  EZ EP       1129 39.95                             112    0.83 7  342 273 
 DBB  EE ES       1130 17.25                             112    0.49 7  342 273 
 DBB  EZ I        1130 19.17        18.8 0.66            112            342 273 
 ARGC HZ EP   4   1129 42.56                             111    2.34 0  352 339 
 ARGC HN ES   4   1130 17.48                             111   -1.24 0  352 339 
 APAC HZ IP     D 1129 46.27                             108    0.76 6  398 287 
 APAC HE ES   4   1130 24.91                             108   -3.22 0  398 287 
 APAC HZ I        1130 32.44        11.4 0.34            109            398 287 
 SJC  HZ IP   4 C 1129 45.97                             108   -0.25 0  404 326 
 SJC  HN ES   4   1130 27.91                             108   -1.48 0  404 326 
 ORTC HZ EP       1129 46.60                             108    0.38 6  404 216 
 ORTC HN ES   4   1130 27.54                             108   -1.86 0  404 216 
 ORTC HZ I        1130 36.61        17.5 0.86            108            404 216 
 SJC  HZ I        1130 30.41        17.2 0.24            109            404 326 
 CRJC HZ EP       1129 52.47                             105   -0.26 5  459   3 
 CRJC HE ES       1130 39.11                             105   -1.87 5  459   3 
 CRJC HZ I        1130 45.15        12.4 0.38            106            459   3 
 SMAR HZ EP   4   1129 57.40                             104    1.21 0  489 346 
 SMAR HN ES   4   1130 45.47                             104   -1.67 0  489 346 
 SMAR HZ I        1130 48.19        10.4 0.42            105            489 346 
                                                                                
