 2011  411 1451 57.2 L   6.712 -73.091134.0  RSN  7 0.2 2.1LRSN                1
 GAP=165        0.61       4.1     5.6  5.3 -0.1162E+02 -0.1150E+01  0.4257E+01E
 Epicentro: JORDAN - SANTANDER                                                 3
 ACTION:UP  11-06-22 15:30 OP:REBC STATUS:               ID:20110411145157 L   I
 2011-04-11-1449-14S.COL___138                                                 6
 STAT SP IPHASW D HRMM SECON CODA AMPLIT PERI AZIMU VELO SNR AR TRES W  DIS CAZ7
 BAR2 SZ EP       1452 15.41                             172     0.110   17 217 
 BAR2 SZ ES   1   1452 29.48                             172     0.0 7   17 217 
 BAR2 SZ I        1452 32.01        34.6 0.22                            17 217 
 BTL  SZ EP       1452 15.72                             167     0.110   30 319 
 BRR  HZ EP       1452 17.50                             147    -0.310   81 303 
 BRR  HZ I        1452 17.97        41.9 0.11                            81 303 
 BRR  HE ES   1   1452 34.02                             147     0.2 7   81 303 
 PAM  SZ EP       1452 18.53                             147     0.010   82  32 
 PAM  SE ES   1   1452 34.64                             147    -0.5 7   82  32 
 GRA  SZ EP       1452 22.52                             132     0.410  134  14 
 GRA  SZ ES   1   1452 41.54                             132     0.0 7  134  14 
 GRA  SZ I        1452 43.20        21.9 0.43                           134  14 
 NOR  SZ EP   1   1452 32.01                             116    -0.3 6  234 237 
 CHI  HZ EP   2   1452 33.14                             115    -0.3 4  241 197 
 CHI  HE ES   2   1453  2.10                             115     0.4 4  241 197 
 CHI  HZ I        1453  9.21         5.2 0.34                           241 197 
                                                                                
