 2014  711 1419 53.4 L   6.782 -73.107144.1  RSN  6 0.5 1.8LRSN                1
 GAP=204        1.27       7.6     8.5 10.6  0.2564E+02  0.1014E+02 -0.2767E+02E
 Epicentro: LOS SANTOS - SANTANDER                                             3
 ACTION:UPD 15-03-16 20:43 OP:nd   STATUS:               ID:20140711141953 L   I
 OLDACT:UP  14-07-11 21:38 OP:cam  STATUS:               ID:20140711142000     3
 OLDACT:UP  14-07-11 21:38 OP:cam  STATUS:               ID:20140711142000     3
 OLDACT:REG 14-07-11 19:49 OP:cam  STATUS:               ID:20140711142000     3
 2014-07-11-1420-00M.COL___282                                                 6
 STAT SP IPHASW D HRMM SECON CODA AMPLIT PERI AZIMU VELO AIN AR TRES W  DIS CAZ7
 BAR2 SZ EP       1420 13.09                             171    0.3210 22.6 202 
 BAR2 SZ ES       1420 27.31                             171   -0.6110 22.6 202 
 BAR2 SZ I        1420 30.59        14.1 0.44            170           22.6 202 
 BRR  HZ EP       1420 15.15                             151    0.5510 75.9 298 
 BRR  HN ES       1420 31.66                             151    0.4910 75.9 298 
 BRR  HN I        1420 32.39        15.6 0.20            149           75.9 298 
 RUS  HE ES       1420 35.22                             144    0.1510 98.4 178 
 RUS  HE I        1420 36.65        10.3 0.20            146           98.4 178 
 PTB  HZ EP       1420 20.13                             131   -0.41 9  152 260 
 PTB  HN ES       1420 40.98                             131   -0.77 9  152 260 
 PTB  HZ I        1420 44.25         3.7 0.24            131            152 260 
 ZAR  HN ES       1420 52.48                             121    0.69 8  209 292 
 ZAR  HZ I        1420 57.41         4.0 0.32            122            209 292 
 SML  HZ EP   1   1420 29.94                             117   -0.34 6  247 335 
 SML  HE ES   1   1420 58.34                             117   -0.74 6  247 335 
 SML  HE I        1421  0.36        11.8 0.10            118            247 335 
                                                                                
