 2013 1011 1312 44.2 L   6.773 -73.162145.1  RSN  5 0.4 1.6LRSN                1
 GAP=136        0.99       5.3     5.1  7.3 -0.2483E+01  0.4498E+01  0.1563E+01E
 Epicentro: LOS SANTOS - SANTANDER                                             3
 ACTION:UPD 13-11-25 09:20 OP:ep   STATUS:               ID:20131011131244 L   I
 OLDACT:REG 13-10-11 15:09 OP:nd   STATUS:               ID:20131011130959     3
 2013-10-11-1309-59M.COL___273                                                 6
 STAT SP IPHASW D HRMM SECON CODA AMPLIT PERI AZIMU VELO AIN AR TRES W  DIS CAZ7
 BAR2 SZ EP       1313  3.60                             172   -0.0410 20.1 186 
 BAR2 SZ ES       1313 18.34                             172   -0.5110 20.1 186 
 BAR2 SZ I        1313 21.48        14.9 0.28            173           20.1 186 
 BRR  HZ EP       1313  5.27                             152    0.0410 71.1 301 
 BRR  HN ES       1313 22.43                             152    0.7610 71.1 301 
 BRR  HZ I        1313 31.69        10.1 0.34            151           71.1 301 
 PAM  SZ EP       1313  6.59                             150    0.0810 80.9  39 
 PAM  SN ES       1313 23.68                             150   -0.2710 80.9  39 
 PAM  SZ I        1313 26.06         4.9 0.74            153           80.9  39 
 RUS  HZ EP       1313  7.59                             144   -0.0410 97.7 175 
 RUS  HN ES       1313 26.38                             144    0.4310 97.7 175 
 RUS  HZ I        1313 27.58         3.8 0.28            151           97.7 175 
 PTB  HZ EP       1313 10.88                             132    0.02 9  145 260 
 PTB  HN ES       1313 31.15                             132   -0.54 9  145 260 
 PTB  HZ I        1313 34.56         4.3 0.38            135            145 260 
                                                                                
