 2012 1211 1232 42.6 L   6.739 -73.166142.7  RSN  5 0.2 1.7LRSN                1
 GAP=230        0.48       3.1     3.5  4.2  0.4556E+01  0.3533E+01  0.4434E+01E
 Epicentro: VILLANUEVA - SANTANDER                                             3
 ACTION:UPD 13-01-04 14:27 OP:ep   STATUS:               ID:20121211123242 L   I
 2012-12-11-1230-00M.COL___238                                                 6
 STAT SP IPHASW D HRMM SECON CODA AMPLIT PERI AZIMU VELO AIN AR TRES W  DIS CAZ7
 BAR2 SZ EP       1233  1.90                             173    0.1210 16.3 187 
 BAR2 SZ ES       1233 16.58                             173   -0.1310 16.3 187 
 BAR2 SZ I        1233 19.69        10.2 0.26                          16.3 187 
 BRR  HN ES       1233 19.95                             151    0.0810 72.8 304 
 BRR  HN I        1233 52.89        16.0 0.26                          72.8 304 
 RUS  HZ EP       1233  5.81                             145    0.1810 94.0 174 
 RUS  HN ES       1233 23.47                             145   -0.0810 94.0 174 
 RUS  HN I        1233 26.32         3.8 0.22                          94.0 174 
 PTB  HZ EP       1233  8.71                             132   -0.35 9  144 261 
 PTB  HN ES       1233 29.80                             132    0.14 9  144 261 
 PTB  HN I        1233 35.12        10.4 0.46                           144 261 
 CHI  HN ES       1233 48.11                             117    0.04 8  242 195 
 CHI  HN I        1233 56.92         2.8 0.40                           242 195 
                                                                                
