 2014 1111 1230 58.2 L   6.780 -73.153149.6  RSN  6 0.4 1.8LRSN                1
 GAP=137        0.99       4.7     4.8  7.3 -0.7823E+01  0.4684E+01  0.6882E+01E
 Epicentro: LOS SANTOS - SANTANDER                                             3
 ACTION:UPD 14-12-19 15:42 OP:nd   STATUS:               ID:20141111123058 L   I
 OLDACT:UP  14-11-11 22:42 OP:cam  STATUS:               ID:20141111122819     3
 OLDACT:REG 14-11-11 19:33 OP:cam  STATUS:               ID:20141111122819     3
 2014-11-11-1228-19M.COL___298                                                 6
 STAT SP IPHASW D HRMM SECON CODA AMPLIT PERI AZIMU VELO AIN AR TRES W  DIS CAZ7
 BRR  HZ EP     C 1231 19.93                             153    0.1810 71.6 300 
 BRR  HN ES       1231 37.26                             153    0.6810 71.6 300 
 BRR  HZ I        1231 40.65        24.0 0.42            152           71.6 300 
 PAM  SZ EP       1231 21.00                             151    0.0810 79.6  39 
 PAM  SN ES       1231 38.37                             151   -0.2910 79.6  39 
 PAM  SZ I        1231 40.05         7.5 0.32            157           79.6  39 
 RUS  HZ EP       1231 21.95                             145   -0.1910 98.4 176 
 RUS  HN ES       1231 40.84                             145    0.0010 98.4 176 
 RUS  HZ I        1231 42.51         5.0 0.24            148           98.4 176 
 PTB  HZ EP       1231 24.95                             133   -0.39 9  147 260 
 PTB  HN ES       1231 45.66                             133   -0.88 9  147 260 
 PTB  HZ I        1231 52.54         7.0 0.48            134            147 260 
 SPBC HZ EP       1231 26.89                             130    0.14 9  161 219 
 SPBC HN ES       1231 49.17                             130    0.12 9  161 219 
 SPBC HZ I        1231 54.78        14.8 0.80            132            161 219 
 NOR  HZ EP       1231 34.32                             119    0.41 8  233 235 
 NOR  HE ES       1232  2.03                             119    0.23 8  233 235 
 NOR  HZ I        1232  7.38         6.1 0.18            121            233 235 
                                                                                
