 2011 1011 1208 14.9 L   6.750 -73.121131.0  RSN  4 0.2 1.6LRSN                1
 GAP=142        0.56       4.5     5.1  5.9 -0.2623E+01 -0.3761E+01  0.7201E+01E
 Epicentro: LOS SANTOS - SANTANDER                                             3
 ACTION:UPD 12-07-13 16:03 OP:ep   STATUS:               ID:20111011120814 L   I
 2011-10-11-1206-53S.COL___167                                                 6
 STAT SP IPHASW D HRMM SECON CODA AMPLIT PERI AZIMU VELO AIN AR TRES W  DIS CAZ7
 BAR2 SZ EP       12 8 32.65                             171    0.0010 18.7 201 
 BAR2 SZ ES   1   12 8 46.19                             171   -0.31 7 18.7 201 
 BAR2 SZ I        12 8 48.90        10.1 0.40                          18.7 201 
 BRR  HZ EP       12 8 34.59                             148   -0.1910 76.3 301 
 BRR  HE ES   1   12 8 50.57                             148    0.27 7 76.3 301 
 PAM  SZ EP       12 8 35.56                             147   -0.1710 80.1  36 
 PAM  SN ES   1   12 8 52.23                             147    0.24 7 80.1  36 
 RUS  HZ EP       12 8 37.04                             142    0.2510 94.9 177 
                                                                                
