 2017  511 1053  5.6 L   6.781 -73.113149.3  RSN  4 0.1 1.2LRSN                1
 GAP=142        0.40       2.7     2.9  3.8 -0.4769E+00  0.1737E+01  0.3009E+01E
 Epicentro: LOS SANTOS - SANTANDER                                             3
 ACTION:UPD 17-06-16 13:35 OP:jn   STATUS:               ID:20170511105305 L   I
 OLDACT:REG 17-05-11 20:57 OP:lv   STATUS:               ID:20170511104730     3
 2017-05-11-1048-00M.COL___365                                                 6
 STAT SP IPHASW D HRMM SECON CODA AMPLIT PERI AZIMU VELO AIN AR TRES W  DIS CAZ7
 BRR  HZ EP       1053 27.20                             152   -0.1810 75.4 299 
 BRR  HE ES       1053 44.49                             152    0.1310 75.4 299 
 PAM  EZ EP       1053 28.35                             152    0.1710 76.8  36 
 PAM  EN ES       1053 45.66                             152   -0.1110 76.8  36 
 PAM  EZ I        1053 48.35         3.3 0.26            153           76.8  36 
 RUS  HZ EP       1053 29.60                             145    0.0510 98.3 178 
 RUS  HN ES   1   1053 48.19                             145   -0.03 7 98.3 178 
 RUS  HZ I        1053 49.41         3.3 0.33            147           98.3 178 
 PTB  HZ EP       1053 33.12                             132   -0.04 9  151 260 
 PTB  HN ES   4   1053 53.10                             132   -1.54 0  151 260 
 PTB  HZ I        1053 56.38         1.6 0.16            134            151 260 
                                                                                
