 2017 1211 1322 37.9 L   6.825 -73.162140.2  RSN 25 0.7 2.6LRSN                1
 GAP= 64        0.97       2.3     3.0  5.5 -0.7754E+00  0.4091E+01  0.1828E+01E
 Epicentro: LOS SANTOS - SANTANDER                                             3
 ACTION:UPD 18-01-04 13:19 OP:rebc STATUS:               ID:20171211132237 L   I
 OLDACT:UP  17-12-12 00:55 OP:mg   STATUS:               ID:20171211131741     3
 OLDACT:REG 17-12-11 21:54 OP:mg   STATUS:               ID:20171211131741     3
 2017-12-11-1318-00M.COL___484                                                 6
 STAT SP IPHASW D HRMM SECON CODA AMPLIT PERI AZIMU VELO AIN AR TRES W  DIS CAZ7
 BAR2 EZ EP       1322 57.13                             169    0.2210 25.9 185 
 BAR2 EZ ES   2   1323 12.01                             169    0.26 5 25.9 185 
 BAR2 EZ I        1323 13.27       118.4 0.22            165           25.9 185 
 PAM  EZ EP     D 1322 59.93                             150    0.4710 76.5  42 
 PAM  EN ES       1323 16.65                             150    0.3610 76.5  42 
 PAM  EZ I        1323 19.17        72.4 0.66            153           76.5  42 
 PTB  HZ EP       1323  3.65                             131   -0.65 9  147 258 
 PTB  HN ES       1323 24.64                             131   -0.26 9  147 258 
 PTB  HZ I        1323 28.15        38.7 0.16            127            147 258 
 OCA  HZ EP       1323  5.37                             129   -0.13 9  157 354 
 OCA  HN ES       1323 26.55                             129   -0.47 9  157 354 
 OCA  HZ I        1323 28.22       100.1 0.20            128            157 354 
 TAM  HZ EP       1323  5.54                             129    0.17 9  158 106 
 SPBC HZ EP       1323  5.94                             128   -0.13 9  164 218 
 SPBC HN ES       1323 27.74                             128   -0.31 9  164 218 
 SPBC HZ I        1323 33.23        77.8 0.10            124            164 218 
 YPLC HZ EP       1323  7.68                             125    0.06 9  180 151 
 YPLC HN ES       1323 30.83                             125    0.02 9  180 151 
 YPLC HZ I        1323 34.29        96.9 0.26            124            180 151 
 ZAR  HZ EP       1323  9.87                             121    0.17 9  201 292 
 ZAR  HN ES   2   1323 34.86                             121    0.35 4  201 292 
 ZAR  HZ I        1323 41.67        58.3 0.28            119            201 292 
 CHI  HZ EP       1323 15.33                             116   -0.20 8  251 195 
 CHI  HN ES       1323 44.47                             116   -0.42 8  251 195 
 CHI  HZ I        1323 49.04        10.1 0.32            114            251 195 
 ROSC BZ EP   9   1323 17.59                             115    1.71 0  254 210 
 ROSC BN ES   4   1323 48.35                             115    1.13 0  254 210 
 ROSC BZ I        1323 53.44        20.8 0.30            113            254 210 
 URE  HZ EP   2   1323 17.05                             113   -1.34 4  281 292 
 URE  HN ES   2   1323 48.29                             113   -1.69 4  281 292 
 URE  HZ I        1323 56.19        17.3 0.13            111            281 292 
 DRL03HZ EP       1323 18.49                             112   -0.42 7  286 353 
 DRL03HN ES       1323 51.09                             112    0.19 7  286 353 
 GUY2CHZ EP   2   1323 22.47                             111    1.20 4  301 234 
 GUY2CHN ES       1323 55.52                             111    0.42 7  301 234 
 GUY2CHZ I        1324  2.38        15.8 0.28                           301 234 
 VIL  EZ EP       1323 21.07                             111   -0.26 7  306 191 
 PTGC HZ EP   2   1323 20.72                             110   -1.16 3  312 159 
 PTGC HN ES   3   1323 54.03                             110   -2.16 2  312 159 
 PTGC HZ I        1323 55.52        27.4 0.41            109            312 159 
 LL6C HZ EP   2   1323 21.68                             110   -1.36 3  322 358 
 LL6C HE ES   2   1323 59.73                             110    1.48 3  322 358 
 LL6C HZ I        1324  2.86         8.5 0.37            109            322 358 
 ELA  HZ EP   2   1323 26.03                             109    1.46 3  330 229 
 ELA  HZ I        1324  7.66        12.5 0.44            107            330 229 
 CBOC HZ EP       1323 25.50                             109    1.01 7  333 252 
 CBOC HN ES   1   1324  0.24                             109   -0.59 5  333 252 
 CBOC HZ I        1324  6.48         7.8 0.28            107            333 252 
 DBB  EZ EP       1323 25.09                             109    0.17 7  337 274 
 DBB  EN ES   1   1324  2.45                             109    0.85 5  337 274 
 DBB  EZ I        1324  8.27        13.0 0.23            107            337 274 
 ANIL HZ EP   2   1323 29.09                             107    1.52 3  358 224 
 ANIL HN ES   3   1324  8.53                             107    2.20 2  358 224 
 ANIL HZ I        1324 13.55        33.5 0.30            106            358 224 
 PRA  HZ EP       1323 30.78                             105   -0.63 6  394 209 
 PRA  HN ES       1324 12.94                             105   -0.21 6  394 209 
 PRA  HZ I        1324 19.30        14.5 0.24            104            394 209 
 ORTC HZ EP       1323 32.09                             105    0.32 6  397 216 
 ORTC HN ES   2   1324 15.17                             105    1.38 3  397 216 
 ORTC HZ I        1324 22.53         9.0 0.22            104            397 216 
 PAL  HZ EP       1323 33.23                             105    0.37 6  406 239 
 PAL  HN ES   2   1324 17.09                             105    1.35 3  406 239 
 PAL  HZ I        1324 22.46         9.7 0.32            103            406 239 
 SJC  HZ EP   2   1323 31.93                             105   -0.96 3  406 327 
 SJC  HN ES   4   1324 12.42                             105   -3.36 0  406 327 
 SJC  HZ I        1324 16.22         8.0 0.50            104            406 327 
 CRJC HZ EP   4   1323 37.09                             103   -2.84 0  465   4 
 CRJC HN ES   4   1324 23.76                             103   -4.55 0  465   4 
 CRJC HZ I        1324 31.00         8.9 0.37            102            465   4 
                                                                                
