 2017  311 1734 50.8 L   6.740 -73.145157.4  RSN  5 0.2 1.7LRSN                1
 GAP=233        0.56       6.6     6.6  4.6  0.3387E+02  0.5835E+01  0.1434E+01E
 Epicentro: LOS SANTOS - SANTANDER                                             3
 ACTION:UPD 17-05-25 18:39 OP:jn   STATUS:               ID:20170311173451 L   I
 OLDACT:UP  17-04-27 13:02 OP:nlst STATUS:               ID:20170311173451 L   3
 OLDACT:REG 17-03-11 21:39 OP:ar   STATUS:               ID:20170311172742     3
 2017-03-11-1728-00M.COL___403                                                 6
 STAT SP IPHASW D HRMM SECON CODA AMPLIT PERI AZIMU VELO AIN AR TRES W  DIS CAZ7
 BAR2 EZ EP       1735 11.61                             173   -0.0710 16.9 194 
 BAR2 EZ ES       1735 27.62                             173   -0.3910 16.9 194 
 BAR2 EZ I        1735 27.92        12.3 0.36            173           16.9 194 
 BRR  HZ EP       1735 13.46                             153    0.1010 74.6 303 
 BRR  HN ES       1735 31.29                             153    0.3010 74.6 303 
 BRR  HZ I        1735 32.51        14.3 0.44            153           74.6 303 
 RUS  HZ EP   1   1735 15.48                             148    0.25 7 94.0 176 
 RUS  HN ES   1   1735 34.56                             148    0.24 7 94.0 176 
 RUS  HZ I        1735 35.19         2.8 0.36            148           94.0 176 
 PTB  HZ EP   1   1735 18.50                             135   -0.10 7  147 261 
 PTB  HN ES   3   1735 39.86                             135   -0.46 2  147 261 
 ZAR  HZ EP   1   1735 23.97                             124   -0.28 6  207 294 
 ZAR  HN ES       1735 50.35                             124   -0.03 8  207 294 
                                                                                
