 2016 1011 1302 10.6 L   6.756 -73.160143.5  RSN  5 0.3 1.4LRSN                1
 GAP=150        0.72       5.9     3.4  5.2 -0.4171E+01  0.5142E+01 -0.1691E+01E
 Epicentro: LOS SANTOS - SANTANDER                                             3
 ACTION:UPD 16-11-09 19:18 OP:rebc STATUS:               ID:20161011130210 L   I
 OLDACT:REG 16-10-11 22:08 OP:lv   STATUS:               ID:20161011125105     3
 2016-10-11-1258-00M.COL___372                                                 6
 STAT SP IPHASW D HRMM SECON CODA AMPLIT PERI AZIMU VELO AIN AR TRES W  DIS CAZ7
 BAR2 EZ EP       13 2 30.00                             172    0.1310 18.2 188 
 BAR2 EZ ES       13 2 45.25                             172    0.3610 18.2 188 
 BAR2 EZ I        13 2 50.51         5.3 0.39            171           18.2 188 
 BRR  HZ EP       13 2 31.78                             152    0.2110 72.4 303 
 BRR  HN ES       13 2 47.92                             152   -0.0110 72.4 303 
 PAM  EZ EP       13 2 32.75                             149   -0.1210 82.2  38 
 PAM  EN ES       13 2 49.96                             149   -0.2810 82.2  38 
 PTB  HZ EP       13 2 36.79                             132   -0.38 9  145 261 
 PTB  HN ES       13 2 57.49                             132   -0.40 9  145 261 
 PTB  HZ I        13 3  1.41         2.7 0.17            133            145 261 
 ZAR  HZ EP       13 2 43.35                             122    0.40 9  205 294 
 ZAR  HN ES       13 3  8.33                             122    0.15 9  205 294 
 ZAR  HZ I        13 3 14.04         3.0 0.10            124            205 294 
                                                                                
