 2012  811 1818 32.4 L   6.802 -73.157145.7  RSN 13 0.3 2.9LRSN 2.8WRSN        1
 SPEC AVERAGE  MO 13.3 ST  1.2 OM  5.5 f0 3.49 R0.4212 AL 2.75 WI 11.7 MW  2.8 3
 SPEC SD       MO  0.0 ST0.000 OM  3.8 f00.000 R0.0000 AL      WI      MW  0.0 3
 GAP= 65        0.58       1.8     2.4  3.4  0.1932E+00  0.2136E+01  0.1124E+01E
 Epicentro: LOS SANTOS - SANTANDER                                             3
 SPEC RUS HH Z MO 13.3 ST  1.2 OM  1.7 f0 3.49 R0.4212 AL 2.75 WI 11.7 MW  2.8 3
 SPEC RUS HH Z T181911 K 0.000 GD  177 VS 4.20 DE 3.00 Q0230.0 QA 0.60 VS 4.20 3
 ACTION:UPD 12-09-10 11:55 OP:ep   STATUS:               ID:20120811181832 L   I
 2012-08-11-1815-00S.MAN___215                                                 6
 STAT SP IPHASW D HRMM SECON CODA AMPLIT PERI AZIMU VELO AIN AR TRES W  DIS CAZ7
 BAR2 SZ EP       1818 52.08                             170    0.0710 23.4 187 
 BAR2 SZ ES   1   1819  7.14                             170   -0.17 7 23.4 187 
 BAR2 SZ I        1819  8.05       357.6 0.30                          23.4 187 
 BRR  HZ EP       1818 53.77                             153    0.3110 70.0 299 
 BRR  HZ I        1818 54.06       448.2 0.23                          70.0 299 
 BRR  HN ES   1   1819 10.58                             153    0.69 7 70.0 299 
 PAM  SZ EP       1818 54.90                             151    0.2710 78.0  40 
 PAM  SN ES       1819 11.72                             151   -0.2610 78.0  40 
 PAM  SZ I        1819 14.37       141.5 0.74                          78.0  40 
 RUS  HZ EP       1818 56.00                             144   -0.1610  101 175 
 RUS  HN ES       1819 14.58                             144   -0.1110  101 175 
 RUS  HZ I        1819 16.34        57.8 0.39                           101 175 
 TAM  HZ EP       1819  0.42                             130    0.24 9  156 105 
 OCA  HZ EP       1819  0.18                             130   -0.48 9  160 354 
 OCA  HN ES   1   1819 22.64                             130   -0.06 7  160 354 
 OCA  HZ I        1819 30.24       137.9 0.40                           160 354 
 YOP  SZ EP       1819  2.67                             126    0.16 9  180 153 
 YOP  SZ I        1819  3.95        51.6 0.62                           180 153 
 YOP  SE ES   1   1819 25.64                             126   -0.35 7  180 153 
 ZAR  HZ EP   1   1819  4.69                             122   -0.01 6  203 292 
 ZAR  HE ES   1   1819 29.61                             122   -0.29 6  203 292 
 ZAR  HZ I        1819 35.17        63.0 0.37                           203 292 
 NOR  SZ EP       1819  8.16                             118    0.14 8  234 234 
 NOR  SN ES   1   1819 35.65                             118   -0.16 6  234 234 
 NOR  SZ I        1819 40.09        30.7 0.15                           234 234 
 CHI  HZ EP       1819 10.26                             117    0.18 8  249 195 
 CHI  HE ES       1819 39.41                             117   -0.06 8  249 195 
 CHI  HZ I        1819 42.05        26.2 0.32                           249 195 
 HEL  HZ EP   1   1819 12.29                             115   -0.18 6  271 256 
 HEL  HZ I        1819 50.47        36.4 0.29                           271 256 
 DBB  SZ EP       1819 19.52                             109   -0.20 7  338 274 
 PRA  HZ EP   1   1819 25.92                             106    0.06 4  392 209 
 PRA  HE ES   1   1820  7.62                             106    0.05 4  392 209 
 PRA  HZ I        1820 14.15        17.5 0.49                           392 209 
                                                                                
