 2016  911 1011 21.9 L   6.782 -73.136140.0  RSN 12 0.3 1.7LRSN                1
 GAP=139        0.87       2.8     3.2  5.1 -0.2187E+01  0.4481E+01 -0.1173E+01E
 Epicentro: LOS SANTOS - SANTANDER                                             3
 ACTION:UPD 17-08-17 21:08 OP:lp   STATUS:               ID:20160911101121 L   I
 OLDACT:REG 16-09-11 20:10 OP:lv   STATUS:               ID:20160911100732     3
 2016-09-11-1008-00M.COL___327                                                 6
 STAT SP IPHASW D HRMM SECON CODA AMPLIT PERI AZIMU VELO AIN AR TRES W  DIS CAZ7
 BAR2 EZ EP       1011 40.74                             171   -0.0310 21.6 194 
 BAR2 EZ ES       1011 55.32                             171   -0.1910 21.6 194 
 BAR2 EZ I        1011 56.61        10.6 0.16            173           21.6 194 
 BRR  HZ EP       1011 42.50                             151   -0.0110 73.1 299 
 BRR  HN ES       1011 59.10                             151    0.5010 73.1 299 
 BRR  HZ I        1012  0.37        10.7 0.14            143           73.1 299 
 PAM  EZ EP       1011 43.65                             149    0.1210 78.2  38 
 PAM  EN ES       1012  0.55                             149    0.1310 78.2  38 
 PAM  EZ I        1012  2.81         5.8 0.35            142           78.2  38 
 RUS  HZ EP       1011 45.34                             143    0.4310 98.6 177 
 RUS  HE ES       1012  2.56                             143   -0.3210 98.6 177 
 RUS  HZ I        1012  4.87         2.6 0.32            140           98.6 177 
 PTB  HZ EP       1011 47.83                             130   -0.61 9  148 260 
 PTB  HE ES       1012  8.95                             130   -0.21 9  148 260 
 PTB  HZ I        1012 11.32         7.4 0.12            124            148 260 
 SPBC HZ EP       1011 49.55                             128   -0.30 9  162 220 
 SPBC HN ES       1012 11.84                             128    0.16 9  162 220 
 SPBC HZ I        1012 16.47         4.2 0.14            123            162 220 
 OCA  HZ EP       1011 50.58                             128    0.64 9  162 353 
 OCA  HN ES       1012 11.28                             128   -0.55 9  162 353 
 OCA  HZ I        1012 13.89        11.4 0.30            120            162 353 
 ZAR  HZ EP       1011 53.79                             121   -0.34 8  206 293 
 ZAR  HE ES       1012 19.29                             121    0.00 8  206 293 
 ZAR  HZ I        1012 27.16         4.2 0.14            114            206 293 
 NOR  HE ES       1012 25.22                             117    0.39 8  234 235 
 NOR  HZ I        1012 30.56         6.6 0.16            112            234 235 
 HEL  HZ EP   4   1012  3.74                             113    1.88 0  273 256 
 HEL  HE ES       1012 33.27                             113    0.22 8  273 256 
 HEL  HZ I        1012 39.62         2.8 0.26            108            273 256 
 URE  HZ EP   4   1012  5.01                             112    2.14 0  286 292 
 URE  HN ES   4   1012 33.17                             112   -1.67 0  286 292 
 URE  HZ I        1012 42.15         2.9 0.20            107            286 292 
 GUY2CHZ EP   9   1012  6.75                             111    1.56 0  301 235 
 GUY2CHE ES       1012 40.35                                   -0.19 7  301 235 
 GUY2CHZ I        1012 50.80         2.3 0.62                           301 235 
                                                                                
