 2013  611 1737 51.0 L   6.814 -73.170145.5  RSN  5 0.4 2.2LRSN                1
 GAP=199        0.76       4.3     6.0 10.7  0.4417E+00 -0.8251E+01 -0.8877E+01E
 Epicentro: LOS SANTOS - SANTANDER                                             3
 ACTION:UPD 14-01-08 09:54 OP:ep   STATUS:               ID:20130611173751 L   I
 OLDACT:REG 13-06-11 14:58 OP:mh   STATUS:               ID:20130611172959     3
 2013-06-11-1729-59M.COL___260                                                 6
 STAT SP IPHASW D HRMM SECON CODA AMPLIT PERI AZIMU VELO AIN AR TRES W  DIS CAZ7
 BRR  HZ EP   1   1738 12.76                             154    0.86 8 68.1 298 
 BRR  HN ES   2   1738 28.10                             154   -0.13 5 68.1 298 
 BRR  HN I        1738 30.24        23.6 0.32            148           68.1 298 
 RUS  HZ EP       1738 14.69                             143   -0.1110  102 175 
 RUS  HE ES   2   1738 33.16                             143   -0.25 5  102 175 
 PTB  HZ EP       1738 17.69                             133    0.00 9  145 258 
 PTB  HN ES   1   1738 38.80                             133    0.26 7  145 258 
 PTB  HN I        1738 44.42        15.6 0.42            131            145 258 
 NOR  HN ES       1738 54.00                             119   -0.28 8  233 234 
 NOR  HN I        1738 56.67        21.3 0.16            119            233 234 
 SML  HZ EP   1   1738 27.33                             118    0.04 6  241 336 
 SML  HN ES   1   1738 54.96                             118   -0.67 6  241 336 
 SML  HZ I        1739  2.66        12.2 0.10            117            241 336 
                                                                                
