 2013  611 1151  8.1 L   6.682 -73.379124.1  RSN  6 0.6 1.9LRSN                1
 GAP=133        1.26       7.5     7.2  9.5  0.2753E+02  0.9002E+01 -0.5446E+01E
 Epicentro: GALAN - SANTANDER                                                  3
 ACTION:UPD 14-01-08 09:54 OP:ep   STATUS:               ID:20130611115108 L   I
 OLDACT:REG 13-06-11 14:26 OP:mh   STATUS:               ID:20130611114959     3
 2013-06-11-1149-59M.COL___260                                                 6
 STAT SP IPHASW D HRMM SECON CODA AMPLIT PERI AZIMU VELO AIN AR TRES W  DIS CAZ7
 BAR2 SZ EP       1151 25.32                             168    0.2010 23.9 115 
 BAR2 SZ ES   1   1151 38.81                             168    0.39 7 23.9 115 
 BAR2 SZ I        1151 39.34        17.4 0.34            170           23.9 115 
 BRR  HZ IP       1151 26.30                             152    0.0710 59.7 322 
 BRR  HN ES       1151 40.17                             152   -0.2310 59.7 322 
 BRR  HN I        1151 40.82        73.7 0.28            151           59.7 322 
 RUS  HZ EP       1151 29.82                             141    0.6410 93.2 159 
 RUS  HN ES       1151 45.12                             141   -0.5310 93.2 159 
 RUS  HN I        1151 49.92         4.1 0.22            142           93.2 159 
 PTB  HZ EP       1151 30.38                             133   -0.4010  120 263 
 PTB  HN ES       1151 48.18                             133   -0.3110  120 263 
 PTB  HN I        1151 51.53        14.2 0.50            132            120 263 
 ZAR  HZ EP   1   1151 38.14                             119    0.83 7  186 299 
 ZAR  HN ES   1   1152  1.05                             119    0.94 7  186 299 
 ZAR  HZ I        1152  4.20         5.7 0.40            119            186 299 
 SML  HZ EP   1   1151 42.55                             112   -1.34 6  246 342 
 SML  HN ES   4   1152  8.74                             112   -3.09 0  246 342 
 SML  HN I        1152 16.96         9.7 0.10            112            246 342 
                                                                                
