 2014  811 1744 37.0 L   6.812 -73.135147.4  RSN 10 0.3 1.7LRSN                1
 GAP=137        0.77       2.9     3.2  4.7 -0.1356E+01  0.3704E+01  0.7536E+00E
 Epicentro: LOS SANTOS - SANTANDER                                             3
 ACTION:UPD 14-09-15 21:49 OP:nd   STATUS:               ID:20140811174437 L   I
 OLDACT:REG 14-08-11 21:09 OP:spq  STATUS:               ID:20140811173821     3
 2014-08-11-1738-21M.COL___266                                                 6
 STAT SP IPHASW D HRMM SECON CODA AMPLIT PERI AZIMU VELO AIN AR TRES W  DIS CAZ7
 BAR2 SZ EP       1744 57.03                             170    0.2110 24.8 192 
 BAR2 SZ ES   1   1745 12.03                             170   -0.28 7 24.8 192 
 BAR2 SZ I        1745 13.10         7.7 0.24            170           24.8 192 
 BRR  HZ EP       1744 58.56                             153    0.2510 71.6 297 
 BRR  HE ES       1745 15.61                             153    0.6510 71.6 297 
 BRR  HZ I        1745 19.86         6.5 0.14            152           71.6 297 
 PAM  SZ EP       1744 59.48                             152    0.2310 75.6  40 
 PAM  SE ES       1745 16.45                             152   -0.1910 75.6  40 
 PAM  SZ I        1745 18.53         9.6 0.56            155           75.6  40 
 RUS  HZ EP       1745  1.01                             144    0.0410  102 177 
 RUS  HE ES   1   1745 19.47                             144   -0.22 7  102 177 
 RUS  HZ I        1745 21.21         7.1 0.30            147            102 177 
 PTB  HZ EP       1745  3.68                             132   -0.51 9  149 258 
 PTB  HE ES       1745 25.09                             132   -0.33 9  149 258 
 PTB  HZ I        1745 27.98         6.6 0.14            133            149 258 
 SPBC HZ EP       1745  5.60                             129   -0.15 9  165 219 
 SPBC HN ES       1745 27.92                             129   -0.29 9  165 219 
 SPBC HZ I        1745 30.57         8.3 0.26            131            165 219 
 ZAR  HZ EP       1745  9.59                             123    0.02 9  205 292 
 ZAR  HE ES       1745 34.92                             123   -0.09 9  205 292 
 ZAR  HZ I        1745 40.06         4.2 0.14            124            205 292 
 NOR  HZ EP       1745 13.16                             119    0.19 8  236 234 
 NOR  HN ES       1745 41.45                             119    0.40 8  236 234 
 NOR  HZ I        1745 47.01         4.5 0.16            120            236 234 
 SML  HZ EP   1   1745 13.32                             118   -0.28 6  243 335 
 SML  HE ES   1   1745 41.59                             118   -0.59 6  243 335 
 SML  HZ I        1745 43.47         8.6 0.10            120            243 335 
 GUY2CHZ EP   1   1745 21.40                             112    0.56 5  303 235 
 GUY2CHN ES   4   1746  0.88                             112    5.82 0  303 235 
 GUY2CHZ I        1746  2.97         2.8 0.64                           303 235 
                                                                                
