 2012  111 1745 30.6 L   6.760 -73.163142.0  RSN  7 0.5 1.8LRSN                1
 GAP=136        1.20       7.0     7.2 11.2 -0.1283E+01  0.9886E+01 -0.1242E+02E
 Epicentro: LOS SANTOS - SANTANDER                                             3
 ACTION:UP  12-02-03 08:16 OP:REBC STATUS:               ID:20120111174530 L   I
 2012-01-11-1740-00M.COL___187                                                 6
 STAT SP IPHASW D HRMM SECON CODA AMPLIT PERI AZIMU VELO SNR AR TRES W  DIS CAZ7
 BAR2 SZ ES   1   1746  3.78                             172    -0.8 7   19 187 
 BAR2 SZ I        1746  5.61        20.3 0.25                            19 187 
 GIR2 SZ EP   1   1745 49.90                             165    -0.1 7   35 355 
 BRR  HZ EP   1   1745 51.59                             152     0.2 7   72 302 
 BRR  HN ES   1   1746  8.62                             152     1.0 7   72 302 
 BRR  HZ I        1746  9.53        19.6 0.15                            72 302 
 PAM  SZ EP       1745 52.72                             149     0.010   82  39 
 PAM  SN ES   1   1746  9.68                             149    -0.3 7   82  39 
 RUS  HZ EP   1   1745 53.96                             144     0.3 7   96 175 
 RUS  HN ES       1746 12.03                             144     0.310   96 175 
 RUS  HZ I        1746 13.24         4.6 0.23                            96 175 
 PTB  HZ EP   1   1745 56.59                             132    -0.4 7  145 260 
 PTB  HN ES   1   1746 16.89                             132    -0.8 7  145 260 
 ZAR  HE ES   2   1746 28.51                             121     0.6 4  204 294 
 ZAR  HZ I        1746 34.48         7.5 0.21                           204 294 
                                                                                
