 2011 1211 1430 50.2 L   6.714 -73.243144.3  RSN  4 0.2 1.3LRSN                1
 GAP=203        0.40       5.0     5.9  5.3  0.1741E+02  0.2809E+01 -0.2977E+00E
 Epicentro: VILLANUEVA - SANTANDER                                             3
 ACTION:UPD 12-07-13 16:15 OP:ep   STATUS:               ID:20111211143050 L   I
 2011-12-11-1427-36S.COL___154                                                 6
 STAT SP IPHASW D HRMM SECON CODA AMPLIT PERI AZIMU VELO AIN AR TRES W  DIS CAZ7
 BAR2 SZ ES   1   1431 24.39                             174   -0.21 7 15.0 153 
 BRR  HZ EP   1   1431 11.01                             153    0.00 7 67.6 310 
 BRR  HZ I        1431 11.59         4.5 0.14                          67.6 310 
 BRR  HN ES   2   1431 27.55                             153    0.32 5 67.6 310 
 RUS  HZ EP   1   1431 13.19                             146   -0.07 7 92.5 169 
 RUS  HN ES   1   1431 31.40                             146    0.17 7 92.5 169 
 RUS  HZ I        1431 33.65         3.0 0.29                          92.5 169 
 PTB  HN ES   2   1431 35.95                             134   -0.11 5  136 262 
                                                                                
