 2012  711 1345 39.0 L   6.761 -73.147146.0  RSN  5 0.3 1.4LRSN                1
 GAP=234        0.93       8.9     8.0  8.2  0.4070E+02  0.1227E+02 -0.2139E+01E
 Epicentro: LOS SANTOS - SANTANDER                                             3
 ACTION:UPD 12-08-14 11:44 OP:ep   STATUS:               ID:20120711134539 L   I
 2012-07-11-1340-00M.COL___187                                                 6
 STAT SP IPHASW D HRMM SECON CODA AMPLIT PERI AZIMU VELO AIN AR TRES W  DIS CAZ7
 BAR2 SZ EP       1345 58.76                             172     0.210   19 192 
 BAR2 SZ ES       1346 13.40                             172    -0.410   19 192 
 BAR2 SZ I        1346 15.00         5.5 0.14            179             19 192 
 BRR  HZ EP       1345 59.95                             152    -0.310   73 302 
 BRR  HZ I        1346 11.15        11.6 0.36            146             73 302 
 BRR  HE ES   1   1346 17.37                             152     0.5 7   73 302 
 RUS  HZ EP   1   1346  2.44                             145     0.0 7   96 176 
 RUS  HZ I        1346  4.11         1.7 0.21            148             96 176 
 RUS  HN ES   1   1346 21.16                             145     0.4 7   96 176 
 PTB  HZ EP       1346  5.83                             132     0.0 9  147 260 
 PTB  HE ES   1   1346 26.46                             132    -0.4 7  147 260 
 PTB  HZ I        1346 29.52         2.2 0.16            130            147 260 
 ZAR  HN ES   1   1346 37.38                             122     0.4 6  206 293 
 ZAR  HZ I        1346 40.98         2.7 0.36            118            206 293 
