 2015 1111 1930 27.0 L   6.796 -73.121145.4  RSN 12 0.4 1.8LRSN                1
 GAP=140        0.89       2.3     3.8  4.9 -0.9955E+00  0.6414E+01  0.7859E+00E
 Epicentro: LOS SANTOS - SANTANDER                                             3
 ACTION:UPD 15-12-28 16:10 OP:cam  STATUS:               ID:20151111193027 L   I
 OLDACT:UP  15-11-12 00:25 OP:ak   STATUS:               ID:20151111192749     3
 OLDACT:REG 15-11-11 22:39 OP:cara STATUS:               ID:20151111192749     3
 2015-11-11-1927-49M.COL___314                                                 6
 STAT SP IPHASW D HRMM SECON CODA AMPLIT PERI AZIMU VELO AIN AR TRES W  DIS CAZ7
 BAR2 EZ EP       1930 46.54                             170   -0.0710 23.5 197 
 BAR2 EZ ES       1931  1.80                             170   -0.0910 23.5 197 
 BAR2 EZ I        1931  3.13        20.1 0.24            169           23.5 197 
 BRR  HZ EP       1930 48.38                             152    0.1010 73.8 298 
 BRR  HE ES       1931  5.23                             152    0.3710 73.8 298 
 BRR  HZ I        1931  9.53         8.9 0.10            150           73.8 298 
 PAM  EZ EP       1930 49.31                             151    0.1910 76.1  38 
 PAM  EN ES       1931  6.71                             151    0.3610 76.1  38 
 PAM  EZ I        1931  8.27         5.4 0.23            155           76.1  38 
 RUS  HZ EP       1930 50.66                             144   -0.0310100.0 178 
 RUS  HE ES       1931  8.77                             144   -0.3910100.0 178 
 RUS  HZ I        1931 10.39         7.8 0.30            146          100.0 178 
 OCA  HN ES       1931 17.46                             129   -0.03 9  161 352 
 SPBC HZ EP       1930 54.88                             129   -0.74 9  165 220 
 SPBC HE ES       1931 17.64                             129   -0.29 9  165 220 
 SPBC HZ I        1931 18.88        15.7 0.20            129            165 220 
 ZAR  HZ EP       1931  0.27                             122    0.56 8  207 292 
 ZAR  HE ES       1931 24.79                             122   -0.43 8  207 292 
 ZAR  HZ I        1931 31.13         7.0 0.16            123            207 292 
 NOR  HZ EP       1931  3.24                             118    0.31 8  237 235 
 NOR  HE ES       1931 31.11                             118    0.16 8  237 235 
 NOR  HZ I        1931 38.00         6.1 0.16            119            237 235 
 SML  HZ EP       1931  3.89                             117    0.10 8  245 335 
 SML  HN ES       1931 31.65                             117   -0.82 8  245 335 
 SML  HZ I        1931 34.38        11.1 0.09            119            245 335 
 CHI  HZ EP       1931  4.54                             117   -0.19 8  249 196 
 CHI  HN ES       1931 34.51                             117    0.37 8  249 196 
 CHI  HZ I        1931 39.65         2.8 0.20            119            249 196 
 GUY2CHZ EP   1   1931 10.99                             112    0.16 5  303 235 
 GUY2CHN ES       1931 45.63                             112    0.63 7  303 235 
 GUY2CHZ I        1931 53.01         3.7 0.44                           303 235 
 MON  HN ES   4   1931 51.89                             108   -2.81 0  356 308 
 ANIL HZ E        1928 13.79                                            359 225 
                                                                                
