 2013  511 1649 24.2 L   6.795 -73.134148.0  RSN 13 0.5 2.6LRSN                1
 GAP= 72        1.15       3.6     5.4  6.1 -0.4023E+01  0.7364E+01  0.2287E+01E
 Epicentro: LOS SANTOS - SANTANDER                                             3
 ACTION:UPD 13-06-20 09:49 OP:ep   STATUS:               ID:20130511164923 L   I
 OLDACT:UP  13-05-20 05:57 OP:CAM  STATUS:               ID:20130511164923 L   3
 2013-05-11-1648-49M.COL___227                                                 6
 STAT SP IPHASW D HRMM SECON CODA AMPLIT PERI AZIMU VELO AIN AR TRES W  DIS CAZ7
 BAR2 SZ IP     C 1649 43.93                             171   -0.1310 23.0 193 
 BAR2 SZ ES       1649 59.75                             171    0.1810 23.0 193 
 BAR2 SZ I        1650  0.72        55.2 0.18            168           23.0 193 
 GIR2 SZ EP       1649 44.19                             167    0.0710 32.1 348 
 GIR2 SZ ES   1   1649 58.87                             167   -0.82 7 32.1 348 
 BRR  HZ IP     C 1649 45.81                             153    0.1810 72.6 298 
 BRR  HZ I        1649 46.11        81.7 0.18            148           72.6 298 
 BRR  HN ES       1650  3.63                             153    1.2510 72.6 298 
 PAM  SZ EP       1649 46.79                             152    0.1910 77.0  39 
 PAM  SN ES       1650  4.11                             152    0.0210 77.0  39 
 PAM  SZ I        1650  6.10        41.0 0.50            155           77.0  39 
 RUS  HZ EP       1649 47.71                             145   -0.3810 99.9 177 
 RUS  HN ES   1   1650  6.73                             145   -0.02 7 99.9 177 
 RUS  HZ I        1650  7.80        28.6 0.22            145           99.9 177 
 PTB  HZ EP       1649 50.48                             133   -0.94 9  149 259 
 PTB  HN ES   1   1650 11.77                             133   -0.91 7  149 259 
 PTB  HZ I        1650 19.20        76.4 0.22            130            149 259 
 TAM  HZ EP   2   1649 52.17                             132    0.28 5  154 105 
 OCA  HZ EP   2   1649 53.25                             130    0.53 5  161 353 
 OCA  HN ES       1650 14.96                             130   -0.03 9  161 353 
 OCA  HZ I        1650 18.85        77.4 0.30            130            161 353 
 NOR  HZ EP       1649 59.78                             119   -0.32 8  235 235 
 NOR  HE ES       1650 28.45                             119    0.32 8  235 235 
 NOR  HZ I        1650 35.02        46.3 0.24            118            235 235 
 SML  HZ EP   2   1650  1.32                             118    0.29 4  245 335 
 SML  HN ES   1   1650 28.84                             118   -0.95 6  245 335 
 SML  HZ I        1650 32.45        88.0 0.24            118            245 335 
 CHI  HZ EP       1650  1.96                             118   -0.00 8  248 195 
 CHI  HN ES   1   1650 31.94                             118    0.49 6  248 195 
 CHI  HZ I        1650 39.11        15.4 0.32            118            248 195 
 HEL  HZ EP       1650  5.27                             115    0.66 8  273 256 
 HEL  HN ES   4   1650 39.82                             115    3.66 0  273 256 
 HEL  HZ I        1650 43.03        29.3 0.28            114            273 256 
 COD  HZ EP   1   1650 12.65                             110   -0.06 5  349 354 
 COD  HN ES   1   1650 50.47                             110   -0.10 5  349 354 
 COD  HZ I        1650 58.42         7.8 0.64            110            349 354 
                                                                                
