 2012  711 1957 48.4 L   7.369 -73.114  4.0  RSN  5 0.3 1.5LRSN                1
 GAP=180        0.78       4.7     2.3 10.3 -0.4364E+01  0.1079E+02 -0.1734E+02E
 Epicentro: MATANZA - SANTANDER                                                3
 ACTION:UPD 12-08-14 11:44 OP:ep   STATUS:               ID:20120711195748 L   I
 2012-07-11-1950-00M.COL___193                                                 6
 STAT SP IPHASW D HRMM SECON CODA AMPLIT PERI AZIMU VELO AIN AR TRES W  DIS CAZ7
 PAM  SZ EP       1957 56.62                              47     0.210   46  94 
 PAM  SN ES       1958  2.38                              47    -0.310   46  94 
 BRR  HZ EP       1958  0.00                              47     0.110   72 246 
 BRR  HN ES   1   1958  8.49                              47    -0.4 7   72 246 
 BRR  HZ I        1958 10.04        19.4 0.14             47             72 246 
 RUS  HZ EP       1958 14.71                              47     0.5 9  163 179 
 RUS  HN ES   1   1958 34.19                              47    -0.2 7  163 179 
 RUS  HZ I        1958 37.41         2.1 0.30             47            163 179 
 PTB  HZ EP       1958 15.32                              47    -0.1 9  174 238 
 ZAR  HZ EP   1   1958 17.98                              37     0.2 7  193 274 
 ZAR  HZ I        1958 41.12        14.7 0.35             37            193 274 
