 2015 1011 1609 51.6 L   6.794 -73.123145.7  RSN 12 0.4 1.8LRSN                1
 GAP=140        0.91       2.6     4.0  5.4 -0.1456E+01  0.5356E+01  0.1353E+00E
 Epicentro: LOS SANTOS - SANTANDER                                             3
 ACTION:UPD 15-12-22 20:39 OP:cam  STATUS:               ID:20151011160951 L   I
 OLDACT:REG 15-10-11 20:52 OP:spq  STATUS:               ID:20151011160748     3
 2015-10-11-1607-48M.COL___337                                                 6
 STAT SP IPHASW D HRMM SECON CODA AMPLIT PERI AZIMU VELO AIN AR TRES W  DIS CAZ7
 BAR2 EZ EP   1   1610 11.34                             171    0.07 7 23.2 196 
 BAR2 EZ ES   1   1610 26.10                             171   -0.48 7 23.2 196 
 BAR2 EZ I        1610 27.49        23.4 0.28            168           23.2 196 
 BRR  HZ EP     D 1610 13.20                             152    0.2610 73.7 298 
 BRR  HN ES       1610 29.88                             152    0.3410 73.7 298 
 BRR  HZ I        1610 32.98        12.6 0.52            149           73.7 298 
 PAM  EZ EP     C 1610 14.38                             151    0.5810 76.4  38 
 PAM  EN ES       1610 31.27                             151    0.1910 76.4  38 
 PAM  EZ I        1610 33.48         9.5 0.38            154           76.4  38 
 RUS  HZ EP       1610 15.33                             144   -0.0110 99.7 177 
 RUS  HE ES       1610 33.66                             144   -0.1510 99.7 177 
 RUS  HZ I        1610 35.08         7.0 0.12            145           99.7 177 
 OCA  HZ EP       1610 19.74                             129   -0.31 9  161 352 
 OCA  HE ES       1610 41.68                             129   -0.52 9  161 352 
 OCA  HZ I        1610 47.88        24.4 0.36            130            161 352 
 SPBC HZ EP       1610 20.41                             129    0.17 9  164 220 
 SPBC HE ES       1610 42.17                             129   -0.38 9  164 220 
 SPBC HZ I        1610 44.72         9.3 0.22            128            164 220 
 ZAR  HE ES       1610 50.54                             122    0.67 8  207 292 
 ZAR  HZ I        1610 55.19         7.6 0.29            122            207 292 
 NOR  HZ EP       1610 27.81                             118    0.26 8  236 235 
 NOR  HN ES   1   1610 55.70                             118    0.15 6  236 235 
 NOR  HZ I        1611  0.39         3.3 0.10            118            236 235 
 SML  HZ EP       1610 27.81                             117   -0.64 8  245 335 
 SML  HE ES   1   1610 56.66                             117   -0.50 6  245 335 
 SML  HZ I        1610 59.44        14.0 0.12            118            245 335 
 CHI  HZ EP   1   1610 29.75                             117    0.41 6  249 196 
 CHI  HE ES   1   1610 58.24                             117   -0.50 6  249 196 
 CHI  HZ I        1611  7.78         1.7 0.36            118            249 196 
 HEL  HZ EP   4   1610 33.36                             115    1.25 0  274 256 
 HEL  HN ES   1   1611  3.03                             115   -0.63 6  274 256 
 HEL  HZ I        1611 11.55         3.4 0.70            114            274 256 
 GUY2CHZ EP   4   1610 36.85                             112    1.41 0  303 235 
 GUY2CHE ES   4   1611 11.67                             112    2.07 0  303 235 
 GUY2CHZ I        1611 17.74         1.8 0.52                           303 235 
                                                                                
