 2011  611 1244 48.2 L   6.761 -73.102147.8  RSN  7 0.3 2.0LRSN                1
 GAP=225        0.58       3.8     6.7  5.1  0.5596E+01  0.8114E+01  0.5502E+01E
 Epicentro: LOS SANTOS - SANTANDER                                             3
 ACTION:UP  11-07-14 19:04 OP:ep   STATUS:               ID:20110611124448 L   I
 2011-06-11-1241-12S.COL___133                                                 6
 STAT SP IPHASW D HRMM SECON CODA AMPLIT PERI AZIMU VELO SNR AR TRES W  DIS CAZ7
 BAR2 SZ EP   1   1245  7.85                             172    -0.2 7   21 205 
 BAR2 SZ ES   1   1245 23.19                             172    -0.3 7   21 205 
 BAR2 SZ I        1245 24.68        20.7 0.20                            21 205 
 BTL  SZ EP   1   1245  8.27                             170     0.1 7   25 314 
 BRR  HZ EP       1245  9.84                             151    -0.110   78 300 
 BRR  HN ES   1   1245 27.15                             151     0.3 7   78 300 
 BRR  HZ I        1245 30.12        22.6 0.16                            78 300 
 RUS  HZ EP   1   1245 11.98                             145     0.1 7   96 179 
 RUS  HN ES   1   1245 30.54                             145     0.3 7   96 179 
 RUS  HZ I        1245 31.71        11.7 0.19                            96 179 
 NOR  SZ EP   1   1245 23.92                             119    -0.3 6  236 236 
 NOR  SE ES   2   1245 52.33                             119     0.0 4  236 236 
 CHI  HZ EP   1   1245 25.45                             118    -0.3 6  246 197 
 CHI  HE ES   1   1245 54.81                             118    -0.2 6  246 197 
 CHI  HZ I        1246  1.23         6.4 0.36                           246 197 
 PRA  HZ EP   1   1245 42.43                             107     0.8 4  391 210 
                                                                                
