 2017  611 1644 50.7 L   6.829 -73.274171.9  RSN  6 0.3 1.8LRSN                1
 GAP=246        0.61       4.3     5.9  6.7 -0.5516E+01 -0.5399E+01  0.6185E+01E
 Epicentro: ZAPATOCA - SANTANDER                                               3
 ACTION:UPD 17-09-14 16:51 OP:jn   STATUS:               ID:20170611164450 L   I
 OLDACT:UP  17-06-12 00:17 OP:edw  STATUS:               ID:20170611163743d    3
 OLDACT:UP  17-06-12 00:16 OP:edw  STATUS:               ID:20170611163743d    3
 OLDACT:UP  17-06-12 00:16 OP:edw  STATUS:               ID:20170611163743d    3
 OLDACT:DUP 17-06-12 00:13 OP:edw  STATUS:               ID:20170611163743d    3
 OLDACT:DUP 17-06-12 00:09 OP:edw  STATUS:               ID:20170611163742d    3
 OLDACT:UP  17-06-12 00:08 OP:edw  STATUS:               ID:20170611163741     3
 OLDACT:UP  17-06-12 00:07 OP:edw  STATUS:               ID:20170611163741     3
 OLDACT:REG 17-06-11 20:39 OP:edw  STATUS:               ID:20170611163741     3
 2017-06-11-1638-00M.COL___350                                                 6
 STAT SP IPHASW D HRMM SECON CODA AMPLIT PERI AZIMU VELO AIN AR TRES W  DIS CAZ7
 BRR  HZ EP     C 1645 14.59                             161    0.4310 57.3 302 
 BRR  HE ES       1645 32.21                             161   -0.2110 57.3 302 
 BRR  HZ I        1645 35.49         7.5 0.40            158           57.3 302 
 PTB  HZ EP       1645 18.54                             140   -0.3610  135 256 
 PTB  HN ES       1645 40.93                             140    0.0710  135 256 
 PTB  HZ I        1645 46.37         4.1 0.54            139            135 256 
 SPBC HZ EP   2   1645 20.92                             135    0.06 5  157 214 
 SPBC HN ES   2   1645 44.10                             135   -0.26 5  157 214 
 SPBC HZ I        1645 46.79         7.7 0.26            136            157 214 
 ZAR  HZ EP   4   1645 21.68                             130   -1.98 0  190 293 
 ZAR  HN ES       1645 49.45                             130    0.11 9  190 293 
 ZAR  HZ I        1645 53.84         5.3 0.10            130            190 293 
 NOR  HN ES       1645 55.66                             125    0.07 8  225 232 
 NOR  HZ I        1645 59.75         5.0 0.14            125            225 232 
 SJC  HE ES   2   1646 28.67                             110   -0.60 3  399 328 
                                                                                
