 2010  511 1134 37.5 L   6.424 -73.327130.5  RSN  6 0.4 1.6LRSN                1
 GAP=115        0.66       4.3     6.1  7.6 -0.4300E+01  0.1924E+02  0.2663E+01E
 Epicentro: SIMACOTA - SANTANDER                                               3
 ACTION:UP  10-08-24 10:04 OP:vdl  STATUS:               ID:20100511113437 L   I
 2010-05-11-1132-55S.COL___104                                                 6
 STAT SP IPHASW D HRMM SECON CODA AMPLIT PERI AZIMU VELO AIN AR TRES W  DIS CAZ7
 BAR2 SZ EP   1   1134 55.25                             169     0.0 7   24  40 
 BAR2 SZ ES   2   1135  9.15                             169     0.0 5   24  40 
 RUS  HZ EP   1   1134 57.18                             152    -0.1 7   65 155 
 RUS  HE ES   2   1135 12.92                             152     0.1 5   65 155 
 RUS  HZ I        1135 14.64         3.7 0.36                            65 155 
 BRR  HZ EP   1   1134 58.16                             144     0.1 7   87 331 
 BRR  HN ES   2   1135 13.61                             144    -0.5 5   87 331 
 BRR  HZ I        1135 14.48        12.6 0.31                            87 331 
 GUE  SZ EP   1   1135  5.17                             126     0.2 7  162  16 
 GUE  SZ ES   2   1135 26.94                             126     0.5 5  162  16 
 HEL  HZ EP   1   1135 13.05                             114    -0.9 6  245 264 
 HEL  HE ES   2   1135 43.07                             114     0.7 4  245 264 
 PRA  HZ EP   1   1135 25.35                             106     0.3 5  346 210 
 PRA  HE ES   2   1136  2.73                             106     0.5 3  346 210 
 PRA  HZ I        1136  8.09         2.2 0.40                           346 210 
                                                                                
