 2010  311 1016 44.4 L   6.792 -72.993142.8  RSN  6 0.3 1.8LRSN                1
 GAP=198        0.68       3.1     5.9  5.8  0.1447E+00 -0.2676E+01 -0.6555E+00E
 Epicentro: CEPITA - SANTANDER                                                 3
 ACTION:UP  10-08-24 09:53 OP:vdl  STATUS:               ID:20100311101644 L   I
 2010-03-11-1014-15S.COL___094                                                 6
 STAT SP IPHASW D HRMM SECON CODA AMPLIT PERI AZIMU VELO SNR AR TRES W  DIS CAZ7
 BAR2 SZ EP       1017  3.88                             167     0.010   31 224 
 BAR2 SZ ES   1   1017 19.32                             167     0.3 7   31 224 
 BRR  HZ EP       1017  5.87                             147    -0.310   87 294 
 BRR  HN ES       1017 22.92                             147    -0.310   87 294 
 BRR  HZ I        1017 24.53        10.9 0.36                            87 294 
 RUS  BZ EP       1017  7.76                             143    -0.110  100 186 
 RUS  BZ I        1017  9.00         6.6 0.02                           100 186 
 RUS  BN ES   1   1017 26.05                             143     0.0 7  100 186 
 OCA  SZ EP       1017 12.89                             128     0.1 9  164 347 
 OCA  SZ ES   1   1017 35.54                             128     0.5 7  164 347 
 RREF BN ES       1018  9.27                             109     0.4 7  334 231 
 RREF BZ I        1018 15.30         3.0 0.33                           334 231 
 PRA  HN ES   3   1018 20.76                             106    -0.4 1  400 212 
                                                                                
