 2016  711 1300 36.5 L   6.782 -73.112140.9  RSN  5 0.3 1.6LRSN                1
 GAP=142        0.72       3.6     4.0  5.7  0.2937E+01  0.2872E+01 -0.2731E+00E
 Epicentro: LOS SANTOS - SANTANDER                                             3
 ACTION:UPD 17-03-29 16:49 OP:lp   STATUS:               ID:20160711130036 L   I
 OLDACT:UP  16-07-12 01:22 OP:dani STATUS:               ID:20160711124729     3
 OLDACT:REG 16-07-11 23:18 OP:dani STATUS:               ID:20160711124729     3
 2016-07-11-1257-00M.COL___496                                                 6
 STAT SP IPHASW D HRMM SECON CODA AMPLIT PERI AZIMU VELO AIN AR TRES W  DIS CAZ7
 BAR2 EZ EP       13 0 55.25                             171   -0.3110 22.4 200 
 BAR2 EZ ES       13 1  9.90                             171   -0.5010 22.4 200 
 BAR2 EZ I        13 1 11.04         8.7 0.12            171           22.4 200 
 BRR  HZ EP       13 0 57.31                             150   -0.1110 75.5 298 
 BRR  HN ES       13 1 13.96                             150    0.2610 75.5 298 
 BRR  HZ I        13 1 18.49        19.7 0.46            151           75.5 298 
 PAM  EZ EP       13 0 58.30                             150    0.1110 76.6  36 
 PAM  EN ES       13 1 15.21                             150    0.1310 76.6  36 
 PAM  EZ I        13 1 16.81         7.1 0.72            153           76.6  36 
 RUS  HZ EP       13 0 59.67                             143    0.0110 98.4 178 
 RUS  BN ES       13 1 18.07                             143    0.3910 98.4 178 
 RUS  HZ I        13 1 19.38         3.0 0.28            146           98.4 178 
 ZAR  BN ES       13 1 34.55                             121    0.03 8  208 292 
                                                                                
