 2011  911 1648 15.4 L   6.381 -73.625108.4  RSN  9 0.2 2.2LRSN                1
 GAP=141        0.46       2.1     2.4  4.2 -0.1720E+01  0.3350E+01  0.9689E+00E
 Epicentro: SANTA HELENA DEL OPON - SANTANDER                                  3
 ACTION:UPD 12-07-13 15:56 OP:ep   STATUS:               ID:20110911164815 L   I
 2011-09-11-1640-00M.COL___169                                                 6
 STAT SP IPHASW D HRMM SECON CODA AMPLIT PERI AZIMU VELO AIN AR TRES W  DIS CAZ7
 BAR2 SZ EP       1648 32.13                             151    0.1910 54.2  64 
 BAR2 SZ ES   1   1648 44.74                             151   -0.07 7 54.2  64 
 BAR2 SZ I        1648 46.04        48.2 0.16                          54.2  64 
 BRR  HZ EP   1   1648 33.02                             140   -0.41 7 80.9 353 
 BRR  HZ I        1648 41.93        24.3 0.11                          80.9 353 
 BRR  HN ES   1   1648 47.32                             140   -0.13 7 80.9 353 
 GIR2 SZ EP   1   1648 34.62                             137    0.20 7 90.7  32 
 NOR  SZ EP   1   1648 41.57                             119    0.07 7  165 237 
 NOR  SN ES   1   1649  1.53                             119   -0.30 7  165 237 
 NOR  SZ I        1649  3.36         1.4 0.27                           165 237 
 ZAR  HZ EP   1   1648 43.55                             115    0.07 7  184 312 
 ZAR  HN ES   1   1649  5.51                             115    0.16 7  184 312 
 ZAR  HZ I        1649  9.81        21.3 0.34                           184 312 
 OCA  SZ EP   1   1648 46.20                             112   -0.22 6  208   9 
 OCA  SZ ES   1   1649 10.94                             112    0.35 6  208   9 
 OCA  SZ I        1649 16.92        21.6 0.21                           208   9 
 HEL  HZ EP   1   1648 47.04                             112   -0.05 6  212 264 
 HEL  HN ES   1   1649 11.91                             112    0.14 6  212 264 
 HEL  HZ I        1649 13.95        12.1 0.30                           212 264 
 PRA  HZ EP   1   1648 59.80                             102   -0.27 5  326 205 
 PRA  HE ES   1   1649 35.28                             102    0.40 5  326 205 
 PRA  HZ I        1649 41.94        23.2 0.20                           326 205 
 COD  HZ EP   1   1649  7.65                              99   -0.42 4  394   3 
 COD  HZ I        1649 30.22        14.9 0.74                           394   3 
                                                                                
