 2017  611 1637 50.9 L   6.841 -73.164152.0  RSN  6 0.4 1.8LRSN                1
 GAP=259        0.98       4.6     8.7  8.8  0.4127E+01 -0.1662E+02  0.7316E+01E
 Epicentro: LOS SANTOS - SANTANDER                                             3
 ACTION:UPD 17-09-14 16:51 OP:jn   STATUS:               ID:20170611163750 L   I
 OLDACT:UP  17-06-12 00:08 OP:edw  STATUS:               ID:20170611163741     3
 OLDACT:UP  17-06-12 00:07 OP:edw  STATUS:               ID:20170611163741     3
 OLDACT:REG 17-06-11 20:39 OP:edw  STATUS:               ID:20170611163741     3
 2017-06-11-1638-00M.COL___350                                                 6
 STAT SP IPHASW D HRMM SECON CODA AMPLIT PERI AZIMU VELO AIN AR TRES W  DIS CAZ7
 BRR  HZ IP     C 1638 12.57                             155    0.0210 67.3 296 
 BRR  HE ES       1638 29.72                             155    0.3110 67.3 296 
 BRR  HZ I        1638 31.94         9.5 0.34            149           67.3 296 
 PTB  HZ EP       1638 17.61                             134   -0.71 9  147 257 
 PTB  HN ES       1638 39.09                             134   -0.60 9  147 257 
 PTB  HZ I        1638 41.35         5.4 0.16            130            147 257 
 SPBC HZ EP       1638 19.89                             130   -0.24 9  166 217 
 SPBC HE ES       1638 42.79                             130   -0.12 9  166 217 
 SPBC HZ I        1638 48.92         7.1 0.52            128            166 217 
 ZAR  HZ EP       1638 23.84                             124    0.41 9  200 291 
 ZAR  HN ES       1638 48.82                             124    0.05 9  200 291 
 ZAR  HZ I        1638 56.70         6.0 0.20            122            200 291 
 NOR  HZ EP       1638 27.41                             120    0.27 8  236 233 
 NOR  HN ES       1638 56.12                             120    0.74 8  236 233 
 NOR  HZ I        1639  2.01         4.0 0.14            118            236 233 
 CHI  HE ES       1638 59.58                             118    0.17 8  253 194 
                                                                                
