 2010  311 1102 49.1 L   6.869 -72.921132.0  RSN  4 0.4 1.9LRSN                1
 GAP=206        0.98       7.4    16.4 12.9  0.8486E+02 -0.1378E+03 -0.5507E+02E
 Epicentro: GUACA - SANTANDER                                                  3
 ACTION:UP  10-08-24 09:53 OP:vdl  STATUS:               ID:20100311110249 L   I
 2010-03-11-1102-31S.COL___094                                                 6
 STAT SP IPHASW D HRMM SECON CODA AMPLIT PERI AZIMU VELO SNR AR TRES W  DIS CAZ7
 BAR2 SZ EP       11 3  7.86                             162     0.210   42 223 
 BAR2 SZ ES   1   11 3 21.63                             162    -0.5 7   42 223 
 BRR  HZ IP       11 3  9.74                             144    -0.410   91 287 
 BRR  HN ES       11 3 26.70                             144     0.210   91 287 
 BRR  HZ I        11 3 27.76        18.3 0.11                            91 287 
 RUS  BZ EP       11 3 11.81                             139    -0.410  109 189 
 RUS  BE ES       11 3 30.63                             139     0.410  109 189 
 RUS  BZ I        11 3 31.77         4.7 0.21                           109 189 
 OCA  SZ EP   1   11 3 16.63                             127     0.5 7  158 344 
 OCA  SZ ES   2   11 3 37.02                             127    -0.2 5  158 344 
 OCA  SZ I        11 3 41.52        20.9 0.42                           158 344 
                                                                                
