 2017 1111 1443 18.7 L   6.565 -73.547108.2  RSN 10 0.4 1.8LRSN                1
 GAP= 64        0.74       2.7     2.7  6.2  0.9356E+00  0.5420E+01  0.2592E+01E
 Epicentro: EL CARMEN - SANTANDER                                              3
 OLDACT:UP  17-11-11 23:51 OP:mg   STATUS:               ID:20171111143738     3
 OLDACT:UP  17-11-11 23:41 OP:mg   STATUS:               ID:20171111143738     3
 OLDACT:UP  17-11-11 23:40 OP:mg   STATUS:               ID:20171111143738     3
 OLDACT:UP  17-11-11 23:39 OP:mg   STATUS:               ID:20171111143738     3
 OLDACT:REG 17-11-11 20:45 OP:mg   STATUS:               ID:20171111143738     3
 ACTION:UPD 17-12-12 19:54 OP:rebc STATUS:               ID:20171111144318 L   I
 OLDACT:UP  17-11-12 00:22 OP:mg   STATUS:               ID:20171111143739d    3
 OLDACT:DUP 17-11-12 00:13 OP:mg   STATUS:               ID:20171111143739d    3
 OLDACT:UP  17-11-11 23:56 OP:mg   STATUS:               ID:20171111143738     3
 2017-11-11-1438-00M.COL___456                                                 6
 STAT SP IPHASW D HRMM SECON CODA AMPLIT PERI AZIMU VELO AIN AR TRES W  DIS CAZ7
 BAR2 EZ EP       1443 34.69                             158    0.2310 40.4  86 
 BAR2 EZ ES   2   1443 47.02                             158    0.27 5 40.4  86 
 BAR2 EZ I        1443 48.47        73.3 0.34            165           40.4  86 
 BRR  HZ EP       1443 35.48                             147    0.1210 62.7 343 
 BRR  HE ES   2   1443 48.71                             147    0.36 5 62.7 343 
 BRR  HZ I        1443 56.81        24.3 0.29            151           62.7 343 
 RUS  HZ EP       1443 38.14                             137    0.0310 90.3 145 
 RUS  HN ES       1443 53.11                             137   -0.1410 90.3 145 
 RUS  HZ I        1443 54.84        10.2 0.44            144           90.3 145 
 PTB  HZ EP       1443 37.58                             134   -0.7610  101 268 
 PTB  HN ES   2   1443 53.14                             134   -0.51 5  101 268 
 PTB  HZ I        1443 55.94        10.3 0.10            136            101 268 
 PAM  EZ EP       1443 41.25                             127   -0.1810  127  48 
 PAM  EN ES   1   1443 59.13                             127   -0.02 7  127  48 
 PAM  EZ I        1444  0.61         6.1 0.21            134            127  48 
 ZAR  HZ EP   1   1443 46.58                             116    0.51 7  177 305 
 ZAR  HN ES   2   1444  7.86                             116    0.45 4  177 305 
 ZAR  HZ I        1444 12.02        10.6 0.24            121            177 305 
 YPLC HZ EP   1   1443 46.63                             116   -0.10 7  183 135 
 YPLC HN ES       1444  8.80                             116    0.22 9  183 135 
 YPLC HZ I        1444 10.79        23.6 0.42            122            183 135 
 NOR  HZ EP   2   1443 46.70                             115   -0.09 4  184 233 
 NOR  HN ES   1   1444  8.72                             115    0.02 7  184 233 
 NOR  HZ I        1444 12.92         6.3 0.24            120            184 233 
 GUY2CHZ EP   1   1443 55.58                             108    0.72 6  250 234 
 GUY2CHN ES   3   1444 25.36                             108    2.29 2  250 234 
 GUY2CHZ I        1444 29.61         3.5 0.31                           250 234 
 PRA  HZ EP   1   1444  5.58                             101   -0.38 5  348 205 
 PRA  HN ES   1   1444 42.74                             101   -0.09 5  348 205 
 PRA  HZ I        1444 49.86         2.2 0.39            105            348 205 
                                                                                
