 2010  811 1131 55.0 L   6.791 -73.018145.6  RSN  9 0.5 2.2LRSN                1
 GAP=179        1.09       4.9     9.0  8.1 -0.5615E+01 -0.5757E+01  0.5621E+01E
 Epicentro: CEPITA - SANTANDER                                                 3
 ACTION:UP  10-09-07 10:54 OP:vdl  STATUS:               ID:20100811113154 L   I
 2010-08-11-1128-21S.COL___127                                                 6
 STAT SP IPHASW D HRMM SECON CODA AMPLIT PERI AZIMU VELO SNR AR TRES W  DIS CAZ7
 BAR2 SZ EP   1   1132 14.72                             168     0.0 7   29 220 
 BAR2 SZ I        1132 15.11        46.8 0.28                            29 220 
 BAR2 SZ ES   2   1132 29.06                             168    -1.0 5   29 220 
 BRR  HZ EP       1132 16.66                             148    -0.210   84 295 
 BRR  HN ES       1132 34.02                             148     0.010   84 295 
 BRR  HZ I        1132 36.47        36.7 1.11                            84 295 
 RUS  HZ EP       1132 18.68                             144     0.010  100 184 
 RUS  HN ES   1   1132 37.50                             144     0.4 7  100 184 
 RUS  HZ I        1132 38.69         9.4 0.41                           100 184 
 GUE  SZ EP       1132 20.00                             140     0.410  115   5 
 OCA  SZ EP       1132 23.62                             129     0.0 9  164 348 
 OCA  SZ I        1132 56.64        15.5 0.65                           164 348 
 CHI  HZ EP       1132 32.71                             117    -0.3 8  252 198 
 CHI  HN ES   2   1133  2.31                             117    -0.4 4  252 198 
 CHI  HZ I        1133  8.16         7.4 0.50                           252 198 
 HEL  HZ EP   1   1132 35.67                             114    -1.0 6  286 257 
 HEL  HZ I        1133 13.40         6.2 0.98                           286 257 
 RREF HZ EP   1   1132 42.54                             110     0.3 5  332 231 
 RREF HN ES   1   1133 20.61                             110     1.4 5  332 231 
 RREF HZ I        1133 26.47        11.4 0.14                           332 231 
 PRA  HZ EP       1132 48.83                             106    -0.4 6  398 211 
 PRA  HN ES   2   1133 31.92                             106     0.4 3  398 211 
 PRA  HZ I        1133 36.11        10.3 0.74                           398 211 
                                                                                
