 2013  811 1540  2.9 L   6.746 -73.159144.0  RSN  7 0.5 1.8LRSN                1
 GAP=137        1.04       5.0     5.3  8.3 -0.2955E+01  0.9439E+01 -0.2487E+01E
 Epicentro: JORDAN - SANTANDER                                                 3
 ACTION:UPD 14-01-14 09:01 OP:ep   STATUS:               ID:20130811154002 L   I
 OLDACT:REG 13-08-11 20:36 OP:jn   STATUS:               ID:20130811153737     3
 2013-08-11-1537-37M.COL___236                                                 6
 STAT SP IPHASW D HRMM SECON CODA AMPLIT PERI AZIMU VELO AIN AR TRES W  DIS CAZ7
 BAR2 SZ EP   1   1540 22.19                             173   -0.03 7 17.2 189 
 BAR2 SZ ES       1540 36.82                             173   -0.4610 17.2 189 
 BAR2 SZ I        1540 38.39        14.8 0.18            173           17.2 189 
 BRR  HZ EP       1540 24.29                             152    0.3110 73.0 303 
 BRR  HE ES   1   1540 41.47                             152    1.07 7 73.0 303 
 BRR  HZ I        1540 42.21        15.6 0.18            150           73.0 303 
 PAM  SZ EP       1540 25.31                             149    0.0310 82.9  38 
 PAM  SN ES       1540 42.46                             149   -0.2710 82.9  38 
 PAM  SZ I        1540 44.79         8.3 0.50            150           82.9  38 
 RUS  HZ EP       1540 25.93                             145   -0.1510 94.8 175 
 RUS  HN ES       1540 44.62                             145    0.4810 94.8 175 
 RUS  HZ I        1540 45.94         4.8 0.36            147           94.8 175 
 PTB  HZ EP   1   1540 29.36                             132   -0.15 7  145 261 
 PTB  HN ES   1   1540 49.27                             132   -0.99 7  145 261 
 PTB  HZ I        1540 51.05         8.8 0.28            132            145 261 
 SPBC HN ES   1   1540 52.49                             130    0.02 7  158 220 
 SPBC HZ I        1540 55.32        11.5 0.18            130            158 220 
 ZAR  HN ES   1   1541  0.73                             122    0.08 6  205 294 
 ZAR  HZ I        1541  6.93         9.8 0.28            122            205 294 
                                                                                
