 2012  211 1146 34.5 L   6.731 -73.182141.2  RSN  6 0.3 1.5LRSN                1
 GAP=175        0.69       6.2     5.7  8.3  0.1872E+02 -0.2084E+01 -0.9933E+01E
 ACTION:UP  12-03-07 16:29 OP:epov STATUS:               ID:20120211114634 L   I
 2012-02-11-1140-00M.COL___188                                                 6
 STAT SP IPHASW D HRMM SECON CODA AMPLIT PERI AZIMU VELO AIN AR TRES W  DIS CAZ7
 BAR2 SZ EP   1   1146 52.80                             173   -0.60 7 15.3 180 
 BAR2 SZ I        1147 11.12         7.0 0.33                          15.3 180 
 GIR2 SZ EP   1   1146 53.87                             164    0.06 7 38.5 358 
 BRR  HZ EP   1   1146 55.62                             151    0.47 7 71.9 305 
 BRR  HZ I        1146 56.07        13.1 0.10                          71.9 305 
 BRR  HE ES   1   1147 11.33                             151    0.03 7 71.9 305 
 RUS  HZ EP   1   1146 57.79                             145    0.55 7 93.3 173 
 RUS  HN ES   1   1147 14.81                             145   -0.20 7 93.3 173 
 RUS  HZ I        1147 17.10         2.6 0.26                          93.3 173 
 PTB  HZ EP   1   1147  0.47                             132   -0.10 7  143 262 
 PTB  HN ES   1   1147 21.06                             132    0.11 7  143 262 
 ZAR  HZ EP   1   1147  6.09                             121   -0.45 6  203 295 
 ZAR  HN ES   1   1147 31.58                             121    0.01 6  203 295 
 ZAR  HZ I        1147 38.32         4.4 0.26                           203 295 
                                                                                
