 2016 1111 1408  3.9 L   6.808 -73.121151.9  RSN  4 0.2 1.8LRSN                1
 GAP=264        0.44       3.9     3.5  7.5  0.7179E+00 -0.6210E+01 -0.4312E+01E
 Epicentro: LOS SANTOS - SANTANDER                                             3
 ACTION:UPD 17-10-26 21:06 OP:lp   STATUS:               ID:20161111140803 L   I
 OLDACT:REG 16-11-11 21:19 OP:dnl  STATUS:               ID:20161111134944     3
 2016-11-11-1358-00M.COL___343                                                 6
 STAT SP IPHASW D HRMM SECON CODA AMPLIT PERI AZIMU VELO AIN AR TRES W  DIS CAZ7
 BAR2 EZ EP       14 8 24.37                             170    0.0910 24.8 196 
 BAR2 EZ I        14 8 41.06        10.3 0.36            166           24.8 196 
 PTB  HZ EP       14 8 31.30                             133   -0.31 9  151 259 
 PTB  HE ES       14 8 53.17                             133   -0.06 9  151 259 
 PTB  HZ I        14 8 54.43         8.1 0.12            148            151 259 
 ZAR  HZ EP       14 8 37.05                             123    0.09 8  206 292 
 ZAR  HE ES       14 9  2.83                             123    0.07 8  206 292 
 ZAR  HZ I        14 9  8.04         5.9 0.30            136            206 292 
 NOR  HZ EP   2   14 8 40.63                             120    0.37 4  237 235 
 NOR  HE ES       14 9  8.71                             120    0.07 8  237 235 
 NOR  HZ I        14 9 15.60         3.2 0.42            130            237 235 
                                                                                
