 2012  211 1030 37.6 L   6.770 -73.148147.3  RSN  7 0.4 1.6LRSN                1
 GAP=138        0.85       5.4     5.0  8.9  0.4703E+00  0.3896E+01 -0.3249E+01E
 ACTION:UP  12-03-07 16:29 OP:epov STATUS:               ID:20120211103037 L   I
 2012-02-11-1030-00M.COL___188                                                 6
 STAT SP IPHASW D HRMM SECON CODA AMPLIT PERI AZIMU VELO AIN AR TRES W  DIS CAZ7
 BAR2 SZ EP   1   1030 57.41                             172    0.05 7 20.0 191 
 BAR2 SZ I        1030 57.95         5.9 0.20                          20.0 191 
 BRR  HZ EP   1   1030 59.33                             152    0.32 7 72.6 301 
 BRR  HZ I        1030 59.95        14.9 0.16                          72.6 301 
 BRR  HN ES   1   1031 16.56                             152    0.86 7 72.6 301 
 PAM  SZ EP   1   1031  0.39                             150    0.23 7 80.2  38 
 PAM  SZ I        1031  0.83         5.0 0.18                          80.2  38 
 PAM  SN ES   1   1031 17.26                             150   -0.48 7 80.2  38 
 RUS  HZ EP   1   1031  1.67                             145    0.39 7 97.2 176 
 RUS  HN ES   1   1031 19.27                             145   -0.47 7 97.2 176 
 RUS  HZ I        1031 21.66         3.7 0.36                          97.2 176 
 PTB  HZ EP   1   1031  4.46                             132   -0.16 7  147 260 
 PTB  HN ES   1   1031 25.60                             132   -0.10 7  147 260 
 OCA  SZ EP   1   1031  6.06                             129   -0.29 7  164 353 
 ZAR  HN ES   1   1031 35.12                             123   -0.61 6  205 293 
 ZAR  HZ I        1031 42.88         5.2 0.24                           205 293 
                                                                                
