 2010  411 1408 20.7 L   6.802 -73.101146.2  RSN 11 0.4 3.1LRSN                1
 GAP=147        0.81       4.0     6.0  5.6 -0.1128E+02  0.1246E+01  0.4747E+01E
 Epicentro: LOS SANTOS - SANTANDER                                             3
 ACTION:UPD 10-08-24 09:58 OP:vdl  STATUS:               ID:20100411140820 L   I
 2010-04-11-1406-48S.COL___097                                                 6
 STAT SP IPHASW D HRMM SECON CODA AMPLIT PERI AZIMU VELO AIN AR TRES W  DIS CAZ7
 BAR2 SZ IP       14 8 40.58                             170     0.110   25 201 
 BAR2 SZ ES   1   14 8 55.16                             170    -0.7 7   25 201 
 BRR  HZ IP     C 14 8 42.66                             151     0.510   75 297 
 BRR  HN ES   1   14 8 59.15                             151     0.3 7   75 297 
 BRR  HZ I        14 9  0.61       202.7 0.14                            75 297 
 OCA  SZ EP       14 8 48.87                             130    -0.2 9  161 351 
 OCA  SZ ES   1   14 9 11.44                             130     0.2 7  161 351 
 OCA  SZ I        14 9 15.59       237.2 0.32                           161 351 
 CHI  HZ EP   1   14 8 58.99                             117     0.4 6  250 196 
 CHI  HN ES   2   14 9 28.44                             117     0.3 4  250 196 
 CHI  HZ I        14 9 31.86        37.0 0.35                           250 196 
 HEL  HZ EP       14 9  1.09                             114    -0.4 7  277 256 
 HEL  HZ I        14 9 38.88        49.4 0.40                           277 256 
 RREF BZ EP       14 9  7.47                             111     0.1 7  326 230 
 RREF BE ES   1   14 9 43.49                             111    -0.2 5  326 230 
 RREF BZ I        14 9 53.58        47.6 0.52                           326 230 
 DBB  SZ EP       14 9  8.19                             109    -0.6 7  344 274 
 TOL  SZ EP   1   14 9  9.70                             109     0.3 5  347 225 
 TOL  SZ ES   2   14 9 46.64                             109    -0.8 3  347 225 
 SDV  BZ EP       14 9 10.12                             108    -0.2 6  356  50 
 SDV  BZ I        14 9 11.16        36.6 0.12                           356  50 
 SDV  BE ES   3   14 9 48.00                             108    -1.0 2  356  50 
 ANIL BZ EP   1   14 9 11.82                             108     0.9 5  361 225 
 ANIL BN ES   1   14 9 49.93                             108    -0.2 5  361 225 
 ANIL BZ I        14 9 55.52        81.4 0.29                           361 225 
 PRA  HZ EP   1   14 9 14.40                             106    -0.2 4  395 210 
 PRA  HN ES   2   14 9 56.79                             106     0.2 3  395 210 
 PRA  HZ I        1410  2.05        42.8 0.62                           395 210 
                                                                                
