 2013  211 1357 14.2 L   6.324 -73.531123.3  RSN  5 0.4 1.4LRSN                1
 GAP=116        1.02       4.6     4.9  9.3  0.1038E+01  0.1322E+02  0.1124E+02E
 Epicentro: CONTRATACION - SANTANDER                                           3
 ACTION:UPD 13-03-12 09:32 OP:ep   STATUS:               ID:20130211135714 L   I
 2013-02-11-1350-00M.COL___240                                                 6
 STAT SP IPHASW D HRMM SECON CODA AMPLIT PERI AZIMU VELO AIN AR TRES W  DIS CAZ7
 BAR2 SZ EP       1357 32.02                             157   -0.0710 48.7  52 
 BAR2 SZ ES       1357 46.55                             157    0.5410 48.7  52 
 BAR2 SZ I        1357 46.60        14.6 0.52            163           48.7  52 
 RUS  HZ IP     D 1357 33.09                             149   -0.4710 68.7 134 
 RUS  HN ES       1357 48.11                             149   -0.5210 68.7 134 
 RUS  HN I        1357 51.30         3.1 0.40            151           68.7 134 
 PTB  HZ EP       1357 35.28                             137   -0.2910  105 283 
 PTB  HN ES       1357 52.22                             137    0.0110  105 283 
 PTB  HZ I        1357 55.46         3.6 0.52            139            105 283 
 PAM  SN ES   1   1358  0.06                             127    0.24 7  145  39 
 CHI  HZ EP   1   1357 44.91                             119    0.72 7  189 187 
 CHI  HN ES       1358  8.04                             119    0.48 9  189 187 
 CHI  HN I        1358 11.34         3.5 0.44            121            189 187 
                                                                                
