 2017  411 1152 55.5 L   6.784 -73.163139.2  RSN 16 0.4 2.2LRSN                1
 GAP=111        0.93       2.8     3.0  4.7  0.9861E+00  0.4182E+01  0.2917E+01E
 Epicentro: LOS SANTOS - SANTANDER                                             3
 ACTION:UPD 17-05-30 21:11 OP:jn   STATUS:               ID:20170411115255 L   I
 OLDACT:REG 17-04-11 19:26 OP:cara STATUS:               ID:20170411114742     3
 2017-04-11-1148-00M.COL___377                                                 6
 STAT SP IPHASW D HRMM SECON CODA AMPLIT PERI AZIMU VELO AIN AR TRES W  DIS CAZ7
 BAR2 EZ IP     C 1153 14.35                             171    0.0910 21.3 186 
 BAR2 EZ ES       1153 28.61                             171   -0.3210 21.3 186 
 BAR2 EZ I        1153 30.19        60.4 0.28            168           21.3 186 
 BRR  HZ EP     D 1153 16.27                             152    0.4210 70.4 301 
 BRR  HN ES       1153 32.03                             152    0.2710 70.4 301 
 BRR  HZ I        1153 36.35        38.5 0.16            151           70.4 301 
 PAM  EZ EP     C 1153 17.17                             149    0.0310 80.0  40 
 PAM  HN ES       1153 33.86                             149   -0.2010 80.0  40 
 PAM  EZ I        1153 36.62        40.2 0.56            154           80.0  40 
 RUS  HZ EP       1153 18.30                             143   -0.1510 99.0 175 
 RUS  HN ES       1153 36.84                             143    0.4510 99.0 175 
 RUS  HZ I        1153 37.82        16.9 0.32            143           99.0 175 
 PTB  HZ EP       1153 21.38                             131   -0.31 9  146 259 
 PTB  HN ES       1153 42.03                             131   -0.12 9  146 259 
 PTB  HZ I        1153 44.25        25.5 0.14            131            146 259 
 SPBC HZ EP   4   1153 24.89                             128    1.68 0  161 219 
 SPBC HN ES       1153 45.50                             128    0.64 9  161 219 
 SPBC HZ I        1153 51.18        26.8 0.22            128            161 219 
 YPLC HZ EP       1153 24.72                             125   -0.00 9  176 150 
 YPLC HN ES       1153 46.86                             125   -0.69 9  176 150 
 YPLC HZ I        1153 49.37        11.9 0.26            127            176 150 
 ZAR  HZ EP       1153 27.24                             121   -0.12 9  203 293 
 ZAR  HN ES       1153 52.19                             121   -0.06 9  203 293 
 ZAR  HZ I        1153 59.21        18.8 0.20            122            203 293 
 NOR  HZ EP       1153 31.03                             117    0.50 8  232 235 
 NOR  HN ES       1153 57.56                             117   -0.33 8  232 235 
 NOR  HZ I        1154  3.34        13.7 0.24            118            232 235 
 CHI  HZ EP       1153 33.38                             116    0.82 8  246 195 
 CHI  HN ES       1154  0.90                             116   -0.59 8  246 195 
 CHI  HZ I        1154  8.98         4.7 0.42            117            246 195 
 HEL  HZ EP   4   1153 36.14                             114    1.06 0  270 256 
 HEL  HN ES   4   1154  5.58                             114   -0.41 0  270 256 
 HEL  HZ I        1154 13.17         9.8 0.46            114            270 256 
 URE  HZ EP       1153 35.98                             112   -0.11 7  283 292 
 URE  HE ES   4   1154  6.07                             112   -1.71 0  283 292 
 URE  HZ I        1154  8.02        11.1 0.14            114            283 292 
 CBOC HZ EP       1153 41.40                             109   -0.43 7  331 252 
 CBOC HN ES       1154 17.29                             109   -0.71 7  331 252 
 CBOC HZ I        1154 21.47         3.4 0.18            110            331 252 
 DBB  EZ EP   4   1153 42.82                             108    0.36 0  338 275 
 DBB  EN ES   4   1154 17.16                             108   -1.97 0  338 275 
 DBB  EZ I        1154 21.43         7.4 0.42            109            338 275 
 PRA  HZ EP       1153 48.85                             105    0.39 6  390 209 
 PRA  HE ES       1154 30.13                             105    0.32 6  390 209 
 PRA  HZ I        1154 37.27         6.3 0.52            107            390 209 
 SJC  HZ EP   4   1153 48.56                             105   -2.30 0  410 327 
 SJC  HE ES   4   1154 29.54                             105   -4.53 0  410 327 
 SJC  HZ I        1154 34.35         3.5 0.72            106            410 327 
                                                                                
