 2017 1011 1100 12.8 L   6.792 -73.199139.0  RSN  5 0.2 1.6LRSN                1
 GAP=130        0.52       2.4     2.9  4.4 -0.1290E+01  0.4329E+01 -0.2577E+00E
 Epicentro: ZAPATOCA - SANTANDER                                               3
 ACTION:UPD 17-11-07 19:30 OP:rebc STATUS:               ID:20171011110013dL   I
 2017-10-11-1058-00M.COL___432                                                 6
 STAT SP IPHASW D HRMM SECON CODA AMPLIT PERI AZIMU VELO AIN AR TRES W  DIS CAZ7
 BAR2 EZ EP       11 0 31.56                             170   -0.0010 22.2 175 
 BAR2 EZ ES       11 0 45.90                             170   -0.3210 22.2 175 
 PAM  EZ EP       11 0 34.33                             148   -0.2210 81.9  42 
 PAM  EE ES       11 0 51.82                             148    0.2710 81.9  42 
 PAM  EZ I        11 0 53.92        11.9 0.79            150           81.9  42 
 RUS  HZ EP       11 0 35.78                             142   -0.0610  100 173 
 RUS  HN ES       11 0 54.05                             142    0.2110  100 173 
 RUS  HZ I        11 0 55.22         4.1 0.18            144            100 173 
 SPBC HZ EP       11 0 40.41                             128    0.07 9  159 218 
 SPBC HN ES       11 1  1.84                             128   -0.00 9  159 218 
 SPBC HZ I        11 1  4.80         5.6 0.11            130            159 218 
 ZAR  HN ES       11 1  8.87                             122    0.08 9  199 293 
                                                                                
