 2016  211 1534 59.1 L   6.746 -73.130142.0  RSN  5 0.5 1.6LRSN                1
 GAP=141        0.78       7.2     8.2 10.6 -0.2823E+02  0.3851E+02 -0.5814E+01E
 Epicentro: LOS SANTOS - SANTANDER                                             3
 ACTION:UPD 16-03-04 21:25 OP:rebc STATUS:               ID:20160211153459 L   I
 OLDACT:REG 16-02-11 20:37 OP:dnl  STATUS:               ID:20160211152749     3
 2016-02-11-1527-49M.COL___316                                                 6
 STAT SP IPHASW D HRMM SECON CODA AMPLIT PERI AZIMU VELO AIN AR TRES W  DIS CAZ7
 BAR2 EZ EP   2   1535 18.26                             172    0.12 5 17.9 199 
 BAR2 EZ ES   2   1535 34.00                             172    0.98 5 17.9 199 
 BAR2 EZ I        1535 35.19        10.0 0.20            170           17.9 199 
 PAM  EZ EP       1535 20.99                             149   -0.1110 81.0  36 
 PAM  EN ES       1535 38.34                             149    0.0510 81.0  36 
 PAM  EZ I        1535 40.69         6.1 0.15            154           81.0  36 
 RUS  HZ EP   4   1535 24.39                             145    2.39 0 94.5 177 
 RUS  HE ES   2   1535 38.97                             145   -0.93 5 94.5 177 
 RUS  HZ I        1535 42.43         5.1 0.20            149           94.5 177 
 ZAR  HZ EP   4   1535 34.34                             121    2.67 0  208 293 
 ZAR  HE ES   2   1535 56.41                             121   -0.70 4  208 293 
 ZAR  HZ I        1536  1.97         7.4 0.16            122            208 293 
 GUY2CHZ EP   2   1535 43.05                             112    0.78 4  299 236 
 GUY2CHE ES   2   1536 16.31                             112    0.33 4  299 236 
 GUY2CHZ I        1536 25.95         2.0 0.34                           299 236 
                                                                                
