 2017  411 1219 41.2 L   6.732 -73.146139.3  RSN  6 0.2 1.6LRSN                1
 GAP=139        0.67       3.2     2.9  4.5  0.8775E+00  0.3545E+01 -0.7966E+00E
 Epicentro: JORDAN - SANTANDER                                                 3
 ACTION:UPD 17-05-30 21:11 OP:jn   STATUS:               ID:20170411121941 L   I
 OLDACT:REG 17-04-11 19:28 OP:cara STATUS:               ID:20170411121742     3
 2017-04-11-1218-00M.COL___377                                                 6
 STAT SP IPHASW D HRMM SECON CODA AMPLIT PERI AZIMU VELO AIN AR TRES W  DIS CAZ7
 BAR2 EZ IP       1220  0.20                             173    0.2910 16.0 195 
 BAR2 EZ ES       1220 14.13                             173   -0.3810 16.0 195 
 BAR2 EZ I        1220 17.26        12.6 0.32            173           16.0 195 
 BRR  HZ EP       1220  2.10                             150    0.2310 75.1 304 
 BRR  HN ES       1220 18.39                             150    0.3810 75.1 304 
 BRR  HZ I        1220 20.91         8.7 0.14            150           75.1 304 
 PAM  EZ EP     C 1220  3.25                             148    0.1510 83.3  36 
 PAM  EN ES       1220 19.92                             148   -0.2710 83.3  36 
 PAM  EZ I        1220 21.27         3.7 0.24            151           83.3  36 
 RUS  HZ EP       1220  3.66                             145   -0.1010 93.1 176 
 RUS  HN ES       1220 21.57                             145    0.2010 93.1 176 
 RUS  HZ I        1220 23.67         6.4 0.44            147           93.1 176 
 PTB  HZ EP       1220  7.22                             131   -0.30 9  146 262 
 PTB  HN ES       1220 27.97                             131   -0.08 9  146 262 
 PTB  HZ I        1220 30.03         6.2 0.14            132            146 262 
 ZAR  HZ EP       1220 13.31                             120   -0.22 8  207 294 
 ZAR  HN ES       1220 38.74                             120   -0.01 8  207 294 
 ZAR  HZ I        1220 44.53         8.0 0.34            122            207 294 
                                                                                
