 2013  511 1440 25.5 L   6.821 -73.169149.8  RSN 20 0.5 3.0LRSN 3.6WRSN        1
 SPEC AVERAGE  MO 14.5 ST 43.7 OM  3.2 f0 4.52 R0.3874 AL 3.15 WI 82.3 MW  3.6 3
 SPEC SD       MO  0.2 ST 36.3 OM  0.5 f0 1.47 R0.1367 AL      WI      MW  0.1 3
 GAP= 55        0.96       2.6     3.2  4.4 -0.4648E+00  0.3233E+01 -0.1686E-01E
 Epicentro: LOS SANTOS - SANTANDER                                             3
 SPEC TAM HH N MO 14.4 ST  6.3 OM  2.7 f0 2.70 R0.5756 AL 1.96 WI 71.0 MW  3.6 3
 SPEC TAM HH N T144113 K 0.000 GD  217 VS 4.20 DE 3.20 Q0300.0 QA 0.60 VS 4.20 3
 SPEC RUS HH E MO 14.2 ST 30.2 OM  2.5 f0 5.65 R0.2750 AL 4.13 WI 92.2 MW  3.4 3
 SPEC RUS HH E T1441 6 K 0.000 GD  181 VS 4.20 DE 3.20 Q0300.0 QA 0.60 VS 4.20 3
 SPEC OCA HH N MO 14.8 ST 93.3 OM  3.1 f0 4.89 R0.3178 AL 2.74 WI 82.8 MW  3.8 3
 SPEC OCA HH N T144115 K 0.000 GD  217 VS 4.20 DE 3.20 Q0300.0 QA 0.60 VS 4.20 3
 SPEC CHI HH N MO 14.5 ST  8.7 OM  2.6 f0 2.95 R0.5268 AL 2.37 WI109.2 MW  3.6 3
 SPEC CHI HH N T144131 K 0.000 GD  291 VS 4.20 DE 3.20 Q0300.0 QA 0.60 VS 4.20 3
 SPEC BRR HH N MO 14.4 ST 79.9 OM  2.8 f0 6.42 R0.2421 AL 4.55 WI 56.5 MW  3.6 3
 SPEC BRR HH N T1441 4 K 0.000 GD  164 VS 4.20 DE 3.20 Q0300.0 QA 0.60 VS 4.20 3
 ACTION:UPD 13-06-20 09:49 OP:ep   STATUS:               ID:20130511144025 L   I
 2013-05-11-1440-00M.COL___256                                                 6
 STAT SP IPHASW D HRMM SECON CODA AMPLIT PERI AZIMU VELO AIN AR TRES W  DIS CAZ7
 BAR2 SZ IP     C 1440 45.81                             170    0.1210 25.3 183 
 BAR2 SZ ES       1441  1.24                             170   -0.1710 25.3 183 
 BAR2 SZ I        1441  3.66       224.2 0.30            162           25.3 183 
 GIR2 SZ EP     C 1440 45.84                             168    0.2210 28.6 355 
 GIR2 SZ ES       1441  1.55                             168    0.2610 28.6 355 
 GIR2 SZ I        1441  4.20        79.3 0.47            162           28.6 355 
 BRR  HZ IP     C 1440 47.62                             154    0.6810 67.8 298 
 BRR  HN ES   4   1441  5.14                             154    1.51 0 67.8 298 
 BRR  HZ I        1441 12.57        84.1 0.20            143           67.8 298 
 PAM  SZ EP     C 1440 48.47                             152    0.2910 77.3  42 
 PAM  SZ I        1440 48.78       255.0 0.20            155           77.3  42 
 PAM  SN ES       1441  5.92                             152    0.0810 77.3  42 
 RUS  HZ IP     D 1440 49.60                             144   -0.2610  103 175 
 RUS  HE ES       1441  8.56                             144   -0.2810  103 175 
 RUS  HZ I        1441 11.23       112.5 0.34            139            103 175 
 PTB  HZ EP       1440 52.38                             133   -0.27 9  146 258 
 PTB  HN ES   1   1441 13.94                             133    0.14 7  146 258 
 PTB  HZ I        1441 19.66       175.4 0.46            124            146 258 
 TAM  HZ IP     C 1440 53.90                             131    0.08 9  158 106 
 TAM  HZ I        1440 54.02       159.1 0.34            132            158 106 
 OCA  HZ EP       1440 54.31                             131    0.39 9  158 354 
 OCA  HE ES   2   1441 16.33                             131    0.27 5  158 354 
 OCA  HZ I        1441 21.52       157.7 0.44            126            158 354 
 TAM  HN ES       1441 15.67                             131   -0.21 9  158 106 
 YOP  SZ EP       1440 55.77                             127   -0.42 9  182 153 
 NOR  HZ EP       1441  1.49                             120    0.07 8  234 234 
 NOR  HN ES   1   1441 29.93                             120    0.52 6  234 234 
 NOR  HZ I        1441 33.49       139.8 0.22            113            234 234 
 SML  HZ EP   1   1441  2.64                             119    0.60 6  241 336 
 SML  HN ES   1   1441 30.46                             119   -0.06 6  241 336 
 SML  HZ I        1441 34.32       153.9 0.10            114            241 336 
 CHI  HZ EP       1441  3.66                             118    0.03 8  250 194 
 CHI  HZ I        1441  5.92        51.3 0.16            113            250 194 
 CHI  HN ES       1441 32.81                             118   -0.53 8  250 194 
 ROSC BZ EP   4   1441  5.26                             118    1.31 0  253 210 
 ROSC BZ I        1441 43.39       126.6 0.40            112            253 210 
 HEL  HZ EP   1   1441  6.47                             116    0.73 6  270 255 
 HEL  HZ I        1441 43.95        45.3 0.28            110            270 255 
 URE  HZ EP   1   1441  5.53                             115   -0.91 6  281 292 
 URE  HE ES   1   1441 36.61                             115   -1.73 6  281 292 
 URE  HZ I        1441 50.73        54.5 0.20            109            281 292 
 VIL  SZ EP   2   1441  9.53                             113    0.19 4  305 191 
 COD  HZ EP       1441 13.46                             110   -0.32 6  346 355 
 COD  HN ES   1   1441 50.89                             110   -0.52 5  346 355 
 COD  HZ I        1441 58.19        20.5 0.60            106            346 355 
 SDV  BZ EP       1441 15.10                             109   -0.69 6  361  51 
 SDV  BZ I        1441 15.90        34.8 0.30            107            361  51 
 SDV  BE ES   4   1441 52.88                             109   -2.11 0  361  51 
 PRA  HZ EP   1   1441 19.07                             107   -0.21 4  393 209 
 PRA  HN ES   1   1442  2.60                             107    1.39 4  393 209 
 PRA  HZ I        1442  6.45        48.6 0.52            103            393 209 
 SJC  HZ EP   4   1441 19.52                             107   -1.32 0  406 327 
 SJC  HN ES   4   1442  1.24                             107   -2.73 0  406 327 
 SJC  HZ I        1442  5.75        21.4 0.30            103            406 327 
                                                                                
