 2010  611 1241 25.6 L   6.889 -73.360132.0  RSN  5 0.5 1.5LRSN                1
 GAP=197        0.83       4.5    27.5 12.7 -0.1194E+02  0.1413E+03 -0.1831E+02E
 Epicentro: SAN VICENTE DE CHUCURI - SANTANDER                                 3
 ACTION:UP  10-08-24 10:09 OP:vdl  STATUS:               ID:20100611124125 L   I
 2010-06-11-1238-55S.COL___117                                                 6
 STAT SP IPHASW D HRMM SECON CODA AMPLIT PERI AZIMU VELO SNR AR TRES W  DIS CAZ7
 BAR2 SZ EP   2   1241 43.89                             164    -0.1 5   38 149 
 BAR2 SZ ES   2   1241 58.89                             164     0.6 5   38 149 
 RUS  HZ EP       1241 48.87                             138    -0.210  114 164 
 RUS  HN ES   1   1242  7.51                             138     0.1 7  114 164 
 RUS  HZ I        1242  9.82         3.6 0.22                           114 164 
 GUE  SZ EP       1241 48.61                             137    -0.310  115  25 
 GRA  SZ EP   3   1241 49.92                             134     0.3 2  126  29 
 GRA  SZ ES   2   1242  8.76                             134     0.4 5  126  29 
 OCA  SZ EP   1   1241 52.54                             129     0.8 7  149   2 
 OCA  SZ ES   2   1242 11.31                             129    -0.9 5  149   2 
 OCA  SZ I        1242 14.34         7.0 0.21                           149   2 
                                                                                
