 2010  911 1131 11.6 L   6.819 -73.061142.5  RSN 13 0.4 2.3LRSN                1
 GAP=168        0.79       3.9     7.3  6.5 -0.1270E+02  0.9722E+01  0.3776E+01E
 Epicentro: LOS SANTOS - SANTANDER                                             3
 ACTION:UP  11-02-18 11:02 OP:tino STATUS:               ID:20100911113111 L   I
 2010-09-11-1128-17S.COL___120                                                 6
 STAT SP IPHASW D HRMM SECON CODA AMPLIT PERI AZIMU VELO SNR AR TRES W  DIS CAZ7
 BAR2 SZ IP     C 1131 31.08                             168     0.110   29 208 
 BAR2 SZ ES   2   1131 46.34                             168     0.3 5   29 208 
 BAR2 SZ I        1131 47.12        24.0 0.29                            29 208 
 GIR2 SZ EP   1   1131 30.76                             167    -0.1 7   32 333 
 GIR2 SZ ES   2   1131 45.70                             167    -0.3 5   32 333 
 BRR  HZ EP   1   1131 32.68                             150    -0.2 7   79 294 
 BRR  HE ES   2   1131 49.47                             150     0.1 5   79 294 
 BRR  HZ I        1131 53.63        39.5 0.19                            79 294 
 RUS  HZ EP   1   1131 35.25                             142     0.1 7  103 181 
 RUS  HN ES   2   1131 52.95                             142    -0.6 5  103 181 
 RUS  HZ I        1131 55.28        10.6 0.38                           103 181 
 GUE  SZ EP   1   1131 35.29                             140    -0.4 7  113   8 
 GRA  SZ IP     C 1131 36.44                             137     0.310  121  14 
 GRA  SZ ES   2   1131 55.92                             137     0.6 5  121  14 
 GRA  SZ I        1131 56.66        30.7 0.35                           121  14 
 OCA  SZ EP   1   1131 39.12                             129    -0.5 7  160 350 
 OCA  SZ ES   2   1132  1.42                             129     0.0 5  160 350 
 OCA  SZ I        1132  5.70        24.0 0.28                           160 350 
 CHI  HZ EP   1   1131 49.75                             116     0.1 6  253 197 
 CHI  HE ES   2   1132 18.98                             116    -0.3 4  253 197 
 CHI  HZ I        1132 26.82         8.3 0.74                           253 197 
 ROSC BZ EP   1   1131 51.21                             115     0.9 6  259 213 
 HEL  HZ EP   1   1131 52.15                             113    -0.6 6  282 256 
 HEL  HZ I        1132 30.23         9.6 0.62                           282 256 
 GUY  SZ EP   1   1131 56.68                             111     0.6 5  310 236 
 GUY  SN ES   2   1132 31.49                             111     0.7 4  310 236 
 GUY  SZ I        1132 37.57        22.1 0.39                           310 236 
 RREF HZ EP   1   1131 57.72                             110    -0.8 5  330 230 
 RREF HE ES   2   1132 35.41                             110     0.2 3  330 230 
 RREF HZ I        1132 43.19         8.8 0.23                           330 230 
 PRA  HZ EP   1   1132  5.45                             106    -0.3 4  399 211 
 PRA  HE ES   2   1132 47.95                             106    -0.1 3  399 211 
 PRA  HZ I        1132 52.18        12.1 0.30                           399 211 
                                                                                
