 2017 1211 1718 54.1 L   6.387 -73.651103.5  RSN 14 0.5 2.1LRSN                1
 GAP= 55        0.82       2.0     2.2  5.6 -0.6556E+00 -0.7601E+00 -0.3520E+00E
 Epicentro: SANTA HELENA DEL OPON - SANTANDER                                  3
 ACTION:UPD 18-01-04 13:19 OP:rebc STATUS:               ID:20171211171854 L   I
 OLDACT:UP  17-12-12 01:28 OP:mg   STATUS:               ID:20171211170424     3
 OLDACT:REG 17-12-11 22:23 OP:mg   STATUS:               ID:20171211170424     3
 2017-12-11-1718-00M.COL___479                                                 6
 STAT SP IPHASW D HRMM SECON CODA AMPLIT PERI AZIMU VELO AIN AR TRES W  DIS CAZ7
 BAR2 EZ EP       1719 10.42                             149    0.2310 56.6  66 
 BAR2 EZ ES   2   1719 23.02                             149    0.26 5 56.6  66 
 BAR2 EZ I        1719 24.64       144.4 0.46            150           56.6  66 
 PTB  HZ EP       1719 12.44                             135    0.0010 90.7 281 
 PTB  HN ES   1   1719 27.06                             135    0.30 7 90.7 281 
 PTB  HZ I        1719 28.18        15.3 0.07            134           90.7 281 
 SPBC HZ EP       1719 12.56                             134   -0.2510 93.7 210 
 SPBC HN ES       1719 27.03                             134   -0.3910 93.7 210 
 SPBC HZ I        1719 29.27        25.3 0.09            133           93.7 210 
 PAM  EZ EP       1719 18.55                             120   -0.16 9  149  45 
 PAM  EN ES       1719 37.64                             120   -0.28 9  149  45 
 PAM  EZ I        1719 39.23        11.8 0.34            121            149  45 
 YPLC HZ EP       1719 21.53                             115    0.16 9  178 128 
 YPLC HN ES       1719 42.87                             115    0.21 9  178 128 
 YPLC HZ I        1719 45.21        38.3 0.28            115            178 128 
 ZAR  HZ EP       1719 21.58                             114    0.01 9  181 313 
 ZAR  HE ES       1719 43.31                             114    0.30 9  181 313 
 ZAR  HZ I        1719 48.15        22.6 0.20            114            181 313 
 CHI  HZ EP       1719 23.28                             113   -0.34 9  195 183 
 CHI  HN ES   2   1719 47.65                             113    0.99 4  195 183 
 CHI  HZ I        1719 50.17         4.9 0.26            112            195 183 
 TAM  HZ EP       1719 24.30                             111   -0.12 8  206  88 
 OCA  HZ EP       1719 24.53                             111   -0.28 8  208  10 
 OCA  HN ES       1719 48.95                             111    0.17 8  208  10 
 OCA  HZ I        1719 54.72        49.8 0.24            111            208  10 
 GUY2CHZ EP   1   1719 28.29                             109    0.63 6  229 236 
 GUY2CHN ES       1719 53.80                             109   -0.05 8  229 236 
 GUY2CHZ I        1719 58.63         8.6 0.39                           229 236 
 URE  HZ EP   2   1719 28.79                             106   -1.51 4  257 306 
 URE  HN ES   3   1719 55.76                             106   -2.79 2  257 306 
 URE  HZ I        1719 59.39         7.3 0.18            105            257 306 
 ORTC HN ES   2   1720 14.31                             101    1.06 3  326 213 
 ORTC HZ I        1720 22.02         4.4 0.29            100            326 213 
 PRA  HZ EP       1719 38.06                             101   -0.46 7  326 205 
 PRA  HN ES   2   1720 14.05                             101    0.87 3  326 205 
 PRA  HZ I        1720 21.42         6.8 0.17            100            326 205 
 ORTC HZ EP   2   1719 39.48                             101    0.93 3  326 213 
 DRL03HZ EP       1719 39.90                             100    0.61 7  333   3 
 DRL03HE ES   4   1720 16.75                             100    2.19 0  333   3 
                                                                                
