 2016 1211 1017 52.8 L   6.790 -73.392118.1  RSN  5 0.5 1.4LRSN                1
 GAP=179        1.27       8.1     7.3  9.3  0.3686E+02  0.1953E+02  0.7108E+01E
 Epicentro: SAN VICENTE DE CHUCURI - SANTANDER                                 3
 ACTION:UPD 17-01-11 20:14 OP:rebc STATUS:               ID:20161211101752 L   I
 OLDACT:REG 16-12-11 20:55 OP:dnl  STATUS:               ID:20161211100748     3
 2016-12-11-1008-00M.COL___373                                                 6
 STAT SP IPHASW D HRMM SECON CODA AMPLIT PERI AZIMU VELO AIN AR TRES W  DIS CAZ7
 BAR2 EZ EP     C 1018  9.07                             164   -0.2910 31.9 133 
 BAR2 EZ ES       1018 22.06                             164   -0.2210 31.9 133 
 BRR  HZ EP       1018  9.43                             156   -0.3310 49.8 315 
 BRR  HN ES       1018 23.31                             156    0.3210 49.8 315 
 BRR  HZ I        1018 24.37         8.2 0.34            153           49.8 315 
 RUS  HZ EP       1018 14.02                             136   -0.2910  105 161 
 RUS  HN ES       1018 31.72                             136    0.6310  105 161 
 PTB  HZ EP       1018 15.83                             131    0.7510  121 257 
 PTB  HN ES       1018 31.63                             131   -0.8210  121 257 
 PTB  HZ I        1018 36.12         3.4 0.36            129            121 257 
 ZAR  HZ EP       1018 20.71                             119   -0.24 9  180 296 
 ZAR  HN ES       1018 43.47                             119    0.56 9  180 296 
 ZAR  HZ I        1018 48.05         4.1 0.28            119            180 296 
                                                                                
