 2017 1111 1029 22.7 L   6.692 -73.146144.0  RSN  6 0.4 1.5LRSN                1
 GAP=203        0.65       6.3     5.3  6.2  0.2041E+02  0.1235E+02  0.1662E+02E
 Epicentro: VILLANUEVA - SANTANDER                                             3
 ACTION:UPD 17-12-12 19:54 OP:rebc STATUS:               ID:20171111102922 L   I
 OLDACT:UP  17-11-11 21:45 OP:mg   STATUS:               ID:20171111102741     3
 OLDACT:REG 17-11-11 20:24 OP:mg   STATUS:               ID:20171111102741     3
 2017-11-11-1028-00M.COL___440                                                 6
 STAT SP IPHASW D HRMM SECON CODA AMPLIT PERI AZIMU VELO AIN AR TRES W  DIS CAZ7
 BAR2 EZ EP       1029 42.02                             175    0.1110 11.8 200 
 BAR2 EZ ES   1   1029 56.84                             175   -0.08 7 11.8 200 
 BAR2 EZ I        1029 57.74        10.6 0.18            171           11.8 200 
 BRR  HZ EP   1   1029 43.95                             150   -0.05 7 77.6 306 
 BRR  HN ES       1030  0.84                             150    0.2010 77.6 306 
 BRR  HZ I        1030  1.90         6.1 0.20            151           77.6 306 
 PTB  HZ EP       1029 48.84                             132   -0.48 9  146 263 
 PTB  HN ES   2   1030  9.30                             132   -0.81 5  146 263 
 PTB  HZ I        1030 12.07         2.5 0.18            131            146 263 
 YPLC HZ EP   2   1029 51.15                             128   -0.18 5  166 149 
 YPLC HN ES   2   1030 13.68                             128   -0.01 5  166 149 
 YPLC HZ I        1030 18.25         4.4 0.29            128            166 149 
 ZAR  HZ EP   2   1029 55.70                             121    0.21 4  209 295 
 ZAR  HN ES       1030 21.14                             121    0.04 8  209 295 
 ZAR  HZ I        1030 25.52         2.2 0.09            122            209 295 
 NOR  HZ EP   1   1029 58.09                             119    0.51 6  228 237 
 NOR  HN ES   2   1030 25.66                             119    0.86 4  228 237 
 NOR  HZ I        1030 27.27         1.6 0.16            118            228 237 
                                                                                
