 2015  711 1821 11.2 L   6.829 -73.165144.3  RSN  6 0.3 2.2LRSN                1
 GAP=133        0.75       2.7     4.5  5.7 -0.3380E-01  0.1045E+02  0.1348E+01E
 Epicentro: LOS SANTOS - SANTANDER                                             3
 ACTION:UPD 15-09-08 21:48 OP:cam  STATUS:               ID:20150711182111 L   I
 OLDACT:UP  15-07-12 01:27 OP:ar   STATUS:               ID:20150711181750     3
 OLDACT:REG 15-07-11 22:40 OP:ar   STATUS:               ID:20150711181750     3
 2015-07-11-1817-50M.COL___343                                                 6
 STAT SP IPHASW D HRMM SECON CODA AMPLIT PERI AZIMU VELO AIN AR TRES W  DIS CAZ7
 BAR2 EZ EP       1821 30.49                             169   -0.1810 26.2 184 
 BAR2 EZ ES       1821 45.66                             169   -0.2310 26.2 184 
 BAR2 EZ I        1821 48.13        36.9 0.28            168           26.2 184 
 PAM  EZ EP       1821 33.43                             151    0.2810 76.3  42 
 PAM  EN ES       1821 50.69                             151    0.3910 76.3  42 
 PAM  EZ I        1821 52.59        31.9 0.48            156           76.3  42 
 RUS  HZ EP   2   1821 34.99                             143   -0.01 5  104 175 
 RUS  HN ES   2   1821 52.85                             143   -0.75 5  104 175 
 RUS  HZ I        1821 54.30        20.6 0.36            146            104 175 
 OCA  HZ EP       1821 38.92                             130   -0.11 9  157 354 
 OCA  HN ES       1822  0.46                             130   -0.31 9  157 354 
 OCA  HZ I        1822  6.90        34.0 0.44            131            157 354 
 ZAR  HZ EP       1821 42.94                             122   -0.24 9  201 292 
 ZAR  HN ES       1822  8.56                             122    0.40 9  201 292 
 ZAR  HZ I        1822 17.08        15.5 0.26            122            201 292 
 CHI  HZ EP       1821 48.81                             116   -0.24 8  251 195 
 CHI  HN ES       1822 19.11                             116    0.51 8  251 195 
 CHI  HZ I        1822 24.16         8.2 0.32            119            251 195 
                                                                                
