 2017  711 1552  1.5 L   6.770 -73.144141.8  RSN  8 0.5 2.0LRSN                1
 GAP=210        1.07       5.9     4.4  7.7  0.1017E+02  0.1002E+02  0.1680E+02E
 Epicentro: LOS SANTOS - SANTANDER                                             3
 ACTION:UPD 17-08-30 15:32 OP:rebc STATUS:               ID:20170711155201 L   I
 OLDACT:REG 17-07-11 21:05 OP:dhb  STATUS:               ID:20170711154734     3
 2017-07-11-1548-00M.COL___377                                                 6
 STAT SP IPHASW D HRMM SECON CODA AMPLIT PERI AZIMU VELO AIN AR TRES W  DIS CAZ7
 BAR2 EZ IP     D 1552 20.45                             171   -0.0910 20.1 192 
 BAR2 EZ ES       1552 34.83                             171   -0.6010 20.1 192 
 BAR2 EZ I        1552 38.29        33.7 0.40            174           20.1 192 
 BRR  HZ EP       1552 22.25                             151   -0.0310 73.0 301 
 BRR  HE ES       1552 39.31                             151    0.7910 73.0 301 
 BRR  HZ I        1552 48.40        20.3 0.41            151           73.0 301 
 PTB  HZ EP       1552 27.58                             131   -0.48 9  147 260 
 PTB  HN ES       1552 48.55                             131   -0.26 9  147 260 
 PTB  HZ I        1552 49.80         8.8 0.10            134            147 260 
 YPLC HZ EP       1552 31.00                             126    0.33 9  174 151 
 YPLC HN ES       1552 53.80                             126    0.35 9  174 151 
 YPLC HZ I        1552 55.40        15.5 0.30            131            174 151 
 ZAR  HZ EP   2   1552 34.12                             121    0.33 4  206 293 
 ZAR  HN ES       1552 58.90                             121   -0.12 8  206 293 
 ZAR  HZ I        1553  5.73         8.3 0.13            124            206 293 
 NOR  HZ EP       1552 36.09                             118   -0.68 8  233 235 
 NOR  HE ES       1553  4.52                             118    0.21 8  233 235 
 NOR  HZ I        1553  6.35         9.7 0.15            121            233 235 
 GUY2CHZ EP   4   1552 45.71                             112    1.03 0  299 235 
 GUY2CHN ES       1553 18.33                             112   -0.08 7  299 235 
 GUY2CHZ I        1553 27.02         8.1 0.30                           299 235 
 CBOC HZ EP   4   1552 48.03                             109   -0.08 0  333 253 
 CBOC HN ES       1553 25.39                             109    0.88 7  333 253 
 CBOC HZ I        1553 30.16         2.2 0.27            112            333 253 
                                                                                
