 2013  811 1249 56.0 L   6.845 -73.127145.7  RSN 14 0.5 2.4LRSN                1
 GAP=137        1.23       3.5     5.0  6.3 -0.2553E+01  0.8187E+01  0.2817E+01E
 Epicentro: LOS SANTOS - SANTANDER                                             3
 ACTION:UPD 14-01-14 09:01 OP:ep   STATUS:               ID:20130811124956 L   I
 OLDACT:REG 13-08-11 17:13 OP:jn   STATUS:               ID:20130811124959     3
 2013-08-11-1249-59M.COL___271                                                 6
 STAT SP IPHASW D HRMM SECON CODA AMPLIT PERI AZIMU VELO AIN AR TRES W  DIS CAZ7
 GIR2 SZ EP       1250 15.66                             169    0.1010 26.8 344 
 GIR2 SZ ES       1250 30.12                             169   -0.6910 26.8 344 
 GIR2 SZ I        1250 32.58        43.0 0.46            165           26.8 344 
 BAR2 SZ EP       1250 15.88                             168    0.1310 28.6 192 
 BAR2 SZ ES       1250 30.83                             168   -0.3210 28.6 192 
 BAR2 SZ I        1250 32.43        35.3 0.26            162           28.6 192 
 BRR  HZ EP       1250 17.46                             153    0.3410 70.8 294 
 BRR  HN ES       1250 34.26                             153    0.6610 70.8 294 
 BRR  HZ I        1250 37.80        77.3 0.56            142           70.8 294 
 PAM  SZ EP       1250 18.25                             153    0.3310 72.2  41 
 PAM  SN ES       1250 35.35                             153    0.3410 72.2  41 
 PAM  SZ I        1250 37.34        48.1 0.48            145           72.2  41 
 RUS  HZ EP   1   1250 20.22                             142    0.11 7  105 177 
 RUS  HN ES       1250 39.17                             142    0.2610  105 177 
 RUS  HZ I        1250 40.66        10.8 0.30            131            105 177 
 PTB  HZ EP       1250 22.53                             131   -0.71 9  151 257 
 PTB  HN ES       1250 44.68                             131    0.19 9  151 257 
 PTB  HZ I        1250 49.93        20.9 0.10            119            151 257 
 OCA  HZ EP       1250 23.55                             131   -0.32 9  156 352 
 OCA  HN ES       1250 44.49                             131   -1.11 9  156 352 
 OCA  HZ I        1250 51.91        24.1 0.48            120            156 352 
 SPBC HN ES   1   1250 47.50                             128   -0.10 7  168 218 
 SPBC HZ I        1250 53.03        33.1 0.48            116            168 218 
 ZAR  HN ES       1250 54.56                             122    0.80 9  204 291 
 ZAR  HZ I        1250 59.50        75.4 0.28            112            204 291 
 NOR  HZ EP       1250 32.39                             118    0.17 8  239 234 
 NOR  HN ES       1250 59.54                             118   -0.93 8  239 234 
 NOR  HZ I        1251  2.40        16.1 0.22            108            239 234 
 SML  HE ES   1   1251  1.41                             118    0.93 6  240 334 
 CHI  HZ EP   1   1250 34.78                             116    0.50 6  254 195 
 CHI  HN ES       1251  4.26                             116    0.12 8  254 195 
 CHI  HZ I        1251 11.86        10.3 0.44            107            254 195 
 HEL  HZ EP   1   1250 35.93                             114   -0.64 6  275 255 
 HEL  HZ I        1251 14.82        10.0 0.26            105            275 255 
 PRA  HZ EP       1250 50.23                             106    0.08 6  397 209 
 PRA  HZ I        1251 41.44         9.2 0.62             98            397 209 
                                                                                
