 2011 1111 1056  1.0 L   6.776 -73.116148.0  RSN  4 0.1 1.4LRSN                1
 GAP=239        0.35       4.8     5.6  3.8  0.2233E+02 -0.3285E+01 -0.3066E+01E
 Epicentro: LOS SANTOS - SANTANDER                                             3
 ACTION:UPD 12-07-13 16:09 OP:ep   STATUS:               ID:20111111105601 L   I
 2011-11-11-1053-48S.COL___178                                                 6
 STAT SP IPHASW D HRMM SECON CODA AMPLIT PERI AZIMU VELO AIN AR TRES W  DIS CAZ7
 BAR2 SZ EP       1056 20.78                             171   -0.0610 21.6 200 
 BAR2 SZ I        1056 21.31         4.9 0.30                          21.6 200 
 BAR2 SZ ES   1   1056 36.34                             171    0.00 7 21.6 200 
 BRR  HZ EP       1056 22.77                             151    0.1710 75.3 299 
 BRR  HE ES       1056 39.39                             151   -0.0810 75.3 299 
 BRR  HZ I        1056 44.91         5.0 0.16                          75.3 299 
 RUS  HZ EP   1   1056 24.62                             145   -0.13 7 97.8 178 
 RUS  HE ES   1   1056 43.39                             145    0.09 7 97.8 178 
 RUS  HZ I        1056 45.36         2.4 0.21                          97.8 178 
 ZAR  HN ES   1   1056 59.71                             122   -0.01 6  208 292 
 ZAR  HZ I        1057  5.11         2.6 0.24                           208 292 
                                                                                
