 2011  711 1919 49.7 L   6.767 -73.106145.8  RSN 11 0.4 2.6LRSN                1
 GAP=143        0.68       2.7     4.1  5.4 -0.3563E+01  0.5169E+01  0.3895E+01E
 Epicentro: LOS SANTOS - SANTANDER                                             3
 ACTION:UPD 12-07-25 14:00 OP:epov STATUS:               ID:20110711191949 L   I
 2011-07-11-1918-45S.COL___116                                                 6
 STAT SP IPHASW D HRMM SECON CODA AMPLIT PERI AZIMU VELO AIN AR TRES W  DIS CAZ7
 BRR  HZ EP       1920 11.33                             151    0.1310 76.8 299 
 BRR  HN ES   1   1920 28.43                             151    0.47 7 76.8 299 
 BRR  HZ I        1920 30.84        76.7 0.13                          76.8 299 
 PAM  SZ EP   1   1920 12.08                             151    0.12 7 77.6  35 
 PAM  SE ES   1   1920 29.06                             151   -0.24 7 77.6  35 
 RUS  HZ EP       1920 13.10                             145   -0.1010 96.7 178 
 RUS  HN ES   1   1920 31.08                             145   -0.44 7 96.7 178 
 RUS  HZ I        1920 33.09        36.5 0.37                          96.7 178 
 BRI  SZ EP       1920 14.06                             141    0.2910  110  18 
 BRI  SZ ES   1   1920 32.72                             141    0.19 7  110  18 
 BRI  SZ I        1920 34.62        31.5 0.27                           110  18 
 OCA  SZ EP   1   1920 18.26                             129   -0.18 7  164 352 
 OCA  SZ ES   1   1920 40.25                             129   -0.58 7  164 352 
 OCA  SZ I        1920 44.59        56.6 0.31                           164 352 
 NOR  SZ EP   1   1920 25.57                             118   -0.05 6  236 236 
 NOR  SN ES   1   1920 53.25                             118   -0.36 6  236 236 
 CHI  HZ EP   1   1920 27.25                             117    0.08 6  246 196 
 CHI  HN ES   1   1920 57.24                             117    0.86 6  246 196 
 CHI  HZ I        1921  0.44        13.1 0.44                           246 196 
 ROSC BZ EP   1   1920 27.06                             117   -0.70 6  252 212 
 HEL  HZ EP   1   1920 30.58                             114    0.27 6  275 257 
 HEL  HN ES   1   1921  1.73                             114   -0.24 6  275 257 
 HEL  HZ I        1921 10.22        21.0 0.34                           275 257 
 TOL  SZ EP   1   1920 38.28                             109    0.24 5  344 226 
 PRA  HZ EP   1   1920 43.07                             106   -0.06 4  391 210 
 PRA  HZ I        1921 29.46        41.9 0.43                           391 210 
                                                                                
