 2010  611 1304 27.2 L   6.759 -73.144140.8  RSN  6 0.4 1.6LRSN                1
 GAP=156        0.77       6.1    14.4 11.0 -0.5483E+02  0.5417E+02 -0.2211E+02E
 Epicentro: LOS SANTOS - SANTANDER                                             3
 ACTION:UP  10-08-24 10:09 OP:vdl  STATUS:               ID:20100611130427 L   I
 2010-06-11-1302-39S.COL___117                                                 6
 STAT SP IPHASW D HRMM SECON CODA AMPLIT PERI AZIMU VELO SNR AR TRES W  DIS CAZ7
 BAR2 SZ EP       13 4 45.96                             172    -0.210   19 193 
 BAR2 SZ ES   2   13 5  1.21                             172     0.3 5   19 193 
 RUS  HZ EP       13 4 49.82                             144    -0.310   96 176 
 RUS  HZ I        13 4 51.10         3.6 0.21                            96 176 
 RUS  HE ES   2   13 5  8.54                             144     0.5 5   96 176 
 BRI  SZ EP   1   13 4 51.57                             139     0.6 7  113  20 
 GUE  SZ EP       13 4 51.86                             137     0.110  121  12 
 GRA  SZ ES   2   13 5 11.20                             135    -0.8 5  130  17 
 RREF BZ EP   2   13 5 12.75                             110     0.0 3  319 230 
 RREF BE ES   2   13 5 48.59                             110     0.2 3  319 230 
 RREF BZ I        13 5 56.83         3.8 0.08                           319 230 
                                                                                
