 2014  511 1701 13.3 L   6.750 -73.140141.0  RSN  9 0.4 2.2LRSN                1
 GAP=139        0.94       3.5     3.9  7.0 -0.1558E+01  0.9938E+01 -0.1560E+01E
 Epicentro: LOS SANTOS - SANTANDER                                             3
 ACTION:UPD 15-03-16 16:56 OP:nd   STATUS:               ID:20140511170113 L   I
 OLDACT:UP  14-05-12 00:36 OP:com  STATUS:               ID:20140511170000     3
 OLDACT:UP  14-05-12 00:35 OP:com  STATUS:               ID:20140511170000     3
 OLDACT:UP  14-05-12 00:34 OP:com  STATUS:               ID:20140511170000     3
 OLDACT:UP  14-05-12 00:32 OP:com  STATUS:               ID:20140511170000     3
 OLDACT:REG 14-05-11 21:04 OP:mh   STATUS:               ID:20140511170000     3
 2014-05-11-1700-00M.COL___273                                                 6
 STAT SP IPHASW D HRMM SECON CODA AMPLIT PERI AZIMU VELO AIN AR TRES W  DIS CAZ7
 BRR  HZ EP       17 1 34.44                             150    0.3210 74.5 302 
 BRR  HN ES   1   17 1 50.48                             150    0.11 7 74.5 302 
 BRR  HZ I        17 1 55.67        23.7 0.18            151           74.5 302 
 PAM  SZ EP       17 1 35.41                             148    0.1610 81.4  37 
 PAM  SN ES       17 1 52.18                             148   -0.2010 81.4  37 
 PAM  SZ I        17 1 54.82        40.8 0.28            155           81.4  37 
 RUS  HZ EP       17 1 36.13                             144   -0.0410 95.0 176 
 RUS  HN ES       17 1 54.12                             144    0.1010 95.0 176 
 RUS  HZ I        17 1 56.80        10.7 0.44            148           95.0 176 
 PTB  HZ EP   1   17 1 39.36                             131   -0.48 7  147 261 
 PTB  HN ES       17 1 59.74                             131   -0.80 9  147 261 
 PTB  HZ I        17 2  3.14        20.6 0.36            133            147 261 
 SPBC HN ES   4   17 2  2.73                             128    0.02 0  159 220 
 SPBC HZ I        17 2  7.96        11.3 0.18            131            159 220 
 ZAR  HZ EP       17 1 46.29                             121    0.58 8  207 293 
 ZAR  HN ES       17 2 11.50                             121    0.50 8  207 293 
 ZAR  HZ I        17 2 13.69        11.9 0.13            124            207 293 
 NOR  HZ EP       17 1 48.19                             118   -0.26 8  232 236 
 NOR  HN ES       17 2 16.31                             118    0.42 8  232 236 
 NOR  HZ I        17 2 19.42        35.6 0.04            121            232 236 
 SML  HZ EP   1   17 1 49.13                             116   -1.10 6  249 336 
 SML  HE ES       17 2 19.06                             116    0.02 8  249 336 
 SML  HZ I        17 2 20.75        55.1 0.05            120            249 336 
 HEL  HZ EP   1   17 1 53.37                             114    0.19 6  271 257 
 HEL  HN ES   1   17 2 24.17                             114   -0.13 6  271 257 
 HEL  HZ I        17 2 31.58         5.2 0.28            117            271 257 
 URE  HN ES   4   17 2 24.56                             112   -1.96 0  286 293 
 SJC  HZ EP   4   17 2  7.31                             105   -1.97 0  414 327 
 SJC  HN ES   4   17 2 48.39                             105   -4.57 0  414 327 
                                                                                
