 2010 1211 1007 58.5 L   6.810 -73.111144.4  RSN  9 0.4 1.7LRSN                1
 GAP=162        0.94       4.8     9.4  7.0 -0.2083E+02  0.2105E+02 -0.5374E+01E
 Epicentro: LOS SANTOS - SANTANDER                                             3
 ACTION:UP  11-01-14 15:24 OP:pat  STATUS:               ID:20101211100758 L   I
 2010-12-11-1000-00M.COL___136                                                 6
 STAT SP IPHASW D HRMM SECON CODA AMPLIT PERI AZIMU VELO SNR AR TRES W  DIS CAZ7
 BTL  SZ EP       10 8 18.12                             171     0.210   21 305 
 BTL  SZ ES   1   10 8 33.74                             171     0.7 7   21 305 
 BAR2 SZ EP       10 8 18.01                             170     0.010   25 198 
 BAR2 SZ ES   1   10 8 32.86                             170    -0.3 7   25 198 
 BAR2 SZ I        10 8 34.16        17.4 0.22                            25 198 
 GIR2 SZ EP       10 8 18.13                             167     0.210   31 343 
 GIR2 SZ ES   3   10 8 33.05                             167    -0.1 2   31 343 
 RUS  HZ EP       10 8 22.15                             143     0.010  102 178 
 RUS  HN ES   1   10 8 40.21                             143    -0.4 7  102 178 
 RUS  HZ I        10 8 41.58         7.5 0.33                           102 178 
 GRA  SZ EP       10 8 23.85                             137     0.510  124  16 
 GRA  SZ ES   1   10 8 42.28                             137    -0.6 7  124  16 
 GRA  SZ I        10 8 44.35         5.7 0.73                           124  16 
 OCA  SZ EP       10 8 25.95                             129    -0.6 9  160 352 
 OCA  SZ I        10 8 55.87         5.1 0.19                           160 352 
 HEL  HZ EP   2   10 8 39.63                             114     0.6 4  276 256 
 HEL  HN ES   2   10 9 10.01                             114    -0.7 4  276 256 
 HEL  HZ I        10 9 16.85         3.0 0.54                           276 256 
 RREF HZ EP   1   10 8 45.35                             110     0.4 5  325 230 
 RREF HN ES   2   10 9 21.32                             110     0.1 3  325 230 
 RREF HZ I        10 9 28.83         2.0 0.47                           325 230 
 PRA  HZ EP   1   10 8 51.71                             106    -0.6 4  395 210 
 PRA  HN ES   2   10 9 33.92                             106    -0.3 3  395 210 
                                                                                
