 2013  111 1607 20.3 L   6.791 -73.152146.4  RSN  7 0.5 2.5LRSN                1
 GAP=182        1.38       5.1     7.8  9.1  0.2162E+01  0.1258E+02  0.1115E+02E
 Epicentro: LOS SANTOS - SANTANDER                                             3
 ACTION:UPD 13-02-15 09:13 OP:ep   STATUS:               ID:20130111160720 L   I
 2013-01-11-1558-50M.COL___190                                                 6
 STAT SP IPHASW D HRMM SECON CODA AMPLIT PERI AZIMU VELO AIN AR TRES W  DIS CAZ7
 BAR2 SZ EP       16 7 40.03                             171    0.0010 22.2 189 
 BAR2 SZ I        16 7 40.35        50.0 0.32            168           22.2 189 
 BAR2 SZ ES       16 7 55.29                             171   -0.0910 22.2 189 
 BRR  HZ EP       16 7 41.86                             153    0.3010 71.1 299 
 BRR  HN ES       16 7 59.37                             153    1.2710 71.1 299 
 BRR  HN I        16 8  1.22        36.8 0.50            150           71.1 299 
 RUS  HZ EP       16 7 44.00                             144   -0.0910 99.6 176 
 RUS  HN ES       16 8  2.10                             144   -0.5110 99.6 176 
 RUS  HN I        16 8  4.33        47.4 0.42            145           99.6 176 
 PTB  HZ EP       16 7 47.03                             132   -0.26 9  147 259 
 PTB  HN ES       16 8  7.28                             132   -1.02 9  147 259 
 PTB  HN I        16 8 13.10        34.0 0.32            131            147 259 
 OCA  HN ES       16 8 10.46                             130   -0.52 9  161 353 
 OCA  HN I        16 8 13.56        99.1 0.32            131            161 353 
 NOR  HZ EP       16 7 56.14                             119    0.15 8  234 235 
 NOR  HE ES       16 8 23.90                             119    0.10 8  234 235 
 NOR  HN I        16 8 30.17        37.1 0.16            118            234 235 
 CHI  HZ EP       16 7 58.34                             117    0.38 8  247 195 
 CHI  HN ES       16 8 27.73                             117    0.44 8  247 195 
 CHI  HN I        16 8 32.89        11.5 0.28            118            247 195 
                                                                                
