 2011 1211 1957 50.8 L   6.305 -73.581111.4  RSN 12 0.4 2.0LRSN                1
 GAP= 84        0.56       2.5     3.5  5.6 -0.3412E+01  0.9646E+01  0.2791E+00E
 Epicentro: SANTA HELENA DEL OPON - SANTANDER                                  3
 ACTION:UPD 12-07-13 16:15 OP:ep   STATUS:               ID:20111211195750 L   I
 2011-12-11-1950-00M.COL___186                                                 6
 STAT SP IPHASW D HRMM SECON CODA AMPLIT PERI AZIMU VELO AIN AR TRES W  DIS CAZ7
 BAR2 SZ EP   1   1958  7.72                             152    0.10 7 54.3  54 
 BAR2 SZ I        1958  8.16        54.7 0.34                          54.3  54 
 BAR2 SZ ES   1   1958 20.65                             152   -0.10 7 54.3  54 
 RUS  HZ EP   1   1958  9.08                             145    0.01 7 71.5 130 
 RUS  HZ I        1958 11.79         7.2 0.17                          71.5 130 
 RUS  HN ES   2   1958 23.92                             145    0.59 5 71.5 130 
 BRR  HZ EP   1   1958  9.32                             138   -0.45 7 89.8 351 
 BRR  HZ I        1958 22.04        34.2 0.11                          89.8 351 
 BRR  HN ES   2   1958 25.04                             138    0.47 5 89.8 351 
 GIR2 SZ EP   1   1958 10.39                             136   -0.06 7 95.6  27 
 PAM  SZ EP   1   1958 15.87                             123   -0.21 7  150  40 
 PAM  SE ES   2   1958 35.13                             123   -0.67 5  150  40 
 PAM  SZ I        1958 39.78         7.3 0.35                           150  40 
 NOR  SZ EP   1   1958 17.00                             120   -0.01 7  165 240 
 NOR  SN ES   2   1958 36.82                             120   -0.64 5  165 240 
 CHI  HZ EP   1   1958 19.76                             116   -0.03 7  186 185 
 CHI  HN ES   2   1958 42.04                             116   -0.37 4  186 185 
 CHI  HZ I        1958 47.07         3.2 0.22                           186 185 
 OCA  SZ ES   2   1958 48.45                             112    0.75 4  216   8 
 HEL  HN ES   2   1958 48.39                             112    0.17 4  216 267 
 OCA  SZ EP   1   1958 23.25                             112    0.49 6  216   8 
 HEL  HZ EP   1   1958 23.02                             112   -0.04 6  216 267 
 HEL  HZ I        1958 52.14         9.5 0.31                           216 267 
 GUY  SZ EP   1   1958 25.12                             110   -0.05 6  233 239 
 GUY  SZ I        1958 58.30        20.7 0.22                           233 239 
 RREF HZ EP   1   1958 27.29                             109    0.03 6  250 232 
 RREF HZ I        1959  3.20        22.0 0.27                           250 232 
 PRA  HN ES   1   1959  9.83                             103    0.59 5  321 207 
                                                                                
