 2014  111 1521  3.9 L   6.714 -73.122142.3  RSN  5 0.3 1.7LRSN                1
 GAP=143        0.75       3.9     5.2  5.5 -0.6279E+00  0.4964E+01  0.6708E+00E
 Epicentro: JORDAN - SANTANDER                                                 3
 ACTION:UPD 14-03-13 09:54 OP:ep   STATUS:               ID:20140111152103 L   I
 OLDACT:REG 14-01-11 15:59 OP:stll STATUS:               ID:20140111151810     3
 2014-01-11-1518-10M.COL___246                                                 6
 STAT SP IPHASW D HRMM SECON CODA AMPLIT PERI AZIMU VELO AIN AR TRES W  DIS CAZ7
 BAR2 SZ EP       1521 23.09                             174    0.1310 15.0 206 
 BAR2 SZ ES       1521 37.82                             174   -0.0110 15.0 206 
 BAR2 SZ I        1521 38.98        13.6 0.16            172           15.0 206 
 BRR  HZ EP       1521 24.92                             149   -0.1710 78.4 304 
 BRR  HZ I        1521 25.18        16.0 0.26            151           78.4 304 
 BRR  HN ES       1521 41.83                             149    0.2010 78.4 304 
 PAM  SZ EP       1521 25.82                             148   -0.2910 83.4  34 
 PAM  SZ I        1521 26.24        14.5 0.24            150           83.4  34 
 PAM  SN ES       1521 43.52                             148    0.0710 83.4  34 
 RUS  HZ EP       1521 27.20                             146    0.5910 90.9 177 
 RUS  HN ES       1521 44.00                             146   -0.3410 90.9 177 
 RUS  HZ I        1521 46.75         2.4 0.28            145           90.9 177 
 PTB  HZ EP       1521 30.48                             131   -0.19 9  149 263 
                                                                                
