 2013  811 1015 43.0 L   6.734 -73.136150.0  RSN  9 0.5 1.4LRSN                1
 GAP=141        1.10       4.9     5.8  7.8  0.6997E+00  0.9356E+01  0.2064E+01E
 Epicentro: JORDAN - SANTANDER                                                 3
 ACTION:UPD 14-01-14 09:01 OP:ep   STATUS:               ID:20130811101543 L   I
 OLDACT:REG 13-08-11 17:06 OP:jn   STATUS:               ID:20130811100959     3
 2013-08-11-1009-59M.COL___270                                                 6
 STAT SP IPHASW D HRMM SECON CODA AMPLIT PERI AZIMU VELO AIN AR TRES W  DIS CAZ7
 BAR2 SZ EP   1   1016  2.69                             173   -0.34 7 16.5 198 
 BAR2 SZ ES       1016 19.24                             173    0.5910 16.5 198 
 BAR2 SZ I        1016 19.53         7.9 0.44            160           16.5 198 
 BRR  HZ EP       1016  5.20                             152    0.3310 75.8 303 
 BRR  HN ES       1016 22.47                             152    0.5510 75.8 303 
 BRR  HZ I        1016 26.34         6.5 0.48            146           75.8 303 
 PAM  SZ EP       1016  6.15                             150    0.1810 82.5  36 
 PAM  SN ES       1016 23.08                             150   -0.8110 82.5  36 
 PAM  SZ I        1016 25.82         4.1 0.62            145           82.5  36 
 RUS  HZ EP   1   1016  7.01                             147    0.34 7 93.3 176 
 RUS  HN ES   1   1016 24.45                             147   -0.68 7 93.3 176 
 RUS  HZ I        1016 26.84         3.5 0.38            130           93.3 176 
 PTB  HZ EP       1016  9.92                             133   -0.38 9  148 262 
 PTB  HN ES   1   1016 31.14                             133   -0.45 7  148 262 
 PTB  HZ I        1016 37.08         4.5 0.52            121            148 262 
 OCA  HN ES   1   1016 35.55                             129    0.35 7  168 353 
 ZAR  HN ES   1   1016 41.40                             123   -0.54 6  208 294 
 CHI  HZ EP   1   1016 20.69                             119    0.47 6  242 196 
 CHI  HZ I        1016 55.82         1.1 0.22            107            242 196 
 SML  HN ES   1   1016 49.91                             118   -0.06 6  251 336 
                                                                                
