 2010 1211 1400 29.1 L   6.820 -73.142138.1  RSN  8 0.2 2.2LRSN                1
 GAP=161        0.44       2.8     4.2  3.8  0.1191E+01  0.5921E+01  0.2471E+01E
 Epicentro: LOS SANTOS - SANTANDER                                             3
 ACTION:UP  11-01-14 15:24 OP:pat  STATUS:               ID:20101211140029 L   I
 2010-12-11-1358-10S.COL___130                                                 6
 STAT SP IPHASW D HRMM SECON CODA AMPLIT PERI AZIMU VELO SNR AR TRES W  DIS CAZ7
 BAR2 SZ IP       14 0 48.04                             169     0.210   26 190 
 BAR2 SZ ES   1   14 1  2.43                             169     0.0 7   26 190 
 BAR2 SZ I        14 1  4.04        57.9 0.20                            26 190 
 RUS  HZ IP       14 0 52.01                             142    -0.210  103 176 
 RUS  HZ I        14 0 52.74        16.8 0.11                           103 176 
 RUS  HN ES   1   14 1 10.38                             142     0.1 7  103 176 
 OCA  SZ ES   2   14 1 17.73                             128    -0.3 5  158 353 
 OCA  SZ I        14 1 23.54        24.6 0.35                           158 353 
 YOP  SZ EP       14 0 58.78                             124     0.0 9  181 154 
 YOP  SN ES   2   14 1 22.12                             124     0.2 4  181 154 
 YOP  SZ I        14 1 24.64        13.9 0.45                           181 154 
 NOR  SZ EP       14 1  4.59                             117     0.0 8  236 234 
 NOR  SN ES   3   14 1 32.61                             117     0.4 2  236 234 
 CHI  HZ EP       14 1  6.50                             115    -0.1 8  251 195 
 CHI  HZ I        14 1  8.96         5.5 0.61                           251 195 
 CHI  HN ES   1   14 1 35.54                             115    -0.3 6  251 195 
 RREF HZ EP   1   14 1 15.43                             109     0.4 5  324 229 
 RREF HZ I        14 1 59.04         6.8 0.32                           324 229 
 PRA  HZ EP   1   14 1 22.64                             105     0.1 4  394 209 
 PRA  HN ES   2   14 2  4.29                             105     0.0 3  394 209 
                                                                                
