 2014  511 1108  7.6 L   6.600 -73.200166.8  RSN  6 0.4 1.6LRSN                1
 GAP=137        0.90       3.8     4.4  7.6 -0.2518E+00  0.9160E+01 -0.6702E+01E
 Epicentro: BARICHARA - SANTANDER                                              3
 ACTION:UPD 15-03-16 16:56 OP:nd   STATUS:               ID:20140511110807 L   I
 OLDACT:UP  14-05-12 02:14 OP:mh   STATUS:               ID:20140511110736     3
 OLDACT:UP  14-05-12 02:14 OP:mh   STATUS:               ID:20140511110736     3
 OLDACT:UP  14-05-12 02:13 OP:mh   STATUS:               ID:20140511110736     3
 OLDACT:UP  14-05-12 02:13 OP:mh   STATUS:               ID:20140511110736     3
 OLDACT:REG 14-05-12 01:35 OP:mh   STATUS:               ID:20140511110736     3
 2014-05-11-1107-36M.COL___245                                                 6
 STAT SP IPHASW D HRMM SECON CODA AMPLIT PERI AZIMU VELO AIN AR TRES W  DIS CAZ7
 RUS  HZ EP       11 8 32.33                             154    0.1510 79.3 171 
 RUS  HN ES       11 8 50.91                             154   -0.4610 79.3 171 
 RUS  HZ I        11 8 53.54         4.2 0.28            158           79.3 171 
 PAM  SZ EP       11 8 33.69                             148    0.3610 98.7  34 
 PAM  SN ES       11 8 53.55                             148    0.1410 98.7  34 
 PTB  HZ EP       11 8 35.71                             138    0.08 9  139 267 
 PTB  HN ES       11 8 57.59                             138    0.09 9  139 267 
 PTB  HZ I        11 9  2.19         2.5 0.12            139            139 267 
 OCA  HN ES       11 9  4.62                             130    0.15 9  182 356 
 OCA  HZ I        11 9  8.90         4.5 0.21            132            182 356 
 ZAR  HZ EP       11 8 41.59                             126   -0.29 8  208 298 
 ZAR  HN ES       11 9  9.15                             126    0.52 8  208 298 
 ZAR  HZ I        11 9 14.97         2.6 0.19            127            208 298 
 SML  HZ EP       11 8 47.25                             120   -0.11 8  262 338 
 SML  HN ES       11 9 17.45                             120   -0.94 8  262 338 
 SML  HZ I        11 9 22.18         8.0 0.06            122            262 338 
                                                                                
