 2013  711 1516 30.9 L   6.788 -73.164142.3  RSN 16 0.5 2.5LRSN                1
 GAP= 71        1.23       3.4     3.3  6.2 -0.1831E+01  0.3720E+01  0.4601E+01E
 Epicentro: LOS SANTOS - SANTANDER                                             3
 ACTION:UPD 13-08-12 10:37 OP:ep   STATUS:               ID:20130711151630 L   I
 OLDACT:UP  13-07-14 23:04 OP:Juan STATUS:               ID:20130711151630 L   3
 OLDACT:REG 13-07-11 15:54 OP:stll STATUS:               ID:20130711150850     3
 2013-07-11-1508-50M.COL___227                                                 6
 STAT SP IPHASW D HRMM SECON CODA AMPLIT PERI AZIMU VELO AIN AR TRES W  DIS CAZ7
 BAR2 SZ EP       1516 49.99                             171   -0.0410 21.8 185 
 BAR2 SZ ES       1517  4.66                             171   -0.3310 21.8 185 
 BAR2 SZ I        1517  6.56        35.2 0.38            172           21.8 185 
 GIR2 SZ EP       1516 50.09                             167   -0.0510 32.3 354 
 BRR  HZ EP       1516 51.73                             152    0.1710 70.1 300 
 BRR  HN ES       1517  8.43                             152    0.7210 70.1 300 
 BRR  HN I        1517 11.55        87.5 0.20            143           70.1 300 
 RUS  HZ EP       1516 54.34                             143    0.1610 99.5 175 
 RUS  HN ES       1517 12.83                             143    0.4610 99.5 175 
 RUS  HN I        1517 14.24        34.9 0.40            140           99.5 175 
 PTB  HZ EP       1516 56.81                             132   -0.53 9  146 259 
 PTB  HE ES       1517 17.28                             132   -0.71 9  146 259 
 PTB  HE I        1517 23.80        33.2 0.32            124            146 259 
 CAPV BZ EP       1516 57.87                             131   -0.30 9  152  38 
 CAPV BZ ES       1517 19.22                             131   -0.26 9  152  38 
 TAM  HZ IP     D 1516 58.39                             129   -0.02 9  157 104 
 TAM  HZ I        1516 58.53        28.3 0.32            124            157 104 
 TAM  HE ES       1517 19.74                             129   -0.16 9  157 104 
 OCA  HN ES       1517 21.26                             129    0.32 9  161 354 
 ZAR  HZ EP       1517  3.21                             122    0.28 9  203 293 
 ZAR  HE ES       1517 27.44                             122   -0.51 9  203 293 
 ZAR  HE I        1517 33.29        67.5 0.22            114            203 293 
 NOR  HN EP       1517  6.24                             118    0.11 8  232 234 
 NOR  HE ES       1517 33.94                             118    0.30 8  232 234 
 NOR  HE I        1517 36.57        26.4 0.20            112            232 234 
 CHI  HZ EP       1517  8.05                             117   -0.12 8  247 195 
 CHI  HE ES       1517 37.18                             117   -0.09 8  247 195 
 CHI  HE I        1517 45.45        23.0 0.32            111            247 195 
 HEL  HZ EP       1517 11.64                             114    1.00 8  270 256 
 HEL  HE ES       1517 40.37                             114   -1.30 8  270 256 
 HEL  HE I        1517 49.04        15.6 0.68            108            270 256 
 GUY2CHZ EP       1517 14.99                             112    0.96 7  299 235 
 GUY2CHN ES       1517 49.14                             112    1.43 7  299 235 
 PRA  HZ EP       1517 23.85                             106   -0.16 6  390 209 
 PRA  HN ES       1518  4.80                             106   -0.67 6  390 209 
 PRA  HN I        1518 11.83        10.9 0.32            101            390 209 
 ORTC HZ EP       1517 23.94                             106   -0.46 6  393 216 
 ORTC HN ES       1518  5.48                             106   -0.68 6  393 216 
 ORTC HN I        1518 11.41        23.8 0.30            101            393 216 
 SJC  HZ EP   4   1517 24.25                             105   -2.05 0  409 327 
 SJC  HN I        1518 11.46         9.4 0.36            100            409 327 
                                                                                
