 2014  511 1247 31.4 L   6.800 -73.156147.5  RSN  5 0.2 1.5LRSN                1
 GAP=141        0.52       3.0     2.9  5.5 -0.4262E+01  0.5206E+01 -0.1356E+01E
 Epicentro: LOS SANTOS - SANTANDER                                             3
 ACTION:UPD 15-03-16 16:56 OP:nd   STATUS:               ID:20140511124731 L   I
 OLDACT:UP  14-05-11 23:19 OP:com  STATUS:               ID:20140511124000     3
 OLDACT:UP  14-05-11 23:19 OP:com  STATUS:               ID:20140511124000     3
 OLDACT:REG 14-05-11 20:52 OP:mh   STATUS:               ID:20140511124000     3
 2014-05-11-1240-00M.COL___273                                                 6
 STAT SP IPHASW D HRMM SECON CODA AMPLIT PERI AZIMU VELO AIN AR TRES W  DIS CAZ7
 PAM  SZ EP       1247 54.05                             151    0.2210 78.1  40 
 PAM  SN ES       1248 11.34                             151    0.0010 78.1  40 
 PAM  SZ I        1248 14.27         4.8 0.28            153           78.1  40 
 RUS  HZ EP       1247 55.31                             144   -0.0110  101 175 
 RUS  HN ES       1248 13.80                             144   -0.1910  101 175 
 RUS  HZ I        1248 15.22         3.8 0.14            148            101 175 
 PTB  HZ EP       1247 58.07                             133   -0.33 9  147 259 
 PTB  HN ES       1248 19.42                             133   -0.04 9  147 259 
 PTB  HZ I        1248 22.28         5.4 0.12            135            147 259 
 SPBC HE ES       1248 22.49                             130    0.25 9  162 219 
 NOR  HN ES       1248 35.13                             119    0.14 8  234 234 
                                                                                
