 2011  211 1135 48.3 L   6.782 -73.127144.8  RSN  9 0.4 2.0LRSN                1
 GAP=161        0.95       4.7     7.8  7.2 -0.1767E+02  0.2128E+02 -0.1942E+01E
 Epicentro: LOS SANTOS - SANTANDER                                             3
 ACTION:UP  11-03-28 15:07 OP:jfem STATUS:               ID:20110211113548 L   I
 2011-02-11-1133-21S.COL___136                                                 6
 STAT SP IPHASW D HRMM SECON CODA AMPLIT PERI AZIMU VELO SNR AR TRES W  DIS CAZ7
 BTL  SZ EP   1   1136  8.25                             171     0.5 7   22 314 
 BAR2 SZ IP       1136  7.87                             171     0.110   22 197 
 BAR2 SZ ES   1   1136 22.95                             171     0.0 7   22 197 
 BAR2 SZ I        1136 24.61        21.9 0.25                            22 197 
 BTL  SZ ES   1   1136 23.22                             171     0.3 7   22 314 
 RUS  HZ EP       1136 11.78                             144     0.010   98 177 
 RUS  HN ES   1   1136 29.72                             144    -0.4 7   98 177 
 RUS  HZ I        1136 31.83         8.3 0.39                            98 177 
 GRA  SZ EP       1136 13.63                             136     0.110  127  16 
 GRA  SZ ES   1   1136 32.82                             136    -0.4 7  127  16 
 GRA  SZ I        1136 34.36        15.4 0.34                           127  16 
 NOR  SZ EP   1   1136 23.20                             118    -0.8 6  235 235 
 NOR  SE ES   1   1136 51.33                             118    -0.6 6  235 235 
 CHI  HZ EP   1   1136 25.88                             117     0.1 6  247 196 
 CHI  HE ES   1   1136 54.98                             117     0.0 6  247 196 
 CHI  HZ I        1137  1.27         5.7 0.31                           247 196 
 HEL  HZ EP   1   1136 29.22                             114     0.6 6  274 256 
 HEL  HZ I        1137  6.75         5.1 0.37                           274 256 
 RREF HN ES   1   1137 11.39                             111     1.0 5  322 230 
 RREF HZ I        1137 18.90         6.2 0.26                           322 230 
 DBB  SZ EP   1   1136 35.17                             109    -0.8 5  342 275 
                                                                                
