 2017  811 1430 35.4 L   6.705 -73.189143.8  RSN  5 0.5 1.9LRSN                1
 GAP=135        1.18       6.1     6.4  8.5  0.9553E+01  0.1317E+02 -0.2862E+01E
 Epicentro: VILLANUEVA - SANTANDER                                             3
 ACTION:UPD 17-09-04 20:19 OP:rebc STATUS:               ID:20170811143035 L   I
 OLDACT:REG 17-08-11 20:39 OP:dani STATUS:               ID:20170811142742     3
 2017-08-11-1428-00M.COL___413                                                 6
 STAT SP IPHASW D HRMM SECON CODA AMPLIT PERI AZIMU VELO AIN AR TRES W  DIS CAZ7
 BAR2 EZ EP     C 1430 54.31                             175   -0.3510 12.5 177 
 BAR2 EZ ES       1431  9.54                             175   -0.1210 12.5 177 
 BAR2 EZ I        1431 11.78         8.1 0.38            174           12.5 177 
 BRR  HZ EP       1430 56.52                             152    0.0410 72.9 308 
 BRR  HN ES       1431 12.20                             152   -0.6810 72.9 308 
 BRR  HZ I        1431 13.57        21.2 0.33            150           72.9 308 
 PAM  EZ EP       1430 57.58                             147   -0.5810 88.6  38 
 PAM  EN ES       1431 16.59                             147    0.7110 88.6  38 
 PAM  EZ I        1431 16.59        11.0 0.28            150           88.6  38 
 RUS  HZ EP       1430 58.19                             146   -0.1110 90.6 173 
 RUS  HE ES       1431 16.54                             146    0.4110 90.6 173 
 RUS  HZ I        1431 17.65        13.6 0.36            148           90.6 173 
 ZAR  HZ EP       1431  8.21                             122    0.47 9  204 295 
 ZAR  HN ES       1431 33.39                             122    0.46 9  204 295 
 ZAR  HZ I        1431 38.63         8.5 0.31            122            204 295 
                                                                                
