 2015  111 1658 49.6 L   6.812 -73.169147.5  RSN 18 0.4 2.6LRSN                1
 GAP= 69        0.89       2.5     2.4  4.5 -0.4881E+00  0.2951E+01  0.9675E+00E
 Epicentro: LOS SANTOS - SANTANDER                                             3
 ACTION:UPD 15-03-02 15:38 OP:nd   STATUS:               ID:20150111165849 L   I
 OLDACT:UP  15-01-11 22:55 OP:mh   STATUS:               ID:20150111165744     3
 OLDACT:UP  15-01-11 22:55 OP:mh   STATUS:               ID:20150111165744     3
 OLDACT:UP  15-01-11 22:55 OP:mh   STATUS:               ID:20150111165744     3
 OLDACT:REG 15-01-11 20:47 OP:mh   STATUS:               ID:20150111165744     3
 2015-01-11-1657-44M.COL___256                                                 6
 STAT SP IPHASW D HRMM SECON CODA AMPLIT PERI AZIMU VELO AIN AR TRES W  DIS CAZ7
 BAR2 EZ EP       1659  9.39                             170   -0.0610 24.4 184 
 BAR2 EZ ES   1   1659 24.79                             170   -0.15 7 24.4 184 
 BAR2 EZ I        1659 25.83       117.6 0.14            165           24.4 184 
 BRR  HZ EP       1659 11.19                             154    0.4210 68.3 299 
 BRR  HN ES       1659 28.19                             154    0.9010 68.3 299 
 BRR  HZ I        1659 32.21        71.8 0.14            151           68.3 299 
 PAM  SZ EP   1   1659 12.36                             151    0.33 7 78.0  42 
 PAM  SE ES       1659 29.33                             151   -0.2010 78.0  42 
 PAM  SZ I        1659 31.55        53.4 0.54            151           78.0  42 
 RUS  HZ EP       1659 13.41                             144   -0.2110  102 175 
 RUS  HN ES       1659 32.29                             144   -0.0810  102 175 
 RUS  HZ I        1659 33.07        48.5 0.26            138            102 175 
 PTB  HZ EP   1   1659 16.31                             133   -0.19 7  146 258 
 PTB  HN ES       1659 37.22                             133   -0.27 9  146 258 
 PTB  HZ I        1659 42.03        45.6 0.24            128            146 258 
 TAM  HZ EP       1659 17.75                             130    0.09 9  158 105 
 TAM  HN ES       1659 39.67                             130    0.11 9  158 105 
 TAM  HZ I        1659 49.33        19.8 0.58            127            158 105 
 OCA  HZ EP       1659 17.52                             130   -0.36 9  159 354 
 OCA  HN ES       1659 39.51                             130   -0.44 9  159 354 
 OCA  HZ I        1659 43.93        32.6 0.28            128            159 354 
 SPBC HZ EP       1659 18.40                             130    0.23 9  163 218 
 SPBC HN ES       1659 39.80                             130   -0.67 9  163 218 
 SPBC HZ I        1659 47.27        70.3 0.20            124            163 218 
 ZAR  HZ EP   1   1659 21.87                             123    0.02 6  201 292 
 ZAR  HN ES       1659 47.42                             123    0.40 9  201 292 
 ZAR  HZ I        1659 57.83        29.4 0.18            119            201 292 
 NOR  HZ EP       1659 25.10                             119   -0.18 8  233 234 
 NOR  HN ES       1659 53.22                             119    0.09 8  233 234 
 NOR  HZ I        1659 58.69        37.8 0.18            115            233 234 
 SML  HZ EP   1   1659 26.37                             118    0.31 6  241 336 
 SML  HN ES   1   1659 53.91                             118   -0.61 6  241 336 
 SML  HZ I        1659 56.38        56.6 0.10            115            241 336 
 ROSC BZ EP   4   1659 29.35                             117    1.56 0  253 210 
 ROSC BN ES   4   17 0  1.44                             117    3.86 0  253 210 
 ROSC BZ I        17 0  3.75        34.2 0.40            113            253 210 
 HEL  HZ EP       1659 29.85                             115    0.20 8  270 255 
 HEL  HN ES       17 0  1.21                             115    0.30 8  270 255 
 HEL  HZ I        17 0  8.08        23.6 0.42            111            270 255 
 RREF HZ EP   4   1659 37.64                             111    1.95 0  321 229 
 RREF HN ES   4   17 0 12.86                             111    1.22 0  321 229 
 RREF HZ I        17 0 23.52        19.7 0.60            108            321 229 
 DBB  SZ EP   1   1659 36.93                             110    0.10 5  337 274 
 DBB  SZ ES       17 0 12.76                             110   -0.92 7  337 274 
 TOL  SZ EP       1659 38.55                             110    0.73 7  343 224 
 TOL  SN ES   4   17 0 17.81                             110    2.37 0  343 224 
 TOL  SZ I        17 0 25.66        47.2 0.34            106            343 224 
 ORTC HZ EP       1659 43.71                             107    0.19 6  395 216 
 ORTC HZ I        17 0 32.26        12.7 0.34            104            395 216 
 PAL  HN ES       17 0 27.32                             106   -0.25 6  404 239 
 PAL  HZ I        17 0 38.78        10.1 0.24            103            404 239 
 SJC  HZ EP   4   1659 43.31                             106   -1.60 0  407 327 
 SJC  HN ES   4   17 0 24.13                             106   -3.93 0  407 327 
                                                                                
