 2013  411 1216 37.3 L   6.806 -73.142141.7  RSN 11 0.5 2.4LRSN                1
 GAP=183        1.20       3.5     6.5  6.5 -0.8378E+00  0.7976E+01 -0.2201E+00E
 Epicentro: LOS SANTOS - SANTANDER                                             3
 ACTION:UPD 13-05-22 14:37 OP:EP   STATUS:               ID:20130411121637 L   I
 2013-04-11-1210-00M.COL___245                                                 6
 STAT SP IPHASW D HRMM SECON CODA AMPLIT PERI AZIMU VELO AIN AR TRES W  DIS CAZ7
 BAR2 SZ EP       1216 56.74                             170    0.3010 24.0 191 
 BAR2 SZ ES       1217 11.39                             170    0.0010 24.0 191 
 BAR2 SZ I        1217 13.95        63.5 0.32            163           24.0 191 
 GIR2 SZ EP       1216 56.90                             167    0.4410 30.7 349 
 GIR2 SZ ES       1217 11.38                             167   -0.0410 30.7 349 
 GIR2 SZ I        1217 13.47        70.9 0.54            167           30.7 349 
 BRR  HZ EP       1216 58.69                             152    0.6910 71.2 298 
 BRR  HN ES   1   1217 15.26                             152    1.10 7 71.2 298 
 BRR  HZ I        1217 18.60        51.2 0.36            146           71.2 298 
 RUS  HZ EP       1217  0.67                             143   -0.0110  101 176 
 RUS  HN ES       1217 18.56                             143   -0.3710  101 176 
 RUS  HZ I        1217 20.40        24.2 0.28            136            101 176 
 PTB  HZ EP       1217  3.51                             131   -0.46 9  148 259 
 PTB  HN ES       1217 24.17                             131   -0.62 9  148 259 
 PTB  HZ I        1217 30.19        30.6 0.30            124            148 259 
 OCA  HZ EP       1217  5.14                             129   -0.09 9  160 353 
 OCA  HN ES       1217 26.07                             129   -0.96 9  160 353 
 OCA  HZ I        1217 31.60        37.1 0.28            126            160 353 
 NOR  HE ES       1217 40.89                             117    0.29 8  235 234 
 NOR  HZ I        1217 48.14        14.0 0.20            112            235 234 
 SML  HZ EP       1217 13.29                             117   -0.35 8  243 335 
 SML  HN ES       1217 42.28                             117    0.28 8  243 335 
 CHI  HZ EP       1217 15.24                             116    0.40 8  249 195 
 CHI  HN ES   1   1217 43.16                             116   -0.97 6  249 195 
 CHI  HZ I        1217 50.80         9.7 0.38            111            249 195 
 PRA  HZ EP       1217 31.10                             106    0.35 6  393 210 
 PRA  HZ I        1218 20.01         8.9 0.39            102            393 210 
 SJC  HZ EP   4   1217 31.74                             105   -0.94 0  409 327 
 SJC  HN ES   4   1218 12.26                             105   -3.63 0  409 327 
 SJC  HZ I        1218 16.96         4.8 0.56            102            409 327 
                                                                                
