 2011 1011 1202 23.4 L   6.768 -73.113140.3  RSN  5 0.2 1.8LRSN                1
 GAP=142        0.44       2.7     3.4  4.1  0.9442E+00  0.3216E+00  0.1892E-01E
 Epicentro: LOS SANTOS - SANTANDER                                             3
 ACTION:UPD 12-07-13 16:03 OP:ep   STATUS:               ID:20111011120223 L   I
 2011-10-11-1157-38S.COL___167                                                 6
 STAT SP IPHASW D HRMM SECON CODA AMPLIT PERI AZIMU VELO AIN AR TRES W  DIS CAZ7
 BAR2 SZ IP       12 2 42.24                             171   -0.0910 20.9 202 
 BAR2 SZ ES   1   12 2 56.92                             171   -0.17 7 20.9 202 
 BAR2 SZ I        12 2 59.97        15.2 0.54                          20.9 202 
 BRR  HZ EP       12 2 44.12                             150   -0.1310 76.1 300 
 BRR  HZ I        12 2 44.64        16.4 0.30                          76.1 300 
 BRR  HE ES   1   12 3  0.82                             150    0.30 7 76.1 300 
 PAM  SZ EP       12 2 45.23                             150    0.1610 77.9  36 
 PAM  SN ES   1   12 3  1.94                             150   -0.04 7 77.9  36 
 RUS  HZ EP       12 2 46.26                             144   -0.0910 96.9 178 
 RUS  HN ES   1   12 3  4.45                             144    0.20 7 96.9 178 
 ZAR  HZ EP   3   12 2 56.84                             121    0.85 2  209 293 
 ZAR  HN ES   2   12 3 21.11                             121   -0.29 4  209 293 
 ZAR  HZ I        12 3 26.20         5.0 1.04                           209 293 
                                                                                
