 2013  911 1456  8.1 L   6.805 -73.168149.3  RSN  5 0.4 1.7LRSN                1
 GAP=133        0.91       4.7     4.8  9.4  0.1974E+01  0.1204E+02 -0.9679E+01E
 Epicentro: LOS SANTOS - SANTANDER                                             3
 ACTION:UPD 13-10-22 09:21 OP:ep   STATUS:               ID:20130911145608 L   I
 OLDACT:REG 13-09-11 15:22 OP:carl STATUS:               ID:20130911144959     3
 2013-09-11-1449-59M.COL___269                                                 6
 STAT SP IPHASW D HRMM SECON CODA AMPLIT PERI AZIMU VELO AIN AR TRES W  DIS CAZ7
 PAM  SZ EP       1456 31.08                             151    0.3610 78.6  41 
 PAM  SN ES   1   1456 48.49                             151    0.09 7 78.6  41 
 PAM  SZ I        1456 50.50         7.9 0.56            156           78.6  41 
 RUS  HZ EP       1456 32.31                             144    0.0910  101 175 
 RUS  HN ES   1   1456 50.63                             144   -0.43 7  101 175 
 RUS  HZ I        1456 52.12         4.5 0.28            150            101 175 
 PTB  HZ EP       1456 34.92                             133   -0.19 9  145 258 
 PTB  HN ES   1   1456 55.90                             133   -0.31 7  145 258 
 PTB  HZ I        1457  1.06         5.7 0.46            135            145 258 
 ZAR  HZ EP       1456 40.94                             123    0.46 9  202 292 
 ZAR  HN ES       1457  6.29                             123    0.52 9  202 292 
 ZAR  HZ I        1457 11.74         6.1 0.34            126            202 292 
 SML  HZ EP       1456 44.09                             118   -0.63 8  242 336 
 SML  HN ES   1   1457 12.58                             118   -0.73 6  242 336 
 SML  HZ I        1457 16.42         9.6 0.10            121            242 336 
                                                                                
