 2012  211 1046 27.3 L   6.643 -73.252144.3  RSN  5 0.3 1.3LRSN                1
 GAP=171        0.70       7.1     6.6  9.3  0.2930E+02 -0.7303E+00 -0.5109E+01E
 ACTION:UP  12-03-07 16:29 OP:epov STATUS:               ID:20120211104627 L   I
 2012-02-11-1040-00M.COL___188                                                 6
 STAT SP IPHASW D HRMM SECON CODA AMPLIT PERI AZIMU VELO AIN AR TRES W  DIS CAZ7
 BAR2 SZ EP   1   1046 45.89                             176   -0.64 7 9.55 126 
 BAR2 SZ I        1046 46.99         3.1 0.21                          9.55 126 
 BRR  HZ EP   1   1046 48.33                             152    0.00 7 72.2 315 
 BRR  HZ I        1046 48.73         4.6 0.14                          72.2 315 
 BRR  HE ES   1   1047  5.11                             152    0.37 7 72.2 315 
 RUS  HZ EP   1   1046 50.04                             148    0.22 7 85.1 167 
 RUS  HZ I        1046 50.99         3.4 0.33                          85.1 167 
 RUS  HN ES   1   1047  7.42                             148    0.02 7 85.1 167 
 PTB  HZ EP   1   1046 53.36                             135    0.49 7  134 265 
 PTB  HN ES   1   1047 12.55                             135   -0.28 7  134 265 
 ZAR  HE ES   1   1047 24.03                             122   -0.22 6  201 298 
                                                                                
