 2016  911 1609 57.1 L   6.785 -73.168144.8  RSN  4 0.2 1.4LRSN                1
 GAP=242        0.45       4.7     3.5  4.3  0.1068E+02  0.1654E+01 -0.3274E+01E
 Epicentro: LOS SANTOS - SANTANDER                                             3
 ACTION:UPD 17-08-17 21:08 OP:lp   STATUS:               ID:20160911160957 L   I
 OLDACT:REG 16-09-11 20:24 OP:lv   STATUS:               ID:20160911160733     3
 2016-09-11-1608-00M.COL___309                                                 6
 STAT SP IPHASW D HRMM SECON CODA AMPLIT PERI AZIMU VELO AIN AR TRES W  DIS CAZ7
 BAR2 EZ EP       1610 16.35                             171   -0.1910 21.4 184 
 BAR2 EZ ES       1610 31.73                             171   -0.0010 21.4 184 
 BAR2 EZ I        1610 32.41         6.1 0.29            162           21.4 184 
 RUS  HN EP       1610 20.62                             144    0.0110 99.1 175 
 RUS  HE ES       1610 39.14                             144    0.1510 99.1 175 
 RUS  HN I        1610 41.90         2.6 0.16            141           99.1 175 
 PTB  HZ EP       1610 23.78                             132    0.08 9  145 259 
 PTB  HN ES       1610 44.26                             132   -0.23 9  145 259 
 PTB  HZ I        1610 51.97         3.2 0.29            128            145 259 
 ZAR  HN ES       1610 54.62                             122    0.22 9  202 293 
 ZAR  HZ I        1611  0.12         3.4 0.08            121            202 293 
                                                                                
