 2016  811 1143 51.5 L   6.813 -73.187145.9  RSN 17 0.4 2.3LRSN                1
 GAP=131        0.98       3.2     3.2  4.9 -0.1301E+01  0.4526E+01  0.3405E+01E
 Epicentro: ZAPATOCA - SANTANDER                                               3
 ACTION:UPD 16-10-29 15:34 OP:rebc STATUS:               ID:20160811114351 L   I
 OLDACT:REG 16-08-11 19:37 OP:lv   STATUS:               ID:20160811113759     3
 2016-08-11-1137-59S.COL___352                                                 6
 STAT SP IPHASW D HRMM SECON CODA AMPLIT PERI AZIMU VELO AIN AR TRES W  DIS CAZ7
 BAR2 EZ EP       1144 10.92                             170   -0.2510 24.4 179 
 BAR2 EZ ES       1144 26.23                             170   -0.2910 24.4 179 
 BAR2 EZ I        1144 27.28        69.0 0.23                          24.4 179 
 BRR  HZ EP       1144 12.79                             154    0.3810 66.5 299 
 BRR  HE ES       1144 29.64                             154    0.9210 66.5 299 
 BRR  HZ I        1144 30.86        32.7 0.18                          66.5 299 
 PAM  EZ EP       1144 13.97                             150    0.1210 79.3  43 
 PAM  EN ES       1144 30.71                             150   -0.5710 79.3  43 
 PAM  EZ I        1144 33.10        60.4 0.48                          79.3  43 
 RUS  HZ EP       1144 15.55                             143    0.1510  102 174 
 RUS  HN ES       1144 34.25                             143    0.2110  102 174 
 RUS  HZ I        1144 34.71        35.2 0.26                           102 174 
 PTB  HZ EP       1144 17.69                             133   -0.41 9  144 258 
 PTB  HN ES       1144 38.61                             133   -0.24 9  144 258 
 PTB  HZ I        1144 45.53        22.2 0.28                           144 258 
 SPBC HZ EP       1144 19.28                             129   -0.57 9  161 217 
 SPBC HN ES       1144 42.16                             129    0.20 9  161 217 
 SPBC HZ I        1144 43.68        38.6 0.18                           161 217 
 ZAR  HZ EP       1144 23.24                             123   -0.23 9  199 292 
 ZAR  HE ES       1144 48.89                             123    0.49 9  199 292 
 ZAR  HZ I        1144 54.43        12.3 0.12                           199 292 
 NOR  HZ EP       1144 27.10                             119    0.17 8  232 234 
 NOR  HE ES       1144 54.37                             119   -0.20 8  232 234 
 NOR  HZ I        1144 59.65        16.4 0.24                           232 234 
 CHI  HZ EP       1144 29.60                             117    0.37 8  249 194 
 CHI  HN ES       1144 58.70                             117    0.04 8  249 194 
 CHI  HZ I        1145  1.76        11.7 0.32                           249 194 
 ROSC BZ EP   9   1144 31.59                             117    2.08 0  252 210 
 ROSC BN ES       1145  1.50                                    0.26 8  252 210 
 ROSC BZ I        1145  5.42        23.9 0.45                           252 210 
 HEL  HZ EP   4   1144 33.11                             115    1.84 0  268 255 
 HEL  HE ES       1145  1.76                             115   -0.53 8  268 255 
 HEL  HZ I        1145  9.03        13.4 0.28                           268 255 
 URE  HZ EP   9   1144 30.70                             114   -1.34 0  279 292 
 URE  HE ES       1145  1.40                                   -0.92 7  279 292 
 URE  HZ I        1145 13.66        13.5 0.18                           279 292 
 GUY2CHZ EP   4   1144 35.88                             113    1.09 0  298 234 
 GUY2CHN ES       1145  8.44                             113   -0.12 7  298 234 
 GUY2CHZ I        1145 17.23        11.2 0.36                           298 234 
 CBOC HZ EP       1144 38.58                             110    0.61 7  330 252 
 CBOC HN ES       1145 13.49                             110   -0.73 7  330 252 
 CBOC HZ I        1145 19.55         2.9 0.22                           330 252 
 PRA  HZ EP       1144 44.91                             107   -0.00 6  391 209 
 PRA  HE ES       1145 26.75                             107    0.18 6  391 209 
 PRA  HZ I        1145 32.91         8.8 0.28                           391 209 
 PAL  HZ EP       1144 46.65                             106    0.36 6  403 239 
 PAL  HN ES       1145 29.20                             106    0.17 6  403 239 
 PAL  HZ I        1145 33.39         5.2 0.20                           403 239 
 SJC  HZ EP   4   1144 45.13                             106   -1.50 0  406 327 
 SJC  HN ES   4   1145 26.32                             106   -3.32 0  406 327 
 SJC  HZ I        1145 38.28         3.0 0.28                           406 327 
                                                                                
