 2010  711 1452 42.0 L   6.889 -72.982147.2  RSN  4 0.4 1.4LRSN                1
 GAP=173        0.80       8.2    15.5 14.7  0.3342E+02 -0.1129E+03 -0.4186E+02E
 Epicentro: PIEDECUESTA - SANTANDER                                            3
 ACTION:UPD 10-12-01 15:16 OP:pat  STATUS:               ID:20100711145242 L   I
 2010-07-11-1448-15S.COL___120                                                 6
 STAT SP IPHASW D HRMM SECON CODA AMPLIT PERI AZIMU VELO AIN AR TRES W  DIS CAZ7
 BAR2 SZ EP   1   1453  2.10                             164    -0.2 7   40 214 
 BAR2 SZ ES   2   1453 18.62                             164     0.6 5   40 214 
 BRR  HZ EP   1   1453  3.97                             148    -0.1 7   84 287 
 BRR  HZ I        1453  4.29        10.4 0.11                            84 287 
 BRR  HE ES   2   1453 21.40                             148     0.1 5   84 287 
 BRI  SZ EP   1   1453  4.90                             146    -0.1 7   94  13 
 RUS  HZ EP   1   1453  7.20                             141     0.5 7  111 186 
 RUS  HN ES   2   1453 24.95                             141    -0.9 5  111 186 
 RUS  HZ I        1453 26.03         1.8 0.28                           111 186 
                                                                                
