 2010  811 1628 45.6 L   6.799 -73.046144.7  RSN  9 0.4 2.4LRSN                1
 GAP=149        0.86       4.4     7.1  6.2 -0.1341E+02 -0.1738E+02  0.7250E+01E
 Epicentro: LOS SANTOS - SANTANDER                                             3
 ACTION:UP  10-09-07 10:54 OP:vdl  STATUS:               ID:20100811162845 L   I
 2010-08-11-1623-57S.COL___127                                                 6
 STAT SP IPHASW D HRMM SECON CODA AMPLIT PERI AZIMU VELO SNR AR TRES W  DIS CAZ7
 BAR2 SZ EP       1629  5.28                             169     0.010   28 214 
 BAR2 SZ ES   1   1629 20.23                             169    -0.3 7   28 214 
 BAR2 SZ I        1629 23.88        60.8 0.75                            28 214 
 GIR2 SZ EP   1   1629  5.76                             166     0.5 7   35 332 
 GIR2 SZ ES   2   1629 20.38                             166    -0.2 5   35 332 
 BRR  HZ EP       1629  7.13                             149    -0.110   81 295 
 BRR  HN ES       1629 24.08                             149    -0.110   81 295 
 GUE  SZ EP       1629 10.16                             139     0.010  115   7 
 GUE  SZ I        1629 32.45        10.9 0.73                           115   7 
 OCA  SZ EP       1629 14.29                             129     0.2 9  162 349 
 OCA  SZ I        1629 41.03        40.9 0.10                           162 349 
 CHI  HZ EP       1629 23.18                             116    -0.4 8  252 198 
 CHI  HN ES   1   1629 54.33                             116     1.1 6  252 198 
 CHI  HZ I        1629 58.42        12.0 0.51                           252 198 
 HEL  HZ EP   1   1629 27.21                             113     0.2 6  283 256 
 HEL  HZ I        1630  4.30        11.7 0.50                           283 256 
 SDV  BZ EP       1629 34.56                             108    -0.1 6  352  49 
 SDV  BZ I        1629 35.61         9.8 0.33                           352  49 
 SDV  BE ES   2   1630 12.62                             108    -0.3 3  352  49 
 PRA  HZ EP   1   1629 38.96                             106    -0.8 4  397 211 
 PRA  HN ES   1   1630 21.50                             106    -0.5 4  397 211 
 PRA  HZ I        1630 26.87        18.4 0.20                           397 211 
                                                                                
