 2010 1211 1430 29.8 L   6.797 -73.179143.4  RSN 16 0.4 2.8LRSN                1
 GAP=133        0.90       3.1     6.0  6.5 -0.6096E+01  0.1643E+02  0.1123E+01E
 Epicentro: LOS SANTOS - SANTANDER                                             3
 ACTION:UP  11-01-14 15:24 OP:pat  STATUS:               ID:20101211143029 L   I
 2010-12-11-1428-06S.COL___138                                                 6
 STAT SP IPHASW D HRMM SECON CODA AMPLIT PERI AZIMU VELO SNR AR TRES W  DIS CAZ7
 BAR2 SZ IP       1430 49.08                             171    -0.110   23 181 
 BAR2 SZ I        1430 49.47       150.7 0.13                            23 181 
 BAR2 SZ ES   1   1431  3.91                             171    -0.3 7   23 181 
 GIR2 SZ EP       1430 49.14                             167    -0.110   31 357 
 RUS  HZ IP     D 1430 52.93                             143    -0.410  101 174 
 RUS  HZ I        1430 54.21        45.6 0.26                           101 174 
 RUS  HN ES   1   1431 12.22                             143     0.6 7  101 174 
 GUE  SZ EP       1430 54.21                             139    -0.210  118  14 
 GRA  SZ EP       1430 55.63                             136     0.710  127  19 
 GRA  SZ ES   1   1431 14.99                             136     0.4 7  127  19 
 GRA  SZ I        1431 16.64       119.4 0.41                           127  19 
 OCA  SZ EP       1430 57.50                             129    -0.4 9  160 354 
 OCA  SZ ES   1   1431 19.77                             129    -0.1 7  160 354 
 OCA  SZ I        1431 24.29        94.4 0.25                           160 354 
 YOP  SZ IP       1430 59.58                             125    -0.2 9  180 152 
 YOP  SZ I        1431  0.18        42.3 0.40                           180 152 
 NOR  SZ EP       1431  5.03                             118     0.0 8  232 234 
 NOR  SN ES   1   1431 32.23                             118    -0.4 6  232 234 
 CHI  HZ EP       1431  7.13                             117    -0.1 8  247 194 
 CHI  HN ES   2   1431 36.68                             117     0.2 4  247 194 
 CHI  HZ I        1431 45.33        24.4 0.57                           247 194 
 ROSC BZ EP   1   1431  8.29                             116     0.7 6  251 210 
 ROSC BZ I        1431 46.98        67.5 0.36                           251 210 
 HEL  HZ EP   1   1431  9.62                             115     0.1 6  268 256 
 HEL  HZ I        1431 48.33        50.6 0.26                           268 256 
 RREF HZ EP   1   1431 15.28                             111    -0.2 5  319 229 
 RREF HZ I        1432  1.12        44.8 0.30                           319 229 
 DBB  SZ EP       1431 16.84                             109     0.1 7  336 274 
 TOL  SZ EP       1431 18.45                             109     0.8 7  341 224 
 PRA  HZ EP       1431 22.64                             106    -0.4 6  390 209 
 PRA  HN ES   1   1432  4.95                             106     0.5 4  390 209 
 SJA  SZ EP   2   1431 23.75                             106    -0.4 3  399 192 
                                                                                
