 2017 1111 1043 48.4 L   6.807 -73.156150.0  RSN 12 0.4 1.7LRSN                1
 GAP= 65        0.73       2.8     2.6  5.1  0.6978E-01  0.1028E+01  0.4388E+01E
 Epicentro: LOS SANTOS - SANTANDER                                             3
 ACTION:UPD 17-12-12 19:54 OP:rebc STATUS:               ID:20171111104348 L   I
 OLDACT:UP  17-11-11 22:07 OP:mg   STATUS:               ID:20171111103741     3
 OLDACT:UP  17-11-11 22:06 OP:mg   STATUS:               ID:20171111103741     3
 OLDACT:REG 17-11-11 20:25 OP:mg   STATUS:               ID:20171111103741     3
 2017-11-11-1038-00M.COL___440                                                 6
 STAT SP IPHASW D HRMM SECON CODA AMPLIT PERI AZIMU VELO AIN AR TRES W  DIS CAZ7
 BAR2 EZ EP       1044  8.20                             171   -0.3610 24.0 187 
 BAR2 EZ ES   2   1044 23.64                             171   -0.63 5 24.0 187 
 BAR2 EZ I        1044 24.77        16.3 0.18            168           24.0 187 
 BRR  HZ EP       1044 10.07                             154    0.1310 69.8 298 
 BRR  HN ES       1044 27.37                             154    0.6410 69.8 298 
 BRR  HZ I        1044 31.18         8.5 0.16            154           69.8 298 
 PAM  EN EP       1044 11.31                             152    0.2310 77.5  41 
 PAM  EN ES       1044 28.51                             152   -0.2510 77.5  41 
 PAM  EN I        1044 30.41        19.7 0.50            157           77.5  41 
 PTB  HZ EP       1044 15.01                             133   -0.63 9  147 258 
 PTB  HN ES   2   1044 36.14                             133   -0.74 5  147 258 
 PTB  HZ I        1044 41.21         3.7 0.13            134            147 258 
 TAM  HZ EP       1044 16.62                             131    0.08 9  156 105 
 SPBC HZ EP   1   1044 17.17                             130   -0.05 7  163 219 
 SPBC HN ES   2   1044 39.47                             130   -0.23 5  163 219 
 SPBC HZ I        1044 46.24         8.5 0.18            131            163 219 
 YPLC HZ EP   1   1044 18.68                             128    0.05 7  178 151 
 YPLC HN ES       1044 42.48                             128    0.27 9  178 151 
 YPLC HZ I        1044 44.08         6.3 0.25            130            178 151 
 ZAR  HZ EP   2   1044 21.79                             124    0.80 4  203 292 
 ZAR  HN ES       1044 46.46                             124    0.05 9  203 292 
 ZAR  HZ I        1044 51.51         3.4 0.12            125            203 292 
 NOR  HZ EP   1   1044 24.26                             120   -0.08 6  234 234 
 NOR  HN ES       1044 52.59                             120    0.23 8  234 234 
 NOR  HZ I        1044 55.14         4.3 0.18            121            234 234 
 CHI  HZ EP   2   1044 26.46                             118    0.07 4  249 195 
 CHI  HN ES       1044 56.10                             118    0.08 8  249 195 
 CHI  HZ I        1045  1.74         2.3 0.36            120            249 195 
 GUY2CHZ EP   2   1044 32.21                             113    0.05 4  301 235 
 GUY2CHN ES   2   1045  5.98                             113   -0.31 4  301 235 
 GUY2CHZ I        1045 14.45         3.1 0.38                           301 235 
 DRL02HZ EP   1   1044 33.87                             111   -0.32 5  324 358 
                                                                                
