 2010 1211 1049 33.5 L   6.792 -73.157139.1  RSN 18 0.3 2.9LRSN                1
 GAP=135        0.66       2.0     3.5  4.1 -0.1429E+01  0.5677E+01  0.1171E+01E
 Epicentro: LOS SANTOS - SANTANDER                                             3
 ACTION:UP  11-01-14 15:24 OP:pat  STATUS:               ID:20101211104933 L   I
 2010-12-11-1046-40S.COL___137                                                 6
 STAT SP IPHASW D HRMM SECON CODA AMPLIT PERI AZIMU VELO SNR AR TRES W  DIS CAZ7
 BAR2 SZ EP       1049 52.31                             170     0.010   22 187 
 BAR2 SZ ES   1   1050  6.96                             170     0.0 7   22 187 
 BAR2 SZ I        1050  8.59       197.5 0.28                            22 187 
 GIR2 SZ IP       1049 52.42                             166     0.010   32 353 
 GIR2 SZ ES   1   1050  7.11                             166     0.0 7   32 353 
 RUS  HZ IP     D 1049 56.19                             143    -0.310  100 175 
 RUS  HN ES   1   1050 14.50                             143     0.0 7  100 175 
 RUS  HZ I        1050 15.72        39.9 0.20                           100 175 
 GUE  SZ EP       1049 57.41                             138    -0.310  118  13 
 GRA  SZ IP   1   1049 59.18                             135     0.9 7  127  18 
 GRA  SZ I        1050  0.58       141.7 0.20                           127  18 
 GRA  SZ ES   1   1050 17.85                             135     0.3 7  127  18 
 OCA  SZ IP       1050  0.85                             128    -0.5 9  161 354 
 OCA  SZ ES   1   1050 23.21                             128     0.1 7  161 354 
 OCA  SZ I        1050 28.85       136.5 0.17                           161 354 
 YOP  SZ EP       1050  2.91                             125    -0.1 9  179 153 
 YOP  SN ES   1   1050 26.32                             125     0.2 7  179 153 
 NOR  SZ EP       1050  8.56                             117    -0.1 8  233 235 
 NOR  SN ES   1   1050 35.94                             117    -0.2 6  233 235 
 CHI  HZ EP       1050 10.54                             116    -0.1 8  247 195 
 CHI  HN ES   1   1050 39.82                             116     0.1 6  247 195 
 CHI  HZ I        1050 46.44        30.1 0.34                           247 195 
 ROSC BZ EP   1   1050 11.63                             115     0.5 6  251 211 
 ROSC BN ES   2   1050 40.87                             115     0.4 4  251 211 
 ROSC BZ I        1050 48.15        75.8 0.49                           251 211 
 HEL  HZ EP   1   1050 13.23                             114     0.0 6  271 256 
 HEL  HN ES   2   1050 43.80                             114    -0.4 4  271 256 
 HEL  HZ I        1050 51.31        43.2 0.41                           271 256 
 GUY  SZ EP   1   1050 16.94                             111     0.3 5  300 235 
 GUY  SN ES   2   1050 50.61                             111     0.3 4  300 235 
 GUY  SZ I        1050 59.08        81.2 0.60                           300 235 
 VIL  SN ES   2   1050 49.13                             111    -0.5 4  301 190 
 RREF HZ EP       1050 19.41                             110     0.2 7  320 229 
 RREF HN ES   2   1050 54.95                             110     0.2 3  320 229 
 RREF HZ I        1051  2.25        33.4 0.74                           320 229 
 DBB  SZ EP       1050 20.49                             108    -0.1 7  338 274 
 TOL  SZ EP       1050 21.71                             108     0.4 7  342 225 
 PRA  HZ EP       1050 26.52                             105    -0.1 6  391 209 
 PRA  HN ES   1   1051  8.08                             105     0.0 4  391 209 
 SJA  SZ EP   2   1050 27.44                             105    -0.2 3  399 193 
 SJA  SZ I        1051 20.14        44.9 0.86                           399 193 
                                                                                
