 2012  511 1254  8.9 L   6.780 -73.142142.0  RSN  4 0.2 1.7LRSN                1
 GAP=138        0.42       5.1     4.8  5.5 -0.7547E+01  0.2830E+01  0.1760E+01E
 Epicentro: LOS SANTOS - SANTANDER                                             3
 ACTION:UP  12-07-05 12:04 OP:pat  STATUS:               ID:20120511125408 L   I
 2012-05-11-1250-00M.COL___195                                                 6
 STAT SP IPHASW D HRMM SECON CODA AMPLIT PERI AZIMU VELO SNR AR TRES W  DIS CAZ7
 BAR2 SZ EP       1254 27.84                             171    -0.210   21 192 
 BAR2 SZ ES   2   1254 43.25                             171     0.3 5   21 192 
 BAR2 SZ I        1254 44.93         6.9 0.46                            21 192 
 BRR  HZ EP       1254 29.89                             151     0.210   73 300 
 BRR  HZ I        1254 42.95        14.4 0.30                            73 300 
 BRR  HN ES   2   1254 45.69                             151    -0.3 5   73 300 
 PAM  SZ EP       1254 30.76                             150     0.010   79  38 
 PAM  SN ES   1   1254 47.89                             150     0.0 7   79  38 
 RUS  HZ EP   3   1254 32.06                             144     0.0 2   98 176 
 RUS  HN ES   3   1254 50.28                             144     0.1 2   98 176 
                                                                                
