 2013  711 1632 50.7 L   6.665 -73.212142.0  RSN  4 0.4 1.3LRSN                1
 GAP=206        1.13       8.7     8.6 11.4  0.3834E+02 -0.6463E+01 -0.5895E+01E
 Epicentro: BARICHARA - SANTANDER                                              3
 ACTION:UPD 13-08-12 10:37 OP:ep   STATUS:               ID:20130711163250 L   I
 OLDACT:DUP 13-07-11 18:48 OP:stll STATUS:               ID:20130711162854d    3
 2013-07-11-1628-52M.COL___224                                                 6
 STAT SP IPHASW D HRMM SECON CODA AMPLIT PERI AZIMU VELO AIN AR TRES W  DIS CAZ7
 BAR2 SZ EP       1633  9.31                             176   -0.3410 8.66 158 
 BAR2 SZ I        1633 26.41         4.3 0.24            162           8.66 158 
 BRR  HZ EP       1633 11.13                             151   -0.4410 73.8 312 
 BRR  HN ES       1633 28.29                             151    0.4210 73.8 312 
 RUS  HZ EP       1633 13.08                             147   -0.0010 86.6 171 
 RUS  HN ES       1633 30.69                             147    0.1310 86.6 171 
 PTB  HZ EP       1633 17.27                             133    0.78 9  138 264 
 PTB  HN ES       1633 36.09                             133   -0.52 9  138 264 
                                                                                
