 2016  411 1614 47.4 L   6.806 -73.120145.1  RSN 13 0.4 2.2LRSN                1
 GAP=121        0.90       2.9     3.1  5.0 -0.3028E+01  0.4104E+01 -0.2029E+01E
 Epicentro: LOS SANTOS - SANTANDER                                             3
 ACTION:UPD 16-05-05 14:20 OP:rebc STATUS:               ID:20160411161447 L   I
 OLDACT:UP  16-04-12 02:35 OP:ar   STATUS:               ID:20160411160746     3
 OLDACT:REG 16-04-11 23:11 OP:ar   STATUS:               ID:20160411160746     3
 2016-04-11-1607-46M.COL___295                                                 6
 STAT SP IPHASW D HRMM SECON CODA AMPLIT PERI AZIMU VELO AIN AR TRES W  DIS CAZ7
 BAR2 EZ EP     C 1615  7.02                             170    0.0110 24.6 196 
 BAR2 EZ ES       1615 21.84                             170   -0.4310 24.6 196 
 BAR2 EZ I        1615 22.73        28.2 0.32            170           24.6 196 
 PAM  EZ EP       1615 10.05                             151    0.6110 75.1  38 
 PAM  EN ES       1615 26.85                             151    0.2410 75.1  38 
 PAM  EZ I        1615 28.87        45.8 0.48            153           75.1  38 
 RUS  HZ EP       1615 11.29                             143    0.1410  101 178 
 RUS  HN ES       1615 29.64                             143   -0.0110  101 178 
 RUS  HZ I        1615 31.14        18.4 0.40            147            101 178 
 PTB  HZ EP       1615 14.17                             131   -0.45 9  151 259 
 PTB  HN ES       1615 35.85                             131    0.03 9  151 259 
 PTB  HZ I        1615 37.73        10.8 0.30            131            151 259 
 OCA  HZ EP       1615 15.58                             129   -0.09 9  160 352 
 OCA  HN ES       1615 37.53                             129   -0.16 9  160 352 
 OCA  HZ I        1615 42.25        53.7 0.28            130            160 352 
 SPBC HZ EP       1615 16.03                             128   -0.07 9  165 220 
 SPBC HN ES       1615 38.01                             128   -0.45 9  165 220 
 SPBC HZ I        1615 41.23        22.6 0.20            130            165 220 
 ZAR  HZ EP       1615 20.21                             122    0.12 8  207 292 
 ZAR  HN ES       1615 45.67                             122    0.11 8  207 292 
 ZAR  HZ I        1615 52.68        12.7 0.28            122            207 292 
 NOR  HZ EP       1615 23.54                             118    0.12 8  237 235 
 NOR  HN ES       1615 51.17                             118   -0.31 8  237 235 
 NOR  HZ I        1615 53.34         7.7 0.16            119            237 235 
 HEL  HZ EP   4   1615 30.33                             114    2.39 0  275 256 
 HEL  HN ES       1616  0.29                             114    0.76 8  275 256 
 HEL  HZ I        1616  9.14         5.0 0.36            115            275 256 
 URE  HZ EP   9   1615 26.49                             113   -2.26 0  286 292 
 URE  HN ES       1615 59.14                             113    0.43 7  286 292 
 URE  HZ I        1616  6.33         7.9 0.16            113            286 292 
 SOCV BZ EP       1615 30.18                             112    0.04 7  299  57 
 SOCV BN ES   4   1616  1.61                             112   -1.84 0  299  57 
 GUY2CHZ EP   4   1615 33.40                             112    2.08 0  304 235 
 GUY2CHE ES       1616  6.23                             112    0.68 7  304 235 
 GUY2CHZ I        1616 12.01         5.5 0.28                           304 235 
 SJC  HZ EP       1615 41.86                             105   -1.24 6  410 327 
 SJC  HN ES   4   1616 22.64                             105   -3.88 0  410 327 
 SJC  HZ I        1616 26.64         6.3 0.60            106            410 327 
                                                                                
