 2016  811 1027 32.9 L   6.691 -73.188146.4  RSN  6 0.4 1.7LRSN                1
 GAP=224        0.95       5.0     5.5  6.5  0.1035E+02  0.7188E+01 -0.6049E+00E
 Epicentro: VILLANUEVA - SANTANDER                                             3
 ACTION:UPD 16-10-29 15:34 OP:rebc STATUS:               ID:20160811102732 L   I
 OLDACT:DUP 16-08-11 20:04 OP:lv   STATUS:               ID:20160811101702d    3
 2016-08-11-1017-59S.COL___352                                                 6
 STAT SP IPHASW D HRMM SECON CODA AMPLIT PERI AZIMU VELO AIN AR TRES W  DIS CAZ7
 BAR2 EZ EP       1027 52.11                             176   -0.3310 10.9 177 
 BAR2 EZ ES       1028  7.16                             176   -0.5110 10.9 177 
 BAR2 EZ I        1028  8.06        14.5 0.19                          10.9 177 
 BRR  HZ IP     C 1027 54.18                             152   -0.1210 74.0 309 
 BRR  HN ES       1028 11.38                             152    0.4110 74.0 309 
 BRR  HZ I        1028 13.78         6.5 0.15                          74.0 309 
 RUS  HZ EP       1027 56.09                             147    0.1610 89.0 173 
 RUS  HE ES       1028 14.47                             147    0.5810 89.0 173 
 RUS  HZ I        1028 15.60         8.3 0.28                          89.0 173 
 PTB  HZ EP       1027 59.00                             133   -0.36 9  141 263 
 PTB  HN ES       1028 19.48                             133   -0.50 9  141 263 
 PTB  HZ I        1028 20.55         6.6 0.16                           141 263 
 SPBC HZ EP       1028  0.29                             132   -0.03 9  151 220 
 SPBC HE ES       1028 21.76                             132    0.06 9  151 220 
 SPBC HZ I        1028 29.55         7.1 0.26                           151 220 
 ZAR  HZ EP       1028  5.78                             122    0.31 9  205 296 
 ZAR  HN ES       1028 31.32                             122    0.46 9  205 296 
 ZAR  HZ I        1028 39.45         4.1 0.11                           205 296 
                                                                                
