 2016 1111 1807 36.7 L   6.551 -73.178117.9  RSN  6 0.5 1.8LRSN                1
 GAP=246        1.29       9.8     8.9 10.7 -0.1040E+02  0.3706E+02  0.3245E+02E
 Epicentro: PINCHOTE - SANTANDER                                               3
 ACTION:UPD 17-10-26 21:06 OP:lp   STATUS:               ID:20161111180736 L   I
 OLDACT:UP  16-11-12 00:26 OP:dnl  STATUS:               ID:20161111175743     3
 OLDACT:UP  16-11-12 00:21 OP:dnl  STATUS:               ID:20161111175743     3
 OLDACT:UP  16-11-12 00:17 OP:dnl  STATUS:               ID:20161111175743     3
 OLDACT:UP  16-11-12 00:17 OP:dnl  STATUS:               ID:20161111175743     3
 OLDACT:REG 16-11-11 21:32 OP:dnl  STATUS:               ID:20161111175743     3
 2016-11-11-1758-00M.COL___343                                                 6
 STAT SP IPHASW D HRMM SECON CODA AMPLIT PERI AZIMU VELO AIN AR TRES W  DIS CAZ7
 BAR2 EZ EP       18 7 51.99                             178   -0.7610 4.60 354 
 BAR2 EZ ES       18 8  5.89                             178    0.6510 4.60 354 
 BAR2 EZ I        18 8  8.17        22.5 0.18            164           4.60 354 
 BRR  HZ EP   4   18 7 59.18                             142    3.21 0 85.3 316 
 BRR  HN ES       18 8 10.68                             142   -0.2810 85.3 316 
 BRR  HZ I        18 8 11.10        13.9 0.28            136           85.3 316 
 PAM  EZ EP   4   18 8 11.19                             137   13.20 0  102  31 
 PAM  EE ES   4   18 8 26.05                             137   11.50 0  102  31 
 PAM  EZ I        18 8 30.19        20.1 0.18            123            102  31 
 PTB  HZ EP   2   18 8  0.71                             126   -0.26 5  141 270 
 PTB  HN ES       18 8 19.49                             126   -0.37 9  141 270 
 PTB  HZ I        18 8 25.22         6.7 0.66            122            141 270 
 ZAR  HZ EP       18 8  9.47                             114    0.95 8  213 299 
 ZAR  HN ES   4   18 8 30.47                             114   -2.83 0  213 299 
 ZAR  HZ I        18 8 36.38         8.5 0.30            109            213 299 
 NOR  HZ EP       18 8  8.90                             114   -0.11 8  217 240 
 NOR  HE ES       18 8 34.43                             114    0.26 8  217 240 
 NOR  HZ I        18 8 44.61         3.7 0.18            109            217 240 
                                                                                
