 2016  811 1525 14.7 L   6.700 -73.167147.7  RSN  4 0.2 1.4LRSN                1
 GAP=239        0.49       6.3     3.9  4.9  0.1068E+02  0.3881E+01 -0.1047E+02E
 Epicentro: VILLANUEVA - SANTANDER                                             3
 ACTION:UPD 16-10-29 15:34 OP:rebc STATUS:               ID:20160811152514 L   I
 OLDACT:REG 16-08-11 20:54 OP:lv   STATUS:               ID:20160811151759     3
 2016-08-11-1517-59S.COL___340                                                 6
 STAT SP IPHASW D HRMM SECON CODA AMPLIT PERI AZIMU VELO AIN AR TRES W  DIS CAZ7
 BAR2 EZ EP       1525 34.46                             175    0.0910 12.1 188 
 BAR2 EZ ES       1525 49.65                             175   -0.0810 12.1 188 
 BAR2 EZ I        1525 51.52         7.1 0.28                          12.1 188 
 RUS  HE ES   2   1525 56.15                             147    0.17 5 89.8 174 
 RUS  HZ I        1525 58.13         3.1 0.23                          89.8 174 
 PTB  HZ EP       1525 41.60                             133    0.15 9  144 263 
 PTB  HN ES       1526  2.17                             133   -0.16 9  144 263 
 PTB  HZ I        1526  6.49         3.3 0.14                           144 263 
 ZAR  HZ EP       1525 47.18                             122   -0.31 8  206 295 
 ZAR  HE ES       1526 13.34                             122    0.26 8  206 295 
 ZAR  HZ I        1526 16.63         2.6 0.10                           206 295 
                                                                                
