 2017 1111 1715 16.8 L   6.726 -73.216145.0  RSN  5 0.4 1.5LRSN                1
 GAP=218        1.12       7.0     6.4  8.2  0.8427E+01  0.1528E+02  0.1122E+02E
 Epicentro: VILLANUEVA - SANTANDER                                             3
 ACTION:UPD 17-12-12 19:54 OP:rebc STATUS:               ID:20171111171516 L   I
 OLDACT:REG 17-11-11 21:00 OP:mg   STATUS:               ID:20171111170558     3
 2017-11-11-1708-00M.COL___458                                                 6
 STAT SP IPHASW D HRMM SECON CODA AMPLIT PERI AZIMU VELO AIN AR TRES W  DIS CAZ7
 BAR2 EZ EP       1715 36.08                             174   -0.0810 15.2 166 
 BAR2 EZ ES       1715 50.53                             174   -0.7710 15.2 166 
 BAR2 EZ I        1715 52.07         9.8 0.19            169           15.2 166 
 BRR  HZ EP       1715 37.90                             153    0.1910 69.1 308 
 BRR  HN ES       1715 54.41                             153    0.3510 69.1 308 
 BRR  HZ I        1715 55.41         8.1 0.52            153           69.1 308 
 RUS  HZ EP       1715 40.21                             146    0.2910 93.3 171 
 RUS  HN ES       1715 58.42                             146    0.4310 93.3 171 
 RUS  HZ I        1716  0.33         4.4 0.24            144           93.3 171 
 PTB  HZ EP       1715 43.07                             134    0.22 9  139 262 
 PTB  HN ES       1716  3.04                             134   -0.17 9  139 262 
 PTB  HZ I        1716  5.96         2.4 0.14            132            139 262 
 ZAR  HN ES   4   1716 15.25                             123    1.53 0  200 295 
 NOR  HZ EP       1715 50.32                             120   -0.94 8  224 235 
 NOR  HN ES       1716 18.48                             120    0.30 8  224 235 
 NOR  HZ I        1716 24.59         2.6 0.16            119            224 235 
                                                                                
