 2014  511 1540  4.9 L   6.848 -73.133159.0  RSN  5 0.5 1.8LRSN                1
 GAP=136        1.08       5.4     6.7 11.5  0.3892E+01  0.1536E+02 -0.1205E+02E
 Epicentro: LOS SANTOS - SANTANDER                                             3
 ACTION:UPD 15-03-16 16:56 OP:nd   STATUS:               ID:20140511154004 L   I
 OLDACT:UP  14-05-12 02:18 OP:mh   STATUS:               ID:20140511153845     3
 OLDACT:REG 14-05-12 01:36 OP:mh   STATUS:               ID:20140511153845     3
 2014-05-11-1538-45M.COL___254                                                 6
 STAT SP IPHASW D HRMM SECON CODA AMPLIT PERI AZIMU VELO AIN AR TRES W  DIS CAZ7
 PAM  SZ EP   4   1540 30.31                             154    2.01 0 72.5  41 
 PAM  SN ES   1   1540 47.08                             154    0.55 8 72.5  41 
 PAM  SZ I        1540 48.83         3.0 0.22            156           72.5  41 
 RUS  HZ EP       1540 30.15                             145   -0.2110  106 177 
 RUS  HN ES   1   1540 49.77                             145   -0.43 7  106 177 
 RUS  HZ I        1540 51.75         2.4 0.19            150            106 177 
 PTB  HZ EP       1540 34.13                             134    0.92 9  150 257 
 PTB  HN ES       1540 55.00                             134   -0.28 9  150 257 
 PTB  HZ I        1540 57.72       161.7 0.03            136            150 257 
 ZAR  HN ES   1   1541  4.38                             125    0.23 6  203 291 
 ZAR  HZ I        1541 11.05         4.4 0.15            127            203 291 
 SML  HZ EP       1540 41.49                             120   -0.39 8  239 334 
 SML  HN ES       1541 10.31                             120   -0.40 8  239 334 
 SML  HZ I        1541 17.22         4.2 0.12            122            239 334 
                                                                                
