 2011  511 1131 17.9 L   7.468 -73.430 29.3  RSN  5 0.2 1.3LRSN                1
 GAP=252        0.47       4.5    17.2  5.1 -0.5934E+02 -0.7799E+01 -0.2941E+01E
 Epicentro: SABANA DE TORRES - SANTANDER                                       3
 ACTION:UP  11-06-29 08:52 OP:tino STATUS:               ID:20110511113117 L   I
 2011-05-11-1128-58S.COL___129                                                 6
 STAT SP IPHASW D HRMM SECON CODA AMPLIT PERI AZIMU VELO SNR AR TRES W  DIS CAZ7
 GIR2 SZ EP   2   1131 27.66                             113     0.5 5   50 149 
 BTL  SZ EP   1   1131 28.95                             107    -0.1 7   63 164 
 BTL  SZ ES   2   1131 37.44                             107    -0.3 5   63 164 
 BRI  SZ EP   2   1131 30.64                             102     0.1 5   75  69 
 BRI  SZ I        1131 50.46         5.0 0.47                            75  69 
 GRA  SZ EP   1   1131 31.55                              61    -0.1 7   83  56 
 GRA  SZ I        1131 32.26        11.0 0.25                            83  56 
 BAR2 SZ ES   2   1131 46.54                              61     0.1 5  101 164 
 BAR2 SZ I        1131 48.32        11.8 0.49                           101 164 
                                                                                
