 2013  411 1730 43.2 L   6.793 -73.142145.9  RSN  9 0.4 2.0LRSN                1
 GAP=183        0.87       3.8     5.9  5.9 -0.3634E+00  0.6934E+01  0.7319E+01E
 Epicentro: LOS SANTOS - SANTANDER                                             3
 ACTION:UPD 13-05-22 14:37 OP:EP   STATUS:               ID:20130411173043 L   I
 2013-04-11-1730-00M.COL___245                                                 6
 STAT SP IPHASW D HRMM SECON CODA AMPLIT PERI AZIMU VELO AIN AR TRES W  DIS CAZ7
 BAR2 SZ EP   1   1731  3.01                             171    0.15 7 22.7 191 
 BAR2 SZ ES       1731 17.82                             171   -0.3510 22.7 191 
 BAR2 SZ I        1731 19.59        41.9 0.22            172           22.7 191 
 GIR2 SZ EP       1731  3.05                             167    0.1110 32.1 350 
 GIR2 SZ ES   1   1731 18.43                             167    0.12 7 32.1 350 
 GIR2 SZ I        1731 20.01        14.8 0.14            164           32.1 350 
 BRR  HZ EP       1731  4.79                             152    0.3610 71.9 299 
 BRR  HE ES   1   1731 22.08                             152    1.11 7 71.9 299 
 BRR  HZ I        1731 25.88        16.8 0.58            149           71.9 299 
 RUS  HZ EP       1731  6.92                             144   -0.0210 99.8 176 
 RUS  HN ES   1   1731 25.26                             144   -0.17 7 99.8 176 
 RUS  HZ I        1731 26.66         9.6 0.20            146           99.8 176 
 PTB  HZ EP       1731  9.69                             132   -0.54 9  148 259 
 PTB  HN ES   1   1731 30.89                             132   -0.40 7  148 259 
 PTB  HZ I        1731 33.37        13.2 0.16            131            148 259 
 OCA  HN ES   1   1731 33.12                             129   -0.65 7  161 353 
 OCA  HZ I        1731 41.90        10.2 0.56            128            161 353 
 CTAB SZ EP   4   1731 21.14                             119    2.20 0  229 211 
 NOR  HN ES   1   1731 46.67                             118   -0.15 6  235 235 
 CHI  HZ EP       1731 21.10                             117    0.24 8  248 195 
 CHI  HN ES   1   1731 50.10                             117   -0.12 6  248 195 
 CHI  HZ I        1731 52.72         6.7 0.34            118            248 195 
 PRA  HZ EP       1731 36.95                             106    0.25 6  392 210 
 PRA  HN ES   1   1732 18.65                             106    0.25 4  392 210 
 PRA  HZ I        1732 25.29         6.2 0.36            107            392 210 
                                                                                
