 2011  211 1018 47.3 L   6.794 -73.107143.9  RSN  4 0.1 1.2LRSN                1
 GAP=231        0.40       3.9    15.4  5.9 -0.2262E+02  0.3912E+02 -0.2016E+01E
 Epicentro: LOS SANTOS - SANTANDER                                             3
 ACTION:UP  11-03-28 15:07 OP:jfem STATUS:               ID:20110211101847 L   I
 2011-02-11-1017-10S.COL___136                                                 6
 STAT SP IPHASW D HRMM SECON CODA AMPLIT PERI AZIMU VELO SNR AR TRES W  DIS CAZ7
 BTL  SZ EP   1   1019  6.84                             171     0.2 7   22 308 
 BAR2 SZ EP   1   1019  6.64                             170     0.0 7   24 201 
 BAR2 SZ ES   2   1019 21.53                             170    -0.3 5   24 201 
 BAR2 SZ I        1019 23.30         5.8 0.22                            24 201 
 RUS  HZ EP   1   1019 10.64                             144    -0.1 7  100 178 
 RUS  HN ES   1   1019 29.25                             144     0.1 7  100 178 
 RUS  HZ I        1019 30.03         1.8 0.13                           100 178 
 CHI  HZ EP   1   1019 24.87                             117     0.0 6  249 196 
 CHI  HE ES   1   1019 54.29                             117     0.0 6  249 196 
 CHI  HZ I        1019 57.82         1.1 0.55                           249 196 
                                                                                
