 2013  811 1834  7.2 L   6.830 -73.147146.0  RSN  7 0.5 1.4LRSN                1
 GAP=135        1.00       5.2     5.4 10.5  0.2182E+01  0.8413E+01  0.4536E+01E
 Epicentro: LOS SANTOS - SANTANDER                                             3
 ACTION:UPD 14-01-14 09:01 OP:ep   STATUS:               ID:20130811183407 L   I
 OLDACT:REG 13-08-11 17:51 OP:jn   STATUS:               ID:20130811182959     3
 2013-08-11-1829-59M.COL___270                                                 6
 STAT SP IPHASW D HRMM SECON CODA AMPLIT PERI AZIMU VELO AIN AR TRES W  DIS CAZ7
 BAR2 SZ EP   1   1834 26.88                             169   -0.01 7 26.5 188 
 BAR2 SZ I        1834 46.83         6.7 0.80            165           26.5 188 
 BRR  HZ EP       1834 28.70                             153    0.4610 69.5 296 
 BRR  HE ES   1   1834 45.36                             153    0.67 7 69.5 296 
 BRR  HZ I        1834 48.33         4.1 0.32            151           69.5 296 
 PAM  SZ EP       1834 29.68                             151    0.4210 75.0  41 
 PAM  SN ES       1834 46.09                             151   -0.4110 75.0  41 
 PAM  SZ I        1834 48.49         6.9 0.48            151           75.0  41 
 RUS  HZ EP       1834 30.99                             143   -0.1910  104 176 
 RUS  HN ES   1   1834 49.80                             143   -0.11 7  104 176 
 RUS  HZ I        1834 51.77         1.3 0.38            138            104 176 
 PTB  HN ES   1   1834 54.53                             132   -0.75 7  148 258 
 PTB  HZ I        1834 58.28         3.9 0.22            128            148 258 
 ZAR  HE ES   1   1835  4.87                             122    0.18 6  203 291 
 ZAR  HZ I        1835 10.49         5.3 0.22            119            203 291 
 SML  HN ES   1   1835 10.94                             117   -0.85 6  241 335 
                                                                                
