 2017  111 1146  9.0 L   6.740 -73.142143.6  RSN  5 0.4 1.2LRSN                1
 GAP=140        0.91       4.8     6.1  7.1 -0.1097E+01  0.7986E+00  0.8920E+00E
 Epicentro: LOS SANTOS - SANTANDER                                             3
 ACTION:UPD 17-05-22 15:58 OP:jn   STATUS:               ID:20170111114609 L   I
 OLDACT:REG 17-01-11 19:18 OP:ar   STATUS:               ID:20170111113759     3
 2017-01-11-1137-59S.COL___309                                                 6
 STAT SP IPHASW D HRMM SECON CODA AMPLIT PERI AZIMU VELO AIN AR TRES W  DIS CAZ7
 BAR2 EZ EP       1146 28.44                             173    0.2110 16.9 195 
 BAR2 EZ ES       1146 43.65                             173    0.4010 16.9 195 
 BAR2 EZ I        1146 44.68         5.7 0.20            171           16.9 195 
 BRR  HZ EP       1146 29.91                             151   -0.2010 74.9 303 
 BRR  HN ES       1146 46.90                             151    0.3110 74.9 303 
 PAM  EZ EP       1146 31.14                             149   -0.1310 82.4  36 
 PAM  EN ES       1146 48.42                             149   -0.2410 82.4  36 
 PAM  EZ I        1146 50.52         2.5 0.68            152           82.4  36 
 RUS  HZ EP       1146 32.49                             145    0.4510 93.9 176 
 RUS  HN ES       1146 49.49                             145   -0.5410 93.9 176 
 RUS  HZ I        1146 51.94         1.2 0.40            147           93.9 176 
 PTB  HZ EP   2   1146 35.53                             132   -0.16 5  147 261 
 PTB  HN ES   2   1146 55.55                             132   -0.99 5  147 261 
 PTB  HZ I        1147  1.48         2.2 0.62            131            147 261 
                                                                                
