 2016  911 1326 56.5 L   6.737 -73.211147.9  RSN  5 0.2 1.4LRSN                1
 GAP=222        0.58       4.4     4.0  4.2  0.1074E+02  0.2498E+01 -0.1142E+01E
 Epicentro: VILLANUEVA - SANTANDER                                             3
 ACTION:UPD 17-08-17 21:08 OP:lp   STATUS:               ID:20160911132656 L   I
 OLDACT:DUP 16-09-11 22:20 OP:lv   STATUS:               ID:20160911131736d    3
 2016-09-11-1318-00M.COL___309                                                 6
 STAT SP IPHASW D HRMM SECON CODA AMPLIT PERI AZIMU VELO AIN AR TRES W  DIS CAZ7
 BAR2 EZ EP       1327 15.90                             173   -0.3210 16.3 169 
 BAR2 EZ ES       1327 31.47                             173   -0.1810 16.3 169 
 BAR2 EZ I        1327 31.99         9.4 0.26            174           16.3 169 
 BRR  HZ EP       1327 17.62                             154   -0.0910 68.9 306 
 BRR  HE ES       1327 34.59                             154    0.3010 68.9 306 
 BRR  HZ I        1327 38.60         5.8 0.25            152           68.9 306 
 RUS  HZ EP       1327 20.30                             146    0.3110 94.4 171 
 RUS  HE ES       1327 38.43                             146    0.0910 94.4 171 
 RUS  HZ I        1327 41.27         1.6 0.16            149           94.4 171 
 PTB  HZ EP       1327 22.69                             134   -0.17 9  139 261 
 PTB  HN ES       1327 43.37                             134   -0.09 9  139 261 
 PTB  HZ I        1327 45.48         2.9 0.11            134            139 261 
 ZAR  HZ EP       1327 28.85                             123    0.20 9  200 295 
 ZAR  HE ES       1327 53.72                             123   -0.04 9  200 295 
 ZAR  HZ I        1328  0.16         2.9 0.11            124            200 295 
                                                                                
