 2015  111 1104  9.8 L   6.820 -73.183142.6  RSN  6 0.5 1.5LRSN                1
 GAP=179        1.23       5.8     8.7 13.5  0.3723E+01  0.3338E+01 -0.5764E+01E
 Epicentro: ZAPATOCA - SANTANDER                                               3
 ACTION:UPD 15-03-02 15:38 OP:nd   STATUS:               ID:20150111110409 L   I
 OLDACT:UP  15-01-11 21:15 OP:mh   STATUS:               ID:20150111105750d    3
 OLDACT:DUP 15-01-11 21:09 OP:mh   STATUS:               ID:20150111105750d    3
 2015-01-11-1057-49M.COL___252                                                 6
 STAT SP IPHASW D HRMM SECON CODA AMPLIT PERI AZIMU VELO AIN AR TRES W  DIS CAZ7
 BAR2 EZ EP       11 4 29.31                             169    0.2610 25.2 180 
 BAR2 EZ I        11 4 45.06         7.4 0.26            170           25.2 180 
 BRR  HZ EP       11 4 31.13                             154    0.8310 66.5 299 
 BRR  HN ES       11 4 46.69                             154    0.3710 66.5 299 
 BRR  HZ I        11 4 52.39         5.8 0.04            152           66.5 299 
 RUS  HZ EP   4   11 4 36.14                             142    2.75 0  103 174 
 RUS  HN ES       11 4 51.48                             142   -0.3410  103 174 
 PTB  HZ EP       11 4 35.74                             132   -0.40 9  144 258 
 PTB  HN ES       11 4 56.45                             132   -0.26 9  144 258 
 PTB  HZ I        11 4 59.35         4.1 0.14            130            144 258 
 OCA  HN ES       11 4 58.63                             129   -0.64 9  158 355 
 ZAR  HN ES   4   11 5  8.62                             122    2.34 0  199 292 
 ZAR  HZ I        11 5 16.01         3.6 0.28            120            199 292 
 SML  HN ES   4   11 5 12.23                             117   -1.69 0  240 336 
                                                                                
