 2011 1011 1054 14.7 L   6.809 -73.043141.8  RSN  5 0.2 1.4LRSN                1
 GAP=150        0.34       3.6     4.8  4.4  0.4894E+01  0.2864E+01  0.2736E+01E
 Epicentro: LOS SANTOS - SANTANDER                                             3
 ACTION:UPD 12-07-13 16:03 OP:ep   STATUS:               ID:20111011105414 L   I
 2011-10-11-1040-00M.COL___171                                                 6
 STAT SP IPHASW D HRMM SECON CODA AMPLIT PERI AZIMU VELO AIN AR TRES W  DIS CAZ7
 BAR2 SZ EP   2   1054 33.95                             168   -0.03 5 28.6 213 
 BAR2 SZ ES   2   1054 48.79                             168   -0.22 5 28.6 213 
 GIR2 SZ ES   2   1054 49.31                             166    0.29 5 34.1 331 
 PAM  SE ES   2   1054 52.62                             153   -0.09 5 69.8  33 
 BRR  HZ EP       1054 35.95                             149   -0.0710 81.0 294 
 BRR  HN ES   1   1054 52.68                             149    0.04 7 81.0 294 
 BRR  HZ I        1054 55.06         4.3 0.14                          81.0 294 
 RUS  HZ EP   2   1054 38.42                             143    0.29 5  101 183 
 RUS  HN ES   2   1054 56.35                             143   -0.06 5  101 183 
                                                                                
