 2011  511 1957 31.1 L   6.023 -73.762110.0  RSN  8 0.4 1.8LRSN                1
 GAP=147        0.74       6.2     5.1  9.6 -0.1484E+02  0.1909E+02 -0.4099E+01E
 Epicentro: BOLIVAR - SANTANDER                                                3
 ACTION:UP  11-06-29 08:52 OP:tino STATUS:               ID:20110511195731 L   I
 2011-05-11-1940-00M.COL___142                                                 6
 STAT SP IPHASW D HRMM SECON CODA AMPLIT PERI AZIMU VELO SNR AR TRES W  DIS CAZ7
 RUS  HZ EP   2   1957 49.44                             143    -0.1 5   77 101 
 RUS  HN ES   2   1958  3.53                             143    -0.5 5   77 101 
 RUS  HZ I        1958  8.98         9.2 0.62                            77 101 
 BAR2 SZ EP   1   1957 49.78                             138    -0.5 7   90  45 
 BAR2 SZ ES   1   1958  5.96                             138     0.7 7   90  45 
 BAR2 SZ I        1958  6.77        48.2 0.25                            90  45 
 BTL  SZ EP   1   1957 52.41                             131     0.1 7  113  29 
 BTL  SZ ES   1   1958  8.61                             131    -0.2 7  113  29 
 BRR  HZ EP   1   1957 52.67                             129     0.0 7  120   3 
 BRR  HZ I        1958  8.15        13.8 0.31                           120   3 
 BRR  HE ES   2   1958  9.05                             129    -0.4 5  120   3 
 NOR  SZ EP   2   1957 54.39                             126     0.5 5  133 248 
 NOR  SN ES   2   1958 12.12                             126     0.4 5  133 248 
 HEL  HZ EP   2   1958  0.76                             115    -0.3 4  196 276 
 HEL  HN ES   2   1958 24.21                             115    -0.3 4  196 276 
 HEL  HZ I        1958 31.90         7.8 0.36                           196 276 
 BRI  SZ EP   2   1958  3.05                             112     0.1 4  216  30 
 BRI  SZ I        1958 30.51         4.6 0.44                           216  30 
 GRA  SZ EP   2   1958  5.11                             111     0.3 4  232  27 
 GRA  SZ I        1958 37.17         4.3 0.26                           232  27 
                                                                                
