 2011  611 1415 52.2 L   6.780 -73.146142.0  RSN  8 0.3 2.3LRSN                1
 GAP=156        0.70       3.5     5.5  6.4 -0.9288E+01 -0.8073E-01  0.5060E+01E
 Epicentro: LOS SANTOS - SANTANDER                                             3
 ACTION:UP  11-07-14 19:04 OP:ep   STATUS:               ID:20110611141552 L   I
 2011-06-11-1415-09S.COL___133                                                 6
 STAT SP IPHASW D HRMM SECON CODA AMPLIT PERI AZIMU VELO SNR AR TRES W  DIS CAZ7
 BAR2 SZ EP       1416 11.32                             171     0.010   21 191 
 BAR2 SZ I        1416 28.41        57.6 0.19                            21 191 
 BRR  HZ EP       1416 13.16                             152     0.110   72 300 
 BRR  HN ES   1   1416 29.75                             152     0.5 7   72 300 
 BRR  HZ I        1416 31.07        43.9 0.22                            72 300 
 RUS  HZ EP   1   1416 15.38                             144    -0.1 7   98 176 
 RUS  HN ES   1   1416 33.59                             144     0.0 7   98 176 
 RUS  HZ I        1416 36.11        19.5 0.26                            98 176 
 BRI  SZ EP       1416 15.97                             140     0.110  111  20 
 BRI  SZ ES   1   1416 34.24                             140    -0.2 7  111  20 
 BRI  SZ I        1416 35.90        31.0 0.45                           111  20 
 GRA  SZ EP       1416 17.19                             136    -0.110  128  17 
 GRA  SZ ES   1   1416 36.64                             136    -0.2 7  128  17 
 GRA  SZ I        1416 37.83        41.5 1.04                           128  17 
 NOR  SZ EP   1   1416 27.21                             118    -0.4 6  233 235 
 NOR  SN ES   1   1416 54.44                             118    -0.7 6  233 235 
 CHI  HZ EP   1   1416 29.76                             117     0.3 6  246 195 
 PRA  HZ EP   1   1416 46.05                             106     0.7 4  390 210 
                                                                                
