 2010 1011 1150 27.8 L   6.755 -73.097145.2  RSN 12 0.5 2.5LRSN                1
 GAP=182        0.81       5.3     7.7  8.0 -0.2319E+02  0.7508E+01  0.9140E+01E
 Epicentro: LOS SANTOS - SANTANDER                                             3
 ACTION:UP  11-02-18 11:09 OP:tino STATUS:               ID:20101011115027 L   I
 2010-10-11-1146-58S.COL___121                                                 6
 STAT SP IPHASW D HRMM SECON CODA AMPLIT PERI AZIMU VELO SNR AR TRES W  DIS CAZ7
 BAR2 SZ IP     D 1150 47.15                             172    -0.210   20 208 
 BAR2 SZ ES   2   1151  2.49                             172     0.0 5   20 208 
 BAR2 SZ I        1151  4.07        53.6 0.39                            20 208 
 BTL  SZ EP   1   1150 46.97                             169    -0.5 7   26 314 
 BRR  HZ EP   1   1150 48.96                             150    -0.4 7   78 300 
 BRR  HE ES   2   1151  6.44                             150     0.3 5   78 300 
 BRR  HZ I        1151 10.78        66.2 0.23                            78 300 
 GUE  SZ EP   1   1150 53.27                             138     0.5 7  120   9 
 GRA  SZ EP   1   1150 53.95                             136     0.7 7  129  14 
 GRA  SZ ES   2   1151 13.58                             136     0.4 5  129  14 
 GRA  SZ I        1151 14.56        25.0 0.33                           129  14 
 OCA  SZ EP   1   1150 55.97                             128    -0.6 7  166 351 
 NOR  SZ EP   1   1151  3.20                             118    -0.5 6  236 236 
 NOR  SN ES   2   1151 31.17                             118    -0.5 4  236 236 
 CHI  HZ EP   1   1151  5.04                             117    -0.1 6  245 197 
 CHI  HN ES   2   1151 34.83                             117     0.6 4  245 197 
 CHI  HZ I        1151 40.70        17.6 0.59                           245 197 
 HEL  HZ EP   1   1151  8.89                             114     0.4 6  276 257 
 HEL  HE ES   2   1151 40.13                             114     0.0 4  276 257 
 HEL  HZ I        1151 45.48        16.3 0.35                           276 257 
 RREF HZ EP   1   1151 14.68                             111     0.6 5  323 231 
 RREF HN ES   2   1151 50.53                             111     0.4 3  323 231 
 RREF HZ I        1151 56.93        20.7 0.34                           323 231 
 TOL  SZ EP   1   1151 16.05                             109     0.0 5  344 226 
 PRA  HZ EP   1   1151 20.66                             106    -0.5 4  390 211 
 PRA  HN ES   2   1152  3.56                             106     0.9 3  390 211 
                                                                                
