 2015 1011 1749 56.0 L   6.835 -73.355126.3  RSN  5 0.4 1.7LRSN                1
 GAP=149        0.96       6.3     5.7  7.7  0.8103E+01  0.3689E+01 -0.2050E+02E
 Epicentro: SAN VICENTE DE CHUCURI - SANTANDER                                 3
 ACTION:UPD 15-12-22 20:39 OP:cam  STATUS:               ID:20151011174956 L   I
 OLDACT:UP  15-10-12 03:42 OP:ar   STATUS:               ID:20151011174747     3
 OLDACT:REG 15-10-11 21:02 OP:spq  STATUS:               ID:20151011174747     3
 2015-10-11-1747-47M.COL___337                                                 6
 STAT SP IPHASW D HRMM SECON CODA AMPLIT PERI AZIMU VELO AIN AR TRES W  DIS CAZ7
 BAR2 EZ EP     D 1750 13.95                             165    0.3610 32.9 145 
 BAR2 EZ ES       1750 27.31                             165    0.0210 32.9 145 
 BAR2 EZ I        1750 27.92        10.6 0.28            168           32.9 145 
 BRR  HZ EP       1750 13.94                             157    0.0310 49.7 307 
 BRR  HN ES       1750 27.51                             157   -0.3410 49.7 307 
 BRR  HZ I        1750 28.44        14.0 0.14            156           49.7 307 
 PAM  EZ EP       1750 16.41                             142   -0.7910 91.4  52 
 PAM  EN ES       1750 34.13                             142    0.4110 91.4  52 
 PAM  EZ I        1750 35.82         7.2 0.20            142           91.4  52 
 ZAR  HN ES   2   1750 47.87                             121    0.52 4  181 294 
 ZAR  HZ I        1750 49.93         4.8 0.12            121            181 294 
 SML  HZ EP       1750 30.50                             114    0.24 8  231 340 
 SML  HN ES       1750 57.02                             114    0.06 8  231 340 
 SML  HZ I        1750 59.33         8.1 0.12            115            231 340 
                                                                                
