 2012  511 1051 31.4 L   6.787 -73.150147.6  RSN 12 0.4 2.2LRSN                1
 GAP=137        0.82       4.5     5.0  6.2  0.1870E+01  0.9275E+01  0.4957E+01E
 Epicentro: LOS SANTOS - SANTANDER                                             3
 ACTION:UP  12-07-05 12:04 OP:pat  STATUS:               ID:20120511105131 L   I
 2012-05-11-1050-00M.COL___195                                                 6
 STAT SP IPHASW D HRMM SECON CODA AMPLIT PERI AZIMU VELO SNR AR TRES W  DIS CAZ7
 BAR2 SZ IP     C 1051 51.38                             171     0.110   22 190 
 BAR2 SZ ES   1   1052  6.32                             171    -0.4 7   22 190 
 BAR2 SZ I        1052  7.91        24.2 0.28                            22 190 
 BRR  HZ EP       1051 53.29                             153     0.510   72 300 
 BRR  HZ I        1051 53.45        61.6 0.14                            72 300 
 BRR  HN ES   1   1052  9.99                             153     0.5 7   72 300 
 PAM  SZ EP   3   1051 53.95                             151     0.0 2   79  39 
 PAM  SN ES   1   1052 11.36                             151    -0.1 7   79  39 
 RUS  HZ EP       1051 55.23                             145    -0.110   99 176 
 RUS  HN ES   1   1052 14.04                             145     0.2 7   99 176 
 RUS  HZ I        1052 14.96         6.9 0.24                            99 176 
 PTB  HZ EP       1051 58.05                             132    -0.5 9  147 259 
 PTB  HN ES   1   1052 19.12                             132    -0.5 7  147 259 
 PTB  HZ I        1052 26.46        24.4 0.38                           147 259 
 OCA  HZ EP   2   1051 59.24                             130    -0.8 5  162 353 
 OCA  HZ I        1052 27.33        27.1 0.24                           162 353 
 ZAR  HZ EP   2   1052  3.61                             123    -0.4 4  204 293 
 ZAR  HN ES   2   1052 29.67                             123     0.2 4  204 293 
 ZAR  HZ I        1052 37.08        13.6 0.54                           204 293 
 CHI  HZ EP   3   1052  9.28                             118     0.2 2  247 195 
 CHI  HN ES   2   1052 38.19                             118    -0.3 4  247 195 
 CHI  HZ I        1052 46.22         5.8 0.44                           247 195 
 HEL  HZ EP   2   1052 12.03                             115     0.4 4  271 256 
 HEL  HN ES   2   1052 43.22                             115     0.2 4  271 256 
 HEL  HZ I        1052 49.97         9.1 0.36                           271 256 
 RREF HZ EP   3   1052 19.59                             111     2.1 2  321 230 
 RREF HZ I        1053  3.29         7.1 0.38                           321 230 
 COD  HZ EP   3   1052 20.36                             109     0.3 2  350 355 
 COD  HN ES   3   1052 57.20                             109    -0.8 2  350 355 
 COD  HZ I        1053  5.84         6.2 0.44                           350 355 
 PRA  HZ EP       1052 25.22                             107     0.4 6  391 210 
 PRA  HZ I        1052 26.67        16.2 0.18                           391 210 
                                                                                
