 2015  311 1056 28.8 L   6.824 -73.101151.0  RSN  5 0.4 1.5LRSN                1
 GAP=205        0.81       5.0    11.3  6.8  0.2995E+02 -0.1445E+01 -0.2222E+01E
 Epicentro: LOS SANTOS - SANTANDER                                             3
 ACTION:UPD 15-04-30 16:25 OP:nd   STATUS:               ID:20150311105628 L   I
 OLDACT:DUP 15-03-12 00:22 OP:spq  STATUS:               ID:20150311104749d    3
 2015-03-11-1047-48M.COL___287                                                 6
 STAT SP IPHASW D HRMM SECON CODA AMPLIT PERI AZIMU VELO AIN AR TRES W  DIS CAZ7
 BAR2 EZ EP   1   1056 49.11                             169   -0.01 7 27.2 199 
 BAR2 EZ ES   1   1057  4.48                             169   -0.51 7 27.2 199 
 BAR2 EZ I        1057  5.28         5.1 0.24            164           27.2 199 
 BRR  HZ EP       1056 51.03                             152    0.3510 74.4 295 
 BRR  HE ES       1057  8.07                             152    0.3110 74.4 295 
 BRR  HZ I        1057  8.55         8.2 0.30            147           74.4 295 
 RUS  HZ EP   1   1056 53.75                             144    0.53 7  103 179 
 RUS  HE ES   1   1057 11.87                             144   -0.42 7  103 179 
 RUS  HZ I        1057 12.81         3.5 0.26            142            103 179 
 SML  HZ EP   1   1057  5.43                             118   -0.24 6  243 334 
 SML  HE ES   1   1057 33.77                             118   -0.68 6  243 334 
 SML  HZ I        1057 37.41         4.1 0.26            117            243 334 
 PRA  HZ EP   1   1057 23.12                             107    0.08 4  397 210 
 PRA  HN ES   1   1058  4.74                             107   -0.62 4  397 210 
 PRA  HZ I        1058 11.01         0.9 0.26            106            397 210 
                                                                                
