 2013  811 1641  4.6 L   6.767 -73.170145.4  RSN  7 0.4 1.6LRSN                1
 GAP=135        0.85       4.4     5.3  6.3  0.2228E+01  0.3779E+01  0.3202E+01E
 Epicentro: LOS SANTOS - SANTANDER                                             3
 ACTION:UPD 14-01-14 09:01 OP:ep   STATUS:               ID:20130811164104 L   I
 OLDACT:REG 13-08-11 17:34 OP:jn   STATUS:               ID:20130811163959     3
 2013-08-11-1639-59M.COL___271                                                 6
 STAT SP IPHASW D HRMM SECON CODA AMPLIT PERI AZIMU VELO AIN AR TRES W  DIS CAZ7
 BAR2 SZ EP   1   1641 23.88                             172   -0.23 7 19.4 184 
 BAR2 SZ ES   1   1641 39.35                             172    0.03 7 19.4 184 
 BAR2 SZ I        1641 40.56         8.8 0.46            172           19.4 184 
 GIR2 SZ EP   1   1641 24.03                             166   -0.28 7 34.6 356 
 GIR2 SZ ES       1641 39.57                             166   -0.1210 34.6 356 
 GIR2 SZ I        1641 41.24         4.0 0.12            167           34.6 356 
 BRR  HZ EP       1641 25.98                             153    0.3010 70.7 302 
 BRR  HN ES       1641 42.67                             153    0.5510 70.7 302 
 BRR  HZ I        1641 44.19         9.4 0.42            154           70.7 302 
 PAM  SZ EP   1   1641 26.95                             149   -0.09 7 81.9  39 
 PAM  SN ES   1   1641 44.07                             149   -0.48 7 81.9  39 
 PAM  SZ I        1641 46.12         9.0 0.52            151           81.9  39 
 RUS  HZ EP       1641 28.23                             145    0.1610 97.2 174 
 RUS  HN ES   1   1641 46.60                             145    0.23 7 97.2 174 
 RUS  HZ I        1641 47.88         5.8 0.32            146           97.2 174 
 PTB  HZ EP   1   1641 31.32                             133    0.09 7  144 260 
 PTB  HN ES   1   1641 50.95                             133   -1.06 7  144 260 
 SML  HN ES   1   1642 10.31                             117    0.13 6  246 336 
                                                                                
