 2015  911 1010 22.3 L   6.826 -73.134142.1  RSN 23 0.5 2.6LRSN 3.2WRSN        1
 SPEC AVERAGE  MO 13.9 ST0.623 OM  2.0 f0 2.12 R1.2330 AL 0.00 WI 30.0 MW  3.2 3
 SPEC SD       MO  0.2 ST0.716 OM  0.4 f0 1.29 R0.5774 AL      WI      MW  0.2 3
 GAP= 71        1.14       2.6     3.0  5.0 -0.1096E+01  0.2339E+01  0.5193E+00E
 Epicentro: LOS SANTOS - SANTANDER                                             3
      88.0      65.0      38.0 23.0 15.0 27.0  0.3  0.3           RSN FPFIT    F
 SPEC BRR HH Z MO 13.5 ST  1.1 OM  1.6 f0 3.82 R0.5037 AL-0.00 WI 30.0 MW  3.0 3
 SPEC BRR HH Z T101058 K 0.000 GD  158 VS 5.20 DE 3.50 Q0750.0 QA 1.50 Q1 0.00 3
 SPEC PTB HH Z MO 13.5 ST  2.3 OM  1.5 f0 4.80 R0.4008 AL-0.00 WI 30.0 MW  3.0 3
 SPEC PTB HH Z T1011 7 K 0.000 GD  206 VS 5.20 DE 3.50 Q0750.0 QA 1.50 Q1 0.00 3
 SPEC OCA HH Z MO 14.0 ST  1.1 OM  2.0 f0 2.53 R0.7605 AL-0.00 WI 30.0 MW  3.3 3
 SPEC OCA HH Z T101110 K 0.000 GD  212 VS 5.20 DE 3.50 Q0750.0 QA 1.50 Q1 0.00 3
 SPEC ZAR HH Z MO 13.8 ST  1.1 OM  1.7 f0 3.01 R0.6392 AL-0.00 WI 30.0 MW  3.1 3
 SPEC ZAR HH Z T101118 K 0.000 GD  248 VS 5.20 DE 3.50 Q0750.0 QA 1.50 Q1 0.00 3
 SPEC HEL HH Z MO 13.6 ST0.071 OM  1.4 f0 1.42 R1.3549 AL-0.00 WI 30.0 MW  3.0 3
 SPEC HEL HH Z T101132 K 0.000 GD  308 VS 5.20 DE 3.50 Q0750.0 QA 1.50 Q1 0.00 3
 SPECGUY2CHH Z MO 14.0 ST0.074 OM  1.8 f0 1.03 R1.8680 AL-0.00 WI 30.0 MW  3.3 3
 SPECGUY2CHH Z T101138 K 0.000 GD  335 VS 5.20 DE 3.50 Q0750.0 QA 1.50 Q1 0.00 3
 SPEC ELA HH Z MO 14.1 ST0.054 OM  1.8 f00.908 R2.1189 AL-0.00 WI 30.0 MW  3.3 3
 SPEC ELA HH Z T101143 K 0.000 GD  361 VS 5.20 DE 3.50 Q0750.0 QA 1.50 Q1 0.00 3
 SPEC DBB SH Z MO 14.3 ST0.235 OM  2.0 f0 1.26 R1.5270 AL-0.00 WI 30.0 MW  3.5 3
 SPEC DBB SH Z T101145 K 0.000 GD  369 VS 5.20 DE 3.50 Q0750.0 QA 1.50 Q1 0.00 3
 SPEC PRA HH Z MO 13.9 ST0.087 OM  1.6 f0 1.18 R1.6305 AL-0.00 WI 30.0 MW  3.2 3
 SPEC PRA HH Z T101155 K 0.000 GD  419 VS 5.20 DE 3.50 Q0750.0 QA 1.50 Q1 0.00 3
 SPEC ORTCHH Z MO 13.9 ST0.107 OM  1.6 f0 1.26 R1.5270 AL-0.00 WI 30.0 MW  3.2 3
 SPEC ORTCHH Z T101157 K 0.000 GD  423 VS 5.20 DE 3.50 Q0750.0 QA 1.50 Q1 0.00 3
 OLDACT:REG 15-09-11 20:13 OP:stll STATUS:               ID:20150911100748     3
 ACTION:UPD 15-10-28 16:25 OP:cam  STATUS:               ID:20150911101022 L   I
 OLDACT:UP  15-09-11 22:45 OP:stll STATUS:               ID:20150911100748     3
 2015-09-11-1007-48M.COL___350                                                 6
 STAT SP IPHASW D HRMM SECON CODA AMPLIT PERI AZIMU VELO AIN AR TRES W  DIS CAZ7
 BAR2 EZ IP     C 1010 41.85                             169    0.3210 26.4 192 
 BAR2 EZ I        1010 42.22        72.3 0.34            166           26.4 192 
 BAR2 EZ ES       1010 56.41                             169   -0.1410 26.4 192 
 BRR  HZ IP     C 1010 43.75                             152    0.7310 71.0 296 
 BRR  HE ES       1010 59.83                             152    0.6310 71.0 296 
 BRR  HZ I        1011  4.77        97.0 0.12            146           71.0 296 
 RUS  HZ EP       1010 45.87                             142   -0.0110  103 177 
 RUS  HN ES       1011  4.13                             142   -0.1510  103 177 
 RUS  HZ I        1011  5.08        47.2 0.24            141            103 177 
 PTB  HZ EP       1010 48.40                             131   -0.72 9  150 258 
 PTB  HZ I        1010 51.07        37.5 0.42            126            150 258 
 PTB  HN ES       1011  9.26                             131   -0.79 9  150 258 
 TAM  HZ IP     C 1010 50.26                             130    0.64 9  155 106 
 TAM  HZ I        1010 50.28        16.4 0.12            131            155 106 
 TAM  HN ES       1011 10.99                             130    0.04 9  155 106 
 OCA  HZ EP     D 1010 50.13                             129    0.09 9  158 353 
 OCA  HN ES       1011 11.72                             129    0.02 9  158 353 
 OCA  HZ I        1011 17.02        96.1 0.24            127            158 353 
 SPBC HZ EP     C 1010 50.81                             128    0.02 9  166 219 
 SPBC HN ES       1011 12.46                             128   -0.57 9  166 219 
 SPBC HZ I        1011 19.97        53.2 0.38            124            166 219 
 ZAR  HZ EP       1010 54.88                             121    0.39 9  204 291 
 ZAR  HN ES       1011 20.20                             121    0.57 9  204 291 
 ZAR  HZ I        1011 25.93        70.2 0.34            118            204 291 
 NOR  HZ EP       1010 58.04                             117   -0.05 8  237 234 
 NOR  HN ES       1011 25.66                             117   -0.37 8  237 234 
 NOR  HZ I        1011 33.46        21.0 0.14            114            237 234 
 SML  HZ EP       1010 58.10                             117   -0.37 8  242 335 
 SML  HN ES       1011 25.72                             117   -0.98 8  242 335 
 SML  HZ I        1011 33.26        48.0 0.28            114            242 335 
 CHI  HZ EP       1010 59.96                             116   -0.16 8  252 195 
 CHI  HE ES       1011 29.48                             116   -0.15 8  252 195 
 CHI  HZ I        1011 33.88        11.8 0.46            114            252 195 
 ROSC BZ EP   4   1011  1.95                             116    1.41 0  256 211 
 ROSC BE ES       1011 30.55                             116    0.16 8  256 211 
 ROSC BZ I        1011 37.84        48.4 0.50            113            256 211 
 HEL  HZ EP       1011  3.12                             114    0.60 8  274 255 
 HEL  HE ES       1011 33.93                             114    0.01 8  274 255 
 HEL  HZ I        1011 41.20        16.3 0.28            111            274 255 
 SOCV BZ EP     C 1011  3.99                             112   -0.86 7  299  57 
 SOCV BN ES   4   1011 34.26                             112   -3.80 0  299  57 
 GUY2CHZ EP       1011  6.62                             111    0.59 7  304 234 
 GUY2CHE ES       1011 40.37                             111    0.22 7  304 234 
 GUY2CHZ I        1011 47.22        16.5 0.22                           304 234 
 PTGC HZ IP   4 C 1011  5.18                             111   -1.04 0  311 159 
 PTGC HN ES   4   1011 37.67                             111   -2.84 0  311 159 
 PTGC HZ I        1011 40.89        22.3 0.44            110            311 159 
 ELA  HZ EP   4   1011 11.68                             109    2.38 0  332 229 
 ELA  HN ES       1011 45.22                             109   -0.77 7  332 229 
 ELA  HZ I        1012  1.81        12.9 0.54            107            332 229 
 CBOC HZ EP       1011 10.10                             109    0.82 7  336 252 
 CBOC HZ I        1011 12.17         6.4 0.12            107            336 252 
 CBOC HN ES   4   1011 41.34                             109   -4.61 0  336 252 
 DBB  SZ EP       1011  9.97                             109    0.24 7  341 274 
 DBB  SZ I        1011 52.27        41.0 0.76            106            341 274 
 TOL  SZ EP       1011 11.77                             108    1.04 6  346 224 
 TOL  SN ES       1011 48.45                             108   -0.07 6  346 224 
 TOL  SZ I        1011 54.00        15.4 0.24            106            346 224 
 PRA  HZ EP       1011 15.96                             106   -0.08 6  395 210 
 PRA  HE ES       1011 57.15                             106   -0.83 6  395 210 
 PRA  HZ I        1012  4.67        13.7 0.50            104            395 210 
 ORTC HZ EP       1011 16.40                             106   -0.04 6  399 216 
 ORTC HE ES       1011 58.88                             106    0.20 6  399 216 
 ORTC HZ I        1012  6.71        12.6 0.38            104            399 216 
 CRJC HZ IP     D 1011 22.74                             103   -1.58 5  465   3 
 CRJC HZ I        1011 22.82        10.4 0.10            102            465   3 
 CRJC HN ES   4   1012 10.20                             103   -2.51 0  465   3 
                                                                                
