 2016  811 1537 16.4 L   6.792 -73.165144.6  RSN  8 0.4 1.8LRSN                1
 GAP=235        0.98       4.2     5.1  5.9  0.6874E+01  0.7567E+01  0.4629E+01E
 Epicentro: LOS SANTOS - SANTANDER                                             3
 ACTION:UPD 16-10-29 15:34 OP:rebc STATUS:               ID:20160811153716 L   I
 OLDACT:REG 16-08-11 20:54 OP:lv   STATUS:               ID:20160811152759     3
 2016-08-11-1527-59S.COL___340                                                 6
 STAT SP IPHASW D HRMM SECON CODA AMPLIT PERI AZIMU VELO AIN AR TRES W  DIS CAZ7
 BAR2 EZ EP       1537 35.70                             171   -0.1610 22.2 185 
 BAR2 EZ ES       1537 50.46                             171   -0.5810 22.2 185 
 BAR2 EZ I        1537 51.91        18.1 0.22                          22.2 185 
 BRR  HZ EP       1537 37.52                             153    0.1810 69.7 300 
 BRR  HE ES       1537 54.14                             153    0.4710 69.7 300 
 BRR  HZ I        1537 57.22        12.3 0.20                          69.7 300 
 RUS  HZ EP       1537 39.70                             144   -0.2810 99.9 175 
 RUS  HN ES       1537 59.01                             144    0.6410 99.9 175 
 RUS  HZ I        1537 59.43        10.6 0.26                          99.9 175 
 PTB  HZ EP       1537 42.43                             132   -0.63 9  145 259 
 PTB  HN ES       1538  3.32                             132   -0.53 9  145 259 
 PTB  HZ I        1538  6.40         6.2 0.14                           145 259 
 SPBC HZ EP       1537 44.96                             129    0.35 9  161 219 
 SPBC HN ES       1538  6.93                             129    0.32 9  161 219 
 SPBC HZ I        1538 12.48        10.7 0.10                           161 219 
 ZAR  HZ EP       1537 48.93                             122    0.34 9  202 293 
 ZAR  HE ES       1538 13.75                             122    0.05 9  202 293 
 ZAR  HZ I        1538 22.51         6.0 0.24                           202 293 
 CHI  HZ EP       1537 53.86                             117   -0.01 8  247 195 
 CHI  HN ES       1538 22.75                             117   -0.36 8  247 195 
 CHI  HZ I        1538 26.50         4.1 0.15                           247 195 
 GUY2CHZ EP       1537 59.87                             112    0.18 7  299 235 
 GUY2CHE ES       1538 33.55                             112    0.09 7  299 235 
 GUY2CHZ I        1538 41.83         3.2 0.30                           299 235 
                                                                                
