 2011 1011 1609 33.1 L   6.789 -73.107149.6  RSN  5 0.4 1.6LRSN                1
 GAP=142        0.51       5.4     6.8  7.7  0.1550E+02  0.1077E+01  0.1455E+02E
 Epicentro: LOS SANTOS - SANTANDER                                             3
 ACTION:UPD 12-07-13 16:03 OP:ep   STATUS:               ID:20111011160933 L   I
 2011-10-11-1607-51S.COL___167                                                 6
 STAT SP IPHASW D HRMM SECON CODA AMPLIT PERI AZIMU VELO AIN AR TRES W  DIS CAZ7
 BAR2 SZ EP       16 9 53.06                             171   -0.1110 23.3 201 
 BAR2 SZ I        1610 10.44         9.0 0.78                          23.3 201 
 BRR  HZ EP       16 9 54.96                             152    0.0810 75.5 298 
 BRR  HN ES   1   1610 12.07                             152    0.18 7 75.5 298 
 PAM  SE ES   2   1610 13.05                             152   -0.12 5 75.7  36 
 RUS  HZ EP       16 9 57.19                             145    0.0810 99.2 178 
 RUS  HN ES   2   1610 15.67                             145   -0.18 5 99.2 178 
 ZAR  HE ES   3   1610 30.27                             123   -1.81 2  208 292 
                                                                                
