 2017 1011 1759 58.3 L   6.800 -73.149134.4  RSN  4 0.3 1.4LRSN                1
 GAP=136        0.83       4.3     5.1  7.8  0.8789E+00  0.1137E+02 -0.2712E+01E
 Epicentro: LOS SANTOS - SANTANDER                                             3
 ACTION:UPD 17-11-07 19:30 OP:rebc STATUS:               ID:20171011175958 L   I
 OLDACT:REG 17-10-11 19:47 OP:lv   STATUS:               ID:20171011175742     3
 2017-10-11-1758-00M.COL___441                                                 6
 STAT SP IPHASW D HRMM SECON CODA AMPLIT PERI AZIMU VELO AIN AR TRES W  DIS CAZ7
 BAR2 EZ EP       18 0 16.28                             170   -0.2910 23.2 189 
 BAR2 EZ ES       18 0 30.34                             170   -0.4810 23.2 189 
 BAR2 EZ I        18 0 32.70         6.9 0.60            170           23.2 189 
 PAM  EZ EP       18 0 19.18                             149   -0.1610 77.6  40 
 PAM  EN ES       18 0 36.10                             149    0.3510 77.6  40 
 PAM  EZ I        18 0 38.03         6.6 0.42            150           77.6  40 
 RUS  HZ EP       18 0 20.96                             141    0.0010  101 176 
 RUS  HN ES       18 0 39.05                             141    0.4310  101 176 
 RUS  HZ I        18 0 40.61         2.5 0.32            143            101 176 
 ZAR  HN ES       18 0 54.94                             120    0.21 9  204 292 
                                                                                
