 2011  411 1256 28.2 L   6.886 -73.175132.5  RSN  4 0.3 1.9LRSN                1
 GAP=135        0.79      11.5    11.0 10.6 -0.1181E+02  0.9656E+01 -0.1999E+02E
 Epicentro: BETULIA - SANTANDER                                                3
 ACTION:UP  11-06-22 15:30 OP:REBC STATUS:               ID:20110411125628 L   I
 2011-04-11-1254-00S.COL___138                                                 6
 STAT SP IPHASW D HRMM SECON CODA AMPLIT PERI AZIMU VELO SNR AR TRES W  DIS CAZ7
 BTL  SZ EP       1256 46.14                             175     0.110   11 290 
 BAR2 SZ EP       1256 46.01                             166    -0.510   32 181 
 BAR2 SZ ES   1   1257  1.12                             166     0.4 7   32 181 
 BAR2 SZ I        1257  3.73        11.7 0.38                            32 181 
 BRR  HZ EP   1   1256 47.94                             153     0.4 7   64 292 
 BRR  HE ES   2   1257  2.13                             153    -0.5 5   64 292 
 BRR  HZ I        1257 25.38        26.0 0.60                            64 292 
 PAM  SZ EP   2   1256 48.69                             150     0.0 5   73  46 
 PAM  SE ES   2   1257  4.79                             150     0.1 5   73  46 
                                                                                
