 2011 1211 1044 42.7 L   6.793 -73.123153.5  RSN  9 0.3 2.0LRSN                1
 GAP=140        0.53       3.5     4.8  6.0 -0.5148E+01  0.5839E+01  0.3120E+01E
 Epicentro: LOS SANTOS - SANTANDER                                             3
 ACTION:UPD 12-07-13 16:15 OP:ep   STATUS:               ID:20111211104442 L   I
 2011-12-11-1040-00M.COL___185                                                 6
 STAT SP IPHASW D HRMM SECON CODA AMPLIT PERI AZIMU VELO AIN AR TRES W  DIS CAZ7
 BAR2 SZ EP   1   1045  3.21                             171   -0.07 7 23.1 196 
 BAR2 SZ I        1045  3.58        16.9 0.13                          23.1 196 
 GIR2 SZ EP   1   1045  3.30                             168   -0.05 7 32.6 346 
 GIR2 SZ ES   2   1045 19.25                             168   -0.19 5 32.6 346 
 BRR  HZ EP   1   1045  5.14                             153    0.29 7 73.8 298 
 BRR  HZ I        1045  5.42        40.8 0.18                          73.8 298 
 BRR  HE ES   2   1045 22.42                             153    0.31 5 73.8 298 
 PAM  SZ EP   1   1045  6.05                             152    0.34 7 76.5  38 
 PAM  SZ I        1045  6.31        15.9 0.18                          76.5  38 
 PAM  SN ES   2   1045 23.24                             152   -0.41 5 76.5  38 
 RUS  HZ EP   1   1045  7.55                             145    0.38 7 99.6 177 
 RUS  HN ES   2   1045 26.08                             145   -0.17 5 99.6 177 
 RUS  HZ I        1045 27.13         9.3 0.28                          99.6 177 
 OCA  SZ EP   1   1045 11.44                             131   -0.31 7  161 352 
 OCA  SZ ES   2   1045 34.30                             131   -0.09 5  161 352 
 OCA  SZ I        1045 37.72        11.7 0.19                           161 352 
 NOR  SZ EP   1   1045 18.46                             120   -0.61 6  236 235 
 NOR  SN ES   2   1045 47.01                             120   -0.42 4  236 235 
 HEL  HN ES   2   1045 55.87                             116    0.42 4  274 256 
 PRA  HN ES   2   1046 18.74                             108    0.16 3  393 210 
                                                                                
