 2011 1211 1132 33.9 L   6.726 -73.160147.3  RSN 10 0.5 1.7LRSN                1
 GAP=138        0.75       4.2     5.8  7.3 -0.6292E+01  0.1017E+02  0.3194E+01E
 Epicentro: VILLANUEVA - SANTANDER                                             3
 ACTION:UPD 12-07-13 16:15 OP:ep   STATUS:               ID:20111211113233 L   I
 2011-12-11-1130-43S.COL___146                                                 6
 STAT SP IPHASW D HRMM SECON CODA AMPLIT PERI AZIMU VELO AIN AR TRES W  DIS CAZ7
 BAR2 SZ EP   1   1132 53.82                             174    0.28 7 15.0 189 
 BAR2 SZ ES   2   1133  8.24                             174   -0.65 5 15.0 189 
 BAR2 SZ I        1133 10.93        11.9 0.31                          15.0 189 
 GIR2 SZ EP   1   1132 54.27                             164    0.31 7 39.2 355 
 BRR  HZ EP   1   1132 55.68                             152    0.33 7 74.1 305 
 BRR  HE ES   2   1133 12.75                             152    0.65 5 74.1 305 
 BRR  HZ I        1133 14.56        11.0 0.14                          74.1 305 
 PAM  SZ EP   1   1132 56.84                             149    0.14 7 84.8  37 
 PAM  SN ES   2   1133 14.18                             149   -0.33 5 84.8  37 
 RUS  HZ EP   1   1132 57.60                             146    0.39 7 92.6 175 
 RUS  HZ I        1132 58.84         7.5 0.20                          92.6 175 
 RUS  HN ES   2   1133 15.45                             146    0.03 5 92.6 175 
 PTB  HZ EP   1   1133  0.58                             133   -0.11 7  145 262 
 PTB  HN ES   2   1133 21.11                             133   -0.51 5  145 262 
 OCA  SZ EP   1   1133  2.64                             129   -0.41 7  168 354 
 OCA  SZ ES   2   1133 25.22                             129   -0.59 5  168 354 
 OCA  SZ I        1133 28.89         7.6 0.45                           168 354 
 NOR  SZ EP   1   1133  9.72                             120    0.67 6  229 236 
 NOR  SN ES   2   1133 36.89                             120    0.40 4  229 236 
 CHI  HZ EP   1   1133 10.01                             118   -0.74 6  240 195 
 CHI  HN ES   2   1133 38.93                             118   -0.60 4  240 195 
 HEL  HZ EP   1   1133 13.08                             115   -0.69 6  269 257 
                                                                                
