 2014 1011 1709 59.8 L   6.003 -74.033 88.3  RSN  5 0.2 1.4LRSN                1
 GAP=135        0.59       2.5     2.7  5.5  0.1181E+01 -0.6142E+01 -0.4827E+01E
 Epicentro: LA BELLEZA - SANTANDER                                             3
 ACTION:UPD 14-11-29 23:48 OP:nd   STATUS:               ID:20141011170959 L   I
 OLDACT:REG 14-10-11 22:18 OP:stll STATUS:               ID:20141011170750     3
 2014-10-11-1707-50M.COL___292                                                 6
 STAT SP IPHASW D HRMM SECON CODA AMPLIT PERI AZIMU VELO AIN AR TRES W  DIS CAZ7
 SPBC HZ EP       1710 13.45                             154    0.3810 39.1 186 
 SPBC HN ES       1710 23.35                             154   -0.0410 39.1 186 
 SPBC HZ I        1710 24.89        21.4 0.22            154           39.1 186 
 PTB  HN ES       1710 27.62                             136   -0.2010 75.5 322 
 RUS  HZ EP       1710 18.75                             126   -0.2810  106  97 
 RUS  HZ I        1710 19.08         2.8 0.38            128            106  97 
 RUS  HN ES       1710 33.93                             126   -0.0710  106  97 
 BAR2 SZ EP       1710 19.68                             124    0.1210  114  55 
 BAR2 SZ ES       1710 34.98                             124    0.0310  114  55 
 BRR  HZ EP       1710 20.38                             120   -0.2010  127  16 
 BRR  HN ES       1710 37.02                             120    0.2610  127  16 
                                                                                
