 2011  511 1144 46.4 L   6.866 -73.118148.0  RSN 12 0.2 2.0LRSN                1
 GAP=137        0.52       2.7     4.6  4.4 -0.4757E+01  0.1343E+01  0.1446E+01E
 Epicentro: LOS SANTOS - SANTANDER                                             3
 ACTION:UP  11-06-29 08:52 OP:tino STATUS:               ID:20110511114446 L   I
 2011-05-11-1141-05S.COL___129                                                 6
 STAT SP IPHASW D HRMM SECON CODA AMPLIT PERI AZIMU VELO SNR AR TRES W  DIS CAZ7
 BTL  SZ IP       1145  6.24                             173     0.110   18 289 
 GIR2 SZ EP   2   1145  6.02                             170    -0.1 5   25 340 
 BAR2 SZ IP       1145  6.35                             168    -0.110   31 193 
 BAR2 SZ ES   2   1145 22.01                             168    -0.1 5   31 193 
 BAR2 SZ I        1145 25.18        20.4 0.40                            31 193 
 PAM  SZ EP   1   1145  8.71                             154     0.3 7   70  41 
 PAM  SN ES   2   1145 25.80                             154     0.2 5   70  41 
 BRR  HZ IP     C 1145  7.63                             153    -0.110   71 292 
 BRR  HZ I        1145  9.33        46.5 0.11                            71 292 
 BRR  HE ES   1   1145 24.77                             153     0.4 7   71 292 
 BRI  SZ EP   1   1145 10.13                             144     0.2 7  101  21 
 BRI  SZ I        1145 10.51        12.8 0.44                           101  21 
 BRI  SZ ES   2   1145 27.75                             144    -0.5 5  101  21 
 RUS  HZ EP   1   1145 10.55                             142    -0.3 7  108 178 
 RUS  HN ES   2   1145 29.89                             142    -0.1 5  108 178 
 RUS  HZ I        1145 31.31         7.1 0.35                           108 178 
 GRA  SZ IP       1145 11.30                             140     0.110  118  17 
 GRA  SZ ES   1   1145 30.55                             140     0.0 7  118  17 
 GRA  SZ I        1145 31.47        18.1 0.32                           118  17 
 OCA  SZ EP       1145 13.90                             132    -0.3 9  153 352 
 OCA  SZ ES   2   1145 35.72                             132    -0.2 5  153 352 
 OCA  SZ I        1145 44.03        16.5 0.24                           153 352 
 NOR  SZ EP   2   1145 22.58                             118    -0.4 4  241 233 
 HEL  HZ EP   2   1145 27.21                             115     0.0 4  277 255 
 HEL  HZ I        1146  4.47         6.4 0.38                           277 255 
 PRA  HZ EP   1   1145 41.22                             107     0.3 4  400 209 
 PRA  HN ES   2   1146 23.85                             107     0.5 3  400 209 
                                                                                
