 2015 1211 1047 32.3 L   6.805 -73.138140.2  RSN  9 0.4 1.9LRSN                1
 GAP=184        1.12       3.8     5.7  6.9  0.1489E+01  0.3662E+01 -0.5975E+01E
 Epicentro: LOS SANTOS - SANTANDER                                             3
 ACTION:UPD 16-02-04 15:04 OP:cam  STATUS:               ID:20151211104732 L   I
 OLDACT:UP  15-12-12 00:29 OP:mh   STATUS:               ID:20151211103747     3
 OLDACT:REG 15-12-11 22:55 OP:mh   STATUS:               ID:20151211103747     3
 2015-12-11-1037-47M.COL___325                                                 6
 STAT SP IPHASW D HRMM SECON CODA AMPLIT PERI AZIMU VELO AIN AR TRES W  DIS CAZ7
 BAR2 EZ EP   1   1047 51.00                             170   -0.32 7 24.0 192 
 BAR2 EZ ES       1048  6.18                             170    0.0610 24.0 192 
 BAR2 EZ I        1048  7.93        17.3 0.21            164           24.0 192 
 BRR  HZ I        1047 53.44        18.2 0.26            147           71.7 298 
 BRR  HZ EP       1047 53.60                             151    0.6810 71.7 298 
 BRR  HN ES       1048  9.62                             151    0.6410 71.7 298 
 RUS  HZ EP       1047 55.67                             142    0.0910  101 177 
 RUS  HN ES       1048 13.52                             142   -0.1910  101 177 
 RUS  HZ I        1048 15.35         4.1 0.26            133            101 177 
 PTB  HZ EP       1047 59.41                             130    0.46 9  149 259 
 PTB  HN ES       1048 18.77                             130   -0.94 9  149 259 
 PTB  HZ I        1048 21.80         8.5 0.46            123            149 259 
 OCA  HZ EP       1048  0.01                             128   -0.18 9  160 353 
 OCA  HN ES       1048 21.43                             128   -0.48 9  160 353 
 OCA  HZ I        1048 26.58        14.5 0.14            122            160 353 
 SPBC HZ EP       1048  0.69                             128    0.18 9  164 219 
 SPBC HN ES       1048 22.17                             128   -0.31 9  164 219 
 SPBC HZ I        1048 29.45         5.3 0.11            120            164 219 
 ZAR  HZ EP       1048  4.81                             121    0.31 9  205 292 
 ZAR  HN ES       1048 29.74                             121    0.16 9  205 292 
 ZAR  HZ I        1048 35.83         7.2 0.46            115            205 292 
 NOR  HN ES   4   1048 33.88                             117   -1.69 0  236 234 
 SML  HZ EP       1048  8.06                             116   -0.59 8  244 335 
 SML  HN ES   4   1048 35.35                             116   -1.62 0  244 335 
 SML  HZ I        1048 39.41         8.8 0.12            110            244 335 
 SJC  HZ EP   4   1048 26.28                             105   -1.45 0  409 327 
 SJC  HN ES   4   1049  6.99                             105   -3.95 0  409 327 
 SJC  HZ I        1049 11.82         2.0 0.42            100            409 327 
                                                                                
