 2011  111 1152 56.8 L   6.810 -73.102136.0  RSN  7 0.5 1.9LRSN                1
 GAP=163        0.98       6.2    12.7 12.1 -0.4406E+02  0.7416E+02 -0.2156E+02E
 Epicentro: LOS SANTOS - SANTANDER                                             3
 ACTION:UP  11-02-08 08:40 OP:pat  STATUS:               ID:20110111115256 L   I
 2011-01-11-1140-00M.COL___136                                                 6
 STAT SP IPHASW D HRMM SECON CODA AMPLIT PERI AZIMU VELO SNR AR TRES W  DIS CAZ7
 BAR2 SZ IP       1153 15.12                             169    -0.110   26 201 
 BAR2 SZ I        1153 15.46        23.9 0.38                            26 201 
 BAR2 SZ ES   2   1153 29.82                             169     0.1 5   26 201 
 RUS  HZ EP   1   1153 19.20                             142    -0.4 7  101 179 
 RUS  HN ES   2   1153 38.12                             142     0.7 5  101 179 
 RUS  HZ I        1153 38.62         5.5 0.39                           101 179 
 GRA  SZ IP       1153 20.63                             135    -0.310  123  15 
 GRA  SZ ES   2   1153 39.89                             135     0.1 5  123  15 
 GRA  SZ I        1153 41.17        28.7 0.35                           123  15 
 OCA  SZ EP   1   1153 24.86                             127     0.6 7  160 351 
 NOR  SZ EP   1   1153 31.79                             116    -0.7 6  239 235 
 NOR  SN ES   2   1153 59.80                             116    -0.5 4  239 235 
 CHI  HZ EP   1   1153 34.98                             115     0.8 6  251 196 
 CHI  HE ES   2   1154  2.97                             115    -0.4 4  251 196 
 CHI  HZ I        1154 12.81         3.5 0.53                           251 196 
 HEL  HZ EP   1   1153 37.83                             112     0.8 6  277 256 
 HEL  HZ I        1154 15.01         5.2 0.37                           277 256 
                                                                                
