 2016  211 1215 19.4 L   5.997 -74.232  4.8  RSN  5 0.4 1.2LRSN                1
 GAP=102        0.74       2.5     3.1  7.2 -0.8084E+00  0.8213E+00  0.4373E+00E
 Epicentro: LA BELLEZA - SANTANDER                                             3
 ACTION:UPD 16-03-04 21:25 OP:rebc STATUS:               ID:20160211121519 L   I
 OLDACT:DUP 16-02-11 22:53 OP:dnl  STATUS:               ID:20160211120749d    3
 2016-02-11-1207-48M.COL___309                                                 6
 STAT SP IPHASW D HRMM SECON CODA AMPLIT PERI AZIMU VELO AIN AR TRES W  DIS CAZ7
 PTB  HZ EP       1215 29.62                              47   -0.2610 64.9 338 
 PTB  HN ES   2   1215 38.66                              47    0.64 5 64.9 338 
 PTB  HZ I        1215 42.28         9.1 0.09             47           64.9 338 
 NOR  HZ EP   2   1215 32.49                              47   -0.52 5 85.3 236 
 NOR  HE ES   2   1215 43.01                              47   -0.59 5 85.3 236 
 NOR  HZ I        1215 45.50         9.6 0.05             47           85.3 236 
 BAR2 EZ EP   2   1215 40.56                              47    0.06 5  133  60 
 BAR2 EZ ES   2   1215 56.09                              47   -0.84 5  133  60 
 BAR2 EZ I        1215 58.58         2.6 0.15             47            133  60 
 GUY2CHZ EP       1215 43.87                              47    0.34 9  152 236 
 GUY2CHE ES   2   1216  2.08                              47   -0.24 5  152 236 
 GUY2CHZ I        1216  9.46         3.8 0.32                           152 236 
 CHI  HZ I    4   1215  3.60         3.6 0.10             47            161 160 
 CHI  HZ EP       1215 45.25                              47    0.39 9  161 160 
 CHI  HN ES   2   1216  4.61                              47   -0.09 5  161 160 
 CHI  HZ I        1216  8.32         2.2 0.40             47            161 160 
                                                                                
