 2014  811 1351  3.2 L   6.767 -73.124151.1  RSN  7 0.4 1.6LRSN                1
 GAP=237        0.89       5.2     5.6  6.9  0.9430E+01  0.4285E+01  0.4137E+01E
 Epicentro: LOS SANTOS - SANTANDER                                             3
 ACTION:UPD 14-09-15 21:49 OP:nd   STATUS:               ID:20140811135103 L   I
 OLDACT:REG 14-08-11 20:15 OP:spq  STATUS:               ID:20140811134819     3
 2014-08-11-1348-19M.COL___263                                                 6
 STAT SP IPHASW D HRMM SECON CODA AMPLIT PERI AZIMU VELO AIN AR TRES W  DIS CAZ7
 BAR2 SZ EP       1351 23.54                             172    0.1210 20.4 198 
 BAR2 SZ ES   1   1351 39.26                             172    0.08 7 20.4 198 
 BAR2 SZ I        1351 40.74         5.2 0.17            169           20.4 198 
 BRR  HZ EP       1351 25.54                             152    0.4010 75.1 300 
 BRR  HN ES       1351 42.39                             152    0.1310 75.1 300 
 BRR  HZ I        1351 45.69        11.8 0.32            151           75.1 300 
 RUS  HZ EP   1   1351 26.54                             146   -0.68 7 96.8 177 
 RUS  HE ES   1   1351 45.70                             146   -0.25 7 96.8 177 
 RUS  HZ I        1351 48.83         3.6 0.52            147           96.8 177 
 PTB  HZ EP       1351 30.22                             133   -0.54 9  149 260 
 PTB  HN ES       1351 51.77                             133   -0.48 9  149 260 
 PTB  HZ I        1351 54.24         4.3 0.15            133            149 260 
 SPBC HZ EP       1351 32.24                             130    0.25 9  162 220 
 SPBC HN ES       1351 54.91                             130    0.46 9  162 220 
 SPBC HZ I        1351 59.57         5.9 0.20            131            162 220 
 ZAR  HN ES       1352  2.16                             123   -0.07 8  208 293 
 ZAR  HZ I        1352  8.68         3.7 0.24            124            208 293 
 GUY2CHZ EP   1   1351 47.65                             113    0.60 5  301 236 
 GUY2CHN ES   4   1352 24.14                             113    2.89 0  301 236 
 GUY2CHZ I        1352 28.55         2.0 0.40                           301 236 
                                                                                
