 2017  311 1515 30.7 L   6.764 -73.140143.3  RSN  6 0.3 1.6LRSN                1
 GAP=139        0.82       4.1     3.6  5.6  0.1458E+01  0.5241E+01 -0.1063E+01E
 Epicentro: LOS SANTOS - SANTANDER                                             3
 ACTION:UPD 17-05-25 18:39 OP:jn   STATUS:               ID:20170311151530 L   I
 OLDACT:REG 17-03-11 21:32 OP:ar   STATUS:               ID:20170311150744     3
 2017-03-11-1508-00M.COL___403                                                 6
 STAT SP IPHASW D HRMM SECON CODA AMPLIT PERI AZIMU VELO AIN AR TRES W  DIS CAZ7
 BAR2 EZ IP     D 1515 49.85                             172   -0.1510 19.6 194 
 BAR2 EZ ES       1516  4.70                             172   -0.3210 19.6 194 
 BAR2 EZ I        1516  5.59        15.2 0.36            173           19.6 194 
 BRR  HZ EP       1515 51.83                             151    0.0610 73.7 301 
 BRR  HN ES       1516  8.66                             151    0.5010 73.7 301 
 PAM  EZ EP       1515 52.84                             149   -0.0210 80.1  37 
 PAM  EE ES       1516  9.93                             149   -0.1810 80.1  37 
 PAM  EZ I        1516 11.84         5.5 0.44            150           80.1  37 
 RUS  HZ EP       1515 53.78                             144   -0.1810 96.6 176 
 RUS  HN ES       1516 12.58                             144    0.5110 96.6 176 
 RUS  HZ I        1516 13.30         4.0 0.32            146           96.6 176 
 PTB  HZ EP       1515 57.61                             131    0.11 9  148 260 
 PTB  HN ES       1516 17.74                             131   -0.62 9  148 260 
 PTB  HZ I        1516 19.80         7.3 0.16            132            148 260 
 ZAR  HZ EP       1516  3.39                             121    0.15 8  206 293 
 ZAR  HE ES       1516 28.73                             121    0.14 8  206 293 
 ZAR  HZ I        1516 33.70         5.0 0.24            122            206 293 
                                                                                
