 2017  111 1733 27.3 L   6.791 -73.148145.8  RSN  6 0.3 1.5LRSN                1
 GAP=137        0.83       4.2     3.9  6.0 -0.4011E+01  0.4373E+01  0.2224E+01E
 Epicentro: LOS SANTOS - SANTANDER                                             3
 ACTION:UPD 17-05-22 15:58 OP:jn   STATUS:               ID:20170111173327 L   I
 OLDACT:DUP 17-01-12 00:39 OP:ar   STATUS:               ID:20170111172760d    3
 2017-01-11-1727-59S.COL___303                                                 6
 STAT SP IPHASW D HRMM SECON CODA AMPLIT PERI AZIMU VELO AIN AR TRES W  DIS CAZ7
 BAR2 EZ EP       1733 46.87                             171   -0.0510 22.3 190 
 BAR2 EZ ES       1734  2.54                             171    0.3210 22.3 190 
 BAR2 EZ I        1734  4.10         5.4 0.16            169           22.3 190 
 BRR  HZ EP       1733 48.68                             152    0.2110 71.4 299 
 BRR  HN ES       1734  5.26                             152    0.2810 71.4 299 
 BRR  HZ I        1734  7.42         9.0 0.30            152           71.4 299 
 PAM  EZ EP       1733 49.67                             150    0.0910 78.3  39 
 PAM  EN ES       1734  6.64                             150   -0.3210 78.3  39 
 PAM  EZ I        1734  8.19         5.6 0.36            154           78.3  39 
 RUS  HZ EP       1733 51.38                             144    0.3910 99.6 176 
 RUS  HN ES       1734  9.10                             144   -0.3710 99.6 176 
 RUS  HZ I        1734 11.47         3.6 0.32            144           99.6 176 
 PTB  HZ EP       1733 53.74                             132   -0.49 9  147 259 
 PTB  HN ES       1734 14.87                             132   -0.36 9  147 259 
 PTB  HZ I        1734 16.95         5.2 0.24            132            147 259 
 NOR  HN ES       1734 31.05                             119    0.30 8  234 235 
 NOR  HZ I        1734 37.81         3.3 0.30            119            234 235 
                                                                                
