 2013  211 1404  8.2 L   6.729 -73.182152.0  RSN  5 0.3 1.7LRSN                1
 GAP=135        0.68       6.8     6.0  9.9  0.3363E+01 -0.1947E+02  0.2773E+01E
 Epicentro: VILLANUEVA - SANTANDER                                             3
 ACTION:UPD 13-03-12 09:32 OP:ep   STATUS:               ID:20130211140408 L   I
 2013-02-11-1400-00M.COL___240                                                 6
 STAT SP IPHASW D HRMM SECON CODA AMPLIT PERI AZIMU VELO AIN AR TRES W  DIS CAZ7
 BAR2 SZ EP   1   14 4 28.32                             174   -0.15 7 15.1 180 
 BAR2 SZ I        14 4 46.26         9.7 0.42            164           15.1 180 
 BRR  HZ EP   1   14 4 30.33                             153    0.24 7 72.0 306 
 BRR  HN ES   1   14 4 47.52                             153    0.38 7 72.0 306 
 BRR  HN I        14 4 49.92        13.9 0.22            145           72.0 306 
 PAM  SZ EP   1   14 4 31.15                             149   -0.47 7 86.0  38 
 PAM  SZ I        14 4 50.54         4.6 0.50            130           86.0  38 
 RUS  HZ EP   1   14 4 32.44                             147    0.36 7 93.1 173 
 RUS  HN ES   2   14 4 50.55                             147   -0.14 5 93.1 173 
 RUS  HN I        14 4 52.66         4.9 0.26            143           93.1 173 
 PTB  HZ EP   1   14 4 35.41                             135    0.17 7  142 262 
 PTB  HN ES   1   14 4 55.79                             135   -0.52 7  142 262 
 PTB  HN I        14 5  1.45         9.1 0.46            132            142 262 
                                                                                
