 2013  811 1633 56.5 L   6.810 -73.171141.0  RSN  5 0.3 1.3LRSN                1
 GAP=133        0.60       4.2     3.8  7.7 -0.3575E+00  0.7247E+01 -0.3456E+01E
 Epicentro: LOS SANTOS - SANTANDER                                             3
 ACTION:UPD 14-01-14 09:01 OP:ep   STATUS:               ID:20130811163356 L   I
 OLDACT:REG 13-08-11 17:34 OP:jn   STATUS:               ID:20130811162959     3
 2013-08-11-1629-59M.COL___270                                                 6
 STAT SP IPHASW D HRMM SECON CODA AMPLIT PERI AZIMU VELO AIN AR TRES W  DIS CAZ7
 BAR2 SZ ES   1   1634 30.51                             170    0.10 7 24.1 183 
 BAR2 SZ I        1634 31.99         4.9 0.16            172           24.1 183 
 PAM  SZ EP   1   1634 18.09                             150   -0.14 7 78.4  42 
 PAM  SN ES   1   1634 35.14                             150   -0.08 7 78.4  42 
 PAM  SZ I        1634 37.48         2.7 0.40            150           78.4  42 
 RUS  HZ EP   1   1634 19.90                             142    0.06 7  102 174 
 RUS  HN ES   1   1634 38.25                             142    0.17 7  102 174 
 RUS  HZ I        1634 39.20         1.9 0.50            146            102 174 
 PTB  HN ES   1   1634 42.79                             131   -0.57 7  145 258 
 ZAR  HN ES   1   1634 53.63                             122    0.53 6  201 292 
 ZAR  HZ I        1634 59.16         3.0 0.34            121            201 292 
                                                                                
