 2012  611 1427 50.7 L   6.792 -73.167142.0  RSN  4 0.1 1.5LRSN                1
 GAP=242        0.35       4.8     3.6  4.5  0.1125E+02  0.1906E+01 -0.3417E+01E
 Epicentro: LOS SANTOS - SANTANDER                                             3
 ACTION:UPD 12-08-06 17:48 OP:ep   STATUS:               ID:20120611142750 L   I
 2012-06-11-1420-00M.COL___201                                                 6
 STAT SP IPHASW D HRMM SECON CODA AMPLIT PERI AZIMU VELO AIN AR TRES W  DIS CAZ7
 BAR2 SZ EP   1   1428  9.88                             171    0.00 7 22.1 184 
 BAR2 SZ ES   1   1428 24.86                             171    0.05 7 22.1 184 
 BAR2 SZ I        1428 25.94        10.2 0.14            172           22.1 184 
 RUS  HZ EP   1   1428 13.88                             143   -0.17 7 99.9 175 
 RUS  HN ES   1   1428 32.28                             143    0.03 7 99.9 175 
 RUS  HZ I        1428 33.43         3.5 0.29            147           99.9 175 
 PTB  HZ EP   1   1428 17.41                             132    0.25 7  145 259 
 PTB  HN ES   1   1428 37.72                             132   -0.06 7  145 259 
 PTB  HZ I        1428 40.61         2.9 0.06            131            145 259 
 ZAR  HN ES   1   1428 47.61                             122   -0.10 6  202 293 
 ZAR  HZ I        1428 54.12         5.1 0.25            121            202 293 
                                                                                
