 2016 1211 1602  5.2 L   6.752 -73.387120.7  RSN  5 0.4 1.4LRSN                1
 GAP=170        1.08       7.0     6.5  7.9  0.2391E+02  0.1428E+02  0.4987E+01E
 Epicentro: SAN VICENTE DE CHUCURI - SANTANDER                                 3
 ACTION:UPD 17-01-11 20:14 OP:rebc STATUS:               ID:20161211160205 L   I
 OLDACT:REG 16-12-11 21:07 OP:dnl  STATUS:               ID:20161211155744     3
 2016-12-11-1558-00M.COL___381                                                 6
 STAT SP IPHASW D HRMM SECON CODA AMPLIT PERI AZIMU VELO AIN AR TRES W  DIS CAZ7
 BAR2 EZ EP       16 2 21.87                             166   -0.1310 28.7 128 
 BAR2 EZ ES       16 2 35.06                             166   -0.0210 28.7 128 
 BAR2 EZ I        16 2 36.37        17.7 0.28            166           28.7 128 
 BRR  HZ EP       16 2 22.24                             155   -0.4210 53.2 318 
 BRR  HN ES       16 2 36.38                             155    0.1210 53.2 318 
 BRR  HZ I        16 2 36.55         9.4 0.34            153           53.2 318 
 RUS  HZ EP       16 2 26.80                             138    0.1810  101 160 
 RUS  HE ES       16 2 43.49                             138    0.1810  101 160 
 RUS  HZ I        16 2 46.63         1.6 0.28            137            101 160 
 PTB  HZ EP       16 2 26.92                             132   -0.7610  121 259 
 PTB  HE ES       16 2 45.29                             132    0.1010  121 259 
 PTB  HZ I        16 2 50.24         4.5 0.28            129            121 259 
 ZAR  HZ EP       16 2 34.70                             119    0.91 9  182 297 
 ZAR  HN ES   4   16 2 57.49                             119    1.43 0  182 297 
 ZAR  HZ I        16 3  1.59         3.3 0.44            119            182 297 
                                                                                
