 2015  411 1609  2.3 L   6.395 -73.280  7.9  RSN 11 0.4 2.3LRSN                1
 GAP=127        1.02       1.8     2.5  4.5 -0.8676E+00  0.5649E+01 -0.4823E+00E
 Epicentro: PALMAS DEL SOCORRO - SANTANDER                                     3
 ACTION:UPD 15-06-03 16:54 OP:cam  STATUS:               ID:20150411160902 L   I
 OLDACT:UP  15-04-11 22:55 OP:mher STATUS:               ID:20150411160749     3
 OLDACT:UP  15-04-11 22:55 OP:mher STATUS:               ID:20150411160749     3
 OLDACT:UP  15-04-11 22:53 OP:mher STATUS:               ID:20150411160749     3
 OLDACT:UP  15-04-11 22:53 OP:mher STATUS:               ID:20150411160749     3
 OLDACT:REG 15-04-11 19:58 OP:mh   STATUS:               ID:20150411160749     3
 2015-04-11-1607-49M.COL___266                                                 6
 STAT SP IPHASW D HRMM SECON CODA AMPLIT PERI AZIMU VELO AIN AR TRES W  DIS CAZ7
 BAR2 EZ EP       16 9  7.14                             102    0.3010 24.3  26 
 BAR2 EZ ES       16 9 10.42                             102    0.0110 24.3  26 
 BAR2 EZ I        16 9 11.48       387.3 0.44             47           24.3  26 
 RUS  HZ EP       16 9 12.67                              94    0.2410 59.7 159 
 RUS  HN ES       16 9 20.24                              94   -0.1210 59.7 159 
 RUS  HZ I        16 9 20.78        47.0 0.10             47           59.7 159 
 BRR  HZ EP       16 9 17.28                              93    0.4710 92.1 329 
 BRR  HN ES       16 9 28.10                              93   -0.0710 92.1 329 
 BRR  HZ I        16 9 34.32        58.8 0.12             47           92.1 329 
 SPBC HZ EP   1   16 9 20.88                              92   -0.29 7  120 227 
 SPBC HN ES   1   16 9 35.55                              92   -0.38 7  120 227 
 SPBC HZ I        16 9 40.40        70.4 0.53             47            120 227 
 PAM  SZ EP   1   16 9 21.83                              92   -0.10 7  123  32 
 PAM  SN ES       16 9 36.43                              92   -0.8410  123  32 
 PAM  SZ I        16 9 36.69        94.4 0.16             47            123  32 
 PTB  HZ EP       16 9 23.10                              92    0.3610  131 277 
 PTB  HN ES   1   16 9 38.61                              92   -0.11 7  131 277 
 PTB  HZ I        16 9 39.56       161.9 0.40             47            131 277 
 NOR  HZ EP   1   16 9 32.12                              56    0.05 6  199 242 
 NOR  HN ES       16 9 56.08                              56    0.76 9  199 242 
 NOR  HZ I        16 9 58.43        24.5 0.28             37            199 242 
 OCA  HZ EP   1   16 9 32.99                              56    0.14 6  204 359 
 OCA  HE ES       16 9 57.18                              56    0.46 9  204 359 
 OCA  HZ I        1610  3.80        61.2 0.22             37            204 359 
 ROSC BN ES   4   1610  2.66                              56    4.73 0  207 214 
 ZAR  HZ EP   1   16 9 34.21                              56    0.47 6  212 305 
 ZAR  HN ES       16 9 57.98                              56   -0.33 8  212 305 
 ZAR  HZ I        1610  2.25        15.0 0.16             37            212 305 
 HEL  HZ EP   1   16 9 38.16                              56   -0.70 6  250 265 
 HEL  HN ES       1610  6.46                              56   -0.95 8  250 265 
 HEL  HZ I        1610  8.38        11.7 0.46             37            250 265 
 GUY2CHZ EP   4   16 9 42.45                              56    1.60 0  265 241 
 GUY2CHN ES   4   1610 12.22                              56    1.27 0  265 241 
 GUY2CHZ I        1610 17.02        12.5 0.44                           265 241 
 RREF HN ES   4   1610 16.89                              56    1.67 0  282 234 
                                                                                
