 2011  111 1303  7.0 L   5.800 -73.944 96.0  RSN  5 0.3 1.7LRSN                1
 GAP=172        0.62       6.6     3.1 11.4 -0.1013E+02  0.8828E+01 -0.1197E+02E
 Epicentro: ALBANIA - SANTANDER                                                3
 ACTION:UP  11-02-08 08:40 OP:pat  STATUS:               ID:20110111130306 L   I
 2011-01-11-1300-00M.COL___136                                                 6
 STAT SP IPHASW D HRMM SECON CODA AMPLIT PERI AZIMU VELO SNR AR TRES W  DIS CAZ7
 RUS  HZ EP   1   13 3 25.81                             132     0.0 7   96  84 
 RUS  HN ES   2   13 3 40.57                             132     0.0 5   96  84 
 RUS  HZ I        13 3 44.53         4.5 0.49                            96  84 
 NOR  SZ EP   1   13 3 25.82                             129    -0.4 7  106 256 
 NOR  SN ES   2   13 3 41.29                             129     0.1 5  106 256 
 BAR2 SZ EP   1   13 3 28.08                             125     0.1 7  121  44 
 BAR2 SZ ES   2   13 3 44.92                             125     0.6 5  121  44 
 BAR2 SZ I        13 3 45.90        17.9 0.16                           121  44 
 BTL  SZ EP   1   13 3 30.31                             120    -0.1 7  145  31 
 BTL  SZ ES   2   13 3 47.89                             120    -0.8 5  145  31 
 HEL  HZ EP   1   13 3 34.93                             114     0.4 7  181 284 
 HEL  HN ES   1   13 3 56.09                             114     0.0 7  181 284 
 HEL  HZ I        13 3 59.96         8.3 0.59                           181 284 
                                                                                
