 2016  911 1424  2.6 L   5.854 -73.639124.6  RSN 13 0.3 2.1LRSN                1
 GAP= 98        0.84       2.2     2.3  4.5 -0.1683E+01  0.2562E+01 -0.6118E+00E
 Epicentro: PUENTE NACIONAL - SANTANDER                                        3
 ACTION:UPD 17-08-17 21:08 OP:lp   STATUS:               ID:20160911142402 L   I
 OLDACT:REG 16-09-11 20:19 OP:lv   STATUS:               ID:20160911141739     3
 2016-09-11-1418-00M.COL___309                                                 6
 STAT SP IPHASW D HRMM SECON CODA AMPLIT PERI AZIMU VELO AIN AR TRES W  DIS CAZ7
 SPBC HZ EP       1424 20.43                             156   -0.1910 53.0 245 
 SPBC HN ES       1424 34.96                             156    0.3110 53.0 245 
 SPBC HZ I        1424 36.21        44.2 0.23            154           53.0 245 
 RUS  HZ EP       1424 21.59                             152   -0.0810 61.6  86 
 RUS  HE ES       1424 36.66                             152    0.1510 61.6  86 
 RUS  HZ I        1424 37.40        21.2 0.32            154           61.6  86 
 BAR2 EZ EP       1424 23.64                             140   -0.0010 95.9  32 
 BAR2 EZ ES       1424 39.71                             140   -0.3210 95.9  32 
 BAR2 EZ I        1424 41.56        62.9 0.33            140           95.9  32 
 PTB  HZ EP       1424 24.94                             134   -0.2410  118 310 
 PTB  HN ES       1424 42.25                             134   -0.5210  118 310 
 PTB  HZ I        1424 45.27        14.7 0.10            132            118 310 
 CHI  HZ EP       1424 26.99                             130   -0.36 9  136 184 
 CHI  HN ES       1424 46.53                             130   -0.10 9  136 184 
 CHI  HZ I        1424 52.03         9.6 0.22            130            136 184 
 BRR  HZ EP       1424 27.10                             129    0.03 9  139 357 
 BRR  HN ES       1424 46.63                             129    0.50 9  139 357 
 BRR  HZ I        1424 48.75        16.1 0.17            128            139 357 
 NOR  HZ EP       1424 27.52                             128    0.25 9  140 257 
 NOR  HN ES       1424 46.21                             128   -0.27 9  140 257 
 NOR  HZ I        1424 48.52        51.0 0.44            127            140 257 
 PAM  EZ EP       1424 32.90                             119   -0.46 9  194  32 
 PAM  EN ES       1424 58.05                             119    0.72 9  194  32 
 PAM  EZ I        1425  4.09         7.3 0.15            119            194  32 
 GUY2CHZ EP       1424 34.76                             118    0.42 9  204 250 
 GUY2CHN ES       1424 58.99                             118   -0.09 9  204 250 
 GUY2CHZ I        1425  4.76         9.7 0.38                           204 250 
 HEL  HZ EP       1424 35.39                             116    0.21 8  213 280 
 HEL  HE ES       1425  1.08                             116    0.51 8  213 280 
 HEL  HZ I        1425  6.92        10.8 0.33            116            213 280 
 ELA  HZ EP       1424 37.08                             115    0.43 8  224 241 
 ELA  HN ES       1425  3.33                             115    0.14 8  224 241 
 ELA  HZ I        1425 17.30         5.4 0.34            115            224 241 
 ZAR  HZ EP       1424 35.83                             115   -0.35 8  226 323 
 ZAR  HE ES       1425  1.92                             115   -0.42 8  226 323 
 ZAR  HZ I        1425  8.60        12.2 0.26            114            226 323 
 OCA  HZ EP   9   1424 42.53                             111    1.64 0  266   8 
 OCA  HN ES       1425 12.54                                    0.16 8  266   8 
 OCA  HZ I        1425 18.62        18.3 0.18            110            266   8 
                                                                                
