 2011  211 1659 51.7 L   6.814 -73.116137.2  RSN  5 0.3 1.4LRSN                1
 GAP=162        0.64       5.4    11.2  9.4 -0.3403E+02  0.3358E+02 -0.1657E+02E
 Epicentro: LOS SANTOS - SANTANDER                                             3
 *CHI-BAR2-RUS-NOR                                                             3
 ACTION:UP  11-03-28 15:07 OP:jfem STATUS:               ID:20110211165800 L   I
 2011-02-11-1658-00S.COL___136                                                 6
 STAT SP IPHASW D HRMM SECON CODA AMPLIT PERI AZIMU VELO SNR AR TRES W  DIS CAZ7
 BAR2 SZ EP       17 0 10.38                             169     0.110   26 197 
 BAR2 SZ ES   2   17 0 25.41                             169     0.6 5   26 197 
 BAR2 SZ I        17 0 26.83        10.1 0.08                            26 197 
 RUS  HZ EP   2   17 0 14.44                             142    -0.2 5  102 178 
 RUS  HZ I        17 0 18.15         1.8 0.23                           102 178 
 RUS  HN ES   1   17 0 32.19                             142    -0.4 7  102 178 
 GRA  SZ EP   1   17 0 15.90                             136     0.0 7  123  16 
 GRA  SZ I        17 0 22.71         5.8 0.44                           123  16 
 NOR  SN ES   2   17 0 54.77                             116    -0.3 4  238 235 
 CHI  HZ EP   2   17 0 29.34                             115     0.2 4  251 196 
 CHI  HE ES   1   17 0 58.78                             115     0.4 6  251 196 
 CHI  HZ I        17 1  3.89         1.7 0.60                           251 196 
                                                                                
