 2010  311 1534 50.8 L   6.818 -73.090142.7  RSN 10 0.3 2.6LRSN                1
 GAP=130        0.52       2.5     5.0  4.4 -0.1659E+01  0.8336E+00 -0.7895E+00E
 Epicentro: LOS SANTOS - SANTANDER                                             3
 ACTION:UP  10-08-24 09:53 OP:vdl  STATUS:               ID:20100311153450 L   I
 2010-03-11-1533-52S.COL___094                                                 6
 STAT SP IPHASW D HRMM SECON CODA AMPLIT PERI AZIMU VELO SNR AR TRES W  DIS CAZ7
 BAR2 SZ IP       1535 10.23                             169     0.110   27 203 
 BAR2 SZ ES   1   1535 24.97                             169    -0.2 7   27 203 
 BRR  HZ EP       1535 12.18                             150     0.310   76 295 
 BRR  HE ES   2   1535 28.70                             150     0.4 5   76 295 
 BRR  HZ I        1535 33.24        93.1 0.13                            76 295 
 RUS  BZ EP   1   1535 14.35                             143     0.0 7  102 180 
 RUS  BN ES   2   1535 32.65                             143    -0.1 5  102 180 
 RUS  BZ I        1535 34.59        31.8 0.36                           102 180 
 OCA  SZ EP       1535 18.70                             129     0.0 9  159 351 
 OCA  SZ I        1535 19.93        85.9 0.06                           159 351 
 OCA  SZ ES   1   1535 40.15                             129    -0.4 7  159 351 
 CHI  HZ EP   2   1535 28.75                             116     0.1 4  252 196 
 CHI  HN ES   2   1535 58.15                             116    -0.1 4  252 196 
 CHI  HZ I        1536  1.00        12.3 0.87                           252 196 
 HEL  HE ES   3   1536  2.81                             113    -0.5 2  279 256 
 HEL  HZ I        1536  7.40        10.8 0.19                           279 256 
 DBB  SZ EP   1   1535 38.60                             108    -0.2 5  345 274 
 SDV  BZ EP   1   1535 39.96                             108     0.0 5  354  50 
 SDV  BZ I        1535 40.66        29.1 0.12                           354  50 
 ANIL BE ES   2   1536 19.74                             107    -0.7 3  363 225 
 ANIL BZ I        1536 25.49        28.8 0.44                           363 225 
 PRA  HZ EP   2   1535 45.01                             106     0.3 3  397 210 
 PRA  HN ES   2   1536 26.50                             106    -0.3 3  397 210 
 PRA  HZ I        1536 32.32        12.9 0.29                           397 210 
                                                                                
