 2016  411 1654 55.8 L   6.759 -73.151138.8  RSN  8 0.5 1.7LRSN                1
 GAP=138        1.23       5.1     5.2  8.3 -0.7085E+01  0.1914E+02 -0.2854E+01E
 Epicentro: LOS SANTOS - SANTANDER                                             3
 ACTION:UPD 16-05-05 14:20 OP:rebc STATUS:               ID:20160411165455 L   I
 OLDACT:UP  16-04-12 02:24 OP:drio STATUS:               ID:20160411164749     3
 OLDACT:UP  16-04-12 02:22 OP:drio STATUS:               ID:20160411164749     3
 OLDACT:REG 16-04-11 23:19 OP:ar   STATUS:               ID:20160411164749     3
 2016-04-11-1647-49M.COL___300                                                 6
 STAT SP IPHASW D HRMM SECON CODA AMPLIT PERI AZIMU VELO AIN AR TRES W  DIS CAZ7
 BAR2 EZ EP       1655 14.62                             172    0.1610 18.8 191 
 BAR2 EZ ES       1655 29.73                             172    0.6810 18.8 191 
 BAR2 EZ I        1655 31.31        10.3 0.40            171           18.8 191 
 PAM  EZ EP       1655 17.22                             148   -0.2610 81.3  38 
 PAM  EE ES       1655 34.28                             148   -0.1510 81.3  38 
 PAM  EZ I        1655 35.19         5.5 0.20            152           81.3  38 
 RUS  HZ EP       1655 18.73                             144    0.2310 96.1 176 
 RUS  HE ES       1655 35.40                             144   -0.8410 96.1 176 
 RUS  HZ I        1655 38.23         6.1 0.24            148           96.1 176 
 PTB  HZ EP       1655 21.22                             131   -0.81 9  146 261 
 PTB  HN ES       1655 42.40                             131   -0.13 9  146 261 
 PTB  HZ I        1655 49.86         6.3 0.48            132            146 261 
 SPBC HZ EP       1655 23.75                             128    0.40 9  159 220 
 SPBC HE ES       1655 45.36                             128    0.48 9  159 220 
 ZAR  HZ EP       1655 28.66                             121    0.78 8  205 293 
 ZAR  HE ES       1655 52.63                             121   -0.31 8  205 293 
 ZAR  HZ I        1655 59.37         7.4 0.26            122            205 293 
 NOR  HZ EP       1655 30.94                             117    0.19 8  232 235 
 NOR  HE ES       1655 58.28                             117    0.23 8  232 235 
 NOR  HZ I        1656  0.27         5.1 0.16            120            232 235 
 GUY2CHZ EP   4   1655 40.84                             111    2.14 0  298 235 
 GUY2CHN ES       1656 11.49                             111   -0.70 7  298 235 
 GUY2CHZ I        1656 23.32         4.6 0.82                           298 235 
                                                                                
