 2017  811 1832 36.9 L   6.800 -73.141145.4  RSN 11 0.4 2.1LRSN                1
 GAP=137        0.70       2.5     3.2  4.0  0.1057E-01  0.4627E+01  0.1756E+01E
 Epicentro: LOS SANTOS - SANTANDER                                             3
 ACTION:UPD 17-09-04 20:19 OP:rebc STATUS:               ID:20170811183236 L   I
 OLDACT:UP  17-08-11 23:04 OP:mg   STATUS:               ID:20170811182739     3
 OLDACT:UP  17-08-11 23:01 OP:mg   STATUS:               ID:20170811182739     3
 OLDACT:REG 17-08-11 21:01 OP:dani STATUS:               ID:20170811182739     3
 2017-08-11-1828-00M.COL___410                                                 6
 STAT SP IPHASW D HRMM SECON CODA AMPLIT PERI AZIMU VELO AIN AR TRES W  DIS CAZ7
 BAR2 EZ IP     D 1832 56.32                             170   -0.1910 23.5 191 
 BAR2 EZ ES       1833 11.68                             170   -0.1110 23.5 191 
 BAR2 EZ I        1833 12.94        35.1 0.14            166           23.5 191 
 BRR  HZ IP     C 1832 58.08                             152    0.0210 71.6 298 
 BRR  HN ES       1833 14.99                             152    0.4510 71.6 298 
 BRR  HZ I        1833 18.20        30.6 0.32            148           71.6 298 
 PAM  EZ IP     C 1832 59.33                             151    0.2510 77.0  39 
 PAM  EN ES       1833 16.29                             151   -0.0710 77.0  39 
 PAM  EZ I        1833 19.07        12.2 0.38            157           77.0  39 
 RUS  HZ EP     D 1833  0.36                             144   -0.2810  101 176 
 RUS  HN ES       1833 18.98                             144   -0.1610  101 176 
 SPBC HZ IP     D 1833  5.39                             129   -0.04 9  164 219 
 SPBC HZ EP       1833  5.90                             129    0.47 9  164 219 
 SPBC HN ES   1   1833 27.36                             129   -0.30 7  164 219 
 SPBC HZ I        1833 34.45        22.0 0.21            128            164 219 
 ZAR  HZ EP       1833  9.58                             122    0.19 9  205 292 
 ZAR  HN ES       1833 34.49                             122   -0.23 9  205 292 
 ZAR  HZ I        1833 42.53        10.4 0.15            122            205 292 
 NOR  HZ EP       1833 12.70                             118    0.02 8  235 235 
 NOR  HE ES       1833 40.54                             118   -0.03 8  235 235 
 NOR  HZ I        1833 44.47         9.9 0.16            118            235 235 
 CHI  HZ EP       1833 14.77                             117    0.15 8  249 195 
 CHI  HN ES       1833 44.28                             117    0.26 8  249 195 
 CHI  HZ I        1833 47.30         5.0 0.36            118            249 195 
 URE  HZ EP       1833 17.21                             113   -0.82 7  284 292 
 URE  HN ES   4   1833 47.24                             113   -2.85 0  284 292 
 URE  HZ I        1833 57.55        10.7 0.22            114            284 292 
 GUY2CHZ EP   3   1833 21.76                             112    1.20 2  302 235 
 GUY2CHN ES   4   1833 58.20                             112    3.60 0  302 235 
 GUY2CHZ I        1834  4.50         8.6 0.34                           302 235 
 ELA  HZ EP   3   1833 25.46                             110    1.66 2  330 230 
 ELA  HN ES   4   1834  4.42                             110    4.05 0  330 230 
 ELA  HZ I        1834 13.93         5.2 0.42            111            330 230 
                                                                                
