 2016 1111 1954 17.9 L   6.773 -73.168144.0  RSN  5 0.3 1.9LRSN                1
 GAP=145        0.61       4.4     3.1  5.4 -0.6001E+01  0.6759E+01 -0.1439E+01E
 Epicentro: LOS SANTOS - SANTANDER                                             3
 ACTION:UPD 17-10-26 21:06 OP:lp   STATUS:               ID:20161111195417 L   I
 OLDACT:REG 16-11-11 21:38 OP:dnl  STATUS:               ID:20161111194746     3
 2016-11-11-1948-00M.COL___337                                                 6
 STAT SP IPHASW D HRMM SECON CODA AMPLIT PERI AZIMU VELO AIN AR TRES W  DIS CAZ7
 BAR2 EZ EP       1954 37.35                             172    0.1010 20.0 184 
 BAR2 EZ ES       1954 52.51                             172    0.1610 20.0 184 
 BAR2 EZ I        1954 54.61        12.4 0.64            171           20.0 184 
 PAM  EZ EP       1954 40.19                             149    0.0310 81.3  40 
 PAM  EN ES       1954 57.35                             149   -0.1810 81.3  40 
 PAM  EZ I        1954 59.40        15.8 0.60            152           81.3  40 
 PTB  HZ EP       1954 44.51                             132    0.06 9  145 260 
 PTB  HN ES       1955  4.63                             132   -0.52 9  145 260 
 PTB  HZ I        1955  7.77         8.0 0.18            132            145 260 
 ZAR  HZ EP   2   1954 49.82                             122   -0.29 4  203 293 
 ZAR  HE ES       1955 15.62                             122    0.39 9  203 293 
 ZAR  HZ I        1955 22.28        12.4 0.36            122            203 293 
 NOR  HZ EP   2   1954 52.90                             118   -0.21 4  231 235 
 NOR  HE ES       1955 20.74                             118    0.15 8  231 235 
 NOR  HZ I        1955 28.06         4.1 0.14            119            231 235 
                                                                                
