 2017 1111 1039  7.1 L   6.789 -73.149150.0  RSN  9 0.4 1.7LRSN                1
 GAP=212        0.68       3.8     4.1  5.9  0.6201E+01  0.9072E+00  0.4411E+01E
 Epicentro: LOS SANTOS - SANTANDER                                             3
 ACTION:UPD 17-12-12 19:54 OP:rebc STATUS:               ID:20171111103907 L   I
 OLDACT:UP  17-11-11 21:55 OP:mg   STATUS:               ID:20171111102742d    3
 OLDACT:UP  17-11-11 21:55 OP:mg   STATUS:               ID:20171111102742d    3
 OLDACT:DUP 17-11-11 21:45 OP:mg   STATUS:               ID:20171111102742d    3
 OLDACT:UP  17-11-11 21:45 OP:mg   STATUS:               ID:20171111102741     3
 OLDACT:REG 17-11-11 20:24 OP:mg   STATUS:               ID:20171111102741     3
 2017-11-11-1028-00M.COL___440                                                 6
 STAT SP IPHASW D HRMM SECON CODA AMPLIT PERI AZIMU VELO AIN AR TRES W  DIS CAZ7
 BAR2 EZ EP       1039 27.05                             171   -0.2010 22.1 190 
 BAR2 EZ ES   1   1039 42.80                             171   -0.14 7 22.1 190 
 BAR2 EZ I        1039 43.13        16.8 0.32            168           22.1 190 
 BRR  HZ IP     C 1039 28.76                             153    0.0110 71.4 300 
 BRR  HN ES       1039 46.13                             153    0.5110 71.4 300 
 BRR  HZ I        1039 50.85        12.6 0.14            149           71.4 300 
 PTB  HZ EP   2   1039 33.64                             133   -0.75 5  147 259 
 PTB  HN ES   2   1039 55.27                             133   -0.39 5  147 259 
 PTB  HZ I        1039 56.42         3.4 0.14            131            147 259 
 SPBC HZ EP   1   1039 36.14                             130    0.29 7  162 219 
 SPBC HN ES       1039 58.28                             130    0.03 9  162 219 
 SPBC HZ I        1040  0.98         6.2 0.12            129            162 219 
 YPLC HZ EP   1   1039 37.49                             128    0.33 7  176 151 
 YPLC HE ES   1   1040  0.14                             128   -0.43 7  176 151 
 ZAR  HZ EP   2   1039 40.24                             123    0.37 4  204 292 
 ZAR  HN ES       1040  4.92                             123   -0.48 9  204 292 
 ZAR  HZ I        1040 12.00         4.2 0.12            122            204 292 
 NOR  HZ EP   2   1039 43.40                             120    0.40 4  234 235 
 NOR  HE ES   2   1040 11.30                             120    0.32 4  234 235 
 NOR  HZ I        1040 17.45         2.5 0.24            119            234 235 
 CHI  HN ES   2   1040 14.71                             118    0.29 4  247 195 
 CHI  HZ I        1040 17.02         2.5 0.28            118            247 195 
 GUY2CHN ES   4   1040 29.50                             113    4.59 0  300 235 
 GUY2CHZ I        1040 35.67         1.4 0.41                           300 235 
                                                                                
