 2012 1211 1809  5.7 L   6.785 -73.166142.4  RSN  4 0.2 1.9LRSN                1
 GAP=242        0.63       6.4     4.8  6.0  0.2027E+02  0.3535E+01 -0.6047E+01E
 Epicentro: LOS SANTOS - SANTANDER                                             3
 ACTION:UPD 13-01-04 14:27 OP:ep   STATUS:               ID:20121211180905 L   I
 2012-12-11-1807-37M.COL___206                                                 6
 STAT SP IPHASW D HRMM SECON CODA AMPLIT PERI AZIMU VELO AIN AR TRES W  DIS CAZ7
 BAR2 SZ EP       18 9 25.17                             171    0.2910 21.4 185 
 BAR2 SZ ES       18 9 39.77                             171   -0.0710 21.4 185 
 BAR2 SZ I        18 9 42.63        12.4 0.26                          21.4 185 
 RUS  HZ EP       18 9 29.12                             143    0.1110 99.1 175 
 RUS  HN ES       18 9 47.00                             143   -0.1910 99.1 175 
 RUS  HN I        18 9 48.43         9.9 0.30                          99.1 175 
 PTB  HZ EP       18 9 31.83                             132   -0.33 9  145 259 
 PTB  HN ES       18 9 53.13                             132    0.33 9  145 259 
 PTB  HN I        18 9 53.62        11.1 0.26                           145 259 
 ZAR  HE ES       1810  2.61                             122   -0.18 9  203 293 
 ZAR  HE I        1810  5.94        18.4 0.14                           203 293 
                                                                                
