 2017 1211 1012 54.7 L   6.824 -73.185147.0  RSN 11 0.3 1.6LRSN                1
 GAP=107        0.53       1.7     2.0  4.2  0.7252E+00  0.1369E+01  0.9261E+00E
 Epicentro: ZAPATOCA - SANTANDER                                               3
 ACTION:UPD 18-01-04 13:19 OP:rebc STATUS:               ID:20171211101254 L   I
 OLDACT:UP  17-12-11 23:00 OP:mg   STATUS:               ID:20171211100742d    3
 OLDACT:UP  17-12-11 22:58 OP:mg   STATUS:               ID:20171211100742d    3
 OLDACT:DUP 17-12-11 22:50 OP:mg   STATUS:               ID:20171211100742d    3
 2017-12-11-1008-00M.COL___469                                                 6
 STAT SP IPHASW D HRMM SECON CODA AMPLIT PERI AZIMU VELO AIN AR TRES W  DIS CAZ7
 BAR2 EZ EP       1013 14.34                             170   -0.2210 25.6 179 
 BAR2 EZ ES   2   1013 30.04                             170    0.01 5 25.6 179 
 BAR2 EZ I        1013 31.92         8.7 0.26            169           25.6 179 
 PAM  HZ EP       1013 17.28                             151    0.1510 78.2  43 
 PAM  EN ES   2   1013 34.25                             151   -0.35 5 78.2  43 
 PAM  HZ I        1013 36.39         5.4 0.50            155           78.2  43 
 PTB  HZ EP       1013 21.27                             133   -0.20 9  144 257 
 PTB  HN ES       1013 42.20                             133   -0.12 9  144 257 
 PTB  HZ I        1013 45.49         2.9 0.12            135            144 257 
 OCA  HZ EP       1013 23.21                             130    0.36 9  157 355 
 OCA  HN ES       1013 44.68                             130   -0.10 9  157 355 
 OCA  HZ I        1013 50.41        10.6 0.30            134            157 355 
 YPLC HZ EP       1013 24.90                             126   -0.15 9  181 151 
 YPLC HN ES       1013 48.94                             126    0.24 9  181 151 
 YPLC HZ I        1013 51.55         3.3 0.27            129            181 151 
 ZAR  HZ EP       1013 27.01                             123    0.26 9  199 292 
 ZAR  HN ES       1013 52.03                             123    0.32 9  199 292 
 ZAR  HN I        1013 58.84         8.1 0.34            126            199 292 
 CHI  HZ EP       1013 32.59                             117   -0.07 8  250 194 
 CHI  HN ES       1014  2.23                             117   -0.02 8  250 194 
 CHI  HZ I        1014  9.10         1.7 0.50            120            250 194 
 URE  HZ EP       1013 35.37                             114    0.07 7  279 292 
 URE  HN ES       1014  6.76                             114   -0.19 7  279 292 
 URE  HZ I        1014  8.29         1.3 0.13            117            279 292 
 GUY2CHN ES   1   1014 12.08                             113    0.02 5  299 234 
 GUY2CHZ I        1014 19.50         1.5 0.44                           299 234 
 PRA  HZ EP   1   1013 48.38                             107    0.06 4  392 209 
 PRA  HN ES   3   1014 31.59                             107    1.47 1  392 209 
 PRA  HZ I        1014 37.03         2.4 0.34            109            392 209 
 SJC  HZ EP   1   1013 48.91                             106   -0.89 4  405 327 
 SJC  HN ES   3   1014 31.00                             106   -1.74 1  405 327 
 SJC  HZ I        1014 32.29         1.2 0.43            108            405 327 
                                                                                
