 2017  311 2330 24.9 L   6.735 -73.449110.2  RSN  5 0.2 1.4LRSN                1
 GAP=142        0.67       3.4     3.1  5.9  0.3089E+01  0.1835E+01 -0.3754E+01E
 Epicentro: EL CARMEN - SANTANDER                                              3
 ACTION:UPD 17-05-25 18:39 OP:jn   STATUS:               ID:20170311233024 L   I
 OLDACT:DUP 17-03-12 03:18 OP:lv   STATUS:               ID:20170311232747d    3
 2017-03-11-2328-00M.COL___397                                                 6
 STAT SP IPHASW D HRMM SECON CODA AMPLIT PERI AZIMU VELO AIN AR TRES W  DIS CAZ7
 BAR2 EZ EP       2330 40.90                             162    0.3410 33.4 118 
 BAR2 EZ ES       2330 52.96                             162    0.1610 33.4 118 
 BAR2 EZ I        2330 53.51         7.9 0.08            162           33.4 118 
 BRR  HZ EP       2330 40.58                             154   -0.4110 50.4 325 
 BRR  HE ES       2330 53.65                             154    0.0710 50.4 325 
 RUS  HN ES       2331  1.21                             134   -0.2110  102 156 
 PAM  EN EP       2330 46.06                             133    0.2410  106  51 
 PAM  EE ES       2331  1.95                             133   -0.2210  106  51 
 ZAR  HN ES       2331 13.67                             117    0.04 9  177 298 
                                                                                
