 2016  511 2045 52.0 L   6.765 -73.142144.9  RSN  9 0.4 2.0LRSN                1
 GAP=139        1.05       4.1     4.3  6.5 -0.2148E+01  0.7026E+01  0.3970E+01E
 Epicentro: LOS SANTOS - SANTANDER                                             3
 ACTION:UPD 16-08-18 17:44 OP:cam  STATUS:               ID:20160511204552 L   I
 OLDACT:REG 16-05-12 06:25 OP:dnl  STATUS:               ID:20160511203746     3
 2016-05-11-2037-46M.COL___310                                                 6
 STAT SP IPHASW D HRMM SECON CODA AMPLIT PERI AZIMU VELO AIN AR TRES W  DIS CAZ7
 BAR2 EZ EP       2046 11.36                             172   -0.1310 19.6 193 
 BAR2 EZ ES       2046 26.26                             172   -0.4110 19.6 193 
 BAR2 EZ I        2046 27.89        17.4 0.24            171           19.6 193 
 BRR  HZ EP       2046 13.54                             152    0.3310 73.4 301 
 BRR  HE ES       2046 30.66                             152    0.9210 73.4 301 
 BRR  HZ I        2046 34.47        22.9 0.24            152           73.4 301 
 PAM  EZ EP       2046 14.56                             150    0.2410 80.2  38 
 PAM  EN ES       2046 31.49                             150   -0.2210 80.2  38 
 PAM  EZ I        2046 35.96         9.0 0.48            153           80.2  38 
 RUS  HZ EP       2046 15.32                             145   -0.1010 96.7 176 
 RUS  HN ES       2046 33.77                             145    0.1010 96.7 176 
 RUS  HZ I        2046 36.61         5.0 0.30            146           96.7 176 
 PTB  HZ EP       2046 18.10                             132   -0.80 9  147 260 
 PTB  HN ES       2046 39.09                             132   -0.76 9  147 260 
 PTB  HZ I        2046 41.46        11.8 0.30            133            147 260 
 SPBC HZ EP       2046 20.37                             129    0.17 9  160 220 
 SPBC HN ES       2046 42.16                             129   -0.02 9  160 220 
 SPBC HZ I        2046 44.75        27.4 0.24            131            160 220 
 ZAR  HZ EP   2   2046 24.36                             122   -0.24 4  206 293 
 ZAR  HN ES       2046 49.87                             122   -0.14 8  206 293 
 ZAR  HZ I        2046 56.24        18.8 0.44            123            206 293 
 NOR  HZ EP       2046 27.82                             118    0.32 8  233 235 
 NOR  HE ES       2046 55.68                             118    0.51 8  233 235 
 NOR  HZ I        2047  2.04        12.4 0.16            120            233 235 
 CHI  HZ EP   2   2046 29.41                             117    0.12 4  245 195 
 CHI  HN ES   2   2046 58.89                             117    0.54 4  245 195 
 CHI  HZ I        2047  4.02         3.6 0.26            119            245 195 
                                                                                
