 2012  811 2211  7.1 L   6.769 -73.118137.6  RSN  5 0.2 1.4LRSN                1
 GAP=141        0.41       4.7     6.3  4.8  0.1541E+02 -0.6741E+01  0.8697E+00E
 Epicentro: LOS SANTOS - SANTANDER                                             3
 ACTION:UPD 12-09-10 11:55 OP:ep   STATUS:               ID:20120811221107 L   I
 2012-08-11-2210-00M.COL___218                                                 6
 STAT SP IPHASW D HRMM SECON CODA AMPLIT PERI AZIMU VELO AIN AR TRES W  DIS CAZ7
 BAR2 SZ EP       2211 25.78                             171    0.0610 20.8 200 
 BAR2 SZ ES   1   2211 39.94                             171   -0.28 7 20.8 200 
 BAR2 SZ I        2211 42.35         6.5 0.16                          20.8 200 
 GIR2 SZ EP   3   2211 26.16                             165    0.21 2 35.3 346 
 BRR  HZ EP       2211 27.49                             149   -0.1710 75.5 300 
 BRR  HZ I        2211 33.53        11.5 0.44                          75.5 300 
 BRR  HN ES   1   2211 43.90                             149    0.23 7 75.5 300 
 PAM  SN EP   2   2211 28.73                             149    0.20 5 78.2  36 
 PAM  SE ES   3   2211 45.18                             149   -0.04 2 78.2  36 
 PAM  SN I        2211 46.72         7.0 0.48                          78.2  36 
 RUS  HZ EP       2211 29.85                             143    0.0410 97.0 178 
 RUS  HN ES   3   2211 48.18                             143    0.67 2 97.0 178 
 RUS  HZ I        2211 52.21         1.3 0.32                          97.0 178 
                                                                                
