 2017  211 2013 27.4 L   6.267 -72.953  4.1  RSN  5 0.3 1.4LRSN                1
 GAP=186        0.61       1.3     2.5  4.2 -0.7170E+00  0.2780E+01 -0.8187E+00E
 Epicentro: COROMORO - SANTANDER                                               3
 ACTION:UPD 17-05-24 15:35 OP:jn   STATUS:               ID:20170211201327 L   I
 OLDACT:REG 17-02-12 05:26 OP:dnl  STATUS:               ID:20170211200748     3
 2017-02-11-2008-00M.COL___352                                                 6
 STAT SP IPHASW D HRMM SECON CODA AMPLIT PERI AZIMU VELO AIN AR TRES W  DIS CAZ7
 RUS  HZ IP     C 2013 35.08                              47   -0.0910 43.9 199 
 RUS  HE ES       2013 41.13                              47   -0.0910 43.9 199 
 RUS  HZ I        2013 41.94        15.9 0.18             47           43.9 199 
 BAR2 EZ EP       2013 34.88                              47   -0.0410 44.0 325 
 BAR2 EZ ES       2013 40.35                              47   -0.4210 44.0 325 
 BAR2 EZ I        2013 41.19        41.9 0.62             47           44.0 325 
 PAM  EZ EP       2013 47.31                              47    0.3410  122  13 
 PAM  EN ES       2014  2.15                              47   -0.0710  122  13 
 PAM  EZ I        2014  6.48         3.7 0.64             47            122  13 
 BRR  HZ EP   4   2013 48.07                              47    1.09 0  125 318 
 BRR  HN ES   3   2014  2.92                              47    0.69 2  125 318 
 BRR  HZ I        2014  5.28        15.1 0.30             47            125 318 
 PTB  HZ EP       2013 53.91                              47    0.27 9  169 280 
 PTB  HE ES       2014 14.26                              47    0.16 9  169 280 
 PTB  HZ I        2014 15.68         5.1 0.20             47            169 280 
                                                                                
