 2012  911 2201 28.6 L   6.842 -72.910148.7  RSN  5 0.4 1.6LRSN                1
 GAP=205        0.74      14.7     7.8 12.2 -0.4731E+02 -0.2146E+02  0.1091E+03E
 Epicentro: SAN ANDRES - SANTANDER                                             3
 ACTION:UPD 12-10-22 14:18 OP:ep   STATUS:               ID:20120911220128 L   I
 2012-09-11-2200-00M.COL___227                                                 6
 STAT SP IPHASW D HRMM SECON CODA AMPLIT PERI AZIMU VELO AIN AR TRES W  DIS CAZ7
 BAR2 SZ EP       22 1 48.97                             164   -0.0610 40.8 228 
 GIR2 SZ EP       22 1 49.38                             164    0.4910 40.8 310 
 PAM  SZ EP       22 1 50.27                             157    0.1010 59.7  23 
 PAM  SZ I        22 1 50.46         3.5 0.26                          59.7  23 
 PAM  SN ES   1   22 2  6.62                             157   -0.40 7 59.7  23 
 BRR  HZ EP       22 1 51.03                             146   -0.3910 93.4 288 
 BRR  HZ I        22 1 51.91        11.5 0.14                          93.4 288 
 BRR  HN ES   1   22 2  9.49                             146    0.26 7 93.4 288 
 PTB  HN EP   3   22 1 57.42                             128   -0.83 2  174 259 
 PTB  HE ES   3   22 2 20.89                             128   -0.51 2  174 259 
 PTB  HN I        22 2 28.07         3.9 0.34                           174 259 
                                                                                
