 2012  211 2210 15.3 L   6.766 -73.123141.2  RSN  9 0.2 2.1LRSN                1
 GAP=141        0.50       2.3     2.8  3.5 -0.6190E+00  0.1544E+01  0.2275E+00E
 ACTION:UP  12-03-07 16:29 OP:epov STATUS:               ID:20120211221015 L   I
 2012-02-11-2210-00M.COL___188                                                 6
 STAT SP IPHASW D HRMM SECON CODA AMPLIT PERI AZIMU VELO AIN AR TRES W  DIS CAZ7
 BAR2 SZ ES   1   2210 49.47                             171    0.29 7 20.3 199 
 BAR2 SZ I        2210 50.52        26.8 0.21                          20.3 199 
 GIR2 SZ EP       2210 34.40                             165   -0.1710 35.5 347 
 BRR  HZ EP       2210 36.31                             150    0.0910 75.2 300 
 BRR  HN ES       2210 52.79                             150    0.2810 75.2 300 
 BRR  HZ I        2210 57.35        47.9 0.14                          75.2 300 
 PAM  SZ EP       2210 37.27                             150    0.1310 78.8  36 
 PAM  SN ES   1   2210 53.78                             150   -0.38 7 78.8  36 
 RUS  HZ EP   1   2210 38.34                             144    0.00 7 96.7 177 
 RUS  HN ES   1   2210 56.04                             144   -0.26 7 96.7 177 
 OCA  SZ EP       2210 43.69                             128    0.02 9  164 352 
 ZAR  HZ EP   1   2210 47.56                             121   -0.30 6  208 293 
 ZAR  HN ES   1   2211 12.97                             121   -0.28 6  208 293 
 ZAR  HZ I        2211 18.89        12.7 0.35                           208 293 
 NOR  SZ EP   1   2210 50.79                             118    0.01 6  235 236 
 NOR  SE ES   1   2211 18.35                             118   -0.08 6  235 236 
 CHI  HZ EP   1   2210 52.90                             116    0.45 6  246 196 
 CHI  HN ES   2   2211 21.13                             116   -0.27 4  246 196 
 CHI  HZ I        2211 29.44         3.8 0.61                           246 196 
                                                                                
