 2017 1111 2152 48.5 L   6.797 -73.139145.0  RSN 13 0.7 1.9LRSN                1
 GAP=138        1.52       3.9     6.0  7.3 -0.5941E+01  0.7682E+01 -0.8340E+00E
 Epicentro: LOS SANTOS - SANTANDER                                             3
 ACTION:UPD 17-12-12 19:54 OP:rebc STATUS:               ID:20171111215248 L   I
 OLDACT:REG 17-11-12 02:40 OP:dhb  STATUS:               ID:20171111214741     3
 2017-11-11-2148-00M.COL___456                                                 6
 STAT SP IPHASW D HRMM SECON CODA AMPLIT PERI AZIMU VELO AIN AR TRES W  DIS CAZ7
 BAR2 EZ EP       2153  7.95                             171   -0.0610 23.2 192 
 BAR2 EZ ES       2153 23.57                             171    0.3310 23.2 192 
 BAR2 EZ I        2153 24.63        13.8 0.32            168           23.2 192 
 BRR  HZ EP       2153 10.06                             152    0.4810 72.0 298 
 BRR  HE ES       2153 26.22                             152    0.1710 72.0 298 
 BRR  HZ I        2153 32.36        12.1 0.38            149           72.0 298 
 PAM  EZ EP       2153 10.53                             151   -0.0610 77.1  39 
 PAM  HN ES       2153 27.83                             151   -0.0110 77.1  39 
 PAM  EZ I        2153 30.11        15.0 0.54            156           77.1  39 
 RUS  HZ EP       2153 11.93                             144   -0.1910  100 176 
 RUS  HN ES       2153 30.77                             144    0.2010  100 176 
 RUS  HZ I        2153 31.60         9.1 0.30            146            100 176 
 PTB  HZ EP       2153 14.94                             132   -0.50 9  148 259 
 PTB  HN ES       2153 36.03                             132   -0.44 9  148 259 
 PTB  HZ I        2153 43.46         5.4 0.48            131            148 259 
 SPBC HZ EP       2153 16.95                             129    0.01 9  163 219 
 SPBC HE ES       2153 39.22                             129    0.08 9  163 219 
 SPBC HZ I        2153 41.43        13.1 0.22            129            163 219 
 ZAR  HE ES       2153 46.06                             122   -0.22 9  205 292 
 ZAR  HZ I        2153 52.28         8.1 0.32            122            205 292 
 NOR  HZ EP       2153 22.47                             118   -1.74 8  235 235 
 NOR  HN ES       2153 52.87                             118    0.79 8  235 235 
 NOR  HZ I        2154  2.83         3.3 0.24            119            235 235 
 CHI  HN EP       2153 25.86                             117   -0.26 8  249 195 
 CHI  HZ EP       2153 26.01                                            249 195 
 CHI  HE ES       2153 54.41                             117   -1.07 8  249 195 
 CHI  HN I        2153 58.15         7.6 0.46            119            249 195 
 CHI  HZ I        2154  1.49         2.4 0.56                           249 195 
 DRL03HZ EP       2153 31.64                             113    1.55 7  289 353 
 DRL03HE ES       2154  2.68                             113    0.14 7  289 353 
 GUY2CHZ EP       2153 33.29                             112    1.19 7  302 235 
 GUY2CHE ES   4   2154  9.31                             112    3.19 0  302 235 
 GUY2CHZ I        2154 14.65         4.0 0.44                           302 235 
 DRL02HZ EP       2153 34.55                             110    0.38 7  325 357 
 DRL02HE ES       2154  8.44                             110   -1.38 7  325 357 
 PRA  HZ EP       2153 42.14                             106    0.16 6  392 210 
 PRA  HE ES       2154 24.80                             106    1.08 6  392 210 
 PRA  HZ I        2154 29.80         3.7 0.36            108            392 210 
                                                                                
