 2011  311 2305 37.1 L   6.270 -73.188178.5  RSN 13 0.4 3.0LRSN                1
 GAP=127        0.90       3.3     4.4  6.5 -0.3490E+01  0.1004E+02 -0.1940E+01E
 Epicentro: CHARALA - SANTANDER                                                3
 ACTION:UP  11-06-16 14:33 OP:jfem STATUS:               ID:20110311230537 L   I
 2011-03-11-2303-35S.COL___135                                                 6
 STAT SP IPHASW D HRMM SECON CODA AMPLIT PERI AZIMU VELO SNR AR TRES W  DIS CAZ7
 BAR2 SZ EP       23 6  1.04                             168     0.110   36   1 
 BAR2 SZ I        23 6  1.31       207.3 0.20                            36   1 
 BAR2 SZ ES   1   23 6 19.98                             168     0.5 7   36   1 
 RUS  HZ IP     C 23 6  1.78                             166     0.310   43 164 
 RUS  HZ I        23 6  2.20       184.7 0.35                            43 164 
 RUS  HN ES   1   23 6 21.11                             166     0.6 7   43 164 
 YOP  SZ IP     C 23 6  5.78                             142     0.010  132 140 
 YOP  SE ES   1   23 6 27.79                             142    -0.4 7  132 140 
 YOP  SZ I        23 6 30.94        44.6 0.29                           132 140 
 GRA  SZ EP       23 6 10.31                             132     0.1 9  184  13 
 GRA  SZ ES   1   23 6 35.43                             132    -0.5 7  184  13 
 GRA  SZ I        23 6 41.50       110.6 0.46                           184  13 
 CHI  HZ EP   1   23 6 11.24                             131     0.0 7  191 198 
 CHI  HE ES   1   23 6 37.68                             131    -0.1 7  191 198 
 CHI  HZ I        23 6 41.47        51.2 0.52                           191 198 
 NOR  SZ EP   1   23 6 11.98                             129     0.2 6  202 247 
 NOR  SE ES   1   23 6 38.33                             129    -0.4 6  202 247 
 OCA  SZ EP   1   23 6 13.16                             127    -0.3 6  218 356 
 OCA  SZ ES   1   23 6 41.05                             127    -0.7 6  218 356 
 OCA  SZ I        23 6 45.71       109.6 0.16                           218 356 
 VIL  SE ES   1   23 6 45.82                             124    -0.7 6  245 193 
 VIL  SZ I        23 6 47.24        33.2 0.29                           245 193 
 HEL  HZ EP   1   23 6 18.10                             122     0.3 6  259 268 
 HEL  HN ES   1   23 6 49.21                             122    -0.4 6  259 268 
 HEL  HZ I        23 6 54.21        52.4 0.43                           259 268 
 GUY  SZ EP   1   23 6 19.56                             121     0.7 6  268 245 
 GUY  SE ES   1   23 6 51.51                             121     0.1 6  268 245 
 GUY  SZ I        23 6 59.87        72.3 0.37                           268 245 
 TOL  SZ EP   1   23 6 22.94                             118     0.7 5  301 232 
 PRA  HZ EP   1   23 6 25.26                             115    -0.8 5  340 214 
 PRA  HE ES   1   23 7  3.72                             115    -0.5 5  340 214 
 DBB  SZ EP       23 6 26.77                             115     0.2 7  344 284 
                                                                                
