 2011 1211 2243  5.4 L   6.734 -73.154147.2  RSN  6 0.4 1.5LRSN                1
 GAP=138        0.62       6.0     4.7  8.2 -0.1066E+02  0.1322E+01  0.3396E+01E
 Epicentro: JORDAN - SANTANDER                                                 3
 ACTION:UPD 12-07-13 16:15 OP:ep   STATUS:               ID:20111211224305 L   I
 2011-12-11-2240-00M.COL___186                                                 6
 STAT SP IPHASW D HRMM SECON CODA AMPLIT PERI AZIMU VELO AIN AR TRES W  DIS CAZ7
 BAR2 SZ EP   3   2243 25.15                             174    0.06 2 16.0 192 
 GIR2 SZ EP   3   2243 25.38                             165   -0.09 2 38.4 353 
 GIR2 SZ ES   3   2243 40.11                             165   -1.00 2 38.4 353 
 BRR  HZ EP       2243 27.14                             152    0.2510 74.3 304 
 BRR  HZ I        2243 27.51         7.6 0.14                          74.3 304 
 BRR  HE ES   2   2243 44.56                             152    0.91 5 74.3 304 
 PAM  SZ EP       2243 28.15                             149   -0.0210 83.7  37 
 PAM  SN ES   1   2243 45.63                             149   -0.29 7 83.7  37 
 RUS  HZ EP   2   2243 28.89                             146    0.09 5 93.3 175 
 RUS  HN ES   2   2243 47.25                             146    0.20 5 93.3 175 
 PTB  HZ EP   2   2243 31.91                             133   -0.40 5  146 262 
 PTB  HE ES   1   2243 52.85                             133   -0.44 7  146 262 
 PTB  HZ I        2243 54.13         2.7 0.40                           146 262 
                                                                                
