 2011  111 2140 35.3 L   6.825 -73.091135.3  RSN  8 0.3 1.9LRSN                1
 GAP=140        0.55       3.7     7.7  7.5 -0.1314E+02  0.1020E+02 -0.2739E+01E
 Epicentro: LOS SANTOS - SANTANDER                                             3
 ACTION:UP  11-02-08 08:40 OP:pat  STATUS:               ID:20110111214035 L   I
 2011-01-11-2139-02S.COL___136                                                 6
 STAT SP IPHASW D HRMM SECON CODA AMPLIT PERI AZIMU VELO SNR AR TRES W  DIS CAZ7
 BAR2 SZ EP   2   2140 53.88                             168     0.1 5   28 202 
 BAR2 SZ ES   2   2141  8.11                             168    -0.1 5   28 202 
 BAR2 SZ I        2141 10.03        41.4 0.16                            28 202 
 GIR2 SZ EP   2   2140 54.24                             167     0.6 5   30 338 
 RUS  HZ EP   1   2140 58.32                             141     0.1 7  103 180 
 RUS  HE ES   2   2141 16.01                             141    -0.1 5  103 180 
 RUS  HZ I        2141 18.46         9.3 0.29                           103 180 
 GRA  SZ EP   1   2140 58.81                             136    -0.4 7  121  15 
 GRA  SZ ES   2   2141 18.03                             136     0.1 5  121  15 
 GRA  SZ I        2141 19.52        12.7 0.46                           121  15 
 OCA  SZ EP   2   2141  2.90                             127     0.3 5  158 351 
 OCA  SZ I        2141 30.37        12.0 0.61                           158 351 
 YOP  SZ EP   2   2141  4.43                             124    -0.2 4  179 155 
 YOP  SZ I        2141  5.03         7.4 0.37                           179 155 
 NOR  SZ EP   2   2141 11.59                             115     0.4 4  241 235 
 NOR  SE ES   2   2141 38.56                             115    -0.6 4  241 235 
 CHI  HE ES   2   2141 42.30                             114     0.1 4  253 196 
 CHI  HZ I        2141 49.45         3.0 0.51                           253 196 
                                                                                
