 2012  611 2300 21.5 L   6.668 -73.243142.3  RSN  5 0.4 1.5LRSN                1
 GAP=204        0.76       6.3     5.4  8.6  0.1427E+02  0.1450E+02 -0.7611E+01E
 Epicentro: BARICHARA - SANTANDER                                              3
 ACTION:UPD 12-08-06 17:48 OP:ep   STATUS:               ID:20120611230019 L   I
 2012-06-11-2300-00M.COL___201                                                 6
 STAT SP IPHASW D HRMM SECON CODA AMPLIT PERI AZIMU VELO AIN AR TRES W  DIS CAZ7
 BAR2 SZ EP   1   23 0 40.36                             175   -0.16 9 10.7 141 
 BAR2 SZ I        23 0 40.74         6.0 0.19            175           10.7 141 
 BAR2 SZ ES   1   23 0 54.96                             175   -0.40 9 10.7 141 
 RUS  HZ EP   1   23 0 44.18                             147    0.18 9 87.5 168 
 RUS  HN ES   1   23 1  1.86                             147    0.32 9 87.5 168 
 PTB  HZ EP   1   23 0 47.05                             134    0.01 8  135 264 
 PTB  HN ES   1   23 1  7.66                             134    0.71 8  135 264 
 PTB  HZ I        23 1 14.42         2.6 0.12            134            135 264 
 ZAR  HZ EP   1   23 0 53.49                             122    0.15 7  200 297 
 ZAR  HN ES       23 1 18.06                             122   -0.1210  200 297 
 ZAR  HZ I        23 1 24.93         4.5 0.24            123            200 297 
 NOR  SN ES   1   23 1 20.70                             120   -0.78 7  218 236 
                                                                                
