 2017  811 2356  4.4 L   6.876 -73.269123.4  RSN  4 0.1 1.4LRSN                1
 GAP=225        0.41       4.8     6.5  3.7  0.2641E+02 -0.4473E+00  0.3714E+00E
 Epicentro: BETULIA - SANTANDER                                                3
 ACTION:UPD 17-09-04 20:19 OP:rebc STATUS:               ID:20170811235604 L   I
 OLDACT:DUP 17-08-12 05:09 OP:edw  STATUS:               ID:20170811234740d    3
 OLDACT:UP  17-08-12 05:08 OP:edw  STATUS:               ID:20170811234739     3
 OLDACT:REG 17-08-12 04:13 OP:osc  STATUS:               ID:20170811234739     3
 2017-08-11-2348-00M.COL___417                                                 6
 STAT SP IPHASW D HRMM SECON CODA AMPLIT PERI AZIMU VELO AIN AR TRES W  DIS CAZ7
 BAR2 EZ EP       2356 21.61                             164    0.0110 32.9 163 
 BAR2 EZ ES       2356 35.17                             164    0.1410 32.9 163 
 BAR2 EZ I        2356 35.79        17.8 0.22            164           32.9 163 
 BRR  HZ EP       2356 22.08                             154   -0.1310 55.2 298 
 BRR  HN ES       2356 36.09                             154   -0.0410 55.2 298 
 RUS  HZ EP       2356 27.00                             136    0.1510  111 169 
 RUS  HN ES       2356 44.20                             136   -0.1710  111 169 
 RUS  HZ I        2356 45.21         2.2 0.28            136            111 169 
 ZAR  HN ES   2   2356 56.91                             119    0.21 4  188 291 
                                                                                
