 2017 1111 2123 29.5 L   6.805 -73.142144.4  RSN 11 0.6 1.8LRSN                1
 GAP=137        1.35       4.8     5.2  7.5 -0.3108E+01  0.9572E+01  0.1146E+02E
 Epicentro: LOS SANTOS - SANTANDER                                             3
 ACTION:UPD 17-12-12 19:54 OP:rebc STATUS:               ID:20171111212329 L   I
 OLDACT:DUP 17-11-12 03:35 OP:dhb  STATUS:               ID:20171111211743d    3
 2017-11-11-2118-00M.COL___450                                                 6
 STAT SP IPHASW D HRMM SECON CODA AMPLIT PERI AZIMU VELO AIN AR TRES W  DIS CAZ7
 BAR2 EZ EP       2123 49.38                             170    0.4510 23.9 191 
 BAR2 EZ ES       2124  3.77                             170   -0.3510 23.9 191 
 BAR2 EZ I        2124  5.24        19.9 0.28            168           23.9 191 
 BRR  HZ IP     C 2123 50.47                             152    0.0110 71.3 298 
 BRR  HE ES       2124  7.76                             152    0.9210 71.3 298 
 BRR  HZ I        2124 11.50        11.7 0.30            151           71.3 298 
 PAM  EZ IP     D 2123 51.60                             151    0.1110 76.7  40 
 PAM  EN ES       2124  8.75                             151    0.0810 76.7  40 
 PAM  EZ I        2124 10.77         4.3 0.56            155           76.7  40 
 RUS  HZ EP       2123 52.65                             143   -0.4610  101 176 
 RUS  HN ES       2124 11.41                             143   -0.1410  101 176 
 RUS  HZ I        2124 12.72        14.2 0.32            144            101 176 
 PTB  HZ EP       2123 55.50                             132   -0.85 9  148 259 
 PTB  HN ES       2124 16.30                             132   -1.03 9  148 259 
 PTB  HZ I        2124 22.05         3.0 0.16            131            148 259 
 SPBC HZ EP       2123 57.89                             129   -0.02 9  164 219 
 SPBC HN ES       2124 19.54                             129   -0.56 9  164 219 
 SPBC HZ I        2124 22.22         9.3 0.34            129            164 219 
 ZAR  HN ES       2124 27.09                             122    0.02 9  204 292 
 ZAR  HZ I        2124 32.51         5.7 0.30            123            204 292 
 NOR  HZ EP       2124  5.14                             118   -0.03 8  235 234 
 NOR  HN ES       2124 33.16                             118    0.13 8  235 234 
 NOR  HZ I        2124 38.28         2.8 0.52            119            235 234 
 CHI  HZ EP       2124  6.87                             117   -0.27 8  249 195 
 CHI  HE ES       2124 37.66                             117    1.12 8  249 195 
 CHI  HZ I        2124 46.04         2.4 0.38            118            249 195 
 GUY2CHZ EP       2124 13.89                             112    0.82 7  302 235 
 GUY2CHE ES       2124 48.16                             112    1.07 7  302 235 
 GUY2CHZ I        2124 53.87         2.8 0.52                           302 235 
 PRA  HZ EP       2124 22.48                             106   -0.52 6  393 210 
 PRA  HE ES       2125  5.04                             106    0.27 6  393 210 
 PRA  HZ I        2125 11.03         4.7 0.36            107            393 210 
                                                                                
