 2011 1111 2309 42.3 L   6.166 -73.668112.7  RSN 22 0.4 3.0LRSN                1
 GAP= 66        0.78       2.1     2.6  5.8 -0.1092E+01  0.5439E+01  0.6760E+00E
 Epicentro: LA PAZ - SANTANDER                                                 3
 ACTION:UPD 12-07-13 16:09 OP:ep   STATUS:               ID:20111111230942 L   I
 2011-11-11-2308-10S.COL___180                                                 6
 STAT SP IPHASW D HRMM SECON CODA AMPLIT PERI AZIMU VELO AIN AR TRES W  DIS CAZ7
 BAR2 SZ IP       2310  0.54                             145    0.2110 71.4  49 
 BAR2 SZ ES   1   2310 14.38                             145   -0.03 7 71.4  49 
 BAR2 SZ I        2310 15.72      1036.0 0.20                          71.4  49 
 RUS  HZ IP     C 2310  0.59                             145   -0.1110 71.5 115 
 RUS  HN ES   2   2310 14.43                             145   -0.62 5 71.5 115 
 RUS  HZ I        2310 16.96        95.8 0.17                          71.5 115 
 BTL  SZ IP       2310  2.50                             137    0.4210 94.2  28 
 BRR  HZ IP     C 2310  2.63                             134    0.0410  104 357 
 BRR  HZ I        2310  2.99       480.8 0.10                           104 357 
 BRR  HN ES   2   2310 18.73                             134    0.30 5  104 357 
 CTAB SZ EP   3   2310  8.12                             125    1.43 2  141 205 
 NOR  SZ EP       2310  6.47                             123   -0.48 9  149 243 
 NOR  SN ES   1   2310 25.88                             123   -0.30 7  149 243 
 ROSC BE ES   2   2310 29.69                             120    0.01 5  163 206 
 YOP  SZ IP       2310  9.00                             120    0.32 9  165 123 
 YOP  SN ES   2   2310 29.88                             120    0.61 5  165 123 
 YOP  SZ I        2310 31.78       172.9 0.32                           165 123 
 PAM  SZ EP       2310  9.48                             120   -0.06 9  168  39 
 PAM  SE ES   2   2310 30.00                             120   -0.78 5  168  39 
 CHI  HZ EP       2310  9.54                             119   -0.10 9  170 182 
 CHI  HN ES   1   2310 30.87                             119   -0.10 7  170 182 
 CVER SZ EP   3   2310 10.96                             117   -0.63 2  187 194 
 ZAR  HZ IP       2310 11.81                             115   -0.23 9  197 318 
 ZAR  HN ES   1   2310 35.39                             115    0.15 6  197 318 
 ZAR  HZ I        2310 37.41       211.4 0.40                           197 318 
 GUE  SZ EP       2310 12.72                             114   -0.21 9  201  24 
 HEL  HZ EP       2310 13.49                             114   -0.01 8  206 271 
 HEL  HE ES   3   2310 37.69                             114   -0.15 2  206 271 
 HEL  HZ I        2310 44.14        67.2 0.22                           206 271 
 GUY  SZ EP   2   2310 15.77                             113    0.86 4  217 241 
 GUY  SN ES   2   2310 40.28                             113   -0.08 4  217 241 
 GUY  SZ I        2310 47.22        93.8 0.42                           217 241 
 VIL  SZ EP       2310 15.68                             111    0.09 8  227 181 
 VIL  SN ES   2   2310 42.23                             111    0.68 4  227 181 
 VIL  SZ I        2310 46.02        33.2 0.28                           227 181 
 OCA  SZ EP       2310 16.07                             111   -0.14 8  232  10 
 OCA  SZ I        2310 47.88        64.5 0.47                           232  10 
 RREF HZ EP       2310 16.79                             111   -0.07 8  233 233 
 RREF HZ I        2310 53.49        49.4 0.24                           233 233 
 TOL  SZ EP       2310 19.58                             109    0.76 8  253 226 
 ANIL HN ES   2   2310 50.61                             108    0.54 4  267 226 
 ANIL HZ I        2311  1.76        79.3 0.30                           267 226 
 DBB  SZ EP       2310 23.88                             105    0.33 7  296 289 
 PRA  HZ EP       2310 23.02                             105   -1.25 7  303 207 
                                                                                
