 2012 1211 2009 27.7 L   6.801 -73.176147.1  RSN  8 0.3 1.7LRSN                1
 GAP=133        0.64       3.5     3.7  5.3  0.1428E+01  0.6112E+01 -0.9906E+00E
 Epicentro: LOS SANTOS - SANTANDER                                             3
 ACTION:UPD 13-01-04 14:27 OP:ep   STATUS:               ID:20121211200927 L   I
 2012-12-11-2008-50M.COL___206                                                 6
 STAT SP IPHASW D HRMM SECON CODA AMPLIT PERI AZIMU VELO AIN AR TRES W  DIS CAZ7
 BAR2 SZ ES   1   2010  2.55                             171   -0.34 7 23.1 182 
 BAR2 SZ I        2010  4.21        16.4 0.16                          23.1 182 
 GIR2 SZ EP   2   20 9 47.33                             167   -0.16 5 30.7 356 
 GIR2 SZ ES   1   2010  2.97                             167    0.03 7 30.7 356 
 BRR  HN ES   1   2010  5.57                             154    0.29 7 68.2 300 
 PAM  SZ EP   1   20 9 50.27                             150    0.12 7 79.4  41 
 PAM  SN ES   1   2010  7.81                             150    0.13 7 79.4  41 
 PAM  SZ I        2010  9.12         4.3 0.40                          79.4  41 
 RUS  HZ EP   1   20 9 51.91                             144    0.33 7  101 174 
 RUS  HN ES   1   2010 10.12                             144   -0.12 7  101 174 
 RUS  HZ I        2010 11.48         3.8 0.16                           101 174 
 PTB  HZ EP   1   20 9 54.62                             133    0.16 7  145 259 
 PTB  HN ES   1   2010 14.91                             133   -0.44 7  145 259 
 PTB  HZ I        2010 20.48         6.5 0.10                           145 259 
 ZAR  HZ EP   1   20 9 59.45                             123   -0.43 6  201 292 
 ZAR  HN ES   1   2010 25.69                             123    0.68 6  201 292 
 ZAR  HZ I        2010 31.27         7.6 0.42                           201 292 
 SML  HN ES   1   2010 32.23                             118   -0.48 6  242 336 
                                                                                
