 2016  511 2232 42.9 L   6.764 -73.149139.7  RSN  6 0.5 1.3LRSN                1
 GAP=138        0.71       5.6     3.9  8.9  0.4146E-01  0.1358E+02  0.5307E+01E
 Epicentro: LOS SANTOS - SANTANDER                                             3
 ACTION:UPD 16-08-18 17:44 OP:cam  STATUS:               ID:20160511223242 L   I
 OLDACT:DUP 16-05-12 06:42 OP:dnl  STATUS:               ID:20160511222750d    3
 OLDACT:REG 16-05-12 06:27 OP:dnl  STATUS:               ID:20160511222749     3
 2016-05-11-2227-49M.COL___307                                                 6
 STAT SP IPHASW D HRMM SECON CODA AMPLIT PERI AZIMU VELO AIN AR TRES W  DIS CAZ7
 BAR2 EZ ES   3   2233 16.31                             171   -0.11 2 19.4 191 
 BAR2 EZ I        2233 18.16         6.3 0.19            171           19.4 191 
 BRR  HZ EP   2   2233  4.29                             151    0.78 5 72.9 301 
 BRR  HN ES   2   2233 20.46                             151    0.89 5 72.9 301 
 PAM  EZ EP       2233  4.87                             148    0.1710 80.7  38 
 PAM  EE ES       2233 21.27                             148   -0.4210 80.7  38 
 PAM  EZ I        2233 24.76         5.2 0.35            152           80.7  38 
 RUS  HZ EP   2   2233  6.19                             143    0.40 5 96.6 176 
 RUS  HN ES   2   2233 23.57                             143   -0.05 5 96.6 176 
 RUS  HZ I        2233 25.65         1.9 0.34            146           96.6 176 
 PTB  HZ EP   2   2233  9.29                             130   -0.00 5  147 260 
 PTB  HN ES   2   2233 29.17                             130   -0.70 5  147 260 
 PTB  HZ I        2233 32.07         3.7 0.14            134            147 260 
 ZAR  HZ EP   2   2233 14.43                             120   -0.67 4  205 293 
 ZAR  HN ES       2233 40.21                             120    0.01 8  205 293 
 ZAR  HN ISg  2   2233 40.26                             120    0.06 4  205 293 
                                                                                
