 2017  111 2112 43.7 L   7.536 -73.039157.5  RSN  5 0.2 1.4LRSN                1
 GAP=211        0.54       4.2     2.7  4.7  0.9155E+00  0.2428E+01  0.3670E+01E
 Epicentro: EL PLAYON - SANTANDER                                              3
 ACTION:UPD 17-05-22 15:58 OP:jn   STATUS:               ID:20170111211243 L   I
 OLDACT:REG 17-01-12 00:37 OP:lv   STATUS:               ID:20170111210747     3
 2017-01-11-2108-00M.COL___340                                                 6
 STAT SP IPHASW D HRMM SECON CODA AMPLIT PERI AZIMU VELO AIN AR TRES W  DIS CAZ7
 PAM  EZ EP       2113  5.72                             164    0.0910 43.3 120 
 PAM  EN ES       2113 22.55                             164   -0.2010 43.3 120 
 PAM  EZ I        2113 23.42         3.6 0.17            165           43.3 120 
 BRR  HN ES       2113 25.70                             149    0.3510 88.1 238 
 RUS  HZ EP       2113 15.62                             129    0.23 9  182 182 
 RUS  HN ES       2113 39.98                             129   -0.14 9  182 182 
 PTB  HZ EP       2113 15.53                             127   -0.16 9  191 235 
 PTB  HN ES       2113 40.55                             127   -0.10 9  191 235 
 PTB  HZ I        2113 44.11         1.6 0.13            127            191 235 
 ZAR  HE ES       2113 42.13                             125   -0.15 9  201 269 
 ZAR  HZ I        2113 43.18         2.8 0.10            125            201 269 
                                                                                
