 2010 1111 2137 24.9 L   6.761 -73.088139.9  RSN  8 0.4 1.9LRSN                1
 GAP=165        0.91       4.5     7.2  8.3 -0.1023E+02  0.7321E+01 -0.1289E+01E
 Epicentro: LOS SANTOS - SANTANDER                                             3
 ACTION:UP  10-12-17 16:51 OP:REBC STATUS:               ID:20101111213724 L   I
 2010-11-11-2135-12S.COL___129                                                 6
 STAT SP IPHASW D HRMM SECON CODA AMPLIT PERI AZIMU VELO SNR AR TRES W  DIS CAZ7
 BAR2 SZ IP       2137 44.18                             171     0.310   22 209 
 BAR2 SZ I        2137 44.44        18.7 0.13                            22 209 
 BAR2 SZ ES   2   2137 57.97                             171    -0.6 5   22 209 
 BTL  SZ EP       2137 44.44                             169     0.510   26 311 
 BRR  HZ IP     C 2137 45.94                             149     0.010   79 299 
 BRR  HN ES   1   2138  2.60                             149     0.3 7   79 299 
 BRR  HZ I        2138  3.56        27.8 0.15                            79 299 
 RUS  HZ EP       2137 47.91                             144     0.110   96 180 
 RUS  HZ I        2137 49.39         7.3 0.12                            96 180 
 RUS  HE ES   1   2138  5.28                             144    -0.3 7   96 180 
 GUE  SZ EP       2137 49.16                             137    -0.210  120   9 
 GRA  SZ ES   1   2138  9.13                             135    -0.2 7  128  14 
 GRA  SZ I        2138 10.66        13.1 0.20                           128  14 
 OCA  SZ EP   1   2137 52.60                             127    -0.7 7  165 351 
 OCA  SZ I        2138 18.89        12.3 0.38                           165 351 
 NOR  SZ EP       2138  0.58                             117    -0.1 8  238 236 
 NOR  SN ES   1   2138 28.09                             117    -0.4 6  238 236 
                                                                                
