 2010 1211 2309 32.3 L   6.767 -73.202137.0  RSN  9 0.3 1.8LRSN                1
 GAP=153        0.62       3.0    10.6  9.0 -0.1747E+02  0.5284E+02 -0.5945E+01E
 Epicentro: VILLANUEVA - SANTANDER                                             3
 ACTION:UP  11-01-14 15:24 OP:pat  STATUS:               ID:20101211230932 L   I
 2010-12-11-2307-39S.COL___137                                                 6
 STAT SP IPHASW D HRMM SECON CODA AMPLIT PERI AZIMU VELO SNR AR TRES W  DIS CAZ7
 BTL  SZ EP   1   23 9 50.79                             172     0.1 7   18 336 
 BAR2 SZ EP   1   23 9 50.60                             171    -0.2 7   20 174 
 BAR2 SZ I        2310  7.10        17.0 0.27                            20 174 
 GIR2 SZ EP   1   23 9 50.75                             165    -0.2 7   34   1 
 RUS  HZ EP   1   23 9 54.55                             143    -0.4 7   98 172 
 RUS  HE ES   1   2310 13.02                             143     0.4 7   98 172 
 RUS  HZ I        2310 14.92         7.3 0.43                            98 172 
 GRA  SZ EP   1   23 9 57.57                             134     0.4 7  131  20 
 GRA  SZ ES   1   2310 16.62                             134     0.0 7  131  20 
 GRA  SZ I        2310 18.22         9.5 0.35                           131  20 
 OCA  SZ EP   1   2310  0.40                             127     0.2 7  163 355 
 OCA  SZ ES   2   2310 21.56                             127    -0.4 5  163 355 
 OCA  SZ I        2310 28.53         9.1 0.10                           163 355 
 CHI  HZ EP   1   2310  8.86                             116    -0.1 6  244 194 
 CHI  HE ES   1   2310 37.25                             116    -0.3 6  244 194 
 CHI  HZ I        2310 44.12         3.5 0.34                           244 194 
 RREF HN ES   2   2310 52.68                             110     0.4 3  315 229 
 RREF HZ I        2311  4.50         3.8 0.54                           315 229 
 PRA  HZ EP   1   2310 25.15                             105     0.4 4  386 209 
                                                                                
