 2015 1011 2113 27.7 L   6.796 -73.110146.3  RSN 13 0.4 2.3LRSN                1
 GAP=141        0.89       2.8     4.1  4.9 -0.6696E+00  0.6604E+01  0.1366E+01E
 Epicentro: LOS SANTOS - SANTANDER                                             3
 ACTION:UPD 15-12-22 20:39 OP:cam  STATUS:               ID:20151011211327 L   I
 OLDACT:REG 15-10-12 02:57 OP:ar   STATUS:               ID:20151011210748     3
 2015-10-11-2107-48M.COL___337                                                 6
 STAT SP IPHASW D HRMM SECON CODA AMPLIT PERI AZIMU VELO AIN AR TRES W  DIS CAZ7
 BAR2 EZ EP       2113 47.49                             170    0.0410 24.0 200 
 BAR2 EZ ES       2114  2.78                             170   -0.0410 24.0 200 
 BAR2 EZ I        2114  3.92        78.4 0.16            168           24.0 200 
 BRR  HZ EP     C 2113 49.29                             151    0.1310 74.9 297 
 BRR  HN ES       2114  6.63                             151    0.7610 74.9 297 
 BRR  HZ I        2114  7.42        17.3 0.25            147           74.9 297 
 PAM  EZ EP       2113 50.23                             152    0.3410 75.2  37 
 PAM  EN ES       2114  6.78                             152   -0.3810 75.2  37 
 RUS  HZ EP       2113 51.40                             144   -0.1010  100 178 
 RUS  HE ES       2114  9.91                             144   -0.1310  100 178 
 RUS  HZ I        2114 11.30        24.8 0.22            144            100 178 
 OCA  HZ EP   2   2113 55.51                             130   -0.67 5  161 352 
 OCA  HN ES   2   2114 18.65                             130    0.29 5  161 352 
 OCA  HZ I        2114 24.45        31.3 0.48            129            161 352 
 SPBC HZ EP       2113 56.45                             129   -0.04 9  165 220 
 SPBC HE ES   2   2114 18.46                             129   -0.46 5  165 220 
 SPBC HZ I        2114 21.08        20.3 0.09            127            165 220 
 ZAR  HZ EP       2114  1.49                             122    0.87 8  208 292 
 ZAR  HN ES       2114 25.59                             122   -0.67 8  208 292 
 ZAR  HZ I        2114 31.25        11.9 0.30            120            208 292 
 NOR  HZ EP       2114  3.47                             118   -0.36 8  238 235 
 NOR  HN ES       2114 31.41                             118   -0.56 8  238 235 
 NOR  HZ I        2114 35.68        10.9 0.13            117            238 235 
 SML  HZ EP       2114  4.31                             117   -0.31 8  246 334 
 SML  HN ES   2   2114 32.70                             117   -0.68 4  246 334 
 SML  HZ I        2114 39.68        22.3 0.10            117            246 334 
 CHI  HZ EP       2114  5.59                             117    0.04 8  249 196 
 CHI  HN ES       2114 35.33                             117    0.30 8  249 196 
 CHI  HZ I        2114 40.49         7.0 0.34            117            249 196 
 ROSC BZ EP   4   2114  7.38                             117    1.30 0  254 212 
 ROSC BN ES   4   2114 37.99                             117    2.01 0  254 212 
 ROSC BZ I        2114 44.96        21.1 0.35            116            254 212 
 GUY2CHZ EP   2   2114 11.96                             112    0.24 4  304 235 
 GUY2CHN ES   2   2114 46.49                             112    0.47 4  304 235 
 GUY2CHZ I        2114 57.36         6.8 0.46                           304 235 
 ORTC HZ EP   2   2114 21.81                             106   -0.11 3  397 217 
 ORTC HE ES   2   2115  4.89                             106    0.71 3  397 217 
 ORTC HZ I        2115 12.08         5.3 0.30            106            397 217 
                                                                                
