 2017  811 2355  2.4 L   6.789 -73.134147.3  RSN  7 0.3 1.5LRSN                1
 GAP=138        0.64       3.0     3.1  4.6 -0.2320E+00  0.4468E+01  0.2177E+01E
 Epicentro: LOS SANTOS - SANTANDER                                             3
 ACTION:UPD 17-09-04 20:19 OP:rebc STATUS:               ID:20170811235502 L   I
 OLDACT:UP  17-08-12 05:08 OP:edw  STATUS:               ID:20170811234739     3
 OLDACT:REG 17-08-12 04:13 OP:osc  STATUS:               ID:20170811234739     3
 2017-08-11-2348-00M.COL___417                                                 6
 STAT SP IPHASW D HRMM SECON CODA AMPLIT PERI AZIMU VELO AIN AR TRES W  DIS CAZ7
 BAR2 EZ ES       2355 37.14                             171   -0.4910 22.4 194 
 BAR2 EZ I        2355 39.85         9.4 0.34            169           22.4 194 
 BRR  HZ EP       2355 24.02                             152    0.2210 72.9 299 
 BRR  HN ES       2355 40.82                             152    0.3210 72.9 299 
 PAM  EZ EP       2355 24.80                             151    0.0210 77.5  38 
 PAM  EN ES       2355 42.15                             151   -0.1010 77.5  38 
 PAM  EZ I        2355 43.55         3.8 0.26            155           77.5  38 
 RUS  HZ EP       2355 26.18                             144   -0.0210 99.3 177 
 RUS  HE ES       2355 45.08                             144    0.3110 99.3 177 
 RUS  HZ I        2355 47.42         4.9 0.42            144           99.3 177 
 ZAR  HN ES       2356  0.41                             122   -0.21 8  206 292 
 TABC EZ EP   2   2355 37.70                             120   -0.49 4  230 211 
 NOR  HZ EP       2355 38.19                             119   -0.06 8  235 235 
 NOR  HN ES       2356  6.25                             119    0.04 8  235 235 
 NOR  HZ I        2356 11.48         3.2 0.32            119            235 235 
                                                                                
