 2017  911 2328 35.6 L   6.783 -73.154154.2  RSN  5 0.3 1.5LRSN                1
 GAP=235        0.85       5.4     6.8  8.0  0.1879E+02  0.1025E+02  0.1980E+01E
 Epicentro: LOS SANTOS - SANTANDER                                             3
 ACTION:UPD 17-10-05 19:11 OP:rebc STATUS:               ID:20170911232835 L   I
 OLDACT:REG 17-09-12 02:53 OP:dani STATUS:               ID:20170911232745     3
 2017-09-11-2328-00M.COL___431                                                 6
 STAT SP IPHASW D HRMM SECON CODA AMPLIT PERI AZIMU VELO AIN AR TRES W  DIS CAZ7
 BAR2 EZ ES       2329 12.37                             172    0.0310 21.4 189 
 BRR  HZ EP       2328 57.83                             154    0.1110 71.3 300 
 BRR  HN ES       2329 15.25                             154    0.3110 71.3 300 
 BRR  HZ I        2329 17.79         8.8 0.34            154           71.3 300 
 RUS  HZ EP       2329  0.24                             146    0.1210 98.8 175 
 RUS  HN ES       2329 18.71                             146   -0.4910 98.8 175 
 RUS  HZ I        2329 19.62         3.1 0.21            148           98.8 175 
 SPBC HE ES       2329 27.60                             131    0.37 9  161 219 
 ZAR  HE ES       2329 33.84                             124   -0.54 9  204 293 
                                                                                
