 2014  511 2254 17.5 L   6.797 -73.185143.5  RSN  4 0.2 1.3LRSN                1
 GAP=132        0.53       3.0     2.7  5.9 -0.9073E+00  0.4893E+01 -0.3927E+00E
 Epicentro: LOS SANTOS - SANTANDER                                             3
 OLDACT:REG 14-05-12 03:48 OP:fm   STATUS:               ID:20140511224807     3
 ACTION:UPD 15-03-16 16:56 OP:nd   STATUS:               ID:20140511225417 L   I
 OLDACT:UP  14-05-12 06:51 OP:fm   STATUS:               ID:20140511224807     3
 2014-05-11-2248-07M.COL___254                                                 6
 STAT SP IPHASW D HRMM SECON CODA AMPLIT PERI AZIMU VELO AIN AR TRES W  DIS CAZ7
 PAM  SZ EP       2254 39.86                             149    0.2410 80.4  42 
 PAM  SN ES       2254 56.75                             149   -0.1510 80.4  42 
 PAM  SZ I        2255  6.20         3.8 2.46            151           80.4  42 
 RUS  HZ EP       2254 40.68                             143   -0.3110  101 174 
 RUS  HN ES       2254 59.54                             143    0.2010  101 174 
 PTB  HZ EP       2254 43.91                             132    0.06 9  143 259 
 PTB  HN ES       2255  4.35                             132   -0.08 9  143 259 
 PTB  SZ I        2255  8.97         2.5 1.98            139            143 259 
 ZAR  HN ES   1   2255 14.32                             122    0.09 6  200 293 
                                                                                
