 2010  111 2212 59.9 L   6.796 -73.107140.7  RSN 13 0.4 2.1LRSN                1
 GAP=129        0.78       2.8     6.4  4.8 -0.8864E+01  0.8000E+01 -0.2076E+00E
 Epicentro: LOS SANTOS - SANTANDER                                             3
 ACTION:UP  10-08-24 09:43 OP:vdl  STATUS:               ID:20100111221259 L   I
 2010-01-11-2210-22S.COL___097                                                 6
 STAT SP IPHASW D HRMM SECON CODA AMPLIT PERI AZIMU VELO SNR AR TRES W  DIS CAZ7
 BAR2 SZ IP       2213 18.93                             170     0.010   24 200 
 BAR2 SZ ES   1   2213 33.50                             170    -0.2 7   24 200 
 GIR2 SZ IP       2213 19.01                             166     0.010   33 343 
 GIR2 SZ ES   1   2213 33.48                             166    -0.4 7   33 343 
 RUS  BZ EP   1   2213 23.17                             143     0.1 7  100 178 
 RUS  BN ES   1   2213 41.31                             143     0.1 7  100 178 
 RUS  BZ I        2213 43.28        13.2 0.29                           100 178 
 GUE  SZ EP   1   2213 23.91                             138    -0.2 7  116  10 
 GUE  SZ ES   1   2213 43.43                             138     0.5 7  116  10 
 GRA  SZ IP       2213 24.93                             136     0.310  125  16 
 GRA  SZ ES   1   2213 44.47                             136     0.6 7  125  16 
 OCA  SZ IP       2213 27.64                             128    -0.2 9  161 352 
 OCA  SZ ES   1   2213 49.03                             128    -0.7 7  161 352 
 CHI  HZ EP   1   2213 37.54                             116     0.2 6  249 196 
 CHI  HN ES   1   2214  6.27                             116    -0.3 6  249 196 
 CHI  HZ I        2214 13.11         7.5 0.38                           249 196 
 ROSC BE ES   2   2214  8.16                             115     0.6 4  255 212 
 HEL  HZ EP   1   2213 41.26                             113     1.0 6  276 256 
 HEL  HZ I        2214 21.67        13.7 0.18                           276 256 
 DBB  SZ IP       2213 47.43                             108    -0.2 7  344 274 
 SDV  BZ EP       2213 48.76                             107    -0.6 6  357  50 
 ANIL BN ES   2   2214 28.45                             107    -0.3 3  360 225 
 PRA  HZ EP       2213 53.30                             106    -0.1 6  394 210 
 PRA  HE ES   1   2214 34.91                             106    -0.3 4  394 210 
                                                                                
