 2010  711 2110 39.8 L   6.811 -73.003139.4  RSN  4 0.4 1.4LRSN                1
 GAP=175        0.73       5.5    11.2 11.1  0.9205E+01 -0.5021E+02 -0.1776E+02E
 Epicentro: CEPITA - SANTANDER                                                 3
 ACTION:UPD 10-12-01 15:17 OP:pat  STATUS:               ID:20100711211039 L   I
 2010-07-11-2108-38S.COL___120                                                 6
 STAT SP IPHASW D HRMM SECON CODA AMPLIT PERI AZIMU VELO AIN AR TRES W  DIS CAZ7
 BAR2 SZ EP       2110 58.83                             168     0.010   31 219 
 BAR2 SZ ES   2   2111 13.82                             168     0.1 5   31 219 
 BAR2 SZ I        2111 20.81         7.2 0.36                            31 219 
 BRR  HZ EP       2111  0.76                             148    -0.310   85 293 
 BRR  HE ES   2   2111 17.97                             148     0.3 5   85 293 
 BRR  HZ I        2111 20.41         9.0 0.07                            85 293 
 RUS  HZ EP       2111  3.04                             142     0.110  102 185 
 RUS  HE ES   2   2111 20.85                             142    -0.3 5  102 185 
 RUS  HZ I        2111 22.68         3.2 0.50                           102 185 
 GRA  SZ EP       2111  4.33                             137     0.310  121  10 
 GRA  SZ ES   3   2111 21.40                             137    -1.5 2  121  10 
 GRA  SZ I        2111 25.32         3.1 0.40                           121  10 
                                                                                
