 2010  711 2058 52.7 L   6.779 -73.055144.7  RSN 11 0.4 2.2LRSN                1
 GAP=167        0.76       3.8     6.5  6.0 -0.9276E+01 -0.1155E+01 -0.1669E+01E
 Epicentro: LOS SANTOS - SANTANDER                                             3
 ACTION:UPD 10-12-01 15:17 OP:pat  STATUS:               ID:20100711205852 L   I
 2010-07-11-2056-38S.COL___120                                                 6
 STAT SP IPHASW D HRMM SECON CODA AMPLIT PERI AZIMU VELO AIN AR TRES W  DIS CAZ7
 BAR2 SZ IP       2059 12.32                             170     0.110   25 215 
 BAR2 SZ ES   1   2059 27.13                             170    -0.4 7   25 215 
 BAR2 SZ I        2059 28.25        35.8 0.22                            25 215 
 BRR  HZ IP       2059 14.28                             149    -0.110   81 297 
 BRR  HZ I        2059 14.65        56.5 0.08                            81 297 
 BRR  HN ES   1   2059 31.54                             149     0.3 7   81 297 
 RUS  HZ EP       2059 16.01                             145    -0.210   98 182 
 RUS  HE ES   2   2059 34.49                             145     0.0 5   98 182 
 RUS  HZ I        2059 35.44        10.3 0.31                            98 182 
 BRI  SZ IP       2059 16.08                             141    -0.310  108  15 
 BRI  SZ ES   3   2059 34.48                             141    -0.4 2  108  15 
 BRI  SZ I        2059 41.62        22.0 0.58                           108  15 
 GUE  SZ EP       2059 17.53                             139     0.210  117   7 
 GUE  SZ I        2059 18.20         7.5 0.21                           117   7 
 GRA  SZ IP       2059 18.33                             137     0.510  125  13 
 GRA  SZ ES   2   2059 38.06                             137     0.6 5  125  13 
 GRA  SZ I        2059 39.17        25.4 0.40                           125  13 
 OCA  SZ EP       2059 21.06                             129    -0.2 9  164 350 
 OCA  SZ ES   3   2059 43.21                             129    -0.4 2  164 350 
 OCA  SZ I        2059 47.22        22.3 0.34                           164 350 
 ROSC BE ES   2   21 0  1.57                             116     0.5 4  256 213 
 ROSC BZ I        21 0  7.57        10.2 0.35                           256 213 
 HEL  HZ EP   1   2059 33.22                             114    -0.7 6  281 257 
 HEL  HN ES   3   21 0  5.96                             114    -0.1 2  281 257 
 HEL  HZ I        21 0 12.09         7.1 0.35                           281 257 
 RREF HZ EP   2   2059 40.32                             110     0.8 3  328 231 
 RREF HE ES   3   21 0 16.28                             110     0.3 2  328 231 
 RREF HZ I        21 0 20.84         6.9 0.39                           328 231 
 PRA  HZ EP   1   2059 46.66                             106     0.1 4  395 211 
 PRA  HE ES   3   21 0 27.77                             106    -0.8 1  395 211 
 PRA  HZ I        21 0 32.55         7.1 0.25                           395 211 
                                                                                
