 2016  911 2143  8.3 L   6.772 -73.130146.8  RSN  4 0.2 1.0LRSN                1
 GAP=140        0.57       3.1     3.0  5.0 -0.1051E+01  0.1431E+01  0.2015E+01E
 Epicentro: LOS SANTOS - SANTANDER                                             3
 ACTION:UPD 17-08-17 21:08 OP:lp   STATUS:               ID:20160911214308 L   I
 OLDACT:UP  16-09-12 06:18 OP:edw  STATUS:               ID:20160911213742     3
 OLDACT:REG 16-09-12 03:47 OP:edw  STATUS:               ID:20160911213742     3
 2016-09-11-2138-00M.COL___303                                                 6
 STAT SP IPHASW D HRMM SECON CODA AMPLIT PERI AZIMU VELO AIN AR TRES W  DIS CAZ7
 BRR  HZ EP       2143 29.86                             152    0.1210 74.3 300 
 BRR  HN ES       2143 46.79                             152    0.3310 74.3 300 
 PAM  EZ EP       2143 30.75                             151    0.0410 78.7  37 
 PAM  EE ES       2143 47.92                             151   -0.2710 78.7  37 
 PAM  EZ I        2143 49.24         1.6 0.28            152           78.7  37 
 RUS  HZ EP       2143 32.11                             145    0.1810 97.3 177 
 RUS  HN ES       2143 50.33                             145   -0.0210 97.3 177 
 RUS  HZ I        2143 51.16         1.6 0.32            146           97.3 177 
 PTB  HZ EP       2143 35.28                             132   -0.19 9  149 260 
 PTB  HE ES       2143 56.40                             132   -0.25 9  149 260 
 PTB  HZ I        2143 59.39         1.3 0.15            132            149 260 
                                                                                
