 2017  311 2307 17.3 L   6.785 -73.131146.0  RSN 11 0.4 2.0LRSN                1
 GAP=139        0.90       3.3     3.3  5.4 -0.1251E+01  0.4787E+01  0.4637E+01E
 Epicentro: LOS SANTOS - SANTANDER                                             3
 ACTION:UPD 17-05-25 18:39 OP:jn   STATUS:               ID:20170311230717 L   I
 OLDACT:REG 17-03-12 02:46 OP:lv   STATUS:               ID:20170311225742     3
 2017-03-11-2258-00M.COL___397                                                 6
 STAT SP IPHASW D HRMM SECON CODA AMPLIT PERI AZIMU VELO AIN AR TRES W  DIS CAZ7
 BAR2 EZ EP       23 7 36.88                             171   -0.1010 22.1 195 
 BAR2 EZ ES       23 7 52.10                             171   -0.1910 22.1 195 
 BAR2 EZ I        23 7 54.87        32.0 0.45            168           22.1 195 
 BRR  HZ EP       23 7 38.81                             152    0.1610 73.4 299 
 BRR  HN ES       23 7 55.65                             152    0.3910 73.4 299 
 BRR  HZ I        23 8  0.48        11.5 0.11            154           73.4 299 
 PAM  EZ EP       23 7 39.62                             151    0.0210 77.6  38 
 PAM  EN ES       23 7 57.10                             151    0.1510 77.6  38 
 PAM  EZ I        23 7 58.11         9.0 0.20            157           77.6  38 
 RUS  HZ EP       23 7 40.83                             144   -0.1710 98.8 177 
 RUS  HN ES       23 7 59.52                             144    0.0810 98.8 177 
 RUS  HZ I        23 8  2.36        11.7 0.43            144           98.8 177 
 PTB  HZ EP       23 7 43.93                             132   -0.52 9  149 260 
 PTB  HN ES       23 8  4.70                             132   -0.89 9  149 260 
 PTB  HZ I        23 8  7.25        13.7 0.12            133            149 260 
 SPBC HZ EP       23 7 45.91                             129    0.07 9  163 220 
 SPBC HN ES       23 8  8.42                             129    0.35 9  163 220 
 SPBC HZ I        23 8 13.87        18.2 0.20            130            163 220 
 ZAR  HN ES       23 8 15.36                             122   -0.16 8  206 292 
 NOR  HZ EP       23 7 52.95                             118   -0.18 8  235 235 
 NOR  HN ES       23 8 21.29                             118    0.24 8  235 235 
 NOR  HZ I        23 8 24.74         6.5 0.16            120            235 235 
 CHI  HZ EP       23 7 55.29                             117    0.35 8  248 196 
 CHI  HN ES       23 8 24.05                             117   -0.20 8  248 196 
 CHI  HZ I        23 8 34.18         3.7 0.31            119            248 196 
 HEL  HZ EP   4   23 7 59.95                             115    2.24 0  273 256 
 HEL  HN ES       23 8 30.16                             115    0.97 8  273 256 
 HEL  HZ I        23 8 35.94         6.7 0.40            117            273 256 
 GUY2CHZ EP   4   23 8  2.26                             112    1.25 0  302 235 
 GUY2CHN ES       23 8 34.99                             112   -0.08 7  302 235 
 GUY2CHZ  IAML    23 8 41.27         5.6 0.37                           302 235 
                                                                                
