 2014  511 2050 58.4 L   6.782 -73.137138.4  RSN  6 0.3 1.5LRSN                1
 GAP=138        0.59       3.3     3.3  7.4 -0.2141E+01  0.1013E+02  0.3694E+01E
 Epicentro: LOS SANTOS - SANTANDER                                             3
 OLDACT:REG 14-05-12 03:40 OP:fm   STATUS:               ID:20140511204815     3
 ACTION:UPD 15-03-16 16:56 OP:nd   STATUS:               ID:20140511205058 L   I
 OLDACT:UP  14-05-12 06:21 OP:fm   STATUS:               ID:20140511204815     3
 2014-05-11-2048-15M.COL___254                                                 6
 STAT SP IPHASW D HRMM SECON CODA AMPLIT PERI AZIMU VELO AIN AR TRES W  DIS CAZ7
 PAM  SZ EP       2051 19.83                             149   -0.0710 78.3  38 
 PAM  SN ES       2051 36.69                             149    0.0210 78.3  38 
 PAM  SZ I        2051 38.58         6.9 0.48            160           78.3  38 
 RUS  HZ EP   1   2051 21.48                             143    0.19 7 98.5 177 
 RUS  HE ES   2   2051 38.72                             143   -0.41 5 98.5 177 
 RUS  SZ I        2051 54.24         2.5 4.12            147           98.5 177 
 PTB  HZ EP   2   2051 24.01                             130   -0.82 5  148 260 
 PTB  HN ES   1   2051 45.87                             130    0.42 7  148 260 
 PTB  SZ I        2051 51.27         2.9 1.80            135            148 260 
 ZAR  HN ES   1   2051 55.32                             120   -0.31 6  206 293 
 NOR  HZ EP   1   2051 34.13                             117    0.45 6  234 235 
 NOR  HN ES   1   2052  1.04                             117   -0.15 6  234 235 
 NOR  SZ I        2052  8.43         2.6 1.48            122            234 235 
 SML  HZ EP   4   2051 33.20                             116   -1.67 0  246 335 
 SML  HE ES   1   2052  3.38                             116    0.07 6  246 335 
 SML  SZ I        2052 14.21         3.5 1.12            123            246 335 
                                                                                
