 2015 1011 2117  8.8 L   6.796 -73.301127.3  RSN 10 0.4 2.0LRSN                1
 GAP=102        0.98       2.7     3.8  5.9 -0.1059E+01  0.8495E+01 -0.1915E+01E
 Epicentro: ZAPATOCA - SANTANDER                                               3
 ACTION:UPD 15-12-22 20:39 OP:cam  STATUS:               ID:20151011211708 L   I
 OLDACT:DUP 15-10-12 07:15 OP:ar   STATUS:               ID:20151011210749d    3
 OLDACT:REG 15-10-12 02:57 OP:ar   STATUS:               ID:20151011210748     3
 2015-10-11-2107-48M.COL___337                                                 6
 STAT SP IPHASW D HRMM SECON CODA AMPLIT PERI AZIMU VELO AIN AR TRES W  DIS CAZ7
 BAR2 EZ EP       2117 26.18                             168   -0.1410 26.0 150 
 BAR2 EZ ES       2117 39.61                             168   -0.3410 26.0 150 
 BAR2 EZ I        2117 40.47        41.6 0.36            168           26.0 150 
 BRR  HZ IP     C 2117 27.18                             154   -0.0210 57.0 307 
 BRR  HN ES       2117 41.71                             154    0.1910 57.0 307 
 BRR  HZ I        2117 42.14        46.8 0.34            152           57.0 307 
 PAM  EZ EP       2117 30.44                             143    0.4610 89.6  48 
 PAM  EN ES       2117 47.22                             143    0.7510 89.6  48 
 PAM  EZ I        2117 48.81        24.8 0.34            144           89.6  48 
 RUS  HZ EP       2117 30.51                             139   -0.4910  103 166 
 RUS  HE ES       2117 48.11                             139   -0.1610  103 166 
 RUS  HZ I        2117 48.67         7.7 0.32            138            103 166 
 OCA  HZ EP       2117 35.45                             125   -0.27 9  160 359 
 OCA  HN ES       2117 55.99                             125   -0.69 9  160 359 
 OCA  HZ I        2117 57.50        37.6 0.28            124            160 359 
 ZAR  HZ EP       2117 38.57                             120    0.07 9  188 294 
 ZAR  HN ES       2118  2.35                             120    0.73 9  188 294 
 ZAR  HZ I        2118  5.77        13.7 0.10            118            188 294 
 NOR  HZ EP   2   2117 42.32                             116    0.30 4  221 232 
 NOR  HN ES       2118  7.76                             116   -0.14 8  221 232 
 NOR  HZ I        2118 13.63         7.0 0.16            114            221 232 
 SML  HZ EP       2117 43.92                             114    0.11 8  237 339 
 SML  HN ES       2118 10.54                             114   -0.54 8  237 339 
 SML  HZ I        2118 18.31        17.2 0.10            113            237 339 
 CHI  HZ EP   2   2117 45.48                             114    0.39 4  244 191 
 CHI  HN ES   2   2118 14.19                             114    0.82 4  244 191 
 CHI  HZ I        2118 21.05         4.4 0.38            112            244 191 
 GUY2CHZ EP   4   2117 51.21                             110    1.17 0  287 233 
 GUY2CHN ES       2118 22.30                             110    0.13 7  287 233 
 GUY2CHZ I        2118 26.25         1.7 0.22                           287 233 
                                                                                
