 2011  911 2012 27.6 L   6.860 -73.254119.9  RSN  5 0.3 1.6LRSN                1
 GAP=150        0.60       5.1     7.9  5.5  0.2450E+02  0.1212E+02  0.5296E+01E
 Epicentro: ZAPATOCA - SANTANDER                                               3
 ACTION:UPD 12-07-13 15:56 OP:ep   STATUS:               ID:20110911201227 L   I
 2011-09-11-2008-43S.COL___168                                                 6
 STAT SP IPHASW D HRMM SECON CODA AMPLIT PERI AZIMU VELO AIN AR TRES W  DIS CAZ7
 GIR2 SZ EP       2012 43.95                             167   -0.0610 25.1  15 
 GIR2 SZ ES   1   2012 57.20                             167    0.38 7 25.1  15 
 BAR2 SZ EP   1   2012 44.45                             165    0.13 7 30.7 165 
 BAR2 SZ ES   1   2012 57.01                             165   -0.36 7 30.7 165 
 BAR2 SZ I        2012 58.90        20.9 0.30                          30.7 165 
 BRR  HZ EP   1   2012 44.66                             153   -0.50 7 57.5 298 
 BRR  HZ I        2012 45.09        16.2 0.11                          57.5 298 
 BRR  HE ES   1   2012 58.88                             153    0.01 7 57.5 298 
 RUS  HZ EP   1   2012 49.48                             135   -0.08 7  109 170 
 RUS  HE ES   1   2013  6.96                             135    0.24 7  109 170 
 RUS  HZ I        2013  8.04         2.2 0.19                           109 170 
 ZAR  HZ EP   1   2012 57.38                             118    0.38 7  190 292 
 ZAR  HZ I        2013 23.95         3.6 0.49                           190 292 
                                                                                
