 2012  611 2320 48.3 L   6.789 -73.188143.4  RSN  4 0.2 1.4LRSN                1
 GAP=240        0.48       6.6     4.9  6.2  0.2114E+02  0.3538E+01 -0.6198E+01E
 Epicentro: LOS SANTOS - SANTANDER                                             3
 ACTION:UPD 12-08-06 17:48 OP:ep   STATUS:               ID:20120611232046 L   I
 2012-06-11-2320-00M.COL___201                                                 6
 STAT SP IPHASW D HRMM SECON CODA AMPLIT PERI AZIMU VELO AIN AR TRES W  DIS CAZ7
 BAR2 SZ EP   1   2321  7.67                             171    0.04 7 21.8 178 
 BAR2 SZ ES   1   2321 22.89                             171    0.19 7 21.8 178 
 BAR2 SZ I        2321 24.28         4.5 0.23            168           21.8 178 
 RUS  HZ EP   1   2321 11.72                             144   -0.06 7 99.8 173 
 RUS  HN ES   1   2321 29.83                             144   -0.25 7 99.8 173 
 PTB  HZ EP   1   2321 14.93                             132    0.28 7  143 259 
 PTB  HN ES   1   2321 35.36                             132    0.16 7  143 259 
 PTB  HZ I        2321 38.60         4.1 0.18            132            143 259 
 ZAR  HE ES   1   2321 44.69                             122   -0.40 6  200 293 
                                                                                
