 2017 1011 2100 34.4 L   6.803 -73.164138.0  RSN 13 0.6 2.2LRSN                1
 GAP=110        1.07       3.6     3.7  6.2  0.6730E+00  0.8603E+01  0.5904E+01E
 Epicentro: LOS SANTOS - SANTANDER                                             3
 ACTION:UPD 17-11-07 19:30 OP:rebc STATUS:               ID:20171011210034 L   I
 OLDACT:REG 17-10-12 02:21 OP:dhb  STATUS:               ID:20171011205745     3
 2017-10-11-2058-00M.COL___432                                                 6
 STAT SP IPHASW D HRMM SECON CODA AMPLIT PERI AZIMU VELO AIN AR TRES W  DIS CAZ7
 BAR2 EZ IP     D 21 0 52.91                             170   -0.2210 23.4 185 
 BAR2 EZ ES       21 1  7.79                             170    0.0810 23.4 185 
 BAR2 EZ I        21 1 10.92        35.0 0.32            166           23.4 185 
 PAM  EZ EP       21 0 55.73                             150   -0.1610 78.5  41 
 PAM  EE ES       21 1 13.19                             150    0.5610 78.5  41 
 PAM  EZ I        21 1 15.11        42.4 0.52            157           78.5  41 
 RUS  HZ EP       21 0 56.97                             142   -0.4910  101 175 
 RUS  HN ES       21 1 15.81                             142    0.3910  101 175 
 RUS  HZ I        21 1 16.86        44.2 0.30            143            101 175 
 PTB  HZ EP       21 0 59.87                             131   -0.72 9  146 259 
 PTB  HN ES       21 1 20.70                             131   -0.30 9  146 259 
 PTB  HZ I        21 1 25.87         8.3 0.26            131            146 259 
 YPLC HZ EP       21 1  3.44                             125   -0.36 9  178 151 
 YPLC HE ES       21 1 26.75                             125    0.05 9  178 151 
 YPLC HZ I        21 1 30.14        20.0 0.24            128            178 151 
 ZAR  HZ EP       21 1  6.63                             121    0.46 9  202 292 
 ZAR  HE ES       21 1 30.98                             121    0.06 9  202 292 
 ZAR  HZ I        21 1 37.18        14.2 0.30            123            202 292 
 NOR  HZ EP       21 1  9.19                             117   -0.37 8  233 234 
 NOR  HE ES       21 1 36.79                             117   -0.16 8  233 234 
 NOR  HZ I        21 1 44.81         7.7 0.15            118            233 234 
 CHI  HZ IP     D 21 1 11.22                             116   -0.46 8  248 195 
 CHI  HE ES       21 1 41.25                             116    0.51 8  248 195 
 CHI  HZ I        21 1 50.37         8.7 0.42            117            248 195 
 ROSC BZ EP   2   21 1 13.34                             115    1.29 4  252 211 
 ROSC BN ES   4   21 1 44.25                             115    2.86 0  252 211 
 ROSC BZ I        21 1 45.06        15.7 0.30            117            252 211 
 GUY2CHZ EP       21 1 18.38                             111    0.86 7  300 234 
 GUY2CHE ES   4   21 1 54.35                             111    3.23 0  300 234 
 GUY2CHZ I        21 1 59.11         7.8 0.32                           300 234 
 ELA  HZ EP   3   21 1 23.41                             109    2.61 2  328 229 
 ELA  HE ES       21 1 57.43                             109    0.45 7  328 229 
 ELA  HZ I        21 2  4.76         5.3 0.44            111            328 229 
 ANIL HZ EP   2   21 1 24.99                             107    1.19 3  356 224 
 ANIL HE ES       21 2  3.12                             107    0.81 6  356 224 
 ANIL HZ I        21 2 12.23        19.8 0.28            109            356 224 
 PRA  HZ EP       21 1 26.79                             106   -0.81 6  391 209 
 PRA  HE ES       21 2  8.57                             106   -0.51 6  391 209 
 PRA  HZ I        21 2 15.16         7.0 0.56            107            391 209 
                                                                                
