 2015  111 2230 12.2 L   6.810 -73.178138.8  RSN 20 0.5 2.3LRSN                1
 GAP= 69        1.25       2.8     3.3  5.5 -0.1323E+01  0.4775E+01  0.2657E+01E
 Epicentro: ZAPATOCA - SANTANDER                                               3
 ACTION:UPD 15-03-02 15:38 OP:nd   STATUS:               ID:20150111223012 L   I
 OLDACT:REG 15-01-12 04:40 OP:stll STATUS:               ID:20150111222744     3
 2015-01-11-2227-44M.COL___253                                                 6
 STAT SP IPHASW D HRMM SECON CODA AMPLIT PERI AZIMU VELO AIN AR TRES W  DIS CAZ7
 BAR2 EZ EP       2230 31.07                             170    0.1110 24.1 181 
 BAR2 EZ ES       2230 45.74                             170    0.1110 24.1 181 
 BAR2 EZ I        2230 47.19        41.8 0.28            167           24.1 181 
 BRR  HZ IP     C 2230 32.91                             153    0.5710 67.5 299 
 BRR  HN ES       2230 48.61                             153    0.5310 67.5 299 
 BRR  HZ I        2230 51.18        27.7 0.36            142           67.5 299 
 PAM  SZ EP       2230 34.00                             149    0.2810 78.9  42 
 PAM  SZ I        2230 34.14        53.7 0.20            150           78.9  42 
 PAM  SN ES       2230 50.88                             149    0.3410 78.9  42 
 RUS  HZ EP       2230 35.01                             142   -0.3210  102 174 
 RUS  HN ES       2230 53.45                             142    0.0410  102 174 
 RUS  HZ I        2230 55.29        15.4 0.44            143            102 174 
 PTB  HZ EP       2230 37.57                             131   -0.69 9  144 258 
 PTB  HN ES       2230 58.56                             131   -0.06 9  144 258 
 PTB  HZ I        2231  0.83        16.7 0.16            125            144 258 
 OCA  HZ EP       2230 39.54                             128   -0.25 9  159 354 
 OCA  HN ES       2231  1.00                             128   -0.34 9  159 354 
 OCA  HZ I        2231  9.52        19.7 0.18            124            159 354 
 TAM  HZ IP     D 2230 39.50                             128   -0.14 9  159 105 
 TAM  HZ I        2230 39.69        20.3 0.38            132            159 105 
 TAM  HE ES       2231  0.88                             128   -0.21 9  159 105 
 SPBC HZ EP       2230 39.35                             128   -0.65 9  162 218 
 SPBC HE ES       2231  1.36                             128   -0.35 9  162 218 
 SPBC HZ I        2231 10.56        29.0 0.26            124            162 218 
 ZAR  HZ EP       2230 44.22                             121    0.46 9  200 292 
 ZAR  HN ES       2231  8.45                             121    0.03 9  200 292 
 ZAR  HZ I        2231 14.19        17.3 0.34            116            200 292 
 NOR  HZ EP     D 2230 47.22                             117   -0.03 8  232 234 
 NOR  HE ES       2231 14.53                             117   -0.09 8  232 234 
 NOR  HZ I        2231 22.91        14.7 0.14            114            232 234 
 SML  HZ EP       2230 47.07                             116   -1.05 8  241 336 
 SML  HE ES       2231 15.79                             116   -0.39 8  241 336 
 SML  HZ I        2231 20.22        21.4 0.10            113            241 336 
 CHI  HZ EP       2230 49.19                             116   -0.31 8  249 194 
 CHI  HN ES       2231 18.49                             116   -0.13 8  249 194 
 CHI  HZ I        2231 22.04        13.9 0.56            114            249 194 
 ROSC BZ EP       2230 51.20                             115    1.39 8  252 210 
 ROSC BN ES       2231 18.50                             115   -0.68 8  252 210 
 ROSC BZ I        2231 25.53        26.5 0.45            113            252 210 
 HEL  HZ EP       2230 52.79                             114    1.12 8  269 255 
 HEL  HE ES       2231 22.08                             114   -0.40 8  269 255 
 HEL  HZ I        2231 29.09         9.1 0.26            110            269 255 
 RREF HZ EP       2230 59.25                             110    1.47 7  320 229 
 RREF HE ES       2231 32.91                             110   -0.45 7  320 229 
 RREF HZ I        2231 43.06        10.9 0.38            107            320 229 
 TOL  SZ EP       2231  0.65                             108    0.71 7  342 224 
 TOL  SN ES       2231 37.43                             108    0.21 7  342 224 
 ANIL HZ EP       2231  2.15                             107    0.65 6  356 224 
 ANIL HE ES       2231 39.81                             107   -0.18 6  356 224 
 ANIL HZ I        2231 45.56         3.6 0.36            105            356 224 
 ORTC HZ EP       2231  5.18                             105   -0.53 6  394 216 
 ORTC HE ES       2231 46.87                             105   -0.60 6  394 216 
 ORTC HZ I        2231 52.42         6.7 0.30            103            394 216 
 SJC  HZ EP   9   2231  4.83                             105   -2.32 0  406 327 
 SJC  HN ES       2231 47.82                                    0.09 6  406 327 
 SJC  HZ I        2231 58.32         3.5 0.28            102            406 327 
 CRJC HZ EP   9   2231 11.51                             102   -2.85 0  467   4 
 CRJC HN ES       2231 58.24                                   -1.79 5  467   4 
 CRJC HZ I        2232  2.09         8.5 0.44            101            467   4 
                                                                                
