 2013  311 2346  6.4 L   6.781 -73.177146.9  RSN  4 0.3 1.7LRSN                1
 GAP=133        0.87       5.0     4.8  8.2 -0.2605E+00  0.7336E+01  0.8905E+01E
 Epicentro: LOS SANTOS - SANTANDER                                             3
 ACTION:UPD 13-04-09 14:01 OP:ep   STATUS:               ID:20130311234606 L   I
 2013-03-11-2338-50M.COL___210                                                 6
 STAT SP IPHASW D HRMM SECON CODA AMPLIT PERI AZIMU VELO AIN AR TRES W  DIS CAZ7
 BRR  HZ EP       2346 27.81                             153    0.2710 69.2 301 
 BRR  HN ES       2346 44.56                             153    0.5210 69.2 301 
 BRR  HN I        2346 45.71        23.6 0.24            155           69.2 301 
 PAM  SZ EP   2   2346 29.03                             150    0.09 5 81.3  40 
 PAM  SN ES       2346 46.12                             150   -0.4310 81.3  40 
 PAM  SN I        2346 48.20         9.6 0.42            155           81.3  40 
 RUS  HN EP       2346 30.37                             145    0.2710 98.7 174 
 RUS  HZ ES       2346 48.60                             145   -0.0110 98.7 174 
 RUS  HZ I        2346 51.71         1.6 0.24            146           98.7 174 
 PTB  HZ EP       2346 32.78                             133   -0.31 9  144 259 
 PTB  HN ES       2346 53.50                             133   -0.42 9  144 259 
 PTB  HN I        2346 58.86         9.5 0.36            135            144 259 
                                                                                
