 2011 1111 2218 22.7 L   6.780 -73.118141.2  RSN 10 0.3 2.2LRSN                1
 GAP= 93        0.73       3.8     6.1  5.2 -0.9332E+00  0.4887E+00  0.6014E+01E
 Epicentro: LOS SANTOS - SANTANDER                                             3
 ACTION:UPD 12-07-13 16:09 OP:ep   STATUS:               ID:20111111221822 L   I
 2011-11-11-2200-00M.COL___181                                                 6
 STAT SP IPHASW D HRMM SECON CODA AMPLIT PERI AZIMU VELO AIN AR TRES W  DIS CAZ7
 SAN  SZ EP       2218 42.14                             178    0.6410 5.20 109 
 SAN  SZ ES   2   2218 56.46                             178    0.30 5 5.20 109 
 BAR2 SZ IP       2218 41.64                             171   -0.1210 22.0 199 
 BAR2 SZ I        2218 41.75        53.9 0.40                          22.0 199 
 BAR2 SZ ES   1   2218 56.15                             171   -0.47 7 22.0 199 
 BTL  SZ EP       2218 42.06                             170    0.2910 22.5 313 
 GIR2 SZ EP       2218 41.67                             166   -0.2410 34.0 346 
 GIR2 SZ ES   1   2218 56.34                             166   -0.56 7 34.0 346 
 BRR  HZ EP       2218 43.46                             150   -0.1210 74.9 299 
 BRR  HN ES   1   2219  0.31                             150    0.45 7 74.9 299 
 BRR  HZ I        2219  2.73        41.6 0.22                          74.9 299 
 PAM  SZ EP       2218 44.57                             150    0.1510 77.2  37 
 PAM  SN ES   1   2219  1.22                             150   -0.14 7 77.2  37 
 RUS  HZ EP       2218 45.60                             143   -0.2410 98.3 178 
 RUS  HZ I        2218 46.76        14.5 0.12                          98.3 178 
 RUS  HN ES   1   2219  4.21                             143    0.33 7 98.3 178 
 YOP  SZ EP   2   2218 51.86                             126   -0.24 4  176 154 
 ZAR  HZ EP   3   2218 54.78                             121   -0.46 2  208 292 
 ZAR  HN ES   3   2219 19.87                             121   -0.75 2  208 292 
 ZAR  HZ I        2219 25.57        25.9 0.38                           208 292 
 CHI  HZ EP       2218 59.81                             116   -0.21 8  247 196 
 CHI  HE ES   2   2219 29.32                             116    0.20 4  247 196 
 CHI  HZ I        2219 34.78         7.5 0.24                           247 196 
                                                                                
