 2016  511 2235 29.8 L   6.792 -73.129148.6  RSN  7 0.5 1.8LRSN                1
 GAP=139        1.15       5.5     5.7  8.9  0.4840E+01  0.1636E+02  0.1622E+02E
 Epicentro: LOS SANTOS - SANTANDER                                             3
 ACTION:UPD 16-08-18 17:44 OP:cam  STATUS:               ID:20160511223529 L   I
 OLDACT:UP  16-05-15 07:33 OP:ar   STATUS:               ID:20160511223529 L   3
 OLDACT:REG 16-05-12 06:27 OP:dnl  STATUS:               ID:20160511222749     3
 2016-05-11-2227-49M.COL___307                                                 6
 STAT SP IPHASW D HRMM SECON CODA AMPLIT PERI AZIMU VELO AIN AR TRES W  DIS CAZ7
 BAR2 EZ EP   2   2235 49.67                             171   -0.13 5 22.9 195 
 BAR2 EZ ES   2   2236  5.81                             171    0.44 5 22.9 195 
 BAR2 EZ I        2236  7.60        11.0 0.14            169           22.9 195 
 BRR  HZ EP       2235 51.90                             152    0.5010 73.2 298 
 BRR  HN ES       2236  9.08                             152    0.8610 73.2 298 
 BRR  HZ I        2236 11.48        11.6 0.19            151           73.2 298 
 PAM  EZ EP   2   2235 52.83                             151    0.50 5 76.9  38 
 PAM  EE ES       2236  9.24                             151   -0.6310 76.9  38 
 PAM  EZ I        2236 12.54         3.5 0.30            155           76.9  38 
 RUS  HZ EP       2235 53.77                             145   -0.0310 99.6 177 
 RUS  HN ES       2236 12.50                             145    0.0110 99.6 177 
 RUS  HZ I        2236 13.69         5.4 0.38            146           99.6 177 
 PTB  HZ EP       2235 56.82                             132   -0.36 9  149 259 
 PTB  HN ES       2236 17.55                             132   -0.96 9  149 259 
 PTB  HZ I        2236 23.75         8.5 0.26            132            149 259 
 ZAR  HZ EP   2   2236  2.21                             123   -0.46 4  206 292 
 ZAR  HN ES       2236 28.40                             123    0.12 8  206 292 
 ZAR  HZ I        2236 34.42        10.0 0.42            123            206 292 
 PRA  HZ EP       2236 23.75                             107    0.27 6  392 210 
 PRA  HN ES       2237  5.71                             107    0.40 6  392 210 
 PRA  HZ I        2237 13.32         4.0 0.24            108            392 210 
                                                                                
