 2014  511 2311 29.1 L   7.486 -73.203133.0  RSN  5 0.5 1.5LRSN                1
 GAP=139        1.00       6.6     5.2  9.9 -0.3753E+01  0.1725E+02 -0.1977E+02E
 Epicentro: EL PLAYON - SANTANDER                                              3
 OLDACT:UP  14-05-12 06:56 OP:fm   STATUS:               ID:20140511230807     3
 OLDACT:REG 14-05-12 03:50 OP:fm   STATUS:               ID:20140511230807     3
 ACTION:UPD 15-03-16 16:56 OP:nd   STATUS:               ID:20140511231129 L   I
 OLDACT:UP  14-05-12 07:04 OP:fm   STATUS:               ID:20140511230807     3
 2014-05-11-2308-07M.COL___254                                                 6
 STAT SP IPHASW D HRMM SECON CODA AMPLIT PERI AZIMU VELO AIN AR TRES W  DIS CAZ7
 PAM  SZ EP       2311 49.06                             155    0.2610 57.9 106 
 PAM  SN ES       2312  4.06                             155   -0.1510 57.9 106 
 BRR  HZ EP       2311 48.95                             150    0.1810 70.1 233 
 BRR  HN ES       2312  4.25                             150    0.1010 70.1 233 
 BRR  SZ I        2312  6.14         8.2 2.76            141           70.1 233 
 PTB  HZ EP   1   2311 56.79                             124   -0.76 7  174 233 
 PTB  HN ES   1   2312 19.20                             124   -0.57 7  174 233 
 PTB  SZ I        2312 25.27         5.7 2.84            114            174 233 
 SML  HZ EP   1   2311 58.02                             124    0.45 7  174 327 
 SML  HN ES   1   2312 19.00                             124   -0.82 7  174 327 
 SML  SZ I        2312 27.05         2.2 0.88            109            174 327 
 ZAR  HE ES   1   2312 22.26                             122    0.86 7  183 270 
                                                                                
