 2011  711 2229 32.6 L   6.924 -73.039147.3  RSN  4 0.2 1.7LRSN                1
 GAP=257        0.37       7.2     8.0  5.8  0.3938E+02  0.1561E+02  0.9621E+01E
 Epicentro: PIEDECUESTA - SANTANDER                                            3
 ACTION:UPD 12-07-25 14:00 OP:epov STATUS:               ID:20110711222932 L   I
 2011-07-11-2226-54S.COL___142                                                 6
 STAT SP IPHASW D HRMM SECON CODA AMPLIT PERI AZIMU VELO AIN AR TRES W  DIS CAZ7
 BAR2 SZ EP   2   2229 52.79                             164   -0.05 7 40.0 203 
 BRR  HZ EP   2   2229 53.96                             151   -0.27 7 77.0 285 
 BRR  HZ I        2230  2.36         8.0 0.23                          77.0 285 
 BRR  HE ES   2   2230 11.29                             151    0.17 7 77.0 285 
 RUS  HZ EP   1   2229 57.67                             140    0.1710  114 182 
 RUS  HZ I        2229 58.29         2.4 0.37                           114 182 
 RUS  HE ES   2   2230 16.74                             140   -0.20 7  114 182 
 HEL  HZ EP       2230 14.53                             114   -0.0110  287 254 
 HEL  HZ I        2230 27.06         9.7 0.20                           287 254 
                                                                                
