 2017  711 2115  7.1 L   6.833 -72.961183.3  RSN  5 0.4 2.1LRSN                1
 GAP=258        0.66       9.5     5.7  5.9  0.2214E+02 -0.9595E+00 -0.1675E+02E
 Epicentro: CEPITA - SANTANDER                                                 3
 ACTION:UPD 17-08-30 15:32 OP:rebc STATUS:               ID:20170711211507 L   I
 OLDACT:UP  17-07-12 07:04 OP:dani STATUS:               ID:20170711210739     3
 OLDACT:UP  17-07-12 07:04 OP:dani STATUS:               ID:20170711210739     3
 OLDACT:UP  17-07-12 07:04 OP:dani STATUS:               ID:20170711210739     3
 OLDACT:UP  17-07-12 07:04 OP:dani STATUS:               ID:20170711210739     3
 OLDACT:UP  17-07-12 07:00 OP:dani STATUS:               ID:20170711210739     3
 OLDACT:UP  17-07-12 06:59 OP:dani STATUS:               ID:20170711210739     3
 OLDACT:REG 17-07-12 04:43 OP:dani STATUS:               ID:20170711210739     3
 2017-07-11-2108-00M.COL___380                                                 6
 STAT SP IPHASW D HRMM SECON CODA AMPLIT PERI AZIMU VELO AIN AR TRES W  DIS CAZ7
 BAR2 EZ EP       2115 31.67                             169    0.1710 36.2 223 
 BAR2 EZ ES       2115 50.17                             169   -0.3710 36.2 223 
 BAR2 EZ I        2115 51.64        18.1 0.22            168           36.2 223 
 BRR  HZ EP     C 2115 33.47                             153    0.2110 88.3 290 
 BRR  HN ES   1   2115 54.12                             153    0.45 7 88.3 290 
 BRR  HZ I        2116  0.88        17.8 0.28            153           88.3 290 
 PTB  HZ EP       2115 39.23                             136    0.18 9  169 259 
 PTB  HN ES       2116  3.80                             136   -0.17 9  169 259 
 PTB  HZ I        2116  8.00         4.2 0.22            137            169 259 
 ZAR  HZ EP       2115 43.65                             127   -0.28 8  222 289 
 ZAR  HN ES       2116 12.61                             127   -0.06 8  222 289 
 ZAR  HZ I        2116 15.02        11.3 0.12            129            222 289 
 SJC  HZ EP   3   2116  3.24                             111   -1.83 1  418 324 
 SJC  HN ES   4   2116 45.66                             111   -4.63 0  418 324 
 SJC  HZ I        2116 49.07         4.3 0.28            113            418 324 
                                                                                
