 2017  911 2350 35.2 L.  6.812 -73.130148.0  RSN  9 0.4 1.9LRSN                1
 GAP=138        0.89       3.3     4.5  5.6 -0.1045E+01  0.4946E+01  0.6135E+01E
 Epicentro: LOS SANTOS - SANTANDER                                             3
 ACTION:UPD 17-10-05 19:11 OP:rebc STATUS:               ID:20170911235035 L   I
 OLDACT:UP  17-09-12 06:42 OP:dani STATUS:               ID:20170911234743     3
 OLDACT:REG 17-09-12 02:55 OP:dani STATUS:               ID:20170911234743     3
 2017-09-11-2348-00M.COL___431                                                 6
 STAT SP IPHASW D HRMM SECON CODA AMPLIT PERI AZIMU VELO AIN AR TRES W  DIS CAZ7
 BAR2 EZ EP       2350 55.00                             170   -0.1610 24.9 193 
 BAR2 EZ ES       2351 10.18                             170   -0.5310 24.9 193 
 BAR2 EZ I        2351 12.77        17.9 0.50            168           24.9 193 
 BRR  HZ EP     D 2350 56.70                             153    0.0310 72.1 297 
 BRR  HN ES       2351 13.89                             153    0.4910 72.1 297 
 BRR  HZ I        2351 18.68        15.3 0.20            150           72.1 297 
 PAM  EZ EP     D 2350 57.95                             152    0.3810 75.3  39 
 PAM  EN ES       2351 15.04                             152    0.0610 75.3  39 
 PAM  EZ I        2351 17.36         9.8 0.66            156           75.3  39 
 RUS  HZ EP       2350 59.06                             144   -0.2310  102 177 
 RUS  HN ES       2351 18.07                             144    0.0210  102 177 
 RUS  HZ I        2351 18.74         8.2 0.26            146            102 177 
 SPBC HZ EP       2351  3.71                             129   -0.39 9  165 219 
 SPBC HN ES       2351 27.29                             129    0.68 9  165 219 
 SPBC HZ I        2351 32.86        13.7 0.38            130            165 219 
 ZAR  HZ EP   4   2351  5.62                             123   -2.32 0  205 292 
 ZAR  HN ES       2351 32.90                             123   -0.54 9  205 292 
 ZAR  HZ I        2351 38.64         7.8 0.39            123            205 292 
 CHI  HZ EP       2351 13.17                             117   -0.07 8  250 195 
 CHI  HN ES       2351 43.01                             117    0.13 8  250 195 
 CHI  HZ I        2351 44.84         4.3 0.32            119            250 195 
 GUY2CHZ EP   3   2351 21.13                             113    1.95 2  303 235 
 GUY2CHN ES   4   2351 56.98                             113    3.51 0  303 235 
 GUY2CHZ I        2352  0.15         3.3 0.32                           303 235 
 PRA  HZ EP       2351 29.42                             107    0.36 6  394 210 
 PRA  HN ES       2352 10.71                             107   -0.33 6  394 210 
 PRA  HZ I        2352 16.61         2.6 0.33            108            394 210 
                                                                                
