 2012  811 2232 45.7 L   6.640 -73.596 22.1  RSN  6 0.3 1.3LRSN                1
 GAP=118        0.66       2.4     1.9  3.8  0.1347E+00 -0.2237E+01 -0.1089E+01E
 Epicentro: EL CARMEN DE CHUCURI - SANTANDER                                   3
 ACTION:UPD 12-09-10 11:55 OP:ep   STATUS:               ID:20120811223245 L   I
 2012-08-11-2230-00M.COL___219                                                 6
 STAT SP IPHASW D HRMM SECON CODA AMPLIT PERI AZIMU VELO AIN AR TRES W  DIS CAZ7
 BAR2 SZ EP       2232 54.15                             114    0.0710 46.0  97 
 BAR2 SZ ES   2   2233  0.09                             114   -0.55 5 46.0  97 
 BAR2 SZ I        2233  1.02        17.7 0.10                          46.0  97 
 BRR  HZ EP       2232 54.97                             110    0.1510 53.2 346 
 BRR  HN ES   1   2233  1.71                             110   -0.24 7 53.2 346 
 BRR  HZ I        2233  4.15        15.8 0.36                          53.2 346 
 GIR2 SZ EP       2232 56.98                             107    0.1910 65.8  43 
 PTB  HZ EP       2233  1.09                             101    0.0110 95.8 263 
 PTB  HN ES   1   2233 12.84                             101   -0.25 7 95.8 263 
 RUS  HZ EP       2233  2.21                             101   -0.0410  100 146 
 PAM  SZ EP       2233  6.09                              56    0.4010  126  52 
 PAM  SN ES   1   2233 20.66                              56   -0.63 7  126  52 
 PAM  SZ I        2233 22.50         7.8 0.26                           126  52 
                                                                                
