 2010  211 2232 14.8 L   6.772 -72.923150.3  RSN  6 0.3 2.2LRSN                1
 GAP=216        0.56       3.4     8.4  6.1 -0.1102E+02  0.8353E+01  0.2430E+00E
 Epicentro: CEPITA - SANTANDER                                                 3
 ACTION:UP  10-08-24 09:48 OP:vdl  STATUS:               ID:20100211223214 L   I
 2010-02-11-2230-06S.COL___094                                                 6
 STAT SP IPHASW D HRMM SECON CODA AMPLIT PERI AZIMU VELO SNR AR TRES W  DIS CAZ7
 BAR2 SZ EP   1   2232 35.41                             166     0.2 8   35 235 
 BAR2 SZ ES   1   2232 50.93                             166    -0.2 8   35 235 
 OCA  SZ IP       2232 43.84                             129    -0.310  168 345 
 OCA  SZ ES   1   2233  7.47                             129     0.4 7  168 345 
 OCA  SZ I        2233 11.68        37.2 0.27                           168 345 
 CHI  HZ EP   1   2232 53.51                             117     0.3 6  253 201 
 CHI  HZ I        2232 56.14         3.6 0.38                           253 201 
 CHI  HN ES   2   2233 23.52                             117     0.3 4  253 201 
 HEL  HZ EP   2   2232 57.43                             114    -0.4 4  295 258 
 HEL  HN ES   2   2233 31.61                             114     0.3 4  295 258 
 TOL  SZ ES   2   2233 43.90                             109    -0.3 3  359 228 
 PRA  HE ES   2   2233 52.08                             107    -0.3 3  402 213 
 PRA  HZ I        2233 55.91         4.0 0.37                           402 213 
                                                                                
