 2013  811 2152 45.1 L   6.778 -73.176155.7  RSN  4 0.4 1.6LRSN                1
 GAP=198        0.90       4.9     7.5  8.4  0.1672E+02 -0.1485E+02 -0.1584E+02E
 Epicentro: LOS SANTOS - SANTANDER                                             3
 ACTION:UPD 14-01-14 09:01 OP:ep   STATUS:               ID:20130811215245 L   I
 OLDACT:UP  13-08-11 22:19 OP:cam  STATUS:               ID:20130811214959     3
 OLDACT:REG 13-08-11 21:51 OP:cam  STATUS:               ID:20130811214959     3
 2013-08-11-2149-59M.COL___270                                                 6
 STAT SP IPHASW D HRMM SECON CODA AMPLIT PERI AZIMU VELO AIN AR TRES W  DIS CAZ7
 BRR  HZ EP       2153  7.52                             155    0.2410 69.5 302 
 BRR  HN ES       2153 25.06                             155    0.5110 69.5 302 
 RUS  HZ EP       2153  9.94                             146    0.2110 98.5 174 
 RUS  HN ES       2153 28.48                             146   -0.4310 98.5 174 
 RUS  HZ I        2153 29.62         3.3 0.22            148           98.5 174 
 PTB  HZ EP       2153 12.62                             135    0.02 9  144 260 
 PTB  HN ES       2153 33.82                             135   -0.22 9  144 260 
 PTB  HZ I        2153 40.68         4.3 0.44            133            144 260 
 SML  HZ EP       2153 22.55                             119    0.13 8  245 336 
 SML  HE ES       2153 50.82                             119   -0.69 8  245 336 
 SML  HZ I        2153 57.43         5.8 0.24            119            245 336 
                                                                                
