 2012  811 2048  0.5 L   6.777 -73.118148.6  RSN  7 0.4 1.9LRSN                1
 GAP=141        0.72       5.0     5.7  8.1 -0.4984E+01 -0.1856E+01  0.1982E+02E
 Epicentro: LOS SANTOS - SANTANDER                                             3
 ACTION:UPD 12-09-10 11:55 OP:ep   STATUS:               ID:20120811204800 L   I
 2012-08-11-2040-00M.COL___219                                                 6
 STAT SP IPHASW D HRMM SECON CODA AMPLIT PERI AZIMU VELO AIN AR TRES W  DIS CAZ7
 BAR2 SZ EP       2048 20.37                             171   -0.0910 21.7 199 
 BAR2 SZ I        2048 38.52        23.5 0.16                          21.7 199 
 BRR  HZ EP       2048 22.35                             152    0.1510 75.1 299 
 BRR  HN ES   1   2048 39.67                             152    0.56 7 75.1 299 
 BRR  HZ I        2048 41.98        23.1 0.14                          75.1 299 
 PAM  SZ EP       2048 23.06                             151    0.0210 77.5  37 
 PAM  SN ES   1   2048 40.40                             151   -0.21 7 77.5  37 
 RUS  HZ EP       2048 24.23                             145   -0.1310 97.9 178 
 RUS  HZ I        2048 25.60         5.4 0.48                          97.9 178 
 RUS  HN ES   2   2048 42.88                             145   -0.08 5 97.9 178 
 PTB  HZ EP   3   2048 27.30                             132   -0.65 2  150 260 
 PTB  HN ES   2   2048 47.96                             132   -1.39 5  150 260 
 CHI  HZ EP       2048 38.35                             118    0.15 8  247 196 
 CHI  HN ES   2   2049  8.42                             118    0.82 4  247 196 
 CHI  HZ I        2049 15.34         4.0 0.22                           247 196 
 HEL  HZ EP   2   2048 41.03                             115   -0.11 4  274 256 
 HEL  HZ I        2049 20.04         4.2 0.22                           274 256 
                                                                                
