 2017  911 2233  4.2 L   6.768 -73.105148.0  RSN  7 0.3 1.8LRSN                1
 GAP=143        0.66       2.9     3.4  5.2 -0.3092E+00  0.2512E+01  0.8158E-01E
 Epicentro: LOS SANTOS - SANTANDER                                             3
 ACTION:UPD 17-10-05 19:11 OP:rebc STATUS:               ID:20170911223304 L   I
 OLDACT:UP  17-09-12 05:40 OP:dani STATUS:               ID:20170911222741     3
 OLDACT:UP  17-09-12 05:39 OP:dani STATUS:               ID:20170911222741     3
 OLDACT:REG 17-09-12 02:43 OP:dani STATUS:               ID:20170911222741     3
 2017-09-11-2228-00M.COL___431                                                 6
 STAT SP IPHASW D HRMM SECON CODA AMPLIT PERI AZIMU VELO AIN AR TRES W  DIS CAZ7
 BAR2 EZ EP       2233 24.07                             171   -0.0010 21.2 204 
 BAR2 EZ ES       2233 39.27                             171   -0.2910 21.2 204 
 BAR2 EZ I        2233 40.30        31.4 0.38            171           21.2 204 
 BRR  HZ EP       2233 25.85                             151   -0.0810 76.9 299 
 BRR  HE ES       2233 43.32                             151    0.4510 76.9 299 
 BRR  HZ I        2233 45.16        11.1 0.37            152           76.9 299 
 PAM  EZ EP       2233 26.81                             151    0.1410 77.5  35 
 PAM  EN ES       2233 44.06                             151   -0.1310 77.5  35 
 PAM  EZ I        2233 46.34         7.2 0.26            153           77.5  35 
 RUS  HZ EP       2233 28.17                             145    0.2510 96.8 179 
 RUS  HN ES       2233 46.29                             145   -0.1210 96.8 179 
 RUS  HZ I        2233 47.77         7.7 0.48            147           96.8 179 
 SPBC HZ EP   4   2233 35.35                             129    2.45 0  163 221 
 SPBC HN ES       2233 55.41                             129    0.14 9  163 221 
 SPBC HZ I        2233 57.75         7.8 0.09            131            163 221 
 ZAR  HN ES       2234  2.87                             122   -0.37 8  210 293 
 CHI  HN ES   3   2234  9.54                             118   -1.57 2  246 196 
                                                                                
