 2017  411 2342 37.9 L   6.428 -72.787 10.0  RSN  7 0.4 1.7LRSN                1
 GAP=153        1.37       3.0     4.0  6.6  0.1399E+01  0.8235E+01  0.2543E+01E
 Epicentro: SAN JOAQUIN - SANTANDER                                            3
 ACTION:UPD 17-05-30 21:11 OP:jn   STATUS:               ID:20170411234237 L   I
 OLDACT:UP  17-04-12 10:10 OP:ar   STATUS:               ID:20170411232349     3
 OLDACT:REG 17-04-12 06:23 OP:ar   STATUS:               ID:20170411232349     3
 2017-04-11-2338-00M.COL___368                                                 6
 STAT SP IPHASW D HRMM SECON CODA AMPLIT PERI AZIMU VELO AIN AR TRES W  DIS CAZ7
 BAR2 EZ EP       2342 45.72                              47   -0.2710 47.4 293 
 BAR2 EZ ES       2342 52.41                              47    0.1210 47.4 293 
 BAR2 EZ I        2342 53.67        32.6 0.40             47           47.4 293 
 RUS  HZ EP   9   2342 47.14                              47   -2.17 0 67.7 209 
 RUS  HE ES       2342 55.18                                   -0.8610 67.7 209 
 RUS  HZ I        2342 56.90        22.6 0.30             47           67.7 209 
 PAM  EZ EP       2342 54.57                              47    0.2010  101   5 
 PAM  HN ES       2343  6.95                              47   -0.2610  101   5 
 PAM  EZ I        2343 10.91        10.9 0.14             47            101   5 
 YPLC HZ EP       2342 56.61                              47   -0.5710  123 158 
 YPLC HN ES       2343 12.75                              47    0.5310  123 158 
 BRR  HZ EP   4   2342 59.42                              47    1.68 0  127 306 
 BRR  HN ES   4   2343 16.50                              47    3.28 0  127 306 
 SPBC HZ EP       2343  4.20                              47    0.67 9  166 239 
 SPBC HN ES       2343 23.14                              47   -0.38 9  166 239 
 SPBC HZ I        2343 29.84        14.4 0.22             47            166 239 
 PTB  HZ EP   9   2343  7.85                              37    2.05 0  185 274 
 PTB  HN ES       2343 30.56                                    0.95 9  185 274 
 PTB  HZ I        2343 32.56        16.3 0.18             37            185 274 
 CHI  HZ EP   4   2343 13.64                              37    2.40 0  225 208 
 CHI  HE ES   4   2343 41.29                              37    4.04 0  225 208 
 CHI  HZ I        2343 51.65         3.4 0.54             37            225 208 
                                                                                
