 2013  511 2258 35.7 L   6.769 -73.158138.1  RSN  6 0.4 2.0LRSN                1
 GAP=136        0.78       5.9     4.2  9.7  0.1726E+01  0.6986E+01  0.1324E+02E
 Epicentro: LOS SANTOS - SANTANDER                                             3
 ACTION:UPD 13-06-20 09:49 OP:ep   STATUS:               ID:20130511225835 L   I
 2013-05-11-2257-50M.COL___227                                                 6
 STAT SP IPHASW D HRMM SECON CODA AMPLIT PERI AZIMU VELO AIN AR TRES W  DIS CAZ7
 GIR2 SZ EP   1   2258 54.41                             165   -0.15 9 34.4 354 
 BRR  HZ EP   1   2258 56.34                             151    0.28 9 71.7 301 
 BRR  HN ES   1   2259 12.35                             151    0.41 9 71.7 301 
 BRR  HN I        2259 17.12        21.3 0.16            151           71.7 301 
 PAM  SZ EP   1   2258 57.30                             148   -0.03 9 80.9  39 
 PAM  SN ES   1   2259 13.83                             148   -0.37 9 80.9  39 
 PAM  SN I        2259 15.22        13.2 0.44            155           80.9  39 
 RUS  HZ EP   1   2258 58.90                             143    0.43 9 97.3 175 
 RUS  HN ES   2   2259 16.43                             143    0.20 6 97.3 175 
 RUS  HN I        2259 18.38        15.4 0.24            147           97.3 175 
 PTB  HZ EP   1   2259  1.35                             131   -0.52 8  146 260 
 PTB  HN ES   1   2259 21.57                             131   -0.72 8  146 260 
 PTB  HN I        2259 27.04        14.1 0.38            133            146 260 
 ZAR  HN ES       2259 32.92                             121    0.3310  204 293 
 ZAR  HN I        2259 37.91        10.2 0.16            124            204 293 
                                                                                
