 2014  711 2254  5.6 L   6.754 -73.168139.6  RSN  8 0.4 1.4LRSN                1
 GAP=136        0.83       3.9     3.7  6.5  0.5829E+00  0.4340E+01  0.5563E+00E
 Epicentro: LOS SANTOS - SANTANDER                                             3
 ACTION:UPD 15-03-16 20:43 OP:nd   STATUS:               ID:20140711225405 L   I
 OLDACT:REG 14-07-12 02:50 OP:spq  STATUS:               ID:20140711224816     3
 2014-07-11-2248-16M.COL___265                                                 6
 STAT SP IPHASW D HRMM SECON CODA AMPLIT PERI AZIMU VELO AIN AR TRES W  DIS CAZ7
 BAR2 SZ ES   1   2254 38.81                             172   -0.18 7 18.0 185 
 BAR2 SZ I        2254 40.36        13.0 0.30            172           18.0 185 
 BRR  HZ IP     C 2254 26.17                             151    0.1110 71.6 303 
 BRR  HE ES       2254 42.40                             151    0.3410 71.6 303 
 BRR  HZ I        2254 46.36         7.9 0.50            151           71.6 303 
 PAM  SZ EP       2254 27.33                             148   -0.1310 82.9  39 
 PAM  SN ES   1   2254 44.15                             148   -0.40 7 82.9  39 
 PAM  SZ I        2254 46.54         5.4 0.30            152           82.9  39 
 RUS  HZ EP       2254 28.73                             144    0.3810 95.8 174 
 RUS  HN ES   1   2254 46.41                             144    0.28 7 95.8 174 
 RUS  HZ I        2254 48.57         2.5 0.30            147           95.8 174 
 PTB  HZ EP       2254 31.09                             131   -0.62 9  144 261 
 PTB  HN ES       2254 51.94                             131   -0.18 9  144 261 
 PTB  HZ I        2254 57.60         2.7 0.42            133            144 261 
 ZAR  HN ES       2255  2.32                             121   -0.22 9  204 294 
 ZAR  HZ I        2255  8.11         2.6 0.30            123            204 294 
 SML  HE ES   1   2255 11.65                             116    0.81 6  247 336 
 GUY2CHN ES   1   2255 21.86                             112    0.18 5  296 235 
 GUY2CHZ I        2255 38.75         1.1 0.48                           296 235 
                                                                                
