 2015  611 2319 33.6 L   6.833 -73.165137.8  RSN  9 0.4 2.3LRSN                1
 GAP=132        1.07       2.7     5.1  6.7 -0.1854E+01  0.1573E+02 -0.1241E+01E
 Epicentro: LOS SANTOS - SANTANDER                                             3
 ACTION:UPD 15-09-10 22:11 OP:cam  STATUS:               ID:20150611231933 L   I
 OLDACT:UP  15-06-12 06:11 OP:ar   STATUS:               ID:20150611231746     3
 OLDACT:REG 15-06-12 03:51 OP:ar   STATUS:               ID:20150611231746     3
 2015-06-11-2317-46M.COL___306                                                 6
 STAT SP IPHASW D HRMM SECON CODA AMPLIT PERI AZIMU VELO AIN AR TRES W  DIS CAZ7
 BAR2 EZ EP       2319 52.50                             168    0.1510 26.7 184 
 BAR2 EZ ES       2320  6.48                             168   -0.5010 26.7 184 
 BAR2 EZ I        2320  8.75        34.2 0.18            168           26.7 184 
 PAM  SZ EP       2319 55.37                             150    0.4810 76.1  43 
 PAM  SN ES       2320 12.23                             150    0.7310 76.1  43 
 RUS  HZ EP       2319 56.54                             141   -0.3310  104 175 
 RUS  HN ES       2320 14.86                             141   -0.1510  104 175 
 RUS  HZ I        2320 15.95        15.9 0.22            143            104 175 
 OCA  HZ EP       2320  0.74                             128   -0.20 9  156 354 
 OCA  HN ES       2320 21.79                             128   -0.47 9  156 354 
 OCA  HZ I        2320 25.28        47.9 0.22            130            156 354 
 SPBC HZ EP       2320  1.07                             127   -0.58 9  165 218 
 SPBC HN ES       2320 23.83                             127    0.30 9  165 218 
 SPBC HZ I        2320 27.17        26.1 0.42            127            165 218 
 ZAR  HZ EP       2320  6.14                             121    0.95 9  201 291 
 ZAR  HN ES       2320 29.84                             121    0.01 9  201 291 
 ZAR  HZ I        2320 35.56        20.0 0.40            121            201 291 
 SML  HZ EP       2320  8.89                             116   -0.44 8  240 335 
 SML  HN ES       2320 36.93                             116   -0.28 8  240 335 
 SML  HZ I        2320 39.05        27.2 0.32            117            240 335 
 CHI  HZ EP       2320 10.86                             115   -0.34 8  252 194 
 CHI  HN ES       2320 40.73                             115    0.21 8  252 194 
 CHI  HZ I        2320 47.11         9.0 0.32            116            252 194 
 GUY2CHZ EP       2320 17.27                             111    0.38 7  302 234 
 GUY2CHN ES       2320 50.77                             111    0.11 7  302 234 
 GUY2CHZ I        2321  0.17         5.8 0.62                           302 234 
                                                                                
