 2017  711 2357 55.4 L   6.692 -73.138147.6  RSN  5 0.2 1.5LRSN                1
 GAP=170        0.50       4.2     2.4  4.0 -0.2322E+01  0.1876E+01  0.8013E+00E
 Epicentro: VILLANUEVA - SANTANDER                                             3
 ACTION:UPD 17-08-30 15:32 OP:rebc STATUS:               ID:20170711235755 L   I
 OLDACT:UP  17-07-12 08:45 OP:dani STATUS:               ID:20170711234745d    3
 OLDACT:DUP 17-07-12 08:43 OP:dani STATUS:               ID:20170711234745d    3
 OLDACT:UP  17-07-12 08:42 OP:dani STATUS:               ID:20170711234744     3
 OLDACT:REG 17-07-12 04:59 OP:dani STATUS:               ID:20170711234744     3
 2017-07-11-2348-00M.COL___368                                                 6
 STAT SP IPHASW D HRMM SECON CODA AMPLIT PERI AZIMU VELO AIN AR TRES W  DIS CAZ7
 BAR2 EZ EP       2358 15.34                             175    0.2310 12.1 204 
 BAR2 EZ ES       2358 30.48                             175    0.0210 12.1 204 
 BAR2 EZ I        2358 32.78         8.8 0.18            173           12.1 204 
 BRR  HZ EP       2358 17.18                             150   -0.0110 78.3 306 
 BRR  HN ES       2358 34.40                             150    0.2410 78.3 306 
 BRR  HZ I        2358 37.87         8.7 0.36            151           78.3 306 
 PAM  EZ EP       2358 18.43                             148    0.0410 86.4  34 
 PAM  EN ES       2358 36.05                             148   -0.2610 86.4  34 
 PAM  EZ I        2358 38.58         7.0 0.23            153           86.4  34 
 PTB  HZ EP       2358 22.35                             133   -0.11 9  147 263 
 PTB  HN ES       2358 43.29                             133   -0.25 9  147 263 
 PTB  HZ I        2358 50.70         2.2 0.19            134            147 263 
 ZAR  HN ES       2358 54.48                             122    0.06 8  210 295 
                                                                                
