 2012  311 2144 56.6 L   7.351 -73.208133.5  RSN  5 0.3 1.3LRSN                1
 GAP=176        0.65       9.7     4.0  7.7 -0.1430E+01  0.5390E+01  0.2657E+02E
 ACTION:UP  12-03-31 23:19 OP:EP   STATUS:               ID:20120311214456 L   I
 2012-03-11-2140-00M.COL___193                                                 6
 STAT SP IPHASW D HRMM SECON CODA AMPLIT PERI AZIMU VELO SNR AR TRES W  DIS CAZ7
 PAM  SZ EP   1   2145 16.00                             156    -0.3 7   56  91 
 PAM  SZ I        2145 16.23         3.7 0.29                            56  91 
 PAM  SN ES   1   2145 31.97                             156     0.3 7   56  91 
 BRR  HZ EP   1   2145 15.76                             154    -0.1 7   62 244 
 BRR  HN ES   1   2145 30.77                             154    -0.2 7   62 244 
 BRR  HZ I        2145 31.92         6.1 0.20                            62 244 
 RUS  HZ EP   1   2145 24.99                             127     0.4 7  162 175 
 RUS  HZ I        2145 49.13         2.8 0.76                           162 175 
 PTB  HZ EP   1   2145 24.04                             126    -0.2 7  165 237 
 PTB  HN ES   2   2145 45.65                             126    -0.1 5  165 237 
 PTB  HZ I        2145 50.05         1.5 0.19                           165 237 
 ZAR  HN ES   1   2145 49.42                             123     0.4 7  183 275 
                                                                                
