 2015  311 2027 11.0 L   6.795 -73.222142.3  RSN  6 0.4 2.4LRSN                1
 GAP=125        1.11       4.5     5.4  7.4  0.8436E+00  0.6859E+01 -0.7008E+01E
 Epicentro: ZAPATOCA - SANTANDER                                               3
 ACTION:UPD 15-04-30 16:25 OP:nd   STATUS:               ID:20150311202711 L   I
 OLDACT:REG 15-03-12 10:40 OP:y    STATUS:               ID:20150311201748     3
 2015-03-11-2017-48M.COL___287                                                 6
 STAT SP IPHASW D HRMM SECON CODA AMPLIT PERI AZIMU VELO AIN AR TRES W  DIS CAZ7
 BAR2 EZ EP       2027 30.43                             170    0.2010 22.9 169 
 BAR2 EZ ES       2027 45.28                             170    0.0710 22.9 169 
 BAR2 EZ I        2027 45.85        62.5 0.24            173           22.9 169 
 BRR  HZ EP       2027 32.21                             154    0.8010 64.2 303 
 BRR  HN ES       2027 47.77                             154    0.4510 64.2 303 
 BRR  HZ I        2027 49.53        47.5 0.32            153           64.2 303 
 PAM  SZ EP       2027 33.61                             148    0.3610 83.4  44 
 PAM  SN ES       2027 50.23                             148   -0.3510 83.4  44 
 PAM  SZ I        2027 52.47        57.3 0.38            150           83.4  44 
 RUS  HZ EP       2027 34.55                             143    0.0810  101 171 
 RUS  HN ES       2027 52.12                             143   -0.6310  101 171 
 PTB  HZ EP       2027 36.73                             133   -0.22 9  139 258 
 PTB  HN ES       2027 56.97                             133   -0.21 9  139 258 
 PTB  HZ I        2028  1.66        20.5 0.16            133            139 258 
 SML  HZ EP       2027 46.96                             117   -0.17 8  241 337 
 SML  HN ES       2028 14.52                             117   -0.78 8  241 337 
 SML  HZ I        2028 18.16        24.8 0.26            118            241 337 
                                                                                
