 2011  711 2138 33.8 L   6.758 -73.138145.0  RSN 11 0.3 2.2LRSN                1
 GAP=157        0.61       2.4     4.6  4.7 -0.4166E+01  0.9895E+00  0.1037E+01E
 Epicentro: LOS SANTOS - SANTANDER                                             3
 ACTION:UPD 12-07-25 14:00 OP:epov STATUS:               ID:20110711213833 L   I
 2011-07-11-2136-53S.COL___143                                                 6
 STAT SP IPHASW D HRMM SECON CODA AMPLIT PERI AZIMU VELO AIN AR TRES W  DIS CAZ7
 BAR2 SZ EP   1   2138 53.02                             172   -0.22 7 19.0 195 
 BAR2 SZ ES   1   2139  8.38                             172   -0.03 7 19.0 195 
 BAR2 SZ I        2139 10.97        43.3 0.39                          19.0 195 
 BRR  HZ IP     C 2138 54.89                             151   -0.1310 74.2 301 
 BRR  HZ I        2138 55.24        30.1 0.13                          74.2 301 
 BRR  HE ES   1   2139 11.44                             151   -0.14 7 74.2 301 
 RUS  HZ EP       2138 56.99                             145   -0.1410 95.9 176 
 RUS  HE ES   1   2139 15.54                             145    0.21 7 95.9 176 
 RUS  HZ I        2139 16.99        14.6 0.36                          95.9 176 
 BRI  SZ EP       2138 57.47                             140   -0.4410  112  20 
 GRA  SZ EP       2138 59.63                             136    0.3210  130  16 
 GRA  SZ ES   1   2139 19.90                             136    0.69 7  130  16 
 GRA  SZ I        2139 21.09        19.5 0.27                           130  16 
 OCA  SZ ES   1   2139 24.67                             129   -0.18 7  165 353 
 OCA  SZ I        2139 29.02        29.6 0.20                           165 353 
 NOR  SZ EP   2   2139  9.67                             119    0.41 4  233 236 
 NOR  SN ES   1   2139 37.05                             119    0.12 6  233 236 
 CHI  HZ EP   2   2139 10.98                             117    0.00 4  244 196 
 CHI  HZ I        2139 13.97         7.1 0.23                           244 196 
 CHI  HE ES   1   2139 40.05                             117    0.06 6  244 196 
 HEL  HZ EP   2   2139 14.74                             115    0.81 4  272 257 
 TOL  SZ EP   2   2139 21.31                             109   -0.39 3  341 225 
 PRA  HZ EP   1   2139 26.68                             107   -0.18 4  388 210 
 PRA  HE ES   2   2140  8.97                             107    0.71 3  388 210 
                                                                                
