 2012 1111 2230 35.1 L   6.765 -73.140146.5  RSN 10 0.4 2.5LRSN                1
 GAP=139        0.97       3.3     4.0  6.3 -0.2472E+00  0.5308E+01  0.2729E+01E
 Epicentro: LOS SANTOS - SANTANDER                                             3
 ACTION:UPD 12-12-05 15:32 OP:}ep  STATUS:               ID:20121111223035 L   I
 2012-11-11-2230-00M.COL___230                                                 6
 STAT SP IPHASW D HRMM SECON CODA AMPLIT PERI AZIMU VELO AIN AR TRES W  DIS CAZ7
 BAR2 SZ EP       2230 54.65                             172   -0.0710 19.7 194 
 GIR2 SZ EP       2230 54.87                             166   -0.0610 35.2 350 
 BRR  HZ EP       2230 56.72                             152    0.2910 73.7 301 
 BRR  HN ES       2231 13.94                             152    0.8410 73.7 301 
 BRR  HN I        2231 14.59        74.4 0.46                          73.7 301 
 PAM  SZ EP       2230 57.56                             150    0.0510 80.0  37 
 PAM  SN ES       2231 14.92                             150   -0.1010 80.0  37 
 PAM  SN I        2231 15.85        54.5 0.74                          80.0  37 
 RUS  HZ EP       2230 58.43                             145   -0.1810 96.7 176 
 RUS  HN ES       2231 17.05                             145    0.0710 96.7 176 
 RUS  HN I        2231 18.95        39.3 0.40                          96.7 176 
 PTB  HZ EP       2231  2.24                             132    0.15 9  148 260 
 PTB  HN ES       2231 22.49                             132   -0.68 9  148 260 
 PTB  HN I        2231 28.32        58.2 0.22                           148 260 
 OCA  HZ EP       2231  3.66                             129   -0.14 9  164 353 
 OCA  HN ES       2231 25.80                             129   -0.41 9  164 353 
 OCA  HN I        2231 29.10       102.7 0.38                           164 353 
 ZAR  HZ EP       2231  8.38                             122    0.61 8  206 293 
 ZAR  HN ES       2231 32.59                             122   -0.70 8  206 293 
 ZAR  HN I        2231 39.60        34.0 0.28                           206 293 
 CHI  HZ EP       2231 12.57                             118    0.15 8  245 196 
 CHI  HN ES   1   2231 41.09                             118   -0.47 6  245 196 
 CHI  HN I        2231 49.84        17.0 0.52                           245 196 
 HEL  HZ EP       2231 15.43                             115    0.15 8  272 257 
 HEL  HN ES   2   2231 47.61                             115    0.95 4  272 257 
 HEL  HN I        2231 54.18         7.8 0.34                           272 257 
                                                                                
