 2013  511 2017 32.2 L   6.822 -73.201131.5  RSN  5 0.3 1.7LRSN                1
 GAP=129        0.66       3.7     3.8  6.0 -0.4245E+00  0.4344E+01  0.5542E+01E
 Epicentro: ZAPATOCA - SANTANDER                                               3
 ACTION:UPD 13-06-20 09:49 OP:ep   STATUS:               ID:20130511201732 L   I
 2013-05-11-2010-00M.COL___256                                                 6
 STAT SP IPHASW D HRMM SECON CODA AMPLIT PERI AZIMU VELO AIN AR TRES W  DIS CAZ7
 BRR  HZ EP   1   2017 52.26                             152    0.78 7 64.7 299 
 BRR  HN ES       2018  6.41                             152   -0.0710 64.7 299 
 PAM  SZ EP   1   2017 53.26                             147    0.16 7 79.6  44 
 PAM  SN ES   1   2018  9.02                             147   -0.36 7 79.6  44 
 PAM  SN I        2018 10.65         5.4 0.26            151           79.6  44 
 RUS  HZ EP   1   2017 54.78                             140   -0.07 7  104 173 
 RUS  HN ES       2018 12.58                             140    0.1010  104 173 
 RUS  HN I        2018 14.18         7.1 0.36            140            104 173 
 PTB  HZ EP   1   2017 57.20                             130   -0.36 7  142 257 
 PTB  HN ES   1   2018 17.33                             130    0.02 7  142 257 
 PTB  HN I        2018 20.04         9.1 0.10            130            142 257 
 NOR  HZ EP       2018  6.55                             116   -0.24 8  231 233 
 NOR  HN ES   2   2018 33.83                             116    0.08 4  231 233 
 NOR  HN I        2018 38.86         7.6 0.16            116            231 233 
                                                                                
