 2014  511 2059  2.6 L   6.743 -73.134159.4  RSN  6 0.6 1.5LRSN                1
 GAP=201        1.06       7.9     8.4 11.5  0.2662E+02 -0.4564E+01  0.1802E+01E
 Epicentro: JORDAN - SANTANDER                                                 3
 OLDACT:REG 14-05-12 03:40 OP:fm   STATUS:               ID:20140511204816d    3
 ACTION:UPD 15-03-16 16:56 OP:nd   STATUS:               ID:20140511205902 L   I
 OLDACT:UP  14-05-12 07:20 OP:nlst STATUS:               ID:20140511205902 L   3
 OLDACT:UP  14-05-12 06:27 OP:fm   STATUS:               ID:20140511204816d    3
 2014-05-11-2048-15M.COL___254                                                 6
 STAT SP IPHASW D HRMM SECON CODA AMPLIT PERI AZIMU VELO AIN AR TRES W  DIS CAZ7
 BRR  HZ EP   1   2059 25.11                             154   -0.39 7 75.5 302 
 BRR  HN ES       2059 43.81                             154    0.4810 75.5 302 
 BRR  HZ I        2059 50.82         5.9 0.50            151           75.5 302 
 RUS  HZ EP       2059 27.99                             148    0.6710 94.2 177 
 RUS  HN ES       2059 46.18                             148   -0.4110 94.2 177 
 RUS  HZ I        2059 48.02         3.9 0.76            150           94.2 177 
 PTB  HZ EP   1   2059 30.29                             135   -0.47 7  148 261 
 PTB  HN ES       2059 52.25                             135   -0.45 9  148 261 
 PTB  HZ I        2059 55.68         3.1 0.12            134            148 261 
 SPBC HN ES   2   2059 54.64                             133   -0.00 5  159 221 
 NOR  HZ EP   4   2059 40.61                             122    1.69 0  232 236 
 NOR  HN ES   2   21 0  8.16                             122    0.92 4  232 236 
 NOR  HZ I        21 0 15.10         3.1 1.56            122            232 236 
 SML  HN ES   3   21 0  9.13                             119   -1.30 2  250 336 
                                                                                
