 2016  711 2039 56.6 L   6.875 -73.283124.0  RSN 14 0.5 2.4LRSN                1
 GAP=113        1.13       3.8     3.4  5.4 -0.4993E+01  0.3211E+01  0.9025E+00E
 Epicentro: BETULIA - SANTANDER                                                3
 ACTION:UPD 17-03-29 16:49 OP:lp   STATUS:               ID:20160711203956 L   I
 OLDACT:UP  16-07-12 04:18 OP:drio STATUS:               ID:20160711203759     3
 OLDACT:UP  16-07-12 04:16 OP:drio STATUS:               ID:20160711203759     3
 OLDACT:REG 16-07-12 03:57 OP:drio STATUS:               ID:20160711203759     3
 2016-07-11-2037-59S.COL___331                                                 6
 STAT SP IPHASW D HRMM SECON CODA AMPLIT PERI AZIMU VELO AIN AR TRES W  DIS CAZ7
 BAR2 EZ EP       2040 13.85                             164   -0.0510 33.2 160 
 BAR2 EZ ES       2040 26.98                             164   -0.4210 33.2 160 
 BAR2 EZ I        2040 28.34        89.3 0.12            165           33.2 160 
 BRR  HZ EP       2040 14.35                             155   -0.0810 53.9 298 
 BRR  HE ES       2040 28.52                             155    0.1710 53.9 298 
 BRR  HZ I        2040 29.99        70.6 0.18            154           53.9 298 
 PAM  EZ EP       2040 17.15                             144    0.2610 82.4  51 
 PAM  EN ES       2040 33.49                             144    0.7610 82.4  51 
 PAM  EZ I        2040 35.54        74.6 0.28            147           82.4  51 
 RUS  HZ EP       2040 18.53                             136   -0.6010  111 169 
 RUS  HE ES       2040 36.61                             136   -0.0910  111 169 
 RUS  HZ I        2040 38.26        13.0 0.14            136            111 169 
 PTB  HZ EP   4   2040 19.19                             129   -1.46 0  135 254 
 PTB  HN ES   4   2040 36.78                             129   -2.63 0  135 254 
 PTB  HZ I        2040 40.72        47.0 0.70            129            135 254 
 SPBC HZ EP       2040 23.19                             124   -0.11 9  161 213 
 SPBC HN ES       2040 43.63                             124   -0.50 9  161 213 
 SPBC HZ I        2040 44.93        50.8 0.22            124            161 213 
 TAM  HZ EP       2040 24.79                             122    0.43 9  172 106 
 ZAR  HZ EP       2040 25.43                             120   -0.45 9  187 292 
 ZAR  HE ES   4   2040 48.91                             120    0.18 0  187 292 
 ZAR  HZ I        2040 52.26        36.5 0.26            120            187 292 
 NOR  HZ EP       2040 30.19                             114   -0.19 8  228 231 
 NOR  HE ES       2040 56.23                             114   -0.51 8  228 231 
 NOR  HZ I        2041  0.82        19.7 0.18            114            228 231 
 CHI  HZ EP       2040 33.85                             112    0.14 8  253 191 
 CHI  HN ES       2041  3.67                             112    1.02 8  253 191 
 CHI  HZ I        2041  9.61         6.2 0.30            112            253 191 
 HEL  HZ EP       2040 34.92                             111    0.54 8  260 253 
 HEL  HN ES       2041  3.94                             111    0.08 8  260 253 
 HEL  HZ I        2041  8.06        19.0 0.52            111            260 253 
 GUY2CHZ EP   4   2040 40.94                             108    2.48 0  294 232 
 GUY2CHE ES   4   2041  8.62                             108   -2.50 0  294 232 
 GUY2CHZ I        2041 17.80        15.2 0.40                           294 232 
 SOCV BZ EP       2040 39.96                             107    0.23 7  310  60 
 SOCV BE ES       2041 12.43                             107   -0.94 7  310  60 
 CBOC HZ EP       2040 40.97                             106   -0.37 7  322 250 
 CBOC HE ES       2041 17.19                             106    0.95 7  322 250 
 CBOC HZ I        2041 23.00         4.9 0.48            107            322 250 
                                                                                
