 2014  611 2125 55.0 L   6.745 -73.182137.3  RSN  5 0.2 1.5LRSN                1
 GAP=134        0.67       4.1     3.8  5.1  0.3512E+01 -0.9916E+00 -0.3000E+01E
 Epicentro: VILLANUEVA - SANTANDER                                             3
 ACTION:UPD 14-07-01 22:53 OP:nd   STATUS:               ID:20140611212555 L   I
 OLDACT:REG 14-06-12 06:04 OP:stll STATUS:               ID:20140611211815     3
 2014-06-11-2118-15M.COL___256                                                 6
 STAT SP IPHASW D HRMM SECON CODA AMPLIT PERI AZIMU VELO AIN AR TRES W  DIS CAZ7
 BAR2 SZ EP       2126 13.56                             173    0.0710 16.9 180 
 BAR2 SZ ES       2126 27.80                             173   -0.1110 16.9 180 
 BAR2 SZ I        2126 29.80        17.3 0.38            169           16.9 180 
 BRR  HZ EP       2126 15.60                             151    0.3810 71.0 304 
 BRR  HN ES       2126 31.22                             151    0.2210 71.0 304 
 PAM  SZ EP       2126 16.38                             147   -0.4010 84.6  39 
 RUS  HZ EP       2126 17.63                             144    0.1210 94.9 173 
 RUS  HN ES       2126 35.12                             144    0.0510 94.9 173 
 RUS  HZ I        2126 37.35         3.2 0.52            143           94.9 173 
 PTB  HZ EP       2126 20.84                             131    0.01 9  143 261 
 PTB  HN ES       2126 40.60                             131   -0.37 9  143 261 
 PTB  HZ I        2126 46.78         4.3 0.24            130            143 261 
                                                                                
