 2012  311 2246 55.8 L   6.780 -73.154144.8  RSN 15 0.4 3.2LRSN                1
 GAP=114        0.98       3.9     4.6  6.9  0.1578E+01  0.1055E+02  0.7456E+01E
 ACTION:UP  12-03-31 23:19 OP:EP   STATUS:               ID:20120311224655 L   I
 2012-03-11-2240-00M.COL___193                                                 6
 STAT SP IPHASW D HRMM SECON CODA AMPLIT PERI AZIMU VELO SNR AR TRES W  DIS CAZ7
 BAR2 SZ IP       2247 15.29                             171     0.010   21 188 
 BAR2 SZ ES   1   2247 30.37                             171    -0.1 7   21 188 
 BAR2 SZ I        2247 32.42       365.4 0.37                            21 188 
 BRR  HZ IP     C 2247 17.23                             152     0.410   71 300 
 BRR  HZ I        2247 37.75       307.9 0.17                            71 300 
 PAM  SZ IP       2247 18.06                             150     0.010   80  39 
 PAM  SN ES   1   2247 35.41                             150     0.0 7   80  39 
 PAM  SZ I        2247 38.05        99.1 0.59                            80  39 
 RUS  HZ EP       2247 19.11                             144    -0.210   98 175 
 RUS  HE ES   1   2247 38.15                             144     0.5 7   98 175 
 RUS  HZ I        2247 39.68       193.5 0.36                            98 175 
 PTB  HZ EP   1   2247 21.74                             132    -0.8 7  146 260 
 PTB  HN ES   1   2247 43.24                             132    -0.2 7  146 260 
 PTB  HZ I        2247 50.89       229.2 0.50                           146 260 
 YOP  SZ EP   1   2247 25.76                             126     0.1 7  177 153 
 YOP  SN ES   1   2247 48.41                             126    -0.5 7  177 153 
 YOP  SZ I        2247 50.57       110.6 0.32                           177 153 
 ZAR  HZ EP   1   2247 27.80                             122    -0.4 6  204 293 
 ZAR  HE ES   1   2247 53.29                             122    -0.1 6  204 293 
 ZAR  HZ I        2248  0.44       213.6 0.28                           204 293 
 NOR  SZ EP   1   2247 31.08                             118    -0.2 6  233 235 
 NOR  SN ES   1   2247 58.82                             118    -0.1 6  233 235 
 CHI  HZ EP   1   2247 33.21                             117     0.0 6  246 195 
 CHI  HN ES   1   2248  2.39                             117     0.1 6  246 195 
 CHI  HZ I        2248  8.00        83.9 0.33                           246 195 
 ROSC BZ EP   1   2247 34.68                             117     1.1 6  250 211 
 ROSC BZ I        2248 11.14       170.7 0.39                           250 211 
 CVER SZ EP   1   2247 36.41                             115     0.6 6  270 202 
 CVER SZ I        2247 38.23        74.2 0.43                           270 202 
 HEL  HZ EP   1   2247 36.31                             115     0.5 6  271 256 
 HEL  HZ I        2248 13.50        87.8 0.34                           271 256 
 VIL  SZ EP   1   2247 37.78                             112    -1.1 5  301 191 
 VIL  SN ES   1   2248 11.85                             112    -0.7 5  301 191 
 VIL  SZ I        2248 18.38        47.0 0.36                           301 191 
 RREF HZ EP   1   2247 42.19                             111     0.5 5  320 230 
 RREF HZ I        2248 26.24       105.9 0.25                           320 230 
 PRA  HZ EP   1   2247 48.89                             106    -0.1 4  390 210 
 PRA  HN ES   1   2248 30.94                             106     0.4 4  390 210 
                                                                                
