 2016  811 2216 40.3 L   6.770 -73.147144.8  RSN 10 0.3 1.9LRSN                1
 GAP=138        0.62       2.4     2.5  3.5 -0.5850E+00  0.3209E+01  0.1291E+01E
 Epicentro: LOS SANTOS - SANTANDER                                             3
 ACTION:UPD 16-10-29 15:34 OP:rebc STATUS:               ID:20160811221640 L   I
 OLDACT:UP  16-08-12 03:41 OP:edw  STATUS:               ID:20160811220738     3
 OLDACT:REG 16-08-12 02:43 OP:edw  STATUS:               ID:20160811220738     3
 2016-08-11-2208-00M.COL___377                                                 6
 STAT SP IPHASW D HRMM SECON CODA AMPLIT PERI AZIMU VELO AIN AR TRES W  DIS CAZ7
 BAR2 EZ EP       2216 59.72                             172   -0.0710 20.0 191 
 BAR2 EZ ES       2217 15.03                             172    0.0610 20.0 191 
 BAR2 EZ I        2217 15.75        21.9 0.16                          20.0 191 
 BRR  HZ EP       2217  1.52                             152    0.0510 72.7 301 
 BRR  HN ES       2217 18.17                             152    0.2110 72.7 301 
 PAM  EZ EP       2217  2.59                             150   -0.0310 80.1  38 
 PAM  EE ES       2217 19.87                             150   -0.1210 80.1  38 
 PAM  EZ I        2217 21.88        11.5 0.60                          80.1  38 
 RUS  HZ EP       2217  3.82                             145    0.0610 97.3 176 
 RUS  HE ES       2217 22.08                             145    0.0510 97.3 176 
 RUS  HZ I        2217 24.15         4.8 0.26                          97.3 176 
 PTB  HZ EP       2217  6.66                             132   -0.50 9  147 260 
 PTB  HE ES       2217 27.97                             132   -0.11 9  147 260 
 PTB  HZ I        2217 34.63        11.1 0.30                           147 260 
 ZAR  HZ EP       2217 13.00                             122    0.16 9  205 293 
 ZAR  HE ES       2217 38.43                             122    0.24 9  205 293 
 ZAR  HZ I        2217 41.81         7.4 0.32                           205 293 
 NOR  HZ EP       2217 15.36                             118   -0.44 8  233 235 
 NOR  HE ES       2217 42.98                             118   -0.47 8  233 235 
 NOR  HZ I        2217 49.94         5.5 0.18                           233 235 
 URE  HZ EP       2217 21.43                             113   -0.06 7  285 293 
 URE  HN ES   4   2217 51.35                             113   -2.23 0  285 293 
 GUY2CHZ EP       2217 24.02                             112    0.34 7  299 235 
 GUY2CHN ES       2217 57.77                             112    0.29 7  299 235 
 GUY2CHZ I        2218  6.18         3.4 0.36                           299 235 
 PRA  HZ EP       2217 34.16                             106    0.68 6  389 210 
 PRA  HN ES       2218 15.21                             106    0.28 6  389 210 
 PRA  HZ I        2218 23.38         2.7 0.26                           389 210 
                                                                                
