 2012 1011 2318 23.9 L   6.793 -73.112148.1  RSN  5 0.2 1.9LRSN                1
 GAP=141        0.45       2.8     4.7  5.2 -0.2353E+01  0.1844E+00  0.5430E+01E
 Epicentro: LOS SANTOS - SANTANDER                                             3
 ACTION:UPD 12-11-22 17:03 OP:ep   STATUS:               ID:20121011231823 L   I
 2012-10-11-2310-00M.COL___232                                                 6
 STAT SP IPHASW D HRMM SECON CODA AMPLIT PERI AZIMU VELO AIN AR TRES W  DIS CAZ7
 BAR2 SZ EP   1   2318 43.77                             171   -0.04 7 23.6 199 
 BAR2 SZ I        2319  0.13        16.9 0.44                          23.6 199 
 BRR  HZ EP   1   2318 45.28                             152   -0.22 7 74.8 298 
 BRR  HN ES   1   2319  2.47                             152    0.12 7 74.8 298 
 PAM  SZ EP   1   2318 46.67                             152    0.41 7 75.6  37 
 PAM  SN ES   1   2319  3.56                             152   -0.14 7 75.6  37 
 PAM  SN I        2319  4.98        10.2 0.21                          75.6  37 
 RUS  HZ EP   1   2318 47.58                             145   -0.23 7 99.7 178 
 RUS  HE ES   1   2319  6.45                             145   -0.01 7 99.7 178 
 CHI  HZ EP   1   2319  1.71                             118   -0.05 6  249 196 
 CHI  HN ES   1   2319 31.51                             118    0.22 6  249 196 
 CHI  HN I        2319 35.73         6.0 0.34                           249 196 
                                                                                
