 2010  611 2119 10.2 L   6.419 -73.272115.0  RSN  5 0.3 2.1LRSN                1
 GAP=198        0.63       3.6    18.9  6.3 -0.3747E+01  0.5076E+01 -0.8358E+01E
 Epicentro: PALMAS SOCORRO - SANTANDER                                         3
 ACTION:UP  10-08-24 10:09 OP:vdl  STATUS:               ID:20100611211910 L   I
 2010-06-11-2115-21S.COL___117                                                 6
 STAT SP IPHASW D HRMM SECON CODA AMPLIT PERI AZIMU VELO SNR AR TRES W  DIS CAZ7
 BAR2 SZ EP       2119 26.10                             169     0.010   21  27 
 BAR2 SZ ES   1   2119 38.47                             169     0.0 7   21  27 
 RUS  HZ EP       2119 28.10                             150    -0.110   62 160 
 RUS  HZ I        2119 28.85        16.5 0.11                            62 160 
 RUS  HN ES   3   2119 42.44                             150     0.2 2   62 160 
 GUE  SZ EP       2119 36.47                             121    -0.1 9  161  14 
 GUE  SZ ES   2   2119 56.67                             121    -0.5 5  161  14 
 GRA  SZ EP       2119 37.83                             120     0.5 9  170  18 
 GRA  SZ ES   2   2119 58.11                             120    -0.4 5  170  18 
 OCA  SZ EP   1   2119 40.24                             115    -0.5 6  201 359 
 OCA  SZ ES   1   2120  4.77                             115     0.2 6  201 359 
 OCA  SZ I        2120  9.46        22.7 0.26                           201 359 
                                                                                
