 2016  611 2214 50.4 L   6.774 -73.102147.1  RSN  8 0.2 1.5LRSN                1
 GAP=143        0.54       2.3     3.5  4.0 -0.2876E+01 -0.3834E+00  0.1833E+01E
 Epicentro: LOS SANTOS - SANTANDER                                             3
 ACTION:UPD 16-07-21 22:17 OP:rebc STATUS:               ID:20160611221450 L   I
 OLDACT:REG 16-06-12 03:40 OP:ak   STATUS:               ID:20160611220742     3
 2016-06-11-2207-42M.COL___340                                                 6
 STAT SP IPHASW D HRMM SECON CODA AMPLIT PERI AZIMU VELO AIN AR TRES W  DIS CAZ7
 BAR2 EZ EP   2   2215  9.92                             171   -0.22 5 22.0 204 
 BAR2 EZ ES       2215 25.37                             171   -0.1910 22.0 204 
 BAR2 EZ I        2215 26.55        12.1 0.34                          22.0 204 
 PAM  EZ EP       2215 12.91                             151    0.2210 76.7  35 
 PAM  EN ES       2215 29.87                             151   -0.2310 76.7  35 
 PAM  EZ I        2215 32.44         5.0 0.26                          76.7  35 
 BRR  HZ EP       2215 11.94                             151   -0.0510 76.8 299 
 BRR  HN ES       2215 29.08                             151    0.2310 76.8 299 
 BRR  HZ I        2215 32.66         8.1 0.44                          76.8 299 
 RUS  HZ EP       2215 13.97                             145   -0.0710 97.5 179 
 RUS  HN ES       2215 32.90                             145    0.4010 97.5 179 
 RUS  HZ I        2215 34.20         3.1 0.42                          97.5 179 
 PTB  HZ EP   2   2215 17.84                             131    0.01 5  152 260 
 PTB  HN ES   4   2215 37.98                             131   -1.27 0  152 260 
 PTB  HZ I        2215 44.42         3.0 0.15                           152 260 
 SPBC HN ES       2215 41.16                             129   -0.28 9  164 221 
 CHI  HZ EP   2   2215 28.20                             118    0.21 4  247 196 
 CHI  HN ES       2215 57.22                             118   -0.11 8  247 196 
 GUY2CHZ EP   9   2215 36.64                             112    2.33 0  304 236 
 GUY2CHN ES       2216 11.07                                    0.16 7  304 236 
 GUY2CHZ I        2216 16.25         2.7 0.36                           304 236 
                                                                                
