 2013  411 2353 24.9 L   7.444 -73.198133.1  RSN  6 0.4 1.9LRSN                1
 GAP=208        0.81       5.0     7.7  8.7  0.1449E+02  0.7519E+01 -0.4786E+01E
 Epicentro: EL PLAYON - SANTANDER                                              3
 ACTION:UPD 13-05-22 14:37 OP:EP   STATUS:               ID:20130411235324 L   I
 2013-04-11-2350-00M.COL___245                                                 6
 STAT SP IPHASW D HRMM SECON CODA AMPLIT PERI AZIMU VELO AIN AR TRES W  DIS CAZ7
 GIR2 SZ EP   1   2353 43.76                             162    0.39 7 40.3 179 
 GIR2 SZ ES   1   2353 57.54                             162   -0.24 7 40.3 179 
 GIR2 SZ I        2353 59.49        19.8 0.32            161           40.3 179 
 BRR  HZ EP   1   2353 45.00                             151    0.51 7 67.9 237 
 BRR  HN ES   1   2354  0.35                             151    0.57 7 67.9 237 
 BRR  HZ I        2354  0.59        20.2 0.14            150           67.9 237 
 BAR2 SZ EP   1   2353 46.66                             143    0.08 7 94.2 179 
 BAR2 SZ ES   1   2354  3.41                             143   -0.09 7 94.2 179 
 BAR2 SZ I        2354  4.20        43.6 0.46            143           94.2 179 
 PTB  HZ EP   1   2353 53.26                             124    0.10 7  171 234 
 PTB  HE ES   1   2354 14.87                             124   -0.34 7  171 234 
 PTB  HZ I        2354 17.73         6.1 0.42            125            171 234 
 RUS  HN ES   1   2354 15.79                             125   -0.66 7  172 176 
 RUS  HZ I        2354 16.96         2.6 0.34            126            172 176 
 SML  HN ES   1   2354 15.81                             123   -0.63 7  178 327 
                                                                                
