 2017  111 2017  3.4 L   6.232 -73.487104.2  RSN  4 0.3 1.0LRSN                1
 GAP=114        0.78       3.8     4.6  9.0  0.1012E+01  0.2613E+02  0.1041E+02E
 Epicentro: EL GUACAMAYO - SANTANDER                                           3
 ACTION:UPD 17-05-22 15:58 OP:jn   STATUS:               ID:20170111201703 L   I
 OLDACT:UP  17-04-20 12:28 OP:nlst STATUS:               ID:20170111201703 L   3
 OLDACT:REG 17-01-12 00:33 OP:y    STATUS:               ID:20170111200748     3
 2017-01-11-2008-00M.COL___340                                                 6
 STAT SP IPHASW D HRMM SECON CODA AMPLIT PERI AZIMU VELO AIN AR TRES W  DIS CAZ7
 BAR2 EZ EP       2017 19.78                             151    0.4910 52.1  40 
 BAR2 EZ ES       2017 31.84                             151    0.1310 52.1  40 
 RUS  HZ EP       2017 19.92                             149   -0.1210 58.3 130 
 RUS  HN ES       2017 32.85                             149   -0.1910 58.3 130 
 RUS  HZ I        2017 36.03         1.7 0.29            151           58.3 130 
 BRR  HE ES       2017 37.29                             132   -0.2810 99.9 346 
 NOR  HZ EP       2017 29.40                             116   -0.36 9  170 244 
 NOR  HN ES       2017 50.67                             116    0.32 9  170 244 
 NOR  HZ I        2017 52.87         3.0 0.22            119            170 244 
                                                                                
