 2013  211 2226 51.0 L   6.760 -73.126146.3  RSN  6 0.4 1.9LRSN                1
 GAP=141        0.93       4.3     5.6  7.0 -0.2848E+01  0.3868E+01  0.7552E+01E
 Epicentro: LOS SANTOS - SANTANDER                                             3
 ACTION:UPD 13-03-12 09:32 OP:ep   STATUS:               ID:20130211222651 L   I
 2013-02-11-2220-00M.COL___240                                                 6
 STAT SP IPHASW D HRMM SECON CODA AMPLIT PERI AZIMU VELO AIN AR TRES W  DIS CAZ7
 BAR2 SZ ES   1   2227 25.78                             172   -0.15 7 19.5 199 
 BAR2 SZ I        2227 28.74        23.1 0.33            171           19.5 199 
 BRR  HZ EP       2227 12.42                             151   -0.0210 75.3 301 
 BRR  HZ I        2227 23.54        17.2 0.34            148           75.3 301 
 BRR  HN ES       2227 29.86                             151    0.6910 75.3 301 
 PAM  SZ EP       2227 13.32                             150   -0.0810 79.6  36 
 PAM  SZ I        2227 13.66        19.6 0.17            150           79.6  36 
 PAM  SE ES       2227 30.74                             150   -0.1410 79.6  36 
 RUS  HZ EP   1   2227 14.44                             145   -0.04 7 96.0 177 
 RUS  HN ES       2227 32.59                             145   -0.2010 96.0 177 
 RUS  HN I        2227 34.83        11.1 0.43            146           96.0 177 
 PTB  HZ EP   1   2227 17.96                             132   -0.17 7  149 261 
 PTB  HE ES   1   2227 38.32                             132   -0.98 7  149 261 
 PTB  HZ I        2227 41.95         6.6 0.15            129            149 261 
 CHI  HZ EP       2227 28.56                             118    0.24 8  245 196 
 CHI  HN ES   1   2227 58.22                             118    0.78 6  245 196 
                                                                                
