 2012  111 2230 33.7 L   6.791 -73.140150.0  RSN 22 0.5 3.4LRSN                1
 GAP=115        1.02       3.2     4.1  5.5  0.2661E+00  0.5847E+01  0.3069E+01E
 Epicentro: LOS SANTOS - SANTANDER                                             3
 ACTION:UP  12-02-03 08:16 OP:REBC STATUS:               ID:20120111223033 L   I
 2012-01-11-2230-00M.COL___187                                                 6
 STAT SP IPHASW D HRMM SECON CODA AMPLIT PERI AZIMU VELO SNR AR TRES W  DIS CAZ7
 BAR2 SZ IP       2230 53.92                             171     0.110   22 192 
 BAR2 SZ ES   1   2231  8.90                             171    -0.6 7   22 192 
 BAR2 SZ I        2231 11.49       349.6 0.28                            22 192 
 GIR2 SZ EP       2230 53.97                             167     0.110   32 349 
 BRR  HZ IP     C 2230 55.76                             153     0.410   72 299 
 BRR  HN ES   1   2231 13.17                             153     1.0 7   72 299 
 BRR  HZ I        2231 15.49       403.5 0.44                            72 299 
 PAM  SZ IP       2230 56.65                             151     0.310   78  39 
 PAM  SN ES   1   2231 13.82                             151    -0.2 7   78  39 
 PAM  SZ I        2231 16.13       344.6 0.72                            78  39 
 RUS  HZ IP     D 2230 57.73                             145     0.010  100 176 
 RUS  HN ES   1   2231 16.01                             145    -0.5 7  100 176 
 RUS  HZ I        2231 17.98       241.5 0.66                           100 176 
 PTB  HZ EP       2231  0.37                             133    -0.6 9  148 259 
 PTB  HN ES   1   2231 21.79                             133    -0.6 7  148 259 
 PTB  HZ I        2231 23.86       181.3 0.42                           148 259 
 OCA  SZ EP       2231  2.00                             130    -0.4 9  161 353 
 OCA  SZ I        2231 29.16       477.8 0.27                           161 353 
 YOP  SZ EP       2231  4.35                             127     0.5 9  178 153 
 YOP  SE ES   1   2231 27.62                             127     0.1 7  178 153 
 YOP  SZ I        2231 29.86       136.5 0.30                           178 153 
 ZAR  HZ EP       2231  6.48                             123     0.0 9  205 292 
 ZAR  HN ES   1   2231 32.16                             123     0.1 6  205 292 
 ZAR  HZ I        2231 39.55       185.9 0.36                           205 292 
 NOR  EZ EP       2231  9.98                             119     0.4 8  235 235 
 NOR  SN ES   1   2231 37.43                             119    -0.3 6  235 235 
 NOR  EZ I        2231 40.21       169.1 0.30                           235 235 
 CHI  HZ EP       2231 11.71                             118     0.2 8  248 195 
 CHI  HN ES   1   2231 40.61                             118    -0.4 6  248 195 
 CHI  HZ I        2231 49.42       153.2 0.52                           248 195 
 HEL  HZ EP   2   2231 14.43                             115     0.3 4  272 256 
 HEL  HE ES   2   2231 45.13                             115    -0.6 4  272 256 
 HEL  HZ I        2231 52.04       113.8 0.28                           272 256 
 VIL  SZ EP       2231 16.82                             113    -0.4 7  303 192 
 VIL  SE ES   1   2231 51.17                             113     0.1 5  303 192 
 VIL  SZ I        2231 56.99       110.1 0.52                           303 192 
 GUY  SZ EP       2231 18.24                             113     0.5 7  304 235 
 GUY  SN ES   3   2231 52.78                             113     0.7 2  304 235 
 GUY  SZ I        2231 59.65       268.3 0.60                           304 235 
 RREF HZ EP       2231 19.77                             112    -0.2 7  322 230 
 RREF HE ES   2   2231 57.15                             112     1.1 3  322 230 
 RREF HZ I        2232  5.41       258.8 0.30                           322 230 
 DBB  SZ EP       2231 21.83                             110     0.4 7  340 274 
 TOL  SZ EP       2231 22.52                             110     0.5 7  343 225 
 COD  HZ EP       2231 21.24                             109    -1.1 6  349 355 
 PRA  HZ EP       2231 26.75                             107    -0.5 6  391 210 
 PRA  HN ES   2   2232  8.94                             107    -0.1 3  391 210 
 SJA  SZ EP   3   2231 26.48                             107    -1.8 1  399 193 
 YOT  HZ EP   3   2231 36.05                             104    -0.7 1  472 229 
 YOT  HZ I        2231 39.73        22.1 0.88                           472 229 
 GUA  SZ EP   3   2231 37.03                             104     0.2 1  473 173 
                                                                                
