 2016 1211 2258 38.7 L   6.791 -73.181144.7  RSN  4 0.2 1.4LRSN                1
 GAP=241        0.47       4.8     3.5  4.5  0.1112E+02  0.1709E+01 -0.3381E+01E
 Epicentro: LOS SANTOS - SANTANDER                                             3
 ACTION:UPD 17-01-11 20:14 OP:rebc STATUS:               ID:20161211225838 L   I
 OLDACT:DUP 16-12-12 05:41 OP:cog  STATUS:               ID:20161211224747d    3
 2016-12-11-2248-00M.COL___390                                                 6
 STAT SP IPHASW D HRMM SECON CODA AMPLIT PERI AZIMU VELO AIN AR TRES W  DIS CAZ7
 BAR2 EZ EP       2258 58.20                             171   -0.0110 22.0 180 
 BAR2 EZ ES       2259 13.27                             171   -0.1310 22.0 180 
 BAR2 EZ I        2259 14.48         6.7 0.16            171           22.0 180 
 RUS  HZ EP       2259  2.42                             144    0.0910 99.9 174 
 RUS  HN ES       2259 20.88                             144    0.1410 99.9 174 
 PTB  HZ EP       2259  5.00                             133   -0.25 9  144 259 
 PTB  HN ES       2259 25.85                             133   -0.08 9  144 259 
 PTB  HZ I        2259 27.59         3.3 0.30            133            144 259 
 ZAR  HN ES       2259 36.03                             123    0.26 9  201 293 
                                                                                
