 2013 1111 2211 47.6 L   6.341 -73.610111.7  RSN 10 0.5 1.9LRSN                1
 GAP= 84        1.31       4.0     4.0  8.5 -0.3133E+01  0.9100E+01 -0.8715E+01E
 Epicentro: SANTA HELENA DEL OPON - SANTANDER                                  3
 OLDACT:REG 13-11-11 21:44 OP:jn   STATUS:               ID:20131111221000     3
 ACTION:UPD 14-01-09 16:27 OP:ep   STATUS:               ID:20131111221147 L   I
 OLDACT:UP  13-11-11 22:08 OP:jn   STATUS:               ID:20131111221000     3
 2013-11-11-2210-00M.COL___273                                                 6
 STAT SP IPHASW D HRMM SECON CODA AMPLIT PERI AZIMU VELO AIN AR TRES W  DIS CAZ7
 BAR2 SZ EP       2212  4.74                             152    0.2810 54.8  60 
 BAR2 SZ ES       2212 17.91                             152    0.2810 54.8  60 
 BAR2 SZ I        2212 18.90        77.5 0.34            154           54.8  60 
 RUS  HZ EP       2212  6.06                             143   -0.1810 76.5 130 
 RUS  HN ES       2212 20.38                             143   -0.4110 76.5 130 
 RUS  SZ I        2212 27.70         4.8 0.78            147           76.5 130 
 BRR  HZ EP       2212  6.45                             140    0.2310 85.4 352 
 BRR  HN ES       2212 20.99                             140    0.2210 85.4 352 
 BRR  SZ I        2212 23.87        11.9 0.14            142           85.4 352 
 SPBC HN ES       2212 22.60                             138    0.6910 91.8 214 
 PTB  HZ EP       2212  6.50                             136   -0.6310 96.2 283 
 PTB  HN ES       2212 21.57                             136   -0.8010 96.2 283 
 PTB  SZ I        2212 24.78        22.7 0.12            139           96.2 283 
 PAM  SZ EP       2212 12.81                             123    0.02 9  149  42 
 PAM  SE ES       2212 32.30                             123   -0.15 9  149  42 
 PAM  SZ I        2212 37.11         5.7 0.94            126            149  42 
 NOR  HZ EP       2212 14.07                             120    0.34 9  164 238 
 NOR  HN ES       2212 33.63                             120   -0.50 9  164 238 
 NOR  SZ I        2212 36.36        13.7 0.14            123            164 238 
 ZAR  HZ EP       2212 16.81                             116    0.56 9  188 313 
 ZAR  HE ES       2212 39.52                             116    0.91 9  188 313 
 ZAR  SZ I        2212 45.71        12.2 0.44            119            188 313 
 GUY2CHZ EP   4   2212 22.34                             111    0.72 0  230 238 
 GUY2CHN ES   4   2212 50.38                             111    2.21 0  230 238 
 GUY2CSZ I        2212 55.62         5.9 0.58                           230 238 
 SML  HN ES       2212 55.63                             106   -1.01 7  277 349 
                                                                                
