 2013 1211 2020  5.7 L   6.816 -73.187138.0  RSN 14 0.5 2.3LRSN 2.8WRSN        1
 SPEC AVERAGE  MO 13.4 ST 49.2 OM  1.6 f0 10.7 R0.4457 AL 0.00 WI 20.0 MW  2.8 3
 SPEC SD       MO  0.4 ST 90.7 OM  0.5 f0 8.73 R0.4563 AL      WI      MW  0.2 3
 GAP=131        1.08       3.0     4.5  5.9 -0.4282E+01  0.8420E+01  0.1883E+01E
 Epicentro: ZAPATOCA - SANTANDER                                               3
 SPEC BAR2SH Z MO 13.5 ST104.1 OM  1.7 f0 17.2 R0.1119 AL-0.00 WI 20.0 MW  3.0 3
 SPEC BAR2SH Z T202037 K 0.050 GD  140 VS 5.20 DE 3.20 Q0750.0 QA 1.50 VS 5.20 3
 SPEC BRR HH Z MO 13.3 ST 26.3 OM  1.4 f0 13.3 R0.1447 AL-0.00 WI 20.0 MW  2.8 3
 SPEC BRR HH Z T202040 K 0.050 GD  153 VS 5.20 DE 3.20 Q0750.0 QA 1.50 VS 5.20 3
 SPEC RUS HH Z MO 12.9 ST 12.3 OM  1.0 f0 13.5 R0.1425 AL-0.00 WI 20.0 MW  2.6 3
 SPEC RUS HH Z T202045 K 0.050 GD  172 VS 5.20 DE 3.20 Q0750.0 QA 1.50 VS 5.20 3
 SPEC PTB HH Z MO 13.3 ST0.366 OM  1.3 f0 3.16 R0.6089 AL-0.00 WI 20.0 MW  2.8 3
 SPEC PTB HH Z T202050 K 0.050 GD  199 VS 5.20 DE 3.20 Q0750.0 QA 1.50 VS 5.20 3
 SPEC SPBCHH Z MO 13.2 ST301.1 OM  1.2 f0 31.3 R0.0615 AL-0.00 WI 20.0 MW  2.7 3
 SPEC SPBCHH Z T202053 K 0.050 GD  212 VS 5.20 DE 3.20 Q0750.0 QA 1.50 VS 5.20 3
 SPEC NOR HH Z MO 13.2 ST 45.3 OM  1.1 f0 16.6 R0.1159 AL-0.00 WI 20.0 MW  2.7 3
 SPEC NOR HH Z T2021 7 K 0.050 GD  269 VS 5.20 DE 3.20 Q0750.0 QA 1.50 VS 5.20 3
 SPEC ROSCBH Z MO 14.1 ST0.145 OM  2.0 f0 1.20 R1.6033 AL-0.00 WI 20.0 MW  3.4 3
 SPEC ROSCBH Z T202111 K 0.050 GD  287 VS 5.20 DE 3.20 Q0750.0 QA 1.50 VS 5.20 3
 SPEC HEL HH Z MO 13.2 ST0.964 OM  1.0 f0 4.79 R0.4017 AL-0.00 WI 20.0 MW  2.7 3
 SPEC HEL HH Z T202115 K 0.050 GD  301 VS 5.20 DE 3.20 Q0750.0 QA 1.50 VS 5.20 3
 SPECGUY2CHH Z MO 13.4 ST  0.4 OM  1.2 f0 2.90 R 0.663 AL-0.00 WI 20.0 MW  2.9 3
 SPECGUY2CHH Z T202120 K 0.050 GD327.7 VS 5.20 DE 3.20 Q0750.0 QA 1.50 VS 5.20 3
 SPEC RREFHH Z MO 13.4 ST0.298 OM  1.2 f0 2.65 R0.7260 AL-0.00 WI 20.0 MW  2.9 3
 SPEC RREFHH Z T202124 K 0.050 GD  347 VS 5.20 DE 3.20 Q0750.0 QA 1.50 VS 5.20 3
 SPEC PRA HH Z MO 13.5 ST0.863 OM  1.2 f0 3.56 R0.5404 AL-0.00 WI 20.0 MW  2.9 3
 SPEC PRA HH Z T202138 K 0.050 GD  414 VS 5.20 DE 3.20 Q0750.0 QA 1.50 VS 5.20 3
 OLDACT:REG 13-12-12 03:11 OP:stll STATUS:               ID:20131211201813     3
 ACTION:UPD 14-01-13 10:17 OP:ep   STATUS:               ID:20131211202006 L   I
 OLDACT:UP  13-12-16 03:54 OP:stll STATUS:               ID:20131211202006 L   3
 OLDACT:UP  13-12-12 04:00 OP:stll STATUS:               ID:20131211201813     3
 2013-12-11-2018-13M.COL___250                                                 6
 STAT SP IPHASW D HRMM SECON CODA AMPLIT PERI AZIMU VELO AIN AR TRES W  DIS CAZ7
 BAR2 SZ EP   1   2020 24.46                             169   -0.01 7 24.7 179 
 BAR2 SZ ES   1   2020 39.36                             169    0.28 7 24.7 179 
 BAR2 SZ I        2020 40.67        99.1 0.30            167           24.7 179 
 BRR  HZ EP       2020 26.25                             153    0.4710 66.3 299 
 BRR  HN ES       2020 41.76                             153    0.3510 66.3 299 
 BRR  SZ I        2020 46.95        46.2 0.12            151           66.3 299 
 PAM  SZ EP       2020 27.30                             149    0.0510 79.1  43 
 PAM  SN ES       2020 44.07                             149    0.0510 79.1  43 
 PAM  SZ I        2020 46.51        18.5 0.34            156           79.1  43 
 RUS  HZ EP       2020 28.58                             142   -0.3210  103 174 
 RUS  HN ES       2020 46.67                             142   -0.2910  103 174 
 RUS  SZ I        2020 48.26        20.1 0.44            143            103 174 
 PTB  HZ EP       2020 31.10                             131   -0.61 9  144 258 
 PTB  HN ES       2020 51.58                             131   -0.38 9  144 258 
 PTB  SZ I        2020 54.60        26.8 0.18            131            144 258 
 OCA  HN ES       2020 54.44                             128   -0.26 9  158 355 
 SPBC HZ EP       2020 33.55                             127    0.03 9  162 217 
 SPBC HN ES       2020 55.36                             127    0.18 9  162 217 
 SPBC SZ I        2021  4.51        24.8 0.20            128            162 217 
 NOR  HZ EP       2020 40.88                             117    0.14 8  232 233 
 NOR  HN ES       2021  8.50                             117    0.46 8  232 233 
 NOR  SZ I        2021 13.61        19.1 0.50            118            232 233 
 SML  HZ EP       2020 41.10                             116   -0.46 8  240 336 
 SML  HN ES       2021  9.44                             116   -0.06 8  240 336 
 SML  SZ I        2021 12.74        46.3 0.08            118            240 336 
 ROSC BZ EP   4   2020 45.30                             115    1.94 0  252 210 
 ROSC BN ES   4   2021 16.01                             115    3.31 0  252 210 
 ROSC BZ I        2021 18.27        16.2 0.60            117            252 210 
 HEL  HZ EP   4   2020 46.68                             113    1.56 0  268 255 
 HEL  HN ES   4   2021 16.54                             113    0.70 0  268 255 
 HEL  HZ I        2021 23.39         9.7 0.32            115            268 255 
 GUY2CHZ EP       2020 50.24                             111    1.55 7  298 234 
 GUY2CHN ES       2021 21.62                             111   -0.58 7  298 234 
 GUY2CSZ I        2021 29.16         9.3 0.84                           298 234 
 RREF HZ EP       2020 52.23                             109    0.94 7  319 229 
 RREF HN ES       2021 26.08                             109   -0.74 7  319 229 
 RREF HE ES       2021 27.62                                            319 229 
 RREF SZ I        2021 38.05         7.2 0.24            111            319 229 
 PRA  HZ EP       2020 58.43                             105   -0.49 6  391 209 
 PRA  HN ES       2021 40.25                             105   -0.15 6  391 209 
 PRA  SZ I        2021 46.92        12.4 0.22            107            391 209 
                                                                                
