 2015  811 2155 48.8 L   6.754 -73.160141.9  RSN  7 0.4 1.8LRSN                1
 GAP=137        0.97       4.0     4.4  7.0 -0.2643E+01  0.7629E+01  0.3086E+01E
 Epicentro: LOS SANTOS - SANTANDER                                             3
 ACTION:UPD 15-09-15 23:01 OP:cam  STATUS:               ID:20150811215548 L   I
 OLDACT:REG 15-08-12 02:52 OP:drio STATUS:               ID:20150811214751     3
 2015-08-11-2147-51M.COL___316                                                 6
 STAT SP IPHASW D HRMM SECON CODA AMPLIT PERI AZIMU VELO AIN AR TRES W  DIS CAZ7
 BAR2 EZ EP       2156  7.89                             172    0.0210 18.1 188 
 BAR2 EZ ES       2156 23.15                             172    0.4010 18.1 188 
 BAR2 EZ I        2156 24.38        12.2 0.22            171           18.1 188 
 BRR  HZ EP       2156  9.72                             151    0.1110 72.4 303 
 BRR  HN ES       2156 25.98                             151    0.1410 72.4 303 
 PAM  EZ EP       2156 10.78                             148   -0.1310 82.3  38 
 PAM  EN ES       2156 28.06                             148   -0.1010 82.3  38 
 PAM  EZ I        2156 30.84         8.7 0.34            152           82.3  38 
 RUS  HZ EP       2156 12.27                             144    0.4510 95.7 175 
 RUS  HE ES       2156 28.92                             144   -0.8610 95.7 175 
 SPBC HZ EP       2156 16.59                             129    0.05 9  158 220 
 SPBC HN ES       2156 38.68                             129    0.50 9  158 220 
 SPBC HZ I        2156 44.71         8.8 0.16            130            158 220 
 ZAR  HN ES       2156 45.81                             121   -0.40 9  205 294 
 NOR  HE ES       2156 50.92                             118   -0.29 8  231 235 
                                                                                
