 2016  711 2132 55.8 L   6.794 -73.121142.9  RSN 19 0.4 2.7LRSN                1
 GAP=100        0.94       3.0     2.6  4.4 -0.1309E+01  0.2802E+01  0.2437E+01E
 Epicentro: LOS SANTOS - SANTANDER                                             3
 ACTION:UPD 17-03-29 16:49 OP:lp   STATUS:               ID:20160711213255 L   I
 OLDACT:UP  16-07-12 04:46 OP:drio STATUS:               ID:20160711212759     3
 OLDACT:UP  16-07-12 04:45 OP:drio STATUS:               ID:20160711212759     3
 OLDACT:REG 16-07-12 03:59 OP:drio STATUS:               ID:20160711212759     3
 2016-07-11-2127-59S.COL___331                                                 6
 STAT SP IPHASW D HRMM SECON CODA AMPLIT PERI AZIMU VELO AIN AR TRES W  DIS CAZ7
 BAR2 EZ EP       2133 14.86                             170   -0.2010 23.3 197 
 BAR2 EZ ES       2133 30.13                             170    0.0310 23.3 197 
 BAR2 EZ I        2133 30.96       146.4 0.22            167           23.3 197 
 BRR  HZ EP       2133 16.69                             151   -0.0810 73.9 298 
 BRR  HN ES       2133 33.48                             151    0.3410 73.9 298 
 BRR  HZ I        2133 34.55       111.3 0.14            150           73.9 298 
 PAM  EZ EP       2133 17.63                             151    0.0210 76.2  38 
 PAM  EE ES       2133 34.41                             151   -0.2410 76.2  38 
 PAM  EZ I        2133 37.00        66.3 0.50            155           76.2  38 
 RUS  HZ EP       2133 18.88                             143   -0.3110 99.8 178 
 RUS  HE ES       2133 37.25                             143   -0.2010 99.8 178 
 RUS  HZ I        2133 39.21        52.4 0.20            142           99.8 178 
 PTB  HZ EP   4   2133 21.41                             131   -1.33 0  150 259 
 PTB  HN ES   4   2133 42.28                             131   -1.49 0  150 259 
 TAM  HZ EP       2133 23.19                             130    0.22 9  152 105 
 TAM  HN ES       2133 44.67                             130    0.49 9  152 105 
 SPBC HZ EP       2133 23.77                             128   -0.40 9  164 220 
 SPBC HE ES       2133 46.87                             128    0.55 9  164 220 
 ZAR  HZ EP       2133 28.73                             121    0.41 8  207 292 
 ZAR  HE ES       2133 53.49                             121   -0.21 8  207 292 
 ZAR  HZ I        2133 59.57        68.7 0.30            121            207 292 
 NOR  HZ EP       2133 30.83                             118   -0.70 8  237 235 
 NOR  HE ES       2133 58.82                             118   -0.61 8  237 235 
 NOR  HZ I        2134  0.89        49.6 0.22            117            237 235 
 CHI  HZ EP       2133 32.95                             116   -0.38 8  249 196 
 CHI  HE ES       2134  2.67                             116    0.06 8  249 196 
 CHI  HZ I        2134  6.76        14.7 0.24            116            249 196 
 ROSC BZ EP       2133 34.44                             116    0.61 8  254 212 
 ROSC BE ES   4   2134  5.31                             116    1.80 0  254 212 
 ROSC BZ I        2134 10.16        41.4 0.45            116            254 212 
 HEL  HZ EP       2133 36.90                             114    0.79 8  275 256 
 HEL  HE ES       2134  7.49                             114   -0.09 8  275 256 
 HEL  HZ I        2134 13.33        28.3 0.46            114            275 256 
 URE  HZ EP   4   2133 35.75                             113   -1.26 0  287 292 
 URE  HN ES   4   2134  7.63                             113   -1.55 0  287 292 
 SOCV BZ EP       2133 37.80                             112   -0.68 7  299  56 
 SOCV BE ES   4   2134  9.69                             112   -2.10 0  299  56 
 GUY2CHZ EP       2133 39.98                             112    0.52 7  303 235 
 GUY2CHN ES       2134 14.07                             112    0.54 7  303 235 
 GUY2CHZ I        2134 20.16        27.4 0.42                           303 235 
 PTGC HZ EP   4   2133 38.23                             111   -1.10 0  307 159 
 PTGC HN ES   4   2134 11.64                             111   -1.66 0  307 159 
 ELA  HZ EP   4   2133 45.31                             110    2.62 0  331 230 
 ELA  HE ES   4   2134 21.42                             110    2.13 0  331 230 
 ELA  HZ I        2134 31.51        16.0 0.34            110            331 230 
 CBOC HZ EP       2133 43.45                             109    0.61 7  336 252 
 CBOC HN ES       2134 18.86                             109   -0.69 7  336 252 
 CBOC HZ I        2134 24.98         6.1 0.42            109            336 252 
 ANIL HZ EP   4   2133 47.14                             108    1.50 0  359 225 
 ANIL HE ES   4   2134 25.94                             108    1.41 0  359 225 
 ANIL HZ I        2134 31.97        47.6 0.34            108            359 225 
 PRA  HZ EP       2133 49.56                             106    0.27 6  393 210 
 PRA  HE ES       2134 30.50                             106   -0.53 6  393 210 
 PRA  HZ I        2134 38.59        16.4 0.56            106            393 210 
 PAL  HZ EP       2133 50.97                             105   -0.10 6  408 239 
 PAL  HE ES   4   2134 32.30                             105   -1.90 0  408 239 
 PAL  HZ I        2134 38.88        10.3 0.26            105            408 239 
 SJC  HZ EP   4   2133 49.20                             105   -2.28 0  411 327 
 SJC  HN ES   4   2134 30.62                             105   -4.31 0  411 327 
 SJC  HZ I        2134 33.61         5.9 0.40            106            411 327 
                                                                                
