 2017 1011 2053 30.9 L   6.833 -73.135146.0  RSN 13 0.5 2.1LRSN                1
 GAP=112        1.09       3.8     4.0  5.9  0.1074E+01  0.7704E+01  0.4652E+01E
 Epicentro: LOS SANTOS - SANTANDER                                             3
 ACTION:UPD 17-11-07 19:30 OP:rebc STATUS:               ID:20171011205330 L   I
 OLDACT:REG 17-10-12 02:19 OP:dhb  STATUS:               ID:20171011204740     3
 2017-10-11-2048-00M.COL___432                                                 6
 STAT SP IPHASW D HRMM SECON CODA AMPLIT PERI AZIMU VELO AIN AR TRES W  DIS CAZ7
 BAR2 EZ IP     C 2053 50.50                             169   -0.1510 27.1 191 
 BAR2 EZ ES       2054  6.01                             169   -0.0410 27.1 191 
 BAR2 EZ I        2054  7.10        26.8 0.46            165           27.1 191 
 PAM  EZ IP     D 2053 53.34                             152    0.3910 73.8  41 
 PAM  EN ES       2054 10.65                             152    0.5210 73.8  41 
 PAM  EZ I        2054 12.37        21.3 0.44            159           73.8  41 
 RUS  HZ EP       2053 54.37                             143   -0.5810  104 177 
 RUS  HN ES       2054 13.28                             143   -0.4110  104 177 
 RUS  HZ I        2054 14.91        10.1 0.38            143            104 177 
 PTB  HZ EP       2053 57.20                             132   -0.87 9  150 258 
 PTB  HN ES       2054 18.89                             132   -0.37 9  150 258 
 PTB  HZ I        2054 25.99        14.4 0.44            131            150 258 
 YPLC HZ IP     C 2054  0.72                             126   -0.26 9  179 152 
 YPLC HE ES       2054 24.99                             126    0.55 9  179 152 
 YPLC HZ I        2054 28.92        10.6 0.32            129            179 152 
 ZAR  HZ EP       2054  3.12                             123   -0.23 9  204 291 
 ZAR  HE ES       2054 29.03                             123    0.38 9  204 291 
 ZAR  HZ I        2054 37.15        14.5 0.30            123            204 291 
 NOR  HZ IP     C 2054  6.79                             118   -0.20 8  238 234 
 NOR  HN ES       2054 36.00                             118    0.87 8  238 234 
 NOR  HZ I        2054 40.37        12.0 0.16            118            238 234 
 CHI  HZ EP       2054  8.60                             117   -0.44 8  252 195 
 CHI  HE ES       2054 39.14                             117    0.36 8  252 195 
 CHI  HZ I        2054 42.00         4.2 0.60            118            252 195 
 ROSC BZ EP   9   2054 10.96                             117    1.51 0  256 211 
 ROSC BN ES       2054 41.63                                    0.61 8  256 211 
 ROSC BZ I        2054 47.15        15.6 0.35            117            256 211 
 GUY2CHZ EP       2054 15.31                             112    0.43 7  304 234 
 GUY2CHE ES   4   2054 52.11                             112    2.94 0  304 234 
 GUY2CHZ I        2054 57.41        10.1 0.66                           304 234 
 ELA  HZ EP       2054 18.98                             110    0.83 7  332 229 
 ELA  HE ES   3   2054 57.04                             110    2.05 2  332 229 
 ELA  HZ I        2055  3.12         8.6 0.40            111            332 229 
 PRA  HZ EP       2054 24.91                             107    0.03 6  396 209 
 PRA  HE ES       2055  7.02                             107    0.05 6  396 209 
 PRA  HZ I        2055 15.40         6.4 0.23            107            396 209 
 ORTC HZ EP       2054 24.93                             106   -0.34 6  399 216 
 ORTC HE ES   3   2055  9.94                             106    2.28 1  399 216 
 ORTC HZ I        2055 15.21         4.3 0.36            107            399 216 
                                                                                
