 2014  811 2025  9.0 L   6.816 -73.127143.0  RSN 10 0.5 1.9LRSN                1
 GAP=138        1.19       3.9     4.9  6.6 -0.2928E+01  0.1173E+02  0.1441E+01E
 Epicentro: LOS SANTOS - SANTANDER                                             3
 ACTION:UPD 14-09-15 21:49 OP:nd   STATUS:               ID:20140811202509 L   I
 OLDACT:REG 14-08-12 07:34 OP:carl STATUS:               ID:20140811201819     3
 2014-08-11-2018-19M.COL___272                                                 6
 STAT SP IPHASW D HRMM SECON CODA AMPLIT PERI AZIMU VELO AIN AR TRES W  DIS CAZ7
 BAR2 SZ ES       2025 43.01                             169   -0.3810 25.5 194 
 BAR2 SZ I        2025 45.09        13.2 0.38            169           25.5 194 
 BRR  HZ EP       2025 30.16                             152    0.2910 72.2 296 
 BRR  HN ES       2025 46.78                             152    0.6110 72.2 296 
 PAM  SZ EP       2025 31.14                             151    0.4210 74.7  39 
 PAM  SN ES       2025 47.66                             151   -0.0310 74.7  39 
 PAM  SZ I        2025 50.45         9.8 0.56            154           74.7  39 
 RUS  HZ EP       2025 32.52                             143   -0.0410  102 177 
 RUS  HN ES       2025 51.04                             143    0.0710  102 177 
 RUS  HZ I        2025 53.46         7.8 0.52            144            102 177 
 PTB  HZ EP       2025 34.95                             131   -0.97 9  150 258 
 PTB  HN ES       2025 56.26                             131   -0.69 9  150 258 
 PTB  HZ I        2026  0.57        13.6 0.80            131            150 258 
 ZAR  HN ES       2026  7.11                             122    0.48 8  205 291 
 ZAR  HZ I        2026 11.98         7.5 0.70            122            205 291 
 NOR  HZ EP       2025 44.16                             118   -0.66 8  237 234 
 NOR  HE ES       2026 12.66                             118   -0.14 8  237 234 
 NOR  HZ I        2026 14.57         6.1 0.24            119            237 234 
 SML  HZ EP       2025 44.99                             117   -0.36 8  243 335 
 SML  HN ES       2026 13.43                             117   -0.31 8  243 335 
 SML  HZ I        2026 16.16        10.7 0.30            118            243 335 
 GUY2CHZ EP       2025 53.61                             112    0.86 7  304 235 
 GUY2CHN ES       2026 27.67                             112    0.76 7  304 235 
 GUY2CHZ I        2026 37.15         3.9 0.46                           304 235 
 TOL  SZ EP       2025 58.00                             109    0.58 6  346 225 
 TOL  SN ES       2026 35.26                             109    0.04 6  346 225 
 TOL  SZ I        2026 41.70         7.4 0.28            110            346 225 
                                                                                
