 2011  111 2127  4.5 L   6.811 -72.885128.1  RSN  4 0.1 1.3LRSN                1
 GAP=188        0.31       3.4    17.2  8.9 -0.3849E+02  0.1610E+01 -0.3397E+01E
 Epicentro: SAN ANDRES - SANTANDER                                             3
 ACTION:UP  11-02-08 08:40 OP:pat  STATUS:               ID:20110111212704 L   I
 2011-01-11-2123-12S.COL___136                                                 6
 STAT SP IPHASW D HRMM SECON CODA AMPLIT PERI AZIMU VELO SNR AR TRES W  DIS CAZ7
 BTL  SZ EP   2   2127 22.66                             160     0.0 5   44 286 
 GIR2 SZ EP   2   2127 22.67                             159     0.1 5   45 311 
 RUS  HZ EP   2   2127 26.75                             139    -0.1 5  104 192 
 RUS  HE ES   2   2127 44.32                             139     0.1 5  104 192 
 RUS  HZ I        2127 46.05         2.7 0.32                           104 192 
 GRA  SZ EP   2   2127 27.75                             134     0.1 5  119   4 
 GRA  SZ ES   2   2127 45.63                             134    -0.1 5  119   4 
 GRA  SZ I        2127 49.94         5.0 0.20                           119   4 
                                                                                
