 2014  311 2110 12.4 L   6.774 -73.196137.7  RSN  5 0.4 1.8LRSN                1
 GAP=131        0.97       5.0     4.8  7.2 -0.2246E+01  0.5178E+01  0.1154E+01E
 Epicentro: VILLANUEVA - SANTANDER                                             3
 ACTION:UPD 14-04-09 23:16 OP:nd   STATUS:               ID:20140311211012 L   I
 OLDACT:REG 14-03-11 23:18 OP:stll STATUS:               ID:20140311210819     3
 2014-03-11-2108-19M.COL___229                                                 6
 STAT SP IPHASW D HRMM SECON CODA AMPLIT PERI AZIMU VELO AIN AR TRES W  DIS CAZ7
 BAR2 SZ ES       2110 45.14                             171   -0.3510 20.1 176 
 BAR2 SZ I        2110 46.69        27.0 0.46            169           20.1 176 
 BRR  HZ EP       2110 33.06                             152    0.5810 67.9 303 
 BRR  HN ES       2110 48.64                             152    0.4910 67.9 303 
 PAM  SZ EP       2110 33.92                             147   -0.2110 83.2  41 
 PAM  SZ I        2110 34.20        16.0 0.20            148           83.2  41 
 PAM  SN ES       2110 50.85                             147   -0.2310 83.2  41 
 RUS  HZ EP       2110 35.27                             143    0.0910 98.3 173 
 RUS  HN ES       2110 53.26                             143    0.3010 98.3 173 
 RUS  HZ I        2110 55.00         6.9 0.40            141           98.3 173 
 PTB  HZ EP       2110 37.85                             131   -0.30 9  142 260 
 PTB  HE EP       2110 38.15                             131            142 260 
 PTB  HZ I        2110 40.37         5.0 0.28            131            142 260 
 PTB  HN ES       2110 57.79                             131   -0.46 9  142 260 
                                                                                
