 2012  711 2009 53.7 L   6.797 -73.161142.0  RSN 13 0.5 2.4LRSN                1
 GAP=101        1.10       5.4     4.3  7.3  0.5684E+01  0.8721E+01  0.1161E+02E
 Epicentro: LOS SANTOS - SANTANDER                                             3
 ACTION:UPD 12-08-14 11:44 OP:ep   STATUS:               ID:20120711200953 L   I
 2012-07-11-2007-47M.COL___211                                                 6
 STAT SP IPHASW D HRMM SECON CODA AMPLIT PERI AZIMU VELO AIN AR TRES W  DIS CAZ7
 BAR2 SZ EP   1   2010 12.75                             170    -0.1 8   23 186 
 BAR2 SZ ES   1   2010 27.61                             170    -0.2 8   23 186 
 BAR2 SZ I        2010 29.09       111.5 0.24            147             23 186 
 BRR  HZ EP   1   2010 14.57                             152     0.2 8   70 299 
 BRR  HN ES   1   2010 31.47                             152     1.0 8   70 299 
 BRR  HZ I        2010 35.72        56.3 0.11            132             70 299 
 PAM  SZ EP   1   2010 15.68                             150     0.1 8   79  40 
 PAM  SN ES   1   2010 32.59                             150    -0.1 8   79  40 
 RUS  HZ EP       2010 16.77                             143    -0.310  100 175 
 RUS  HZ I        2010 17.66        31.6 0.12            122            100 175 
 RUS  HN ES   1   2010 35.06                             143    -0.3 7  100 175 
 PTB  HZ EP   1   2010 19.53                             131    -0.7 7  146 259 
 PTB  HN ES   1   2010 40.38                             131    -0.5 7  146 259 
 PTB  HZ I        2010 43.02        31.6 0.13            112            146 259 
 TAM  HZ EP   1   2010 21.10                             129    -0.2 7  157 105 
 TAM  HZ I        2010 21.27        32.0 0.18            118            157 105 
 TAM  HN ES   1   2010 42.66                             129    -0.1 7  157 105 
 YOP  SZ EP   1   2010 23.43                             125    -0.1 7  179 153 
 YOP  SN ES   1   2010 47.51                             125     0.7 7  179 153 
 YOP  SZ I        2010 49.10        24.8 0.33            110            179 153 
 ZAR  HZ EP   1   2010 25.45                             122    -0.3 6  203 292 
 ZAR  HN ES   1   2010 51.06                             122     0.3 6  203 292 
 CHI  HZ EP   1   2010 31.06                             116    -0.1 6  248 195 
 CHI  HZ I        2011  7.56        13.9 0.33            104            248 195 
 ROSC BZ EP       2010 32.59                             116     1.1 8  252 211 
 ROSC BZ I        2011  9.00        24.8 0.35            103            252 211 
 HEL  HZ EP   1   2010 32.75                             114    -0.8 6  270 256 
 HEL  HZ I        2011 11.15        20.2 0.50            102            270 256 
 DBB  SZ EP   1   2010 41.29                             109     0.4 5  338 274 
 TOL  SZ EP   1   2010 42.33                             109     0.7 5  342 224 
 TOL  SZ ES   1   2011 18.74                             109    -0.3 5  342 224 
