 2012  811 2103 30.3 L   6.753 -73.138146.0  RSN  6 0.4 1.6LRSN                1
 GAP=140        0.63       5.2     6.3  9.1  0.2830E+01 -0.2399E+02  0.2521E+01E
 Epicentro: LOS SANTOS - SANTANDER                                             3
 ACTION:UPD 12-09-10 11:55 OP:ep   STATUS:               ID:20120811210330 L   I
 2012-08-11-2100-00M.COL___219                                                 6
 STAT SP IPHASW D HRMM SECON CODA AMPLIT PERI AZIMU VELO AIN AR TRES W  DIS CAZ7
 BAR2 SZ EP       21 3 49.79                             173   -0.0510 18.4 195 
 BAR2 SZ ES   3   21 4  5.18                             173    0.08 2 18.4 195 
 GIR2 SZ EP   2   21 3 49.90                             165   -0.22 5 36.5 350 
 GIR2 SZ ES   3   21 4  5.35                             165   -0.26 2 36.5 350 
 BRR  HZ EP       21 3 51.57                             152   -0.0610 74.5 302 
 BRR  HZ I        21 3 56.13         8.6 0.38                          74.5 302 
 BRR  HN ES   1   21 4  8.88                             152    0.58 7 74.5 302 
 PAM  SZ EP       21 3 52.59                             150   -0.1410 81.0  37 
 PAM  SZ I        21 3 52.82        10.6 0.44                          81.0  37 
 PAM  SE ES   3   21 4  9.81                             150   -0.43 2 81.0  37 
 RUS  HZ EP       21 3 53.97                             146    0.3010 95.3 176 
 RUS  HN ES   2   21 4 11.58                             146   -0.35 5 95.3 176 
 RUS  HZ I        21 4 13.38         2.8 0.34                          95.3 176 
 PTB  HN ES   2   21 4 17.38                             132   -0.91 5  148 261 
                                                                                
