 2014  811 2006 44.3 L   6.799 -73.180147.1  RSN 11 0.5 1.9LRSN                1
 GAP=132        1.29       3.5     5.3  7.6 -0.2193E+01  0.1149E+02 -0.1505E+01E
 Epicentro: LOS SANTOS - SANTANDER                                             3
 ACTION:UPD 14-09-15 21:49 OP:nd   STATUS:               ID:20140811200644 L   I
 OLDACT:DUP 14-08-12 07:43 OP:carl STATUS:               ID:20140811195817d    3
 2014-08-11-1958-16M.COL___272                                                 6
 STAT SP IPHASW D HRMM SECON CODA AMPLIT PERI AZIMU VELO AIN AR TRES W  DIS CAZ7
 BAR2 SZ ES       20 7 19.00                             171   -0.4810 22.8 181 
 BAR2 SZ I        20 7 19.93        26.4 0.34            170           22.8 181 
 BRR  HZ EP       20 7  5.84                             154    0.4410 68.0 300 
 BRR  HN ES       20 7 22.89                             154    1.0210 68.0 300 
 BRR  HZ I        20 7 26.35        16.2 0.14            151           68.0 300 
 PAM  SZ EP       20 7  6.93                             150    0.1410 79.9  42 
 PAM  SN ES       20 7 23.89                             150   -0.4510 79.9  42 
 PAM  SZ I        20 7 25.90        19.1 0.50            154           79.9  42 
 RUS  HZ EP       20 7  8.59                             144    0.4110  101 174 
 RUS  HN ES       20 7 26.75                             144   -0.0610  101 174 
 RUS  HZ I        20 7 28.68         7.6 0.16            147            101 174 
 PTB  HZ EP       20 7 10.71                             133   -0.32 9  144 259 
 PTB  HN ES       20 7 31.14                             133   -0.74 9  144 259 
 PTB  HZ I        20 7 36.89        10.3 0.16            133            144 259 
 OCA  HN ES       20 7 34.95                             130    0.14 9  160 354 
 SPBC HZ EP       20 7 13.47                             130    0.82 9  161 218 
 SPBC HN ES       20 7 34.99                             130    0.21 9  161 218 
 SPBC HZ I        20 7 41.26        10.0 0.26            131            161 218 
 ZAR  HZ EP       20 7 16.60                             123    0.13 9  201 293 
 ZAR  HN ES       20 7 41.96                             123    0.39 9  201 293 
 ZAR  HZ I        20 7 47.82         7.2 0.44            123            201 293 
 NOR  HE ES       20 7 46.96                             119   -0.46 8  232 234 
 NOR  HZ I        20 7 50.65         4.4 0.22            120            232 234 
 SML  HZ EP       20 7 20.09                             118   -0.74 8  242 336 
 SML  HN ES       20 7 48.76                             118   -0.58 8  242 336 
 SML  HZ I        20 7 55.10        11.2 0.10            119            242 336 
 CHI  HE ES       20 7 50.81                             117   -0.49 8  248 194 
                                                                                
