 2015  911 2130 10.0 L   6.814 -73.141144.0  RSN 21 0.5 2.6LRSN                1
 GAP=136        1.06       2.4     3.5  4.7 -0.1542E+01  0.5505E+01  0.1333E+01E
 Epicentro: LOS SANTOS - SANTANDER                                             3
 ACTION:UPD 15-10-28 16:25 OP:cam  STATUS:               ID:20150911213010 L   I
 OLDACT:REG 15-09-12 02:32 OP:ak   STATUS:               ID:20150911212748     3
 2015-09-11-2127-48M.COL___332                                                 6
 STAT SP IPHASW D HRMM SECON CODA AMPLIT PERI AZIMU VELO AIN AR TRES W  DIS CAZ7
 BAR2 EZ EP       2130 29.39                             170   -0.0210 25.0 191 
 BAR2 EZ ES       2130 44.44                             170   -0.1410 25.0 191 
 BAR2 EZ I        2130 47.23        60.1 0.26            166           25.0 191 
 BRR  HZ EP       2130 31.26                             152    0.3610 71.0 297 
 BRR  HN ES       2130 48.23                             152    0.9910 71.0 297 
 BRR  HZ I        2130 53.17        36.4 0.21            149           71.0 297 
 PAM  EZ EP       2130 32.33                             151    0.4410 75.8  40 
 PAM  EN ES       2130 49.19                             151    0.1910 75.8  40 
 PAM  EZ I        2130 51.89        58.6 0.46            158           75.8  40 
 RUS  HZ EP       2130 33.41                             143   -0.2410  102 176 
 RUS  HN ES       2130 51.68                             143   -0.4410  102 176 
 PTB  HZ EP       2130 36.21                             131   -0.65 9  149 258 
 PTB  HN ES       2130 57.18                             131   -0.66 9  149 258 
 PTB  HZ I        2131  4.75        72.9 0.34            131            149 258 
 OCA  HZ EP       2130 37.51                             129   -0.48 9  159 353 
 OCA  HE ES       2131  0.11                             129    0.25 9  159 353 
 OCA  HZ I        2131  4.67                             132            159 353 
 SPBC HZ EP       2130 38.54                             128    0.07 9  165 219 
 SPBC HN ES       2131  0.29                             128   -0.42 9  165 219 
 SPBC HZ I        2131  5.17        46.5 0.16            129            165 219 
 ZAR  HZ EP       2130 41.60                             122   -0.68 9  204 292 
 ZAR  HN ES       2131  7.96                             122    0.47 9  204 292 
 ZAR  HZ I        2131 13.62        55.7 0.36            123            204 292 
 NOR  HZ EP       2130 45.47                             118   -0.26 8  236 234 
 NOR  HN ES       2131 13.97                             118    0.34 8  236 234 
 NOR  HZ I        2131 19.69        24.7 0.25            119            236 234 
 SML  HZ EP       2130 45.62                             117   -0.74 8  243 335 
 SML  HN ES       2131 14.38                             117   -0.37 8  243 335 
 CHI  HZ EP       2130 47.98                             117    0.24 8  250 195 
 CHI  HN ES       2131 16.88                             117   -0.33 8  250 195 
 CHI  HZ I        2131 26.67        13.8 0.23            119            250 195 
 ROSC BZ EP       2130 49.12                             116    0.96 8  254 211 
 ROSC BN ES       2131 17.97                             116    0.01 8  254 211 
 ROSC BZ I        2131 27.10        39.6 0.40            118            254 211 
 HEL  HZ EP   1   2130 50.78                             114    0.60 6  273 256 
 HEL  HN ES       2131 22.04                             114    0.48 8  273 256 
 HEL  HZ I        2131 29.49        19.8 0.34            115            273 256 
 URE  HZ EP       2130 50.32                             113   -0.61 7  284 292 
 URE  HE ES   4   2131 21.69                             113   -1.21 0  284 292 
 URE  HZ I        2131 33.62        25.2 0.07            115            284 292 
 GUY2CHZ EP       2130 54.25                             112    0.61 7  303 235 
 GUY2CHE ES       2131 27.71                             112    0.00 7  303 235 
 GUY2CHZ I        2131 38.30        22.3 0.54                           303 235 
 PTGC HZ EP   4   2130 52.57                             111   -1.31 0  310 159 
 PTGC HN ES   4   2131 25.60                             111   -2.54 0  310 159 
 ELA  HZ EP   2   2130 57.62                             110    0.72 3  331 229 
 ELA  HN ES       2131 33.40                             110   -0.11 7  331 229 
 ELA  HZ I        2131 42.13        13.0 0.54            112            331 229 
 DBB  SZ EP       2130 57.61                             109    0.20 7  340 274 
 DBB  SZ ES       2131 33.88                             109   -0.55 7  340 274 
 DBB  SZ I        2131 52.61        53.5 0.74            111            340 274 
 TOL  SZ EP       2130 58.61                             109    0.29 7  345 225 
 TOL  SN ES       2131 36.30                             109    0.26 7  345 225 
 TOL  SZ I        2131 41.68        21.9 0.78            111            345 225 
 PRA  HZ EP       2131  3.07                             106   -0.54 6  394 210 
 PRA  HN ES       2131 45.32                             106   -0.14 6  394 210 
 PRA  HZ I        2131 49.73        17.8 0.12            108            394 210 
 ORTC HZ EP       2131  4.67                             106    0.67 6  397 216 
 ORTC HE ES       2131 46.76                             106    0.60 6  397 216 
 ORTC HZ I        2131 52.51         9.4 0.60            108            397 216 
 SJC  HZ EP   4   2131  3.86                             105   -1.48 0  408 327 
 SJC  HN ES   4   2131 44.34                             105   -4.20 0  408 327 
 SJC  HZ I        2131 49.24         7.7 0.34            107            408 327 
                                                                                
