 2012  411 2210 18.4 L   6.813 -73.322125.3  RSN  6 0.3 2.2LRSN                1
 GAP=109        0.89       7.4     5.7  7.9 -0.9644E+01  0.1105E+02 -0.1325E+02E
 Epicentro: ZAPATOCA - SANTANDER                                               3
 ACTION:UPD 12-07-05 11:52 OP:tino STATUS:               ID:20120411221018 L   I
 2012-04-11-2210-00M.COL___180                                                 6
 STAT SP IPHASW D HRMM SECON CODA AMPLIT PERI AZIMU VELO AIN AR TRES W  DIS CAZ7
 BAR2 SZ EP       2210 36.16                             166     0.410   29 148 
 BAR2 SZ I        2210 36.32        56.9 0.12                            29 148 
 BAR2 SZ ES   1   2210 49.07                             166    -0.2 7   29 148 
 BRR  HZ EP       2210 36.60                             155     0.210   54 307 
 BRR  HN ES   1   2210 50.45                             155     0.0 7   54 307 
 BRR  HZ I        2210 55.25        25.8 0.42                            54 307 
 PAM  SZ EP       2210 39.65                             142     0.310   90  50 
 PAM  SN ES   1   2210 55.24                             142    -0.5 7   90  50 
 PTB  HZ EP       2210 41.48                             131    -0.510  129 256 
 OCA  SZ EP       2210 44.78                             125    -0.2 9  158   0 
 ZAR  HE ES   2   2211 10.90                             120     0.5 4  186 294 
                                                                                
