 2014  511 2059  5.7 L   6.777 -73.148138.4  RSN  4 0.4 1.5LRSN                1
 GAP=276        0.74       9.3     5.9 10.7  0.1917E+02 -0.7459E+01 -0.4076E+02E
 Epicentro: LOS SANTOS - SANTANDER                                             3
 OLDACT:REG 14-05-12 03:41 OP:fm   STATUS:               ID:20140511205819     3
 ACTION:UPD 15-03-16 16:56 OP:nd   STATUS:               ID:20140511205905 L   I
 OLDACT:UP  14-05-12 06:30 OP:fm   STATUS:               ID:20140511205819     3
 2014-05-11-2058-19M.COL___254                                                 6
 STAT SP IPHASW D HRMM SECON CODA AMPLIT PERI AZIMU VELO AIN AR TRES W  DIS CAZ7
 RUS  HZ EP   1   2059 27.86                             143   -0.64 8 98.1 176 
 RUS  HN ES   1   2059 46.72                             143    0.40 8 98.1 176 
 RUS  HZ I        2059 48.02         4.1 0.86            136           98.1 176 
 PTB  HZ EP   1   2059 31.88                             131   -0.08 7  147 260 
 PTB  HN ES       2059 52.52                             131    0.0510  147 260 
 PTB  HZ I        2059 55.68         3.1 0.12            125            147 260 
 SPBC HZ EP   1   2059 33.95                             128    0.56 7  161 219 
 SPBC HE ES       2059 54.77                             128   -0.2510  161 219 
 SPBC HZ I        21 0  0.31         6.0 0.20            122            161 219 
 NOR  HZ EP   1   2059 41.11                             117    0.33 7  233 235 
 NOR  HE ES   1   21 0  8.02                             117   -0.15 7  233 235 
 NOR  HZ I        21 0 15.10         3.1 1.56            114            233 235 
                                                                                
