 2013 1111 2305 36.6 L   6.771 -73.146147.3  RSN  7 0.3 1.5LRSN                1
 GAP=138        0.84       4.1     3.8  6.1  0.1544E+01  0.4498E+01 -0.5909E+00E
 Epicentro: LOS SANTOS - SANTANDER                                             3
 ACTION:UPD 14-01-09 16:27 OP:ep   STATUS:               ID:20131111230536 L   I
 OLDACT:UP  13-11-11 22:19 OP:jn   STATUS:               ID:20131111230001d    3
 OLDACT:REG 13-11-11 21:46 OP:jn   STATUS:               ID:20131111230001d    3
 2013-11-11-2300-00M.COL___273                                                 6
 STAT SP IPHASW D HRMM SECON CODA AMPLIT PERI AZIMU VELO AIN AR TRES W  DIS CAZ7
 BAR2 SZ EP       23 5 56.43                             172    0.1010 20.1 192 
 BAR2 SZ ES       23 6 11.37                             172   -0.3710 20.1 192 
 BAR2 SZ I        23 6 14.20        13.7 0.18            173           20.1 192 
 BRR  HZ EP       23 5 58.28                             152    0.3010 72.8 301 
 BRR  HN ES       23 6 15.27                             152    0.6010 72.8 301 
 BRR  HZ I        23 6 19.56         6.0 0.24            153           72.8 301 
 PAM  SZ EP       23 5 59.35                             150    0.2410 79.9  38 
 PAM  SN ES       23 6 16.33                             150   -0.3510 79.9  38 
 PAM  SZ I        23 6 18.66         4.6 0.48            153           79.9  38 
 RUS  HZ EP       23 6  0.27                             145    0.0210 97.3 176 
 RUS  HN ES       23 6 18.92                             145    0.2110 97.3 176 
 RUS  HZ I        23 6 20.22         2.2 0.24            149           97.3 176 
 PTB  HZ EP       23 6  3.16                             132   -0.46 9  147 260 
 PTB  HN ES       23 6 24.39                             132   -0.31 9  147 260 
 PTB  HZ I        23 6 27.40         4.3 0.12            135            147 260 
 ZAR  HE ES       23 6 34.78                             122    0.05 8  205 293 
 SML  HN ES   2   23 6 41.85                             117   -0.64 4  247 336 
                                                                                
