 2012  511 2359 36.9 L   6.777 -73.151148.5  RSN  7 0.4 2.1LRSN                1
 GAP=137        0.99       5.8     5.4  9.6  0.7482E+00  0.3848E+01 -0.8796E+00E
 Epicentro: LOS SANTOS - SANTANDER                                             3
 ACTION:UP  12-07-05 12:04 OP:pat  STATUS:               ID:20120511235936 L   I
 2012-05-11-2357-42M.COL___190                                                 6
 STAT SP IPHASW D HRMM SECON CODA AMPLIT PERI AZIMU VELO SNR AR TRES W  DIS CAZ7
 BAR2 SZ IP       2359 56.82                             172     0.010   21 190 
 BAR2 SZ I        2359 57.05        20.1 0.12                            21 190 
 BRR  HZ IP     D 2359 58.68                             153     0.310   72 301 
 BRR  HE ES   1   24 0 15.80                             153     0.6 7   72 301 
 BRR  HZ I        24 0 19.68        26.6 0.14                            72 301 
 PAM  SZ EP       2359 59.83                             150     0.310   80  39 
 PAM  SE ES   1   24 0 16.57                             150    -0.6 7   80  39 
 RUS  HZ EP       24 0  1.02                             145     0.310   98 176 
 RUS  HN ES   1   24 0 19.19                             145    -0.2 7   98 176 
 RUS  HZ I        24 0 20.05         7.5 0.40                            98 176 
 PTB  HZ EP       24 0  3.47                             133    -0.5 9  147 260 
 PTB  HN ES   1   24 0 24.84                             133    -0.3 7  147 260 
 PTB  HZ I        24 0 30.41        11.4 0.36                           147 260 
 OCA  HZ EP   1   24 0  5.43                             130    -0.2 7  163 353 
 OCA  HZ I        24 0 32.35        25.8 0.24                           163 353 
 ZAR  HZ EP   3   24 0 10.28                             123     0.7 2  205 293 
 ZAR  HN ES   1   24 0 34.96                             123    -0.1 6  205 293 
 ZAR  HZ I        24 0 40.63        15.5 0.36                           205 293 
                                                                                
