 2011 1011 2054 53.8 L   6.792 -73.143140.5  RSN 14 0.4 3.5LRSN                1
 GAP=114        0.80       2.5     3.6  5.2  0.3439E-01  0.5913E+01  0.3299E+01E
 Epicentro: LOS SANTOS - SANTANDER                                             3
 ACTION:UPD 12-07-13 16:03 OP:ep   STATUS:               ID:20111011205453 L   I
 2011-10-11-2053-20S.COL___167                                                 6
 STAT SP IPHASW D HRMM SECON CODA AMPLIT PERI AZIMU VELO AIN AR TRES W  DIS CAZ7
 BAR2 SZ IP       2055 13.03                             170    0.2310 22.5 191 
 BAR2 SZ ES   1   2055 27.33                             170   -0.28 7 22.5 191 
 BAR2 SZ I        2055 29.00       665.8 0.21                          22.5 191 
 BRR  HZ IP     C 2055 14.79                             151    0.3510 71.9 299 
 BRR  HZ I        2055 15.06      1266.4 0.18                          71.9 299 
 BRR  HN ES   1   2055 31.31                             151    0.78 7 71.9 299 
 PAM  SZ EP       2055 15.75                             150    0.2410 77.9  39 
 PAM  SN ES   1   2055 32.52                             150    0.09 7 77.9  39 
 PAM  SZ I        2055 34.98       308.5 0.42                          77.9  39 
 RUS  HZ EP   1   2055 17.09                             143    0.10 7 99.7 176 
 RUS  HN ES   1   2055 34.74                             143   -0.32 7 99.7 176 
 RUS  HZ I        2055 37.31       276.5 0.27                          99.7 176 
 OCA  SZ EP       2055 21.44                             128   -0.38 9  161 353 
 OCA  SZ ES   1   2055 42.83                             128   -0.82 7  161 353 
 OCA  SZ I        2055 48.06       683.9 0.35                           161 353 
 YOP  SZ EP   1   2055 23.94                             125    0.54 7  178 153 
 YOP  SE ES   1   2055 46.05                             125   -0.42 7  178 153 
 YOP  SZ I        2055 48.89       237.9 0.31                           178 153 
 ZAR  HZ EP   1   2055 25.59                             121   -0.40 6  205 292 
 ZAR  HN ES   1   2055 50.67                             121   -0.42 6  205 292 
 ZAR  HZ I        2055 56.70       355.5 0.30                           205 292 
 NOR  SZ EP       2055 29.17                             117   -0.05 8  234 235 
 NOR  SN ES   1   2055 56.34                             117   -0.49 6  234 235 
 CHI  HZ EP   1   2055 31.44                             116    0.29 6  248 195 
 CHI  HZ I        2055 34.11       119.3 0.18                           248 195 
 CHI  HN ES   1   2055 59.90                             116   -0.36 6  248 195 
 HEL  HZ EP   1   2055 33.52                             114   -0.26 6  272 256 
 HEL  HN ES   1   2056  5.54                             114    0.59 6  272 256 
 HEL  HZ I        2056 12.49       312.3 0.29                           272 256 
 VIL  SZ EP   1   2055 36.85                             111   -0.06 5  303 192 
 VIL  SN ES   1   2056 10.51                             111   -0.01 5  303 192 
 VIL  SZ I        2056 23.78        96.9 0.59                           303 192 
 GUY  SZ EP   1   2055 37.79                             111    0.36 5  303 235 
 TOL  SZ EP   1   2055 42.69                             108    0.87 5  343 225 
 TOL  SZ ES   1   2056 19.67                             108    0.41 5  343 225 
 PRA  HZ EP   1   2055 46.48                             106   -0.61 4  391 210 
 PRA  HN ES   1   2056 27.70                             106   -0.94 4  391 210 
 PRA  HZ I        2056 36.89       449.2 0.32                           391 210 
                                                                                
