 2011  111 2122 51.0 L   6.774 -73.118138.9  RSN 11 0.3 2.2LRSN                1
 GAP=138        0.54       2.9     5.0  6.4 -0.2594E+01  0.1012E+02  0.2206E+01E
 Epicentro: LOS SANTOS - SANTANDER                                             3
 ACTION:UP  11-02-08 08:40 OP:pat  STATUS:               ID:20110111212251 L   I
 2011-01-11-2121-02S.COL___136                                                 6
 STAT SP IPHASW D HRMM SECON CODA AMPLIT PERI AZIMU VELO SNR AR TRES W  DIS CAZ7
 BAR2 SZ EP       2123  9.92                             171     0.210   21 200 
 BAR2 SZ ES   2   2123 23.92                             171    -0.4 5   21 200 
 BAR2 SZ I        2123 26.68        73.3 0.12                            21 200 
 BTL  SZ EP       2123 10.11                             170     0.410   23 314 
 GIR2 SZ EP   2   2123 10.08                             165     0.2 5   35 346 
 RUS  HZ EP       2123 13.76                             143    -0.110   98 178 
 RUS  HE ES   2   2123 31.67                             143     0.0 5   98 178 
 RUS  HZ I        2123 33.58        16.0 0.14                            98 178 
 GRA  SZ EP   2   2123 15.69                             135    -0.1 5  128  16 
 GRA  SZ ES   2   2123 34.27                             135    -0.8 5  128  16 
 GRA  SZ I        2123 38.25        16.3 0.21                           128  16 
 OCA  SZ EP   2   2123 19.12                             127     0.1 5  163 352 
 OCA  SZ ES   2   2123 41.02                             127     0.0 5  163 352 
 OCA  SZ I        2123 56.25        24.5 0.33                           163 352 
 YOP  SZ EP   2   2123 20.08                             125    -0.1 4  175 154 
 YOP  SZ I        2123 21.22        10.5 0.41                           175 154 
 NOR  SZ EP   2   2123 26.07                             117    -0.3 4  236 236 
 NOR  SE ES   2   2123 54.18                             117     0.1 4  236 236 
 CHI  HZ EP   1   2123 27.77                             116    -0.3 6  247 196 
 CHI  HE ES   2   2123 56.92                             116    -0.1 4  247 196 
 CHI  HZ I        2124  6.87        10.5 0.57                           247 196 
 HEL  HZ EP   2   2123 30.98                             113    -0.1 4  274 257 
 HEL  HE ES   2   2124  2.29                             113    -0.1 4  274 257 
 HEL  HZ I        2124  9.53        11.8 0.49                           274 257 
 DBB  SZ EP   2   2123 38.14                             108    -0.4 3  343 275 
                                                                                
