 2016 1111 2332 47.0 L   6.826 -73.148147.9  RSN  5 0.5 1.9LRSN                1
 GAP=147        1.16      10.0     7.2  8.6 -0.4356E+02  0.5085E+01  0.2070E+02E
 Epicentro: LOS SANTOS - SANTANDER                                             3
 ACTION:UPD 17-10-26 21:07 OP:lp   STATUS:               ID:20161111233247 L   I
 OLDACT:DUP 16-11-12 05:24 OP:dani STATUS:               ID:20161111232749d    3
 OLDACT:UP  16-11-12 05:24 OP:dani STATUS:               ID:20161111232748     3
 OLDACT:UP  16-11-12 05:23 OP:dani STATUS:               ID:20161111232748     3
 OLDACT:UP  16-11-12 05:20 OP:dani STATUS:               ID:20161111232748     3
 OLDACT:REG 16-11-12 04:14 OP:dani STATUS:               ID:20161111232748     3
 2016-11-11-2328-00M.COL___340                                                 6
 STAT SP IPHASW D HRMM SECON CODA AMPLIT PERI AZIMU VELO AIN AR TRES W  DIS CAZ7
 BAR2 EZ EP       2333  6.76                             170   -0.2110 26.1 188 
 BAR2 EZ ES       2333 22.46                             170   -0.0710 26.1 188 
 BAR2 EZ I        2333 27.79        11.0 0.53            167           26.1 188 
 BRR  HZ EP       2333  8.56                             153    0.2510 69.6 297 
 BRR  HE ES       2333 25.50                             153    0.5810 69.6 297 
 BRR  HZ I        2333 28.44        13.3 0.19            157           69.6 297 
 PAM  EZ EP       2333  9.63                             152    0.2810 75.4  41 
 PAM  EN ES       2333 26.53                             152   -0.2310 75.4  41 
 PAM  EZ I        2333 28.47        17.4 0.59            157           75.4  41 
 PTB  HZ EP       2333 13.46                             132   -0.73 9  148 258 
 PTB  HE ES       2333 34.64                             132   -0.74 9  148 258 
 PTB  HZ I        2333 37.12        12.3 0.23            136            148 258 
 NOR  HZ EP       2333 23.44                             119    0.41 8  236 234 
 NOR  HE ES       2333 51.76                             119    0.64 8  236 234 
 NOR  HZ I        2333 54.34         5.5 0.14            122            236 234 
                                                                                
