 2017 1011 2240 11.0 L   6.837 -73.156145.4  RSN  9 0.3 1.5LRSN                1
 GAP=111        0.81       3.2     3.2  5.1  0.1383E+00  0.4453E+01  0.2740E+01E
 Epicentro: LOS SANTOS - SANTANDER                                             3
 ACTION:UPD 17-11-07 19:30 OP:rebc STATUS:               ID:20171011224011 L   I
 OLDACT:REG 17-10-12 02:28 OP:dhb  STATUS:               ID:20171011223744     3
 2017-10-11-2238-00M.COL___435                                                 6
 STAT SP IPHASW D HRMM SECON CODA AMPLIT PERI AZIMU VELO AIN AR TRES W  DIS CAZ7
 BAR2 EZ EP       2240 30.68                             169    0.0510 27.3 186 
 BAR2 EZ ES       2240 46.29                             169    0.3210 27.3 186 
 BAR2 EZ I        2240 48.41        16.1 0.36            161           27.3 186 
 PAM  EZ EP       2240 33.50                             151    0.5110 75.0  42 
 PAM  EN ES       2240 49.94                             151   -0.2410 75.0  42 
 PAM  EZ I        2240 58.12         2.8 0.16            140           75.0  42 
 RUS  HZ EP       2240 34.76                             143   -0.2210  105 176 
 RUS  HN ES       2240 53.49                             143   -0.2210  105 176 
 RUS  HZ I        2240 54.70         8.8 0.24            131            105 176 
 PTB  HZ EP       2240 37.67                             132   -0.20 9  148 257 
 PTB  HN ES       2240 58.29                             132   -0.58 9  148 257 
 PTB  HZ I        2241  5.78         2.3 0.20            126            148 257 
 YPLC HZ EP       2240 41.04                             126   -0.09 9  181 152 
 YPLC HZ I        2241 18.31         2.7 0.13            115            181 152 
 ZAR  HZ EP       2240 42.75                             123   -0.37 9  202 291 
 ZAR  HE ES       2241  8.67                             123    0.47 9  202 291 
 ZAR  HZ I        2241 13.90         3.6 0.22            116            202 291 
 NOR  HE ES       2241 15.07                             118    0.26 8  236 233 
 NOR  HZ I        2241 21.50         2.3 0.24            111            236 233 
 CHI  HZ EP       2240 48.96                             117   -0.08 8  252 195 
 CHI  HE ES       2241 19.18                             117    0.44 8  252 195 
 CHI  HZ I        2241 28.23         1.4 0.38            108            252 195 
 GUY2CHZ EP   1   2240 54.98                             112    0.26 5  303 234 
 GUY2CHE ES   4   2241 32.94                             112    4.09 0  303 234 
 GUY2CHZ I        2241 40.85         1.7 0.42                           303 234 
                                                                                
