 2012  911 2134 13.9 L   6.767 -73.179143.5  RSN  7 0.4 1.9LRSN                1
 GAP=134        0.87       5.3     4.6  6.4  0.7207E+00  0.7952E+01 -0.6550E+00E
 Epicentro: LOS SANTOS - SANTANDER                                             3
 ACTION:UPD 12-10-22 14:18 OP:ep   STATUS:               ID:20120911213413 L   I
 2012-09-11-2130-00M.COL___227                                                 6
 STAT SP IPHASW D HRMM SECON CODA AMPLIT PERI AZIMU VELO AIN AR TRES W  DIS CAZ7
 BAR2 SZ IP       2134 33.28                             172    0.0610 19.3 181 
 BAR2 SZ I        2134 33.41        25.9 0.40                          19.3 181 
 BAR2 SZ ES   1   2134 47.98                             172   -0.28 7 19.3 181 
 GIR2 SZ EP       2134 33.27                             166   -0.1710 34.5 357 
 GIR2 SZ ES   1   2134 48.73                             166    0.09 7 34.5 357 
 BRR  HZ EP       2134 35.13                             152    0.3610 69.9 303 
 BRR  HZ I        2134 35.48        22.4 0.12                          69.9 303 
 BRR  HN ES   1   2134 52.06                             152    1.05 7 69.9 303 
 PAM  SZ EP       2134 36.01                             149   -0.2210 82.6  40 
 PAM  SZ I        2134 36.35        20.0 0.22                          82.6  40 
 PAM  SN ES   1   2134 53.17                             149   -0.45 7 82.6  40 
 RUS  HZ EP   1   2134 37.40                             144    0.17 7 97.3 174 
 RUS  HN ES   1   2134 55.52                             144    0.12 7 97.3 174 
 RUS  HZ I        2134 57.14         6.8 0.30                          97.3 174 
 PTB  HN EP       2134 40.25                             132   -0.08 9  143 260 
 PTB  HN ES   1   2135  0.20                             132   -0.72 7  143 260 
 PTB  HN I        2135  4.02         8.4 0.18                           143 260 
 ZAR  HZ EP       2134 46.28                             122    0.25 9  202 293 
 ZAR  HE ES   1   2135 10.64                             122   -0.42 6  202 293 
 ZAR  HZ I        2135 17.15         8.7 0.34                           202 293 
                                                                                
