 2013  811 2246 50.9 L   6.819 -73.168145.8  RSN  8 0.5 1.8LRSN                1
 GAP=133        1.14       4.0     5.2  7.1 -0.4762E+01  0.1036E+02 -0.1505E+01E
 Epicentro: LOS SANTOS - SANTANDER                                             3
 ACTION:UPD 14-01-14 09:01 OP:ep   STATUS:               ID:20130811224650 L   I
 OLDACT:UP  13-08-11 22:27 OP:cam  STATUS:               ID:20130811223959     3
 OLDACT:REG 13-08-11 21:54 OP:cam  STATUS:               ID:20130811223959     3
 2013-08-11-2239-59M.COL___271                                                 6
 STAT SP IPHASW D HRMM SECON CODA AMPLIT PERI AZIMU VELO AIN AR TRES W  DIS CAZ7
 BAR2 SZ ES       2247 25.77                             170   -0.1210 25.1 184 
 BRR  HZ EP       2247 12.28                             153    0.4310 68.1 298 
 BRR  HN ES       2247 29.15                             153    0.9310 68.1 298 
 BRR  HZ I        2247 29.90         7.7 0.54            150           68.1 298 
 PAM  SZ IP     C 2247 13.31                             151    0.2110 77.4  42 
 PAM  SZ I        2247 13.48        16.1 0.24            151           77.4  42 
 PAM  SN ES       2247 30.29                             151   -0.1410 77.4  42 
 RUS  HZ EP       2247 14.42                             143   -0.3710  103 175 
 RUS  HN ES       2247 33.07                             143   -0.3810  103 175 
 RUS  HZ I        2247 34.58         7.1 0.38            145            103 175 
 PTB  HZ EP       2247 17.61                             132   -0.06 9  146 258 
 PTB  HN ES       2247 37.63                             132   -0.93 9  146 258 
 PTB  HZ I        2247 40.61         7.5 0.26            131            146 258 
 SPBC HZ EP       2247 19.67                             129    0.29 9  163 218 
 SPBC HN ES       2247 41.98                             129    0.36 9  163 218 
 SPBC HZ I        2247 46.26         8.2 0.26            129            163 218 
 NOR  HZ EP   1   2247 27.01                             119    0.49 6  234 234 
 NOR  HN ES       2247 54.34                             119    0.01 8  234 234 
 NOR  HZ I        2247 56.50         3.6 0.18            118            234 234 
 SML  HZ EP   1   2247 26.94                             118   -0.25 6  241 336 
 SML  HN ES       2247 54.99                             118   -0.52 8  241 336 
 SML  HZ I        2248  5.89         7.0 0.26            117            241 336 
                                                                                
