 2016 1211 2231 29.7 L   6.801 -73.148142.0  RSN 13 0.5 2.3LRSN                1
 GAP=101        0.97       3.6     3.1  5.6 -0.3882E+00  0.4094E+01  0.6310E+01E
 Epicentro: LOS SANTOS - SANTANDER                                             3
 ACTION:UPD 17-01-11 20:14 OP:rebc STATUS:               ID:20161211223129 L   I
 OLDACT:UP  16-12-12 05:39 OP:cog  STATUS:               ID:20161211222744d    3
 OLDACT:DUP 16-12-12 05:16 OP:cog  STATUS:               ID:20161211222744d    3
 2016-12-11-2228-00M.COL___390                                                 6
 STAT SP IPHASW D HRMM SECON CODA AMPLIT PERI AZIMU VELO AIN AR TRES W  DIS CAZ7
 BAR2 EZ EP       2231 48.52                             170   -0.3810 23.4 189 
 BAR2 EZ ES       2232  3.75                             170   -0.1110 23.4 189 
 BAR2 EZ I        2232  5.90        51.2 0.24            165           23.4 189 
 BRR  HZ EP       2231 50.32                             152   -0.1210 70.9 299 
 BRR  HE ES       2232  7.48                             152    0.8710 70.9 299 
 BRR  HZ I        2232  8.07        37.0 0.16            150           70.9 299 
 PAM  EZ EP       2231 51.39                             150   -0.1510 77.5  40 
 PAM  EN ES       2232  8.41                             150   -0.1510 77.5  40 
 PAM  EZ I        2232 10.19        35.7 0.18            156           77.5  40 
 RUS  HZ EP       2231 52.61                             143   -0.5010  101 176 
 RUS  HN ES       2232 11.23                             143   -0.1210  101 176 
 RUS  HZ I        2232 13.55        20.5 0.34            141            101 176 
 PTB  HZ EP   3   2231 55.06                             131   -1.30 2  148 259 
 PTB  HN ES   3   2232 15.83                             131   -1.31 2  148 259 
 PTB  HZ I        2232 19.79        31.3 0.14            129            148 259 
 TAM  HZ EP       2231 57.05                             130   -0.08 9  155 105 
 TAM  HE ES       2232 19.07                             130    0.56 9  155 105 
 ZAR  HE ES       2232 27.02                             122    0.04 9  204 292 
 CHI  HZ EP       2232  6.97                             116   -0.24 8  249 195 
 CHI  HE ES       2232 36.64                             116    0.18 8  249 195 
 CHI  HZ I        2232 46.85         8.1 0.48            115            249 195 
 ROSC BZ EP   3   2232  8.69                             116    1.06 2  253 211 
 ROSC BE ES       2232 37.65                             116    0.45 8  253 211 
 GUY2CHZ EP   3   2232 12.14                             112   -1.00 2  301 235 
 GUY2CHN ES       2232 47.24                             112    0.24 7  301 235 
 GUY2CHZ I        2232 57.15        14.3 0.72                           301 235 
 PTGC HN ES   4   2232 45.11                             111   -2.42 0  309 159 
 ELA  HZ EP   3   2232 17.68                             110    1.28 2  329 229 
 ELA  HE ES   4   2232 49.42                             110   -3.38 0  329 229 
 ELA  HZ I        2233  3.91         9.5 0.34            109            329 229 
 CBOC HZ EP       2232 16.85                             109    0.40 7  333 252 
 CBOC HE ES       2232 51.82                             109   -1.09 7  333 252 
 CBOC HZ I        2233  9.55         4.7 0.70            109            333 252 
 ORTC HZ EP       2232 24.28                             106    0.78 6  395 216 
 ORTC HN ES   4   2233  6.61                             106    1.16 0  395 216 
 ORTC HZ I        2233 11.03         6.3 0.40            105            395 216 
                                                                                
