 2013  111 2354 40.4 L   6.787 -73.143149.6  RSN 15 0.4 2.8LRSN                1
 GAP=183        0.89       3.3     4.7  4.8  0.2344E+01  0.5221E+01  0.2906E+01E
 Epicentro: LOS SANTOS - SANTANDER                                             3
 ACTION:UPD 13-02-15 09:13 OP:ep   STATUS:               ID:20130111235440 L   I
 2013-01-11-2350-00M.COL___241                                                 6
 STAT SP IPHASW D HRMM SECON CODA AMPLIT PERI AZIMU VELO AIN AR TRES W  DIS CAZ7
 BAR2 SZ EP       2355  0.33                             172   -0.0910 21.9 192 
 BAR2 SZ ES       2355 16.21                             172    0.1410 21.9 192 
 BAR2 SZ I        2355 18.50       272.1 0.35            170           21.9 192 
 BRR  HZ IP     C 2355  2.40                             153    0.4210 72.2 299 
 BRR  HE ES       2355 19.77                             153    0.9310 72.2 299 
 BRR  HZ I        2355 23.71        85.3 0.21            136           72.2 299 
 RUS  HZ EP     D 2355  4.32                             145   -0.0610 99.1 176 
 RUS  HE ES       2355 22.50                             145   -0.6210 99.1 176 
 RUS  HE I        2355 24.20       127.7 0.31            136           99.1 176 
 PTB  HZ EP   1   2355  7.29                             133   -0.36 7  148 259 
 PTB  HE ES       2355 28.36                             133   -0.57 9  148 259 
 PTB  HZ I        2355 30.49        67.7 0.29            118            148 259 
 OCA  HZ EP   1   2355  8.75                             130   -0.36 7  162 353 
 OCA  HN ES   1   2355 31.33                             130   -0.20 7  162 353 
 OCA  HZ I        2355 35.46        55.3 0.27            115            162 353 
 ZAR  HZ EP   1   2355 12.89                             123   -0.26 6  205 292 
 ZAR  HN ES   1   2355 38.27                             123   -0.45 6  205 292 
 ZAR  HZ I        2355 46.27        43.7 0.16            109            205 292 
 CHI  HZ EP       2355 18.33                             118    0.20 8  247 195 
 CHI  HN ES   1   2355 47.42                             118   -0.17 6  247 195 
 CHI  HZ I        2355 56.06        29.5 0.35            107            247 195 
 ROSC BZ EP   1   2355 18.77                             118    0.20 6  252 211 
 HEL  HZ EP   1   2355 21.07                             116    0.30 6  272 256 
 HEL  HZ I        2355 58.85        25.9 0.32            103            272 256 
 RREF HZ EP   1   2355 26.73                             112    0.14 5  321 230 
 RREF HN ES   1   2356  2.38                             112   -0.27 5  321 230 
 RREF HZ I        2356  9.72        38.0 0.30            101            321 230 
 DBB  SZ EP   1   2355 27.46                             110   -0.59 5  340 274 
 DBB  SZ I        2356  8.61        18.4 0.49             99            340 274 
 TOL  SZ EP       2355 29.10                             110    0.42 7  343 225 
 ANIL HZ EP   1   2355 31.01                             109    0.79 5  357 225 
 ANIL HN ES   1   2356  9.28                             109    0.17 5  357 225 
 SJA  SZ EP   1   2355 35.33                             107    0.44 4  399 193 
 SMAR HZ EP   1   2355 45.99                             103   -0.52 3  499 346 
 SMAR HZ I        2356 37.28        11.9 0.24             91            499 346 
                                                                                
