 2014 1011 2059 14.9 L   6.809 -73.183142.7  RSN  6 0.2 1.6LRSN                1
 GAP=131        0.63       2.8     2.7  5.7 -0.4475E+00  0.2314E+01  0.2100E+01E
 Epicentro: ZAPATOCA - SANTANDER                                               3
 ACTION:UPD 14-11-29 23:48 OP:nd   STATUS:               ID:20141011205914 L   I
 OLDACT:REG 14-10-12 02:49 OP:cam  STATUS:               ID:20141011205820     3
 2014-10-11-2058-20M.COL___289                                                 6
 STAT SP IPHASW D HRMM SECON CODA AMPLIT PERI AZIMU VELO AIN AR TRES W  DIS CAZ7
 BRR  HN ES       2059 51.06                             153   -0.4310 67.1 299 
 PAM  SZ EP       2059 37.02                             150    0.1610 79.4  42 
 PAM  SN ES       2059 54.20                             150    0.1710 79.4  42 
 PAM  SZ I        2059 56.19         9.8 0.56            152           79.4  42 
 RUS  HZ EP       2059 38.07                             143   -0.3310  102 174 
 RUS  HN ES       2059 56.87                             143    0.1010  102 174 
 RUS  HZ I        2059 57.65         5.2 0.30            145            102 174 
 PTB  HZ EP       2059 41.10                             132   -0.12 9  144 258 
 PTB  HN ES       21 0  1.94                             132    0.16 9  144 258 
 PTB  HZ I        21 0  7.23         4.9 0.22            133            144 258 
 SPBC HN ES       21 0  5.03                             129    0.17 9  161 218 
 ZAR  HN ES       21 0 11.67                             122    0.20 9  200 292 
                                                                                
