 2012  611 2132 48.0 L   6.601 -73.237148.4  RSN  5 0.4 1.3LRSN                1
 GAP=160        0.74       7.0     5.5  9.2  0.1247E+02  0.1779E+02 -0.1140E+01E
 Epicentro: CABRERA - SANTANDER                                                3
 ACTION:UPD 12-08-06 17:48 OP:ep   STATUS:               ID:20120611213248 L   I
 2012-06-11-2130-00M.COL___201                                                 6
 STAT SP IPHASW D HRMM SECON CODA AMPLIT PERI AZIMU VELO AIN AR TRES W  DIS CAZ7
 BAR2 SZ EP   1   2133  7.46                             177   -0.24 7 6.10  99 
 BAR2 SZ ES   1   2133 22.62                             177   -0.46 7 6.10  99 
 BAR2 SZ I        2133 24.68         6.7 0.17            178           6.10  99 
 RUS  HZ EP   1   2133 10.62                             150   -0.01 7 80.1 168 
 RUS  HZ I        2133 13.04         2.4 0.22            150           80.1 168 
 RUS  HN ES   1   2133 28.96                             150    0.65 7 80.1 168 
 PTB  HZ EP   1   2133 14.14                             135    0.11 7  135 267 
 PTB  HE ES   1   2133 34.40                             135    0.04 7  135 267 
 PTB  HZ I        2133 37.18         2.8 0.16            135            135 267 
 ZAR  HN ES   1   2133 46.52                             123    0.42 6  204 299 
 NOR  SN ES   1   2133 47.44                             122   -0.52 6  214 238 
                                                                                
