 2010  211 2100 54.3 L   6.796 -73.126143.1  RSN  9 0.5 2.6LRSN                1
 GAP=203        0.87       4.8     8.1  7.3 -0.9717E+00  0.3001E+02  0.1235E+02E
 Epicentro: LOS SANTOS - SANTANDER                                             3
 ACTION:UP  10-08-24 09:48 OP:vdl  STATUS:               ID:20100211210054 L   I
 2010-02-11-2059-15S.COL___094                                                 6
 STAT SP IPHASW D HRMM SECON CODA AMPLIT PERI AZIMU VELO SNR AR TRES W  DIS CAZ7
 BAR2 SZ IP       21 1 13.52                             170    -0.110   23 196 
 BAR2 SZ ES   2   21 1 28.79                             170     0.1 5   23 196 
 GIR2 SZ IP       21 1 13.68                             167     0.010   32 347 
 GIR2 SZ ES       21 1 28.92                             167     0.110   32 347 
 OCA  SZ EP   1   21 1 22.88                             129     0.4 7  161 352 
 OCA  SZ ES   2   21 1 44.21                             129    -0.2 5  161 352 
 OCA  SZ I        21 1 47.95        67.4 0.37                           161 352 
 CHI  HZ IP       21 1 31.69                             117    -0.2 8  249 196 
 CHI  HE ES   1   21 2  0.90                             117    -0.3 6  249 196 
 CHI  HZ I        21 2  9.25        12.5 0.53                           249 196 
 HEL  HZ EP   1   21 1 35.37                             114     0.8 6  274 256 
 RREF BZ EP   2   21 1 41.24                             110     0.8 3  323 230 
 RREF BE ES   2   21 2 17.95                             110     1.4 3  323 230 
 RREF BZ I        21 2 26.75        20.2 0.37                           323 230 
 DBB  SZ IP       21 1 41.83                             109    -0.1 7  342 274 
 DBB  SZ ES   1   21 2 17.88                             109    -1.2 5  342 274 
 TOL  SZ EP   1   21 1 42.99                             109     0.4 5  345 225 
 PRA  HZ EP       21 1 47.17                             106    -0.6 6  393 210 
 PRA  HZ I        21 2 36.71        15.0 0.50                           393 210 
                                                                                
