 2014 1111 2321  8.7 L   6.779 -73.155139.7  RSN 11 0.4 2.0LRSN                1
 GAP=136        1.00       3.2     4.4  5.7 -0.3803E+01  0.4466E+01  0.5083E+01E
 Epicentro: LOS SANTOS - SANTANDER                                             3
 ACTION:UPD 14-12-19 15:42 OP:nd   STATUS:               ID:20141111232108 L   I
 OLDACT:UP  14-11-12 09:46 OP:carl STATUS:               ID:20141111231747     3
 OLDACT:REG 14-11-12 09:26 OP:carl STATUS:               ID:20141111231747     3
 2014-11-11-2317-47M.COL___289                                                 6
 STAT SP IPHASW D HRMM SECON CODA AMPLIT PERI AZIMU VELO AIN AR TRES W  DIS CAZ7
 BAR2 SZ EP       2321 27.66                             171    0.1110 20.9 188 
 BAR2 SZ ES       2321 42.23                             171   -0.0210 20.9 188 
 BAR2 SZ I        2321 43.57        33.4 0.18            170           20.9 188 
 BRR  HZ EP       2321 29.73                             151    0.5310 71.4 301 
 BRR  HN ES       2321 46.07                             151    0.8710 71.4 301 
 BRR  HZ I        2321 50.81        21.2 0.44            146           71.4 301 
 PAM  SZ IP     C 2321 30.44                             149    0.0210 79.8  39 
 PAM  SN ES       2321 47.39                             149    0.0210 79.8  39 
 PAM  SZ I        2321 49.75        18.5 0.60            150           79.8  39 
 RUS  HZ EP       2321 31.61                             143   -0.0810 98.4 175 
 RUS  HE ES       2321 49.45                             143   -0.1810 98.4 175 
 RUS  HZ I        2321 50.82        13.2 0.52            145           98.4 175 
 PTB  HZ EP       2321 34.59                             131   -0.44 9  146 260 
 PTB  HN ES       2321 54.98                             131   -0.60 9  146 260 
 PTB  HZ I        2321 58.53        14.7 0.28            128            146 260 
 SPBC HZ EP       2321 36.37                             128   -0.13 9  161 219 
 SPBC HN ES       2321 58.15                             128   -0.03 9  161 219 
 SPBC HZ I        2322  2.79        13.0 0.22            127            161 219 
 OCA  HN ES       2321 57.82                             128   -0.80 9  162 354 
 OCA  HZ I        2322  1.05        22.2 0.32            126            162 354 
 NOR  HZ EP       2321 44.39                             117    0.55 8  232 235 
 NOR  HN ES       2322 11.26                             117    0.01 8  232 235 
 NOR  HZ I        2322 13.53         6.8 0.14            116            232 235 
 CHI  HZ EP       2321 45.97                             116    0.18 8  246 195 
 CHI  HN ES       2322 14.36                             116   -0.36 8  246 195 
 CHI  HZ I        2322 21.38         3.2 0.32            116            246 195 
 MON  HZ EP   4   2321 55.48                             107   -2.05 0  354 309 
 MON  HN ES   4   2322 34.30                             107   -1.32 0  354 309 
 MON  HZ I        2322 55.50         2.1 0.58            106            354 309 
 PRA  HZ EP       2322  2.20                             106    0.49 6  389 210 
 PRA  HN ES       2322 43.11                             106    0.04 6  389 210 
 PRA  HZ I        2322 49.47         5.4 0.38            105            389 210 
                                                                                
