 2011 1211 2232 42.3 L   6.766 -73.097146.0  RSN  6 0.3 1.7LRSN                1
 GAP=144        0.42       3.3     3.9  5.1 -0.1180E+01 -0.2068E+01  0.4694E+01E
 Epicentro: LOS SANTOS - SANTANDER                                             3
 ACTION:UPD 12-07-13 16:15 OP:ep   STATUS:               ID:20111211223242 L   I
 2011-12-11-2230-00M.COL___186                                                 6
 STAT SP IPHASW D HRMM SECON CODA AMPLIT PERI AZIMU VELO AIN AR TRES W  DIS CAZ7
 BAR2 SZ ES   3   2233 16.73                             171   -0.47 2 21.4 206 
 BAR2 SZ I        2233 19.22         7.1 0.22                          21.4 206 
 GIR2 SZ EP       2233  1.90                             165   -0.2210 36.2 343 
 GIR2 SZ ES   3   2233 17.15                             165   -0.45 2 36.2 343 
 PAM  SZ EP       2233  4.61                             151    0.1010 77.1  35 
 PAM  SN ES   1   2233 21.82                             151   -0.02 7 77.1  35 
 BRR  HZ EP       2233  3.87                             150    0.0310 77.8 299 
 BRR  HZ I        2233  4.17        11.5 0.34                          77.8 299 
 BRR  HN ES   1   2233 20.89                             150    0.24 7 77.8 299 
 RUS  HZ EP       2233  5.82                             145    0.0510 96.6 179 
 RUS  HE ES   2   2233 24.18                             145    0.09 5 96.6 179 
 PTB  HN ES   3   2233 30.07                             131   -1.00 2  152 261 
                                                                                
