 2016 1211 2229  4.5 L   6.818 -73.133143.4  RSN 14 0.6 2.2LRSN                1
 GAP= 73        1.16       4.1     3.5  5.8 -0.6435E+00  0.6445E+01  0.3840E+01E
 Epicentro: LOS SANTOS - SANTANDER                                             3
 ACTION:UPD 17-01-11 20:14 OP:rebc STATUS:               ID:20161211222904 L   I
 OLDACT:UP  16-12-12 05:30 OP:cog  STATUS:               ID:20161211222743     3
 OLDACT:UP  16-12-12 05:29 OP:cog  STATUS:               ID:20161211222743     3
 OLDACT:UP  16-12-12 05:23 OP:cog  STATUS:               ID:20161211222743     3
 OLDACT:REG 16-12-12 04:38 OP:cog  STATUS:               ID:20161211222743     3
 2016-12-11-2228-00M.COL___390                                                 6
 STAT SP IPHASW D HRMM SECON CODA AMPLIT PERI AZIMU VELO AIN AR TRES W  DIS CAZ7
 BAR2 EZ EP       2229 23.85                             169   -0.0810 25.5 192 
 BAR2 HN ES       2229 38.16                             169   -0.9010 25.5 192 
 BAR2 EZ I        2229 39.93        41.3 0.16            171           25.5 192 
 BRR  HZ EP       2229 25.96                             152    0.5110 71.6 297 
 BRR  HN ES       2229 42.65                             152    0.8810 71.6 297 
 BRR  HZ I        2229 47.04        21.9 0.13            151           71.6 297 
 PAM  EZ EP       2229 26.79                             151    0.4310 74.9  40 
 PAM  EE ES       2229 43.73                             151    0.3610 74.9  40 
 PAM  EZ I        2229 46.01        65.4 0.64            153           74.9  40 
 RUS  HZ EP       2229 27.90                             143   -0.2910  102 177 
 RUS  HN ES       2229 46.19                             143   -0.4610  102 177 
 RUS  HZ I        2229 47.59        24.8 0.26            146            102 177 
 PTB  HZ EP       2229 30.93                             131   -0.55 9  150 258 
 PTB  HE ES       2229 52.51                             131    0.02 9  150 258 
 PTB  HZ I        2229 54.93        21.4 0.16            132            150 258 
 TAM  HZ EP       2229 32.22                             130    0.27 9  154 106 
 TAM  HN ES       2229 53.15                             130   -0.18 9  154 106 
 ZAR  HZ EP       2229 36.85                             122   -0.04 9  205 291 
 ZAR  HE ES   4   2230  3.17                             122    1.04 0  205 291 
 ZAR  HZ I        2230  7.96        26.1 0.34            123            205 291 
 CHI  HZ EP       2229 42.26                             116   -0.09 8  251 195 
 CHI  HN ES       2230 11.56                             116   -0.29 8  251 195 
 CHI  HZ I        2230 15.72         5.8 0.48            119            251 195 
 ROSC BZ EP   3   2229 44.17                             116    1.38 2  255 211 
 ROSC BN ES   3   2230 13.88                             116    1.24 2  255 211 
 URE  HE ES   4   2230 14.80                             113   -2.76 0  284 291 
 GUY2CHZ EP       2229 48.79                             112    0.49 7  304 235 
 GUY2CHN ES       2230 22.95                             112    0.52 7  304 235 
 ELA  HZ EP   4   2229 50.92                             110   -0.64 0  332 229 
 ELA  HN ES   4   2230 27.05                             110   -1.19 0  332 229 
 CBOC HZ EP   3   2229 52.40                             109    0.82 2  336 252 
 CBOC HN ES       2230 28.83                             109    0.55 7  336 252 
 DBB  EZ EP       2229 51.91                             109   -0.16 7  341 274 
 DBB  EN ES       2230 28.12                             109   -1.02 7  341 274 
 ANIL HN ES   4   2230 31.95                             108   -1.58 0  360 224 
 ORTC HZ EP       2229 58.35                             106   -0.31 6  398 216 
 ORTC HE ES       2230 41.81                             106    0.93 6  398 216 
 SJC  HZ EP       2229 58.70                             105   -1.22 6  408 327 
 SJC  HN ES   4   2230 40.30                             105   -2.82 0  408 327 
                                                                                
