 2011  611 2132 36.3 L   6.783 -73.108143.0  RSN 11 0.3 2.2LRSN                1
 GAP=142        0.79       3.9     5.5  6.0 -0.1022E+02  0.6158E+01  0.5876E+01E
 Epicentro: LOS SANTOS - SANTANDER                                             3
 ACTION:UP  11-07-14 19:04 OP:ep   STATUS:               ID:20110611213236 L   I
 2011-06-11-2128-15S.COL___133                                                 6
 STAT SP IPHASW D HRMM SECON CODA AMPLIT PERI AZIMU VELO SNR AR TRES W  DIS CAZ7
 BTL  SZ EP       2132 56.38                             170     0.710   23 310 
 BAR2 SZ EP       2132 55.62                             171     0.010   23 201 
 BAR2 SZ I        2133 12.29        34.5 0.14                            23 201 
 BRR  HN ES   1   2133 13.95                             150     0.0 7   76 298 
 PAM  SN ES       2133 15.21                             151     0.010   76  36 
 BRR  HZ EP       2132 57.39                             150    -0.110   76 298 
 PAM  SZ EP       2132 58.28                             151     0.110   76  36 
 BRR  HZ I        2133 17.70        54.3 0.20                            76 298 
 PAM  SZ I        2132 58.63        14.7 0.17                            76  36 
 RUS  HZ EP       2132 59.38                             144    -0.310   98 178 
 RUS  HZ I        2133  0.90        20.3 0.11                            98 178 
 RUS  HN ES   1   2133 17.78                             144    -0.1 7   98 178 
 BRI  SZ EP       2132 59.94                             141    -0.110  109  18 
 BRI  SZ I        2133 23.59        14.1 0.31                           109  18 
 GRA  SZ EP       2133  1.17                             136    -0.210  126  15 
 GRA  SZ ES   1   2133 20.78                             136    -0.2 7  126  15 
 GRA  SZ I        2133 26.63        15.7 0.31                           126  15 
 NOR  SZ EP       2133 11.87                             118    -0.3 8  237 235 
 NOR  SE ES   1   2133 39.86                             118    -0.2 6  237 235 
 CHI  HZ EP   1   2133 13.98                             117     0.2 6  248 196 
 CHI  HZ I        2133 51.31         7.3 0.41                           248 196 
 TOL  SZ EP       2133 24.72                             109     0.1 7  345 225 
 PRA  HZ EP       2133 30.29                             106     0.5 6  392 210 
 PRA  HZ I        2134 18.61        27.2 0.25                           392 210 
                                                                                
