 2015  611 2347 50.3 L   6.798 -73.135145.0  RSN  6 0.4 1.6LRSN                1
 GAP=138        0.94       4.2     5.2  7.3  0.6323E+01  0.5138E+01 -0.4075E+01E
 Epicentro: LOS SANTOS - SANTANDER                                             3
 ACTION:UPD 15-09-10 22:11 OP:cam  STATUS:               ID:20150611234750 L   I
 OLDACT:UP  15-06-18 07:46 OP:AK   STATUS:               ID:20150611234750 L   3
 OLDACT:REG 15-06-12 03:55 OP:ar   STATUS:               ID:20150611233746     3
 2015-06-11-2337-46M.COL___306                                                 6
 STAT SP IPHASW D HRMM SECON CODA AMPLIT PERI AZIMU VELO AIN AR TRES W  DIS CAZ7
 BAR2 EZ EP       2348  9.84                             170    0.0410 23.4 193 
 BAR2 EZ ES       2348 24.52                             170   -0.5210 23.4 193 
 BAR2 EZ I        2348 27.39         7.1 0.34            171           23.4 193 
 BRR  HZ EP       2348 11.72                             152    0.3310 72.3 298 
 BRR  HN ES       2348 28.52                             152    0.6410 72.3 298 
 BRR  HZ I        2348 29.34         7.0 0.14            154           72.3 298 
 PAM  SZ EP       2348 12.59                             151    0.2310 76.8  39 
 PAM  SN ES       2348 29.63                             151    0.0410 76.8  39 
 PAM  SZ I        2348 31.59        10.9 0.44            152           76.8  39 
 RUS  HZ EP       2348 13.86                             144   -0.0610  100 177 
 RUS  HN ES       2348 32.25                             144   -0.1210  100 177 
 RUS  HZ I        2348 33.57         6.4 0.40            146            100 177 
 ZAR  HN ES       2348 47.93                             122   -0.21 8  205 292 
 SML  HE ES       2348 54.82                             117   -0.69 8  244 335 
                                                                                
