 2017  711 2252 43.1 L   6.683 -73.193151.3  RSN  4 0.2 1.5LRSN                1
 GAP=224        0.54       6.2     3.9  4.9  0.8996E+01  0.4731E+01  0.2436E+01E
 Epicentro: VILLANUEVA - SANTANDER                                             3
 ACTION:UPD 17-08-30 15:32 OP:rebc STATUS:               ID:20170711225243 L   I
 OLDACT:UP  17-07-12 08:00 OP:dani STATUS:               ID:20170711224719     3
 OLDACT:REG 17-07-12 04:51 OP:dani STATUS:               ID:20170711224719     3
 2017-07-11-2248-00M.COL___377                                                 6
 STAT SP IPHASW D HRMM SECON CODA AMPLIT PERI AZIMU VELO AIN AR TRES W  DIS CAZ7
 BAR2 EZ EP       2253  2.92                             176   -0.2410 10.1 173 
 BAR2 EZ ES       2253 18.78                             176   -0.0710 10.1 173 
 BRR  HZ EP       2253  5.18                             152    0.2210 74.0 309 
 BRR  HN ES       2253 22.21                             152    0.1610 74.0 309 
 BRR  HZ I        2253 29.66         6.7 0.24            151           74.0 309 
 PTB  HZ EP       2253 10.00                             135    0.15 9  141 264 
 PTB  HN ES       2253 30.77                             135    0.03 9  141 264 
 PTB  HZ I        2253 38.02         4.0 0.44            136            141 264 
 ZAR  HE ES       2253 41.23                             123   -0.31 9  205 296 
                                                                                
