 2015  511 2232 32.6 L   6.829 -73.166140.0  RSN  7 0.4 1.9LRSN                1
 GAP=133        0.93       3.5     5.2  6.7 -0.5230E+01  0.1532E+02  0.7703E-01E
 Epicentro: LOS SANTOS - SANTANDER                                             3
 ACTION:UPD 15-09-10 22:03 OP:cam  STATUS:               ID:20150511223232 L   I
 OLDACT:REG 15-05-12 03:11 OP:ar   STATUS:               ID:20150511222748     3
 2015-05-11-2227-48M.COL___285                                                 6
 STAT SP IPHASW D HRMM SECON CODA AMPLIT PERI AZIMU VELO AIN AR TRES W  DIS CAZ7
 BRR  HZ EP   2   2232 53.11                             153    0.17 5 67.7 297 
 BRR  HN ES       2233  9.15                             153    0.3510 67.7 297 
 PAM  SZ EP       2232 54.05                             150   -0.1110 76.4  42 
 PAM  SZ I        2232 54.30        13.7 0.18            145           76.4  42 
 PAM  SN ES       2233 11.20                             150    0.2310 76.4  42 
 RUS  HN ES       2233 14.03                             142   -0.3110  104 175 
 RUS  HZ I        2233 15.92         9.7 0.32            130            104 175 
 SPBC HZ EP       2233  0.71                             128   -0.08 9  164 218 
 SPBC HZ I        2233 29.60        11.6 0.24            117            164 218 
 NOR  HZ EP       2233  7.82                             117   -0.20 8  235 233 
 NOR  HE ES       2233 35.69                             117    0.05 8  235 233 
 NOR  HZ I        2233 40.80         4.9 0.26            108            235 233 
 SML  HZ EP       2233  8.44                             117   -0.06 8  240 335 
 SML  HN ES       2233 35.91                             117   -0.58 8  240 335 
 SML  HZ I        2233 41.58         6.1 0.24            109            240 335 
 GUY2CHZ EP       2233 17.17                             111    1.20 7  301 234 
 GUY2CHN ES       2233 49.31                             111   -0.47 7  301 234 
 GUY2CHZ I        2233 57.47         3.1 0.52                           301 234 
                                                                                
