 2017  811 2017 27.8 L   6.818 -73.144143.0  RSN  7 0.4 1.7LRSN                1
 GAP=136        0.71       3.1     3.2  5.3 -0.9199E+00  0.5692E+01  0.1927E+01E
 Epicentro: LOS SANTOS - SANTANDER                                             3
 ACTION:UPD 17-09-04 20:19 OP:rebc STATUS:               ID:20170811201727 L   I
 OLDACT:DUP 17-08-12 04:35 OP:osc  STATUS:               ID:20170811200749d    3
 2017-08-11-2008-00M.COL___417                                                 6
 STAT SP IPHASW D HRMM SECON CODA AMPLIT PERI AZIMU VELO AIN AR TRES W  DIS CAZ7
 BAR2 EZ EP       2017 47.03                             169   -0.1110 25.3 190 
 BAR2 EZ ES       2018  2.43                             169    0.2110 25.3 190 
 BAR2 EZ I        2018  4.05        11.5 0.30            171           25.3 190 
 BRR  HZ EP       2017 48.59                             152   -0.0210 70.4 297 
 BRR  HN ES       2018  4.57                             152   -0.2610 70.4 297 
 PAM  EZ EP       2017 49.64                             151    0.0110 75.7  40 
 PAM  EN ES       2018  6.58                             151   -0.0610 75.7  40 
 PAM  EZ I        2018  7.67         8.7 0.26            152           75.7  40 
 RUS  HZ EP       2017 51.31                             143   -0.1210  103 176 
 RUS  HN ES       2018 10.06                             143    0.2110  103 176 
 ZAR  HZ EP   2   2018  1.36                             122    1.35 4  203 292 
 ZAR  HN ES       2018 25.31                             122    0.18 9  203 292 
 ZAR  HZ I        2018 27.88         5.8 0.10            122            203 292 
 NOR  HN ES       2018 30.84                             118   -0.53 8  236 234 
 GUY2CHZ EP   3   2018  9.93                             112   -1.50 2  302 234 
 GUY2CHN ES       2018 45.77                             112    0.31 7  302 234 
                                                                                
