 2017  911 2040 29.2 L   6.760 -73.079150.2  RSN  7 0.4 1.7LRSN                1
 GAP=147        0.98       4.3     5.1  6.6 -0.1352E+01  0.7909E+01  0.3753E+01E
 Epicentro: LOS SANTOS - SANTANDER                                             3
 ACTION:UPD 17-10-05 19:11 OP:rebc STATUS:               ID:20170911204029 L   I
 OLDACT:DUP 17-09-12 03:26 OP:dani STATUS:               ID:20170911203750d    3
 OLDACT:REG 17-09-12 02:29 OP:dani STATUS:               ID:20170911203749     3
 2017-09-11-2038-00M.COL___431                                                 6
 STAT SP IPHASW D HRMM SECON CODA AMPLIT PERI AZIMU VELO AIN AR TRES W  DIS CAZ7
 BAR2 EZ EP       2040 49.25                             171   -0.0610 21.8 212 
 BAR2 EZ ES       2041  4.84                             171   -0.1810 21.8 212 
 BAR2 EZ I        2041  7.44        11.2 0.28            163           21.8 212 
 PAM  EZ EP       2040 52.12                             152    0.3110 76.6  33 
 PAM  EN ES       2041  9.15                             152   -0.3310 76.6  33 
 PAM  EZ I        2041  9.76         6.4 0.36            149           76.6  33 
 BRR  HZ EP       2040 51.26                             150   -0.0410 79.8 299 
 BRR  HN ES       2041  9.39                             150    0.8310 79.8 299 
 BRR  HZ I        2041 11.04        15.5 0.36            140           79.8 299 
 RUS  HZ EP       2040 53.07                             146    0.0310 95.9 180 
 RUS  HN ES       2041 11.38                             146   -0.2810 95.9 180 
 RUS  HZ I        2041 12.63         4.7 0.22            136           95.9 180 
 SPBC HZ EP       2040 58.16                             130    0.01 9  165 222 
 SPBC HN ES       2041 20.91                             130    0.16 9  165 222 
 SPBC HZ I        2041 27.17         8.8 0.17            119            165 222 
 ZAR  HN ES       2041 28.17                             122   -0.83 8  213 293 
 NOR  HZ EP       2041  5.78                             119    0.24 8  238 236 
 NOR  HZ I        2041 39.52         5.3 0.15            110            238 236 
                                                                                
