 2014  211 2202 38.5 L   6.457 -73.726 91.3  RSN 13 0.5 2.5LRSN                1
 GAP= 58        1.18       2.7     2.9  6.8 -0.6459E+00  0.5578E+01 -0.5592E+00E
 Epicentro: SANTA HELENA DEL OPON - SANTANDER                                  3
 ACTION:UPD 14-03-10 08:09 OP:ep   STATUS:               ID:20140211220238 L   I
 OLDACT:REG 14-02-12 01:24 OP:nd   STATUS:               ID:20140211220000     3
 2014-02-11-2200-00M.COL___199                                                 6
 STAT SP IPHASW D HRMM SECON CODA AMPLIT PERI AZIMU VELO AIN AR TRES W  DIS CAZ7
 BAR2 SZ EP       22 2 54.15                             143    0.4210 61.9  76 
 BAR2 SZ ES       22 3  5.86                             143    0.2510 61.9  76 
 BAR2 SZ I        22 3  7.57       458.1 0.54            143           61.9  76 
 PTB  HZ EP       22 2 54.35                             135   -0.6310 81.3 276 
 PTB  HN ES       22 3  7.28                             135   -0.5710 81.3 276 
 PTB  HZ I        22 3  8.33       156.0 0.10            133           81.3 276 
 RUS  HZ EP       22 2 56.54                             131   -0.3010 94.6 131 
 RUS  HN ES       22 3 11.14                             131   -0.0010 94.6 131 
 RUS  HZ I        22 3 13.18        43.4 0.28            129           94.6 131 
 SPBC HZ EP       22 2 56.17                             130   -0.3410 96.9 203 
 SPBC HN ES       22 3 10.45                             130   -0.1210 96.9 203 
 SPBC HZ I        22 3 14.37        87.4 0.32            127           96.9 203 
 PAM  SZ EP       22 3  2.50                             117    0.01 9  150  49 
 PAM  SN ES       22 3 21.05                             117   -0.16 9  150  49 
 PAM  SZ I        22 3 23.17        28.3 0.22            117            150  49 
 NOR  HZ EP       22 3  2.57                             115   -0.58 9  161 232 
 NOR  HN ES   2   22 3 22.16                             115   -0.22 5  161 232 
 NOR  HZ I        22 3 24.51        77.1 0.20            113            161 232 
 ZAR  HZ EP       22 3  4.56                             114    0.46 9  170 313 
 ZAR  HN ES       22 3 25.50                             114    1.42 9  170 313 
 ZAR  HZ I        22 3 27.06        47.6 0.46            113            170 313 
 HEL  HZ EP       22 3  8.21                             110   -0.02 9  202 262 
 HEL  HN ES       22 3 31.70                             110    0.27 9  202 262 
 HEL  HZ I        22 3 35.32        18.9 0.38            109            202 262 
 CHI  HZ EP       22 3  8.44                             110    0.10 9  202 180 
 CHI  HN ES       22 3 32.53                             110    0.91 9  202 180 
 CHI  HZ I        22 3 39.19         8.9 0.30            108            202 180 
 URE  HZ EP   4   22 3 10.40                             106   -2.57 0  246 306 
 URE  HN ES   4   22 3 38.41                             106   -1.45 0  246 306 
 URE  HZ I        22 3 41.09        23.7 0.30            105            246 306 
 SML  HZ EP       22 3 14.86                             105   -0.03 8  262 352 
 SML  HN ES       22 3 42.47                             105   -0.82 8  262 352 
 SML  HZ I        22 3 49.90        17.9 0.28            104            262 352 
 ANIL BZ EP   4   22 3 18.89                             103    0.76 0  286 221 
 ANIL BN ES   4   22 3 51.05                             103    2.00 0  286 221 
 ORTC HZ EP       22 3 22.97                             101    0.05 7  328 211 
 ORTC HN ES   2   22 3 57.53                             101   -0.05 3  328 211 
 ORTC HZ I        22 4  4.79        12.6 0.42            101            328 211 
 PRA  HZ EP       22 3 22.75                             101   -0.32 7  329 203 
 PRA  HN ES       22 3 58.14                             101    0.30 7  329 203 
 PRA  HZ I        22 4  6.85        11.8 0.38            100            329 203 
                                                                                
