 2010 1111 2336 25.9 L   6.828 -73.084137.2  RSN  4 0.2 1.0LRSN                1
 GAP=165        0.48       4.1     6.6  9.3 -0.1292E+02 -0.3700E+02  0.2101E+02E
 Epicentro: LOS SANTOS - SANTANDER                                             3
 ACTION:UP  10-12-17 16:51 OP:REBC STATUS:               ID:20101111233625 L   I
 2010-11-11-2333-14S.COL___129                                                 6
 STAT SP IPHASW D HRMM SECON CODA AMPLIT PERI AZIMU VELO SNR AR TRES W  DIS CAZ7
 BTL  SZ EP       2336 44.59                             170     0.110   23 296 
 BRR  HZ EP       2336 46.18                             149    -0.210   76 294 
 BRR  HE ES   1   2337  2.54                             149     0.1 7   76 294 
 RUS  HZ EP       2336 48.97                             141     0.010  103 180 
 RUS  HZ I        2336 49.77         1.8 0.17                           103 180 
 GRA  SZ EP       2336 50.11                             136     0.210  121  15 
 GRA  SZ ES   1   2337  8.51                             136    -0.2 7  121  15 
                                                                                
