 2011  211 2114  3.5 L   6.787 -73.211133.1  RSN  7 0.3 1.8LRSN                1
 GAP=152        0.71       4.2     9.5  9.6 -0.2081E+02  0.4641E+02 -0.1058E+02E
 Epicentro: ZAPATOCA - SANTANDER                                               3
 ACTION:UP  11-03-28 15:07 OP:jfem STATUS:               ID:20110211211403 L   I
 2011-02-11-2109-54S.COL___136                                                 6
 STAT SP IPHASW D HRMM SECON CODA AMPLIT PERI AZIMU VELO SNR AR TRES W  DIS CAZ7
 BTL  SZ EP       2114 20.97                             173    -0.510   16 337 
 BAR2 SZ ES   2   2114 35.27                             170    -0.4 5   22 172 
 BAR2 SZ I        2114 37.96        20.2 0.34                            22 172 
 RUS  HZ EP   1   2114 25.91                             141     0.0 7  100 172 
 RUS  HN ES   1   2114 43.80                             141     0.3 7  100 172 
 RUS  HZ I        2114 46.30         9.3 0.37                           100 172 
 GRA  SZ EP   1   2114 28.36                             133     0.4 7  129  20 
 GRA  SZ ES   1   2114 47.25                             133     0.2 7  129  20 
 GRA  SZ I        2114 50.67        12.5 0.23                           129  20 
 NOR  SZ EP   2   2114 37.88                             116     0.1 4  228 234 
 NOR  SE ES   2   2115  5.25                             116     0.7 4  228 234 
 CHI  HZ EP   2   2114 40.16                             114     0.0 4  245 194 
 CHI  HE ES   2   2115  8.61                             114    -0.1 4  245 194 
 CHI  HZ I        2115 13.62         4.2 0.73                           245 194 
 DBB  SZ EP   2   2114 49.47                             107    -0.2 3  332 275 
                                                                                
