 2017 1111 2239 32.1 L   6.355 -73.350129.9  RSN 19 0.7 2.0LRSN                1
 GAP= 52        1.56       3.5     3.5  7.1 -0.1474E+01  0.5946E+01  0.2947E+01E
 Epicentro: CHIMA - SANTANDER                                                  3
 ACTION:UPD 17-12-12 19:54 OP:rebc STATUS:               ID:20171111223932 L   I
 OLDACT:REG 17-11-12 02:51 OP:dhb  STATUS:               ID:20171111223738     3
 2017-11-11-2238-00M.COL___456                                                 6
 STAT SP IPHASW D HRMM SECON CODA AMPLIT PERI AZIMU VELO AIN AR TRES W  DIS CAZ7
 BAR2 EZ EP       2239 49.77                             165   -0.2910 32.1  35 
 BAR2 EZ ES       2240  3.82                             165   -0.2510 32.1  35 
 BAR2 EZ I        2240 13.23        20.0 0.34            166           32.1  35 
 RUS  HZ EP       2239 51.54                             154   -0.0310 59.1 150 
 RUS  HN ES       2240  6.75                             154   -0.0110 59.1 150 
 RUS  HZ I        2240  7.96        13.8 0.26            157           59.1 150 
 BRR  HZ EP       2239 53.04                             142    0.0410 92.2 334 
 BRR  HN ES       2240 10.08                             142    0.7810 92.2 334 
 BRR  HZ I        2240 16.00        17.1 0.20            145           92.2 334 
 SPBC HZ EP       2239 53.92                             137   -0.7310  112 226 
 SPBC HN ES       2240 11.95                             137   -0.2910  112 226 
 SPBC HZ I        2240 17.46        38.7 0.76            140            112 226 
 PTB  HZ IP     C 2239 54.29                             133   -1.3410  124 280 
 PTB  HN ES       2240 13.83                             133   -0.1510  124 280 
 PTB  HZ I        2240 15.30        15.0 0.44            136            124 280 
 PAM  EN ES       2240 16.09                             132   -0.0610  130  33 
 YPLC HZ IP     D 2239 58.04                             128   -0.17 9  151 135 
 YPLC HE ES       2240 19.50                             128    0.93 9  151 135 
 YPLC HZ I        2240 21.84        13.5 0.22            131            151 135 
 TAM  HZ IP     C 2240  0.40                             123    0.07 9  173  87 
 TAM  HN ES       2240 22.26                             123   -0.09 9  173  87 
 TAM  HZ I        2240 33.68        22.1 0.32            126            173  87 
 TABC EZ EP       2240  1.85                             123    0.61 9  176 213 
 TABC EZ ES       2240 24.15                             123    0.19 9  176 213 
 TABC EZ I        2240 31.36        11.2 0.22            126            176 213 
 NOR  HZ EP       2240  1.09                             121   -1.00 9  190 243 
 NOR  HE ES       2240 25.30                             121   -0.18 9  190 243 
 NOR  HZ I        2240 29.55        18.0 0.32            124            190 243 
 CHI  HZ EP       2240  2.87                             120   -0.31 9  195 193 
 CHI  HE ES       2240 27.32                             120   -0.09 9  195 193 
 CHI  HZ I        2240 32.36         5.6 0.24            123            195 193 
 ZAR  HZ EP       2240  3.63                             118   -0.44 8  209 307 
 ZAR  HE ES       2240 28.90                             118   -0.10 8  209 307 
 ZAR  HZ I        2240 33.77        15.7 0.32            121            209 307 
 GUY2CHZ EP       2240  9.96                             113    0.11 8  256 241 
 GUY2CHN ES       2240 41.33                             113    2.03 8  256 241 
 GUY2CHZ I        2240 45.73        10.0 0.46                           256 241 
 ELA  HZ EP       2240 14.77                             111    2.01 7  281 234 
 ELA  HN ES       2240 45.02                             111    0.54 7  281 234 
 ELA  HZ I        2240 54.89         4.9 0.42            113            281 234 
 CBOC HZ EP       2240 14.17                             109   -0.29 7  300 260 
 CBOC HE ES       2240 47.81                             109    0.31 7  300 260 
 DRL03HZ EP       2240 18.92                             107    0.45 7  336 358 
 DRL03HE ES       2240 55.46                             107    0.83 7  336 358 
 PRA  HZ EP       2240 18.08                             107   -0.69 7  338 210 
 PRA  HE ES       2240 54.10                             107   -1.07 7  338 210 
 PRA  HZ I        2240 59.09         7.5 0.22            109            338 210 
 DRL02HZ EP   9   2240 24.53                             105    1.61 0  374   1 
 DRL02HE ES       2241  4.29                                    0.12 6  374   1 
 SJC  HZ EP   9   2240 28.83                             102   -2.08 0  440 333 
 SJC  HE ES       2241 14.27                                   -0.43 5  440 333 
 SJC  HZ I        2241 31.73         1.7 0.48            104            440 333 
                                                                                
