 2015  811 2128 28.5 L   6.840 -73.231140.9  RSN  5 0.2 1.9LRSN                1
 GAP=122        0.65       3.5     3.6  5.7 -0.2971E+01  0.5535E+01  0.2919E+01E
 Epicentro: ZAPATOCA - SANTANDER                                               3
 ACTION:UPD 15-09-15 23:01 OP:cam  STATUS:               ID:20150811212828 L   I
 OLDACT:REG 15-08-12 02:51 OP:drio STATUS:               ID:20150811211750     3
 2015-08-11-2117-50M.COL___316                                                 6
 STAT SP IPHASW D HRMM SECON CODA AMPLIT PERI AZIMU VELO AIN AR TRES W  DIS CAZ7
 BAR2 EZ EP       2128 47.76                             168    0.0910 27.9 169 
 BAR2 EZ ES       2129  2.75                             168    0.1410 27.9 169 
 BAR2 EZ I        2129  4.13        25.2 0.18            168           27.9 169 
 PAM  EZ EP       2128 50.61                             149    0.1910 80.6  47 
 PAM  EE ES       2129  7.39                             149   -0.1110 80.6  47 
 PAM  EZ I        2129 10.25        10.2 0.62            154           80.6  47 
 RUS  HZ EP       2128 51.73                             141   -0.4810  106 171 
 RUS  HN ES   4   2129  8.87                             141   -1.82 0  106 171 
 RUS  HZ I        2129 11.54        11.6 0.28            144            106 171 
 SPBC HZ EP       2128 56.81                             128    0.37 9  161 215 
 SPBC HN ES       2129 18.18                             128   -0.04 9  161 215 
 SPBC HZ I        2129 25.98        14.4 0.22            130            161 215 
 ZAR  HE ES       2129 23.66                             123   -0.14 9  194 292 
 ZAR  HZ I        2129 27.90         6.5 0.26            124            194 292 
                                                                                
