 2013  711 2041 37.0 L   6.792 -73.166144.6  RSN 11 0.4 2.2LRSN                1
 GAP=110        0.89       3.7     3.6  5.7  0.3144E+01  0.5286E+01  0.2137E+00E
 Epicentro: LOS SANTOS - SANTANDER                                             3
 ACTION:UPD 13-08-12 10:37 OP:ep   STATUS:               ID:20130711204137 L   I
 OLDACT:REG 13-07-11 21:21 OP:jn   STATUS:               ID:20130711203959     3
 2013-07-11-2039-59M.COL___266                                                 6
 STAT SP IPHASW D HRMM SECON CODA AMPLIT PERI AZIMU VELO AIN AR TRES W  DIS CAZ7
 BAR2 SZ EP     D 2041 56.34                             171   -0.1510 22.1 185 
 BAR2 SZ ES       2042 11.93                             171    0.2710 22.1 185 
 BAR2 SZ I        2042 12.77        33.7 0.14            163           22.1 185 
 GIR2 SZ EP       2041 56.35                             167   -0.2210 31.9 355 
 BRR  HZ EP     C 2041 58.11                             153    0.1610 69.6 300 
 BRR  HN ES       2042 14.81                             153    0.5310 69.6 300 
 BRR  HZ I        2042 18.08        39.3 0.34            143           69.6 300 
 RUS  HZ EP     C 2042  0.41                             144   -0.1910 99.9 175 
 RUS  HN ES       2042 18.87                             144   -0.1310 99.9 175 
 RUS  HZ I        2042 20.33         9.6 0.34            135           99.9 175 
 PTB  HZ EP       2042  3.21                             132   -0.46 9  145 259 
 PTB  HN ES       2042 23.74                             132   -0.72 9  145 259 
 PTB  HZ I        2042 29.07        22.8 0.10            122            145 259 
 TAM  HE ES   1   2042 26.37                             130   -0.08 7  157 104 
 ZAR  HZ EP       2042  8.99                             122   -0.22 9  202 293 
 ZAR  HE ES       2042 34.20                             122   -0.11 9  202 293 
 ZAR  HZ I        2042 40.07        30.8 0.70            114            202 293 
 NOR  HZ EP       2042 12.80                             119    0.37 8  232 234 
 NOR  HN ES       2042 40.19                             119    0.15 8  232 234 
 NOR  HZ I        2042 46.71        13.9 0.14            110            232 234 
 SML  HE ES   1   2042 42.61                             117    0.54 6  244 336 
 CHI  HN ES   1   2042 44.38                             117    0.66 6  247 195 
 CHI  HZ I        2042 49.32         7.5 0.36            109            247 195 
 HEL  HZ EP   1   2042 17.75                             115    0.85 6  270 256 
 HEL  HZ I        2042 56.05         8.4 0.52            107            270 256 
                                                                                
