 2010 1111 2301 14.1 L   6.802 -73.076140.4  RSN  5 0.2 1.5LRSN                1
 GAP=172        0.61       5.0    10.1  9.2  0.2018E+02 -0.5419E+02 -0.1589E+02E
 Epicentro: LOS SANTOS - SANTANDER                                             3
 ACTION:UP  10-12-17 16:51 OP:REBC STATUS:               ID:20101111230114 L   I
 2010-11-11-2259-27S.COL___129                                                 6
 STAT SP IPHASW D HRMM SECON CODA AMPLIT PERI AZIMU VELO SNR AR TRES W  DIS CAZ7
 BTL  SZ EP       23 1 33.51                             170     0.410   25 301 
 BAR2 SZ ES   2   23 1 47.72                             170    -0.3 5   26 207 
 BRR  HZ EP       23 1 34.82                             150    -0.310   78 296 
 BRR  HZ I        23 1 49.37        10.0 0.47                            78 296 
 BRR  HN ES   1   23 1 51.60                             150     0.1 7   78 296 
 RUS  HZ EP       23 1 37.30                             143    -0.110  101 180 
 RUS  HN ES   2   23 1 55.53                             143     0.1 5  101 180 
 RUS  HZ I        23 1 56.88         4.0 0.61                           101 180 
 GUE  SZ EP       23 1 38.20                             139     0.010  115   8 
                                                                                
