 2012  911 2100 34.9 L   6.752 -73.171150.3  RSN  6 0.1 1.8LRSN                1
 GAP=178        0.32       3.3     5.3  5.8  0.9218E+01 -0.2497E+01 -0.6527E+01E
 Epicentro: VILLANUEVA - SANTANDER                                             3
 ACTION:UPD 12-10-22 14:18 OP:ep   STATUS:               ID:20120911210034 L   I
 2012-09-11-2100-00M.COL___227                                                 6
 STAT SP IPHASW D HRMM SECON CODA AMPLIT PERI AZIMU VELO AIN AR TRES W  DIS CAZ7
 BAR2 SZ EP       21 0 54.85                             173   -0.1610 17.7 184 
 BAR2 SZ I        21 1 10.99        11.3 0.38                          17.7 184 
 GIR2 SZ EP       21 0 55.26                             166   -0.0310 36.2 356 
 GIR2 SZ ES   3   21 1 11.26                             166    0.10 2 36.2 356 
 BRR  HZ EP       21 0 56.72                             153    0.1210 71.5 303 
 BRR  HN ES   3   21 1 13.68                             153    0.19 2 71.5 303 
 BRR  HN I        21 1 15.04        26.8 0.26                          71.5 303 
 RUS  HZ EP       21 0 58.86                             146    0.0810 95.5 174 
 RUS  HN ES   1   21 1 17.39                             146    0.01 7 95.5 174 
 PTB  HZ EP   3   21 1  2.01                             134    0.06 2  144 261 
 PTB  HN ES   3   21 1 22.75                             134   -0.27 2  144 261 
 PTB  HN I        21 1 29.05         5.5 0.40                           144 261 
 ZAR  HN ES   3   21 1 32.68                             123   -0.45 2  204 294 
                                                                                
