 2010  611 2257 19.6 L   7.093 -73.375  0.6  RSN  5 0.4 1.1LRSN                1
 GAP=225        0.45       5.2    12.0  7.3 -0.5373E+02  0.6889E+02 -0.2970E+02E
 Epicentro: LEBRIJA - SANTANDER                                                3
 ACTION:UP  10-08-24 10:09 OP:vdl  STATUS:               ID:20100611225719 L   I
 2010-06-11-2255-05S.COL___117                                                 6
 STAT SP IPHASW D HRMM SECON CODA AMPLIT PERI AZIMU VELO SNR AR TRES W  DIS CAZ7
 GIR2 SZ EP   2   2257 23.60                              96    -0.2 5   20  94 
 BAR2 SZ EP   3   2257 29.15                              47    -0.8 2   59 159 
 GUE  SZ EP   3   2257 35.00                              47    -0.5 2   96  31 
 GUE  SZ ES   3   2257 47.58                              47    -0.3 2   96  31 
 GRA  SZ ES   2   2257 51.10                              47     0.2 5  108  36 
 RUS  HZ EP   1   2257 42.16                              47     0.3 7  137 166 
 RUS  HZ I        2257 43.42         3.0 0.20                           137 166 
 RUS  HN ES   3   2257 58.82                              47    -0.5 2  137 166 
                                                                                
