 2014 1211 2006 57.4 L   6.827 -73.160142.3  RSN 16 0.6 2.8LRSN                1
 GAP=133        1.43       3.4     4.9  6.7 -0.3682E+01  0.1048E+02  0.2520E+01E
 Epicentro: LOS SANTOS - SANTANDER                                             3
 ACTION:UPD 15-02-10 17:02 OP:nd   STATUS:               ID:20141211200657 L   I
 OLDACT:REG 14-12-12 08:33 OP:carl STATUS:               ID:20141211195746     3
 2014-12-11-1957-46M.COL___300                                                 6
 STAT SP IPHASW D HRMM SECON CODA AMPLIT PERI AZIMU VELO AIN AR TRES W  DIS CAZ7
 BAR2 EZ EP       20 7 16.77                             169    0.1210 26.1 185 
 BAR2 EZ ES       20 7 31.48                             169   -0.2010 26.1 185 
 BAR2 EZ I        20 7 32.94       153.8 0.56            168           26.1 185 
 BRR  HZ EP       20 7 18.55                             153    0.5610 68.4 297 
 BRR  HN ES       20 7 34.97                             153    0.9010 68.4 297 
 BRR  HZ I        20 7 38.57       114.7 0.32            150           68.4 297 
 PAM  SZ IP     C 20 7 19.53                             151    0.3810 76.2  42 
 PAM  SN ES       20 7 36.28                             151    0.1410 76.2  42 
 PAM  SZ I        20 7 38.56       152.2 0.48            156           76.2  42 
 RUS  HZ EP       20 7 20.80                             142   -0.2210  104 175 
 RUS  HN ES       20 7 39.57                             142    0.1110  104 175 
 RUS  HZ I        20 7 41.09       106.9 0.30            145            104 175 
 PTB  HZ EP       20 7 23.25                             131   -0.72 9  147 258 
 PTB  HN ES       20 7 43.33                             131   -1.39 9  147 258 
 PTB  HZ I        20 7 49.71        83.7 0.38            131            147 258 
 TAM  HZ EP   4   20 7 25.13                             129    0.13 0  157 106 
 OCA  HZ EP       20 7 24.37                             129   -0.75 9  157 354 
 OCA  HN ES       20 7 46.61                             129   -0.15 9  157 354 
 OCA  HZ I        20 7 53.44        42.8 0.20            132            157 354 
 SPBC HZ EP       20 7 25.76                             128    0.02 9  164 218 
 SPBC HN ES       20 7 47.68                             128   -0.18 9  164 218 
 SPBC HZ I        20 7 56.42        86.4 0.36            129            164 218 
 ZAR  HZ EP       20 7 30.49                             122    1.17 9  201 292 
 ZAR  HN ES       20 7 55.30                             122    1.06 9  201 292 
 ZAR  HZ I        20 8  0.80        62.4 0.32            123            201 292 
 NOR  HZ EP       20 7 32.68                             118   -0.27 8  235 234 
 NOR  HN ES       20 7 59.98                             118   -0.72 8  235 234 
 NOR  HZ I        20 8  6.85        50.2 0.16            119            235 234 
 SML  HZ EP       20 7 32.76                             117   -0.68 8  240 335 
 SML  HE ES       20 8  0.79                             117   -0.78 8  240 335 
 SML  HZ I        20 8  7.84        50.6 0.26            119            240 335 
 CHI  HZ EP       20 7 35.09                             116   -0.06 8  251 195 
 CHI  HN ES       20 8  4.15                             116   -0.47 8  251 195 
 CHI  HZ I        20 8  9.00        15.7 0.62            118            251 195 
 ROSC BZ EP   4   20 7 37.24                             116    1.74 0  254 210 
 ROSC BE ES   4   20 8  8.03                             116    2.80 0  254 210 
 HEL  HZ EP       20 7 37.31                             114   -0.01 8  271 255 
 HEL  HN ES       20 8  8.32                             114   -0.16 8  271 255 
 HEL  HZ I        20 8 15.49        29.5 0.48            115            271 255 
 URE  HZ EP   4   20 7 37.56                             113   -0.42 0  281 291 
 URE  HE ES   4   20 8  7.71                             113   -1.95 0  281 291 
 GUY2CHZ EP       20 7 40.79                             112   -0.08 7  302 234 
 GUY2CHN ES       20 8 14.57                             112   -0.22 7  302 234 
 GUY2CHZ I        20 8 21.93        26.9 0.30                           302 234 
 RREF HZ EP       20 7 44.25                             110    0.80 7  322 229 
 RREF HN ES       20 8 19.30                             110   -0.09 7  322 229 
 RREF HZ I        20 8 25.87        33.1 0.28            112            322 229 
 TOL  SZ EP       20 7 46.16                             109    0.55 7  344 224 
 TOL  SE ES       20 8 24.74                             109    1.51 7  344 224 
 TOL  SZ I        20 8 27.95        42.2 0.48            110            344 224 
 ORTC HZ EP       20 7 51.64                             106    0.29 6  397 216 
 ORTC HN ES       20 8 33.88                             106    0.44 6  397 216 
 ORTC HZ I        20 8 42.28        17.5 0.68            107            397 216 
 SJC  HZ EP   4   20 7 50.88                             105   -1.54 0  406 327 
 SJC  HN ES   4   20 8 32.32                             105   -3.05 0  406 327 
                                                                                
