 2012  411 2315 51.4 L   6.415 -73.023118.5  RSN  3 0.1 1.6LRSN                1
 GAP=256        0.30      27.7     8.3 25.1 -0.2114E+03 -0.1854E+03  0.6680E+03E
 Epicentro: MOGOTES - SANTANDER                                                3
 ACTION:UP  12-07-05 11:52 OP:tino STATUS:               ID:20120411231551 L   I
 2012-04-11-2310-00M.COL___180                                                 6
 STAT SP IPHASW D HRMM SECON CODA AMPLIT PERI AZIMU VELO AIN AR TRES W  DIS CAZ7
 BRR  HZ EP       2316 12.56                             135     0.010  108 315 
 PAM  SZ EP       2316 13.29                             135     0.010  108  19 
 PAM  SN ES   2   2316 30.23                             135    -0.1 5  108  19 
 BRR  HZ I        2316 17.54         8.2 0.38                           108 315 
 BRR  HN ES   2   2316 29.04                             135     0.0 5  108 315 
 PTB  HZ EP   3   2316 17.23                             123    -0.3 2  159 275 
 PTB  HN ES   3   2316 38.00                             123     0.2 2  159 275 
                                                                                
