 2014  211 2250 26.9 L   6.848 -73.154134.0  RSN  4 0.4 1.3LRSN                1
 GAP=201        0.77       3.6     6.1  8.9  0.9253E+01 -0.4867E+01 -0.7824E+01E
 Epicentro: LOS SANTOS - SANTANDER                                             3
 ACTION:UPD 14-03-10 08:09 OP:ep   STATUS:               ID:20140211225026 L   I
 OLDACT:REG 14-02-12 01:26 OP:nd   STATUS:               ID:20140211225000     3
 2014-02-11-2250-00M.COL___199                                                 6
 STAT SP IPHASW D HRMM SECON CODA AMPLIT PERI AZIMU VELO AIN AR TRES W  DIS CAZ7
 RUS  HZ EP       2250 49.87                             140   -0.0810  106 176 
 RUS  HN ES       2251  7.95                             140    0.0410  106 176 
 RUS  HZ I        2251  9.73         1.5 0.40            140            106 176 
 PTB  HZ EP       2250 52.69                             129   -0.29 9  148 257 
 PTB  HN ES       2251 13.32                             129    0.01 9  148 257 
 PTB  HZ I        2251 18.90         3.6 0.18            128            148 257 
 SML  HZ EP   2   2251  3.50                             116    1.15 4  239 335 
 SML  HN ES       2251 30.07                             116    0.08 8  239 335 
 SML  HZ I        2251 34.48         3.5 0.10            116            239 335 
 CHI  HZ EP       2251  4.05                             114   -0.49 8  253 195 
 CHI  HN ES       2251 34.44                             114    0.56 8  253 195 
 CHI  HZ I        2251 41.19         1.1 0.54            115            253 195 
                                                                                
