 2011  111 2213  6.0 L   6.760 -73.115155.3  RSN  6 0.4 1.7LRSN                1
 GAP=162        0.62       8.6    11.6 11.5 -0.5584E+02  0.5919E+02 -0.4648E+02E
 Epicentro: LOS SANTOS - SANTANDER                                             3
 ACTION:UP  11-02-08 08:40 OP:pat  STATUS:               ID:20110111221306 L   I
 2011-01-11-2210-42S.COL___136                                                 6
 STAT SP IPHASW D HRMM SECON CODA AMPLIT PERI AZIMU VELO SNR AR TRES W  DIS CAZ7
 BAR2 SZ EP   2   2213 26.56                             172    -0.2 5   20 202 
 BAR2 SZ I        2213 27.42        10.6 0.22                            20 202 
 BAR2 SZ ES   2   2213 43.36                             172     0.5 5   20 202 
 BTL  SZ EP       2213 26.88                             171     0.110   24 316 
 GIR2 SZ EP   2   2213 26.88                             166    -0.1 5   36 346 
 RUS  HZ EP   2   2213 30.86                             147     0.5 5   96 178 
 RUS  HN ES   2   2213 48.83                             147    -0.6 5   96 178 
 RUS  HZ I        2213 50.94         6.8 0.30                            96 178 
 GRA  SZ EP   2   2213 31.85                             138    -0.5 5  129  15 
 NOR  SZ EP   2   2213 42.84                             120     0.5 4  235 236 
 NOR  SN ES   2   2214 10.20                             120    -0.5 4  235 236 
                                                                                
