 2017 1111 2014 34.1 L   6.673 -74.072  4.0  RSN  7 0.4 1.4LRSN                1
 GAP=108        0.75       2.0     1.5  4.0 -0.4490E-01  0.6727E+00  0.1301E+01E
 Epicentro: PUERTO PARRA - SANTANDER                                           3
 ACTION:UPD 17-12-12 19:54 OP:rebc STATUS:               ID:20171111201434 L   I
 OLDACT:DUP 17-11-12 03:14 OP:dhb  STATUS:               ID:20171111200739d    3
 OLDACT:REG 17-11-12 02:28 OP:dhb  STATUS:               ID:20171111200738     3
 2017-11-11-2008-00M.COL___453                                                 6
 STAT SP IPHASW D HRMM SECON CODA AMPLIT PERI AZIMU VELO AIN AR TRES W  DIS CAZ7
 PTB  HZ IP     D 2014 41.36                              47   -0.1910 45.0 251 
 PTB  HN ES       2014 47.44                              47    0.1010 45.0 251 
 PTB  HZ I        2014 53.10         7.3 0.22             96           45.0 251 
 ZAR  HZ EP       2014 53.53                              47   -0.2010  125 316 
 ZAR  HE ES       2015  8.88                              47   -0.1510  125 316 
 ZAR  HZ I        2015 11.00         9.8 0.30             92            125 316 
 RUS  HZ EP       2014 56.32                              47   -0.02 9  139 128 
 RUS  HN ES       2015 13.27                              47   -0.40 9  139 128 
 RUS  HZ I        2015 16.36        11.2 0.20             92            139 128 
 NOR  HZ EP       2014 57.81                              47    0.14 9  151 216 
 NOR  HZ I        2015 18.43         3.3 0.12             92            151 216 
 PAM  EZ EP       2015  1.02                              47    0.26 9  169  64 
 PAM  EN ES       2015 21.73                              47    0.19 9  169  64 
 PAM  EZ I        2015 24.33         8.0 0.30             92            169  64 
 GUY2CHZ EP   2   2015  8.39                              37    1.58 4  215 222 
 GUY2CHE ES       2015 32.05                              37   -0.26 8  215 222 
 GUY2CHZ I        2015 35.59         2.7 0.38                           215 222 
 ELA  HZ EP   4   2015 14.10                              37    3.01 0  249 216 
 ELA  HN ES       2015 40.26                              37    0.33 8  249 216 
 ELA  HZ I        2015 46.13         3.0 0.62             56            249 216 
                                                                                
