 2011 1211 2341 27.3 L   6.780 -73.155146.8  RSN  7 0.4 1.6LRSN                1
 GAP=136        0.74       4.6     5.2  7.5 -0.2093E+01  0.4805E+01  0.6595E+01E
 Epicentro: LOS SANTOS - SANTANDER                                             3
 ACTION:UPD 12-07-13 16:15 OP:ep   STATUS:               ID:20111211234127 L   I
 2011-12-11-2340-00M.COL___186                                                 6
 STAT SP IPHASW D HRMM SECON CODA AMPLIT PERI AZIMU VELO AIN AR TRES W  DIS CAZ7
 BAR2 SZ EP       2341 46.95                             171   -0.0210 21.0 188 
 BAR2 SZ I        2341 47.06         7.2 0.40                          21.0 188 
 GIR2 SZ EP       2341 47.24                             167    0.1310 33.3 353 
 BRR  HZ EP       2341 48.73                             153    0.2010 71.4 300 
 BRR  HE ES   1   2342  5.64                             153    0.52 7 71.4 300 
 BRR  HZ I        2342  9.42        15.5 0.18                          71.4 300 
 PAM  SZ EP       2341 49.71                             150   -0.0110 79.7  39 
 PAM  SN ES   1   2342  6.62                             150   -0.62 7 79.7  39 
 RUS  HZ EP       2341 51.15                             144    0.1910 98.5 175 
 RUS  HN ES   1   2342  9.52                             144    0.08 7 98.5 175 
 RUS  HZ I        2342 11.19         3.4 0.28                          98.5 175 
 PTB  HZ EP       2341 53.69                             133   -0.49 9  146 260 
 PTB  HN ES   2   2342 14.68                             133   -0.50 5  146 260 
 PTB  HZ I        2342 17.55         5.1 0.10                           146 260 
 CHI  HZ EP   2   2342  5.39                             118    0.63 4  246 195 
 CHI  HN ES   3   2342 32.89                             118   -1.11 2  246 195 
                                                                                
