 2015  311 2316 28.1 L   6.801 -73.162152.9  RSN  8 0.4 2.2LRSN                1
 GAP=134        1.11       4.0     5.1  6.6 -0.4720E+01  0.8909E+01 -0.2126E+01E
 Epicentro: LOS SANTOS - SANTANDER                                             3
 ACTION:UPD 15-04-30 16:25 OP:nd   STATUS:               ID:20150311231628 L   I
 OLDACT:REG 15-03-12 10:41 OP:y    STATUS:               ID:20150311230748     3
 2015-03-11-2307-48M.COL___284                                                 6
 STAT SP IPHASW D HRMM SECON CODA AMPLIT PERI AZIMU VELO AIN AR TRES W  DIS CAZ7
 BAR2 EZ EP       2316 48.69                             171    0.0710 23.2 185 
 BAR2 EZ ES       2317  3.98                             171   -0.6310 23.2 185 
 BAR2 EZ I        2317  5.21        55.6 0.16            171           23.2 185 
 BRR  HZ EP       2316 50.58                             154    0.6110 69.5 299 
 BRR  HN ES       2317  7.81                             154    0.8110 69.5 299 
 PAM  SZ EP       2316 51.55                             152    0.3710 78.5  41 
 PAM  SN ES       2317  9.01                             152   -0.1410 78.5  41 
 PAM  SZ I        2317 10.98        13.4 0.48            153           78.5  41 
 RUS  HZ EP       2316 52.72                             145    0.1110  101 175 
 RUS  HE ES       2317 11.46                             145   -0.2510  101 175 
 RUS  HZ I        2317 12.36        17.0 0.22            146            101 175 
 PTB  HZ EP       2316 54.95                             134   -0.59 9  146 259 
 PTB  HN ES       2317 16.72                             134   -0.19 9  146 259 
 PTB  HZ I        2317 18.56        22.3 0.38            133            146 259 
 SPBC HZ EP       2316 57.60                             131    0.51 9  162 218 
 SPBC HN ES       2317 19.72                             131    0.04 9  162 218 
 SPBC HZ I        2317 22.31        37.9 0.36            131            162 218 
 NOR  HZ EP       2317  3.60                             120   -0.54 8  233 234 
 NOR  HN ES       2317 32.44                             120    0.22 8  233 234 
 NOR  HZ I        2317 39.11         9.3 0.14            120            233 234 
 SML  HZ EP       2317  4.89                             119   -0.19 8  243 336 
 SML  HN ES       2317 33.27                             119   -0.62 8  243 336 
 SML  HZ I        2317 39.07        13.5 0.30            119            243 336 
                                                                                
