 2017 1111 2010  6.1 L   6.835 -73.138137.4  RSN  5 0.3 1.2LRSN                1
 GAP=136        0.78       4.5     7.5  7.2 -0.1149E+02  0.2872E+02 -0.7076E+01E
 Epicentro: LOS SANTOS - SANTANDER                                             3
 ACTION:UPD 17-12-12 19:54 OP:rebc STATUS:               ID:20171111201006 L   I
 OLDACT:REG 17-11-12 02:28 OP:dhb  STATUS:               ID:20171111200738     3
 2017-11-11-2008-00M.COL___453                                                 6
 STAT SP IPHASW D HRMM SECON CODA AMPLIT PERI AZIMU VELO AIN AR TRES W  DIS CAZ7
 BAR2 EZ EP       2010 24.68                             168   -0.0910 27.3 190 
 BAR2 EZ ES       2010 39.59                             168    0.2210 27.3 190 
 BAR2 EZ I        2010 44.79         4.0 0.09            142           27.3 190 
 BRR  HZ EP       2010 26.44                             151    0.2010 70.2 295 
 PAM  EZ IP     C 2010 27.68                             150    0.5110 73.9  41 
 PAM  EN ES       2010 43.20                             150   -0.4410 73.9  41 
 PAM  EZ I        2010 46.82         3.5 0.50            143           73.9  41 
 RUS  HZ EP       2010 29.06                             141   -0.2210  104 177 
 RUS  HN ES       2010 47.44                             141    0.0510  104 177 
 RUS  HZ I        2010 48.67         3.7 0.30            135            104 177 
 PTB  HZ EP       2010 32.23                             130   -0.27 9  149 257 
 PTB  HZ I        2010 59.55         1.1 0.48            114            149 257 
                                                                                
