 2012  411 2216  8.5 L   6.727 -73.121140.0  RSN  5 0.3 1.9LRSN                1
 GAP=170        0.73       9.5     5.7  8.5 -0.8208E+01  0.3655E+01  0.1867E+02E
 Epicentro: JORDAN - SANTANDER                                                 3
 ACTION:UPD 12-07-05 11:52 OP:tino STATUS:               ID:20120411221608 L   I
 2012-04-11-2210-00M.COL___180                                                 6
 STAT SP IPHASW D HRMM SECON CODA AMPLIT PERI AZIMU VELO AIN AR TRES W  DIS CAZ7
 BAR2 SZ EP       2216 27.56                             173     0.310   16 204 
 BAR2 SZ ES   2   2216 41.81                             173    -0.2 5   16 204 
 BAR2 SZ I        2216 44.40        14.9 0.26                            16 204 
 BRR  HZ EP       2216 29.53                             150     0.110   78 303 
 BRR  HZ I        2216 32.35        20.0 0.36                            78 303 
 BRR  HN ES   1   2216 46.16                             150     0.5 7   78 303 
 PAM  SZ EP       2216 30.37                             149     0.010   82  35 
 PAM  SN ES   2   2216 46.74                             149    -0.7 5   82  35 
 PTB  HZ EP       2216 34.72                             131    -0.4 9  149 262 
 PTB  HN ES   3   2216 55.36                             131    -0.5 2  149 262 
 PTB  HZ I        2216 58.47         9.2 0.26                           149 262 
 ZAR  HZ EP   3   2216 40.76                             121    -0.4 2  210 294 
 ZAR  HN ES   2   2217  6.38                             121    -0.2 4  210 294 
 ZAR  HZ I        2217 14.03         7.5 0.22                           210 294 
                                                                                
