 2014  111 2034 58.5 L   6.794 -73.161142.7  RSN  8 0.4 1.6LRSN                1
 GAP=135        0.91       4.1     5.3  6.9 -0.3322E+01  0.1500E+02 -0.3615E+00E
 Epicentro: LOS SANTOS - SANTANDER                                             3
 ACTION:UPD 14-03-13 09:54 OP:ep   STATUS:               ID:20140111203458 L   I
 OLDACT:REG 14-01-11 23:51 OP:mh   STATUS:               ID:20140111203000     3
 2014-01-11-2030-00M.COL___285                                                 6
 STAT SP IPHASW D HRMM SECON CODA AMPLIT PERI AZIMU VELO AIN AR TRES W  DIS CAZ7
 BAR2 SZ EP   1   2035 18.41                             171    0.64 7 22.4 186 
 BAR2 SZ ES       2035 32.52                             171           22.4 186 
 BAR2 SZ IS       2035 32.52                             171   -0.2610 22.4 186 
 BAR2 SZ I        2035 34.07        16.8 0.25            171           22.4 186 
 BRR  HZ EP   1   2035 19.91                             152    0.64 7 70.0 300 
 BRR  HN ES   1   2035 36.21                             152    0.75 7 70.0 300 
 BRR  HZ I        2035 41.31         7.2 0.09            151           70.0 300 
 PAM  SZ EP   1   2035 20.76                             150    0.25 7 79.0  40 
 PAM  SN ES       2035 37.62                             150   -0.0510 79.0  40 
 PAM  SZ I        2035 39.31         5.1 0.22            154           79.0  40 
 RUS  HZ EP   1   2035 21.91                             143   -0.02 7  100 175 
 RUS  HN ES   1   2035 39.62                             143   -0.58 7  100 175 
 RUS  HZ I        2035 41.26         4.1 0.28            147            100 175 
 PTB  HZ EP   1   2035 25.03                             132   -0.04 7  146 259 
 PTB  HN ES   1   2035 45.56                             132   -0.23 7  146 259 
 PTB  HZ I        2035 48.75         6.9 0.18            133            146 259 
 NOR  HZ EP   1   2035 33.93                             118    0.05 6  233 234 
 NOR  HN ES   1   2036  1.71                             118    0.25 6  233 234 
 NOR  HZ I        2036  4.28         3.5 0.13            120            233 234 
 SML  HE ES       2036  2.62                             117   -0.77 8  244 336 
 GUY2CHZ EP   1   2035 41.36                             112   -0.42 5  299 235 
                                                                                
