 2013  411 2158 37.3 L   6.780 -73.186151.3  RSN  7 0.3 2.0LRSN                1
 GAP=175        0.65       3.2     5.5  5.1  0.4201E+01  0.6276E+01  0.9676E+00E
 Epicentro: LOS SANTOS - SANTANDER                                             3
 ACTION:UPD 13-05-22 14:37 OP:EP   STATUS:               ID:20130411215837 L   I
 2013-04-11-2150-00M.COL___245                                                 6
 STAT SP IPHASW D HRMM SECON CODA AMPLIT PERI AZIMU VELO AIN AR TRES W  DIS CAZ7
 BAR2 SZ EP   2   2158 57.25                             172   -0.30 5 20.8 179 
 BAR2 SZ ES   1   2159 12.90                             172   -0.45 7 20.8 179 
 BAR2 SZ I        2159 14.33        38.6 0.36            168           20.8 179 
 GIR2 SZ EP   1   2158 57.59                             167   -0.08 7 33.0 359 
 GIR2 SZ ES   1   2159 14.04                             167    0.47 7 33.0 359 
 GIR2 SZ I        2159 15.72        14.5 0.70            164           33.0 359 
 BRR  HZ EP   1   2158 59.39                             154    0.49 7 68.4 302 
 BRR  HN ES   2   2159 16.37                             154    0.62 5 68.4 302 
 RUS  HZ EP       2159  1.38                             145   -0.0910 98.8 173 
 RUS  HE ES   1   2159 20.25                             145   -0.09 7 98.8 173 
 RUS  HZ I        2159 22.55        11.1 0.24            147           98.8 173 
 PTB  HZ EP       2159  4.09                             134   -0.21 9  143 259 
 PTB  HN ES   1   2159 25.29                             134   -0.07 7  143 259 
 PTB  HZ I        2159 32.99        19.1 0.44            131            143 259 
 SML  HZ EP   1   2159 14.38                             119    0.13 6  244 336 
 SML  HN ES   1   2159 42.55                             119   -0.53 6  244 336 
 SML  HZ I        2159 49.75        19.0 0.10            119            244 336 
 CHI  HZ EP   1   2159 15.50                             119    0.54 6  245 194 
 CHI  HN ES   1   2159 44.30                             119   -0.04 6  245 194 
 CHI  HZ I        2159 47.48         2.8 0.30            120            245 194 
                                                                                
