 2014  911 2033 53.7 L   6.735 -73.205156.5  RSN  6 0.5 1.4LRSN                1
 GAP=194        0.90       6.9     6.8 10.9  0.1886E+02 -0.6059E+00 -0.2963E+02E
 Epicentro: VILLANUEVA - SANTANDER                                             3
 ACTION:UPD 14-10-03 23:04 OP:nd   STATUS:               ID:20140911203353 L   I
 OLDACT:REG 14-09-12 04:10 OP:fm   STATUS:               ID:20140911202819     3
 2014-09-11-2028-19M.COL___290                                                 6
 STAT SP IPHASW D HRMM SECON CODA AMPLIT PERI AZIMU VELO AIN AR TRES W  DIS CAZ7
 BAR2 SZ EP   1   2034 14.73                             174    0.25 8 16.0 171 
 BAR2 SZ ES   1   2034 30.84                             174    0.13 8 16.0 171 
 BAR2 SZ I        2034 35.16         3.0 0.22            171           16.0 171 
 RUS  HZ EP   1   2034 18.77                             148    0.71 8 94.2 172 
 RUS  HN ES   1   2034 36.54                             148   -0.55 8 94.2 172 
 RUS  HZ I        2034 38.64         1.4 0.20            152           94.2 172 
 PTB  HZ EP   1   2034 20.06                             136   -0.81 7  140 261 
 PTB  HN ES       2034 42.12                             136    0.0310  140 261 
 PTB  HZ I        2034 50.26         3.8 0.54            136            140 261 
 ZAR  HE ES   1   2034 52.68                             125    0.54 7  201 295 
 ZAR  HZ I        2034 59.66         4.5 0.38            127            201 295 
 SML  HZ EP   2   2034 31.31                             119   -0.03 4  248 337 
 SML  HN ES   1   2035  0.30                             119   -0.42 6  248 337 
 GUY2CHZ EP   4   2034 39.85                             115    3.10 0  292 235 
 GUY2CHN ES   4   2035 15.98                             115    5.64 0  292 235 
 GUY2CHZ I        2035 21.67         1.3 0.44                           292 235 
                                                                                
