 2013  611 2036 47.0 L   6.823 -73.111144.7  RSN 10 0.4 1.9LRSN                1
 GAP=196        0.90       3.2     4.5  5.4  0.2272E+01  0.4678E+01  0.2345E+00E
 Epicentro: LOS SANTOS - SANTANDER                                             3
 ACTION:UPD 14-01-08 09:54 OP:ep   STATUS:               ID:20130611203647 L   I
 OLDACT:REG 13-06-11 21:31 OP:nd   STATUS:               ID:20130611202959     3
 2013-06-11-2029-59M.COL___261                                                 6
 STAT SP IPHASW D HRMM SECON CODA AMPLIT PERI AZIMU VELO AIN AR TRES W  DIS CAZ7
 BAR2 SZ EP       2037  6.62                             169    0.0510 26.7 197 
 BAR2 SZ ES       2037 21.82                             169   -0.0110 26.7 197 
 BAR2 SZ I        2037 22.95        13.2 0.28            168           26.7 197 
 GIR2 SZ EP       2037  6.50                             168    0.0010 29.7 342 
 GIR2 SZ ES   2   2037 21.24                             168   -0.47 5 29.7 342 
 GIR2 SZ I        2037 23.33         5.3 0.18            162           29.7 342 
 BRR  HZ IP     C 2037  8.65                             152    0.4910 73.5 295 
 BRR  HN ES       2037 25.09                             152    0.4310 73.5 295 
 BRR  HZ I        2037 34.52        13.4 0.26            147           73.5 295 
 RUS  HZ EP       2037 10.58                             143   -0.2310  103 178 
 RUS  HN ES       2037 29.42                             143    0.0410  103 178 
 RUS  HZ I        2037 32.36         4.1 0.28            147            103 178 
 PTB  HZ EP   2   2037 13.76                             131   -0.50 5  152 258 
 PTB  HN ES       2037 34.60                             131   -0.93 9  152 258 
 PTB  HZ I        2037 41.85        17.2 0.40            130            152 258 
 ZAR  HZ EP   4   2037 21.09                             122    1.45 0  207 291 
 ZAR  HN ES       2037 45.38                             122    0.27 8  207 291 
 ZAR  HZ I        2037 50.63        13.9 0.46            121            207 291 
 NOR  HZ EP       2037 23.18                             118    0.03 8  239 235 
 NOR  HN ES       2037 51.64                             118    0.28 8  239 235 
 NOR  HZ I        2037 56.75         9.6 0.14            119            239 235 
 SML  HZ EP       2037 22.89                             117   -0.60 8  243 334 
 SML  HN ES       2037 51.98                             117    0.03 8  243 334 
 SML  HZ I        2038  5.07        12.9 0.10            118            243 334 
 GUY2CHZ EP   4   2037 32.77                             112    1.70 0  306 235 
 GUY2CHN ES   4   2038  8.05                             112    2.60 0  306 235 
 GUY2CHZ I        2038 15.46         4.2 0.50                           306 235 
 PRA  HZ EP       2037 41.67                             106    0.72 6  396 210 
 PRA  HN ES       2038 22.97                             106   -0.08 6  396 210 
 PRA  HZ I        2038 26.26         4.0 0.52            108            396 210 
                                                                                
