 2010  411 2211  5.3 L   6.803 -73.066141.3  RSN  5 0.4 2.0LRSN                1
 GAP=219        0.62       5.2     8.4  7.5 -0.1307E+02  0.1113E+02  0.4903E+01E
 Epicentro: LOS SANTOS - SANTANDER                                             3
 ACTION:UPD 10-08-24 09:58 OP:vdl  STATUS:               ID:20100411221105 L   I
 2010-04-11-2209-40S.COL___097                                                 6
 STAT SP IPHASW D HRMM SECON CODA AMPLIT PERI AZIMU VELO AIN AR TRES W  DIS CAZ7
 BAR2 SZ EP   1   2211 24.42                             169    -0.1 7   27 209 
 BAR2 SZ ES   2   2211 39.15                             169    -0.3 5   27 209 
 BRR  HZ EP   1   2211 26.70                             149     0.2 7   79 295 
 BRR  HE ES   2   2211 43.46                             149     0.5 5   79 295 
 BRR  HZ I        2211 47.68        20.3 0.47                            79 295 
 OCA  SZ EP   1   2211 33.41                             128     0.0 7  161 350 
 OCA  SZ ES   2   2211 54.77                             128    -0.5 5  161 350 
 OCA  SZ I        2212  2.32        25.1 0.18                           161 350 
 HEL  HZ EP   1   2211 46.47                             113     0.2 6  281 256 
 HEL  HN ES   2   2212 17.30                             113    -0.9 4  281 256 
 HEL  HZ I        2212 24.18         2.7 0.32                           281 256 
 PRA  HZ EP   1   2211 58.93                             105    -0.3 4  397 211 
 PRA  HE ES   2   2212 41.86                             105     0.6 3  397 211 
 PRA  HZ I        2212 45.38         2.0 0.58                           397 211 
                                                                                
