 2011  111 2254 32.3 L   7.446 -73.550101.5  RSN  7 0.3 2.1LRSN                1
 GAP=161        0.47       2.7     6.0 10.1 -0.4275E+01  0.4044E+02  0.4583E+01E
 Epicentro: SABANA DE TORRES - SANTANDER                                       3
 ACTION:UP  11-02-08 08:40 OP:pat  STATUS:               ID:20110111225432 L   I
 2011-01-11-2252-02S.COL___136                                                 6
 STAT SP IPHASW D HRMM SECON CODA AMPLIT PERI AZIMU VELO SNR AR TRES W  DIS CAZ7
 GIR2 SZ EP   2   2254 47.87                             149    -0.2 5   57 136 
 BTL  SZ EP   1   2254 48.71                             145    -0.1 7   66 152 
 OCA  SZ EP   1   2254 50.74                             135     0.0 7   91  16 
 OCA  SZ ES   2   2255  4.76                             135    -0.3 5   91  16 
 OCA  SZ I        2255  6.76        23.2 0.13                            91  16 
 GRA  SZ EP   1   2254 50.97                             133    -0.1 7   96  59 
 GRA  SZ ES       2255  6.02                             133     0.310   96  59 
 GRA  SZ I        2255  7.86        46.7 0.32                            96  59 
 BAR2 SZ EP   2   2254 51.46                             131    -0.4 5  103 157 
 BAR2 SZ ES   2   2255  6.90                             131    -0.2 5  103 157 
 BAR2 SZ I        2255  7.69        18.7 0.05                           103 157 
 RUS  HZ EP   2   2255  0.50                             114     0.4 4  179 163 
 RUS  HN ES   2   2255 21.71                             114    -0.1 4  179 163 
 NOR  SZ EP   2   2255  8.26                             105     0.1 4  254 215 
 NOR  SZ ES   2   2255 36.66                             105     0.5 4  254 215 
                                                                                
