 2013  311 2244 23.8 L   6.753 -73.165144.9  RSN  6 0.4 2.2LRSN                1
 GAP=136        1.03       5.2     5.0  7.0 -0.5232E+01 -0.7564E-02 -0.3264E+01E
 Epicentro: LOS SANTOS - SANTANDER                                             3
 ACTION:UPD 13-04-09 14:01 OP:ep   STATUS:               ID:20130311224423 L   I
 2013-03-11-2238-50M.COL___210                                                 6
 STAT SP IPHASW D HRMM SECON CODA AMPLIT PERI AZIMU VELO AIN AR TRES W  DIS CAZ7
 BAR2 SZ EP       2244 43.41                             173    0.2010 17.9 186 
 BAR2 SZ ES       2244 58.25                             173   -0.1110 17.9 186 
 BAR2 SZ I        2244 59.40        42.8 0.40            172           17.9 186 
 BRR  HZ EP       2244 45.29                             152    0.4110 72.0 303 
 BRR  HN ES       2245  2.06                             152    0.7210 72.0 303 
 BRR  HN I        2245  2.56        43.7 0.22            152           72.0 303 
 PAM  SZ IP     C 2244 46.35                             149    0.1110 82.8  38 
 PAM  SZ I        2244 46.56        31.5 0.24            151           82.8  38 
 PAM  SN ES       2245  3.25                             149   -0.5010 82.8  38 
 RUS  HZ EP       2244 47.34                             145    0.2510 95.6 175 
 RUS  HN ES       2245  5.29                             145    0.0110 95.6 175 
 RUS  HE I        2245  6.76        30.3 0.48            145           95.6 175 
 PTB  HZ EP       2244 50.10                             132   -0.31 9  145 261 
 PTB  HN ES       2245 10.47                             132   -0.70 9  145 261 
 PTB  HE I        2245 13.49        14.3 0.28            132            145 261 
 CAPV BZ EP       2244 51.37                             131   -0.24 9  155  37 
                                                                                
