 2010  411 2358  7.6 L   6.824 -72.994141.5  RSN  4 0.3 2.2LRSN                1
 GAP=232        0.58       6.1    10.7  7.8 -0.1043E+02  0.7812E+01 -0.6560E+01E
 Epicentro: CEPITA - SANTANDER                                                 3
 ACTION:UPD 10-08-24 09:58 OP:vdl  STATUS:               ID:20100411235807 L   I
 2010-04-11-2354-53S.COL___097                                                 6
 STAT SP IPHASW D HRMM SECON CODA AMPLIT PERI AZIMU VELO AIN AR TRES W  DIS CAZ7
 BAR2 SZ EP   1   2358 27.08                             166     0.1 7   33 219 
 BAR2 SZ ES   2   2358 41.76                             166    -0.3 5   33 219 
 BRR  HZ EP   1   2358 29.12                             147    -0.1 7   85 292 
 BRR  HZ I        2358 29.74        34.0 0.13                            85 292 
 BRR  HN ES   2   2358 46.48                             147     0.5 5   85 292 
 OCA  SZ EP   1   2358 35.90                             129     0.3 7  161 347 
 OCA  SZ ES   2   2358 56.86                             129    -0.6 5  161 347 
 OCA  SZ I        2359  3.64        19.5 0.31                           161 347 
 HEL  HZ EP   1   2358 49.25                             112    -0.3 5  289 256 
                                                                                
