 2013 1111 2008 10.2 L   6.792 -73.178145.2  RSN  9 0.4 1.9LRSN                1
 GAP=133        1.06       3.8     4.6  7.5 -0.3227E+01  0.8509E+01 -0.1978E+01E
 Epicentro: LOS SANTOS - SANTANDER                                             3
 OLDACT:REG 13-11-11 21:40 OP:jn   STATUS:               ID:20131111200000     3
 ACTION:UPD 14-01-09 16:27 OP:ep   STATUS:               ID:20131111200810 L   I
 OLDACT:UP  13-11-11 21:51 OP:jn   STATUS:               ID:20131111200000     3
 2013-11-11-2000-00M.COL___273                                                 6
 STAT SP IPHASW D HRMM SECON CODA AMPLIT PERI AZIMU VELO AIN AR TRES W  DIS CAZ7
 BAR2 SZ EP       20 8 29.96                             171    0.2510 22.1 181 
 BAR2 SZ ES       20 8 44.30                             171   -0.6510 22.1 181 
 BAR2 SZ I        20 8 46.37        33.0 0.52            172           22.1 181 
 BRR  HZ EP       20 8 31.56                             153    0.4510 68.5 301 
 BRR  HN ES       20 8 48.34                             153    0.9010 68.5 301 
 BRR  SZ I        20 8 49.93         9.1 0.14            154           68.5 301 
 PAM  SZ EP       20 8 32.64                             150    0.1410 80.3  41 
 PAM  SN ES       20 8 49.82                             150   -0.1110 80.3  41 
 PAM  SZ I        20 8 51.39        18.3 0.52            152           80.3  41 
 RUS  HZ EP       20 8 33.88                             144    0.0510  100 174 
 RUS  HN ES       20 8 52.17                             144   -0.1110  100 174 
 RUS  SZ I        20 8 53.42        12.7 0.26            146            100 174 
 PTB  HZ EP       20 8 36.38                             133   -0.38 9  144 259 
 PTB  HN ES       20 8 57.08                             133   -0.42 9  144 259 
 PTB  SZ I        20 9  0.37         8.4 0.16            134            144 259 
 SPBC HN ES       20 9  0.49                             129    0.16 9  160 218 
 ZAR  HN ES   2   20 9  7.28                             123   -0.03 4  201 293 
 NOR  HN ES       20 9 13.16                             119    0.10 8  231 234 
 SML  HZ EP   4   20 8 45.84                             117   -0.85 0  243 336 
 SML  HN ES       20 9 14.53                             117   -0.64 8  243 336 
                                                                                
