 2014 1011 2013 53.7 L   6.772 -73.176145.5  RSN  4 0.3 1.3LRSN                1
 GAP=140        0.87       4.9     5.0  8.5 -0.1075E+02  0.1151E+02 -0.1848E+01E
 Epicentro: LOS SANTOS - SANTANDER                                             3
 ACTION:UPD 14-11-29 23:48 OP:nd   STATUS:               ID:20141011201353 L   I
 OLDACT:UP  14-10-12 07:48 OP:cam  STATUS:               ID:20141011200817     3
 OLDACT:REG 14-10-12 02:47 OP:cam  STATUS:               ID:20141011200817     3
 2014-10-11-2008-17M.COL___289                                                 6
 STAT SP IPHASW D HRMM SECON CODA AMPLIT PERI AZIMU VELO AIN AR TRES W  DIS CAZ7
 PAM  SZ EP       2014 16.30                             149    0.1110 81.9  40 
 PAM  SN ES       2014 33.42                             149   -0.3010 81.9  40 
 PAM  SZ I        2014 38.36         2.4 0.74            155           81.9  40 
 RUS  HZ EP       2014 17.35                             145    0.1010 97.7 174 
 RUS  HN ES       2014 36.02                             145    0.4210 97.7 174 
 RUS  HZ I        2014 37.22         2.3 0.32            150           97.7 174 
 PTB  HZ EP       2014 20.55                             133    0.22 9  144 260 
 PTB  HN ES       2014 41.38                             133    0.31 9  144 260 
 PTB  HZ I        2014 46.50         3.5 0.18            136            144 260 
 SPBC HZ EP       2014 21.50                             130   -0.28 9  159 219 
 SPBC HN ES       2014 43.00                             130   -0.66 9  159 219 
 SPBC HZ I        2014 51.32         4.6 0.22            134            159 219 
                                                                                
