 2014 1011 2054 47.0 L   6.604 -73.527106.0  RSN  5 0.4 1.6LRSN                1
 GAP=118        0.95       7.1     4.8  8.9  0.1407E+02  0.1709E+02  0.1927E+02E
 Epicentro: EL CARMEN - SANTANDER                                              3
 ACTION:UPD 14-11-29 23:48 OP:nd   STATUS:               ID:20141011205447 L   I
 OLDACT:UP  14-10-12 07:51 OP:cam  STATUS:               ID:20141011204815     3
 OLDACT:REG 14-10-12 02:49 OP:cam  STATUS:               ID:20141011204815     3
 2014-10-11-2048-15M.COL___292                                                 6
 STAT SP IPHASW D HRMM SECON CODA AMPLIT PERI AZIMU VELO AIN AR TRES W  DIS CAZ7
 BAR2 SZ EP       2055  2.29                             159   -0.1310 38.2  92 
 BAR2 SZ ES       2055 14.40                             159   -0.0410 38.2  92 
 BAR2 SZ I        2055 15.64        24.4 0.38            161           38.2  92 
 BRR  HZ IP     D 2055  2.65                             149   -0.5710 59.3 340 
 BRR  HN ES       2055 16.16                             149    0.2910 59.3 340 
 BRR  HN I        2055 16.52        18.2 0.20            151           59.3 340 
 RUS  HZ EP   1   2055  7.27                             136    0.84 7 92.8 148 
 PTB  HZ EP       2055  6.47                             132   -0.2110  103 266 
 PTB  HN ES       2055 21.90                             132   -0.1210  103 266 
 PTB  HZ I        2055 23.22         4.3 0.44            134            103 266 
 ZAR  HN ES       2055 35.78                             116    0.39 9  177 304 
                                                                                
