 2012  811 2105 24.5 L   6.806 -73.143143.0  RSN  7 0.3 1.8LRSN                1
 GAP=136        0.46       3.7     4.7  5.9 -0.4143E+01 -0.4236E+00  0.9543E+01E
 Epicentro: LOS SANTOS - SANTANDER                                             3
 ACTION:UPD 12-09-10 11:55 OP:ep   STATUS:               ID:20120811210524 L   I
 2012-08-11-2100-00M.COL___219                                                 6
 STAT SP IPHASW D HRMM SECON CODA AMPLIT PERI AZIMU VELO AIN AR TRES W  DIS CAZ7
 BAR2 SZ EP       21 5 43.71                             170   -0.1510 24.0 190 
 BAR2 SZ ES   3   21 5 58.65                             170   -0.27 2 24.0 190 
 BAR2 SZ I        21 6  1.02        24.8 0.24                          24.0 190 
 GIR2 SZ EP       21 5 43.89                             167    0.0210 30.6 350 
 GIR2 SZ ES   2   21 5 59.12                             167    0.17 5 30.6 350 
 BRR  HZ EP       21 5 45.30                             152   -0.0910 71.1 298 
 BRR  HZ I        21 5 45.67        22.5 0.32                          71.1 298 
 BRR  HN ES   2   21 6  2.21                             152    0.56 5 71.1 298 
 PAM  SZ EP       21 5 46.55                             151    0.1210 76.7  40 
 PAM  SN ES   1   21 6  3.31                             151   -0.18 7 76.7  40 
 PAM  SZ I        21 6  7.90         6.4 0.50                          76.7  40 
 RUS  HZ EP       21 5 48.14                             143    0.0710  101 176 
 RUS  HN ES   3   21 6  6.23                             143   -0.20 2  101 176 
 RUS  HZ I        21 6  8.17         4.8 0.26                           101 176 
 PTB  HN ES   3   21 6 10.82                             131   -1.39 2  148 259 
 CHI  HN ES   2   21 6 31.86                             116    0.34 4  249 195 
                                                                                
