 2017  111 2130  2.5 L   6.784 -73.157145.3  RSN  8 0.3 1.5LRSN                1
 GAP=136        0.69       2.9     2.9  4.8 -0.1227E+01  0.3222E+01  0.2533E+01E
 Epicentro: LOS SANTOS - SANTANDER                                             3
 ACTION:UPD 17-05-22 15:58 OP:jn   STATUS:               ID:20170111213002 L   I
 OLDACT:REG 17-01-12 00:37 OP:lv   STATUS:               ID:20170111212743     3
 2017-01-11-2128-00M.COL___340                                                 6
 STAT SP IPHASW D HRMM SECON CODA AMPLIT PERI AZIMU VELO AIN AR TRES W  DIS CAZ7
 BAR2 EZ EP       2130 21.76                             171   -0.2410 21.3 188 
 BAR2 EZ ES       2130 37.16                             171   -0.0810 21.3 188 
 BAR2 EZ I        2130 38.18        13.7 0.15            171           21.3 188 
 PAM  EZ EP       2130 24.64                             150   -0.1210 79.5  39 
 PAM  EN ES       2130 42.30                             150    0.1510 79.5  39 
 PAM  EZ I        2130 43.96         4.6 0.48            152           79.5  39 
 RUS  HZ EP       2130 25.83                             144   -0.2210 98.9 175 
 RUS  HN ES       2130 44.83                             144    0.3910 98.9 175 
 RUS  HZ I        2130 46.15         4.6 0.41            145           98.9 175 
 PTB  HN ES       2130 49.71                             132   -0.44 9  146 259 
 PTB  HZ I        2130 51.84         4.6 0.18            131            146 259 
 ZAR  HN ES       2131  0.53                             122    0.44 9  204 293 
 ZAR  HZ I        2131  5.96         2.9 0.18            122            204 293 
 NOR  HZ EP       2130 38.39                             119    0.44 8  233 235 
 NOR  HN ES       2131  5.41                             119   -0.22 8  233 235 
 NOR  HZ I        2131  9.78         2.7 0.18            119            233 235 
 CHI  HZ EP       2130 39.87                             117   -0.04 8  247 195 
 CHI  HN ES       2131  9.23                             117    0.11 8  247 195 
 CHI  HZ I        2131 13.43         1.3 0.21            118            247 195 
 GUY2CHZ EP   9   2130 47.63                             112    1.81 0  299 235 
 GUY2CHN ES       2131 21.59                                    0.14 7  299 235 
 GUY2CHZ  IAML    2131 26.70         1.8 0.50                           299 235 
                                                                                
