 2017  511 2245 21.1 L   6.795 -73.112150.7  RSN  7 0.3 1.4LRSN                1
 GAP=141        0.58       2.9     3.0  4.7 -0.1300E+01  0.3630E+00  0.1248E+01E
 Epicentro: LOS SANTOS - SANTANDER                                             3
 ACTION:UPD 17-06-16 13:35 OP:jn   STATUS:               ID:20170511224521 L   I
 OLDACT:UP  17-05-12 09:04 OP:and  STATUS:               ID:20170511223734     3
 OLDACT:UP  17-05-12 09:02 OP:and  STATUS:               ID:20170511223734     3
 OLDACT:UP  17-05-12 09:02 OP:and  STATUS:               ID:20170511223734     3
 OLDACT:REG 17-05-12 08:03 OP:and  STATUS:               ID:20170511223734     3
 2017-05-11-2238-00M.COL___371                                                 6
 STAT SP IPHASW D HRMM SECON CODA AMPLIT PERI AZIMU VELO AIN AR TRES W  DIS CAZ7
 BRR  HZ EP   2   2245 42.79                             152   -0.21 5 74.8 298 
 BRR  HN ES       2246  0.27                             152    0.1910 74.8 298 
 PAM  EZ IP     C 2245 44.03                             152    0.2710 75.5  37 
 PAM  EN ES       2246  1.36                             152   -0.0610 75.5  37 
 PAM  EZ I        2246  3.03         3.1 0.60            154           75.5  37 
 RUS  HZ EP   1   2245 45.03                             145   -0.27 7 99.8 178 
 RUS  HN ES       2246  4.00                             145   -0.1710 99.8 178 
 RUS  HZ I        2246  5.53         3.9 0.42            145           99.8 178 
 PTB  HZ EP   9   2245 47.83                             132   -0.98 0  151 259 
 PTB  HN ES       2246  9.03                             134   -0.40 9  151 259 
 PTB  HZ I        2246 16.40         3.2 0.44            129            151 259 
 SPBC HE ES   2   2246 12.82                             130   -0.03 5  165 220 
 ZAR  HZ EP   2   2245 53.78                             123   -0.49 4  208 292 
 ZAR  HN ES   1   2246 19.84                             123   -0.28 6  208 292 
 ZAR  HZ I        2246 25.78         2.8 0.38            121            208 292 
 NOR  HZ EP   2   2245 58.07                             119    0.65 4  237 235 
 NOR  HN ES   1   2246 25.93                             119    0.18 6  237 235 
 NOR  HZ I        2246 30.84         2.3 0.18            118            237 235 
                                                                                
