 2012  611 2128 35.3 L   6.800 -73.134142.9  RSN  5 0.5 1.8LRSN                1
 GAP=184        0.89       5.3     6.7 10.4  0.5316E+01  0.8952E+01 -0.1663E+02E
 Epicentro: LOS SANTOS - SANTANDER                                             3
 ACTION:UPD 12-08-06 17:48 OP:ep   STATUS:               ID:20120611212834 L   I
 2012-06-11-2120-00M.COL___201                                                 6
 STAT SP IPHASW D HRMM SECON CODA AMPLIT PERI AZIMU VELO AIN AR TRES W  DIS CAZ7
 BAR2 SZ EP   1   2128 53.42                             170   -1.17 7 23.6 193 
 BAR2 SZ ES   1   2129  9.86                             170    0.23 7 23.6 193 
 BAR2 SZ I        2129 11.50        17.1 0.29            168           23.6 193 
 RUS  HZ EP   1   2128 59.22                             143    0.46 7  101 177 
 RUS  HN ES   1   2129 17.21                             143    0.14 7  101 177 
 RUS  HZ I        2129 18.52         8.9 0.27            146            101 177 
 PTB  HZ EP   1   2129  2.31                             131    0.16 7  149 259 
 PTB  HN ES   1   2129 22.93                             131   -0.16 7  149 259 
 PTB  HZ I        2129 25.37         6.0 0.22            130            149 259 
 OCA  HZ EP   1   2129  3.65                             129    0.25 7  160 353 
 OCA  HN ES   1   2129 25.38                             129    0.07 7  160 353 
 ZAR  HN ES   1   2129 33.03                             122    0.10 6  205 292 
 ZAR  HZ I        2129 40.20        10.5 0.25            122            205 292 
                                                                                
