 2016  711 2125 43.2 L   6.729 -73.205148.5  RSN  5 0.4 1.8LRSN                1
 GAP=224        1.05       8.0     7.3  7.7  0.3613E+02  0.8379E+01 -0.3934E+01E
 Epicentro: VILLANUEVA - SANTANDER                                             3
 ACTION:UPD 17-03-29 16:49 OP:lp   STATUS:               ID:20160711212543 L   I
 OLDACT:REG 16-07-12 03:59 OP:drio STATUS:               ID:20160711211759     3
 2016-07-11-2117-59S.COL___331                                                 6
 STAT SP IPHASW D HRMM SECON CODA AMPLIT PERI AZIMU VELO AIN AR TRES W  DIS CAZ7
 BAR2 EZ EP       2126  2.68                             174   -0.3610 15.4 171 
 BAR2 EZ ES       2126 17.98                             174   -0.5210 15.4 171 
 BAR2 EZ I        2126 18.95        19.1 0.30            168           15.4 171 
 BRR  HZ EP       2126  4.46                             153   -0.1310 69.9 307 
 BRR  HE ES       2126 21.84                             153    0.5910 69.9 307 
 BRR  HZ I        2126 24.71        14.0 0.32            149           69.9 307 
 RUS  HZ EP       2126  6.78                             146    0.0410 93.5 172 
 RUS  HE ES       2126 25.61                             146    0.5210 93.5 172 
 RUS  HZ I        2126 26.48         4.5 0.30            146           93.5 172 
 PTB  HZ EP       2126  9.41                             134   -0.30 9  140 261 
 PTB  HE ES       2126 30.16                             134   -0.22 9  140 261 
 PTB  HZ I        2126 37.73         7.4 0.44            131            140 261 
 ZAR  HZ EP       2126 16.23                             123    0.69 9  201 295 
 ZAR  HE ES       2126 40.53                             123   -0.23 9  201 295 
 ZAR  HZ I        2126 46.96         5.9 0.28            123            201 295 
                                                                                
