 2012 1111 2156 46.3 L   5.934 -74.027  4.0  RSN  5 0.6 2.0LRSN                1
 GAP=187        1.49       6.1     3.4  9.8  0.5682E+01 -0.5039E+01 -0.2066E+02E
 Epicentro: LA BELLEZA - SANTANDER                                             3
 ACTION:UPD 12-12-05 15:32 OP:}ep  STATUS:               ID:20121111215646 L   I
 2012-11-11-2150-00M.COL___230                                                 6
 STAT SP IPHASW D HRMM SECON CODA AMPLIT PERI AZIMU VELO AIN AR TRES W  DIS CAZ7
 PTB  HZ EP       2156 59.39                              47    0.0010 82.2 325 
 PTB  HN ES       2157  8.82                              47   -0.7510 82.2 325 
 PTB  HN I        2157 11.82        95.2 0.26                          82.2 325 
 RUS  HZ EP       2157  3.78                              47    0.5110  105  92 
 RUS  HN ES       2157 15.49                              47   -1.0010  105  92 
 RUS  HN I        2157 16.04        22.2 0.22                           105  92 
 BRR  HZ EP       2157  7.62                              47    0.3410  134  15 
 BRR  HN ES       2157 23.65                              47    0.0310  134  15 
 BRR  HN I        2157 25.76        24.9 0.16                           134  15 
 HEL  HZ EP       2157 13.49                              47    0.63 9  169 280 
 HEL  HN ES       2157 33.43                              47   -0.14 9  169 280 
 HEL  HN I        2157 35.72        12.3 0.38                           169 280 
 PAM  SE ES   1   2157 45.58                              37    1.28 6  214  43 
 PAM  SN I        2157 47.07        21.4 0.44                           214  43 
                                                                                
