 2012  211 2130 43.0 L   6.764 -73.100151.0  RSN  7 0.2 1.8LRSN                1
 GAP=144        0.51       4.3     4.2  5.6 -0.1846E+01 -0.1797E+01  0.1005E+02E
 ACTION:UP  12-03-07 16:29 OP:epov STATUS:               ID:20120211213043 L   I
 2012-02-11-2130-00M.COL___188                                                 6
 STAT SP IPHASW D HRMM SECON CODA AMPLIT PERI AZIMU VELO AIN AR TRES W  DIS CAZ7
 BAR2 SZ EP   2   2131  3.29                             172    0.12 5 21.1 206 
 GIR2 SZ EP   2   2131  3.30                             166   -0.09 5 36.3 343 
 PAM  SZ EP       2131  5.94                             152    0.2110 77.5  35 
 PAM  SE ES   1   2131 23.10                             152   -0.40 7 77.5  35 
 BRR  HZ EP       2131  5.03                             151    0.0010 77.6 299 
 BRR  HZ I        2131  5.38        18.8 0.28                          77.6 299 
 BRR  HE ES       2131 22.38                             151    0.1310 77.6 299 
 RUS  HZ EP   1   2131  7.19                             146    0.26 7 96.4 179 
 RUS  HN ES   2   2131 25.56                             146   -0.07 5 96.4 179 
 RUS  HZ I        2131 28.60         5.2 0.39                          96.4 179 
 PTB  HZ EP   1   2131 10.31                             132   -0.42 7  152 261 
 CHI  HZ EP   2   2131 20.35                             118   -0.33 4  246 197 
                                                                                
