 2014  511 2322 41.8 L   6.817 -73.116154.0  RSN  8 0.4 1.5LRSN                1
 GAP=139        0.80       4.2     4.6  8.8 -0.5251E+01  0.1210E+02 -0.9739E+01E
 Epicentro: LOS SANTOS - SANTANDER                                             3
 OLDACT:REG 14-05-12 03:51 OP:fm   STATUS:               ID:20140511231807     3
 ACTION:UPD 15-03-16 16:56 OP:nd   STATUS:               ID:20140511232240 L   I
 OLDACT:UP  14-05-12 07:20 OP:nlst STATUS:               ID:20140511232240 L   3
 OLDACT:UP  14-05-12 07:13 OP:fm   STATUS:               ID:20140511231807     3
 2014-05-11-2318-07M.COL___254                                                 6
 STAT SP IPHASW D HRMM SECON CODA AMPLIT PERI AZIMU VELO AIN AR TRES W  DIS CAZ7
 BRR  HZ EP   2   2323  2.94                             153   -0.99 5 73.2 296 
 BRR  HN ES   1   2323 21.41                             153    0.20 7 73.2 296 
 BRR  HZ I        2323 28.35         8.2 3.18            147           73.2 296 
 PAM  SZ EP       2323  5.22                             153    0.5410 73.9  39 
 PAM  SN ES       2323 22.24                             153   -0.3010 73.9  39 
 PAM  SZ I        2323 24.04         3.2 0.58            152           73.9  39 
 RUS  HN ES   1   2323 25.65                             145   -0.07 7  102 178 
 PTB  HN ES   1   2323 31.45                             133   -0.11 7  151 258 
 SPBC HN ES   1   2323 34.17                             130   -0.06 7  167 219 
 ZAR  HE ES   1   2323 40.83                             124   -0.10 6  206 291 
 NOR  HN ES   2   2323 47.64                             119    0.69 4  238 235 
 SML  HZ EP   1   2323 18.24                             119   -0.61 6  243 334 
 SML  HE ES   1   2323 48.20                             119    0.44 6  243 334 
 SML  SZ I        2324  0.09         2.7 1.92            119            243 334 
                                                                                
