 2014  711 2240 59.8 L   6.822 -73.127141.1  RSN 15 0.4 2.0LRSN                1
 GAP= 71        0.98       2.9     2.9  5.6 -0.1041E+01  0.3405E+01  0.1141E+01E
 Epicentro: LOS SANTOS - SANTANDER                                             3
 ACTION:UPD 15-03-16 20:43 OP:nd   STATUS:               ID:20140711224059 L   I
 OLDACT:REG 14-07-12 02:49 OP:spq  STATUS:               ID:20140711223814     3
 2014-07-11-2238-14M.COL___265                                                 6
 STAT SP IPHASW D HRMM SECON CODA AMPLIT PERI AZIMU VELO AIN AR TRES W  DIS CAZ7
 BAR2 SZ EP       2241 19.04                             169    0.1210 26.1 193 
 BAR2 SZ ES   1   2241 33.49                             169   -0.35 7 26.1 193 
 BAR2 SZ I        2241 35.22        24.7 0.24            168           26.1 193 
 BRR  HZ IP     C 2241 20.74                             152    0.2710 71.9 296 
 BRR  HN ES       2241 37.30                             152    0.6910 71.9 296 
 BRR  HZ I        2241 41.12        18.7 0.11            149           71.9 296 
 PAM  SZ EP       2241 21.55                             151    0.2310 74.2  40 
 PAM  SN ES       2241 38.02                             151   -0.0910 74.2  40 
 PAM  SZ I        2241 41.56        15.2 0.37            154           74.2  40 
 RUS  HZ EP       2241 23.17                             142   -0.0910  103 177 
 RUS  HN ES   1   2241 41.28                             142   -0.28 7  103 177 
 RUS  HZ I        2241 43.62         5.7 0.26            145            103 177 
 PTB  HZ EP       2241 25.82                             130   -0.79 9  150 258 
 PTB  HN ES       2241 47.08                             130   -0.44 9  150 258 
 PTB  HZ I        2241 49.63        12.5 0.28            130            150 258 
 TAM  HZ EP       2241 27.49                             130    0.51 9  154 106 
 TAM  HN ES   1   2241 47.50                             130   -0.69 7  154 106 
 OCA  HN ES   1   2241 48.85                             129   -0.32 7  158 352 
 OCA  HZ I        2241 52.80        17.7 0.20            130            158 352 
 SPBC HZ EP       2241 28.64                             127    0.40 9  166 219 
 SPBC HN ES       2241 50.92                             127    0.49 9  166 219 
 SPBC HZ I        2241 53.75         7.8 0.16            128            166 219 
 ZAR  HZ EP       2241 31.75                             121   -0.28 9  205 291 
 ZAR  HE ES       2241 56.65                             121   -0.53 9  205 291 
 ZAR  HZ I        2242  3.57        14.0 0.26            122            205 291 
 NOR  HN ES       2242  3.32                             117   -0.18 8  238 234 
 NOR  HZ I        2242  9.41         4.8 0.18            118            238 234 
 SML  HZ EP       2241 36.37                             117    0.36 8  242 335 
 SML  HE ES       2242  4.26                             117    0.00 8  242 335 
 SML  HZ I        2242  5.71         9.4 0.09            118            242 335 
 HEL  HN ES       2242 11.91                             114    0.45 8  275 255 
 HEL  HZ I        2242 19.04         4.9 0.50            114            275 255 
 URE  HZ EP   4   2241 42.75                             113    2.01 0  285 291 
 URE  HE ES   4   2242  9.92                             113   -2.77 0  285 291 
 URE  HZ I        2242 21.59         5.1 0.40            113            285 291 
 GUY2CHZ EP       2241 42.99                             111   -0.54 7  304 235 
 GUY2CHN ES   1   2242 18.20                             111    0.55 5  304 235 
 GUY2CHZ I        2242 27.71         4.6 0.62                           304 235 
 RREF HE ES   1   2242 21.90                             110   -0.30 5  325 229 
 RREF HZ I        2242 29.86         3.4 0.26            111            325 229 
                                                                                
