 2011  611 2015 23.8 L   6.815 -73.118141.8  RSN 11 0.3 2.0LRSN                1
 GAP=139        0.71       2.9     5.5  4.8 -0.7898E+01  0.5365E+01  0.1458E+01E
 Epicentro: LOS SANTOS - SANTANDER                                             3
 ACTION:UP  11-07-14 19:04 OP:ep   STATUS:               ID:20110611201523 L   I
 2011-06-11-2013-58S.COL___133                                                 6
 STAT SP IPHASW D HRMM SECON CODA AMPLIT PERI AZIMU VELO SNR AR TRES W  DIS CAZ7
 BTL  SZ EP       2015 43.19                             172     0.210   20 305 
 BAR2 SZ EP       2015 43.06                             169     0.010   26 196 
 BAR2 SZ ES   1   2015 57.53                             169    -0.5 7   26 196 
 BAR2 SZ I        2015 59.54        26.9 0.37                            26 196 
 BRR  HZ EP       2015 44.85                             151     0.210   73 296 
 BRR  HE ES   1   2016  1.04                             151     0.1 7   73 296 
 BRR  HZ I        2016  3.77        49.1 0.15                            73 296 
 PAM  SN ES   1   2016  2.13                             151    -0.2 7   74  39 
 PAM  SZ I        2016  4.72        21.7 0.45                            74  39 
 RUS  HZ EP       2015 47.04                             143    -0.310  102 178 
 RUS  HZ I        2015 47.87         6.7 0.12                           102 178 
 RUS  HN ES   1   2016  6.06                             143     0.4 7  102 178 
 BRI  SZ EP       2015 47.36                             141     0.210  106  20 
 BRI  SZ ES   1   2016  5.42                             141     0.1 7  106  20 
 BRI  SZ I        2016 10.76        23.7 0.46                           106  20 
 GRA  SZ EP       2015 48.60                             137     0.110  123  16 
 GRA  SZ ES       2016  7.79                             137     0.010  123  16 
 GRA  SZ I        2016  9.49        22.4 0.28                           123  16 
 OCA  SZ EP       2015 51.25                             129    -0.5 9  159 352 
 OCA  SZ I        2016 17.61        22.8 0.19                           159 352 
 NOR  SZ EP   1   2015 59.69                             117     0.0 6  238 235 
 NOR  SE ES   2   2016 27.96                             117     0.3 4  238 235 
 NOR  SZ I        2016 35.91         1.2 0.17                           238 235 
 CHI  HZ EP   1   2016  1.94                             116     0.4 6  251 196 
 PRA  HZ EP       2016 17.58                             106     0.0 6  395 210 
 PRA  HN ES   1   2016 58.82                             106    -0.7 4  395 210 
                                                                                
