 2012  811 2143  0.4 L   6.759 -73.130149.4  RSN  7 0.4 1.9LRSN                1
 GAP=140        0.76       4.8     6.2  7.7 -0.2324E+01 -0.3732E+01  0.2668E+01E
 Epicentro: LOS SANTOS - SANTANDER                                             3
 ACTION:UPD 12-09-10 11:55 OP:ep   STATUS:               ID:20120811214300 L   I
 2012-08-11-2140-00M.COL___218                                                 6
 STAT SP IPHASW D HRMM SECON CODA AMPLIT PERI AZIMU VELO AIN AR TRES W  DIS CAZ7
 BAR2 SZ EP       2143 20.36                             172   -0.0810 19.4 198 
 BAR2 SZ ES   2   2143 35.58                             172   -0.45 5 19.4 198 
 BAR2 SZ I        2143 38.21        26.3 0.44                          19.4 198 
 GIR2 SZ EP       2143 20.64                             166   -0.0410 36.0 349 
 BRR  HZ EP       2143 22.33                             152    0.1310 75.0 301 
 BRR  HN ES   1   2143 39.90                             152    0.74 7 75.0 301 
 BRR  HZ I        2143 41.12        19.2 0.34                          75.0 301 
 PAM  SZ EP       2143 23.25                             151    0.0610 79.8  36 
 PAM  SN ES   1   2143 40.49                             151   -0.44 7 79.8  36 
 PAM  SZ I        2143 42.65        20.3 0.52                          79.8  36 
 RUS  HZ EP       2143 24.35                             146    0.1210 96.0 177 
 RUS  HZ I        2143 25.27         5.0 0.44                          96.0 177 
 RUS  HN ES   1   2143 42.89                             146    0.11 7 96.0 177 
 PTB  HN ES   2   2143 47.86                             132   -1.26 5  149 261 
 CHI  HZ EP   3   2143 36.95                             118   -0.98 2  245 196 
 CHI  HN ES   3   2144  7.35                             118    0.19 2  245 196 
 CHI  HZ I        2144 16.12         3.3 0.48                           245 196 
                                                                                
