 2015 1011 2103 56.3 L   6.797 -73.127148.1  RSN 13 0.3 2.2LRSN                1
 GAP=139        0.76       2.2     3.3  4.1 -0.1777E+01  0.4246E+01 -0.3906E+00E
 Epicentro: LOS SANTOS - SANTANDER                                             3
 ACTION:UPD 15-12-22 20:39 OP:cam  STATUS:               ID:20151011210356 L   I
 OLDACT:REG 15-10-12 02:57 OP:ar   STATUS:               ID:20151011205747     3
 2015-10-11-2057-47M.COL___337                                                 6
 STAT SP IPHASW D HRMM SECON CODA AMPLIT PERI AZIMU VELO AIN AR TRES W  DIS CAZ7
 BAR2 EZ IP       21 4 16.13                             171   -0.1110 23.4 195 
 BAR2 EZ ES       21 4 31.86                             171    0.0810 23.4 195 
 BAR2 EZ I        21 4 32.48        47.3 0.20            169           23.4 195 
 BRR  HZ IP     D 21 4 18.00                             152    0.1510 73.2 298 
 BRR  HN ES       21 4 35.31                             152    0.6810 73.2 298 
 BRR  HZ I        21 4 36.27        21.6 0.13            150           73.2 298 
 PAM  EZ IP       21 4 18.97                             152    0.2410 76.4  38 
 PAM  EN ES       21 4 35.83                             152   -0.3810 76.4  38 
 PAM  EZ I        21 4 38.23        19.8 0.15            154           76.4  38 
 RUS  HZ EP       21 4 20.07                             144   -0.2110  100 177 
 RUS  HN ES       21 4 38.91                             144   -0.0410  100 177 
 RUS  HZ I        21 4 40.16        11.8 0.24            145            100 177 
 OCA  HZ EP       21 4 24.94                             130    0.06 9  161 352 
 OCA  HN ES       21 4 47.04                             130   -0.11 9  161 352 
 OCA  HZ I        21 4 53.39        26.0 0.20            130            161 352 
 SPBC HZ EP       21 4 25.15                             129    0.04 9  164 220 
 SPBC HE ES       21 4 47.42                             129   -0.13 9  164 220 
 SPBC HZ I        21 4 50.43        35.3 0.10            128            164 220 
 ZAR  HZ EP       21 4 29.86                             123    0.72 8  206 292 
 ZAR  HN ES       21 4 54.35                             123   -0.39 8  206 292 
 ZAR  HZ I        21 5  0.60        21.4 0.16            122            206 292 
 NOR  HZ EP       21 4 32.45                             119    0.10 8  236 235 
 NOR  HN ES       21 5  0.20                             119   -0.25 8  236 235 
 NOR  HZ I        21 5  4.69        13.9 0.14            118            236 235 
 SML  HZ EP       21 4 32.69                             118   -0.53 8  245 335 
 SML  HN ES   2   21 5  1.58                             118   -0.41 4  245 335 
 SML  HZ I        21 5  4.74        16.7 0.10            118            245 335 
 CHI  HZ EP   2   21 4 34.28                             118    0.10 4  249 196 
 CHI  HN ES   2   21 5  3.86                             118    0.16 4  249 196 
 CHI  HZ I        21 5 13.34         4.6 0.34            118            249 196 
 HEL  HZ EP   9   21 4 38.68                             115    1.80 0  274 256 
 HEL  HN ES   2   21 5 10.06                                   -0.25 4  274 256 
 HEL  HZ I        21 5 14.80         8.0 0.42            114            274 256 
 GUY2CHZ EP       21 4 40.64                             113    0.43 7  303 235 
 GUY2CHN ES       21 5 13.88                             113   -0.57 7  303 235 
 GUY2CHZ I        21 5 22.68         9.9 0.42                           303 235 
 ORTC HZ EP   9   21 4 52.29                             107    1.85 0  396 216 
 ORTC HN ES   1   21 5 34.40                                   -0.10 4  396 216 
 ORTC HZ I        21 5 40.18         4.4 0.40            107            396 216 
 SJC  HZ EP   4   21 4 50.24                             106   -1.90 0  411 327 
 SJC  HN ES   4   21 5 31.68                             106   -3.99 0  411 327 
                                                                                
