 2015  211 2339 10.5 L   6.760 -73.149143.5  RSN  7 0.4 1.8LRSN                1
 GAP=138        1.11       5.1     5.1  7.1 -0.8552E+01  0.7551E+01  0.4827E+01E
 Epicentro: LOS SANTOS - SANTANDER                                             3
 ACTION:UPD 15-04-30 21:25 OP:nd   STATUS:               ID:20150211233910 L   I
 OLDACT:UP  15-02-12 05:55 OP:cam  STATUS:               ID:20150211233748     3
 OLDACT:REG 15-02-12 05:23 OP:cam  STATUS:               ID:20150211233748     3
 2015-02-11-2337-48M.COL___302                                                 6
 STAT SP IPHASW D HRMM SECON CODA AMPLIT PERI AZIMU VELO AIN AR TRES W  DIS CAZ7
 BAR2 EZ EP       2339 29.80                             172    0.0710 18.9 191 
 BAR2 EZ ES       2339 43.87                             172   -0.8910 18.9 191 
 BAR2 EZ I        2339 47.21         8.7 0.54            171           18.9 191 
 BRR  HZ EP       2339 31.69                             151    0.2210 73.1 302 
 BRR  HN ES       2339 48.65                             151    0.7910 73.1 302 
 BRR  HN I        2339 48.85        20.5 0.20            152           73.1 302 
 PAM  SZ EP       2339 32.63                             149   -0.0310 81.1  38 
 PAM  SN ES       2339 49.89                             149   -0.0810 81.1  38 
 PAM  SZ I        2339 52.15        10.7 0.66            153           81.1  38 
 RUS  HZ EP       2339 33.85                             145    0.1810 96.2 176 
 RUS  HE ES       2339 52.01                             145    0.2310 96.2 176 
 RUS  HZ I        2339 53.28         6.2 0.28            146           96.2 176 
 PTB  HZ EP       2339 36.96                             132   -0.17 9  147 260 
 PTB  HN ES       2339 57.36                             132   -0.58 9  147 260 
 PTB  HZ I        2340  1.08         6.2 0.50            133            147 260 
 SPBC HZ EP       2339 38.47                             129    0.03 9  160 220 
 SPBC HN ES       2340  0.82                             129    0.56 9  160 220 
 SPBC HZ I        2340  3.32        10.0 0.26            130            160 220 
 NOR  HZ EP       2339 45.24                             118   -0.51 8  232 235 
 NOR  HN ES       2340 13.28                             118    0.00 8  232 235 
 NOR  HZ I        2340 18.23         5.2 0.16            120            232 235 
 GUY2CHZ EP   4   2339 55.74                             112    2.10 0  298 235 
 PRA  HZ EP   4   2340  3.95                             106    0.52 0  388 210 
                                                                                
