 2011  111 2002 32.1 L   6.763 -73.157140.2  RSN  7 0.3 2.0LRSN                1
 GAP=158        0.49       3.0     7.2  6.5 -0.8521E+01  0.1424E+02  0.8227E-01E
 Epicentro: LOS SANTOS - SANTANDER                                             3
 ACTION:UP  11-02-08 08:40 OP:pat  STATUS:               ID:20110111200232 L   I
 2011-01-11-2000-00M.COL___136                                                 6
 STAT SP IPHASW D HRMM SECON CODA AMPLIT PERI AZIMU VELO SNR AR TRES W  DIS CAZ7
 BAR2 SZ EP   2   20 2 50.86                             172    -0.1 5   19 189 
 BAR2 SZ ES   2   20 3  5.46                             172    -0.2 5   19 189 
 BTL  SZ EP   2   20 2 51.18                             171     0.2 5   21 324 
 RUS  HZ EP   1   20 2 54.91                             144    -0.1 7   97 175 
 RUS  HN ES   2   20 3 13.29                             144     0.4 5   97 175 
 RUS  HZ I        20 3 14.97        21.1 0.28                            97 175 
 GRA  SZ EP   2   20 2 56.76                             135    -0.4 5  130  17 
 GRA  SZ ES   2   20 3 16.50                             135    -0.3 5  130  17 
 GRA  SZ I        20 3 17.44        13.3 0.39                           130  17 
 OCA  SZ EP   2   20 3  0.94                             128     0.6 5  164 354 
 OCA  SZ ES   2   20 3 22.71                             128     0.3 5  164 354 
 OCA  SZ I        20 3 26.65        13.8 0.17                           164 354 
 NOR  SZ EP   2   20 3  6.68                             118    -0.5 4  232 235 
 NOR  SN ES   2   20 3 34.44                             118    -0.1 4  232 235 
 CHI  HZ EP   1   20 3  9.18                             116     0.2 6  244 195 
 CHI  HZ I        20 3  9.91         7.0 0.10                           244 195 
 CHI  HE ES   2   20 3 37.82                             116     0.0 4  244 195 
                                                                                
