 2016  211 2305 55.7 L   6.788 -73.164147.0  RSN  4 0.2 1.2LRSN                1
 GAP=141        0.59       3.4     3.4  6.3 -0.5080E+01  0.5871E+01 -0.2158E+01E
 Epicentro: LOS SANTOS - SANTANDER                                             3
 ACTION:UPD 16-03-04 21:25 OP:rebc STATUS:               ID:20160211230555 L   I
 OLDACT:REG 16-02-12 04:27 OP:cara STATUS:               ID:20160211225751     3
 2016-02-11-2257-51M.COL___289                                                 6
 STAT SP IPHASW D HRMM SECON CODA AMPLIT PERI AZIMU VELO AIN AR TRES W  DIS CAZ7
 PAM  EZ IP       23 6 18.31                             150    0.0910 79.6  40 
 PAM  EE ES       23 6 35.78                             150    0.0210 79.6  40 
 PAM  EZ I        23 6 37.32         2.5 0.56            157           79.6  40 
 RUS  HZ EP       23 6 19.19                             144   -0.3410 99.5 175 
 RUS  HN ES       23 6 38.13                             144    0.0410 99.5 175 
 RUS  HZ I        23 6 41.02         1.3 0.54            146           99.5 175 
 PTB  HZ EP       23 6 22.84                             133    0.23 9  146 259 
 PTB  HE ES       23 6 43.30                             133   -0.27 9  146 259 
 PTB  HZ I        23 6 47.83         2.3 0.18            134            146 259 
 SPBC HN ES       23 6 46.52                             130    0.26 9  161 219 
 SPBC HZ I        23 6 53.47         4.3 0.18            132            161 219 
                                                                                
