 2012  111 2124 29.7 L   6.754 -73.157141.8  RSN  9 0.4 2.1LRSN                1
 GAP=137        0.88       5.0     5.2  6.5  0.5141E+00  0.4100E+01  0.2079E+01E
 Epicentro: LOS SANTOS - SANTANDER                                             3
 ACTION:UP  12-02-03 08:16 OP:REBC STATUS:               ID:20120111212429 L   I
 2012-01-11-2120-00M.COL___187                                                 6
 STAT SP IPHASW D HRMM SECON CODA AMPLIT PERI AZIMU VELO SNR AR TRES W  DIS CAZ7
 BAR2 SZ EP       2124 48.73                             172     0.010   18 189 
 BAR2 SZ ES   1   2125  3.14                             172    -0.5 7   18 189 
 BAR2 SZ I        2125  5.08        33.3 0.24                            18 189 
 GIR2 SZ EP       2124 48.91                             165    -0.110   36 354 
 GIR2 SZ ES   2   2125  4.35                             165     0.2 5   36 354 
 BRR  HZ IP     D 2124 50.73                             151     0.210   73 303 
 BRR  HZ I        2124 51.13        50.7 0.10                            73 303 
 BRR  HE ES   1   2125  7.42                             151     0.7 7   73 303 
 PAM  SZ IP       2124 51.63                             149    -0.210   82  38 
 PAM  SN ES   2   2125  8.88                             149    -0.1 5   82  38 
 RUS  HZ EP       2124 53.09                             144     0.410   96 175 
 RUS  HN ES   1   2125 10.78                             144     0.1 7   96 175 
 RUS  HZ I        2125 12.17        12.1 0.46                            96 175 
 PTB  HZ EP       2124 55.46                             132    -0.7 9  146 261 
 PTB  HN ES   1   2125 16.41                             132    -0.4 7  146 261 
 PTB  HZ I        2125 22.14         8.4 0.10                           146 261 
 OCA  SZ EP   2   2124 58.24                             128     0.1 5  165 354 
 OCA  SZ I        2125 28.79        18.0 0.23                           165 354 
 ZAR  HZ EP   2   2125  2.19                             121     0.2 4  205 294 
 ZAR  HN ES   2   2125 27.49                             121     0.4 4  205 294 
 ZAR  HZ I        2125 32.94        14.8 0.26                           205 294 
 PRA  HZ EP       2125 22.74                             106     0.3 6  387 210 
                                                                                
