 2017  111 2321 40.1 L   6.811 -73.128146.3  RSN  9 0.4 1.6LRSN                1
 GAP=222        0.85       4.2     4.7  5.2  0.6951E+01  0.7734E+00  0.5283E+01E
 Epicentro: LOS SANTOS - SANTANDER                                             3
 ACTION:UPD 17-05-22 15:58 OP:jn   STATUS:               ID:20170111232140 L   I
 OLDACT:REG 17-01-12 00:46 OP:lv   STATUS:               ID:20170111231748     3
 2017-01-11-2318-00M.COL___340                                                 6
 STAT SP IPHASW D HRMM SECON CODA AMPLIT PERI AZIMU VELO AIN AR TRES W  DIS CAZ7
 BAR2 EZ EP       2321 59.65                             170   -0.1610 25.0 194 
 BAR2 EZ ES       2322 15.40                             170    0.2110 25.0 194 
 BAR2 EZ I        2322 16.92         7.5 0.15            164           25.0 194 
 BRR  HZ EP       2322  1.88                             152    0.5310 72.3 297 
 BRR  HN ES       2322 17.73                             152   -0.2110 72.3 297 
 RUS  HZ EP       2322  4.11                             143    0.1410  102 177 
 RUS  HN ES       2322 22.25                             143   -0.3510  102 177 
 RUS  HZ I        2322 23.53         3.9 0.26            141            102 177 
 PTB  HZ EP   9   2322  6.00                             131   -1.29 0  150 259 
 PTB  HE ES       2322 26.90                                   -0.32 9  150 259 
 PTB  HZ I        2322 31.40         4.7 0.18            128            150 259 
 ZAR  HN ES       2322 37.87                             122   -0.27 8  205 292 
 ZAR  HZ I        2322 43.73         5.0 0.22            120            205 292 
 NOR  HZ EP       2322 16.04                             118   -0.05 8  237 234 
 NOR  HN ES       2322 44.29                             118    0.12 8  237 234 
 NOR  HZ I        2322 51.33         3.2 0.15            116            237 234 
 CHI  HZ EP       2322 18.62                             117    0.62 8  250 196 
 CHI  HN ES       2322 47.60                             117    0.03 8  250 196 
 CHI  HZ I        2322 53.32         2.1 0.26            116            250 196 
 GUY2CHZ EP   4   2322 26.10                             112    2.12 0  303 235 
 GUY2CHE ES   4   2323  0.42                             112    2.21 0  303 235 
 GUY2CHZ  IAML    2323  8.83         1.5 0.32                           303 235 
 PTGC HZ EP       2322 23.18                             111   -0.84 7  309 159 
 PTGC HN ES   4   2322 56.18                             111   -2.10 0  309 159 
                                                                                
