 2016  711 2015 34.8 L   6.647 -73.335133.5  RSN  6 0.3 1.9LRSN                1
 GAP=149        0.87       4.1     4.5  6.0  0.6720E+01  0.7645E+01  0.1062E+01E
 Epicentro: GALAN - SANTANDER                                                  3
 ACTION:UPD 17-03-29 16:49 OP:lp   STATUS:               ID:20160711201534 L   I
 OLDACT:REG 16-07-12 03:56 OP:drio STATUS:               ID:20160711200759     3
 2016-07-11-2007-59S.COL___331                                                 6
 STAT SP IPHASW D HRMM SECON CODA AMPLIT PERI AZIMU VELO AIN AR TRES W  DIS CAZ7
 BAR2 EZ EP       2015 52.94                             172    0.1210 18.0 110 
 BAR2 EZ ES       2016  6.36                             172   -0.5410 18.0 110 
 BAR2 EZ I        2016  7.36        37.5 0.18            172           18.0 110 
 BRR  HZ EP       2015 54.29                             152    0.0110 65.7 321 
 BRR  HE ES       2016  9.61                             152    0.1110 65.7 321 
 RUS  HZ EP       2015 56.75                             145    0.3410 88.0 162 
 RUS  HN ES       2016 13.66                             145    0.3810 88.0 162 
 RUS  HZ I        2016 14.55         7.2 0.24            144           88.0 162 
 PTB  HZ EP       2015 58.22                             134   -0.4310  125 265 
 PTB  HE ES       2016 17.17                             134   -0.1010  125 265 
 PTB  HZ I        2016 21.31         8.4 0.22            132            125 265 
 SPBC HZ EP       2015 59.77                             131   -0.09 9  137 217 
 SPBC HE ES       2016 19.36                             131   -0.07 9  137 217 
 SPBC HZ I        2016 27.13         7.9 0.20            129            137 217 
 ZAR  HZ EP       2016  4.83                             121   -0.39 9  192 299 
 ZAR  HN ES       2016 29.66                             121    0.68 9  192 299 
 ZAR  HZ I        2016 33.79        13.8 0.28            121            192 299 
                                                                                
