 2010 1211 2035  8.0 L   6.794 -73.171140.6  RSN  9 0.3 2.0LRSN                1
 GAP=156        0.65       3.3     6.4  6.3 -0.1086E+02  0.1797E+02 -0.3946E+01E
 Epicentro: LOS SANTOS - SANTANDER                                             3
 ACTION:UP  11-01-14 15:24 OP:pat  STATUS:               ID:20101211203508 L   I
 2010-12-11-2031-53S.COL___137                                                 6
 STAT SP IPHASW D HRMM SECON CODA AMPLIT PERI AZIMU VELO SNR AR TRES W  DIS CAZ7
 BAR2 SZ EP   1   2035 27.18                             170     0.2 7   22 184 
 BAR2 SZ ES   1   2035 41.76                             170     0.0 7   22 184 
 BAR2 SZ I        2035 43.35        20.8 0.57                            22 184 
 RUS  HZ EP   1   2035 31.08                             143    -0.1 7  100 174 
 RUS  HN ES   1   2035 49.63                             143     0.3 7  100 174 
 RUS  HZ I        2035 51.48        14.8 0.42                           100 174 
 GRA  SZ EP   1   2035 33.09                             135     0.2 7  127  19 
 GRA  SZ ES   1   2035 52.11                             135    -0.2 7  127  19 
 GRA  SZ I        2035 53.88        13.8 0.56                           127  19 
 OCA  SZ EP   1   2035 35.88                             128    -0.1 7  161 354 
 OCA  SZ I        2036  2.25        17.5 0.19                           161 354 
 NOR  SZ EP   1   2035 43.03                             118    -0.1 6  232 234 
 NOR  SN ES   2   2036 11.02                             118     0.4 4  232 234 
 CHI  HZ EP   1   2035 45.54                             116     0.3 6  247 195 
 CHI  HE ES   1   2036 13.51                             116    -0.8 6  247 195 
 CHI  HZ I        2036 22.91         5.5 0.57                           247 195 
 HEL  HN ES   2   2036 18.27                             114    -0.3 4  269 256 
 HEL  HZ I        2036 25.97         6.4 0.16                           269 256 
 RREF HN ES   2   2036 29.71                             110     0.5 3  319 229 
 RREF HZ I        2036 38.91         6.8 0.57                           319 229 
 PRA  HZ EP   2   2036  1.61                             106     0.5 3  390 209 
                                                                                
