 2013  611 2235  4.8 L   6.798 -73.084149.3  RSN 15 0.4 2.4LRSN                1
 GAP=186        0.93       2.4     4.9  4.8 -0.1664E+01  0.5263E+01 -0.2836E+00E
 Epicentro: LOS SANTOS - SANTANDER                                             3
 ACTION:UPD 14-01-08 09:54 OP:ep   STATUS:               ID:20130611223504 L   I
 OLDACT:REG 13-06-11 21:43 OP:nd   STATUS:               ID:20130611222959     3
 2013-06-11-2229-59M.COL___260                                                 6
 STAT SP IPHASW D HRMM SECON CODA AMPLIT PERI AZIMU VELO AIN AR TRES W  DIS CAZ7
 BAR2 SZ EP       2235 24.92                             170    0.0410 25.2 206 
 BAR2 SZ ES       2235 40.79                             170    0.2410 25.2 206 
 BAR2 SZ I        2235 42.64        52.1 0.30            167           25.2 206 
 GIR2 SZ EP       2235 24.91                             167   -0.0310 33.3 339 
 BRR  HZ IP     C 2235 26.77                             151    0.1010 77.4 296 
 BRR  HN ES       2235 44.04                             151    0.3010 77.4 296 
 RUS  HZ IP     D 2235 28.79                             145   -0.0610  100 180 
 RUS  HN ES       2235 47.07                             145   -0.5610  100 180 
 RUS  HZ I        2235 48.75        21.2 0.38            145            100 180 
 PTB  HZ EP       2235 31.85                             131   -0.80 9  154 259 
 PTB  HN ES   3   2235 53.16                             131   -1.22 2  154 259 
 PTB  HZ I        2235 58.82        33.6 0.42            130            154 259 
 OCA  HZ EP       2235 33.22                             130   -0.27 9  161 351 
 OCA  HN ES       2235 56.17                             130    0.30 9  161 351 
 OCA  HZ I        2236  0.96        29.9 0.30            131            161 351 
 NOR  HZ EP       2235 40.77                             119   -0.54 8  240 235 
 NOR  HN ES       2236  9.29                             119   -0.51 8  240 235 
 NOR  HZ I        2236 12.76        19.3 0.20            118            240 235 
 SML  HZ EP       2235 41.66                             118   -0.29 8  247 334 
 SML  HN ES       2236 10.91                             118   -0.03 8  247 334 
 SML  HZ I        2236 13.51        71.8 0.24            118            247 334 
 CHI  HZ EP       2235 43.21                             118    0.35 8  250 197 
 CHI  HN ES       2236 12.98                             118    0.42 8  250 197 
 CHI  HZ I        2236 20.80         8.9 0.34            118            250 197 
 ROSC BZ EP       2235 44.42                             117    0.95 8  256 212 
 ROSC BN ES   4   2236 16.28                             117    2.63 0  256 212 
 HEL  HZ EP       2235 46.16                             115    0.25 7  279 256 
 HEL  HN ES       2236 18.49                             115    0.50 7  279 256 
 HEL  HZ I        2236 23.23         7.2 0.26            114            279 256 
 GUY2CHZ EP   2   2235 49.96                             113    0.78 4  307 236 
 GUY2CHN ES   4   2236 26.70                             113    2.89 0  307 236 
 GUY2CHZ I        2236 31.79        18.0 0.76                           307 236 
 RREF HZ EP   4   2235 53.04                             111    1.37 0  327 230 
 RREF HN ES   4   2236 29.62                             111    1.39 0  327 230 
 RREF HZ I        2236 35.83        12.9 0.30            111            327 230 
 COD  HZ EP       2235 53.01                             110   -0.40 6  349 353 
 COD  HN ES       2236 31.72                             110    0.38 6  349 353 
 COD  HZ I        2236 35.91         5.2 0.72            110            349 353 
 PRA  HZ EP       2235 58.41                             107   -0.40 6  395 210 
 PRA  HN ES       2236 41.41                             107    0.46 6  395 210 
 PRA  HZ I        2236 46.72        10.7 0.34            107            395 210 
 SMAR HZ EP   4   2236  9.55                             103   -1.43 0  499 346 
 SMAR HN ES   4   2236 58.74                             103   -3.87 0  499 346 
                                                                                
