 2013  811 2019 14.5 L   6.804 -73.147148.0  RSN  9 0.4 1.9LRSN                1
 GAP=136        0.97       3.7     4.1  5.5 -0.7273E+00  0.4881E+01  0.3981E+01E
 Epicentro: LOS SANTOS - SANTANDER                                             3
 ACTION:UPD 14-01-14 09:01 OP:ep   STATUS:               ID:20130811201914 L   I
 OLDACT:UP  13-08-11 22:47 OP:cam  STATUS:               ID:20130811201850     3
 OLDACT:REG 13-08-11 22:37 OP:cam  STATUS:               ID:20130811201850     3
 2013-08-11-2018-50M.COL___236                                                 6
 STAT SP IPHASW D HRMM SECON CODA AMPLIT PERI AZIMU VELO AIN AR TRES W  DIS CAZ7
 BAR2 SZ EP       2019 34.20                             170   -0.1610 23.7 189 
 BAR2 SZ ES       2019 49.57                             170   -0.3210 23.7 189 
 BAR2 SZ I        2019 51.52        27.7 0.20            168           23.7 189 
 GIR2 SZ EP       2019 34.27                             168   -0.1110 30.8 351 
 GIR2 SZ ES       2019 49.93                             168    0.0110 30.8 351 
 GIR2 SZ I        2019 51.18        13.5 0.30            166           30.8 351 
 BRR  HZ IP     D 2019 36.02                             153    0.1910 70.8 298 
 BRR  HN ES       2019 53.10                             153    0.6110 70.8 298 
 BRR  HZ I        2019 56.83        17.1 0.20            149           70.8 298 
 PAM  SZ EP       2019 37.31                             151    0.4110 77.2  40 
 PAM  SN ES       2019 54.14                             151   -0.2610 77.2  40 
 PAM  SZ I        2019 55.84        14.1 0.70            156           77.2  40 
 RUS  HZ EP       2019 38.32                             144   -0.1410  101 176 
 RUS  HN ES       2019 57.33                             144    0.1510  101 176 
 RUS  HZ I        2019 57.89        11.1 0.20            145            101 176 
 PTB  HZ EP       2019 40.75                             133   -0.85 9  148 259 
 PTB  HN ES       2020  2.14                             133   -0.62 9  148 259 
 PTB  HZ I        2020  3.93        13.1 0.14            131            148 259 
 SPBC HZ EP       2019 43.25                             130    0.11 9  163 219 
 SPBC HN ES       2020  6.16                             130    0.64 9  163 219 
 SPBC HZ I        2020 12.36        15.4 0.20            129            163 219 
 ZAR  HZ EP   1   2019 47.42                             123    0.41 6  204 292 
 ZAR  HN ES       2020 12.51                             123    0.10 9  204 292 
 ZAR  HZ I        2020 24.78         4.7 0.40            122            204 292 
 CHI  HZ EP   1   2019 52.55                             118    0.23 6  249 195 
 CHI  HN ES   1   2020 21.71                             118   -0.14 6  249 195 
 CHI  HZ I        2020 28.13         3.9 0.32            118            249 195 
                                                                                
