 2010  811 2317 19.3 L   6.873 -73.301119.2  RSN  4 0.1 1.7LRSN                1
 GAP=136        0.47       2.7     5.1  4.5  0.6422E+01 -0.6750E+01 -0.2782E+01E
 Epicentro: BETULIA - SANTANDER                                                3
 ACTION:UP  10-09-07 10:54 OP:vdl  STATUS:               ID:20100811231719 L   I
 2010-08-11-2312-39S.COL___127                                                 6
 STAT SP IPHASW D HRMM SECON CODA AMPLIT PERI AZIMU VELO SNR AR TRES W  DIS CAZ7
 BAR2 SZ EP   1   2317 36.20                             163     0.1 7   34 157 
 BAR2 SZ ES       2317 49.01                             163    -0.210   34 157 
 BAR2 SZ I        2317 50.37        33.1 0.30                            34 157 
 BRR  HZ EP       2317 36.34                             155    -0.210   52 300 
 BRR  HZ I        2317 36.56        26.6 0.14                            52 300 
 BRR  HE ES       2317 50.17                             155     0.210   52 300 
 RUS  HZ EP   1   2317 41.56                             134     0.1 7  111 167 
 RUS  HZ I        2317 41.83         2.7 0.26                           111 167 
 RUS  HN ES       2317 58.83                             134     0.110  111 167 
 GUE  SZ EP   1   2317 41.54                             133     0.1 7  114  21 
 GUE  SZ ES   2   2317 58.81                             133     0.1 5  114  21 
 GUE  SZ I        2317 59.39         6.0 0.15                           114  21 
                                                                                
