 2017  711 2142  1.7 L   6.728 -73.099150.0  RSN  4 0.5 1.6LRSN                1
 GAP=270        0.68       8.9     5.5  6.1  0.1024E+02  0.5571E+01  0.2807E+01E
 Epicentro: JORDAN - SANTANDER                                                 3
 ACTION:UPD 17-08-30 15:32 OP:rebc STATUS:               ID:20170711214201 L   I
 OLDACT:UP  17-07-12 07:20 OP:dani STATUS:               ID:20170711213720d    3
 OLDACT:UP  17-07-12 07:20 OP:dani STATUS:               ID:20170711213720d    3
 OLDACT:DUP 17-07-12 07:15 OP:dani STATUS:               ID:20170711213720d    3
 2017-07-11-2138-00M.COL___380                                                 6
 STAT SP IPHASW D HRMM SECON CODA AMPLIT PERI AZIMU VELO AIN AR TRES W  DIS CAZ7
 BAR2 EZ EP       2142 21.79                             173    0.0510 17.6 212 
 BAR2 EZ ES       2142 37.31                             173   -0.0610 17.6 212 
 BRR  HZ EP       2142 23.83                             151    0.0310 79.7 302 
 BRR  HE ES       2142 41.18                             151    0.1410 79.7 302 
 BRR  HZ I        2142 44.00        11.7 0.37            145           79.7 302 
 PTB  HZ EP       2142 29.06                             132   -0.30 9  152 262 
 PTB  HN ES       2142 51.15                             132    0.22 9  152 262 
 PTB  HZ I        2142 53.62         2.0 0.09            130            152 262 
 ZAR  HZ EP   3   2142 37.16                             122    1.92 2  212 294 
 ZAR  HN ES   2   2143  0.43                             122   -0.96 4  212 294 
 ZAR  HZ I        2143  6.13         5.3 0.31            121            212 294 
                                                                                
