 2012 1011 2122 46.0 L   6.764 -73.066141.1  RSN  5 0.3 1.8LRSN                1
 GAP=149        0.55       3.3     5.6  6.5 -0.3166E+01  0.4566E+00  0.8127E+01E
 Epicentro: LOS SANTOS - SANTANDER                                             3
 ACTION:UPD 12-11-22 17:03 OP:ep   STATUS:               ID:20121011212246 L   I
 2012-10-11-2120-00M.COL___232                                                 6
 STAT SP IPHASW D HRMM SECON CODA AMPLIT PERI AZIMU VELO AIN AR TRES W  DIS CAZ7
 BAR2 SZ EP   1   2123  5.13                             170    0.04 7 23.0 214 
 BAR2 SZ I        2123 21.05        14.8 0.26                          23.0 214 
 PAM  SZ EP   1   2123  8.02                             151    0.39 7 75.4  32 
 PAM  SN ES   1   2123 24.07                             151   -0.41 7 75.4  32 
 PAM  SN I        2123 25.50         8.9 0.38                          75.4  32 
 BRR  HZ EP   1   2123  6.97                             148   -0.30 7 80.9 298 
 BRR  HN ES   1   2123 24.01                             148    0.18 7 80.9 298 
 BRR  HN I        2123 27.74        23.3 0.20                          80.9 298 
 RUS  HZ EP   1   2123  9.11                             144    0.09 7 96.4 181 
 RUS  HN ES   1   2123 27.16                             144    0.21 7 96.4 181 
 RUS  HN I        2123 29.40         8.0 0.26                          96.4 181 
 CHI  HZ EP   1   2123 23.38                             116    0.06 6  247 197 
 CHI  HN ES   1   2123 52.03                             116   -0.38 6  247 197 
 CHI  HN I        2123 54.88         5.2 0.52                           247 197 
                                                                                
