 2012  911 2154 32.7 L   6.790 -73.130142.0  RSN  6 0.2 2.2LRSN                1
 GAP=115        0.49       3.6     3.1  4.3  0.2220E+01  0.9788E-02  0.1881E+00E
 Epicentro: LOS SANTOS - SANTANDER                                             3
 ACTION:UPD 12-10-22 14:18 OP:ep   STATUS:               ID:20120911215432 L   I
 2012-09-11-2150-00M.COL___227                                                 6
 STAT SP IPHASW D HRMM SECON CODA AMPLIT PERI AZIMU VELO AIN AR TRES W  DIS CAZ7
 GIR2 SZ EP       2154 51.88                             166   -0.1010 32.7 348 
 GIR2 SZ ES   2   2155  6.59                             166   -0.42 5 32.7 348 
 BRR  HZ EP       2154 53.65                             151    0.0710 73.2 299 
 BRR  HZ I        2154 54.09        41.2 0.10                          73.2 299 
 BRR  HN ES   1   2155 10.32                             151    0.47 7 73.2 299 
 PAM  SZ EP       2154 54.62                             150    0.1010 77.2  38 
 PAM  SZ I        2154 54.95        35.3 0.20                          77.2  38 
 PAM  SN ES   1   2155 11.36                             150   -0.17 7 77.2  38 
 RUS  HZ EP   3   2154 56.13                             143    0.12 2 99.4 177 
 RUS  HE ES   1   2155 14.03                             143   -0.15 7 99.4 177 
 RUS  HZ I        2155 15.88         8.5 0.30                          99.4 177 
 TAM  HZ IP     D 2155  0.09                             130    0.17 9  153 105 
 TAM  HZ I        2155  0.21        29.4 0.18                           153 105 
 ZAR  HZ EP       2155  4.85                             121   -0.28 8  206 292 
 ZAR  HN ES   3   2155 30.46                             121    0.05 2  206 292 
 ZAR  HZ I        2155 35.85        11.8 0.32                           206 292 
                                                                                
