 2012  511 2329 57.6 L   6.774 -73.145145.5  RSN  6 0.5 1.6LRSN                1
 GAP=153        1.12      15.3     7.7 17.9 -0.2680E+01  0.2179E+02  0.1838E+03E
 Epicentro: LOS SANTOS - SANTANDER                                             3
 ACTION:UP  12-07-05 12:04 OP:pat  STATUS:               ID:20120511232957 L   I
 2012-05-11-2330-00M.COL___195                                                 6
 STAT SP IPHASW D HRMM SECON CODA AMPLIT PERI AZIMU VELO SNR AR TRES W  DIS CAZ7
 BAR2 SZ EP       2330 17.18                             172     0.010   20 191 
 BAR2 SZ I        2330 33.93         7.6 0.24                            20 191 
 BRR  HZ EP   1   2330 19.09                             152     0.3 7   73 301 
 BRR  HN ES   1   2330 35.90                             152     0.6 7   73 301 
 BRR  HZ I        2330 37.98         7.0 0.08                            73 301 
 PAM  SN ES   1   2330 37.03                             150    -0.3 7   80  38 
 PTB  HZ EP   1   2330 23.65                             132    -0.8 7  147 260 
 PTB  HN ES   1   2330 45.03                             132    -0.4 7  147 260 
 PTB  HZ I        2330 51.08         3.7 0.31                           147 260 
 ZAR  HN ES   1   2330 55.69                             122     0.2 6  205 293 
 ZAR  HZ I        2331  0.24         4.4 0.11                           205 293 
 PRA  HZ EP   1   2330 51.87                             107     1.1 4  389 210 
                                                                                
