 2016  611 2054  2.1 L   6.565 -73.570112.0  RSN  8 0.5 2.0LRSN                1
 GAP= 77        1.08       4.1     3.6  7.5 -0.5733E+01  0.4613E+01  0.4005E+01E
 Epicentro: EL CARMEN - SANTANDER                                              3
 ACTION:UPD 16-07-21 22:17 OP:rebc STATUS:               ID:20160611205402 L   I
 OLDACT:REG 16-06-12 03:33 OP:ak   STATUS:               ID:20160611204746     3
 2016-06-11-2047-46M.COL___340                                                 6
 STAT SP IPHASW D HRMM SECON CODA AMPLIT PERI AZIMU VELO AIN AR TRES W  DIS CAZ7
 BAR2 EZ EP       2054 18.45                             158    0.0910 43.0  86 
 BAR2 EZ ES       2054 31.54                             158    0.4610 43.0  86 
 BAR2 EZ I        2054 32.75        69.2 0.34                          43.0  86 
 BRR  HZ EP   2   2054 19.49                             149    0.43 5 61.9 345 
 BRR  HN ES       2054 32.92                             149    0.6010 61.9 345 
 RUS  HZ EP       2054 21.58                             138   -0.3610 91.9 144 
 RUS  HE ES       2054 37.27                             138   -0.1710 91.9 144 
 PTB  HZ IP     D 2054 21.35                             136   -0.4410 98.0 268 
 PTB  HN ES       2054 36.49                             136   -0.6910 98.0 268 
 PTB  HZ I        2054 37.56        84.1 0.04                          98.0 268 
 SPBC HZ EP   2   2054 23.97                             131    0.54 5  115 209 
 SPBC HN ES       2054 40.24                             131    0.1410  115 209 
 PAM  EZ EP       2054 25.20                             128   -0.0410  129  48 
 PAM  EN ES       2054 42.99                             128   -0.3410  129  48 
 PAM  EZ I        2054 44.70         6.9 0.28                           129  48 
 NOR  HZ EP   2   2054 30.13                             117    0.00 4  182 232 
 NOR  HE ES       2054 51.67                             117   -0.35 9  182 232 
 NOR  HZ I        2054 53.97         5.1 0.16                           182 232 
 GUY2CHZ EP   2   2054 39.00                             110    0.87 4  248 233 
 GUY2CHN ES       2055  7.28                             110    1.02 8  248 233 
 GUY2CHZ I        2055 10.99         3.5 0.32                           248 233 
                                                                                
