 2011 1011 2320 44.1 L   6.792 -73.109139.0  RSN 11 0.4 2.0LRSN                1
 GAP=142        0.75       3.5     4.2  6.5 -0.1783E+01  0.8964E+01 -0.1196E+01E
 Epicentro: LOS SANTOS - SANTANDER                                             3
 ACTION:UPD 12-07-13 16:03 OP:ep   STATUS:               ID:20111011232044 L   I
 2011-10-11-2320-00M.COL___171                                                 6
 STAT SP IPHASW D HRMM SECON CODA AMPLIT PERI AZIMU VELO AIN AR TRES W  DIS CAZ7
 BTL  SZ EP   1   2321  3.16                             170    0.25 7 22.5 309 
 BAR2 SZ EP   1   2321  3.02                             170    0.09 7 23.5 200 
 BAR2 SZ ES   1   2321 17.01                             170   -0.60 7 23.5 200 
 BAR2 SZ I        2321 18.93        20.7 0.29                          23.5 200 
 GIR2 SZ EP   1   2321  3.07                             166    0.04 7 33.1 344 
 BRR  HZ IP     C 2321  4.89                             150    0.1210 75.2 298 
 BRR  HZ I        2321  5.17        38.1 0.18                          75.2 298 
 BRR  HN ES   1   2321 21.58                             150    0.69 7 75.2 298 
 PAM  SZ EP   1   2321  5.86                             150    0.36 7 75.6  37 
 PAM  SN ES   1   2321 22.15                             150   -0.03 7 75.6  37 
 PAM  SZ I        2321 25.36        11.6 0.37                          75.6  37 
 RUS  HZ EP   1   2321  7.16                             143    0.04 7 99.5 178 
 RUS  HN ES   1   2321 24.73                             143   -0.34 7 99.5 178 
 RUS  HZ I        2321 26.49         6.1 0.30                          99.5 178 
 OCA  SZ EP   1   2321 11.58                             128   -0.46 7  162 352 
 ZAR  HZ EP   1   2321 16.23                             120   -0.33 6  208 292 
 ZAR  HN ES   1   2321 41.46                             120   -0.41 6  208 292 
 ZAR  HZ I        2321 47.68        14.2 0.12                           208 292 
 NOR  SN ES   1   2321 48.34                             117    0.77 6  238 235 
 CHI  HE ES   1   2321 50.63                             116    0.03 6  249 196 
 HEL  HN ES   1   2321 55.29                             113   -0.55 6  276 256 
 HEL  HZ I        2322  1.42         7.2 0.43                           276 256 
                                                                                
