 2017 1111 2339 25.8 L   6.774 -73.138132.0  RSN 12 0.6 1.8LRSN                1
 GAP=139        1.36       4.4     5.2  7.4 -0.1120E+01  0.1057E+02  0.9077E+01E
 Epicentro: LOS SANTOS - SANTANDER                                             3
 ACTION:UPD 17-12-12 19:54 OP:rebc STATUS:               ID:20171111233925 L   I
 OLDACT:REG 17-11-12 03:07 OP:dhb  STATUS:               ID:20171111233737     3
 2017-11-11-2338-00M.COL___456                                                 6
 STAT SP IPHASW D HRMM SECON CODA AMPLIT PERI AZIMU VELO AIN AR TRES W  DIS CAZ7
 BAR2 EZ IP     C 2339 43.44                             171   -0.3010 20.7 194 
 BAR2 EZ ES       2339 57.74                             171    0.0310 20.7 194 
 BAR2 EZ I        2339 59.13        18.4 0.22            170           20.7 194 
 BRR  HZ IP     C 2339 45.36                             149   -0.2710 73.4 300 
 BRR  HE ES       2340  1.58                             149    0.4910 73.4 300 
 BRR  HZ I        2340  6.96        13.3 0.12            147           73.4 300 
 PAM  EZ EP       2339 46.38                             148   -0.3210 79.1  38 
 PAM  EN ES       2340  3.18                             148    0.2010 79.1  38 
 PAM  EZ I        2340  4.79        12.9 0.22            150           79.1  38 
 RUS  HZ EP       2339 47.63                             142   -0.3810 97.6 176 
 RUS  HN ES       2340  5.73                             142    0.4110 97.6 176 
 RUS  HZ I        2340  6.72        11.8 0.24            144           97.6 176 
 PTB  HZ EP   2   2339 50.26                             129   -1.47 5  148 260 
 PTB  HN ES       2340 11.77                             129   -0.17 9  148 260 
 PTB  HZ I        2340 14.59         8.1 0.52            128            148 260 
 SPBC HZ EP       2339 52.20                             126   -0.93 9  161 220 
 SPBC HN ES       2340 13.38                             126   -1.05 9  161 220 
 SPBC HZ I        2340 15.87        13.4 0.26            127            161 220 
 ZAR  HZ EP       2339 58.22                             119    0.61 8  206 293 
 ZAR  HE ES       2340 22.87                             119    0.46 8  206 293 
 ZAR  HZ I        2340 30.17        11.4 0.50            119            206 293 
 NOR  HZ EP       2339 59.98                             116   -0.70 8  234 235 
 NOR  HN ES       2340 27.94                             116    0.07 8  234 235 
 NOR  HZ I        2340 29.96         4.7 0.40            116            234 235 
 CHI  HZ EP       2340  3.34                             114    0.84 8  246 196 
 CHI  HE ES       2340 32.32                             114    1.21 8  246 196 
 CHI  HZ I        2340 37.74         1.6 0.22            116            246 196 
 GUY2CHZ EP       2340  9.39                             110    0.67 7  300 235 
 GUY2CHE ES   4   2340 46.15                             110    3.97 0  300 235 
 GUY2CHZ I        2340 48.81         4.6 0.24                           300 235 
 PRA  HZ EP       2340 19.33                             104    0.68 6  390 210 
 PRA  HE ES       2340 59.96                             104    0.11 6  390 210 
 PRA  HZ I        2341  3.65         2.6 0.26            105            390 210 
 SJC  HZ EP   9   2340 18.45                             103   -2.86 0  412 327 
 SJC  HN ES       2341  1.77                                    0.04 6  412 327 
 SJC  HZ I        2341 11.54         1.2 0.50            104            412 327 
                                                                                
