 2017  311 2347 35.8 L   6.741 -73.132144.6  RSN  6 0.4 1.5LRSN                1
 GAP=141        1.04       4.9     5.2  7.6 -0.6287E+01  0.4912E+01  0.8884E+00E
 Epicentro: LOS SANTOS - SANTANDER                                             3
 ACTION:UPD 17-05-25 18:39 OP:jn   STATUS:               ID:20170311234735 L   I
 OLDACT:REG 17-03-12 02:48 OP:lv   STATUS:               ID:20170311233740     3
 2017-03-11-2338-00M.COL___397                                                 6
 STAT SP IPHASW D HRMM SECON CODA AMPLIT PERI AZIMU VELO AIN AR TRES W  DIS CAZ7
 BAR2 EZ EP       2347 54.97                             173   -0.2210 17.4 199 
 BAR2 EZ ES       2348  9.82                             173   -0.4910 17.4 199 
 BAR2 EZ I        2348 11.29        11.8 0.26            172           17.4 199 
 BRR  HZ EP       2347 57.17                             151    0.0710 75.9 302 
 BRR  HN ES       2348 14.49                             151    0.7810 75.9 302 
 PAM  EZ EP       2347 58.34                             149    0.1810 81.6  36 
 PAM  EE ES       2348 15.42                             149   -0.1710 81.6  36 
 PAM  EZ I        2348 17.72         6.4 0.22            151           81.6  36 
 RUS  HZ EP       2347 58.97                             145   -0.0010 94.0 177 
 RUS  HN ES       2348 17.22                             145    0.1810 94.0 177 
 RUS  HZ I        2348 19.17         3.6 0.29            146           94.0 177 
 PTB  HZ EP       2348  2.61                             132   -0.11 9  148 261 
 PTB  HN ES       2348 22.98                             132   -0.73 9  148 261 
 PTB  HZ I        2348 25.54         3.3 0.10            133            148 261 
 SPBC HE ES       2348 26.16                             129    0.46 9  159 221 
 SPBC HZ I        2348 28.57         6.1 0.09            130            159 221 
                                                                                
