 2014 1111 2053 13.4 L   6.802 -73.175142.7  RSN  6 0.2 1.6LRSN                1
 GAP=133        0.62       3.1     2.9  4.1 -0.2148E+01  0.2717E+01  0.1733E+01E
 Epicentro: LOS SANTOS - SANTANDER                                             3
 ACTION:UPD 14-12-19 15:42 OP:nd   STATUS:               ID:20141111205313 L   I
 OLDACT:REG 14-11-12 09:22 OP:carl STATUS:               ID:20141111204748     3
 2014-11-11-2047-48M.COL___294                                                 6
 STAT SP IPHASW D HRMM SECON CODA AMPLIT PERI AZIMU VELO AIN AR TRES W  DIS CAZ7
 BAR2 SZ EP       2053 32.68                             170    0.0410 23.3 182 
 BAR2 SZ ES       2053 47.48                             170   -0.1810 23.3 182 
 BAR2 SZ I        2053 48.97        15.8 0.84            169           23.3 182 
 BRR  HZ EP       2053 34.51                             153    0.4810 68.2 300 
 BRR  HN ES       2053 50.14                             153    0.0110 68.2 300 
 PAM  SZ EP       2053 35.45                             150    0.0710 79.3  41 
 PAM  SN ES       2053 52.39                             150   -0.1610 79.3  41 
 PAM  SZ I        2053 54.92         4.4 0.72            153           79.3  41 
 RUS  HZ EP       2053 36.95                             143    0.0810  101 174 
 RUS  HN ES       2053 55.28                             143    0.0910  101 174 
 RUS  HZ I        2053 56.72         4.2 0.42            144            101 174 
 PTB  HZ EP       2053 39.59                             132   -0.22 9  145 258 
 PTB  HN ES       2054  0.35                             132   -0.08 9  145 258 
 PTB  HZ I        2054  3.71         5.2 0.18            132            145 258 
 NOR  HZ EP       2053 48.15                             118   -0.51 8  232 234 
 NOR  HN ES       2054 16.42                             118    0.23 8  232 234 
 NOR  HZ I        2054 22.58         2.7 0.26            119            232 234 
                                                                                
