 2015  411 2154 32.7 L   6.824 -73.152148.6  RSN 11 0.5 2.3LRSN                1
 GAP=146        1.12       4.0     4.7  6.0 -0.6776E+01  0.8836E+01  0.1301E+01E
 Epicentro: LOS SANTOS - SANTANDER                                             3
 ACTION:UPD 15-06-03 16:54 OP:cam  STATUS:               ID:20150411215432 L   I
 OLDACT:REG 15-04-12 04:44 OP:fm   STATUS:               ID:20150411214747     3
 2015-04-11-2147-47M.COL___266                                                 6
 STAT SP IPHASW D HRMM SECON CODA AMPLIT PERI AZIMU VELO AIN AR TRES W  DIS CAZ7
 BAR2 EZ EP       2154 52.58                             170   -0.1210 25.8 187 
 BAR2 EZ ES       2155  8.64                             170    0.3310 25.8 187 
 BAR2 EZ I        2155 10.31        25.1 0.28            168           25.8 187 
 BRR  HZ EP       2154 54.43                             154    0.4010 69.3 297 
 BRR  HN ES       2155 11.63                             154    0.9510 69.3 297 
 BRR  HZ I        2155 16.78        17.7 0.14            151           69.3 297 
 PAM  SZ EP       2154 55.24                             152    0.1410 75.9  41 
 PAM  SN ES       2155 12.15                             152   -0.4510 75.9  41 
 PAM  SZ I        2155 14.74        29.6 0.50            157           75.9  41 
 PTB  HZ EP       2154 59.52                             133   -0.34 9  148 258 
 PTB  HN ES       2155 20.34                             133   -0.72 9  148 258 
 PTB  HZ I        2155 26.55        20.7 0.56            133            148 258 
 SPBC HZ EP       2155  1.54                             129   -0.00 9  165 218 
 SPBC HE ES       2155 23.35                             129   -0.70 9  165 218 
 SPBC HZ I        2155 30.53        31.3 0.46            131            165 218 
 ZAR  HZ EP       2155  5.20                             123    0.06 9  202 292 
 ZAR  HE ES       2155 30.10                             123   -0.35 9  202 292 
 ZAR  HZ I        2155 36.91        17.9 0.32            124            202 292 
 NOR  HZ EP       2155  8.65                             119   -0.02 8  236 234 
 NOR  HE ES       2155 36.22                             119   -0.52 8  236 234 
 NOR  HZ I        2155 43.72        11.5 0.26            121            236 234 
 SML  HZ EP       2155  9.49                             118    0.32 8  241 335 
 SML  HN ES       2155 37.02                             118   -0.62 8  241 335 
 SML  HZ I        2155 42.58        17.9 0.10            121            241 335 
 HEL  HZ EP       2155 13.22                             115    0.19 8  272 255 
 HEL  HN ES       2155 45.12                             115    0.62 8  272 255 
 HEL  HZ I        2155 51.31         8.1 0.36            117            272 255 
 GUY2CHZ EP       2155 16.84                             113    0.32 7  302 234 
 GUY2CHE ES       2155 50.94                             113    0.23 7  302 234 
 GUY2CHZ I        2155 59.45        13.6 0.74                           302 234 
 RREF HN EP       2155 18.75                             111   -0.32 7  323 229 
 RREF HE ES       2155 56.13                             111    0.87 7  323 229 
 RREF HN I        2156  2.31        17.7 0.32            113            323 229 
                                                                                
