 2010  711 2018 14.7 L   6.807 -73.065144.1  RSN 13 0.4 2.5LRSN                1
 GAP=165        0.98       3.6     7.5  6.7 -0.1040E+02  0.2151E+01  0.2592E+01E
 Epicentro: LOS SANTOS - SANTANDER                                             3
 ACTION:UPD 10-12-01 15:16 OP:pat  STATUS:               ID:20100711201814 L   I
 2010-07-11-2014-27S.COL___120                                                 6
 STAT SP IPHASW D HRMM SECON CODA AMPLIT PERI AZIMU VELO AIN AR TRES W  DIS CAZ7
 BAR2 SZ IP       2018 34.27                             169     0.110   27 209 
 BAR2 SZ ES   1   2018 49.05                             169    -0.4 7   27 209 
 BAR2 SZ I        2018 51.88        73.7 0.30                            27 209 
 BRR  HZ IP     D 2018 36.08                             149     0.010   79 295 
 BRR  HN ES   1   2018 53.23                             149     0.4 7   79 295 
 BRR  HZ I        2018 56.86        47.7 0.24                            79 295 
 RUS  HZ IP     C 2018 38.29                             143     0.010  101 181 
 RUS  HN ES   1   2018 56.63                             143    -0.1 7  101 181 
 RUS  HZ I        2018 58.41        28.7 0.39                           101 181 
 BRI  SZ EP       2018 37.80                             142    -0.410  105  16 
 BRI  SZ I        2019  1.30        31.1 0.48                           105  16 
 GUE  SZ EP       2018 39.15                             139     0.110  114   8 
 GRA  SZ IP       2018 40.08                             137     0.510  123  14 
 GRA  SZ ES   1   2018 59.33                             137     0.4 7  123  14 
 GRA  SZ I        2019  1.08        29.0 0.45                           123  14 
 OCA  SZ EP       2018 42.60                             129    -0.3 9  161 350 
 OCA  SZ ES   1   2019  4.35                             129    -0.6 7  161 350 
 OCA  SZ I        2019 12.76        37.8 0.31                           161 350 
 CHI  HZ EP   1   2018 52.24                             116    -0.4 6  252 197 
 CHI  HE ES   2   2019 21.79                             116    -0.5 4  252 197 
 CHI  HZ I        2019 28.28        14.5 0.20                           252 197 
 ROSC BZ EP       2018 54.30                             116     1.0 8  258 213 
 ROSC BE ES   2   2019 23.93                             116     0.5 4  258 213 
 ROSC BZ I        2019 30.85        22.9 0.76                           258 213 
 CVER SZ EP   2   2018 55.79                             114     0.3 4  276 204 
 CVER SZ I        2018 57.45        36.0 0.29                           276 204 
 HEL  HZ EP   2   2018 55.65                             113    -0.2 4  281 256 
 HEL  HE ES   2   2019 27.72                             113    -0.2 4  281 256 
 HEL  HZ I        2019 34.61        15.6 0.20                           281 256 
 RREF HZ EP   1   2019  1.57                             110     0.0 5  329 230 
 RREF HZ I        2019 44.06        18.1 0.26                           329 230 
 PRA  HZ EP   1   2019  8.00                             106    -0.8 4  397 211 
 PRA  HN ES   2   2019 50.41                             106    -0.5 3  397 211 
 PRA  HZ I        2019 54.83        18.8 0.30                           397 211 
                                                                                
