 2016  211 2209 27.9 L   6.747 -73.102139.8  RSN  5 0.2 1.5LRSN                1
 GAP=145        0.62       3.2     3.4  4.5  0.6401E+00  0.3207E+01 -0.2653E+01E
 Epicentro: LOS SANTOS - SANTANDER                                             3
 ACTION:UPD 16-03-04 21:25 OP:rebc STATUS:               ID:20160211220927 L   I
 OLDACT:REG 16-02-12 04:09 OP:cara STATUS:               ID:20160211220749     3
 2016-02-11-2207-49M.COL___292                                                 6
 STAT SP IPHASW D HRMM SECON CODA AMPLIT PERI AZIMU VELO AIN AR TRES W  DIS CAZ7
 BAR2 EZ IP       22 9 46.82                             172    0.0710 19.3 208 
 BAR2 EZ ES       2210  1.19                             172   -0.2510 19.3 208 
 BAR2 EZ I        2210  2.92         8.8 0.14            171           19.3 208 
 PAM  EZ IP     D 22 9 49.73                             149    0.1110 79.2  34 
 PAM  EN ES       2210  6.47                             149   -0.0710 79.2  34 
 PAM  EZ I        2210  8.96         5.5 0.66            151           79.2  34 
 RUS  HZ EP       22 9 50.33                             144   -0.3210 94.5 179 
 RUS  HN ES       2210  8.72                             144    0.3510 94.5 179 
 RUS  HZ I        2210 11.27         2.5 0.28            146           94.5 179 
 PTB  HZ EP   9   22 9 53.69                             130   -1.07 0  152 261 
 PTB  HN ES       2210 14.25                                   -0.37 9  152 261 
 PTB  HZ I        2210 17.31         5.0 0.18            130            152 261 
 ZAR  HZ EP       2210  0.71                             120    0.02 8  211 293 
 ZAR  HN ES       2210 26.38                             120    0.13 8  211 293 
 ZAR  HZ I        2210 30.59         6.8 0.38            121            211 293 
 CHI  HN ES   4   2210 36.37                             116    2.77 0  244 197 
                                                                                
