 2017  911 2135  3.2 L   6.762 -73.112141.3  RSN  7 0.2 2.0LRSN                1
 GAP=143        0.38       1.7     1.8  2.5 -0.2706E-01  0.1692E+01  0.2723E+00E
 Epicentro: LOS SANTOS - SANTANDER                                             3
 ACTION:UPD 17-10-05 19:11 OP:rebc STATUS:               ID:20170911213503 L   I
 OLDACT:UP  17-09-12 04:54 OP:dani STATUS:               ID:20170911212740     3
 OLDACT:UP  17-09-12 04:53 OP:dani STATUS:               ID:20170911212740     3
 OLDACT:UP  17-09-12 04:52 OP:dani STATUS:               ID:20170911212740     3
 OLDACT:UP  17-09-12 04:52 OP:dani STATUS:               ID:20170911212740     3
 OLDACT:REG 17-09-12 02:38 OP:dani STATUS:               ID:20170911212740     3
 2017-09-11-2128-00M.COL___431                                                 6
 STAT SP IPHASW D HRMM SECON CODA AMPLIT PERI AZIMU VELO AIN AR TRES W  DIS CAZ7
 BAR2 EZ EP       2135 22.21                             171   -0.0210 20.4 203 
 BAR2 EZ ES       2135 36.95                             171   -0.1310 20.4 203 
 BAR2 EZ I        2135 38.01        29.7 0.16            172           20.4 203 
 BRR  HZ EP       2135 24.08                             150   -0.1010 76.5 300 
 BRR  HN ES       2135 40.68                             150    0.1310 76.5 300 
 BRR  HZ I        2135 45.20        21.9 0.10            150           76.5 300 
 PAM  EZ EP       2135 25.16                             150    0.1610 78.4  35 
 PAM  EE ES       2135 41.93                             150   -0.0810 78.4  35 
 PAM  EZ I        2135 44.35        16.5 0.54            152           78.4  35 
 RUS  HZ EP       2135 26.15                             144   -0.0510 96.2 178 
 RUS  HN ES       2135 44.28                             144    0.1510 96.2 178 
 RUS  HZ I        2135 45.41         9.6 0.24            147           96.2 178 
 ZAR  HZ EP       2135 35.81                             121   -0.08 8  209 293 
 ZAR  HN ES       2136  1.46                             121    0.08 8  209 293 
 NOR  HZ EP       2135 38.60                             117   -0.15 8  235 236 
 NOR  HN ES       2136  6.48                             117    0.00 8  235 236 
 NOR  HZ I        2136  8.06         7.6 0.16            120            235 236 
 GUY2CHZ EP   3   2135 48.10                             111    1.41 2  302 236 
 GUY2CHN ES   4   2136 23.98                             111    3.37 0  302 236 
 GUY2CHZ I        2136 27.52         6.1 0.24                           302 236 
                                                                                
