 2016  911 2120 37.7 L   6.804 -73.149146.7  RSN  4 0.1 1.1LRSN                1
 GAP=136        0.39       2.1     2.9  3.5 -0.4176E+00 -0.2784E+01  0.7667E+00E
 Epicentro: LOS SANTOS - SANTANDER                                             3
 ACTION:UPD 17-08-17 21:08 OP:lp   STATUS:               ID:20160911212037 L   I
 OLDACT:UP  16-09-12 05:35 OP:edw  STATUS:               ID:20160911211740     3
 OLDACT:REG 16-09-12 03:46 OP:edw  STATUS:               ID:20160911211740     3
 2016-09-11-2118-00M.COL___303                                                 6
 STAT SP IPHASW D HRMM SECON CODA AMPLIT PERI AZIMU VELO AIN AR TRES W  DIS CAZ7
 BRR  HZ EP       2120 58.93                             153    0.0510 70.7 298 
 BRR  HN ES       2121 15.36                             153   -0.0710 70.7 298 
 PAM  EZ EP       2121  0.14                             151    0.1710 77.3  40 
 PAM  EE ES       2121 17.30                             151   -0.0710 77.3  40 
 PAM  EZ I        2121 19.94         2.1 0.50            151           77.3  40 
 RUS  HZ EP       2121  1.37                             144   -0.1610  101 176 
 RUS  HN ES       2121 20.24                             144    0.0910  101 176 
 RUS  HZ I        2121 20.88         2.5 0.28            146            101 176 
 PTB  HZ EP   9   2121  3.92                             132   -0.76 0  147 259 
 PTB  HE ES       2121 25.08                             133    0.09 9  147 259 
 PTB  HZ I        2121 26.87         1.1 0.07            134            147 259 
                                                                                
