 2011 1211 2301 31.2 L   6.760 -73.121146.1  RSN  9 0.4 1.7LRSN                1
 GAP=142        0.76       4.7     5.8  6.2 -0.4441E+01 -0.2103E+01 -0.1036E+01E
 Epicentro: LOS SANTOS - SANTANDER                                             3
 ACTION:UPD 12-07-13 16:15 OP:ep   STATUS:               ID:20111211230131 L   I
 2011-12-11-2300-00M.COL___186                                                 6
 STAT SP IPHASW D HRMM SECON CODA AMPLIT PERI AZIMU VELO AIN AR TRES W  DIS CAZ7
 BAR2 SZ EP   3   23 1 50.58                             172   -0.25 2 19.8 200 
 BAR2 SZ ES   1   23 2  5.50                             172   -0.62 7 19.8 200 
 BAR2 SZ I        23 2  7.04        10.7 0.46                          19.8 200 
 GIR2 SZ EP       23 1 51.09                             165    0.0210 36.1 347 
 GIR2 SZ ES   2   23 2  7.05                             165    0.49 5 36.1 347 
 BRR  HZ EP       23 1 52.65                             151   -0.0210 75.8 300 
 BRR  HZ I        23 1 52.97        20.8 0.16                          75.8 300 
 BRR  HE ES   1   23 2 10.01                             151    0.61 7 75.8 300 
 PAM  SZ EP       23 1 53.92                             150    0.3410 79.2  36 
 PAM  SN ES   2   23 2 10.14                             150   -0.88 5 79.2  36 
 RUS  HZ EP       23 1 54.69                             145    0.0110 96.0 178 
 RUS  HZ I        23 1 55.98         2.5 0.16                          96.0 178 
 RUS  HN ES   2   23 2 13.63                             145    0.65 5 96.0 178 
 PTB  HZ EP   2   23 1 58.18                             132   -0.21 5  150 261 
 PTB  HN ES   2   23 2 18.71                             132   -0.88 5  150 261 
 PTB  HZ I        23 2 26.20        11.7 0.40                           150 261 
 OCA  SZ EP       23 1 59.80                             129   -0.20 9  165 352 
 OCA  SZ I        23 2 30.70         7.3 0.47                           165 352 
 NOR  SE ES   2   23 2 35.16                             119    0.36 4  234 236 
 CHI  HZ EP   2   23 2  8.26                             117   -0.30 4  245 196 
                                                                                
