 2011  511 2226 50.5 L   6.801 -73.219136.1  RSN  5 0.1 1.4LRSN                1
 GAP=209        0.29       2.7    13.1  4.2 -0.2628E+02  0.1196E+02 -0.4327E+01E
 Epicentro: ZAPATOCA - SANTANDER                                               3
 ACTION:UP  11-06-29 08:52 OP:tino STATUS:               ID:20110511222650 L   I
 2011-05-11-2223-51S.COL___129                                                 6
 STAT SP IPHASW D HRMM SECON CODA AMPLIT PERI AZIMU VELO SNR AR TRES W  DIS CAZ7
 BAR2 SZ EP   1   2227  8.93                             170     0.0 8   23 170 
 BAR2 SZ ES   2   2227 23.44                             170     0.1 5   23 170 
 BAR2 SZ I        2227 24.74         5.3 0.27                            23 170 
 PAM  SZ EP   1   2227 12.05                             147     0.0 8   83  44 
 RUS  HZ EP   1   2227 13.39                             141     0.0 8  102 171 
 RUS  HN ES   1   2227 31.23                             141     0.0 8  102 171 
 RUS  HZ I        2227 32.18         4.2 0.23                           102 171 
 BRI  SZ EP   2   2227 13.97                             138     0.2 5  112  25 
 GRA  SZ EP       2227 15.09                             134     0.010  128  21 
 GRA  SZ ES   1   2227 34.31                             134     0.0 7  128  21 
 GRA  SZ I        2227 39.03         4.3 0.29                           128  21 
                                                                                
