 2017  111 2118 54.0 L   6.803 -73.117149.5  RSN  8 0.3 1.6LRSN                1
 GAP=140        0.75       3.1     3.7  6.2  0.1626E-01  0.7582E+01  0.5368E+01E
 Epicentro: LOS SANTOS - SANTANDER                                             3
 ACTION:UPD 17-05-22 15:58 OP:jn   STATUS:               ID:20170111211854 L   I
 OLDACT:DUP 17-01-12 01:21 OP:lv   STATUS:               ID:20170111210748d    3
 2017-01-11-2108-00M.COL___340                                                 6
 STAT SP IPHASW D HRMM SECON CODA AMPLIT PERI AZIMU VELO AIN AR TRES W  DIS CAZ7
 BRR  HZ EP       2119 15.98                             152    0.2810 73.9 297 
 BRR  HE ES       2119 32.77                             152    0.1410 73.9 297 
 PAM  EZ EP       2119 16.83                             152    0.3510 75.1  38 
 PAM  EN ES       2119 33.86                             152   -0.1610 75.1  38 
 PAM  EZ I        2119 36.63        12.2 0.63            157           75.1  38 
 RUS  HZ EP       2119 17.95                             144   -0.1810  101 178 
 RUS  HE ES       2119 36.87                             144   -0.0810  101 178 
 RUS  HZ I        2119 38.28         2.4 0.18            147            101 178 
 PTB  HZ EP       2119 20.87                             132   -0.69 9  151 259 
 PTB  HN ES   4   2119 41.95                             132   -1.11 0  151 259 
 PTB  HZ I        2119 47.72         4.5 0.18            132            151 259 
 ZAR  HE ES       2119 52.53                             123   -0.18 8  207 292 
 ZAR  HZ I        2119 58.20         5.7 0.33            124            207 292 
 NOR  HZ EP       2119 30.50                             119    0.25 8  237 235 
 NOR  HN ES       2119 58.81                             119    0.29 8  237 235 
 NOR  HZ I        2120  6.65         2.7 0.18            120            237 235 
 CHI  HN ES       2120  1.75                             118    0.05 8  250 196 
 GUY2CHN ES   4   2120 15.39                             113    2.90 0  304 235 
 GUY2CHZ  IAML    2120 20.87         1.8 0.37                           304 235 
                                                                                
