 2016  711 2003 23.2 L   6.922 -73.285118.8  RSN 10 0.3 2.2LRSN                1
 GAP=229        0.83       4.3     5.3  5.4  0.1357E+02  0.1533E+02  0.1053E+02E
 Epicentro: BETULIA - SANTANDER                                                3
 ACTION:UPD 17-03-29 16:49 OP:lp   STATUS:               ID:20160711200323 L   I
 OLDACT:UP  16-07-12 04:08 OP:drio STATUS:               ID:20160711195759     3
 OLDACT:UP  16-07-12 04:08 OP:drio STATUS:               ID:20160711195759     3
 OLDACT:REG 16-07-12 03:56 OP:drio STATUS:               ID:20160711195759     3
 2016-07-11-1957-59S.COL___331                                                 6
 STAT SP IPHASW D HRMM SECON CODA AMPLIT PERI AZIMU VELO AIN AR TRES W  DIS CAZ7
 BAR2 EZ EP       20 3 40.38                             161    0.3410 38.2 163 
 BAR2 EZ ES       20 3 53.27                             161    0.0610 38.2 163 
 BAR2 EZ I        20 3 54.53        47.9 0.26            155           38.2 163 
 BRR  HZ EP       20 3 40.35                             155    0.0610 51.4 293 
 BRR  HN ES       20 3 53.79                             155    0.1310 51.4 293 
 BRR  HZ I        20 3 54.74        63.1 0.12            152           51.4 293 
 RUS  HZ EP       20 3 45.34                             133   -0.3610  116 169 
 RUS  HE ES       20 4  2.95                             133   -0.3310  116 169 
 RUS  HZ I        20 4  3.81        26.2 0.24            131            116 169 
 PTB  HZ EP   4   20 3 45.10                             127   -1.84 0  136 252 
 PTB  HN ES   4   20 4  1.76                             127   -3.74 0  136 252 
 PTB  HZ I        20 4  7.68        35.3 0.40            125            136 252 
 SPBC HZ EP       20 3 49.41                             122   -0.55 9  165 212 
 SPBC HE ES   4   20 4  9.24                             122   -1.62 0  165 212 
 SPBC HZ I        20 4 16.03        19.1 0.36            120            165 212 
 ZAR  HZ EP       20 3 51.43                             118   -0.49 9  185 290 
 ZAR  HE ES       20 4 14.38                             118    0.03 9  185 290 
 ZAR  HZ I        20 4 16.29        28.5 0.32            119            185 290 
 NOR  HN EP       20 3 57.68                             113    0.63 8  231 229 
 NOR  HE ES   4   20 4 20.71                             113   -2.77 0  231 229 
 NOR  HZ I        20 4 26.06        17.5 0.22            112            231 229 
 CHI  HZ EP       20 4  1.25                             110    0.63 8  258 191 
 CHI  HE ES       20 4 30.08                             110    0.24 8  258 191 
 CHI  HZ I        20 4 41.14         4.1 0.32            110            258 191 
 HEL  HZ EP       20 4  0.80                             110   -0.08 8  261 252 
 HEL  HE ES   4   20 4 31.22                             110    0.92 0  261 252 
 HEL  HZ I        20 4 33.25        14.7 0.30            110            261 252 
 URE  HZ EP   4   20 3 59.79                             109   -1.05 0  265 290 
 URE  HE ES   4   20 4 28.07                             109   -2.17 0  265 290 
 GUY2CHZ EP       20 4  5.36                             107    0.17 7  297 231 
 GUY2CHN ES       20 4 37.75                             107   -0.22 7  297 231 
 GUY2CHZ I        20 4 43.02         7.6 0.50                           297 231 
                                                                                
