 2010  811 2251 28.2 L   6.796 -73.032147.5  RSN 10 0.4 2.4LRSN                1
 GAP=177        0.94       4.2     7.8  5.7  0.6785E+00  0.8119E+01  0.8191E+01E
 Epicentro: CEPITA - SANTANDER                                                 3
 ACTION:UP  10-09-07 10:54 OP:vdl  STATUS:               ID:20100811225128 L   I
 2010-08-11-2247-48S.COL___127                                                 6
 STAT SP IPHASW D HRMM SECON CODA AMPLIT PERI AZIMU VELO SNR AR TRES W  DIS CAZ7
 BAR2 SZ EP   1   2251 48.11                             169    -0.1 7   28 217 
 BAR2 SZ ES       2252  3.46                             169    -0.310   28 217 
 BAR2 SZ I        2252  4.86        91.0 0.19                            28 217 
 GIR2 SZ EP   1   2251 48.21                             166     0.0 7   36 330 
 GIR2 SZ ES       2252  4.08                             166     0.210   36 330 
 BRR  HZ EP   1   2251 50.06                             149    -0.2 7   83 295 
 BRR  HE ES       2252  7.32                             149    -0.110   83 295 
 BRR  HZ I        2252  8.29        45.5 0.44                            83 295 
 RUS  HZ EP       2251 52.03                             144    -0.110  100 183 
 RUS  HN ES       2252 10.97                             144     0.210  100 183 
 RUS  HZ I        2252 12.37        23.6 0.23                           100 183 
 GUE  SZ EP   1   2251 53.16                             140     0.2 7  115   6 
 CHI  HZ EP   1   2252  6.24                             117    -0.1 6  252 198 
 CHI  HZ I        2252  6.61        10.5 0.14                           252 198 
 CHI  HE ES       2252 35.84                             117    -0.3 8  252 198 
 ROSC BZ EP   1   2252  8.26                             116     1.1 6  259 213 
 ROSC BZ I        2252 43.61        17.5 0.36                           259 213 
 HEL  HZ EP   1   2252  9.28                             114    -0.6 6  284 257 
 HEL  HZ I        2252 47.68        11.2 0.23                           284 257 
 RREF HZ EP   1   2252 16.30                             110     0.8 5  331 231 
 RREF HN ES   1   2252 53.09                             110     0.7 5  331 231 
 RREF HZ I        2252 58.90        14.0 0.29                           331 231 
 PRA  HZ EP   1   2252 21.50                             106    -1.0 4  398 211 
 PRA  HE ES   2   2253  3.98                             106    -0.9 3  398 211 
 PRA  HZ I        2253  9.89        12.6 0.61                           398 211 
                                                                                
