 2011  111 2300 54.1 L   6.781 -73.131146.0  RSN  7 0.3 1.9LRSN                1
 GAP=160        0.61       4.5     9.8  8.8 -0.2442E+02  0.2652E+02  0.1108E+01E
 Epicentro: LOS SANTOS - SANTANDER                                             3
 ACTION:UP  11-02-08 08:40 OP:pat  STATUS:               ID:20110111230054 L   I
 2011-01-11-2256-32S.COL___136                                                 6
 STAT SP IPHASW D HRMM SECON CODA AMPLIT PERI AZIMU VELO SNR AR TRES W  DIS CAZ7
 BTL  SZ EP       23 1 14.13                             171     0.410   21 315 
 BAR2 SZ EP   1   23 1 13.40                             171    -0.4 7   22 196 
 BAR2 SZ ES   2   23 1 28.53                             171    -0.5 5   22 196 
 BAR2 SZ I        23 1 32.28        21.9 0.53                            22 196 
 GIR2 SZ EP   2   23 1 13.83                             166    -0.1 5   34 348 
 RUS  HZ EP   1   23 1 17.82                             144     0.1 7   98 177 
 RUS  HE ES   2   23 1 36.48                             144     0.3 5   98 177 
 GRA  SZ EP   2   23 1 18.81                             137    -0.7 5  127  16 
 GRA  SZ ES   1   23 1 39.47                             137     0.1 7  127  16 
 GRA  SZ I        23 1 40.05         8.5 0.31                           127  16 
 NOR  SZ EP   2   23 1 29.83                             118    -0.1 4  235 235 
 NOR  SE ES   2   23 1 57.80                             118     0.0 4  235 235 
 CHI  HZ EP   2   23 1 31.72                             117     0.0 4  247 196 
 CHI  HE ES   2   23 2  0.85                             117    -0.1 4  247 196 
 CHI  HZ I        23 2  9.14         5.1 0.37                           247 196 
                                                                                
