 2012 1111 2318 56.7 L   6.799 -73.151140.5  RSN  5 0.3 1.7LRSN                1
 GAP=136        0.80       3.8     3.8  7.6  0.5508E+00  0.8451E+01  0.5906E+01E
 Epicentro: LOS SANTOS - SANTANDER                                             3
 ACTION:UPD 12-12-05 15:32 OP:}ep  STATUS:               ID:20121111231856 L   I
 2012-11-11-2317-36M.COL___222                                                 6
 STAT SP IPHASW D HRMM SECON CODA AMPLIT PERI AZIMU VELO AIN AR TRES W  DIS CAZ7
 PAM  SZ EP       2319 18.79                             150    0.4510 77.8  40 
 PAM  SN ES       2319 34.90                             150   -0.3510 77.8  40 
 PAM  SN I        2319 36.72        10.3 0.34                          77.8  40 
 RUS  HZ EP       2319 20.24                             143    0.3510  101 176 
 RUS  HN ES       2319 37.99                             143   -0.0210  101 176 
 RUS  HN I        2319 40.27         7.6 0.26                           101 176 
 PTB  HZ EP       2319 22.73                             131   -0.41 9  147 259 
 PTB  HN ES       2319 43.93                             131    0.13 9  147 259 
 PTB  HN I        2319 48.99         7.1 0.30                           147 259 
 ZAR  HN ES       2319 53.81                             121    0.10 9  204 292 
 CHI  HZ EP       2319 33.56                             116   -0.48 8  248 195 
 CHI  HN ES   2   2320  3.47                             116    0.27 4  248 195 
 CHI  HN I        2320  8.28         3.8 0.30                           248 195 
                                                                                
