 2013  712 0911 44.2 L   6.763 -73.117145.2  RSN  9 0.4 1.9LRSN                1
 GAP=209        1.06       5.7     6.4  6.4 -0.1861E+02  0.9700E+01  0.1864E+01E
 Epicentro: LOS SANTOS - SANTANDER                                             3
 ACTION:UPD 13-08-12 10:37 OP:ep   STATUS:               ID:20130712091144 L   I
 OLDACT:REG 13-07-12 09:06 OP:nd   STATUS:               ID:20130712090959     3
 2013-07-12-0909-59M.COL___267                                                 6
 STAT SP IPHASW D HRMM SECON CODA AMPLIT PERI AZIMU VELO AIN AR TRES W  DIS CAZ7
 BAR2 SZ EP        912  3.96                             172    0.2110 20.2 201 
 BAR2 SZ ES        912 18.67                             172   -0.2910 20.2 201 
 BAR2 SZ I         912 21.87        13.2 0.34            167           20.2 201 
 GIR2 SZ EP        912  4.11                             165    0.1310 36.0 346 
 GIR2 SZ ES        912 19.33                             165   -0.0510 36.0 346 
 GIR2 SZ I         912 21.70         7.8 0.22            160           36.0 346 
 BRR  HZ IP     D  912  5.98                             151    0.3710 76.0 300 
 BRR  HN ES        912 22.94                             151    0.6610 76.0 300 
 BRR  HZ I         912 27.24         9.6 0.12            146           76.0 300 
 PTB  HZ EP        912 10.65                             131   -0.74 9  150 261 
 PTB  HN ES        912 31.78                             131   -0.78 9  150 261 
 PTB  HZ I         912 39.31        16.0 0.46            130            150 261 
 OCA  HZ EP        912 13.08                             129    0.14 9  165 352 
 OCA  HN ES        912 34.95                             129   -0.37 9  165 352 
 OCA  HZ I         912 38.86        13.2 0.32            130            165 352 
 ZAR  HZ EP   4    912 12.37                             122   -4.75 0  209 293 
 ZAR  HE ES   4    912 45.30                             122    2.53 0  209 293 
 ZAR  HZ I         912 48.99         8.5 0.30            121            209 293 
 NOR  HZ EP        912 19.69                             118   -0.28 8  235 236 
 NOR  HN ES        912 48.33                             118    0.49 8  235 236 
 NOR  HZ I         912 51.52        10.3 0.16            119            235 236 
 HEL  HZ EP        912 24.92                             114    0.26 8  274 257 
 HEL  HN ES        912 56.50                             114    0.31 8  274 257 
 HEL  HZ I         913  3.11         5.7 0.28            115            274 257 
 SJC  HZ EP   4    912 37.97                             105   -2.43 0  414 327 
 SJC  HN ES   4    913 18.75                             105   -5.45 0  414 327 
 SJC  HZ I         913 24.48         1.6 0.30            107            414 327 
                                                                                
