 2015  312 0246 15.0 L   7.080 -73.337121.1  RSN  7 0.4 1.8LRSN                1
 GAP= 95        0.94       3.0     4.1  6.2 -0.2899E+01  0.3541E+01  0.7296E+00E
 Epicentro: LEBRIJA - SANTANDER                                                3
 ACTION:UPD 15-04-30 16:25 OP:nd   STATUS:               ID:20150312024615 L   I
 OLDACT:UP  15-03-12 13:59 OP:cam  STATUS:               ID:20150312023748     3
 OLDACT:REG 15-03-12 13:18 OP:cam  STATUS:               ID:20150312023748     3
 2015-03-12-0237-48M.COL___281                                                 6
 STAT SP IPHASW D HRMM SECON CODA AMPLIT PERI AZIMU VELO AIN AR TRES W  DIS CAZ7
 BRR  HZ IP     D  246 32.26                             160    0.2910 41.5 274 
 BRR  HE ES        246 45.62                             160    0.4510 41.5 274 
 BRR  HZ I         246 46.44        30.3 0.12            159           41.5 274 
 BAR2 EZ IP     C  246 33.49                             154    0.4410 56.6 162 
 BAR2 EZ ES        246 46.93                             154   -0.1710 56.6 162 
 PAM  SZ EP        246 34.69                             146    0.0810 76.0  68 
 PAM  SN ES        246 49.92                             146    0.0610 76.0  68 
 PAM  SZ I         246 51.96         8.4 0.30            148           76.0  68 
 OCA  HZ EP        246 38.23                             130   -0.1910  128   1 
 OCA  HN ES        246 56.43                             130   -0.2210  128   1 
 OCA  HZ I         246 58.32        14.4 0.18            132            128   1 
 RUS  HZ EP        246 39.34                             129   -0.1110  134 168 
 RUS  HN ES        246 57.89                             129   -0.6010  134 168 
 RUS  HN I         246 59.77         6.4 0.20            129            134 168 
 PTB  HZ EP        246 38.71                             128   -0.40 9  137 244 
 PTB  HN ES        246 57.40                             128   -0.49 9  137 244 
 PTB  HZ I         246 59.42        11.4 0.10            128            137 244 
 SPBC HZ EP   1    246 44.01                             120    0.73 7  178 207 
 SPBC HE ES        247  5.74                             120    0.43 9  178 207 
 SPBC HZ I         247 13.13         8.5 0.12            121            178 207 
 GUY2CHZ EP   4    246 59.75                             107    1.77 0  304 228 
                                                                                
