 2016 1012 0621  5.7 L   6.766 -73.130153.5  RSN  4 0.3 1.4LRSN                1
 GAP=237        0.63       4.0     5.8  5.8  0.7480E+01 -0.1030E+00  0.3786E+00E
 Epicentro: LOS SANTOS - SANTANDER                                             3
 ACTION:UPD 16-11-09 19:18 OP:rebc STATUS:               ID:20161012062105 L   I
 OLDACT:UP  16-10-12 18:50 OP:ar   STATUS:               ID:20161012061746     3
 OLDACT:REG 16-10-12 14:35 OP:ar   STATUS:               ID:20161012061746     3
 2016-10-12-0618-00M.COL___372                                                 6
 STAT SP IPHASW D HRMM SECON CODA AMPLIT PERI AZIMU VELO AIN AR TRES W  DIS CAZ7
 BRR  HZ EP        621 27.90                             153    0.0110 74.6 300 
 BRR  HE ES        621 45.34                             153    0.1610 74.6 300 
 RUS  HZ EP        621 29.85                             146   -0.1110 96.7 177 
 RUS  HN ES        621 48.78                             146   -0.1010 96.7 177 
 RUS  HZ I         621 51.58         1.9 0.42            143           96.7 177 
 PTB  HZ EP        621 33.07                             133   -0.34 9  149 260 
 PTB  HN ES   2    621 54.47                             133   -0.55 5  149 260 
 PTB  HZ I         622  0.63         2.8 0.14            130            149 260 
 SPBC HZ EP        621 35.12                             131    0.47 9  161 220 
 SPBC HE ES        621 57.28                             131    0.06 9  161 220 
 SPBC HZ I         622  4.10         5.6 0.28            127            161 220 
                                                                                
