 2014  312 0638 22.8 L   6.800 -73.117144.9  RSN 10 0.5 1.7LRSN                1
 GAP= 73        0.99       3.4     4.2  6.6 -0.2983E+01  0.6497E+01 -0.8455E+00E
 Epicentro: LOS SANTOS - SANTANDER                                             3
 ACTION:UPD 14-04-09 23:16 OP:nd   STATUS:               ID:20140312063822 L   I
 OLDACT:REG 14-03-12 07:55 OP:fm   STATUS:               ID:20140312062812     3
 2014-03-12-0628-12M.COL___238                                                 6
 STAT SP IPHASW D HRMM SECON CODA AMPLIT PERI AZIMU VELO AIN AR TRES W  DIS CAZ7
 BAR2 SZ EP     D  638 42.37                             170    0.0310 24.1 197 
 BAR2 SZ ES   1    638 57.20                             170   -0.38 7 24.1 197 
 BAR2 SZ I         638 58.32        17.0 0.18            168           24.1 197 
 PAM  SZ EP        638 45.19                             151    0.3910 75.4  38 
 PAM  SN ES        639  2.07                             151    0.1010 75.4  38 
 PAM  SZ I         639  2.72         6.8 0.38            154           75.4  38 
 RUS  HZ EP        638 46.30                             144   -0.1510  100 178 
 RUS  HN ES        639  4.66                             144   -0.2410  100 178 
 RUS  HZ I         639  6.83         3.1 0.32            144            100 178 
 PTB  HZ EP        638 48.99                             131   -0.99 9  151 259 
 PTB  HE ES        639 11.60                             131    0.42 9  151 259 
 PTB  HZ I         639 12.62        11.5 0.52            130            151 259 
 TAM  HZ EP   1    638 50.78                             131    0.66 7  152 105 
 OCA  HZ EP        638 50.93                             129   -0.15 9  161 352 
 OCA  HN ES        639 12.90                             129   -0.23 9  161 352 
 OCA  HZ I         639 17.44         5.7 0.26            130            161 352 
 SPBC HZ EP        638 51.34                             128   -0.08 9  165 220 
 SPBC HN ES        639 14.12                             128    0.37 9  165 220 
 SPBC HZ I         639 16.51         5.9 0.20            128            165 220 
 ZAR  HZ EP   1    638 54.97                             122   -0.52 6  207 292 
 ZAR  HE ES   1    639 21.79                             122    0.80 6  207 292 
 ZAR  HZ I         639 29.82         6.0 0.12            121            207 292 
 CHI  HZ EP   1    639  0.72                             117    0.18 6  249 196 
 CHI  HN ES   4    639 28.94                             117   -1.04 0  249 196 
 CHI  HZ I         639 38.87         1.6 0.52            117            249 196 
 HEL  HZ EP   1    639  4.08                             114    0.78 6  275 256 
 HEL  HE ES   2    639 34.13                             114   -0.77 4  275 256 
 GUY2CHZ EP   4    639  8.38                             112    1.72 0  304 235 
 GUY2CHN ES   4    639 42.56                             112    1.69 0  304 235 
                                                                                
