 2013  812 0530 11.1 L   6.802 -73.191138.5  RSN  5 0.4 1.6LRSN                1
 GAP=131        0.96       5.3     5.4  7.1 -0.7482E+01  0.8451E+01  0.3572E+01E
 Epicentro: ZAPATOCA - SANTANDER                                               3
 ACTION:UPD 14-01-14 09:01 OP:ep   STATUS:               ID:20130812053011 L   I
 OLDACT:REG 13-08-12 08:39 OP:stll STATUS:               ID:20130812052838     3
 2013-08-12-0528-38M.COL___227                                                 6
 STAT SP IPHASW D HRMM SECON CODA AMPLIT PERI AZIMU VELO AIN AR TRES W  DIS CAZ7
 BAR2 SZ EP        530 29.70                             170   -0.1510 23.2 178 
 BAR2 SZ ES        530 43.74                             170   -0.7310 23.2 178 
 GIR2 SZ ES        530 45.06                             167    0.5210 30.6 360 
 PAM  SZ EP        530 32.84                             148    0.1010 80.5  42 
 PAM  SZ I         530 33.20         7.3 0.28            150           80.5  42 
 PAM  SN ES        530 49.52                             148   -0.1010 80.5  42 
 RUS  HZ EP        530 34.00                             142   -0.1910  101 173 
 RUS  HN ES        530 52.71                             142    0.5110  101 173 
 PTB  HZ EP        530 37.07                             131    0.04 9  143 258 
 PTB  HN ES        530 57.24                             131   -0.01 9  143 258 
 PTB  HN I         531  1.40         6.1 0.22            130            143 258 
                                                                                
