 2012 1112 0446 41.8 L   6.742 -73.195154.0  RSN  4 0.4 1.4LRSN                1
 GAP=172        0.74       6.7     7.1  8.8  0.1439E+02 -0.8317E-01  0.3358E+01E
 Epicentro: VILLANUEVA - SANTANDER                                             3
 ACTION:UPD 12-12-05 15:32 OP:}ep  STATUS:               ID:20121112044641 L   I
 2012-11-12-0440-00M.COL___230                                                 6
 STAT SP IPHASW D HRMM SECON CODA AMPLIT PERI AZIMU VELO AIN AR TRES W  DIS CAZ7
 GIR2 SZ EP   1    447  2.15                             166   -0.44 7 37.3   0 
 GIR2 SZ ES   2    447 18.25                             166   -0.58 5 37.3   0 
 BRR  HZ EP   1    447  3.83                             154    0.08 7 70.0 305 
 BRR  HN ES   1    447 21.56                             154    0.66 7 70.0 305 
 BRR  HZ I         447 23.62         6.6 0.66                          70.0 305 
 RUS  HZ EP   1    447  6.15                             147    0.20 7 94.7 172 
 RUS  HE ES   1    447 24.85                             147    0.05 7 94.7 172 
 RUS  HZ I         447 25.78         1.6 0.26                          94.7 172 
 PTB  HZ EP   1    447  8.99                             135    0.13 7  141 261 
 PTB  HN ES   1    447 29.52                             135   -0.46 7  141 261 
 PTB  HZ I         447 33.98         3.7 0.62                           141 261 
                                                                                
