 2017  912 0734 31.8 L   5.898 -73.602125.0  RSN  5 0.1 1.4LRSN                1
 GAP=152        0.40       2.1     1.9  3.1 -0.2053E+01  0.1739E+01 -0.1347E+01E
 Epicentro: BARBOSA - SANTANDER                                                3
 ACTION:UPD 17-10-05 19:11 OP:rebc STATUS:               ID:20170912073431 L   I
 OLDACT:REG 17-09-12 13:02 OP:mg   STATUS:               ID:20170912072739     3
 2017-09-12-0728-00M.COL___442                                                 6
 STAT SP IPHASW D HRMM SECON CODA AMPLIT PERI AZIMU VELO AIN AR TRES W  DIS CAZ7
 RUS  HZ EP        734 50.71                             154    0.0810 57.4  91 
 RUS  HN ES        735  5.29                             154   -0.0510 57.4  91 
 RUS  HZ I         735  8.18         2.4 0.18            156           57.4  91 
 SPBC HZ EP        734 49.99                             153   -0.1310 58.8 243 
 SPBC HN ES        735  4.31                             153   -0.1210 58.8 243 
 SPBC HZ I         735  5.55         9.7 0.24            154           58.8 243 
 BAR2 EZ EP        734 52.40                             142    0.0410 89.7  31 
 BAR2 EZ ES        735  8.58                             142    0.1710 89.7  31 
 BAR2 EZ I         735  9.44         6.9 0.50            145           89.7  31 
 BRR  HZ EP        734 55.61                             130   -0.2210  134 355 
 BRR  HN ES        735 14.57                             130   -0.0210  134 355 
 NOR  HZ EP        734 57.09                             127    0.14 9  145 255 
 NOR  HN ES        735 16.70                             127    0.13 9  145 255 
 NOR  HZ I         735 20.37         3.4 0.13            129            145 255 
                                                                                
