 2017 1112 0156 29.5 L   6.830 -73.148148.9  RSN 22 0.8 2.7LRSN                1
 GAP= 65        1.76       3.7     4.0  7.3  0.8541E-01  0.7114E+01  0.8296E+00E
 Epicentro: LOS SANTOS - SANTANDER                                             3
 ACTION:UPD 17-12-12 19:54 OP:rebc STATUS:               ID:20171112015629 L   I
 OLDACT:REG 17-11-12 13:00 OP:dnl  STATUS:               ID:20171112014739     3
 2017-11-12-0148-00M.COL___465                                                 6
 STAT SP IPHASW D HRMM SECON CODA AMPLIT PERI AZIMU VELO AIN AR TRES W  DIS CAZ7
 BAR2 EZ IP     C  156 49.54                             170   -0.0610 26.6 188 
 BAR2 EZ ES        157  5.11                             170   -0.1510 26.6 188 
 BAR2 EZ I         157  6.94       140.9 0.26            169           26.6 188 
 BRR  HZ IP     C  156 51.31                             154    0.4010 69.4 296 
 BRR  HN ES        157  8.54                             154    0.9410 69.4 296 
 BRR  HZ I         157 11.54        96.1 0.28            152           69.4 296 
 PAM  EZ EP        156 52.50                             152    0.5710 75.0  41 
 PAM  EN ES        157  9.70                             152    0.2810 75.0  41 
 PAM  EZ I         157 11.97        51.2 0.54            156           75.0  41 
 RUS  HZ EP        156 53.55                             144   -0.2710  104 176 
 RUS  HN ES        157 12.54                             144   -0.2410  104 176 
 RUS  HZ I         157 14.01        81.0 0.50            145            104 176 
 PTB  HZ EP        156 55.91                             133   -0.87 9  148 258 
 PTB  HN ES        157 17.31                             133   -0.74 9  148 258 
 PTB  HZ I         157 19.39        59.8 0.60            133            148 258 
 TAM  HZ EP        156 57.99                             131    0.44 9  156 106 
 TAM  HN ES        157 19.84                             131    0.42 9  156 106 
 SPBC HZ EP        156 58.52                             129    0.03 9  166 218 
 SPBC HN ES        157 21.59                             129    0.50 9  166 218 
 SPBC HZ I         157 27.22        67.8 0.52            130            166 218 
 YPLC HZ EP     D  157  0.04                             127    0.20 9  180 152 
 YPLC HN ES        157 22.47                             127   -1.02 9  180 152 
 YPLC HZ I         157 24.92        59.4 0.28            129            180 152 
 ZAR  HZ EP        157  2.27                             123    0.25 9  203 291 
 ZAR  HN ES        157 26.79                             123   -0.58 9  203 291 
 ZAR  HZ I         157 32.81        60.9 0.44            124            203 291 
 NOR  HZ EP        157  5.61                             119   -0.01 8  236 234 
 NOR  HN ES        157 34.13                             119    0.36 8  236 234 
 NOR  HZ I         157 36.08        27.7 0.16            120            236 234 
 CHI  HZ EP        157  7.81                             117    0.08 8  252 195 
 CHI  HN ES        157 36.78                             117   -0.76 8  252 195 
 CHI  HZ I         157 39.44        39.2 0.34            119            252 195 
 ROSC BZ EP   4    157  9.26                             117    1.15 0  255 211 
 ROSC BN ES        157 39.92                             117    1.71 8  255 211 
 ROSC BZ I         157 45.84        56.0 0.40            118            255 211 
 URE  HZ EP        157  9.16                             114   -1.42 7  282 291 
 URE  HE ES        157 40.89                             114   -1.71 7  282 291 
 URE  HZ I         157 54.02        52.7 0.20            115            282 291 
 DRL03HZ EP        157 11.60                             114    0.69 7  286 353 
 DRL03HN ES        157 43.16                             114   -0.03 7  286 353 
 GUY2CHZ EP        157 15.24                             113    1.77 7  303 234 
 GUY2CHN ES        157 47.02                             113   -0.73 7  303 234 
 GUY2CHZ I         157 57.36        28.0 0.24                           303 234 
 PTGC HZ EP        157 12.74                             112   -1.14 7  312 159 
 PTGC HN ES        157 46.29                             112   -2.19 7  312 159 
 PTGC HZ I         157 47.45        27.9 0.26            114            312 159 
 DRL02HZ EP        157 14.91                             111   -0.06 7  322 358 
 DRL02HN ES        157 50.47                             111    0.04 7  322 358 
 ELA  HN ES        157 54.63                             111    1.08 7  331 229 
 CBOC HZ EP        157 17.83                             110    1.18 7  334 252 
 CBOC HN ES        157 53.20                             110   -0.22 7  334 252 
 CBOC HZ I         158  3.24         9.4 0.40            111            334 252 
 DBB  EZ EP        157 17.27                             110    0.20 7  339 274 
 DBB  EN ES        157 52.91                             110   -1.24 7  339 274 
 DBB  EZ I         157 55.03        13.0 0.22            111            339 274 
 ORTC HZ EP        157 24.06                             107    0.22 6  398 216 
 ORTC HN ES        158  7.53                             107    1.31 6  398 216 
 ORTC HZ I         158 13.33         7.7 0.42            108            398 216 
 PAL  HZ EP        157 25.01                             106    0.05 6  407 239 
 PAL  HN ES        158  9.09                             106    0.89 6  407 239 
 PAL  HZ I         158 13.55         8.2 0.40            107            407 239 
                                                                                
