 2016 1112 0838 28.4 L   6.652 -73.211140.0  RSN  4 0.3 1.0LRSN                1
 GAP=202        0.84       9.0     5.9  6.8  0.1853E+02  0.1162E+02 -0.1309E+00E
 Epicentro: BARICHARA - SANTANDER                                              3
 ACTION:UPD 17-10-26 21:07 OP:lp   STATUS:               ID:20161112083828 L   I
 OLDACT:REG 16-11-12 13:04 OP:and  STATUS:               ID:20161112082742     3
 2016-11-12-0828-00M.COL___340                                                 6
 STAT SP IPHASW D HRMM SECON CODA AMPLIT PERI AZIMU VELO AIN AR TRES W  DIS CAZ7
 BAR2 EZ EP        838 46.85                             177   -0.3010 7.34 154 
 BAR2 EZ ES        839  2.02                             177    0.2710 7.34 154 
 BAR2 EZ I         839  2.47         3.0 0.17            176           7.34 154 
 BRR  HZ EP        838 49.08                             150   -0.1010 74.8 312 
 BRR  HE ES        839  5.32                             150   -0.0410 74.8 312 
 PTB  HZ EP        838 53.78                             133   -0.30 9  138 265 
 PTB  HN ES        839 14.20                             133    0.12 9  138 265 
 PTB  HZ I         839 16.42         1.0 0.13            132            138 265 
 ZAR  HZ EP        839  1.32                             121    0.78 9  204 297 
 ZAR  HE ES        839 25.27                             121   -0.31 9  204 297 
 ZAR  HZ I         839 28.75         1.2 0.37            121            204 297 
                                                                                
