 2015  712 0830 28.6 L   6.822 -73.192140.0  RSN 13 0.5 1.9LRSN                1
 GAP=130        1.01       3.1     4.7  6.9 -0.3303E+00  0.1679E+02  0.5225E+01E
 Epicentro: ZAPATOCA - SANTANDER                                               3
 ACTION:UPD 15-09-08 21:48 OP:cam  STATUS:               ID:20150712083028 L   I
 OLDACT:UP  15-07-27 09:46 OP:SPQ  STATUS:               ID:20150712083028 L   3
 OLDACT:REG 15-07-12 14:02 OP:ar   STATUS:               ID:20150712082738     3
 2015-07-12-0827-38M.COL___316                                                 6
 STAT SP IPHASW D HRMM SECON CODA AMPLIT PERI AZIMU VELO AIN AR TRES W  DIS CAZ7
 BAR2 EZ EP        830 47.35                             169   -0.2210 25.4 178 
 BAR2 EZ ES        831  2.02                             169   -0.3610 25.4 178 
 BAR2 EZ I         831  5.09        16.1 0.24            165           25.4 178 
 PAM  EZ EP        830 50.42                             149    0.1310 79.0  44 
 PAM  EN ES        831  7.56                             149    0.3410 79.0  44 
 PAM  EZ I         831 10.41        11.3 0.32            158           79.0  44 
 RUS  HZ EP   2    830 51.44                             142   -0.55 5  103 173 
 RUS  HN ES   2    831 10.52                             142    0.28 5  103 173 
 RUS  HZ I         831 11.33         7.2 0.28            143            103 173 
 OCA  HZ EP        830 55.57                             129   -0.60 9  157 355 
 OCA  HN ES        831 18.06                             129    0.37 9  157 355 
 OCA  HZ I         831 21.46        14.6 0.14            133            157 355 
 ZAR  HZ EP        830 59.81                             122   -0.26 9  198 292 
 ZAR  HN ES        831 25.30                             122    0.67 9  198 292 
 ZAR  HZ I         831 30.11         9.0 0.22            123            198 292 
 CHI  HZ EP        831  5.98                             116   -0.10 8  250 194 
 CHI  HN ES        831 35.34                             116    0.01 8  250 194 
 CHI  HZ I         831 41.06         4.8 0.34            118            250 194 
 ROSC BZ EP   4    831  8.07                             115    1.73 0  252 210 
 ROSC BN ES   4    831 38.86                             115    3.07 0  252 210 
 ROSC BZ I         831 41.95         9.9 0.45            117            252 210 
 URE  HE ES        831 38.91                             113   -1.16 7  278 292 
 GUY2CHZ EP   2    831 11.92                             111    0.30 4  298 234 
 GUY2CHE ES   4    831 47.63                             111    2.45 0  298 234 
 GUY2CHZ I         831 53.66         6.4 0.80                           298 234 
 CBOC HZ EP        831 15.61                             109    0.82 7  330 251 
 CBOC HN ES   2    831 51.65                             109    0.82 3  330 251 
 CBOC HZ I         832  8.23         1.4 0.44            110            330 251 
 TOL  SZ EP        831 17.39                             108    0.99 7  342 224 
 TOL  SN ES        831 53.47                             108   -0.22 7  342 224 
 TOL  SZ I         832  3.71         4.4 0.38            110            342 224 
 PRA  HZ EP     D  831 21.27                             106   -0.59 6  392 209 
 PRA  HN ES        832  3.52                             106    0.10 6  392 209 
 PRA  HZ I         832  9.80         4.6 0.24            107            392 209 
 ORTC HZ EP   2    831 22.30                             105    0.11 3  394 215 
 ORTC HN ES   2    832  4.94                             105    0.94 3  394 215 
 ORTC HZ I         832 13.30         2.4 0.40            107            394 215 
                                                                                
