 2016  512 0658 11.0 L   6.831 -73.139148.1  RSN 26 0.5 2.5LRSN                1
 GAP= 56        1.16       2.4     3.0  4.6 -0.1393E+01  0.3019E+01  0.7595E+00E
 Epicentro: LOS SANTOS - SANTANDER                                             3
 ACTION:UPD 16-08-18 17:45 OP:cam  STATUS:               ID:20160512065811 L   I
 OLDACT:UP  16-05-15 07:33 OP:ar   STATUS:               ID:20160512065811 L   3
 OLDACT:UP  16-05-12 14:59 OP:drio STATUS:               ID:20160512065745     3
 OLDACT:UP  16-05-12 14:58 OP:dani STATUS:               ID:20160512065745     3
 OLDACT:UP  16-05-12 14:56 OP:dani STATUS:               ID:20160512065745     3
 OLDACT:UP  16-05-12 14:45 OP:dani STATUS:               ID:20160512065745     3
 OLDACT:UP  16-05-12 14:33 OP:dani STATUS:               ID:20160512065745     3
 OLDACT:UP  16-05-12 14:08 OP:dani STATUS:               ID:20160512065745     3
 OLDACT:REG 16-05-12 12:21 OP:drio STATUS:               ID:20160512065745     3
 2016-05-12-0657-45M.COL___307                                                 6
 STAT SP IPHASW D HRMM SECON CODA AMPLIT PERI AZIMU VELO AIN AR TRES W  DIS CAZ7
 BAR2 EZ IP     D  658 30.94                             169   -0.0410 26.9 190 
 BAR2 EZ ES        658 45.81                             169   -0.7610 26.9 190 
 BAR2 EZ I         658 47.66        82.3 0.16            170           26.9 190 
 BRR  HZ IP     C  658 32.77                             153    0.4310 70.2 296 
 BRR  HN ES        658 49.90                             153    0.9110 70.2 296 
 BRR  HZ I         658 54.08        47.4 0.13            151           70.2 296 
 PAM  EZ EP        658 33.86                             152    0.5810 74.3  41 
 PAM  EE ES        658 51.14                             152    0.4810 74.3  41 
 PAM  EZ I         658 53.13        56.3 0.48            150           74.3  41 
 RUS  HZ EP        658 34.91                             143   -0.3110  104 177 
 RUS  HN ES        658 53.99                             143   -0.1310  104 177 
 RUS  HZ I         658 54.62        21.3 0.20            143            104 177 
 PTB  HZ EP        658 37.60                             132   -0.67 9  149 258 
 PTB  HE ES    2   658 58.84                             132   -0.72 9  149 258 
 PTB  HZ I         659  1.67        26.9 0.14            130            149 258 
 TAM  HZ IP     D  658 39.32                             131    0.44 9  155 106 
 TAM  HZ I         659  0.08        13.2 0.38            130            155 106 
 TAM  HN ES        659  1.10                             131    0.47 9  155 106 
 OCA  HZ EP        658 39.00                             131   -0.17 9  157 353 
 OCA  HN ES        659  0.89                             131   -0.26 9  157 353 
 OCA  HZ I         659  4.25        65.6 0.26            128            157 353 
 SPBC HZ EP        658 40.01                             129    0.04 9  166 218 
 SPBC HN ES        659  2.64                             129    0.07 9  166 218 
 SPBC HZ I         659  6.91        64.9 0.26            128            166 218 
 ZAR  HZ EP        658 43.54                             123    0.02 9  203 291 
 ZAR  HE ES        659  9.10                             123    0.20 9  203 291 
 ZAR  HZ I         659 14.16        34.2 0.23            121            203 291 
 NOR  HZ EP        658 46.83                             119   -0.30 8  237 234 
 NOR  HN ES        659 14.60                             119   -0.73 8  237 234 
 NOR  HZ I         659 17.51        16.5 0.16            117            237 234 
 CHI  HZ EP        658 49.14                             117   -0.06 8  252 195 
 CHI  HN ES        659 18.51                             117   -0.50 8  252 195 
 CHI  HZ I         659 22.25        19.9 0.48            116            252 195 
 ROSC BZ EP        658 50.44                             117    0.84 8  256 211 
 ROSC BN ES   4    659 18.27                             117   -1.45 0  256 211 
 ROSC BZ I         659 25.41        45.1 0.40            115            256 211 
 HEL  HZ EP        658 52.32                             115    0.83 8  274 255 
 HEL  HN ES        659 23.46                             115    0.37 8  274 255 
 HEL  HZ I         659 29.04        15.3 0.28            113            274 255 
 URE  HZ EP   4    658 55.90                             114    3.80 0  283 291 
 URE  HN ES   4    659 21.64                             114   -2.53 0  283 291 
 VIL  SZ EP        658 55.18                             112    0.27 7  307 192 
 VIL  SN ES        659 28.28                             112   -0.90 7  307 192 
 PTGC HZ IP   9 D  658 54.03                             112   -1.26 0  312 159 
 PTGC HN ES        659 27.86                             112   -0.72 7  312 159 
 PTGC HZ I         659 30.05        12.2 0.56            111            312 159 
 LL6C HZ EP        658 55.52                             111   -0.88 7  321 357 
 LL6C HN ES        659 31.33                             111   -0.49 7  321 357 
 ELA  HZ EP        658 58.87                             111    0.61 7  332 229 
 ELA  HE ES        659 35.88                             111    0.75 7  332 229 
 ELA  HZ I         659 47.51        11.8 0.44            109            332 229 
 CBOC HZ EP        658 58.56                             110    0.36 7  335 252 
 CBOC HN ES        659 36.02                             110    0.99 7  335 252 
 CBOC HZ I         659 43.19         4.3 0.39            109            335 252 
 ARGC HZ EP        659  0.33                             109   -0.05 6  356 340 
 ARGC HE ES        659 37.84                             109   -1.07 6  356 340 
 ARGC HZ I         7 0  7.31        10.4 0.38            107            356 340 
 SDV  BZ EP        659  0.52                             109   -0.28 6  358  51 
 SDV  BN ES   4    659 37.70                             109   -1.95 0  358  51 
 SDV  BZ I         659 41.11         4.2 0.40            107            358  51 
 ANIL HZ EP   2    659  1.88                             109    0.65 3  360 224 
 ANIL HE ES   4    659 42.95                             109    2.54 0  360 224 
 PRA  HZ EP        659  4.71                             107   -0.27 6  395 209 
 PRA  HN ES        659 46.35                             107   -0.75 6  395 209 
 PRA  HZ I         659 53.20        18.3 0.30            105            395 209 
 ORTC HZ EP        659  5.17                             107   -0.19 6  399 216 
 ORTC HN ES        659 47.76                             107   -0.02 6  399 216 
 ORTC HZ I         659 52.29         8.7 0.30            105            399 216 
 SJC  HZ EP   4    659  5.12                             106   -1.21 0  407 327 
 SJC  HN ES   4    659 46.39                             106   -3.11 0  407 327 
 PAL  HZ EP        659  6.49                             106   -0.02 6  408 239 
 PAL  HN ES        659 49.68                             106   -0.13 6  408 239 
 PAL  HZ I         659 59.89         3.5 0.46            105            408 239 
 CRJC HZ EP   4    659 11.23                             104   -1.91 0  464   3 
 CRJC HE ES   4    659 58.89                             104   -2.72 0  464   3 
 CRJC HZ I         7 0  6.26        10.7 0.27            102            464   3 
 YOT  HZ EP        659 14.01                             103   -0.42 5  475 229 
 YOT  HN ES   4    7 0 10.90                             103    6.98 0  475 229 
                                                                                
