 2014  112 0233  8.1 L   6.731 -73.175153.7  RSN  7 0.4 1.4LRSN                1
 GAP=229        1.05       5.2     5.9  8.0  0.1041E+01  0.2226E+01  0.1272E+02E
 Epicentro: VILLANUEVA - SANTANDER                                             3
 ACTION:UPD 14-03-13 09:54 OP:ep   STATUS:               ID:20140112023308 L   I
 OLDACT:DUP 14-01-12 11:17 OP:carl STATUS:               ID:20140112023001d    3
 2014-01-12-0230-00M.COL___285                                                 6
 STAT SP IPHASW D HRMM SECON CODA AMPLIT PERI AZIMU VELO AIN AR TRES W  DIS CAZ7
 BAR2 SZ EP        233 28.22                             174   -0.3710 15.4 183 
 BAR2 SZ ES        233 44.05                             174   -0.5010 15.4 183 
 BAR2 SZ I         233 45.41         9.3 0.12            173           15.4 183 
 BRR  HZ EP        233 30.40                             153    0.1910 72.5 305 
 BRR  HN ES        233 47.44                             153    0.0010 72.5 305 
 BRR  HZ I         233 50.84         4.2 0.36            154           72.5 305 
 RUS  HZ EP        233 32.74                             147    0.5710 93.3 174 
 RUS  HN ES        233 51.57                             147    0.6410 93.3 174 
 RUS  HZ I         233 53.74         3.3 0.36            148           93.3 174 
 PTB  HN ES        233 56.64                             135    0.03 9  143 262 
 PTB  HZ I         233 59.32         4.1 0.16            135            143 262 
 SPBC HN ES        233 58.42                             132   -0.25 9  155 220 
 NOR  HE ES        234 11.70                             121    0.44 8  228 236 
 CHI  HZ EP        233 44.88                             120   -0.52 8  240 195 
 CHI  HN ES        234 14.00                             120   -0.48 8  240 195 
 CHI  HZ I         234 19.00         1.5 0.46            121            240 195 
                                                                                
