 2013  112 0926 30.1 L   6.773 -73.154139.8  RSN  7 0.5 1.8LRSN                1
 GAP=182        1.26       4.8     7.5 10.0  0.1164E+02  0.1124E+02  0.6994E+01E
 Epicentro: LOS SANTOS - SANTANDER                                             3
 ACTION:UPD 13-02-15 09:13 OP:ep   STATUS:               ID:20130112092630 L   I
 2013-01-12-0920-00M.COL___241                                                 6
 STAT SP IPHASW D HRMM SECON CODA AMPLIT PERI AZIMU VELO AIN AR TRES W  DIS CAZ7
 BAR2 SZ ES        927  3.09                             171   -0.6210 20.3 189 
 BAR2 SZ I         927  5.51        19.0 0.18            169           20.3 189 
 BRR  HZ EP        926 50.82                             151    0.1210 71.9 301 
 BRR  HN ES        927  7.84                             151    1.1110 71.9 301 
 BRR  HN I         927  8.15        15.1 0.20            147           71.9 301 
 RUS  HZ EP        926 53.29                             143    0.1810 97.7 175 
 RUS  HN ES        927 11.05                             143    0.0310 97.7 175 
 RUS  HN I         927 12.45         5.2 0.26            142           97.7 175 
 PTB  HN ES        927 16.39                             131   -0.67 9  146 260 
 PTB  HN I         927 20.69         4.1 0.18            127            146 260 
 OCA  HN ES        927 19.85                             128   -0.37 9  163 354 
 OCA  HN I         927 23.79        16.7 0.28            126            163 354 
 ZAR  HN ES        927 27.21                             121   -0.07 9  204 293 
 ZAR  HN I         927 34.60         5.8 0.28            118            204 293 
 CHI  HZ EP   1    927  7.00                             116   -0.18 6  246 195 
 CHI  HN ES        927 36.35                             116    0.28 8  246 195 
 CHI  HN I         927 42.95         2.8 0.34            114            246 195 
                                                                                
