 2010  912 0311 17.4 L   6.788 -73.110146.7  RSN  4 0.1 1.4LRSN                1
 GAP=163        0.47       4.3    11.5  6.1  0.9648E+01 -0.1122E+02 -0.1170E+02E
 Epicentro: LOS SANTOS - SANTANDER                                             3
 ACTION:UP  11-02-18 11:02 OP:tino STATUS:               ID:20100912031117 L   I
 2010-09-12-0307-44S.COL___120                                                 6
 STAT SP IPHASW D HRMM SECON CODA AMPLIT PERI AZIMU VELO SNR AR TRES W  DIS CAZ7
 BAR2 SZ EP        311 37.08                             171     0.010   23 201 
 BAR2 SZ ES   1    311 52.36                             171    -0.2 7   23 201 
 BAR2 SZ I         311 53.82        12.4 0.11                            23 201 
 BRR  HZ EP   1    311 38.96                             151     0.1 7   75 298 
 BRR  HZ I         311 58.04         4.9 0.14                            75 298 
 RUS  HZ EP        311 40.98                             144    -0.110   99 178 
 RUS  HN ES   1    311 59.87                             144     0.2 7   99 178 
 RUS  HZ I         312  0.90         2.8 0.24                            99 178 
 GRA  SZ EP   1    311 42.82                             137     0.1 7  126  16 
 GRA  SZ I         312  5.28         3.4 0.80                           126  16 
                                                                                
