 2011 1112 0241 21.0 L   6.795 -73.149145.7  RSN  8 0.4 1.9LRSN                1
 GAP=136        0.85       4.6     5.9  8.5  0.4742E+01  0.1714E+02  0.1058E+02E
 Epicentro: LOS SANTOS - SANTANDER                                             3
 ACTION:UPD 12-07-13 16:09 OP:ep   STATUS:               ID:20111112024121 L   I
 2011-11-12-0240-00M.COL___181                                                 6
 STAT SP IPHASW D HRMM SECON CODA AMPLIT PERI AZIMU VELO AIN AR TRES W  DIS CAZ7
 BAR2 SZ EP   1    241 40.57                             171    0.00 7 22.7 189 
 BAR2 SZ I         241 57.89        18.9 0.34                          22.7 189 
 GIR2 SZ EP   1    241 41.26                             167    0.62 7 31.8 351 
 BRR  HZ EP   1    241 42.43                             152    0.33 7 71.2 299 
 BRR  HZ I         241 43.30        37.8 0.16                          71.2 299 
 BRR  HN ES   1    241 59.18                             152    0.59 7 71.2 299 
 PAM  SZ EP   1    241 42.81                             151   -0.40 7 78.0  39 
 PAM  SN ES   1    242  0.22                             151   -0.34 7 78.0  39 
 RUS  HZ EP   1    241 45.09                             144    0.43 7  100 176 
 RUS  HN ES   1    242  2.66                             144   -0.49 7  100 176 
 RUS  HZ I         242  4.58         6.5 0.33                           100 176 
 ZAR  HZ EP   1    241 52.68                             122   -0.71 6  204 292 
 ZAR  HN ES   1    242 18.27                             122   -0.42 6  204 292 
 ZAR  HZ I         242 25.24         8.0 0.17                           204 292 
 CHI  HZ EP   1    241 59.08                             117    0.50 6  248 195 
 CHI  HN ES   1    242 27.64                             117   -0.29 6  248 195 
 CHI  HZ I         242 38.23         3.1 0.31                           248 195 
 HEL  HZ EP   1    242  1.02                             115   -0.10 6  272 256 
 HEL  HZ I         242 39.49         3.8 0.32                           272 256 
                                                                                
