 2015  912 0551 54.5 L   6.825 -73.113146.5  RSN 10 0.4 1.7LRSN                1
 GAP=186        1.00       2.8     4.8  5.5 -0.2972E+00  0.4568E+01 -0.6780E+00E
 Epicentro: LOS SANTOS - SANTANDER                                             3
 ACTION:UPD 15-10-28 16:25 OP:cam  STATUS:               ID:20150912055154 L   I
 OLDACT:REG 15-09-12 12:36 OP:drio STATUS:               ID:20150912054748     3
 2015-09-12-0547-48M.COL___332                                                 6
 STAT SP IPHASW D HRMM SECON CODA AMPLIT PERI AZIMU VELO AIN AR TRES W  DIS CAZ7
 BAR2 EZ EP        552 14.55                             169    0.2710 26.9 196 
 BAR2 EZ ES        552 29.75                             169    0.0310 26.9 196 
 BAR2 EZ I         552 31.04         7.1 0.18            168           26.9 196 
 BRR  HZ EP        552 16.12                             152    0.3010 73.1 295 
 BRR  HE ES        552 33.07                             152    0.6010 73.1 295 
 BRR  HZ I         552 33.62         5.2 0.30            150           73.1 295 
 RUS  HZ EP        552 18.66                             143    0.1610  103 178 
 RUS  HE ES        552 37.19                             143   -0.0410  103 178 
 RUS  HZ I         552 39.00         5.0 0.30            144            103 178 
 PTB  HZ EP        552 21.11                             131   -0.77 9  152 258 
 PTB  HN ES        552 42.96                             131   -0.29 9  152 258 
 PTB  HZ I         552 44.77         6.8 0.20            131            152 258 
 OCA  HZ EP        552 22.35                             130   -0.28 9  158 352 
 OCA  HE ES        552 44.00                             130   -0.59 9  158 352 
 OCA  HZ I         552 48.56        11.0 0.20            131            158 352 
 SPBC HZ EP        552 23.18                             128   -0.28 9  168 219 
 SPBC HN ES        552 45.65                             128   -0.41 9  168 219 
 SPBC HZ I         552 52.11         7.7 0.18            129            168 219 
 ZAR  HZ EP        552 27.86                             122    0.65 8  206 291 
 ZAR  HN ES        552 52.48                             122   -0.26 8  206 291 
 ZAR  HZ I         553  0.75         3.1 0.26            122            206 291 
 SML  HZ EP        552 30.91                             118   -0.13 8  243 334 
 SML  HN ES        552 59.84                             118    0.29 8  243 334 
 GUY2CHZ EP        552 39.39                             112    0.75 7  306 235 
 GUY2CHN ES        553 13.58                             112    0.50 7  306 235 
 GUY2CHZ I         553 22.56         2.9 0.42                           306 235 
 PRA  HZ EP        552 48.73                             106    0.21 6  396 210 
 PRA  HE ES        553 30.13                             106   -0.54 6  396 210 
 PRA  HZ I         553 35.15         1.7 0.24            107            396 210 
 SJC  HZ EP   4    552 48.59                             106   -1.43 0  409 326 
                                                                                
