 2016  812 0037 39.7 L   6.741 -73.157140.2  RSN  4 0.3 1.3LRSN                1
 GAP=232        0.83       4.9     6.0  7.6  0.9477E+01 -0.1406E+01  0.1631E+01E
 Epicentro: LOS SANTOS - SANTANDER                                             3
 ACTION:UPD 16-10-29 15:34 OP:rebc STATUS:               ID:20160812003739 L   I
 OLDACT:REG 16-08-12 12:10 OP:dani STATUS:               ID:20160812002734     3
 2016-08-12-0028-00M.COL___389                                                 6
 STAT SP IPHASW D HRMM SECON CODA AMPLIT PERI AZIMU VELO AIN AR TRES W  DIS CAZ7
 BRR  HZ EP        038  0.25                             151   -0.1210 73.5 303 
 BRR  HN ES        038 16.87                             151    0.3710 73.5 303 
 BRR  HZ I         038 20.11         4.6 0.36                          73.5 303 
 RUS  HZ EP        038  2.34                             144   -0.0910 94.2 175 
 RUS  HN ES        038 19.92                             144   -0.2410 94.2 175 
 RUS  HZ I         038 22.49         2.9 0.28                          94.2 175 
 PTB  HZ EP        038  5.84                             131   -0.14 9  145 261 
 PTB  HE ES        038 25.96                             131   -0.54 9  145 261 
 PTB  HZ I         038 29.27         1.8 0.24                           145 261 
 SPBC HZ EP        038  7.61                             129    0.41 9  157 220 
 SPBC HN ES        038 29.05                             129    0.39 9  157 220 
 SPBC HZ I         038 36.23         4.4 0.24                           157 220 
                                                                                
