 2016 1012 0755  1.5 L   6.795 -73.097147.8  RSN 12 0.4 1.8LRSN                1
 GAP=143        0.95       2.9     3.8  5.2 -0.1625E+01  0.7920E+01  0.1920E+01E
 Epicentro: LOS SANTOS - SANTANDER                                             3
 ACTION:UPD 16-11-09 19:18 OP:rebc STATUS:               ID:20161012075501 L   I
 OLDACT:UP  16-10-12 18:16 OP:lv   STATUS:               ID:20161012074744     3
 OLDACT:REG 16-10-12 14:41 OP:ar   STATUS:               ID:20161012074744     3
 2016-10-12-0748-00M.COL___366                                                 6
 STAT SP IPHASW D HRMM SECON CODA AMPLIT PERI AZIMU VELO AIN AR TRES W  DIS CAZ7
 BAR2 EZ IP     C  755 21.29                             170   -0.1210 24.3 203 
 BAR2 EZ ES        755 37.07                             170    0.1510 24.3 203 
 BAR2 EZ I         755 39.25        12.0 0.09            169           24.3 203 
 PAM  EZ EP        755 24.23                             152    0.4510 74.5  36 
 PAM  EN ES        755 41.42                             152    0.2710 74.5  36 
 PAM  EZ I         755 44.29         5.5 0.23            156           74.5  36 
 BRR  HZ EP        755 23.32                             151    0.1510 76.3 297 
 BRR  HE ES        755 40.54                             151    0.4810 76.3 297 
 BRR  HZ I         755 45.48        13.8 0.14            150           76.3 297 
 RUS  HZ EP        755 25.20                             144   -0.2110 99.8 179 
 RUS  HN ES        755 43.76                             144   -0.2810 99.8 179 
 RUS  HZ I         755 45.17         3.9 0.23            148           99.8 179 
 PTB  HZ EP        755 28.43                             131   -0.69 9  153 259 
 PTB  HN ES   4    755 49.16                             131   -1.49 0  153 259 
 PTB  HZ I         755 52.55         6.8 0.15            132            153 259 
 OCA  HZ EP        755 29.73                             130   -0.38 9  162 351 
 OCA  HN ES        755 51.53                             130   -0.88 9  162 351 
 OCA  HZ I         755 56.51        13.6 0.25            132            162 351 
 ZAR  HZ EP        755 34.93                             122    0.30 8  209 292 
 ZAR  HN ES        756  0.63                             122    0.17 8  209 292 
 ZAR  HZ I         756  6.18         9.2 0.33            123            209 292 
 NOR  HZ EP        755 37.91                             118    0.11 8  239 235 
 NOR  HN ES        756  5.32                             118   -0.78 8  239 235 
 NOR  HZ I         756 10.66         7.8 0.20            120            239 235 
 CHI  HZ EP        755 39.63                             117    0.21 8  250 196 
 CHI  HN ES        756  8.90                             117   -0.09 8  250 196 
 CHI  HZ I         756 12.52         2.0 0.29            120            250 196 
 HEL  HZ EP        755 43.00                             115    0.61 7  277 256 
 HEL  HE ES        756 14.19                             115   -0.09 7  277 256 
 HEL  HZ I         756 20.04         3.2 0.30            116            277 256 
 GUY2CHZ EP        755 46.20                             112    0.52 7  305 235 
 GUY2CHN ES        756 20.36                             112    0.23 7  305 235 
 GUY2CHZ I         756 28.67         4.2 0.34                           305 235 
 CBOC HZ EP        755 49.31                             110    0.23 7  339 252 
 CBOC HN ES        756 26.18                             110   -0.00 7  339 252 
 CBOC HZ I         756 34.39         1.4 0.29            112            339 252 
                                                                                
