 2017  112 0718 19.4 L   6.788 -73.160152.0  RSN 10 0.5 1.7LRSN                1
 GAP=118        1.19       4.7     4.8  7.4  0.4156E+00  0.3706E+01  0.1054E+02E
 Epicentro: LOS SANTOS - SANTANDER                                             3
 ACTION:UPD 17-05-22 15:58 OP:jn   STATUS:               ID:20170112071819 L   I
 OLDACT:UP  17-01-12 21:09 OP:dani STATUS:               ID:20170112071743     3
 OLDACT:UP  17-01-12 21:07 OP:dani STATUS:               ID:20170112071743     3
 OLDACT:REG 17-01-12 20:09 OP:and  STATUS:               ID:20170112071743     3
 2017-01-12-0718-00M.COL___334                                                 6
 STAT SP IPHASW D HRMM SECON CODA AMPLIT PERI AZIMU VELO AIN AR TRES W  DIS CAZ7
 BAR2 EZ EP        718 39.79                             171    0.0510 21.8 186 
 BAR2 HN ES        718 55.17                             171   -0.4410 21.8 186 
 BAR2 EZ I         718 56.74        12.8 0.38            170           21.8 186 
 BRR  HZ EP        718 41.68                             154    0.5110 70.4 300 
 BRR  HN ES        718 58.97                             154    0.8110 70.4 300 
 BRR  HZ I         719  4.17        10.4 0.15            151           70.4 300 
 PAM  EZ EP        718 42.61                             151    0.2210 79.4  40 
 PAM  EE ES        719  0.14                             151   -0.1910 79.4  40 
 PAM  EZ I         719  1.91         4.4 0.38            155           79.4  40 
 RUS  HZ EP        718 43.90                             145    0.2210 99.4 175 
 RUS  HE ES        719  2.12                             145   -0.5010 99.4 175 
 RUS  HZ I         719  3.67         5.6 0.31            147           99.4 175 
 PTB  HZ EP        718 46.44                             133   -0.27 9  146 259 
 PTB  HN ES        719  7.75                             133   -0.27 9  146 259 
 PTB  HZ I         719 15.10         8.8 0.36            133            146 259 
 ZAR  HZ EP   4    718 54.67                             124    2.52 0  203 293 
 ZAR  HN ES        719 16.80                             124   -0.90 9  203 293 
 ZAR  HZ I         719 24.94         9.5 0.24            123            203 293 
 NOR  HN ES        719 23.52                             120    0.27 8  233 234 
 CHI  HZ EP        718 58.03                             118    0.77 8  247 195 
 CHI  HN ES        719 27.17                             118    0.37 8  247 195 
 CHI  HZ I         719 31.56         1.2 0.29            120            247 195 
 PTGC HZ EP        719  2.62                             112   -0.84 7  308 158 
 SJC  HZ EP   3    719 13.90                             106   -1.29 1  409 327 
 SJC  HN ES   4    719 55.34                             106   -3.37 0  409 327 
                                                                                
