 2012  812 0756 28.8 L   7.341 -74.285 61.4  RSN  5 0.3 1.4LRSN                1
 GAP=122        0.76       3.6     2.9  9.1 -0.3353E+01  0.5156E+01 -0.4280E+00E
 Epicentro: PUERTO WILCHES - SANTANDER                                         3
 ACTION:UPD 12-09-10 11:56 OP:ep   STATUS:               ID:20120812075628 L   I
 2012-08-12-0750-00M.COL___218                                                 6
 STAT SP IPHASW D HRMM SECON CODA AMPLIT PERI AZIMU VELO AIN AR TRES W  DIS CAZ7
 ZAR  HN ES   1    756 51.14                             128    0.01 7 65.4 285 
 BRR  HZ EP        756 41.59                             126   -0.0110 68.3 112 
 BRR  HZ I         756 41.95        14.8 0.10                          68.3 112 
 BRR  HN ES        756 52.07                             126    0.4510 68.3 112 
 PTB  HZ EP        756 43.77                             117   -0.2010 90.6 192 
 PTB  HE ES        756 55.44                             117   -0.4110 90.6 192 
 PTB  HZ I         756 57.58         5.1 0.26                          90.6 192 
 OCA  HE ES   1    757  7.17                             105   -0.33 7  146  47 
 OCA  HZ I         757  9.54        11.0 0.17                           146  47 
 HEL  HZ EP   1    756 56.35                             101    0.56 7  187 227 
 HEL  HN ES   1    757 17.08                             101    0.20 7  187 227 
 HEL  HZ I         757 19.52         1.8 0.58                           187 227 
                                                                                
