 2011  812 0032 24.8 L   6.762 -73.101147.8  RSN  7 0.3 2.1LRSN                1
 GAP=144        0.62       3.8     8.5  5.7  0.1404E+02 -0.8301E+01 -0.5573E+01E
 Epicentro: LOS SANTOS - SANTANDER                                             3
 ACTION:UPD 12-07-25 14:07 OP:epov STATUS:               ID:20110812003224 L   I
 2011-08-12-0026-28S.COL___150                                                 6
 STAT SP IPHASW D HRMM SECON CODA AMPLIT PERI AZIMU VELO AIN AR TRES W  DIS CAZ7
 BAR2 SZ EP        032 44.77                             171    0.1810 20.8 206 
 BAR2 SZ ES   1    032 59.55                             171   -0.50 7 20.8 206 
 BAR2 SZ I         033  1.25        27.3 0.38                          20.8 206 
 BRR  HZ IP     C  032 46.69                             150    0.1910 77.6 300 
 BRR  HZ I         032 47.05        60.3 0.08                          77.6 300 
 BRR  HE ES   1    033  3.41                             150   -0.04 7 77.6 300 
 PAM  SZ EP   2    032 46.70                             151   -0.51 5 77.8  35 
 RUS  HZ EP        032 48.66                             145    0.2610 96.1 179 
 RUS  HN ES        033  6.85                             145    0.0210 96.1 179 
 RUS  HZ I         033  8.44         8.4 0.40                          96.1 179 
 OCA  SZ EP   1    032 53.31                             129   -0.37 7  165 352 
 OCA  SZ ES   2    033 16.69                             129    0.44 5  165 352 
 OCA  SZ I         033 20.38        13.7 0.21                           165 352 
 NOR  SZ EP   2    033  0.59                             118   -0.20 4  236 236 
 CHI  HZ EP   2    033  1.60                             117   -0.68 4  246 197 
                                                                                
