 2011  712 0908 20.8 L   6.790 -73.099147.3  RSN  5 0.2 1.2LRSN                1
 GAP=197        0.42       3.2     4.2  4.3  0.1077E+01  0.2452E+01  0.2912E+01E
 Epicentro: LOS SANTOS - SANTANDER                                             3
 ACTION:UPD 12-07-25 14:00 OP:epov STATUS:               ID:20110712090820 L   I
 2011-07-12-0900-00M.COL___132                                                 6
 STAT SP IPHASW D HRMM SECON CODA AMPLIT PERI AZIMU VELO AIN AR TRES W  DIS CAZ7
 BAR2 SZ EP   1    9 8 40.65                             170    0.05 7 23.8 203 
 BAR2 SZ ES   1    9 8 56.00                             170   -0.06 7 23.8 203 
 BAR2 SZ I         9 8 58.50         4.5 0.28                          23.8 203 
 GIR2 SZ EP   1    9 8 40.84                             167    0.15 7 33.5 342 
 GIR2 SZ ES   1    9 8 56.50                             167    0.28 7 33.5 342 
 BRR  HZ EP   1    9 8 42.06                             151   -0.32 7 76.3 297 
 BRR  HE ES   1    9 8 59.07                             151   -0.16 7 76.3 297 
 BRR  HZ I         9 9  4.46         4.5 0.16                          76.3 297 
 RUS  HZ EP   1    9 8 44.63                             144    0.05 7 99.3 179 
 RUS  HZ I         9 8 45.21         1.4 0.20                          99.3 179 
 RUS  HN ES   1    9 9  3.02                             144   -0.13 7 99.3 179 
 NOR  SN ES   1    9 9 25.43                             118    0.21 6  238 235 
                                                                                
