 2016  912 0616 18.3 L   6.809 -73.133148.8  RSN 11 0.5 1.7LRSN                1
 GAP=138        1.09       3.3     4.5  6.5 -0.2192E+01  0.4127E+01  0.3264E+01E
 Epicentro: LOS SANTOS - SANTANDER                                             3
 ACTION:UPD 17-08-17 21:09 OP:lp   STATUS:               ID:20160912061618 L   I
 OLDACT:UP  16-09-12 19:22 OP:and  STATUS:               ID:20160912060732     3
 OLDACT:UP  16-09-12 19:21 OP:and  STATUS:               ID:20160912060732     3
 OLDACT:UP  16-09-12 19:13 OP:and  STATUS:               ID:20160912060732     3
 OLDACT:UP  16-09-12 19:01 OP:and  STATUS:               ID:20160912060732     3
 OLDACT:REG 16-09-12 15:53 OP:and  STATUS:               ID:20160912060732     3
 2016-09-12-0608-00M.COL___300                                                 6
 STAT SP IPHASW D HRMM SECON CODA AMPLIT PERI AZIMU VELO AIN AR TRES W  DIS CAZ7
 BAR2 EZ EP   2    616 38.20                             170   -0.11 5 24.5 193 
 BAR2 EZ ES        616 53.51                             170   -0.4110 24.5 193 
 BAR2 EZ I         616 55.93        13.7 0.32            171           24.5 193 
 BRR  HZ EP        616 40.00                             153    0.1810 72.0 297 
 BRR  HE ES        616 57.58                             153    0.9810 72.0 297 
 BRR  HZ I         617  1.28        10.4 0.16            151           72.0 297 
 PAM  EZ IP        616 40.93                             152    0.2010 75.7  39 
 PAM  EE ES        616 58.29                             152    0.0510 75.7  39 
 PAM  EZ I         617  0.38         5.8 0.18            153           75.7  39 
 RUS  HZ EP        616 41.97                             144   -0.4310  101 177 
 RUS  HN ES        617  1.13                             144   -0.0810  101 177 
 RUS  HZ I         617  1.94         5.2 0.30            147            101 177 
 PTB  HZ EP   2    616 45.31                             132   -0.34 5  149 259 
 PTB  HE ES        617  6.27                             132   -0.72 9  149 259 
 PTB  HZ I         617  9.18         5.1 0.10            132            149 259 
 OCA  HZ EP        616 46.63                             130   -0.14 9  160 353 
 OCA  HE ES        617  9.11                             130    0.13 9  160 353 
 OCA  HZ I         617 15.28        11.1 0.45            131            160 353 
 SPBC HZ EP        616 47.09                             129   -0.09 9  165 219 
 SPBC HE ES        617  9.67                             129   -0.04 9  165 219 
 SPBC HZ I         617 11.35        11.4 0.13            131            165 219 
 ZAR  HE ES        617 15.98                             123   -0.60 9  205 292 
 ZAR  HZ I         617 24.08         4.3 0.07            123            205 292 
 CHI  HZ EP        616 56.24                             118   -0.06 8  250 195 
 CHI  HN ES        617 26.23                             118    0.29 8  250 195 
 CHI  HZ I         617 30.00         2.3 0.20            119            250 195 
 GUY2CHZ EP   2    617  2.66                             113    0.42 4  303 235 
 GUY2CHN ES        617 37.67                             113    1.16 7  303 235 
 SJC  HZ EP   9    617 12.30                             106   -1.66 0  409 327 
 SJC  HN ES        617 54.78                             107   -0.94 6  409 327 
                                                                                
