 2013  112 0415 48.6 L   6.800 -73.160140.0  RSN 15 0.5 3.4LRSN 3.5WRSN        1
 SPEC AVERAGE  MO 14.4 ST 18.3 OM  2.9 f0 3.60 R0.4315 AL 2.96 WI 20.7 MW  3.5 3
 SPEC SD       MO  0.1 ST 14.0 OM  0.4 f00.891 R0.0972 AL      WI      MW  0.1 3
 GAP=181        1.06       3.0     4.6  5.2  0.2299E+01  0.6426E+01  0.3070E+01E
 Epicentro: LOS SANTOS - SANTANDER                                             3
 SPEC ZAR HH N MO 14.6 ST 17.0 OM  2.8 f0 3.17 R0.4637 AL 1.29 WI 21.1 MW  3.7 3
 SPEC ZAR HH N T 41643 K 0.000 GD  246 VS 4.20 DE 3.20 Q0300.0 QA 0.60 VS 4.20 3
 SPEC RREFHH Z MO 14.4 ST 12.6 OM  2.5 f0 3.21 R0.4579 AL 3.93 WI 24.1 MW  3.6 3
 SPEC RREFHH Z T 41710 K 0.000 GD  350 VS 4.20 DE 3.20 Q0300.0 QA 0.60 VS 4.20 3
 SPEC PTB HH N MO 14.3 ST 19.5 OM  2.6 f0 4.13 R0.3559 AL 1.97 WI 21.2 MW  3.5 3
 SPEC PTB HH N T 41633 K 0.000 GD  202 VS 4.20 DE 3.20 Q0300.0 QA 0.60 VS 4.20 3
 SPEC RUS HH N MO 14.2 ST  4.9 OM  2.6 f0 2.75 R0.5345 AL 3.20 WI 13.0 MW  3.4 3
 SPEC RUS HH N T 41628 K 0.000 GD  172 VS 4.20 DE 3.20 Q0300.0 QA 0.60 VS 4.20 3
 SPEC OCA HH N MO 14.5 ST 43.5 OM  2.8 f0 4.55 R0.3231 AL 3.78 WI 29.0 MW  3.6 3
 SPEC OCA HH N T 41636 K 0.000 GD  212 VS 4.20 DE 3.20 Q0300.0 QA 0.60 VS 4.20 3
 SPEC ANILHH Z MO 14.2 ST  4.0 OM  2.2 f0 2.68 R0.5485 AL 2.09 WI 21.6 MW  3.4 3
 SPEC ANILHH Z T 41717 K 0.000 GD  382 VS 4.20 DE 3.20 Q0300.0 QA 0.60 VS 4.20 3
 SPEC HEL HH Z MO 14.3 ST 15.5 OM  2.4 f0 3.89 R0.3779 AL 4.49 WI 24.4 MW  3.5 3
 SPEC HEL HH Z T 41658 K 0.000 GD  304 VS 4.20 DE 3.20 Q0300.0 QA 0.60 VS 4.20 3
 SPEC CHI HH E MO 14.3 ST  6.0 OM  2.5 f0 2.68 R0.5485 AL 2.49 WI 17.6 MW  3.5 3
 SPEC CHI HH E T 41655 K 0.000 GD  284 VS 4.20 DE 3.20 Q0300.0 QA 0.60 VS 4.20 3
 SPEC BRR HH N MO 14.3 ST 41.8 OM  2.7 f0 5.37 R0.2737 AL 3.38 WI 14.0 MW  3.5 3
 SPEC BRR HH N T 41624 K 0.000 GD  156 VS 4.20 DE 3.20 Q0300.0 QA 0.60 VS 4.20 3
 ACTION:UPD 13-02-15 09:13 OP:ep   STATUS:               ID:20130112041548 L   I
 2013-01-12-0410-00M.COL___241                                                 6
 STAT SP IPHASW D HRMM SECON CODA AMPLIT PERI AZIMU VELO AIN AR TRES W  DIS CAZ7
 BAR2 SZ EP        416  7.64                             170    0.1210 23.1 186 
 BAR2 SZ ES        416 22.17                             170   -0.1210 23.1 186 
 BAR2 SZ I         416 25.26       592.9 0.38            167           23.1 186 
 BRR  HZ IP     C  416  9.58                             152    0.5410 69.8 299 
 BRR  HN ES        416 25.49                             152    0.5110 69.8 299 
 BRR  HN I         416 26.94      1260.1 0.26            141           69.8 299 
 RUS  HZ EP        416 11.58                             143   -0.2010  101 175 
 RUS  HN ES        416 29.86                             143   -0.0210  101 175 
 RUS  HN I         416 31.62       411.2 0.30            136            101 175 
 PTB  HZ EP        416 14.21                             131   -0.74 9  146 259 
 PTB  HN ES        416 35.16                             131   -0.34 9  146 259 
 PTB  HN I         416 37.93       304.8 0.12            121            146 259 
 OCA  HZ EP        416 15.87                             128   -0.57 9  160 354 
 OCA  HN ES        416 38.16                             128   -0.01 9  160 354 
 OCA  HZ I         416 41.17       116.6 0.18            120            160 354 
 ZAR  HZ EP        416 20.55                             121    0.04 9  203 292 
 ZAR  HN ES        416 45.96                             121    0.55 9  203 292 
 ZAR  HN I         416 51.22       336.6 0.34            112            203 292 
 CHI  HZ EP        416 25.84                             116   -0.09 8  248 195 
 CHI  HN ES        416 55.05                             116    0.00 8  248 195 
 CHI  HN I         417  0.04       115.0 0.54            109            248 195 
 ROSC BZ EP   1    416 27.86                             116    1.55 6  252 211 
 HEL  HZ EP        416 28.34                             114    0.00 8  270 256 
 HEL  HN ES        416 58.59                             114   -0.75 8  270 256 
 HEL  HN I         417  7.23        69.9 0.30            106            270 256 
 URE  HZ EP        416 28.57                             113   -0.65 7  282 292 
 URE  HN I         417 12.98       284.7 0.26            105            282 292 
 VIL  SZ EP        416 31.49                             111   -0.22 7  303 191 
 VIL  SN ES        417  5.01                             111   -0.33 7  303 191 
 RREF HZ EP        416 34.62                             110    0.28 7  321 229 
 RREF HN ES        417 10.24                             110    0.21 7  321 229 
 RREF HZ I         417 20.43        66.3 0.36            103            321 229 
 DBB  SZ EP        416 35.50                             109   -0.15 7  338 274 
 TOL  SZ EP        416 36.89                             108    0.40 7  342 224 
 ANIL HZ EP        416 39.04                             108    1.00 6  356 224 
 ANIL HZ I         417 22.74        56.4 0.30            101            356 224 
 SDV  BZ EP   4    416 36.71                             107   -1.85 0  362  50 
                                                                                
