 2013  812 0109 17.6 L   6.809 -73.133140.6  RSN 21 0.5 2.7LRSN                1
 GAP= 71        1.28       3.2     3.1  5.0 -0.2947E+01  0.2434E+01  0.1581E+01E
 Epicentro: LOS SANTOS - SANTANDER                                             3
 ACTION:UPD 14-01-14 09:01 OP:ep   STATUS:               ID:20130812010917 L   I
 OLDACT:UP  13-08-16 16:39 OP:ep   STATUS:               ID:20130812010917 L   3
 OLDACT:REG 13-08-12 08:32 OP:stll STATUS:               ID:20130812010841     3
 2013-08-12-0108-41M.COL___228                                                 6
 STAT SP IPHASW D HRMM SECON CODA AMPLIT PERI AZIMU VELO AIN AR TRES W  DIS CAZ7
 BAR2 SZ IP     D  1 9 36.77                             170    0.1210 24.6 193 
 BAR2 SZ I         1 9 37.29        75.4 0.16            167           24.6 193 
 BAR2 SZ ES        1 9 51.41                             170   -0.0910 24.6 193 
 GIR2 SZ EP        1 9 36.92                             167    0.2710 30.5 347 
 GIR2 SZ ES        1 9 51.20                             167   -0.3010 30.5 347 
 BRR  HZ IP     C  1 9 38.73                             151    0.4810 71.9 297 
 BRR  HZ I         1 9 39.01        66.6 0.24            147           71.9 297 
 BRR  HN ES        1 9 55.36                             151    1.0110 71.9 297 
 PAM  SZ IP     C  1 9 39.70                             150    0.5210 75.7  39 
 PAM  SN ES        1 9 56.43                             150    0.4310 75.7  39 
 PAM  SN I         1 9 57.61       154.2 0.26            150           75.7  39 
 RUS  HZ IP     C  1 9 40.69                             142   -0.2410  102 177 
 RUS  HE ES        1 9 58.72                             142   -0.4010  102 177 
 RUS  HE I         110  0.29        45.5 0.48            139            102 177 
 CAPV BZ IP     D  1 9 45.00                             131    0.56 9  148  38 
 CAPV BZ ES        110  5.46                             131    0.09 9  148  38 
 PTB  HZ EP        1 9 43.46                             130   -0.85 9  149 259 
 PTB  HE ES        110  4.57                             130   -0.56 9  149 259 
 PTB  HE I         110  7.35       110.9 0.26            126            149 259 
 TAM  HZ IP     C  1 9 45.22                             129    0.44 9  154 105 
 TAM  HE ES        110  5.41                             129   -0.57 9  154 105 
 TAM  HE I         110  7.24        85.3 0.24            128            154 105 
 OCA  HZ EP        1 9 44.61                             129   -0.84 9  159 353 
 OCA  HN ES        110  6.50                             129   -0.66 9  159 353 
 OCA  HN I         110  7.59       107.1 0.18            126            159 353 
 SPBC HZ EP        1 9 45.91                             127    0.03 9  165 219 
 SPBC HE ES        110  7.70                             127   -0.23 9  165 219 
 SPBC HE I         110 10.94        50.7 0.18            124            165 219 
 ZAR  HZ EP        1 9 49.84                             121    0.02 9  205 292 
 ZAR  HN ES        110 15.01                             121    0.07 9  205 292 
 ZAR  HN I         110 18.99        64.8 0.28            118            205 292 
 NOR  HZ EP        1 9 52.82                             117   -0.41 8  236 234 
 NOR  HN ES        110 20.79                             117   -0.22 8  236 234 
 NOR  HN I         110 25.68        57.4 0.16            114            236 234 
 SML  HZ EP        1 9 53.93                             116    0.02 8  243 335 
 ROSC BZ EP        1 9 56.33                             115    0.70 8  254 211 
 ROSC BE ES        110 25.90                             115    0.62 8  254 211 
 HEL  HZ EP        1 9 58.61                             114    0.87 8  274 256 
 HEL  HE ES        110 27.79                             114   -1.26 8  274 256 
 HEL  HE I         110 35.85        26.8 0.28            111            274 256 
 SOCV BZ EP        1 9 59.40                             111   -0.83 7  300  57 
 GUY2CHZ EP        110  2.00                             111    0.82 7  303 235 
 GUY2CHN ES   4    110 36.60                             111    1.44 0  303 235 
 CBOC HZ EP        110  5.03                             109    0.53 7  335 252 
 CBOC HE I         110 44.03        17.3 0.28            106            335 252 
 DBB  SZ EP        110  5.10                             108    0.07 7  341 274 
 PRA  HZ EP        110 11.29                             105    0.15 6  394 210 
 PRA  HE ES        110 53.11                             105    0.22 6  394 210 
 PRA  HE I         110 58.80        11.9 0.38            103            394 210 
 ELOV BZ EP        110 11.51                             105   -0.79 6  404  87 
                                                                                
