 2012  112 0834 18.9 L   6.764 -73.093147.5  RSN 20 0.3 3.4LRSN                1
 GAP=120        0.61       1.9     3.0  3.4 -0.6510E+00  0.2805E+01  0.1491E+01E
 Epicentro: LOS SANTOS - SANTANDER                                             3
 ACTION:UP  12-02-03 08:16 OP:REBC STATUS:               ID:20120112083418 L   I
 2012-01-12-0830-00M.COL___187                                                 6
 STAT SP IPHASW D HRMM SECON CODA AMPLIT PERI AZIMU VELO SNR AR TRES W  DIS CAZ7
 BAR2 SZ IP        834 38.59                             171    -0.110   21 207 
 BAR2 SZ ES   1    834 53.90                             171    -0.3 7   21 207 
 BAR2 SZ I         834 55.42       534.8 0.33                            21 207 
 GIR2 SZ EP        834 38.69                             165    -0.210   37 342 
 GIR2 SZ ES   1    834 54.28                             165    -0.3 7   37 342 
 PAM  SZ EP        834 41.46                             151     0.210   77  34 
 PAM  SN ES   1    834 58.77                             151     0.0 7   77  34 
 BRR  HZ IP     C  834 40.46                             150    -0.210   78 299 
 BRR  HZ I         834 40.83       510.6 0.24                            78 299 
 BRR  HE ES   1    834 58.00                             150     0.4 7   78 299 
 RUS  HZ EP        834 42.46                             145    -0.110   96 179 
 RUS  HN ES   1    835  1.37                             145     0.4 7   96 179 
 RUS  HZ I         835  3.01       248.3 0.37                            96 179 
 PTB  HE ES   2    835  7.63                             131    -0.3 5  153 261 
 OCA  SZ EP        834 48.16                             129     0.4 9  165 351 
 OCA  SZ ES   1    835 10.67                             129     0.3 7  165 351 
 OCA  SZ I         835 15.60       209.9 0.27                           165 351 
 YOP  SZ EP   2    834 49.11                             128     0.6 4  173 154 
 YOP  SE ES   2    835 11.66                             128     0.1 4  173 154 
 ZAR  HZ EP   2    834 51.39                             122    -0.8 4  211 293 
 ZAR  HN ES   2    835 17.77                             122    -0.4 4  211 293 
 ZAR  HZ I         835 22.32       337.4 0.64                           211 293 
 NOR  SZ EP   1    834 54.37                             118    -0.6 6  237 236 
 NOR  SE ES   2    835 23.18                             118     0.0 4  237 236 
 CHI  HZ EP        834 56.37                             118    -0.1 8  246 197 
 CHI  HN ES   1    835 25.62                             118    -0.1 6  246 197 
 CHI  HZ I         835 35.28       106.7 0.72                           246 197 
 HEL  HZ EP   1    835  0.26                             115     0.5 6  277 257 
 HEL  HE ES   2    835 31.62                             115     0.1 4  277 257 
 HEL  HZ I         835 37.68       103.5 0.49                           277 257 
 VIL  SZ EP   1    835  1.92                             112    -0.2 5  301 193 
 VIL  SE ES   1    835 35.63                             112    -0.2 5  301 193 
 VIL  SZ I         835 42.91        68.5 0.39                           301 193 
 GUY  SZ EP   1    835  3.39                             112     0.2 5  306 236 
 GUY  SE ES   2    835 38.48                             112     0.8 4  306 236 
 GUY  SZ I         835 44.19       163.6 0.51                           306 236 
 RREF HZ EP   1    835  5.73                             111     0.4 5  324 231 
 RREF HN ES   2    835 41.69                             111     0.1 3  324 231 
 RREF HZ I         835 49.88       136.4 0.46                           324 231 
 TOL  SZ EP   1    835  7.82                             109     0.4 5  345 226 
 TOL  SZ ES   2    835 45.43                             109     0.2 3  345 226 
 DBB  SZ EP   2    835  7.52                             109     0.4 3  346 275 
 DBB  SZ ES   2    835 44.94                             109     0.2 3  346 275 
 COD  HZ EP   2    835  7.34                             109    -0.5 3  353 354 
 COD  HN ES   1    835 45.61                             109    -0.5 5  353 354 
 COD  HZ I         835 51.31        67.3 0.30                           353 354 
 PRA  HZ EP        835 12.06                             107    -0.4 6  391 211 
 PRA  HN ES   2    835 54.15                             107     0.0 3  391 211 
 SJA  SZ EP   2    835 13.53                             106     0.3 3  398 194 
                                                                                
