 2010 1212 0049 49.5 L   6.812 -73.168140.3  RSN 12 0.4 2.1LRSN                1
 GAP=134        0.63       2.6     4.9  5.5 -0.2779E+01  0.7612E+01 -0.1963E+01E
 Epicentro: LOS SANTOS - SANTANDER                                             3
 ACTION:UP  11-01-14 15:24 OP:pat  STATUS:               ID:20101212004949 L   I
 2010-12-12-0048-10S.COL___136                                                 6
 STAT SP IPHASW D HRMM SECON CODA AMPLIT PERI AZIMU VELO SNR AR TRES W  DIS CAZ7
 BTL  SZ EP        050  8.75                             173     0.410   16 317 
 BAR2 SZ EP        050  8.66                             170     0.110   24 184 
 BAR2 SZ ES   1    050 23.23                             170    -0.1 7   24 184 
 BAR2 SZ I         050 24.50        39.8 0.27                            24 184 
 GIR2 SZ EP   2    050  8.84                             167     0.3 5   30 355 
 RUS  HZ EP   1    050 12.66                             142    -0.2 7  102 175 
 RUS  HN ES   1    050 31.22                             142     0.2 7  102 175 
 RUS  HZ I         050 33.03        22.7 0.24                           102 175 
 GRA  SZ EP        050 14.42                             136     0.210  125  19 
 GRA  SZ ES   2    050 33.08                             136    -0.5 5  125  19 
 GRA  SZ I         050 35.02        24.6 0.35                           125  19 
 OCA  SZ EP        050 17.06                             129    -0.2 9  159 354 
 OCA  SZ ES   2    050 38.53                             129    -0.4 5  159 354 
 OCA  SZ I         050 43.00        18.2 0.29                           159 354 
 YOP  SZ EP   1    050 19.37                             125    -0.1 7  181 153 
 YOP  SN ES   2    050 42.04                             125    -0.7 4  181 153 
 YOP  SZ I         050 46.43        15.1 0.24                           181 153 
 NOR  SZ EP   2    050 24.63                             117    -0.2 4  234 234 
 NOR  SE ES   2    050 52.77                             117     0.4 4  234 234 
 CHI  HZ EP   2    050 27.31                             116     0.3 4  249 195 
 CHI  HE ES   2    050 55.74                             116    -0.5 4  249 195 
 CHI  HZ I         050 59.68         5.9 0.31                           249 195 
 HEL  HZ EP   2    050 28.62                             114    -0.6 4  270 255 
 HEL  HE ES   2    050 59.61                             114    -0.6 4  270 255 
 HEL  HZ I         051  7.97         6.9 0.37                           270 255 
 GUY  SZ EP   2    050 33.71                             111     0.9 4  300 234 
 PRA  HZ EP   2    050 42.70                             106    -0.2 3  392 209 
 PRA  HE ES   2    051 24.21                             106    -0.2 3  392 209 
                                                                                
