 2017 1112 0555  1.6 L   5.953 -73.696120.3  RSN  8 0.3 1.2LRSN                1
 GAP= 86        0.77       3.2     2.7  5.2 -0.3281E+01  0.3246E+01  0.1502E+00E
 Epicentro: GUAVATA - SANTANDER                                                3
 ACTION:UPD 17-12-12 19:54 OP:rebc STATUS:               ID:20171112055501 L   I
 OLDACT:UP  17-11-12 14:20 OP:dnl  STATUS:               ID:20171112054741     3
 OLDACT:REG 17-11-12 13:05 OP:dnl  STATUS:               ID:20171112054741     3
 2017-11-12-0548-00M.COL___459                                                 6
 STAT SP IPHASW D HRMM SECON CODA AMPLIT PERI AZIMU VELO AIN AR TRES W  DIS CAZ7
 SPBC HZ EP        555 18.55                             154   -0.5710 53.3 231 
 SPBC HE ES        555 32.92                             154    0.1210 53.3 231 
 SPBC HZ I         555 33.28         9.4 0.32            156           53.3 231 
 RUS  HZ EP        555 20.69                             149    0.1210 68.2  96 
 RUS  HZ ES        555 35.26                             149   -0.1110 68.2  96 
 RUS  HZ I         555 37.15         1.3 0.32            151           68.2  96 
 BAR2 EZ EP        555 21.91                             141    0.1210 90.7  39 
 BAR2 EZ ES        555 37.75                             141    0.2010 90.7  39 
 BAR2 EZ I         555 38.79        10.4 0.50            141           90.7  39 
 PTB  HZ EP        555 22.49                             136   -0.2610  106 308 
 PTB  HN ES        555 38.72                             136   -0.5310  106 308 
 PTB  HZ I         555 40.33         1.7 0.50            136            106 308 
 BRR  HZ EP        555 24.76                             130    0.1110  128 359 
 BRR  HE ES        555 42.92                             130    0.2910  128 359 
 BRR  HZ I         555 47.85         3.2 0.40            131            128 359 
 NOR  HZ EP        555 25.53                             128   -0.07 9  137 252 
 NOR  HE ES        555 44.50                             128    0.18 9  137 252 
 NOR  HZ I         555 46.84         3.2 0.18            130            137 252 
 CHI  HZ EP   2    555 26.61                             126   -0.40 5  146 182 
 CHI  HE ES   4    555 44.86                             126   -1.98 0  146 182 
 CHI  HZ I         555 47.46         1.2 0.60            129            146 182 
 GUY2CHZ EP        555 33.01                             117    0.15 9  202 247 
 GUY2CHE ES        555 57.81                             117    0.56 9  202 247 
 GUY2CHZ I         556  1.53         1.0 0.42                           202 247 
                                                                                
