 2010  812 0550  1.0 L   6.800 -73.052142.5  RSN 11 0.3 1.9LRSN                1
 GAP=169        0.85       3.1     6.3  5.9 -0.6250E+01 -0.3979E+01  0.4298E+01E
 Epicentro: LOS SANTOS - SANTANDER                                             3
 ACTION:UP  10-09-07 10:54 OP:vdl  STATUS:               ID:20100812055001 L   I
 2010-08-12-0547-15S.COL___127                                                 6
 STAT SP IPHASW D HRMM SECON CODA AMPLIT PERI AZIMU VELO SNR AR TRES W  DIS CAZ7
 BAR2 SZ EP        550 20.36                             169     0.010   27 212 
 BAR2 SZ ES   1    550 34.79                             169    -0.6 7   27 212 
 BAR2 SZ I         550 36.61        16.4 0.36                            27 212 
 GIR2 SZ EP   2    550 20.43                             166     0.0 5   35 333 
 BRR  HZ EP        550 22.14                             149    -0.210   81 295 
 BRR  HE ES        550 39.22                             149     0.210   81 295 
 BRR  HZ I         550 41.50        15.4 0.23                            81 295 
 RUS  HZ EP   1    550 24.41                             143     0.0 7  100 182 
 RUS  HZ I         550 25.57         7.8 0.10                           100 182 
 RUS  HN ES   2    550 43.22                             143     0.5 5  100 182 
 GUE  SZ EP        550 25.49                             139     0.210  115   7 
 GRA  SZ EP        550 26.17                             137     0.410  123  13 
 GRA  SZ ES   1    550 44.47                             137    -0.6 7  123  13 
 GRA  SZ I         550 51.85         5.9 0.38                           123  13 
 OCA  SZ EP        550 28.77                             128    -0.4 9  162 349 
 OCA  SZ ES        550 51.56                             128     0.3 9  162 349 
 OCA  SZ I         550 55.20        11.5 0.28                           162 349 
 CHI  HZ EP        550 38.77                             116    -0.1 8  252 197 
 CHI  HE ES   1    551  8.89                             116     0.5 6  252 197 
 CHI  HZ I         551 19.18         3.3 0.37                           252 197 
 HEL  HZ EP   1    550 41.88                             113    -0.3 6  282 256 
 HEL  HN ES   2    551 14.51                             113     0.2 4  282 256 
 HEL  HZ I         551 18.68         4.9 0.40                           282 256 
 RREF HZ EP   1    550 48.04                             110     0.1 5  330 231 
 RREF HZ I         551 30.99         4.3 0.13                           330 231 
 PRA  HZ EP   1    550 54.52                             106    -0.5 4  397 211 
 PRA  HE ES   2    551 36.81                             106    -0.4 3  397 211 
 PRA  HZ I         551 41.11         4.9 0.72                           397 211 
                                                                                
