 2012  312 0350 37.2 L   6.685 -73.208148.6  RSN  5 0.3 0.9LRSN                1
 GAP=215        0.75       8.0     7.5 10.7  0.3270E+02  0.3565E+01 -0.1516E+02E
 ACTION:UP  12-03-31 23:19 OP:EP   STATUS:               ID:20120312035037 L   I
 2012-03-12-0350-00M.COL___193                                                 6
 STAT SP IPHASW D HRMM SECON CODA AMPLIT PERI AZIMU VELO SNR AR TRES W  DIS CAZ7
 BAR2 SZ EP   1    350 56.73                             176    -0.3 7   11 165 
 BRR  HZ EP   1    350 58.48                             152    -0.3 7   73 310 
 BRR  HN ES   1    351 15.87                             152     0.3 7   73 310 
 BRR  HZ I         351 29.72         2.2 0.22                            73 310 
 RUS  HN ES   1    351 18.62                             148     0.1 7   89 171 
 PTB  HZ EP   1    351  4.27                             134     0.6 7  139 263 
 PTB  HN ES   1    351 23.90                             134    -0.4 7  139 263 
 PTB  HZ I         351 26.79         0.8 0.13                           139 263 
 ZAR  HN ES   1    351 35.01                             123    -0.1 6  203 296 
                                                                                
