 2011  712 0557 50.8 L   6.809 -73.108137.3  RSN  5 0.3 1.4LRSN                1
 GAP=160        0.56       3.4     5.0  6.7 -0.2816E+01  0.5423E+01  0.4229E+01E
 Epicentro: LOS SANTOS - SANTANDER                                             3
 ACTION:UPD 12-07-25 14:00 OP:epov STATUS:               ID:20110712055750 L   I
 2011-07-12-0556-23S.COL___142                                                 6
 STAT SP IPHASW D HRMM SECON CODA AMPLIT PERI AZIMU VELO AIN AR TRES W  DIS CAZ7
 BAR2 SZ EP   1    558  9.37                             169   -0.13 7 25.3 199 
 BAR2 SZ ES   1    558 23.83                             169   -0.22 7 25.3 199 
 BAR2 SZ I         558 25.77         3.9 0.22                          25.3 199 
 BRR  HZ EP   1    558 11.11                             150   -0.16 7 74.4 296 
 BRR  HE ES   1    558 27.64                             150    0.43 7 74.4 296 
 BRR  HZ I         558 31.92         7.1 0.15                          74.4 296 
 RUS  HZ EP   1    558 14.26                             142    0.43 7  101 178 
 RUS  HN ES   1    558 31.75                             142    0.00 7  101 178 
 RUS  HZ I         558 33.72         3.6 0.32                           101 178 
 BRI  SZ ES   1    558 31.47                             140   -0.15 7  106  19 
 NOR  SN ES   1    558 54.05                             116   -0.31 6  239 235 
                                                                                
