 2017  712 0652 47.7 L   7.434 -73.188132.5  RSN  9 0.3 1.8LRSN                1
 GAP=189        0.61       3.4     2.6  4.3 -0.1837E+01  0.4501E+01 -0.1219E+01E
 Epicentro: EL PLAYON - SANTANDER                                              3
 ACTION:UPD 17-08-30 15:32 OP:rebc STATUS:               ID:20170712065247 L   I
 OLDACT:UP  17-07-12 14:36 OP:dnl  STATUS:               ID:20170712064740     3
 OLDACT:UP  17-07-12 14:35 OP:dnl  STATUS:               ID:20170712064740     3
 OLDACT:REG 17-07-12 12:40 OP:dnl  STATUS:               ID:20170712064740     3
 2017-07-12-0648-00M.COL___359                                                 6
 STAT SP IPHASW D HRMM SECON CODA AMPLIT PERI AZIMU VELO AIN AR TRES W  DIS CAZ7
 PAM  EZ EP        653  7.44                             156    0.2410 54.9 101 
 PAM  EE ES        653 22.48                             156    0.0310 54.9 101 
 PAM  EZ I         653 23.51        19.7 0.46            157           54.9 101 
 BRR  HZ IP     D  653  7.14                             151   -0.0710 68.2 238 
 BRR  HE ES        653 22.47                             151    0.0110 68.2 238 
 BRR  HZ I         653 22.97        14.8 0.10            144           68.2 238 
 BAR2 EZ EP        653  9.01                             143   -0.2010 93.0 180 
 BAR2 EZ ES        653 25.85                             143   -0.1610 93.0 180 
 BAR2 EZ I         653 26.92        14.1 0.26            137           93.0 180 
 PTB  HZ EP        653 15.69                             124   -0.22 9  172 235 
 PTB  HN ES        653 37.59                             124   -0.36 9  172 235 
 PTB  HZ I         653 41.57         4.3 0.18            120            172 235 
 ZAR  HZ EP        653 17.16                             122   -0.06 9  185 272 
 ZAR  HE ES        653 40.64                             122    0.35 9  185 272 
 ZAR  HZ I         653 41.74        13.4 0.20            119            185 272 
 SPBC HZ EP   2    653 21.63                             117    0.54 4  220 206 
 SPBC HE ES        653 47.80                             117    0.63 8  220 206 
 SPBC HZ I         653 54.72         5.0 0.54            114            220 206 
 NOR  HZ EP   2    653 27.51                             111   -0.01 4  278 222 
 NOR  HE ES        653 58.43                             111   -0.18 7  278 222 
 NOR  HZ I         654  3.73         3.4 0.20            109            278 222 
 GUY2CHZ EP   9    653 38.43                             107    2.89 0  343 225 
 GUY2CHN ES        654 15.96                             105    0.18 7  343 225 
 GUY2CHZ I         654 24.95         2.3 0.38                           343 225 
 CBOC HZ EP   2    653 36.61                             106   -0.22 3  357 241 
 CBOC HE ES   4    654 17.47                             106    2.29 0  357 241 
 CBOC HZ I         654 31.21         1.1 0.44            104            357 241 
                                                                                
