 2016  112 0158 18.5 L   6.808 -73.155140.5  RSN 10 0.4 1.6LRSN                1
 GAP=135        1.08       3.6     4.4  7.7 -0.8114E+00  0.9737E+01 -0.1525E+01E
 Epicentro: LOS SANTOS - SANTANDER                                             3
 ACTION:UPD 16-03-09 23:24 OP:cam  STATUS:               ID:20160112015819dL   I
 OLDACT:DUP 16-01-12 15:55 OP:mh   STATUS:               ID:20160112015456d    3
 OLDACT:REG 16-01-12 13:06 OP:mh   STATUS:               ID:20160112015455     3
 2016-01-12-0154-55M.COL___232                                                 6
 STAT SP IPHASW D HRMM SECON CODA AMPLIT PERI AZIMU VELO AIN AR TRES W  DIS CAZ7
 BAR2 EZ EP        158 37.56                             170    0.0710 24.1 187 
 BAR2 EZ ES        158 52.07                             170   -0.2510 24.1 187 
 BAR2 EZ I         158 54.38         4.5 0.28            172           24.1 187 
 BRR  HZ EP     C  158 39.46                             152    0.4710 69.9 298 
 BRR  HN ES        158 55.12                             152    0.1410 69.9 298 
 BRR  HZ I         159  0.28         9.0 0.14            152           69.9 298 
 PAM  EZ EP        158 40.28                             150    0.1510 77.3  41 
 PAM  EN ES        158 57.26                             150    0.2410 77.3  41 
 PAM  EZ I         158 59.45         4.1 0.42            152           77.3  41 
 RUS  HZ EP        158 42.04                             142    0.2510  102 176 
 RUS  HN ES        158 59.82                             142   -0.1510  102 176 
 RUS  HZ I         159  0.59         3.0 0.24            147            102 176 
 PTB  HZ EP        158 44.16                             131   -0.79 9  147 258 
 PTB  HN ES        159  5.25                             131   -0.35 9  147 258 
 PTB  HZ I         159  7.76         3.8 0.10            133            147 258 
 OCA  HE ES        159  7.59                             129   -0.38 9  159 353 
 OCA  HZ I         159  8.89         9.9 0.16            131            159 353 
 SPBC HZ EP   4    158 50.82                             128    4.23 0  163 219 
 SPBC HN ES   4    159  7.99                             128   -0.53 0  163 219 
 SPBC HZ I         159  9.29         5.6 0.26            131            163 219 
 ZAR  HE ES        159 16.40                             121    1.00 9  203 292 
 NOR  HE ES        159 21.58                             117    0.09 8  234 234 
 SML  HE ES        159 22.30                             116   -0.61 8  242 335 
 SML  HZ I         159 26.25         7.6 0.10            119            242 335 
                                                                                
