 2016  912 0522 37.3 L   6.796 -73.157146.0  RSN 10 0.4 1.5LRSN                1
 GAP=135        1.04       3.0     4.3  5.6 -0.1142E+01  0.5117E+01  0.1553E+01E
 Epicentro: LOS SANTOS - SANTANDER                                             3
 ACTION:UPD 17-08-17 21:09 OP:lp   STATUS:               ID:20160912052237 L   I
 OLDACT:REG 16-09-12 15:42 OP:and  STATUS:               ID:20160912051735     3
 2016-09-12-0518-00M.COL___300                                                 6
 STAT SP IPHASW D HRMM SECON CODA AMPLIT PERI AZIMU VELO AIN AR TRES W  DIS CAZ7
 BAR2 EZ EP        522 56.74                             171   -0.1710 22.7 187 
 BAR2 EZ ES        523 12.28                             171    0.0510 22.7 187 
 BAR2 EZ I         523 14.37        12.3 0.20            170           22.7 187 
 BRR  HZ EP        522 58.48                             153    0.1010 70.3 299 
 BRR  HE ES        523 15.86                             153    1.0010 70.3 299 
 BRR  HZ I         523 19.50         5.4 0.28            153           70.3 299 
 PAM  EZ EP        522 59.59                             150    0.0210 78.6  40 
 PAM  EN ES        523 16.75                             150   -0.2210 78.6  40 
 PAM  EZ I         523 19.73         4.7 0.30            155           78.6  40 
 RUS  HZ EP        523  0.84                             144   -0.1710  100 175 
 RUS  HN ES        523 19.28                             144   -0.2510  100 175 
 RUS  HZ I         523 23.46         1.8 0.36            146            100 175 
 PTB  HZ EP        523  4.12                             132   -0.00 9  146 259 
 PTB  HZ ES        523 24.08                             132   -1.00 9  146 259 
 PTB  HZ I         523 29.53         3.5 0.16            134            146 259 
 OCA  HZ EP        523  5.85                             130    0.23 9  161 354 
 OCA  HE ES        523 27.56                             130   -0.17 9  161 354 
 OCA  HZ I         523 32.15         7.5 0.36            133            161 354 
 SPBC HZ EP        523  5.76                             129    0.09 9  162 219 
 SPBC HN ES        523 27.91                             129    0.09 9  162 219 
 SPBC HZ I         523 30.59         6.1 0.22            131            162 219 
 ZAR  HZ EP        523  9.04                             123   -0.57 9  203 292 
 ZAR  HN ES        523 34.92                             123    0.07 9  203 292 
 ZAR  HZ I         523 39.86         3.2 0.26            124            203 292 
 CHI  HZ EP        523 15.07                             117    0.18 8  248 195 
 CHI  HN ES        523 44.54                             117    0.30 8  248 195 
 CHI  HZ I         523 54.29         2.0 0.35            119            248 195 
 GUY2CHZ EP        523 21.44                             112    0.71 7  300 235 
 GUY2CHZ I         524  1.80         2.2 0.40                           300 235 
                                                                                
