 2012  212 0144 45.0 L   6.746 -73.151145.5  RSN  5 0.6 1.3LRSN                1
 GAP=138        1.17       8.1     7.7 12.3 -0.4162E+01 -0.1234E+01  0.1455E+02E
 ACTION:UP  12-03-07 16:29 OP:epov STATUS:               ID:20120212014445 L   I
 2012-02-12-0140-00M.COL___188                                                 6
 STAT SP IPHASW D HRMM SECON CODA AMPLIT PERI AZIMU VELO AIN AR TRES W  DIS CAZ7
 GIR2 SZ EP   1    145  4.85                             165    0.05 7 37.1 353 
 BRR  HZ EP        145  6.67                             151    0.4110 73.8 303 
 BRR  HZ I         145  7.12         6.4 0.12                          73.8 303 
 BRR  HE ES        145 23.33                             151    0.4810 73.8 303 
 PAM  SZ EP   1    145  7.78                             149    0.29 7 82.4  37 
 PAM  SN ES   1    145 24.09                             149   -0.94 7 82.4  37 
 RUS  HZ EP   1    145  7.74                             145   -0.56 7 94.7 175 
 RUS  HN ES   1    145 26.93                             145    0.45 7 94.7 175 
 RUS  HZ I         145 27.81         2.4 0.32                          94.7 175 
 PTB  HZ EP   1    145 11.79                             132   -0.01 7  146 261 
 PTB  HE ES   1    145 31.69                             132   -1.01 7  146 261 
                                                                                
