 2015  512 0431 29.8 L   6.777 -73.127145.7  RSN  5 0.5 1.7LRSN                1
 GAP=185        1.12       4.6     8.3 17.0 -0.4520E+01  0.7011E+02 -0.2499E+02E
 Epicentro: LOS SANTOS - SANTANDER                                             3
 ACTION:UPD 15-09-10 22:03 OP:cam  STATUS:               ID:20150512043129 L   I
 OLDACT:UP  15-05-12 16:30 OP:mh   STATUS:               ID:20150512042749d    3
 OLDACT:DUP 15-05-12 16:30 OP:mh   STATUS:               ID:20150512042749d    3
 2015-05-12-0427-48M.COL___282                                                 6
 STAT SP IPHASW D HRMM SECON CODA AMPLIT PERI AZIMU VELO AIN AR TRES W  DIS CAZ7
 RUS  HZ EP   1    431 53.79                             144    0.44 7 97.9 177 
 RUS  HN ES        432 11.22                             144   -0.5010 97.9 177 
 RUS  HZ I         432 13.05         6.6 0.34            143           97.9 177 
 OCA  HN ES        432 20.76                             129    0.11 9  163 353 
 SPBC HN ES        432 21.28                             129    0.87 9  163 220 
 ZAR  HZ EP        432  2.30                             122   -0.24 8  207 293 
 ZAR  HN ES        432 28.10                             122    0.02 8  207 293 
 ZAR  HZ I         432 29.78         6.4 0.32            121            207 293 
 NOR  HN ES        432 32.83                             118   -0.61 8  235 235 
 NOR  HZ I         432 39.82         3.7 0.18            117            235 235 
                                                                                
