 2014  512 0439 58.9 L   6.834 -73.208145.1  RSN  8 0.3 1.5LRSN                1
 GAP=127        0.66       2.2     2.9  6.3 -0.9543E+00  0.6628E+01 -0.2708E+00E
 Epicentro: ZAPATOCA - SANTANDER                                               3
 OLDACT:REG 14-05-12 13:38 OP:spq  STATUS:               ID:20140512043806     3
 ACTION:UPD 15-03-16 16:56 OP:nd   STATUS:               ID:20140512043958 L   I
 OLDACT:UP  14-05-12 15:54 OP:spq  STATUS:               ID:20140512043806     3
 2014-05-12-0438-06M.COL___248                                                 6
 STAT SP IPHASW D HRMM SECON CODA AMPLIT PERI AZIMU VELO AIN AR TRES W  DIS CAZ7
 PAM  SZ EP        440 21.34                             150    0.1410 79.2  45 
 PAM  SE ES        440 38.44                             150   -0.1110 79.2  45 
 PAM  SZ I         440 40.51         6.1 0.52            156           79.2  45 
 RUS  HZ EP        440 22.86                             142   -0.1010  105 172 
 RUS  HN ES        440 41.49                             142   -0.1910  105 172 
 RUS  SZ I         440 42.21         3.7 0.94            147            105 172 
 PTB  HZ EP        440 25.22                             133   -0.10 9  142 257 
 PTB  HN ES        440 46.00                             133    0.11 9  142 257 
 PTB  SZ I         440 51.02         3.2 1.52            134            142 257 
 OCA  HE ES        440 48.70                             130    0.20 9  156 355 
 SPBC HZ EP   1    440 27.37                             129    0.09 7  162 216 
 SPBC HN ES        440 49.69                             129    0.32 9  162 216 
 SPBC SZ I         440 54.70         6.2 0.48            132            162 216 
 ZAR  HZ EP   1    440 31.13                             123    0.59 6  196 292 
 ZAR  HN ES        440 55.20                             123    0.01 9  196 292 
 ZAR  SZ I         441  3.10         2.5 0.40            125            196 292 
 SML  HE ES   1    441  2.07                             118   -0.79 6  237 336 
 GUY2CHZ EP   4    440 43.71                             112    1.57 0  298 233 
 GUY2CHE ES   1    441 15.15                             112   -0.68 5  298 233 
 GUY2CSZ I         441 22.18         3.1 3.30                           298 233 
                                                                                
