 2014  312 0605  4.4 L   6.770 -73.192139.0  RSN  4 0.5 1.1LRSN                1
 GAP=132        1.13       7.8     6.5 16.7  0.1432E+02  0.3965E+02  0.2219E+02E
 Epicentro: VILLANUEVA - SANTANDER                                             3
 ACTION:UPD 14-04-09 23:16 OP:nd   STATUS:               ID:20140312060504 L   I
 OLDACT:UP  14-03-13 04:09 OP:stll STATUS:               ID:20140312060504 L   3
 OLDACT:REG 14-03-12 07:51 OP:fm   STATUS:               ID:20140312055816     3
 2014-03-12-0558-16M.COL___236                                                 6
 STAT SP IPHASW D HRMM SECON CODA AMPLIT PERI AZIMU VELO AIN AR TRES W  DIS CAZ7
 PAM  SN ES   1    6 5 42.97                             147   -0.34 7 83.3  41 
 PAM  SZ I         6 5 45.02         3.6 0.58            154           83.3  41 
 RUS  HZ EP        6 5 27.29                             143    0.0410 97.7 173 
 RUS  HN ES   1    6 5 45.69                             143    0.59 7 97.7 173 
 RUS  HZ I         6 5 46.53         1.3 0.30            147           97.7 173 
 PTB  HZ EP   1    6 5 29.91                             131   -0.37 7  142 260 
 PTB  HE ES        6 5 49.84                             131   -0.64 9  142 260 
 PTB  HZ I         6 5 56.81         1.7 0.40            135            142 260 
 ZAR  HE ES        6 6  1.50                             121    0.78 9  201 294 
                                                                                
