 2011  212 0327 17.6 L   6.720 -73.149136.3  RSN 10 0.4 1.9LRSN                1
 GAP=159        0.78       4.5     7.4  7.4 -0.1459E+02  0.2450E+02 -0.3213E+01E
 Epicentro: VILLANUEVA - SANTANDER                                             3
 ACTION:UP  11-03-28 15:07 OP:jfem STATUS:               ID:20110212032717 L   I
 2011-02-12-0326-32S.COL___136                                                 6
 STAT SP IPHASW D HRMM SECON CODA AMPLIT PERI AZIMU VELO SNR AR TRES W  DIS CAZ7
 BAR2 SZ EP   1    327 36.00                             174     0.0 7   15 195 
 BAR2 SZ ES   2    327 50.68                             174     0.4 5   15 195 
 BAR2 SZ I         327 52.53        30.8 0.23                            15 195 
 BTL  SZ EP   1    327 36.15                             169     0.0 7   26 329 
 BTL  SZ ES   2    327 50.89                             169     0.2 5   26 329 
 RUS  HZ EP   1    327 39.91                             144     0.1 7   92 175 
 RUS  HN ES   2    327 56.45                             144    -0.7 5   92 175 
 RUS  HZ I         327 59.80        13.2 0.32                            92 175 
 GRA  SZ EP   1    327 42.82                             133     0.0 7  134  16 
 GRA  SZ ES   2    328  2.72                             133     0.3 5  134  16 
 GRA  SZ I         328  5.67         9.6 0.43                           134  16 
 OCA  SZ EP   1    327 45.50                             126    -0.6 7  169 354 
 OCA  SZ ES   2    328  8.33                             126     0.1 5  169 354 
 OCA  SZ I         328 11.28        10.1 0.21                           169 354 
 NOR  SZ EP   1    327 51.96                                    -0.3 6  229 236 
 NOR  SN ES   1    328 18.90                                    -0.4 6  229 236 
 CHI  HZ EP   1    327 54.00                             116     0.1 6  240 196 
 CHI  HZ I         328 31.43         5.1 0.58                           240 196 
 HEL  HZ EP   1    327 57.86                             113     0.8 6  270 258 
 HEL  HZ I         328 34.70         4.6 0.48                           270 258 
 RREF HZ EP   1    328  3.55                                     0.9 5  316 231 
 RREF HZ I         328 47.76         5.7 0.27                           316 231 
 DBB  SZ EP   1    328  4.30                                    -0.5 5  340 276 
                                                                                
