 2017  512 0521 35.2 L   6.521 -73.706 99.3  RSN  9 0.5 1.7LRSN                1
 GAP= 84        1.12       3.1     3.2  7.5 -0.1349E+01  0.4178E+01  0.7204E+00E
 Epicentro: SANTA HELENA DEL OPON - SANTANDER                                  3
 ACTION:UPD 17-06-16 13:35 OP:jn   STATUS:               ID:20170512052135 L   I
 OLDACT:REG 17-05-12 13:09 OP:y    STATUS:               ID:20170512051732     3
 2017-05-12-0518-00M.COL___362                                                 6
 STAT SP IPHASW D HRMM SECON CODA AMPLIT PERI AZIMU VELO AIN AR TRES W  DIS CAZ7
 BRR  HZ EP     D  521 50.75                             144   -0.3710 64.8 359 
 BRR  HE ES        522  3.63                             144    0.1110 64.8 359 
 BRR  HZ I         522  4.00        18.3 0.10            146           64.8 359 
 PTB  HZ IP   9 D  521 50.94                             137   -1.63 0 83.0 271 
 PTB  HN ES        522  3.78                                   -0.6910 83.0 271 
 PTB  HZ I         522  7.07         7.6 0.20            137           83.0 271 
 RUS  HZ EP        521 54.28                             132   -0.2410 97.9 135 
 RUS  HN ES        522 10.00                             132    0.4310 97.9 135 
 RUS  HZ I         522 15.79         5.2 0.34            131           97.9 135 
 SPBC HZ EP        521 54.00                             130   -0.5710  104 203 
 SPBC HN ES        522  9.47                             130   -0.2010  104 203 
 SPBC HZ I         522 10.24        23.1 0.42            129            104 203 
 PAM  EZ EP        521 59.30                             121    0.28 9  143  51 
 PAM  EN ES        522 17.30                             121   -0.29 9  143  51 
 PAM  EZ I         522 19.28        12.0 0.16            121            143  51 
 NOR  HZ EP        522  0.91                             116   -0.08 9  167 231 
 NOR  HN ES        522 20.76                             116   -0.33 9  167 231 
 NOR  HZ I         522 22.43        15.3 0.24            115            167 231 
 ZAR  HZ EP        522  0.76                             116   -0.15 9  167 310 
 ZAR  HE ES        522 21.66                             116    0.71 9  167 310 
 ZAR  HZ I         522 24.79        12.3 0.12            116            167 310 
 HEL  HZ EP        522  5.79                             111    0.09 9  205 260 
 HEL  HN ES        522 29.70                             111    0.23 9  205 260 
 HEL  HZ I         522 33.97         8.0 0.26            110            205 260 
 CHI  HZ EP   2    522  6.86                             111    0.62 4  209 181 
 CHI  HE ES   2    522 32.64                             111    2.21 4  209 181 
 CHI  HZ I         522 37.72         2.8 0.30            109            209 181 
                                                                                
