 2012 1112 0743 40.7 L   6.822 -73.147149.8  RSN  6 0.4 1.3LRSN                1
 GAP=135        0.85       7.1     6.8  8.1  0.5008E+01 -0.1469E+00  0.7094E+01E
 Epicentro: LOS SANTOS - SANTANDER                                             3
 ACTION:UPD 12-12-05 15:32 OP:}ep  STATUS:               ID:20121112074340 L   I
 2012-11-12-0740-00M.COL___230                                                 6
 STAT SP IPHASW D HRMM SECON CODA AMPLIT PERI AZIMU VELO AIN AR TRES W  DIS CAZ7
 BAR2 SZ EP   1    744  0.96                             170    0.06 7 25.7 189 
 BAR2 SZ ES   1    744 16.76                             170    0.13 7 25.7 189 
 BAR2 SZ I         744 18.74         5.4 0.18                          25.7 189 
 GIR2 SZ ES   1    744 15.61                             169   -0.88 7 28.8 350 
 BRR  HN ES   1    744 19.77                             154    0.74 7 69.9 297 
 PAM  SZ EP   1    744  3.59                             152    0.31 7 75.6  41 
 PAM  SZ I         744 21.74         2.3 0.18                          75.6  41 
 RUS  HZ EP   1    744  4.96                             144   -0.10 7  103 176 
 RUS  HN ES   1    744 24.18                             144    0.15 7  103 176 
 RUS  HZ I         744 25.54         2.2 0.34                           103 176 
 PTB  HZ EP   1    744  7.75                             133   -0.31 7  148 258 
 PTB  HN ES   1    744 29.22                             133   -0.16 7  148 258 
 PTB  HZ I         744 30.94         3.3 0.10                           148 258 
                                                                                
