 2013  612 0829 47.0 L   6.753 -73.138144.9  RSN  6 0.3 1.9LRSN                1
 GAP=201        0.66       4.4     5.6  5.9  0.1409E+02  0.2783E+01 -0.7849E+01E
 Epicentro: LOS SANTOS - SANTANDER                                             3
 ACTION:UPD 14-01-08 09:54 OP:ep   STATUS:               ID:20130612082947 L   I
 OLDACT:UP  13-06-12 13:37 OP:mher STATUS:               ID:20130612082838     3
 OLDACT:REG 13-06-12 12:56 OP:mh   STATUS:               ID:20130612082838     3
 2013-06-12-0828-38M.COL___226                                                 6
 STAT SP IPHASW D HRMM SECON CODA AMPLIT PERI AZIMU VELO AIN AR TRES W  DIS CAZ7
 BAR2 SZ EP   1    830  6.52                             172    0.08 7 18.4 195 
 BAR2 SZ ES   1    830 21.51                             172   -0.09 7 18.4 195 
 BRR  HZ EP        830  8.38                             151    0.1310 74.5 302 
 BRR  HN ES   1    830 24.93                             151    0.11 7 74.5 302 
 BRR  HN I         830 29.89        23.3 0.18            149           74.5 302 
 RUS  HZ EP   1    830 10.20                             145   -0.10 7 95.3 176 
 RUS  HN ES        830 28.45                             145   -0.0210 95.3 176 
 RUS  HN I         830 31.98         5.2 0.36            151           95.3 176 
 PTB  HZ EP        830 14.01                             132    0.12 9  148 261 
 PTB  HN ES   2    830 34.45                             132   -0.41 5  148 261 
 PTB  HN I         830 39.75         6.8 0.20            133            148 261 
 ZAR  HZ EP   1    830 20.38                             122    0.70 6  207 293 
 ZAR  HE ES        830 44.95                             122   -0.21 8  207 293 
 ZAR  HN I         830 54.15         9.0 0.16            123            207 293 
 SML  HZ EP   1    830 23.16                             117   -0.98 6  249 336 
 SML  HE ES   1    830 53.36                             117    0.27 6  249 336 
 SML  HN I         831  0.45         9.3 0.10            119            249 336 
                                                                                
