 2013  712 0542 20.3 L   6.807 -73.141144.0  RSN 14 0.4 2.3LRSN                1
 GAP= 71        1.01       2.9     2.9  5.9 -0.3352E+00  0.5428E+01  0.9513E+00E
 Epicentro: LOS SANTOS - SANTANDER                                             3
 ACTION:UPD 13-08-12 10:37 OP:ep   STATUS:               ID:20130712054220 L   I
 OLDACT:REG 13-07-12 08:50 OP:nd   STATUS:               ID:20130712053959     3
 2013-07-12-0539-59M.COL___267                                                 6
 STAT SP IPHASW D HRMM SECON CODA AMPLIT PERI AZIMU VELO AIN AR TRES W  DIS CAZ7
 BAR2 SZ IP     C  542 39.83                             170    0.1310 24.2 191 
 BAR2 SZ ES   2    542 54.77                             170   -0.08 5 24.2 191 
 BAR2 SZ I         542 56.60        41.9 0.44            171           24.2 191 
 GIR2 SZ EP        542 39.85                             167    0.1410 30.6 349 
 GIR2 SZ ES   2    542 55.61                             167    0.74 5 30.6 349 
 GIR2 SZ I         542 57.55        20.6 0.22            168           30.6 349 
 BRR  HZ IP     C  542 41.73                             152    0.5010 71.3 298 
 BRR  HN ES   2    542 57.70                             152    0.12 5 71.3 298 
 BRR  HZ I         543  1.59        34.3 0.12            154           71.3 298 
 PAM  SZ EP        542 42.73                             151    0.5010 76.5  40 
 PAM  SN ES        542 59.64                             151    0.2710 76.5  40 
 PAM  SZ I         543  2.00        20.3 0.56            154           76.5  40 
 RUS  HZ EP        542 43.68                             143   -0.2110  101 176 
 RUS  HN ES        543  2.35                             143    0.0310  101 176 
 RUS  HZ I         543  5.26        23.8 0.40            146            101 176 
 PTB  HZ EP        542 46.36                             131   -0.79 9  148 259 
 PTB  HN ES        543  7.66                             131   -0.46 9  148 259 
 PTB  HZ I         543 15.30        38.9 0.46            134            148 259 
 TAM  HZ IP     D  542 47.97                             130    0.20 9  155 105 
 TAM  HN ES        543  8.55                             130   -0.67 9  155 105 
 TAM  HZ I         543 20.24         8.2 0.36            134            155 105 
 OCA  HZ EP        542 48.23                             129   -0.14 9  160 353 
 OCA  HN ES        543  9.96                             129   -0.34 9  160 353 
 OCA  HZ I         543 15.03        18.1 0.32            133            160 353 
 ZAR  HZ EP        542 52.49                             122   -0.13 9  204 292 
 ZAR  HE ES        543 17.81                             122   -0.04 9  204 292 
 ZAR  HZ I         543 23.58        33.6 0.62            125            204 292 
 NOR  HZ EP        542 56.06                             118    0.08 8  236 234 
 NOR  HN ES        543 23.74                             118   -0.11 8  236 234 
 NOR  HZ I         543 28.06        17.6 0.18            121            236 234 
 SML  HZ EP        542 56.63                             117   -0.11 8  243 335 
 SML  HN ES        543 24.73                             117   -0.46 8  243 335 
 SML  HZ I         543 31.26        35.2 0.24            120            243 335 
 HEL  HZ EP        543  1.89                             114    1.43 8  273 256 
 HEL  HN ES        543 32.14                             114    0.32 8  273 256 
 HEL  HZ I         543 38.07        14.1 0.30            117            273 256 
 GUY2CHZ EP   4    543  4.76                             112    0.87 0  302 235 
 GUY2CHN ES   4    543 40.71                             112    2.79 0  302 235 
 GUY2CHZ I         543 46.28        12.0 0.28                           302 235 
 PRA  HZ EP        543 13.41                             106   -0.42 6  393 210 
 PRA  HN ES        543 55.49                             106   -0.12 6  393 210 
 PRA  HZ I         543 59.80        11.6 0.34            108            393 210 
                                                                                
