 2013  412 0033  2.0 L   6.801 -73.159147.9  RSN 10 0.5 2.2LRSN                1
 GAP=135        1.13       3.5     5.3  6.3 -0.6299E+01  0.3825E+01  0.2786E+00E
 Epicentro: LOS SANTOS - SANTANDER                                             3
 ACTION:UPD 13-05-22 14:37 OP:EP   STATUS:               ID:20130412003301 L   I
 2013-04-12-0028-36M.COL___215                                                 6
 STAT SP IPHASW D HRMM SECON CODA AMPLIT PERI AZIMU VELO AIN AR TRES W  DIS CAZ7
 BAR2 SZ EP        033 21.70                             171   -0.2010 23.3 186 
 BAR2 SZ ES        033 37.33                             171   -0.0910 23.3 186 
 BAR2 SZ I         033 39.58        30.7 0.26            165           23.3 186 
 BRR  HZ IP     C  033 23.71                             153    0.3910 69.8 299 
 BRR  HZ I         033 23.99        46.9 0.26                          69.8 299 
 BRR  HN ES   1    033 41.32                             153    1.38 7 69.8 299 
 PAM  SZ IP     C  033 24.52                             151    0.0110 78.2  40 
 PAM  SZ I         033 24.79        30.8 0.22            149           78.2  40 
 PAM  SN ES        033 42.13                             151    0.0810 78.2  40 
 RUS  HZ EP        033 26.08                             144    0.0810  101 175 
 RUS  HN ES        033 44.04                             144   -0.6610  101 175 
 RUS  HN I         033 44.95        20.3 0.32                           101 175 
 PTB  HZ EP        033 28.50                             133   -0.53 9  146 259 
 PTB  HN ES        033 49.90                             133   -0.21 9  146 259 
 PTB  HN I         033 54.96        31.5 0.24            124            146 259 
 CAPV BZ EP        033 29.66                             132    0.00 9  150  38 
 CAPV BZ ES        033 51.58                             132    0.36 9  150  38 
 OCA  HN ES        033 52.18                             130   -0.48 9  160 354 
 OCA  HN I         033 55.69        65.3 0.22            124            160 354 
 CHI  HZ EP        033 40.02                             118    0.21 8  248 195 
 CHI  HN ES        034  9.60                             118    0.31 8  248 195 
 CHI  HN I         034 13.51         6.5 0.40                           248 195 
 COD  HZ EP        033 50.88                             109    0.43 6  348 355 
 COD  HN ES   1    034 26.75                             109   -1.47 5  348 355 
 COD  HN I         034 32.91         3.6 0.42                           348 355 
 PRA  HZ EP        033 56.12                             107    0.58 6  391 209 
 PRA  HN I         034 43.50         2.5 0.32                           391 209 
                                                                                
