 2017  112 0445 56.6 L   6.805 -73.165149.0  RSN 11 0.3 1.8LRSN                1
 GAP=134        0.84       3.2     3.4  5.1 -0.6707E+00  0.3255E+01  0.3473E+01E
 Epicentro: LOS SANTOS - SANTANDER                                             3
 ACTION:UPD 17-05-22 15:58 OP:jn   STATUS:               ID:20170112044556 L   I
 OLDACT:REG 17-01-12 20:07 OP:and  STATUS:               ID:20170112043743     3
 2017-01-12-0438-00M.COL___338                                                 6
 STAT SP IPHASW D HRMM SECON CODA AMPLIT PERI AZIMU VELO AIN AR TRES W  DIS CAZ7
 BAR2 EZ EP        446 16.46                             170   -0.1310 23.6 185 
 BAR2 EZ ES        446 32.20                             170   -0.0110 23.6 185 
 BAR2 EZ I         446 32.53        13.7 0.19            169           23.6 185 
 BRR  HZ IP     D  446 18.27                             154    0.3210 69.0 299 
 BRR  HN ES        446 35.24                             154    0.6210 69.0 299 
 BRR  HZ I         446 37.78         9.9 0.30            152           69.0 299 
 PAM  EZ EP        446 19.43                             151    0.2510 78.4  41 
 PAM  EE ES        446 36.41                             151   -0.4110 78.4  41 
 PAM  EZ I         446 38.88         6.2 0.60            154           78.4  41 
 RUS  HZ EP        446 20.63                             144   -0.0610  101 175 
 RUS  HE ES        446 39.45                             144   -0.0510  101 175 
 RUS  HZ I         446 40.28         6.4 0.27            145            101 175 
 PTB  HZ EP        446 23.13                             133   -0.49 9  146 258 
 PTB  HN ES        446 44.38                             133   -0.34 9  146 258 
 PTB  HZ I         446 45.96         5.6 0.13            132            146 258 
 ZAR  HN ES        446 54.05                             123   -0.24 9  202 292 
 ZAR  HZ I         447  0.81         6.5 0.06            123            202 292 
 NOR  HZ EP        446 32.57                             119    0.24 8  233 234 
 NOR  HE ES        447  0.33                             119    0.10 8  233 234 
 NOR  HZ I         447  5.21         3.4 0.24            119            233 234 
 CHI  HZ EP        446 34.73                             118    0.28 8  249 195 
 CHI  HN ES        447  3.94                             118   -0.05 8  249 195 
 CHI  HZ I         447  6.46         4.3 0.36            118            249 195 
 ROSC BZ EP   9    446 37.32                             117    2.52 0  252 211 
 ROSC BN ES        447  7.82                                    0.68 8  252 211 
 ROSC BZ I         447 11.10         7.3 0.40            117            252 211 
 GUY2CHZ EP   4    446 41.81                             113    1.65 0  300 234 
 GUY2CHE ES   4    447 19.35                             113    5.18 0  300 234 
 GUY2CHZ I         447 24.23         1.8 0.22                           300 234 
 PTGC HZ EP   4    446 39.69                             112   -1.03 0  310 158 
 PTGC HN ES   4    447 13.32                             112   -1.84 0  310 158 
 PTGC HZ I         447 14.93         4.8 0.32            113            310 158 
                                                                                
