 2012  212 0721 58.0 L   6.767 -73.162140.2  RSN 10 0.5 1.8LRSN                1
 GAP=136        0.91       4.1     4.7  6.9 -0.1950E+01  0.6922E+01  0.2501E+01E
 ACTION:UP  12-03-07 16:29 OP:epov STATUS:               ID:20120212072158 L   I
 2012-02-12-0720-00M.COL___188                                                 6
 STAT SP IPHASW D HRMM SECON CODA AMPLIT PERI AZIMU VELO AIN AR TRES W  DIS CAZ7
 BAR2 SZ EP        722 16.76                             172   -0.1610 19.5 187 
 BAR2 SZ E         722 31.81                                           19.5 187 
 BAR2 SZ ES   1    722 31.81                             172    0.16 7 19.5 187 
 BAR2 SZ I         722 32.82        18.9 0.30                          19.5 187 
 GIR2 SZ EP        722 16.87                             165   -0.2710 34.6 354 
 BRR  HZ EP        722 18.72                             151    0.1310 71.5 302 
 BRR  HE ES   1    722 35.48                             151    0.84 7 71.5 302 
 BRR  HZ I         722 37.12        18.6 0.11                          71.5 302 
 PAM  SZ EP   1    722 19.58                             149   -0.32 7 81.3  39 
 PAM  SN ES   1    722 36.58                             149   -0.38 7 81.3  39 
 RUS  HZ EP   1    722 20.75                             144   -0.23 7 97.1 175 
 RUS  HE ES   1    722 39.08                             144    0.19 7 97.1 175 
 RUS  HZ I         722 41.11         6.4 0.45                          97.1 175 
 PTB  HZ EP   1    722 23.53                             131   -0.79 7  145 260 
 PTB  HE ES   1    722 44.38                             131   -0.46 7  145 260 
 OCA  SZ EP   1    722 26.92                             128    0.68 7  164 354 
 ZAR  HZ EP   2    722 30.19                             121    0.10 4  204 293 
 ZAR  HE ES   1    722 55.41                             121    0.31 6  204 293 
 ZAR  HZ I         723  1.94        10.8 0.36                           204 293 
 NOR  SZ EP   1    722 33.29                             118    0.24 6  231 235 
 NOR  SN ES   1    722 59.62                             118   -0.76 6  231 235 
 CHI  HZ EP   1    722 35.76                             116    0.77 6  245 195 
 CHI  HN ES   1    723  4.44                             116    0.62 6  245 195 
 CHI  HZ I         723  7.41         2.3 0.29                           245 195 
                                                                                
