 2016  612 0501 29.0 L   6.811 -73.157150.9  RSN  8 0.4 1.6LRSN                1
 GAP=135        1.14       4.3     6.0  8.4 -0.4217E+01  0.3857E+01  0.4175E+01E
 Epicentro: LOS SANTOS - SANTANDER                                             3
 ACTION:UPD 16-07-21 22:18 OP:rebc STATUS:               ID:20160612050129 L   I
 OLDACT:UP  16-06-12 17:33 OP:dani STATUS:               ID:20160612045741     3
 OLDACT:UP  16-06-12 17:31 OP:dani STATUS:               ID:20160612045741     3
 OLDACT:REG 16-06-12 13:13 OP:dani STATUS:               ID:20160612045741     3
 2016-06-12-0457-41M.COL___325                                                 6
 STAT SP IPHASW D HRMM SECON CODA AMPLIT PERI AZIMU VELO AIN AR TRES W  DIS CAZ7
 BAR2 EZ EP     C  5 1 49.15                             170   -0.1510 24.4 187 
 BAR2 EZ I         5 2  5.25         8.6 0.26                          24.4 187 
 BRR  HZ EP        5 1 50.94                             154    0.2910 69.5 298 
 BRR  HE ES        5 2  8.43                             154    0.9210 69.5 298 
 BRR  HZ I         5 2 11.33         6.0 0.32                          69.5 298 
 PAM  EZ EP     C  5 1 52.02                             152    0.2310 77.2  41 
 PAM  EE ES        5 2  9.25                             152   -0.2810 77.2  41 
 PAM  EZ I         5 2 11.49        10.8 0.62                          77.2  41 
 RUS  HZ EP        5 1 53.12                             144   -0.2610  102 175 
 RUS  HN ES        5 2 12.36                             144   -0.0210  102 175 
 RUS  HZ I         5 2 13.46         1.9 0.22                           102 175 
 PTB  HZ EP        5 1 56.16                             133   -0.18 9  147 258 
 PTB  HN ES        5 2 17.02                             133   -0.62 9  147 258 
 OCA  HZ EP     D  5 1 58.19                             131    0.57 9  159 354 
 OCA  HN ES        5 2 19.15                             131   -0.77 9  159 354 
 OCA  HZ I         5 2 23.21        14.6 0.18                           159 354 
 SPBC HZ EP        5 1 58.05                             130    0.10 9  163 218 
 SPBC HN ES   4    5 2 20.25                             130   -0.25 0  163 218 
 SPBC HZ I         5 2 25.97         5.9 0.46                           163 218 
 CHI  HN ES   2    5 2 37.05                             118    0.23 4  250 195 
 GUY2CHE ES   4    5 2 52.14                             113    5.11 0  301 234 
 PRA  HN ES   4    5 3  7.26                             107    2.54 0  392 209 
 SJC  HZ EP   4    5 2 23.53                             107   -1.04 0  408 327 
                                                                                
