 2014  912 0610 42.1 L   6.807 -73.086148.3  RSN 10 0.4 1.9LRSN                1
 GAP=189        1.10       3.4     5.4  6.4 -0.3022E+01  0.9023E+01 -0.4205E+01E
 Epicentro: LOS SANTOS - SANTANDER                                             3
 ACTION:UPD 14-10-03 23:04 OP:nd   STATUS:               ID:20140912061042 L   I
 OLDACT:REG 14-09-12 12:51 OP:carl STATUS:               ID:20140912060817     3
 2014-09-12-0608-17M.COL___289                                                 6
 STAT SP IPHASW D HRMM SECON CODA AMPLIT PERI AZIMU VELO AIN AR TRES W  DIS CAZ7
 BAR2 SZ IP     C  611  2.63                             170    0.5210 26.0 204 
 BAR2 SZ ES        611 17.46                             170   -0.2510 26.0 204 
 BAR2 SZ I         611 18.53        33.7 0.30            167           26.0 204 
 BRR  HZ IP     D  611  4.58                             151    0.7210 76.7 296 
 BRR  HN ES        611 21.67                             151    0.8510 76.7 296 
 BRR  HZ I         611 25.32        10.5 0.30            147           76.7 296 
 RUS  HE ES        611 24.75                             144   -0.1710  101 180 
 PTB  HZ EP        611  9.44                             131   -0.46 9  154 259 
 PTB  HE ES        611 31.08                             131   -0.49 9  154 259 
 PTB  HZ I         611 37.64         8.5 0.20            130            154 259 
 OCA  HZ EP        611 10.12                             130   -0.52 9  160 351 
 OCA  HN ES        611 32.39                             130   -0.50 9  160 351 
 OCA  HZ I         611 39.79        13.0 0.30            131            160 351 
 SPBC HZ EP        611 11.74                             129    0.47 9  168 221 
 SPBC HN ES        611 33.42                             129   -0.59 9  168 221 
 ZAR  HZ EP        611 15.60                             122    0.27 8  210 291 
 ZAR  HN ES        611 41.18                             122   -0.06 8  210 291 
 ZAR  HZ I         611 46.94         9.6 0.56            122            210 291 
 NOR  HZ EP        611 18.23                             118   -0.39 8  241 235 
 NOR  HN ES        611 47.29                             118    0.19 8  241 235 
 NOR  HZ I         611 54.69         5.5 0.46            119            241 235 
 SML  HZ EP        611 19.10                             118   -0.02 8  246 334 
 SML  HE ES        611 47.83                             118   -0.15 8  246 334 
 HEL  HZ EP        611 23.33                             115    0.14 7  279 256 
 HEL  HN ES        611 55.42                             115    0.19 7  279 256 
 HEL  HZ I         612  2.36         3.5 0.22            115            279 256 
                                                                                
