 2010  812 0713 20.7 L   6.788 -73.044141.6  RSN 10 0.3 1.7LRSN                1
 GAP=170        0.61       2.7     6.1  4.9 -0.4972E+01 -0.1135E+02  0.3324E+01E
 Epicentro: LOS SANTOS - SANTANDER                                             3
 ACTION:UP  10-09-07 10:54 OP:vdl  STATUS:               ID:20100812071320 L   I
 2010-08-12-0711-17S.COL___127                                                 6
 STAT SP IPHASW D HRMM SECON CODA AMPLIT PERI AZIMU VELO SNR AR TRES W  DIS CAZ7
 BAR2 SZ EP        713 39.83                             169    -0.110   27 215 
 BAR2 SZ ES   2    713 54.81                             169    -0.1 5   27 215 
 BAR2 SZ I         713 56.03        14.3 0.18                            27 215 
 BTL  SZ EP        713 40.06                             168     0.110   29 300 
 BTL  SZ ES   1    713 54.69                                    -0.3 7   29 300 
 GIR2 SZ EP   1    713 40.00                             165     0.0 7   36 333 
 BRR  HZ EP        713 41.79                             148    -0.310   82 296 
 BRR  HE ES        713 58.95                             148     0.210   82 296 
 BRR  HZ I         714  0.16        12.1 0.14                            82 296 
 RUS  HZ EP   1    713 43.83                             144    -0.1 7   99 183 
 RUS  HN ES   2    714  2.43                             144     0.4 5   99 183 
 RUS  HZ I         714  4.00         5.3 0.20                            99 183 
 GUE  SZ EP   1    713 45.07                             139     0.1 7  116   7 
 GRA  SZ EP        713 45.73                             137     0.310  124  12 
 GRA  SZ ES   2    714  4.26                             137    -0.5 5  124  12 
 OCA  SZ EP   1    713 48.88                             128    -0.1 7  163 349 
 OCA  SZ ES   2    714 10.95                             128    -0.1 5  163 349 
 OCA  SZ I         714 13.69         8.3 0.13                           163 349 
 CHI  HZ EP   1    713 57.84                             116    -0.5 6  251 198 
 CHI  HN ES   1    714 27.93                             116     0.1 6  251 198 
 CHI  HZ I         714 32.62         3.1 0.23                           251 198 
 ROSC BZ EP   1    713 59.72                             115     0.6 6  258 213 
 ROSC BE ES   2    714 28.66                             115    -0.5 4  258 213 
 ROSC BZ I         714 37.44         3.9 0.35                           258 213 
                                                                                
