 2016  612 0304 40.7 L   6.805 -73.172145.2  RSN  6 0.5 1.5LRSN                1
 GAP=133        1.42       5.3     7.1 11.2 -0.1044E+02  0.4347E+01 -0.2256E+01E
 Epicentro: LOS SANTOS - SANTANDER                                             3
 ACTION:UPD 16-07-21 22:17 OP:rebc STATUS:               ID:20160612030440 L   I
 OLDACT:REG 16-06-12 12:36 OP:dani STATUS:               ID:20160612025743     3
 2016-06-12-0257-43M.COL___325                                                 6
 STAT SP IPHASW D HRMM SECON CODA AMPLIT PERI AZIMU VELO AIN AR TRES W  DIS CAZ7
 BRR  HZ EP        3 5  2.25                             153    0.6110 68.3 299 
 BRR  HE ES        3 5 19.04                             153    1.0810 68.3 299 
 BRR  HZ I         3 5 23.37         5.8 0.16                          68.3 299 
 PAM  EZ EP     D  3 5  3.35                             150    0.3910 78.9  41 
 PAM  EN ES        3 5 19.83                             150   -0.4810 78.9  41 
 PAM  EZ I         3 5 22.12         8.5 0.50                          78.9  41 
 RUS  HZ EP        3 5  4.61                             143    0.1510  101 174 
 RUS  HE ES        3 5 22.71                             143   -0.2810  101 174 
 RUS  HZ I         3 5 24.37         2.4 0.40                           101 174 
 PTB  HZ EP        3 5  7.30                             132   -0.08 9  145 258 
 PTB  HE ES        3 5 27.20                             132   -0.98 9  145 258 
 PTB  HZ I         3 5 29.94         2.4 0.16                           145 258 
 OCA  HZ EP        3 5  8.61                             130   -0.29 9  159 354 
 OCA  HE ES        3 5 30.41                             130   -0.47 9  159 354 
 OCA  HZ I         3 5 37.24        12.9 0.28                           159 354 
 SPBC HN ES        3 5 31.23                             129    0.11 9  162 218 
                                                                                
