 2016 1112 0457 46.4 L   7.350 -73.142140.7  RSN  5 0.2 1.4LRSN                1
 GAP=177        0.58       5.0     2.9  5.0 -0.3201E+01  0.6669E+01 -0.8546E+01E
 Epicentro: RIONEGRO - SANTANDER                                               3
 ACTION:UPD 17-10-26 21:07 OP:lp   STATUS:               ID:20161112045746 L   I
 OLDACT:UP  16-11-12 16:38 OP:and  STATUS:               ID:20161112044745d    3
 OLDACT:UP  16-11-12 16:38 OP:and  STATUS:               ID:20161112044745d    3
 OLDACT:DUP 16-11-12 16:37 OP:and  STATUS:               ID:20161112044745d    3
 OLDACT:UP  16-11-12 16:32 OP:and  STATUS:               ID:20161112044744     3
 OLDACT:UP  16-11-12 16:31 OP:and  STATUS:               ID:20161112044744     3
 OLDACT:UP  16-11-12 16:29 OP:and  STATUS:               ID:20161112044744     3
 OLDACT:REG 16-11-12 12:44 OP:and  STATUS:               ID:20161112044744     3
 2016-11-12-0448-00M.COL___340                                                 6
 STAT SP IPHASW D HRMM SECON CODA AMPLIT PERI AZIMU VELO AIN AR TRES W  DIS CAZ7
 PAM  EZ EP        458  6.63                             160    0.0810 48.9  91 
 PAM  EN ES        458 22.22                             160   -0.0910 48.9  91 
 PAM  EZ I         458 24.38         4.1 0.17            164           48.9  91 
 BRR  HZ EP        458  6.77                             153   -0.0210 68.4 247 
 BRR  HN ES        458 23.12                             153    0.3810 68.4 247 
 BRR  HZ I         458 25.96         4.2 0.16            153           68.4 247 
 BAR2 EZ ES        458 24.81                             148   -0.2310 84.0 183 
 BAR2 EZ I         458 27.04         6.6 0.26            150           84.0 183 
 PTB  HZ EP        458 15.41                             126    0.32 9  171 238 
 PTB  HN ES        458 37.44                             126   -0.07 9  171 238 
 PTB  HZ I         458 40.46         2.7 0.14            129            171 238 
 ZAR  HZ EP        458 16.86                             123   -0.17 9  190 275 
 ZAR  HE ES        458 40.70                             123   -0.25 9  190 275 
 ZAR  HZ I         458 44.08         2.5 0.16            125            190 275 
                                                                                
