 2012  812 0200  7.8 L   6.760 -73.098137.3  RSN  4 0.1 1.9LRSN                1
 GAP=145        0.37       2.6     3.1  5.2  0.1848E+01 -0.7894E+01 -0.1528E+01E
 Epicentro: LOS SANTOS - SANTANDER                                             3
 ACTION:UPD 12-09-10 11:55 OP:ep   STATUS:               ID:20120812020007 L   I
 2012-08-12-0200-00M.COL___218                                                 6
 STAT SP IPHASW D HRMM SECON CODA AMPLIT PERI AZIMU VELO AIN AR TRES W  DIS CAZ7
 PAM  SZ EP        2 0 29.11                             149   -0.0310 77.7  34 
 BRR  HZ EP        2 0 28.36                             149   -0.0910 78.0 300 
 BRR  HE ES        2 0 44.65                             149    0.0810 78.0 300 
 BRR  HZ I         2 0 45.82         5.2 0.46                          78.0 300 
 RUS  HZ EP        2 0 30.53                             143    0.1510 95.9 179 
 RUS  HN ES   1    2 0 47.87                             143   -0.13 7 95.9 179 
 PTB  HE ES   1    2 0 55.28                             129   -0.06 7  152 261 
 PTB  HZ I         2 1  4.50        30.0 0.71                           152 261 
                                                                                
