 2011  712 0228 42.0 L   6.119 -73.710106.4  RSN  5 0.2 1.5LRSN                1
 GAP=250        0.41       3.3     7.6  7.0  0.1582E+02  0.3829E+02  0.1089E+02E
 Epicentro: BOLIVAR - SANTANDER                                                3
 ACTION:UPD 12-07-25 14:00 OP:epov STATUS:               ID:20110712022842 L   I
 2011-07-12-0220-00M.COL___132                                                 6
 STAT SP IPHASW D HRMM SECON CODA AMPLIT PERI AZIMU VELO AIN AR TRES W  DIS CAZ7
 RUS  HZ EP   1    228 59.95                             143    0.01 7 73.7 110 
 RUS  HN ES   1    229 14.07                             143    0.14 7 73.7 110 
 RUS  HZ I         229 15.05         2.4 0.36                          73.7 110 
 BAR2 SZ EP   1    228 59.90                             141   -0.03 7 78.3  48 
 BAR2 SZ ES   1    229 13.59                             141   -0.33 7 78.3  48 
 BAR2 SZ I         229 15.51        16.1 0.20                          78.3  48 
 BTL  SZ EP   1    229  1.95                             133    0.13 7  101  29 
 BTL  SZ ES   1    229 17.20                             133   -0.08 7  101  29 
 BRR  HZ EP   1    229  1.99                             130   -0.25 7  109 360 
 BRR  HZ I         229  2.37        13.5 0.11                           109 360 
 BRR  HN ES   1    229 18.22                             130    0.18 7  109 360 
 GIR2 SZ EP   1    229  3.53                             127    0.03 7  121  28 
 GIR2 SZ ES   1    229 20.48                             127    0.21 7  121  28 
                                                                                
