 2017 1012 0827 10.3 L   6.804 -73.126146.4  RSN  8 0.4 1.6LRSN                1
 GAP=220        1.02       5.6     4.4  7.1  0.1095E+02  0.7268E+01  0.6843E+01E
 Epicentro: LOS SANTOS - SANTANDER                                             3
 ACTION:UPD 17-11-07 19:31 OP:rebc STATUS:               ID:20171012082710 L   I
 OLDACT:UP  17-10-12 17:31 OP:dnl  STATUS:               ID:20171012081739     3
 OLDACT:UP  17-10-12 17:31 OP:dnl  STATUS:               ID:20171012081739     3
 OLDACT:REG 17-10-12 14:20 OP:leo  STATUS:               ID:20171012081739     3
 2017-10-12-0818-00M.COL___423                                                 6
 STAT SP IPHASW D HRMM SECON CODA AMPLIT PERI AZIMU VELO AIN AR TRES W  DIS CAZ7
 BAR2 EZ IP     C  827 30.35                             170    0.3110 24.2 195 
 BAR2 EZ ES        827 45.62                             170    0.2010 24.2 195 
 BAR2 EZ I         827 47.21        12.9 0.32            165           24.2 195 
 RUS  HZ EP        827 34.59                             144    0.4410  101 177 
 RUS  HN ES        827 52.89                             144    0.1510  101 177 
 RUS  HZ I         827 54.56         5.9 0.40            142            101 177 
 PTB  HZ EP        827 36.95                             132   -0.58 9  150 259 
 PTB  HN ES        827 58.31                             132   -0.45 9  150 259 
 PTB  HZ I         828  0.53         5.0 0.44            131            150 259 
 YPLC HZ EP        827 40.39                             127    0.30 9  176 152 
 YPLC HN ES        828  2.45                             127   -0.87 9  176 152 
 YPLC HZ I         828  5.85         5.9 0.26            127            176 152 
 ZAR  HZ EP   4    827 44.97                             122    1.98 0  206 292 
 ZAR  HN ES        828  8.50                             122    0.02 8  206 292 
 NOR  HZ EP        827 45.74                             118   -0.56 8  237 235 
 NOR  HE ES        828 14.73                             118    0.37 8  237 235 
 NOR  HZ I         828 21.57         3.9 0.20            118            237 235 
 CHI  HZ EP        827 48.48                             117    0.32 8  250 196 
 CHI  HN ES        828 17.56                             117   -0.11 8  250 196 
 CHI  HZ I         828 22.20         1.5 0.54            117            250 196 
 GUY2CHZ EP   4    827 55.84                             112    1.66 0  303 235 
 GUY2CHE ES        828 28.85                             112    0.45 7  303 235 
 GUY2CHZ I         828 37.03         1.8 0.46                           303 235 
                                                                                
