 2010  812 0452 46.3 L   6.765 -73.140141.9  RSN  7 0.4 1.6LRSN                1
 GAP=160        0.86       4.9     9.9  7.1  0.8980E+00 -0.1328E+02 -0.6599E+01E
 Epicentro: LOS SANTOS - SANTANDER                                             3
 ACTION:UP  10-09-07 10:54 OP:vdl  STATUS:               ID:20100812045246 L   I
 2010-08-12-0451-02S.COL___127                                                 6
 STAT SP IPHASW D HRMM SECON CODA AMPLIT PERI AZIMU VELO SNR AR TRES W  DIS CAZ7
 BAR2 SZ EP        453  5.20                             172    -0.210   20 194 
 BAR2 SZ ES        453 20.08                             172    -0.210   20 194 
 BAR2 SZ I         453 21.23        12.3 0.18                            20 194 
 BTL  SZ EP        453  5.35                             171    -0.110   22 320 
 BTL  SZ ES   1    453 19.85                             171    -0.5 7   22 320 
 GIR2 SZ EP   1    453  5.30                             165    -0.3 7   35 350 
 BRR  HZ EP        453  7.15                             151     0.010   74 301 
 BRR  HE ES   1    453 23.89                             151     0.5 7   74 301 
 BRR  HZ I         453 26.41        12.7 0.18                            74 301 
 RUS  HZ EP   1    453  9.26                             144    -0.1 7   97 176 
 RUS  HE ES   1    453 27.98                             144     0.6 7   97 176 
 RUS  HZ I         453 28.71         5.2 0.22                            97 176 
 GUE  SZ EP   2    453 10.24                             138    -0.7 5  120  11 
 GRA  SZ EP   1    453 12.02                             135     0.6 7  129  17 
 GRA  SZ ES   1    453 31.42                             135     0.3 7  129  17 
 GRA  SZ I         453 33.82         3.6 0.32                           129  17 
                                                                                
