 2016  612 0541 47.3 L   6.826 -73.146153.2  RSN 10 0.4 1.7LRSN                1
 GAP=135        1.00       3.7     4.7  7.0 -0.5056E+01  0.7738E+01 -0.1648E+01E
 Epicentro: LOS SANTOS - SANTANDER                                             3
 ACTION:UPD 16-07-21 22:18 OP:rebc STATUS:               ID:20160612054147 L   I
 OLDACT:UP  16-06-12 17:59 OP:dani STATUS:               ID:20160612053741     3
 OLDACT:REG 16-06-12 13:22 OP:dani STATUS:               ID:20160612053741     3
 2016-06-12-0537-41M.COL___325                                                 6
 STAT SP IPHASW D HRMM SECON CODA AMPLIT PERI AZIMU VELO AIN AR TRES W  DIS CAZ7
 BAR2 EZ EP     D  542  7.75                             170   -0.0910 26.2 189 
 BAR2 EZ I         542 23.96         9.7 0.52                          26.2 189 
 BRR  HZ IP        542  9.55                             154    0.4110 69.9 296 
 BRR  HZ EP     D  542  9.55                             154    0.4110 69.9 296 
 BRR  HE ES        542 26.58                             154    0.3710 69.9 296 
 BRR  HZ I         542 30.40        10.5 0.24                          69.9 296 
 PAM  EZ EP     C  542 10.66                             153    0.5210 75.2  41 
 PAM  EE ES        542 27.95                             153   -0.0510 75.2  41 
 PAM  EZ I         542 29.53         5.1 0.52                          75.2  41 
 RUS  HZ EP        542 12.28                             144    0.3310  103 176 
 RUS  HN ES        542 30.58                             144   -0.6310  103 176 
 RUS  HZ I         542 31.66         5.2 0.30                           103 176 
 PTB  HZ EP        542 14.66                             133   -0.23 9  148 258 
 PTB  HN ES        542 36.49                             133    0.04 9  148 258 
 PTB  HZ I         542 38.15         5.2 0.14                           148 258 
 OCA  HZ EP   4    542 16.67                             132    0.78 0  157 353 
 OCA  HN ES        542 37.51                             132   -0.72 9  157 353 
 OCA  HZ I         542 40.86        11.3 0.21                           157 353 
 SPBC HE ES        542 39.13                             130   -0.26 9  165 218 
 NOR  HN ES        542 52.16                             120    0.20 8  236 234 
 URE  HZ EP        542 28.05                             115   -0.53 7  283 291 
 SJC  HZ EP        542 42.37                             107   -0.42 6  407 327 
 SJC  HN ES   4    543 22.24                             107   -3.86 0  407 327 
 SJC  HZ I         543 24.36         3.4 0.89                           407 327 
                                                                                
