 2014  612 0356 45.1 L   6.774 -73.126139.1  RSN 13 0.4 2.2LRSN                1
 GAP=112        0.95       2.6     3.1  6.3 -0.3398E+00  0.4100E+01 -0.1509E+01E
 Epicentro: LOS SANTOS - SANTANDER                                             3
 OLDACT:REG 14-06-12 12:25 OP:mh   STATUS:               ID:20140612034813     3
 ACTION:UPD 14-07-01 22:53 OP:nd   STATUS:               ID:20140612035645 L   I
 OLDACT:UP  14-06-12 17:23 OP:mh   STATUS:               ID:20140612034813     3
 2014-06-12-0348-13M.COL___247                                                 6
 STAT SP IPHASW D HRMM SECON CODA AMPLIT PERI AZIMU VELO AIN AR TRES W  DIS CAZ7
 BAR2 SZ IP        357  4.16                             171    0.3210 21.0 197 
 BAR2 SZ ES   1    357 18.47                             171   -0.02 7 21.0 197 
 BAR2 SZ I         357 20.07        98.1 0.18            170           21.0 197 
 RUS  HZ EP        357  8.10                             143    0.1610 97.6 177 
 RUS  HN ES   1    357 25.90                             143    0.12 7 97.6 177 
 RUS  SZ I         357 27.49        12.5 0.48            145           97.6 177 
 RUS  HZ I         357 27.66        11.6 0.11                          97.6 177 
 PTB  HZ EP        357 11.06                             130   -0.58 9  149 260 
 PTB  HN ES   1    357 32.34                             130   -0.03 7  149 260 
 PTB  SZ I         357 34.93        34.5 0.14            131            149 260 
 PTB  HZ I         357 35.04        32.7 0.07                           149 260 
 TAM  HZ EP        357 12.54                             129    0.59 9  152 104 
 TAM  HN ES   1    357 32.62                             129   -0.31 7  152 104 
 TAM  SZ I         357 34.35        17.3 0.24            134            152 104 
 SPBC HZ EP        357 13.20                             128    0.23 9  162 220 
 SPBC HN ES        357 34.52                             128   -0.22 9  162 220 
 SPBC SZ I         357 38.72        17.5 0.20            129            162 220 
 OCA  HZ EP        357 13.72                             127    0.55 9  163 353 
 OCA  HN ES        357 34.27                             127   -0.82 9  163 353 
 OCA  SZ I         357 39.35        18.0 0.14            130            163 353 
 OCA  HZ I         357 39.38        17.4 0.24                           163 353 
 ZAR  HZ EP        357 16.92                             120   -0.49 8  207 293 
 ZAR  HN ES        357 43.01                             120    0.38 8  207 293 
 ZAR  SZ I         357 50.96        16.9 0.30            122            207 293 
 NOR  HZ EP        357 20.38                             117   -0.04 8  235 235 
 NOR  HN ES        357 48.43                             117    0.43 8  235 235 
 NOR  SZ I         357 53.66        14.1 0.40            118            235 235 
 NOR  HZ I         357 53.91        16.6 0.51                           235 235 
 CHI  HZ EP        357 21.62                             116   -0.54 8  246 196 
 CHI  HN ES        357 50.80                             116   -0.29 8  246 196 
 CHI  HZ I         357 59.40         4.2 0.26            118            246 196 
 CHI  SZ I         358  2.18         5.1 1.20                           246 196 
 SML  HZ EP        357 21.38                             116   -0.33 8  247 335 
 SML  HN ES        357 50.87                             116    0.57 8  247 335 
 SML  SZ I         357 53.43        24.1 0.08            117            247 335 
 HEL  HZ EP        357 25.24                             113    0.14 8  273 257 
 HEL  HN ES   1    357 55.84                             113   -0.49 6  273 257 
 HEL  SZ I         358  2.06         9.2 0.30            115            273 257 
 GUY2CHZ EP   4    357 29.44                             111    1.06 0  301 235 
 GUY2CHN ES   4    358  3.09                             111    0.92 0  301 235 
 GUY2CSZ I         358 11.09         8.7 0.54                           301 235 
 CBOC HZ EP   1    357 31.34                             108   -0.51 5  335 253 
 CBOC HN ES        358  8.90                             108    0.57 7  335 253 
 CBOC SZ I         358 13.79         4.1 1.80            110            335 253 
                                                                                
