 2010 1112 0753 51.6 L   6.816 -73.030138.0  RSN  8 0.4 1.7LRSN                1
 GAP=171        0.96       5.8     9.8  9.0 -0.5000E+00 -0.3119E+02 -0.3943E+01E
 Epicentro: CEPITA - SANTANDER                                                 3
 ACTION:UP  10-12-17 16:52 OP:REBC STATUS:               ID:20101112075352 L   I
 2010-11-12-0751-36S.COL___128                                                 6
 STAT SP IPHASW D HRMM SECON CODA AMPLIT PERI AZIMU VELO SNR AR TRES W  DIS CAZ7
 BTL  SZ EP        754 10.56                             168     0.210   29 293 
 BAR2 SZ EP        754 10.36                             167    -0.110   30 214 
 BAR2 SZ ES   2    754 23.96                             167    -1.2 5   30 214 
 BAR2 SZ I         754 26.55        13.4 1.06                            30 214 
 BRR  HN ES        754 29.24                             148     0.310   82 293 
 RUS  HZ EP   1    754 14.76                             142     0.1 7  102 183 
 RUS  HN ES   2    754 33.10                             142     0.4 5  102 183 
 RUS  HZ I         754 34.97         5.4 0.05                           102 183 
 GRA  SZ EP        754 16.09                             137     0.410  121  12 
 OCA  SZ EP        754 18.79                             128    -0.5 9  161 349 
 OCA  SZ I         754 47.85         7.2 0.07                           161 349 
 ROSC BZ EP   1    754 30.38                             114     0.2 6  261 213 
 HEL  HZ EP   1    754 32.36                             112    -0.5 6  285 256 
                                                                                
