 2013  112 0715  7.8 L   6.830 -73.102136.9  RSN  7 0.5 2.0LRSN                1
 GAP=188        1.13       4.2     6.6  8.4  0.8272E+01  0.1513E+02  0.1534E+01E
 Epicentro: LOS SANTOS - SANTANDER                                             3
 ACTION:UPD 13-02-15 09:13 OP:ep   STATUS:               ID:20130112071507 L   I
 2013-01-12-0710-00M.COL___241                                                 6
 STAT SP IPHASW D HRMM SECON CODA AMPLIT PERI AZIMU VELO AIN AR TRES W  DIS CAZ7
 BAR2 SZ EP        715 26.95                             168    0.4710 27.8 199 
 BAR2 SZ ES        715 41.04                             168    0.0010 27.8 199 
 BAR2 SZ I         715 42.61        14.4 0.48            172           27.8 199 
 BRR  HZ EP        715 28.66                             150    0.4910 74.0 294 
 BRR  HN I         715 50.36        19.7 0.16            146           74.0 294 
 RUS  HZ EP        715 30.90                             141   -0.0310  104 179 
 RUS  HN ES        715 49.09                             141    0.1210  104 179 
 RUS  HN I         715 50.87         9.8 0.56            142            104 179 
 PTB  HZ EP        715 33.68                             129   -0.89 9  153 258 
 PTB  HN ES        715 55.07                             129   -0.39 9  153 258 
 PTB  HN I         715 58.23        12.8 0.40            126            153 258 
 OCA  HE ES        715 55.92                             128   -0.62 9  158 351 
 OCA  HE I         716  2.90        21.0 0.20            123            158 351 
 ZAR  HZ EP        715 40.66                             120    0.63 8  207 291 
 ZAR  HN ES        716  5.64                             120    0.47 8  207 291 
 ZAR  HN I         716 13.12        11.6 0.22            117            207 291 
 CHI  HZ EP        715 45.26                             115   -0.26 8  253 196 
 CHI  HN ES        716 14.87                             115   -0.08 8  253 196 
 CHI  HN I         716 20.92         5.5 0.46            113            253 196 
                                                                                
