 2016  912 0647 52.8 L   6.815 -73.154148.8  RSN  9 0.5 1.7LRSN                1
 GAP=135        1.25       4.4     5.6  7.5  0.1523E+01  0.1097E+02  0.5789E+01E
 Epicentro: LOS SANTOS - SANTANDER                                             3
 ACTION:UPD 17-08-17 21:09 OP:lp   STATUS:               ID:20160912064752 L   I
 OLDACT:UP  16-09-12 20:28 OP:and  STATUS:               ID:20160912063745     3
 OLDACT:UP  16-09-12 20:25 OP:and  STATUS:               ID:20160912063745     3
 OLDACT:UP  16-09-12 20:24 OP:and  STATUS:               ID:20160912063745     3
 OLDACT:UP  16-09-12 20:21 OP:and  STATUS:               ID:20160912063745     3
 OLDACT:REG 16-09-12 15:58 OP:and  STATUS:               ID:20160912063745     3
 2016-09-12-0638-00M.COL___300                                                 6
 STAT SP IPHASW D HRMM SECON CODA AMPLIT PERI AZIMU VELO AIN AR TRES W  DIS CAZ7
 BAR2 EZ EP        648 12.81                             170   -0.0110 24.8 187 
 BAR2 EZ ES        648 27.97                             170   -0.4610 24.8 187 
 BAR2 EZ I         648 29.88         8.2 0.15            172           24.8 187 
 BRR  HZ EP        648 14.42                             154    0.2410 69.6 298 
 BRR  HE ES        648 31.79                             154    0.9310 69.6 298 
 BRR  HZ I         648 35.55         6.9 0.14            153           69.6 298 
 PAM  EZ EP   2    648 16.18                             152    0.89 5 76.7  41 
 PAM  EN ES        648 32.84                             152    0.0010 76.7  41 
 PAM  EZ I         648 34.73        10.9 0.49            152           76.7  41 
 RUS  HZ EP        648 16.83                             144   -0.1310  102 176 
 RUS  HE ES        648 35.50                             144   -0.3210  102 176 
 RUS  HZ I         648 36.59         5.3 0.27            146            102 176 
 PTB  HZ EP        648 19.34                             133   -0.61 9  147 258 
 PTB  HN ES        648 40.33                             133   -0.81 9  147 258 
 PTB  HZ I         648 43.62         5.0 0.15            134            147 258 
 OCA  HZ EP   2    648 21.03                             131   -0.14 5  158 353 
 OCA  HN ES   2    648 42.68                             131   -0.63 5  158 353 
 OCA  HZ I         648 52.35         8.2 0.19            131            158 353 
 SPBC HZ EP        648 21.55                             130   -0.04 9  164 218 
 SPBC HE ES        648 44.02                             130   -0.03 9  164 218 
 SPBC HZ I         648 45.39         8.2 0.16            131            164 218 
 ZAR  HZ EP        648 24.80                             123   -0.48 9  203 292 
 ZAR  HN ES        648 51.21                             123    0.59 9  203 292 
 CHI  HZ EP        648 31.04                             118    0.23 8  250 195 
 CHI  HN ES        649  1.68                             118    1.22 8  250 195 
 CHI  HZ I         649 10.03         1.9 0.11            119            250 195 
                                                                                
