 2012  812 0053 28.3 L   7.168 -73.040 32.2  RSN  4 0.3 1.0LRSN                1
 GAP=158        0.64       6.4     3.4 10.6 -0.1192E+02  0.1243E+02  0.9248E+01E
 Epicentro: BUCARAMANGA - SANTANDER                                            3
 ACTION:UPD 12-09-10 11:55 OP:ep   STATUS:               ID:20120812005328 L   I
 2012-08-12-0050-00M.COL___218                                                 6
 STAT SP IPHASW D HRMM SECON CODA AMPLIT PERI AZIMU VELO AIN AR TRES W  DIS CAZ7
 GIR2 SZ EP   1    053 34.47                             141    0.11 7 19.6 240 
 PAM  SZ EP        053 37.30                             109    0.1910 42.2  63 
 PAM  SZ I         053 37.56         7.9 0.13                          42.2  63 
 PAM  SN ES   1    053 43.70                             109   -0.33 7 42.2  63 
 BAR2 SZ EP   1    053 39.57                              91   -0.14 7 65.5 194 
 BAR2 SZ I         053 54.15         5.7 0.14                          65.5 194 
 BRR  HZ EP   1    053 40.97                              90    0.43 7 74.5 265 
 BRR  HZ I         053 49.41         7.5 0.39                          74.5 265 
 BRR  HN ES   1    053 49.71                              90   -0.41 7 74.5 265 
                                                                                
