 2017 1012 0429 52.2 L   6.960 -73.085137.1  RSN  4 0.4 1.4LRSN                1
 GAP=263        0.75       9.5     6.1  6.6  0.4267E+02 -0.9147E+01 -0.1608E+02E
 Epicentro: PIEDECUESTA - SANTANDER                                            3
 ACTION:UPD 17-11-07 19:30 OP:rebc STATUS:               ID:20171012042952 L   I
 OLDACT:REG 17-10-12 13:50 OP:leo  STATUS:               ID:20171012042602     3
 2017-10-12-0428-00M.COL___417                                                 6
 STAT SP IPHASW D HRMM SECON CODA AMPLIT PERI AZIMU VELO AIN AR TRES W  DIS CAZ7
 BAR2 EZ EP   2    430 12.37                             162    1.02 5 42.1 195 
 BAR2 EZ ES        430 26.01                             162   -0.2710 42.1 195 
 BAR2 EZ I         430 30.10         6.3 0.26            165           42.1 195 
 RUS  HZ EP        430 16.59                             137    0.1010  118 180 
 RUS  HN ES        430 35.67                             137    0.2310  118 180 
 RUS  HZ I         430 37.31         1.8 0.42            141            118 180 
 PTB  HZ EP        430 19.14                             127   -0.37 9  159 253 
 PTB  HE ES        430 40.96                             127    0.16 9  159 253 
 PTB  HZ I         430 41.06         3.0 0.18            132            159 253 
 YPLC HZ EP     D  430 22.80                             122    0.11 9  190 156 
 YPLC HN ES        430 46.19                             122   -0.28 9  190 156 
 YPLC HZ I         430 47.69         3.6 0.24            126            190 156 
                                                                                
