 2012  912 0528 37.4 L   7.132 -73.376111.4  RSN  4 0.1 1.7LRSN                1
 GAP=201        0.34       5.8     4.2  5.6  0.3706E+01 -0.3860E+01 -0.3595E+01E
 Epicentro: LEBRIJA - SANTANDER                                                3
 ACTION:UPD 12-10-22 14:18 OP:ep   STATUS:               ID:20120912052837 L   I
 2012-09-12-0520-00M.COL___227                                                 6
 STAT SP IPHASW D HRMM SECON CODA AMPLIT PERI AZIMU VELO AIN AR TRES W  DIS CAZ7
 GIR2 SZ EP   2    528 52.93                             169    0.19 5 21.0 106 
 BRR  HZ EP        528 52.96                             160   -0.1010 37.2 266 
 BRR  HZ I         528 53.20        13.6 0.14                          37.2 266 
 BRR  HN ES   1    529  5.31                             160    0.06 7 37.2 266 
 BAR2 SZ EP   2    528 54.96                             148    0.16 5 63.5 160 
 BAR2 SZ ES   2    529  8.22                             148   -0.14 5 63.5 160 
 BAR2 SZ I         529  9.97        18.5 0.20                          63.5 160 
 PTB  HN ES   2    529 18.85                             125    0.05 5  136 241 
                                                                                
