 2014 1212 0230 27.2 L   6.809 -73.204147.9  RSN  4 0.3 1.4LRSN                1
 GAP=275        0.63       4.8     4.6  5.9  0.6771E+01  0.4297E+01  0.1788E+01E
 Epicentro: ZAPATOCA - SANTANDER                                               3
 ACTION:UPD 15-02-10 17:02 OP:nd   STATUS:               ID:20141212023027 L   I
 OLDACT:REG 14-12-12 13:00 OP:fm   STATUS:               ID:20141212022742     3
 2014-12-12-0227-42M.COL___297                                                 6
 STAT SP IPHASW D HRMM SECON CODA AMPLIT PERI AZIMU VELO AIN AR TRES W  DIS CAZ7
 BAR2 EZ EP        230 47.12                             170   -0.0310 24.1 174 
 BAR2 EZ ES   1    231  3.15                             170    0.48 7 24.1 174 
 BAR2 EZ I         231  3.93         8.1 0.20            168           24.1 174 
 RUS  HZ EP        230 51.39                             144    0.0710  102 172 
 RUS  HN ES        231  9.68                             144   -0.4210  102 172 
 RUS  HZ I         231 11.26         2.9 0.36            146            102 172 
 PTB  HZ EP        230 53.69                             134   -0.15 9  142 258 
 PTB  HN ES        231 14.56                             134   -0.03 9  142 258 
 PTB  HZ I         231 22.49         3.9 0.32            132            142 258 
 CHI  HZ EP   1    231  5.21                             118    0.22 6  248 194 
 CHI  HN ES        231 34.73                             118    0.30 8  248 194 
                                                                                
