 2017 1212 0721 25.0 L   6.826 -73.162148.0  RSN 22 0.5 2.2LRSN                1
 GAP= 64        1.27       2.6     3.4  6.2 -0.3096E+00  0.4709E+01 -0.6810E+00E
 Epicentro: LOS SANTOS - SANTANDER                                             3
 ACTION:UPD 18-01-04 13:19 OP:rebc STATUS:               ID:20171212072125 L   I
 OLDACT:UP  17-12-12 18:34 OP:edw  STATUS:               ID:20171212071736     3
 OLDACT:REG 17-12-12 13:37 OP:edw  STATUS:               ID:20171212071736     3
 2017-12-12-0718-00M.COL___464                                                 6
 STAT SP IPHASW D HRMM SECON CODA AMPLIT PERI AZIMU VELO AIN AR TRES W  DIS CAZ7
 BAR2 EZ EP        721 44.90                             170   -0.0610 26.0 185 
 BAR2 EZ ES        722  0.60                             170    0.0810 26.0 185 
 BAR2 EZ I         722  0.91        30.7 0.32            168           26.0 185 
 PAM  EZ EP        721 47.78                             152    0.3810 76.4  42 
 PAM  EN ES        722  4.77                             152   -0.1010 76.4  42 
 PAM  EZ I         722  7.05        38.2 0.52            155           76.4  42 
 PTB  HZ EP        721 51.55                             133   -0.50 9  147 258 
 PTB  HN ES        722 12.63                             133   -0.51 9  147 258 
 PTB  HZ I         722 17.31         8.5 0.12            131            147 258 
 OCA  HZ EP        721 52.98                             131   -0.22 9  157 354 
 OCA  HN ES        722 14.99                             131   -0.21 9  157 354 
 OCA  HZ I         722 21.34        36.6 0.30            132            157 354 
 TAM  HZ IP     D  721 53.27                             131    0.18 9  158 106 
 TAM  HN ES        722 14.87                             131   -0.13 9  158 106 
 SPBC HZ EP        721 53.80                             129    0.01 9  164 218 
 SPBC HE ES        722 15.53                             129   -0.70 9  164 218 
 SPBC HZ I         722 18.41        25.1 0.38            129            164 218 
 YPLC HZ EP        721 55.26                             127   -0.04 9  180 151 
 YPLC HN ES        722 19.52                             127    0.60 9  180 151 
 YPLC HZ I         722 20.19        17.2 0.30            128            180 151 
 ZAR  HZ EP        721 57.36                             123    0.05 9  201 292 
 ZAR  HE ES        722 23.02                             123    0.51 9  201 292 
 ZAR  HZ I         722 29.50        14.0 0.24            123            201 292 
 ROSC BZ EP   4    722  5.00                             117    1.58 0  254 210 
 ROSC BN ES   4    722 31.94                             117   -1.44 0  254 210 
 ROSC BZ I         722 41.14        10.4 0.45            117            254 210 
 CVER HZ EP        722  6.21                             115    0.51 8  274 202 
 CVER HN ES        722 37.86                             115    0.41 8  274 202 
 CVER HZ I         722 47.67         8.1 0.40            115            274 202 
 URE  HZ EP        722  6.54                             114    0.66 7  281 291 
 URE  HE ES        722 38.32                             114    0.56 7  281 291 
 URE  HZ I         722 47.61         9.2 0.18            114            281 291 
 DRL03HZ EP        722  7.01                             114    0.64 7  286 353 
 DRL03HN ES        722 38.91                             114    0.27 7  286 353 
 GUY2CHZ EP   4    722 10.14                             113    1.40 0  301 234 
 GUY2CHN ES   4    722 44.20                             113    1.34 0  301 234 
 GUY2CHZ I         722 51.08         6.5 0.34                           301 234 
 VIL  EE ES        722 42.55                             112   -0.42 7  306 191 
 PTGC HZ EP   9    722  8.07                             112   -1.28 0  312 159 
 PTGC HN ES        722 41.18                             112   -1.47 7  312 159 
 PTGC HZ I         722 46.27         8.8 0.32            113            312 159 
 LL6C HZ EP        722 10.21                             111   -0.25 7  322 358 
 DRL02HZ EP        722  8.70                             111   -1.76 7  322 358 
 DRL02HN ES        722 46.22                             111    0.30 7  322 358 
 LL6C HN ES        722 45.56                             111   -0.36 7  322 358 
 CBOC HZ EP   4    722 13.11                             110    1.19 0  333 252 
 CBOC HN ES        722 49.20                             110    0.69 7  333 252 
 CBOC HZ I         722 55.01         2.2 0.68            110            333 252 
 ARGC HZ EP   4    722 15.35                             109    0.99 0  356 340 
 ARGC HE ES   4    722 55.70                             109    2.84 0  356 340 
 PRA  HZ EP        722 18.83                             107    0.03 6  394 209 
 PRA  HN ES        723  0.23                             107   -0.52 6  394 209 
 PRA  HZ I         723  6.64         7.5 0.26            107            394 209 
 ORTC HZ EP        722 19.13                             107   -0.02 6  397 216 
 ORTC HN ES   4    723  3.44                             107    2.05 0  397 216 
 ORTC HZ I         723  6.05         4.4 0.52            107            397 216 
 SJC  HZ EP   9    722 19.11                             106   -1.13 0  406 327 
 SJC  HN ES        722 59.93                             106   -2.26 6  406 327 
 SJC  HZ I         723  6.94         2.5 0.52            107            406 327 
 CRJC HZ EP   9    722 25.26                             104   -1.98 0  465   4 
 CRJC HN ES        723 13.92                             104    0.12 5  465   4 
                                                                                
