 2010  712 0051 55.6 L   6.791 -73.082142.1  RSN  8 0.3 2.0LRSN                1
 GAP=163        0.76       3.4     6.1  5.9 -0.7747E+01  0.4090E+01  0.1505E-01E
 Epicentro: LOS SANTOS - SANTANDER                                             3
 ACTION:UPD 10-12-01 15:17 OP:pat  STATUS:               ID:20100712005155 L   I
 2010-07-12-0049-01S.COL___120                                                 6
 STAT SP IPHASW D HRMM SECON CODA AMPLIT PERI AZIMU VELO AIN AR TRES W  DIS CAZ7
 BAR2 SZ IP        052 14.84                             170     0.010   25 207 
 BAR2 SZ ES   1    052 29.70                             170    -0.1 7   25 207 
 BAR2 SZ I         052 31.15        38.5 0.17                            25 207 
 BRR  HZ IP     C  052 16.72                             150     0.010   78 297 
 BRR  HE ES   1    052 33.02                             150    -0.2 7   78 297 
 BRR  HZ I         052 34.87        26.2 0.14                            78 297 
 RUS  HZ EP   1    052 18.85                             143     0.0 7   99 180 
 RUS  HN ES   1    052 36.97                             143    -0.1 7   99 180 
 RUS  HZ I         052 38.55        12.9 0.27                            99 180 
 BRI  SZ EP   1    052 18.44                             141    -0.6 7  107  17 
 BRI  SZ I         052 19.23        10.0 0.30                           107  17 
 BRI  SZ ES   1    052 37.59                             141     0.3 7  107  17 
 GRA  SZ IP        052 20.74                             136     0.310  125  14 
 GRA  SZ I         052 21.86        13.9 0.31                           125  14 
 GRA  SZ ES   1    052 40.22                             136     0.4 7  125  14 
 OCA  SZ EP   1    052 23.34                             128    -0.4 7  162 351 
 OCA  SZ ES   2    052 45.14                             128    -0.7 5  162 351 
 OCA  SZ I         052 50.15         9.2 0.14                           162 351 
 HEL  HZ EP   2    052 36.42                             113     0.1 4  279 256 
 HEL  HE ES   2    053  8.91                             113     0.8 4  279 256 
 HEL  HZ I         053 13.58         6.3 0.24                           279 256 
 PRA  HZ EP   1    052 48.97                             106    -0.3 4  395 211 
 PRA  HE ES   1    053 31.72                             106     0.5 4  395 211 
 PRA  HZ I         053 36.40         4.8 0.21                           395 211 
                                                                                
