 2013  312 0748 36.4 L   6.687 -73.203146.0  RSN  5 0.6 2.0LRSN                1
 GAP=172        1.05      10.9    18.9 14.5  0.1299E+03  0.7094E+01  0.6943E+01E
 Epicentro: VILLANUEVA - SANTANDER                                             3
 ACTION:UPD 13-04-09 14:01 OP:ep   STATUS:               ID:20130312074832 L   I
 2013-03-12-0747-49M.COL___195                                                 6
 STAT SP IPHASW D HRMM SECON CODA AMPLIT PERI AZIMU VELO AIN AR TRES W  DIS CAZ7
 BAR2 SZ EP   1    748 55.74                             176   -0.12 7 10.8 168 
 BAR2 SZ I         749 15.07        18.1 0.40            159           10.8 168 
 BRR  HZ EP   1    748 58.53                             152    0.87 7 72.9 310 
 BRR  HN ES   1    749 13.70                             152   -0.55 7 72.9 310 
 BRR  HN I         749 15.09        18.9 0.20            158           72.9 310 
 BRR  HZ I         749 15.42        10.3 0.27                          72.9 310 
 RUS  HZ EP   1    748 58.66                             147   -0.70 7 88.9 171 
 RUS  HN ES   2    749 18.22                             147    0.95 5 88.9 171 
 RUS  HN I         749 19.46        24.3 0.28            139           88.9 171 
 OCA  HN ES   2    749 28.88                             127    0.07 4  172 356 
 OCA  HN I         749 31.09        24.3 0.18            123            172 356 
 ZAR  HZ EP   1    749  8.85                             122    0.07 6  203 296 
                                                                                
