 2010  112 0602 36.9 L   6.822 -72.913148.4  RSN  6 0.3 1.8LRSN                1
 GAP=217        0.60       3.5     8.4  5.8 -0.8344E+01  0.5786E+01  0.6835E+01E
 Epicentro: SAN ANDRES - SANTANDER                                             3
 ACTION:UP  10-08-24 09:43 OP:vdl  STATUS:               ID:20100112060236 L   I
 2010-01-12-0558-10S.COL___097                                                 6
 STAT SP IPHASW D HRMM SECON CODA AMPLIT PERI AZIMU VELO SNR AR TRES W  DIS CAZ7
 BAR2 SZ EP   2    6 2 57.33                             165     0.1 6   39 230 
 BAR2 SZ ES   2    6 3 12.38                             165    -0.7 6   39 230 
 GIR2 SZ EP   1    6 2 57.19                             164     0.010   42 312 
 GIR2 SZ ES   1    6 3 13.48                             164     0.510   42 312 
 OCA  SZ EP   1    6 3  5.62                             130     0.0 9  163 344 
 OCA  SZ I         6 3  9.32        10.0 0.05                           163 344 
 OCA  SZ ES   1    6 3 27.93                             130    -0.1 9  163 344 
 CHI  HZ IP        6 3 16.01                             117     0.210  259 201 
 CHI  HN ES   1    6 3 45.95                             117    -0.3 7  259 201 
 CHI  HZ I         6 3 51.74         2.4 0.47                           259 201 
 HEL  HZ EP   2    6 3 19.66                             113    -0.4 5  298 257 
 HEL  HE ES   2    6 3 53.52                             113    -0.2 5  298 257 
 HEL  HZ I         6 3 56.20         3.0 0.51                           298 257 
 RREF BZ EP   1    6 3 25.40                             110    -0.2 6  343 232 
 RREF BN ES   2    6 4  4.28                             110     0.7 4  343 232 
 RREF BZ I         6 4  7.21         2.6 0.22                           343 232 
                                                                                
