 2014  812 0615 14.8 L   6.760 -73.133146.2  RSN  7 0.4 1.3LRSN                1
 GAP=201        0.89       4.1     5.3  6.2  0.7449E+01  0.6487E+01 -0.2618E+01E
 Epicentro: LOS SANTOS - SANTANDER                                             3
 ACTION:UPD 14-09-15 21:49 OP:nd   STATUS:               ID:20140812061514 L   I
 OLDACT:UP  14-08-12 14:01 OP:cam  STATUS:               ID:20140812061000     3
 OLDACT:UP  14-08-12 14:01 OP:cam  STATUS:               ID:20140812061000     3
 OLDACT:REG 14-08-12 12:32 OP:cam  STATUS:               ID:20140812061000     3
 2014-08-12-0610-00M.COL___285                                                 6
 STAT SP IPHASW D HRMM SECON CODA AMPLIT PERI AZIMU VELO AIN AR TRES W  DIS CAZ7
 BAR2 SZ EP        615 34.38                             172   -0.0810 19.3 196 
 BAR2 SZ ES        615 49.41                             172   -0.3510 19.3 196 
 BAR2 SZ I         615 50.32         7.1 0.32            168           19.3 196 
 BRR  HZ EP        615 36.48                             152    0.2410 74.6 301 
 BRR  HN ES        615 53.48                             152    0.5510 74.6 301 
 BRR  HZ I         615 58.26         2.9 0.26            148           74.6 301 
 RUS  HZ EP   1    615 38.62                             145    0.30 7 96.1 177 
 RUS  HN ES        615 56.68                             145    0.0410 96.1 177 
 RUS  HZ I         615 57.80         2.6 0.28            147           96.1 177 
 PTB  HZ EP        615 41.74                             132   -0.16 9  148 261 
 PTB  HN ES        616  2.35                             132   -0.66 9  148 261 
 PTB  HZ I         616  7.88         2.0 0.24            131            148 261 
 SPBC HZ EP        615 43.37                             130    0.23 9  161 220 
 SPBC HN ES        616  5.24                             130    0.03 9  161 220 
 SPBC HZ I         616  9.94         2.5 0.28            130            161 220 
 ZAR  HZ EP        615 47.34                             122   -0.29 8  207 293 
 ZAR  HN ES        616 13.71                             122    0.51 8  207 293 
 ZAR  HZ I         616 19.31         1.7 0.32            122            207 293 
 SML  HE ES   1    616 20.32                             117   -0.65 6  248 335 
                                                                                
