 2016 1012 0324 45.7 L   6.856 -73.138146.0  RSN 13 0.4 1.9LRSN                1
 GAP= 70        1.01       3.0     3.7  5.5 -0.8342E+00  0.1420E+01  0.1681E+01E
 Epicentro: LOS SANTOS - SANTANDER                                             3
 ACTION:UPD 16-11-09 19:18 OP:rebc STATUS:               ID:20161012032445 L   I
 OLDACT:UP  16-10-12 17:03 OP:ar   STATUS:               ID:20161012031740     3
 OLDACT:REG 16-10-12 14:18 OP:ar   STATUS:               ID:20161012031740     3
 2016-10-12-0318-00M.COL___375                                                 6
 STAT SP IPHASW D HRMM SECON CODA AMPLIT PERI AZIMU VELO AIN AR TRES W  DIS CAZ7
 BAR2 EZ EP        325  5.38                             168   -0.0710 29.5 190 
 BAR2 EZ ES        325 20.68                             168   -0.2110 29.5 190 
 BAR2 EZ I         325 21.29        17.7 0.22            166           29.5 190 
 BRR  HZ EP        325  6.96                             153    0.2410 69.3 294 
 BRR  HN ES        325 23.66                             153    0.5110 69.3 294 
 BRR  HZ I         325 25.78        13.7 0.36            150           69.3 294 
 PAM  EZ EP        325  8.05                             152    0.4610 72.1  42 
 PAM  EN ES        325 25.03                             152    0.3310 72.1  42 
 PAM  EZ I         325 26.75        33.8 0.42            156           72.1  42 
 RUS  HZ EP        325  9.53                             142   -0.3410  107 177 
 RUS  HN ES        325 28.63                             142   -0.1310  107 177 
 PTB  HZ EP        325 12.36                             132   -0.48 9  150 257 
 PTB  HN ES        325 33.52                             132   -0.52 9  150 257 
 PTB  HZ I         325 38.21         5.7 0.24            130            150 257 
 OCA  HZ EP        325 13.02                             131   -0.40 9  154 353 
 OCA  HE ES        325 34.28                             131   -0.80 9  154 353 
 OCA  HZ I         325 39.63        12.6 0.36            132            154 353 
 TAM  HZ IP     D  325 13.72                             130    0.30 9  156 107 
 SPBC HZ EP        325 14.54                             128   -0.14 9  169 218 
 SPBC HN ES        325 37.45                             128    0.13 9  169 218 
 SPBC HZ I         325 45.69         8.4 0.20            128            169 218 
 ZAR  HZ EP        325 18.82                             123    0.85 9  203 290 
 ZAR  HN ES        325 43.36                             123    0.19 9  203 290 
 ZAR  HZ I         325 48.73         7.9 0.28            122            203 290 
 NOR  HE ES   2    325 50.75                             118    0.65 4  239 233 
 CHI  HZ EP        325 23.88                             116   -0.15 8  255 195 
 CHI  HN ES        325 54.11                             116    0.14 8  255 195 
 CHI  HZ I         326  0.63         2.4 0.32            117            255 195 
 HEL  HZ EP   4    325 27.77                             115    1.63 0  275 255 
 HEL  HN ES   4    325 56.68                             115   -1.05 0  275 255 
 HEL  HZ I         326  4.37         2.8 0.42            114            275 255 
 GUY2CHZ EP   4    325 31.55                             112    1.79 0  305 234 
 GUY2CHN ES   4    326  7.67                             112    3.51 0  305 234 
 GUY2CHZ I         326 13.85         2.3 0.26                           305 234 
 SJC  HZ EP   4    325 39.21                             106   -1.47 0  405 326 
 SJC  HN ES   4    326 21.61                             106   -1.98 0  405 326 
                                                                                
