 2012  812 0438 37.8 L   5.875 -73.803 84.8  RSN  5 0.4 1.6LRSN                1
 GAP=192        0.89       6.2     3.8 12.9  0.5184E+01  0.2245E+02  0.1758E+02E
 Epicentro: JESUS MARIA - SANTANDER                                            3
 ACTION:UPD 12-09-10 11:55 OP:ep   STATUS:               ID:20120812043837 L   I
 2012-08-12-0430-00M.COL___218                                                 6
 STAT SP IPHASW D HRMM SECON CODA AMPLIT PERI AZIMU VELO AIN AR TRES W  DIS CAZ7
 RUS  HZ EP        438 54.65                             133    0.4510 79.8  89 
 RUS  HZ I         438 55.31         6.5 0.28                          79.8  89 
 RUS  HN ES   1    439  6.30                             133   -0.72 7 79.8  89 
 PTB  HZ EP        438 55.84                             125    0.0510  103 316 
 PTB  HZ I         438 58.17         5.6 0.66                           103 316 
 PTB  HN ES   1    439 10.19                             125    0.33 7  103 316 
 BAR2 SZ EP        438 56.36                             125    0.0910  105  41 
 BAR2 SZ ES   1    439 11.10                             125    0.38 7  105  41 
 BAR2 SZ I         439 13.64        35.3 0.18                           105  41 
 BRR  HZ EP   1    438 58.51                             117   -0.82 7  137   4 
 BRR  HN ES   1    439 16.00                             117   -0.16 7  137   4 
 BRR  HZ I         439 19.66         7.8 0.13                           137   4 
 HEL  HZ EP   1    439  6.52                             109    0.16 6  194 280 
 HEL  HZ I         439  7.59         3.5 0.32                           194 280 
 HEL  HE ES   1    439 28.32                             109   -0.35 6  194 280 
                                                                                
