 2016  312 0014 59.4 L   6.774 -73.142142.2  RSN  4 0.1 1.4LRSN                1
 GAP=138        0.38       2.0     1.8  4.7 -0.8925E-01  0.2231E+01 -0.4650E+00E
 Epicentro: LOS SANTOS - SANTANDER                                             3
 ACTION:UPD 16-05-13 21:23 OP:cam  STATUS:               ID:20160312001500 L   I
 OLDACT:UP  16-03-14 19:27 OP:Ak   STATUS:               ID:20160312001500 L   3
 OLDACT:REG 16-03-12 13:02 OP:ar   STATUS:               ID:20160312000749     3
 2016-03-12-0007-49M.COL___313                                                 6
 STAT SP IPHASW D HRMM SECON CODA AMPLIT PERI AZIMU VELO AIN AR TRES W  DIS CAZ7
 PAM  EZ EP        015 21.31                             149   -0.0310 79.3  38 
 PAM  EN ES        015 38.44                             149   -0.0210 79.3  38 
 RUS  HZ EP        015 22.55                             144   -0.0210 97.7 176 
 RUS  HN ES        015 40.75                             144    0.0910 97.7 176 
 RUS  HZ I         015 42.23         2.3 0.30            146           97.7 176 
 PTB  HZ EP   4    015 23.67                             131   -2.38 0  148 260 
 PTB  HN ES        015 46.68                             131   -0.17 9  148 260 
 PTB  HZ I         015 53.01         3.0 0.36            130            148 260 
 ZAR  HZ EP   4    015 33.27                             121    1.52 0  206 293 
 ZAR  HN ES        015 57.17                             121    0.17 8  206 293 
 ZAR  HZ I         016  2.56         4.6 0.34            121            206 293 
                                                                                
