 2016  412 0251 47.9 L   6.344 -73.480114.0  RSN 10 0.3 1.6LRSN                1
 GAP= 88        0.66       2.5     2.2  4.2 -0.2100E+01  0.4145E+01 -0.2593E+01E
 Epicentro: CONTRATACION - SANTANDER                                           3
 ACTION:UPD 16-05-05 14:20 OP:rebc STATUS:               ID:20160412025147 L   I
 OLDACT:UP  16-04-12 16:13 OP:mh   STATUS:               ID:20160412024744     3
 OLDACT:UP  16-04-12 16:11 OP:mh   STATUS:               ID:20160412024744     3
 OLDACT:UP  16-04-12 16:06 OP:mh   STATUS:               ID:20160412024744     3
 OLDACT:REG 16-04-12 12:32 OP:mh   STATUS:               ID:20160412024744     3
 2016-04-12-0247-44M.COL___322                                                 6
 STAT SP IPHASW D HRMM SECON CODA AMPLIT PERI AZIMU VELO AIN AR TRES W  DIS CAZ7
 BAR2 EZ IP     D  252  4.58                             158    0.1110 42.9  50 
 BAR2 EZ ES        252 17.51                             158    0.1510 42.9  50 
 BAR2 EZ I         252 19.76         8.9 0.08            156           42.9  50 
 RUS  HZ IP     D  252  6.23                             148    0.0810 66.5 139 
 RUS  HN ES        252 20.60                             148    0.2410 66.5 139 
 RUS  HZ I         252 22.34         3.7 0.24            144           66.5 139 
 SPBC HZ EP        252  8.12                             135   -0.0710  101 221 
 SPBC HN ES        252 23.98                             135   -0.0010  101 221 
 SPBC HZ I         252 26.00        12.6 0.10            130            101 221 
 PTB  HZ EP        252  8.68                             133   -0.2310  110 281 
 PTB  HE ES   4    252 23.38                             133   -1.88 0  110 281 
 PTB  HZ I         252 24.48        11.8 0.52            128            110 281 
 PAM  EZ EP        252 12.11                             126   -0.25 9  140  38 
 PAM  EE ES        252 31.03                             126   -0.37 9  140  38 
 PAM  EZ I         252 32.64         5.7 0.06            122            140  38 
 NOR  HZ EP        252 15.56                             118   -0.01 9  176 241 
 NOR  HE ES        252 36.43                             118   -0.69 9  176 241 
 NOR  HZ I         252 39.62         4.4 0.30            115            176 241 
 TAM  HZ EP        252 16.80                             117    0.08 9  187  87 
 TAM  HE ES   4    252 37.56                             117   -1.61 0  187  87 
 TAM  HZ I         252 41.23         4.9 0.12            114            187  87 
 ZAR  HZ EP        252 18.25                             115    0.35 9  198 310 
 ZAR  HN ES        252 41.46                             115    0.20 9  198 310 
 ZAR  HZ I         252 44.59        10.2 0.60            112            198 310 
 GUY2CHZ EP        252 23.80                             110    0.30 8  243 239 
 GUY2CHN ES   4    252 54.35                             110    3.12 0  243 239 
 GUY2CHZ I         252 57.43         2.9 0.12                           243 239 
 CBOC HZ EP        252 28.07                             106    0.03 7  285 259 
 CBOC HZ I         252 57.12         1.5 0.42            105            285 259 
 CBOC HN ES        252 59.60                             106    0.28 7  285 259 
                                                                                
