 2013  712 0632 55.3 L   6.773 -73.160144.0  RSN  6 0.3 1.4LRSN                1
 GAP=181        0.74       3.9     4.6  4.9  0.2977E+01  0.5611E+01  0.6700E+01E
 Epicentro: LOS SANTOS - SANTANDER                                             3
 ACTION:UPD 13-08-12 10:37 OP:ep   STATUS:               ID:20130712063255 L   I
 OLDACT:REG 13-07-12 08:52 OP:nd   STATUS:               ID:20130712062959     3
 2013-07-12-0629-59M.COL___267                                                 6
 STAT SP IPHASW D HRMM SECON CODA AMPLIT PERI AZIMU VELO AIN AR TRES W  DIS CAZ7
 BAR2 SZ EP        633 14.60                             172   -0.0010 20.2 187 
 BAR2 SZ ES        633 29.59                             172   -0.1110 20.2 187 
 BAR2 SZ I         633 31.20         5.8 0.26            167           20.2 187 
 GIR2 SZ EP        633 14.61                             166   -0.1710 34.0 354 
 GIR2 SZ ES        633 29.95                             166   -0.0710 34.0 354 
 GIR2 SZ I         633 31.82         3.8 0.22            166           34.0 354 
 BRR  HZ IP     D  633 16.49                             152    0.2810 71.2 301 
 BRR  HN ES        633 32.97                             152    0.4210 71.2 301 
 BRR  HZ I         633 36.68         7.7 0.26            149           71.2 301 
 RUS  HZ EP        633 18.64                             144    0.0210 97.8 175 
 RUS  HN ES        633 36.82                             144   -0.0310 97.8 175 
 RUS  HZ I         633 39.09         2.6 0.56            145           97.8 175 
 PTB  HZ EP        633 21.28                             132   -0.59 9  146 260 
 PTB  HN ES        633 42.48                             132   -0.16 9  146 260 
 PTB  HZ I         633 49.35         4.3 0.56            131            146 260 
 PRA  HZ EP        633 49.11                             106    0.80 6  389 210 
 PRA  HN ES        634 29.81                             106    0.11 6  389 210 
 PRA  HZ I         634 34.43         1.2 0.72            108            389 210 
                                                                                
