 2010  812 0454  8.1 L   6.869 -73.299120.0  RSN  8 0.3 1.7LRSN                1
 GAP=132        0.95       5.2    11.4 10.3  0.1654E+02 -0.5657E+02 -0.2282E+02E
 Epicentro: BETULIA - SANTANDER                                                3
 ACTION:UP  10-09-07 10:54 OP:vdl  STATUS:               ID:20100812045408 L   I
 2010-08-12-0452-34S.COL___127                                                 6
 STAT SP IPHASW D HRMM SECON CODA AMPLIT PERI AZIMU VELO SNR AR TRES W  DIS CAZ7
 BTL  SZ IP        454 24.44                             177     0.110    6  33 
 GIR2 SZ EP        454 24.49                             167    -0.110   26  27 
 BAR2 SZ EP        454 24.96                             164     0.010   33 157 
 BAR2 SZ ES   1    454 37.91                             164    -0.1 7   33 157 
 BAR2 SZ I         454 39.33        27.1 0.28                            33 157 
 BRR  HZ EP        454 25.40                             155     0.010   53 300 
 BRR  HE ES   1    454 39.18                             155     0.2 7   53 300 
 BRR  HZ I         454 40.11        17.7 0.08                            53 300 
 RUS  HZ EP   1    454 30.26                             135     0.0 7  111 168 
 RUS  HN ES   2    454 47.32                             135    -0.2 5  111 168 
 GUE  SZ EP        454 29.84                             134    -0.510  114  21 
 GUE  SZ I         454 30.23         5.0 0.08                           114  21 
 GRA  SZ EP        454 31.91                             131     0.810  125  26 
 GRA  SZ I         454 32.95         5.3 0.20                           125  26 
 OCA  SZ EP   1    454 33.22                             125    -0.4 7  151 359 
 OCA  SZ ES   1    454 53.34                             125    -0.2 7  151 359 
 OCA  SZ I         454 54.38         5.7 0.22                           151 359 
                                                                                
