 2010  312 0823 15.5 L   6.792 -73.033143.1  RSN  5 0.3 1.7LRSN                1
 GAP=194        0.63       4.2     8.4  6.7  0.1201E+02 -0.9084E+01 -0.9080E+01E
 Epicentro: CEPITA - SANTANDER                                                 3
 ACTION:UP  10-08-24 09:53 OP:vdl  STATUS:               ID:20100312082315 L   I
 2010-03-12-0818-23S.COL___094                                                 6
 STAT SP IPHASW D HRMM SECON CODA AMPLIT PERI AZIMU VELO SNR AR TRES W  DIS CAZ7
 BAR2 SZ EP        823 35.00                             168     0.010   28 217 
 BAR2 SZ ES   2    823 49.81                             168    -0.3 5   28 217 
 BRR  HZ EP        823 37.09                             148     0.010   83 295 
 BRR  HZ I         823 42.04        22.0 0.36                            83 295 
 BRR  HE ES   1    823 53.72                             148    -0.2 7   83 295 
 RUS  BZ EP   1    823 38.93                             143     0.0 7  100 183 
 RUS  BE ES   1    823 57.41                             143     0.2 7  100 183 
 RUS  BZ I         823 58.87         2.3 0.33                           100 183 
 OCA  SZ EP        823 43.66                             128    -0.3 9  163 349 
 OCA  SZ I         823 44.13        14.3 0.06                           163 349 
 OCA  SZ ES   2    824  6.88                             128     0.8 5  163 349 
 HEL  HZ EP   1    823 57.33                             113     0.4 6  284 257 
 HEL  HZ I         824 34.25         1.8 0.39                           284 257 
                                                                                
