 2010  212 0241 16.9 L   6.812 -73.543116.6  RSN  9 0.4 2.2LRSN                1
 GAP= 69        0.76       5.4    11.0  9.3 -0.1285E+02  0.7736E+02 -0.1533E+02E
 Epicentro: EL CARMEN DE CHUCURI - SANTANDER                                   3
 ACTION:UP  10-08-24 09:48 OP:vdl  STATUS:               ID:20100212024116 L   I
 2010-02-12-0239-50S.COL___086                                                 6
 STAT SP IPHASW D HRMM SECON CODA AMPLIT PERI AZIMU VELO SNR AR TRES W  DIS CAZ7
 BAR2 SZ IP        241 33.73                             156    -0.210   47 121 
 BAR2 SZ ES   1    241 46.72                             156    -0.4 7   47 121 
 GIR2 SZ IP        241 34.00                             155     0.210   49  53 
 GIR2 SZ ES   1    241 47.58                             155     0.5 7   49  53 
 GUE  SZ EP        241 40.30                             128    -0.210  132  31 
 OCA  SZ EP        241 43.30                             122     0.2 9  160   9 
 HEL  HZ EP   3    241 51.77                             112     0.8 2  230 253 
 HEL  HZ I         242 24.44        85.9 0.36                           230 253 
 CHI  HZ EP   1    241 52.80                             111     0.4 6  242 185 
 CHI  HZ I         242 26.19         2.3 0.41                           242 185 
 DBB  SZ EP   2    241 58.33                             106     0.1 4  296 275 
 MON  HZ EP   1    241 59.88                             105    -1.0 5  319 313 
 PRA  HZ EP   3    242  7.32                             102     0.0 2  374 204 
                                                                                
