 2017 1212 0320 58.6 L   6.815 -73.168146.4  RSN 18 0.5 2.0LRSN                1
 GAP= 64        1.38       3.6     3.8  7.3 -0.1502E+01  0.5816E+01  0.1078E+01E
 Epicentro: LOS SANTOS - SANTANDER                                             3
 ACTION:UPD 18-01-04 13:19 OP:rebc STATUS:               ID:20171212032058 L   I
 OLDACT:UP  17-12-12 14:58 OP:edw  STATUS:               ID:20171212031739     3
 OLDACT:REG 17-12-12 13:19 OP:edw  STATUS:               ID:20171212031739     3
 2017-12-12-0318-00M.COL___473                                                 6
 STAT SP IPHASW D HRMM SECON CODA AMPLIT PERI AZIMU VELO AIN AR TRES W  DIS CAZ7
 BAR2 EZ EP        321 18.11                             170   -0.2710 24.7 184 
 BAR2 EZ ES        321 33.56                             170   -0.2110 24.7 184 
 BAR2 EZ I         321 35.92        27.6 0.32            168           24.7 184 
 PAM  EZ EP     C  321 21.11                             151    0.1610 77.8  42 
 PAM  EN ES        321 38.37                             151    0.0210 77.8  42 
 PAM  EZ I         321 40.46        18.3 0.76            154           77.8  42 
 PTB  HZ EP        321 24.88                             133   -0.59 9  146 258 
 PTB  HN ES        321 46.03                             133   -0.37 9  146 258 
 PTB  HZ I         321 47.65         7.9 0.14            131            146 258 
 OCA  HZ EP        321 27.62                             130    0.79 9  158 354 
 OCA  HN ES        321 49.77                             130    0.96 9  158 354 
 OCA  HZ I         321 54.57        24.9 0.24            131            158 354 
 TAM  HZ IP     D  321 26.54                             130   -0.10 9  158 105 
 TAM  HE ES        321 48.51                             130    0.04 9  158 105 
 TAM  HZ I         321 49.67         5.8 0.44            133            158 105 
 SPBC HZ EP        321 27.08                             129   -0.08 9  163 218 
 SPBC HN ES        321 49.12                             129   -0.29 9  163 218 
 SPBC HZ I         321 56.11        21.2 0.34            128            163 218 
 YPLC HZ EP        321 28.59                             126   -0.15 9  179 151 
 YPLC HN ES        321 52.48                             126    0.26 9  179 151 
 YPLC HZ I         321 53.54        16.0 0.28            128            179 151 
 ZAR  HZ EP        321 30.63                             123   -0.20 9  201 292 
 ZAR  HN ES        321 56.24                             123    0.31 9  201 292 
 ZAR  HZ I         322  1.27         6.7 0.40            122            201 292 
 ROSC BZ EP   4    321 38.50                             117    1.69 0  253 210 
 ROSC BE ES        322  5.99                             117   -0.59 8  253 210 
 ROSC BZ I         322 14.99         9.7 0.35            117            253 210 
 URE  HN ES   4    322  8.99                             114   -2.23 0  281 292 
 URE  HZ I         322 18.39         5.2 0.20            114            281 292 
 DRL03HZ EP   4    321 42.03                             113    1.96 0  287 353 
 DRL03HN ES   4    322 13.62                             113    1.24 0  287 353 
 GUY2CHZ EP   4    321 43.45                             112    1.29 0  300 234 
 GUY2CHE ES        322 17.30                             112    1.20 7  300 234 
 GUY2CHZ I         322 23.99         5.6 0.40                           300 234 
 PTGC HZ EP   9    321 41.42                             111   -1.39 0  311 158 
 PTGC HN ES        322 14.52                             111   -1.35 7  311 158 
 DRL02HZ EP        321 43.09                             111   -1.08 7  323 358 
 LL6C HZ EP        321 43.65                             111   -0.52 7  323 358 
 DRL02HE ES   4    322 16.39                             111   -3.30 0  323 358 
 LL6C HE ES   4    322 15.73                             111   -3.96 0  323 358 
 CBOC HZ EP   4    321 46.37                             110    1.00 0  332 252 
 CBOC HN ES        322 21.21                             110   -0.60 7  332 252 
 CBOC HZ I         322 39.28         2.2 0.66            110            332 252 
 PRA  HZ EP        321 52.18                             107   -0.03 6  392 209 
 PRA  HE ES        322 35.13                             107    1.14 6  392 209 
 PRA  HZ I         322 40.51         4.7 0.38            107            392 209 
 ORTC HZ EP        321 53.26                             106    0.69 6  395 216 
 ORTC HN ES   4    322 37.42                             106    2.79 0  395 216 
 ORTC HZ I         322 42.14         2.8 0.32            107            395 216 
 SJC  HZ EP   9    321 52.15                             106   -1.76 0  406 327 
 SJC  HN ES        322 33.35                             106   -1.90 6  406 327 
 SJC  HZ I         322 40.91         1.5 0.30            106            406 327 
                                                                                
