 2017  412 0241 11.8 L   6.811 -73.014132.5  RSN  4 0.3 1.3LRSN                1
 GAP=154        0.90       4.7     7.3  8.4 -0.5664E+01 -0.1599E+02  0.7351E+01E
 Epicentro: CEPITA - SANTANDER                                                 3
 ACTION:UPD 17-05-30 21:11 OP:jn   STATUS:               ID:20170412024111 L   I
 OLDACT:REG 17-04-12 12:59 OP:edw  STATUS:               ID:20170412023739     3
 2017-04-12-0238-00M.COL___368                                                 6
 STAT SP IPHASW D HRMM SECON CODA AMPLIT PERI AZIMU VELO AIN AR TRES W  DIS CAZ7
 BAR2 EZ EP        241 29.86                             166   -0.2010 30.5 218 
 BAR2 EZ ES        241 44.52                             166    0.2510 30.5 218 
 BAR2 EZ I         241 47.16         8.1 0.82            172           30.5 218 
 PAM  EZ EP        241 32.71                             152    0.6310 68.0  31 
 PAM  EE ES        241 47.49                             152   -0.3910 68.0  31 
 PAM  EZ I         241 54.72         2.3 0.28            150           68.0  31 
 BRR  HN ES        241 48.37                             146   -0.0510 83.8 293 
 RUS  HZ EP        241 34.04                             140   -0.3710  102 184 
 RUS  HN ES        241 52.14                             140    0.1310  102 184 
 RUS  HZ I         241 53.79         3.9 0.32            146            102 184 
                                                                                
