 2017  212 0638 19.8 L   6.712 -73.241149.9  RSN  4 0.2 0.8LRSN                1
 GAP=128        0.53       3.3     3.0  6.6  0.4439E-01  0.1587E+01  0.7366E+01E
 Epicentro: VILLANUEVA - SANTANDER                                             3
 ACTION:UPD 17-05-24 15:35 OP:jn   STATUS:               ID:20170212063819 L   I
 OLDACT:UP  17-02-12 18:50 OP:and  STATUS:               ID:20170212062740     3
 OLDACT:UP  17-02-12 18:50 OP:and  STATUS:               ID:20170212062740     3
 OLDACT:UP  17-02-12 18:50 OP:and  STATUS:               ID:20170212062740     3
 OLDACT:UP  17-02-12 18:50 OP:and  STATUS:               ID:20170212062740     3
 OLDACT:UP  17-02-12 18:50 OP:and  STATUS:               ID:20170212062740     3
 OLDACT:UP  17-02-12 18:49 OP:and  STATUS:               ID:20170212062740     3
 OLDACT:UP  17-02-12 18:49 OP:and  STATUS:               ID:20170212062740     3
 OLDACT:UP  17-02-12 18:49 OP:and  STATUS:               ID:20170212062740     3
 OLDACT:REG 17-02-12 12:57 OP:and  STATUS:               ID:20170212062740     3
 2017-02-12-0628-00M.COL___346                                                 6
 STAT SP IPHASW D HRMM SECON CODA AMPLIT PERI AZIMU VELO AIN AR TRES W  DIS CAZ7
 BRR  HZ EP   2    638 40.56                             154   -0.62 5 68.0 310 
 BRR  HN ES        638 57.73                             154   -0.1610 68.0 310 
 PAM  EZ EP   4    638 46.57                             147    3.27 0 91.6  41 
 PAM  EN ES        639  1.85                             147    0.1910 91.6  41 
 PAM  EZ I         639  1.88         1.5 0.14            149           91.6  41 
 RUS  HZ EP        638 43.31                             147   -0.0410 92.2 169 
 RUS  HN ES        639  1.68                             147   -0.0610 92.2 169 
 PTB  HZ EP   2    638 46.45                             135    0.43 5  136 262 
 PTB  HE ES        639  6.64                             135    0.14 9  136 262 
 PTB  HZ I         639 11.42         0.7 0.18            134            136 262 
                                                                                
