 2016 1212 0253  4.0 L   6.824 -73.112151.5  RSN 11 0.6 1.6LRSN                1
 GAP=140        1.46       5.3     6.6  7.9 -0.2247E+01  0.1051E+02  0.1034E+02E
 Epicentro: LOS SANTOS - SANTANDER                                             3
 ACTION:UPD 17-01-11 20:14 OP:rebc STATUS:               ID:20161212025304 L   I
 OLDACT:UP  16-12-12 18:19 OP:edw  STATUS:               ID:20161212024743     3
 OLDACT:REG 16-12-12 12:00 OP:edw  STATUS:               ID:20161212024743     3
 2016-12-12-0248-00M.COL___390                                                 6
 STAT SP IPHASW D HRMM SECON CODA AMPLIT PERI AZIMU VELO AIN AR TRES W  DIS CAZ7
 BAR2 EZ EP        253 23.91                             170   -0.4510 26.8 197 
 BAR2 EZ ES        253 39.91                             170   -0.3510 26.8 197 
 BAR2 EZ I         253 41.77        10.7 0.32            169           26.8 197 
 PAM  EZ EP        253 26.94                             153    0.4010 72.9  39 
 PAM  EN ES        253 44.87                             153    0.7210 72.9  39 
 PAM  EZ I         253 48.73         5.8 0.21            155           72.9  39 
 BRR  HZ EP        253 25.95                             153    0.1010 73.4 295 
 BRR  HE ES        253 43.26                             153    0.3310 73.4 295 
 BRR  HZ I         253 47.53         5.0 0.46            153           73.4 295 
 RUS  HZ EP        253 27.96                             144   -0.5010  103 178 
 RUS  HN ES        253 46.68                             144   -0.8810  103 178 
 RUS  HZ I         253 47.89         7.9 0.32            145            103 178 
 PTB  HZ EP   9    253 31.18                             132   -0.60 0  152 258 
 PTB  HN ES        253 51.78                             132   -1.10 9  152 258 
 PTB  HZ I         253 54.44         2.7 0.12            133            152 258 
 ZAR  HN ES        254  2.36                             123   -0.49 8  207 291 
 CHI  HZ EP        253 42.46                             118    0.09 8  252 196 
 CHI  HN ES        254 12.68                             118    0.35 8  252 196 
 CHI  HZ I         254 17.11         1.7 0.20            119            252 196 
 ROSC BZ EP   4    253 45.21                             117    2.35 0  257 211 
 ROSC BN ES   4    254 14.98                             117    1.78 0  257 211 
 ROSC BZ I         254 19.11         5.2 0.45            118            257 211 
 GUY2CHZ EP        253 49.39                             113    1.03 7  306 235 
 GUY2CHN ES        254 23.88                             113    0.89 7  306 235 
 GUY2CHZ I         254 30.67         2.3 0.56                           306 235 
 LL6C HZ EP   4    253 29.88                             112   -19.8 0  322 357 
 LL6C HN ES   4    254  7.38                             112   -17.9 0  322 357 
 PRA  HZ EP        253 58.24                             107    0.07 6  396 210 
 PRA  HN ES        254 40.83                             107    0.38 6  396 210 
 PRA  HZ I         254 45.06         1.8 0.38            108            396 210 
 SJC  HZ EP        253 58.40                             107   -1.30 6  409 326 
 SJC  HN ES   4    254 39.69                             107   -3.49 0  409 326 
                                                                                
