 2013  212 0259 57.6 L   6.784 -73.070147.8  RSN  5 0.3 1.2LRSN                1
 GAP=147        0.58       3.3     5.7  6.0 -0.3574E+01  0.7971E-01  0.3738E+01E
 Epicentro: LOS SANTOS - SANTANDER                                             3
 ACTION:UPD 13-03-12 09:32 OP:ep   STATUS:               ID:20130212025957 L   I
 2013-02-12-0300-00M.COL___240                                                 6
 STAT SP IPHASW D HRMM SECON CODA AMPLIT PERI AZIMU VELO AIN AR TRES W  DIS CAZ7
 BAR2 SZ ES   2    3 0 32.43                             170   -0.59 5 24.6 210 
 PAM  SZ EP        3 0 20.12                             152    0.2910 73.8  34 
 PAM  SN ES   1    3 0 37.01                             152   -0.15 7 73.8  34 
 BRR  HZ IP     C  3 0 19.20                             150   -0.2510 79.4 297 
 BRR  HN ES   1    3 0 36.78                             150    0.29 7 79.4 297 
 BRR  HZ I         3 0 39.55         4.3 0.68            148           79.4 297 
 RUS  HZ EP   1    3 0 21.18                             145   -0.23 7 98.6 181 
 RUS  HE ES   1    3 0 40.25                             145    0.26 7 98.6 181 
 RUS  HZ I         3 0 41.13         2.2 0.26            144           98.6 181 
 CHI  HZ EP   2    3 0 35.35                             118   -0.13 4  249 197 
 CHI  HN ES   1    3 1  5.09                             118    0.06 6  249 197 
 CHI  HZ I         3 1  8.59         1.0 0.48            118            249 197 
                                                                                
