 2012  812 0045 57.6 L   7.380 -73.123 11.1  RSN  8 0.4 1.5LRSN                1
 GAP=108        0.85       2.2     2.0  4.3 -0.1414E+00  0.3190E+01  0.1627E+01E
 Epicentro: MATANZA - SANTANDER                                                3
 ACTION:UPD 12-09-10 11:55 OP:ep   STATUS:               ID:20120812004557 L   I
 2012-08-12-0040-00M.COL___218                                                 6
 STAT SP IPHASW D HRMM SECON CODA AMPLIT PERI AZIMU VELO AIN AR TRES W  DIS CAZ7
 GIR2 SZ EP        046  3.40                             104   -0.2910 34.1 193 
 PAM  SZ EP        046  6.12                             100    0.1610 47.0  95 
 PAM  SN ES        046 12.43                             100   -0.0210 47.0  95 
 PAM  SZ I         046 13.41        34.9 0.15                          47.0  95 
 BRR  HZ EP        046  9.62                              96    0.4710 71.6 245 
 BRR  HE ES        046 18.09                              96   -0.0310 71.6 245 
 BRR  HZ I         046 19.49        15.1 0.14                          71.6 245 
 BAR2 SZ EP   1    046 12.23                              95    0.47 7 87.3 184 
 BAR2 SZ ES   1    046 22.27                              95   -0.50 7 87.3 184 
 BAR2 SZ I         046 23.78        15.8 0.15                          87.3 184 
 OCA  HZ EP        046 13.29                              94    0.0810 97.4 347 
 OCA  HN ES   1    046 24.67                              94   -0.67 7 97.4 347 
 OCA  HZ I         046 26.95        16.5 0.15                          97.4 347 
 RUS  HZ EP   1    046 23.99                              56    0.55 7  164 178 
 RUS  HN ES   1    046 43.26                              56   -0.31 7  164 178 
 RUS  HZ I         046 44.17         2.8 0.07                           164 178 
 PTB  HZ I         045 31.95        10.4 0.78                           174 238 
 PTB  HN ES        046 44.33                              56   -0.36 9  174 238 
 ZAR  HN ES   1    046 49.13                              56    0.50 7  192 274 
 ZAR  HZ I         046 50.84         7.9 0.13                           192 274 
                                                                                
