 2010  812 0143 29.5 L   6.788 -73.090147.4  RSN  5 0.4 1.6LRSN                1
 GAP=165        1.01       5.3    11.1  9.0 -0.1194E+02 -0.1546E+02 -0.8135E+01E
 Epicentro: LOS SANTOS - SANTANDER                                             3
 ACTION:UP  10-09-07 10:54 OP:vdl  STATUS:               ID:20100812014329 L   I
 2010-08-12-0141-55S.COL___127                                                 6
 STAT SP IPHASW D HRMM SECON CODA AMPLIT PERI AZIMU VELO SNR AR TRES W  DIS CAZ7
 BAR2 SZ EP        143 49.29                             170    -0.110   24 206 
 BAR2 SZ ES        144  4.44                             170    -0.410   24 206 
 BAR2 SZ I         144  5.97        11.2 0.21                            24 206 
 BRR  HZ EP        143 51.05                             151    -0.210   77 297 
 BRR  HZ I         143 51.46        17.0 0.10                            77 297 
 BRR  HN ES   1    144  8.39                             151     0.3 7   77 297 
 RUS  HZ EP   1    143 53.82                             144     0.5 7   99 180 
 RUS  HN ES   1    144 12.11                             144     0.2 7   99 180 
 RUS  HZ I         144 14.35         3.5 0.35                            99 180 
 GUE  SZ EP   2    143 53.21                             140    -1.2 5  117   9 
 GUE  SZ I         144 13.61         2.0 0.24                           117   9 
 GRA  SZ EP        143 54.96                             137     0.110  125  15 
 GRA  SZ ES        144 14.94                             137     0.310  125  15 
 GRA  SZ I         144 16.19         6.6 0.35                           125  15 
                                                                                
