 2012 1012 0941 36.6 L   6.780 -73.125142.8  RSN  5 0.2 1.3LRSN                1
 GAP=140        0.45       3.9     4.4  5.2 -0.1841E+01 -0.1389E+01  0.1230E+01E
 Epicentro: LOS SANTOS - SANTANDER                                             3
 ACTION:UPD 12-11-22 17:03 OP:ep   STATUS:               ID:20121012094136 L   I
 2012-10-12-0940-00M.COL___231                                                 6
 STAT SP IPHASW D HRMM SECON CODA AMPLIT PERI AZIMU VELO AIN AR TRES W  DIS CAZ7
 BAR2 SZ EP        941 55.80                             171   -0.0810 21.7 197 
 BAR2 SZ I         941 56.16         5.9 0.30                          21.7 197 
 BAR2 SZ ES   2    942 10.47                             171   -0.41 5 21.7 197 
 GIR2 SZ EP        941 55.76                             166   -0.2710 33.9 347 
 BRR  HZ EP        941 57.78                             151    0.1410 74.2 299 
 BRR  HN ES   1    942 14.10                             151    0.08 7 74.2 299 
 BRR  HN I         942 19.16         7.5 0.18                          74.2 299 
 PAM  SZ EP        941 58.60                             150    0.0410 77.7  37 
 PAM  SZ I         941 58.64         3.9 0.20                          77.7  37 
 PAM  SN ES   1    942 15.82                             150    0.17 7 77.7  37 
 RUS  HZ EP   2    942  0.16                             144    0.23 5 98.2 177 
 RUS  HN ES   2    942 18.36                             144    0.27 5 98.2 177 
 RUS  HZ I         942 21.27         1.9 0.42                          98.2 177 
                                                                                
