 2013  712 0531 39.2 L   6.584 -73.566103.4  RSN  5 0.5 1.5LRSN                1
 GAP=130        1.24       7.8     4.7 10.6  0.3323E+01  0.2360E+02  0.4956E+01E
 Epicentro: EL CARMEN DE CHUCURI - SANTANDER                                   3
 ACTION:UPD 13-08-12 10:37 OP:ep   STATUS:               ID:20130712053139 L   I
 OLDACT:REG 13-07-12 08:50 OP:nd   STATUS:               ID:20130712052959     3
 2013-07-12-0529-59M.COL___267                                                 6
 STAT SP IPHASW D HRMM SECON CODA AMPLIT PERI AZIMU VELO AIN AR TRES W  DIS CAZ7
 BAR2 SZ EP        531 54.76                             156    0.2910 42.4  89 
 BAR2 SZ ES        532  6.83                             156    0.4210 42.4  89 
 BAR2 SZ I         532  8.85        37.5 0.46            161           42.4  89 
 GIR2 SZ EP        531 56.28                             143    0.3610 68.5  37 
 GIR2 SZ ES   2    532  7.78                             143   -1.22 5 68.5  37 
 GIR2 SZ I         532  7.85         5.3 0.22            151           68.5  37 
 RUS  HZ EP        531 58.71                             135    0.3210 93.3 145 
 RUS  HN ES        532 12.99                             135   -0.4010 93.3 145 
 RUS  HZ I         532 15.06         4.1 0.36            137           93.3 145 
 PTB  HZ IP     C  531 57.80                             133   -0.4110 98.6 267 
 PTB  HN ES        532 12.76                             133   -0.3110 98.6 267 
 PTB  HZ I         532 15.98         6.6 0.34            134           98.6 267 
 HEL  HZ EP        532 10.92                             109   -0.78 8  221 259 
 HEL  HN ES        532 37.89                             109    0.81 8  221 259 
 HEL  HZ I         532 42.21         2.3 0.42            111            221 259 
                                                                                
