 2015 1212 0108 36.1 L   6.794 -73.169140.0  RSN  6 0.3 1.5LRSN                1
 GAP=142        0.71       3.9     4.2  5.3 -0.5501E+01  0.6408E+01  0.2100E+01E
 Epicentro: LOS SANTOS - SANTANDER                                             3
 ACTION:UPD 16-02-04 15:04 OP:cam  STATUS:               ID:20151212010836 L   I
 OLDACT:REG 15-12-12 11:09 OP:drio STATUS:               ID:20151212010747     3
 2015-12-12-0107-47M.COL___340                                                 6
 STAT SP IPHASW D HRMM SECON CODA AMPLIT PERI AZIMU VELO AIN AR TRES W  DIS CAZ7
 BAR2 EZ EP        1 8 55.02                             171   -0.0410 22.3 184 
 BAR2 EZ ES        1 9 10.00                             171    0.1910 22.3 184 
 BAR2 EZ I         1 9 12.72         7.6 0.42            170           22.3 184 
 PAM  EZ EP        1 8 57.73                             149   -0.1510 79.6  41 
 PAM  EN ES        1 9 15.17                             149    0.3310 79.6  41 
 PAM  EZ I         1 9 17.15         4.5 0.48            153           79.6  41 
 RUS  HZ EP        1 8 58.91                             143   -0.3810  100 175 
 RUS  HN ES        1 9 17.24                             143   -0.1110  100 175 
 RUS  HZ I         1 9 18.84         3.4 0.34            147            100 175 
 PTB  HZ EP        1 9  2.10                             131   -0.30 9  145 259 
 PTB  HN ES        1 9 22.89                             131    0.01 9  145 259 
 PTB  HZ I         1 9 30.32         4.4 0.48            130            145 259 
 PRA  HZ EP        1 9 29.77                             106    0.52 6  390 209 
 PRA  HN ES        110 11.36                             106    0.69 6  390 209 
 PRA  HZ I         110 15.83         1.7 0.36            107            390 209 
 SJC  HZ EP   4    1 9 29.13                             105   -2.29 0  408 327 
 SJC  HN ES   4    110 11.77                             105   -2.77 0  408 327 
 SJC  HZ I         110 20.17         1.7 0.50            106            408 327 
                                                                                
