 2013  512 0625 45.2 L   6.801 -73.074148.9  RSN 11 0.4 1.9LRSN                1
 GAP=146        0.75       2.8     4.5  4.4 -0.1249E+01  0.4287E+01  0.1193E+01E
 Epicentro: LOS SANTOS - SANTANDER                                             3
 ACTION:UPD 13-06-20 09:49 OP:ep   STATUS:               ID:20130512062545 L   I
 2013-05-12-0620-00M.COL___256                                                 6
 STAT SP IPHASW D HRMM SECON CODA AMPLIT PERI AZIMU VELO AIN AR TRES W  DIS CAZ7
 BAR2 SZ EP        626  5.02                             170   -0.1910 26.1 207 
 BAR2 SZ ES        626 20.67                             170   -0.1910 26.1 207 
 BAR2 SZ I         626 22.63        18.1 0.28            168           26.1 207 
 GIR2 SZ EP        626  4.95                             167   -0.3010 33.4 337 
 GIR2 SZ ES        626 21.26                             167    0.3310 33.4 337 
 GIR2 SZ I         626 22.37        14.3 0.58            165           33.4 337 
 PAM  SZ EP        626  7.80                             153    0.3810 72.5  35 
 PAM  SZ I         626  7.93        20.2 0.24            155           72.5  35 
 PAM  SN ES   1    626 25.10                             153    0.31 7 72.5  35 
 BRR  HZ IP     C  626  6.76                             151   -0.2810 78.2 296 
 BRR  HN ES        626 23.82                             151   -0.2910 78.2 296 
 BRR  HZ I         626 27.06        13.1 0.18            148           78.2 296 
 RUS  HZ EP   1    626  8.92                             144   -0.28 7  101 181 
 RUS  HN ES   1    626 27.84                             144   -0.12 7  101 181 
 RUS  HZ I         626 28.60         6.1 0.16            145            101 181 
 PTB  HZ EP   4    626 11.94                             131   -1.14 0  156 259 
 PTB  HN ES   4    626 32.99                             131   -1.88 0  156 259 
 PTB  HZ I         626 38.58        18.6 0.38            130            156 259 
 OCA  HZ EP   1    626 14.01                             130    0.21 7  161 350 
 OCA  HE ES   1    626 36.32                             130    0.18 7  161 350 
 OCA  HZ I         626 39.80        10.4 0.30            131            161 350 
 NOR  HZ EP   1    626 21.40                             118   -0.37 6  241 236 
 NOR  HN ES   2    626 49.88                             118   -0.45 4  241 236 
 NOR  HZ I         626 52.62         6.1 0.22            118            241 236 
 SML  HZ EP   2    626 21.89                             118   -0.42 4  247 334 
 SML  HN ES   1    626 51.19                             118   -0.10 6  247 334 
 SML  HZ I         626 53.60        13.7 0.10            118            247 334 
 CHI  HZ EP   1    626 23.24                             117   -0.04 6  251 197 
 CHI  HN ES   1    626 54.02                             117    1.01 6  251 197 
 CHI  HZ I         626 57.46         3.0 0.64            118            251 197 
 HEL  HZ EP   1    626 26.69                             115    0.31 6  280 256 
 HEL  HN ES   1    626 59.43                             115    0.89 6  280 256 
                                                                                
