 2017  812 0754 56.0 L   6.782 -73.155148.0  RSN  6 0.4 1.6LRSN                1
 GAP=136        0.96       4.4     5.0  8.0 -0.1468E+01  0.8985E+01 -0.4400E+01E
 Epicentro: LOS SANTOS - SANTANDER                                             3
 ACTION:UPD 17-09-04 20:19 OP:rebc STATUS:               ID:20170812075456 L   I
 OLDACT:REG 17-08-12 12:49 OP:dhb  STATUS:               ID:20170812074729     3
 2017-08-12-0748-00M.COL___417                                                 6
 STAT SP IPHASW D HRMM SECON CODA AMPLIT PERI AZIMU VELO AIN AR TRES W  DIS CAZ7
 BAR2 EZ EP        755 15.69                             172   -0.1310 21.2 188 
 BAR2 EZ ES        755 31.41                             172    0.1010 21.2 188 
 BAR2 EZ I         755 33.49         7.6 0.34            171           21.2 188 
 BRR  HZ EP        755 17.52                             153    0.1710 71.2 300 
 BRR  HN ES        755 34.76                             153    0.7210 71.2 300 
 BRR  HZ I         755 41.44        10.0 0.18            151           71.2 300 
 PAM  EZ EP        755 18.61                             151    0.0610 79.6  39 
 PAM  EE ES        755 35.68                             151   -0.4810 79.6  39 
 PAM  EZ I         755 37.92         4.0 0.42            155           79.6  39 
 RUS  HZ EP   2    755 20.74                             145    0.94 5 98.7 175 
 RUS  HN ES        755 38.38                             145   -0.0110 98.7 175 
 RUS  HZ I         755 39.74         4.4 0.28            149           98.7 175 
 SPBC HN ES        755 46.09                             130   -0.54 9  161 219 
 SPBC HZ I         755 50.40         4.8 0.10            132            161 219 
 ZAR  HZ EP   2    755 28.86                             123    0.33 4  204 293 
 ZAR  HE ES        755 53.55                             123   -0.38 9  204 293 
 ZAR  HZ I         755 59.36         4.5 0.38            124            204 293 
                                                                                
