 2014  212 0516 47.2 L   6.786 -73.142143.0  RSN  9 0.5 1.7LRSN                1
 GAP=138        1.19       3.4     5.7  8.0  0.8307E+00  0.1879E+02  0.2180E+01E
 Epicentro: LOS SANTOS - SANTANDER                                             3
 ACTION:UPD 14-03-10 08:09 OP:ep   STATUS:               ID:20140212051647 L   I
 OLDACT:REG 14-02-12 08:12 OP:carl STATUS:               ID:20140212051000     3
 2014-02-12-0510-00M.COL___199                                                 6
 STAT SP IPHASW D HRMM SECON CODA AMPLIT PERI AZIMU VELO AIN AR TRES W  DIS CAZ7
 BAR2 SZ EP        517  6.92                             171    0.4510 21.9 192 
 BAR2 SZ ES        517 22.36                             171    0.8610 21.9 192 
 BAR2 SZ I         517 22.94        21.5 0.26            171           21.9 192 
 PAM  SN ES        517 25.49                             150   -0.8310 78.3  39 
 RUS  HZ EP        517 10.66                             144    0.0910 99.1 176 
 RUS  HN ES        517 28.78                             144   -0.0210 99.1 176 
 RUS  HZ I         517 30.61         6.4 0.34            146           99.1 176 
 PTB  HZ EP        517 13.65                             131   -0.31 9  148 259 
 PTB  HN ES        517 34.38                             131   -0.45 9  148 259 
 PTB  HZ I         517 35.66         7.2 0.52            130            148 259 
 SPBC HZ EP        517 15.56                             129    0.16 9  162 219 
 SPBC HN ES        517 37.33                             129   -0.07 9  162 219 
 SPBC HZ I         517 39.84         7.1 0.36            128            162 219 
 OCA  HN ES        517 37.66                             129    0.19 9  162 353 
 ZAR  HZ EP        517 20.08                             122    0.51 9  205 292 
 ZAR  HE ES        517 45.06                             122    0.25 9  205 292 
 ZAR  HN I         517 54.00        11.0 0.16            121            205 292 
 SML  HN ES        517 51.96                             117   -0.46 8  245 335 
 SML  HZ I         518  1.39         3.7 0.28            116            245 335 
 CHI  HZ EP        517 24.88                             117    0.28 8  247 195 
 CHI  HN ES        517 52.87                             117   -0.90 8  247 195 
 CHI  HZ I         517 56.89         1.3 0.62            117            247 195 
                                                                                
