 2013  212 0145 35.0 L   6.394 -73.687 99.7  RSN  8 0.6 1.7LRSN                1
 GAP= 82        1.16       4.8     4.4 10.4  0.4103E+01  0.1463E+02  0.9094E+01E
 Epicentro: SANTA HELENA DEL OPON - SANTANDER                                  3
 ACTION:UPD 13-03-12 09:32 OP:ep   STATUS:               ID:20130212014535 L   I
 2013-02-12-0140-00M.COL___240                                                 6
 STAT SP IPHASW D HRMM SECON CODA AMPLIT PERI AZIMU VELO AIN AR TRES W  DIS CAZ7
 BAR2 SZ EP   1    145 51.11                             147    0.17 7 60.0  69 
 BAR2 SZ ES   1    146  4.28                             147    0.90 7 60.0  69 
 BAR2 SZ I         146  5.12        53.1 0.32            145           60.0  69 
 BRR  HZ EP        145 52.14                             139    0.1210 78.9 358 
 BRR  HN ES   1    146  5.85                             139    0.55 7 78.9 358 
 PTB  HZ IP     C  145 51.81                             136   -0.8710 86.6 281 
 PTB  HN ES   1    146  5.49                             136   -0.99 7 86.6 281 
 PTB  HZ I         146  6.83        11.1 0.18            133           86.6 281 
 RUS  HZ IP     C  145 53.12                             136   -0.2410 86.8 130 
 RUS  HN ES   1    146  7.24                             136   -0.44 7 86.8 130 
 PAM  SZ EP   1    145 59.63                             119   -0.02 7  151  46 
 PAM  SN ES   2    146 18.25                             119   -0.64 5  151  46 
 PAM  SN I         146 23.99         4.7 0.50            117            151  46 
 ZAR  HZ EP   1    146  2.09                             115    0.17 7  177 313 
 ZAR  HN ES   1    146 23.18                             115    0.26 7  177 313 
 ZAR  HZ I         146 27.98         7.7 0.32            113            177 313 
 CHI  HZ EP   2    146  4.16                             113   -0.27 4  195 181 
 CHI  HN ES   1    146 28.14                             113    0.76 6  195 181 
 CHI  HN I         146 31.16         2.5 0.30            111            195 181 
 HEL  HZ EP   1    146  6.11                             112    0.61 6  205 264 
 HEL  HN ES   1    146 30.07                             112    0.79 6  205 264 
 HEL  HN I         146 34.91         4.9 0.30            110            205 264 
                                                                                
