 2016 1212 0202 48.4 L   6.738 -73.203147.9  RSN  4 0.5 1.0LRSN                1
 GAP=226        1.18       9.7     9.6  9.9  0.4926E+02  0.1894E+02  0.9776E+01E
 Epicentro: VILLANUEVA - SANTANDER                                             3
 ACTION:UPD 17-01-11 20:14 OP:rebc STATUS:               ID:20161212020248 L   I
 OLDACT:UP  16-12-12 17:34 OP:edw  STATUS:               ID:20161212015742d    3
 OLDACT:DUP 16-12-12 17:31 OP:edw  STATUS:               ID:20161212015742d    3
 OLDACT:UP  16-12-12 17:31 OP:edw  STATUS:               ID:20161212015741     3
 OLDACT:UP  16-12-12 17:30 OP:edw  STATUS:               ID:20161212015741     3
 OLDACT:REG 16-12-12 11:49 OP:edw  STATUS:               ID:20161212015741     3
 2016-12-12-0158-00M.COL___390                                                 6
 STAT SP IPHASW D HRMM SECON CODA AMPLIT PERI AZIMU VELO AIN AR TRES W  DIS CAZ7
 BAR2 EZ ES        2 3 22.78                             173   -0.8210 16.3 172 
 BRR  HZ EP        2 3  9.94                             153    0.2410 69.5 306 
 BRR  HN ES        2 3 26.81                             153    0.5010 69.5 306 
 RUS  HZ EP        2 3 12.02                             146    0.0710 94.4 172 
 RUS  HN ES        2 3 30.78                             146    0.4810 94.4 172 
 RUS  HZ I         2 3 31.99         2.2 0.42            144           94.4 172 
 PTB  HZ EP        2 3 14.40                             134   -0.50 9  140 261 
 PTB  HN ES        2 3 35.52                             134   -0.04 9  140 261 
 PTB  HZ I         2 3 37.85         1.1 0.06            133            140 261 
                                                                                
