 2016 1012 0013  3.6 L   6.680 -73.236154.0  RSN  4 0.4 1.3LRSN                1
 GAP=217        0.80       5.9     6.8  7.6  0.2003E+02  0.9200E-02  0.3729E+01E
 Epicentro: BARICHARA - SANTANDER                                              3
 ACTION:UPD 16-11-09 19:18 OP:rebc STATUS:               ID:20161012001303 L   I
 OLDACT:REG 16-10-12 13:15 OP:ar   STATUS:               ID:20161012000747     3
 2016-10-12-0008-00M.COL___375                                                 6
 STAT SP IPHASW D HRMM SECON CODA AMPLIT PERI AZIMU VELO AIN AR TRES W  DIS CAZ7
 BRR  HZ EP        013 25.45                             154   -0.2110 70.8 312 
 BRR  HE ES        013 43.20                             154    0.3710 70.8 312 
 RUS  HZ EP        013 27.03                             149   -0.3810 88.6 169 
 RUS  HN ES        013 46.04                             149    0.0810 88.6 169 
 RUS  HZ I         013 48.98         2.3 0.32            144           88.6 169 
 PTB  HZ EP        013 30.43                             137    0.17 9  136 264 
 PTB  HN ES        013 50.72                             137   -0.31 9  136 264 
 PTB  HZ I         013 55.98         4.2 0.34            133            136 264 
 CHI  HZ EP   2    013 41.31                             121    1.14 4  233 194 
 CHI  HN ES   2    014  9.18                             121    0.51 4  233 194 
 CHI  HZ I         014 15.10         1.6 0.24            119            233 194 
                                                                                
