 2015  712 0023 16.3 L   6.819 -73.112142.1  RSN 16 0.4 2.5LRSN                1
 GAP=121        1.06       2.5     4.4  5.8 -0.2068E+01  0.1156E+02  0.1271E+01E
 Epicentro: LOS SANTOS - SANTANDER                                             3
 ACTION:UPD 15-09-08 21:48 OP:cam  STATUS:               ID:20150712002316 L   I
 OLDACT:UP  15-07-12 14:42 OP:ar   STATUS:               ID:20150712001750     3
 OLDACT:REG 15-07-12 12:42 OP:ar   STATUS:               ID:20150712001750     3
 2015-07-12-0017-50M.COL___340                                                 6
 STAT SP IPHASW D HRMM SECON CODA AMPLIT PERI AZIMU VELO AIN AR TRES W  DIS CAZ7
 BAR2 EZ EP        023 35.33                             169   -0.2610 26.2 197 
 BAR2 EZ ES        023 50.46                             169   -0.1510 26.2 197 
 BAR2 EZ I         023 51.97        91.8 0.16            168           26.2 197 
 PAM  EZ EP        023 38.15                             151    0.2210 73.4  38 
 PAM  EN ES        023 55.17                             151    0.4010 73.4  38 
 PAM  EZ I         023 57.60        48.7 0.48            155           73.4  38 
 RUS  HZ EP        023 39.73                             142   -0.1410  102 178 
 RUS  HN ES        023 58.08                             142   -0.1410  102 178 
 RUS  HZ I         023 59.20        57.1 0.24            144            102 178 
 OCA  HZ EP        023 43.32                             129   -0.90 9  159 352 
 OCA  HN ES        024  6.19                             129    0.22 9  159 352 
 OCA  HZ I         024  9.08        48.8 0.16            131            159 352 
 ZAR  HZ EP        023 49.31                             121    0.48 8  207 291 
 ZAR  HN ES        024 13.70                             121   -0.48 8  207 291 
 ZAR  HZ I         024 19.52        28.5 0.36            122            207 291 
 NOR  HZ EP        023 52.31                             117   -0.01 8  239 235 
 NOR  HE ES        024 20.18                             117   -0.20 8  239 235 
 NOR  HZ I         024 25.00        23.8 0.16            118            239 235 
 SML  HZ EP        023 52.65                             117   -0.08 8  243 334 
 SML  HN ES        024 21.33                             117    0.21 8  243 334 
 SML  HZ I         024 25.07        44.6 0.10            118            243 334 
 CHI  HZ EP        023 53.42                             116   -0.74 8  252 196 
 CHI  HN ES        024 24.00                             116    0.34 8  252 196 
 CHI  HZ I         024 28.27        12.8 0.30            117            252 196 
 ROSC BZ EP        023 55.02                             115    0.35 8  256 212 
 ROSC BN ES        024 25.31                             115    0.75 8  256 212 
 ROSC BZ I         024 29.76        27.6 0.35            117            256 212 
 URE  HZ EP   9    023 55.81                             113   -1.73 0  287 291 
 URE  HN ES        024 27.39                             114   -0.56 7  287 291 
 URE  HZ I         024 28.05        12.2 0.15            113            287 291 
 GUY2CHZ EP        024  1.14                             111    0.88 7  305 235 
 GUY2CHN ES        024 33.95                             111   -0.57 7  305 235 
 GUY2CHZ I         024 42.83        11.6 0.66                           305 235 
 PTGC HZ EP   9    023 58.33                             111   -1.76 0  309 159 
 PTGC HN ES        024 30.96                             111   -1.50 7  309 159 
 TOL  SZ EP        024  5.02                             108    0.10 6  348 225 
 TOL  SN ES        024 42.79                             108   -0.03 6  348 225 
 TOL  SZ I         024 49.71        12.2 0.40            109            348 225 
 MON  HN ES   4    024 41.31                             108   -2.35 0  355 308 
 ANIL HZ EP        024  6.63                             108    0.15 6  361 225 
 ANIL HN ES        024 46.07                             108    0.48 6  361 225 
 ANIL HZ I         024 49.45        26.0 0.24            108            361 225 
 ORTC HZ EP        024 10.10                             105   -0.49 6  399 216 
 ORTC HN ES        024 52.85                             105   -0.05 6  399 216 
 ORTC HZ I         024 58.86         9.1 0.62            107            399 216 
 SJC  HZ EP   9    024  9.00                             105   -2.82 0  410 326 
 SJC  HN ES        024 52.13                             106   -0.15 6  410 326 
 SJC  HZ I         024 54.85         5.8 0.46            106            410 326 
                                                                                
