 2016  412 0418 31.5 L   6.819 -73.152151.1  RSN  7 0.4 1.7LRSN                1
 GAP=135        0.95       4.8     4.5  9.2 -0.4201E+01  0.1188E+02  0.1128E+01E
 Epicentro: LOS SANTOS - SANTANDER                                             3
 ACTION:UPD 16-05-05 14:20 OP:rebc STATUS:               ID:20160412041831 L   I
 OLDACT:REG 16-04-12 12:34 OP:mh   STATUS:               ID:20160412041748     3
 2016-04-12-0417-48M.COL___316                                                 6
 STAT SP IPHASW D HRMM SECON CODA AMPLIT PERI AZIMU VELO AIN AR TRES W  DIS CAZ7
 BAR2 EZ EP        418 51.83                             170    0.0410 25.3 188 
 BAR2 EZ I         419  8.66        10.1 0.28            167           25.3 188 
 PAM  EZ EP        418 54.58                             152    0.3910 76.2  41 
 PAM  EN ES        419 11.77                             152   -0.1410 76.2  41 
 RUS  HZ EP   1    418 55.85                             144   -0.06 7  103 176 
 RUS  HN ES   1    419 14.70                             144   -0.26 7  103 176 
 RUS  HZ I         419 15.85         5.4 0.40            141            103 176 
 PTB  HZ EP        418 58.28                             133   -0.58 9  147 258 
 PTB  HN ES        419 19.73                             133   -0.49 9  147 258 
 TAM  HN E      D  419 22.19                                            156 106 
 SPBC HZ EP        419  0.76                             130    0.26 9  164 218 
 SPBC HE ES        419 23.63                             130    0.49 9  164 218 
 SPBC HZ I         419 27.47         6.3 0.21            128            164 218 
 ZAR  HZ EP   1    419  3.55                             124   -0.58 6  203 292 
 ZAR  HN ES        419 30.20                             124    0.60 9  203 292 
                                                                                
