 2013 1212 0143 43.8 L   6.474 -73.158170.7  RSN 17 0.5 2.3LRSN                1
 GAP= 96        0.93       2.9     3.6  4.9 -0.1385E+01  0.2359E+01 -0.1797E+01E
 Epicentro: VALLE DE SAN JOSE - SANTANDER                                      3
 ACTION:UPD 14-01-13 10:17 OP:ep   STATUS:               ID:20131212014343 L   I
 OLDACT:DUP 13-12-12 08:39 OP:jn   STATUS:               ID:20131212014001d    3
 OLDACT:REG 13-12-12 06:47 OP:jn   STATUS:               ID:20131212014000     3
 2013-12-12-0140-00M.COL___285                                                 6
 STAT SP IPHASW D HRMM SECON CODA AMPLIT PERI AZIMU VELO AIN AR TRES W  DIS CAZ7
 BAR2 SZ EP        144  6.26                             175    0.0010 13.3 348 
 BAR2 SZ ES        144 23.71                             175   -0.1010 13.3 348 
 BAR2 SZ I         144 24.84        40.8 0.22            175           13.3 348 
 RUS  HZ EP        144  8.12                             158    0.0410 64.9 173 
 RUS  HE ES        144 27.23                             158    0.1810 64.9 173 
 RUS  HZ I         144 28.68        52.1 0.32            157           64.9 173 
 BRR  HZ EP        144  9.60                             150    0.7510 93.0 319 
 BRR  HN ES   4    144 30.58                             150    2.16 0 93.0 319 
 BRR  HZ I         144 32.11        26.9 0.42            151           93.0 319 
 SPBC HZ EP        144 12.37                             140    0.35 9  136 228 
 SPBC HN ES        144 34.16                             140    0.10 9  136 228 
 SPBC HZ I         144 39.86        26.4 0.18            140            136 228 
 PTB  HZ EP        144 12.18                             138   -0.35 9  144 273 
 PTB  HN ES        144 34.70                             138   -0.28 9  144 273 
 PTB  HZ I         144 36.44        24.8 0.10            139            144 273 
 TAM  HZ EP        144 12.89                             136   -0.30 9  151  92 
 TAM  HZ I         144 34.49        17.9 0.22            134            151  92 
 OCA  HN ES   1    144 43.88                             129    0.31 6  196 355 
 OCA  HZ I         144 50.43        23.1 0.50            128            196 355 
 CHI  HZ EP        144 19.43                             126    0.01 8  214 197 
 CHI  HN ES        144 47.09                             126   -0.15 8  214 197 
 CHI  HZ I         144 49.77         8.3 0.32            126            214 197 
 NOR  HZ EP        144 19.22                             126    0.19 8  215 242 
 NOR  HN ES   1    144 45.84                             126   -0.70 6  215 242 
 NOR  HZ I         144 51.75        22.4 0.46            126            215 242 
 ZAR  HN ES   1    144 47.52                             125    0.30 6  219 301 
 ZAR  HZ I         144 49.43        27.3 0.10            125            219 301 
 HEL  HZ EP        144 25.24                             120    0.72 8  264 263 
 HEL  HE ES   1    144 55.94                             120   -0.38 6  264 263 
 HEL  HZ I         145  5.20         8.8 0.26            120            264 263 
 SML  HZ EP        144 24.55                             119   -0.77 7  276 339 
 SML  HE ES   1    144 57.00                             119   -0.75 6  276 339 
 RREF HZ EP   2    144 29.23                             117    0.70 4  298 234 
 RREF HN ES   4    145  6.25                             117    2.79 0  298 234 
 RREF HZ I         145 10.30        10.2 0.30            117            298 234 
 CBOC HZ EP        144 31.45                             115    0.82 7  323 258 
 CBOC HN ES        145  7.24                             115    0.04 7  323 258 
 CBOC HZ I         145 11.43         5.9 0.82            115            323 258 
 PRA  HZ EP        144 34.27                             112   -0.38 6  360 212 
 PRA  HN ES   1    145 13.07                             112   -1.27 5  360 212 
 PRA  HZ I         145 16.65        10.9 0.62            112            360 212 
 COD  HZ EP        144 36.72                             111   -0.55 6  384 355 
 COD  HN ES   1    145 19.17                             111    0.17 4  384 355 
 SJC  HZ EP   4    144 41.55                             108   -2.14 0  439 330 
 SJC  HN ES   4    145 27.01                             108   -3.43 0  439 330 
 SJC  HZ I         145 29.73         3.2 0.46            107            439 330 
                                                                                
