 2016 1012 0237  8.8 L   6.799 -73.170148.7  RSN 15 0.4 2.1LRSN                1
 GAP= 64        1.03       2.9     3.1  5.0 -0.1157E+01  0.2081E+01  0.2429E+01E
 Epicentro: LOS SANTOS - SANTANDER                                             3
 ACTION:UPD 16-11-09 19:18 OP:rebc STATUS:               ID:20161012023708 L   I
 OLDACT:UP  16-10-12 16:55 OP:ar   STATUS:               ID:20161012022745     3
 OLDACT:REG 16-10-12 14:04 OP:ar   STATUS:               ID:20161012022745     3
 2016-10-12-0228-00M.COL___375                                                 6
 STAT SP IPHASW D HRMM SECON CODA AMPLIT PERI AZIMU VELO AIN AR TRES W  DIS CAZ7
 BAR2 EZ EP        237 28.79                             171   -0.0210 22.9 183 
 BAR2 EZ ES        237 43.93                             171   -0.4610 22.9 183 
 BAR2 EZ I         237 44.92        48.1 0.24            171           22.9 183 
 BRR  HZ IP     C  237 30.48                             154    0.3110 68.9 300 
 BRR  HN ES        237 47.30                             154    0.4810 68.9 300 
 BRR  HZ I         237 50.69        23.1 0.28            152           68.9 300 
 PAM  EZ EP        237 31.83                             151    0.3610 79.2  41 
 PAM  EN ES        237 49.12                             151   -0.0110 79.2  41 
 PAM  EZ I         237 50.81        20.4 0.46            153           79.2  41 
 RUS  HZ EP        237 32.68                             144   -0.2110  101 175 
 RUS  HN ES        237 51.69                             144    0.0410  101 175 
 RUS  HZ I         237 52.30        16.2 0.30            146            101 175 
 PTB  HZ EP        237 35.42                             133   -0.38 9  145 259 
 PTB  HN ES        237 56.39                             133   -0.45 9  145 259 
 PTB  HZ I         237 58.39        13.5 0.18            133            145 259 
 TAM  HZ EP        237 37.09                             131    0.10 9  158 105 
 OCA  HZ EP        237 36.94                             130   -0.42 9  160 354 
 OCA  HN ES        237 59.38                             130   -0.22 9  160 354 
 OCA  HZ I         238  3.99        17.9 0.44            131            160 354 
 SPBC HZ EP        237 37.54                             130    0.14 9  161 218 
 SPBC HN ES        238  0.56                             130    0.89 9  161 218 
 SPBC HZ I         238  4.04        22.0 0.22            130            161 218 
 ZAR  HZ EP        237 41.74                             123    0.52 9  202 292 
 ZAR  HN ES        238  6.50                             123    0.02 9  202 292 
 ZAR  HZ I         238 13.80        12.6 0.48            123            202 292 
 NOR  HZ EP        237 44.70                             119    0.20 8  232 234 
 NOR  HN ES        238 11.82                             119   -0.49 8  232 234 
 NOR  HZ I         238 17.65         7.8 0.22            120            232 234 
 CHI  HZ EP        237 46.65                             118    0.04 8  248 195 
 CHI  HN ES        238 16.34                             118    0.26 8  248 195 
 CHI  HZ I         238 21.30         5.6 0.42            119            248 195 
 HEL  HZ EP   4    237 50.90                             116    1.99 0  269 256 
 HEL  HE ES        238 19.53                             116   -0.63 8  269 256 
 HEL  HZ I         238 27.31         3.7 0.30            116            269 256 
 GUY2CHZ EP   4    237 54.00                             113    1.67 0  299 234 
 GUY2CHN ES   4    238 28.94                             113    2.69 0  299 234 
 GUY2CHZ I         238 37.23         4.5 0.34                           299 234 
 PTGC HZ EP        237 51.94                             112   -0.99 7  310 158 
 PTGC HE ES   4    238 24.57                             112   -2.75 0  310 158 
 PTGC HZ I         238 25.32         7.9 0.36            114            310 158 
 CBOC HZ EP        237 56.52                             111    0.94 7  331 252 
 CBOC HN ES        238 31.71                             111   -0.32 7  331 252 
 CBOC HZ I         238 33.70         1.6 0.20            111            331 252 
                                                                                
