 2013 1012 0701 41.8 L   6.799 -73.139145.7  RSN  6 0.4 1.4LRSN                1
 GAP=137        0.86       5.0     5.0  8.3 -0.6072E+00  0.5107E+01  0.9392E+01E
 Epicentro: LOS SANTOS - SANTANDER                                             3
 ACTION:UPD 13-11-25 09:21 OP:ep   STATUS:               ID:20131012070141 L   I
 OLDACT:UP  13-10-12 12:47 OP:mh   STATUS:               ID:20131012065959     3
 OLDACT:UP  13-10-12 12:45 OP:mh   STATUS:               ID:20131012065959     3
 OLDACT:REG 13-10-12 08:32 OP:mh   STATUS:               ID:20131012065959     3
 2013-10-12-0659-59M.COL___273                                                 6
 STAT SP IPHASW D HRMM SECON CODA AMPLIT PERI AZIMU VELO AIN AR TRES W  DIS CAZ7
 BRR  HZ EP   1    7 2  3.35                             152    0.32 7 71.9 298 
 BRR  HN ES        7 2 19.94                             152    0.3810 71.9 298 
 BRR  HZ I         7 2 24.42         4.4 0.13            152           71.9 298 
 PAM  SZ EP   1    7 2  4.15                             151    0.11 7 77.1  39 
 PAM  SE ES   1    7 2 21.07                             151   -0.28 7 77.1  39 
 PAM  SZ I         7 2 23.30         2.9 0.18            158           77.1  39 
 RUS  HZ EP   1    7 2  5.71                             144    0.13 7  100 176 
 RUS  HN ES   1    7 2 23.66                             144   -0.43 7  100 176 
 RUS  HZ I         7 2 26.59         1.6 0.13            147            100 176 
 PTB  HZ EP        7 2  8.44                             132   -0.43 9  148 259 
 PTB  HN ES   1    7 2 29.15                             132   -0.80 7  148 259 
 PTB  HZ I         7 2 34.42         3.7 0.12            133            148 259 
 SPBC HZ EP   1    7 2 10.76                             129    0.38 7  164 219 
 SPBC HN ES   1    7 2 33.27                             129    0.64 7  164 219 
 SPBC HZ I         7 2 38.88         3.6 0.24            131            164 219 
 ZAR  HE ES   1    7 2 39.72                             122   -0.01 6  205 292 
 ZAR  HZ I         7 2 45.38         3.8 0.66            125            205 292 
                                                                                
