 2013  812 0251 18.1 L   6.916 -72.938135.2  RSN  4 0.4 1.8LRSN                1
 GAP=219        1.00      10.2    21.9 12.9  0.1969E+03 -0.2078E+03 -0.1031E+03E
 Epicentro: GUACA - SANTANDER                                                  3
 ACTION:UPD 14-01-14 09:01 OP:ep   STATUS:               ID:20130812025118 L   I
 OLDACT:REG 13-08-12 08:33 OP:stll STATUS:               ID:20130812024839     3
 2013-08-12-0248-39M.COL___230                                                 6
 STAT SP IPHASW D HRMM SECON CODA AMPLIT PERI AZIMU VELO AIN AR TRES W  DIS CAZ7
 BAR2 SZ EP        251 37.50                             161    0.3810 44.8 217 
 BAR2 SZ ES        251 52.13                             161    0.1710 44.8 217 
 BAR2 SZ I         251 54.81         6.8 0.46            170           44.8 217 
 BRR  HZ EP        251 39.59                             145    0.3910 88.0 284 
 BRR  HN ES        251 55.79                             145    0.1210 88.0 284 
 BRR  HN I         251 56.50        30.0 0.18            152           88.0 284 
 RUS  HZ EP        251 42.04                             138    0.1510  114 188 
 RUS  HN ES        251 59.73                             138   -0.7410  114 188 
 RUS  HN I         252  1.65         8.0 0.42            144            114 188 
 SML  HZ EP        251 53.85                             115   -0.21 8  243 329 
 SML  HN ES        252 21.56                             115   -0.57 8  243 329 
 SML  HN I         252 25.75         7.6 0.10            118            243 329 
                                                                                
