 2012 1112 0317 57.8 L   6.682 -73.219155.0  RSN  4 0.3 1.2LRSN                1
 GAP=207        0.56       6.1     5.9  7.4  0.1821E+02 -0.4966E+01 -0.3705E+01E
 Epicentro: BARICHARA - SANTANDER                                              3
 ACTION:UPD 12-12-05 15:32 OP:}ep  STATUS:               ID:20121112031757 L   I
 2012-11-12-0315-46M.COL___215                                                 6
 STAT SP IPHASW D HRMM SECON CODA AMPLIT PERI AZIMU VELO AIN AR TRES W  DIS CAZ7
 BAR2 SZ EP   1    318 18.01                             176   -0.40 7 10.7 158 
 BRR  HZ EP   1    318 19.88                             154   -0.16 7 71.9 311 
 BRR  HN ES   1    318 37.62                             154    0.27 7 71.9 311 
 BRR  HZ I         318 42.06         1.7 0.15                          71.9 311 
 RUS  HZ EP   1    318 22.00                             149    0.28 7 88.6 170 
 RUS  HN ES   1    318 40.34                             149   -0.01 7 88.6 170 
 RUS  HZ I         318 41.32         1.7 0.28                          88.6 170 
 PTB  HZ EP   1    318 24.99                             136    0.28 7  138 264 
 PTB  HN ES   1    318 45.43                             136   -0.24 7  138 264 
 PTB  HZ I         318 46.67         4.1 0.50                           138 264 
                                                                                
