 2017 1212 0343 39.4 L   6.810 -73.146145.6  RSN 18 0.4 1.9LRSN                1
 GAP= 65        0.98       2.4     2.8  5.0 -0.4046E+00  0.2968E+01 -0.9960E+00E
 Epicentro: LOS SANTOS - SANTANDER                                             3
 ACTION:UPD 18-01-04 13:19 OP:rebc STATUS:               ID:20171212034339 L   I
 OLDACT:UP  17-12-12 15:43 OP:edw  STATUS:               ID:20171212033740     3
 OLDACT:REG 17-12-12 13:21 OP:edw  STATUS:               ID:20171212033740     3
 2017-12-12-0338-00M.COL___470                                                 6
 STAT SP IPHASW D HRMM SECON CODA AMPLIT PERI AZIMU VELO AIN AR TRES W  DIS CAZ7
 BAR2 EZ EP        343 58.95                             170   -0.1110 24.5 189 
 BAR2 EZ ES        344 14.30                             170   -0.0810 24.5 189 
 BAR2 EZ I         344 16.90        28.7 0.28            168           24.5 189 
 PAM  EZ EP        344  2.05                             151    0.4710 76.5  40 
 PAM  EN ES        344 19.09                             151    0.2410 76.5  40 
 PAM  EZ I         344 22.35         7.3 0.40            156           76.5  40 
 PTB  HZ EP        344  7.20                             132    0.80 9  148 258 
 PTB  HN ES        344 26.93                             132   -0.51 9  148 258 
 PTB  HZ I         344 33.25         5.8 0.48            132            148 258 
 TAM  HZ EP     C  344  7.49                             130    0.36 9  155 105 
 TAM  HN ES        344 28.68                             130   -0.05 9  155 105 
 OCA  HZ EP        344  7.46                             130   -0.16 9  159 353 
 OCA  HN ES        344 29.81                             130    0.21 9  159 353 
 OCA  HZ I         344 33.41        28.1 0.16            132            159 353 
 SPBC HZ EP        344  8.05                             129    0.05 9  164 219 
 SPBC HN ES        344 29.86                             129   -0.42 9  164 219 
 SPBC HZ I         344 32.96        11.5 0.12            129            164 219 
 YPLC HZ EP     D  344  9.51                             126    0.20 9  178 151 
 YPLC HN ES        344 32.29                             126   -0.33 9  178 151 
 YPLC HZ I         344 34.40         6.8 0.28            129            178 151 
 ZAR  HZ EP        344 11.80                             122   -0.01 9  204 292 
 ZAR  HN ES        344 37.14                             122    0.07 9  204 292 
 ZAR  HZ I         344 42.89         8.8 0.38            123            204 292 
 ROSC BZ EP   4    344 19.44                             116    1.79 0  254 211 
 ROSC BN ES   4    344 50.24                             116    2.79 0  254 211 
 ROSC BZ I         344 53.87        13.6 0.40            118            254 211 
 URE  HZ EP   4    344 22.41                             114    1.97 0  283 292 
 URE  HN ES   4    344 50.08                             114   -2.34 0  283 292 
 DRL03HZ EP        344 19.84                             113   -1.06 7  288 353 
 DRL03HN ES   4    344 54.88                             113    1.63 0  288 353 
 GUY2CHZ EP   4    344 24.48                             112    1.38 0  302 235 
 GUY2CHN ES   4    344 56.63                             112   -0.53 0  302 235 
 GUY2CHZ I         345  5.46         3.9 0.58                           302 235 
 PTGC HZ EP   9    344 22.09                             111   -1.31 0  310 159 
 PTGC HN ES        344 56.25                             111   -0.14 7  310 159 
 DRL02HZ EP        344 24.03                             110   -0.96 7  324 358 
 DRL02HN ES        345  0.26                             110   -0.27 7  324 358 
 LL6C HZ EP        344 25.01                             110    0.02 7  324 358 
 LL6C HN ES        345  0.94                             110    0.41 7  324 358 
 ELA  HE ES   4    345  6.83                             110    3.87 0  330 229 
 CBOC HZ EP        344 26.81                             110    0.44 7  334 252 
 CBOC HN ES        345  3.51                             110    0.52 7  334 252 
 CBOC HZ I         345 11.93         1.1 0.48            111            334 252 
 PRA  HZ EP        344 32.85                             106   -0.21 6  393 209 
 PRA  HN ES        345 14.98                             106    0.09 6  393 209 
 PRA  HZ I         345 21.32         5.7 0.36            108            393 209 
 ORTC HZ EP        344 32.95                             106   -0.50 6  396 216 
 ORTC HN ES   4    345 17.43                             106    1.85 0  396 216 
 ORTC HZ I         345 22.66         2.0 0.54            107            396 216 
 SJC  HZ EP   9    344 33.22                             106   -1.65 0  408 327 
 SJC  HN ES        345 15.11                             106   -1.35 6  408 327 
 SJC  HZ I         345 21.89         1.9 0.66            107            408 327 
                                                                                
