 2013 1012 0616 34.5 L   6.779 -73.223126.0  RSN  5 0.6 1.0LRSN                1
 GAP=175        1.14       6.7     9.0 19.9 -0.1719E+02  0.2687E+02 -0.6659E+02E
 Epicentro: ZAPATOCA - SANTANDER                                               3
 ACTION:UPD 13-11-25 09:21 OP:ep   STATUS:               ID:20131012061634 L   I
 OLDACT:REG 13-10-12 08:29 OP:mh   STATUS:               ID:20131012060959     3
 2013-10-12-0609-59M.COL___273                                                 6
 STAT SP IPHASW D HRMM SECON CODA AMPLIT PERI AZIMU VELO AIN AR TRES W  DIS CAZ7
 BRR  HZ EP   1    616 53.54                             151    0.36 8 65.0 304 
 RUS  HN ES   1    617 13.02                             140   -0.22 8 99.3 171 
 RUS  HZ I         617 15.39         1.1 0.28            145           99.3 171 
 PTB  HZ EP        616 58.27                             129   -0.8210  139 259 
 PTB  HN ES        617 18.43                             129    0.1710  139 259 
 SPBC HN ES   1    617 22.01                             126    0.60 7  156 217 
 OCA  HZ EP   1    617  2.39                             125    0.87 7  162 356 
 OCA  HN ES   1    617 22.18                             125   -0.40 7  162 356 
 OCA  HZ I         617 25.72         2.0 0.32            128            162 356 
                                                                                
