 2010  112 0001 41.1 L   6.757 -73.055141.4  RSN  7 0.3 2.3LRSN                1
 GAP=205        0.82       5.8    10.2  6.8 -0.2113E+02  0.3162E+02  0.3075E+01E
 Epicentro: LOS SANTOS - SANTANDER                                             3
 ACTION:UP  10-08-24 09:43 OP:vdl  STATUS:               ID:20100112000141 L   I
 2010-01-12-0000-00S.COL___096                                                 6
 STAT SP IPHASW D HRMM SECON CODA AMPLIT PERI AZIMU VELO SNR AR TRES W  DIS CAZ7
 BAR2 SZ IP        0 1 59.84                             170    -0.410   23 218 
 BAR2 SZ ES        0 2 14.99                             170    -0.110   23 218 
 GIR2 SZ IP        0 2  0.79                             164     0.310   39 337 
 RUS  BZ IP        0 2  3.97                             144    -0.110   96 182 
 RUS  BN ES   1    0 2 22.54                             144     0.5 7   96 182 
 RUS  BZ I         0 2 24.40        29.1 0.18                            96 182 
 CHI  HZ EP   1    0 2 18.52                             116     0.1 6  247 198 
 CHI  HE ES   1    0 2 47.42                             116    -0.1 6  247 198 
 CHI  HZ I         0 2 56.53         6.5 0.38                           247 198 
 HEL  HZ EP   2    0 2 22.32                             113     0.2 4  281 257 
 HEL  HZ I         0 2 58.25        13.5 0.36                           281 257 
 RREF BZ IP        0 2 28.32                             110     0.7 7  326 231 
 RREF BN ES   1    0 3  3.59                             110    -0.3 5  326 231 
 RREF BZ I         0 3 12.34        14.8 0.33                           326 231 
 PRA  HZ IP        0 2 34.14                             106    -0.5 6  393 211 
 PRA  HN ES   1    0 3 16.17                             106    -0.2 4  393 211 
 PRA  HZ I         0 3 22.45         9.0 0.10                           393 211 
                                                                                
