 2012  312 0720 34.6 L   5.726 -73.882115.5  RSN  7 0.4 1.5LRSN                1
 GAP=182        0.98       5.8     4.2 10.9 -0.5212E+01  0.1373E+02 -0.2709E+01E
 ACTION:UP  12-03-31 23:19 OP:EP   STATUS:               ID:20120312072034 L   I
 2012-03-12-0720-00M.COL___193                                                 6
 STAT SP IPHASW D HRMM SECON CODA AMPLIT PERI AZIMU VELO SNR AR TRES W  DIS CAZ7
 RUS  HZ EP   1    720 55.09                             140     0.4 8   90  78 
 RUS  HN ES   1    721  9.81                             140    -0.5 8   90  78 
 RUS  HZ I         721 11.52         1.7 0.18                            90  78 
 PTB  HZ EP   1    720 54.80                             133    -0.9 8  110 325 
 PTB  HN ES   1    721 12.05                             133    -0.1 8  110 325 
 PTB  HZ I         721 14.38         4.9 0.15                           110 325 
 NOR  SZ EP        720 55.58                             133    -0.210  111 261 
 NOR  SE ES   1    721 12.52                             133     0.2 7  111 261 
 BAR2 SZ ES   1    721 15.08                             130     0.3 7  123  39 
 BRR  HZ EP   1    721  0.18                             123     0.3 7  154   7 
 BRR  HZ I         721  1.59        12.7 0.09                           154   7 
 BRR  HN ES   1    721 19.95                             123     0.4 7  154   7 
 HEL  HZ EP   1    721  4.75                             117     0.7 7  189 286 
 HEL  HE ES   1    721 27.39                             117     0.3 7  189 286 
 HEL  HZ I         721 28.73         2.8 0.27                           189 286 
 ZAR  HZ EP   1    721  6.92                             112    -0.5 6  223 331 
 ZAR  HN ES   1    721 32.63                             112    -0.3 6  223 331 
 ZAR  HZ I         721 35.27         4.9 0.27                           223 331 
                                                                                
