 2017  412 0112 56.9 L   6.978 -73.428132.8  RSN  4 0.4 1.1LRSN                1
 GAP=213        0.92       8.8     6.3  9.4  0.2164E+02 -0.2195E+01  0.2800E+02E
 Epicentro: SAN VICENTE DE CHUCURI - SANTANDER                                 3
 ACTION:UPD 17-05-30 21:11 OP:jn   STATUS:               ID:20170412011256 L   I
 OLDACT:UP  17-04-12 15:25 OP:edw  STATUS:               ID:20170412010748d    3
 OLDACT:DUP 17-04-12 15:22 OP:edw  STATUS:               ID:20170412010748d    3
 OLDACT:REG 17-04-12 12:51 OP:edw  STATUS:               ID:20170412010747     3
 2017-04-12-0108-00M.COL___368                                                 6
 STAT SP IPHASW D HRMM SECON CODA AMPLIT PERI AZIMU VELO AIN AR TRES W  DIS CAZ7
 BRR  HN ES        113 28.55                             165   -0.4010 34.4 295 
 BAR2 EZ EP        113 15.89                             158    0.0110 50.6 147 
 BAR2 EZ ES        113 31.27                             158    0.5710 50.6 147 
 BAR2 EZ I         113 34.91         2.9 0.46            158           50.6 147 
 PTB  HN ES        113 39.31                             134    0.2010  124 247 
 RUS  HZ EP        113 21.55                             134    0.0910  126 162 
 RUS  HN ES        113 40.16                             134   -0.4810  126 162 
 RUS  HZ I         113 41.26         1.8 0.26            137            126 162 
                                                                                
