 2010  812 0853 45.5 L   6.776 -73.127143.1  RSN  8 0.4 1.3LRSN                1
 GAP=161        0.87       6.4    10.8  9.6  0.6433E+00 -0.3582E+02 -0.1847E+02E
 Epicentro: LOS SANTOS - SANTANDER                                             3
 ACTION:UP  10-09-07 10:54 OP:vdl  STATUS:               ID:20100812085345 L   I
 2010-08-12-0852-37S.COL___127                                                 6
 STAT SP IPHASW D HRMM SECON CODA AMPLIT PERI AZIMU VELO SNR AR TRES W  DIS CAZ7
 BAR2 SZ IP        854  4.64                             171    -0.110   21 197 
 BAR2 SZ ES   1    854 19.47                             171    -0.3 7   21 197 
 BAR2 SZ I         854 20.53        10.7 0.38                            21 197 
 BTL  SZ IP        854  4.67                             171    -0.110   22 315 
 GIR2 SZ EP   2    854  4.66                             166    -0.3 5   34 348 
 BRR  HZ IP     C  854  6.28                             151    -0.310   74 300 
 BRR  HN ES   1    854 23.26                             151     0.3 7   74 300 
 RUS  HZ EP   2    854  8.93                             144     0.1 5   98 177 
 RUS  HE ES   2    854 27.56                             144     0.6 5   98 177 
 RUS  HZ I         854 28.79         2.4 0.47                            98 177 
 GUE  SZ EP   1    854  9.61                             138    -0.5 7  119  11 
 GRA  SZ EP        854 11.35                             136     0.710  128  16 
 GRA  SZ ES   2    854 30.23                             136    -0.1 5  128  16 
 GRA  SZ I         854 38.29         2.6 0.24                           128  16 
 CHI  HZ EP   3    854 23.18                             117     0.3 2  247 196 
 CHI  HZ I         854 56.40         1.3 0.39                           247 196 
                                                                                
