 2012 1112 0212 53.2 L   6.777 -73.159147.7  RSN  5 0.4 1.3LRSN                1
 GAP=136        0.80       8.2     5.7 11.1 -0.1368E+02  0.8880E+01  0.1221E+02E
 Epicentro: LOS SANTOS - SANTANDER                                             3
 ACTION:UPD 12-12-05 15:32 OP:}ep  STATUS:               ID:20121112021253 L   I
 2012-11-12-0210-00M.COL___230                                                 6
 STAT SP IPHASW D HRMM SECON CODA AMPLIT PERI AZIMU VELO AIN AR TRES W  DIS CAZ7
 BRR  HN ES   1    213 31.65                             153    0.47 7 71.2 301 
 BRR  HZ I         213 37.87         4.5 0.64                          71.2 301 
 PAM  SZ EP   1    213 15.39                             150   -0.38 7 80.3  39 
 PAM  SN ES   1    213 33.32                             150   -0.06 7 80.3  39 
 PAM  SZ I         213 34.94         3.0 0.44                          80.3  39 
 RUS  HE ES   2    213 35.45                             145   -0.03 5 98.2 175 
 RUS  HZ I         213 35.70         2.3 0.68                          98.2 175 
 PTB  HZ EP   1    213 20.81                             133    0.68 7  146 260 
 PTB  HN ES   1    213 40.57                             133   -0.58 7  146 260 
 PTB  HZ I         213 41.05         3.3 0.58                           146 260 
 ZAR  HN ES   2    213 50.74                             123   -0.34 4  204 293 
                                                                                
