 2017  912 0646 46.1 L   6.767 -73.110148.7  RSN  5 0.3 1.3LRSN                1
 GAP=239        0.70       4.1     5.6  5.2  0.1167E+02  0.6706E+01  0.5692E+00E
 Epicentro: LOS SANTOS - SANTANDER                                             3
 ACTION:UPD 17-10-05 19:11 OP:rebc STATUS:               ID:20170912064646 L   I
 OLDACT:UP  17-09-12 15:06 OP:and  STATUS:               ID:20170912063741     3
 OLDACT:UP  17-09-12 15:06 OP:and  STATUS:               ID:20170912063741     3
 OLDACT:REG 17-09-12 12:58 OP:mg   STATUS:               ID:20170912063741     3
 2017-09-12-0638-00M.COL___439                                                 6
 STAT SP IPHASW D HRMM SECON CODA AMPLIT PERI AZIMU VELO AIN AR TRES W  DIS CAZ7
 BAR2 EZ EP   2    647  6.94                             172    0.93 5 20.9 202 
 BAR2 EZ ES        647 21.37                             172   -0.1810 20.9 202 
 BAR2 EZ I         647 22.63         4.7 0.22            163           20.9 202 
 BRR  HZ IP     D  647  7.84                             151    0.0110 76.4 300 
 BRR  HN ES        647 25.13                             151    0.3210 76.4 300 
 RUS  HZ EP        647  9.93                             145    0.0910 96.7 178 
 RUS  HN ES        647 28.03                             145   -0.3510 96.7 178 
 RUS  HZ I         647 29.05         1.5 0.28            143           96.7 178 
 SPBC HZ EP        647 14.82                             130    0.05 9  163 221 
 SPBC HN ES        647 37.41                             130    0.26 9  163 221 
 SPBC HZ I         647 43.69         3.0 0.08            126            163 221 
 ZAR  HZ EP        647 19.00                             122   -0.23 8  209 293 
 ZAR  HN ES        647 44.78                             122   -0.31 8  209 293 
 ZAR  HZ I         647 49.85         1.7 0.32            121            209 293 
                                                                                
