 2015  612 0757 45.5 L   6.765 -73.095152.0  RSN  9 0.5 1.7LRSN                1
 GAP=215        1.16       4.4     7.2  7.3 -0.4321E+01  0.1357E+02 -0.6215E+01E
 Epicentro: LOS SANTOS - SANTANDER                                             3
 ACTION:UPD 15-09-10 22:11 OP:cam  STATUS:               ID:20150612075745 L   I
 OLDACT:REG 15-06-12 13:56 OP:ak\  STATUS:               ID:20150612074747     3
 2015-06-12-0747-47M.COL___294                                                 6
 STAT SP IPHASW D HRMM SECON CODA AMPLIT PERI AZIMU VELO AIN AR TRES W  DIS CAZ7
 BAR2 EZ EP        758  6.22                             172    0.3510 21.4 207 
 BAR2 EZ ES        758 21.13                             172   -0.6110 21.4 207 
 BAR2 EZ I         758 22.36         6.2 0.34            172           21.4 207 
 BRR  HZ EP        758  8.61                             151    0.8710 78.0 299 
 BRR  HN ES        758 24.88                             151   -0.1810 78.0 299 
 BRR  HZ I         758 29.64         6.2 0.12            150           78.0 299 
 SPBC HZ EP   1    758 14.79                             130    0.22 7  164 221 
 SPBC HE ES   1    758 37.39                             130    0.17 7  164 221 
 OCA  HZ EP        758 14.94                             130    0.18 9  165 351 
 OCA  HN ES        758 36.99                             130   -0.57 9  165 351 
 OCA  HZ I         758 42.16        10.6 0.22            131            165 351 
 ZAR  HZ EP        758 19.14                             123    0.07 8  211 293 
 ZAR  HE ES        758 45.90                             123    0.68 8  211 293 
 ZAR  HZ I         758 51.67         3.7 0.28            124            211 293 
 SML  HZ EP        758 23.02                             118   -0.13 8  250 335 
 SML  HN ES        758 53.15                             118    0.66 8  250 335 
 SML  HZ I         758 57.46         5.2 0.10            119            250 335 
 GUY2CHZ EP   1    758 29.15                             113   -0.55 5  304 236 
 GUY2CHE ES        759  3.75                             113   -0.40 7  304 236 
 GUY2CHZ I         759 10.35         1.0 0.54                           304 236 
 MON  HZ EP        758 34.63                             109   -0.93 6  360 308 
 MON  HE ES        759 13.67                             109   -0.92 6  360 308 
 MON  HZ I         759 13.89         1.6 0.18            111            360 308 
 SJC  HZ EP   1    758 41.64                             106   -0.40 4  416 327 
 SJC  HN ES   4    759 20.55                             106   -5.57 0  416 327 
 SJC  HZ I         759 26.44         2.0 0.54            108            416 327 
                                                                                
