 2010  812 0948  5.2 L   6.743 -73.109152.7  RSN  6 0.4 1.4LRSN                1
 GAP=163        1.09       8.6    14.3 15.5 -0.3100E+02 -0.8165E+02 -0.4339E+01E
 Epicentro: JORDAN - SANTANDER                                                 3
 ACTION:UP  10-09-07 10:54 OP:vdl  STATUS:               ID:20100812094805 L   I
 2010-08-12-0946-11S.COL___127                                                 6
 STAT SP IPHASW D HRMM SECON CODA AMPLIT PERI AZIMU VELO SNR AR TRES W  DIS CAZ7
 BAR2 SZ EP        948 25.43                             173    -0.210   19 206 
 BTL  SZ IP        948 25.64                             170    -0.110   26 318 
 BRR  HZ IP     C  948 27.38                             151    -0.110   78 301 
 BRR  HZ I         948 27.76        13.7 0.08                            78 301 
 BRR  HN ES   1    948 45.07                             151     0.2 7   78 301 
 RUS  HN ES   2    948 48.23                             147     0.3 5   94 178 
 RUS  HZ I         948 49.51         3.1 0.40                            94 178 
 GUE  SZ EP   1    948 30.49                             139    -0.5 7  122  10 
 GUE  SZ I         948 31.14         1.5 0.16                           122  10 
 GRA  SZ IP        948 32.32                             137     0.810  131  15 
 GRA  SZ ES   1    948 51.68                             137    -0.3 7  131  15 
 GRA  SZ I         948 52.99         4.1 0.24                           131  15 
                                                                                
