 2012  612 0038 14.5 L   6.787 -73.197150.0  RSN  4 0.1 1.6LRSN                1
 GAP=240        0.33       5.2     3.5  4.3  0.1184E+02  0.1633E+01 -0.1681E+01E
 Epicentro: ZAPATOCA - SANTANDER                                               3
 ACTION:UPD 12-08-06 17:48 OP:ep   STATUS:               ID:20120612003816 L   I
 2012-06-12-0030-00M.COL___201                                                 6
 STAT SP IPHASW D HRMM SECON CODA AMPLIT PERI AZIMU VELO AIN AR TRES W  DIS CAZ7
 BAR2 SZ EP   1    038 34.50                             171   -0.10 7 21.6 176 
 BAR2 SZ ES   1    038 50.41                             171    0.12 7 21.6 176 
 BAR2 SZ I         038 51.07         6.5 0.10            177           21.6 176 
 RUS  HZ EP   1    038 38.58                             145   -0.02 7 99.7 173 
 RUS  HZ I         038 39.83         3.5 0.18            150           99.7 173 
 RUS  HN ES   2    038 57.26                             145   -0.15 5 99.7 173 
 PTB  HZ EP   1    038 41.48                             134    0.18 7  142 259 
 PTB  HN ES   1    039  2.19                             134   -0.02 7  142 259 
 PTB  HZ I         039  4.79         4.6 0.17            132            142 259 
 ZAR  HE ES   1    039 11.80                             124   -0.10 6  199 293 
 ZAR  HZ I         039 19.03         7.1 0.40            121            199 293 
                                                                                
