 2010  512 0009 39.6 L   6.777 -72.984146.2  RSN 10 0.4 2.0LRSN                1
 GAP=138        0.96       4.0     7.1  6.7 -0.1215E+02 -0.6914E+01  0.1968E+01E
 Epicentro: CEPITA - SANTANDER                                                 3
 ACTION:UP  10-08-24 10:04 OP:vdl  STATUS:               ID:20100512000939 L   I
 2010-05-12-0007-45S.COL___104                                                 6
 STAT SP IPHASW D HRMM SECON CODA AMPLIT PERI AZIMU VELO AIN AR TRES W  DIS CAZ7
 BAR2 SZ EP        0 9 59.21                             168    -0.210   30 227 
 BAR2 SZ ES   1    010 14.56                             168    -0.3 7   30 227 
 BRR  HZ EP        010  1.95                             147     0.110   88 294 
 BRR  HN ES   1    010 19.40                             147     0.2 7   88 294 
 RUS  HZ EP        010  3.02                             144    -0.210   98 186 
 RUS  HN ES   1    010 22.04                             144     0.4 7   98 186 
 RUS  HZ I         010 23.48        10.7 0.41                            98 186 
 BRI  SZ EP        010  3.60                             142     0.310  106  11 
 GUE  SZ EP        010  3.48                             139    -0.910  117   3 
 GRA  SZ EP        010  5.08                             137     0.410  124   9 
 GRA  SZ ES   1    010 24.73                             137     0.4 7  124   9 
 OCA  SZ EP   1    010  8.25                             128    -0.2 7  166 347 
 OCA  SZ ES   1    010 30.72                             128    -0.2 7  166 347 
 OCA  SZ I         010 34.87        10.9 0.26                           166 347 
 RREF BZ EP        010 27.88                             110     0.7 7  334 232 
 RREF BN ES   1    011  4.26                             110     0.0 5  334 232 
 RREF BZ I         011 10.67         5.4 0.14                           334 232 
 SDV  BZ EP        010 28.63                             109     0.4 6  349  48 
 PRA  HZ EP        010 33.48                             106    -0.4 6  399 212 
 PRA  HN ES   2    011 15.93                             106    -0.4 3  399 212 
 PRA  HZ I         011 19.51         3.8 0.30                           399 212 
                                                                                
