 2013  412 0658 52.2 L   6.812 -73.146145.7  RSN  6 0.4 1.8LRSN                1
 GAP=183        0.96       4.2     6.1  6.7  0.3390E+01  0.4751E+01  0.1655E+01E
 Epicentro: LOS SANTOS - SANTANDER                                             3
 ACTION:UPD 13-05-22 14:37 OP:EP   STATUS:               ID:20130412065852 L   I
 2013-04-12-0648-40M.COL___212                                                 6
 STAT SP IPHASW D HRMM SECON CODA AMPLIT PERI AZIMU VELO AIN AR TRES W  DIS CAZ7
 BAR2 SZ EP        659 11.96                             170    0.1010 24.6 189 
 BAR2 SZ ES        659 27.20                             170    0.0210 24.6 189 
 GIR2 SZ EP        659 11.60                             168   -0.2410 30.0 350 
 GIR2 SZ ES        659 26.60                             168   -0.5510 30.0 350 
 BRR  HZ EP        659 13.75                             153    0.4310 70.5 298 
 BRR  HN ES        659 30.54                             153    0.7610 70.5 298 
 BRR  HN I         659 32.46         9.7 0.28            150           70.5 298 
 RUS  HZ EP        659 16.21                             143    0.1610  102 176 
 RUS  HN ES        659 34.67                             143    0.0310  102 176 
 RUS  HN I         659 36.27         9.4 0.38            143            102 176 
 PTB  HZ EP        659 18.93                             132   -0.27 9  148 258 
 PTB  HN ES        659 39.82                             132   -0.42 9  148 258 
 PTB  HN I         659 45.59         7.8 0.50            130            148 258 
 OCA  HN ES        659 42.26                             130   -0.12 9  159 353 
                                                                                
