 2013  112 0857 50.2 L   6.680 -73.243146.4  RSN  4 0.3 1.2LRSN                1
 GAP=216        0.68       5.7     5.8  7.2  0.2243E+02  0.6523E+01  0.9905E+00E
 Epicentro: BARICHARA - SANTANDER                                              3
 ACTION:UPD 13-02-15 09:13 OP:ep   STATUS:               ID:20130112085750 L   I
 2013-01-12-0850-00M.COL___241                                                 6
 STAT SP IPHASW D HRMM SECON CODA AMPLIT PERI AZIMU VELO AIN AR TRES W  DIS CAZ7
 BRR  HZ EP   1    858 11.50                             153    0.10 7 70.2 312 
 BRR  HN ES        858 28.01                             153    0.1110 70.2 312 
 BRR  HN I         858 31.06         5.2 0.18            154           70.2 312 
 RUS  HZ EP   1    858 12.75                             147   -0.49 7 88.8 169 
 RUS  HN ES        858 31.21                             147    0.0310 88.8 169 
 RUS  HN I         858 34.23         1.3 0.26            148           88.8 169 
 PTB  HZ EP        858 16.58                             135    0.4410  135 263 
 PTB  HN ES        858 36.28                             135   -0.0610  135 263 
 PTB  HN I         858 42.82         3.0 0.36            135            135 263 
 ZAR  HN ES        858 46.94                             123   -0.35 9  200 297 
                                                                                
