 2017  312 0749 46.6 L   6.800 -73.135148.2  RSN  8 0.4 1.5LRSN                1
 GAP=138        1.08       4.5     4.5  6.6 -0.2259E+01  0.8588E+01  0.2688E+01E
 Epicentro: LOS SANTOS - SANTANDER                                             3
 ACTION:UPD 17-05-25 18:39 OP:jn   STATUS:               ID:20170312074946 L   I
 OLDACT:REG 17-03-12 13:16 OP:ar   STATUS:               ID:20170312074740     3
 2017-03-12-0748-00M.COL___386                                                 6
 STAT SP IPHASW D HRMM SECON CODA AMPLIT PERI AZIMU VELO AIN AR TRES W  DIS CAZ7
 BAR2 EZ EP        750  6.45                             171   -0.0910 23.5 193 
 BAR2 EZ ES        750 21.61                             171   -0.4810 23.5 193 
 BAR2 EZ I         750 24.98        11.0 0.72            168           23.5 193 
 BRR  HN ES        750 25.48                             153    0.6510 72.2 298 
 PAM  EZ EP        750  9.32                             151    0.2710 76.7  39 
 PAM  EN ES        750 26.69                             151    0.1410 76.7  39 
 PAM  EZ I         750 27.15         3.4 0.20            156           76.7  39 
 RUS  HZ EP        750 10.43                             144   -0.1710  100 177 
 RUS  HN ES        750 29.17                             144   -0.1310  100 177 
 RUS  HZ I         750 31.70         3.0 0.36            147            100 177 
 PTB  HZ EP        750 14.07                             132    0.19 9  149 259 
 PTB  HN ES        750 34.22                             132   -0.93 9  149 259 
 PTB  HZ I         750 41.61         5.9 0.50            132            149 259 
 SPBC HZ EP        750 15.44                             129    0.08 9  164 219 
 SPBC HN ES        750 38.20                             129    0.41 9  164 219 
 SPBC HZ I         750 41.58         6.5 0.21            130            164 219 
 ZAR  HZ EP        750 18.91                             123   -0.42 9  205 292 
 ZAR  HE ES        750 44.73                             123   -0.12 9  205 292 
 ZAR  HZ I         750 52.64         2.6 0.18            123            205 292 
 NOR  HZ EP        750 22.38                             119   -0.20 8  236 235 
 NOR  HN ES        750 51.50                             119    0.86 8  236 235 
 NOR  HZ I         750 55.95         3.1 0.30            120            236 235 
                                                                                
