 2015  712 0648  2.5 L   6.842 -73.372114.1  RSN 19 0.5 2.3LRSN                1
 GAP= 89        0.97       2.1     3.3  5.8 -0.9864E+00  0.1178E+02  0.1868E+00E
 Epicentro: SAN VICENTE DE CHUCURI - SANTANDER                                 3
 ACTION:UPD 15-09-08 21:48 OP:cam  STATUS:               ID:20150712064802 L   I
 OLDACT:UP  15-07-12 17:06 OP:ar   STATUS:               ID:20150712063745     3
 OLDACT:UP  15-07-12 16:59 OP:ar   STATUS:               ID:20150712063745     3
 OLDACT:REG 15-07-12 13:48 OP:ar   STATUS:               ID:20150712063745     3
 2015-07-12-0637-45M.COL___337                                                 6
 STAT SP IPHASW D HRMM SECON CODA AMPLIT PERI AZIMU VELO AIN AR TRES W  DIS CAZ7
 BAR2 EZ EP        648 18.65                             162   -0.0610 34.6 143 
 BAR2 EZ ES        648 31.64                             162    0.2910 34.6 143 
 BAR2 EZ I         648 32.77       141.6 0.34            160           34.6 143 
 PAM  EZ EP        648 22.71                             139    0.0810 92.4  53 
 PAM  EN ES        648 38.74                             139    0.4210 92.4  53 
 PAM  EZ I         648 41.76        19.9 0.38            140           92.4  53 
 RUS  HZ EP   2    648 23.55                             133   -0.55 5  110 163 
 RUS  HN ES        648 40.28                             133   -0.6510  110 163 
 RUS  HZ I         648 41.99        16.1 0.46            132            110 163 
 OCA  HZ EP        648 27.46                             122   -0.53 9  155   2 
 OCA  HN ES        648 47.27                             122   -0.60 9  155   2 
 OCA  HZ I         648 47.88        64.4 0.18            124            155   2 
 ZAR  HZ EP        648 30.65                             118    0.25 9  179 294 
 ZAR  HN ES        648 52.52                             118    0.37 9  179 294 
 ZAR  HZ I         648 53.57        27.7 0.42            118            179 294 
 NOR  HZ EP        648 34.43                             113   -0.28 8  218 230 
 NOR  HN ES        648 59.59                             113   -0.23 8  218 230 
 NOR  HZ I         649  2.49        22.4 0.18            112            218 230 
 SML  HZ EP        648 35.72                             111   -0.30 8  230 340 
 SML  HE ES        649  2.61                             111    0.46 8  230 340 
 SML  HZ I         649  4.38        17.9 0.09            112            230 340 
 ROSC BZ EP   2    648 38.91                             110    0.69 4  245 205 
 ROSC BE ES   4    649  8.41                             110    2.33 0  245 205 
 CHI  HZ EP   2    648 38.43                             110   -0.15 4  248 189 
 CHI  HE ES        649  7.15                             110    0.44 8  248 189 
 CHI  HZ I         649 15.92         7.3 0.52            109            248 189 
 URE  HZ EP   9    648 37.98                             109   -1.38 0  259 293 
 URE  HN ES        649  5.75                             108   -0.97 8  259 293 
 URE  HZ I         649  7.37        15.0 0.19            109            259 293 
 GUY2CHZ EP        648 43.04                             107    0.19 7  284 231 
 GUY2CHN ES   2    649 14.14                             107   -0.17 4  284 231 
 GUY2CHZ I         649 21.47        11.3 0.58                           284 231 
 CBOC HZ EP        648 45.71                             105    0.01 7  311 250 
 CBOC HE ES        649 19.74                             105    0.36 7  311 250 
 CBOC HZ I         649 23.58         5.3 0.44            105            311 250 
 DBB  SZ EP        648 45.55                             104   -0.36 7  314 274 
 DBB  SZ ES        649 19.13                             104   -0.63 7  314 274 
 DBB  SZ I         649 23.77        26.7 0.30            105            314 274 
 PTGC HZ EP   9    648 44.75                             104   -2.07 0  323 155 
 PTGC HE ES        649 19.90                                    0.59 7  323 155 
 TOL  SZ EP        648 48.78                             104    0.70 7  330 221 
 TOL  SN ES        649 23.67                             104    0.05 7  330 221 
 TOL  SZ I         649 31.62         4.7 0.22            103            330 221 
 ARGC HZ EP   2    648 51.44                             103    1.72 3  347 344 
 ARGC HE ES   2    649 28.28                             103    1.74 3  347 344 
 PRA  HZ EP        648 54.09                             101   -0.13 6  384 206 
 PRA  HN ES        649 35.25                             101    0.70 6  384 206 
 PRA  HZ I         649 43.16         9.0 0.24            101            384 206 
 ORTC HZ EP        648 54.19                             101   -0.10 6  385 213 
 ORTC HN ES   4    649 36.29                             101    1.61 0  385 213 
 ORTC HZ I         649 40.96         4.9 0.38            101            385 213 
 PAL  HZ EP        648 53.92                             101   -0.64 6  387 237 
 PAL  HE ES        649 35.04                             101   -0.12 6  387 237 
 PAL  HZ I         649 37.10         4.2 0.28            101            387 237 
                                                                                
