 2010  812 0717 46.4 L   6.805 -73.086147.4  RSN  7 0.3 1.6LRSN                1
 GAP=165        0.76       3.6     8.7  6.5 -0.8816E+01 -0.1265E+02  0.3076E+01E
 Epicentro: LOS SANTOS - SANTANDER                                             3
 ACTION:UP  10-09-07 10:54 OP:vdl  STATUS:               ID:20100812071746 L   I
 2010-08-12-0715-21S.COL___127                                                 6
 STAT SP IPHASW D HRMM SECON CODA AMPLIT PERI AZIMU VELO SNR AR TRES W  DIS CAZ7
 BAR2 SZ EP   1    718  6.12                             170    -0.2 7   26 205 
 BAR2 SZ ES   1    718 21.43                             170    -0.4 7   26 205 
 BAR2 SZ I         718 22.76         9.3 0.21                            26 205 
 BRR  HZ EP        718  8.03                             151     0.010   77 296 
 BRR  HZ I         718  9.92         7.8 0.17                            77 296 
 BRR  HN ES   1    718 25.23                             151     0.3 7   77 296 
 RUS  HZ EP   1    718 10.49                             144     0.1 7  101 180 
 RUS  HN ES   2    718 28.84                             144    -0.2 5  101 180 
 RUS  HZ I         718 30.77         3.1 0.42                           101 180 
 GUE  SZ EP   1    718 11.14                             140     0.0 7  115   9 
 GRA  SZ EP        718 11.87                             138     0.310  123  15 
 GRA  SZ I         718 13.23         6.7 0.44                           123  15 
 GRA  SZ ES   1    718 31.56                             138     0.3 7  123  15 
 OCA  SZ EP   1    718 14.15                             130    -0.7 7  161 351 
 OCA  SZ ES   2    718 37.15                             130     0.1 5  161 351 
 OCA  SZ I         718 40.46         9.3 0.20                           161 351 
 CHI  HZ EP        718 24.45                             117     0.0 8  251 197 
 CHI  HN ES   2    718 55.10                             117     1.0 4  251 197 
 CHI  HZ I         719  1.96         1.4 0.57                           251 197 
                                                                                
