 2011 1012 0940 58.8 L   7.409 -73.196124.5  RSN  5 0.3 1.2LRSN                1
 GAP=112        0.60       3.4     5.1  6.2 -0.2714E+00 -0.1027E+01  0.7978E-01E
 Epicentro: EL PLAYON - SANTANDER                                              3
 ACTION:UPD 12-07-13 16:03 OP:ep   STATUS:               ID:20111012094058 L   I
 2011-10-12-0940-00M.COL___171                                                 6
 STAT SP IPHASW D HRMM SECON CODA AMPLIT PERI AZIMU VELO AIN AR TRES W  DIS CAZ7
 PAM  SZ EP        941 17.71                             155    0.2110 55.4  98 
 PAM  SN ES   1    941 32.04                             155   -0.03 7 55.4  98 
 PAM  SZ I         941 34.36         2.7 0.12                          55.4  98 
 BRR  HZ EP   1    941 17.42                             150    0.03 7 66.0 240 
 BRR  HN ES   1    941 32.02                             150    0.15 7 66.0 240 
 BAR2 SZ ES   1    941 35.42                             142   -0.02 7 90.4 179 
 OCA  SZ EP   1    941 19.81                             141    0.35 7 92.7 352 
 OCA  SZ ES   1    941 35.12                             141   -0.43 7 92.7 352 
 OCA  SZ I         941 39.46         4.3 0.21                          92.7 352 
 RUS  HZ EP   1    941 26.31                             123   -0.51 7  168 176 
                                                                                
