 2017 1112 0457 34.2 L   6.746 -73.149147.1  RSN  5 0.3 1.6LRSN                1
 GAP=233        0.84       6.6     6.1  7.2  0.2285E+02  0.8882E+01 -0.3241E+01E
 Epicentro: LOS SANTOS - SANTANDER                                             3
 ACTION:UPD 17-12-12 19:54 OP:rebc STATUS:               ID:20171112045734 L   I
 OLDACT:UP  17-11-12 13:28 OP:dnl  STATUS:               ID:20171112044742d    3
 OLDACT:UP  17-11-12 13:28 OP:dnl  STATUS:               ID:20171112044742d    3
 OLDACT:DUP 17-11-12 13:24 OP:dnl  STATUS:               ID:20171112044742d    3
 OLDACT:UP  17-11-12 13:24 OP:dnl  STATUS:               ID:20171112044741d    3
 OLDACT:DUP 17-11-12 13:17 OP:dnl  STATUS:               ID:20171112044741d    3
 2017-11-12-0448-00M.COL___459                                                 6
 STAT SP IPHASW D HRMM SECON CODA AMPLIT PERI AZIMU VELO AIN AR TRES W  DIS CAZ7
 BAR2 EZ IP     C  457 53.85                             173   -0.0610 17.4 192 
 BAR2 EZ ES        458  8.66                             173   -0.6110 17.4 192 
 BAR2 EZ I         458 10.98        10.5 0.38            172           17.4 192 
 BRR  HZ IP     C  457 55.84                             152    0.1610 74.0 303 
 BRR  HE ES        458 12.93                             152    0.5210 74.0 303 
 BRR  HZ I         458 15.75         5.5 0.14            150           74.0 303 
 RUS  HZ EP   2    457 57.94                             146    0.25 5 94.6 176 
 RUS  HE ES        458 16.26                             146    0.2710 94.6 176 
 RUS  HZ I         458 17.11         3.2 0.18            148           94.6 176 
 PTB  HZ EP        458  0.98                             133   -0.20 9  146 261 
 PTB  HE ES        458 22.23                             133    0.03 9  146 261 
 PTB  HZ I         458 25.32         3.8 0.16            133            146 261 
 ZAR  HZ EP   4    458  8.62                             122    1.66 0  206 294 
 ZAR  HN ES        458 32.21                             122   -0.29 8  206 294 
 ZAR  HZ I         458 37.93         7.0 0.20            123            206 294 
                                                                                
