 2016  912 0702 48.3 R   6.744 -73.159151.2  RSN  5 0.4 1.4LRSN                1
 GAP=181        0.85       4.5     8.5  6.7  0.1859E+02  0.4954E+01 -0.3573E+01E
 Epicentro: LOS SANTOS - SANTANDER                                             3
 ACTION:UPD 17-08-17 21:09 OP:lp   STATUS:               ID:20160912070248 L   I
 OLDACT:UP  16-09-12 21:08 OP:and  STATUS:               ID:20160912065733     3
 OLDACT:REG 16-09-12 16:01 OP:and  STATUS:               ID:20160912065733     3
 2016-09-12-0658-00M.COL___300                                                 6
 STAT SP IPHASW D HRMM SECON CODA AMPLIT PERI AZIMU VELO AIN AR TRES W  DIS CAZ7
 BAR2 EZ EP        7 3  8.15                             173   -0.3310 17.0 189 
 BAR2 EZ ES        7 3 23.59                             173   -0.6210 17.0 189 
 BAR2 EZ I         7 3 25.57         5.2 0.21            167           17.0 189 
 BRR  HZ EP   2    7 3 10.12                             153   -0.02 5 73.1 303 
 BRR  HN ES        7 3 27.58                             153    0.4010 73.1 303 
 BRR  HZ I         7 3 31.34         3.7 0.16            148           73.1 303 
 RUS  HZ EP        7 3 12.55                             146    0.3710 94.6 175 
 RUS  HN ES        7 3 31.08                             146    0.2810 94.6 175 
 RUS  HZ I         7 3 33.37         3.1 0.26            146           94.6 175 
 OCA  HZ EP   2    7 3 17.42                             130   -0.17 5  166 354 
 OCA  HE ES        7 3 40.65                             130    0.21 9  166 354 
 ZAR  HZ EP        7 3 20.94                             123   -0.27 9  205 294 
 ZAR  HN ES   2    7 3 46.66                             123   -0.22 4  205 294 
 ZAR  HZ I         7 3 52.23         3.6 0.24            122            205 294 
                                                                                
