 2012  512 0818 59.1 L   6.818 -73.168142.0  RSN  7 0.4 2.1LRSN                1
 GAP=133        0.96       5.1     6.8 10.1 -0.3976E+01  0.2036E+02 -0.5786E+01E
 Epicentro: LOS SANTOS - SANTANDER                                             3
 ACTION:UP  12-07-05 12:04 OP:pat  STATUS:               ID:20120512081859 L   I
 2012-05-12-0817-35M.COL___181                                                 6
 STAT SP IPHASW D HRMM SECON CODA AMPLIT PERI AZIMU VELO SNR AR TRES W  DIS CAZ7
 BAR2 SZ EP        819 18.36                             170     0.110   25 184 
 BAR2 SZ I         819 34.70        30.8 0.24                            25 184 
 BRR  HZ EP        819 20.25                             153     0.610   68 298 
 BRR  HN ES   2    819 35.69                             153     0.0 5   68 298 
 BRR  HZ I         819 40.60        19.2 0.26                            68 298 
 PAM  SZ EP        819 21.18                             150     0.310   77  42 
 PAM  SN ES   1    819 37.87                             150     0.0 7   77  42 
 RUS  HZ EP        819 22.53                             143    -0.110  103 175 
 RUS  HN ES   1    819 40.71                             143    -0.3 7  103 175 
 RUS  HZ I         819 42.48         8.0 0.26                           103 175 
 PTB  HZ EP        819 25.40                             132    -0.1 9  146 258 
 PTB  HN ES   2    819 45.90                             132    -0.3 5  146 258 
 PTB  HZ I         819 48.53        13.4 0.12                           146 258 
 OCA  HZ EP        819 26.10                             129    -0.8 9  158 354 
 OCA  HE ES   2    819 48.62                             129     0.1 5  158 354 
 OCA  HZ I         819 52.32        38.7 0.28                           158 354 
 ZAR  HZ EP   2    819 31.39                             122     0.4 4  201 292 
 ZAR  HN ES   3    819 55.60                             122    -0.2 2  201 292 
 ZAR  HZ I         820  2.08        14.9 0.26                           201 292 
                                                                                
