 2012 1212 0135 24.5 L   6.785 -73.166142.8  RSN  6 0.3 1.5LRSN                1
 GAP=135        0.63       4.2     3.9  6.2 -0.3790E-02  0.7432E+01  0.1863E+01E
 Epicentro: LOS SANTOS - SANTANDER                                             3
 ACTION:UPD 13-01-04 14:27 OP:ep   STATUS:               ID:20121212013524 L   I
 2012-12-12-0130-00M.COL___242                                                 6
 STAT SP IPHASW D HRMM SECON CODA AMPLIT PERI AZIMU VELO AIN AR TRES W  DIS CAZ7
 BAR2 SZ EP   1    135 43.76                             171    0.06 7 21.4 185 
 BAR2 SZ ES   1    135 58.15                             171   -0.55 7 21.4 185 
 BAR2 SZ I         136  0.06        11.5 0.22                          21.4 185 
 GIR2 SZ ES   1    135 59.44                             166    0.52 7 32.7 355 
 GIR2 SZ I         136  0.31         5.0 0.20                          32.7 355 
 PAM  SZ EP   1    135 46.71                             149    0.18 7 80.1  40 
 PAM  SN ES   1    136  3.45                             149   -0.29 7 80.1  40 
 PAM  SZ I         136  5.10         6.1 0.42                          80.1  40 
 RUS  HZ EP   1    135 47.88                             144    0.07 7 99.1 175 
 RUS  HN ES   1    136  6.25                             144    0.23 7 99.1 175 
 RUS  HZ I         136  8.36         3.0 0.42                          99.1 175 
 PTB  HZ EP   1    135 50.59                             132   -0.37 7  145 259 
 PTB  HE ES   1    136 11.71                             132    0.08 7  145 259 
 PTB  HZ I         136 16.46         5.8 0.10                           145 259 
 ZAR  HN ES   1    136 21.66                             122    0.05 6  203 293 
                                                                                
