 2013  412 0523  9.0 L   6.775 -73.151146.7  RSN  6 0.4 1.5LRSN                1
 GAP=184        1.05       6.8     7.2  7.4  0.1835E+02  0.2600E+01  0.5471E+01E
 Epicentro: LOS SANTOS - SANTANDER                                             3
 ACTION:UPD 13-05-22 14:37 OP:EP   STATUS:               ID:20130412052309 L   I
 2013-04-12-0518-36M.COL___212                                                 6
 STAT SP IPHASW D HRMM SECON CODA AMPLIT PERI AZIMU VELO AIN AR TRES W  DIS CAZ7
 BAR2 SZ EP        523 28.71                             172    0.0210 20.5 190 
 BAR2 SZ ES        523 43.90                             172   -0.1510 20.5 190 
 BAR2 SZ I         523 44.82         6.4 0.26            153           20.5 190 
 GIR2 SZ EP        523 28.17                             166   -0.6910 33.9 352 
 BRR  HZ EP        523 30.74                             152    0.4410 72.1 301 
 BRR  HN ES        523 47.53                             152    0.6210 72.1 301 
 BRR  HN I         523 48.53         8.6 0.24            143           72.1 301 
 RUS  HZ EP        523 32.72                             145    0.0710 97.8 176 
 RUS  HN ES        523 51.04                             145   -0.0510 97.8 176 
 PTB  HZ EP        523 35.62                             132   -0.33 9  147 260 
 PTB  HN ES        523 56.56                             132   -0.40 9  147 260 
 CHI  HZ EP        523 47.05                             118    0.61 8  246 195 
 CHI  HE I         524 21.64         2.0 0.26            105            246 195 
                                                                                
