 2017  912 0147  4.8 L   6.772 -73.110144.0  RSN  8 0.4 1.6LRSN                1
 GAP=142        0.78       3.4     5.8  5.3 -0.4444E+01  0.2505E+01  0.6042E+01E
 Epicentro: LOS SANTOS - SANTANDER                                             3
 ACTION:UPD 17-10-05 19:11 OP:rebc STATUS:               ID:20170912014704 L   I
 OLDACT:UP  17-09-12 14:51 OP:mg   STATUS:               ID:20170912013743d    3
 OLDACT:DUP 17-09-12 14:42 OP:mg   STATUS:               ID:20170912013743d    3
 OLDACT:REG 17-09-12 12:01 OP:mg   STATUS:               ID:20170912013742     3
 2017-09-12-0138-00M.COL___437                                                 6
 STAT SP IPHASW D HRMM SECON CODA AMPLIT PERI AZIMU VELO AIN AR TRES W  DIS CAZ7
 BAR2 EZ EP        147 23.89                             171   -0.3010 21.4 202 
 BAR2 EZ ES        147 38.79                             171   -0.5210 21.4 202 
 BAR2 EZ I         147 40.64        18.0 0.30            167           21.4 202 
 BRR  HZ EP        147 25.78                             151   -0.2810 76.2 299 
 BRR  HN ES        147 43.02                             151    0.3910 76.2 299 
 BRR  HZ I         147 46.17         7.7 0.30            146           76.2 299 
 PAM  EZ EP        147 26.98                             151    0.1410 77.4  36 
 PAM  EN ES        147 44.22                             151    0.2010 77.4  36 
 PAM  EZ I         147 46.23         8.2 0.52            154           77.4  36 
 RUS  HZ EP        147 28.04                             144   -0.1110 97.3 178 
 RUS  HN ES        147 46.68                             144    0.3210 97.3 178 
 RUS  HZ I         147 47.67         3.0 0.30            145           97.3 178 
 YPLC HZ EP   4    147 34.44                             127    0.42 0  172 152 
 ZAR  HZ EP   4    147 39.07                             121    1.42 0  209 293 
 ZAR  HN ES   4    148  1.64                             121   -1.62 0  209 293 
 ZAR  HZ I         148  8.76         3.5 0.17            120            209 293 
 CHI  HZ EP        147 42.07                             117   -0.13 8  247 196 
 CHI  HN ES        148 11.75                             117    0.38 8  247 196 
 CHI  HZ I         148 15.57         2.3 0.47            117            247 196 
 GUY2CHZ EP   3    147 49.52                             112    1.01 2  303 236 
 GUY2CHN ES   4    148 26.82                             112    4.23 0  303 236 
 GUY2CHZ I         148 30.33         2.0 0.38                           303 236 
 PRA  HZ EP   1    147 58.71                             106    0.52 4  391 210 
 PRA  HN ES   1    148 39.14                             106   -0.68 4  391 210 
 PRA  HZ I         148 46.46         2.6 0.28            106            391 210 
                                                                                
