 2017  212 0825 21.0 L   6.753 -73.142137.3  RSN  6 0.4 1.2LRSN                1
 GAP=139        1.04       5.0     4.5  7.3  0.2352E+01  0.7570E+01 -0.2823E+01E
 Epicentro: LOS SANTOS - SANTANDER                                             3
 ACTION:UPD 17-05-24 15:35 OP:jn   STATUS:               ID:20170212082521 L   I
 OLDACT:UP  17-02-12 16:40 OP:ar   STATUS:               ID:20170212081742     3
 OLDACT:REG 17-02-12 13:09 OP:and  STATUS:               ID:20170212081742     3
 2017-02-12-0818-00M.COL___331                                                 6
 STAT SP IPHASW D HRMM SECON CODA AMPLIT PERI AZIMU VELO AIN AR TRES W  DIS CAZ7
 BAR2 EZ EP        825 39.27                             172   -0.2810 18.4 194 
 BAR2 EZ ES        825 53.97                             172   -0.0210 18.4 194 
 BAR2 EZ I         825 54.84         5.6 0.38            173           18.4 194 
 BRR  HZ EP        825 41.20                             150   -0.2510 74.2 302 
 BRR  HN ES        825 57.86                             150    0.4910 74.2 302 
 BRR  HZ I         826  1.41         2.3 0.32            151           74.2 302 
 PAM  EZ EP        825 42.35                             148   -0.2410 81.2  37 
 PAM  EN ES        825 59.28                             148   -0.1310 81.2  37 
 PAM  EZ I         826  1.41         3.5 0.64            150           81.2  37 
 RUS  HZ EP        825 43.82                             143    0.2410 95.4 176 
 RUS  HN ES        826  1.48                             143    0.3210 95.4 176 
 RUS  HZ I         826  3.69         1.2 0.32            146           95.4 176 
 PTB  HZ EP   2    825 46.47                             130   -0.81 5  147 261 
 PTB  HN ES        826  6.96                             130   -0.79 9  147 261 
 PTB  HZ I         826  9.22         2.4 0.18            132            147 261 
 ZAR  HZ EP        825 53.96                             120    0.77 8  206 293 
 ZAR  HE ES        826 18.53                             120    0.26 8  206 293 
                                                                                
