 2017  512 0543 58.1 L   6.774 -73.102147.5  RSN  4 0.2 1.1LRSN                1
 GAP=143        0.44       2.4     3.2  4.4  0.4810E+00  0.2799E+00  0.1107E+01E
 Epicentro: LOS SANTOS - SANTANDER                                             3
 ACTION:UPD 17-06-16 13:35 OP:jn   STATUS:               ID:20170512054358 L   I
 OLDACT:REG 17-05-12 13:11 OP:osc  STATUS:               ID:20170512053733     3
 2017-05-12-0538-00M.COL___362                                                 6
 STAT SP IPHASW D HRMM SECON CODA AMPLIT PERI AZIMU VELO AIN AR TRES W  DIS CAZ7
 PAM  EZ EP        544 20.53                             151    0.1110 76.7  35 
 PAM  EE ES        544 37.77                             151   -0.1010 76.7  35 
 PAM  EZ I         544 40.06         2.9 0.46            151           76.7  35 
 BRR  HZ EP        544 19.59                             151   -0.1310 76.9 299 
 BRR  HE ES        544 36.82                             151    0.2010 76.9 299 
 RUS  HZ EP        544 21.87                             145    0.1110 97.4 179 
 RUS  HN ES        544 40.13                             145   -0.1210 97.4 179 
 RUS  HZ I         544 41.08         1.5 0.22            147           97.4 179 
 ZAR  HE ES   2    544 56.63                             122   -0.41 4  210 292 
                                                                                
