 2017  512 0241 57.5 L   6.823 -73.162145.4  RSN 10 0.4 1.5LRSN                1
 GAP=109        0.97       3.4     3.4  6.9  0.1076E+01  0.1922E+01  0.7456E+01E
 Epicentro: LOS SANTOS - SANTANDER                                             3
 ACTION:UPD 17-06-16 13:35 OP:jn   STATUS:               ID:20170512024157 L   I
 OLDACT:UP  17-05-12 16:13 OP:osc  STATUS:               ID:20170512023740     3
 OLDACT:REG 17-05-12 12:38 OP:osc  STATUS:               ID:20170512023740     3
 2017-05-12-0238-00M.COL___365                                                 6
 STAT SP IPHASW D HRMM SECON CODA AMPLIT PERI AZIMU VELO AIN AR TRES W  DIS CAZ7
 BRR  HZ EP        242 18.60                             153    0.2010 68.4 297 
 BRR  HN ES        242 35.36                             153    0.6210 68.4 297 
 BRR  HZ I         242 37.56         4.4 0.16            153           68.4 297 
 PAM  EZ IP     C  242 19.65                             151    0.0710 76.7  42 
 PAM  EN ES        242 36.61                             151   -0.2310 76.7  42 
 PAM  EZ I         242 37.63         5.0 0.24            155           76.7  42 
 RUS  HZ EP        242 21.34                             143   -0.0210  103 175 
 RUS  HN ES        242 39.69                             143   -0.3210  103 175 
 RUS  HZ I         242 41.83         2.3 0.36            144            103 175 
 PTB  HZ EP        242 23.63                             132   -0.64 9  146 258 
 PTB  HN ES        242 44.26                             132   -0.93 9  146 258 
 PTB  HZ I         242 47.25         4.8 0.24            132            146 258 
 SPBC HZ EP   2    242 25.34                             129   -0.66 5  164 218 
 SPBC HN ES        242 48.48                             129    0.21 9  164 218 
 SPBC HZ I         242 54.29         6.5 0.22            129            164 218 
 YPLC HZ EP        242 27.64                             126    0.11 9  180 151 
 YPLC HN ES        242 51.17                             126    0.19 9  180 151 
 YPLC HZ I         242 52.64         3.6 0.34            128            180 151 
 ZAR  HZ EP   4    242 31.33                             123    1.73 0  201 292 
 ZAR  HN ES        242 54.97                             123    0.30 9  201 292 
 ZAR  HZ I         243  0.08         4.5 0.34            123            201 292 
 NOR  HN ES        243  1.45                             118    0.44 8  235 234 
 CHI  HZ EP        242 35.37                             117    0.02 8  251 195 
 CHI  HN ES        243  5.21                             117    0.31 8  251 195 
 CHI  HZ I         243  9.03         1.7 0.28            118            251 195 
 HEL  HN ES   4    243  6.79                             115   -1.98 0  271 255 
 CBOC HZ EP   2    242 44.84                             110    0.60 3  333 252 
 CBOC HE ES   4    243 15.13                             110   -5.60 0  333 252 
 CBOC HZ I         243 25.62         0.7 0.46            111            333 252 
                                                                                
