 2011  912 0412 15.7 L   6.769 -73.134151.5  RSN  7 0.3 2.0LRSN                1
 GAP=184        0.48       3.6     4.8  5.4  0.2734E+01  0.3333E+01 -0.1159E+01E
 Epicentro: LOS SANTOS - SANTANDER                                             3
 ACTION:UPD 12-07-13 15:57 OP:ep   STATUS:               ID:20110912041215 L   I
 2011-09-12-0406-47S.COL___168                                                 6
 STAT SP IPHASW D HRMM SECON CODA AMPLIT PERI AZIMU VELO AIN AR TRES W  DIS CAZ7
 BAR2 SZ EP   1    412 35.63                             172   -0.37 7 20.3 195 
 BAR2 SZ ES   2    412 51.43                             172   -0.37 5 20.3 195 
 BAR2 SZ I         412 52.81        20.3 0.41                          20.3 195 
 GIR2 SZ EP   1    412 35.89                             166   -0.30 7 34.9 349 
 GIR2 SZ ES   2    412 52.16                             166    0.02 5 34.9 349 
 BRR  HZ EP   1    412 37.64                             152   -0.02 7 74.0 300 
 BRR  HE ES   2    412 54.95                             152    0.19 5 74.0 300 
 BRR  HZ I         412 59.41        22.3 0.12                          74.0 300 
 RUS  HZ EP   1    412 40.02                             146    0.21 7 97.1 177 
 RUS  HN ES   2    412 59.16                             146    0.57 5 97.1 177 
 RUS  HZ I         413  0.06        10.1 0.59                          97.1 177 
 OCA  SZ EP   1    412 44.95                             130    0.13 7  164 353 
 OCA  SZ ES   2    413  7.89                             130    0.38 5  164 353 
 OCA  SZ I         413 12.16        10.1 0.32                           164 353 
 ZAR  HE ES   2    413 14.79                             123    0.18 4  207 293 
 ZAR  HZ I         413 20.50        15.4 0.41                           207 293 
 HEL  HZ EP   2    412 56.62                             116    0.33 4  272 257 
 HEL  HN ES   2    413 27.55                             116   -0.37 4  272 257 
 HEL  HZ I         413 34.79         4.0 0.54                           272 257 
                                                                                
