 2010  612 0851 20.1 L   6.798 -73.128137.2  RSN  5 0.1 1.4LRSN                1
 GAP=161        0.42       2.1    10.9  5.0 -0.5593E+01 -0.8430E+01 -0.2293E+01E
 Epicentro: LOS SANTOS - SANTANDER                                             3
 ACTION:UP  10-08-24 10:09 OP:vdl  STATUS:               ID:20100612085120 L   I
 2010-06-12-0848-10S.COL___117                                                 6
 STAT SP IPHASW D HRMM SECON CODA AMPLIT PERI AZIMU VELO SNR AR TRES W  DIS CAZ7
 BAR2 SZ EP        851 38.79                             170     0.110   24 195 
 BAR2 SZ ES   1    851 53.26                             170     0.1 7   24 195 
 RUS  HZ EP   1    851 42.67                             142    -0.3 7  100 177 
 RUS  HN ES   1    852  0.74                             142    -0.1 7  100 177 
 RUS  HZ I         852  2.54         3.3 0.26                           100 177 
 GUE  SZ EP   1    851 44.11                             137     0.1 7  116  11 
 GRA  SZ EP   1    851 44.61                             135     0.1 7  125  17 
 GRA  SZ ES   1    852  3.47                             135    -0.1 7  125  17 
 OCA  SZ ES   1    852  9.19                             127    -0.2 7  161 352 
 OCA  SZ I         852 14.23         3.7 0.45                           161 352 
                                                                                
