 2011 1212 0519  3.3 L   6.808 -73.197143.6  RSN  6 0.4 1.3LRSN                1
 GAP=130        0.83       5.8     5.5  8.8 -0.7039E+01 -0.2845E+01  0.1467E+02E
 Epicentro: ZAPATOCA - SANTANDER                                               3
 ACTION:UPD 12-07-13 16:15 OP:ep   STATUS:               ID:20111212051903 L   I
 2011-12-12-0517-49S.COL___154                                                 6
 STAT SP IPHASW D HRMM SECON CODA AMPLIT PERI AZIMU VELO AIN AR TRES W  DIS CAZ7
 GIR2 SZ EP   2    519 22.67                             168    0.02 5 29.9   1 
 BRR  HN ES   1    519 40.80                             154    0.83 7 65.8 300 
 PAM  SZ EP        519 25.47                             149    0.0310 80.4  43 
 PAM  SN ES   1    519 42.28                             149   -0.45 7 80.4  43 
 RUS  HZ EP   1    519 26.88                             143   -0.04 7  102 173 
 RUS  HE ES   1    519 45.39                             143    0.03 7  102 173 
 RUS  HZ I         519 46.45         1.9 0.24                           102 173 
 PTB  HZ EP   1    519 29.62                             133    0.04 7  142 258 
 PTB  HN ES   1    519 49.33                             133   -0.77 7  142 258 
 CHI  HZ EP   1    519 41.12                             117    0.32 6  248 194 
 CHI  HZ I         520 13.37         2.6 0.31                           248 194 
                                                                                
