 2014 1112 0306  0.1 L   6.748 -73.222141.2  RSN  4 0.6 1.0LRSN                1
 GAP=220        1.67      12.8    12.0 13.5  0.7628E+02  0.2178E+02  0.1111E+02E
 Epicentro: ZAPATOCA - SANTANDER                                               3
 ACTION:UPD 14-12-19 15:42 OP:nd   STATUS:               ID:20141112030600 L   I
 OLDACT:UP  14-11-14 10:06 OP:CF   STATUS:               ID:20141112030600 L   3
 OLDACT:ARG 14-11-12 12:06 OP:stll STATUS:               ID:20141112025742     3
 2014-11-12-0257-42M.COL___289                                                 6
 STAT SP IPHASW D HRMM SECON CODA AMPLIT PERI AZIMU VELO AIN AR TRES W  DIS CAZ7
 BAR2 SZ EP        3 6 18.15                             172   -0.8810 17.8 166 
 BAR2 SZ ES        3 6 33.54                             172   -0.2910 17.8 166 
 BAR2 SZ I         3 6 34.61         2.6 0.22            171           17.8 166 
 BRR  HZ EP        3 6 19.91                             153   -0.5710 67.1 306 
 BRR  HE ES        3 6 37.34                             153    0.9310 67.1 306 
 RUS  HZ EP        3 6 23.94                             144    0.9310 95.9 171 
 RUS  HN ES        3 6 40.92                             144   -0.0010 95.9 171 
 RUS  HZ I         3 6 41.90         1.2 0.22            144           95.9 171 
 PTB  HZ EP        3 6 26.20                             133    0.40 9  138 260 
 PTB  HN ES        3 6 45.35                             133   -0.54 9  138 260 
 PTB  HZ I         3 6 47.93         1.3 0.18            132            138 260 
                                                                                
