 2013 1212 0736  7.3 L   6.760 -73.185146.4  RSN  6 0.4 1.3LRSN                1
 GAP=197        1.02       4.5     6.4  8.1  0.6766E+01  0.4679E+01 -0.5745E+01E
 Epicentro: VILLANUEVA - SANTANDER                                             3
 ACTION:UPD 14-01-13 10:17 OP:ep   STATUS:               ID:20131212073607 L   I
 OLDACT:REG 13-12-12 07:09 OP:jn   STATUS:               ID:20131212073000     3
 2013-12-12-0730-00M.COL___285                                                 6
 STAT SP IPHASW D HRMM SECON CODA AMPLIT PERI AZIMU VELO AIN AR TRES W  DIS CAZ7
 BAR2 SZ EP        736 26.66                             172   -0.2710 18.5 179 
 BAR2 SZ ES        736 41.82                             172   -0.4110 18.5 179 
 BAR2 SZ I         736 42.67         6.2 0.22            172           18.5 179 
 BRR  HZ EP        736 28.48                             153    0.0310 69.8 303 
 BRR  HN ES        736 45.36                             153    0.4210 69.8 303 
 BRR  HZ I         736 46.56         3.8 0.26            153           69.8 303 
 RUS  HZ EP        736 31.14                             145    0.3010 96.6 173 
 RUS  HN ES        736 49.24                             145    0.0510 96.6 173 
 RUS  HZ I         736 50.33         1.6 0.34            146           96.6 173 
 PTB  HZ EP        736 33.32                             133   -0.55 9  143 260 
 PTB  HN ES        736 54.11                             133   -0.48 9  143 260 
 PTB  HZ I         736 56.65         2.7 0.18            133            143 260 
 SPBC HN ES        736 57.76                             130    0.67 9  157 219 
 SML  HN ES        737 13.37                             117    0.36 8  246 337 
                                                                                
