 2013  512 0453 19.5 L   6.836 -73.186142.4  RSN  8 0.4 1.7LRSN                1
 GAP=130        0.88       4.1     6.3  8.6 -0.1741E+01  0.1955E+02 -0.1009E+02E
 Epicentro: ZAPATOCA - SANTANDER                                               3
 ACTION:UPD 13-06-20 09:49 OP:ep   STATUS:               ID:20130512045319 L   I
 2013-05-12-0450-00M.COL___256                                                 6
 STAT SP IPHASW D HRMM SECON CODA AMPLIT PERI AZIMU VELO AIN AR TRES W  DIS CAZ7
 BAR2 SZ EP        453 38.64                             169   -0.1210 27.0 179 
 BAR2 SZ ES   1    453 53.24                             169   -0.58 7 27.0 179 
 BAR2 SZ I         453 55.16         7.1 0.22            170           27.0 179 
 BRR  HZ EP        453 40.75                             154    0.8310 65.4 297 
 BRR  HN ES   4    453 57.25                             154    1.37 0 65.4 297 
 BRR  HZ I         454  1.75         6.1 0.14            151           65.4 297 
 PAM  SZ EP   1    453 41.12                             150   -0.19 7 77.3  44 
 PAM  SN ES   1    453 58.60                             150    0.24 7 77.3  44 
 PAM  SZ I         454  0.64        10.8 0.58            153           77.3  44 
 RUS  HZ EP   1    453 43.49                             142    0.28 7  105 174 
 RUS  HN ES   1    454  1.66                             142   -0.07 7  105 174 
 RUS  HZ I         454  3.31         8.2 0.32            146            105 174 
 PTB  HZ EP   1    453 45.29                             132   -0.55 7  144 257 
 PTB  HN ES   1    454  6.54                             132    0.13 7  144 257 
 PTB  HZ I         454  9.21         6.6 0.18            132            144 257 
 OCA  HN ES   1    454  8.59                             130   -0.05 7  156 355 
 OCA  HZ I         454 14.10         9.4 0.18            131            156 355 
 SML  HZ EP        453 54.89                             117   -0.41 8  238 336 
 SML  HN ES   1    454 23.18                             117   -0.08 6  238 336 
 SML  HZ I         454 29.25         6.6 0.24            118            238 336 
 PRA  HZ EP   4    454 13.63                             106    0.61 0  393 209 
 PRA  HN ES   4    454 52.12                             106   -2.68 0  393 209 
 PRA  HZ I         455  1.71         2.7 0.30            108            393 209 
                                                                                
