 2013 1112 0205 47.0 L   6.707 -73.544107.1  RSN  9 0.4 1.8LRSN                1
 GAP= 67        1.04       3.0     3.9  6.8 -0.1848E+01  0.1068E+02 -0.3832E+01E
 Epicentro: EL CARMEN DE CHUCURI - SANTANDER                                   3
 ACTION:UPD 14-01-09 16:27 OP:ep   STATUS:               ID:20131112020547 L   I
 OLDACT:REG 13-11-12 08:45 OP:nd   STATUS:               ID:20131112020000     3
 2013-11-12-0200-00M.COL___273                                                 6
 STAT SP IPHASW D HRMM SECON CODA AMPLIT PERI AZIMU VELO AIN AR TRES W  DIS CAZ7
 BAR2 SZ EP        2 6  3.33                             157    0.5810 41.9 108 
 BAR2 SZ ES        2 6 15.53                             157    0.5310 41.9 108 
 BAR2 SZ I         2 6 17.50        32.2 0.24            161           41.9 108 
 BRR  HZ EP     C  2 6  3.02                             154    0.3110 48.0 337 
 BRR  HN ES        2 6 14.83                             154   -0.0910 48.0 337 
 BRR  HZ I         2 6 17.27        10.9 0.66            153           48.0 337 
 PTB  HZ EP     C  2 6  6.32                             133   -0.4510  103 260 
 PTB  HN ES   4    2 6 20.57                             133   -1.58 0  103 260 
 PTB  HZ I         2 6 22.17        12.7 0.14            133            103 260 
 RUS  HZ EP        2 6  7.97                             133    0.4810  104 150 
 RUS  HN ES        2 6 23.14                             133   -0.3110  104 150 
 RUS  HZ I         2 6 25.72        14.6 0.58            136            104 150 
 PAM  SZ EP        2 6  8.24                             129   -0.4510  117  53 
 PAM  SN ES        2 6 24.83                             129   -0.7510  117  53 
 PAM  SZ I         2 6 27.09         7.7 0.16            131            117  53 
 SPBC HZ EP   2    2 6 10.02                             125    0.50 5  131 207 
 SPBC HN ES        2 6 27.10                             125    0.0510  131 207 
 SPBC HZ I         2 6 29.09        10.2 0.16            127            131 207 
 ZAR  HZ EP        2 6 13.65                             118    0.21 9  169 301 
 ZAR  HN ES   2    2 6 34.07                             118    0.03 5  169 301 
 ZAR  HZ I         2 6 38.07         7.6 0.24            118            169 301 
 NOR  HZ EP   2    2 6 16.34                             114    0.13 4  194 229 
 NOR  HN ES        2 6 38.29                             114   -0.66 9  194 229 
 NOR  HZ I         2 6 42.50         4.1 0.16            115            194 229 
 SML  HZ EP        2 6 21.32                             109    0.06 8  239 346 
 SML  HN ES        2 6 48.24                             109    0.30 8  239 346 
 SML  HZ I         2 6 54.05         7.7 0.06            110            239 346 
                                                                                
