 2016  912 0412 29.8 L   6.798 -73.147146.4  RSN  6 0.4 1.4LRSN                1
 GAP=136        1.05       4.0     6.4  8.0 -0.8778E+01  0.1914E+02 -0.4751E+01E
 Epicentro: LOS SANTOS - SANTANDER                                             3
 ACTION:UPD 17-08-17 21:09 OP:lp   STATUS:               ID:20160912041229 L   I
 OLDACT:REG 16-09-12 15:33 OP:and  STATUS:               ID:20160912040739     3
 2016-09-12-0408-00M.COL___300                                                 6
 STAT SP IPHASW D HRMM SECON CODA AMPLIT PERI AZIMU VELO AIN AR TRES W  DIS CAZ7
 BAR2 EZ ES        413  5.41                             171    0.5910 23.1 190 
 BAR2 EZ I         413  6.83         5.2 0.23            170           23.1 190 
 PAM  EN ES        413  9.48                             151    0.0310 77.7  40 
 PAM  EZ I         413 11.52         5.2 0.54            154           77.7  40 
 RUS  HZ EP        412 53.53                             144   -0.0310  100 176 
 RUS  HN ES        413 11.45                             144   -0.6710  100 176 
 RUS  HZ I         413 13.53         1.6 0.40            149            100 176 
 PTB  HZ EP        412 56.50                             132   -0.26 9  148 259 
 PTB  HN ES        413 17.67                             132   -0.15 9  148 259 
 PTB  HZ I         413 24.69         4.0 0.32            132            148 259 
 OCA  HZ EP        412 58.73                             130    0.59 9  160 353 
 OCA  HE ES        413 19.73                             130   -0.54 9  160 353 
 OCA  HZ I         413 25.30         4.6 0.22            131            160 353 
 SPBC HZ EP        412 58.36                             129    0.08 9  163 219 
 SPBC HE ES        413 20.91                             129    0.39 9  163 219 
 SPBC HZ I         413 23.81         3.7 0.12            131            163 219 
                                                                                
