 2012  312 0014 48.2 L   6.727 -73.150132.1  RSN  5 0.4 1.1LRSN                1
 GAP=231        0.86       8.4     8.0 10.1  0.4243E+02  0.9204E+01 -0.3112E+01E
 ACTION:UP  12-03-31 23:19 OP:EP   STATUS:               ID:20120312001448 L   I
 2012-03-12-0010-00M.COL___187                                                 6
 STAT SP IPHASW D HRMM SECON CODA AMPLIT PERI AZIMU VELO SNR AR TRES W  DIS CAZ7
 BAR2 SZ EP   1    015  5.80                             173    -0.2 7   15 193 
 BAR2 SZ ES   1    015 19.41                             173    -0.5 7   15 193 
 BAR2 SZ I         015 22.90         4.1 0.17                            15 193 
 BRR  HZ EP   1    015  8.15                             149     0.0 7   75 304 
 BRR  HZ I         015 22.94         4.0 0.41                            75 304 
 BRR  HE ES   1    015 24.10                             149     0.4 7   75 304 
 RUS  HZ EP   1    015  9.95                             143    -0.1 7   93 175 
 RUS  HN ES   1    015 27.61                             143     0.6 7   93 175 
 RUS  HZ I         015 29.39         1.7 0.29                            93 175 
 PTB  HN ES   1    015 33.54                             129    -0.4 7  146 262 
 ZAR  HN ES   1    015 45.15                             119     0.2 6  207 294 
                                                                                
