 2014  212 0949 46.9 L   6.874 -73.301126.0  RSN  7 0.4 1.7LRSN                1
 GAP=158        1.01       3.6     5.5  7.5 -0.3925E+01  0.7587E+01 -0.8765E+00E
 Epicentro: BETULIA - SANTANDER                                                3
 ACTION:UPD 14-03-10 08:09 OP:ep   STATUS:               ID:20140212094946 L   I
 OLDACT:REG 14-02-12 08:23 OP:carl STATUS:               ID:20140212095000     3
 2014-02-12-0950-00M.COL___199                                                 6
 STAT SP IPHASW D HRMM SECON CODA AMPLIT PERI AZIMU VELO AIN AR TRES W  DIS CAZ7
 BAR2 SZ EP        950  4.63                             164    0.2010 33.8 157 
 BAR2 SZ ES        950 18.18                             164    0.0610 33.8 157 
 BAR2 SZ I         950 19.13        40.5 0.31            165           33.8 157 
 RUS  HZ EP        950  9.67                             136    0.0710  111 167 
 RUS  HN ES   1    950 26.95                             136   -0.38 7  111 167 
 PTB  HZ EP        950  9.91                             130   -0.9810  133 254 
 PTB  HN ES        950 30.16                             130    0.5310  133 254 
 PTB  HZ I         950 31.73         5.4 0.28            129            133 254 
 OCA  HZ EP        950 13.04                             127    0.24 9  151 359 
 OCA  HN ES        950 32.93                             127   -0.09 9  151 359 
 OCA  HZ I         950 35.90         9.5 0.48            127            151 359 
 SPBC HZ EP        950 13.30                             125   -0.29 9  160 212 
 SPBC HN ES   1    950 34.03                             125   -0.40 7  160 212 
 SPBC HZ I         950 37.66         6.5 0.11            124            160 212 
 NOR  HN ES   1    950 47.26                             115    0.39 6  226 230 
 NOR  HZ I         950 52.86         4.2 0.19            115            226 230 
 CHI  HZ EP        950 24.69                             112    0.68 8  253 191 
 CHI  HN ES   2    950 53.22                             112    0.24 4  253 191 
 CHI  HZ I         950 56.61         1.8 0.43            113            253 191 
                                                                                
