 2016  712 0117 31.5 L   6.777 -73.130152.2  RSN  9 0.4 1.8LRSN                1
 GAP=237        0.98       5.3     5.5  6.7  0.2941E+01  0.7787E+01  0.5296E+01E
 Epicentro: LOS SANTOS - SANTANDER                                             3
 ACTION:UPD 17-03-29 16:49 OP:lp   STATUS:               ID:20160712011731 L   I
 OLDACT:REG 16-07-12 11:57 OP:lv   STATUS:               ID:20160712010759     3
 2016-07-12-0107-59S.COL___331                                                 6
 STAT SP IPHASW D HRMM SECON CODA AMPLIT PERI AZIMU VELO AIN AR TRES W  DIS CAZ7
 BAR2 EZ EP        117 51.91                             172    0.0310 21.2 196 
 BAR2 EZ ES        118  7.71                             172   -0.0610 21.2 196 
 BAR2 EZ I         118  9.50        12.0 0.16            167           21.2 196 
 BRR  HZ IP     C  117 53.75                             153    0.2310 73.9 300 
 BRR  HN ES        118 11.16                             153    0.4910 73.9 300 
 BRR  HZ I         118 14.10         5.7 0.19            149           73.9 300 
 RUS  HZ EP        117 55.85                             146    0.1310 97.9 177 
 RUS  HN ES        118 14.21                             146   -0.3910 97.9 177 
 RUS  HZ I         118 16.22         3.8 0.22            146           97.9 177 
 PTB  HZ EP        117 58.59                             133   -0.53 9  149 260 
 PTB  HN ES        118 19.82                             133   -0.83 9  149 260 
 PTB  HZ I         118 25.84         7.7 0.12            131            149 260 
 SPBC HZ EP        118  0.84                             131    0.41 9  162 220 
 SPBC HN ES        118 23.43                             131    0.44 9  162 220 
 SPBC HZ I         118 28.75        14.3 0.14            130            162 220 
 ZAR  HZ EP   4    118  6.04                             123    1.39 0  207 293 
 ZAR  HN ES   2    118 30.83                             123    0.34 4  207 293 
 ZAR  HZ I         118 36.39         7.3 0.21            123            207 293 
 NOR  HZ EP        118  7.24                             120   -0.38 8  235 235 
 NOR  HN ES        118 36.03                             120    0.25 8  235 235 
 NOR  HZ I         118 39.57         6.0 0.36            120            235 235 
 GUY2CHZ EP   4    118 18.42                             114    3.00 0  301 235 
 GUY2CHN ES   4    118 50.73                             114    1.06 0  301 235 
 GUY2CHZ I         118 58.78         4.6 0.35                           301 235 
 PRA  HZ EP   4    118 26.83                             108    1.72 0  391 210 
 PRA  HE ES   2    119  7.68                             108    0.78 3  391 210 
 PRA  HZ I         119 13.71         3.3 0.20            108            391 210 
                                                                                
