 2015  712 0239 42.5 L   6.801 -73.134140.9  RSN 12 0.6 2.0LRSN                1
 GAP=138        1.24       3.3     6.1  7.9 -0.5541E+01  0.2055E+02  0.2254E+01E
 Epicentro: LOS SANTOS - SANTANDER                                             3
 ACTION:UPD 15-09-08 21:48 OP:cam  STATUS:               ID:20150712023942 L   I
 OLDACT:REG 15-07-12 13:02 OP:ar   STATUS:               ID:20150712023750     3
 2015-07-12-0237-50M.COL___340                                                 6
 STAT SP IPHASW D HRMM SECON CODA AMPLIT PERI AZIMU VELO AIN AR TRES W  DIS CAZ7
 BAR2 EZ EP        240  2.07                             170    0.5610 23.7 193 
 BAR2 EZ ES        240 16.20                             170   -0.1610 23.7 193 
 BAR2 EZ I         240 18.55        19.2 0.32            169           23.7 193 
 PAM  EZ EP        240  4.54                             150    0.4410 76.5  39 
 PAM  EN ES        240 21.34                             150    0.3610 76.5  39 
 PAM  EZ I         240 23.67        20.8 0.42            154           76.5  39 
 RUS  HN ES   2    240 24.29                             143    0.41 5  101 177 
 RUS  HZ I         240 25.26        12.9 0.30            145            101 177 
 OCA  HZ EP        240  9.87                             128   -0.53 9  160 353 
 OCA  HN ES        240 31.33                             128   -0.86 9  160 353 
 OCA  HZ I         240 35.01        18.1 0.57            131            160 353 
 ZAR  HE ES        240 39.58                             121   -0.29 8  205 292 
 ZAR  HZ I         240 44.76         9.0 0.42            122            205 292 
 NOR  HE ES        240 45.75                             117   -0.03 8  236 235 
 NOR  HZ I         240 48.38         6.8 0.40            119            236 235 
 SML  HZ EP        240 18.56                             116   -0.30 8  244 335 
 SML  HN ES        240 47.88                             116    0.62 8  244 335 
 SML  HZ I         240 49.84        17.5 0.26            118            244 335 
 CHI  HZ EP        240 19.74                             116   -0.20 8  249 195 
 CHI  HN ES        240 48.49                             116   -0.68 8  249 195 
 CHI  HZ I         240 52.46         5.9 0.42            118            249 195 
 ROSC BE ES        240 49.25                             116   -0.74 8  254 211 
 ROSC BZ I         240 55.06         8.7 0.50            117            254 211 
 URE  HE ES   4    240 52.05                             112   -3.33 0  285 292 
 GUY2CHZ EP        240 26.40                             111    0.43 7  302 235 
 GUY2CHN ES        241  1.18                             111    1.27 7  302 235 
 GUY2CHZ I         241  7.59         4.1 0.26                           302 235 
 TOL  SZ EP        240 31.45                             108    0.81 7  345 225 
 PRA  HZ EP        240 35.40                             106   -0.50 6  393 210 
 PRA  HN ES        241 17.10                             106   -0.48 6  393 210 
 PRA  HZ I         241 21.32         3.2 0.26            107            393 210 
                                                                                
