 2016  512 0234 20.8 L   6.766 -73.158155.3  RSN  6 0.3 1.5LRSN                1
 GAP=233        0.81       4.7     4.9  6.0  0.8955E+01  0.3978E+01  0.1378E+01E
 Epicentro: LOS SANTOS - SANTANDER                                             3
 ACTION:UPD 16-08-18 17:45 OP:cam  STATUS:               ID:20160512023420 L   I
 OLDACT:REG 16-05-12 12:12 OP:drio STATUS:               ID:20160512022747     3
 2016-05-12-0227-47M.COL___307                                                 6
 STAT SP IPHASW D HRMM SECON CODA AMPLIT PERI AZIMU VELO AIN AR TRES W  DIS CAZ7
 BAR2 EZ EP        234 41.11                             173   -0.4010 19.4 188 
 BAR2 EZ ES        234 57.83                             173    0.1710 19.4 188 
 BAR2 EZ I         234 59.00         3.5 0.40            165           19.4 188 
 BRR  HZ EP        234 43.20                             154    0.1810 71.9 302 
 BRR  HE ES        235  0.66                             154    0.3010 71.9 302 
 BRR  HZ I         235  2.95         5.5 0.22            150           71.9 302 
 RUS  HZ EP        234 45.21                             147   -0.0410 96.9 175 
 RUS  HE ES        235  4.05                             147   -0.2710 96.9 175 
 RUS  HZ I         235  4.71         1.9 0.40            145           96.9 175 
 PTB  HZ EP        234 48.24                             134   -0.15 9  146 260 
 PTB  HN ES        235  9.37                             134   -0.53 9  146 260 
 PTB  HZ I         235 15.12         4.2 0.40            131            146 260 
 SPBC HZ EP        234 50.21                             132    0.51 9  159 219 
 SPBC HE ES        235 12.60                             132    0.35 9  159 219 
 SPBC HZ I         235 21.00         4.6 0.28            129            159 219 
 ZAR  HZ EP   4    234 56.81                             124    2.91 0  204 293 
 ZAR  HE ES        235 19.66                             124   -0.07 9  204 293 
 ZAR  HZ I         235 25.32         4.4 0.40            123            204 293 
                                                                                
