 2010  312 0207 19.1 L   6.794 -73.028150.0  RSN  7 0.2 2.1LRSN                1
 GAP=195        0.47       2.7     4.7  3.6  0.2475E+01  0.1197E+01  0.1198E+01E
 Epicentro: CEPITA - SANTANDER                                                 3
 ACTION:UP  10-08-24 09:53 OP:vdl  STATUS:               ID:20100312020719 L   I
 2010-03-12-0204-17S.COL___094                                                 6
 STAT SP IPHASW D HRMM SECON CODA AMPLIT PERI AZIMU VELO SNR AR TRES W  DIS CAZ7
 BAR2 SZ EP        2 7 39.37                             169     0.110   28 218 
 BAR2 SZ ES   1    2 7 54.85                             169    -0.3 7   28 218 
 BRR  HZ EP        2 7 41.25                             149    -0.110   83 295 
 BRR  HZ I         2 7 42.87        18.4 0.26                            83 295 
 BRR  HN ES        2 7 58.84                             149     0.010   83 295 
 RUS  BZ EP        2 7 43.30                             145     0.110  100 184 
 RUS  BE ES   1    2 8  2.14                             145     0.1 7  100 184 
 RUS  BZ I         2 8  3.15        11.6 0.27                           100 184 
 OCA  SZ EP   1    2 7 47.83                             130    -0.1 7  163 349 
 OCA  SZ ES   2    2 8 10.82                             130     0.3 5  163 349 
 OCA  SZ I         2 8 20.42        19.9 0.23                           163 349 
 HEL  HZ EP   1    2 8  1.14                             114     0.3 6  285 257 
 HEL  HZ I         2 8 37.27         4.8 0.45                           285 257 
 RREF BZ EP   1    2 8  6.76                             111     0.3 5  331 231 
 RREF BE ES   2    2 8 43.29                             111    -0.2 3  331 231 
 RREF BZ I         2 8 50.85         5.9 0.34                           331 231 
 PRA  HZ EP   1    2 8 12.84                             107    -0.6 4  398 211 
 PRA  HE ES   2    2 8 55.73                             107    -0.1 3  398 211 
 PRA  HZ I         2 9  1.04         6.4 0.38                           398 211 
                                                                                
