 2016  112 0117 23.3 L   7.286 -72.976170.0  RSN  9 0.6 1.9LRSN                1
 GAP=105        1.34       4.8     6.7  8.2  0.3570E+01  0.8712E+01  0.1028E+01E
 Epicentro: CHARTA - SANTANDER                                                 3
 ACTION:UPD 16-03-09 23:24 OP:cam  STATUS:               ID:20160112011723 L   I
 OLDACT:DUP 16-01-12 15:09 OP:mher STATUS:               ID:20160112010749d    3
 2016-01-12-0107-47M.COL___265                                                 6
 STAT SP IPHASW D HRMM SECON CODA AMPLIT PERI AZIMU VELO AIN AR TRES W  DIS CAZ7
 PAM  EZ EP        117 46.71                             169    0.3310 31.1  79 
 PAM  EN ES        118  3.75                             169   -0.6410 31.1  79 
 PAM  EZ I         118  6.29         4.9 0.28            173           31.1  79 
 BAR2 EZ EP        117 48.35                             154    0.4310 80.0 197 
 BAR2 EZ ES        118  6.57                             154   -0.5510 80.0 197 
 BAR2 EZ I         118 11.12        13.3 0.18            155           80.0 197 
 BRR  HZ EP        117 48.47                             152    0.7010 83.6 256 
 BRR  HN ES        118  7.66                             152    0.8010 83.6 256 
 BRR  HZ I         118  9.55         7.3 0.66            152           83.6 256 
 OCA  HZ EP        117 50.10                             145    0.3210  112 340 
 OCA  HN ES        118 10.74                             145    0.3010  112 340 
 OCA  HZ I         118 13.39        26.8 0.36            145            112 340 
 RUS  HZ EP        117 53.78                             136    0.21 9  155 184 
 RUS  HN ES        118 16.85                             136   -0.32 9  155 184 
 RUS  HZ I         118 19.52         3.7 0.28            139            155 184 
 PTB  HZ EP        117 55.45                             130   -0.02 9  183 243 
 PTB  HN ES        118 20.37                             130   -0.19 9  183 243 
 PTB  HZ I         118 22.03         8.2 0.36            132            183 243 
 SML  HZ EP   1    117 56.95                             127   -0.70 6  206 324 
 SML  HN ES        118 23.46                             127   -0.99 8  206 324 
 SML  HZ I         118 31.54         8.5 0.24            128            206 324 
 ZAR  HN ES        118 24.98                             126    0.06 8  209 276 
 ZAR  HZ I         118 31.01         8.4 0.36            127            209 276 
 GUY2CHZ EP        118 12.31                             113   -1.12 6  349 229 
 GUY2CHN ES   4    118 54.22                             113    1.69 0  349 229 
 GUY2CHZ I         119  4.32         4.0 0.48                           349 229 
                                                                                
