 2014  412 0532 27.1 L   6.816 -73.136147.1  RSN 10 0.4 1.8LRSN                1
 GAP=137        1.00       2.7     4.1  6.9 -0.1785E+01  0.9441E+01  0.1019E+01E
 Epicentro: LOS SANTOS - SANTANDER                                             3
 ACTION:UPD 14-05-13 23:07 OP:nd   STATUS:               ID:20140412053227 L   I
 OLDACT:DUP 14-04-12 18:14 OP:stll STATUS:               ID:20140412052819d    3
 2014-04-12-0528-18M.COL___230                                                 6
 STAT SP IPHASW D HRMM SECON CODA AMPLIT PERI AZIMU VELO AIN AR TRES W  DIS CAZ7
 PAM  SZ EP        532 49.76                             152    0.3910 75.3  40 
 PAM  SN ES        533  7.06                             152    0.3510 75.3  40 
 PAM  HZ I         533  8.82         7.0 0.54            151           75.3  40 
 RUS  HZ EP        532 50.94                             144   -0.2010  102 177 
 RUS  HZ I         533  8.78         7.2 2.60            139            102 177 
 RUS  HN ES        533  9.66                             144   -0.2110  102 177 
 PTB  HZ EP        532 53.76                             132   -0.58 9  149 258 
 PTB  HN ES        533 15.23                             132   -0.34 9  149 258 
 PTB  HZ I         533 16.36         7.8 1.80            131            149 258 
 OCA  HN ES        533 17.48                             130    0.04 9  159 353 
 SPBC HZ EP        532 55.87                             129   -0.07 9  165 219 
 SPBC HE ES        533 18.14                             129   -0.26 9  165 219 
 SPBC HZ I         533 20.36         7.5 1.02            127            165 219 
 ZAR  HZ EP        532 59.89                             123    0.19 9  204 292 
 ZAR  HE ES        533 25.28                             123    0.17 9  204 292 
 ZAR  HZ I         533 31.90         3.9 0.30            122            204 292 
 NOR  HZ EP        533  2.84                             118   -0.31 8  237 234 
 NOR  HN ES        533 31.12                             118   -0.13 8  237 234 
 NOR  HZ I         533 38.64         6.2 1.48            117            237 234 
 SML  HZ EP        533  3.20                             118   -0.51 8  243 335 
 SML  HE ES        533 32.08                             118   -0.16 8  243 335 
 SML  HZ I         533 34.81         7.2 0.28            117            243 335 
 CHI  HZ EP        533  4.82                             117   -0.31 8  251 195 
 CHI  HN ES        533 35.07                             117    0.31 8  251 195 
 CHI  HZ I         533 47.15         4.0 1.64            115            251 195 
 GUY2CHZ EP        533 12.18                             112    1.15 7  303 235 
 GUY2CHN ES        533 46.38                             112    1.12 7  303 235 
 GUY2CHZ I         533 52.42         4.0 1.48                           303 235 
                                                                                
