 2017  512 0641 24.7 L   6.792 -73.156136.9  RSN  5 0.3 0.7LRSN                1
 GAP=136        0.71       3.5     3.1  6.3  0.7485E+00  0.3880E+01  0.2566E+01E
 Epicentro: LOS SANTOS - SANTANDER                                             3
 ACTION:UPD 17-06-16 13:35 OP:jn   STATUS:               ID:20170512064124 L   I
 OLDACT:UP  17-05-12 19:36 OP:osc  STATUS:               ID:20170512063738     3
 OLDACT:REG 17-05-12 13:15 OP:osc  STATUS:               ID:20170512063738     3
 2017-05-12-0638-00M.COL___362                                                 6
 STAT SP IPHASW D HRMM SECON CODA AMPLIT PERI AZIMU VELO AIN AR TRES W  DIS CAZ7
 BRR  HZ EP        641 45.01                             151    0.2010 70.6 300 
 BRR  HN ES        642  0.78                             151    0.2410 70.6 300 
 BRR  HZ I         642  2.29         2.3 0.45            152           70.6 300 
 PAM  EZ EP        641 46.16                             149    0.1410 78.8  40 
 PAM  EN ES        642  2.44                             149   -0.2510 78.8  40 
 RUS  HZ EP        641 47.07                             142   -0.4110 99.8 175 
 RUS  HN ES        642  5.49                             142    0.2010 99.8 175 
 RUS  HZ I         642  6.65         0.5 0.14            143           99.8 175 
 PTB  HZ EP        641 51.13                             130    0.34 9  146 259 
 PTB  HN ES        642 10.86                             130   -0.32 9  146 259 
 ZAR  HN ES        642 21.07                             120   -0.20 9  203 292 
                                                                                
