 2015 1012 0602 34.5 L   6.322 -73.573 96.0  RSN  7 0.4 1.5LRSN                1
 GAP=111        0.94       2.5     4.4  6.8 -0.3222E+01  0.1142E+02 -0.1727E+01E
 Epicentro: SANTA HELENA DEL OPON - SANTANDER                                  3
 ACTION:UPD 15-12-22 20:39 OP:cam  STATUS:               ID:20151012060234 L   I
 OLDACT:UP  15-10-12 18:02 OP:ak   STATUS:               ID:20151012055738     3
 OLDACT:UP  15-10-12 18:01 OP:ak   STATUS:               ID:20151012055738     3
 OLDACT:UP  15-10-12 18:00 OP:ak   STATUS:               ID:20151012055738     3
 OLDACT:REG 15-10-12 16:10 OP:ak   STATUS:               ID:20151012055738     3
 2015-10-12-0557-38M.COL___334                                                 6
 STAT SP IPHASW D HRMM SECON CODA AMPLIT PERI AZIMU VELO AIN AR TRES W  DIS CAZ7
 BAR2 EZ EP   1    6 2 49.85                             149    0.23 7 52.5  55 
 BAR2 EZ ES        6 3  1.67                             149    0.2910 52.5  55 
 BAR2 EZ I         6 3  3.98        13.4 0.50            151           52.5  55 
 RUS  HZ EP        6 2 51.29                             141   -0.0710 72.1 131 
 RUS  HN ES        6 3  4.40                             141   -0.0810 72.1 131 
 BRR  HZ EP        6 2 51.30                             134   -0.7210 88.2 350 
 BRR  HN ES        6 3  5.32                             134   -0.3410 88.2 350 
 SPBC HZ EP        6 2 52.07                             133   -0.4610 92.4 217 
 SPBC HN ES        6 3  6.86                             133    0.3010 92.4 217 
 SPBC HZ I         6 3 10.49         4.5 0.17            135           92.4 217 
 CHI  HZ EP   1    6 3  3.02                             113    0.04 7  188 185 
 CHI  HN ES        6 3 25.16                             113   -0.00 9  188 185 
 OCA  HZ EP        6 3  5.93                             110    0.30 8  214   8 
 OCA  HN ES        6 3 30.52                             110    0.65 8  214   8 
 OCA  HZ I         6 3 36.50         6.0 0.34            109            214   8 
 GUY2CHN ES        6 3 34.92                             108    0.42 8  233 239 
                                                                                
