 2012 1212 0657 16.1 L   6.703 -73.218161.6  RSN  4 0.2 1.2LRSN                1
 GAP=213        0.45       5.1     4.9  5.9  0.1241E+02 -0.4043E+01 -0.2847E+01E
 Epicentro: VILLANUEVA - SANTANDER                                             3
 ACTION:UPD 13-01-04 14:27 OP:ep   STATUS:               ID:20121212065715 L   I
 2012-12-12-0654-12M.COL___191                                                 6
 STAT SP IPHASW D HRMM SECON CODA AMPLIT PERI AZIMU VELO AIN AR TRES W  DIS CAZ7
 BAR2 SZ EP   1    657 37.30                             175   -0.23 7 12.8 162 
 BRR  HZ EP   1    657 38.94                             155   -0.05 7 70.6 309 
 BRR  HN ES   1    657 56.95                             155    0.13 7 70.6 309 
 RUS  HZ EP   1    657 40.81                             149   -0.04 7 90.8 171 
 RUS  HN ES   1    658  0.23                             149    0.11 7 90.8 171 
 RUS  HZ I         658  0.86         1.7 0.26                          90.8 171 
 PTB  HZ EP   1    657 43.98                             137    0.34 7  138 263 
 PTB  HN ES   1    658  4.84                             137   -0.24 7  138 263 
 PTB  HZ I         658  7.45         3.0 0.42                           138 263 
                                                                                
