 2010  512 0718 55.1 L   7.558 -73.205137.7  RSN  5 0.4 1.1LRSN                1
 GAP=160        1.04      11.8    12.3 12.2 -0.9255E+02 -0.8316E+01  0.3261E+01E
 Epicentro: EL PLAYON - SANTANDER                                              3
 ACTION:UP  10-08-24 10:04 OP:vdl  STATUS:               ID:20100512071855 L   I
 2010-05-12-0717-09S.COL___104                                                 6
 STAT SP IPHASW D HRMM SECON CODA AMPLIT PERI AZIMU VELO AIN AR TRES W  DIS CAZ7
 GUE  SZ EP        719 14.10                             162    -0.310   43  46 
 BRI  SZ EP        719 15.25                             159     0.810   48  69 
 GRA  SZ EP        719 14.47                             156    -0.310   57  51 
 GRA  SZ ES   1    719 29.92                             156    -0.3 7   57  51 
 BRR  HZ EP        719 15.49                             150    -0.110   75 228 
 BRR  HN ES   1    719 31.55                             150     0.0 7   75 228 
 BRR  HZ I         719 42.89         2.6 0.48                            75 228 
 OCA  SZ EP        719 15.87                             149     0.010   76 350 
 OCA  SZ ES   2    719 32.49                             149     0.4 5   76 350 
 OCA  SZ I         719 35.31         2.4 0.52                            76 350 
                                                                                
