 2012  312 0535 29.1 L   6.747 -73.159148.7  RSN  8 0.4 1.8LRSN                1
 GAP=137        1.06       6.4     5.2  8.7 -0.4217E+01  0.1465E+02 -0.1171E+01E
 ACTION:UP  12-03-31 23:19 OP:EP   STATUS:               ID:20120312053529 L   I
 2012-03-12-0530-00M.COL___193                                                 6
 STAT SP IPHASW D HRMM SECON CODA AMPLIT PERI AZIMU VELO SNR AR TRES W  DIS CAZ7
 BAR2 SZ EP   1    535 49.13                             173     0.1 7   17 189 
 BAR2 SZ ES   1    536  4.68                             173     0.2 7   17 189 
 BAR2 SZ I         536  5.93        14.6 0.35                            17 189 
 BRR  HZ EP        535 51.01                             152     0.310   73 303 
 BRR  HZ I         535 51.33        32.5 0.20                            73 303 
 BRR  HN ES   1    536  8.40                             152     0.9 7   73 303 
 PAM  SZ EP   1    535 51.82                             150    -0.2 7   83  38 
 PAM  SN ES   1    536  8.87                             150    -0.9 7   83  38 
 PAM  SZ I         536 10.45         5.0 0.18                            83  38 
 RUS  HZ EP   1    535 53.09                             146     0.3 7   95 175 
 RUS  HN ES   1    536 11.14                             146    -0.1 7   95 175 
 RUS  HZ I         536 13.45         5.0 0.16                            95 175 
 PTB  HZ EP   1    535 55.79                             133    -0.3 7  145 261 
 PTB  HN ES        536 17.02                             133    -0.1 9  145 261 
 PTB  HZ I         536 18.87         6.7 0.20                           145 261 
 ZAR  HZ EP   1    536  2.24                             123     0.4 6  205 294 
 ZAR  HN ES   1    536 26.88                             123    -0.5 6  205 294 
 ZAR  HZ I         536 34.32        11.3 0.33                           205 294 
 NOR  SN ES   1    536 31.53                             120    -0.6 6  230 235 
 HEL  HZ EP   1    536  9.39                             116     0.2 6  269 257 
 HEL  HN ES   1    536 40.28                             116    -0.1 6  269 257 
 HEL  HZ I         536 47.49         4.0 0.34                           269 257 
                                                                                
