 2012 1112 0014  5.5 L   6.767 -73.149149.3  RSN  7 0.4 1.5LRSN                1
 GAP=138        0.80       5.3     4.8  7.3  0.1538E+01  0.6002E+01  0.1260E+01E
 Epicentro: LOS SANTOS - SANTANDER                                             3
 ACTION:UPD 12-12-05 15:32 OP:}ep  STATUS:               ID:20121112001405 L   I
 2012-11-12-0010-00M.COL___230                                                 6
 STAT SP IPHASW D HRMM SECON CODA AMPLIT PERI AZIMU VELO AIN AR TRES W  DIS CAZ7
 BAR2 SZ EP   1    014 25.42                             172   -0.11 7 19.7 191 
 BAR2 SZ ES   1    014 40.70                             172   -0.42 7 19.7 191 
 BAR2 SZ I         014 42.07        11.1 0.30                          19.7 191 
 GIR2 SZ EP   1    014 25.88                             166    0.15 7 34.8 352 
 GIR2 SZ ES   2    014 41.81                             166    0.33 5 34.8 352 
 BRR  HZ EP   1    014 27.54                             153    0.38 7 72.7 301 
 BRR  HN ES   1    014 44.81                             153    0.79 7 72.7 301 
 BRR  HZ I         014 51.66         5.6 0.15                          72.7 301 
 PAM  SZ EP   1    014 28.35                             150    0.03 7 80.4  38 
 PAM  SN ES   1    014 45.50                             150   -0.58 7 80.4  38 
 PAM  SZ I         014 47.69         4.1 0.20                          80.4  38 
 RUS  HZ EP   1    014 29.45                             145    0.06 7 97.0 176 
 RUS  HN ES   1    014 48.36                             145    0.37 7 97.0 176 
 RUS  HZ I         014 49.41         3.1 0.24                          97.0 176 
 PTB  HZ EP   1    014 32.46                             133   -0.25 7  147 260 
 PTB  HN ES   1    014 53.24                             133   -0.66 7  147 260 
 PTB  HZ I         014 59.37         4.3 0.17                           147 260 
 ZAR  HN ES   1    015  3.86                             123   -0.04 6  205 293 
 ZAR  HZ I         015  9.91         5.0 0.26                           205 293 
                                                                                
