 2014  212 0338 45.8 L   6.808 -73.146143.8  RSN  6 0.4 1.6LRSN                1
 GAP=183        1.10       4.4     6.8  8.1  0.1071E+01  0.5653E+01  0.2074E+01E
 Epicentro: LOS SANTOS - SANTANDER                                             3
 ACTION:UPD 14-03-10 08:09 OP:ep   STATUS:               ID:20140212033845 L   I
 OLDACT:REG 14-02-12 08:10 OP:carl STATUS:               ID:20140212033000     3
 2014-02-12-0330-00M.COL___199                                                 6
 STAT SP IPHASW D HRMM SECON CODA AMPLIT PERI AZIMU VELO AIN AR TRES W  DIS CAZ7
 BAR2 SZ EP        339  5.34                             170    0.1410 24.2 190 
 BAR2 SZ ES        339 20.32                             170   -0.0210 24.2 190 
 BAR2 SZ I         339 21.86        23.6 0.16            167           24.2 190 
 BRR  HZ EP        339  7.23                             152    0.5210 70.8 298 
 BRR  HN ES        339 23.62                             152    0.6010 70.8 298 
 BRR  HZ I         339 24.98        11.7 0.30            151           70.8 298 
 RUS  HZ EP        339  9.41                             143   -0.0010  101 176 
 RUS  HN ES        339 27.37                             143   -0.4610  101 176 
 RUS  HZ I         339 29.27         2.3 0.28            143            101 176 
 PTB  HZ EP        339 12.03                             132   -0.59 9  148 259 
 PTB  HN ES        339 32.94                             132   -0.60 9  148 259 
 PTB  HZ I         339 36.14         6.1 0.12            131            148 259 
 OCA  HN ES        339 35.35                             129   -0.42 9  159 353 
 SPBC HZ EP        339 14.59                             128    0.39 9  164 219 
 SPBC HN ES        339 36.71                             128    0.35 9  164 219 
 SPBC HZ I         339 42.97         4.3 0.18            128            164 219 
                                                                                
