 2010  712 0025 51.5 L   6.799 -73.037148.3  RSN 11 0.4 2.2LRSN                1
 GAP=168        0.84       4.0     7.7  6.7 -0.9901E+01 -0.1529E+01 -0.1570E+01E
 Epicentro: CEPITA - SANTANDER                                                 3
 ACTION:UPD 10-12-01 15:17 OP:pat  STATUS:               ID:20100712002551 L   I
 2010-07-12-0023-01S.COL___120                                                 6
 STAT SP IPHASW D HRMM SECON CODA AMPLIT PERI AZIMU VELO AIN AR TRES W  DIS CAZ7
 BAR2 SZ IP        026 11.42                             169    -0.110   28 215 
 BAR2 SZ ES   1    026 27.08                             169    -0.1 7   28 215 
 BAR2 SZ I         026 27.87        29.0 0.26                            28 215 
 BRR  HZ IP     D  026 13.29                             150    -0.310   82 295 
 BRR  HE ES   1    026 30.75                             150     0.0 7   82 295 
 BRR  HZ I         026 33.01        48.0 0.27                            82 295 
 RUS  HZ EP   1    026 15.46                             144     0.0 7  100 183 
 RUS  HE ES   1    026 34.32                             144     0.1 7  100 183 
 RUS  HZ I         026 35.06        14.8 0.35                           100 183 
 BRI  SZ EP   1    026 14.90                             143    -0.5 7  105  15 
 BRI  SZ I         026 36.56        10.6 0.23                           105  15 
 GUE  SZ EP   1    026 16.14                             140    -0.2 7  115   6 
 GUE  SZ I         026 40.45         9.4 0.08                           115   6 
 GRA  SZ IP        026 17.18                             138     0.410  123  12 
 GRA  SZ ES   2    026 37.14                             138     0.7 5  123  12 
 GRA  SZ I         026 42.25        12.1 0.34                           123  12 
 OCA  SZ EP   1    026 19.81                             130    -0.4 7  162 349 
 OCA  SZ ES   2    026 43.55                             130     1.0 5  162 349 
 OCA  SZ I         026 47.48        28.7 0.31                           162 349 
 CHI  HZ EP   2    026 30.11                             117     0.4 4  252 198 
 CHI  HZ I         027  8.30        12.8 0.40                           252 198 
 HEL  HZ EP   2    026 32.81                             114    -0.3 4  284 256 
 HEL  HZ I         027 10.08         7.7 0.30                           284 256 
 GUY  SE ES   2    027 11.89                             112     0.5 3  311 236 
 GUY  SZ I         027 21.04        34.2 0.28                           311 236 
 PRA  HZ EP   1    026 46.18                             107     0.4 4  398 211 
 PRA  HE ES   1    027 28.63                             107     0.5 4  398 211 
 PRA  HZ I         027 31.25        12.2 0.18                           398 211 
                                                                                
