 2014  212 0439 45.1 L   6.813 -73.150143.7  RSN 12 0.4 1.8LRSN                1
 GAP=183        0.99       2.6     4.0  5.7 -0.6226E+00  0.6102E+01 -0.5196E+00E
 Epicentro: LOS SANTOS - SANTANDER                                             3
 ACTION:UPD 14-03-10 08:09 OP:ep   STATUS:               ID:20140212043945 L   I
 OLDACT:REG 14-02-12 08:12 OP:carl STATUS:               ID:20140212044000     3
 2014-02-12-0440-00M.COL___199                                                 6
 STAT SP IPHASW D HRMM SECON CODA AMPLIT PERI AZIMU VELO AIN AR TRES W  DIS CAZ7
 BAR2 SZ EP        440  4.72                             170    0.1710 24.7 188 
 BAR2 SZ ES        440 19.99                             170    0.3010 24.7 188 
 BAR2 SZ I         440 22.56        14.5 0.24            166           24.7 188 
 RUS  HZ EP        440  8.99                             143    0.1910  102 176 
 RUS  HN ES        440 27.49                             143    0.2410  102 176 
 RUS  HZ I         440 28.27         6.1 0.24            144            102 176 
 PTB  HZ EP        440 11.36                             132   -0.57 9  148 258 
 PTB  HN ES        440 32.87                             132    0.05 9  148 258 
 PTB  HZ I         440 37.29         8.4 0.12            130            148 258 
 OCA  HZ EP        440 13.59                             129    0.44 9  159 353 
 OCA  HE ES        440 34.61                             129   -0.38 9  159 353 
 OCA  HZ I         440 38.67        10.0 0.22            131            159 353 
 SPBC HZ EP        440 13.65                             128    0.09 9  164 219 
 SPBC HN ES        440 35.22                             128   -0.52 9  164 219 
 SPBC HZ I         440 42.18        11.1 0.24            128            164 219 
 ZAR  HE ES        440 42.71                             122    0.23 9  203 292 
 ZAR  HN I         440 51.26        13.1 0.36            122            203 292 
 NOR  HZ EP        440 20.70                             118   -0.10 8  235 234 
 NOR  HE ES        440 49.18                             118    0.56 8  235 234 
 NOR  HZ I         440 55.49         5.9 0.28            118            235 234 
 SML  HZ EP        440 21.39                             117   -0.10 8  242 335 
 SML  HN ES        440 49.28                             117   -0.55 8  242 335 
 SML  HZ I         440 54.67         9.1 0.26            118            242 335 
 CHI  HZ EP        440 22.92                             117    0.05 8  250 195 
 CHI  HE ES        440 51.29                             117   -1.00 8  250 195 
 CHI  HZ I         441  1.82         2.2 0.36            118            250 195 
 HEL  HZ EP        440 25.26                             114    0.02 8  272 255 
 HEL  HN ES        440 56.16                             114   -0.36 8  272 255 
 HEL  HZ I         441  3.65         4.2 0.28            114            272 255 
 CBOC HZ EP        440 33.26                             109    1.29 7  334 252 
 CBOC HN ES        441  8.83                             109    0.33 7  334 252 
 CBOC HZ I         441 22.46         1.3 0.46            110            334 252 
 PRA  HZ EP        440 38.55                             106   -0.16 6  393 209 
 PRA  HN ES        441 20.33                             106   -0.17 6  393 209 
 PRA  HZ I         441 28.98         2.6 0.26            107            393 209 
                                                                                
