 2011  112 0100 48.4 L   6.794 -73.153142.5  RSN  6 0.2 1.5LRSN                1
 GAP=158        0.47       3.4     7.3  5.4 -0.1342E+02  0.6149E+01 -0.4385E+01E
 Epicentro: LOS SANTOS - SANTANDER                                             3
 ACTION:UP  11-02-08 08:40 OP:pat  STATUS:               ID:20110112010048 L   I
 2011-01-12-0057-40S.COL___136                                                 6
 STAT SP IPHASW D HRMM SECON CODA AMPLIT PERI AZIMU VELO SNR AR TRES W  DIS CAZ7
 BTL  SZ EP   1    1 1  7.92                             172     0.4 8   19 318 
 BTL  SZ ES   2    1 1 22.50                             172     0.0 5   19 318 
 BAR2 SZ EP   2    1 1  7.71                             171     0.1 5   23 189 
 BAR2 SZ ES   2    1 1 22.36                             171    -0.2 5   23 189 
 BAR2 SZ I         1 1 23.97        12.4 0.42                            23 189 
 RUS  HZ EP   1    1 1 11.62                             143    -0.1 8  100 176 
 RUS  HE ES   2    1 1 29.95                             143    -0.1 5  100 176 
 RUS  HZ I         1 1 31.57         2.6 0.27                           100 176 
 GRA  SZ EP        1 1 13.50                             136     0.110  127  18 
 GRA  SZ ES   1    1 1 32.93                             136     0.0 7  127  18 
 GRA  SZ I         1 1 35.42         5.9 0.19                           127  18 
 OCA  SZ EP   1    1 1 16.11                             129    -0.4 7  161 353 
 NOR  SN ES   2    1 1 51.46                             118     0.0 4  234 235 
                                                                                
