 2014  712 0716 48.9 L   6.085 -73.716106.1  RSN  4 0.4 1.2LRSN                1
 GAP=146        0.98       6.6     5.0 11.1  0.1687E+02 -0.5368E+01 -0.3429E+02E
 Epicentro: CHIPATA - SANTANDER                                                3
 ACTION:UPD 15-03-16 20:43 OP:nd   STATUS:               ID:20140712071648 L   I
 OLDACT:DUP 14-07-12 16:05 OP:stll STATUS:               ID:20140712070821d    3
 2014-07-12-0708-20M.COL___262                                                 6
 STAT SP IPHASW D HRMM SECON CODA AMPLIT PERI AZIMU VELO AIN AR TRES W  DIS CAZ7
 SPBC HZ EP        717  5.15                             147   -0.2910 62.0 220 
 SPBC HZ I         717  5.46         9.2 0.12            151           62.0 220 
 SPBC HN ES        717 18.80                             147    0.4710 62.0 220 
 RUS  HZ EP        717  7.02                             143    0.2310 73.2 107 
 RUS  HZ I         717  7.83         2.4 0.28            144           73.2 107 
 RUS  HE ES        717 20.61                             143   -0.1310 73.2 107 
 PTB  HZ EP        717  7.72                             134   -0.2610 96.1 302 
 PTB  HN ES        717 22.36                             134   -0.4910 96.1 302 
 PTB  HZ I         717 25.08         3.0 0.34            133           96.1 302 
 ZAR  HE ES        717 42.60                             112    0.63 9  200 321 
 ZAR  HZ I         717 47.08         2.8 0.46            112            200 321 
                                                                                
