 2016  912 0349 39.9 L   6.819 -73.170145.3  RSN 22 0.5 2.5LRSN                1
 GAP= 69        1.16       3.0     3.5  5.3 -0.1427E+01  0.4258E+01  0.3237E+01E
 Epicentro: LOS SANTOS - SANTANDER                                             3
 ACTION:UPD 17-08-17 21:09 OP:lp   STATUS:               ID:20160912034939 L   I
 OLDACT:UP  16-09-12 19:31 OP:ar   STATUS:               ID:20160912034737     3
 OLDACT:UP  16-09-12 19:29 OP:ar   STATUS:               ID:20160912034737     3
 OLDACT:REG 16-09-12 15:30 OP:and  STATUS:               ID:20160912034737     3
 2016-09-12-0348-00M.COL___303                                                 6
 STAT SP IPHASW D HRMM SECON CODA AMPLIT PERI AZIMU VELO AIN AR TRES W  DIS CAZ7
 BAR2 EZ EP        349 59.29                             170   -0.2210 25.1 183 
 BAR2 EZ ES        350 14.56                             170   -0.2510 25.1 183 
 BAR2 EZ I         350 15.49        97.5 0.22            167           25.1 183 
 BRR  HZ IP     C  350  1.13                             154    0.3210 67.8 298 
 BRR  HN ES        350 17.73                             154    0.6110 67.8 298 
 BRR  HZ I         350 22.16        48.9 0.34            151           67.8 298 
 PAM  EZ EP        350  2.30                             151    0.2310 77.6  42 
 PAM  EE ES        350 19.70                             151    0.3310 77.6  42 
 PAM  EZ I         350 21.28        47.6 0.46            155           77.6  42 
 RUS  HZ IP     C  350  3.29                             143   -0.4810  103 175 
 RUS  HN ES        350 22.36                             143   -0.0310  103 175 
 RUS  HZ I         350 22.94        47.6 0.28            143            103 175 
 PTB  HZ EP        350  5.83                             132   -0.79 9  146 258 
 PTB  HN ES        350 26.95                             132   -0.52 9  146 258 
 PTB  HZ I         350 34.07        38.3 0.46            131            146 258 
 TAM  HZ IP        350  7.80                             130   -0.03 9  158 105 
 OCA  HZ EP        350  7.70                             130   -0.24 9  158 354 
 OCA  HN ES        350 29.50                             130   -0.32 9  158 354 
 SPBC HZ EP        350  8.02                             129   -0.33 9  163 218 
 SPBC HN ES        350 31.05                             129    0.50 9  163 218 
 SPBC HZ I         350 37.31        59.7 0.28            128            163 218 
 ZAR  HZ EP        350 12.51                             123    0.54 9  201 292 
 ZAR  HN ES        350 36.75                             123   -0.24 9  201 292 
 ZAR  HZ I         350 42.67        30.0 0.36            122            201 292 
 NOR  HZ EP        350 15.38                             118   -0.11 8  234 234 
 NOR  HN ES        350 42.82                             118   -0.44 8  234 234 
 NOR  HZ I         350 47.98        25.1 0.32            118            234 234 
 CHI  HZ EP     D  350 17.66                             117   -0.05 8  250 194 
 CHI  HN ES        350 47.18                             117   -0.03 8  250 194 
 CHI  HZ I         350 50.09        20.0 0.40            117            250 194 
 ROSC BZ EP        350 19.17                             116    1.14 8  253 210 
 ROSC BN ES   4    350 50.48                             116    2.70 0  253 210 
 ROSC BZ I         350 54.75        28.5 0.35            116            253 210 
 HEL  HZ EP   4    350 21.37                             115    1.52 0  270 255 
 HEL  HN ES        350 51.87                             115    0.86 8  270 255 
 HEL  HZ I         350 58.93        15.8 0.34            115            270 255 
 URE  HZ EP        350 19.93                             114   -0.64 7  281 292 
 URE  HN ES   4    350 50.37                             114   -1.93 0  281 292 
 GUY2CHZ EP        350 24.35                             112    0.98 7  300 234 
 GUY2CHN ES   4    351  1.57                             112    4.29 0  300 234 
 GUY2CHZ I         351  4.51        13.9 0.64                           300 234 
 VIL  EZ EP        350 23.48                             112    0.02 7  305 191 
 VIL  EN ES        350 56.84                             112   -0.61 7  305 191 
 VIL  EZ I         351  6.21        17.7 0.54            112            305 191 
 PTGC HZ EP   4    350 22.55                             111   -1.51 0  312 158 
 PTGC HN ES   4    350 55.96                             111   -2.56 0  312 158 
 PTGC HZ I         351  1.33        17.0 0.26            112            312 158 
 ELA  HZ EP   4    350 28.46                             110    1.82 0  328 229 
 ELA  HN ES   4    351  7.08                             110    3.97 0  328 229 
 ELA  HZ I         351 18.62        10.8 0.58            110            328 229 
 CBOC HZ EP        350 27.25                             110    0.69 7  332 252 
 CBOC HN ES        351  2.16                             110   -0.81 7  332 252 
 CBOC HZ I         351  7.38         4.9 0.38            110            332 252 
 ANIL HZ EP   4    350 31.40                             108    1.77 0  357 224 
 ANIL HN ES        351  9.39                             108    0.96 6  357 224 
 ANIL HZ I         351 15.02        37.9 0.26            109            357 224 
 PAL  HZ EP        350 34.70                             106   -0.19 6  404 239 
 PAL  HN ES        351 17.33                             106   -0.46 6  404 239 
 PAL  HZ I         351 21.32         4.5 0.22            106            404 239 
 CRJC HZ EP   4    350 39.72                             103   -2.43 0  466   4 
 CRJC HN ES   4    351 27.54                             103   -3.17 0  466   4 
 CRJC HZ I         351 42.87        10.7 0.44            104            466   4 
                                                                                
