 2016 1212 0853 41.9 L   6.773 -73.132148.8  RSN  8 0.4 1.4LRSN                1
 GAP=164        0.79       3.9     4.4  4.8  0.7752E+01 -0.3027E+01 -0.5862E+00E
 Epicentro: LOS SANTOS - SANTANDER                                             3
 ACTION:UPD 17-01-11 20:14 OP:rebc STATUS:               ID:20161212085341 L   I
 OLDACT:REG 16-12-12 15:46 OP:and  STATUS:               ID:20161212084745     3
 2016-12-12-0848-00M.COL___390                                                 6
 STAT SP IPHASW D HRMM SECON CODA AMPLIT PERI AZIMU VELO AIN AR TRES W  DIS CAZ7
 BAR2 EZ EP        854  1.63                             172   -0.2410 20.8 195 
 BAR2 EZ ES        854 17.34                             172   -0.0910 20.8 195 
 BAR2 EZ I         854 18.44         5.9 0.08            167           20.8 195 
 BRR  HZ EP        854  3.26                             152   -0.2910 73.9 300 
 BRR  HN ES        854 20.95                             152    0.5310 73.9 300 
 RUS  HZ EP        854  5.85                             145    0.0910 97.5 177 
 RUS  HN ES        854 24.27                             145   -0.0810 97.5 177 
 RUS  HZ I         854 25.83         5.8 0.42            142           97.5 177 
 PTB  HZ EP   9    854  8.38                             132   -0.83 0  149 260 
 PTB  HN ES        854 29.40                                   -0.27 9  149 260 
 PTB  HZ I         854 32.92         3.0 0.16            130            149 260 
 TAM  HZ IP     D  854  9.77                             132    0.13 9  153 104 
 ZAR  HZ EP        854 15.29                             123    0.47 8  207 293 
 ZAR  HN ES        854 39.98                             123   -0.50 8  207 293 
 ZAR  HZ I         854 42.90         2.7 0.09            122            207 293 
 CHI  HZ EP        854 19.18                             118   -0.34 8  246 196 
 CHI  HN ES        854 49.06                             118    0.21 8  246 196 
 CHI  HZ I         854 54.77         1.1 0.13            117            246 196 
 GUY2CHZ EP   3    854 27.50                             113    1.89 2  301 235 
 GUY2CHN ES   4    855  3.14                             113    3.45 0  301 235 
 GUY2CHZ I         855  7.10         1.7 0.42                           301 235 
                                                                                
