 2013  612 0310 37.6 L   6.792 -73.165152.0  RSN 10 0.4 2.1LRSN                1
 GAP=180        0.79       3.4     5.3  6.4  0.8228E+00  0.7157E+00  0.8466E+00E
 Epicentro: LOS SANTOS - SANTANDER                                             3
 ACTION:UPD 14-01-08 09:54 OP:ep   STATUS:               ID:20130612031037 L   I
 OLDACT:UP  13-06-12 10:55 OP:mh   STATUS:               ID:20130612030959     3
 OLDACT:UP  13-06-12 10:55 OP:mh   STATUS:               ID:20130612030959     3
 OLDACT:REG 13-06-12 07:39 OP:mh   STATUS:               ID:20130612030959     3
 2013-06-12-0309-59M.COL___260                                                 6
 STAT SP IPHASW D HRMM SECON CODA AMPLIT PERI AZIMU VELO AIN AR TRES W  DIS CAZ7
 BAR2 SZ EP   1    310 57.65                             171   -0.26 7 22.2 185 
 GIR2 SZ EP   1    310 57.78                             168   -0.20 7 31.9 354 
 GIR2 SZ I         311 15.80         6.1 0.20            162           31.9 354 
 BRR  HZ EP     C  310 59.63                             154    0.3310 69.7 300 
 BRR  HN ES        311 16.91                             154    0.6510 69.7 300 
 BRR  HN I         311 17.32        24.0 0.28            150           69.7 300 
 RUS  HZ EP   1    311  2.08                             145    0.21 7 99.9 175 
 RUS  HN ES        311 20.63                             145   -0.2110 99.9 175 
 RUS  HN I         311 20.83        11.1 0.30            143           99.9 175 
 PTB  HZ EP   1    311  4.30                             134   -0.53 7  145 259 
 PTB  HN ES        311 25.74                             134   -0.37 9  145 259 
 PTB  HN I         311 31.00        23.0 0.36            130            145 259 
 OCA  HE ES   1    311 28.68                             131   -0.25 7  161 354 
 OCA  HE I         311 33.50        19.9 0.34            125            161 354 
 NOR  HZ EP   1    311 13.38                             120   -0.03 6  232 234 
 NOR  HN ES   2    311 41.41                             120    0.03 4  232 234 
 NOR  HN I         311 48.53        13.4 0.16            116            232 234 
 SML  HZ EP   1    311 14.61                             119    0.08 6  244 336 
 SML  HN ES   2    311 42.39                             119   -0.98 4  244 336 
 SML  HN I         311 50.71        17.6 0.10            114            244 336 
 GUY2CHZ EP   4    311 22.86                             114    1.66 0  299 235 
 GUY2CHE ES   4    311 58.23                             114    2.98 0  299 235 
 GUY2CHE I         312  5.06         5.2 0.44                           299 235 
 PRA  HZ EP   1    311 31.72                             108    0.64 4  390 209 
 PRA  HN ES   1    312 13.29                             108    0.46 4  390 209 
 PRA  HN I         312 18.43         2.1 0.36            105            390 209 
                                                                                
