 2011  712 0619 18.6 L   6.758 -73.172141.7  RSN  8 0.3 1.8LRSN                1
 GAP=153        0.56       3.2     4.3  4.2 -0.2246E+01  0.1655E+01 -0.8940E+00E
 Epicentro: LOS SANTOS - SANTANDER                                             3
 ACTION:UPD 12-07-25 14:00 OP:epov STATUS:               ID:20110712061918 L   I
 2011-07-12-0614-38S.COL___142                                                 6
 STAT SP IPHASW D HRMM SECON CODA AMPLIT PERI AZIMU VELO AIN AR TRES W  DIS CAZ7
 BAR2 SZ EP   1    619 37.45                             172   -0.16 7 18.3 184 
 BAR2 SZ ES   1    619 52.14                             172   -0.32 7 18.3 184 
 BAR2 SZ I         619 53.52        11.0 0.23                          18.3 184 
 BTL  SZ EP   1    619 38.07                             171    0.42 7 20.7 329 
 BTL  SZ ES   1    619 52.81                             171    0.27 7 20.7 329 
 GIR2 SZ EP        619 37.43                             165   -0.4410 35.6 356 
 GIR2 SZ ES   1    619 53.00                             165    0.06 7 35.6 356 
 BRR  HZ EP   1    619 39.15                             152   -0.11 7 71.1 303 
 BRR  HN ES   1    619 55.41                             152    0.00 7 71.1 303 
 BRR  HZ I         619 56.89        13.6 0.11                          71.1 303 
 RUS  HZ EP   1    619 41.60                             144    0.01 7 96.2 174 
 RUS  HN ES   1    619 59.74                             144    0.18 7 96.2 174 
 RUS  HZ I         620  1.93         7.4 0.28                          96.2 174 
 BRI  SZ EP   1    619 42.91                             139    0.42 7  114  21 
 BRI  SZ ES   1    620  1.18                             139    0.03 7  114  21 
 OCA  SZ EP   1    619 46.87                             128   -0.10 7  165 354 
 OCA  SZ I         620 11.62         7.3 0.21                           165 354 
 HEL  HE ES   1    620 29.12                             114    0.13 6  268 257 
 HEL  HZ I         620 36.89         7.0 0.29                           268 257 
                                                                                
