 2011 1212 0911 31.4 L   6.791 -73.135137.4  RSN 14 0.4 2.4LRSN                1
 GAP=138        0.78       2.9     3.7  5.1 -0.3386E+01  0.5192E+01  0.2233E+00E
 Epicentro: LOS SANTOS - SANTANDER                                             3
 ACTION:UPD 12-07-13 16:15 OP:ep   STATUS:               ID:20111212091131 L   I
 2011-12-12-0910-00M.COL___186                                                 6
 STAT SP IPHASW D HRMM SECON CODA AMPLIT PERI AZIMU VELO AIN AR TRES W  DIS CAZ7
 BAR2 SZ EP        911 50.02                             170    0.0310 22.6 193 
 BAR2 SZ ES   1    912  4.19                             170   -0.31 7 22.6 193 
 BAR2 SZ I         912  6.11        69.1 0.21                          22.6 193 
 GIR2 SZ EP        911 50.11                             166    0.0210 32.5 349 
 BRR  HZ EP        911 51.87                             150    0.1510 72.7 299 
 BRR  HN ES   1    912  8.23                             150    0.65 7 72.7 299 
 BRR  HZ I         912  9.96        42.3 0.23                          72.7 299 
 PAM  SZ EP        911 52.98                             149    0.2610 77.5  38 
 PAM  SE ES   1    912  9.44                             149    0.08 7 77.5  38 
 RUS  HZ EP        911 54.10                             142   -0.1410 99.5 177 
 RUS  HN ES        912 12.05                             142   -0.0110 99.5 177 
 RUS  HZ I         912 14.26        29.6 0.21                          99.5 177 
 BRI  SZ EP   1    911 54.61                             139    0.08 7  109  20 
 PTB  HZ EP   1    911 56.49                             130   -1.28 7  149 259 
 PTB  HN ES   1    912 18.28                             130   -0.06 7  149 259 
 OCA  SZ EP        911 58.88                             127   -0.29 9  161 353 
 OCA  SZ ES   1    912 20.69                             127   -0.15 7  161 353 
 OCA  SZ I         912 24.08        20.0 0.27                           161 353 
 NOR  SZ EP   1    912  6.12                             117   -0.56 6  235 235 
 NOR  SE ES   1    912 33.95                             117   -0.25 6  235 235 
 CHI  HZ EP   1    912  8.49                             115   -0.06 6  248 195 
 CHI  HE ES   2    912 37.50                             115   -0.05 4  248 195 
 CHI  HZ I         912 43.73         7.7 0.11                           248 195 
 ROSC BZ EP   1    912  9.48                             115    0.45 6  252 211 
 ROSC BZ I         912 46.67        27.7 0.53                           252 211 
 HEL  HZ EP   1    912 12.05                             113    0.77 6  273 256 
 HEL  HE ES   1    912 42.17                             113   -0.22 6  273 256 
 HEL  HZ I         912 49.16        13.1 0.26                           273 256 
 GUY  SN ES   2    912 49.30                             111    0.42 4  304 235 
 GUY  SZ I         912 58.48        19.2 0.43                           304 235 
 RREF HZ EP   1    912 17.68                             109    0.48 5  322 230 
 RREF HN ES   1    912 53.62                             109    0.69 5  322 230 
 RREF HZ I         912 59.29        10.8 0.28                           322 230 
                                                                                
