 2016  612 0921  2.0 L   6.709 -73.785 10.0  RSN  9 0.4 1.6LRSN                1
 GAP=115        1.00       2.4     2.7  6.6  0.7280E+00  0.1264E+02  0.6043E+01E
 Epicentro: EL CARMEN - SANTANDER                                              3
 ACTION:UPD 16-07-21 22:18 OP:rebc STATUS:               ID:20160612092102 L   I
 OLDACT:REG 16-06-12 13:50 OP:dani STATUS:               ID:20160612091741     3
 2016-06-12-0917-41M.COL___319                                                 6
 STAT SP IPHASW D HRMM SECON CODA AMPLIT PERI AZIMU VELO AIN AR TRES W  DIS CAZ7
 BRR  HZ EP        921  9.12                              98   -0.3010 44.7  10 
 BRR  HE ES        921 15.37                              98    0.1510 44.7  10 
 BRR  HZ I         921 15.55        40.5 0.12                          44.7  10 
 BAR2 EZ EP        921 12.92                              96   -0.2310 67.9 101 
 BAR2 EZ ES        921 21.62                              96   -0.2410 67.9 101 
 BAR2 EZ I         921 22.02        11.3 0.38                          67.9 101 
 PTB  HZ EP        921 13.86                              95   -0.3810 76.6 256 
 PTB  HE ES   4    921 26.63                              95    2.83 0 76.6 256 
 PTB  HZ I         921 27.04        37.8 0.24                          76.6 256 
 RUS  HZ EP        921 21.44                              93    0.2810  119 139 
 RUS  HE ES        921 35.97                              93   -0.1510  119 139 
 RUS  HZ I         921 37.95         5.1 0.28                           119 139 
 SPBC HZ EP        921 21.28                              93    0.2210  121 195 
 SPBC HE ES   4    921 38.90                              93    2.97 0  121 195 
 SPBC HZ I         921 39.99        16.0 0.12                           121 195 
 PAM  EZ EP        921 24.60                              93    0.48 9  139  60 
 PAM  EE ES        921 41.25                              93   -0.13 9  139  60 
 PAM  EZ I         921 46.36         5.4 0.16                           139  60 
 NOR  HE ES        921 49.12                              56   -0.25 9  175 224 
 HEL  HZ EP        921 32.59                              56    0.26 9  201 254 
 HEL  HE ES        921 55.44                              56   -0.55 9  201 254 
 HEL  HZ I         921 56.41        14.0 0.20                           201 254 
 GUY2CHZ EP        921 38.52                              56    1.23 8  240 227 
 GUY2CHE ES        922  4.81                              56   -0.02 8  240 227 
 GUY2CHZ I         922 10.92         5.1 0.38                           240 227 
                                                                                
