 2010 1012 0558 39.2 L   6.782 -73.067142.0  RSN  7 0.2 1.8LRSN                1
 GAP=197        0.51       7.1     7.0  7.4 -0.3863E+02 -0.2751E+02  0.3191E+02E
 Epicentro: LOS SANTOS - SANTANDER                                             3
 ACTION:UP  11-02-18 11:09 OP:tino STATUS:               ID:20101012055839 L   I
 2010-10-12-0555-23S.COL___121                                                 6
 STAT SP IPHASW D HRMM SECON CODA AMPLIT PERI AZIMU VELO SNR AR TRES W  DIS CAZ7
 BAR2 SZ EP   2    558 58.52                             170     0.1 5   25 212 
 BAR2 SZ I         559 14.38        11.4 0.26                            25 212 
 BRR  HZ IP     C  559  0.34                             149    -0.210   80 297 
 BRR  HZ I         559  0.78        16.7 0.08                            80 297 
 BRR  HN ES   1    559 17.20                             149     0.1 7   80 297 
 GUE  SZ EP   1    559  3.50                             139    -0.1 7  117   8 
 GRA  SZ IP        559  4.38                             137     0.310  125  13 
 GRA  SZ ES   1    559 23.48                             137     0.0 7  125  13 
 GRA  SZ I         559 25.04         7.1 0.46                           125  13 
 OCA  SZ EP   1    559  7.27                             128    -0.3 7  163 350 
 OCA  SZ I         559 32.16         7.1 0.13                           163 350 
 HEL  HZ EP   2    559 20.60                             113     0.4 4  280 257 
 HEL  HN ES   2    559 52.12                             113     0.1 4  280 257 
 HEL  HZ I         559 59.06         1.9 0.36                           280 257 
 PRA  HZ EP   1    559 32.81                             106    -0.1 4  395 211 
 PRA  HZ I         6 0 19.33         6.1 0.13                           395 211 
                                                                                
