 2011 1212 0939 21.0 L   6.804 -73.107152.8  RSN  6 0.3 1.5LRSN                1
 GAP=141        0.61      16.1     7.2 11.6 -0.9027E+02 -0.4615E+02  0.1360E+03E
 Epicentro: LOS SANTOS - SANTANDER                                             3
 ACTION:UPD 12-07-13 16:15 OP:ep   STATUS:               ID:20111212093921 L   I
 2011-12-12-0937-40S.COL___141                                                 6
 STAT SP IPHASW D HRMM SECON CODA AMPLIT PERI AZIMU VELO AIN AR TRES W  DIS CAZ7
 BAR2 SZ EP   2    939 41.68                             171    0.19 5 24.8 200 
 BAR2 SZ I         939 57.79         5.1 0.60                          24.8 200 
 GIR2 SZ EP        939 41.30                             167   -0.2110 31.9 343 
 PAM  SZ EP   1    939 44.17                             152    0.38 7 74.4  37 
 PAM  SE ES   1    940  1.25                             152   -0.32 7 74.4  37 
 BRR  HZ EP   2    939 43.55                             152    0.45 5 74.8 297 
 BRR  HZ I         939 59.80         7.7 0.31                          74.8 297 
 BRR  HE ES   1    940  0.71                             152    0.36 7 74.8 297 
 RUS  HZ EP   3    939 46.24                             145    0.79 2  101 179 
 PTB  HZ EP   1    939 48.69                             132   -0.23 7  152 259 
 PTB  HN ES   1    940 10.44                             132   -0.27 7  152 259 
                                                                                
