 2010  712 0309 44.6 L   6.785 -73.056144.2  RSN  5 0.3 1.5LRSN                1
 GAP=169        0.67       6.3     7.0  7.2  0.5060E+01 -0.3354E+01 -0.1131E+02E
 Epicentro: LOS SANTOS - SANTANDER                                             3
 ACTION:UPD 10-12-01 15:17 OP:pat  STATUS:               ID:20100712030944 L   I
 2010-07-12-0306-09S.COL___120                                                 6
 STAT SP IPHASW D HRMM SECON CODA AMPLIT PERI AZIMU VELO AIN AR TRES W  DIS CAZ7
 BAR2 SZ IP        310  4.07                             170     0.010   26 213 
 BAR2 SZ I         310  4.59         8.1 0.13                            26 213 
 BAR2 SZ ES   1    310 19.16                             170    -0.2 7   26 213 
 BRR  HZ IP     C  310  5.88                             149    -0.310   81 296 
 BRR  HN ES   1    310 23.15                             149     0.2 7   81 296 
 BRR  HZ I         310 26.63        11.3 0.09                            81 296 
 RUS  HZ EP   2    310  7.76                             144    -0.3 5   99 182 
 RUS  HN ES   2    310 26.91                             144     0.5 5   99 182 
 RUS  HZ I         310 29.56         3.0 0.26                            99 182 
 GRA  SZ EP   1    310 10.08                             137     0.4 7  125  13 
 GRA  SZ I         310 35.51         2.4 0.36                           125  13 
 HEL  HZ EP   2    310 26.11                             114     0.3 4  281 257 
 HEL  HE ES   2    310 58.18                             114     0.3 4  281 257 
 HEL  HZ I         311  4.47         3.1 0.37                           281 257 
                                                                                
