 2016 1212 0900 21.4 L   6.686 -73.190152.6  RSN  5 0.1 0.8LRSN                1
 GAP=223        0.44       4.3     3.2  4.4  0.6179E+01  0.2170E+01 -0.8385E+01E
 Epicentro: VILLANUEVA - SANTANDER                                             3
 ACTION:UPD 17-01-11 20:14 OP:rebc STATUS:               ID:20161212090021 L   I
 OLDACT:DUP 16-12-12 18:04 OP:and  STATUS:               ID:20161212085744d    3
 OLDACT:UP  16-12-12 18:03 OP:and  STATUS:               ID:20161212085743     3
 OLDACT:REG 16-12-12 15:47 OP:and  STATUS:               ID:20161212085743     3
 2016-12-12-0858-00M.COL___378                                                 6
 STAT SP IPHASW D HRMM SECON CODA AMPLIT PERI AZIMU VELO AIN AR TRES W  DIS CAZ7
 BAR2 EZ EP        9 0 41.40                             176   -0.2410 10.4 176 
 BAR2 EZ ES        9 0 57.47                             176    0.0210 10.4 176 
 BRR  HZ EP        9 0 43.52                             153    0.0910 74.1 309 
 BRR  HN ES   4    9 1  2.94                             153    2.31 0 74.1 309 
 RUS  HN ES        9 1  3.54                             149    0.1210 88.6 172 
 RUS  HZ I         9 1  5.12         0.7 0.20            152           88.6 172 
 PTB  HZ EP        9 0 48.19                             135   -0.13 9  141 263 
 PTB  HN ES        9 1  9.29                             135   -0.04 9  141 263 
 ZAR  HZ EP        9 0 54.62                             124    0.28 9  205 296 
 ZAR  HE ES        9 1 20.01                             124   -0.05 9  205 296 
 ZAR  HZ I         9 1 26.05         1.0 0.29            124            205 296 
                                                                                
