 2014  112 0659  5.6 L   6.800 -73.165141.0  RSN  9 0.5 1.5LRSN                1
 GAP=134        1.20       3.4     5.1  8.0 -0.1126E+01  0.1361E+02 -0.5240E+00E
 Epicentro: LOS SANTOS - SANTANDER                                             3
 ACTION:UPD 14-03-13 09:54 OP:ep   STATUS:               ID:20140112065905 L   I
 OLDACT:REG 14-01-12 12:08 OP:carl STATUS:               ID:20140112065837     3
 2014-01-12-0658-37M.COL___237                                                 6
 STAT SP IPHASW D HRMM SECON CODA AMPLIT PERI AZIMU VELO AIN AR TRES W  DIS CAZ7
 BAR2 SZ EP        659 24.59                             170   -0.0510 23.1 185 
 BAR2 SZ ES        659 39.68                             170    0.1910 23.1 185 
 BAR2 SZ I         659 41.16        12.9 0.20            169           23.1 185 
 PAM  SZ IP     C  659 27.74                             149    0.3610 78.7  41 
 PAM  SN ES        659 44.72                             149    0.3510 78.7  41 
 PAM  SZ I         659 46.63         7.6 0.46            153           78.7  41 
 RUS  HZ EP     C  659 28.92                             143    0.0410  101 175 
 RUS  HN ES        659 45.97                             143   -1.0810  101 175 
 RUS  HZ I         659 49.51         1.4 0.40            144            101 175 
 PTB  HZ EP        659 31.90                             131   -0.08 9  146 259 
 PTB  HN ES        659 52.31                             131   -0.25 9  146 259 
 PTB  HZ I         659 57.54         4.3 0.12            131            146 259 
 OCA  HN ES        659 55.68                             128    0.40 9  160 354 
 ZAR  HZ EP   4    659 39.36                             121    1.84 0  202 292 
 ZAR  HN ES        7 0  2.72                             121    0.29 9  202 292 
 ZAR  HZ I         7 0 10.54         3.0 0.10            122            202 292 
 NOR  HE ES        7 0  8.89                             118    0.52 8  233 234 
 SML  HZ EP        659 40.87                             116   -0.98 8  243 336 
 SML  HE ES        7 0  9.60                             116   -0.54 8  243 336 
 SML  HZ I         7 0 14.69         3.9 0.10            118            243 336 
 CHI  HZ EP        659 43.34                             116    0.37 8  248 195 
 CHI  HN ES        7 0 12.65                             116    0.53 8  248 195 
 CHI  HZ I         7 0 19.62         1.3 0.30            117            248 195 
                                                                                
