 2014  612 0446 54.6 L   6.838 -73.141143.8  RSN  6 0.2 1.8LRSN                1
 GAP=184        0.54       2.1     3.9  7.3  0.9400E+00  0.2784E+01  0.9555E+00E
 Epicentro: LOS SANTOS - SANTANDER                                             3
 OLDACT:DUP 14-06-12 18:29 OP:mh   STATUS:               ID:20140612043809d    3
 ACTION:UP  14-07-01 22:53 OP:nd   STATUS:               ID:20140612044654 L   I
 OLDACT:UPD 14-07-01 19:27 OP:nd   STATUS:               ID:20140612044654 L   3
 OLDACT:UP  14-06-12 18:29 OP:mh   STATUS:               ID:20140612043809d    3
 2014-06-12-0438-08M.COL___173                                                 6
 STAT SP IPHASW D HRMM SECON CODA AMPLIT PERI AZIMU VELO AIN AR TRES W  DIS CAZ7
 RUS  HZ EP        447 18.81                             142    0.3910  105 177 
 RUS  HN ES   1    447 36.82                             142   -0.21 7  105 177 
 RUS  HZ I         447 38.25         5.3 0.22            144            105 177 
 PTB  HZ EP        447 21.45                             131   -0.04 9  149 257 
 PTB  HN ES   1    447 42.53                             131    0.03 7  149 257 
 PTB  HZ I         447 45.11         5.2 0.16            131            149 257 
 OCA  HN ES        447 43.88                             130   -0.09 9  156 353 
 SPBC HZ EP        447 22.90                             128   -0.35 9  167 218 
 SPBC HN ES   1    447 45.72                             128    0.09 7  167 218 
 SPBC HZ I         447 51.60         6.9 0.26            128            167 218 
 ZAR  HN ES   1    447 52.08                             122    0.20 6  203 291 
 SML  HN ES   1    447 58.82                             117   -0.03 6  240 335 
 SML  HZ I         448  6.63         9.9 0.07            118            240 335 
                                                                                
