 2017  912 0557 27.8 L   6.362 -73.663108.7  RSN  5 0.2 1.0LRSN                1
 GAP=104        0.49       1.9     2.5  4.5  0.4113E+00  0.4244E+01 -0.4846E-01E
 Epicentro: SANTA HELENA DEL OPON - SANTANDER                                  3
 ACTION:UPD 17-10-05 19:11 OP:rebc STATUS:               ID:20170912055727 L   I
 OLDACT:UP  17-09-12 19:07 OP:mg   STATUS:               ID:20170912054740d    3
 OLDACT:UP  17-09-12 19:06 OP:mg   STATUS:               ID:20170912054740d    3
 OLDACT:UP  17-09-12 19:04 OP:mg   STATUS:               ID:20170912054740d    3
 OLDACT:UP  17-09-12 19:03 OP:mg   STATUS:               ID:20170912054740d    3
 OLDACT:DUP 17-09-12 18:56 OP:mg   STATUS:               ID:20170912054740d    3
 2017-09-12-0548-00M.COL___439                                                 6
 STAT SP IPHASW D HRMM SECON CODA AMPLIT PERI AZIMU VELO AIN AR TRES W  DIS CAZ7
 BAR2 EZ EP        557 44.85                             150    0.2310 59.0  64 
 BAR2 EZ ES        557 57.42                             150   -0.3210 59.0  64 
 BAR2 EZ I         557 58.65         7.5 0.12            159           59.0  64 
 RUS  HZ EP        557 46.55                             140   -0.0910 82.6 129 
 RUS  HN ES        558  1.52                             140    0.1910 82.6 129 
 RUS  HZ I         558  3.39         1.6 0.33            152           82.6 129 
 BRR  HZ EP        557 45.80                             140   -0.1510 82.6 356 
 BRR  HN ES        558  0.32                             140    0.2110 82.6 356 
 BRR  HZ I         558  4.54         2.7 0.39            141           82.6 356 
 SPBC HZ EP        557 46.72                             137   -0.0110 90.6 210 
 SPBC HN ES        558  1.46                             137   -0.0310 90.6 210 
 SPBC HZ I         558  5.81         1.7 0.22            139           90.6 210 
 ZAR  HZ EP   2    557 55.67                             116   -0.00 4  182 314 
 ZAR  HN ES   1    558 17.38                             116   -0.03 7  182 314 
 ZAR  HZ I         558 28.31         1.3 0.38            118            182 314 
                                                                                
