 2011  112 0339 19.5 L   6.752 -73.133147.2  RSN  5 0.1 1.7LRSN                1
 GAP=184        0.37       3.2     4.3  4.3 -0.3439E+01  0.6257E+01 -0.4586E+00E
 Epicentro: LOS SANTOS - SANTANDER                                             3
 ACTION:UP  11-02-08 08:40 OP:pat  STATUS:               ID:20110112033919 L   I
 2011-01-12-0336-20S.COL___136                                                 6
 STAT SP IPHASW D HRMM SECON CODA AMPLIT PERI AZIMU VELO SNR AR TRES W  DIS CAZ7
 BAR2 SZ EP   1    339 39.04                             172    -0.2 7   19 198 
 BAR2 SZ I         339 55.96         9.5 0.25                            19 198 
 BTL  SZ EP   1    339 39.46                             170     0.2 7   24 321 
 BTL  SZ ES   1    339 54.65                             170    -0.1 7   24 321 
 RUS  HZ EP   1    339 42.93                             146    -0.1 7   95 177 
 RUS  HE ES   1    340  1.46                             146     0.1 7   95 177 
 RUS  HZ I         340  3.00         7.6 0.46                            95 177 
 OCA  SZ EP   2    339 48.63                             129     0.2 5  166 353 
 OCA  SZ I         340 17.94         5.8 0.07                           166 353 
 NOR  SZ EP   1    339 54.99                             119    -0.1 6  233 236 
 NOR  SE ES   1    340 22.98                             119     0.1 6  233 236 
                                                                                
