 2013  612 0619 19.5 L   6.799 -73.155145.9  RSN 10 0.5 2.5LRSN                1
 GAP=111        0.99       4.3     3.9  7.0  0.1870E+01 -0.1684E+01 -0.5104E+01E
 Epicentro: LOS SANTOS - SANTANDER                                             3
 ACTION:UPD 14-01-08 09:54 OP:ep   STATUS:               ID:20130612061919 L   I
 OLDACT:UP  13-06-12 13:13 OP:mh   STATUS:               ID:20130612061750     3
 OLDACT:UP  13-06-12 13:13 OP:mh   STATUS:               ID:20130612061750     3
 OLDACT:REG 13-06-12 12:56 OP:mh   STATUS:               ID:20130612061750     3
 2013-06-12-0617-50M.COL___224                                                 6
 STAT SP IPHASW D HRMM SECON CODA AMPLIT PERI AZIMU VELO AIN AR TRES W  DIS CAZ7
 BAR2 SZ EP   1    619 39.07                             171   -0.03 7 23.1 188 
 BAR2 SZ ES   1    619 53.56                             171   -0.86 7 23.1 188 
 BAR2 SZ I         619 55.71        47.7 0.30            169           23.1 188 
 GIR2 SZ EP     C  619 39.38                             167    0.2410 31.2 352 
 BRR  HZ IP     C  619 41.04                             153    0.4710 70.3 299 
 BRR  HN ES        619 57.92                             153    0.8810 70.3 299 
 BRR  HN I         619 58.51       120.4 0.32            148           70.3 299 
 RUS  HZ EP   1    619 43.30                             144    0.08 7  101 175 
 RUS  HN ES        620  1.51                             144   -0.2410  101 175 
 RUS  HN I         620  2.39        21.4 0.40            143            101 175 
 PTB  HZ EP   1    619 46.06                             132   -0.28 7  147 259 
 PTB  HN ES        620  6.88                             132   -0.43 9  147 259 
 PTB  HN I         620 14.74        18.2 0.24            129            147 259 
 TAM  HZ EP     D  619 47.67                             130    0.44 9  156 105 
 TAM  HN ES   1    620  8.79                             130   -0.11 7  156 105 
 TAM  HN I         620  9.96        34.1 0.40            132            156 105 
 OCA  HZ EP   1    619 47.57                             130   -0.20 7  160 354 
 OCA  HN ES   1    620  9.36                             130   -0.50 7  160 354 
 OCA  HN I         620 12.50        72.8 0.26            128            160 354 
 NOR  HZ EP   1    619 55.21                             119    0.12 6  234 234 
 NOR  HN ES   2    620 23.02                             119    0.13 4  234 234 
 NOR  HN I         620 29.51        33.2 0.18            117            234 234 
 SML  HZ EP   1    619 55.22                             117   -0.83 6  243 336 
 SML  HN ES   2    620 24.24                             117   -0.36 4  243 336 
 SML  HN I         620 31.43        56.1 0.30            116            243 336 
 HEL  HZ EP   4    620  0.86                             115    1.30 0  271 256 
 HEL  HN ES   1    620 30.56                             115   -0.28 6  271 256 
 HEL  HN I         620 37.46         7.9 0.42            113            271 256 
                                                                                
