 2017 1012 0623 20.8 L   6.808 -73.145148.7  RSN 20 0.6 2.9LRSN                1
 GAP=108        1.25       3.7     3.2  6.0  0.4974E+00  0.6722E+01  0.4860E+01E
 Epicentro: LOS SANTOS - SANTANDER                                             3
 ACTION:UPD 17-11-07 19:31 OP:rebc STATUS:               ID:20171012062321dL   I
 OLDACT:UP  17-10-12 18:19 OP:y    STATUS:               ID:20171012060853     3
 OLDACT:UP  17-10-12 18:10 OP:y    STATUS:               ID:20171012060853     3
 OLDACT:REG 17-10-12 14:03 OP:leo  STATUS:               ID:20171012060853     3
 2017-10-12-0618-00M.COL___423                                                 6
 STAT SP IPHASW D HRMM SECON CODA AMPLIT PERI AZIMU VELO AIN AR TRES W  DIS CAZ7
 BAR2 EZ IP     C  623 40.78                             170   -0.0010 24.2 190 
 BAR2 EZ ES        623 55.95                             170   -0.4310 24.2 190 
 BAR2 EZ I         623 57.60       159.2 0.24            168           24.2 190 
 PAM  EZ IP     C  623 43.80                             151    0.5310 76.7  40 
 PAM  EN ES        624  1.12                             151    0.3110 76.7  40 
 PAM  EZ I         624  4.13        86.3 0.72            156           76.7  40 
 RUS  HZ EP        623 44.57                             144   -0.3110  101 176 
 RUS  HN ES        624  3.38                             144   -0.3010  101 176 
 RUS  HZ I         624  4.55        88.7 0.30            145            101 176 
 PTB  HZ EP        623 47.28                             133   -0.73 9  148 259 
 PTB  HN ES        624  8.91                             133   -0.34 9  148 259 
 PTB  HZ I         624 14.47       103.8 0.14            133            148 259 
 TAM  HZ IP     C  623 49.02                             131    0.31 9  155 105 
 TAM  HN ES        624 10.67                             131    0.18 9  155 105 
 TAM  HZ I         624 11.33        60.8 0.54            134            155 105 
 YPLC HZ IP     C  623 50.90                             127    0.04 9  178 151 
 YPLC HN ES        624 14.33                             127    0.00 9  178 151 
 YPLC HZ I         624 18.27        47.7 0.26            129            178 151 
 ZAR  HZ EP        623 53.76                             123    0.37 9  204 292 
 ZAR  HN ES        624 19.63                             123    0.81 9  204 292 
 ZAR  HZ I         624 24.67       143.6 0.30            124            204 292 
 NOR  HZ EP        623 56.81                             119    0.07 8  235 234 
 NOR  HN ES        624 25.23                             119    0.44 8  235 234 
 NOR  HZ I         624 31.35        79.6 0.22            120            235 234 
 CHI  HZ EP        623 58.63                             118   -0.11 8  249 195 
 CHI  HN ES        624 27.68                             118   -0.66 8  249 195 
 CHI  HZ I         624 34.79        34.8 0.24            119            249 195 
 ROSC HZ EP   4    624  0.65                             117    1.50 0  254 211 
 ROSC BE ES        624 30.09                             117    1.02 8  254 211 
 URE  HZ EP        624  1.07                             114   -0.89 7  284 292 
 URE  HN ES   4    624 32.20                             114   -1.89 0  284 292 
 GUY2CHZ EP        624  4.89                             113    0.30 7  302 235 
 GUY2CHE ES        624 38.67                             113   -0.09 7  302 235 
 GUY2CHZ I         624 46.90        75.6 0.26                           302 235 
 PTGC HZ IP        624  3.56                             112   -1.30 7  309 159 
 PTGC HE ES   4    624 36.77                             112   -2.47 0  309 159 
 PTGC HZ I         624 43.83        23.6 0.26            114            309 159 
 ELA  HZ EP   4    624  9.57                             111    1.74 0  330 229 
 ELA  HE ES   4    624 48.07                             111    3.55 0  330 229 
 ELA  HZ I         624 52.05        55.4 0.32            112            330 229 
 DBB  EZ EP        624  8.56                             110    0.18 7  339 274 
 DBB  EN ES        624 43.76                             110   -1.74 7  339 274 
 DBB  EZ I         624 52.99        23.4 0.24            111            339 274 
 ANIL HZ EP        624 11.53                             109    0.75 6  358 224 
 ANIL HE ES        624 49.59                             109   -0.18 6  358 224 
 PRA  HZ EP        624 14.09                             107   -0.41 6  393 210 
 PRA  HE ES        624 57.13                             107    0.74 6  393 210 
 PRA  HZ I         625  1.06        40.3 0.28            108            393 210 
 ORTC HZ EP        624 14.57                             107   -0.32 6  396 216 
 ORTC HN ES        624 58.27                             107    1.18 6  396 216 
 ORTC HZ I         625  3.57        24.1 0.22            108            396 216 
 PAL  HZ EP        624 16.26                             106    0.16 6  406 239 
 PAL  HN ES        625  0.28                             106    1.04 6  406 239 
 PAL  HZ I         625  7.41        16.8 0.24            107            406 239 
 GUA  EZ EP        624 24.88                             103    0.76 5  475 173 
 GUA  EE ES        625 12.96                             103   -0.56 5  475 173 
 GUA  EZ I         625 15.56        46.3 0.36            105            475 173 
                                                                                
