 2010  312 0757 27.5 L   6.815 -73.033142.4  RSN  4 0.1 1.4LRSN                1
 GAP=194        0.32       4.0     7.5  4.6  0.2192E+02 -0.1732E+02 -0.1038E+02E
 Epicentro: CEPITA - SANTANDER                                                 3
 ACTION:UP  10-08-24 09:53 OP:vdl  STATUS:               ID:20100312075727 L   I
 2010-03-12-0755-43S.COL___094                                                 6
 STAT SP IPHASW D HRMM SECON CODA AMPLIT PERI AZIMU VELO SNR AR TRES W  DIS CAZ7
 BAR2 SZ EP   1    757 46.85                             167     0.0 7   30 214 
 BAR2 SZ ES   1    758  1.80                             167    -0.1 7   30 214 
 BRR  HZ IP        757 48.80                             148    -0.110   82 293 
 BRR  HE ES   1    758  5.69                             148     0.1 7   82 293 
 RUS  BZ EP   2    757 51.17                             142     0.2 5  102 183 
 RUS  BN ES   1    758  9.41                             142     0.1 7  102 183 
 RUS  BZ I         758 10.07         1.9 0.44                           102 183 
 OCA  SZ EP   2    757 55.53                             129     0.0 5  161 349 
 OCA  SZ ES   3    758 17.71                             129     0.3 2  161 349 
 OCA  SZ I         758 22.06         6.1 0.30                           161 349 
                                                                                
