 2010 1012 0125 18.2 L   6.766 -73.116139.1  RSN  8 0.4 2.0LRSN                1
 GAP=181        0.92       5.6     9.7  8.9 -0.2101E+02 -0.5184E+01  0.1300E+02E
 Epicentro: LOS SANTOS - SANTANDER                                             3
 ACTION:UP  11-02-18 11:09 OP:tino STATUS:               ID:20101012012518 L   I
 2010-10-12-0123-15S.COL___121                                                 6
 STAT SP IPHASW D HRMM SECON CODA AMPLIT PERI AZIMU VELO SNR AR TRES W  DIS CAZ7
 BAR2 SZ EP        125 36.81                             171    -0.110   21 201 
 BAR2 SZ ES   2    125 50.93                             171    -0.6 5   21 201 
 BAR2 SZ I         125 52.90        22.4 0.29                            21 201 
 BRR  HZ EP        125 38.65                             150    -0.210   76 300 
 BRR  HN ES   1    125 55.51                             150     0.5 7   76 300 
 BRR  HZ I         125 59.67        27.2 0.24                            76 300 
 GRA  SZ EP   1    125 43.63                             135     0.6 7  128  16 
 GRA  SZ I         126  5.87        12.0 0.43                           128  16 
 OCA  SZ EP   1    125 46.02                             127    -0.3 7  164 352 
 OCA  SZ I         126 10.19        17.8 0.28                           164 352 
 NOR  SZ EP        125 53.22                             117    -0.4 8  235 236 
 NOR  SE ES   2    126 21.08                             117    -0.1 4  235 236 
 NOR  SZ I         126 26.49         1.1 0.17                           235 236 
 CHI  HZ EP   2    125 55.24                             116     0.0 4  246 196 
 CHI  HN ES   1    126 24.85                             116     0.8 6  246 196 
 CHI  HZ I         126 31.65         6.5 0.66                           246 196 
 HEL  HZ EP   2    125 58.83                             113     0.5 4  274 257 
 HEL  HZ I         126 35.18         6.8 0.38                           274 257 
 PRA  HZ EP   1    126 11.44                             106     0.2 4  390 210 
 PRA  HE ES   2    126 52.05                             106    -0.6 3  390 210 
 PRA  HZ I         126 59.53        21.3 0.20                           390 210 
                                                                                
