 2016  912 0728 53.8 L   6.755 -73.120147.2  RSN  5 0.2 1.0LRSN                1
 GAP=142        0.62       2.6     3.2  4.9 -0.1089E+00  0.3957E+01  0.7530E+00E
 Epicentro: LOS SANTOS - SANTANDER                                             3
 ACTION:UPD 17-08-17 21:09 OP:lp   STATUS:               ID:20160912072854dL   I
 OLDACT:REG 16-09-12 16:12 OP:and  STATUS:               ID:20160912072745     3
 2016-09-12-0728-00M.COL___300                                                 6
 STAT SP IPHASW D HRMM SECON CODA AMPLIT PERI AZIMU VELO AIN AR TRES W  DIS CAZ7
 BRR  HZ EP        729 15.40                             151   -0.0110 76.1 301 
 BRR  HE ES        729 32.46                             151    0.2210 76.1 301 
 BRR  HZ I         729 35.63         1.6 0.31            151           76.1 301 
 PAM  EZ EP        729 16.44                             150    0.1210 79.6  36 
 PAM  EN ES        729 33.63                             150   -0.2410 79.6  36 
 PAM  EZ I         729 36.23         1.5 0.16            152           79.6  36 
 RUS  HZ EP        729 17.82                             145    0.4710 95.4 178 
 RUS  HE ES        729 35.55                             145   -0.1510 95.4 178 
 RUS  HZ I         729 36.56         1.0 0.22            149           95.4 178 
 SPBC HZ EP        729 22.03                             130   -0.21 9  161 221 
 SPBC HN ES        729 44.32                             130   -0.09 9  161 221 
 SPBC HZ I         729 44.42         1.2 0.06            132            161 221 
 ZAR  HZ EP        729 26.53                             122   -0.30 8  209 293 
 ZAR  HE ES        729 52.66                             122    0.09 8  209 293 
 ZAR  HZ I         729 56.86         1.1 0.20            123            209 293 
                                                                                
