 2011  712 0855 23.8 L   6.760 -73.105148.1  RSN  5 0.2 1.2LRSN                1
 GAP=161        0.53       3.9     5.0  5.7 -0.9469E+00 -0.1168E+01 -0.2730E+01E
 Epicentro: LOS SANTOS - SANTANDER                                             3
 ACTION:UPD 12-07-25 14:00 OP:epov STATUS:               ID:20110712085523 L   I
 2011-07-12-0854-16S.COL___142                                                 6
 STAT SP IPHASW D HRMM SECON CODA AMPLIT PERI AZIMU VELO AIN AR TRES W  DIS CAZ7
 BAR2 SZ EP   1    855 43.13                             172   -0.53 7 20.4 205 
 BAR2 SZ ES   1    855 59.08                             172   -0.07 7 20.4 205 
 BAR2 SZ I         856  0.01         3.9 0.29                          20.4 205 
 BRR  HZ EP   1    855 45.39                             151   -0.16 7 77.2 300 
 BRR  HZ I         855 50.15         4.0 0.42                          77.2 300 
 BRR  HN ES   1    856  2.66                             151    0.14 7 77.2 300 
 RUS  HZ EP   1    855 47.66                             146    0.20 7 95.9 179 
 RUS  HN ES   1    856  6.02                             146    0.11 7 95.9 179 
 RUS  HZ I         856  7.19         1.6 0.28                          95.9 179 
 BRI  SZ EP   1    855 48.39                             141    0.27 7  111  18 
 NOR  SN ES   1    856 27.92                             119    0.07 6  236 236 
                                                                                
