 2012  312 0512 21.4 L   6.708 -73.250138.2  RSN  4 0.0 1.1LRSN                1
 GAP=218        0.29       3.0     2.9  3.9  0.6138E+01  0.8271E+00 -0.2598E+00E
 ACTION:UP  12-03-31 23:19 OP:EP   STATUS:               ID:20120312051221 L   I
 2012-03-12-0510-00M.COL___193                                                 6
 STAT SP IPHASW D HRMM SECON CODA AMPLIT PERI AZIMU VELO SNR AR TRES W  DIS CAZ7
 BRR  HZ EP   1    512 41.49                             152     0.0 9   68 311 
 BRR  HN ES   1    512 57.22                             152     0.0 9   68 311 
 BRR  HZ I         513  0.12         6.3 0.56                            68 311 
 RUS  HZ EP   1    512 43.87                             145     0.1 9   92 168 
 RUS  HE ES   1    513  1.27                             145     0.0 9   92 168 
 RUS  HZ I         513  4.00         1.1 0.28                            92 168 
 PTB  HZ EP   1    512 46.52                             133    -0.1 8  135 262 
 PTB  HN ES   1    513  6.20                             133     0.0 8  135 262 
 PTB  HZ I         513 13.59         1.5 0.35                           135 262 
 ZAR  HN ES        513 17.18                             122     0.110  198 296 
                                                                                
