 2017  612 0827 21.3 L   6.738 -73.175152.0  RSN  5 0.4 1.7LRSN                1
 GAP=213        0.81       4.6     6.0  7.9  0.1386E+02 -0.1878E+02  0.1711E+00E
 Epicentro: VILLANUEVA - SANTANDER                                             3
 ACTION:UPD 17-09-14 16:51 OP:jn   STATUS:               ID:20170612082721 L   I
 OLDACT:UP  17-06-12 15:24 OP:dani STATUS:               ID:20170612081744     3
 OLDACT:UP  17-06-12 15:23 OP:dani STATUS:               ID:20170612081744     3
 OLDACT:UP  17-06-12 15:23 OP:dani STATUS:               ID:20170612081744     3
 OLDACT:REG 17-06-12 13:06 OP:dani STATUS:               ID:20170612081744     3
 2017-06-12-0818-00M.COL___347                                                 6
 STAT SP IPHASW D HRMM SECON CODA AMPLIT PERI AZIMU VELO AIN AR TRES W  DIS CAZ7
 BRR  HZ EP        827 43.24                             153    0.1010 72.0 305 
 BRR  HN ES        828  0.29                             153    0.1010 72.0 305 
 BRR  HZ I         828  4.12         7.7 0.46            154           72.0 305 
 PTB  HZ EP        827 48.17                             134   -0.19 9  143 261 
 PTB  HN ES        828  9.22                             134   -0.27 9  143 261 
 PTB  HZ I         828 11.21         2.4 0.16            136            143 261 
 SPBC HZ EP   3    827 50.86                             132    1.29 2  156 220 
 SPBC HE ES        828 12.09                             132    0.44 9  156 220 
 SPBC HZ I         828 15.73         7.1 0.13            134            156 220 
 ZAR  HZ EP        827 54.65                             124    0.56 9  204 294 
 ZAR  HE ES        828 19.20                             124   -0.50 9  204 294 
 ZAR  HZ I         828 25.26         4.6 0.24            126            204 294 
 PTGC HZ EP        828  4.68                             113   -0.15 7  304 158 
 PTGC HN ES        828 38.40                             113   -0.40 7  304 158 
 PTGC HZ I         828 40.67         3.3 0.36            115            304 158 
                                                                                
