 2016  912 0332 21.1 L   6.792 -73.135148.1  RSN 12 0.4 2.0LRSN                1
 GAP= 72        0.91       3.0     3.4  5.1 -0.1396E+01  0.1885E+01 -0.2377E+00E
 Epicentro: LOS SANTOS - SANTANDER                                             3
 ACTION:UPD 17-08-17 21:09 OP:lp   STATUS:               ID:20160912033221 L   I
 OLDACT:UP  16-09-12 19:09 OP:ar   STATUS:               ID:20160912032738     3
 OLDACT:REG 16-09-12 15:20 OP:and  STATUS:               ID:20160912032738     3
 2016-09-12-0328-00M.COL___303                                                 6
 STAT SP IPHASW D HRMM SECON CODA AMPLIT PERI AZIMU VELO AIN AR TRES W  DIS CAZ7
 BAR2 EZ EP        332 40.86                             171   -0.1010 22.7 193 
 BAR2 EZ ES        332 56.19                             171   -0.3010 22.7 193 
 BAR2 EZ I         332 57.10        38.4 0.28            171           22.7 193 
 BRR  HZ IP        332 42.82                             152    0.2810 72.6 299 
 BRR  HE ES        333  0.04                             152    0.7410 72.6 299 
 BRR  HZ I         333  2.96        19.1 0.20            148           72.6 299 
 PAM  EZ EP        332 43.80                             151    0.2810 77.3  38 
 PAM  EN ES        333  0.98                             151   -0.0610 77.3  38 
 PAM  EZ I         333  2.76        22.6 0.60            152           77.3  38 
 RUS  HZ EP        332 44.74                             144   -0.2410 99.7 177 
 RUS  HN ES        333  3.74                             144    0.1010 99.7 177 
 RUS  HZ I         333  5.01         8.5 0.24            148           99.7 177 
 PTB  HZ EP        332 47.79                             132   -0.52 9  149 259 
 PTB  HN ES   4    333  8.55                             132   -1.01 0  149 259 
 PTB  HZ I         333 12.44         9.7 0.26            131            149 259 
 TAM  HZ EP        332 49.07                             131    0.27 9  154 105 
 OCA  HZ EP        332 49.37                             130   -0.28 9  161 353 
 OCA  HN ES        333 11.45                             130   -0.49 9  161 353 
 OCA  HZ I         333 21.95        18.0 0.32            129            161 353 
 SPBC HZ EP        332 49.79                             129    0.04 9  163 219 
 SPBC HN ES        333 11.80                             129   -0.32 9  163 219 
 SPBC HZ I         333 13.94        13.9 0.48            130            163 219 
 ZAR  HZ EP        332 54.44                             123    0.64 8  205 292 
 ZAR  HN ES        333 19.06                             123   -0.28 8  205 292 
 ZAR  HZ I         333 26.53        12.6 0.68            121            205 292 
 NOR  HN ES        333 25.22                             119    0.23 8  235 235 
 NOR  HZ I         333 30.13         6.4 0.20            119            235 235 
 HEL  HZ EP   9    333  3.38                             115    1.88 0  273 256 
 HEL  HN ES        333 34.59                             114   -0.33 8  273 256 
 HEL  HZ I         333 40.11         4.5 0.26            115            273 256 
 GUY2CHZ EP   4    333  7.76                             113    2.93 0  302 235 
 GUY2CHN ES   4    333 41.56                             113    2.59 0  302 235 
 GUY2CHZ I         333 47.99         4.1 0.30                           302 235 
                                                                                
