 2012  912 0406  9.3 L   6.738 -73.106138.9  RSN  7 0.3 2.1LRSN                1
 GAP=174        0.58       6.4     4.8  5.5 -0.1514E+02  0.3452E+01  0.6250E+01E
 Epicentro: JORDAN - SANTANDER                                                 3
 ACTION:UPD 12-10-22 14:18 OP:ep   STATUS:               ID:20120912040609 L   I
 2012-09-12-0400-00M.COL___227                                                 6
 STAT SP IPHASW D HRMM SECON CODA AMPLIT PERI AZIMU VELO AIN AR TRES W  DIS CAZ7
 BAR2 SZ EP        4 6 28.22                             172    0.1810 18.2 208 
 BAR2 SZ ES   1    4 6 42.65                             172    0.02 7 18.2 208 
 BAR2 SZ I         4 6 43.97        45.4 0.21                          18.2 208 
 GIR2 SZ EP        4 6 28.35                             163   -0.0810 38.9 346 
 BRR  HZ EP        4 6 30.15                             149   -0.0310 78.4 301 
 BRR  HN ES   1    4 6 46.95                             149    0.50 7 78.4 301 
 BRR  HZ I         4 6 51.47        21.1 0.16                          78.4 301 
 PAM  SZ EP   1    4 6 30.84                             149   -0.16 7 80.2  34 
 PAM  SN ES   1    4 6 47.65                             149   -0.25 7 80.2  34 
 PAM  SZ I         4 6 50.19        31.1 0.37                          80.2  34 
 PTB  HE ES   2    4 6 56.02                             130   -0.86 5  151 262 
 NOR  SZ EP   2    4 6 44.96                             117    0.32 4  234 236 
 NOR  SN ES   2    4 7 11.76                             117   -0.43 4  234 236 
 NOR  SZ I         4 7 18.15         7.3 0.38                           234 236 
 HEL  HZ EP   1    4 6 49.73                             113    0.22 6  275 257 
 HEL  HZ I         4 7 27.60         6.7 0.60                           275 257 
                                                                                
