 2016  112 0404 55.1 L   6.774 -73.152146.7  RSN  5 0.4 1.2LRSN                1
 GAP=137        1.11       5.2     5.2 10.7 -0.3995E+01  0.1583E+02  0.1941E+00E
 Epicentro: LOS SANTOS - SANTANDER                                             3
 ACTION:UPD 16-03-09 23:24 OP:cam  STATUS:               ID:20160112040455 L   I
 OLDACT:REG 16-01-12 12:46 OP:mh   STATUS:               ID:20160112035746     3
 2016-01-12-0357-46M.COL___258                                                 6
 STAT SP IPHASW D HRMM SECON CODA AMPLIT PERI AZIMU VELO AIN AR TRES W  DIS CAZ7
 PAM  EZ EP        4 5 17.90                             150    0.3710 80.1  39 
 PAM  EN ES        4 5 34.82                             150   -0.2510 80.1  39 
 PAM  EZ I         4 5 36.85         4.2 0.50            154           80.1  39 
 RUS  HZ EP        4 5 18.48                             145   -0.2210 97.7 176 
 RUS  HN ES        4 5 37.37                             145    0.2310 97.7 176 
 RUS  HZ I         4 5 38.85         2.0 0.22            147           97.7 176 
 PTB  HZ EP        4 5 21.61                             132   -0.38 9  146 260 
 PTB  HN ES        4 5 42.21                             132   -0.78 9  146 260 
 PTB  HZ I         4 5 43.98         1.3 0.14            133            146 260 
 SPBC HZ EP        4 5 23.30                             130   -0.07 9  160 219 
 SPBC HN ES        4 5 45.93                             130    0.47 9  160 219 
 SPBC HZ I         4 5 51.46         1.9 0.12            131            160 219 
 ZAR  HE ES        4 5 53.75                             122    0.75 9  204 293 
 ZAR  HZ I         4 5 59.25         2.8 0.09            124            204 293 
                                                                                
