 2015 1212 0311 57.0 L   6.785 -73.120148.1  RSN 13 0.3 1.9LRSN                1
 GAP=141        0.77       2.8     2.9  4.1 -0.1132E+01  0.3473E+01  0.2823E+01E
 Epicentro: LOS SANTOS - SANTANDER                                             3
 ACTION:UPD 16-02-04 15:04 OP:cam  STATUS:               ID:20151212031157 L   I
 OLDACT:DUP 15-12-12 14:53 OP:cara STATUS:               ID:20151212030751d    3
 OLDACT:REG 15-12-12 11:15 OP:drio STATUS:               ID:20151212030750     3
 2015-12-12-0307-50M.COL___340                                                 6
 STAT SP IPHASW D HRMM SECON CODA AMPLIT PERI AZIMU VELO AIN AR TRES W  DIS CAZ7
 BAR2 EZ EP        312 17.03                             171    0.1110 22.4 198 
 BAR2 EZ ES        312 32.13                             171   -0.3010 22.4 198 
 BAR2 EZ I         312 33.28        20.9 0.20            170           22.4 198 
 BRR  HZ EP        312 18.74                             152    0.1210 74.5 299 
 BRR  HN ES        312 36.00                             152    0.5410 74.5 299 
 BRR  HZ I         312 36.64         9.2 0.12            149           74.5 299 
 PAM  EZ EP     C  312 19.81                             151    0.3410 77.0  37 
 PAM  EN ES        312 36.84                             151   -0.1310 77.0  37 
 PAM  EZ I         312 38.98        10.5 0.46            154           77.0  37 
 RUS  HZ EP        312 20.65                             145   -0.2310 98.7 178 
 RUS  HN ES        312 39.52                             145    0.0410 98.7 178 
 RUS  HZ I         312 40.60         7.9 0.20            146           98.7 178 
 PTB  HZ EP        312 23.88                             132   -0.53 9  150 260 
 PTB  HE ES        312 45.49                             132   -0.28 9  150 260 
 PTB  HZ I         312 51.85         8.0 0.54            131            150 260 
 OCA  HZ EP   9    312 23.65                             130   -2.07 0  162 352 
 OCA  HN ES        312 45.95                             131   -0.07 9  162 352 
 OCA  HZ I         312 50.10        10.7 0.16            130            162 352 
 SPBC HZ EP        312 25.85                             129    0.09 9  164 220 
 SPBC HN ES        312 48.36                             129    0.20 9  164 220 
 SPBC HZ I         312 50.50        16.3 0.18            129            164 220 
 ZAR  HZ EP        312 29.82                             122   -0.15 8  207 292 
 ZAR  HN ES        312 55.18                             122   -0.47 8  207 292 
 ZAR  HZ I         313  1.04         5.5 0.30            122            207 292 
 NOR  HZ EP        312 33.09                             119    0.05 8  236 235 
 NOR  HE ES        313  0.93                             119   -0.20 8  236 235 
 NOR  HZ I         313  5.83         5.4 0.18            119            236 235 
 SML  HZ EP   4    312 34.94                             118    0.85 0  246 335 
 SML  HE ES   4    313  1.53                             118   -1.46 0  246 335 
 SML  HZ I         313  5.81         7.5 0.26            118            246 335 
 HEL  HN ES        313  9.92                             115    0.64 8  274 256 
 HEL  HZ I         313 16.64         2.4 0.22            115            274 256 
 GUY2CHZ EP        312 41.54                             113    0.64 7  303 235 
 GUY2CHN ES        313 15.07                             113   -0.05 7  303 235 
 GUY2CHZ I         313 23.26         2.6 0.24                           303 235 
 PRA  HZ EP        312 50.13                             107   -0.50 6  392 210 
 PRA  HN ES        313 32.53                             107    0.10 6  392 210 
 PRA  HZ I         313 39.31         2.4 0.26            107            392 210 
                                                                                
