 2012  412 0605 32.4 L   6.768 -73.134142.0  RSN 16 0.4 3.2LRSN                1
 GAP=116        0.95       3.1     3.7  5.1 -0.1067E+01  0.5549E+01  0.4919E+01E
 Epicentro: LOS SANTOS - SANTANDER                                             3
 ACTION:UPD 12-07-05 11:52 OP:tino STATUS:               ID:20120412060532 L   I
 2012-04-12-0600-00M.COL___181                                                 6
 STAT SP IPHASW D HRMM SECON CODA AMPLIT PERI AZIMU VELO AIN AR TRES W  DIS CAZ7
 BAR2 SZ EP        6 5 51.68                             172     0.210   20 195 
 BAR2 SZ ES        6 6  6.22                             172    -0.210   20 195 
 BAR2 SZ I         6 6  7.62       521.1 0.21                            20 195 
 BRR  HZ IP     C  6 5 53.60                             151     0.310   74 301 
 BRR  HN ES        6 6 10.43                             151     0.910   74 301 
 BRR  HZ I         6 6 13.09       368.0 0.27                            74 301 
 PAM  SZ EP        6 5 54.61                             149     0.310   79  37 
 PAM  SE ES        6 6 11.12                             149    -0.310   79  37 
 PTB  HZ EP        6 5 58.38                             131    -0.7 9  148 260 
 PTB  HN ES   1    6 6 19.29                             131    -0.6 7  148 260 
 OCA  SZ EP        6 6  0.36                             128    -0.4 9  164 353 
 OCA  SZ ES   1    6 6 22.46                             128    -0.4 7  164 353 
 YOP  SZ EP   1    6 6  1.45                             126    -0.3 7  175 153 
 YOP  SE ES   1    6 6 24.30                             126    -0.4 7  175 153 
 ZAR  HZ EP        6 6  4.76                             121    -0.1 8  207 293 
 ZAR  HN ES   1    6 6 30.24                             121     0.1 6  207 293 
 ZAR  HZ I         6 6 36.35       274.9 0.54                           207 293 
 NOR  SZ EP        6 6  8.11                             118     0.4 8  234 235 
 NOR  SE ES   1    6 6 34.96                             118    -0.4 6  234 235 
 CHI  HZ EP   1    6 6  9.88                             117     0.4 6  246 196 
 CHI  HE ES   1    6 6 38.87                             117     0.4 6  246 196 
 CHI  HZ I         6 6 46.01        63.5 0.51                           246 196 
 HEL  HZ EP   1    6 6 11.75                             114    -0.7 6  272 257 
 HEL  HN ES   1    6 6 43.15                             114    -0.5 6  272 257 
 HEL  HZ I         6 6 50.03        65.2 0.39                           272 257 
 GUY  SZ EP   1    6 6 16.63                             111     0.7 5  303 236 
 GUY  SN ES   1    6 6 49.71                             111    -0.2 5  303 236 
 GUY  SZ I         6 6 57.17        83.3 0.41                           303 236 
 RREF HZ EP   1    6 6 18.46                             110     0.3 5  320 230 
 RREF HE ES   1    6 6 53.88                             110     0.0 5  320 230 
 RREF HZ I         6 7  3.33        61.9 0.31                           320 230 
 DBB  SZ EP        6 6 20.00                             109     0.1 7  341 275 
 PRA  HZ EP   1    6 6 25.57                             106     0.1 4  390 210 
 PRA  HN ES   1    6 7  6.75                             106    -0.1 4  390 210 
 SJA  SZ EP   1    6 6 27.12                             106     0.7 4  397 193 
 SJA  SZ ES   1    6 7  8.35                             106    -0.2 4  397 193 
 SJA  SZ I         6 7 17.49        77.6 0.31                           397 193 
 PAL  HZ EP        6 6 27.69                             105     0.4 6  405 240 
                                                                                
