 2017  612 0033  9.5 L   6.764 -73.215159.9  RSN  5 0.5 1.9LRSN                1
 GAP=250        0.93       5.3     9.4  8.2  0.3449E+01 -0.2207E+02 -0.3752E+01E
 Epicentro: ZAPATOCA - SANTANDER                                               3
 ACTION:UPD 17-09-14 16:51 OP:jn   STATUS:               ID:20170612003309 L   I
 OLDACT:UP  17-06-12 13:26 OP:dani STATUS:               ID:20170612002733     3
 OLDACT:REG 17-06-12 12:26 OP:dani STATUS:               ID:20170612002733     3
 2017-06-12-0028-00M.COL___338                                                 6
 STAT SP IPHASW D HRMM SECON CODA AMPLIT PERI AZIMU VELO AIN AR TRES W  DIS CAZ7
 BRR  HZ EP        033 32.04                             156    0.0810 66.7 305 
 BRR  HN ES        033 49.34                             156   -0.1410 66.7 305 
 BRR  HZ I         033 51.74        11.6 0.12            151           66.7 305 
 PTB  HZ EP        033 36.77                             136   -0.17 9  139 260 
 PTB  HN ES        033 57.91                             136   -0.44 9  139 260 
 PTB  HZ I         034  0.86         4.5 0.24            133            139 260 
 SPBC HZ EP        033 38.93                             133    0.53 9  155 218 
 SPBC HN ES        034  0.70                             133   -0.25 9  155 218 
 SPBC HZ I         034  7.69        10.7 0.24            131            155 218 
 ZAR  HZ EP        033 42.80                             126    0.45 9  199 294 
 ZAR  HE ES        034  8.43                             126    0.45 9  199 294 
 ZAR  HZ I         034 14.44         9.7 0.30            124            199 294 
 SJC  HZ EP        034  4.64                             108   -0.82 6  408 328 
 SJC  HN ES   3    034 46.36                             108   -2.76 1  408 328 
 SJC  HZ I         034 54.10         1.7 0.54            108            408 328 
                                                                                
