 2016 1112 0653 32.2 L   6.720 -73.181153.1  RSN  5 0.2 1.2LRSN                1
 GAP=143        0.48       4.9     2.7  3.7  0.1633E+01  0.4667E+00 -0.3692E+01E
 Epicentro: VILLANUEVA - SANTANDER                                             3
 ACTION:UPD 17-10-26 21:07 OP:lp   STATUS:               ID:20161112065332 L   I
 OLDACT:REG 16-11-12 12:55 OP:and  STATUS:               ID:20161112063660d    3
 2016-11-12-0648-00M.COL___340                                                 6
 STAT SP IPHASW D HRMM SECON CODA AMPLIT PERI AZIMU VELO AIN AR TRES W  DIS CAZ7
 BAR2 EZ EP        653 52.54                             174    0.0110 14.2 181 
 BAR2 EZ ES        654  8.34                             174   -0.0810 14.2 181 
 BRR  HZ EP        653 54.32                             153    0.1310 72.6 306 
 BRR  HN ES        654 11.61                             153    0.2510 72.6 306 
 BRR  HZ I         654 15.29         2.9 0.18            149           72.6 306 
 PAM  EZ EP        653 55.53                             149   -0.1910 86.7  38 
 PAM  EN ES   4    654 11.19                             149   -2.90 0 86.7  38 
 PAM  EZ I         654 13.22         2.6 0.24            152           86.7  38 
 PTB  HZ EP        653 59.36                             135    0.09 9  142 262 
 PTB  HN ES        654 20.31                             135   -0.10 9  142 262 
 PTB  HZ I         654 25.26         2.0 0.18            133            142 262 
 ZAR  HZ EP        654  5.26                             124    0.17 9  204 295 
 ZAR  HN ES        654 30.46                             124   -0.31 9  204 295 
 ZAR  HZ I         654 36.79         1.8 0.09            123            204 295 
                                                                                
