 2013  412 0325 10.2 L   6.758 -73.174145.7  RSN  4 0.3 1.5LRSN                1
 GAP=231        0.70       5.6     5.3  5.7  0.1454E+02  0.2932E+01  0.7950E+00E
 Epicentro: VILLANUEVA - SANTANDER                                             3
 ACTION:UPD 13-05-22 14:37 OP:EP   STATUS:               ID:20130412032510 L   I
 2013-04-12-0318-48M.COL___212                                                 6
 STAT SP IPHASW D HRMM SECON CODA AMPLIT PERI AZIMU VELO AIN AR TRES W  DIS CAZ7
 BAR2 SZ EP        325 29.24                             172   -0.4610 18.4 183 
 BAR2 SZ ES        325 44.75                             172   -0.1810 18.4 183 
 BAR2 SZ I         325 47.59         6.7 0.38            173           18.4 183 
 BRR  HZ EP        325 31.30                             153    0.0110 70.9 303 
 BRR  HN ES        325 48.10                             153    0.3410 70.9 303 
 BRR  HN I         325 50.49         6.7 0.64            154           70.9 303 
 RUS  HZ EP        325 33.80                             145    0.2010 96.2 174 
 RUS  HN ES        325 52.05                             145    0.1710 96.2 174 
 RUS  HN I         325 53.64         5.2 0.40            148           96.2 174 
 PTB  HZ EP        325 36.95                             133    0.18 9  144 260 
 PTB  HN ES        325 57.25                             133   -0.28 9  144 260 
 PTB  HN I         325 58.72         3.8 0.38            135            144 260 
                                                                                
