 2010  212 0136 13.6 L   6.901 -73.345122.0  RSN  7 0.4 1.9LRSN                1
 GAP=112        0.83       4.3     8.9  7.5  0.2481E+01  0.3490E+02 -0.3873E+01E
 Epicentro: BETULIA - SANTANDER                                                3
 ACTION:UP  10-08-24 09:48 OP:vdl  STATUS:               ID:20100212013613 L   I
 2010-02-12-0119-50S.COL___086                                                 6
 STAT SP IPHASW D HRMM SECON CODA AMPLIT PERI AZIMU VELO SNR AR TRES W  DIS CAZ7
 GIR2 SZ EP        136 30.63                             167     0.310   26  40 
 GIR2 SZ ES   1    136 43.52                             167     0.2 7   26  40 
 BAR2 SZ IP        136 30.96                             161     0.110   39 152 
 BAR2 SZ ES   1    136 43.84                             161    -0.5 7   39 152 
 GUE  SZ IP        136 36.15                             134     0.210  113  24 
 OCA  SZ IP        136 38.34                             126    -0.6 9  148   1 
 OCA  SZ ES   2    136 59.20                             126     0.5 5  148   1 
 CHI  HZ EP   1    136 50.89                             111     0.1 6  255 190 
 CHI  HN ES   2    137 19.81                             111     0.0 4  255 190 
 CHI  HZ I         137 24.71         3.7 0.57                           255 190 
 MON  HZ EP   1    136 58.26                             105    -0.7 5  329 309 
 MON  HN ES   1    137 34.57                             105     0.3 5  329 309 
 MON  HZ I         137 47.33         4.3 0.74                           329 309 
 PRA  HZ EP   2    137  6.94                             102     0.6 3  392 206 
 PRA  HZ I         137 54.37         2.8 0.39                           392 206 
                                                                                
