 2017 1012 0119 33.3 L   6.803 -73.159141.2  RSN  7 0.3 1.8LRSN                1
 GAP=110        0.79       3.2     3.4  5.1  0.1175E+01  0.4377E+01  0.2600E+01E
 Epicentro: LOS SANTOS - SANTANDER                                             3
 ACTION:UPD 17-11-07 19:30 OP:rebc STATUS:               ID:20171012011933 L   I
 OLDACT:UP  17-10-12 15:29 OP:y    STATUS:               ID:20171012010721     3
 OLDACT:REG 17-10-12 13:28 OP:leo  STATUS:               ID:20171012010721     3
 2017-10-12-0108-00M.COL___417                                                 6
 STAT SP IPHASW D HRMM SECON CODA AMPLIT PERI AZIMU VELO AIN AR TRES W  DIS CAZ7
 BAR2 EZ EP        119 52.21                             170   -0.1710 23.5 186 
 BAR2 EZ ES        120  7.52                             170    0.2510 23.5 186 
 BAR2 EZ I         120  8.17        15.9 0.24            169           23.5 186 
 PAM  EZ EP        119 55.01                             150   -0.0610 78.1  41 
 PAM  EN ES        120 12.09                             150    0.0410 78.1  41 
 PAM  EZ I         120 14.01        12.5 0.52            152           78.1  41 
 RUS  HZ EP        119 56.37                             143   -0.2710  101 175 
 RUS  HN ES        120 14.76                             143   -0.0810  101 175 
 RUS  HZ I         120 16.85        14.3 0.24            143            101 175 
 PTB  HZ EP        119 59.15                             131   -0.62 9  146 259 
 PTB  HN ES        120 20.18                             131   -0.23 9  146 259 
 PTB  HZ I         120 22.57         6.4 0.18            132            146 259 
 YPLC HN EP        120  2.99                             125    0.12 9  178 151 
 ZAR  HZ EP        120  5.97                             122    0.68 9  203 292 
 ZAR  HN ES        120 30.39                             122    0.15 9  203 292 
 ZAR  HZ I         120 32.87         7.1 0.16            123            203 292 
 CHI  HZ EP        120 10.79                             116    0.05 8  249 195 
 CHI  HN ES        120 40.45                             116    0.50 8  249 195 
 CHI  HZ I         120 43.89         2.5 0.30            117            249 195 
                                                                                
