 2011  412 0346 46.4 L   6.698 -73.075139.8  RSN  5 0.2 1.8LRSN                1
 GAP=195        0.57       7.4     7.7  9.2 -0.2953E+02 -0.5049E+01  0.2523E+02E
 Epicentro: JORDAN - SANTANDER                                                 3
 ACTION:UP  11-06-22 15:30 OP:REBC STATUS:               ID:20110412034646 L   I
 2011-04-12-0345-00S.COL___139                                                 6
 STAT SP IPHASW D HRMM SECON CODA AMPLIT PERI AZIMU VELO SNR AR TRES W  DIS CAZ7
 BAR2 SZ EP   1    347  4.89                             173    -0.3 7   17 226 
 BAR2 SZ I         347 21.84        12.8 0.42                            17 226 
 BTL  SZ EP   1    347  5.76                             166     0.3 7   32 319 
 PAM  SZ EP   1    347  8.36                             148     0.1 7   82  30 
 PAM  SN ES   1    347 25.38                             148     0.1 7   82  30 
 PAM  SZ I         347 27.73         4.1 0.33                            82  30 
 BRR  HZ EP   1    347  7.43                             147    -0.2 7   84 303 
 BRR  HZ I         347  7.75        31.6 0.17                            84 303 
 BRR  HE ES   2    347 24.52                             147     0.3 5   84 303 
 GRA  SZ EP   1    347 12.09                             133     0.2 7  135  13 
 GRA  SZ ES   1    347 31.43                             133    -0.3 7  135  13 
 GRA  SZ I         347 34.91        10.6 0.29                           135  13 
                                                                                
