 2013  412 0450 50.1 L   6.799 -73.012146.8  RSN  4 0.1 1.7LRSN                1
 GAP=217        0.46       4.1     7.8  3.9  0.2272E+02 -0.3628E+01  0.4995E+00E
 Epicentro: CEPITA - SANTANDER                                                 3
 ACTION:UPD 13-05-22 14:37 OP:EP   STATUS:               ID:20130412045050 L   I
 2013-04-12-0448-45M.COL___209                                                 6
 STAT SP IPHASW D HRMM SECON CODA AMPLIT PERI AZIMU VELO AIN AR TRES W  DIS CAZ7
 BAR2 SZ EP        451 10.02                             168    0.0110 29.6 220 
 BAR2 SZ ES        451 25.57                             168    0.0410 29.6 220 
 BAR2 SZ I         451 26.79         8.6 0.40            161           29.6 220 
 GIR2 SZ ES        451 25.61                             165   -0.0310 36.9 327 
 BRR  HZ EP        451 11.94                             148   -0.2310 84.6 294 
 BRR  HN ES        451 29.51                             148    0.1310 84.6 294 
 BRR  HN I         451 32.75        12.0 0.20            143           84.6 294 
 RUS  HZ EP        451 14.19                             144    0.2310  100 185 
 RUS  HN ES        451 32.40                             144   -0.1610  100 185 
 RUS  HN I         451 33.39         6.1 0.30            142            100 185 
                                                                                
