 2014 1212 0205 49.5 L   6.815 -73.157143.3  RSN 16 0.5 2.1LRSN                1
 GAP=112        1.17       3.0     3.9  6.2 -0.1592E+01  0.5594E+01 -0.5107E+00E
 Epicentro: LOS SANTOS - SANTANDER                                             3
 ACTION:UPD 15-02-10 17:02 OP:nd   STATUS:               ID:20141212020549 L   I
 OLDACT:REG 14-12-12 12:58 OP:fm   STATUS:               ID:20141212015744     3
 2014-12-12-0157-44M.COL___297                                                 6
 STAT SP IPHASW D HRMM SECON CODA AMPLIT PERI AZIMU VELO AIN AR TRES W  DIS CAZ7
 BAR2 EZ EP     D  2 6  9.30                             170    0.4910 24.7 187 
 BAR2 EZ ES        2 6 24.82                             170    0.9110 24.7 187 
 BAR2 EZ I         2 6 27.76        21.5 0.26            168           24.7 187 
 RUS  HZ EP        2 6 13.21                             143    0.1310  102 175 
 RUS  HE ES        2 6 30.69                             143   -0.8210  102 175 
 RUS  HZ I         2 6 32.93         8.9 0.28            146            102 175 
 PTB  HZ EP        2 6 15.91                             132   -0.23 9  147 258 
 PTB  HE ES        2 6 37.56                             132    0.60 9  147 258 
 PTB  HZ I         2 6 41.93        16.4 0.12            131            147 258 
 TAM  HZ EP        2 6 17.33                             130    0.25 9  157 105 
 OCA  HZ EP        2 6 16.89                             129   -0.52 9  159 354 
 OCA  HE ES        2 6 38.26                             129   -0.95 9  159 354 
 OCA  HZ I         2 6 43.32         8.0 0.16            131            159 354 
 SPBC HZ EP        2 6 18.27                             128    0.46 9  164 218 
 SPBC HN ES        2 6 39.52                             128   -0.41 9  164 218 
 SPBC HZ I         2 6 43.20        24.6 0.30            129            164 218 
 ZAR  HN ES        2 6 46.75                             122    0.15 9  202 292 
 ZAR  HZ I         2 6 53.54        16.9 0.68            122            202 292 
 NOR  HZ EP        2 6 24.85                             118   -0.19 8  235 234 
 NOR  HE ES        2 6 52.45                             118   -0.34 8  235 234 
 NOR  HZ I         2 6 58.89        12.5 0.30            119            235 234 
 SML  HZ EP        2 6 26.00                             117    0.27 8  242 335 
 SML  HE ES        2 6 54.24                             117    0.22 8  242 335 
 SML  HZ I         2 6 57.58        19.9 0.10            119            242 335 
 CHI  HZ EP        2 6 26.60                             116   -0.55 8  250 195 
 CHI  HE ES        2 6 56.35                             116   -0.20 8  250 195 
 CHI  HZ I         2 7  2.86         3.5 0.36            119            250 195 
 HEL  HZ EP        2 6 29.98                             114    0.52 8  271 255 
 HEL  HN ES        2 6 59.73                             114   -0.93 8  271 255 
 HEL  HZ I         2 7  7.71         5.8 0.68            115            271 255 
 URE  HZ EP   1    2 6 30.19                             113   -0.02 6  282 292 
 URE  HE ES   4    2 7  0.77                             113   -1.23 0  282 292 
 URE  HZ I         2 7 13.36         9.2 0.28            114            282 292 
 GUY2CHZ EP        2 6 33.70                             112    0.76 7  301 234 
 GUY2CHE ES        2 7  6.79                             112   -0.07 7  301 234 
 GUY2CHZ I         2 7 15.99         7.1 0.58                           301 234 
 RREF HZ EP        2 6 35.29                             110   -0.22 7  322 229 
 RREF HN ES        2 7 12.07                             110    0.65 7  322 229 
 RREF HZ I         2 7 19.45         6.4 0.40            112            322 229 
 CBOC HZ EP        2 6 36.78                             109    0.59 7  333 252 
 CBOC HN ES        2 7 12.46                             109   -0.19 7  333 252 
 CBOC HZ I         2 7 25.96         2.6 0.40            111            333 252 
 TOL  SZ EP        2 6 37.61                             109   -0.04 7  344 224 
 TOL  SE ES        2 7 14.91                             109   -0.32 7  344 224 
 TOL  SZ I         2 7 20.52        13.8 0.72            110            344 224 
                                                                                
