 2015  412 0957 33.9 L   6.335 -73.602111.0  RSN  9 0.4 2.1LRSN                1
 GAP= 84        0.97       2.8     3.2  5.9 -0.2065E+01  0.6585E+01 -0.2204E+01E
 Epicentro: SANTA HELENA DEL OPON - SANTANDER                                  3
 ACTION:UPD 15-06-03 16:54 OP:cam  STATUS:               ID:20150412095733 L   I
 OLDACT:REG 15-04-12 16:22 OP:carl STATUS:               ID:20150412094749     3
 2015-04-12-0947-49M.COL___263                                                 6
 STAT SP IPHASW D HRMM SECON CODA AMPLIT PERI AZIMU VELO AIN AR TRES W  DIS CAZ7
 BAR2 EZ IP     C  957 50.95                             152    0.2810 54.4  59 
 BAR2 EZ ES        958  3.76                             152   -0.0010 54.4  59 
 BAR2 EZ I         958  5.50        77.3 0.42            154           54.4  59 
 RUS  HZ EP        957 52.52                             144    0.1210 75.5 130 
 RUS  HE ES        958  6.83                             144   -0.0110 75.5 130 
 RUS  HZ I         958  8.11        17.0 0.22            149           75.5 130 
 BRR  HZ IP     C  957 52.50                             139   -0.0310 86.2 352 
 BRR  HN ES        958  7.69                             139    0.6210 86.2 352 
 BRR  HZ I         958 13.41        17.9 0.14            139           86.2 352 
 SPBC HZ EP        957 53.09                             137   -0.0110 91.8 215 
 SPBC HN ES        958  7.78                             137   -0.3210 91.8 215 
 SPBC HZ I         958  9.81        35.4 0.10            142           91.8 215 
 PTB  HZ EP        957 52.74                             136   -0.7210 97.2 283 
 PTB  HN ES        958  8.05                             136   -0.6810 97.2 283 
 PTB  HZ I         958  9.89        23.7 0.34            137           97.2 283 
 NOR  HZ EP        958  0.44                             120    0.40 9  164 239 
 NOR  HN ES        958 20.92                             120    0.48 9  164 239 
 NOR  HZ I         958 22.56        15.1 0.14            123            164 239 
 ZAR  HZ EP        958  2.51                             116   -0.12 9  189 313 
 ZAR  HE ES        958 25.60                             116    0.54 9  189 313 
 ZAR  HZ I         958 30.33        25.8 0.34            117            189 313 
 OCA  HZ EP        958  5.17                             112   -0.32 8  213   8 
 OCA  HN ES        958 29.91                             112   -0.24 8  213   8 
 OCA  HZ I         958 35.95        30.2 0.28            115            213   8 
 GUY2CHZ EP        958  7.85                             111   -0.08 8  231 238 
 GUY2CHN ES        958 34.73                             111    0.23 8  231 238 
 GUY2CHZ I         958 42.00         5.5 0.24                           231 238 
                                                                                
