 2013  512 0023 13.4 L   6.773 -73.162153.2  RSN  7 0.4 1.6LRSN                1
 GAP=136        0.82       4.5     5.2  7.0  0.4857E+00  0.4295E+01 -0.1776E+01E
 Epicentro: LOS SANTOS - SANTANDER                                             3
 ACTION:UPD 13-06-20 09:49 OP:ep   STATUS:               ID:20130512002313 L   I
 2013-05-12-0020-00M.COL___256                                                 6
 STAT SP IPHASW D HRMM SECON CODA AMPLIT PERI AZIMU VELO AIN AR TRES W  DIS CAZ7
 BAR2 SZ EP        023 33.91                             172    0.0510 20.1 186 
 BAR2 SZ ES   1    023 49.62                             172   -0.20 7 20.1 186 
 BAR2 SZ I         023 50.42         9.0 0.38            171           20.1 186 
 GIR2 SZ EP   1    023 34.44                             167    0.42 7 34.0 354 
 BRR  HZ IP     C  023 35.62                             154    0.2810 71.1 301 
 BRR  HN ES   1    023 53.16                             154    0.70 7 71.1 301 
 BRR  HZ I         023 56.99         7.4 0.22            151           71.1 301 
 PAM  SZ EP        023 36.77                             151    0.1710 80.8  39 
 PAM  SN ES   1    023 54.29                             151   -0.42 7 80.8  39 
 PAM  SZ I         023 55.96         4.2 0.50            155           80.8  39 
 RUS  HZ EP        023 37.81                             146    0.1210 97.8 175 
 RUS  HN ES   1    023 56.23                             146   -0.41 7 97.8 175 
 RUS  HZ I         023 57.39         4.2 0.36            149           97.8 175 
 PTB  HZ EP        023 40.35                             134   -0.42 9  145 260 
 PTB  HN ES   1    024  2.05                             134   -0.07 7  145 260 
 PTB  HZ I         024  7.59         7.1 0.16            134            145 260 
 SML  HE ES   1    024 18.95                             119   -0.76 6  246 336 
                                                                                
