 2014 1212 0418  3.3 L   6.817 -73.067151.1  RSN 13 0.4 1.8LRSN                1
 GAP=191        1.02       2.8     4.5  6.1 -0.1425E+01  0.6649E+01 -0.9524E+00E
 Epicentro: LOS SANTOS - SANTANDER                                             3
 ACTION:UPD 15-02-10 17:02 OP:nd   STATUS:               ID:20141212041803 L   I
 OLDACT:DUP 14-12-12 15:15 OP:fm   STATUS:               ID:20141212040744d    3
 2014-12-12-0407-40M.COL___297                                                 6
 STAT SP IPHASW D HRMM SECON CODA AMPLIT PERI AZIMU VELO AIN AR TRES W  DIS CAZ7
 BAR2 EZ EP        418 23.98                             169    0.3210 28.0 207 
 BAR2 EZ ES        418 39.86                             169    0.3210 28.0 207 
 BAR2 EZ I         418 42.63        10.3 0.28            166           28.0 207 
 RUS  HZ EP        418 27.49                             144   -0.1910  102 181 
 RUS  HE ES        418 46.65                             144   -0.0610  102 181 
 RUS  HZ I         418 48.73         3.0 0.44            148            102 181 
 PTB  HZ EP        418 30.74                             131   -0.76 9  157 259 
 PTB  HE ES        418 52.79                             131   -0.71 9  157 259 
 PTB  HZ I         419  0.48         6.4 0.42            132            157 259 
 OCA  HZ EP        418 31.28                             131   -0.68 9  160 350 
 OCA  HN ES        418 54.37                             131    0.05 9  160 350 
 OCA  HZ I         419  1.29         6.1 0.50            133            160 350 
 SPBC HZ EP        418 33.55                             129    0.69 9  170 221 
 SPBC HN ES        418 56.37                             129    0.44 9  170 221 
 SPBC HZ I         419  2.85        11.2 0.44            131            170 221 
 ZAR  HN ES        419  3.06                             123    0.05 8  211 291 
 ZAR  HZ I         419 13.86         5.2 0.36            123            211 291 
 NOR  HZ EP        418 40.17                             119   -0.04 8  243 235 
 NOR  HN ES        419  8.69                             119   -0.31 8  243 235 
 NOR  HZ I         419 12.78         3.6 0.22            121            243 235 
 SML  HZ EP        418 40.85                             118    0.41 8  246 333 
 SML  HE ES        419  9.53                             118    0.12 8  246 333 
 SML  HZ I         419 13.40         9.9 0.24            120            246 333 
 CHI  HZ EP        418 41.66                             118   -0.08 8  253 197 
 CHI  HN ES        419 11.14                             118   -0.60 8  253 197 
 CHI  HZ I         419 18.34         2.2 0.50            121            253 197 
 HEL  HZ EP        418 44.89                             115    0.13 7  281 256 
 HEL  HN ES        419 17.39                             115    0.29 7  281 256 
 HEL  HZ I         419 23.64         2.7 0.38            117            281 256 
 GUY2CHZ EP        418 48.86                             113    0.79 7  309 235 
 GUY2CHN ES        419 23.51                             113    0.51 7  309 235 
 GUY2CHZ I         419 31.81         4.4 0.76                           309 235 
 TOL  SN ES        419 30.78                             110   -0.32 6  351 225 
 TOL  SZ I         419 36.08         5.8 0.24            112            351 225 
 MON  HZ EP   4    418 49.40                             109   -3.75 0  359 307 
 MON  HN ES   4    419 28.96                             109   -3.09 0  359 307 
 MON  HZ I         419 39.47         0.9 0.66            111            359 307 
                                                                                
