 2014  512 0734 41.3 L   6.777 -73.187139.9  RSN  4 0.2 1.1LRSN                1
 GAP=197        0.49       3.4     3.8  8.5  0.5462E+01 -0.2057E+01 -0.1791E+02E
 Epicentro: LOS SANTOS - SANTANDER                                             3
 ACTION:UPD 15-03-16 16:57 OP:nd   STATUS:               ID:20140512073441 L   I
 OLDACT:DUP 14-05-12 17:32 OP:cam  STATUS:               ID:20140512072806d    3
 2014-05-12-0728-05M.COL___248                                                 6
 STAT SP IPHASW D HRMM SECON CODA AMPLIT PERI AZIMU VELO AIN AR TRES W  DIS CAZ7
 RUS  HZ EP   2    735  4.66                             143    0.30 5 98.5 173 
 RUS  HN ES        735 22.35                             143    0.0310 98.5 173 
 PTB  HZ EP        735  7.28                             132   -0.10 9  143 259 
 PTB  HN ES        735 27.48                             132   -0.21 9  143 259 
 PTB  HZ I         735 33.26         1.3 0.24            135            143 259 
 ZAR  HN ES        735 38.19                             121    0.36 9  201 293 
 SML  HZ EP   2    735 17.59                             116   -0.10 4  244 337 
 SML  HN ES        735 45.92                             116   -0.12 8  244 337 
 SML  HZ I         735 50.43         1.4 0.26            119            244 337 
                                                                                
