 2016  512 0622 39.4 L   6.809 -73.173138.4  RSN  8 0.3 1.5LRSN                1
 GAP=133        0.83       2.8     3.4  5.3 -0.1152E+01  0.4152E+01 -0.2336E+01E
 Epicentro: LOS SANTOS - SANTANDER                                             3
 ACTION:UPD 16-08-18 17:45 OP:cam  STATUS:               ID:20160512062239 L   I
 OLDACT:REG 16-05-12 12:20 OP:drio STATUS:               ID:20160512061742     3
 2016-05-12-0617-42M.COL___304                                                 6
 STAT SP IPHASW D HRMM SECON CODA AMPLIT PERI AZIMU VELO AIN AR TRES W  DIS CAZ7
 BAR2 EZ IP        622 57.89                             170   -0.2510 24.0 183 
 BAR2 EZ ES        623 12.96                             170    0.1910 24.0 183 
 BAR2 EZ I         623 13.76         4.0 0.16            170           24.0 183 
 BRR  HZ EP        622 59.82                             152    0.2710 68.1 299 
 BRR  HN ES        623 15.85                             152    0.5610 68.1 299 
 BRR  HZ I         623 21.98         7.5 0.46            150           68.1 299 
 PAM  EZ IP        623  0.81                             149   -0.0710 78.5  42 
 PAM  EN ES        623 17.58                             149   -0.0810 78.5  42 
 PAM  EZ I         623 19.89         6.5 0.58            153           78.5  42 
 RUS  HZ EP        623  2.63                             142    0.1210  102 174 
 RUS  HE ES        623 20.28                             142   -0.2710  102 174 
 RUS  HZ I         623 21.41         2.2 0.24            146            102 174 
 PTB  HZ EP        623  5.56                             131    0.06 9  145 258 
 PTB  HN ES        623 25.32                             131   -0.56 9  145 258 
 PTB  HZ I         623 28.57         4.4 0.16            132            145 258 
 OCA  HZ EP        623  7.49                             128    0.50 9  159 354 
 OCA  HN ES        623 27.94                             128   -0.59 9  159 354 
 OCA  HZ I         623 32.24        11.6 0.46            131            159 354 
 SPBC HN ES        623 29.07                             127    0.13 9  162 218 
 SPBC HZ I         623 36.30         2.5 0.10            130            162 218 
 ZAR  HZ EP        623 10.94                             121   -0.08 9  201 292 
 ZAR  HN ES        623 35.69                             121   -0.02 9  201 292 
 ZAR  HZ I         623 41.79         4.4 0.34            122            201 292 
                                                                                
