 2012  612 0158 16.5 L   6.036 -74.180  4.2  RSN  5 0.4 1.2LRSN                1
 GAP= 96        0.79       2.7     2.2  6.6 -0.5832E+00 -0.7751E+00  0.5359E+00E
 Epicentro: LA BELLEZA - SANTANDER                                             3
 ACTION:UPD 12-08-06 17:48 OP:ep   STATUS:               ID:20120612015816 L   I
 2012-06-12-0150-00M.COL___201                                                 6
 STAT SP IPHASW D HRMM SECON CODA AMPLIT PERI AZIMU VELO AIN AR TRES W  DIS CAZ7
 PTB  HZ EP   1    158 26.80                              47    0.08 7 63.5 331 
 PTB  HN ES   1    158 34.71                              47    0.01 7 63.5 331 
 PTB  HZ I         158 35.29        20.7 0.40             47           63.5 331 
 NOR  SZ EP   1    158 30.85                              47   -0.30 7 92.5 236 
 NOR  SE ES   1    158 42.45                              47   -0.13 7 92.5 236 
 RUS  HZ EP   1    158 36.38                              47    0.24 7  122  97 
 RUS  HN ES   1    158 51.01                              47   -0.47 7  122  97 
 RUS  HZ I         158 52.11         1.8 0.17             47            122  97 
 BAR2 SZ EP   1    158 37.27                              47    0.80 7  126  61 
 BAR2 SZ ES   1    158 51.60                              47   -0.46 7  126  61 
 BAR2 SZ I         158 53.86         6.3 0.56             47            126  61 
 CHI  HE ES   2    159  3.01                              47    0.68 5  163 162 
                                                                                
