 2010  512 0558 35.2 L   6.776 -72.976139.9  RSN  4 0.2 1.3LRSN                1
 GAP=178        0.48       3.6     6.9  6.1  0.9957E+01 -0.2302E+02 -0.1025E+02E
 Epicentro: CEPITA - SANTANDER                                                 3
 ACTION:UP  10-08-24 10:04 OP:vdl  STATUS:               ID:20100512055835 L   I
 2010-05-12-0556-41S.COL___104                                                 6
 STAT SP IPHASW D HRMM SECON CODA AMPLIT PERI AZIMU VELO AIN AR TRES W  DIS CAZ7
 BAR2 SZ EP        558 54.09                             167    -0.210   31 229 
 BAR2 SZ ES   1    559  8.96                             167    -0.2 7   31 229 
 BRR  HZ EP        558 56.80                             146     0.010   89 294 
 BRR  HN ES   1    559 13.89                             146     0.1 7   89 294 
 BRR  HZ I         559 15.87         5.2 0.14                            89 294 
 RUS  HZ EP        558 58.18                             143     0.010   98 187 
 RUS  HN ES   1    559 16.41                             143     0.3 7   98 187 
 RUS  HZ I         559 18.02         2.8 0.30                            98 187 
 GRA  SZ EP        558 59.90                             136     0.110  124   9 
                                                                                
