 2011 1212 0545 24.8 L   6.786 -73.403123.3  RSN  4 0.3 1.5LRSN                1
 GAP=175        0.57       6.2     8.5  6.5  0.3944E+02  0.2188E+02  0.1267E+02E
 Epicentro: SAN VICENTE DE CHUCURI - SANTANDER                                 3
 ACTION:UPD 12-07-13 16:15 OP:ep   STATUS:               ID:20111212054524 L   I
 2011-12-12-0540-00M.COL___186                                                 6
 STAT SP IPHASW D HRMM SECON CODA AMPLIT PERI AZIMU VELO AIN AR TRES W  DIS CAZ7
 BAR2 SZ EP        545 41.88                             164   -0.0810 32.5 131 
 BAR2 SZ ES   1    545 54.97                             164   -0.41 7 32.5 131 
 BAR2 SZ I         545 56.19        12.4 0.39                          32.5 131 
 BRR  HZ EP   1    545 42.30                             157    0.01 7 49.2 316 
 BRR  HN ES   1    545 56.30                             157    0.35 7 49.2 316 
 BRR  HZ I         545 57.15        12.0 0.18                          49.2 316 
 RUS  HZ EP   1    545 47.05                             137    0.31 7  105 160 
 RUS  HN ES        546  3.98                             137    0.1010  105 160 
 RUS  HZ I         546  5.31         3.3 0.24                           105 160 
 PTB  HZ EP   1    545 47.05                             133   -0.30 7  120 257 
                                                                                
