 2010  712 0547 22.8 L   6.790 -73.095146.4  RSN 13 0.4 2.3LRSN                1
 GAP=161        0.90       3.5     6.6  6.2 -0.9885E+01  0.5172E+01  0.1197E+01E
 Epicentro: LOS SANTOS - SANTANDER                                             3
 ACTION:UPD 10-12-01 15:17 OP:pat  STATUS:               ID:20100712054722 L   I
 2010-07-12-0544-40S.COL___120                                                 6
 STAT SP IPHASW D HRMM SECON CODA AMPLIT PERI AZIMU VELO AIN AR TRES W  DIS CAZ7
 BAR2 SZ IP        547 42.37                             170    -0.210   24 204 
 BAR2 SZ ES   1    547 57.62                             170    -0.3 7   24 204 
 BAR2 SZ I         547 59.07        49.6 0.38                            24 204 
 BRR  HZ EP        547 44.24                             151    -0.110   77 297 
 BRR  HN ES   1    548  1.50                             151     0.3 7   77 297 
 BRR  HZ I         548  5.35        51.3 0.09                            77 297 
 RUS  HZ IP     D  547 46.30                             144    -0.310   99 179 
 RUS  HZ I         547 47.48        12.7 0.10                            99 179 
 RUS  HE ES   1    548  5.30                             144     0.2 7   99 179 
 BRI  SZ IP        547 46.88                             142     0.210  108  18 
 BRI  SZ I         548 14.59        17.7 0.52                           108  18 
 GUE  SZ IP        547 48.31                             139     0.710  117   9 
 GUE  SZ I         548 13.03        10.0 0.18                           117   9 
 GRA  SZ IP        547 48.12                             137     0.010  125  15 
 GRA  SZ ES   1    548  7.61                             137    -0.2 7  125  15 
 GRA  SZ I         548 13.67        20.7 0.34                           125  15 
 OCA  SZ EP   1    547 50.50                             129    -0.9 7  162 351 
 OCA  SZ ES   1    548 13.51                             129    -0.1 7  162 351 
 OCA  SZ I         548 17.56        33.9 0.29                           162 351 
 ROSC BZ EP   1    548  1.91                             117     0.7 6  255 212 
 ROSC BN ES   1    548 31.45                             117     0.3 6  255 212 
 ROSC BZ I         548 39.95        19.4 0.47                           255 212 
 HEL  HZ EP   2    548  3.75                             114     0.1 4  277 256 
 HEL  HE ES   2    548 35.34                             114    -0.1 4  277 256 
 HEL  HZ I         548 41.28        18.9 0.32                           277 256 
 GUY  SZ EP   2    548  7.11                             112     0.2 4  305 236 
 RREF HZ EP   1    548  9.64                             111     0.2 5  325 230 
 RREF HZ I         548 57.44        14.7 0.48                           325 230 
 DBB  SZ EP   2    548 10.60                             109    -0.4 3  345 274 
 PRA  HZ IP     C  548 16.12                             106    -0.5 6  394 210 
 PRA  HE ES   1    548 58.18                             106    -0.3 4  394 210 
 PRA  HZ I         549  2.60        13.5 0.47                           394 210 
                                                                                
