 2015  312 0337 44.7 L   6.835 -73.153145.2  RSN 23 0.5 2.6LRSN                1
 GAP= 69        1.14       2.9     3.4  5.0 -0.2440E+01  0.4092E+01  0.1056E+01E
 Epicentro: LOS SANTOS - SANTANDER                                             3
 ACTION:UPD 15-04-30 16:25 OP:nd   STATUS:               ID:20150312033744 L   I
 OLDACT:UP  15-03-12 14:51 OP:cam  STATUS:               ID:20150312032749     3
 OLDACT:REG 15-03-12 13:19 OP:cam  STATUS:               ID:20150312032749     3
 2015-03-12-0327-49M.COL___284                                                 6
 STAT SP IPHASW D HRMM SECON CODA AMPLIT PERI AZIMU VELO AIN AR TRES W  DIS CAZ7
 BAR2 EZ IP     D  338  4.36                             169   -0.0110 27.1 187 
 BAR2 EZ ES        338 19.32                             169   -0.3710 27.1 187 
 BAR2 EZ I         338 20.75        60.5 0.58            167           27.1 187 
 BRR  HZ IP     D  338  6.08                             153    0.4110 68.7 296 
 BRR  HN ES        338 23.20                             153    1.1910 68.7 296 
 BRR  HZ I         338 23.27        47.1 0.12            149           68.7 296 
 PAM  SZ IP     D  338  7.02                             151    0.2910 74.9  42 
 PAM  SN ES        338 24.14                             151    0.2410 74.9  42 
 PAM  SZ I         338 26.15        93.3 0.52            154           74.9  42 
 RUS  HZ EP        338  8.50                             143   -0.2110  105 176 
 RUS  HN ES        338 26.74                             143   -0.6810  105 176 
 RUS  HZ I         338 28.87        54.8 0.38            142            105 176 
 PTB  HZ EP        338 10.93                             132   -0.72 9  148 257 
 PTB  HE ES        338 32.27                             132   -0.38 9  148 257 
 PTB  HZ I         338 34.58        59.2 0.40            129            148 257 
 OCA  HZ EP        338 13.17                             130    0.55 9  156 353 
 OCA  HN ES        338 33.88                             130   -0.49 9  156 353 
 OCA  HZ I         338 39.35        46.5 0.34            130            156 353 
 TAM  HZ IP     D  338 12.75                             130    0.23 9  157 106 
 TAM  HN ES        338 34.26                             130    0.05 9  157 106 
 TAM  HN I         338 35.24        59.8 0.52            132            157 106 
 SPBC HZ EP        338 13.38                             128   -0.04 9  166 218 
 SPBC HE ES        338 35.85                             128    0.04 9  166 218 
 SPBC HZ I         338 39.94        65.5 0.18            127            166 218 
 NOR  HZ EP        338 20.73                             118    0.14 8  236 234 
 NOR  HN ES        338 48.24                             118   -0.34 8  236 234 
 NOR  HZ I         338 55.74        25.4 0.16            117            236 234 
 SML  HZ EP        338 21.08                             118    0.18 8  240 335 
 SML  HN ES        338 48.52                             118   -0.59 8  240 335 
 SML  HZ I         338 51.22        52.1 0.10            117            240 335 
 ROSC BZ EP   4    338 24.27                             116    1.14 0  256 210 
 ROSC BE ES   4    338 55.28                             116    2.19 0  256 210 
 ROSC BZ I         339  1.41        37.0 0.40            115            256 210 
 HEL  HZ EP   4    338 26.39                             115    1.46 0  272 255 
 HEL  HN ES   4    338 54.41                             115   -1.88 0  272 255 
 HEL  HZ I         339  4.29        16.0 0.54            113            272 255 
 GUY2CHZ EP        338 29.24                             112    0.75 7  303 234 
 GUY2CHN ES   4    339  1.44                             112   -1.18 0  303 234 
 GUY2CHZ I         339 10.86        16.7 0.52                           303 234 
 PTGC HN ES   4    339  0.81                             111   -2.73 0  313 159 
 RREF HZ EP   4    338 32.66                             111    1.60 0  324 229 
 RREF HN ES        339  6.82                             111   -0.39 7  324 229 
 CBOC HZ EP        338 32.05                             110    0.38 7  334 251 
 CBOC HN ES   4    339  6.62                             110   -1.66 0  334 251 
 CBOC HZ I         339 20.15         6.0 0.52            109            334 251 
 DBB  SZ EP        338 31.19                             109   -0.86 7  338 274 
 DBB  SZ ES   4    339  6.68                             109   -2.29 0  338 274 
 DBB  SZ I         339 12.07        39.8 0.34            108            338 274 
 TOL  SZ EP   4    338 34.34                             109    1.13 0  346 224 
 TOL  SN ES   4    339 12.77                             109    1.74 0  346 224 
 TOL  SZ I         339 18.44        14.4 0.36            108            346 224 
 MON  HZ EP   4    338 31.50                             109   -1.85 0  351 308 
 MON  HN ES   4    339  9.74                             109   -1.54 0  351 308 
 MON  HZ I         339 24.36         7.9 0.60            108            351 308 
 SDV  BZ EP        338 33.68                             108   -0.84 6  359  51 
 SDV  BN ES   4    339 10.94                             108   -2.43 0  359  51 
 SDV  BZ I         339 13.56         7.4 0.40            109            359  51 
 ANIL HZ EP   4    338 35.85                             108    1.09 0  360 224 
 ANIL HN ES   4    339 15.87                             108    2.07 0  360 224 
 ANIL HZ I         339 21.17         5.1 0.30            107            360 224 
 PRA  HZ EP        338 38.52                             106   -0.05 6  395 209 
 PRA  HN ES        339 21.25                             106    0.67 6  395 209 
 PRA  HZ I         339 25.05        16.4 0.34            106            395 209 
 ORTC HZ EP        338 38.67                             106   -0.27 6  398 216 
 ORTC HN ES        339 22.26                             106    1.04 6  398 216 
 ORTC HZ I         339 28.64        11.1 0.48            106            398 216 
 PAL  HZ EP        338 40.13                             106    0.11 6  407 239 
 PAL  HN ES        339 23.21                             106    0.06 6  407 239 
 PAL  HZ I         339 28.69         6.5 0.48            105            407 239 
 MACC HZ EP   4    338 51.64                             101   -2.22 0  524 188 
 MACC HN ES   4    339 43.91                             101   -3.89 0  524 188 
                                                                                
