 2016  712 0953 48.1 L   6.787 -73.144148.9  RSN  7 0.5 1.7LRSN                1
 GAP=237        1.12       6.3     6.6  8.0  0.1655E+02  0.9260E+01  0.3006E+01E
 Epicentro: LOS SANTOS - SANTANDER                                             3
 ACTION:UPD 17-03-29 16:50 OP:lp   STATUS:               ID:20160712095348 L   I
 OLDACT:REG 16-07-12 13:00 OP:lv   STATUS:               ID:20160712094759     3
 2016-07-12-0947-59S.COL___313                                                 6
 STAT SP IPHASW D HRMM SECON CODA AMPLIT PERI AZIMU VELO AIN AR TRES W  DIS CAZ7
 BAR2 EZ EP        954  7.99                             171   -0.0710 21.9 191 
 BAR2 EZ ES        954 23.10                             171   -0.5410 21.9 191 
 BAR2 EZ I         954 24.67        10.6 0.22            165           21.9 191 
 BRR  HZ EP        954  9.95                             153    0.3310 72.1 299 
 BRR  HE ES        954 27.23                             153    0.8210 72.1 299 
 BRR  HZ I         954 31.60         7.8 0.16            148           72.1 299 
 RUS  HZ EP        954 11.90                             145   -0.1310 99.1 176 
 RUS  HN ES        954 30.70                             145   -0.0210 99.1 176 
 RUS  HZ I         954 32.00         3.8 0.40            145           99.1 176 
 PTB  HZ EP        954 14.93                             133   -0.37 9  148 259 
 PTB  HN ES        954 35.66                             133   -0.87 9  148 259 
 PTB  HZ I         954 41.94         8.2 0.52            130            148 259 
 SPBC HZ EP        954 16.93                             130    0.20 9  162 219 
 SPBC HE ES        954 39.78                             130    0.71 9  162 219 
 SPBC HZ I         954 44.82        12.3 0.14            129            162 219 
 ZAR  HZ EP   3    954 20.58                             123   -0.23 2  205 292 
 ZAR  HN ES        954 46.13                             123   -0.20 9  205 292 
 ZAR  HZ I         954 52.30         6.1 0.36            122            205 292 
 HEL  HZ EP   2    954 28.84                             115    0.40 4  272 256 
 HEL  HN ES   3    955  0.24                             115    0.33 2  272 256 
 HEL  HZ I         955  6.69         3.5 0.32            115            272 256 
                                                                                
