 2017  312 0929 26.6 L   6.772 -73.128147.2  RSN  4 0.3 1.4LRSN                1
 GAP=244        0.67       4.5     5.1  5.8  0.9023E+01  0.8327E+01 -0.4054E+01E
 Epicentro: LOS SANTOS - SANTANDER                                             3
 ACTION:UPD 17-05-25 18:39 OP:jn   STATUS:               ID:20170312092926 L   I
 OLDACT:REG 17-03-12 13:18 OP:ar   STATUS:               ID:20170312092740     3
 2017-03-12-0928-00M.COL___388                                                 6
 STAT SP IPHASW D HRMM SECON CODA AMPLIT PERI AZIMU VELO AIN AR TRES W  DIS CAZ7
 BAR2 EZ EP        929 46.35                             172   -0.0410 20.8 197 
 BAR2 EZ ES        930  1.74                             172   -0.0610 20.8 197 
 BAR2 EZ I         930  3.14         4.9 0.25            170           20.8 197 
 RUS  HZ EP        929 50.71                             145    0.4110 97.4 177 
 RUS  HN ES        930  8.64                             145   -0.1210 97.4 177 
 RUS  HZ I         930 12.19         2.3 0.22            147           97.4 177 
 SPBC HZ EP        929 54.61                             130   -0.52 9  162 220 
 SPBC HE ES        930 17.58                             130    0.21 9  162 220 
 SPBC HZ I         930 19.47         4.8 0.72            130            162 220 
 ZAR  HZ EP        929 59.53                             122    0.06 8  207 293 
 ZAR  HN ES        930 25.12                             122    0.03 8  207 293 
 ZAR  HZ I         930 29.85         3.5 0.48            123            207 293 
                                                                                
