 2010  512 0841 57.2 L   6.726 -72.943136.0  RSN  6 0.3 1.7LRSN                1
 GAP=186        0.58       5.1     6.4  6.8 -0.2140E+02 -0.2208E+02  0.1603E+02E
 Epicentro: CEPITA - SANTANDER                                                 3
 ACTION:UP  10-08-24 10:04 OP:vdl  STATUS:               ID:20100512084157 L   I
 2010-05-12-0838-34S.COL___104                                                 6
 STAT SP IPHASW D HRMM SECON CODA AMPLIT PERI AZIMU VELO AIN AR TRES W  DIS CAZ7
 BAR2 SZ EP        842 15.81                             166     0.010   31 241 
 BAR2 SZ ES   2    842 30.43                             166     0.1 5   31 241 
 BRR  HZ EP        842 18.47                             143    -0.410   95 296 
 BRR  HZ I         842 18.88        12.4 0.11                            95 296 
 BRR  HE ES   1    842 35.81                             143     0.0 7   95 296 
 GUE  SZ EP   2    842 21.50                             136     0.0 5  122   1 
 GUE  SZ ES   2    842 40.07                             136    -0.3 5  122   1 
 GRA  SZ EP   1    842 22.08                             134     0.2 7  129   7 
 GRA  SZ ES        842 41.31                             134     0.210  129   7 
 RREF BZ EP   2    842 45.04                             108     0.7 3  334 233 
 RREF BN ES   2    843 21.64                             108     0.5 3  334 233 
 RREF BZ I         843 27.43         2.5 0.23                           334 233 
 SDV  BZ EP        842 45.28                             107    -0.2 6  349  47 
 SDV  BZ I         842 46.08         1.4 0.11                           349  47 
                                                                                
