 2016  712 0501  3.0 L   6.046 -74.026 85.4  RSN  4 0.2 0.9LRSN                1
 GAP=140        0.60       3.9     3.5  5.2  0.6982E+01 -0.3517E+01 -0.5473E+01E
 Epicentro: LA BELLEZA - SANTANDER                                             3
 ACTION:UPD 17-03-29 16:49 OP:lp   STATUS:               ID:20160712050103 L   I
 OLDACT:DUP 16-07-12 16:38 OP:lv   STATUS:               ID:20160712045760d    3
 2016-07-12-0457-59S.COL___325                                                 6
 STAT SP IPHASW D HRMM SECON CODA AMPLIT PERI AZIMU VELO AIN AR TRES W  DIS CAZ7
 SPBC HZ EP        5 1 15.77                             151   -0.3810 43.8 187 
 SPBC HN ES        5 1 26.58                             151    0.1410 43.8 187 
 SPBC HZ I         5 1 27.07         4.7 0.10            153           43.8 187 
 PTB  HZ EP        5 1 18.11                             136   -0.0510 72.4 319 
 PTB  HN ES        5 1 29.97                             136   -0.0510 72.4 319 
 PTB  HZ I         5 1 33.58         2.5 0.06            134           72.4 319 
 RUS  HZ EP        5 1 21.91                             125   -0.0210  106  99 
 RUS  HN ES   2    5 1 37.22                             125    0.49 5  106  99 
 RUS  HZ I         5 1 37.54         1.1 0.08            128            106  99 
 HEL  HZ EP        5 1 28.77                             112    0.31 9  167 276 
 HEL  HN ES   4    5 1 49.77                             112    1.42 0  167 276 
 HEL  HZ I         5 1 53.23         1.4 0.32            112            167 276 
                                                                                
