 2016  112 0301 35.3 L   6.760 -73.134144.5  RSN  7 0.4 1.4LRSN                1
 GAP=140        1.14       4.9     5.0  7.9 -0.2126E+01  0.9167E+01  0.1744E+01E
 Epicentro: LOS SANTOS - SANTANDER                                             3
 ACTION:UPD 16-03-09 23:24 OP:cam  STATUS:               ID:20160112030135 L   I
 OLDACT:REG 16-01-12 12:45 OP:mh   STATUS:               ID:20160112025755     3
 2016-01-12-0257-55M.COL___225                                                 6
 STAT SP IPHASW D HRMM SECON CODA AMPLIT PERI AZIMU VELO AIN AR TRES W  DIS CAZ7
 BAR2 EZ EP        3 1 54.65                             172   -0.0310 19.3 196 
 BAR2 EZ ES        3 2  9.58                             172   -0.2310 19.3 196 
 BAR2 EZ I         3 2 10.48         5.2 0.20            171           19.3 196 
 BRR  HZ EP        3 1 56.81                             151    0.3310 74.5 301 
 BRR  HN ES        3 2 13.76                             151    0.7410 74.5 301 
 BRR  HZ I         3 2 14.48         5.4 0.16            152           74.5 301 
 PAM  EZ EP        3 1 57.77                             150    0.2410 80.1  37 
 PAM  EN ES        3 2 14.51                             150   -0.3710 80.1  37 
 PAM  EZ I         3 2 17.53         3.4 0.28            153           80.1  37 
 RUS  HZ EP   1    3 1 58.62                             145    0.04 7 96.0 177 
 RUS  HN ES        3 2 16.66                             145   -0.1010 96.0 177 
 RUS  HZ I         3 2 17.69         2.8 0.24            145           96.0 177 
 PTB  HZ EP        3 2  1.57                             132   -0.62 9  148 261 
 PTB  HN ES        3 2 22.29                             132   -0.88 9  148 261 
 PTB  HZ I         3 2 26.56         3.0 0.10            132            148 261 
 SPBC HZ EP        3 2  3.53                             129    0.10 9  161 220 
 SPBC HN ES        3 2 26.06                             129    0.67 9  161 220 
 SPBC HZ I         3 2 31.61         5.0 0.18            130            161 220 
 ZAR  HN ES        3 2 33.50                             122    0.08 8  207 293 
                                                                                
