 2011  812 0203 11.8 L   6.831 -73.106141.7  RSN  4 0.1 1.3LRSN                1
 GAP=244        0.31       3.6     4.6  4.7  0.6314E+01  0.1317E+01  0.8497E+00E
 Epicentro: LOS SANTOS - SANTANDER                                             3
 ACTION:UPD 12-07-13 15:51 OP:ep   STATUS:               ID:20110812020311 L   I
 2011-08-12-0200-16S.COL___150                                                 6
 STAT SP IPHASW D HRMM SECON CODA AMPLIT PERI AZIMU VELO AIN AR TRES W  DIS CAZ7
 BAR2 SZ EP   2    2 3 30.82                             168   -0.26 5 27.8 198 
 BAR2 SZ ES   2    2 3 46.09                             168    0.01 5 27.8 198 
 BAR2 SZ I         2 3 50.68         4.5 0.72                          27.8 198 
 BRR  HZ EP   2    2 3 32.79                             151    0.11 5 73.6 295 
 BRR  HZ I         2 3 38.59         6.3 0.37                          73.6 295 
 BRR  HN ES   2    2 3 48.95                             151    0.00 5 73.6 295 
 RUS  HZ EP   1    2 3 35.50                             142    0.07 7  104 179 
 RUS  HN ES   1    2 3 53.84                             142    0.01 7  104 179 
 RUS  HZ I         2 3 56.13         2.2 0.39                           104 179 
 NOR  SN ES   2    2 4 16.05                             117   -0.05 4  240 234 
                                                                                
