 2012  912 0811 29.5 L   6.764 -73.105139.1  RSN  7 0.3 1.9LRSN                1
 GAP= 89        0.56       4.1     3.6  4.9  0.2645E+01 -0.3108E+01  0.1133E+01E
 Epicentro: LOS SANTOS - SANTANDER                                             3
 ACTION:UPD 12-10-22 14:18 OP:ep   STATUS:               ID:20120912081129 L   I
 2012-09-12-0810-00M.COL___227                                                 6
 STAT SP IPHASW D HRMM SECON CODA AMPLIT PERI AZIMU VELO AIN AR TRES W  DIS CAZ7
 BAR2 SZ EP   2    811 48.21                             171   -0.06 5 20.8 204 
 BAR2 SZ ES   1    812  2.66                             171   -0.26 7 20.8 204 
 BAR2 SZ I         812  5.08        21.3 0.25                          20.8 204 
 GIR2 SZ EP   1    811 48.37                             165   -0.15 7 36.1 344 
 BRR  HZ EP        811 50.12                             149   -0.1610 77.0 300 
 BRR  HN ES        812  6.86                             149    0.3710 77.0 300 
 BRR  HZ I         812  8.17        14.3 0.17                          77.0 300 
 PAM  SZ EP        811 51.10                             149    0.0710 77.8  35 
 PAM  SZ I         811 51.58        18.7 0.26                          77.8  35 
 PAM  SN ES   1    812  7.65                             149   -0.18 7 77.8  35 
 RUS  HZ EP   1    811 52.21                             144   -0.08 7 96.4 179 
 RUS  HE ES   2    812 10.22                             144    0.15 5 96.4 179 
 TAM  HZ EP   1    811 56.42                             130    0.27 7  150 104 
 ZAR  HZ EP   2    812  2.62                             120    0.51 4  210 293 
 ZAR  HN ES   2    812 26.72                             120   -0.82 4  210 293 
 ZAR  HZ I         812 33.12         5.4 0.25                           210 293 
                                                                                
