 2012  812 0138 11.6 L   6.773 -73.444113.8  RSN  6 0.4 1.6LRSN                1
 GAP= 99        1.00       5.7     5.5  9.2  0.1507E+01 -0.1155E+01  0.1758E+02E
 Epicentro: EL CARMEN DE CHUCURI - SANTANDER                                   3
 ACTION:UPD 12-09-10 11:55 OP:ep   STATUS:               ID:20120812013811 L   I
 2012-08-12-0130-00M.COL___218                                                 6
 STAT SP IPHASW D HRMM SECON CODA AMPLIT PERI AZIMU VELO AIN AR TRES W  DIS CAZ7
 BAR2 SZ EP        138 28.05                             162    0.3010 35.2 125 
 BAR2 SZ I         138 28.31        42.5 0.14                          35.2 125 
 BAR2 SZ ES   1    138 40.58                             162    0.21 7 35.2 125 
 GIR2 SZ EP        138 27.88                             158   -0.0910 43.8  39 
 GIR2 SZ ES   1    138 40.50                             158   -0.27 7 43.8  39 
 BRR  HZ EP        138 28.07                             156    0.1410 47.3 321 
 BRR  HN ES        138 41.25                             156    0.5410 47.3 321 
 BRR  HZ I         138 43.08        13.1 0.31                          47.3 321 
 PAM  SE ES   1    138 48.19                             135   -0.77 7  103  53 
 PAM  SZ I         138 51.56         6.2 0.32                           103  53 
 RUS  HZ EP        138 32.96                             134    0.2310  105 158 
 RUS  HE ES   1    138 48.94                             134   -0.30 7  105 158 
 RUS  HZ I         138 52.10         2.7 0.29                           105 158 
 PTB  HN ES   1    138 48.69                             131   -0.92 7  115 257 
                                                                                
