 2016  212 0807 55.3 L   6.776 -73.146140.1  RSN  7 0.3 1.3LRSN                1
 GAP=138        0.81       3.1     3.6  5.6 -0.1082E+01  0.7280E+01  0.5751E-01E
 Epicentro: LOS SANTOS - SANTANDER                                             3
 ACTION:UPD 16-03-04 21:25 OP:rebc STATUS:               ID:20160212080755 L   I
 OLDACT:REG 16-02-12 16:18 OP:ak   STATUS:               ID:20160212075748     3
 2016-02-12-0757-48M.COL___283                                                 6
 STAT SP IPHASW D HRMM SECON CODA AMPLIT PERI AZIMU VELO AIN AR TRES W  DIS CAZ7
 BAR2 EZ EP        8 8 14.32                             171    0.0910 20.8 191 
 BAR2 EZ ES        8 8 29.30                             171    0.3410 20.8 191 
 BAR2 EZ I         8 8 30.33         4.3 0.14            171           20.8 191 
 PAM  EZ IP        8 8 17.03                             149   -0.0510 79.4  38 
 PAM  EN ES        8 8 33.61                             149   -0.4210 79.4  38 
 PAM  EZ I         8 8 37.15         2.4 0.46            152           79.4  38 
 RUS  HZ EP        8 8 18.26                             143   -0.0810 98.0 176 
 RUS  HN ES        8 8 36.67                             143    0.3910 98.0 176 
 RUS  HZ I         8 8 37.56         1.9 0.26            147           98.0 176 
 PTB  HZ EP        8 8 21.55                             131   -0.24 9  147 260 
 PTB  HN ES        8 8 41.98                             131   -0.45 9  147 260 
 PTB  HZ I         8 8 46.25         2.5 0.36            132            147 260 
 SPBC HZ EP        8 8 23.54                             128    0.33 9  161 220 
 SPBC HN ES        8 8 44.48                             128   -0.46 9  161 220 
 SPBC HZ I         8 8 49.85         2.8 0.24            130            161 220 
 ZAR  HZ EP        8 8 27.73                             121    0.22 9  205 293 
 ZAR  HN ES        8 8 53.14                             121    0.53 9  205 293 
 ZAR  HZ I         8 8 59.01         2.9 0.34            122            205 293 
 CHI  HZ EP   2    8 8 32.37                             116   -0.08 4  246 195 
 CHI  HN ES        8 9  1.26                             116   -0.13 8  246 195 
                                                                                
