 2017  512 0842 57.6 L   6.751 -73.107143.1  RSN  7 0.3 1.5LRSN                1
 GAP=124        0.72       3.1     2.9  5.2  0.1955E+01  0.4500E+01  0.3911E+01E
 Epicentro: LOS SANTOS - SANTANDER                                             3
 ACTION:UPD 17-06-16 13:35 OP:jn   STATUS:               ID:20170512084257 L   I
 OLDACT:UP  17-05-12 18:26 OP:osc  STATUS:               ID:20170512083745     3
 OLDACT:UP  17-05-12 18:25 OP:osc  STATUS:               ID:20170512083745     3
 OLDACT:UP  17-05-12 18:25 OP:osc  STATUS:               ID:20170512083745     3
 OLDACT:REG 17-05-12 13:24 OP:osc  STATUS:               ID:20170512083745     3
 2017-05-12-0838-00M.COL___353                                                 6
 STAT SP IPHASW D HRMM SECON CODA AMPLIT PERI AZIMU VELO AIN AR TRES W  DIS CAZ7
 BRR  HZ EP        843 18.77                             150   -0.0310 77.6 301 
 BRR  HN ES        843 35.75                             150    0.3810 77.6 301 
 BRR  HZ I         843 40.10         7.7 0.28            150           77.6 301 
 PAM  EZ EP     C  843 19.91                             150    0.3010 79.2  35 
 PAM  EN ES        843 36.57                             150   -0.2310 79.2  35 
 PAM  EZ I         843 38.62         4.3 0.58            153           79.2  35 
 RUS  HZ EP        843 20.95                             145    0.3010 95.0 178 
 RUS  HN ES        843 38.66                             145    0.0010 95.0 178 
 RUS  HZ I         843 39.95         4.7 0.46            147           95.0 178 
 PTB  HZ EP        843 24.22                             131   -0.39 9  151 261 
 PTB  HN ES        843 45.38                             131   -0.33 9  151 261 
 PTB  HZ I         843 47.95         4.8 0.32            132            151 261 
 ZAR  HZ EP        843 30.26                             121   -0.20 8  210 293 
 ZAR  HN ES        843 55.92                             121   -0.20 8  210 293 
 CHI  HE ES   4    844  5.30                             117    1.68 0  245 196 
 PTGC HE ES        844 13.72                             112   -0.37 7  302 159 
 CBOC HZ EP        843 45.05                             109    0.40 7  336 253 
 CBOC HE ES        844 21.81                             109    0.44 7  336 253 
 CBOC HZ I         844 26.04         0.8 0.76            111            336 253 
                                                                                
