 2016  112 0712 26.9 L   6.786 -73.162149.6  RSN  8 0.4 1.3LRSN                1
 GAP=135        1.06       3.8     4.8  6.7  0.2263E+01  0.5191E+01 -0.1761E+01E
 Epicentro: LOS SANTOS - SANTANDER                                             3
 ACTION:UPD 16-03-09 23:24 OP:cam  STATUS:               ID:20160112071226 L   I
 OLDACT:UP  16-01-12 16:58 OP:mh   STATUS:               ID:20160112070750     3
 OLDACT:UP  16-01-12 16:58 OP:mh   STATUS:               ID:20160112070750     3
 OLDACT:UP  16-01-12 16:57 OP:mh   STATUS:               ID:20160112070750     3
 OLDACT:REG 16-01-12 12:50 OP:mh   STATUS:               ID:20160112070750     3
 2016-01-12-0707-50M.COL___237                                                 6
 STAT SP IPHASW D HRMM SECON CODA AMPLIT PERI AZIMU VELO AIN AR TRES W  DIS CAZ7
 BAR2 EZ EP   1    712 47.17                             171    0.25 7 21.5 186 
 BAR2 EZ ES        713  2.73                             171    0.1610 21.5 186 
 BAR2 EZ I         713  3.34         5.7 0.25            170           21.5 186 
 BRR  HZ EP        712 48.82                             153    0.4410 70.4 300 
 BRR  HN ES        713  5.88                             153    0.7110 70.4 300 
 BRR  HZ I         713  9.58         5.1 0.44            151           70.4 300 
 PAM  EZ EP        712 50.01                             151    0.3910 79.7  40 
 PAM  EN ES        713  7.12                             151   -0.2610 79.7  40 
 PAM  EZ I         713  9.03         3.5 0.56            155           79.7  40 
 RUS  HZ EP        712 50.70                             145   -0.1910 99.2 175 
 RUS  HN ES        713  9.02                             145   -0.6110 99.2 175 
 RUS  HZ I         713 10.45         1.5 0.32            146           99.2 175 
 PTB  HZ EP   1    712 54.26                             133    0.30 7  146 259 
 PTB  HN ES        713 14.71                             133   -0.39 9  146 259 
 PTB  HZ I         713 20.14         2.0 0.40            132            146 259 
 ZAR  HZ EP   4    713  2.58                             123    3.13 0  203 293 
 ZAR  HN ES        713 24.97                             123    0.09 9  203 293 
 ZAR  HZ I         713 31.48         2.4 0.36            123            203 293 
 SML  HZ EP        713  3.34                             118   -0.44 8  244 336 
 SML  HE ES        713 31.75                             118   -0.82 8  244 336 
 SML  HZ I         713 33.93         3.4 0.26            119            244 336 
 CHI  HZ EP   1    713  5.17                             118    0.61 6  247 195 
 CHI  HN ES   1    713 33.79                             118   -0.18 6  247 195 
 CHI  HZ I         713 37.79         1.2 0.56            119            247 195 
                                                                                
