 2017  912 0048 14.7 L   6.770 -73.118140.0  RSN 11 0.3 1.7LRSN                1
 GAP=115        0.61       2.5     3.0  4.5 -0.7838E+00  0.9764E+00  0.4434E+01E
 Epicentro: LOS SANTOS - SANTANDER                                             3
 ACTION:UPD 17-10-05 19:11 OP:rebc STATUS:               ID:20170912004814 L   I
 OLDACT:UP  17-09-12 14:06 OP:mg   STATUS:               ID:20170912004738     3
 OLDACT:UP  17-09-12 14:06 OP:mg   STATUS:               ID:20170912004738     3
 OLDACT:REG 17-09-12 11:53 OP:mg   STATUS:               ID:20170912004738     3
 2017-09-12-0048-00M.COL___437                                                 6
 STAT SP IPHASW D HRMM SECON CODA AMPLIT PERI AZIMU VELO AIN AR TRES W  DIS CAZ7
 BAR2 EZ EP   1    048 33.42                             171   -0.19 7 20.9 200 
 BAR2 EZ ES   2    048 48.56                             171    0.21 5 20.9 200 
 BAR2 EZ I         048 49.53         8.2 0.16            169           20.9 200 
 BRR  HZ EP        048 35.33                             150   -0.1810 75.5 300 
 BRR  HN ES        048 52.22                             150    0.5010 75.5 300 
 BRR  HZ I         048 56.59         7.0 0.12            149           75.5 300 
 PAM  EZ EP        048 36.28                             150   -0.0910 78.1  36 
 PAM  EN ES        048 53.11                             150   -0.1510 78.1  36 
 PAM  EZ I         048 55.58        12.4 0.58            153           78.1  36 
 RUS  HZ EP        048 37.77                             144    0.1110 97.1 178 
 RUS  HN ES        048 55.42                             144   -0.1310 97.1 178 
 RUS  HZ I         048 57.11         3.5 0.22            144           97.1 178 
 SPBC HZ EP   3    048 43.70                             128    0.97 2  163 221 
 SPBC HN ES   1    049  4.25                             128   -0.33 7  163 221 
 SPBC HZ I         049  9.03         8.6 0.05            128            163 221 
 YPLC HZ EP        048 43.86                             126    0.19 9  172 152 
 YPLC HE ES   4    049  8.07                             126    1.82 0  172 152 
 YPLC HZ I         049  9.25         6.1 0.38            128            172 152 
 ZAR  HN EP   4    048 50.56                             121    3.33 0  208 293 
 ZAR  HZ ES   1    049 12.10                             121   -0.49 6  208 293 
 ZAR  HN I         049 16.21        12.8 0.11            121            208 293 
 CHI  HZ EP   1    048 52.39                             116    0.54 6  246 196 
 CHI  HE ES   1    049 20.85                             116    0.04 6  246 196 
 CHI  HZ I         049 25.13         2.5 0.30            117            246 196 
 GUY2CHZ EP   3    048 59.19                             111    1.04 2  302 236 
 GUY2CHN ES   1    049 32.28                             111    0.26 5  302 236 
 GUY2CHZ I         049 41.51         1.9 0.26                           302 236 
 PRA  HZ EP   1    049  7.97                             106    0.07 4  391 210 
 PRA  HN ES        049 48.85                             106   -0.52 6  391 210 
 PRA  HZ I         049 56.60         1.9 0.32            106            391 210 
 SJC  HZ EP   4    049  8.24                             105   -2.39 0  414 327 
 SJC  HN ES   4    049 49.54                             105   -4.69 0  414 327 
 SJC  HZ I         049 56.68         1.3 0.35            106            414 327 
                                                                                
