 2010  312 0343 10.5 L   6.796 -73.016147.3  RSN  7 0.2 2.1LRSN                1
 GAP=196        0.50       2.6     4.6  4.4  0.1256E+01  0.7153E+00  0.6577E+00E
 Epicentro: CEPITA - SANTANDER                                                 3
 ACTION:UP  10-08-24 09:53 OP:vdl  STATUS:               ID:20100312034310 L   I
 2010-03-12-0340-42S.COL___094                                                 6
 STAT SP IPHASW D HRMM SECON CODA AMPLIT PERI AZIMU VELO SNR AR TRES W  DIS CAZ7
 BAR2 SZ IP        343 30.37                             168    -0.110   29 219 
 BAR2 SZ ES   2    343 45.98                             168     0.0 5   29 219 
 BRR  HZ IP        343 32.35                             149    -0.310   84 294 
 BRR  HE ES        343 49.80                             149     0.010   84 294 
 BRR  HZ I         343 52.05        25.0 0.14                            84 294 
 RUS  BZ EP   1    343 34.20                             144    -0.2 7  100 184 
 RUS  BN ES   1    343 53.30                             144     0.3 7  100 184 
 RUS  BZ I         343 54.41         7.6 0.28                           100 184 
 OCA  SZ EP   1    343 39.45                             129     0.3 7  163 348 
 OCA  SZ ES   1    344  1.81                             129     0.2 7  163 348 
 OCA  SZ I         344  8.47        19.7 0.21                           163 348 
 HEL  HZ EP   1    343 52.29                             114     0.0 6  286 257 
 HEL  HE ES   2    344 24.87                             114    -0.1 4  286 257 
 HEL  HZ I         344 28.67         5.7 0.47                           286 257 
 RREF BZ EP   2    343 58.55                             110     0.6 3  333 231 
 RREF BN ES   2    344 35.52                             110     0.6 3  333 231 
 RREF BZ I         344 42.06         7.2 0.27                           333 231 
 PRA  HZ EP   2    344  4.80                             106    -0.1 3  399 211 
 PRA  HN ES   3    344 46.84                             106    -0.5 1  399 211 
 PRA  HZ I         344 51.73         8.0 0.34                           399 211 
                                                                                
