 2014  312 0133 50.3 L   6.819 -73.176140.3  RSN  6 0.3 1.7LRSN                1
 GAP=132        0.73       2.9     3.6  7.1 -0.7395E+00  0.9828E+01 -0.3233E+01E
 Epicentro: LOS SANTOS - SANTANDER                                             3
 ACTION:UPD 14-04-09 23:16 OP:nd   STATUS:               ID:20140312013350 L   I
 OLDACT:DUP 14-03-12 08:51 OP:fm   STATUS:               ID:20140312012812d    3
 2014-03-12-0128-11M.COL___248                                                 6
 STAT SP IPHASW D HRMM SECON CODA AMPLIT PERI AZIMU VELO AIN AR TRES W  DIS CAZ7
 PAM  SZ EP        134 11.89                             149   -0.0610 78.0  42 
 PAM  SN ES        134 28.79                             149   -0.0610 78.0  42 
 PAM  SZ I         134 31.13         7.1 0.60            153           78.0  42 
 RUS  HZ EP        134 13.97                             142    0.3010  103 174 
 RUS  HE ES        134 32.01                             142    0.1010  103 174 
 RUS  HZ I         134 32.68         1.9 0.26            146            103 174 
 PTB  HZ EP        134 15.87                             131   -0.67 9  145 258 
 PTB  HN ES        134 36.87                             131   -0.15 9  145 258 
 PTB  HZ I         134 39.50        16.5 0.90            133            145 258 
 OCA  HN ES   1    134 39.36                             129   -0.14 7  158 354 
 ZAR  HZ EP   1    134 22.32                             122    0.36 6  200 292 
 ZAR  HE ES   1    134 47.30                             122    0.62 6  200 292 
 ZAR  HZ I         134 53.90         5.0 0.34            123            200 292 
 SML  HZ EP   1    134 26.51                             117    0.27 6  240 336 
 SML  HN ES   1    134 54.29                             117   -0.00 6  240 336 
 SML  HZ I         134 55.83         4.6 0.24            119            240 336 
                                                                                
