 2012 1112 0228 49.6 L   6.876 -73.182152.2  RSN  5 0.2 1.4LRSN                1
 GAP=178        0.50       8.4     5.4  9.5 -0.7625E+01 -0.2307E+02  0.4186E+02E
 Epicentro: ZAPATOCA - SANTANDER                                               3
 ACTION:UPD 12-12-05 15:32 OP:}ep  STATUS:               ID:20121112022849 L   I
 2012-11-12-0226-36M.COL___214                                                 6
 STAT SP IPHASW D HRMM SECON CODA AMPLIT PERI AZIMU VELO AIN AR TRES W  DIS CAZ7
 GIR2 SZ EP   1    229  9.45                             171   -0.36 7 22.4 357 
 BAR2 SZ EP   1    229 10.02                             168   -0.14 7 31.4 180 
 BRR  HZ EP   1    229 11.30                             156    0.26 7 63.9 294 
 BRR  HN ES   1    229 27.97                             156    0.18 7 63.9 294 
 BRR  HZ I         229 28.57         2.8 0.12                          63.9 294 
 RUS  HZ EP   1    229 14.80                             143    0.21 7  109 174 
 PTB  HZ EP   1    229 16.95                             134    0.05 7  146 255 
 PTB  HN ES   1    229 37.99                             134   -0.22 7  146 255 
 PTB  HZ I         229 38.02         4.9 0.50                           146 255 
                                                                                
