 2012  312 0123  6.4 L   7.404 -73.201127.3  RSN  7 0.3 1.5LRSN                1
 GAP=105        0.70       4.2     3.5  6.6  0.1620E+01  0.5435E+01 -0.3560E+01E
 ACTION:UP  12-03-31 23:19 OP:EP   STATUS:               ID:20120312012306 L   I
 2012-03-12-0120-00M.COL___193                                                 6
 STAT SP IPHASW D HRMM SECON CODA AMPLIT PERI AZIMU VELO SNR AR TRES W  DIS CAZ7
 PAM  SZ EP   1    123 25.44                             155     0.1 9   56  97 
 PAM  SN ES   1    123 39.73                             155    -0.5 9   56  97 
 PAM  SZ I         123 42.42         3.4 0.21                            56  97 
 BRR  HZ EP   1    123 25.65                             151     0.5 9   65 240 
 BRR  HN ES   1    123 40.21                             151     0.3 9   65 240 
 BRR  HZ I         123 41.79        21.0 0.13                            65 240 
 BAR2 SZ EP   1    123 27.17                             143     0.0 9   90 179 
 BAR2 SZ ES   1    123 43.67                             143     0.3 9   90 179 
 BAR2 SZ I         123 45.31         7.3 0.17                            90 179 
 OCA  SZ EP   1    123 27.34                             141     0.0 9   93 352 
 PTB  HZ EP   1    123 33.92                             123     0.0 8  168 236 
 PTB  HN ES   1    123 54.80                             123    -0.7 8  168 236 
 PTB  HZ I         123 59.07         4.6 0.12                           168 236 
 RUS  HZ EP   1    123 34.47                             124     0.0 8  168 176 
 RUS  HZ I         123 35.03         1.7 0.08                           168 176 
 RUS  HN ES   1    123 56.43                             124     0.0 8  168 176 
 ZAR  HZ EP   1    123 35.39                             121    -0.1 7  183 273 
 ZAR  HN ES        123 58.13                             121     0.010  183 273 
 ZAR  HZ I         124  1.75         2.3 0.10                           183 273 
                                                                                
