 2017  612 0423 52.4 L   6.354 -73.634105.4  RSN  6 0.4 1.5LRSN                1
 GAP=218        1.19       4.3     6.6  9.1 -0.7891E+01  0.6229E+01  0.5511E+00E
 Epicentro: SANTA HELENA DEL OPON - SANTANDER                                  3
 ACTION:UPD 17-09-14 16:51 OP:jn   STATUS:               ID:20170612042352 L   I
 OLDACT:UP  17-06-12 14:15 OP:dani STATUS:               ID:20170612041735     3
 OLDACT:UP  17-06-12 14:15 OP:dani STATUS:               ID:20170612041735     3
 OLDACT:UP  17-06-12 14:14 OP:dani STATUS:               ID:20170612041735     3
 OLDACT:UP  17-06-12 14:13 OP:dani STATUS:               ID:20170612041735     3
 OLDACT:UP  17-06-12 14:09 OP:dani STATUS:               ID:20170612041735     3
 OLDACT:UP  17-06-12 14:09 OP:dani STATUS:               ID:20170612041735     3
 OLDACT:UP  17-06-12 14:09 OP:dani STATUS:               ID:20170612041735     3
 OLDACT:UP  17-06-12 14:09 OP:dani STATUS:               ID:20170612041735     3
 OLDACT:UP  17-06-12 14:08 OP:dani STATUS:               ID:20170612041735     3
 OLDACT:UP  17-06-12 14:07 OP:dani STATUS:               ID:20170612041735     3
 OLDACT:REG 17-06-12 12:40 OP:dani STATUS:               ID:20170612041735     3
 2017-06-12-0418-00M.COL___350                                                 6
 STAT SP IPHASW D HRMM SECON CODA AMPLIT PERI AZIMU VELO AIN AR TRES W  DIS CAZ7
 BRR  HZ EP        424 10.48                             137    0.1510 83.7 354 
 BRR  HN ES        424 24.65                             137    0.3310 83.7 354 
 BRR  HZ I         424 29.54         3.6 0.11            138           83.7 354 
 SPBC HZ EP        424 10.74                             134   -0.3610 91.5 212 
 SPBC HN ES        424 25.20                             134   -0.4910 91.5 212 
 SPBC HZ I         424 27.25         9.5 0.14            138           91.5 212 
 PTB  HZ EP   9    424  9.96                             134   -1.18 0 93.2 283 
 PTB  HN ES        424 23.68                             136   -0.9110 93.2 283 
 PTB  HZ I         424 24.41         6.6 0.10            136           93.2 283 
 NOR  HZ EP        424 18.12                             117    0.11 9  162 237 
 NOR  HN ES        424 38.37                             117    0.37 9  162 237 
 NOR  HZ I         424 39.38         7.2 0.09            120            162 237 
 ZAR  HZ EP        424 20.31                             113   -0.10 9  185 313 
 ZAR  HE ES        424 41.56                             113   -0.71 9  185 313 
 ZAR  HZ I         424 45.48         7.8 0.38            115            185 313 
 HEL  HZ EP        424 23.96                             110    0.20 8  210 265 
 HEL  HN ES        424 48.86                             110    0.64 8  210 265 
 HEL  HZ I         424 50.34         3.5 0.26            113            210 265 
                                                                                
