 2016 1212 0918 11.1 L   6.775 -73.171149.7  RSN  5 0.3 1.0LRSN                1
 GAP=233        0.88       6.9     6.2  7.0  0.2678E+02  0.5135E+01 -0.4511E+00E
 Epicentro: LOS SANTOS - SANTANDER                                             3
 ACTION:UPD 17-01-11 20:14 OP:rebc STATUS:               ID:20161212091811 L   I
 OLDACT:REG 16-12-12 15:51 OP:y    STATUS:               ID:20161212090744     3
 2016-12-12-0908-00M.COL___378                                                 6
 STAT SP IPHASW D HRMM SECON CODA AMPLIT PERI AZIMU VELO AIN AR TRES W  DIS CAZ7
 BAR2 EZ EP        918 30.85                             172   -0.3210 20.3 184 
 BAR2 EZ ES        918 46.24                             172   -0.5610 20.3 184 
 BAR2 EZ I         918 47.99         3.1 0.28            169           20.3 184 
 BRR  HZ EP        918 32.78                             154    0.1410 70.1 302 
 BRR  HN ES        918 49.90                             154    0.4810 70.1 302 
 RUS  HZ EP        918 35.33                             145    0.2410 98.1 174 
 RUS  HN ES        918 54.14                             145    0.3610 98.1 174 
 RUS  HZ I         918 54.64         1.7 0.30            145           98.1 174 
 PTB  HZ EP        918 37.88                             134   -0.24 9  144 260 
 PTB  HN ES        918 58.99                             134   -0.19 9  144 260 
 PTB  HZ I         919  1.87         0.8 0.09            133            144 260 
 ZAR  HN ES        919  9.11                             123    0.05 9  203 293 
                                                                                
