 2016  812 0950 23.7 L   6.286 -73.613108.3  RSN 13 0.6 1.8LRSN                1
 GAP= 72        1.33       3.1     3.9  7.3 -0.3037E+01  0.6806E+01 -0.1218E+01E
 Epicentro: SANTA HELENA DEL OPON - SANTANDER                                  3
 ACTION:UPD 16-10-29 15:34 OP:rebc STATUS:               ID:20160812095023 L   I
 OLDACT:REG 16-08-12 13:04 OP:dani STATUS:               ID:20160812094732     3
 2016-08-12-0948-00M.COL___374                                                 6
 STAT SP IPHASW D HRMM SECON CODA AMPLIT PERI AZIMU VELO AIN AR TRES W  DIS CAZ7
 BAR2 EZ EP     D  950 40.50                             150    0.0810 58.4  55 
 BAR2 EZ ES        950 54.23                             150    0.7510 58.4  55 
 BAR2 EZ I         950 54.89        25.3 0.28                          58.4  55 
 RUS  HZ EP        950 41.68                             144   -0.0710 73.0 127 
 RUS  HE ES        950 55.60                             144   -0.2510 73.0 127 
 RUS  HZ I         950 58.15         9.6 0.26                          73.0 127 
 SPBC HZ EP        950 41.91                             138   -0.3210 86.6 216 
 SPBC HN ES        950 57.23                             138    0.5210 86.6 216 
 SPBC HZ I         950 58.14        23.5 0.18                          86.6 216 
 BRR  HZ EP        950 42.36                             137   -0.1510 91.5 353 
 BRR  HE ES        950 57.49                             137    0.2910 91.5 353 
 BRR  HZ I         950 58.81        10.4 0.28                          91.5 353 
 PTB  HZ EP        950 42.13                             135   -0.9110 97.4 287 
 PTB  HN ES        950 57.07                             135   -1.0810 97.4 287 
 PTB  HZ I         950 57.64        15.5 0.16                          97.4 287 
 PAM  EZ EP        950 48.94                             121   -0.23 9  154  41 
 PAM  EE ES        951  8.99                             121   -0.07 9  154  41 
 PAM  EZ I         951 13.00         8.3 0.30                           154  41 
 NOR  HZ EP        950 49.56                             119    0.29 9  160 240 
 NOR  HN ES        951  9.86                             119    0.64 9  160 240 
 NOR  HZ I         951 11.66        14.3 0.14                           160 240 
 CHI  HZ EP   2    950 51.89                             116   -0.35 4  184 184 
 CHI  HN ES        951 13.70                             116   -0.82 9  184 184 
 CHI  HZ I         951 19.25         2.7 0.64                           184 184 
 ZAR  HZ EP        950 52.35                             114   -0.26 9  192 314 
 ZAR  HE ES        951 15.61                             114    0.43 9  192 314 
 ZAR  HZ I         951 17.23         5.3 0.16                           192 314 
 HEL  HZ EP   3    950 55.56                             112    0.18 2  212 267 
 HEL  HE ES   3    951 20.19                             112    0.08 2  212 267 
 HEL  HZ I         951 25.22         4.4 0.24                           212 267 
 OCA  HZ EP        950 56.88                             111    1.08 8  218   9 
 OCA  HN ES        951 20.55                             111   -0.31 8  218   9 
 GUY2CHZ EP        950 57.52                             110    0.35 8  227 239 
 GUY2CHN ES   4    951 25.07                             110    1.78 0  227 239 
 GUY2CHZ I         951 29.93         4.5 0.38                           227 239 
 PRA  HZ EP   2    951  6.59                             103   -0.66 3  318 206 
 PRA  HE ES        951 42.31                             103    1.08 7  318 206 
 PRA  HZ I         951 50.66         4.6 0.34                           318 206 
                                                                                
