 2010 1012 0237 37.2 L   6.770 -73.140149.0  RSN  8 0.4 1.8LRSN                1
 GAP=177        0.93       5.6    10.8  9.5 -0.2965E+02 -0.6942E+01  0.2399E+02E
 Epicentro: LOS SANTOS - SANTANDER                                             3
 ACTION:UP  11-02-18 11:09 OP:tino STATUS:               ID:20101012023737 L   I
 2010-10-12-0233-03S.COL___121                                                 6
 STAT SP IPHASW D HRMM SECON CODA AMPLIT PERI AZIMU VELO SNR AR TRES W  DIS CAZ7
 BAR2 SZ EP   1    237 56.65                             172    -0.5 7   20 194 
 BAR2 SZ ES   2    238 12.66                             172     0.0 5   20 194 
 BAR2 SZ I         238 14.68        11.1 0.24                            20 194 
 BRR  HZ IP     D  237 58.65                             153    -0.110   73 301 
 BRR  HZ I         238  0.15        23.7 0.08                            73 301 
 BRR  HN ES   1    238 16.08                             153     0.4 7   73 301 
 GRA  SZ EP   1    238  3.54                             137     0.6 7  129  17 
 GRA  SZ ES   1    238 23.38                             137     0.3 7  129  17 
 GRA  SZ I         238 25.06         7.8 0.16                           129  17 
 OCA  SZ EP   2    238  5.99                             130    -0.1 5  164 353 
 OCA  SZ ES   1    238 27.68                             130    -0.9 7  164 353 
 OCA  SZ I         238 32.95        12.3 0.29                           164 353 
 NOR  SZ EP   1    238 12.84                             119    -0.1 6  233 235 
 NOR  SZ I         238 44.48         0.9 0.25                           233 235 
 CHI  HZ EP   1    238 14.97                             118     0.3 6  246 196 
 CHI  HN ES   2    238 44.08                             118     0.1 4  246 196 
 CHI  HZ I         238 51.83         2.6 0.29                           246 196 
 HEL  HZ EP   2    238 18.41                             116     0.9 4  272 257 
 HEL  HZ I         238 56.41         4.2 0.37                           272 257 
 PRA  HZ EP   1    238 30.13                             107    -0.4 4  389 210 
 PRA  HZ I         238 32.34         8.7 0.12                           389 210 
 PRA  HE ES   1    239 12.03                             107    -0.1 4  389 210 
                                                                                
