 2017  212 0341 31.2 L   6.765 -73.378124.3  RSN  7 0.3 1.4LRSN                1
 GAP= 94        0.73       3.4     3.2  4.8  0.2830E+01  0.1344E+01 -0.1422E+01E
 Epicentro: SAN VICENTE DE CHUCURI - SANTANDER                                 3
 ACTION:UPD 17-05-24 15:35 OP:jn   STATUS:               ID:20170212034131 L   I
 OLDACT:UP  17-02-12 16:33 OP:and  STATUS:               ID:20170212033742     3
 OLDACT:UP  17-02-12 16:32 OP:and  STATUS:               ID:20170212033742     3
 OLDACT:UP  17-02-12 16:31 OP:and  STATUS:               ID:20170212033742     3
 OLDACT:REG 17-02-12 12:42 OP:and  STATUS:               ID:20170212033742     3
 2017-02-12-0338-00M.COL___352                                                 6
 STAT SP IPHASW D HRMM SECON CODA AMPLIT PERI AZIMU VELO AIN AR TRES W  DIS CAZ7
 BAR2 EZ EP        341 48.35                             166   -0.0610 28.9 131 
 BAR2 EZ ES        342  1.95                             166    0.1210 28.9 131 
 BAR2 EZ I         342  2.67        12.5 0.28            168           28.9 131 
 BRR  HZ EP        341 48.67                             155   -0.3510 52.8 316 
 BRR  HN ES        342  2.74                             155   -0.1710 52.8 316 
 PAM  EZ EP        341 52.55                             139   -0.1810 98.3  50 
 RUS  HZ EP        341 53.19                             138    0.1710  102 161 
 RUS  HN ES        342 10.23                             138    0.2010  102 161 
 RUS  HZ I         342 11.19         1.5 0.20            139            102 161 
 PTB  HZ IP   9 C  341 52.96                             132   -1.11 0  122 258 
 PTB  HN ES        342 10.42                             133   -0.3710  122 258 
 PTB  HZ I         342 14.90         4.8 0.24            132            122 258 
 ZAR  HZ EP        342  0.12                             120    0.11 9  182 296 
 ZAR  HN ES        342 23.05                             120    0.58 9  182 296 
 ZAR  HZ I         342 25.47         3.9 0.29            120            182 296 
 NOR  HN ES        342 27.88                             116   -0.38 8  212 231 
 NOR  HZ I         342 29.50         1.9 0.18            116            212 231 
                                                                                
