 2015  612 0820 36.1 L   6.811 -73.098144.4  RSN 14 0.4 1.9LRSN                1
 GAP=205        0.76       2.3     4.1  4.2 -0.2498E+01  0.2798E+01  0.1439E+01E
 Epicentro: LOS SANTOS - SANTANDER                                             3
 ACTION:UPD 15-09-10 22:11 OP:cam  STATUS:               ID:20150612082036 L   I
 OLDACT:UP  15-06-12 19:02 OP:ak   STATUS:               ID:20150612081750     3
 OLDACT:REG 15-06-12 13:58 OP:ak\  STATUS:               ID:20150612081750     3
 2015-06-12-0817-50M.COL___294                                                 6
 STAT SP IPHASW D HRMM SECON CODA AMPLIT PERI AZIMU VELO AIN AR TRES W  DIS CAZ7
 BAR2 EZ EP        820 55.90                             169    0.3210 26.0 201 
 BAR2 EZ ES        821 10.67                             169   -0.1410 26.0 201 
 BAR2 EZ I         821 12.31        14.4 0.20            170           26.0 201 
 BRR  HZ IP     C  820 57.66                             151    0.3610 75.3 296 
 BRR  HN ES        821 14.28                             151    0.4210 75.3 296 
 BRR  HZ I         821 17.05        10.6 0.12            145           75.3 296 
 OCA  HZ EP        821  3.98                             129   -0.24 9  160 351 
 OCA  HN ES        821 25.82                             129   -0.35 9  160 351 
 OCA  HZ I         821 28.91        21.5 0.20            124            160 351 
 SPBC HZ EP        821  5.10                             128    0.23 9  167 220 
 SPBC HN ES        821 27.23                             128   -0.11 9  167 220 
 SPBC HZ I         821 31.93        11.3 0.29            125            167 220 
 ZAR  HZ EP        821  9.18                             121    0.30 8  208 291 
 ZAR  HN ES        821 34.02                             121   -0.45 8  208 291 
 ZAR  HZ I         821 39.33         5.9 0.14            117            208 291 
 NOR  HZ EP        821 11.85                             118   -0.40 8  240 235 
 NOR  HE ES        821 40.27                             118   -0.21 8  240 235 
 NOR  HZ I         821 46.07         7.8 0.20            114            240 235 
 SML  HZ EP        821 12.41                             117   -0.32 8  245 334 
 SML  HZ I         821 42.63         8.6 0.05            113            245 334 
 CHI  HZ EP        821 13.95                             117   -0.02 8  251 196 
 CHI  HN ES        821 43.24                             117   -0.30 8  251 196 
 CHI  HZ I         821 48.32         3.5 0.33            114            251 196 
 HEL  HZ EP        821 17.29                             114    0.48 7  277 256 
 HEL  HN ES   1    821 49.42                             114    0.84 6  277 256 
 HEL  HZ I         821 56.28         4.1 0.60            110            277 256 
 GUY2CHZ EP   1    821 20.18                             112    0.00 5  306 235 
 GUY2CHZ I         822  4.10         5.1 0.80                           306 235 
 RREF HZ EP   1    821 22.64                             110   -0.06 5  327 230 
 RREF HN ES   1    821 58.60                             110   -0.47 5  327 230 
 TOL  SN ES        822  2.28                             109   -0.52 6  348 225 
 MON  HZ EP   4    821 23.24                             108   -2.16 0  357 308 
 MON  HE ES   4    822  1.14                             108   -2.74 0  357 308 
 MON  HZ I         822  4.87         1.5 0.20            105            357 308 
 PRA  HN ES   4    822  9.54                             106   -2.48 0  396 210 
 ORTC HZ EP   1    821 31.16                             106    0.74 4  400 217 
 ORTC HN ES        822 12.89                             106    0.07 6  400 217 
 ORTC HZ I         822 18.58         2.7 0.20            103            400 217 
 SJC  HZ EP   4    821 30.28                             105   -1.52 0  411 326 
 SJC  HN ES   4    822 11.77                             105   -3.50 0  411 326 
                                                                                
