 2011  512 0924 17.1 L   6.793 -73.094145.6  RSN  6 0.1 1.5LRSN                1
 GAP=144        0.40       2.1     3.7  4.0 -0.1594E+01 -0.4658E+00 -0.1145E+00E
 Epicentro: LOS SANTOS - SANTANDER                                             3
 ACTION:UP  11-06-29 08:52 OP:tino STATUS:               ID:20110512092417 L   I
 2011-05-12-0923-45S.COL___129                                                 6
 STAT SP IPHASW D HRMM SECON CODA AMPLIT PERI AZIMU VELO SNR AR TRES W  DIS CAZ7
 BTL  SZ EP        924 36.64                             170    -0.110   24 306 
 PAM  SZ EP        924 39.26                             152     0.110   75  36 
 PAM  SN ES   1    924 56.37                             152     0.1 7   75  36 
 BRR  HZ EP        924 38.46                             151    -0.110   77 297 
 BRR  HN ES   1    924 55.43                             151     0.2 7   77 297 
 RUS  HZ EP        924 40.90                             144     0.110  100 179 
 RUS  HN ES   1    924 58.99                             144    -0.2 7  100 179 
 RUS  HZ I         925  0.73         2.8 0.38                           100 179 
 GRA  SZ EP        924 42.27                             137     0.010  125  15 
 GRA  SZ ES   1    925  1.74                             137    -0.1 7  125  15 
 GRA  SZ I         925  2.94         4.4 0.24                           125  15 
 OCA  SZ EP   1    924 45.35                             129    -0.2 7  162 351 
 OCA  SZ I         925 12.51         6.3 0.97                           162 351 
                                                                                
