 2012 1012 0603 17.5 L   6.775 -73.106146.3  RSN  7 0.3 1.9LRSN                1
 GAP=143        0.59       3.1     5.0  4.7  0.1773E+01  0.5005E+01  0.5119E+01E
 Epicentro: LOS SANTOS - SANTANDER                                             3
 ACTION:UPD 12-11-22 17:03 OP:ep   STATUS:               ID:20121012060317 L   I
 2012-10-12-0600-00M.COL___231                                                 6
 STAT SP IPHASW D HRMM SECON CODA AMPLIT PERI AZIMU VELO AIN AR TRES W  DIS CAZ7
 BAR2 SZ EP        6 3 37.14                             171   -0.0110 21.9 203 
 BAR2 SZ ES   1    6 3 52.33                             171   -0.16 7 21.9 203 
 BAR2 SZ I         6 3 54.07        13.3 0.24                          21.9 203 
 GIR2 SZ EP        6 3 37.45                             166    0.1310 34.9 344 
 GIR2 SZ ES   1    6 3 52.50                             166   -0.29 7 34.9 344 
 BRR  HZ EP        6 3 39.08                             151    0.1010 76.4 299 
 BRR  HZ I         6 3 39.28        21.0 0.18                          76.4 299 
 BRR  HN ES   1    6 3 56.31                             151    0.55 7 76.4 299 
 PAM  SZ EP   2    6 3 39.90                             151    0.18 5 76.9  36 
 PAM  SE ES   1    6 3 57.10                             151    0.03 7 76.9  36 
 RUS  HZ EP        6 3 40.95                             145   -0.1310 97.7 179 
 RUS  HN ES   1    6 3 59.23                             145   -0.25 7 97.7 179 
 ZAR  HZ EP   2    6 3 49.69                             122   -0.80 4  209 292 
 ZAR  HN ES   2    6 4 15.45                             122   -0.78 4  209 292 
 ZAR  HZ I         6 4 20.76         4.7 0.30                           209 292 
 CHI  HZ EP        6 3 55.13                             117    0.08 8  247 196 
 CHI  HN ES   1    6 4 24.81                             117    0.45 6  247 196 
 CHI  HN I         6 4 28.01         4.6 0.40                           247 196 
                                                                                
