 2012  612 0854 49.2 L   6.818 -73.118143.0  RSN  6 0.4 2.1LRSN                1
 GAP=186        0.70       4.2     5.0  7.8 -0.8066E+00  0.1759E+02 -0.8958E+01E
 Epicentro: LOS SANTOS - SANTANDER                                             3
 ACTION:UPD 12-08-06 17:48 OP:ep   STATUS:               ID:20120612085447 L   I
 2012-06-12-0850-00M.COL___201                                                 6
 STAT SP IPHASW D HRMM SECON CODA AMPLIT PERI AZIMU VELO AIN AR TRES W  DIS CAZ7
 BAR2 SZ IP        855  8.78                             169    0.2310 26.0 196 
 BAR2 SZ I         855  8.96        21.0 0.19            168           26.0 196 
 BAR2 SZ ES   1    855 23.50                             169   -0.14 7 26.0 196 
 RUS  HN ES   1    855 31.32                             143    0.09 7  102 178 
 PTB  HZ EP   1    855 15.38                             131   -0.86 7  151 258 
 PTB  HN ES   1    855 37.11                             131   -0.23 7  151 258 
 PTB  HZ I         855 41.44        12.1 0.17            130            151 258 
 OCA  HZ EP   2    855 17.43                             129    0.30 5  159 352 
 OCA  HE ES   1    855 38.94                             129    0.02 7  159 352 
 OCA  HZ I         855 43.91        22.4 0.21            129            159 352 
 ZAR  HZ EP   1    855 21.32                             121   -0.35 6  206 291 
 ZAR  HE ES   1    855 47.19                             121    0.19 6  206 291 
 ZAR  HZ I         855 53.37        12.9 0.40            121            206 291 
 HEL  HZ EP   1    855 30.02                             114    0.38 6  275 256 
 HEL  HN ES   1    856  1.82                             114    0.62 6  275 256 
 HEL  HZ I         856  7.90         7.3 0.37            115            275 256 
                                                                                
