 2012  612 0613 25.7 L   6.770 -73.158148.0  RSN  5 0.1 1.5LRSN                1
 GAP=181        0.33       2.8     2.8  3.9  0.2819E+01  0.1394E+01 -0.8612E+00E
 Epicentro: LOS SANTOS - SANTANDER                                             3
 ACTION:UPD 12-08-06 17:48 OP:ep   STATUS:               ID:20120612061323 L   I
 2012-06-12-0610-00M.COL___201                                                 6
 STAT SP IPHASW D HRMM SECON CODA AMPLIT PERI AZIMU VELO AIN AR TRES W  DIS CAZ7
 BAR2 SZ EP   1    613 45.68                             172    0.12 7 19.9 188 
 BAR2 SZ ES   1    614  1.13                             172    0.10 7 19.9 188 
 BAR2 SZ I         614  3.47         9.5 0.32            168           19.9 188 
 RUS  HZ EP        613 49.43                             145   -0.0410 97.4 175 
 RUS  HN ES   1    614  7.96                             145   -0.04 7 97.4 175 
 RUS  HZ I         614  9.68         3.4 0.34            146           97.4 175 
 PTB  HZ EP   1    613 52.76                             133    0.06 7  146 260 
 PTB  HN ES   1    614 13.57                             133   -0.17 7  146 260 
 PTB  HZ I         614 19.46         5.0 0.31            133            146 260 
 OCA  HN ES   2    614 16.74                             130   -0.21 5  163 354 
 ZAR  HN ES   2    614 23.95                             123    0.21 4  204 293 
                                                                                
