 2016  512 0248 31.7 L   6.770 -73.139144.6  RSN  4 0.3 1.0LRSN                1
 GAP=236        0.76       6.0     5.8  6.1  0.1734E+02  0.2900E+01  0.2589E+00E
 Epicentro: LOS SANTOS - SANTANDER                                             3
 ACTION:UPD 16-08-18 17:45 OP:cam  STATUS:               ID:20160512024831 L   I
 OLDACT:DUP 16-05-12 13:32 OP:drio STATUS:               ID:20160512023744d    3
 2016-05-12-0237-43M.COL___307                                                 6
 STAT SP IPHASW D HRMM SECON CODA AMPLIT PERI AZIMU VELO AIN AR TRES W  DIS CAZ7
 BAR2 EZ EP        248 50.90                             172   -0.2010 20.2 194 
 BAR2 EZ ES        249  5.92                             172   -0.3410 20.2 194 
 BAR2 EZ I         249  7.81         2.9 0.22            169           20.2 194 
 BRR  HZ EP        248 52.99                             152    0.1710 73.5 301 
 BRR  HN ES        249  9.58                             152    0.2510 73.5 301 
 RUS  HZ EP        248 55.45                             144    0.3910 97.2 176 
 RUS  HE ES        249 13.39                             144    0.0810 97.2 176 
 RUS  HZ I         249 14.86         1.1 0.48            144           97.2 176 
 PTB  HZ EP        248 58.07                             132   -0.48 9  148 260 
 PTB  HN ES        249 19.61                             132    0.09 9  148 260 
 PTB  HZ I         249 22.06         2.0 0.20            131            148 260 
                                                                                
