 2017  512 0946 18.7 L   6.778 -73.142149.4  RSN  4 0.3 1.2LRSN                1
 GAP=138        0.67       3.7     3.3  7.2 -0.2426E+00  0.7489E+01 -0.5322E+00E
 Epicentro: LOS SANTOS - SANTANDER                                             3
 ACTION:UPD 17-06-16 13:35 OP:jn   STATUS:               ID:20170512094618 L   I
 OLDACT:UP  17-05-12 18:56 OP:osc  STATUS:               ID:20170512093744     3
 OLDACT:REG 17-05-12 13:29 OP:osc  STATUS:               ID:20170512093744     3
 2017-05-12-0938-00M.COL___353                                                 6
 STAT SP IPHASW D HRMM SECON CODA AMPLIT PERI AZIMU VELO AIN AR TRES W  DIS CAZ7
 PAM  EZ EP        946 41.17                             151   -0.2110 79.0  38 
 PAM  EN ES        946 59.11                             151    0.0210 79.0  38 
 PAM  EZ I         947  2.85         1.8 0.42            153           79.0  38 
 RUS  HZ EP        946 42.93                             145    0.3110 98.1 176 
 RUS  HN ES        947  1.32                             145    0.0310 98.1 176 
 RUS  HZ I         947  2.78         3.6 0.40            149           98.1 176 
 PTB  HZ EP        946 45.73                             133   -0.22 9  148 260 
 PTB  HN ES        947  6.90                             133   -0.31 9  148 260 
 PTB  HZ I         947 10.38         2.3 0.44            136            148 260 
 ZAR  HE ES        947 17.54                             123    0.43 8  205 293 
                                                                                
