 2016 1212 0954 45.2 L   6.665 -73.150151.6  RSN  4 0.1 1.2LRSN                1
 GAP=256        0.38       4.4     2.8  3.0  0.4448E+01  0.1917E+01 -0.3284E+00E
 Epicentro: VILLANUEVA - SANTANDER                                             3
 ACTION:UPD 17-01-11 20:14 OP:rebc STATUS:               ID:20161212095445 L   I
 OLDACT:UP  16-12-12 16:14 OP:and  STATUS:               ID:20161212094433     3
 OLDACT:REG 16-12-12 16:08 OP:y    STATUS:               ID:20161212094433     3
 2016-12-12-0948-00M.COL___378                                                 6
 STAT SP IPHASW D HRMM SECON CODA AMPLIT PERI AZIMU VELO AIN AR TRES W  DIS CAZ7
 BAR2 EZ EP        955  5.30                             177   -0.0210 8.86 204 
 BAR2 EZ ES        955 21.09                             177    0.0610 8.86 204 
 BAR2 EZ I         955 21.50         3.5 0.28            174           8.86 204 
 BRR  HZ EP        955  7.30                             151   -0.1110 79.1 308 
 BRR  HN ES        955 24.75                             151   -0.0010 79.1 308 
 PTB  HZ EP        955 12.29                             134   -0.11 9  145 265 
 PTB  HN ES        955 33.67                             134    0.03 9  145 265 
 PTB  HZ I         955 35.62         1.7 0.15            132            145 265 
 ZAR  HZ EP        955 18.88                             123    0.29 8  210 296 
 ZAR  HE ES        955 44.57                             123   -0.08 8  210 296 
 ZAR  HZ I         955 50.87         1.6 0.38            122            210 296 
                                                                                
