 2014  812 0953 14.0 L   6.804 -73.206138.0  RSN  4 0.1 1.4LRSN                1
 GAP=196        0.42       2.6     3.0  4.1  0.1837E+01  0.1686E+01 -0.2023E+01E
 Epicentro: ZAPATOCA - SANTANDER                                               3
 ACTION:UPD 14-09-15 21:49 OP:nd   STATUS:               ID:20140812095314 L   I
 OLDACT:UP  14-08-12 17:45 OP:cam  STATUS:               ID:20140812095000     3
 OLDACT:REG 14-08-12 12:38 OP:cam  STATUS:               ID:20140812095000     3
 2014-08-12-0950-00M.COL___285                                                 6
 STAT SP IPHASW D HRMM SECON CODA AMPLIT PERI AZIMU VELO AIN AR TRES W  DIS CAZ7
 BAR2 SZ EP        953 32.65                             170   -0.0910 23.6 173 
 BAR2 SZ ES        953 47.42                             170    0.0910 23.6 173 
 BAR2 SZ I         953 49.29         5.5 0.38            167           23.6 173 
 RUS  HZ EP        953 37.04                             142   -0.0810  102 172 
 PTB  HZ EP        953 40.02                             131    0.24 9  141 258 
 PTB  HN ES        953 59.74                             131   -0.12 9  141 258 
 PTB  HZ I         954  6.62         3.8 0.38            130            141 258 
 SML  HN ES        954 17.83                             116   -0.04 8  241 337 
                                                                                
