 2017  312 0533 45.6 L   6.782 -73.142145.0  RSN  7 0.2 2.2LRSN                1
 GAP= 99        0.66       2.8     2.9  4.4 -0.2941E+00 -0.1498E+00  0.1381E+01E
 Epicentro: LOS SANTOS - SANTANDER                                             3
 ACTION:UPD 17-05-25 18:39 OP:jn   STATUS:               ID:20170312053345 L   I
 OLDACT:UP  17-03-12 17:12 OP:ar   STATUS:               ID:20170312052743     3
 OLDACT:REG 17-03-12 13:13 OP:ar   STATUS:               ID:20170312052743     3
 2017-03-12-0528-00M.COL___394                                                 6
 STAT SP IPHASW D HRMM SECON CODA AMPLIT PERI AZIMU VELO AIN AR TRES W  DIS CAZ7
 BAR2 EZ EP        534  4.96                             171   -0.1710 21.4 192 
 BAR2 EZ ES        534 20.01                             171   -0.3310 21.4 192 
 BAR2 EZ I         534 20.86        34.9 0.36            171           21.4 192 
 BRR  HZ EP        534  6.78                             152    0.0110 72.5 300 
 BRR  HN ES        534 23.79                             152    0.5310 72.5 300 
 BRR  HZ I         534 27.66        26.9 0.44            150           72.5 300 
 PAM  EZ EP        534  7.98                             150    0.1410 78.7  38 
 PAM  EN ES        534 25.04                             150   -0.1310 78.7  38 
 PAM  EZ I         534 26.87        43.9 0.50            152           78.7  38 
 RUS  HZ EP        534  8.91                             144   -0.2410 98.5 176 
 RUS  HE ES        534 27.62                             144    0.1210 98.5 176 
 RUS  HZ I         534 28.61        12.6 0.24            146           98.5 176 
 TAM  HZ IP     D  534 13.36                             131    0.20 9  154 104 
 SPBC HZ EP        534 14.04                             129    0.10 9  162 220 
 SPBC HN ES        534 36.11                             129    0.09 9  162 220 
 SPBC HZ I         534 39.16        24.7 0.10            130            162 220 
 ZAR  HZ EP   4    534 20.30                             122    2.17 0  205 293 
 ZAR  HN ES        534 43.12                             122   -0.37 9  205 293 
 ZAR  HZ I         534 48.84        12.3 0.34            122            205 293 
                                                                                
