 2014 1012 0914 30.0 L   6.800 -73.134147.4  RSN  7 0.5 1.6LRSN                1
 GAP=184        1.30       4.3     7.8  8.9  0.8160E+00  0.2488E+01 -0.5968E+01E
 Epicentro: LOS SANTOS - SANTANDER                                             3
 ACTION:UPD 14-11-29 23:49 OP:nd   STATUS:               ID:20141012091430 L   I
 OLDACT:REG 14-10-12 13:56 OP:stll STATUS:               ID:20141012090745     3
 2014-10-12-0907-45M.COL___276                                                 6
 STAT SP IPHASW D HRMM SECON CODA AMPLIT PERI AZIMU VELO AIN AR TRES W  DIS CAZ7
 BAR2 SZ EP        914 49.84                             170    0.0510 23.6 193 
 BAR2 SZ ES        915  5.18                             170   -0.0810 23.6 193 
 BAR2 SZ I         915  7.55        13.9 0.40            168           23.6 193 
 BRR  HZ EP        914 51.92                             152    0.5710 72.4 298 
 BRR  HN ES        915  9.03                             152    0.9910 72.4 298 
 BRR  HZ I         915 13.06         5.1 0.28            149           72.4 298 
 RUS  HZ EP        914 54.16                             144    0.3010  100 177 
 RUS  HN ES        915 11.98                             144   -0.5310  100 177 
 RUS  HZ I         915 13.67         3.2 0.32            147            100 177 
 PTB  HZ EP        914 56.58                             132   -0.59 9  149 259 
 PTB  HN ES        915 17.73                             132   -0.67 9  149 259 
 PTB  HZ I         915 25.24         3.8 0.36            131            149 259 
 OCA  HZ EP        914 58.41                             130   -0.00 9  160 353 
 OCA  HN ES        915 19.81                             130   -0.80 9  160 353 
 OCA  HZ I         915 26.13         4.9 0.38            132            160 353 
 SPBC HZ EP        914 59.01                             129    0.35 9  164 219 
 SPBC HN ES        915 21.18                             129    0.13 9  164 219 
 SPBC HZ I         915 27.93         6.3 0.34            130            164 219 
 SML  HN ES        915 35.52                             118    0.09 8  244 335 
 SML  HZ I         915 38.76         6.4 0.10            119            244 335 
                                                                                
