 2016  112 0104 15.8 L   6.799 -73.121144.0  RSN 17 0.5 2.3LRSN                1
 GAP=121        1.06       3.0     3.7  5.3 -0.2285E+01  0.4314E+01  0.1599E+01E
 Epicentro: LOS SANTOS - SANTANDER                                             3
 ACTION:UPD 16-03-09 23:24 OP:cam  STATUS:               ID:20160112010415 L   I
 OLDACT:UP  16-01-12 15:03 OP:mher STATUS:               ID:20160112005755     3
 OLDACT:UP  16-01-12 15:02 OP:mher STATUS:               ID:20160112005755     3
 OLDACT:REG 16-01-12 12:43 OP:mh   STATUS:               ID:20160112005755     3
 2016-01-12-0057-55M.COL___249                                                 6
 STAT SP IPHASW D HRMM SECON CODA AMPLIT PERI AZIMU VELO AIN AR TRES W  DIS CAZ7
 BAR2 EZ IP     C  1 4 35.52                             170    0.2610 23.8 196 
 BAR2 EZ ES        1 4 50.13                             170   -0.2810 23.8 196 
 BAR2 EZ I         1 4 51.23        49.4 0.30            169           23.8 196 
 BRR  HZ IP     C  1 4 37.43                             151    0.5010 73.6 298 
 BRR  HE ES        1 4 53.64                             151    0.2610 73.6 298 
 BRR  HZ I         1 4 58.80        42.9 0.14            148           73.6 298 
 PAM  EZ EP        1 4 38.45                             151    0.6910 75.8  38 
 PAM  EN ES        1 4 55.25                             151    0.3810 75.8  38 
 PAM  EZ I         1 4 57.40        38.1 0.42            154           75.8  38 
 RUS  HZ EP     C  1 4 39.53                             144    0.1410  100 178 
 RUS  HN ES        1 4 57.29                             144   -0.4710  100 178 
 RUS  HZ I         1 4 58.31        19.0 0.24            145            100 178 
 PTB  HZ EP   1    1 4 42.16                             131   -0.73 7  150 259 
 PTB  HN ES        1 5  3.70                             131   -0.30 9  150 259 
 PTB  HZ I         1 5  5.16        30.3 0.26            130            150 259 
 OCA  HZ EP   1    1 4 43.40                             129   -0.65 7  161 352 
 OCA  HN ES        1 5  5.46                             129   -0.60 9  161 352 
 OCA  HZ I         1 5  6.78        39.7 0.18            130            161 352 
 SPBC HZ EP        1 4 44.20                             128   -0.15 9  165 220 
 SPBC HN ES        1 5  6.29                             128   -0.30 9  165 220 
 SPBC HZ I         1 5 10.52        25.4 0.32            128            165 220 
 ZAR  HZ EP   1    1 4 48.69                             122    0.27 6  207 292 
 ZAR  HN ES        1 5 14.48                             122    0.63 8  207 292 
 ZAR  HZ I         1 5 22.52        25.4 0.31            121            207 292 
 NOR  HZ EP   1    1 4 51.62                             118   -0.07 6  237 235 
 NOR  HN ES        1 5 20.01                             118    0.36 8  237 235 
 NOR  HZ I         1 5 25.52        16.8 0.18            118            237 235 
 SML  HZ EP   1    1 4 52.17                             117   -0.32 6  245 335 
 SML  HN ES   4    1 5 19.18                             117   -1.91 0  245 335 
 SML  HZ I         1 5 27.95        32.7 0.10            117            245 335 
 CHI  HZ EP   1    1 4 52.70                             117   -0.80 6  249 196 
 CHI  HN ES        1 5 23.10                             117    0.22 8  249 196 
 CHI  HZ I         1 5 29.36         3.8 0.34            118            249 196 
 HEL  HZ EP   1    1 4 57.21                             114    0.97 6  275 256 
 HEL  HN ES        1 5 27.10                             114   -0.66 8  275 256 
 HEL  HZ I         1 5 33.96        12.3 0.36            114            275 256 
 URE  HZ EP   4    1 4 58.87                             113    1.77 0  286 292 
 URE  HN ES   4    1 5 28.78                             113   -0.51 0  286 292 
 SOCV BZ EP   1    1 4 57.30                             112   -1.25 5  299  57 
 SOCV BN ES   4    1 5 26.55                             112   -5.32 0  299  57 
 GUY2CHZ EP   1    1 5  0.21                             112    0.61 5  303 235 
 GUY2CHN ES   4    1 5 37.29                             112    3.55 0  303 235 
 GUY2CHZ I         1 5 40.61        10.9 0.26                           303 235 
 CBOC HZ EP   1    1 5  2.98                             109    0.02 5  336 252 
 CBOC HE ES   1    1 5 39.06                             109   -0.67 5  336 252 
 CBOC HZ I         1 5 43.01         4.0 0.18            110            336 252 
 PRA  HZ EP        1 5  9.78                             106    0.34 6  393 210 
 PRA  HN ES   1    1 5 51.79                             106    0.54 4  393 210 
 PRA  HZ I         1 5 55.98         5.1 0.26            107            393 210 
 SJC  HZ EP   4    1 5 10.31                             105   -1.21 0  411 327 
 SJC  HN ES   4    1 5 49.62                             105   -5.34 0  411 327 
 SJC  HZ I         1 5 54.88         4.9 0.74            106            411 327 
                                                                                
