 2010 1012 0957 19.6 L   6.758 -73.079144.0  RSN  6 0.4 2.0LRSN                1
 GAP=183        0.53       9.8    10.1 11.9 -0.6938E+02 -0.7596E+02  0.8685E+02E
 Epicentro: LOS SANTOS - SANTANDER                                             3
 ACTION:UP  11-02-18 11:09 OP:tino STATUS:               ID:20101012095719 L   I
 2010-10-12-0957-20S.COL___121                                                 6
 STAT SP IPHASW D HRMM SECON CODA AMPLIT PERI AZIMU VELO SNR AR TRES W  DIS CAZ7
 BTL  SZ EP   1    957 39.31                             169     0.2 7   27 310 
 BRR  HZ EP   1    957 40.86                             150    -0.2 7   80 299 
 BRR  HN ES   1    957 57.96                             150     0.1 7   80 299 
 BRR  HZ I         957 59.92        16.3 0.20                            80 299 
 GRA  SZ EP   2    957 44.74                             137    -0.1 5  128  14 
 GRA  SZ ES   3    958  3.82                             137    -0.8 2  128  14 
 GRA  SZ I         958  5.78        27.8 0.57                           128  14 
 NOR  SZ EP   3    957 54.89                             118    -0.7 2  238 237 
 NOR  SN ES   2    958 23.21                             118    -0.5 4  238 237 
 CHI  HZ EP   2    957 57.03                             117     0.1 4  246 197 
 CHI  HZ I         958  8.52         7.4 0.58                           246 197 
 HEL  HZ EP   2    958  0.92                             114     0.5 4  278 257 
 HEL  HZ I         958 37.02         4.6 0.43                           278 257 
                                                                                
