 2011 1112 0859 10.1 L   6.785 -73.111146.7  RSN  8 0.4 2.1LRSN                1
 GAP=142        0.78       3.1     5.4  6.0  0.5011E+00  0.8854E+01  0.3198E+01E
 Epicentro: LOS SANTOS - SANTANDER                                             3
 ACTION:UPD 12-07-13 16:09 OP:ep   STATUS:               ID:20111112085910 L   I
 2011-11-12-0857-37S.COL___180                                                 6
 STAT SP IPHASW D HRMM SECON CODA AMPLIT PERI AZIMU VELO AIN AR TRES W  DIS CAZ7
 BAR2 SZ EP   1    859 29.95                             171    0.14 7 22.7 200 
 BAR2 SZ ES   1    859 44.66                             171   -0.53 7 22.7 200 
 BAR2 SZ I         859 46.94        21.1 0.27                          22.7 200 
 BRR  HZ EP   1    859 31.89                             151    0.33 7 75.3 298 
 BRR  HN ES   1    859 49.17                             151    0.85 7 75.3 298 
 BRR  HZ I         859 51.10        19.9 0.14                          75.3 298 
 PAM  SZ EP   1    859 32.66                             151    0.33 7 76.3  37 
 PAM  SN ES   1    859 49.40                             151   -0.28 7 76.3  37 
 RUS  HZ EP   1    859 33.77                             144   -0.02 7 98.8 178 
 RUS  HN ES   1    859 52.05                             144   -0.23 7 98.8 178 
 RUS  HZ I         859 54.08        13.9 0.55                          98.8 178 
 OCA  SZ EP   1    859 38.54                             129   -0.12 7  162 352 
 OCA  SZ ES   1    9 0  1.12                             129    0.17 7  162 352 
 OCA  SZ I         9 0  6.93        11.0 0.26                           162 352 
 ZAR  HZ EP   1    859 42.65                             122   -0.36 6  208 292 
 ZAR  HN ES   1    9 0  7.91                             122   -0.78 6  208 292 
 ZAR  HZ I         9 0 14.29         9.1 0.25                           208 292 
 CHI  HZ EP   1    859 47.51                             117   -0.26 6  248 196 
 CHI  HN ES   1    9 0 17.49                             117    0.32 6  248 196 
 CHI  HZ I         9 0 21.23         6.6 0.45                           248 196 
 PRA  HZ EP   1    9 0  3.41                             107   -0.28 4  392 210 
 PRA  HN ES   1    9 0 46.20                             107    0.70 4  392 210 
 PRA  HZ I         9 0 50.05        16.7 0.29                           392 210 
                                                                                
