 2010  612 0321 11.5 L   6.809 -73.265138.9  RSN  6 0.6 1.4LRSN                1
 GAP=206        1.18       8.8    44.8 11.4 -0.2840E+03  0.9940E+02 -0.3297E+02E
 Epicentro: ZAPATOCA - SANTANDER                                               3
 ACTION:UP  10-08-24 10:09 OP:vdl  STATUS:               ID:20100612032111 L   I
 2010-06-12-0318-13S.COL___117                                                 6
 STAT SP IPHASW D HRMM SECON CODA AMPLIT PERI AZIMU VELO SNR AR TRES W  DIS CAZ7
 BAR2 SZ ES   1    321 44.97                             169    -0.1 8   26 159 
 GIR2 SZ ES   2    321 45.72                             167     0.7 5   31  15 
 RUS  HZ EP   2    321 34.81                             141     0.0 5  103 169 
 RUS  HN ES   1    321 52.86                             141    -0.1 8  103 169 
 RUS  HZ I         321 54.82         3.9 0.23                           103 169 
 BRI  SZ EP        321 34.99                             138    -0.110  113  27 
 BRI  SZ ES   1    321 53.02                             138    -0.5 7  113  27 
 GUE  SZ EP   1    321 35.05                             137    -0.7 7  119  18 
 GUE  SZ ES   1    321 53.90                             137    -0.8 7  119  18 
 GRA  SZ EP        321 37.11                             134     0.710  129  23 
 GRA  SZ ES   1    321 56.86                             134     1.0 7  129  23 
                                                                                
