 2017 1112 0611 28.8 L   6.791 -73.130146.0  RSN 13 0.5 1.7LRSN                1
 GAP=139        1.06       3.9     4.4  7.5 -0.3217E+01  0.5669E+01  0.7371E+01E
 Epicentro: LOS SANTOS - SANTANDER                                             3
 ACTION:UPD 17-12-12 19:54 OP:rebc STATUS:               ID:20171112061128 L   I
 OLDACT:UP  17-11-12 14:41 OP:dnl  STATUS:               ID:20171112060739     3
 OLDACT:REG 17-11-12 13:06 OP:dnl  STATUS:               ID:20171112060739     3
 2017-11-12-0608-00M.COL___459                                                 6
 STAT SP IPHASW D HRMM SECON CODA AMPLIT PERI AZIMU VELO AIN AR TRES W  DIS CAZ7
 BAR2 EZ IP     C  611 48.25                             171   -0.2010 22.8 195 
 BAR2 EZ I         612  5.24        19.8 0.22            170           22.8 195 
 BRR  HZ IP     C  611 50.22                             152    0.1410 73.2 299 
 BRR  HN ES        612  7.13                             152    0.4410 73.2 299 
 BRR  HZ I         612  8.28         9.7 0.28            152           73.2 299 
 PAM  EZ IP     D  611 51.16                             151    0.1410 77.0  38 
 PAM  EN ES        612  8.17                             151   -0.1810 77.0  38 
 PAM  EZ I         612 10.58        11.6 0.64            149           77.0  38 
 RUS  HZ EP   2    611 52.71                             144    0.21 5 99.5 177 
 RUS  HE ES        612 10.70                             144   -0.2810 99.5 177 
 RUS  HZ I         612 11.50         3.7 0.18            142           99.5 177 
 PTB  HZ EP        611 55.04                             132   -0.88 9  149 259 
 PTB  HN ES        612 17.66                             132    0.58 9  149 259 
 PTB  HZ I         612 18.91         9.8 0.10            131            149 259 
 SPBC HZ EP        611 57.28                             129   -0.07 9  164 220 
 SPBC HN ES        612 19.39                             129   -0.23 9  164 220 
 SPBC HZ I         612 21.51         6.8 0.10            127            164 220 
 ZAR  HZ EP   4    612  3.12                             122    1.66 0  206 292 
 ZAR  HN ES        612 26.90                             122   -0.04 8  206 292 
 ZAR  HZ I         612 31.35         8.0 0.30            121            206 292 
 NOR  HZ EP        612  4.95                             118    0.32 8  236 235 
 NOR  HN ES        612 31.74                             118   -0.85 8  236 235 
 NOR  HZ I         612 35.79         4.9 0.20            117            236 235 
 CHI  HZ EP   4    612  8.11                             117    1.65 0  248 196 
 CHI  HE ES        612 36.82                             117    0.98 8  248 196 
 CHI  HZ I         612 41.54         1.5 0.28            116            248 196 
 URE  HN ES   4    612 40.22                             113   -2.09 0  286 292 
 GUY2CHZ EP   9    612 14.29                             112    1.77 0  302 235 
 GUY2CHE ES        612 48.06                             112   -0.33 7  302 235 
 GUY2CHZ I         612 53.42         3.5 0.34                           302 235 
 CBOC HZ EP   4    612 17.11                             110    1.23 0  335 252 
 CBOC HE ES   4    612 51.21                             110   -1.39 0  335 252 
 CBOC HZ I         612 56.47         1.2 0.26            109            335 252 
 PRA  HZ EP   2    612 23.39                             107    1.06 3  392 210 
 PRA  HE ES        613  4.26                             107    0.17 6  392 210 
 PRA  HZ I         613 10.63         1.8 0.56            105            392 210 
 SJC  HZ EP   4    612 23.06                             106   -1.51 0  411 327 
 SJC  HN ES   4    613  1.44                             106   -6.63 0  411 327 
 SJC  HZ I         613  7.14         0.8 0.64            105            411 327 
                                                                                
