 2015  612 0654 39.0 L   6.819 -73.079135.1  RSN  6 0.4 1.6LRSN                1
 GAP=246        0.90       4.4     5.7  6.0  0.8746E+01  0.1162E+02  0.3194E+01E
 Epicentro: LOS SANTOS - SANTANDER                                             3
 ACTION:UPD 15-09-10 22:11 OP:cam  STATUS:               ID:20150612065439 L   I
 OLDACT:DUP 15-06-12 19:07 OP:spq  STATUS:               ID:20150612064752d    3
 2015-06-12-0647-50M.COL___294                                                 6
 STAT SP IPHASW D HRMM SECON CODA AMPLIT PERI AZIMU VELO AIN AR TRES W  DIS CAZ7
 BAR2 EZ EP        654 57.14                             168   -0.3010 27.5 205 
 BAR2 EZ ES        655 11.80                             168   -0.0310 27.5 205 
 BAR2 EZ I         655 14.75         6.2 0.38            165           27.5 205 
 BRR  HZ EP        654 59.20                             149   -0.1510 76.9 295 
 BRR  HN ES        655 15.63                             149    0.4010 76.9 295 
 BRR  HZ I         655 16.45         6.9 0.30            148           76.9 295 
 RUS  HZ EP        655  2.15                             141    0.3010  102 180 
 RUS  HE ES        655 19.78                             141    0.1010  102 180 
 SPBC HZ EP        655  6.70                             125   -0.62 9  169 221 
 SPBC HN ES        655 29.18                             125   -0.23 9  169 221 
 SPBC HZ I         655 33.50         4.6 0.44            126            169 221 
 ZAR  HZ EP        655 11.99                             119    0.57 8  210 291 
 ZAR  HE ES        655 36.17                             119   -0.54 8  210 291 
 ZAR  HZ I         655 40.82         5.2 0.40            120            210 291 
 GUY2CHZ EP        655 23.31                             110    0.35 7  308 235 
 GUY2CHN ES        655 57.64                             110    0.38 7  308 235 
 GUY2CHZ I         656  3.75         4.0 0.28                           308 235 
                                                                                
