 2013  812 0617 26.5 L   6.811 -73.177148.0  RSN  5 0.4 1.5LRSN                1
 GAP=132        0.92       4.4     5.3 11.5 -0.1105E+02  0.2504E+02 -0.1190E+02E
 Epicentro: LOS SANTOS - SANTANDER                                             3
 ACTION:UPD 14-01-14 09:01 OP:ep   STATUS:               ID:20130812061726 L   I
 OLDACT:DUP 13-08-12 12:19 OP:stll STATUS:               ID:20130812060850d    3
 2013-08-12-0608-49M.COL___221                                                 6
 STAT SP IPHASW D HRMM SECON CODA AMPLIT PERI AZIMU VELO AIN AR TRES W  DIS CAZ7
 PAM  SZ EP        617 49.39                             151    0.3310 78.7  42 
 PAM  SN ES        618  6.08                             151   -0.5510 78.7  42 
 PAM  SN I         618  7.74         3.0 0.58            154           78.7  42 
 RUS  HN ES        618  9.63                             144    0.2410  102 174 
 RUS  HN I         618 11.08         4.0 0.44            149            102 174 
 PTB  HZ EP        617 52.85                             133   -0.55 9  145 258 
 PTB  HN ES        618 14.51                             133    0.15 9  145 258 
 PTB  HN I         618 18.33         4.4 0.22            134            145 258 
 CAPV BZ ES        618 15.89                             132    0.09 9  150  39 
 OCA  HN ES        618 17.27                             130    0.31 9  159 354 
 OCA  HN I         618 22.40         5.8 0.20            132            159 354 
                                                                                
