 2014 1112 0602  8.2 L   6.166 -73.684108.2  RSN  4 0.1 1.0LRSN                1
 GAP=181        0.32       2.6     1.6  4.0  0.7130E+00  0.6758E+00  0.4916E+01E
 Epicentro: LA PAZ - SANTANDER                                                 3
 ACTION:UPD 14-12-19 15:42 OP:nd   STATUS:               ID:20141112060208 L   I
 OLDACT:ARG 14-11-12 12:06 OP:stll STATUS:               ID:20141112055737     3
 2014-11-12-0557-37M.COL___283                                                 6
 STAT SP IPHASW D HRMM SECON CODA AMPLIT PERI AZIMU VELO AIN AR TRES W  DIS CAZ7
 BAR2 SZ EP        6 2 25.97                             144    0.0810 72.9  50 
 BAR2 SZ ES        6 2 39.68                             144   -0.0210 72.9  50 
 RUS  HZ EP        6 2 26.24                             144   -0.0310 73.1 114 
 RUS  HZ I         6 2 41.12         0.9 0.34            134           73.1 114 
 PTB  HZ EP        6 2 27.41                             135    0.0810 94.9 296 
 PTB  HN ES        6 2 42.22                             135   -0.0410 94.9 296 
 PTB  HZ I         6 2 44.86         2.3 0.16            140           94.9 296 
 BRR  HZ EP        6 2 28.00                             132   -0.1210  104 358 
 BRR  HZ I         6 2 28.33         4.6 0.14            146            104 358 
 BRR  HN ES        6 2 43.71                             132    0.0510  104 358 
                                                                                
