 2013 1112 0535 23.6 L   6.866 -73.321123.4  RSN 11 0.4 1.9LRSN                1
 GAP=100        1.12       3.0     4.0  6.5 -0.7717E+00  0.6499E+01 -0.3497E+01E
 Epicentro: BETULIA - SANTANDER                                                3
 ACTION:UPD 14-01-09 16:27 OP:ep   STATUS:               ID:20131112053523 L   I
 OLDACT:REG 13-11-12 09:25 OP:nd   STATUS:               ID:20131112053000     3
 2013-11-12-0530-00M.COL___273                                                 6
 STAT SP IPHASW D HRMM SECON CODA AMPLIT PERI AZIMU VELO AIN AR TRES W  DIS CAZ7
 BAR2 SZ EP     D  535 41.29                             164    0.3910 33.9 153 
 BAR2 SZ ES        535 54.11                             164   -0.2510 33.9 153 
 BAR2 SZ I         535 55.60       151.8 0.32            164           33.9 153 
 BRR  HZ EP        535 41.60                             156    0.3510 50.7 302 
 BRR  HN ES        535 55.28                             156    0.3010 50.7 302 
 BRR  HZ I         535 56.09        26.6 0.10            157           50.7 302 
 PAM  SZ EP        535 44.46                             143    0.2910 86.4  53 
 PAM  SE ES        536  0.36                             143    0.1810 86.4  53 
 PAM  SZ I         536  1.69         5.0 0.16            146           86.4  53 
 RUS  HZ EP        535 46.54                             136    0.4310  111 166 
 RUS  HN ES        536  3.46                             136   -0.1810  111 166 
 RUS  HZ I         536 11.43         2.9 0.26            136            111 166 
 PTB  HZ EP     C  535 46.51                             130   -0.7310  131 254 
 PTB  HN ES        536  5.15                             130   -0.4910  131 254 
 PTB  HZ I         536  8.60        14.4 0.36            130            131 254 
 OCA  HZ EP        535 49.31                             126   -0.16 9  152   0 
 OCA  HN ES        536  8.86                             126   -0.76 9  152   0 
 OCA  HZ I         536 10.35        12.1 0.30            128            152   0 
 SPBC HZ EP        535 50.02                             124    0.04 9  158 212 
 SPBC HN ES        536 10.23                             124   -0.30 9  158 212 
 SPBC HZ I         536 15.90        10.0 0.16            125            158 212 
 ZAR  HZ EP        535 52.96                             120    0.45 9  183 292 
 ZAR  HN ES        536 15.95                             120    0.92 9  183 292 
 ZAR  HZ I         536 18.60        10.3 0.36            121            183 292 
 SML  HZ EP        535 57.02                             114   -0.50 8  229 339 
 SML  HN ES        536 23.77                             114   -0.17 8  229 339 
 SML  HZ I         536 30.86        19.2 0.10            115            229 339 
 GUY2CHZ EP   4    536  6.85                             108    1.83 0  290 231 
 GUY2CHN ES   4    536 36.02                             108   -1.28 0  290 231 
 GUY2CHZ I         536 44.99         4.0 0.42                           290 231 
 SJC  HZ EP   4 D  536 15.72                             102   -0.87 0  393 329 
 SJC  HN ES   4    536 54.78                             102   -3.11 0  393 329 
 SJC  HZ I         536 57.49         1.5 0.48            103            393 329 
                                                                                
