 2012  112 0913 49.4 L   6.780 -73.175143.2  RSN 10 0.3 1.7LRSN                1
 GAP=178        0.51       3.1     4.6  4.8  0.2049E+01  0.3632E+01  0.2403E+01E
 Epicentro: LOS SANTOS - SANTANDER                                             3
 ACTION:UP  12-02-03 08:16 OP:REBC STATUS:               ID:20120112091349 L   I
 2012-01-12-0910-00M.COL___187                                                 6
 STAT SP IPHASW D HRMM SECON CODA AMPLIT PERI AZIMU VELO SNR AR TRES W  DIS CAZ7
 BAR2 SZ EP   2    914  8.51                             171    -0.1 5   21 182 
 BAR2 SZ ES   2    914 23.29                             171    -0.4 5   21 182 
 BAR2 SZ I         914 25.58         6.5 0.19                            21 182 
 GIR2 SZ EP   1    914  8.52                             166    -0.3 7   33 356 
 GIR2 SZ ES   2    914 24.26                             166     0.3 5   33 356 
 BRR  HZ EP   1    914 10.10                             153     0.0 7   69 301 
 BRR  HE ES   2    914 26.99                             153     0.7 5   69 301 
 BRR  HZ I         914 30.32        13.6 0.16                            69 301 
 RUS  HZ EP   1    914 12.77                             144     0.1 7   99 174 
 RUS  HN ES   2    914 30.76                             144    -0.2 5   99 174 
 RUS  HZ I         914 32.66         4.2 0.32                            99 174 
 PTB  HZ EP   2    914 15.11                             132    -0.7 5  144 259 
 PTB  HE ES   2    914 36.24                             132    -0.2 5  144 259 
 OCA  SZ EP   1    914 17.84                             129     0.2 7  162 354 
 OCA  SZ I         914 42.01         8.2 0.33                           162 354 
 ZAR  HZ EP   2    914 21.59                             122     0.2 4  202 293 
 ZAR  HN ES   2    914 46.15                             122    -0.3 4  202 293 
 ZAR  HZ I         914 51.60         6.4 0.21                           202 293 
 CHI  HZ EP   1    914 26.79                             117     0.2 6  246 195 
 CHI  HN ES   2    914 55.79                             117     0.2 4  246 195 
 CHI  HZ I         915  3.04         2.7 0.44                           246 195 
 HEL  HZ EP   2    914 28.97                             115    -0.1 4  268 256 
 HEL  HZ I         915  7.58         4.3 0.44                           268 256 
 PRA  HZ EP   2    914 42.54                             106     0.2 3  388 209 
 PRA  HN ES   2    915 24.26                             106     0.5 3  388 209 
                                                                                
