 2010  112 0842 33.0 L   6.785 -73.153146.0  RSN  6 0.4 2.5LRSN                1
 GAP=196        0.96       5.0     9.7  8.4 -0.1149E+02  0.2480E+02  0.1016E+02E
 Epicentro: LOS SANTOS - SANTANDER                                             3
 ACTION:UP  10-08-24 09:43 OP:vdl  STATUS:               ID:20100112084233 L   I
 2010-01-12-0840-00S.COL___096                                                 6
 STAT SP IPHASW D HRMM SECON CODA AMPLIT PERI AZIMU VELO SNR AR TRES W  DIS CAZ7
 BAR2 SZ IP        842 52.41                             171    -0.210   22 189 
 BAR2 SZ ES   1    843  7.40                             171    -0.5 7   22 189 
 GIR2 SZ IP        842 53.52                             167     0.810   33 352 
 GIR2 SZ ES   1    843  8.51                             167     0.4 7   33 352 
 OCA  SZ EP   1    843  1.02                             129    -0.5 7  162 353 
 OCA  SZ ES   1    843 23.23                             129    -0.5 7  162 353 
 OCA  SZ I         843 27.41        73.1 0.31                           162 353 
 CHI  HZ IP        843 10.65                             117     0.1 8  247 195 
 CHI  HE ES   1    843 39.58                             117    -0.2 6  247 195 
 CHI  HZ I         843 46.41         8.2 0.31                           247 195 
 HEL  HZ EP   2    843 13.20                             115     0.1 4  271 256 
 HEL  HN ES   1    843 44.52                             115     0.1 6  271 256 
 HEL  HZ I         843 50.79        11.1 0.40                           271 256 
 PRA  HZ EP   1    843 26.13                             107    -0.2 4  390 210 
 PRA  HE ES   2    844  7.70                             107    -0.2 3  390 210 
 PRA  HZ I         844 14.93        12.5 0.53                           390 210 
                                                                                
