 2013  112 0711  1.3 L   6.786 -73.158150.0  RSN  7 0.4 1.9LRSN                1
 GAP=182        1.07       4.1     6.1  7.6  0.7913E+01  0.6468E+01  0.5840E+01E
 Epicentro: LOS SANTOS - SANTANDER                                             3
 ACTION:UPD 13-02-15 09:13 OP:ep   STATUS:               ID:20130112071101 L   I
 2013-01-12-0710-00M.COL___241                                                 6
 STAT SP IPHASW D HRMM SECON CODA AMPLIT PERI AZIMU VELO AIN AR TRES W  DIS CAZ7
 BAR2 SZ EP        711 21.38                             171    0.0010 21.6 187 
 BAR2 SZ ES        711 36.58                             171   -0.4810 21.6 187 
 BAR2 SZ I         711 39.15        14.6 0.36            170           21.6 187 
 BRR  HZ EP        711 23.47                             153    0.6210 70.8 300 
 BRR  HN ES        711 40.62                             153    0.9310 70.8 300 
 BRR  HN I         711 40.93        15.4 0.26            151           70.8 300 
 RUS  HZ EP        711 25.26                             145   -0.0810 99.1 175 
 RUS  HN ES        711 44.01                             145   -0.1110 99.1 175 
 RUS  HN I         711 45.62         8.5 0.26            146           99.1 175 
 PTB  HZ EP        711 28.32                             133   -0.12 9  146 259 
 PTB  HN ES        711 49.43                             133   -0.21 9  146 259 
 PTB  HN I         711 54.85        14.7 0.24            132            146 259 
 OCA  HN ES        711 52.12                             130   -0.36 9  162 354 
 OCA  HN I         711 54.80        19.6 0.16            131            162 354 
 ZAR  HN ES        711 58.84                             123   -0.56 9  203 293 
 ZAR  HN I         712  5.78         7.0 0.16            123            203 293 
 CHI  HZ EP        711 39.06                             118    0.05 8  247 195 
 CHI  HN ES        712  8.57                             118    0.13 8  247 195 
 CHI  HN I         712 11.12         4.1 0.28            119            247 195 
                                                                                
