 2013  112 0936 45.7 L   6.679 -74.112 22.6  RSN  8 0.5 3.1LRSN                1
 GAP=121        1.27       3.2     2.2  3.6 -0.8460E+00  0.1655E+01 -0.1915E+01E
 Epicentro: PUERTO PARRA - SANTANDER                                           3
 ACTION:UPD 13-02-15 09:13 OP:ep   STATUS:               ID:20130112093645 L   I
 2013-01-12-0930-00M.COL___241                                                 6
 STAT SP IPHASW D HRMM SECON CODA AMPLIT PERI AZIMU VELO AIN AR TRES W  DIS CAZ7
 PTB  HZ EP        936 53.53                             116    0.2910 41.1 248 
 PTB  HN ES        936 59.51                             116    0.4210 41.1 248 
 PTB  HN I         936 59.64      1112.5 0.14             47           41.1 248 
 BRR  HZ IP     D  936 56.60                             107    0.0410 64.8  43 
 BRR  HN ES        937  4.85                             107   -0.1610 64.8  43 
 BRR  HN I         937  5.60      1210.1 0.12             47           64.8  43 
 BAR2 SZ EP        937  2.36                             101   -0.1310  103  95 
 BAR2 SZ ES        937 14.83                             101   -0.7210  103  95 
 BAR2 SZ I         937 16.00       615.8 0.14             47            103  95 
 ZAR  HZ EP        937  4.16                              56   -0.4910  122 318 
 ZAR  HN ES        937 18.73                              56   -0.6810  122 318 
 ZAR  HN I         937 20.75       304.2 0.16             47            122 318 
 RUS  HZ EP        937  8.41                              56    0.52 9  143 127 
 RUS  HN ES        937 25.23                              56    0.05 9  143 127 
 RUS  HN I         937 26.86       555.5 0.40             47            143 127 
 HEL  HZ EP        937 10.76                              56    0.20 9  166 251 
 HEL  HN ES        937 29.31                              56   -0.61 9  166 251 
 HEL  HZ I         937 31.32       100.0 0.42             47            166 251 
 OCA  HZ EP        937 13.96                              56    0.20 9  193  27 
 OCA  HN ES        937 36.88                              56    1.27 9  193  27 
 OCA  HN I         937 50.37       194.2 0.42             37            193  27 
 URE  HN ES        937 36.16                              56    0.12 9  197 307 
 URE  HN I         937 44.40       123.8 0.30             37            197 307 
                                                                                
