 2011  812 0424 32.5 L   6.810 -73.023148.2  RSN  4 0.4 1.3LRSN                1
 GAP=195        0.77       5.4    15.1  9.8  0.4441E+02 -0.7007E+02 -0.2365E+02E
 Epicentro: CEPITA - SANTANDER                                                 3
 ACTION:UPD 12-07-25 14:07 OP:epov STATUS:               ID:20110812042432 L   I
 2011-08-12-0423-27S.COL___150                                                 6
 STAT SP IPHASW D HRMM SECON CODA AMPLIT PERI AZIMU VELO AIN AR TRES W  DIS CAZ7
 BAR2 SZ EP   1    424 52.60                             168    0.04 7 29.8 216 
 BAR2 SZ ES   1    425  8.64                             168    0.42 7 29.8 216 
 BAR2 SZ I         425  9.42         3.1 0.24                          29.8 216 
 BRR  HZ EP   1    424 54.47                             149   -0.13 7 82.9 293 
 BRR  HZ I         424 55.07         5.5 0.10                          82.9 293 
 BRR  HN ES   1    425 11.88                             149    0.04 7 82.9 293 
 RUS  HZ EP   1    424 57.17                             144    0.61 7  102 184 
 RUS  HN ES   1    425 14.63                             144   -0.71 7  102 184 
 RUS  HZ I         425 16.48         1.5 0.57                           102 184 
 OCA  SZ EP   1    425  0.83                             130   -0.26 7  161 348 
 OCA  SZ ES   1    425 23.34                             130   -0.06 7  161 348 
 OCA  SZ I         425 30.70         4.1 0.22                           161 348 
                                                                                
