 2016  612 0240 21.3 L   6.835 -73.178150.1  RSN  9 0.6 1.6LRSN                1
 GAP=131        1.41       5.5     7.1 10.1 -0.8732E+01  0.8266E+01  0.2548E+01E
 Epicentro: ZAPATOCA - SANTANDER                                               3
 ACTION:UPD 16-07-21 22:17 OP:rebc STATUS:               ID:20160612024021 L   I
 OLDACT:UP  16-06-12 15:04 OP:dani STATUS:               ID:20160612023747     3
 OLDACT:UP  16-06-12 15:03 OP:dani STATUS:               ID:20160612023747     3
 OLDACT:REG 16-06-12 12:29 OP:dani STATUS:               ID:20160612023747     3
 2016-06-12-0237-47M.COL___325                                                 6
 STAT SP IPHASW D HRMM SECON CODA AMPLIT PERI AZIMU VELO AIN AR TRES W  DIS CAZ7
 BAR2 EZ EP        240 41.54                             169   -0.0410 26.9 181 
 BAR2 EZ ES        240 57.81                             169    0.4510 26.9 181 
 BRR  HZ EP     C  240 43.22                             155    0.5210 66.2 297 
 BRR  HE ES        241  0.34                             155    0.9810 66.2 297 
 BRR  HZ I         241  3.19         6.1 0.16                          66.2 297 
 PAM  EZ EP     D  240 44.38                             152    0.3810 76.8  43 
 PAM  EN ES        241  1.24                             152   -0.4210 76.8  43 
 PAM  EZ I         241  2.90         4.5 0.18                          76.8  43 
 RUS  HZ EP        240 46.02                             144    0.1910  105 174 
 RUS  HN ES        241  4.16                             144   -0.7710  105 174 
 RUS  HZ I         241  5.73         4.1 0.24                           105 174 
 PTB  HZ EP        240 48.21                             134   -0.23 9  145 257 
 PTB  HE ES        241  8.67                             134   -0.90 9  145 257 
 PTB  HZ I         241 11.85         4.8 0.28                           145 257 
 OCA  HN ES        241 10.96                             131   -0.69 9  156 354 
 OCA  HZ I         241 16.25         8.7 0.22                           156 354 
 SPBC HN ES        241 13.10                             130    0.28 9  164 217 
 SPBC HZ I         241 14.20         6.8 0.24                           164 217 
 GUY2CHZ EP   4    241  8.12                             113    3.03 0  301 234 
 GUY2CHN ES   4    241 43.38                             113    4.17 0  301 234 
 GUY2CHZ I         241 49.63         1.8 0.56                           301 234 
 PRA  HZ EP   2    241 15.62                             107    0.41 3  394 209 
 PRA  HE ES   4    242  1.29                             107    4.06 0  394 209 
 PRA  HZ I         242  3.78         2.2 0.38                           394 209 
                                                                                
