 2017  612 0533 17.6 L   6.776 -73.191157.6  RSN  4 0.4 1.2LRSN                1
 GAP=276        0.96       7.1     9.9  9.5  0.3515E+01 -0.1942E+02  0.6219E+01E
 Epicentro: ZAPATOCA - SANTANDER                                               3
 ACTION:UPD 17-09-14 16:51 OP:jn   STATUS:               ID:20170612053317 L   I
 OLDACT:UP  17-06-12 14:37 OP:dani STATUS:               ID:20170612052740d    3
 OLDACT:UP  17-06-12 14:37 OP:dani STATUS:               ID:20170612052740d    3
 OLDACT:DUP 17-06-12 14:35 OP:dani STATUS:               ID:20170612052740d    3
 OLDACT:UP  17-06-12 14:35 OP:dani STATUS:               ID:20170612052739     3
 OLDACT:UP  17-06-12 14:35 OP:dani STATUS:               ID:20170612052739     3
 OLDACT:UP  17-06-12 14:33 OP:dani STATUS:               ID:20170612052739     3
 OLDACT:UP  17-06-12 14:33 OP:dani STATUS:               ID:20170612052739     3
 OLDACT:REG 17-06-12 12:44 OP:dani STATUS:               ID:20170612052739     3
 2017-06-12-0528-00M.COL___350                                                 6
 STAT SP IPHASW D HRMM SECON CODA AMPLIT PERI AZIMU VELO AIN AR TRES W  DIS CAZ7
 BRR  HZ EP        533 40.05                             155    0.1310 68.2 303 
 BRR  HN ES        533 57.22                             155   -0.0910 68.2 303 
 BRR  HZ I         533 59.02         2.4 0.14            147           68.2 303 
 PTB  HZ EP        533 44.88                             136   -0.24 9  142 260 
 PTB  HN ES        534  6.09                             136   -0.48 9  142 260 
 PTB  HZ I         534 11.90         1.4 0.21            131            142 260 
 SPBC HZ EP   1    533 45.98                             132   -0.61 7  158 218 
 SPBC HN ES   1    534 10.10                             132    0.92 7  158 218 
 ZAR  HZ EP        533 50.98                             125    0.46 9  200 293 
 ZAR  HE ES        534 16.33                             125    0.16 9  200 293 
 ZAR  HZ I         534 22.60         2.3 0.42            122            200 293 
                                                                                
