 2011  512 0309 37.0 L   6.767 -73.141146.2  RSN  6 0.4 1.5LRSN                1
 GAP=139        0.88       7.8    11.2  8.5  0.1525E+02 -0.9001E+01  0.1151E+02E
 Epicentro: LOS SANTOS - SANTANDER                                             3
 ACTION:UP  11-06-29 08:52 OP:tino STATUS:               ID:20110512030937 L   I
 2011-05-12-0306-31S.COL___129                                                 6
 STAT SP IPHASW D HRMM SECON CODA AMPLIT PERI AZIMU VELO SNR AR TRES W  DIS CAZ7
 BAR2 SZ EP   1    3 9 56.34                             172    -0.2 7   20 193 
 BAR2 SZ ES   1    310 11.00                             172    -0.9 7   20 193 
 BAR2 SZ I         310 19.34        11.3 0.60                            20 193 
 BTL  SZ EP   1    3 9 56.60                             171     0.0 7   22 320 
 BTL  SZ ES   2    310 11.92                             171     0.0 5   22 320 
 GIR2 SZ EP   1    3 9 57.18                             166     0.4 7   35 350 
 GIR2 SZ ES   1    310 12.65                             166     0.4 7   35 350 
 BRR  HZ EP   1    3 9 58.30                             151     0.0 7   74 301 
 BRR  HN ES   1    310 14.96                             151     0.0 7   74 301 
 BRR  HZ I         310 16.40         7.8 0.53                            74 301 
 PAM  SZ EP   2    3 9 59.45                             150     0.1 5   80  38 
 PAM  SE ES   2    310 16.70                             150    -0.2 5   80  38 
 RUS  HZ EP   1    310  0.35                             145    -0.1 7   97 176 
 RUS  HZ I         310  1.32         1.9 0.37                            97 176 
 RUS  HE ES   2    310 20.03                             145     1.2 5   97 176 
                                                                                
