 2016  212 0255 51.1 L   6.827 -73.167144.0  RSN  5 0.3 1.3LRSN                1
 GAP=145        0.84       4.8     4.9  6.6 -0.1019E+02  0.9798E+01 -0.1494E+01E
 Epicentro: LOS SANTOS - SANTANDER                                             3
 ACTION:UPD 16-03-04 21:25 OP:rebc STATUS:               ID:20160212025551 L   I
 OLDACT:UP  16-02-12 16:45 OP:ak   STATUS:               ID:20160212024752d    3
 OLDACT:DUP 16-02-12 16:43 OP:ak   STATUS:               ID:20160212024752d    3
 OLDACT:UP  16-02-12 16:43 OP:ak   STATUS:               ID:20160212024751     3
 OLDACT:UP  16-02-12 16:42 OP:ak   STATUS:               ID:20160212024751     3
 OLDACT:REG 16-02-12 15:43 OP:ak   STATUS:               ID:20160212024751     3
 2016-02-12-0247-51M.COL___286                                                 6
 STAT SP IPHASW D HRMM SECON CODA AMPLIT PERI AZIMU VELO AIN AR TRES W  DIS CAZ7
 BAR2 EZ EP   2    256  9.97                             169   -0.59 5 26.0 184 
 BAR2 EZ ES        256 25.46                             169   -0.2910 26.0 184 
 BAR2 EZ I         256 27.20         6.8 0.18            171           26.0 184 
 PAM  EZ EP        256 13.65                             151    0.5710 76.7  42 
 PAM  EN ES        256 29.99                             151   -0.2310 76.7  42 
 PAM  EZ I         256 33.11         2.7 0.64            153           76.7  42 
 RUS  HZ EP        256 14.79                             142   -0.1010  104 175 
 RUS  HN ES        256 33.86                             142    0.4010  104 175 
 RUS  HZ I         256 34.60         3.1 0.32            148            104 175 
 PTB  HZ EP        256 17.69                             132   -0.07 9  146 258 
 PTB  HN ES        256 38.83                             132    0.27 9  146 258 
 PTB  HZ I         256 45.71         2.7 0.43            132            146 258 
 SPBC HZ EP        256 19.08                             128   -0.45 9  164 218 
 SPBC HN ES        256 41.71                             128   -0.01 9  164 218 
                                                                                
