 2011  812 0839 42.8 L   6.786 -72.998146.9  RSN  7 0.4 2.0LRSN                1
 GAP=198        0.76       3.5     8.0  6.3 -0.1976E+01  0.8193E+01  0.2894E+01E
 Epicentro: CEPITA - SANTANDER                                                 3
 ACTION:UPD 12-07-13 15:51 OP:ep   STATUS:               ID:20110812083942 L   I
 2011-08-12-0839-03S.COL___149                                                 6
 STAT SP IPHASW D HRMM SECON CODA AMPLIT PERI AZIMU VELO AIN AR TRES W  DIS CAZ7
 BAR2 SZ EP        840  3.02                             168    0.2810 29.6 224 
 BAR2 SZ ES   1    840 17.68                             168   -0.59 7 29.6 224 
 BAR2 SZ I         840 19.32        28.2 0.36                          29.6 224 
 BRR  HZ IP     C  840  4.92                             148   -0.1210 86.5 294 
 BRR  HZ I         840  5.20        55.3 0.13                          86.5 294 
 BRR  HE ES   1    840 22.28                             148   -0.07 7 86.5 294 
 RUS  HZ EP   1    840  6.73                             144    0.13 7 99.2 185 
 RUS  HN ES   1    840 25.38                             144    0.24 7 99.2 185 
 RUS  HZ I         840 26.90         8.1 0.24                          99.2 185 
 OCA  SZ EP   1    840 10.77                             129   -0.87 7  165 348 
 OCA  SZ ES   1    840 34.88                             129    0.78 7  165 348 
 OCA  SZ I         840 39.54        11.4 0.52                           165 348 
 CHI  HZ EP   2    840 20.80                             117   -0.16 4  252 199 
 CHI  HZ I         840 23.74         3.2 0.52                           252 199 
 CHI  HN ES   2    840 51.02                             117    0.33 4  252 199 
 RREF HZ EP   1    840 30.76                             110    0.41 5  333 231 
 RREF HN ES   1    841  7.45                             110    0.04 5  333 231 
 RREF HZ I         841 13.05         3.2 0.43                           333 231 
 PRA  HZ EP   1    840 36.86                             106   -0.35 4  399 212 
 PRA  HE ES   1    841 19.45                             106   -0.18 4  399 212 
                                                                                
