 2011  812 0112 10.0 L   6.745 -73.192135.8  RSN  4 0.2 1.4LRSN                1
 GAP=228        0.44       4.7     5.8  6.2  0.8196E+01  0.9582E+01  0.3615E+01E
 Epicentro: VILLANUEVA - SANTANDER                                             3
 ACTION:UPD 12-07-13 15:51 OP:ep   STATUS:               ID:20110812011210 L   I
 2011-08-12-0111-36S.COL___150                                                 6
 STAT SP IPHASW D HRMM SECON CODA AMPLIT PERI AZIMU VELO AIN AR TRES W  DIS CAZ7
 BAR2 SZ EP   1    112 28.10                             173   -0.24 7 16.9 176 
 BAR2 SZ ES   2    112 43.05                             173    0.42 5 16.9 176 
 BAR2 SZ I         112 44.71         7.4 0.17                          16.9 176 
 BRR  HZ EP   2    112 30.37                             151    0.33 5 70.0 305 
 BRR  HZ I         112 30.83         8.5 0.36                          70.0 305 
 BRR  HN ES   2    112 45.37                             151   -0.28 5 70.0 305 
 RUS  HZ EP   1    112 32.57                             143    0.17 7 95.0 173 
 RUS  HN ES   1    112 49.71                             143   -0.14 7 95.0 173 
 RUS  HZ I         112 52.99         1.8 0.37                          95.0 173 
 NOR  SZ EP   2    112 44.23                             117   -0.13 4  227 235 
 NOR  SN ES   2    113 11.29                             117    0.16 4  227 235 
                                                                                
