 2016  412 0806 37.3 L   6.734 -73.451 10.0  RSN 10 0.4 1.7LRSN                1
 GAP= 67        1.08       2.8     2.4  5.9 -0.2146E+01  0.8340E+01 -0.9336E+01E
 Epicentro: EL CARMEN - SANTANDER                                              3
 ACTION:UPD 16-05-05 14:20 OP:rebc STATUS:               ID:20160412080637 L   I
 OLDACT:UP  16-04-12 18:25 OP:mh   STATUS:               ID:20160412075748     3
 OLDACT:UP  16-04-12 18:24 OP:mh   STATUS:               ID:20160412075748     3
 OLDACT:REG 16-04-12 12:39 OP:mh   STATUS:               ID:20160412075748     3
 2016-04-12-0757-48M.COL___312                                                 6
 STAT SP IPHASW D HRMM SECON CODA AMPLIT PERI AZIMU VELO AIN AR TRES W  DIS CAZ7
 BAR2 EZ EP     D  8 6 43.34                             103    0.0510 33.6 118 
 BAR2 EZ ES        8 6 48.10                             103    0.1010 33.6 118 
 BAR2 EZ I         8 6 49.57        50.7 0.38             47           33.6 118 
 RUS  HZ EP        8 6 53.78                              94   -0.0110  102 156 
 RUS  HE ES        8 7  6.40                              94   -0.2810  102 156 
 RUS  HZ I         8 7  8.66         7.8 0.52             47            102 156 
 PAM  EZ EP        8 6 54.90                              94    0.3510  107  51 
 PAM  EN ES        8 7  7.56                              94   -0.4710  107  51 
 PAM  EZ I         8 7  9.84        15.4 0.40             47            107  51 
 PTB  HZ EP        8 6 54.43                              93   -0.6310  113 259 
 PTB  HN ES        8 7  9.61                              93    0.6710  113 259 
 PTB  HZ I         8 7 11.27        10.7 0.12             47            113 259 
 SPBC HZ EP        8 6 58.96                              93    0.07 9  138 210 
 SPBC HN ES   4    8 7 18.53                              93    2.78 0  138 210 
 SPBC HZ I         8 7 20.69        34.8 0.40             47            138 210 
 OCA  HZ EP        8 7  3.67                              56    0.60 9  167   5 
 OCA  HN ES        8 7 23.53                              56    0.33 9  167   5 
 OCA  HZ I         8 7 27.40        22.0 0.20             47            167   5 
 ZAR  HZ EP        8 7  3.94                              56   -0.15 9  177 298 
 ZAR  HN ES        8 7 24.13                              56   -0.89 9  177 298 
 ZAR  HZ I         8 7 25.50        16.4 0.18             47            177 298 
 HEL  HZ EP        8 7 12.41                              56    0.26 8  238 255 
 HEL  HN ES   1    8 7 38.95                              56   -0.41 6  238 255 
 HEL  HZ I         8 7 40.99         2.9 0.24             37            238 255 
 URE  HN ES   4    8 7 44.74                              56    2.05 0  256 296 
 URE  HZ I         8 7 47.90         3.5 0.25             37            256 296 
 GUY2CHZ EP   4    8 7 18.07                              56    1.76 0  270 232 
 GUY2CHN ES   1    8 7 47.38                              56    0.62 6  270 232 
 GUY2CHZ I         8 7 51.21         2.7 0.42                           270 232 
 PTGC HZ EP   4    8 7 27.60                              55    6.13 0  316 152 
 PTGC HN ES   4    8 8  1.47                              55    5.52 0  316 152 
                                                                                
