 2013 1112 0436 34.0 L   6.790 -73.132149.7  RSN  4 0.5 1.2LRSN                1
 GAP=202        1.07       7.3     9.8 11.1  0.2002E+02 -0.4010E+02 -0.1597E+02E
 Epicentro: LOS SANTOS - SANTANDER                                             3
 ACTION:UPD 14-01-09 16:27 OP:ep   STATUS:               ID:20131112043634 L   I
 OLDACT:DUP 13-11-12 10:36 OP:nd   STATUS:               ID:20131112043001d    3
 2013-11-12-0430-00M.COL___273                                                 6
 STAT SP IPHASW D HRMM SECON CODA AMPLIT PERI AZIMU VELO AIN AR TRES W  DIS CAZ7
 BRR  HZ EP        436 56.07                             153    0.3710 73.0 299 
 BRR  HN ES        437 12.87                             153    0.2710 73.0 299 
 BRR  HZ I         437 20.44         2.5 0.36            155           73.0 299 
 RUS  HZ EP        436 58.05                             145   -0.0210 99.4 177 
 RUS  HN ES   2    437 16.05                             145   -0.78 5 99.4 177 
 RUS  HZ I         437 17.52         1.4 0.34            154           99.4 177 
 PTB  HZ EP        437  2.06                             133    0.64 9  149 259 
 PTB  HN ES        437 22.23                             133   -0.56 9  149 259 
 PTB  HZ I         437 24.11         1.6 0.30            140            149 259 
 SML  HZ EP        437 10.35                             118   -0.69 8  245 335 
 SML  HN ES   2    437 39.58                             118   -0.34 4  245 335 
 SML  HZ I         437 44.03         1.8 0.24            122            245 335 
                                                                                
