 2010  912 0804 35.6 L   6.747 -73.114151.0  RSN  6 0.3 1.6LRSN                1
 GAP=163        0.72       4.3     9.8  9.2  0.2046E+01 -0.3669E+02 -0.7466E+01E
 Epicentro: LOS SANTOS - SANTANDER                                             3
 ACTION:UP  11-02-18 11:02 OP:tino STATUS:               ID:20100912080435 L   I
 2010-09-12-0801-53S.COL___120                                                 6
 STAT SP IPHASW D HRMM SECON CODA AMPLIT PERI AZIMU VELO SNR AR TRES W  DIS CAZ7
 BRR  HZ EP        8 4 57.54                             151    -0.110   77 301 
 BRR  HZ I         8 4 57.73        10.8 0.15                            77 301 
 BRR  HN ES   1    8 5 14.97                             151     0.1 7   77 301 
 RUS  HZ EP   1    8 4 59.76                             147     0.3 7   95 178 
 RUS  HN ES   1    8 5 17.99                             147    -0.1 7   95 178 
 RUS  HZ I         8 5 19.43         2.9 0.39                            95 178 
 GUE  SZ EP   1    8 5  1.63                             139     0.4 7  122  10 
 GUE  SZ I         8 5 24.34         8.8 0.97                           122  10 
 GRA  SZ EP        8 5  1.37                             137    -0.310  130  15 
 GRA  SZ I         8 5  2.55         5.9 0.11                           130  15 
 CHI  HZ EP   2    8 5 13.39                             119     0.3 4  244 196 
 CHI  HN ES   2    8 5 41.62                             119    -0.7 4  244 196 
 CHI  HZ I         8 5 50.77         1.4 0.28                           244 196 
 PRA  HZ EP   2    8 5 29.18                             107     0.3 3  389 210 
 PRA  HZ I         8 6 17.18         2.0 0.11                           389 210 
                                                                                
