 2015 1212 0049 28.0 L   6.779 -73.163145.6  RSN  7 0.4 1.8LRSN                1
 GAP=135        1.09       5.1     5.3  6.9 -0.6977E+01  0.6816E+01  0.4521E+01E
 Epicentro: LOS SANTOS - SANTANDER                                             3
 ACTION:UPD 16-02-04 15:04 OP:cam  STATUS:               ID:20151212004928 L   I
 OLDACT:REG 15-12-12 11:08 OP:drio STATUS:               ID:20151212004749     3
 2015-12-12-0047-49M.COL___340                                                 6
 STAT SP IPHASW D HRMM SECON CODA AMPLIT PERI AZIMU VELO AIN AR TRES W  DIS CAZ7
 BAR2 EZ EP        049 47.55                             172   -0.0110 20.7 186 
 BAR2 EZ ES        050  2.76                             172   -0.0510 20.7 186 
 BAR2 EZ I         050  5.44        12.1 0.38            171           20.7 186 
 BRR  HZ EP        049 49.35                             153    0.2510 70.7 301 
 BRR  HN ES        050  6.25                             153    0.7010 70.7 301 
 BRR  HZ I         050 10.28        15.7 0.22            152           70.7 301 
 PAM  EZ EP        049 50.44                             150    0.0610 80.5  40 
 PAM  EN ES        050  7.54                             150   -0.3010 80.5  40 
 PAM  EZ I         050 10.47        10.5 0.32            155           80.5  40 
 RUS  HZ EP        049 51.29                             144   -0.2810 98.4 175 
 RUS  HE ES        050 10.06                             144    0.1010 98.4 175 
 RUS  HZ I         050 11.54         5.2 0.24            147           98.4 175 
 PTB  HZ EP        049 54.01                             132   -0.73 9  145 260 
 PTB  HN ES        050 14.88                             132   -0.71 9  145 260 
 PTB  HZ I         050 20.35         8.9 0.44            134            145 260 
 SPBC HZ EP        049 56.51                             130    0.32 9  160 219 
 SPBC HN ES        050 18.28                             130    0.10 9  160 219 
 SPBC HZ I         050 24.68        10.9 0.26            132            160 219 
 GUY2CHZ EP        050 12.10                             112    0.84 7  298 235 
                                                                                
