 2010  812 0059 54.4 L   6.765 -73.062146.0  RSN  9 0.2 1.8LRSN                1
 GAP=168        0.51       2.3     5.0  4.1 -0.4976E+01 -0.7386E+01  0.3912E+01E
 Epicentro: LOS SANTOS - SANTANDER                                             3
 ACTION:UP  10-09-07 10:54 OP:vdl  STATUS:               ID:20100812005954 L   I
 2010-08-12-0058-25S.COL___127                                                 6
 STAT SP IPHASW D HRMM SECON CODA AMPLIT PERI AZIMU VELO SNR AR TRES W  DIS CAZ7
 BAR2 SZ IP        1 0 14.05                             171     0.010   23 215 
 BAR2 SZ I         1 0 14.44        24.8 0.10                            23 215 
 BAR2 SZ ES   2    1 0 28.77                             171    -0.6 5   23 215 
 BTL  SZ IP        1 0 14.26                             169     0.110   28 307 
 BTL  SZ ES   1    1 0 29.84                             169     0.2 7   28 307 
 GIR2 SZ EP   2    1 0 14.25                             165    -0.1 5   38 337 
 GIR2 SZ ES   2    1 0 30.46                             165     0.6 5   38 337 
 BRR  HZ EP        1 0 15.98                             150    -0.210   81 298 
 BRR  HE ES        1 0 33.18                             150     0.010   81 298 
 BRR  HZ I         1 0 35.82        19.4 0.15                            81 298 
 RUS  HZ EP        1 0 17.99                             145     0.110   97 181 
 RUS  HE ES   2    1 0 36.19                             145     0.0 5   97 181 
 RUS  HZ I         1 0 37.84         5.7 0.22                            97 181 
 GUE  SZ EP   1    1 0 19.15                             139    -0.2 7  119   7 
 GUE  SZ I         1 0 40.75         3.1 0.12                           119   7 
 GRA  SZ IP        1 0 19.88                             137     0.110  127  13 
 GRA  SZ ES        1 0 39.55                             137     0.010  127  13 
 GRA  SZ I         1 0 40.72        12.0 0.48                           127  13 
 CHI  HZ EP   1    1 0 31.73                             117    -0.3 6  248 197 
 CHI  HE ES        1 1  1.34                             117     0.0 8  248 197 
 CHI  HZ I         1 1 10.94         4.5 0.41                           248 197 
 PRA  HZ EP   2    1 0 48.32                             107     0.2 3  393 211 
 PRA  HE ES   2    1 1 30.54                             107     0.6 3  393 211 
 PRA  HZ I         1 1 37.50         3.4 0.20                           393 211 
                                                                                
