 2012 1212 0953  1.9 L   6.848 -73.144147.0  RSN  5 0.3 1.5LRSN                1
 GAP=246        0.57       5.2     5.2  6.5  0.1512E+02  0.8189E+01  0.3862E+01E
 Epicentro: LOS SANTOS - SANTANDER                                             3
 ACTION:UPD 13-01-04 14:27 OP:ep   STATUS:               ID:20121212095301 L   I
 2012-12-12-0950-00M.COL___242                                                 6
 STAT SP IPHASW D HRMM SECON CODA AMPLIT PERI AZIMU VELO AIN AR TRES W  DIS CAZ7
 BAR2 SZ EP   1    953 21.98                             169    0.24 7 28.6 188 
 BAR2 SZ ES   1    953 37.29                             169    0.03 7 28.6 188 
 BAR2 SZ I         953 38.67         9.2 0.26                          28.6 188 
 BRR  HN ES   4    953 41.28                             153    1.77 0 69.0 295 
 RUS  HZ EP   1    953 26.08                             143   -0.03 7  106 176 
 RUS  HN ES   1    953 44.84                             143   -0.19 7  106 176 
 RUS  HZ I         953 45.75         2.7 0.37                           106 176 
 PTB  HZ EP   1    953 28.65                             132   -0.38 7  149 257 
 PTB  HE ES   1    953 49.92                             132   -0.32 7  149 257 
 PTB  HZ I         953 53.32         4.0 0.18                           149 257 
 ZAR  HE ES   1    953 59.83                             123    0.41 6  202 291 
 ZAR  HZ I         954  6.12         4.1 0.22                           202 291 
 CHI  HZ EP   2    953 39.92                             117   -0.26 4  254 195 
 CHI  HN ES   1    954 10.61                             117    0.53 6  254 195 
 CHI  HZ I         954 15.27         1.5 0.26                           254 195 
                                                                                
