 2011  412 0424 37.6 L   6.702 -73.067138.2  RSN  6 0.5 1.5LRSN                1
 GAP=168        0.97       9.1    13.2 13.2 -0.6352E+02 -0.7575E+02  0.6029E+02E
 Epicentro: ARATOCA - SANTANDER                                                3
 ACTION:UP  11-06-22 15:30 OP:REBC STATUS:               ID:20110412042437 L   I
 2011-04-12-0422-10S.COL___139                                                 6
 STAT SP IPHASW D HRMM SECON CODA AMPLIT PERI AZIMU VELO SNR AR TRES W  DIS CAZ7
 BAR2 SZ EP   2    424 56.57                             172     0.3 5   18 226 
 BAR2 SZ ES   2    425 10.80                             172     0.0 5   18 226 
 BAR2 SZ I         425 13.15        11.3 0.35                            18 226 
 BTL  SZ EP   1    424 56.86                             166     0.3 7   33 317 
 PAM  SZ EP   2    424 59.73                             148     0.4 5   81  30 
 PAM  SN ES   2    425 16.44                             148     0.2 5   81  30 
 PAM  SZ I         425 18.89         2.1 0.46                            81  30 
 BRR  HN ES   1    425 15.39                             147     0.1 7   84 302 
 GRA  SZ EP   1    425  3.45                             133     0.5 7  134  13 
 GRA  SZ ES   1    425 21.81                             133    -0.9 7  134  13 
 GRA  SZ I         425 25.39         3.6 0.35                           134  13 
 CHI  HZ EP   1    425 13.37                             116    -0.7 6  241 198 
 CHI  HZ I         425 47.90         3.8 0.49                           241 198 
                                                                                
