 2015  112 0133  6.2 L   6.711 -73.211150.6  RSN  5 0.5 1.5LRSN                1
 GAP=189        1.40       7.3     9.8 10.2  0.2894E+02 -0.6326E+00 -0.2256E+02E
 Epicentro: VILLANUEVA - SANTANDER                                             3
 ACTION:UPD 15-03-02 15:39 OP:nd   STATUS:               ID:20150112013306 L   I
 OLDACT:REG 15-01-12 15:01 OP:carl STATUS:               ID:20150112012750     3
 2015-01-12-0127-50M.COL___253                                                 6
 STAT SP IPHASW D HRMM SECON CODA AMPLIT PERI AZIMU VELO AIN AR TRES W  DIS CAZ7
 BAR2 EZ EP        133 25.46                             175   -0.8510 13.5 167 
 BAR2 EZ ES        133 41.63                             175   -0.3310 13.5 167 
 BAR2 EZ I         133 42.19         7.4 0.24            175           13.5 167 
 BRR  HZ EP        133 28.67                             154    0.7810 70.6 308 
 BRR  HN ES        133 45.54                             154    0.7710 70.6 308 
 BRR  HZ I         133 50.49         4.4 0.14            151           70.6 308 
 RUS  HZ EP        133 30.10                             147    0.2310 91.6 171 
 RUS  HN ES        133 48.39                             147    0.1010 91.6 171 
 RUS  HZ I         133 49.85         4.0 0.40            151           91.6 171 
 PTB  HZ EP        133 33.20                             135    0.35 9  139 262 
 PTB  HN ES        133 52.92                             135   -0.68 9  139 262 
 PTB  HZ I         133 57.95         3.5 0.20            135            139 262 
 SML  HZ EP        133 43.61                             118   -0.20 8  250 338 
 SML  HE ES        134 12.65                             118   -0.46 8  250 338 
 SML  HZ I         134 17.31         5.0 0.10            119            250 338 
                                                                                
