 2014 1112 0653 37.8 L   6.781 -73.210148.2  RSN  4 0.4 1.0LRSN                1
 GAP=130        1.14       6.3     5.9 10.0 -0.4388E+01  0.3717E+01  0.8299E+01E
 Epicentro: ZAPATOCA - SANTANDER                                               3
 ACTION:UPD 14-12-19 15:42 OP:nd   STATUS:               ID:20141112065337 L   I
 OLDACT:ARG 14-11-12 12:06 OP:stll STATUS:               ID:20141112064741     3
 2014-11-12-0647-41M.COL___274                                                 6
 STAT SP IPHASW D HRMM SECON CODA AMPLIT PERI AZIMU VELO AIN AR TRES W  DIS CAZ7
 BRR  HZ EP        653 59.50                             155    0.5810 66.2 303 
 BRR  HN ES        654 16.01                             155    0.6010 66.2 303 
 BRR  HZ I         654 20.55         2.1 0.34            153           66.2 303 
 PAM  SZ EP        654  0.47                             149   -0.1610 83.6  42 
 PAM  SZ I         654  0.75         2.7 0.22            154           83.6  42 
 PAM  SN ES        654 17.98                             149   -0.4710 83.6  42 
 RUS  HZ EP        654  1.73                             145    0.0510 99.3 172 
 RUS  HN ES        654 20.47                             145    0.1510 99.3 172 
 RUS  HZ I         654 21.52         1.6 0.30            148           99.3 172 
 PTB  HZ EP        654  4.22                             134   -0.08 9  140 259 
 PTB  HN ES        654 24.21                             134   -0.77 9  140 259 
 PTB  HZ I         654 31.36         0.8 0.26            134            140 259 
                                                                                
