 2012 1212 0458 26.2 L   6.765 -73.141144.3  RSN  7 0.4 1.4LRSN                1
 GAP=139        0.80       5.8     5.6  7.1  0.1005E+02  0.1366E+02  0.5754E+01E
 Epicentro: LOS SANTOS - SANTANDER                                             3
 ACTION:UPD 13-01-04 14:27 OP:ep   STATUS:               ID:20121212045826 L   I
 2012-12-12-0456-39M.COL___191                                                 6
 STAT SP IPHASW D HRMM SECON CODA AMPLIT PERI AZIMU VELO AIN AR TRES W  DIS CAZ7
 BAR2 SZ EP   1    458 45.68                             172    0.06 7 19.6 193 
 BAR2 SZ ES   1    458 59.71                             172   -1.03 7 19.6 193 
 BAR2 SZ I         459  2.54         7.6 0.19                          19.6 193 
 GIR2 SZ EP   1    458 45.86                             166    0.01 7 35.2 351 
 GIR2 SZ ES   1    459  1.25                             166    0.11 7 35.2 351 
 GIR2 SZ I         459  2.87         4.0 0.48                          35.2 351 
 BRR  HN ES   1    459  4.27                             151    0.43 7 73.6 301 
 BRR  HZ I         459  8.45         7.9 0.52                          73.6 301 
 PAM  SE ES   2    459  5.97                             150    0.17 5 80.1  37 
 RUS  HZ EP   1    458 49.72                             145    0.15 7 96.7 176 
 RUS  HN ES   1    459  8.29                             145    0.53 7 96.7 176 
 RUS  HZ I         459 10.61         1.9 0.36                          96.7 176 
 PTB  HZ EP   1    458 52.76                             132   -0.31 7  148 260 
 PTB  HN ES   1    459 13.95                             132   -0.04 7  148 260 
 PTB  HZ I         459 16.31         3.0 0.18                           148 260 
 ZAR  HZ EP   1    458 58.45                             122   -0.34 6  206 293 
 ZAR  HE ES   1    459 24.47                             122    0.29 6  206 293 
 ZAR  HZ I         459 31.16         1.9 0.16                           206 293 
                                                                                
