 2010  412 0517 15.0 L   6.913 -73.126160.6  RSN 10 0.5 2.5LRSN                1
 GAP=197        0.86       6.8     8.7  7.8 -0.3619E+02 -0.1549E+02  0.2491E+02E
 Epicentro: PIEDECUESTA - SANTANDER                                            3
 ACTION:UP  10-08-24 09:58 OP:vdl  STATUS:               ID:20100412051715 L   I
 2010-04-12-0514-49S.COL___107                                                 6
 STAT SP IPHASW D HRMM SECON CODA AMPLIT PERI AZIMU VELO AIN AR TRES W  DIS CAZ7
 BRR  HZ IP     C  517 37.39                             156    -0.310   68 288 
 BRR  HZ I         517 37.62        93.1 0.18                            68 288 
 BRR  HN ES        517 55.35                             156     0.110   68 288 
 GUE  SZ EP        517 40.21                             145     0.010  104  12 
 GUE  SZ ES   2    517 59.66                             145    -0.2 5  104  12 
 OCA  SZ EP        517 43.41                             135    -0.1 9  148 352 
 OCA  SZ ES   2    518  6.21                             135     0.6 5  148 352 
 ROSC BZ EP   1    517 54.96                             118    -0.3 6  265 210 
 ROSC BZ I         518 28.74        16.1 0.35                           265 210 
 HEL  HZ EP        517 57.33                             117     0.7 7  277 253 
 HEL  HE ES   2    518 28.12                             117    -0.9 4  277 253 
 HEL  HZ I         518 34.01        12.5 0.43                           277 253 
 RREF HN ES   2    518 40.41                             113     0.1 3  332 228 
 RREF HZ I         518 44.35        13.4 0.60                           332 228 
 DBB  SZ EP   2    518  3.14                             112    -0.2 3  341 272 
 MON  HZ EP   2    518  3.44                             111    -0.5 3  347 307 
 MON  HE ES   2    518 41.34                             111    -0.7 3  347 307 
 MON  HZ I         518 56.94         9.6 0.40                           347 307 
 TOL  SZ EP        518  5.92                             111     0.8 6  354 223 
 PRA  HZ EP   2    518  9.44                             108    -1.0 3  404 209 
 PRA  HE ES   2    518 52.65                             108    -1.1 3  404 209 
 PRA  HZ I         518 55.16        10.7 0.44                           404 209 
                                                                                
