 2016  912 0230  0.8 L   6.761 -73.159149.8  RSN  7 0.4 1.6LRSN                1
 GAP=137        0.98       4.7     4.9  6.2 -0.6021E+01  0.5413E+01  0.3536E+01E
 Epicentro: LOS SANTOS - SANTANDER                                             3
 ACTION:UPD 17-08-17 21:09 OP:lp   STATUS:               ID:20160912023000 L   I
 OLDACT:UP  16-09-12 17:29 OP:ar   STATUS:               ID:20160912022734d    3
 OLDACT:DUP 16-09-12 17:24 OP:ar   STATUS:               ID:20160912022734d    3
 OLDACT:UP  16-09-12 17:23 OP:ar   STATUS:               ID:20160912022733     3
 OLDACT:REG 16-09-12 15:04 OP:and  STATUS:               ID:20160912022733     3
 2016-09-12-0228-00M.COL___303                                                 6
 STAT SP IPHASW D HRMM SECON CODA AMPLIT PERI AZIMU VELO AIN AR TRES W  DIS CAZ7
 BAR2 EZ EP        230 20.57                             172   -0.2810 18.9 188 
 BAR2 EZ ES        230 36.41                             172   -0.0710 18.9 188 
 BAR2 EZ I         230 38.02        14.2 0.62            172           18.9 188 
 BRR  HZ EP        230 22.81                             153    0.3610 72.0 302 
 BRR  HN ES        230 40.02                             153    0.7010 72.0 302 
 BRR  HZ I         230 40.92         7.1 0.12            152           72.0 302 
 PAM  EZ EP        230 23.85                             150    0.1410 81.7  38 
 PAM  EN ES        230 40.96                             150   -0.6210 81.7  38 
 PAM  EZ I         230 42.71         3.9 0.48            153           81.7  38 
 RUS  HZ EP        230 24.70                             146    0.0310 96.4 175 
 RUS  HN ES        230 43.72                             146    0.4410 96.4 175 
 RUS  HZ I         230 43.93         4.4 0.22            147           96.4 175 
 PTB  HZ EP        230 27.92                             133    0.01 9  145 260 
 PTB  HN ES        230 48.48                             133   -0.57 9  145 260 
 PTB  HZ I         230 53.28         4.1 0.16            134            145 260 
 SPBC HZ EP        230 29.34                             131    0.11 9  159 220 
 SPBC HN ES        230 51.05                             131   -0.34 9  159 220 
 SPBC HZ I         230 53.85         9.6 0.12            132            159 220 
 GUY2CHZ EP        230 44.16                             113   -0.04 7  297 235 
 GUY2CHN ES   4    231 19.75                             113    1.72 0  297 235 
 GUY2CHZ I         231 28.08         1.8 0.26                           297 235 
                                                                                
