 2014 1112 0524 55.7 L   6.812 -73.142143.5  RSN  6 0.6 1.5LRSN                1
 GAP=136        1.52       6.2     7.8 11.1 -0.4430E+01  0.1126E+02  0.1051E+01E
 Epicentro: LOS SANTOS - SANTANDER                                             3
 ACTION:UPD 14-12-19 15:42 OP:nd   STATUS:               ID:20141112052455 L   I
 OLDACT:ARG 14-11-12 12:06 OP:stll STATUS:               ID:20141112051744     3
 2014-11-12-0517-44M.COL___283                                                 6
 STAT SP IPHASW D HRMM SECON CODA AMPLIT PERI AZIMU VELO AIN AR TRES W  DIS CAZ7
 BAR2 SZ EP        525 15.31                             170    0.2410 24.8 190 
 BAR2 SZ ES        525 30.70                             170    0.5110 24.8 190 
 BAR2 SZ I         525 34.20         8.3 0.44            170           24.8 190 
 BRR  HZ IP     C  525 17.29                             152    0.7210 70.9 297 
 BRR  HN ES        525 33.59                             152    0.7310 70.9 297 
 BRR  HZ I         525 39.01         4.9 0.16            151           70.9 297 
 PAM  SZ EP        525 17.87                             151    0.2910 76.1  40 
 PAM  SZ I         525 18.46        11.5 0.26            155           76.1  40 
 PAM  SN ES        525 34.48                             151   -0.1710 76.1  40 
 RUS  HZ EP        525 19.23                             143   -0.0810  102 176 
 RUS  HN ES        525 36.95                             143   -0.7910  102 176 
 RUS  HZ I         525 38.34         2.3 0.42            146            102 176 
 PTB  HZ EP        525 22.63                             131    0.10 9  148 258 
 PTB  HN ES        525 42.72                             131   -0.74 9  148 258 
 PTB  HZ I         525 48.17         3.6 0.20            132            148 258 
 OCA  HN ES        525 44.45                             129   -1.09 9  159 353 
                                                                                
