 2012 1212 0754  4.1 L   6.781 -73.142143.0  RSN  9 0.5 1.6LRSN                1
 GAP=138        1.03       4.1     5.8  7.0  0.3984E+01  0.1057E+02  0.9647E+00E
 Epicentro: LOS SANTOS - SANTANDER                                             3
 ACTION:UPD 13-01-04 14:27 OP:ep   STATUS:               ID:20121212075404 L   I
 2012-12-12-0750-00M.COL___242                                                 6
 STAT SP IPHASW D HRMM SECON CODA AMPLIT PERI AZIMU VELO AIN AR TRES W  DIS CAZ7
 BAR2 SZ EP   1    754 23.60                             171    0.21 7 21.4 192 
 BAR2 SZ ES   1    754 38.38                             171   -0.04 7 21.4 192 
 BAR2 SZ I         754 39.35        26.8 0.26                          21.4 192 
 GIR2 SZ EP   1    754 23.63                             166    0.09 7 33.4 350 
 GIR2 SZ ES   1    754 38.73                             166    0.06 7 33.4 350 
 GIR2 SZ I         754 39.58         7.1 0.10                          33.4 350 
 BRR  HZ EP   1    754 25.45                             151    0.39 7 72.6 300 
 BRR  HN ES   1    754 42.24                             151    0.85 7 72.6 300 
 BRR  HZ I         754 46.02         7.5 0.10                          72.6 300 
 PAM  SZ EP   1    754 26.55                             150    0.41 7 78.7  38 
 PAM  SN ES   1    754 42.85                             150   -0.45 7 78.7  38 
 PAM  SZ I         754 44.11         4.1 0.16                          78.7  38 
 RUS  HZ EP        754 27.01                             144   -0.4510 98.5 176 
 RUS  HN ES        754 45.38                             144   -0.2810 98.5 176 
 RUS  HZ I         754 46.71         6.1 0.44                          98.5 176 
 PTB  HZ EP   1    754 30.35                             131   -0.53 7  148 260 
 PTB  HN ES   1    754 50.85                             131   -0.89 7  148 260 
 PTB  HZ I         754 53.47         5.2 0.16                           148 260 
 ZAR  HZ EP   1    754 36.56                             121    0.04 6  205 293 
 ZAR  HE ES   1    755  1.61                             121   -0.18 6  205 293 
 ZAR  HZ I         755  7.87         7.9 0.56                           205 293 
 SML  HZ EP   1    754 40.37                             117   -0.46 6  246 335 
 SML  HN ES   1    755  9.96                             117    0.51 6  246 335 
 CHI  HZ EP   1    754 41.71                             117    0.23 6  247 195 
 CHI  HE ES   1    755 12.12                             117    1.52 6  247 195 
 CHI  HZ I         755 17.75         2.5 0.30                           247 195 
                                                                                
