 2012 1212 0415 31.5 L   6.872 -73.478112.4  RSN  5 0.4 1.0LRSN                1
 GAP=127        0.75       4.3     5.4 10.7  0.3338E+01 -0.1310E+02 -0.9092E+01E
 Epicentro: SAN VICENTE DE CHUCURI - SANTANDER                                 3
 ACTION:UPD 13-01-04 14:27 OP:ep   STATUS:               ID:20121212041531 L   I
 2012-12-12-0410-00M.COL___242                                                 6
 STAT SP IPHASW D HRMM SECON CODA AMPLIT PERI AZIMU VELO AIN AR TRES W  DIS CAZ7
 BRR  HZ EP   1    415 47.17                             160   -0.08 7 36.6 315 
 BRR  HN ES   2    416  0.23                             160    0.71 5 36.6 315 
 BAR2 SZ EP   1    415 48.41                             156    0.43 7 45.0 133 
 BAR2 SZ I         416  1.91         4.7 0.26                          45.0 133 
 PTB  HZ EP   1    415 52.89                             131    0.16 7  114 251 
 PTB  HN ES   1    416  8.92                             131   -0.36 7  114 251 
 PTB  HZ I         416 10.39         2.9 0.44                           114 251 
 RUS  HZ EP   1    415 54.00                             130    0.38 7  117 158 
 RUS  HN ES   1    416 10.26                             130   -0.58 7  117 158 
 RUS  HZ I         416 13.88         0.9 0.34                           117 158 
 OCA  HZ EP   1    415 56.60                             122   -0.04 7  152   7 
 OCA  HN ES   2    416 15.59                             122   -0.64 5  152   7 
                                                                                
