 2013  612 0554 35.6 L   6.846 -73.152132.0  RSN  9 0.4 1.9LRSN                1
 GAP=183        0.95       3.9     6.6  9.9  0.1354E+01  0.1079E+02 -0.1478E+02E
 Epicentro: LOS SANTOS - SANTANDER                                             3
 ACTION:UPD 14-01-08 09:54 OP:ep   STATUS:               ID:20130612055435 L   I
 OLDACT:UP  13-06-12 11:54 OP:mh   STATUS:               ID:20130612054959     3
 OLDACT:UP  13-06-12 11:53 OP:mh   STATUS:               ID:20130612054959     3
 OLDACT:REG 13-06-12 07:51 OP:mh   STATUS:               ID:20130612054959     3
 2013-06-12-0549-59M.COL___260                                                 6
 STAT SP IPHASW D HRMM SECON CODA AMPLIT PERI AZIMU VELO AIN AR TRES W  DIS CAZ7
 GIR2 SZ EP   1    554 53.87                             168    0.33 7 26.1 350 
 GIR2 SZ I         555 13.66         3.8 0.18            162           26.1 350 
 BAR2 SZ EP        554 53.84                             167    0.1010 28.3 187 
 BAR2 SZ ES   1    555  7.84                             167   -0.02 7 28.3 187 
 BAR2 SZ I         555  9.85         7.2 0.18            171           28.3 187 
 BRR  HZ EP   1    554 55.82                             151    0.67 7 68.3 295 
 BRR  HN ES   4    555 12.93                             151    2.57 0 68.3 295 
 BRR  HN I         555 13.07        24.2 0.20            151           68.3 295 
 RUS  HZ EP   1    554 57.98                             139   -0.49 7  106 176 
 RUS  HN ES   1    555 16.11                             139   -0.17 7  106 176 
 RUS  HN I         555 16.82         6.3 0.20            141            106 176 
 PTB  HZ EP   1    555  0.84                             128   -0.73 7  148 257 
 PTB  HN ES        555 21.96                             128    0.18 9  148 257 
 PTB  HN I         555 24.21        14.1 0.18            131            148 257 
 OCA  HN ES        555 23.17                             127   -0.13 9  155 353 
 OCA  HN I         555 29.35        17.8 0.38            124            155 353 
 NOR  HZ EP   4    555 23.28                             115   12.39 0  237 233 
 NOR  HN ES   4    555 37.79                             115   -0.59 0  237 233 
 NOR  HN I         555 38.75        16.5 0.16            116            237 233 
 SML  HZ EP        555 11.68                             115    0.69 8  239 335 
 SML  HN ES        555 37.91                             115   -0.65 8  239 335 
 SML  HN I         555 48.06        14.2 0.28            113            239 335 
 GUY2CHZ EP   4    555 18.95                             109    0.02 0  304 234 
 GUY2CHN ES   4    555 54.66                             109    1.96 0  304 234 
 GUY2CHZ I         556  0.71         4.8 0.80                           304 234 
                                                                                
