 2017  412 0603 16.0 L   6.786 -73.129139.4  RSN 16 0.4 1.9LRSN                1
 GAP=114        1.00       3.2     3.3  5.1  0.1287E+01  0.4323E+01  0.4007E+01E
 Epicentro: LOS SANTOS - SANTANDER                                             3
 ACTION:UPD 17-05-30 21:11 OP:jn   STATUS:               ID:20170412060316 L   I
 OLDACT:UP  17-04-12 18:13 OP:edw  STATUS:               ID:20170412055000     3
 OLDACT:UP  17-04-12 18:11 OP:edw  STATUS:               ID:20170412055000     3
 OLDACT:UP  17-04-12 18:05 OP:edw  STATUS:               ID:20170412055000     3
 OLDACT:REG 17-04-12 13:15 OP:edw  STATUS:               ID:20170412055000     3
 2017-04-12-0558-00M.COL___368                                                 6
 STAT SP IPHASW D HRMM SECON CODA AMPLIT PERI AZIMU VELO AIN AR TRES W  DIS CAZ7
 BAR2 EZ IP     C  6 3 34.86                             171   -0.0210 22.2 195 
 BAR2 EZ ES        6 3 49.39                             171   -0.1810 22.2 195 
 BAR2 EZ I         6 3 52.20        13.7 0.34            167           22.2 195 
 BRR  HZ EP     C  6 3 36.63                             150   -0.0110 73.6 299 
 BRR  HN ES        6 3 53.44                             150    0.7310 73.6 299 
 BRR  HZ I         6 3 57.24        24.3 0.12            150           73.6 299 
 PAM  EZ IP     C  6 3 37.74                             149    0.1610 77.5  38 
 PAM  EN ES        6 3 54.41                             149    0.0210 77.5  38 
 PAM  EZ I         6 3 56.54        24.3 0.50            154           77.5  38 
 RUS  HZ EP        6 3 39.32                             143    0.2810 98.9 177 
 RUS  HN ES        6 3 56.20                             143   -0.7810 98.9 177 
 RUS  HZ I         6 3 58.85         8.4 0.36            143           98.9 177 
 PTB  HZ EP   9 C  6 3 41.90                             130   -0.73 0  149 260 
 PTB  HN ES        6 4  2.42                             130   -0.22 9  149 260 
 PTB  HZ I         6 4  5.38         9.3 0.28            130            149 260 
 SPBC HZ EP        6 3 44.07                             127    0.02 9  163 220 
 SPBC HN ES        6 4  6.13                             127    0.23 9  163 220 
 SPBC HZ I         6 4 10.45        13.3 0.14            127            163 220 
 YPLC HZ IP     C  6 3 45.40                             125    0.25 9  175 152 
 YPLC HN ES        6 4  7.75                             125   -0.10 9  175 152 
 YPLC HZ I         6 4 11.73         8.9 0.48            127            175 152 
 ZAR  HZ EP        6 3 48.10                             120   -0.22 8  206 292 
 ZAR  HN ES        6 4 12.77                             120   -0.72 8  206 292 
 ZAR  HZ I         6 4 18.58        16.6 0.28            121            206 292 
 CHI  HZ EP        6 3 52.33                             116   -0.94 8  248 196 
 CHI  HE ES        6 4 23.25                             116    0.93 8  248 196 
 CHI  HZ I         6 4 26.88         3.5 0.24            116            248 196 
 ROSC BZ EP   4    6 3 55.31                             115    1.54 0  252 212 
 ROSC BE ES   4    6 4 25.45                             115    2.24 0  252 212 
 ROSC BZ I         6 4 32.83         8.4 0.30            116            252 212 
 HEL  HZ EP        6 3 56.34                             113    0.25 8  273 256 
 HEL  HE ES        6 4 27.20                             113   -0.13 8  273 256 
 HEL  HZ I         6 4 33.34         3.5 0.40            114            273 256 
 URE  HZ EP   4    6 4  0.28                             112    3.22 0  286 292 
 URE  HE ES   4    6 4 26.01                             112   -3.06 0  286 292 
 PTGC HZ EP   4    6 3 58.28                             110   -1.09 0  307 159 
 PTGC HE ES   4    6 4 31.93                             110   -1.24 0  307 159 
 PTGC HZ I         6 4 37.90         4.2 0.28            112            307 159 
 CBOC HZ EP   4    6 4  3.73                             109    0.89 0  335 252 
 CBOC HE ES        6 4 39.59                             109    0.24 7  335 252 
 CBOC HZ I         6 4 43.41         1.5 0.22            109            335 252 
 DBB  EZ EP   2    6 4  3.10                             108   -0.39 3  341 274 
 DBB  EN ES   4    6 4 38.74                             108   -1.76 0  341 274 
 DBB  EZ I         6 4 42.14         3.9 0.24            109            341 274 
 PRA  HZ EP        6 4  9.46                             105    0.17 6  392 210 
 PRA  HE ES        6 4 50.75                             105   -0.08 6  392 210 
 PRA  HZ I         6 4 53.97         5.2 0.26            106            392 210 
 SJC  HZ EP   4    6 4  9.41                             104   -2.26 0  412 327 
 SJC  HN ES   4    6 4 50.13                             104   -4.94 0  412 327 
 SJC  HZ I         6 4 58.46         2.0 0.40            106            412 327 
                                                                                
