 2014 1012 0928 35.9 L   6.767 -73.198146.5  RSN  6 0.4 1.6LRSN                1
 GAP=108        1.00       6.2     5.4  7.6 -0.5220E+01 -0.9871E+01 -0.5496E+01E
 Epicentro: ZAPATOCA - SANTANDER                                               3
 ACTION:UPD 14-11-29 23:49 OP:nd   STATUS:               ID:20141012092835 L   I
 OLDACT:DUP 14-10-12 18:26 OP:stll STATUS:               ID:20141012091746d    3
 2014-10-12-0917-44M.COL___277                                                 6
 STAT SP IPHASW D HRMM SECON CODA AMPLIT PERI AZIMU VELO AIN AR TRES W  DIS CAZ7
 BAR2 SZ EP        928 55.73                             172    0.2110 19.4 175 
 BAR2 SZ ES        929 10.46                             172   -0.3810 19.4 175 
 BAR2 SZ I         929 11.15         6.1 0.18            171           19.4 175 
 BRR  HZ EP        928 57.57                             154    0.6410 68.1 304 
 BRR  HN ES        929 13.75                             154    0.3910 68.1 304 
 PTB  HZ EP        929  2.20                             133   -0.13 9  141 260 
 PTB  HN ES        929 22.46                             133   -0.51 9  141 260 
 PTB  HZ I         929 26.30         5.3 0.12            125            141 260 
 SPBC HZ ES        929 25.82                             130    0.20 9  157 218 
 TAM  HZ EP        929  3.99                             130   -0.05 9  160 103 
 OCA  HZ EP        929  4.02                             129   -0.50 9  163 355 
 OCA  HZ I         929 30.47         6.2 0.22            115            163 355 
                                                                                
