 2013  112 0255 41.1 L   6.690 -73.165145.9  RSN  5 0.3 1.7LRSN                1
 GAP=227        0.87       6.7     6.2  7.2  0.2429E+02  0.9126E+01 -0.1078E+01E
 Epicentro: VILLANUEVA - SANTANDER                                             3
 ACTION:UPD 13-02-15 09:13 OP:ep   STATUS:               ID:20130112025541 L   I
 2013-01-12-0250-00M.COL___241                                                 6
 STAT SP IPHASW D HRMM SECON CODA AMPLIT PERI AZIMU VELO AIN AR TRES W  DIS CAZ7
 BAR2 SZ EP        256  0.21                             175   -0.3710 10.9 190 
 BAR2 SZ ES        256 15.23                             175   -0.5310 10.9 190 
 BAR2 SZ I         256 17.51         8.7 0.50            178           10.9 190 
 BRR  HZ EP        256  2.81                             151    0.2510 76.1 307 
 BRR  HN ES        256 19.80                             151    0.5110 76.1 307 
 BRR  HN I         256 24.39         7.1 0.22            150           76.1 307 
 RUS  HZ EP   1    256  4.34                             147    0.28 7 88.6 174 
 RUS  HN ES        256 22.27                             147    0.3310 88.6 174 
 RUS  HN I         256 23.20         5.8 0.28            153           88.6 174 
 PTB  HZ EP        256  7.61                             133   -0.13 9  144 263 
 PTB  HN ES        256 28.37                             133   -0.13 9  144 263 
 PTB  HN I         256 29.07         4.8 0.24            135            144 263 
 ZAR  HE ES        256 39.28                             122   -0.16 8  207 295 
 ZAR  HE I         256 44.48         8.9 0.28            124            207 295 
                                                                                
