 2012  812 0645  7.1 L   6.846 -73.321127.4  RSN  7 0.3 1.8LRSN                1
 GAP=100        0.73       3.6     6.1  6.9  0.9908E+00  0.1130E+02 -0.1666E+01E
 Epicentro: ZAPATOCA - SANTANDER                                               3
 ACTION:UPD 12-09-10 11:56 OP:ep   STATUS:               ID:20120812064507 L   I
 2012-08-12-0640-00M.COL___218                                                 6
 STAT SP IPHASW D HRMM SECON CODA AMPLIT PERI AZIMU VELO AIN AR TRES W  DIS CAZ7
 GIR2 SZ EP        645 24.74                             166    0.1910 29.3  29 
 BAR2 SZ EP   1    645 25.16                             165    0.38 7 32.0 151 
 BAR2 SZ ES   1    645 38.11                             165   -0.45 7 32.0 151 
 BAR2 SZ I         645 39.54        31.3 0.42                          32.0 151 
 BRR  HZ EP        645 25.58                             156    0.3510 52.0 304 
 BRR  HZ I         645 26.04        14.3 0.11                          52.0 304 
 BRR  HN ES   1    645 39.67                             156    0.31 7 52.0 304 
 PAM  SN ES   1    645 44.69                             144    0.18 7 87.6  51 
 PAM  SZ I         645 47.00         5.9 0.33                          87.6  51 
 RUS  HZ EP   1    645 29.78                             137    0.01 7  109 166 
 RUS  HN ES   1    645 47.12                             137   -0.32 7  109 166 
 PTB  HZ EP   1    645 30.59                             131   -0.39 7  130 255 
 OCA  HZ EP   1    645 33.26                             126   -0.18 7  154   0 
 OCA  HN ES   1    645 53.33                             126   -0.65 7  154   0 
 OCA  HZ I         645 54.42         9.8 0.14                           154   0 
                                                                                
