 2012  212 0950  2.4 L   6.770 -73.163144.6  RSN  5 0.4 1.2LRSN                1
 GAP=136        0.78       5.6     5.3  9.1 -0.3094E+01  0.3248E+01  0.7299E+01E
 ACTION:UP  12-03-07 16:29 OP:epov STATUS:               ID:20120212095006dL   I
 2012-02-12-0950-00M.COL___188                                                 6
 STAT SP IPHASW D HRMM SECON CODA AMPLIT PERI AZIMU VELO AIN AR TRES W  DIS CAZ7
 BAR2 SZ EP   1    950 21.89                             172    0.03 7 19.7 186 
 BAR2 SZ I         950 38.16         3.5 0.18                          19.7 186 
 BRR  HZ EP   1    950 23.77                             152    0.30 7 71.2 302 
 BRR  HZ I         950 31.84         6.4 0.45                          71.2 302 
 BRR  HE ES   1    950 40.54                             152    0.68 7 71.2 302 
 PAM  SZ EP   1    950 24.90                             149    0.13 7 81.2  39 
 PAM  SN ES   1    950 41.60                             149   -0.58 7 81.2  39 
 RUS  HZ EP   1    950 25.94                             144    0.09 7 97.4 175 
 RUS  HN ES   1    950 44.20                             144    0.09 7 97.4 175 
 RUS  HZ I         950 46.39         1.7 0.23                          97.4 175 
 PTB  HZ EP   1    950 28.87                             132   -0.22 7  145 260 
 PTB  HN ES   1    950 49.24                             132   -0.63 7  145 260 
                                                                                
