 2013  412 0811 25.6 L   6.310 -73.614107.2  RSN  9 0.5 2.4LRSN                1
 GAP= 71        1.17       3.3     3.7  7.4 -0.1532E+01  0.8069E+01  0.1797E+01E
 Epicentro: SANTA HELENA DEL OPON - SANTANDER                                  3
 ACTION:UPD 13-05-22 14:37 OP:EP   STATUS:               ID:20130412081125 L   I
 2013-04-12-0808-36M.COL___212                                                 6
 STAT SP IPHASW D HRMM SECON CODA AMPLIT PERI AZIMU VELO AIN AR TRES W  DIS CAZ7
 BAR2 SZ IP     C  811 42.29                             150    0.1510 57.1  57 
 BAR2 SZ ES        811 55.61                             150    0.5610 57.1  57 
 BAR2 SZ I         811 56.80       105.1 0.30            153           57.1  57 
 RUS  HZ EP        811 43.59                             143   -0.1010 74.7 128 
 RUS  HN ES        811 57.50                             143   -0.3110 74.7 128 
 RUS  HN I         811 59.71        40.1 0.24            147           74.7 128 
 BRR  HZ IP        811 43.84                             137   -0.2710 88.8 353 
 BRR  HN ES        811 58.81                             137    0.2510 88.8 353 
 BRR  HN I         812  4.56        54.5 0.16            139           88.8 353 
 PTB  HZ EP        811 44.03                             135   -0.7610 96.5 285 
 PTB  HN ES        811 58.98                             135   -0.7910 96.5 285 
 PTB  HN I         812  2.44        60.5 0.10            136           96.5 285 
 GIR2 SZ EP        811 44.84                             134   -0.1610 96.9  29 
 NOR  HZ EP        811 50.97                             119   -0.28 9  162 239 
 NOR  HN ES        812 11.86                             119    0.60 9  162 239 
 NOR  HN I         812 14.27        76.6 0.14            121            162 239 
 CHI  HZ EP        811 54.38                             115   -0.01 9  186 184 
 CHI  HN ES        812 17.03                             115    0.17 9  186 184 
 CHI  HN I         812 21.38        11.4 0.50            118            186 184 
 HEL  HZ EP        811 58.07                             112    0.82 8  212 267 
 HEL  HN ES        812 22.40                             112    0.46 8  212 267 
 HEL  HN I         812 25.68         9.5 0.42            114            212 267 
 OCA  HZ EP        811 57.00                             111   -0.38 8  216   9 
 OCA  HE ES        812 22.75                             111    0.58 8  216   9 
 OCA  HN I         812 27.94        80.3 0.60            114            216   9 
                                                                                
