 2013  612 0452 26.4 L   5.923 -73.677115.3  RSN 13 0.5 2.4LRSN                1
 GAP= 68        0.95       3.0     3.3  7.0 -0.8230E+00  0.8108E+01 -0.5057E+00E
 Epicentro: PUENTE NACIONAL - SANTANDER                                        3
 ACTION:UPD 14-01-08 09:54 OP:ep   STATUS:               ID:20130612045226 L   I
 OLDACT:UP  13-06-12 11:41 OP:mh   STATUS:               ID:20130612044959     3
 OLDACT:REG 13-06-12 07:41 OP:mh   STATUS:               ID:20130612044959     3
 2013-06-12-0449-59M.COL___260                                                 6
 STAT SP IPHASW D HRMM SECON CODA AMPLIT PERI AZIMU VELO AIN AR TRES W  DIS CAZ7
 RUS  HZ EP        452 44.49                             149   -0.1710 65.9  93 
 RUS  HN ES        452 58.64                             149   -0.3010 65.9  93 
 RUS  HZ I         453  1.73         8.6 0.22            152           65.9  93 
 BAR2 SZ EP        452 46.22                             139    0.0210 92.0  37 
 BAR2 SZ ES   1    453  1.91                             139    0.23 7 92.0  37 
 BAR2 SZ I         453  2.98        67.9 0.20            142           92.0  37 
 PTB  HZ EP   1    452 46.82                             133   -0.59 7  110 308 
 PTB  HN ES   1    453  3.10                             133   -0.73 7  110 308 
 PTB  HN I         453  5.95        43.9 0.34            134            110 308 
 BRR  HZ EP        452 49.38                             128    0.0310  131 358 
 BRR  HN ES        453  7.96                             128    0.6810  131 358 
 BRR  HZ I         453  9.56        31.8 0.14            130            131 358 
 NOR  HZ EP        452 50.58                             126    0.48 9  138 253 
 NOR  HN ES   1    453  9.25                             126    0.64 7  138 253 
 NOR  HN I         453 12.70        76.1 0.14            127            138 253 
 GIR2 SZ EP     C  452 50.28                             126    0.00 9  139  23 
 ROSC BN ES   4    453 11.91                             126    2.23 0  139 211 
 CHI  HZ EP   1    452 50.75                             125   -0.35 7  143 182 
 CHI  HN ES   1    453 10.11                             125   -0.29 7  143 182 
 CHI  HN I         453 13.74        30.0 0.30            127            143 182 
 YOP  SN ES   1    453 11.78                             123    0.37 7  153 114 
 YOP  SN I         453 13.23       105.0 0.56            126            153 114 
 GUY2CHZ EP   1    452 58.21                             115    0.78 6  202 248 
 GUY2CHN ES   4    453 23.71                             115    2.05 0  202 248 
 GUY2CHN I         453 27.56        10.3 0.38                           202 248 
 HEL  HZ EP   1    452 58.18                             114    0.36 6  207 278 
 HEL  HN ES   1    453 21.81                             114   -0.55 6  207 278 
 HEL  HN I         453 28.38        13.4 0.28            115            207 278 
 OCA  HZ EP   1    453  3.81                             109    0.36 6  259   9 
 OCA  HN ES   1    453 31.77                             109   -0.60 6  259   9 
 OCA  HN I         453 39.38        50.4 0.44            111            259   9 
 PRA  HZ EP   1    453  5.17                             107   -0.41 6  279 209 
 PRA  HN ES   4    453 34.93                             107   -1.23 0  279 209 
 PRA  HZ I         453 42.76         7.7 0.26            108            279 209 
 SML  HZ EP   1    453  9.58                             104   -0.93 5  321 352 
 SML  HN ES   4    453 42.47                             104   -2.47 0  321 352 
 SML  HN I         453 47.08        23.7 0.10            106            321 352 
                                                                                
