 2012  112 0250 17.7 L   6.546 -73.605109.3  RSN  5 0.3 1.6LRSN                1
 GAP=128        0.59       5.4     4.9  8.1  0.3801E+01  0.1184E+02  0.2951E+01E
 Epicentro: EL CARMEN DE CHUCURI - SANTANDER                                   3
 ACTION:UP  12-02-03 08:16 OP:REBC STATUS:               ID:20120112025017 L   I
 2012-01-12-0250-00M.COL___187                                                 6
 STAT SP IPHASW D HRMM SECON CODA AMPLIT PERI AZIMU VELO SNR AR TRES W  DIS CAZ7
 BAR2 SZ EP   1    250 33.51                             155    -0.4 7   47  84 
 BAR2 SZ ES   1    250 46.73                             155     0.2 7   47  84 
 BAR2 SZ I         250 47.43        23.0 0.38                            47  84 
 BRR  HZ EP   1    250 34.79                             148     0.3 7   63 349 
 BRR  HZ I         250 34.91         5.5 0.13                            63 349 
 GIR2 SZ EP   1    250 35.30                             143    -0.2 7   74  38 
 GIR2 SZ ES   2    250 49.22                             143    -0.1 5   74  38 
 RUS  HZ EP   1    250 37.77                             137     0.4 7   92 141 
 RUS  HN ES   2    250 52.33                             137    -0.4 5   92 141 
 PTB  HZ EP   2    250 36.64                             136    -0.2 5   94 270 
 PTB  HN ES   2    250 51.82                             136     0.0 5   94 270 
                                                                                
