 2013  112 0758 56.0 L   6.737 -73.156148.6  RSN  4 0.3 1.3LRSN                1
 GAP=231        0.80       6.5     6.4  8.1  0.2142E+02 -0.6542E+01 -0.4882E+01E
 Epicentro: VILLANUEVA - SANTANDER                                             3
 ACTION:UPD 13-02-15 09:13 OP:ep   STATUS:               ID:20130112075856 L   I
 2013-01-12-0756-38M.COL___187                                                 6
 STAT SP IPHASW D HRMM SECON CODA AMPLIT PERI AZIMU VELO AIN AR TRES W  DIS CAZ7
 BAR2 SZ EP        759 15.46                             173   -0.4010 16.3 190 
 BRR  HZ EP        759 17.61                             152    0.0010 73.8 304 
 BRR  HE ES        759 34.64                             152    0.1810 73.8 304 
 BRR  HE I         759 36.22         5.8 0.62            150           73.8 304 
 RUS  HN EP        759 20.14                             146    0.5810 93.7 175 
 RUS  HE ES        759 37.75                             146   -0.1910 93.7 175 
 RUS  HE I         759 40.42         2.1 0.78            145           93.7 175 
 PTB  HZ EP        759 22.76                             133   -0.24 9  145 261 
 PTB  HN ES        759 44.11                             133    0.05 9  145 261 
 PTB  HN I         759 49.91         3.5 0.28            131            145 261 
                                                                                
