 2013  412 0040 41.5 L   6.792 -73.142144.0  RSN 11 0.5 2.0LRSN                1
 GAP=137        1.25       3.4     5.2  6.5 -0.4334E+01  0.4263E+01  0.8912E+00E
 Epicentro: LOS SANTOS - SANTANDER                                             3
 ACTION:UPD 13-05-22 14:37 OP:EP   STATUS:               ID:20130412004041 L   I
 2013-04-12-0038-47M.COL___215                                                 6
 STAT SP IPHASW D HRMM SECON CODA AMPLIT PERI AZIMU VELO AIN AR TRES W  DIS CAZ7
 BAR2 SZ IP        041  1.05                             171    0.1910 22.5 191 
 BAR2 SZ I         041  1.40        30.4 0.34            170           22.5 191 
 BAR2 SZ ES        041 15.42                             171   -0.5810 22.5 191 
 GIR2 SZ EP        041  1.17                             167    0.2210 32.2 350 
 GIR2 SZ ES        041 15.95                             167   -0.2010 32.2 350 
 GIR2 SZ I         041 17.60        10.0 0.28            167           32.2 350 
 BRR  HZ EP        041  2.98                             152    0.5110 72.0 299 
 BRR  HZ I         041  3.24        14.6 0.26            151           72.0 299 
 BRR  HN ES        041 19.65                             152    0.8010 72.0 299 
 PAM  SZ EP        041  4.04                             150    0.5310 77.8  39 
 PAM  SN ES        041 20.84                             150    0.1310 77.8  39 
 PAM  SN I         041 21.91        12.7 0.22            151           77.8  39 
 RUS  HZ EP        041  5.02                             144    0.0510 99.7 176 
 RUS  HN ES        041 22.98                             144   -0.3310 99.7 176 
 RUS  HN I         041 24.05        16.3 0.24            143           99.7 176 
 PTB  HZ EP        041  7.92                             131   -0.39 9  148 259 
 PTB  HN ES        041 29.88                             131    0.63 9  148 259 
 PTB  HN I         041 31.27        12.4 0.24            131            148 259 
 CAPV BZ EP        041  9.22                             131    0.47 9  150  38 
 CAPV BZ ES        041 30.05                             131    0.01 9  150  38 
 OCA  HN ES        041 30.91                             129   -0.86 9  161 353 
 OCA  HN I         041 36.29        54.1 0.26            129            161 353 
 SML  HZ EP        041 17.88                             117   -0.22 8  245 335 
 SML  HE ES        041 45.63                             117   -1.04 8  245 335 
 CHI  HZ EP   1    041 19.35                             117    0.37 6  248 195 
 CHI  HN ES        041 47.48                             117   -0.77 8  248 195 
 CHI  HN I         041 54.34         5.6 0.30            116            248 195 
 PRA  HN ES        042 16.32                             106   -0.19 6  391 210 
 PRA  HN I         042 22.41         2.1 0.26            106            391 210 
                                                                                
