 2017  412 0632 45.4 L   6.123 -73.413138.8  RSN  5 0.2 1.7LRSN                1
 GAP=109        0.57       4.4     5.0  6.2  0.1483E+02  0.1488E+02  0.1603E+02E
 Epicentro: SUAITA - SANTANDER                                                 3
 ACTION:UPD 17-05-30 21:11 OP:jn   STATUS:               ID:20170412063245 L   I
 OLDACT:DUP 17-04-12 18:25 OP:edw  STATUS:               ID:20170412062550d    3
 OLDACT:UP  17-04-12 18:25 OP:edw  STATUS:               ID:20170412062549     3
 OLDACT:UP  17-04-12 18:20 OP:edw  STATUS:               ID:20170412062549     3
 OLDACT:REG 17-04-12 13:17 OP:edw  STATUS:               ID:20170412062549     3
 2017-04-12-0628-00M.COL___368                                                 6
 STAT SP IPHASW D HRMM SECON CODA AMPLIT PERI AZIMU VELO AIN AR TRES W  DIS CAZ7
 RUS  HZ EP        633  5.47                             161    0.2410 44.6 125 
 RUS  HN ES        633 20.72                             161    0.0310 44.6 125 
 RUS  HZ I         633 22.38         6.9 0.64            160           44.6 125 
 BAR2 EZ ES        633 20.75                             156   -0.3110 57.8  26 
 BAR2 EZ I         633 23.67        21.9 0.38            156           57.8  26 
 SPBC HZ EP        633  7.02                             145   -0.1210 89.7 235 
 BRR  HN ES        633 27.30                             138    0.2210  114 343 
 YPLC HZ EP        633 10.97                             132   -0.21 9  140 125 
 YPLC HN ES        633 31.43                             132    0.16 9  140 125 
 YPLC HZ I         633 34.92         6.9 0.38            132            140 125 
                                                                                
