 2017  212 0349 41.2 L   6.781 -73.132143.5  RSN 15 0.4 2.0LRSN                1
 GAP= 67        0.83       3.1     2.5  4.3  0.1529E+00  0.2086E+01  0.2269E+01E
 Epicentro: LOS SANTOS - SANTANDER                                             3
 ACTION:UPD 17-05-24 15:35 OP:jn   STATUS:               ID:20170212034941 L   I
 OLDACT:UP  17-02-12 16:50 OP:and  STATUS:               ID:20170212034748d    3
 OLDACT:UP  17-02-12 16:49 OP:and  STATUS:               ID:20170212034748d    3
 OLDACT:UP  17-02-12 16:49 OP:and  STATUS:               ID:20170212034748d    3
 OLDACT:UP  17-02-12 16:49 OP:and  STATUS:               ID:20170212034748d    3
 OLDACT:UP  17-02-12 16:48 OP:and  STATUS:               ID:20170212034748d    3
 OLDACT:UP  17-02-12 16:46 OP:and  STATUS:               ID:20170212034748d    3
 OLDACT:UP  17-02-12 16:46 OP:and  STATUS:               ID:20170212034748d    3
 OLDACT:UP  17-02-12 16:44 OP:and  STATUS:               ID:20170212034748d    3
 OLDACT:UP  17-02-12 16:44 OP:and  STATUS:               ID:20170212034748d    3
 OLDACT:UP  17-02-12 16:44 OP:and  STATUS:               ID:20170212034748d    3
 OLDACT:UP  17-02-12 16:43 OP:and  STATUS:               ID:20170212034748d    3
 OLDACT:UP  17-02-12 16:41 OP:and  STATUS:               ID:20170212034748d    3
 OLDACT:DUP 17-02-12 16:38 OP:and  STATUS:               ID:20170212034748d    3
 OLDACT:UP  17-02-12 16:38 OP:and  STATUS:               ID:20170212034747     3
 OLDACT:UP  17-02-12 16:38 OP:and  STATUS:               ID:20170212034747     3
 OLDACT:UP  17-02-12 16:38 OP:and  STATUS:               ID:20170212034747     3
 OLDACT:REG 17-02-12 12:42 OP:and  STATUS:               ID:20170212034747     3
 2017-02-12-0348-00M.COL___352                                                 6
 STAT SP IPHASW D HRMM SECON CODA AMPLIT PERI AZIMU VELO AIN AR TRES W  DIS CAZ7
 BAR2 EZ IP     C  350  0.34                             171   -0.1510 21.6 195 
 BAR2 EZ ES        350 15.51                             171   -0.0510 21.6 195 
 BAR2 EZ I         350 16.48        21.6 0.26            166           21.6 195 
 BRR  HZ EP        350  2.24                             151    0.0410 73.5 299 
 BRR  HN ES        350 19.22                             151    0.6110 73.5 299 
 BRR  HZ I         350 23.62        14.5 0.12            151           73.5 299 
 PAM  EZ EP        350  3.14                             150   -0.0410 78.1  38 
 PAM  EN ES        350 20.27                             150   -0.0910 78.1  38 
 PAM  EZ I         350 22.47        33.5 0.58            156           78.1  38 
 RUS  HZ IP     C  350  4.19                             144   -0.3510 98.4 177 
 RUS  HN ES        350 22.97                             144    0.2010 98.4 177 
 RUS  HZ I         350 24.24         9.2 0.28            142           98.4 177 
 PTB  HZ EP        350  7.25                             131   -0.79 9  149 260 
 PTB  HN ES        350 28.28                             131   -0.73 9  149 260 
 PTB  HZ I         350 35.56        16.3 0.52            130            149 260 
 TAM  HZ IP     C  350  8.57                             130    0.09 9  153 104 
 TAM  HN ES        350 29.85                             130    0.06 9  153 104 
 TAM  HZ I         350 33.62         4.3 0.29            133            153 104 
 ZAR  HZ EP        350 13.72                             122    0.04 8  206 293 
 ZAR  HN ES        350 39.34                             122    0.29 8  206 293 
 ZAR  HZ I         350 44.46        15.8 0.28            122            206 293 
 NOR  HZ EP        350 16.84                             118    0.08 8  235 235 
 NOR  HN ES        350 44.76                             118    0.23 8  235 235 
 NOR  HZ I         350 50.41         7.3 0.22            118            235 235 
 CHI  HZ EP        350 18.71                             117    0.15 8  247 196 
 CHI  HN ES   2    350 47.96                             117    0.23 4  247 196 
 CHI  HZ I         350 57.70         3.7 0.32            117            247 196 
 ROSC BZ EP   9    350 21.28                             116    2.23 0  252 212 
 ROSC BE ES        350 50.75                             117   -0.08 8  252 212 
 ROSC BZ I         350 58.02        10.8 0.45            116            252 212 
 PTGC HZ EP   9    350 23.29                             111   -1.35 0  306 159 
 PTGC HN ES   2    350 56.58                             111   -0.62 4  306 159 
 PTGC HZ I         350 59.31         6.9 0.38            112            306 159 
 LL6C HN EP   9    350  7.08                             110   -19.9 0  327 357 
 LL6C HE ES        350 42.47                                   -0.37 7  327 357 
 CBOC HZ EP        350 28.83                             109    0.76 7  334 253 
 CBOC HN ES   4    351  5.95                             109    1.29 0  334 253 
 CBOC HZ I         351 14.33         1.9 0.09            110            334 253 
 PRA  HZ EP   2    350 35.27                             106    0.79 3  391 210 
 PRA  HN ES   2    351 16.53                             106    0.47 3  391 210 
 PRA  HZ I         351 20.69         4.8 0.21            107            391 210 
 ORTC HZ EP   4    350 36.28                             106    1.37 0  395 217 
 ORTC HN ES   4    351 19.56                             106    2.73 0  395 217 
 SJC  HZ EP   4    350 34.63                             105   -2.32 0  412 327 
 SJC  HN ES   4    351 16.35                             105   -4.11 0  412 327 
 SJC  HZ I         351 20.09         3.6 0.38            106            412 327 
                                                                                
