 2010 1112 0919  1.2 L   6.776 -73.054150.3  RSN  8 0.4 1.7LRSN                1
 GAP=169        0.65       4.1     6.9  5.7  0.6449E+01  0.1053E+02  0.8561E+01E
 Epicentro: LOS SANTOS - SANTANDER                                             3
 ACTION:UP  10-12-17 16:52 OP:REBC STATUS:               ID:20101112091901 L   I
 2010-11-12-0915-54S.COL___129                                                 6
 STAT SP IPHASW D HRMM SECON CODA AMPLIT PERI AZIMU VELO SNR AR TRES W  DIS CAZ7
 BAR2 SZ EP   1    919 21.49                             170     0.1 7   25 215 
 BAR2 SZ ES   2    919 37.60                             170     0.4 5   25 215 
 BAR2 SZ I         919 39.48         7.9 0.25                            25 215 
 BRR  HZ EP        919 23.51                             150     0.110   81 297 
 BRR  HZ I         919 23.58        20.1 0.71                            81 297 
 BRR  HN ES        919 40.73                             150     0.010   81 297 
 RUS  HZ EP   1    919 25.50                             145     0.3 7   98 182 
 RUS  HN ES   1    919 43.70                             145    -0.2 7   98 182 
 RUS  HZ I         919 46.25         3.0 0.23                            98 182 
 GRA  SZ ES   2    919 45.98                             138    -0.9 5  126  13 
 CHI  HZ EP   2    919 39.59                             118     0.4 4  249 198 
 CHI  HN ES   2    920  8.69                             118    -0.1 4  249 198 
 CHI  HZ I         920 17.22         2.3 0.10                           249 198 
 HEL  HZ EP        919 42.91                             115     0.2 7  281 257 
 RREF HZ EP   1    919 47.75                             111    -0.5 5  328 231 
 RREF HE ES   3    920 22.85                             111    -2.1 2  328 231 
 RREF HZ I         920 24.95         4.3 0.33                           328 231 
 PRA  HZ EP   1    919 55.03                             107    -0.2 4  395 211 
 PRA  HN ES   2    920 37.48                             107     0.2 3  395 211 
                                                                                
