 2011  712 0723 24.2 L   6.848 -73.359112.9  RSN  4 0.2 1.2LRSN                1
 GAP=199        0.48       3.9     4.3  5.9  0.5738E+01  0.7661E+01  0.9094E+01E
 Epicentro: SAN VICENTE DE CHUCURI - SANTANDER                                 3
 ACTION:UPD 12-07-25 14:00 OP:epov STATUS:               ID:20110712072324 L   I
 2011-07-12-0720-00M.COL___132                                                 6
 STAT SP IPHASW D HRMM SECON CODA AMPLIT PERI AZIMU VELO AIN AR TRES W  DIS CAZ7
 BAR2 SZ EP   1    723 40.57                             162    0.29 7 34.4 145 
 BAR2 SZ ES   1    723 52.50                             162   -0.29 7 34.4 145 
 BAR2 SZ I         723 53.72        10.4 0.13                          34.4 145 
 BRR  HZ EP   1    723 40.47                             155   -0.08 7 48.4 306 
 BRR  HZ I         723 45.98         4.0 0.34                          48.4 306 
 BRR  HN ES   1    723 53.40                             155    0.12 7 48.4 306 
 RUS  HZ EP   1    723 45.51                             133   -0.23 7  110 164 
 RUS  HZ I         723 46.18         1.3 0.15                           110 164 
 RUS  HN ES   1    724  2.75                             133    0.24 7  110 164 
 NOR  SE ES   1    724 21.69                             112   -0.05 6  219 230 
                                                                                
