 2016 1212 0701 14.5 L   6.707 -73.162144.7  RSN  4 0.4 1.3LRSN                1
 GAP=244        1.02      11.3     7.4  8.1  0.3085E+02  0.1450E+02 -0.4675E+01E
 Epicentro: VILLANUEVA - SANTANDER                                             3
 ACTION:UPD 17-01-11 20:14 OP:rebc STATUS:               ID:20161212070114 L   I
 OLDACT:UP  16-12-12 21:34 OP:ar   STATUS:               ID:20161212065743     3
 OLDACT:REG 16-12-12 15:29 OP:and  STATUS:               ID:20161212065743     3
 2016-12-12-0658-00M.COL___389                                                 6
 STAT SP IPHASW D HRMM SECON CODA AMPLIT PERI AZIMU VELO AIN AR TRES W  DIS CAZ7
 BAR2 EZ EP        7 1 33.26                             175   -0.5410 12.9 190 
 BAR2 EZ ES        7 1 49.04                             175    0.1610 12.9 190 
 BAR2 EZ I         7 1 50.12         7.3 0.88            172           12.9 190 
 BRR  HZ EP        7 1 35.81                             151    0.0810 75.2 306 
 BRR  HN ES        7 1 52.48                             151    0.1710 75.2 306 
 BRR  HZ I         7 1 59.29         2.8 0.46            145           75.2 306 
 PTB  HZ EP        7 1 41.88                             132    0.85 9  144 263 
 PTB  HE ES        7 2  1.37                             132   -0.39 9  144 263 
 PTB  HZ I         7 2  3.83         1.7 0.18            134            144 263 
 ZAR  HZ EP        7 1 46.81                             122   -0.28 8  206 295 
 ZAR  HN ES        7 2 12.45                             122   -0.09 8  206 295 
 ZAR  HZ I         7 2 19.90         1.9 0.22            122            206 295 
                                                                                
