 2014  412 0638 53.8 L   6.818 -73.140146.3  RSN 12 0.5 1.9LRSN                1
 GAP= 71        1.20       3.2     3.6  7.7 -0.9718E+00  0.8536E+01  0.2083E+01E
 Epicentro: LOS SANTOS - SANTANDER                                             3
 ACTION:UPD 14-05-13 23:07 OP:nd   STATUS:               ID:20140412063853 L   I
 OLDACT:UP  14-04-15 04:25 OP:CAM  STATUS:               ID:20140412063853 L   3
 OLDACT:REG 14-04-12 14:50 OP:stll STATUS:               ID:20140412063818     3
 2014-04-12-0638-18M.COL___230                                                 6
 STAT SP IPHASW D HRMM SECON CODA AMPLIT PERI AZIMU VELO AIN AR TRES W  DIS CAZ7
 PAM  SZ EP        639 16.21                             151    0.2910 75.5  40 
 PAM  SN ES        639 33.73                             151    0.5310 75.5  40 
 PAM  HZ I         639 35.24        19.8 0.60            138           75.5  40 
 RUS  HZ EP        639 17.44                             143   -0.2710  103 176 
 RUS  HN ES        639 36.08                             143   -0.3010  103 176 
 RUS  HZ I         639 37.19         9.9 0.78            128            103 176 
 PTB  HZ EP        639 20.65                             132   -0.22 9  149 258 
 PTB  HN ES        639 41.88                             132   -0.13 9  149 258 
 PTB  HZ I         639 47.04         7.9 0.38            117            149 258 
 TAM  HZ EP        639 21.75                             131    0.28 9  155 106 
 TAM  HZ I         639 42.11         5.1 0.32            115            155 106 
 TAM  HN ES        639 43.05                             131   -0.03 9  155 106 
 OCA  HN ES        639 44.10                             130    0.18 9  158 353 
 SPBC HZ EP        639 22.50                             129    0.01 9  165 219 
 SPBC HN ES        639 44.46                             129   -0.43 9  165 219 
 SPBC HZ I         639 52.83        15.1 0.28            114            165 219 
 ZAR  HZ EP   1    639 27.05                             122    0.82 6  204 292 
 ZAR  HN ES        639 51.97                             122    0.41 9  204 292 
 ZAR  HZ I         639 57.94         7.1 0.64            110            204 292 
 NOR  HZ EP        639 29.78                             118    0.07 8  236 234 
 NOR  HZ I         639 57.08         6.3 2.34            107            236 234 
 NOR  HN ES        639 57.80                             118    0.06 8  236 234 
 SML  HZ EP        639 28.79                             118   -1.47 8  242 335 
 SML  HN ES        639 57.84                             118   -0.88 8  242 335 
 CHI  HZ EP        639 31.76                             117    0.04 8  251 195 
 CHI  HN ES        640  1.01                             117   -0.31 8  251 195 
 CHI  HZ I         640  7.21         3.6 0.58            105            251 195 
 HEL  HZ EP        639 35.46                             115    1.33 8  273 255 
 HEL  HZ I         640 11.95         3.9 0.54            104            273 255 
 SOCV BZ EP   4    639 35.26                             112   -1.39 0  300  57 
 SOCV BN ES   4    640  7.23                             112   -2.88 0  300  57 
 GUY2CHZ EP        639 37.80                             112    0.21 7  303 235 
 GUY2CHN ES        640 11.99                             112    0.22 7  303 235 
 GUY2CHZ I         640 20.02         5.4 0.76                           303 235 
                                                                                
