 2016  512 0556 16.4 L   6.831 -73.178143.8  RSN  7 0.4 1.4LRSN                1
 GAP=131        1.10       5.0     4.9  8.4 -0.3386E+01  0.1345E+02 -0.2050E+01E
 Epicentro: ZAPATOCA - SANTANDER                                               3
 ACTION:UPD 16-08-18 17:45 OP:cam  STATUS:               ID:20160512055616 L   I
 OLDACT:REG 16-05-12 12:19 OP:drio STATUS:               ID:20160512054742     3
 2016-05-12-0547-42M.COL___307                                                 6
 STAT SP IPHASW D HRMM SECON CODA AMPLIT PERI AZIMU VELO AIN AR TRES W  DIS CAZ7
 BAR2 EZ EP        556 35.80                             169   -0.0610 26.4 181 
 BAR2 EZ ES        556 51.02                             169   -0.0210 26.4 181 
 BAR2 EZ I         556 52.47         5.8 0.24            165           26.4 181 
 BRR  HZ EP        556 37.79                             154    0.7210 66.4 297 
 BRR  HE ES   4    556 55.01                             154    1.81 0 66.4 297 
 BRR  HZ I         556 58.70         4.0 0.28            148           66.4 297 
 PAM  EZ EP        556 38.98                             151    0.5910 77.1  43 
 PAM  EN ES        556 55.17                             151   -0.3710 77.1  43 
 RUS  HZ EP        556 39.68                             142   -0.5510  104 174 
 RUS  HE ES        556 58.83                             142    0.0110  104 174 
 RUS  HZ I         557  0.04         1.7 0.42            146            104 174 
 PTB  HZ EP        556 42.38                             132   -0.57 9  145 257 
 PTB  HN ES        557  3.47                             132   -0.20 9  145 257 
 PTB  HZ I         557 16.50         1.7 0.10            131            145 257 
 SPBC HZ EP        556 44.67                             128   -0.13 9  164 217 
 SPBC HE ES        557  7.60                             128    0.65 9  164 217 
 SPBC HZ I         557 14.76         4.4 0.22            129            164 217 
 ZAR  HE ES        557 12.97                             123   -0.11 9  199 292 
 ZAR  HZ I         557 19.71         4.4 0.28            123            199 292 
                                                                                
