 2017  512 0756 27.3 L   6.284 -73.724100.1  RSN  5 0.4 1.1LRSN                1
 GAP=168        1.02       4.8     3.7  9.0  0.5380E+01 -0.7030E+00 -0.9020E+01E
 Epicentro: LANDAZURI - SANTANDER                                              3
 ACTION:UPD 17-06-16 13:35 OP:jn   STATUS:               ID:20170512075627 L   I
 OLDACT:UP  17-05-12 17:28 OP:osc  STATUS:               ID:20170512074729d    3
 OLDACT:UP  17-05-12 17:26 OP:osc  STATUS:               ID:20170512074729d    3
 OLDACT:DUP 17-05-12 17:24 OP:osc  STATUS:               ID:20170512074729d    3
 OLDACT:UP  17-05-12 17:21 OP:osc  STATUS:               ID:20170512074726     3
 OLDACT:REG 17-05-12 13:20 OP:osc  STATUS:               ID:20170512074726     3
 2017-05-12-0748-00M.COL___353                                                 6
 STAT SP IPHASW D HRMM SECON CODA AMPLIT PERI AZIMU VELO AIN AR TRES W  DIS CAZ7
 RUS  HZ EP        756 45.64                             137    0.2710 83.1 121 
 RUS  HN ES        756 59.59                             137    0.1110 83.1 121 
 RUS  HZ I         757  1.33         3.3 0.34            142           83.1 121 
 PTB  HZ EP        756 44.96                             136    0.0310 85.7 289 
 PTB  HN ES        756 58.09                             136   -0.6110 85.7 289 
 PTB  HZ I         757  0.58         2.5 0.58            138           85.7 289 
 BRR  HZ EP        756 45.45                             134    0.0910 91.0   1 
 BRR  HN ES        756 59.93                             134    0.4610 91.0   1 
 BRR  HZ I         757  1.73         2.7 0.30            136           91.0   1 
 PAM  EZ EP        756 52.41                             117   -0.79 9  163  44 
 PAM  EE ES        757 13.20                             117   -0.22 9  163  44 
 PAM  EZ I         757 14.11         1.8 0.14            120            163  44 
 ZAR  HZ EP        756 55.38                             113    0.52 9  183 317 
 ZAR  HN ES        757 16.47                             113    0.09 9  183 317 
 ZAR  HZ I         757 20.26         2.3 0.40            115            183 317 
                                                                                
