 2012  912 0046 41.5 L   6.758 -73.126137.8  RSN  8 0.2 2.0LRSN                1
 GAP=141        0.38       2.1     2.5  3.0  0.5937E+00  0.2378E+01  0.2245E+00E
 Epicentro: LOS SANTOS - SANTANDER                                             3
 ACTION:UPD 12-10-22 14:18 OP:ep   STATUS:               ID:20120912004641 L   I
 2012-09-12-0040-00M.COL___227                                                 6
 STAT SP IPHASW D HRMM SECON CODA AMPLIT PERI AZIMU VELO AIN AR TRES W  DIS CAZ7
 BAR2 SZ EP   1    047  0.07                             172   -0.05 7 19.3 199 
 BAR2 SZ ES        047 14.56                             172   -0.0610 19.3 199 
 BAR2 SZ I         047 16.35        23.8 0.16                          19.3 199 
 GIR2 SZ EP   2    047  0.34                             164   -0.06 5 36.3 348 
 BRR  HZ EP        047  2.21                             150    0.1410 75.4 301 
 BRR  HZ I         047  4.48        29.3 0.12                          75.4 301 
 BRR  HE ES   2    047 18.00                             150   -0.09 5 75.4 301 
 PAM  SZ EP   1    047  3.16                             148    0.11 7 79.8  36 
 PAM  SE ES   1    047 19.83                             148    0.00 7 79.8  36 
 PAM  SZ I         047 22.17        25.0 0.47                          79.8  36 
 RUS  HZ EP        047  4.27                             143    0.1210 95.8 177 
 RUS  HE ES   1    047 21.63                             143   -0.16 7 95.8 177 
 RUS  HZ I         047 23.76         8.1 0.31                          95.8 177 
 PTB  HE ES   2    047 29.01                             130    0.41 5  149 261 
 ZAR  HZ EP   1    047 13.67                             120   -0.19 6  208 293 
 ZAR  HN ES   1    047 38.91                             120   -0.17 6  208 293 
 ZAR  HZ I         047 44.52        11.6 0.18                           208 293 
 PRA  HZ EP   1    047 33.92                             105   -0.51 4  389 210 
 PRA  HE ES   2    048 16.22                             105    0.53 3  389 210 
                                                                                
