 2010  312 0029 33.8 L   6.823 -73.080142.0  RSN  5 0.1 1.9LRSN                1
 GAP=190        0.33       2.5     5.3  3.8  0.5803E+01 -0.5931E+01 -0.2357E+01E
 Epicentro: LOS SANTOS - SANTANDER                                             3
 ACTION:UP  10-08-24 09:53 OP:vdl  STATUS:               ID:20100312002933 L   I
 2010-03-12-0028-31S.COL___094                                                 6
 STAT SP IPHASW D HRMM SECON CODA AMPLIT PERI AZIMU VELO SNR AR TRES W  DIS CAZ7
 BAR2 SZ IP        029 53.26                             168     0.110   28 204 
 BAR2 SZ ES   2    030  8.04                             168    -0.1 5   28 204 
 BRR  HZ EP   1    029 54.86                             150     0.0 7   77 294 
 BRR  HE ES   1    030 11.37                             150     0.0 7   77 294 
 BRR  HZ I         030 12.64        18.7 0.12                            77 294 
 RUS  BZ EP   1    029 57.30                             142    -0.1 7  103 180 
 RUS  BN ES   1    030 15.75                             142     0.0 7  103 180 
 RUS  BZ I         030 17.33         5.3 0.30                           103 180 
 OCA  SZ EP   1    030  1.62                             129    -0.1 7  159 350 
 OCA  SZ I         030 32.85        10.1 0.36                           159 350 
 PRA  HZ EP   2    030 28.16                             106     0.3 3  398 210 
 PRA  HN ES   2    031  9.84                             106    -0.2 3  398 210 
 PRA  HZ I         031 13.95         3.4 0.43                           398 210 
                                                                                
