 2017  112 0242 20.8 L   6.698 -73.122122.1  RSN  5 0.4 1.3LRSN                1
 GAP=232        0.68       9.7     6.2  9.4  0.2283E+02  0.2650E+02 -0.1743E+02E
 Epicentro: JORDAN - SANTANDER                                                 3
 ACTION:UPD 17-05-22 15:58 OP:jn   STATUS:               ID:20170112024220 L   I
 OLDACT:UP  17-01-12 21:47 OP:and  STATUS:               ID:20170112023742     3
 OLDACT:REG 17-01-12 20:03 OP:and  STATUS:               ID:20170112023742     3
 2017-01-12-0238-00M.COL___337                                                 6
 STAT SP IPHASW D HRMM SECON CODA AMPLIT PERI AZIMU VELO AIN AR TRES W  DIS CAZ7
 BAR2 EZ EP   2    242 37.40                             174   -0.02 5 13.5 210 
 BAR2 EZ ES        242 50.46                             174    0.1010 13.5 210 
 BAR2 EZ I         242 55.20         6.7 0.38            172           13.5 210 
 BRR  HZ EP   2    242 39.11                             145   -0.90 5 79.4 305 
 BRR  HE ES   4    242 56.95                             145    1.96 0 79.4 305 
 BRR  HZ I         243  8.65         8.9 0.34            148           79.4 305 
 RUS  HZ EP   2    242 41.67                             143    0.25 5 89.2 177 
 RUS  HE ES   4    243  0.07                             143    2.57 0 89.2 177 
 RUS  HZ I         243  2.77         1.9 0.42            158           89.2 177 
 PTB  HZ EP   4    242 44.77                             126   -1.28 0  149 263 
 PTB  HN ES        243  5.51                             126   -0.22 9  149 263 
 PTB  HZ I         243 12.30         2.2 0.42            135            149 263 
 ZAR  HZ EP   4    242 55.19                             116    2.60 0  211 295 
 ZAR  HE ES        243 17.74                             116    0.37 8  211 295 
 ZAR  HZ I         243 23.94         2.1 0.58            124            211 295 
                                                                                
