 2017 1012 0632 12.3 L   6.717 -73.161153.7  RSN  4 0.2 1.4LRSN                1
 GAP=240        0.62       6.3     4.8  5.4  0.1946E+02  0.1459E+01 -0.9995E+01E
 Epicentro: VILLANUEVA - SANTANDER                                             3
 ACTION:UPD 17-11-07 19:31 OP:rebc STATUS:               ID:20171012063212 L   I
 OLDACT:UP  17-10-12 18:25 OP:y    STATUS:               ID:20171012062320     3
 OLDACT:REG 17-10-12 14:04 OP:leo  STATUS:               ID:20171012062320     3
 2017-10-12-0628-00M.COL___423                                                 6
 STAT SP IPHASW D HRMM SECON CODA AMPLIT PERI AZIMU VELO AIN AR TRES W  DIS CAZ7
 BAR2 EZ EP        632 32.61                             175   -0.1710 14.0 190 
 BAR2 EZ ES        632 48.58                             175   -0.1410 14.0 190 
 RUS  HZ EP        632 36.34                             148    0.0710 91.6 175 
 RUS  HN ES        632 55.24                             148    0.3010 91.6 175 
 PTB  HZ EP        632 39.42                             134   -0.27 9  145 262 
 PTB  HN ES        633  0.78                             134   -0.24 9  145 262 
 PTB  HZ I         633  6.35         2.2 0.14            132            145 262 
 ZAR  HZ EP        632 45.68                             124    0.15 8  206 295 
 ZAR  HE ES        633 11.81                             124    0.40 8  206 295 
 ZAR  HZ I         633 17.72         2.7 0.52            123            206 295 
                                                                                
