 2016  712 0919 47.0 L   6.831 -73.153142.6  RSN  5 0.3 1.1LRSN                1
 GAP=244        0.55       4.7     4.2  7.8  0.9361E+01 -0.7305E+01 -0.8499E+01E
 Epicentro: LOS SANTOS - SANTANDER                                             3
 ACTION:UPD 17-03-29 16:50 OP:lp   STATUS:               ID:20160712091947 L   I
 OLDACT:REG 16-07-12 12:58 OP:lv   STATUS:               ID:20160712091759     3
 2016-07-12-0917-59S.COL___307                                                 6
 STAT SP IPHASW D HRMM SECON CODA AMPLIT PERI AZIMU VELO AIN AR TRES W  DIS CAZ7
 BAR2 EZ EP   2    920  6.57                             169    0.24 5 26.6 187 
 BAR2 EZ ES   2    920 21.12                             169   -0.28 5 26.6 187 
 BAR2 EZ I         920 22.88         2.7 0.24            169           26.6 187 
 RUS  HZ EP        920 10.80                             142    0.0910  104 176 
 RUS  HN ES   3    920 29.42                             142    0.23 2  104 176 
 RUS  HZ I         920 31.00         0.9 0.16            146            104 176 
 PTB  HZ EP        920 13.45                             131   -0.27 9  148 257 
 PTB  HN ES        920 34.25                             131   -0.30 9  148 257 
 PTB  HZ I         920 40.44         1.7 0.16            132            148 257 
 SPBC HZ EP   2    920 15.08                             128   -0.40 5  165 218 
 SPBC HN ES        920 37.95                             128    0.27 9  165 218 
 SPBC HZ I         920 40.08         2.4 0.09            130            165 218 
 ZAR  HZ EP   3    920 19.17                             122    0.12 2  202 291 
 ZAR  HN ES        920 44.38                             122    0.35 9  202 291 
 ZAR  HZ I         920 50.39         1.2 0.13            123            202 291 
                                                                                
