 2012  912 0614  6.8 L   5.975 -73.881103.5  RSN  4 0.1 1.6LRSN                1
 GAP=219        0.31       3.9     3.5  5.8  0.8306E+01  0.4086E+01  0.9440E+00E
 Epicentro: SUCRE - SANTANDER                                                  3
 ACTION:UPD 12-10-22 14:18 OP:ep   STATUS:               ID:20120912061406 L   I
 2012-09-12-0610-00M.COL___227                                                 6
 STAT SP IPHASW D HRMM SECON CODA AMPLIT PERI AZIMU VELO AIN AR TRES W  DIS CAZ7
 RUS  HZ EP   1    614 25.72                             136    0.10 7 88.9  96 
 RUS  HE ES   1    614 40.25                             136   -0.08 7 88.9  96 
 PTB  HE ES   2    614 39.22                             136    0.02 5 89.1 314 
 BAR2 SZ ES   2    614 42.02                             131    0.07 5  103  49 
 BAR2 SZ I         614 43.36        10.8 0.19                           103  49 
 BRR  HZ EP   1    614 28.37                             125   -0.08 7  127   9 
 BRR  HZ I         614 34.13         5.5 0.50                           127   9 
 BRR  HE ES   2    614 45.42                             125    0.04 5  127   9 
                                                                                
