 2011  712 0130 16.8 L   6.793 -73.123144.0  RSN  4 0.1 1.4LRSN                1
 GAP=161        0.36       2.2     4.6  4.1 -0.5235E+00 -0.6012E+01 -0.1663E-01E
 Epicentro: LOS SANTOS - SANTANDER                                             3
 ACTION:UPD 12-07-25 14:00 OP:epov STATUS:               ID:20110712013016 L   I
 2011-07-12-0120-00M.COL___133                                                 6
 STAT SP IPHASW D HRMM SECON CODA AMPLIT PERI AZIMU VELO AIN AR TRES W  DIS CAZ7
 BTL  SZ EP   1    130 36.23                             171    0.06 7 21.2 311 
 BTL  SZ ES   1    130 51.47                             171    0.18 7 21.2 311 
 BRR  HZ EP   1    130 37.75                             151   -0.15 7 73.8 298 
 BRR  HZ I         130 39.56        11.3 0.44                          73.8 298 
 BRR  HN ES   1    130 54.35                             151   -0.02 7 73.8 298 
 RUS  HZ EP   1    130 40.48                             144    0.18 7 99.6 177 
 RUS  HE ES   1    130 58.45                             144   -0.19 7 99.6 177 
 RUS  HZ I         130 59.75         3.1 0.42                          99.6 177 
 GRA  SZ EP   1    130 41.90                             137    0.02 7  126  16 
 GRA  SZ ES   1    131  1.36                             137   -0.09 7  126  16 
 GRA  SZ I         131  2.50         2.8 0.42                           126  16 
                                                                                
