 2013 1112 0348 32.5 L   6.822 -73.167142.0  RSN  8 0.3 1.7LRSN                1
 GAP=133        0.84       2.9     3.8  5.0 -0.8278E+00  0.5107E+01 -0.2310E+01E
 Epicentro: LOS SANTOS - SANTANDER                                             3
 ACTION:UPD 14-01-09 16:27 OP:ep   STATUS:               ID:20131112034832 L   I
 OLDACT:REG 13-11-12 08:58 OP:nd   STATUS:               ID:20131112034000     3
 2013-11-12-0340-00M.COL___273                                                 6
 STAT SP IPHASW D HRMM SECON CODA AMPLIT PERI AZIMU VELO AIN AR TRES W  DIS CAZ7
 BAR2 SZ EP        348 51.85                             169    0.1110 25.5 184 
 BAR2 SZ ES        349  6.82                             169    0.0910 25.5 184 
 BAR2 SZ I         349  9.43        11.8 0.38            168           25.5 184 
 BRR  HZ IP     D  348 53.56                             153    0.4910 68.0 298 
 BRR  HN ES        349  9.01                             153   -0.1010 68.0 298 
 BRR  HZ I         349 11.14        12.1 0.09            151           68.0 298 
 PAM  SZ EP        348 54.69                             150    0.3810 77.1  42 
 PAM  SN ES        349 11.34                             150    0.0310 77.1  42 
 PAM  SZ I         349 12.22         5.4 0.24            155           77.1  42 
 RUS  HZ EP     D  348 55.89                             142   -0.2010  103 175 
 RUS  HN ES        349 14.24                             142   -0.2410  103 175 
 RUS  HZ I         349 16.90         3.8 0.36            144            103 175 
 PTB  HZ EP        348 58.54                             132   -0.47 9  146 258 
 PTB  HN ES        349 19.42                             132   -0.26 9  146 258 
 PTB  HZ I         349 21.97        10.2 0.14            131            146 258 
 SPBC HZ EP        349  0.81                             128    0.04 9  164 218 
 SPBC HN ES        349 22.84                             128    0.03 9  164 218 
 SPBC HZ I         349 30.09         5.1 0.34            129            164 218 
 ZAR  HZ EP        349  5.08                             122    0.68 9  201 292 
 ZAR  HN ES   2    349 29.92                             122    0.66 4  201 292 
 ZAR  HZ I         349 36.80         5.5 0.22            122            201 292 
 SML  HZ EP        349  8.10                             117   -0.49 8  241 336 
 SML  HN ES        349 36.23                             117   -0.49 8  241 336 
 SML  HZ I         349 40.02         5.5 0.10            118            241 336 
                                                                                
