 2017 1112 0003 33.8 L   6.799 -73.136144.1  RSN 13 0.6 1.9LRSN                1
 GAP=113        1.38       3.6     4.5  6.6 -0.3721E+00  0.6225E+01  0.2597E+01E
 Epicentro: LOS SANTOS - SANTANDER                                             3
 ACTION:UPD 17-12-12 19:54 OP:rebc STATUS:               ID:20171112000333 L   I
 OLDACT:REG 17-11-12 12:58 OP:dnl  STATUS:               ID:20171112000000     3
 2017-11-12-0000-15M.COL___456                                                 6
 STAT SP IPHASW D HRMM SECON CODA AMPLIT PERI AZIMU VELO AIN AR TRES W  DIS CAZ7
 BAR2 EZ EP     D  0 3 52.86                             170   -0.3910 23.4 193 
 BAR2 EZ ES        0 4  8.06                             170   -0.3410 23.4 193 
 BAR2 EZ I         0 4  9.44        24.1 0.20            169           23.4 193 
 BRR  HZ EP        0 3 54.87                             152    0.0310 72.2 298 
 BRR  HN ES        0 4 12.03                             152    0.7910 72.2 298 
 BRR  HZ I         0 4 16.53        11.0 0.34            151           72.2 298 
 PAM  EZ EP        0 3 55.66                             151   -0.1610 76.8  39 
 PAM  EN ES        0 4 12.89                             151   -0.0910 76.8  39 
 PAM  EZ I         0 4 14.88         9.5 0.20            155           76.8  39 
 RUS  HZ EP        0 3 56.88                             144   -0.5110  100 177 
 RUS  HN ES        0 4 15.85                             144    0.0710  100 177 
 RUS  HZ I         0 4 16.71        12.4 0.28            145            100 177 
 PTB  HZ EP        0 4  0.00                             131   -0.74 9  149 259 
 PTB  HN ES        0 4 21.30                             131   -0.44 9  149 259 
 PTB  HZ I         0 4 28.15         8.9 0.34            132            149 259 
 SPBC HZ EP        0 4  1.88                             129   -0.36 9  164 219 
 SPBC HN ES        0 4 24.73                             129    0.32 9  164 219 
 SPBC HZ I         0 4 29.14        16.1 0.20            130            164 219 
 YPLC HZ EP     D  0 4  3.14                             126   -0.29 9  176 152 
 YPLC HE ES        0 4 27.33                             126    0.80 9  176 152 
 YPLC HZ I         0 4 28.46         3.9 0.34            129            176 152 
 ZAR  HZ EP        0 4  5.84                             122   -0.42 9  205 292 
 ZAR  HN ES        0 4 31.30                             122   -0.26 9  205 292 
 ZAR  HZ I         0 4 36.31        12.3 0.30            123            205 292 
 NOR  HZ EP        0 4  9.04                             118   -0.49 8  235 235 
 NOR  HN ES        0 4 36.66                             118   -0.73 8  235 235 
 NOR  HZ I         0 4 41.52         9.1 0.28            119            235 235 
 CHI  HZ EP        0 4 11.10                             117   -0.34 8  249 195 
 CHI  HE ES        0 4 41.54                             117    0.75 8  249 195 
 CHI  HZ I         0 4 45.97         3.2 0.26            119            249 195 
 DRL03HZ EP        0 4 15.90                             113    0.53 7  289 353 
 DRL03HN ES        0 4 48.97                             113    1.19 7  289 353 
 GUY2CHZ EP        0 4 18.11                             112    0.67 7  302 235 
 GUY2CHN E         0 4 53.32                                            302 235 
 GUY2CHN ES        0 4 53.32                             112    1.86 7  302 235 
 GUY2CHZ I         0 4 59.31         6.6 0.44                           302 235 
 PRA  HZ EP        0 4 27.46                             106    0.13 6  392 210 
 PRA  HN ES        0 5  9.13                             106    0.06 6  392 210 
 PRA  HZ I         0 5 13.71         5.0 0.28            108            392 210 
                                                                                
