 2016 1112 0506 51.2 L   6.756 -73.087142.0  RSN 14 0.4 1.8LRSN                1
 GAP= 94        0.92       3.7     3.0  5.2 -0.4691E+00  0.3254E+00  0.7181E+01E
 Epicentro: LOS SANTOS - SANTANDER                                             3
 ACTION:UPD 17-10-26 21:07 OP:lp   STATUS:               ID:20161112050651 L   I
 OLDACT:UP  16-11-12 16:46 OP:and  STATUS:               ID:20161112045648     3
 OLDACT:REG 16-11-12 12:45 OP:and  STATUS:               ID:20161112045648     3
 2016-11-12-0457-00M.COL___340                                                 6
 STAT SP IPHASW D HRMM SECON CODA AMPLIT PERI AZIMU VELO AIN AR TRES W  DIS CAZ7
 BAR2 EZ IP     C  5 7 10.26                             171   -0.1110 20.9 210 
 BAR2 EZ ES        5 7 25.35                             171    0.0510 20.9 210 
 BAR2 EZ I         5 7 26.24        21.2 0.24            164           20.9 210 
 PAM  EZ EP        5 7 13.15                             151    0.0910 77.4  34 
 PAM  EN ES        5 7 30.13                             151    0.0510 77.4  34 
 PAM  EZ I         5 7 32.62        10.4 0.56            156           77.4  34 
 BRR  HZ IP     C  5 7 12.21                             150   -0.2610 79.3 299 
 BRR  HN ES        5 7 29.34                             150    0.3110 79.3 299 
 BRR  HZ I         5 7 34.15        13.2 0.16            147           79.3 299 
 TAM  HZ EP        5 7 18.59                             132    0.66 9  148 104 
 PTB  HZ EP   9    5 7 16.94                             130   -1.48 0  153 261 
 PTB  HE ES        5 7 38.81                                    0.67 9  153 261 
 PTB  HZ I         5 7 42.03         7.5 0.16            128            153 261 
 ZAR  HZ EP        5 7 24.30                             121    0.03 8  212 293 
 ZAR  HE ES        5 7 49.34                             121   -0.69 8  212 293 
 ZAR  HZ I         5 7 54.78        11.4 0.26            120            212 293 
 NOR  HZ EP        5 7 26.95                             118   -0.09 8  237 236 
 NOR  HE ES        5 7 54.76                             118   -0.20 8  237 236 
 NOR  HZ I         5 7 56.39         5.7 0.20            116            237 236 
 ROSC BZ EP   4    5 7 31.29                             116    2.21 0  252 213 
 ROSC BN ES        5 7 58.84                             116    0.24 8  252 213 
 ROSC BZ I         5 8  6.20         5.0 0.35            115            252 213 
 URE  HZ EP   9    5 7 30.62                             113   -2.40 0  292 292 
 URE  HN ES        5 8  2.95                                   -0.26 7  292 292 
 PTGC HZ EP        5 7 33.61                             112   -0.54 7  302 159 
 PTGC HN ES        5 8  7.03                             112   -0.58 7  302 159 
 ELA  HN ES   4    5 8 17.63                             110    2.89 0  331 231 
 ELA  HZ I         5 8 31.21         3.3 0.54            109            331 231 
 CBOC HZ EP        5 7 39.02                             109    0.47 7  338 253 
 CBOC HN ES        5 8 15.85                             109    0.39 7  338 253 
 CBOC HZ I         5 8 26.13         1.7 0.29            108            338 253 
 PRA  HZ EP   4    5 7 41.96                             106   -2.56 0  391 211 
 PRA  HN ES   4    5 8 24.61                             106   -1.47 0  391 211 
 PRA  HZ I         5 8 27.96         1.7 0.33            106            391 211 
 ORTC HZ EP   9    5 7 46.21                             106    1.18 0  395 217 
 ORTC HN ES        5 8 29.01                                    0.84 6  395 217 
 ORTC HZ I         5 8 48.17         1.4 0.48            105            395 217 
 SJC  HZ EP   4    5 7 45.09                             105   -2.50 0  417 327 
 SJC  HN ES   4    5 8 26.69                             105   -4.85 0  417 327 
                                                                                
