 2013 1012 0722 36.9 L   6.805 -73.163142.7  RSN 11 0.4 1.8LRSN                1
 GAP=181        0.78       2.9     4.6  6.0  0.5771E+00  0.1655E+01  0.1547E+01E
 Epicentro: LOS SANTOS - SANTANDER                                             3
 ACTION:UPD 13-11-25 09:21 OP:ep   STATUS:               ID:20131012072236 L   I
 OLDACT:UP  13-10-12 12:52 OP:mh   STATUS:               ID:20131012071959     3
 OLDACT:REG 13-10-12 08:33 OP:mh   STATUS:               ID:20131012071959     3
 2013-10-12-0719-59M.COL___273                                                 6
 STAT SP IPHASW D HRMM SECON CODA AMPLIT PERI AZIMU VELO AIN AR TRES W  DIS CAZ7
 BAR2 SZ EP   1    722 56.13                             170   -0.03 7 23.7 185 
 BRR  HZ EP   1    722 57.87                             153    0.27 7 69.3 299 
 BRR  HN ES        723 14.40                             153    0.6510 69.3 299 
 BRR  HZ I         723 19.28        10.3 0.16            151           69.3 299 
 RUS  HZ EP   1    723  0.42                             143    0.02 7  101 175 
 RUS  HN ES        723 18.37                             143   -0.3610  101 175 
 RUS  HZ I         723 20.67         7.5 0.26            146            101 175 
 PTB  HZ EP   1    723  3.00                             132   -0.45 7  146 258 
 PTB  HN ES   1    723 23.57                             132   -0.60 7  146 258 
 PTB  HZ I         723 26.03        10.0 0.10            132            146 258 
 OCA  HZ EP        723  5.19                             129    0.30 9  159 354 
 OCA  HN ES   1    723 25.97                             129   -0.76 7  159 354 
 OCA  HZ I         723 31.98         7.8 0.42            132            159 354 
 SPBC HZ EP   1    723  5.17                             128    0.08 7  162 218 
 SPBC HN ES   2    723 27.33                             128    0.25 5  162 218 
 SPBC HZ I         723 32.03         8.2 0.32            130            162 218 
 ZAR  HN ES   2    723 33.19                             122   -0.74 4  202 292 
 NOR  HZ EP   1    723 12.40                             118    0.08 6  233 234 
 NOR  HN ES   2    723 40.36                             118    0.41 4  233 234 
 NOR  HZ I         723 45.81         4.1 0.18            120            233 234 
 CHI  HZ EP   1    723 14.34                             116   -0.09 6  249 195 
 CHI  HN ES        723 43.95                             116    0.24 8  249 195 
 CHI  HZ I         723 48.16         3.3 0.56            119            249 195 
 HEL  HZ EP   1    723 17.04                             114    0.28 6  270 256 
 HEL  HN ES   1    723 47.61                             114   -0.25 6  270 256 
 HEL  HZ I         723 55.45         4.6 0.34            116            270 256 
 GUY2CHZ EP   4    723 22.27                             112    2.04 0  300 234 
 GUY2CHN ES   4    723 55.47                             112    1.45 0  300 234 
 GUY2CHZ I         724  3.93         3.0 0.48                           300 234 
                                                                                
