 2017 1212 0916  4.2 L   6.807 -73.151139.5  RSN  4 0.2 1.1LRSN                1
 GAP=256        0.60       4.3     4.2  5.3  0.3418E+01  0.6090E+01 -0.3562E+01E
 Epicentro: LOS SANTOS - SANTANDER                                             3
 ACTION:UPD 18-01-04 13:19 OP:rebc STATUS:               ID:20171212091604 L   I
 OLDACT:REG 17-12-12 13:46 OP:edw  STATUS:               ID:20171212090740     3
 2017-12-12-0908-00M.COL___455                                                 6
 STAT SP IPHASW D HRMM SECON CODA AMPLIT PERI AZIMU VELO AIN AR TRES W  DIS CAZ7
 BAR2 EZ EP        916 22.92                             170   -0.1710 24.0 188 
 BAR2 EZ ES        916 37.93                             170    0.1010 24.0 188 
 PTB  HZ EP        916 30.35                             131   -0.28 9  147 259 
 PTB  HN ES        916 51.05                             131   -0.19 9  147 259 
 PTB  HZ I         916 55.98         0.9 0.56            128            147 259 
 SPBC HZ EP        916 32.19                             127   -0.06 9  163 219 
 SPBC HN ES        916 54.36                             127    0.23 9  163 219 
 SPBC HZ I         916 59.66         1.8 0.20            126            163 219 
 ZAR  HZ EP        916 36.65                             121    0.49 9  203 292 
 ZAR  HE ES        917  1.07                             121   -0.02 9  203 292 
 ZAR  HZ I         917  6.83         1.4 0.24            120            203 292 
                                                                                
