 2010  512 0749 49.1 L   6.788 -73.012136.9  RSN 13 0.5 2.4LRSN                1
 GAP=136        1.16       4.7     8.2  8.0 -0.1916E+02 -0.7743E+01  0.1193E+02E
 Epicentro: CEPITA - SANTANDER                                                 3
 ACTION:UP  10-08-24 10:04 OP:vdl  STATUS:               ID:20100512074949 L   I
 2010-05-12-0746-39S.COL___104                                                 6
 STAT SP IPHASW D HRMM SECON CODA AMPLIT PERI AZIMU VELO AIN AR TRES W  DIS CAZ7
 BAR2 SZ IP        750  8.06                             168     0.210   29 221 
 BAR2 SZ ES   1    750 21.44                             168    -1.0 7   29 221 
 BRR  HZ IP     D  750 10.53                             147     0.310   85 295 
 BRR  HZ I         750 10.70        53.6 0.16                            85 295 
 BRR  HE ES   1    750 27.46                             147     0.8 7   85 295 
 RUS  HZ EP        750 12.18                             142     0.210   99 185 
 RUS  HZ I         750 32.63        35.0 0.32                            99 185 
 GUE  SZ EP        750 12.93                             138     0.010  116   5 
 GRA  SZ EP        750 13.70                             136     0.310  123  11 
 GRA  SZ ES   1    750 32.82                             136     0.5 7  123  11 
 OCA  SZ EP        750 16.28                             127    -0.9 9  164 348 
 OCA  SZ ES   1    750 38.13                             127    -0.8 7  164 348 
 OCA  SZ I         750 39.82        30.0 0.65                           164 348 
 CHI  HZ EP        750 26.63                             115    -0.1 8  252 199 
 CHI  HE ES   2    750 55.67                             115    -0.3 4  252 199 
 CHI  HZ I         750 59.68        12.3 0.59                           252 199 
 ROSC BZ EP        750 28.28                             114     0.7 8  260 214 
 ROSC BN ES   2    750 56.98                             114    -0.5 4  260 214 
 ROSC BZ I         751  5.25        16.7 0.45                           260 214 
 HEL  HZ EP        750 30.24                             112    -0.3 7  286 257 
 HEL  HZ I         751  7.94        16.3 0.42                           286 257 
 RREF BZ EP        750 36.28                             108     0.2 7  332 231 
 RREF BN ES   2    751 12.13                             108    -0.6 3  332 231 
 RREF BZ I         751 20.52        14.7 0.32                           332 231 
 SDV  BZ EP        750 37.49                             107    -0.2 6  350  48 
 SDV  BZ I         751 16.45         4.9 0.45                           350  48 
 ANIL BZ EP   1    750 39.75                             106     0.0 5  367 226 
 ANIL BE ES   2    751 18.67                             106    -0.5 3  367 226 
 PRA  HZ EP   2    750 42.57                             105    -0.5 3  398 212 
 PRA  HN ES   2    751 24.62                             105    -0.6 3  398 212 
 PRA  HZ I         751 30.57         9.4 0.45                           398 212 
                                                                                
