 2015  912 0915 50.3 L   6.837 -73.138146.9  RSN  8 0.4 1.7LRSN                1
 GAP=215        1.02       3.7     6.1  6.1 -0.1023E+01  0.5638E+01  0.1052E+01E
 Epicentro: LOS SANTOS - SANTANDER                                             3
 ACTION:UPD 15-10-28 16:25 OP:cam  STATUS:               ID:20150912091550 L   I
 OLDACT:REG 15-09-12 12:47 OP:drio STATUS:               ID:20150912090748     3
 2015-09-12-0907-48M.COL___320                                                 6
 STAT SP IPHASW D HRMM SECON CODA AMPLIT PERI AZIMU VELO AIN AR TRES W  DIS CAZ7
 BAR2 EZ EP        916 10.05                             169   -0.0910 27.5 190 
 BAR2 EZ ES        916 25.44                             169   -0.1910 27.5 190 
 BAR2 EZ I         916 26.32         7.3 0.20            169           27.5 190 
 BRR  HZ EP        916 12.13                             153    0.6410 70.1 295 
 BRR  HE ES        916 28.63                             153    0.6010 70.1 295 
 BRR  HZ I         916 33.07         8.5 0.28            149           70.1 295 
 PTB  HZ EP        916 16.87                             132   -0.62 9  149 257 
 PTB  HN ES        916 38.04                             132   -0.67 9  149 257 
 PTB  HZ I         916 43.07         5.0 0.44            131            149 257 
 SPBC HZ EP        916 19.15                             129   -0.06 9  167 218 
 SPBC HN ES        916 41.67                             129   -0.12 9  167 218 
 SPBC HZ I         916 43.08         5.9 0.28            129            167 218 
 ZAR  HZ EP        916 23.01                             123    0.29 9  203 291 
 ZAR  HN ES        916 48.16                             123    0.14 9  203 291 
 ZAR  HZ I         916 53.45         4.2 0.60            122            203 291 
 SML  HZ EP        916 26.34                             118   -0.26 8  240 335 
 SML  HE ES        916 54.41                             118   -0.52 8  240 335 
 SML  HZ I         917  3.64         5.8 0.22            118            240 335 
 GUY2CHZ EP        916 35.04                             112    0.76 7  304 234 
 GUY2CHN ES        917  9.03                             112    0.42 7  304 234 
 GUY2CHZ I         917 16.51         2.4 0.58                           304 234 
 PRA  HZ EP        916 44.23                             106   -0.07 6  396 209 
 PRA  HE ES        917 26.17                             106   -0.27 6  396 209 
 PRA  HZ I         917 32.61         2.7 0.24            107            396 209 
                                                                                
