 2011 1012 0112 44.2 L   6.732 -73.113142.8  RSN  9 0.3 2.2LRSN                1
 GAP=144        0.64       3.5     4.2  4.9 -0.5584E+01  0.6707E+01  0.2737E+00E
 Epicentro: JORDAN - SANTANDER                                                 3
 ACTION:UPD 12-07-13 16:03 OP:ep   STATUS:               ID:20111012011245dL   I
 2011-10-12-0100-00M.COL___171                                                 6
 STAT SP IPHASW D HRMM SECON CODA AMPLIT PERI AZIMU VELO AIN AR TRES W  DIS CAZ7
 BAR2 SZ EP        113  3.40                             173    0.0210 17.3 206 
 BAR2 SZ ES   1    113 18.55                             173    0.23 7 17.3 206 
 BAR2 SZ I         113 21.98        27.5 0.23                          17.3 206 
 BRR  HZ EP        113  5.43                             150   -0.0210 78.1 302 
 BRR  HN ES   1    113 22.36                             150    0.35 7 78.1 302 
 BRR  HZ I         113 23.70        37.1 0.15                          78.1 302 
 PAM  SZ EP        113  6.41                             149    0.0610 81.2  34 
 PAM  SN ES   1    113 23.12                             149   -0.49 7 81.2  34 
 RUS  HZ EP        113  7.20                             145    0.0710 92.9 178 
 RUS  HN ES   1    113 24.97                             145   -0.02 7 92.9 178 
 RUS  HZ I         113 26.59        13.3 0.36                          92.9 178 
 OCA  SZ EP   1    113 13.11                             127    0.06 7  168 352 
 OCA  SZ I         113 39.38        14.9 0.29                           168 352 
 NOR  SZ EP   1    113 19.59                             118   -0.05 6  233 236 
 NOR  SN ES   1    113 46.21                             118   -1.05 6  233 236 
 HEL  HZ EP   1    113 24.37                             114   -0.11 6  274 258 
 HEL  HZ I         114  2.35         7.2 0.24                           274 258 
 GUY  SZ EP   1    113 27.89                             112    0.08 5  302 237 
 GUY  SE ES   1    114  2.41                             112    0.59 5  302 237 
 GUY  SZ I         114  9.26        13.1 0.55                           302 237 
 PRA  HZ EP   2    113 37.60                             106    0.51 3  387 211 
                                                                                
