 2017 1112 0212 34.5 L   6.843 -73.134154.4  RSN  5 0.4 1.4LRSN                1
 GAP=136        0.98       5.0     5.2  7.9 -0.7093E+01  0.2843E+01  0.7490E+01E
 Epicentro: LOS SANTOS - SANTANDER                                             3
 ACTION:UPD 17-12-12 19:54 OP:rebc STATUS:               ID:20171112021234 L   I
 OLDACT:REG 17-11-12 13:01 OP:dnl  STATUS:               ID:20171112020739     3
 2017-11-12-0208-00M.COL___465                                                 6
 STAT SP IPHASW D HRMM SECON CODA AMPLIT PERI AZIMU VELO AIN AR TRES W  DIS CAZ7
 BRR  HZ EP        212 56.56                             154    0.0510 70.2 295 
 BRR  HN ES        213 13.61                             154   -0.0810 70.2 295 
 PAM  EZ EP        212 57.97                             154    0.6010 72.9  41 
 PAM  EN ES        213 15.05                             154   -0.1710 72.9  41 
 RUS  HZ EP        212 59.48                             144    0.0710  105 177 
 RUS  HN ES        213 18.53                             144   -0.3410  105 177 
 RUS  HZ I         213 19.70         3.5 0.30            143            105 177 
 PTB  HZ EP        213  1.58                             133   -0.78 9  150 257 
 PTB  HE ES        213 24.30                             133    0.20 9  150 257 
 PTB  HZ I         213 24.51         1.6 0.18            133            150 257 
 SPBC HZ EP        213  3.95                             130   -0.12 9  168 218 
 SPBC HN ES        213 27.71                             130    0.56 9  168 218 
 SPBC HZ I         213 32.90         4.0 0.34            129            168 218 
                                                                                
