 2013  112 0726 34.7 L   6.824 -73.134145.7  RSN  9 0.4 2.5LRSN                1
 GAP=184        0.99       3.4     4.8  5.8  0.3437E+01  0.5981E+01  0.2733E+01E
 Epicentro: LOS SANTOS - SANTANDER                                             3
 ACTION:UPD 13-02-15 09:13 OP:ep   STATUS:               ID:20130112072634 L   I
 2013-01-12-0720-00M.COL___241                                                 6
 STAT SP IPHASW D HRMM SECON CODA AMPLIT PERI AZIMU VELO AIN AR TRES W  DIS CAZ7
 BAR2 SZ EP        726 54.54                             169    0.1110 26.1 192 
 BAR2 SZ ES        727  9.53                             169   -0.2510 26.1 192 
 BAR2 SZ I         727 12.74        34.3 0.32            168           26.1 192 
 BRR  HZ IP     C  726 56.27                             153    0.3910 71.1 296 
 BRR  HN ES        727 13.03                             153    0.6610 71.1 296 
 BRR  HN I         727 16.82        70.0 0.20            151           71.1 296 
 RUS  HZ EP        726 58.57                             143   -0.1010  103 177 
 RUS  HN ES        727 17.59                             143    0.2510  103 177 
 RUS  HN I         727 20.19        21.2 0.26            145            103 177 
 PTB  HZ EP        727  1.06                             132   -0.81 9  150 258 
 PTB  HN ES        727 22.73                             132   -0.29 9  150 258 
 PTB  HN I         727 27.70        41.2 0.54            132            150 258 
 OCA  HZ EP   1    727  3.02                             130    0.20 7  158 353 
 OCA  HN ES        727 24.07                             130   -0.65 9  158 353 
 OCA  HN I         727 27.85        55.7 0.14            133            158 353 
 ZAR  HZ EP        727  7.36                             122    0.15 9  204 291 
 ZAR  HN ES        727 32.55                             122    0.03 9  204 291 
 ZAR  HN I         727 37.52        56.6 0.32            124            204 291 
 CHI  HZ EP        727 12.98                             117    0.23 8  251 195 
 CHI  HN ES        727 41.79                             117   -0.60 8  251 195 
 CHI  HN I         727 46.95        14.4 0.36            119            251 195 
 ROSC BZ EP        727 13.47                             116    0.29 8  256 211 
 HEL  HZ EP        727 15.70                             115    0.54 8  274 255 
 HEL  HE ES        727 46.60                             115   -0.09 8  274 255 
 HEL  HE I         727 53.98        13.4 0.42            116            274 255 
                                                                                
