 2012  112 0840 16.2 L   6.777 -73.141146.0  RSN  7 0.4 1.4LRSN                1
 GAP=186        0.73       5.9     6.5  9.0  0.1088E+02 -0.5525E+01  0.1142E+02E
 Epicentro: LOS SANTOS - SANTANDER                                             3
 ACTION:UP  12-02-03 08:16 OP:REBC STATUS:               ID:20120112084016 L   I
 2012-01-12-0840-00M.COL___187                                                 6
 STAT SP IPHASW D HRMM SECON CODA AMPLIT PERI AZIMU VELO SNR AR TRES W  DIS CAZ7
 BAR2 SZ EP   1    840 35.78                             171     0.0 7   21 193 
 BAR2 SZ I         840 51.67         3.8 0.25                            21 193 
 GIR2 SZ EP   1    840 35.68                             167    -0.3 7   34 350 
 BRR  HZ EP   1    840 37.54                             152     0.1 7   73 300 
 BRR  HZ I         840 37.70         7.0 0.16                            73 300 
 BRR  HN ES   1    840 54.59                             152     0.5 7   73 300 
 RUS  HZ EP   2    840 39.71                             145    -0.1 5   98 176 
 RUS  HZ I         840 57.42         2.6 0.64                            98 176 
 RUS  HE ES   2    840 58.07                             145    -0.1 5   98 176 
 PTB  HZ EP   1    840 42.57                             132    -0.6 7  148 260 
 PTB  HE ES   1    841  4.01                             132    -0.2 7  148 260 
 ZAR  HZ EP   2    840 49.17                             123     0.4 4  205 293 
 ZAR  HN ES   2    841 14.37                             123     0.1 4  205 293 
 ZAR  HZ I         841 18.91         2.4 0.40                           205 293 
 CHI  HZ EP   1    840 54.22                             118     0.6 6  246 195 
 CHI  HN ES   2    841 23.22                             118     0.3 4  246 195 
 CHI  HZ I         841 23.23         2.0 0.73                           246 195 
                                                                                
