 2013  712 0220  9.3 L   6.834 -73.182138.0  RSN  4 0.3 1.3LRSN                1
 GAP=237        0.78       7.7     5.8  7.1  0.2096E+02  0.5729E+01 -0.4259E+01E
 Epicentro: ZAPATOCA - SANTANDER                                               3
 ACTION:UPD 13-08-12 10:37 OP:ep   STATUS:               ID:20130712022009 L   I
 OLDACT:REG 13-07-12 08:25 OP:nd   STATUS:               ID:20130712021959     3
 2013-07-12-0219-59M.COL___266                                                 6
 STAT SP IPHASW D HRMM SECON CODA AMPLIT PERI AZIMU VELO AIN AR TRES W  DIS CAZ7
 BAR2 SZ EP        220 28.40                             168    0.3510 26.8 180 
 BAR2 SZ ES        220 42.18                             168   -0.5110 26.8 180 
 BAR2 SZ I         220 44.61         4.9 0.18            171           26.8 180 
 BRR  HZ EP   2    220 29.14                             153   -0.14 5 65.9 297 
 BRR  HN ES   2    220 45.66                             153    0.77 5 65.9 297 
 BRR  HZ I         221  3.21         7.2 0.26            147           65.9 297 
 RUS  HZ EP        220 32.64                             141    0.0610  105 174 
 RUS  HN ES        220 50.91                             141    0.1510  105 174 
 RUS  HZ I         220 52.62         1.7 0.38            161            105 174 
 PTB  HZ EP        220 35.02                             130   -0.31 9  145 257 
 PTB  HN ES        220 55.74                             130    0.09 9  145 257 
 PTB  HZ I         221  3.11         2.9 0.56            135            145 257 
                                                                                
