 2017  412 0126 50.0 L   6.754 -73.158144.7  RSN  7 0.2 1.7LRSN                1
 GAP=112        0.59       3.1     2.7  5.2  0.8146E+00  0.2036E+01 -0.2606E+01E
 Epicentro: LOS SANTOS - SANTANDER                                             3
 ACTION:UPD 17-05-30 21:11 OP:jn   STATUS:               ID:20170412012650 L   I
 OLDACT:UP  17-04-12 16:18 OP:edw  STATUS:               ID:20170412011745d    3
 OLDACT:UP  17-04-12 16:18 OP:edw  STATUS:               ID:20170412011745d    3
 OLDACT:UP  17-04-12 16:17 OP:edw  STATUS:               ID:20170412011745d    3
 OLDACT:DUP 17-04-12 16:13 OP:edw  STATUS:               ID:20170412011745d    3
 2017-04-12-0118-00M.COL___368                                                 6
 STAT SP IPHASW D HRMM SECON CODA AMPLIT PERI AZIMU VELO AIN AR TRES W  DIS CAZ7
 BAR2 EZ EP        127  9.40                             173    0.0210 18.1 188 
 BAR2 EZ ES        127 24.50                             173   -0.0310 18.1 188 
 BAR2 EZ I         127 26.04        19.9 0.90            172           18.1 188 
 BRR  HZ EP        127 11.39                             152    0.3010 72.6 303 
 BRR  HN ES        127 27.60                             152    0.0410 72.6 303 
 BRR  HZ I         127 33.04        24.2 0.28            152           72.6 303 
 PAM  EZ IP     D  127 12.38                             149    0.0110 82.2  38 
 PAM  EN ES        127 29.83                             149   -0.0110 82.2  38 
 PAM  EZ I         127 32.00         6.9 0.62            154           82.2  38 
 RUS  HZ EP   4    127 13.90                             145    0.63 0 95.7 175 
 RUS  HN ES        127 31.39                             145   -0.0510 95.7 175 
 RUS  HZ I         127 34.49         4.0 0.54            148           95.7 175 
 PTB  HZ EP   4    127 16.82                             132    0.17 0  146 261 
 PTB  HN ES        127 37.72                             132    0.26 9  146 261 
 PTB  HZ I         127 43.12         4.9 0.42            134            146 261 
 YPLC HZ EP   4    127 12.74                             127   -6.59 0  173 150 
 YPLC HE ES   2    127 41.66                             127   -0.56 4  173 150 
 ZAR  HZ EP   4    127 18.24                             122   -4.18 0  205 294 
 ZAR  HN ES        127 47.19                             122   -0.54 9  205 294 
                                                                                
