 2012  312 0214 51.6 L   6.758 -73.225145.6  RSN  4 0.4 1.2LRSN                1
 GAP=220        0.89       9.6     9.5 12.9  0.3828E+02  0.1751E+00 -0.1435E+02E
 ACTION:UP  12-03-31 23:19 OP:EP   STATUS:               ID:20120312021451 L   I
 2012-03-12-0210-00M.COL___193                                                 6
 STAT SP IPHASW D HRMM SECON CODA AMPLIT PERI AZIMU VELO SNR AR TRES W  DIS CAZ7
 BAR2 SZ EP   1    215 10.37                             172    -0.7 7   19 166 
 BRR  HZ EP   1    215 12.89                             154     0.5 7   66 306 
 BRR  HZ I         215 13.15         4.5 0.14                            66 306 
 BRR  HN ES   1    215 28.73                             154     0.0 7   66 306 
 RUS  HN ES   1    215 33.62                             145     0.3 7   97 171 
 PTB  HZ EP   1    215 17.87                             134     0.2 7  138 260 
 PTB  HN ES   1    215 37.78                             134    -0.3 7  138 260 
 PTB  HZ I         215 41.06         1.6 0.27                           138 260 
                                                                                
