 2014 1112 0139 49.2 L   6.735 -73.147142.5  RSN  6 0.5 1.5LRSN                1
 GAP=139        1.42       6.5     7.1  9.8 -0.1145E+02  0.1124E+02  0.6015E+01E
 Epicentro: LOS SANTOS - SANTANDER                                             3
 ACTION:UPD 14-12-19 15:42 OP:nd   STATUS:               ID:20141112013949 L   I
 OLDACT:ARG 14-11-12 12:06 OP:stll STATUS:               ID:20141112013745     3
 2014-11-12-0137-45M.COL___288                                                 6
 STAT SP IPHASW D HRMM SECON CODA AMPLIT PERI AZIMU VELO AIN AR TRES W  DIS CAZ7
 BAR2 SZ ES        140 23.26                             173    0.0710 16.2 194 
 BAR2 SZ I         140 25.31         8.7 0.28            171           16.2 194 
 BRR  HZ EP        140 10.52                             151    0.3410 74.8 303 
 BRR  HN ES        140 27.36                             151    0.8010 74.8 303 
 PAM  SZ EP        140 11.60                             148    0.1910 83.2  36 
 PAM  SZ I         140 11.76         7.8 0.22            151           83.2  36 
 PAM  SN ES        140 27.76                             148   -0.9910 83.2  36 
 RUS  HZ EP        140 12.91                             145    0.8210 93.4 176 
 RUS  HN ES        140 30.09                             145    0.1310 93.4 176 
 RUS  HZ I         140 31.95         2.7 0.46            145           93.4 176 
 PTB  HZ EP        140 15.66                             131   -0.09 9  146 262 
 PTB  HN ES        140 36.05                             131   -0.43 9  146 262 
 PTB  HZ I         140 40.03         2.2 0.10            132            146 262 
 SPBC HZ EP        140 16.20                             129   -0.69 9  158 221 
 SPBC HN ES        140 38.13                             129   -0.37 9  158 221 
 SPBC HZ I         140 42.17         5.8 0.12            130            158 221 
                                                                                
