 2016  612 0500 31.5 L   7.438 -73.464118.9  RSN  5 0.3 1.0LRSN                1
 GAP=142        0.85       5.0     4.5  7.5 -0.1023E+02  0.4976E+00  0.1091E+02E
 Epicentro: SABANA DE TORRES - SANTANDER                                       3
 ACTION:UPD 16-07-21 22:18 OP:rebc STATUS:               ID:20160612050031 L   I
 OLDACT:DUP 16-06-12 17:33 OP:dani STATUS:               ID:20160612045742d    3
 OLDACT:UP  16-06-12 17:33 OP:dani STATUS:               ID:20160612045741     3
 OLDACT:UP  16-06-12 17:31 OP:dani STATUS:               ID:20160612045741     3
 OLDACT:REG 16-06-12 13:13 OP:dani STATUS:               ID:20160612045741     3
 2016-06-12-0457-41M.COL___325                                                 6
 STAT SP IPHASW D HRMM SECON CODA AMPLIT PERI AZIMU VELO AIN AR TRES W  DIS CAZ7
 BRR  HZ EP        5 0 48.73                             157    0.4010 45.7 217 
 BRR  HN ES        5 1  1.79                             157    0.3110 45.7 217 
 BRR  HZ I         5 1  6.33         3.1 0.52                          45.7 217 
 PAM  EZ EP        5 0 51.68                             142    0.2210 85.1  97 
 PAM  EE ES        5 1  6.60                             142   -0.4510 85.1  97 
 PAM  EZ I         5 1  7.59         1.3 0.18                          85.1  97 
 OCA  HE ES        5 1  6.80                             140   -0.0910 90.0  10 
 OCA  HZ I         5 1  8.27         7.6 0.28                          90.0  10 
 BAR2 EZ EP        5 0 52.38                             138    0.2210 98.5 162 
 PTB  HZ EP        5 0 56.04                             125   -0.37 9  148 228 
 PTB  HN ES        5 1 15.51                             125   -0.35 9  148 228 
 PTB  HZ I         5 1 19.45         0.9 0.44                           148 228 
                                                                                
