 2012  512 0834 13.5 L   6.757 -73.156145.1  RSN  6 0.3 1.9LRSN                1
 GAP=137        0.88       5.4     5.0  7.0  0.1073E+01  0.8451E+01 -0.2137E+01E
 Epicentro: LOS SANTOS - SANTANDER                                             3
 ACTION:UP  12-07-05 12:04 OP:pat  STATUS:               ID:20120512083413 L   I
 2012-05-12-0830-00M.COL___195                                                 6
 STAT SP IPHASW D HRMM SECON CODA AMPLIT PERI AZIMU VELO SNR AR TRES W  DIS CAZ7
 BAR2 SZ IP        834 33.03                             172     0.110   18 189 
 BAR2 SZ ES   1    834 47.83                             172    -0.3 7   18 189 
 BRR  HZ IP     C  834 34.86                             152     0.210   73 302 
 BRR  HZ I         834 34.94        29.1 0.32                            73 302 
 BRR  HN ES   1    834 51.79                             152     0.6 7   73 302 
 PAM  SZ EP        834 35.74                             149    -0.210   82  38 
 PAM  SN ES   1    834 53.03                             149    -0.3 7   82  38 
 RUS  HZ EP        834 36.96                             145     0.110   96 175 
 RUS  HN ES   1    834 55.33                             145     0.3 7   96 175 
 RUS  HZ I         834 56.20         9.4 0.24                            96 175 
 PTB  HZ EP        834 39.72                             132    -0.5 9  146 261 
 PTB  HN ES   1    835  0.53                             132    -0.5 7  146 261 
 PTB  HZ I         835  6.87         6.1 0.66                           146 261 
 ZAR  HZ EP        834 46.30                             122     0.3 9  205 293 
 ZAR  HN ES   2    835 11.26                             122     0.0 4  205 293 
 ZAR  HZ I         835 16.81        12.2 0.34                           205 293 
                                                                                
