 2012 1012 0417 18.7 L   6.769 -73.074140.0  RSN  5 0.1 1.5LRSN                1
 GAP=147        0.35       2.4     3.8  3.8  0.1459E+01  0.1495E+01  0.1709E+01E
 Epicentro: LOS SANTOS - SANTANDER                                             3
 ACTION:UPD 12-11-22 17:03 OP:ep   STATUS:               ID:20121012041718 L   I
 2012-10-12-0410-00M.COL___231                                                 6
 STAT SP IPHASW D HRMM SECON CODA AMPLIT PERI AZIMU VELO AIN AR TRES W  DIS CAZ7
 BAR2 SZ EP        417 37.65                             170    0.0210 22.9 212 
 BAR2 SZ I         417 37.77         7.9 0.22                          22.9 212 
 BAR2 SZ ES   2    417 52.31                             170   -0.09 5 22.9 212 
 GIR2 SZ EP        417 37.75                             165   -0.1110 36.7 339 
 GIR2 SZ ES   3    417 52.26                             165   -0.54 2 36.7 339 
 PAM  SN ES   1    417 57.08                             151    0.13 7 75.4  33 
 PAM  SN I         417 58.14         8.7 0.66                          75.4  33 
 BRR  HZ EP        417 39.82                             149    0.0610 79.8 298 
 BRR  HZ I         417 39.95         5.4 0.30                          79.8 298 
 BRR  HN ES   1    417 56.24                             149    0.06 7 79.8 298 
 RUS  HZ EP        417 41.50                             144   -0.1310 96.9 181 
 RUS  HN ES   1    417 59.70                             144    0.20 7 96.9 181 
                                                                                
