 2013  812 0611  7.4 L   6.792 -73.173139.3  RSN  6 0.2 1.5LRSN                1
 GAP=133        0.59       3.3     4.8  5.3 -0.8639E+01  0.1273E+02 -0.5402E+01E
 Epicentro: LOS SANTOS - SANTANDER                                             3
 ACTION:UPD 14-01-14 09:01 OP:ep   STATUS:               ID:20130812061107 L   I
 OLDACT:REG 13-08-12 08:40 OP:stll STATUS:               ID:20130812060849     3
 2013-08-12-0608-49M.COL___221                                                 6
 STAT SP IPHASW D HRMM SECON CODA AMPLIT PERI AZIMU VELO AIN AR TRES W  DIS CAZ7
 BAR2 SZ EP        611 26.26                             171    0.0410 22.1 183 
 BAR2 SZ ES        611 40.92                             171    0.0210 22.1 183 
 BAR2 SZ I         611 42.15         5.9 0.16            172           22.1 183 
 BRR  HZ EP        611 27.90                             152    0.1910 69.0 300 
 PAM  SZ EP        611 29.10                             149    0.0110 80.1  41 
 PAM  SN ES        611 46.00                             149   -0.0110 80.1  41 
 PAM  SN I         611 46.95         7.3 0.48            150           80.1  41 
 RUS  HZ EP        611 30.65                             143    0.1910 99.9 174 
 RUS  HN ES        611 48.18                             143   -0.2710 99.9 174 
 PTB  HZ EP        611 33.10                             131   -0.44 9  145 259 
 SPBC HN ES        611 57.06                             128    0.27 9  161 218 
                                                                                
