 2017  812 0310  8.4 L   6.807 -73.135143.4  RSN 29 0.6 2.6LRSN                1
 GAP= 66        1.10       2.3     2.6  4.5 -0.1378E+00  0.3476E+01 -0.2330E-01E
 Epicentro: LOS SANTOS - SANTANDER                                             3
 ACTION:UPD 17-09-04 20:19 OP:rebc STATUS:               ID:20170812031008 L   I
 OLDACT:REG 17-08-12 12:22 OP:dhb  STATUS:               ID:20170812030743     3
 2017-08-12-0308-00M.COL___417                                                 6
 STAT SP IPHASW D HRMM SECON CODA AMPLIT PERI AZIMU VELO AIN AR TRES W  DIS CAZ7
 BAR2 EZ IP     C  310 27.52                             170   -0.2410 24.3 192 
 BAR2 EZ ES        310 42.43                             170   -0.4410 24.3 192 
 BAR2 EZ I         310 43.48       169.7 0.20            170           24.3 192 
 BRR  HZ IP     C  310 29.40                             152    0.0710 71.9 298 
 BRR  HN ES        310 46.39                             152    0.7310 71.9 298 
 BRR  HZ I         310 47.97       120.3 0.14            147           71.9 298 
 PAM  EZ IP     C  310 30.48                             151    0.2010 76.0  39 
 PAM  EN ES        310 47.21                             151   -0.1410 76.0  39 
 PAM  EZ I         310 49.79       110.2 0.66            143           76.0  39 
 RUS  HZ EP        310 31.44                             143   -0.5310  101 177 
 RUS  HN ES        310 50.22                             143   -0.1410  101 177 
 RUS  HZ I         310 50.98        53.4 0.24            138            101 177 
 TAM  HZ IP     D  310 35.79                             130   -0.01 9  154 105 
 TAM  HN ES        310 57.04                             130   -0.14 9  154 105 
 TAM  HZ I         311 15.64        33.2 0.40            123            154 105 
 SPBC HZ IP     D  310 36.45                             128   -0.39 9  165 219 
 SPBC HE ES        310 58.51                             128   -0.52 9  165 219 
 SPBC HZ I         311  1.92        68.6 0.08            123            165 219 
 YPLC HZ IP     D  310 37.85                             126   -0.18 9  177 152 
 YPLC HE ES        311  1.87                             126    0.72 9  177 152 
 YPLC HZ I         311  4.38        24.5 0.24            120            177 152 
 ZAR  HZ EP        310 40.65                             122   -0.12 9  205 292 
 ZAR  HE ES        311  6.07                             122    0.05 9  205 292 
 ZAR  HZ I         311 12.29        70.3 0.28            116            205 292 
 TABC EZ EP        310 44.39                             119    0.25 8  231 211 
 TABC EZ ES        311 12.55                             119    0.52 8  231 211 
 TABC EZ I         311 17.27        32.1 0.48            113            231 211 
 NOR  HZ EP        310 43.18                             118   -0.96 8  236 234 
 NOR  HE ES        311 11.72                             118   -0.30 8  236 234 
 NOR  HZ I         311 15.46        40.9 0.44            113            236 234 
 CHI  HZ EP        310 46.11                             116    0.03 8  250 195 
 CHI  HN ES        311 16.08                             116    0.60 8  250 195 
 CHI  HZ I         311 20.83        10.4 0.40            111            250 195 
 ROSC BZ EP   9    310 48.38                             116    1.85 0  254 211 
 ROSC BE ES        311 17.58                                   -0.54 8  254 211 
 ROSC BZ I         311 23.09        27.4 0.45            111            254 211 
 HEL  HZ EP        310 49.63                             114    0.99 8  273 256 
 HEL  HE ES        311 19.51                             114   -0.52 8  273 256 
 HEL  HZ I         311 28.31        22.6 0.26            109            273 256 
 URE  HZ EP   2    310 48.02                             113   -1.42 4  285 292 
 URE  HN ES        311 20.73                             113   -0.73 7  285 292 
 URE  HZ I         311 22.94        31.4 0.14            108            285 292 
 GUY2CHZ EP        310 52.01                             112   -0.05 7  303 235 
 GUY2CHE ES        311 27.02                             112    0.91 7  303 235 
 GUY2CHZ I         311 34.08        28.2 0.46                           303 235 
 VIL  EZ EP        310 51.20                             111   -0.62 7  304 192 
 VIL  EE ES        311 26.37                             111    0.68 7  304 192 
 VIL  EZ I         311 30.32        21.3 0.19            106            304 192 
 PTGC HZ IP   9 C  310 50.69                             111   -1.49 0  309 159 
 PTGC HN ES        311 24.29                                   -0.55 7  309 159 
 PTGC HZ I         311 28.69        14.2 0.30            106            309 159 
 LL6C HZ EP        310 52.91                             110   -1.00 7  324 357 
 LL6C HE ES        311 30.72                             110    1.31 7  324 357 
 LL6C HZ I         311 51.48         6.5 0.44            104            324 357 
 ELA  HZ EP   9    310 57.04                             110    1.73 0  331 229 
 ELA  HN ES        311 33.85                                    0.22 7  331 229 
 ELA  HZ I         311 41.22        13.7 0.38            105            331 229 
 CBOC HZ EP        310 56.15                             109    0.78 7  335 252 
 CBOC HN ES        311 32.08                             109    0.07 7  335 252 
 CBOC HZ I         311 34.58         9.1 0.20            105            335 252 
 DBB  EZ EP        310 56.30                             109    0.39 7  341 274 
 DBB  EE ES        311 32.62                             109   -0.34 7  341 274 
 DBB  EZ I         311 34.53        18.6 0.40            104            341 274 
 ANIL HZ EP   9    311  0.69                             108    2.42 0  359 225 
 ANIL HE ES        311 40.07                                    0.48 6  359 225 
 ANIL HZ I         311 47.65        38.4 0.50            103            359 225 
 ARGC HZ EP        310 58.73                             108    0.81 6  359 340 
 ARGC HN ES        311 36.83                             108    0.28 6  359 340 
 ARGC HZ I         311 43.22        10.4 0.44            103            359 340 
 PRA  HZ EP        311  1.77                             106   -0.21 6  393 210 
 PRA  HE ES        311 44.21                             106    0.43 6  393 210 
 PRA  HZ I         311 50.26        16.3 0.24            101            393 210 
 ORTC HZ EP        311  2.31                             106   -0.08 6  397 216 
 ORTC HN ES   2    311 45.71                             106    1.20 3  397 216 
 ORTC HZ I         311 50.56         9.5 0.50            101            397 216 
 PAL  HZ EP        311  3.45                             105   -0.19 6  407 239 
 PAL  HN ES        311 45.87                             105   -0.87 6  407 239 
 PAL  HZ I         311 48.97         6.4 0.25            101            407 239 
 SJC  HZ EP   3    311  1.73                             105   -2.15 1  409 327 
 SJC  HN ES   4    311 43.71                             105   -3.44 0  409 327 
 SJC  HZ I         311 52.87         5.8 0.56            101            409 327 
 LCBC HZ EP   1    311  5.38                             105    0.03 4  422 303 
 LCBC HZ I         311 47.67        21.3 0.72            100            422 303 
 LCBC HE ES   2    311 50.41                             105    0.63 3  422 303 
 MACC HZ EP   3    311 14.96                             101   -2.20 1  522 189 
 MACC HE ES   4    312  7.40                             101   -3.40 0  522 189 
 MACC HZ I         312 11.96         2.8 0.42             97            522 189 
                                                                                
