 2013  212 0228  5.7 L   6.800 -73.162141.1  RSN  7 0.4 1.7LRSN                1
 GAP=181        0.79       3.4     5.8  7.5  0.4857E+01  0.1886E+01  0.3955E+01E
 Epicentro: LOS SANTOS - SANTANDER                                             3
 ACTION:UPD 13-03-12 09:32 OP:ep   STATUS:               ID:20130212022805 L   I
 2013-02-12-0220-00M.COL___240                                                 6
 STAT SP IPHASW D HRMM SECON CODA AMPLIT PERI AZIMU VELO AIN AR TRES W  DIS CAZ7
 BAR2 SZ ES   1    228 39.54                             170   -0.14 7 23.1 186 
 BAR2 SZ I         228 41.94        16.8 0.24            169           23.1 186 
 BRR  HZ EP        228 26.42                             152    0.1210 69.7 299 
 BRR  HN ES   1    228 43.06                             152    0.72 7 69.7 299 
 BRR  HZ I         228 46.75         6.2 0.12            149           69.7 299 
 RUS  HZ EP        228 28.90                             143   -0.1510  101 175 
 RUS  HN ES   1    228 46.78                             143   -0.44 7  101 175 
 RUS  HZ I         228 48.17         5.3 0.26            142            101 175 
 PTB  HN ES   1    228 52.34                             131   -0.45 7  146 259 
 PTB  HZ I         228 54.95         4.1 0.18            129            146 259 
 OCA  HE ES        228 55.51                             128    0.04 9  160 354 
 OCA  HE I         229  1.52        15.5 0.60            127            160 354 
 ZAR  HN ES   1    229  2.37                             122   -0.29 6  202 292 
 ZAR  HZ I         229  8.09         5.8 0.52            119            202 292 
 CHI  HZ EP   1    228 43.03                             116   -0.10 6  248 195 
 CHI  HN ES   1    229 13.13                             116    0.83 6  248 195 
 CHI  HZ I         229 23.23         1.6 0.50            115            248 195 
                                                                                
