 2017  412 0530 40.4 L   6.537 -73.362149.5  RSN  5 0.3 1.0LRSN                1
 GAP=114        0.71       5.2     7.1  7.1  0.1812E+02  0.3403E+01  0.2546E+01E
 Epicentro: HATO - SANTANDER                                                   3
 ACTION:UPD 17-05-30 21:11 OP:jn   STATUS:               ID:20170412053039 L   I
 OLDACT:UP  17-05-09 19:04 OP:nlst STATUS:               ID:20170412053039 L   3
 OLDACT:UP  17-04-12 17:43 OP:edw  STATUS:               ID:20170412052545     3
 OLDACT:REG 17-04-12 13:13 OP:edw  STATUS:               ID:20170412052545     3
 2017-04-12-0528-00M.COL___368                                                 6
 STAT SP IPHASW D HRMM SECON CODA AMPLIT PERI AZIMU VELO AIN AR TRES W  DIS CAZ7
 BAR2 EZ EP   1    531  0.24                             172   -0.22 7 20.8  73 
 BAR2 EZ ES   1    531 15.36                             172   -0.73 7 20.8  73 
 BAR2 EZ I         531 16.74         2.8 0.26            175           20.8  73 
 BRR  HZ EP        531  2.10                             152   -0.0410 74.0 328 
 BRR  HE ES        531 19.38                             152    0.3110 74.0 328 
 BRR  HZ I         531 22.36         3.3 0.48            154           74.0 328 
 RUS  HZ EP        531  3.08                             151    0.0210 77.6 157 
 RUS  HN ES        531 21.00                             151    0.2810 77.6 157 
 RUS  HZ I         531 23.83         0.6 0.20            153           77.6 157 
 PAM  EN ES   2    531 25.37                             141    0.11 5  115  39 
 PTB  HE ES   2    531 24.62                             139   -0.31 5  121 270 
                                                                                
