 2016 1012 0110 31.5 L   6.783 -73.165144.0  RSN  5 0.4 1.5LRSN                1
 GAP=234        0.95       5.5     6.5  8.4  0.1725E+02 -0.9674E+00 -0.1384E+01E
 Epicentro: LOS SANTOS - SANTANDER                                             3
 ACTION:UPD 16-11-09 19:18 OP:rebc STATUS:               ID:20161012011031 L   I
 OLDACT:REG 16-10-12 13:59 OP:ar   STATUS:               ID:20161012010745     3
 2016-10-12-0108-00M.COL___372                                                 6
 STAT SP IPHASW D HRMM SECON CODA AMPLIT PERI AZIMU VELO AIN AR TRES W  DIS CAZ7
 BRR  HZ EP        110 52.42                             153    0.0510 70.3 301 
 BRR  HE ES        111  9.04                             153    0.3610 70.3 301 
 BRR  HZ I         111 12.23         8.0 0.26            152           70.3 301 
 RUS  HZ EP        110 54.65                             144   -0.2710 98.8 175 
 RUS  HE ES        111 13.09                             144   -0.1210 98.8 175 
 RUS  HZ I         111 15.17         2.1 0.28            146           98.8 175 
 PTB  HZ EP        110 57.58                             132   -0.49 9  145 259 
 PTB  HN ES        111 18.21                             132   -0.61 9  145 259 
 PTB  HZ I         111 20.65         6.0 0.14            133            145 259 
 SPBC HZ EP        110 59.91                             129    0.35 9  160 219 
 SPBC HN ES        111 22.05                             129    0.57 9  160 219 
 SPBC HZ I         111 25.81         4.3 0.24            131            160 219 
 ZAR  HZ EP   2    111  4.44                             122    0.77 4  203 293 
 ZAR  HN ES        111 28.83                             122    0.04 9  203 293 
 ZAR  HZ I         111 34.84         4.1 0.42            124            203 293 
                                                                                
