 2013 1212 0150 40.7 L   6.771 -73.406128.6  RSN  6 0.3 1.4LRSN                1
 GAP=147        0.62       3.7     3.6  5.4  0.3764E+01  0.3213E+01 -0.7805E+01E
 Epicentro: EL CARMEN DE CHUCURI - SANTANDER                                   3
 ACTION:UPD 14-01-13 10:17 OP:ep   STATUS:               ID:20131212015040 L   I
 OLDACT:REG 13-12-12 06:48 OP:jn   STATUS:               ID:20131212015000     3
 2013-12-12-0150-00M.COL___285                                                 6
 STAT SP IPHASW D HRMM SECON CODA AMPLIT PERI AZIMU VELO AIN AR TRES W  DIS CAZ7
 BAR2 SZ EP        150 58.72                             165    0.2610 31.7 129 
 BAR2 SZ ES        151 12.33                             165   -0.0110 31.7 129 
 BRR  HZ EP        150 59.05                             157    0.2210 50.2 318 
 BRR  HE ES   1    151 13.11                             157    0.11 7 50.2 318 
 BRR  HZ I         151 20.04         5.1 0.48            156           50.2 318 
 RUS  HN ES        151 20.12                             139   -0.3010  104 160 
 RUS  HZ I         151 22.34         2.8 0.26            148            104 160 
 PTB  HZ EP        151  3.94                             134    0.3010  119 258 
 PTB  HN ES        151 21.32                             134   -0.2310  119 258 
 PTB  HZ I         151 25.69         4.7 0.16            138            119 258 
 ZAR  HN ES   2    151 31.96                             122    0.10 4  179 297 
 ZAR  HZ I         151 36.11         4.8 0.28            126            179 297 
 SML  HZ EP        151 15.11                             114   -0.44 8  236 342 
 SML  HN ES   2    151 42.54                             114   -0.22 4  236 342 
                                                                                
