 2010  512 0202 18.9 L   6.507 -73.430107.7  RSN  7 0.5 1.3LRSN                1
 GAP=184        0.92       4.4     8.9  8.8  0.3790E+01 -0.7978E+01 -0.6852E+01E
 Epicentro: SIMACOTA - SANTANDER                                               3
 ACTION:UP  10-08-24 10:04 OP:vdl  STATUS:               ID:20100512020218 L   I
 2010-05-12-0200-29S.COL___104                                                 6
 STAT SP IPHASW D HRMM SECON CODA AMPLIT PERI AZIMU VELO AIN AR TRES W  DIS CAZ7
 BAR2 SZ IP        2 2 34.45                             164     0.310   29  71 
 BAR2 SZ ES   1    2 2 45.94                             164    -0.1 7   29  71 
 BRR  HZ IP     D  2 2 36.08                             143    -0.210   73 335 
 BRR  HZ I         2 2 36.34        10.2 0.14                            73 335 
 BRR  HN ES   1    2 2 49.96                             143     0.2 7   73 335 
 RUS  HZ EP        2 2 37.56                             142     0.310   78 151 
 RUS  HN ES   2    2 2 50.71                             142    -0.9 5   78 151 
 RUS  HZ I         2 2 55.69         2.8 0.25                            78 151 
 BRI  SZ ES   2    2 3  3.82                             121     0.9 5  151  28 
 GUE  SZ ES   2    2 3  3.17                             120    -1.1 5  157  21 
 GRA  SZ EP        2 2 44.94                             118    -0.4 9  167  24 
 GRA  SZ ES   1    2 3  6.17                             118     0.2 7  167  24 
 OCA  SZ ES   2    2 3 10.27                             115    -0.4 4  192   4 
                                                                                
