 2012 1112 0836 15.6 L   6.794 -73.138149.8  RSN  8 0.4 1.9LRSN                1
 GAP=138        0.80       4.0     4.8  6.6  0.8594E+00  0.7730E+01  0.9916E+01E
 Epicentro: LOS SANTOS - SANTANDER                                             3
 ACTION:UPD 12-12-05 15:32 OP:}ep  STATUS:               ID:20121112083615 L   I
 2012-11-12-0830-00M.COL___230                                                 6
 STAT SP IPHASW D HRMM SECON CODA AMPLIT PERI AZIMU VELO AIN AR TRES W  DIS CAZ7
 GIR2 SZ EP   1    836 35.78                             167    0.00 7 32.0 349 
 GIR2 SZ ES   1    836 51.15                             167   -0.37 7 32.0 349 
 BRR  HZ EP   1    836 37.59                             153    0.34 7 72.2 299 
 BRR  HN ES   1    836 55.12                             153    0.99 7 72.2 299 
 PAM  SZ EP   1    836 38.45                             151    0.20 7 77.3  39 
 PAM  SN ES   1    836 55.82                             151   -0.09 7 77.3  39 
 PAM  SZ I         836 57.88        12.6 0.46                          77.3  39 
 RUS  HZ EP   1    836 39.50                             145   -0.21 7 99.9 177 
 RUS  HN ES   1    836 58.41                             145   -0.10 7 99.9 177 
 RUS  HZ I         836 59.91         4.8 0.40                          99.9 177 
 PTB  HZ EP   1    836 42.33                             133   -0.64 7  148 259 
 PTB  HN ES   1    837  3.82                             133   -0.49 7  148 259 
 PTB  HZ I         837  9.54        16.2 0.26                           148 259 
 ZAR  HZ EP   1    836 48.11                             123   -0.31 6  205 292 
 ZAR  HE ES   1    837 13.96                             123   -0.05 6  205 292 
 ZAR  HZ I         837 20.11        11.7 0.32                           205 292 
 CHI  HZ EP   1    836 53.69                             118    0.20 6  248 195 
 CHI  HN ES   1    837 22.78                             118   -0.26 6  248 195 
 CHI  HZ I         837 27.13         3.6 0.38                           248 195 
 PRA  HZ EP   1    837 10.03                             107    0.78 4  392 210 
 PRA  HN ES   1    837 51.82                             107    0.72 4  392 210 
                                                                                
