 2010  812 0821  8.7 L   6.848 -73.000139.9  RSN  4 0.3 1.4LRSN                1
 GAP=174        0.69       4.9     8.9  9.3 -0.4014E+01 -0.1441E+02  0.3595E+01E
 Epicentro: CEPITA - SANTANDER                                                 3
 ACTION:UP  10-09-07 10:54 OP:vdl  STATUS:               ID:20100812082107 L   I
 2010-08-12-0818-03S.COL___127                                                 6
 STAT SP IPHASW D HRMM SECON CODA AMPLIT PERI AZIMU VELO SNR AR TRES W  DIS CAZ7
 BAR2 SZ EP        821 27.97                             166     0.110   35 216 
 BAR2 SZ ES   1    821 42.38                             166    -0.5 7   35 216 
 BAR2 SZ I         821 46.02         4.3 0.37                            35 216 
 BRR  HZ EP   1    821 29.74                             149    -0.2 7   84 290 
 BRR  HZ I         821 36.32         9.9 0.29                            84 290 
 BRR  HN ES   1    821 46.83                             149     0.3 7   84 290 
 RUS  HZ EP   2    821 32.08                             142    -0.2 5  106 185 
 RUS  HN ES   2    821 51.25                             142     0.6 5  106 185 
 RUS  HZ I         821 52.56         3.5 0.25                           106 185 
 GRA  SZ ES   1    821 51.38                             140     0.1 7  117  11 
                                                                                
