 2016  812 0615 26.4 L   6.802 -73.159141.2  RSN 15 0.4 2.1LRSN                1
 GAP=135        0.89       3.3     3.7  5.0 -0.3757E+01  0.7347E+01  0.1218E+00E
 Epicentro: LOS SANTOS - SANTANDER                                             3
 ACTION:UPD 16-10-29 15:34 OP:rebc STATUS:               ID:20160812061526 L   I
 OLDACT:UP  16-08-12 15:52 OP:dani STATUS:               ID:20160812060736d    3
 OLDACT:UP  16-08-12 15:51 OP:dani STATUS:               ID:20160812060736d    3
 OLDACT:UP  16-08-12 15:51 OP:dani STATUS:               ID:20160812060736d    3
 OLDACT:UP  16-08-12 15:51 OP:dani STATUS:               ID:20160812060736d    3
 OLDACT:DUP 16-08-12 15:43 OP:dani STATUS:               ID:20160812060736d    3
 OLDACT:UP  16-08-12 15:43 OP:dani STATUS:               ID:20160812060735     3
 OLDACT:UP  16-08-12 15:43 OP:dani STATUS:               ID:20160812060735     3
 OLDACT:UP  16-08-12 15:40 OP:dani STATUS:               ID:20160812060735     3
 OLDACT:REG 16-08-12 12:41 OP:dani STATUS:               ID:20160812060735     3
 2016-08-12-0608-00M.COL___377                                                 6
 STAT SP IPHASW D HRMM SECON CODA AMPLIT PERI AZIMU VELO AIN AR TRES W  DIS CAZ7
 BAR2 HZ EP        615 45.44                             170   -0.0510 23.4 186 
 BAR2 HZ ES        616  0.62                             170    0.2510 23.4 186 
 BAR2 HZ I         616  1.89        54.1 0.20                          23.4 186 
 BRR  HZ EP        615 47.25                             152    0.2710 69.8 299 
 BRR  HN ES   4    616  4.22                             152    1.18 0 69.8 299 
 BRR  HZ I         616  7.38        19.1 0.32                          69.8 299 
 PAM  EZ EP        615 48.30                             150    0.1210 78.1  40 
 PAM  EE ES        616  5.37                             150    0.2010 78.1  40 
 PAM  EZ I         616  5.99        15.9 0.19                          78.1  40 
 RUS  HZ EP        615 49.47                             143   -0.2710  101 175 
 RUS  HE ES        616  7.66                             143   -0.2810  101 175 
 RUS  HZ I         616  9.67         9.8 0.24                           101 175 
 PTB  HZ EP        615 52.06                             131   -0.82 9  146 259 
 PTB  HN ES        616 13.04                             131   -0.49 9  146 259 
 PTB  HZ I         616 15.92        15.5 0.23                           146 259 
 SPBC HZ EP        615 54.42                             128   -0.07 9  162 219 
 SPBC HE ES        616 16.34                             128   -0.05 9  162 219 
 SPBC HZ I         616 21.59        20.6 0.25                           162 219 
 ZAR  HZ EP        615 58.28                             122   -0.13 9  203 292 
 ZAR  HE ES   4    616 22.19                             122   -1.18 0  203 292 
 ZAR  HZ I         616 30.12        11.7 0.58                           203 292 
 NOR  HZ EP        616  1.88                             118    0.12 8  234 234 
 NOR  HN ES        616 29.85                             118    0.51 8  234 234 
 NOR  HZ I         616 34.66        13.1 0.44                           234 234 
 CHI  HZ EP        616  3.61                             116   -0.23 8  248 195 
 CHI  HE ES        616 33.25                             116    0.21 8  248 195 
 CHI  HZ I         616 40.09         8.2 0.38                           248 195 
 ROSC BZ EP   4    616  5.72                             116    1.50 0  252 211 
 HEL  HZ EP        616  6.95                             114    0.71 8  271 256 
 HEL  HE ES        616 37.20                             114   -0.11 8  271 256 
 HEL  HZ I         616 44.48         5.4 0.38                           271 256 
 URE  HN ES   4    616 36.29                             113   -2.55 0  282 292 
 GUY2CHZ EP   9    616 10.97                             111    1.28 0  300 235 
 GUY2CHE ES        616 45.09                             111    0.36 7  300 235 
 GUY2CHZ I         616 52.06         7.5 0.46                           300 235 
 LL6C HZ EP   4    616 10.04                             110   -1.84 0  325 358 
 LL6C HZ I         616 54.81         3.3 0.63                           325 358 
 CBOC HZ EP        616 13.64                             109    0.66 7  332 252 
 CBOC HN ES   4    616 48.19                             109   -1.13 0  332 252 
 CBOC HZ I         617  2.25         1.7 0.24                           332 252 
 PRA  HZ EP        616 19.10                             106   -0.61 6  392 209 
 PRA  HN ES        617  2.08                             106    0.79 6  392 209 
 PRA  HZ I         617  6.37         9.7 0.74                           392 209 
 SJC  HZ EP   4    616 19.76                             105   -1.94 0  408 327 
 SJC  HZ I         617  5.18         3.7 0.51                           408 327 
                                                                                
