 2014  412 0553 12.0 L   6.825 -73.152139.1  RSN 24 0.5 2.4LRSN 3.1WRSN        1
 SPEC AVERAGE  MO 13.7 ST0.354 OM  1.7 f0 1.79 R1.3385 AL 0.00 WI 20.0 MW  3.1 3
 SPEC SD       MO  0.2 ST0.718 OM  0.3 f0 1.25 R0.4084 AL      WI      MW  0.1 3
 GAP= 70        1.12       2.3     3.2  5.7 -0.1949E+01  0.3246E+01  0.1178E+01E
 Epicentro: LOS SANTOS - SANTANDER                                             3
 SPEC PAM SH Z MO 13.9 ST0.060 OM  2.0 f0 1.06 R1.8151 AL-0.00 WI 20.0 MW  3.2 3
 SPEC PAM SH Z T 55349 K 0.000 GD  158 VS 5.20 DE 3.50 Q0750.0 QA 1.50 VS 5.20 3
 SPEC SPBCHH Z MO 13.4 ST  2.2 OM  1.4 f0 5.07 R0.3795 AL-0.00 WI 20.0 MW  2.9 3
 SPEC SPBCHH Z T 554 0 K 0.000 GD  215 VS 5.20 DE 3.50 Q0750.0 QA 1.50 VS 5.20 3
 SPEC ROSCBH Z MO 13.8 ST0.112 OM  1.6 f0 1.45 R1.3269 AL-0.00 WI 20.0 MW  3.1 3
 SPEC ROSCBH Z T 55418 K 0.000 GD  290 VS 5.20 DE 3.50 Q0750.0 QA 1.50 VS 5.20 3
 SPEC HEL HH Z MO 13.5 ST0.059 OM  1.3 f0 1.45 R1.3269 AL-0.00 WI 20.0 MW  2.9 3
 SPEC HEL HH Z T 55420 K 0.000 GD  305 VS 5.20 DE 3.50 Q0750.0 QA 1.50 VS 5.20 3
 SPECGUY2CHH Z MO 13.5 ST  0.1 OM  1.3 f0 1.45 R  1.33 AL-0.00 WI 20.0 MW  3.0 3
 SPECGUY2CHH Z T 55427 K       GD332.9 VS 5.20 DE 3.50 Q0750.0 QA 1.50 VS 5.20 3
 SPEC CBOCHH Z MO 13.5 ST0.026 OM  1.2 f0 1.13 R1.7027 AL-0.00 WI 20.0 MW  2.9 3
 SPEC CBOCHH Z T 55432 K 0.000 GD  361 VS 5.20 DE 3.50 Q0750.0 QA 1.50 VS 5.20 3
 SPEC ANILHH Z MO 14.1 ST0.162 OM  1.8 f0 1.28 R1.5031 AL-0.00 WI 20.0 MW  3.3 3
 SPEC ANILHH Z T 55439 K 0.000 GD  385 VS 5.20 DE 3.50 Q0750.0 QA 1.50 VS 5.20 3
 SPEC PRA HH Z MO 13.6 ST0.081 OM  1.3 f0 1.45 R1.3269 AL-0.00 WI 20.0 MW  3.0 3
 SPEC PRA HH Z T 55444 K 0.000 GD  417 VS 5.20 DE 3.50 Q0750.0 QA 1.50 VS 5.20 3
 SPEC ORTCHH Z MO 13.6 ST0.081 OM  1.3 f0 1.45 R1.3269 AL-0.00 WI 20.0 MW  3.0 3
 SPEC ORTCHH Z T 55446 K 0.000 GD  420 VS 5.20 DE 3.50 Q0750.0 QA 1.50 VS 5.20 3
 OLDACT:REG 14-04-12 14:48 OP:stll STATUS:               ID:20140412054819     3
 ACTION:UPD 14-05-13 23:07 OP:nd   STATUS:               ID:20140412055311 L   I
 OLDACT:UP  14-04-15 04:25 OP:CAM  STATUS:               ID:20140412055311 L   3
 OLDACT:UP  14-04-12 18:32 OP:stll STATUS:               ID:20140412054819     3
 2014-04-12-0548-19M.COL___230                                                 6
 STAT SP IPHASW D HRMM SECON CODA AMPLIT PERI AZIMU VELO AIN AR TRES W  DIS CAZ7
 PAM  SZ IP     D  553 34.08                             150    0.6810 75.7  41 
 PAM  SN ES        553 50.69                             150    0.5910 75.7  41 
 PAM  SZ I         553 53.16        64.1 0.44            154           75.7  41 
 RUS  HZ EP        553 35.26                             142   -0.0510  103 176 
 RUS  HE ES        553 53.40                             142   -0.0910  103 176 
 RUS  SZ I         553 54.91        41.9 0.26            144            103 176 
 PTB  HZ EP        553 37.91                             130   -0.50 9  148 258 
 PTB  HN ES        553 58.97                             130   -0.05 9  148 258 
 PTB  SZ I         554  2.24        22.0 0.10            131            148 258 
 OCA  HZ EP   1    553 39.63                             129    0.11 7  157 353 
 OCA  HN ES        554  0.52                             129   -0.47 9  157 353 
 OCA  SZ I         554  8.41        24.0 0.14            131            157 353 
 TAM  HZ IP     D  553 39.63                             129    0.34 9  157 106 
 SPBC HZ EP        553 40.16                             127    0.01 9  165 218 
 SPBC HE ES        554  2.03                             127   -0.09 9  165 218 
 SPBC SZ I         554  4.61        62.7 0.28            129            165 218 
 ZAR  HZ EP        553 43.63                             121   -0.20 9  202 291 
 ZAR  HN ES        554  8.78                             121    0.11 9  202 291 
 ZAR  SZ I         554 11.50        18.9 0.26            123            202 291 
 NOR  HZ EP        553 47.32                             117   -0.14 8  236 234 
 NOR  HN ES        554 14.37                             117   -0.75 8  236 234 
 NOR  SZ I         554 20.83        23.3 0.16            119            236 234 
 SML  HZ EP        553 47.34                             116   -0.60 8  241 335 
 SML  HN ES        554 15.84                             116   -0.14 8  241 335 
 SML  SZ I         554 19.54        35.0 0.10            118            241 335 
 CHI  HZ EP        553 49.34                             115   -0.26 8  251 195 
 CHI  HN ES        554 18.47                             115   -0.47 8  251 195 
 CHI  SZ I         554 24.93        14.3 0.78            118            251 195 
 ROSC BZ EP        553 50.88                             115    0.90 8  255 211 
 ROSC BE ES        554 19.75                             115    0.14 8  255 211 
 ROSC SZ I         554 24.68        22.9 0.45            117            255 211 
 HEL  HZ EP        553 52.38                             113    0.51 8  272 255 
 HEL  HN ES        554 22.38                             113   -0.60 8  272 255 
 HEL  SZ I         554 30.00        12.4 0.38            115            272 255 
 SOCV BZ EP        553 53.63                             111   -1.01 7  300  57 
 GUY2CHZ EP        553 55.77                             111    0.35 7  302 234 
 GUY2CHN ES        554 28.78                             111   -0.51 7  302 234 
 GUY2CSZ I         554 37.00        13.6 0.40                           302 234 
 VIL  SZ EP        553 54.57                             110   -0.84 7  306 191 
 VIL  SN ES        554 29.00                             110   -0.27 7  306 191 
 VIL  SZ I         554 31.46        21.1 0.44            113            306 191 
 RREF HZ EP        553 59.05                             109    1.05 7  323 229 
 RREF HN ES        554 34.07                             109    0.19 7  323 229 
 RREF SZ I         554 43.03        15.2 0.46            111            323 229 
 CBOC HZ EP        553 59.38                             109    0.72 7  334 252 
 CBOC HN ES        554 36.08                             109    1.02 7  334 252 
 CBOC SZ I         554 39.06         4.7 0.86            110            334 252 
 DBB  SZ EP        553 59.53                             108    0.43 7  339 274 
 TOL  SZ EP        554  1.29                             108    1.13 7  345 224 
 TOL  SZ I         554 47.84         6.4 2.55            110            345 224 
 COD  HZ EP        553 59.15                             108   -0.63 6  345 355 
 COD  HN ES        554 37.06                             108    0.00 6  345 355 
 COD  SZ I         554 43.85         7.2 1.90            110            345 355 
 ANIL HZ EP        554  2.54                             107    0.82 6  359 224 
 ANIL HE ES        554 40.74                             107    0.23 6  359 224 
 PRA  HZ EP        554  5.07                             105   -0.46 6  394 209 
 PRA  HE ES        554 46.32                             105   -0.97 6  394 209 
 PRA  SZ I         554 53.14        10.7 0.28            107            394 209 
 ORTC HZ EP        554  5.57                             105   -0.33 6  397 216 
 ORTC HN ES        554 48.01                             105    0.05 6  397 216 
 ORTC SZ I         554 54.06         8.4 0.30            107            397 216 
 MACC HZ EP   4    554 18.19                             101   -2.67 0  523 189 
 MACC HZ I         554 18.90         7.8 0.42            102            523 189 
                                                                                
