 2011  812 0817 50.9 L   6.875 -73.010137.9  RSN  4 0.1 1.2LRSN                1
 GAP=256        0.30       3.1     3.7  4.2  0.2939E+01  0.3336E+00  0.3991E+01E
 Epicentro: CEPITA - SANTANDER                                                 3
 ACTION:UPD 12-07-25 14:08 OP:epov STATUS:               ID:20110812081750 L   I
 2011-08-12-0816-31S.COL___150                                                 6
 STAT SP IPHASW D HRMM SECON CODA AMPLIT PERI AZIMU VELO AIN AR TRES W  DIS CAZ7
 BAR2 SZ EP   1    818 10.01                             164    0.03 7 36.6 211 
 BAR2 SZ ES   2    818 24.66                             164   -0.18 5 36.6 211 
 BAR2 SZ I         818 27.96         2.8 0.37                          36.6 211 
 BRR  HZ EP   1    818 11.82                             148   -0.07 7 81.7 288 
 BRR  HZ I         818 12.32         3.3 0.12                          81.7 288 
 BRR  HE ES   1    818 28.32                             148    0.08 7 81.7 288 
 RUS  HZ EP   1    818 14.59                             140    0.03 7  109 184 
 RUS  HN ES   2    818 33.08                             140    0.09 5  109 184 
 RUS  HZ I         818 34.46         1.2 0.47                           109 184 
 RREF HE ES   1    819 15.90                             108   -0.04 5  339 230 
 RREF HZ I         819 20.34         1.2 0.13                           339 230 
                                                                                
