 2013  412 0424 14.7 L   6.768 -73.162147.3  RSN  6 0.4 1.7LRSN                1
 GAP=181        1.03       6.9     7.1  7.6  0.1807E+02  0.1922E+01  0.2059E+01E
 Epicentro: LOS SANTOS - SANTANDER                                             3
 ACTION:UPD 13-05-22 14:37 OP:EP   STATUS:               ID:20130412042414 L   I
 2013-04-12-0418-38M.COL___209                                                 6
 STAT SP IPHASW D HRMM SECON CODA AMPLIT PERI AZIMU VELO AIN AR TRES W  DIS CAZ7
 BAR2 SZ EP        424 34.26                             172   -0.1710 19.5 186 
 BAR2 SZ ES        424 49.46                             172   -0.3710 19.5 186 
 BAR2 SZ I         424 50.68        12.7 0.20            167           19.5 186 
 GIR2 SZ EP        424 34.10                             166   -0.5410 34.6 354 
 BRR  HZ EP        424 36.41                             153    0.3910 71.4 302 
 BRR  HN ES        424 53.31                             153    0.6610 71.4 302 
 BRR  HN I         424 54.16         9.9 0.28            151           71.4 302 
 RUS  HZ EP        424 38.69                             145    0.3410 97.1 175 
 RUS  HN ES        424 56.93                             145    0.1310 97.1 175 
 RUS  HN I         424 58.66         7.1 0.34            144           97.1 175 
 PTB  HZ EP        424 41.21                             133   -0.35 9  145 260 
 PTB  HN ES        425  2.17                             133   -0.35 9  145 260 
 PTB  HN I         425  7.74         6.1 0.32            131            145 260 
 CHI  HZ EP   1    424 52.54                             118    0.49 6  245 195 
                                                                                
