 2012 1212 0806 41.5 L   6.812 -73.177139.2  RSN 12 0.4 1.9LRSN                1
 GAP= 69        0.84       3.0     3.6  5.8  0.1127E+01  0.5746E+01  0.2218E+01E
 Epicentro: LOS SANTOS - SANTANDER                                             3
 ACTION:UPD 13-01-04 14:27 OP:ep   STATUS:               ID:20121212080641 L   I
 2012-12-12-0800-00M.COL___242                                                 6
 STAT SP IPHASW D HRMM SECON CODA AMPLIT PERI AZIMU VELO AIN AR TRES W  DIS CAZ7
 BAR2 SZ EP   1    8 7  0.41                             170    0.08 7 24.3 181 
 BAR2 SZ ES   1    8 7 14.45                             170   -0.59 7 24.3 181 
 BAR2 SZ I         8 7 16.33        41.1 0.36                          24.3 181 
 GIR2 SZ EP   1    8 7  0.40                             167    0.09 7 29.6 356 
 GIR2 SZ ES   1    8 7 15.27                             167    0.26 7 29.6 356 
 GIR2 SZ I         8 7 17.36         8.4 0.13                          29.6 356 
 BRR  HZ EP     C  8 7  2.20                             153    0.5010 67.5 299 
 BRR  HN ES   4    8 7 19.23                             153    1.75 0 67.5 299 
 BRR  HZ I         8 7 24.18        17.0 0.12                          67.5 299 
 PAM  SZ EP   1    8 7  3.32                             149    0.25 7 78.7  42 
 PAM  SN ES   1    8 7 20.23                             149    0.32 7 78.7  42 
 PAM  SZ I         8 7 21.87        17.2 0.38                          78.7  42 
 RUS  HZ EP   1    8 7  4.43                             142   -0.26 7  102 174 
 RUS  HN ES   1    8 7 22.62                             142   -0.19 7  102 174 
 RUS  HZ I         8 7 24.00         9.0 0.24                           102 174 
 PTB  HZ EP   1    8 7  7.25                             131   -0.36 7  145 258 
 PTB  HN ES   1    8 7 27.42                             131   -0.59 7  145 258 
 PTB  HZ I         8 7 31.35        12.8 0.26                           145 258 
 TAM  HE ES   1    8 7 30.64                             128    0.20 7  159 105 
 TAM  HZ I         8 7 31.00         6.5 0.24                           159 105 
 OCA  HN ES   1    8 7 30.11                             128   -0.57 7  159 354 
 OCA  HZ I         8 7 34.53         8.9 0.32                           159 354 
 TAM  HZ EP   1    8 7  8.78                             128   -0.20 7  159 105 
 ZAR  HZ EP   1    8 7 12.90                             121   -0.21 6  200 292 
 ZAR  HN ES   1    8 7 38.76                             121    0.98 6  200 292 
 ZAR  HZ I         8 7 44.30        17.2 0.44                           200 292 
 SML  HZ EP   1    8 7 17.11                             116   -0.34 6  241 336 
 SML  HE ES   1    8 7 45.28                             116   -0.23 6  241 336 
 CHI  HZ EP   1    8 7 18.03                             116   -0.82 6  249 194 
 CHI  HN ES   1    8 7 48.79                             116    0.79 6  249 194 
 CHI  HZ I         8 7 54.95         2.7 0.42                           249 194 
 PRA  HZ EP   1    8 7 35.12                             105    0.42 4  391 209 
 PRA  HN ES   1    8 8 16.57                             105    0.35 4  391 209 
 PRA  HZ I         8 8 19.92         3.4 0.24                           391 209 
                                                                                
