 2012  412 0026 14.2 L   6.781 -73.137147.3  RSN  5 0.3 1.8LRSN                1
 GAP=156        0.86       7.9     4.4  7.5 -0.5609E+01  0.6085E+01  0.1098E+02E
 Epicentro: LOS SANTOS - SANTANDER                                             3
 ACTION:UPD 12-07-05 11:52 OP:tino STATUS:               ID:20120412002614 L   I
 2012-04-12-0020-00M.COL___180                                                 6
 STAT SP IPHASW D HRMM SECON CODA AMPLIT PERI AZIMU VELO AIN AR TRES W  DIS CAZ7
 BAR2 SZ EP        026 34.05                             171     0.110   21 194 
 BAR2 SZ I         026 34.67         9.5 0.07                            21 194 
 BAR2 SZ ES   1    026 49.56                             171     0.1 7   21 194 
 BRR  HZ EP        026 35.88                             152     0.210   73 300 
 BRR  HN ES        026 52.68                             152     0.310   73 300 
 BRR  HZ I         026 53.84        16.3 0.19                            73 300 
 PAM  SZ EP        026 36.92                             151     0.310   78  38 
 PAM  SE ES        026 53.64                             151    -0.510   78  38 
 PTB  HZ EP        026 41.04                             132    -0.3 9  148 260 
 PTB  HE ES   1    027  2.19                             132    -0.3 7  148 260 
 ZAR  HN ES        027 12.38                             122    -0.1 8  206 293 
 ZAR  HZ I         027 19.02         6.8 0.26                           206 293 
                                                                                
