 2013  812 0154 18.3 L   6.010 -73.767110.8  RSN 10 0.5 2.0LRSN                1
 GAP=121        1.30       4.4     3.7  9.4 -0.4893E+01  0.1247E+02  0.1073E+01E
 Epicentro: BOLIVAR - SANTANDER                                                3
 ACTION:UPD 14-01-14 09:01 OP:ep   STATUS:               ID:20130812015418 L   I
 OLDACT:UP  13-08-16 16:39 OP:ep   STATUS:               ID:20130812015418 L   3
 OLDACT:REG 13-08-12 08:33 OP:stll STATUS:               ID:20130812014844     3
 2013-08-12-0148-44M.COL___230                                                 6
 STAT SP IPHASW D HRMM SECON CODA AMPLIT PERI AZIMU VELO AIN AR TRES W  DIS CAZ7
 SPBC HZ EP        154 34.35                             153   -0.4210 52.0 221 
 RUS  HZ EP        154 36.98                             143    0.0410 76.8 100 
 RUS  HN ES        154 50.70                             143   -0.7510 76.8 100 
 BAR2 SZ EP        154 38.21                             138    0.5010 91.2  45 
 BAR2 SZ ES        154 53.43                             138    0.6110 91.2  45 
 BAR2 SZ I         154 54.87        42.7 0.30            138           91.2  45 
 PTB  HZ EP        154 36.79                             136   -1.0310 96.1 308 
 PTB  HN ES        154 53.17                             136    0.1710 96.1 308 
 BRR  HZ EP        154 40.26                             128    0.1810  121   3 
 BRR  HN ES        154 57.50                             128    0.4610  121   3 
 BRR  HN I         155  1.70        16.2 0.16            128            121   3 
 NOR  HZ EP        154 41.23                             126    0.0810  132 248 
 NOR  HN ES        154 59.22                             126    0.2810  132 248 
 GIR2 SZ EP        154 42.30                             125    0.7910  134  28 
 GIR2 SZ ES        154 59.03                             125   -0.5410  134  28 
 GIR2 SZ I         155  2.56        10.7 0.40            126            134  28 
 HEL  HZ EP        154 47.99                             115   -0.36 9  196 276 
 HEL  HN ES        155 12.06                             115    0.30 9  196 276 
 GUY2CHZ EP        154 48.90                             115    0.28 9  197 244 
 GUY2CHN ES        155 12.60                             115    0.37 9  197 244 
 ZAR  HZ EP        154 48.43                             113   -0.29 9  204 324 
 ZAR  HN ES        155 11.72                             113   -0.70 9  204 324 
 ZAR  HN I         155 14.99        14.6 0.28            114            204 324 
 CAPV BZ EP   4    154 57.80                             108    2.29 0  260  38 
                                                                                
