 2015 1112 0301 38.7 L   6.099 -73.700112.7  RSN 12 0.4 1.7LRSN                1
 GAP= 73        1.01       2.5     2.8  5.8 -0.2419E+01  0.6548E+01 -0.3515E+01E
 Epicentro: CHIPATA - SANTANDER                                                3
 ACTION:UPD 15-12-28 16:10 OP:cam  STATUS:               ID:20151112030138 L   I
 OLDACT:REG 15-11-12 12:53 OP:dnl  STATUS:               ID:20151112025745     3
 2015-11-12-0257-45M.COL___319                                                 6
 STAT SP IPHASW D HRMM SECON CODA AMPLIT PERI AZIMU VELO AIN AR TRES W  DIS CAZ7
 SPBC HZ EP        3 1 55.67                             148   -0.4110 64.3 220 
 SPBC HN ES        3 2  9.66                             148    0.0510 64.3 220 
 SPBC HZ I         3 2 11.52        29.8 0.21            150           64.3 220 
 RUS  HZ EP        3 1 57.14                             145   -0.0210 72.0 108 
 RUS  HN ES        3 2 11.39                             145   -0.1610 72.0 108 
 RUS  HZ I         3 2 13.03         4.0 0.22            149           72.0 108 
 BAR2 EZ EP        3 1 57.55                             142    0.2410 79.1  46 
 BAR2 EZ ES        3 2 12.01                             142    0.1910 79.1  46 
 BAR2 EZ I         3 2 13.11        22.1 0.20            146           79.1  46 
 BRR  HZ EP        3 1 59.89                             132    0.2110  112 359 
 BRR  HN ES        3 2 15.86                             132   -0.1710  112 359 
 BRR  HZ I         3 2 18.63         8.5 0.42            134            112 359 
 NOR  HZ EP        3 2  2.86                             124    0.14 9  142 245 
 NOR  HN ES        3 2 21.54                             124    0.10 9  142 245 
 NOR  HZ I         3 2 23.90        11.6 0.11            126            142 245 
 CHI  HZ EP        3 2  4.44                             121   -0.82 9  162 181 
 CHI  HE ES        3 2 25.50                             121   -0.47 9  162 181 
 CHI  HZ I         3 2 28.90         2.2 0.36            124            162 181 
 PAM  EZ EP        3 2  7.40                             118    0.58 9  176  39 
 PAM  EN ES        3 2 29.21                             118    0.47 9  176  39 
 ZAR  HZ EP        3 2  8.13                             114   -0.70 9  200 320 
 ZAR  HE ES        3 2 31.82                             114   -0.51 9  200 320 
 ZAR  HZ I         3 2 34.63         7.6 0.22            117            200 320 
 HEL  HZ EP        3 2  9.98                             114    0.43 9  203 273 
 HEL  HN ES        3 2 33.52                             114   -0.08 9  203 273 
 HEL  HZ I         3 2 37.78         6.8 0.34            117            203 273 
 GUY2CHZ EP        3 2 11.00                             114    0.69 8  208 242 
 GUY2CHN ES        3 2 35.63                             114    0.68 8  208 242 
 GUY2CHZ I         3 2 41.50         4.8 0.32                           208 242 
 CBOC HZ EP        3 2 15.83                             108    0.32 8  257 264 
 CBOC HN ES        3 2 44.32                             108    0.10 8  257 264 
 CBOC HZ I         3 2 46.13         2.4 0.44            110            257 264 
 SML  HZ EP        3 2 19.98                             105   -0.50 7  302 352 
 SML  HE ES        3 2 52.58                             105   -0.47 7  302 352 
                                                                                
