 2016  912 0455 26.9 L   6.810 -73.146150.4  RSN  6 0.4 1.5LRSN                1
 GAP=136        0.92       4.5     4.7  6.3 -0.5346E+01  0.3775E+01  0.3046E+01E
 Epicentro: LOS SANTOS - SANTANDER                                             3
 ACTION:UPD 17-08-17 21:09 OP:lp   STATUS:               ID:20160912045526 L   I
 OLDACT:DUP 16-09-12 20:35 OP:ar   STATUS:               ID:20160912044453d    3
 2016-09-12-0448-00M.COL___298                                                 6
 STAT SP IPHASW D HRMM SECON CODA AMPLIT PERI AZIMU VELO AIN AR TRES W  DIS CAZ7
 BAR2 EZ EP        455 46.92                             170   -0.2110 24.4 190 
 BAR2 EZ ES        456  2.39                             170   -0.5010 24.4 190 
 BAR2 EZ I         456  5.15        13.4 0.50            171           24.4 190 
 BRR  HZ EP        455 48.74                             153    0.1910 70.7 298 
 BRR  HN ES        456  5.81                             153    0.3910 70.7 298 
 BRR  HZ I         456  8.81         6.4 0.40            154           70.7 298 
 PAM  EZ EP        455 49.98                             152    0.3910 76.6  40 
 PAM  EN ES        456  7.12                             152   -0.1410 76.6  40 
 PAM  EZ I         456 10.03         3.4 0.28            154           76.6  40 
 RUS  HZ EP        455 51.42                             144    0.2110  102 176 
 RUS  HE ES        456 10.26                             144    0.1110  102 176 
 RUS  HZ I         456 10.80         2.8 0.28            147            102 176 
 PTB  HZ EP        455 53.47                             133   -0.82 9  148 258 
 PTB  HN ES        456 15.66                             133    0.02 9  148 258 
 PTB  HZ I         456 16.44         2.3 0.11            135            148 258 
 SPBC HZ EP        455 55.87                             130    0.01 9  164 219 
 SPBC HE ES        456 18.72                             130    0.29 9  164 219 
 SPBC HZ I         456 21.68         4.4 0.08            132            164 219 
                                                                                
