 2017  512 0146 31.0 L   6.794 -73.147144.9  RSN 13 0.3 1.9LRSN                1
 GAP=112        0.78       2.6     2.7  4.5  0.5929E+00  0.1173E+01  0.2328E+01E
 Epicentro: LOS SANTOS - SANTANDER                                             3
 ACTION:UPD 17-06-16 13:35 OP:jn   STATUS:               ID:20170512014631 L   I
 OLDACT:UP  17-05-12 14:25 OP:osc  STATUS:               ID:20170512013741     3
 OLDACT:UP  17-05-12 14:24 OP:osc  STATUS:               ID:20170512013741     3
 OLDACT:REG 17-05-12 12:28 OP:osc  STATUS:               ID:20170512013741     3
 2017-05-12-0138-00M.COL___365                                                 6
 STAT SP IPHASW D HRMM SECON CODA AMPLIT PERI AZIMU VELO AIN AR TRES W  DIS CAZ7
 BRR  HZ IP     D  146 52.00                             152   -0.0310 71.4 299 
 BRR  HN ES        147  8.89                             152    0.4310 71.4 299 
 BRR  HZ I         147 12.25        16.4 0.26            150           71.4 299 
 PAM  EZ IP     D  146 53.22                             150    0.0910 78.0  39 
 PAM  EN ES        147 10.34                             150   -0.0710 78.0  39 
 PAM  EZ I         147 13.31        13.5 0.30            160           78.0  39 
 RUS  HZ EP        146 54.16                             144   -0.4210 99.9 176 
 RUS  HN ES        147 13.11                             144    0.1110 99.9 176 
 RUS  HZ I         147 14.31         9.3 0.36            143           99.9 176 
 PTB  HZ EP   9    146 57.03                             132   -0.80 0  147 259 
 PTB  HN ES        147 17.84                                   -0.15 9  147 259 
 PTB  HZ I         147 25.37        11.5 0.36            130            147 259 
 SPBC HZ EP        146 59.49                             129    0.16 9  163 219 
 SPBC HN ES        147 21.55                             129    0.09 9  163 219 
 SPBC HZ I         147 29.07        10.6 0.20            128            163 219 
 YPLC HZ EP        147  0.71                             126    0.07 9  176 151 
 YPLC HN ES        147 23.52                             126   -0.27 9  176 151 
 YPLC HZ I         147 25.61        10.1 0.24            129            176 151 
 ZAR  HZ EP        147  2.90                             122   -0.46 9  204 292 
 ZAR  HE ES        147 28.53                             122   -0.11 9  204 292 
 ZAR  HZ I         147 33.09        10.3 0.24            123            204 292 
 NOR  HZ EP        147  6.35                             118   -0.23 8  234 235 
 NOR  HN ES        147 33.94                             118   -0.43 8  234 235 
 NOR  HZ I         147 43.71         3.9 0.16            118            234 235 
 CHI  HZ EP        147  8.88                             117    0.34 8  248 195 
 CHI  HE ES   2    147 37.73                             117   -0.11 4  248 195 
 CHI  HZ I         147 43.02         5.0 0.32            118            248 195 
 ROSC BZ EP        147  9.83                             116    0.87 8  252 211 
 ROSC BE ES   4    147 37.61                             116   -0.99 0  252 211 
 ROSC BZ I         147 44.88        14.7 0.45            117            252 211 
 HEL  HZ EP   9    147 12.19                             115    1.10 0  272 256 
 HEL  HE ES        147 42.90                             114   -0.59 8  272 256 
 HEL  HZ I         147 48.83         7.2 0.30            115            272 256 
 PTGC HZ E         147  9.36                                            308 159 
 PTGC HZ EP   9    147 13.47                             111   -1.24 0  308 159 
 PTGC HN ES        147 47.12                                   -0.48 7  308 159 
 ELA  HE ES   4    147 48.97                             110   -5.20 0  329 230 
 CBOC HZ EP   4    147 18.63                             110    0.83 0  333 252 
 CBOC HN ES   2    147 54.11                             110   -0.22 3  333 252 
 CBOC HZ I         148  7.71         2.2 0.28            111            333 252 
                                                                                
