 2017 1212 0726 57.3 L   6.829 -73.155137.4  RSN  9 0.3 1.6LRSN                1
 GAP=110        1.02       3.4     3.9  7.6 -0.1833E+01  0.1053E+02 -0.1637E+01E
 Epicentro: LOS SANTOS - SANTANDER                                             3
 ACTION:UPD 18-01-04 13:19 OP:rebc STATUS:               ID:20171212072657 L   I
 OLDACT:UP  17-12-12 18:39 OP:edw  STATUS:               ID:20171212071737d    3
 OLDACT:DUP 17-12-12 18:35 OP:edw  STATUS:               ID:20171212071737d    3
 OLDACT:UP  17-12-12 18:34 OP:edw  STATUS:               ID:20171212071736     3
 OLDACT:REG 17-12-12 13:37 OP:edw  STATUS:               ID:20171212071736     3
 2017-12-12-0718-00M.COL___464                                                 6
 STAT SP IPHASW D HRMM SECON CODA AMPLIT PERI AZIMU VELO AIN AR TRES W  DIS CAZ7
 BAR2 EZ EP        727 15.64                             169   -0.3110 26.3 187 
 BAR2 EZ ES        727 30.43                             169   -0.1010 26.3 187 
 BAR2 EZ I         727 32.91        11.7 0.68            170           26.3 187 
 PAM  EZ EP        727 18.62                             150    0.1410 75.6  42 
 PAM  HN ES        727 35.44                             150    0.4010 75.6  42 
 PAM  EZ I         727 37.43        10.2 0.46            154           75.6  42 
 PTB  HZ EP        727 22.99                             130   -0.54 9  147 258 
 PTB  HN ES        727 43.93                             130   -0.08 9  147 258 
 PTB  HZ I         727 48.66         2.0 0.18            132            147 258 
 OCA  HZ EP        727 24.22                             128   -0.40 9  157 353 
 OCA  HE ES        727 45.84                             128   -0.12 9  157 353 
 OCA  HZ I         727 50.72         7.8 0.14            131            157 353 
 SPBC HN ES        727 46.87                             127   -0.32 9  165 218 
 SPBC HZ I         727 51.69         4.4 0.26            130            165 218 
 YPLC HN ES        727 50.12                             124    0.30 9  180 152 
 ZAR  HZ EP        727 29.50                             121    0.55 9  202 291 
 ZAR  HN ES        727 54.13                             121    0.46 9  202 291 
 ZAR  HZ I         727 59.23         4.8 0.38            123            202 291 
 GUY2CHZ EP   4    727 43.41                             111    2.80 0  302 234 
 GUY2CHN ES        728 14.69                             111    0.27 7  302 234 
 GUY2CHZ I         728 23.17         1.3 0.48                           302 234 
 SJC  HZ EP   9    727 50.47                             104   -1.71 0  406 327 
 SJC  HN ES        728 31.79                             106   -1.52 6  406 327 
                                                                                
