 2010  312 0026 11.4 L   6.798 -73.036143.6  RSN  4 0.3 1.8LRSN                1
 GAP=248        0.70       7.4    13.4  7.6  0.6965E+02 -0.5609E+01  0.6709E+01E
 Epicentro: CEPITA - SANTANDER                                                 3
 ACTION:UP  10-08-24 09:53 OP:vdl  STATUS:               ID:20100312002611 L   I
 2010-03-12-0022-33S.COL___094                                                 6
 STAT SP IPHASW D HRMM SECON CODA AMPLIT PERI AZIMU VELO SNR AR TRES W  DIS CAZ7
 BAR2 SZ ES   2    026 45.23                             168    -0.8 5   28 216 
 BRR  HZ EP        026 32.79                             148    -0.210   82 295 
 BRR  HZ I         026 39.86        14.8 0.28                            82 295 
 BRR  HE ES        026 49.95                             148     0.210   82 295 
 RUS  BZ EP   1    026 35.18                             143     0.3 7  100 183 
 RUS  BN ES   1    026 53.36                             143     0.1 7  100 183 
 RUS  BZ I         026 54.89         4.9 0.41                           100 183 
 PRA  HZ EP   1    027  5.07                             106    -0.4 4  398 211 
 PRA  HE ES   2    027 47.70                             106     0.0 3  398 211 
 PRA  HZ I         027 52.99         2.9 0.28                           398 211 
                                                                                
