 2013  812 0700 33.4 L   6.831 -73.138148.6  RSN  7 0.4 1.5LRSN                1
 GAP=136        1.01       4.2     6.3  7.6  0.3569E+01  0.1255E+02  0.1455E+00E
 Epicentro: LOS SANTOS - SANTANDER                                             3
 ACTION:UPD 14-01-14 09:01 OP:ep   STATUS:               ID:20130812070033 L   I
 OLDACT:UP  13-08-12 12:36 OP:stll STATUS:               ID:20130812065851d    3
 OLDACT:DUP 13-08-12 12:34 OP:stll STATUS:               ID:20130812065851d    3
 2013-08-12-0658-50M.COL___221                                                 6
 STAT SP IPHASW D HRMM SECON CODA AMPLIT PERI AZIMU VELO AIN AR TRES W  DIS CAZ7
 BAR2 SZ EP        7 0 53.50                             169    0.0010 26.9 191 
 BAR2 SZ ES        7 1  9.44                             169    0.3010 26.9 191 
 BAR2 SZ I         7 1 10.18         7.3 0.50            170           26.9 191 
 GIR2 SZ EP        7 0 53.52                             169    0.1410 28.0 347 
 GIR2 SZ ES        7 1  8.93                             169    0.0010 28.0 347 
 GIR2 SZ I         7 1  9.91         3.9 0.24            169           28.0 347 
 BRR  HZ EP        7 0 55.20                             153    0.3410 70.4 296 
 PAM  SZ EP        7 0 56.30                             152    0.5210 74.1  41 
 PAM  SN ES        7 1 13.35                             152    0.1510 74.1  41 
 PAM  SN I         7 1 14.52         8.5 0.56            153           74.1  41 
 RUS  HZ EP        7 0 57.31                             143   -0.4210  104 177 
 RUS  HN ES        7 1 16.25                             143   -0.4110  104 177 
 OCA  HN ES        7 1 22.80                             131   -0.89 9  157 353 
 ZAR  HN ES        7 1 31.60                             123    0.15 9  204 291 
                                                                                
