 2015 1112 0751  6.8 L   6.793 -73.120137.5  RSN 21 0.4 2.1LRSN                1
 GAP=140        0.97       2.5     3.6  4.6 -0.1668E+01  0.6139E+01  0.1485E+01E
 Epicentro: LOS SANTOS - SANTANDER                                             3
 ACTION:UPD 15-12-28 16:10 OP:cam  STATUS:               ID:20151112075106 L   I
 OLDACT:UP  15-11-19 06:51 OP:CARA STATUS:               ID:20151112075106 L   3
 OLDACT:UP  15-11-12 20:47 OP:dnl  STATUS:               ID:20151112074738     3
 OLDACT:REG 15-11-12 13:38 OP:dnl  STATUS:               ID:20151112074738     3
 2015-11-12-0747-38M.COL___319                                                 6
 STAT SP IPHASW D HRMM SECON CODA AMPLIT PERI AZIMU VELO AIN AR TRES W  DIS CAZ7
 BAR2 EZ EP     C  751 25.65                             170    0.2310 23.3 197 
 BAR2 EZ ES        751 39.40                             170   -0.5610 23.3 197 
 BAR2 EZ I         751 41.69        28.8 0.22            167           23.3 197 
 BRR  HZ EP        751 27.45                             150    0.2310 74.1 298 
 BRR  HN ES        751 43.73                             150    0.5710 74.1 298 
 BRR  HZ I         751 47.83        20.4 0.18            147           74.1 298 
 PAM  EZ EP        751 28.34                             150    0.2910 76.2  38 
 PAM  EN ES        751 44.87                             150    0.2310 76.2  38 
 PAM  EZ I         751 47.51        17.3 0.50            155           76.2  38 
 RUS  HZ EP        751 29.40                             142   -0.2710 99.7 178 
 RUS  HN ES        751 47.35                             142   -0.1610 99.7 178 
 RUS  HZ I         751 51.17         8.4 0.46            144           99.7 178 
 OCA  HZ EP        751 34.31                             127   -0.27 9  161 352 
 OCA  HN ES        751 56.31                             127    0.06 9  161 352 
 OCA  HZ I         752  0.12        35.0 0.36            129            161 352 
 SPBC HZ EP        751 34.75                             127   -0.04 9  164 220 
 SPBC HN ES        751 56.51                             127   -0.12 9  164 220 
 SPBC HZ I         752  3.49        18.4 0.40            127            164 220 
 ZAR  HZ EP        751 40.04                             120    1.02 8  207 292 
 ZAR  HN ES        752  3.47                             120   -0.69 8  207 292 
 ZAR  HZ I         752  9.47        10.1 0.13            120            207 292 
 NOR  HZ EP        751 41.91                             116   -0.35 8  237 235 
 NOR  HE ES        752  9.85                             116   -0.08 8  237 235 
 NOR  HZ I         752 13.29        10.5 0.30            117            237 235 
 SML  HZ EP        751 42.10                             115   -1.07 8  246 335 
 SML  HN ES   4    752  9.72                             115   -1.83 0  246 335 
 SML  HZ I         752 15.56        13.6 0.24            117            246 335 
 CHI  HZ EP        751 43.97                             115   -0.08 8  249 196 
 CHI  HN ES        752 13.10                             115   -0.01 8  249 196 
 CHI  HZ I         752 21.08         6.6 0.50            117            249 196 
 ROSC BZ EP   4    751 46.15                             115    1.58 0  254 212 
 ROSC BN ES   4    752 14.46                             115    0.43 0  254 212 
 ROSC BZ I         752 20.29        15.2 0.40            116            254 212 
 HEL  HZ EP        751 47.57                             113    0.68 8  275 256 
 HEL  HN ES        752 17.82                             113   -0.34 8  275 256 
 HEL  HZ I         752 23.95         7.6 0.32            113            275 256 
 URE  HZ EP   4    751 49.98                             112    2.18 0  287 292 
 URE  HN ES   4    752 16.29                             112   -3.50 0  287 292 
 URE  HZ I         752 28.49        10.3 0.18            112            287 292 
 GUY2CHZ EP        751 50.58                             110    0.33 7  303 235 
 GUY2CHE ES   2    752 25.04                             110    0.89 4  303 235 
 GUY2CHZ I         752 32.49         7.9 0.32                           303 235 
 PTGC HZ EP   4    751 48.21                             110   -1.88 0  307 159 
 PTGC HN ES   4    752 22.53                             110   -1.33 0  307 159 
 PTGC HZ I         752 25.10         4.9 0.36            113            307 159 
 CBOC HZ EP        751 53.47                             108   -0.20 7  336 252 
 CBOC HN ES        752 30.08                             108   -0.15 7  336 252 
 CBOC HZ I         752 38.98         2.4 0.54            109            336 252 
 MON  HZ EP   9    751 53.17                             107   -2.63 0  356 308 
 MON  HN ES   1    752 31.33                             107   -0.07 5  356 308 
 MON  HZ I         752 46.48         3.6 0.44            108            356 308 
 PRA  HZ EP        752  0.22                             105    0.09 6  393 210 
 PRA  HN ES        752 42.25                             105    0.52 6  393 210 
 PRA  HZ I         752 45.75         6.4 0.26            106            393 210 
 ORTC HZ EP        752  0.33                             105   -0.24 6  397 217 
 ORTC HE ES        752 43.23                             105    0.71 6  397 217 
 ORTC HZ I         752 50.05         5.8 0.24            106            397 217 
 PAL  HZ EP        752  1.42                             104   -0.51 6  408 239 
 PAL  HN ES   4    752 42.74                             104   -2.21 0  408 239 
 PAL  HZ I         752 49.45         2.1 0.22            105            408 239 
 SJC  HZ EP   4    751 59.91                             104   -2.44 0  411 327 
 SJC  HN ES   4    752 40.73                             104   -4.96 0  411 327 
 SJC  HZ I         752 45.25         3.4 0.44            106            411 327 
                                                                                
