 2010  812 0826 51.6 L   6.785 -73.093142.7  RSN 19 0.5 3.4LRSN                1
 GAP=124        1.16       4.5     5.9  6.6 -0.1025E+02  0.3992E+01  0.8065E+01E
 Epicentro: LOS SANTOS - SANTANDER                                             3
 ACTION:UP  10-09-07 10:54 OP:vdl  STATUS:               ID:20100812082651 L   I
 2010-08-12-0825-18S.COL___127                                                 6
 STAT SP IPHASW D HRMM SECON CODA AMPLIT PERI AZIMU VELO SNR AR TRES W  DIS CAZ7
 BAR2 SZ IP        827 10.86                             170    -0.110   24 205 
 BAR2 SZ ES   1    827 25.39                             170    -0.5 7   24 205 
 BAR2 SZ I         827 26.68       711.3 0.26                            24 205 
 BTL  SZ IP        827 11.00                             170     0.110   24 307 
 GIR2 SZ EP        827 10.94                             166    -0.110   34 341 
 GIR2 SZ ES   2    827 25.58                             166    -0.6 5   34 341 
 BRR  HZ IP     C  827 12.72                             150    -0.110   77 298 
 BRR  HN ES   1    827 29.57                             150     0.2 7   77 298 
 BRR  HZ I         827 32.99       613.2 0.19                            77 298 
 RUS  HZ IP     C  827 14.97                             144     0.010   99 179 
 RUS  HE ES   2    827 33.22                             144     0.1 5   99 179 
 RUS  HZ I         827 35.15       331.5 0.25                            99 179 
 GRA  SZ IP        827 17.72                             136     1.110  126  15 
 GRA  SZ ES   1    827 36.50                             136     0.4 7  126  15 
 GRA  SZ I         827 39.68       271.8 0.20                           126  15 
 OCA  SZ EP        827 19.12                             128    -0.8 9  163 351 
 OCA  SZ I         827 49.19       167.6 0.09                           163 351 
 CHI  HZ EP        827 29.20                             116     0.0 8  249 197 
 CHI  HE ES   2    827 58.14                             116    -0.3 4  249 197 
 ROSC BE ES   2    828  0.53                             116     1.0 4  254 212 
 CVER SZ EP        827 32.63                             114     0.7 8  273 204 
 CVER SZ I         827 34.74        82.6 0.48                           273 204 
 HEL  HZ EP        827 31.97                             113    -0.3 7  277 256 
 HEL  HN ES        828  4.01                                     0.0 7  277 256 
 HEL  HZ I         828  9.28       134.3 0.53                           277 256 
 GUY  SZ EP   1    827 36.33                             111     0.8 5  305 236 
 GUY  SN ES   2    828 10.12                             111     0.3 4  305 236 
 GUY  SZ I         828 18.02       302.5 0.36                           305 236 
 RREF HZ EP        827 38.10                             110     0.1 7  325 230 
 RREF HN ES   2    828 13.96                             110    -0.3 3  325 230 
 RREF HZ I         828 20.02       107.9 0.30                           325 230 
 DBB  SZ EP        827 38.94                             108    -0.7 6  345 274 
 TOL  SZ EP        827 40.58                             108     0.5 6  346 226 
 TOL  SZ ES   2    828 17.25                                    -0.7 3  346 226 
 SDV  BZ EP        827 40.52                             108    -0.7 6  357  49 
 SDV  BZ I         828 22.46        50.9 0.73                           357  49 
 ANIL HZ EP        827 42.18                             108     0.5 6  360 225 
 ANIL HZ I         828 31.18       161.1 0.24                           360 225 
 PRA  HZ EP        827 44.40                             106    -0.8 6  394 210 
 PRA  HE ES   2    828 26.68                             106    -0.4 3  394 210 
 PRA  HZ I         828 30.14        52.7 0.14                           394 210 
 GUA  SZ EP        827 53.83                             103    -0.6 5  472 174 
                                                                                
