 2010  312 0917 37.8 L   6.849 -73.035145.5  RSN  5 0.3 1.7LRSN                1
 GAP=194        0.66       5.1    10.1  8.4  0.2316E+02 -0.2796E+02  0.2813E+01E
 Epicentro: CEPITA - SANTANDER                                                 3
 ACTION:UP  10-08-24 09:53 OP:vdl  STATUS:               ID:20100312091737 L   I
 2010-03-12-0915-59S.COL___094                                                 6
 STAT SP IPHASW D HRMM SECON CODA AMPLIT PERI AZIMU VELO SNR AR TRES W  DIS CAZ7
 BAR2 SZ IP        917 57.76                             167     0.110   33 210 
 BAR2 SZ ES   2    918 12.29                             167    -0.8 5   33 210 
 BRR  HZ EP   2    917 58.82                             150    -0.6 5   80 291 
 BRR  HZ I         918  7.72         9.2 0.40                            80 291 
 BRR  HN ES        918 16.42                             150     0.110   80 291 
 RUS  BZ EP   1    918  1.82                             142    -0.1 7  106 183 
 RUS  BZ I         918  2.89         3.0 0.17                           106 183 
 RUS  BE ES   1    918 20.98                             142     0.3 7  106 183 
 OCA  SZ ES   2    918 27.83                             130     0.3 5  157 348 
 OCA  SZ I         918 35.33         8.4 0.43                           157 348 
 PRA  HZ EP   2    918 32.35                             106    -0.2 3  403 211 
 PRA  HN ES   2    919 15.41                             106     0.1 3  403 211 
 PRA  HZ I         919 20.49         2.3 0.36                           403 211 
                                                                                
