 2013  112 0553  8.1 L   6.443 -73.606107.4  RSN  4 0.2 1.1LRSN                1
 GAP=140        0.64       6.3     3.2  8.5  0.5342E+01  0.6775E+01  0.3532E+02E
 Epicentro: SANTA HELENA DEL OPON - SANTANDER                                  3
 ACTION:UPD 13-02-15 09:13 OP:ep   STATUS:               ID:20130112055308 L   I
 2013-01-12-0550-00M.COL___241                                                 6
 STAT SP IPHASW D HRMM SECON CODA AMPLIT PERI AZIMU VELO AIN AR TRES W  DIS CAZ7
 BAR2 SZ EP        553 23.84                             153   -0.3510 49.7  71 
 BAR2 SZ ISg       553 36.68                             153   -0.1010 49.7  71 
 BAR2 SZ I         553 37.71         5.1 0.58             99           49.7  71 
 BRR  HN ES        553 39.25                             143    0.2310 74.3 351 
 BRR  HN I         553 46.17         2.8 0.44                          74.3 351 
 RUS  HZ EP        553 27.22                             139    0.3410 84.0 136 
 PTB  HZ EP        553 27.04                             135   -0.0710 94.6 277 
 PTB  HN ES        553 41.91                             135   -0.0510 94.6 277 
 PTB  HN I         553 43.35         3.0 0.22                          94.6 277 
                                                                                
