 2012  512 0214  3.3 L   6.732 -73.212141.3  RSN  4 0.4 1.2LRSN                1
 GAP=221        0.72       8.1     9.7  9.6  0.3712E+02  0.2846E+02 -0.8741E+01E
 Epicentro: VILLANUEVA - SANTANDER                                             3
 ACTION:UP  12-07-05 12:04 OP:pat  STATUS:               ID:20120512021403 L   I
 2012-05-12-0210-00M.COL___195                                                 6
 STAT SP IPHASW D HRMM SECON CODA AMPLIT PERI AZIMU VELO SNR AR TRES W  DIS CAZ7
 BAR2 SZ EP   3    214 21.97                             173    -0.3 2   16 168 
 BAR2 SZ ES   2    214 37.31                             173     0.2 5   16 168 
 BRR  HZ EP        214 23.73                             152    -0.210   69 307 
 BRR  HE ES   2    214 40.22                             152     0.3 5   69 307 
 BRR  HZ I         214 48.52         7.7 0.54                            69 307 
 RUS  HZ EP   2    214 27.19                             145     1.0 5   94 171 
 RUS  HN ES   1    214 43.67                             145    -0.3 7   94 171 
 RUS  HZ I         214 45.01         1.6 0.36                            94 171 
 PTB  HZ EP        214 29.12                             133    -0.1 9  139 261 
 PTB  HN ES   2    214 49.54                             133     0.2 5  139 261 
 PTB  HZ I         214 50.93         1.8 0.52                           139 261 
                                                                                
