 2014  312 0656 39.7 L   6.776 -73.162149.6  RSN  6 0.4 1.5LRSN                1
 GAP=136        0.79       4.3     4.1  8.6  0.2044E+01  0.5037E+01 -0.1303E+02E
 Epicentro: LOS SANTOS - SANTANDER                                             3
 OLDACT:REG 14-03-12 07:57 OP:fm   STATUS:               ID:20140312064811     3
 ACTION:UPD 14-04-09 23:16 OP:nd   STATUS:               ID:20140312065639 L   I
 OLDACT:UP  14-03-12 13:12 OP:fm   STATUS:               ID:20140312064811     3
 2014-03-12-0648-11M.COL___232                                                 6
 STAT SP IPHASW D HRMM SECON CODA AMPLIT PERI AZIMU VELO AIN AR TRES W  DIS CAZ7
 BAR2 SZ EP   2    656 59.81                             172    0.11 5 20.5 186 
 BAR2 SZ I         657 21.36        14.8 2.36            167           20.5 186 
 PAM  SZ EP   1    657  2.34                             150   -0.13 7 80.6  39 
 PAM  SE ES   1    657 20.05                             150   -0.22 7 80.6  39 
 PAM  SZ I         657 35.54         2.8 1.88            139           80.6  39 
 RUS  HZ EP        657  3.94                             145    0.3210 98.1 175 
 RUS  SZ I         657 21.59         3.3 1.92            144           98.1 175 
 RUS  HN ES        657 22.47                             145    0.1610 98.1 175 
 PTB  HZ EP   1    657  6.53                             133   -0.21 7  145 260 
 PTB  HN ES        657 27.30                             133   -0.56 9  145 260 
 PTB  SZ I         657 32.61         3.2 0.58            139            145 260 
 ZAR  HE ES        657 38.30                             123    0.56 9  203 293 
 SML  HZ EP        657 16.32                             118   -0.36 8  245 336 
 SML  HN ES   2    657 46.19                             118    0.64 4  245 336 
 SML  SZ I         658  2.57         3.2 1.76            116            245 336 
                                                                                
