 2017 1112 0959  4.9 L   6.801 -73.148149.7  RSN  7 0.5 1.5LRSN                1
 GAP=237        1.22       5.6     7.1  7.7  0.1656E+02  0.8263E+01  0.4979E+01E
 Epicentro: LOS SANTOS - SANTANDER                                             3
 ACTION:UPD 17-12-12 19:54 OP:rebc STATUS:               ID:20171112095904 L   I
 OLDACT:REG 17-11-12 13:14 OP:dnl  STATUS:               ID:20171112094741     3
 2017-11-12-0948-00M.COL___438                                                 6
 STAT SP IPHASW D HRMM SECON CODA AMPLIT PERI AZIMU VELO AIN AR TRES W  DIS CAZ7
 BAR2 EZ EP        959 24.76                             171   -0.2710 23.4 189 
 BAR2 EZ ES        959 40.14                             171   -0.5710 23.4 189 
 BAR2 EZ I         959 41.29        12.7 0.20            165           23.4 189 
 BRR  HZ EP        959 26.86                             153    0.3810 70.9 298 
 BRR  HN ES        959 44.21                             153    0.9110 70.9 298 
 RUS  HZ EP        959 29.45                             145    0.3810  101 176 
 RUS  HN ES        959 47.71                             145   -0.2010  101 176 
 RUS  HZ I         959 48.61         8.2 0.26            142            101 176 
 PTB  HZ EP        959 31.65                             133   -0.55 9  148 259 
 PTB  HN ES        959 52.92                             133   -0.55 9  148 259 
 PTB  HZ I         959 55.74         2.3 0.34            130            148 259 
 SPBC HZ EP        959 33.84                             130    0.12 9  163 219 
 SPBC HN ES        959 56.04                             130   -0.15 9  163 219 
 ZAR  HZ EP        959 37.06                             123   -0.54 9  204 292 
 ZAR  HN ES       10 0  3.40                             123    0.31 9  204 292 
 ZAR  HZ I        10 0  8.92         2.3 0.30            122            204 292 
 CHI  HZ EP        959 42.87                             118    0.02 8  249 195 
 CHI  HE ES       10 0 13.29                             118    0.85 8  249 195 
 CHI  HZ I        10 0 22.05         1.3 0.36            116            249 195 
                                                                                
