 2017 1212 0847 18.0 L   6.830 -73.152148.0  RSN 17 0.8 2.2LRSN                1
 GAP= 65        1.67       3.8     4.4  8.4  0.5035E-01  0.9221E+01 -0.6958E+00E
 Epicentro: LOS SANTOS - SANTANDER                                             3
 ACTION:UPD 18-01-04 13:19 OP:rebc STATUS:               ID:20171212084718 L   I
 OLDACT:UP  17-12-12 16:58 OP:leo  STATUS:               ID:20171212083747d    3
 OLDACT:DUP 17-12-12 16:55 OP:leo  STATUS:               ID:20171212083747d    3
 2017-12-12-0838-00M.COL___455                                                 6
 STAT SP IPHASW D HRMM SECON CODA AMPLIT PERI AZIMU VELO AIN AR TRES W  DIS CAZ7
 BAR2 EZ IP        847 37.94                             169   -0.0310 26.5 187 
 BAR2 EZ ES        847 53.38                             169   -0.1710 26.5 187 
 BAR2 EZ I         847 54.54        36.8 0.18            170           26.5 187 
 PAM  EZ EP        847 40.70                             152    0.3610 75.3  42 
 PAM  EE ES        847 58.04                             152    0.2710 75.3  42 
 PAM  EZ I         848  0.07        26.4 0.50            148           75.3  42 
 PTB  HZ EP        847 44.48                             132   -0.68 9  148 258 
 PTB  HN ES        848  5.82                             132   -0.52 9  148 258 
 PTB  HZ I         848 12.87        11.3 0.42            129            148 258 
 TAM  HZ EP        847 46.38                             131    0.38 9  157 106 
 TAM  HN ES        848  8.51                             131    0.67 9  157 106 
 TAM  HZ I         848  8.86         9.0 0.54            127            157 106 
 OCA  HZ EP        847 46.34                             131    0.16 9  157 353 
 OCA  HE ES        848  8.23                             131    0.07 9  157 353 
 OCA  HZ I         848 12.38        28.6 0.26            126            157 353 
 SPBC HZ EP        847 46.99                             129    0.11 9  165 218 
 SPBC HN ES        848  9.05                             129   -0.35 9  165 218 
 SPBC HZ I         848 15.93        18.5 0.30            126            165 218 
 YPLC HZ EP        847 48.43                             127    0.15 9  180 152 
 YPLC HN ES        848 11.37                             127   -0.52 9  180 152 
 YPLC HZ I         848 14.97        14.9 0.22            123            180 152 
 ZAR  HZ EP        847 50.60                             123    0.19 9  202 291 
 ZAR  HN ES        848 15.86                             123    0.17 9  202 291 
 ZAR  HZ I         848 21.65        49.4 0.90            119            202 291 
 ROSC BZ EP   4    847 58.20                             117    1.68 0  255 211 
 ROSC BN ES   4    848 28.62                             117    2.06 0  255 211 
 ROSC BZ I         848 33.20        10.1 0.35            114            255 211 
 URE  HZ EP   1    847 57.76                             114   -1.22 6  282 291 
 URE  HE ES   1    848 30.37                             114   -0.57 6  282 291 
 URE  HZ I         848 41.00        11.6 0.22            111            282 291 
 DRL03HZ EP        847 59.88                             114    0.53 7  286 353 
 DRL03HN ES        848 33.10                             114    1.50 7  286 353 
 GUY2CHZ EP        848  3.78                             113    1.91 7  303 234 
 GUY2CHN ES        848 36.49                             113    0.40 7  303 234 
 GUY2CHZ I         848 46.28         5.6 0.52                           303 234 
 PTGC HZ EP   1    848  1.24                             112   -1.10 5  312 159 
 PTGC HN ES   1    848 34.74                             112   -2.17 5  312 159 
 PTGC HZ I         848 37.42         9.1 0.28            109            312 159 
 LL6C HZ EP        848  1.34                             111   -2.09 7  322 358 
 LL6C HE ES        848 37.15                             111   -1.71 7  322 358 
 LL6C HZ I         848 48.18         8.5 0.70            107            322 358 
 ELA  HN ES   4    848 46.68                             111    4.78 0  331 229 
 CBOC HZ EP        848  6.41                             110    1.35 7  334 252 
 CBOC HN ES     D  848 42.05                             110    0.29 7  334 252 
 CBOC HZ I         848 59.12         2.3 0.44            107            334 252 
 PRA  HZ EP        848 12.49                             107    0.59 6  395 209 
 PRA  HN ES        848 54.04                             107    0.11 6  395 209 
 PRA  HZ I         848 58.06         4.1 0.24            104            395 209 
 SJC  HZ EP   1    848 12.15                             106   -1.13 4  406 327 
 SJC  HN ES        848 56.28                             106   -0.11 6  406 327 
 SJC  HZ I         848 58.94         2.6 0.42            103            406 327 
                                                                                
