 2012  512 0515 54.7 L   6.655 -73.649102.9  RSN  4 0.1 1.0LRSN                1
 GAP=119        0.39       3.3     2.5  4.9  0.2379E+01  0.1311E+01  0.7135E+01E
 Epicentro: EL CARMEN DE CHUCURI - SANTANDER                                   3
 ACTION:UP  12-07-05 12:04 OP:pat  STATUS:               ID:20120512051554 L   I
 2012-05-12-0510-00M.COL___195                                                 6
 STAT SP IPHASW D HRMM SECON CODA AMPLIT PERI AZIMU VELO SNR AR TRES W  DIS CAZ7
 BRR  HZ EP        516  9.97                             152    -0.110   51 352 
 BRR  HZ I         516 10.07         5.2 0.32                            51 352 
 BRR  HE ES   1    516 22.22                             152     0.2 7   51 352 
 BAR2 SZ ES   2    516 22.59                             151    -0.2 5   52  98 
 PTB  HZ EP        516 12.98                             135     0.010   90 262 
 PTB  HN ES   1    516 27.25                             135     0.0 7   90 262 
 PTB  HZ I         516 32.55         1.5 0.20                            90 262 
 RUS  HZ EP        516 15.09                             131     0.110  105 143 
 RUS  HN ES   2    516 30.68                             131    -0.1 5  105 143 
 RUS  HZ I         516 32.13         2.1 0.56                           105 143 
                                                                                
