 2016  412 0700 52.8 L   6.793 -73.145148.2  RSN 10 0.4 1.9LRSN                1
 GAP=137        0.89       2.8     3.7  5.3 -0.2157E+01  0.6254E+01 -0.9702E-01E
 Epicentro: LOS SANTOS - SANTANDER                                             3
 ACTION:UPD 16-05-05 14:20 OP:rebc STATUS:               ID:20160412070052 L   I
 OLDACT:UP  16-04-12 17:52 OP:mh   STATUS:               ID:20160412065744     3
 OLDACT:UP  16-04-12 17:51 OP:mh   STATUS:               ID:20160412065744     3
 OLDACT:REG 16-04-12 12:38 OP:mh   STATUS:               ID:20160412065744     3
 2016-04-12-0657-44M.COL___307                                                 6
 STAT SP IPHASW D HRMM SECON CODA AMPLIT PERI AZIMU VELO AIN AR TRES W  DIS CAZ7
 BAR2 EZ EP        7 1 12.82                             171    0.1010 22.6 191 
 BAR2 EZ ES        7 1 28.13                             171   -0.1210 22.6 191 
 BAR2 EZ I         7 1 30.21        12.8 0.40            172           22.6 191 
 PAM  EZ EP        7 1 15.63                             151    0.3210 77.9  39 
 PAM  EN ES        7 1 32.74                             151   -0.1310 77.9  39 
 PAM  EZ I         7 1 35.03        10.8 0.61            153           77.9  39 
 RUS  HZ EP        7 1 16.62                             144   -0.1310 99.8 176 
 RUS  HN ES        7 1 35.35                             144   -0.0710 99.8 176 
 RUS  HZ I         7 1 36.66         5.1 0.18            147           99.8 176 
 PTB  HZ EP        7 1 19.66                             132   -0.31 9  148 259 
 PTB  HN ES        7 1 40.89                             132   -0.27 9  148 259 
 OCA  HZ EP        7 1 21.05                             130   -0.33 9  161 353 
 OCA  HN ES   1    7 1 43.96                             130    0.30 7  161 353 
 OCA  HZ I         7 1 48.32        24.3 0.38            131            161 353 
 SPBC HZ EP        7 1 21.73                             130    0.28 9  163 219 
 SPBC HN ES        7 1 43.82                             130    0.03 9  163 219 
 SPBC HZ I         7 1 47.50        15.9 0.28            131            163 219 
 ZAR  HZ EP        7 1 25.40                             123   -0.05 9  204 292 
 ZAR  HN ES        7 1 51.35                             123    0.44 9  204 292 
 ZAR  HZ I         7 1 56.17         9.2 0.38            124            204 292 
 NOR  HZ EP        7 1 29.56                             119    0.92 8  234 235 
 NOR  HN ES        7 1 56.25                             119   -0.34 8  234 235 
 CHI  HZ EP        7 1 30.06                             118   -0.51 8  248 195 
 CHI  HN ES        7 2  0.61                             118    0.59 8  248 195 
 CHI  HZ I         7 2  4.29         2.3 0.46            120            248 195 
 URE  HN ES   4    7 2  7.39                             114    1.19 0  284 292 
 GUY2CHZ EP   1    7 1 35.45                             113   -1.04 5  301 235 
 GUY2CHN ES   4    7 2 11.69                             113    1.13 0  301 235 
 PTLC HZ EP   4    7 1 26.96                              97   -67.2 0  792 193 
 PTLC HE ES   4    7 2 27.21                              97   -86.1 0  792 193 
                                                                                
