 2013 1212 0554 44.9 L   6.844 -73.153149.1  RSN  7 0.4 1.5LRSN                1
 GAP=193        0.80       3.2     5.4  6.2 -0.2945E+00  0.5971E+01 -0.3177E+01E
 Epicentro: LOS SANTOS - SANTANDER                                             3
 ACTION:UPD 14-01-13 10:17 OP:ep   STATUS:               ID:20131212055444 L   I
 OLDACT:DUP 13-12-12 10:41 OP:jn   STATUS:               ID:20131212055001d    3
 OLDACT:REG 13-12-12 07:07 OP:jn   STATUS:               ID:20131212055000     3
 2013-12-12-0550-00M.COL___285                                                 6
 STAT SP IPHASW D HRMM SECON CODA AMPLIT PERI AZIMU VELO AIN AR TRES W  DIS CAZ7
 BAR2 SZ EP        555  4.99                             169   -0.0010 28.0 187 
 BAR2 SZ ES        555 20.62                             169   -0.0810 28.0 187 
 BAR2 SZ I         555 21.11         5.8 0.20            172           28.0 187 
 BRR  HN ES   1    555 23.28                             154    0.41 7 68.3 295 
 BRR  HZ I         555 27.32         4.9 0.50            154           68.3 295 
 PTB  HZ EP        555 11.99                             133   -0.13 9  148 257 
 PTB  HN ES   1    555 32.54                             133   -0.85 7  148 257 
 PTB  HZ I         555 35.08         3.2 0.36            135            148 257 
 OCA  HE ES   1    555 35.06                             131    0.15 7  155 353 
 OCA  HZ I         555 40.14         5.7 0.52            133            155 353 
 SPBC HZ EP        555 14.36                             129    0.43 9  166 218 
 SPBC HN ES        555 36.51                             129   -0.09 9  166 218 
 SPBC HZ I         555 38.77         3.8 0.16            132            166 218 
 ZAR  HN ES        555 43.06                             123    0.51 9  202 291 
 SML  HZ EP        555 20.94                             119   -0.23 8  239 335 
 SML  HN ES        555 49.17                             119   -0.32 8  239 335 
                                                                                
