 2017 1112 0010 25.3 L   6.794 -73.173145.5  RSN  8 0.5 1.6LRSN                1
 GAP=181        1.17       4.6     6.2  6.8  0.8472E+01  0.2068E+01 -0.1725E+01E
 Epicentro: LOS SANTOS - SANTANDER                                             3
 ACTION:UPD 17-12-12 19:54 OP:rebc STATUS:               ID:20171112001025 L   I
 OLDACT:DUP 17-11-12 13:13 OP:leo  STATUS:               ID:20171112000001d    3
 OLDACT:REG 17-11-12 12:58 OP:dnl  STATUS:               ID:20171112000000     3
 2017-11-12-0000-15M.COL___456                                                 6
 STAT SP IPHASW D HRMM SECON CODA AMPLIT PERI AZIMU VELO AIN AR TRES W  DIS CAZ7
 BAR2 EZ EP        010 44.37                             171   -0.4710 22.3 183 
 BAR2 EZ ES        010 59.93                             171   -0.1910 22.3 183 
 BAR2 EZ I         011  0.44        11.0 0.30            170           22.3 183 
 BRR  HZ EP        010 46.15                             153   -0.1110 68.9 300 
 BRR  HN ES        011  3.41                             153    0.7810 68.9 300 
 BRR  HZ I         011  9.81         8.4 0.46            152           68.9 300 
 RUS  HZ EP        010 48.67                             144   -0.2910  100 174 
 RUS  HE ES        011  7.42                             144   -0.0210  100 174 
 PTB  HZ EP        010 51.78                             133   -0.15 9  145 259 
 PTB  HN ES        011 11.68                             133   -1.06 9  145 259 
 PTB  HZ I         011 13.69         3.2 0.48            133            145 259 
 SPBC HZ EP        010 53.62                             129    0.10 9  161 218 
 SPBC HN ES        011 16.26                             129    0.71 9  161 218 
 SPBC HZ I         011 21.60         4.7 0.20            130            161 218 
 ZAR  HZ EP        010 57.48                             123    0.05 9  202 293 
 ZAR  HN ES        011 22.56                             123    0.03 9  202 293 
 ZAR  HZ I         011 24.71         4.0 0.28            124            202 293 
 CHI  HZ EP        011  2.74                             117   -0.06 8  247 195 
 CHI  HN ES        011 32.62                             117    0.55 8  247 195 
 CHI  HZ I         011 34.31         2.6 0.38            119            247 195 
 DRL03HZ EP        011  7.50                             113    0.61 7  289 353 
                                                                                
