 2017 1212 0203 23.5 L   6.757 -73.136138.7  RSN  8 0.4 1.6LRSN                1
 GAP=114        0.86       3.4     3.4  6.5 -0.8225E+00  0.8716E+01  0.1574E+01E
 Epicentro: LOS SANTOS - SANTANDER                                             3
 ACTION:UPD 18-01-04 13:19 OP:rebc STATUS:               ID:20171212020323 L   I
 OLDACT:UP  17-12-12 14:07 OP:edw  STATUS:               ID:20171212015749     3
 OLDACT:UP  17-12-12 14:07 OP:edw  STATUS:               ID:20171212015749     3
 OLDACT:REG 17-12-12 13:15 OP:edw  STATUS:               ID:20171212015749     3
 2017-12-12-0158-00M.COL___473                                                 6
 STAT SP IPHASW D HRMM SECON CODA AMPLIT PERI AZIMU VELO AIN AR TRES W  DIS CAZ7
 BAR2 EZ EP        2 3 42.17                             172    0.0110 18.9 196 
 BAR2 EZ ES        2 3 56.94                             172    0.2010 18.9 196 
 BAR2 EZ I         2 3 59.13         9.4 0.28            171           18.9 196 
 PAM  EZ EP        2 3 45.26                             148    0.1310 80.5  37 
 PAM  EN ES        2 4  2.03                             148    0.0010 80.5  37 
 PAM  EZ I         2 4  4.45         5.4 0.40            152           80.5  37 
 PTB  HZ EP        2 3 49.11                             130   -0.77 9  148 261 
 PTB  HE ES        2 4 10.15                             130   -0.33 9  148 261 
 PTB  HZ I         2 4 12.23         3.5 0.12            131            148 261 
 SPBC HZ EP        2 3 51.28                             128    0.14 9  160 220 
 SPBC HN ES        2 4 12.39                             128   -0.33 9  160 220 
 SPBC HZ I         2 4 17.74         4.1 0.24            130            160 220 
 OCA  HN ES   2    2 4 13.03                             127   -0.70 5  165 353 
 YPLC HZ EP   4    2 3 49.94                             126   -2.35 0  172 151 
 YPLC HN ES        2 4 14.81                             126    0.04 9  172 151 
 YPLC HZ I         2 4 17.06         4.7 0.30            129            172 151 
 ZAR  HZ EP        2 3 56.15                             120    0.40 8  207 293 
 ZAR  HE ES        2 4 21.35                             120    0.42 8  207 293 
 ZAR  HZ I         2 4 29.16         6.4 0.24            122            207 293 
 GUY2CHZ EP   4    2 4  8.46                             111    1.92 0  299 236 
 GUY2CHN ES        2 4 40.70                             111    0.56 7  299 236 
 GUY2CHZ I         2 4 47.49         2.0 0.32                           299 236 
                                                                                
