 2010  612 0956  4.5 L   6.808 -73.126142.1  RSN 10 0.5 2.1LRSN                1
 GAP=157        1.04       3.9     8.5  8.5 -0.1494E+02  0.2360E+02 -0.2281E+01E
 Epicentro: LOS SANTOS - SANTANDER                                             3
 ACTION:UP  10-08-24 10:09 OP:vdl  STATUS:               ID:20100612095604 L   I
 2010-06-12-0954-16S.COL___117                                                 6
 STAT SP IPHASW D HRMM SECON CODA AMPLIT PERI AZIMU VELO SNR AR TRES W  DIS CAZ7
 BAR2 SZ IP        956 23.64                             170    -0.110   25 195 
 BAR2 SZ ES   1    956 38.62                             170    -0.1 7   25 195 
 GIR2 SZ EP   1    956 24.75                             167     1.0 7   31 346 
 RUS  HZ IP     D  956 27.53                             143    -0.510  101 177 
 RUS  HN ES   1    956 46.36                             143     0.1 7  101 177 
 RUS  HZ I         956 47.53         9.4 0.34                           101 177 
 BRI  SZ EP        956 28.15                             141     0.210  107  20 
 BRI  SZ ES   1    956 45.57                             141    -0.7 7  107  20 
 GUE  SZ EP        956 28.63                             139    -0.210  115  11 
 GRA  SZ IP        956 29.39                             136     0.010  124  17 
 GRA  SZ ES   1    956 49.09                             136     0.4 7  124  17 
 OCA  SZ EP   1    956 32.01                             129    -0.5 7  160 352 
 OCA  SZ ES   1    956 54.73                             129     0.4 7  160 352 
 OCA  SZ I         956 59.83        23.5 0.30                           160 352 
 CHI  HZ EP   1    956 41.69                             116    -0.5 6  250 196 
 CHI  HN ES   1    957 12.00                             116     0.4 6  250 196 
 CHI  HZ I         957 14.69         5.2 0.52                           250 196 
 ROSC BZ EP   1    956 43.63                             116     1.0 6  255 211 
 ROSC BZ I         957 18.15        10.6 0.21                           255 211 
 HEL  HZ EP   1    956 45.04                             114     0.2 6  274 256 
 HEL  HE ES   1    957 15.82                             114    -0.4 6  274 256 
 HEL  HZ I         957 22.85        10.9 0.30                           274 256 
                                                                                
