 2013  712 0305  4.2 L   6.700 -73.190144.9  RSN  4 0.4 1.1LRSN                1
 GAP=224        0.79       6.2     6.0  7.4  0.1886E+02 -0.7041E+00 -0.1326E+01E
 Epicentro: VILLANUEVA - SANTANDER                                             3
 ACTION:UPD 13-08-12 10:37 OP:ep   STATUS:               ID:20130712030504 L   I
 OLDACT:REG 13-07-12 08:29 OP:nd   STATUS:               ID:20130712025959     3
 2013-07-12-0259-59M.COL___266                                                 6
 STAT SP IPHASW D HRMM SECON CODA AMPLIT PERI AZIMU VELO AIN AR TRES W  DIS CAZ7
 BAR2 SZ EP        3 5 23.40                             175   -0.1610 12.0 176 
 BAR2 SZ ES   2    3 5 37.61                             175   -1.04 5 12.0 176 
 BAR2 SZ I         3 5 41.02         3.1 0.54            175           12.0 176 
 BRR  HZ EP        3 5 25.31                             152   -0.0610 73.1 308 
 BRR  HN ES        3 5 42.34                             152    0.4610 73.1 308 
 BRR  HZ I         3 6  1.48         4.4 0.46            157           73.1 308 
 RUS  HZ EP        3 5 27.40                             147    0.2610 90.1 172 
 RUS  HN ES        3 5 45.18                             147    0.1510 90.1 172 
 RUS  HZ I         3 5 56.14         1.1 0.42            161           90.1 172 
 PTB  HZ EP        3 5 30.28                             134   -0.23 9  141 263 
 PTB  HN ES        3 5 50.82                             134   -0.20 9  141 263 
 PTB  HZ I         3 5 53.10         1.7 0.40            146            141 263 
                                                                                
