 2016  512 0040 15.6 L   6.796 -73.155144.0  RSN 12 0.4 2.1LRSN                1
 GAP=119        0.98       3.4     4.1  5.6 -0.7116E+00  0.5056E+01  0.5998E+01E
 Epicentro: LOS SANTOS - SANTANDER                                             3
 ACTION:UPD 16-08-18 17:45 OP:cam  STATUS:               ID:20160512004015 L   I
 OLDACT:UP  16-05-15 07:33 OP:ar   STATUS:               ID:20160512004015 L   3
 OLDACT:UP  16-05-12 13:12 OP:drio STATUS:               ID:20160512003745     3
 OLDACT:UP  16-05-12 13:12 OP:drio STATUS:               ID:20160512003745     3
 OLDACT:REG 16-05-12 12:09 OP:drio STATUS:               ID:20160512003745     3
 2016-05-12-0037-45M.COL___313                                                 6
 STAT SP IPHASW D HRMM SECON CODA AMPLIT PERI AZIMU VELO AIN AR TRES W  DIS CAZ7
 BAR2 EZ EP        040 34.69                             171   -0.3110 22.7 188 
 BAR2 EZ ES        040 49.51                             171   -0.6310 22.7 188 
 BAR2 EZ I         040 51.55        37.3 0.20            169           22.7 188 
 BRR  HZ EP        040 36.66                             152    0.1510 70.5 299 
 BRR  HE ES        040 53.86                             152    1.0310 70.5 299 
 BRR  HZ I         040 57.62        31.5 0.46            150           70.5 299 
 PAM  EZ EP        040 37.75                             150    0.0610 78.4  40 
 PAM  EN ES        040 55.02                             150    0.1110 78.4  40 
 PAM  EZ I         040 57.03        35.3 0.50            155           78.4  40 
 RUS  HZ EP        040 38.89                             144   -0.2610  100 175 
 RUS  HE ES        040 57.77                             144    0.2610  100 175 
 RUS  HZ I         040 58.59         9.6 0.28            145            100 175 
 PTB  HZ EP        040 41.76                             132   -0.56 9  147 259 
 PTB  HE ES        041  2.81                             132   -0.35 9  147 259 
 PTB  HZ I         041  8.28        10.9 0.40            131            147 259 
 SPBC HZ EP        040 43.85                             129   -0.01 9  162 219 
 SPBC HE ES        041  5.75                             129   -0.16 9  162 219 
 SPBC HZ I         041 10.26        17.0 0.72            129            162 219 
 ZAR  HZ EP   4    040 49.13                             122    1.29 0  203 292 
 ZAR  HE ES        041 12.72                             122   -0.28 9  203 292 
 ZAR  HZ I         041 18.94        13.9 0.28            123            203 292 
 CHI  HZ EP        040 53.39                             117    0.27 8  248 195 
 CHI  HN ES        041 22.59                             117    0.20 8  248 195 
 CHI  HZ I         041 25.80         8.3 0.48            118            248 195 
 PTGC HZ EP   9    040 57.94                             111   -1.43 0  309 158 
 PTGC HN ES        041 31.95                             111   -0.13 7  309 158 
 PRA  HZ EP        041  9.30                             106    0.35 6  391 209 
 PRA  HN ES        041 50.66                             106    0.10 6  391 209 
 PRA  HZ I         041 56.08         6.1 0.30            108            391 209 
 ORTC HZ EP        041  9.32                             106   -0.02 6  394 216 
 ORTC HE ES        041 52.11                             106    0.85 6  394 216 
 ORTC HZ I         041 56.23         4.2 0.26            107            394 216 
 SJC  HZ EP   4    041  9.14                             105   -1.94 0  409 327 
 SJC  HN ES   4    041 50.91                             105   -3.44 0  409 327 
 SJC  HZ I         041 54.51         2.4 0.68            107            409 327 
                                                                                
