 2016 1212 0513  6.9 L   6.272 -73.664116.0  RSN  5 0.3 1.4LRSN                1
 GAP=166        0.84       5.2     4.2  7.1  0.9338E+01  0.1027E+02  0.4093E+01E
 Epicentro: SANTA HELENA DEL OPON - SANTANDER                                  3
 ACTION:UPD 17-01-11 20:14 OP:rebc STATUS:               ID:20161212051307 L   I
 OLDACT:REG 16-12-12 12:11 OP:edw  STATUS:               ID:20161212050740     3
 2016-12-12-0508-00M.COL___389                                                 6
 STAT SP IPHASW D HRMM SECON CODA AMPLIT PERI AZIMU VELO AIN AR TRES W  DIS CAZ7
 BAR2 EZ EP        513 25.01                             149    0.2510 63.9  56 
 BAR2 EZ ES        513 38.45                             149   -0.2610 63.9  56 
 BAR2 EZ I         513 39.57        10.5 0.30            148           63.9  56 
 RUS  HZ EP        513 26.20                             145    0.2210 76.8 123 
 RUS  HN ES        513 40.65                             145   -0.2310 76.8 123 
 RUS  HZ I         513 42.96         5.2 0.26            153           76.8 123 
 PTB  HZ EP        513 26.84                             139    0.3410 92.5 289 
 PTB  HN ES        513 41.78                             139   -0.0410 92.5 289 
 PTB  HZ I         513 44.43         4.3 0.42            139           92.5 289 
 BRR  HZ EP        513 26.58                             139    0.1010 92.5 357 
 BRR  HE ES        513 41.99                             139    0.2210 92.5 357 
 BRR  HZ I         513 53.02         4.1 0.82            136           92.5 357 
 ZAR  HZ EP        513 35.11                             117   -0.78 9  189 316 
 ZAR  HN ES   4    514  0.79                             117    2.27 0  189 316 
 ZAR  HZ I         514  6.06         2.6 0.14            119            189 316 
                                                                                
