 2011 1012 0450 14.5 L   6.739 -73.102142.7  RSN 10 0.3 1.8LRSN                1
 GAP=145        0.53       2.3     3.1  3.9 -0.1744E+01  0.3541E+01  0.1356E+01E
 Epicentro: JORDAN - SANTANDER                                                 3
 ACTION:UPD 12-07-13 16:03 OP:ep   STATUS:               ID:20111012045014 L   I
 2011-10-12-0440-00M.COL___171                                                 6
 STAT SP IPHASW D HRMM SECON CODA AMPLIT PERI AZIMU VELO AIN AR TRES W  DIS CAZ7
 BAR2 SZ EP        450 33.59                             172   -0.0710 18.5 209 
 BAR2 SZ ES   1    450 48.47                             172   -0.15 7 18.5 209 
 BAR2 SZ I         450 50.35        13.2 0.31                          18.5 209 
 BRR  HZ EP        450 35.50                             149   -0.2610 78.7 301 
 BRR  HE ES   1    450 52.57                             149    0.22 7 78.7 301 
 BRR  HZ I         450 55.24        19.3 0.08                          78.7 301 
 PAM  SZ EP   1    450 36.43                             149   -0.11 7 79.9  34 
 PAM  SN ES   1    450 53.43                             149   -0.31 7 79.9  34 
 RUS  HZ EP        450 37.40                             145   -0.0410 93.6 179 
 RUS  HN ES   1    450 55.84                             145    0.50 7 93.6 179 
 RUS  HZ I         450 57.53         5.0 0.21                          93.6 179 
 OCA  SZ EP   1    450 43.58                             128    0.31 7  168 352 
 OCA  SZ ES   1    451  5.99                             128    0.27 7  168 352 
 OCA  SZ I         451 10.96         9.7 0.22                           168 352 
 NOR  SZ EP   2    450 49.27                             118   -0.79 4  235 236 
 NOR  SN ES        451 17.80                             118    0.00 8  235 236 
 CHI  HZ EP   1    450 51.71                             117    0.25 6  243 197 
 CHI  HN ES   2    451 19.83                             117   -0.46 4  243 197 
 CHI  HZ I         451 26.94         3.6 0.35                           243 197 
 HEL  HZ EP   1    450 55.26                             114    0.36 6  275 257 
 HEL  HN ES   1    451 26.22                             114   -0.19 6  275 257 
 HEL  HZ I         451 32.21         4.0 0.37                           275 257 
 RREF HZ EP   1    451  0.70                             110    0.27 5  321 231 
 RREF HZ I         451 43.26         5.1 0.24                           321 231 
 PRA  HZ EP   1    451  7.58                             106    0.07 4  389 211 
                                                                                
