 2012  612 0254 14.5 L   5.820 -73.842113.2  RSN 11 0.4 2.2LRSN                1
 GAP= 90        0.76       2.4     2.7  7.0 -0.5148E+00  0.4918E+01  0.1045E+01E
 Epicentro: JESUS MARIA - SANTANDER                                            3
 ACTION:UPD 12-08-06 17:48 OP:ep   STATUS:               ID:20120612025414 L   I
 2012-06-12-0250-00M.COL___201                                                 6
 STAT SP IPHASW D HRMM SECON CODA AMPLIT PERI AZIMU VELO AIN AR TRES W  DIS CAZ7
 RUS  HZ IP        254 34.05                             141    0.1110 84.5  84 
 RUS  HE ES   1    254 48.67                             141   -0.41 7 84.5  84 
 RUS  HZ I         254 50.20        50.7 0.24            145           84.5  84 
 PTB  HZ IP     C  254 34.11                             134   -0.8410  105 320 
 PTB  HE ES   2    254 50.60                             134   -0.28 5  105 320 
 PTB  HZ I         254 53.19        47.3 0.21            137            105 320 
 BAR2 SZ IP        254 36.30                             132    0.3510  112  40 
 BAR2 SZ ES   1    254 53.08                             132    0.44 7  112  40 
 NOR  SZ EP        254 36.06                             130   -0.0810  117 256 
 NOR  SE ES   1    254 53.70                             130    0.71 7  117 256 
 NOR  SZ I         254 54.88        13.5 0.24            133            117 256 
 CHI  HZ EP   1    254 38.20                             127    0.16 7  132 175 
 CHI  HE ES   1    254 56.09                             127   -0.29 7  132 175 
 CHI  HZ I         254 59.38        23.4 0.31            130            132 175 
 VIL  SZ EP   1    254 43.27                             116   -0.38 7  190 175 
 VIL  SN ES   1    255  6.48                             116    0.12 7  190 175 
 VIL  SZ I         255  9.63        18.3 0.45            119            190 175 
 HEL  HZ EP   1    254 44.37                             116    0.24 7  191 282 
 HEL  HN ES   1    255  7.26                             116    0.04 7  191 282 
 HEL  HZ I         255  8.40        31.2 0.34            119            191 282 
 PAM  SZ EP   1    254 46.69                             114    0.29 6  210  37 
 PAM  SE ES   2    255 11.20                             114   -0.06 4  210  37 
 TOL  SZ EP   1    254 46.98                             113    0.44 6  213 230 
 ZAR  HZ EP   1    254 46.43                             113   -0.05 6  216 329 
 ZAR  HE ES   1    255 11.35                             113   -0.04 6  216 329 
 ZAR  HZ I         255 16.07        22.7 0.36            116            216 329 
 PRA  HZ EP   1    254 51.46                             108   -0.05 6  260 206 
 PRA  HE ES   1    255 20.24                             108   -0.11 6  260 206 
                                                                                
