 2016  412 0503 23.2 L   6.807 -73.170139.9  RSN  7 0.4 1.6LRSN                1
 GAP=133        0.89       3.3     3.9  6.2 -0.2292E+01  0.8195E+01 -0.2249E+01E
 Epicentro: LOS SANTOS - SANTANDER                                             3
 ACTION:UPD 16-05-05 14:20 OP:rebc STATUS:               ID:20160412050323 L   I
 OLDACT:UP  16-04-12 17:16 OP:mh   STATUS:               ID:20160412045745     3
 OLDACT:REG 16-04-12 12:35 OP:mh   STATUS:               ID:20160412045745     3
 2016-04-12-0457-45M.COL___319                                                 6
 STAT SP IPHASW D HRMM SECON CODA AMPLIT PERI AZIMU VELO AIN AR TRES W  DIS CAZ7
 BAR2 EZ EP        5 3 42.23                             170    0.0710 23.8 183 
 BAR2 EZ ES        5 3 56.61                             170   -0.3210 23.8 183 
 BAR2 EZ I         5 3 58.56        10.8 0.16            170           23.8 183 
 PAM  EZ EP        5 3 45.06                             149    0.1710 78.5  41 
 PAM  EN ES        5 4  2.17                             149    0.3810 78.5  41 
 PAM  EZ I         5 4  4.05         8.3 0.56            155           78.5  41 
 RUS  HZ EP        5 3 46.19                             142   -0.2910  102 175 
 RUS  HN ES   1    5 4  4.80                             142    0.19 7  102 175 
 RUS  HZ I         5 4  5.91         2.1 0.36            147            102 175 
 PTB  HZ EP        5 3 48.89                             131   -0.60 9  145 258 
 PTB  HN ES        5 4 10.15                             131    0.16 9  145 258 
 PTB  HZ I         5 4 17.01         4.7 0.46            132            145 258 
 OCA  HZ EP        5 3 50.52                             128   -0.46 9  159 354 
 OCA  HN ES        5 4 12.48                             128   -0.16 9  159 354 
 OCA  HZ I         5 4 17.27         7.9 0.18            131            159 354 
 SPBC HZ EP        5 3 51.51                             128    0.33 9  162 218 
 SPBC HN ES   1    5 4 12.98                             128   -0.00 7  162 218 
 SPBC HZ I         5 4 18.94         3.9 0.24            130            162 218 
 ZAR  HZ EP        5 3 55.79                             121    0.78 9  201 292 
 ZAR  HN ES        5 4 19.73                             121   -0.07 9  201 292 
 ZAR  HZ I         5 4 25.95         4.6 0.30            123            201 292 
                                                                                
