 2015  612 0837  5.5 L   6.852 -73.145141.3  RSN  6 0.5 1.6LRSN                1
 GAP=195        1.16       6.9     8.0  9.2  0.1119E+02  0.3828E+01 -0.2795E+02E
 Epicentro: LOS SANTOS - SANTANDER                                             3
 ACTION:UPD 15-09-10 22:11 OP:cam  STATUS:               ID:20150612083705 L   I
 OLDACT:UP  15-06-18 07:46 OP:AK   STATUS:               ID:20150612083705 L   3
 OLDACT:REG 15-06-12 13:58 OP:ak\  STATUS:               ID:20150612082749     3
 2015-06-12-0827-49M.COL___294                                                 6
 STAT SP IPHASW D HRMM SECON CODA AMPLIT PERI AZIMU VELO AIN AR TRES W  DIS CAZ7
 BAR2 EZ EP        837 24.36                             168   -0.3310 29.0 188 
 BAR2 EZ ES        837 39.43                             168   -0.2610 29.0 188 
 BAR2 EZ I         837 41.08         7.1 0.18            172           29.0 188 
 BRR  HZ EP        837 26.26                             152    0.2610 68.7 294 
 BRR  HN ES        837 42.68                             152    0.6710 68.7 294 
 BRR  HZ I         837 47.16         7.6 0.48            151           68.7 294 
 OCA  HZ EP        837 33.32                             130    0.42 9  155 353 
 OCA  HN ES        837 53.76                             130   -0.53 9  155 353 
 OCA  HZ I         837 59.91         5.4 0.14            131            155 353 
 ZAR  HZ EP   1    837 38.23                             122    0.81 6  202 291 
 ZAR  HN ES        838  1.75                             122   -0.59 9  202 291 
 ZAR  HZ I         838  8.46         3.3 0.28            124            202 291 
 SML  HZ EP        837 40.93                             117   -0.36 8  239 335 
 SML  HN ES   1    838  9.98                             117    0.76 6  239 335 
 SML  HZ I         838 11.60         5.1 0.06            119            239 335 
 MON  HZ EP   4    837 51.46                             108   -2.44 0  350 308 
 MON  HN ES   1    838 30.83                             108   -0.85 5  350 308 
 MON  HZ I         838 31.91         0.6 0.42            110            350 308 
 SJC  HZ EP   4    837 59.17                             105   -1.16 0  404 326 
 SJC  HN ES   4    838 40.05                             105   -3.07 0  404 326 
                                                                                
