 2017  512 0312 32.0 L   6.789 -73.139152.0  RSN  6 0.3 1.6LRSN                1
 GAP=237        0.68       3.9     5.7  5.7  0.1207E+02  0.2482E+01 -0.9754E+00E
 Epicentro: LOS SANTOS - SANTANDER                                             3
 ACTION:UPD 17-06-16 13:35 OP:jn   STATUS:               ID:20170512031232 L   I
 OLDACT:REG 17-05-12 12:44 OP:osc  STATUS:               ID:20170512030735     3
 2017-05-12-0308-00M.COL___362                                                 6
 STAT SP IPHASW D HRMM SECON CODA AMPLIT PERI AZIMU VELO AIN AR TRES W  DIS CAZ7
 BRR  HZ EP        312 53.93                             153    0.0710 72.5 299 
 BRR  HE ES        313 11.23                             153    0.2910 72.5 299 
 BRR  HZ I         313 18.68         6.9 0.66            152           72.5 299 
 RUS  HZ EP        312 56.09                             145   -0.1510 99.3 176 
 RUS  HN ES        313 14.95                             145   -0.2310 99.3 176 
 RUS  HZ I         313 16.26         4.7 0.58            152           99.3 176 
 PTB  HZ EP        312 59.21                             133   -0.28 9  148 259 
 PTB  HN ES   4    313 19.97                             133   -1.00 0  148 259 
 PTB  HZ I         313 26.13         3.5 0.30            136            148 259 
 SPBC HZ EP        313  1.32                             131    0.42 9  163 219 
 SPBC HN ES        313 23.65                             131    0.17 9  163 219 
 ZAR  HZ EP        313  5.13                             124    0.19 8  205 292 
 ZAR  HE ES        313 30.20                             124   -0.47 8  205 292 
 ZAR  HZ I         313 35.23         4.4 0.28            126            205 292 
 CHI  HN ES   2    313 39.42                             118   -0.08 4  248 195 
                                                                                
