 2017  812 0305 58.8 L   6.695 -73.245144.0  RSN  4 0.3 1.3LRSN                1
 GAP=197        0.81       4.6     6.9  6.5  0.4826E+01  0.6558E+01  0.4927E+01E
 Epicentro: BARICHARA - SANTANDER                                              3
 ACTION:UPD 17-09-04 20:19 OP:rebc STATUS:               ID:20170812030558 L   I
 OLDACT:REG 17-08-12 12:21 OP:dhb  STATUS:               ID:20170812025745     3
 2017-08-12-0258-00M.COL___417                                                 6
 STAT SP IPHASW D HRMM SECON CODA AMPLIT PERI AZIMU VELO AIN AR TRES W  DIS CAZ7
 BAR2 EZ EP        3 6 17.80                             174   -0.2410 13.3 149 
 BAR2 EZ ES        3 6 32.71                             174   -0.3410 13.3 149 
 BAR2 EZ I         3 6 33.83         4.3 0.08            170           13.3 149 
 BRR  HZ EP        3 6 19.41                             153   -0.2010 68.9 311 
 BRR  HN ES        3 6 36.25                             153    0.4010 68.9 311 
 BRR  HZ I         3 6 38.27         5.9 0.20            150           68.9 311 
 RUS  HZ EP        3 6 21.70                             146    0.0510 90.5 169 
 RUS  HN ES        3 6 39.87                             146    0.3810 90.5 169 
 RUS  HZ I         3 6 41.03         2.5 0.22            146           90.5 169 
 SPBC HZ EP        3 6 25.96                             132    0.30 9  147 219 
 SPBC HE ES        3 6 46.27                             132   -0.36 9  147 219 
 SPBC HZ I         3 6 53.48         3.4 0.08            129            147 219 
                                                                                
