 2017 1112 0603 56.9 L   6.719 -73.274150.0  RSN  6 0.4 1.2LRSN                1
 GAP=192        0.97       5.5     6.0  9.6  0.1203E+02  0.7280E+00 -0.9588E+01E
 Epicentro: GALAN - SANTANDER                                                  3
 ACTION:UPD 17-12-12 19:54 OP:rebc STATUS:               ID:20171112060356 L   I
 OLDACT:UP  17-11-12 14:30 OP:dnl  STATUS:               ID:20171112055740d    3
 OLDACT:DUP 17-11-12 14:21 OP:dnl  STATUS:               ID:20171112055740d    3
 2017-11-12-0558-00M.COL___459                                                 6
 STAT SP IPHASW D HRMM SECON CODA AMPLIT PERI AZIMU VELO AIN AR TRES W  DIS CAZ7
 BAR2 EZ EP        6 4 16.43                             173   -0.5210 17.3 144 
 BAR2 EZ I         6 4 32.32         4.6 0.32            171           17.3 144 
 BRR  HZ IP     C  6 4 18.03                             156   -0.1510 64.7 312 
 BRR  HE ES        6 4 35.31                             156    0.5510 64.7 312 
 BRR  HZ I         6 4 38.33         3.1 0.44            154           64.7 312 
 RUS  HZ EP   2    6 4 20.71                             147    0.10 5 93.7 167 
 RUS  HE ES        6 4 39.12                             147    0.0210 93.7 167 
 RUS  HZ I         6 4 39.89         1.3 0.32            145           93.7 167 
 PTB  HZ EP        6 4 23.45                             137    0.5710  132 261 
 PTB  HN ES        6 4 43.01                             137   -0.1210  132 261 
 PTB  HZ I         6 4 46.36         1.0 0.20            136            132 261 
 SPBC HZ EP   4    6 4 25.50                             133    1.21 0  147 217 
 SPBC HE ES        6 4 45.62                             133   -0.03 9  147 217 
 SPBC HZ I         6 4 50.06         3.1 0.10            133            147 217 
 ZAR  HZ EP   2    6 4 29.47                             125    0.77 4  195 296 
 ZAR  HN ES        6 4 52.89                             125   -0.60 9  195 296 
 ZAR  HZ I         6 4 59.61         2.7 0.48            122            195 296 
                                                                                
