 2017  812 0623  8.1 L   6.758 -73.082137.8  RSN  6 0.3 1.4LRSN                1
 GAP=247        0.77       3.9     5.2  5.7  0.6320E+01  0.1070E+02  0.1342E+01E
 Epicentro: LOS SANTOS - SANTANDER                                             3
 ACTION:UPD 17-09-04 20:19 OP:rebc STATUS:               ID:20170812062308 L   I
 OLDACT:UP  17-08-12 18:16 OP:dhb  STATUS:               ID:20170812061748d    3
 OLDACT:DUP 17-08-12 18:12 OP:dhb  STATUS:               ID:20170812061748d    3
 2017-08-12-0618-00M.COL___417                                                 6
 STAT SP IPHASW D HRMM SECON CODA AMPLIT PERI AZIMU VELO AIN AR TRES W  DIS CAZ7
 BAR2 EZ EP        623 26.44                             171   -0.3310 21.4 211 
 BAR2 EZ ES        623 41.04                             171   -0.2610 21.4 211 
 BAR2 EZ I         623 44.03         7.5 0.40            162           21.4 211 
 RUS  HZ EP        623 30.72                             143   -0.0310 95.7 180 
 RUS  HN ES        623 49.04                             143    0.6510 95.7 180 
 RUS  HZ I         623 50.14         5.0 0.34            141           95.7 180 
 SPBC HZ EP        623 36.18                             127    0.04 9  164 222 
 SPBC HN ES        623 57.72                             127   -0.25 9  164 222 
 SPBC HZ I         624  5.32         4.4 0.10            125            164 222 
 ZAR  HZ EP        623 41.42                             119    0.48 8  212 293 
 ZAR  HN ES        624  6.56                             119    0.03 8  212 293 
 ZAR  HZ I         624 10.23         2.6 0.34            120            212 293 
 CHI  HZ EP        623 44.88                             116   -0.25 8  246 197 
 CHI  HN ES        624 13.90                             116   -0.08 8  246 197 
 CHI  HZ I         624 22.12         0.9 0.11            116            246 197 
 GUY2CHE ES   1    624 25.74                             110   -0.02 5  304 236 
                                                                                
