 2012  112 0022 10.8 L   7.016 -73.424114.8  RSN  6 0.3 1.8LRSN                1
 GAP=146        0.54       5.4     4.6  5.6  0.1198E+02  0.1001E+02  0.1086E+02E
 Epicentro: SAN VICENTE DE CHUCURI - SANTANDER                                 3
 ACTION:UP  12-02-03 08:16 OP:REBC STATUS:               ID:20120112002210 L   I
 2012-01-12-0020-00M.COL___187                                                 6
 STAT SP IPHASW D HRMM SECON CODA AMPLIT PERI AZIMU VELO SNR AR TRES W  DIS CAZ7
 GIR2 SZ EP   2    022 26.65                             166     0.0 5   26  75 
 GIR2 SZ ES   1    022 38.58                             166    -0.4 7   26  75 
 BRR  HZ IP     C  022 26.69                             162     0.110   33 288 
 BRR  HZ I         022 26.92        35.6 0.11                            33 288 
 BRR  HE ES   1    022 39.36                             162     0.3 7   33 288 
 BAR2 SZ ES   2    022 41.22                             153    -0.1 5   54 150 
 PTB  HZ EP   2    022 32.70                             129    -0.5 5  126 245 
 PTB  HE ES   2    022 50.38                             129    -0.4 5  126 245 
 RUS  HZ EP   1    022 34.43                             128     0.2 7  130 163 
 RUS  HN ES   2    022 52.90                             128     0.3 5  130 163 
 ZAR  HZ EP   2    022 37.23                             120    -0.1 5  167 289 
 ZAR  HN ES   2    022 58.46                             120     0.3 5  167 289 
 ZAR  HZ I         023  1.13         4.0 0.13                           167 289 
                                                                                
