 2012  612 0639  1.3 L   6.040 -74.189 21.2  RSN  6 0.4 1.5LRSN                1
 GAP=138        0.88       3.4     2.9  4.9 -0.1582E+01 -0.7914E+01  0.2344E+01E
 Epicentro: LA BELLEZA - SANTANDER                                             3
 ACTION:UPD 12-08-06 17:48 OP:ep   STATUS:               ID:20120612063901 L   I
 2012-06-12-0630-00M.COL___201                                                 6
 STAT SP IPHASW D HRMM SECON CODA AMPLIT PERI AZIMU VELO AIN AR TRES W  DIS CAZ7
 PTB  HZ IP     C  639 11.74                             106   -0.0110 62.6 332 
 PTB  HN ES   1    639 19.65                             106   -0.27 7 62.6 332 
 PTB  HZ I         639 21.54        64.1 0.14            100           62.6 332 
 NOR  SZ EP   1    639 16.31                             101    0.21 7 91.9 235 
 NOR  SE ES   1    639 27.32                             101   -0.35 7 91.9 235 
 RUS  HZ EP   1    639 21.58                              56    0.50 7  124  98 
 RUS  HN ES   1    639 35.91                              56   -0.63 7  124  98 
 RUS  HZ I         639 38.02         2.8 0.20             95            124  98 
 BAR2 SZ EP   1    639 22.20                              56    0.98 7  127  61 
 BAR2 SZ ES   1    639 36.24                              56   -0.54 7  127  61 
 BAR2 SZ I         639 39.22         8.8 0.29             95            127  61 
 HEL  HZ EP   1    639 24.28                              56    0.13 7  149 276 
 HEL  HN ES   1    639 41.92                              56   -0.08 7  149 276 
 HEL  HZ I         639 45.22         4.7 0.33             56            149 276 
 ZAR  HN ES   2    639 47.62                              56    0.26 4  177 335 
                                                                                
