 2016  912 0917 43.6 L   6.406 -73.623 81.5  RSN  5 0.5 1.3LRSN                1
 GAP=259        1.21       5.1     9.5 13.0  0.1223E+02 -0.1389E+02 -0.1330E+02E
 Epicentro: SANTA HELENA DEL OPON - SANTANDER                                  3
 ACTION:UPD 17-08-17 21:09 OP:lp   STATUS:               ID:20160912091743 L   I
 OLDACT:UP  16-09-12 17:12 OP:dani STATUS:               ID:20160912090732     3
 OLDACT:REG 16-09-12 16:34 OP:and  STATUS:               ID:20160912090732     3
 2016-09-12-0908-00M.COL___300                                                 6
 STAT SP IPHASW D HRMM SECON CODA AMPLIT PERI AZIMU VELO AIN AR TRES W  DIS CAZ7
 PTB  HZ EP        917 59.73                             127   -0.7110 93.3 279 
 PTB  HE ES        918 13.24                             127   -0.3210 93.3 279 
 PTB  HZ I         918 17.28         5.3 0.08                          93.3 279 
 SPBC HZ EP        918  0.76                             126   -0.1510 97.1 211 
 SPBC HN ES        918 14.81                             126    0.4110 97.1 211 
 SPBC HE I         918 16.41         8.1 0.19                          97.1 211 
 ZAR  HZ EP        918 10.31                             109    0.12 9  182 311 
 ZAR  HE ES        918 31.77                             109    0.85 9  182 311 
 ZAR  HZ I         918 34.39         2.7 0.24             90            182 311 
 GUY2CHZ EP        918 16.96                             104    0.12 8  233 236 
 GUY2CHN ES        918 43.31                             104    0.55 8  233 236 
 GUY2CHZ I         918 47.06         1.6 0.27                           233 236 
 CBOC HE ES        918 49.54                             102   -0.72 8  271 257 
                                                                                
