 2017 1112 0426 42.7 L   6.796 -73.177143.5  RSN  7 0.4 1.3LRSN                1
 GAP=133        1.08       4.6     4.5  7.3 -0.9888E+00  0.6747E+01  0.3013E+01E
 Epicentro: LOS SANTOS - SANTANDER                                             3
 ACTION:UPD 17-12-12 19:54 OP:rebc STATUS:               ID:20171112042642 L   I
 OLDACT:REG 17-11-12 13:03 OP:dnl  STATUS:               ID:20171112041740     3
 2017-11-12-0418-00M.COL___459                                                 6
 STAT SP IPHASW D HRMM SECON CODA AMPLIT PERI AZIMU VELO AIN AR TRES W  DIS CAZ7
 BAR2 EZ IP     C  427  1.89                             171   -0.1610 22.5 182 
 BAR2 EZ ES        427 17.19                             171    0.0610 22.5 182 
 BAR2 EZ I         427 20.20         6.3 0.46            171           22.5 182 
 BRR  HZ IP     C  427  3.64                             153    0.1910 68.4 300 
 BRR  HN ES        427 20.55                             153    0.9110 68.4 300 
 BRR  HZ I         427 23.29         3.9 0.46            152           68.4 300 
 PAM  EZ IP     D  427  4.80                             150   -0.0410 80.0  41 
 PAM  EN ES        427 21.76                             150   -0.3410 80.0  41 
 PAM  EZ I         427 23.98         3.1 0.52            154           80.0  41 
 RUS  HZ EP        427  6.45                             143    0.2310  100 174 
 RUS  HN ES        427 24.14                             143   -0.4210  100 174 
 RUS  HZ I         427 25.89         2.0 0.22            147            100 174 
 PTB  HZ EP        427  9.56                             132    0.39 9  144 259 
 PTB  HN ES        427 29.42                             132   -0.40 9  144 259 
 PTB  HZ I         427 34.50         2.3 0.14            133            144 259 
 SPBC HZ EP        427 10.93                             129    0.14 9  161 218 
 SPBC HN ES        427 32.80                             129    0.10 9  161 218 
 SPBC HZ I         427 36.45         2.4 0.22            131            161 218 
 ZAR  HE ES        427 38.80                             122   -0.84 9  201 293 
 ZAR  HZ I         427 45.42         4.0 0.46            124            201 293 
                                                                                
