 2012  412 0859 27.2 L   6.727 -73.127148.0  RSN  5 0.4 1.9LRSN                1
 GAP=168        0.95      11.7     5.4 10.2 -0.1944E+02  0.4605E+00  0.5306E+02E
 Epicentro: JORDAN - SANTANDER                                                 3
 ACTION:UPD 12-07-05 11:52 OP:tino STATUS:               ID:20120412085927 L   I
 2012-04-12-0854-40M.COL___181                                                 6
 STAT SP IPHASW D HRMM SECON CODA AMPLIT PERI AZIMU VELO AIN AR TRES W  DIS CAZ7
 BAR2 SZ EP        859 47.11                             173     0.210   16 202 
 BAR2 SZ I         859 47.80         9.7 0.30                            16 202 
 BRR  HZ EP        859 49.08                             151     0.210   77 303 
 BRR  HZ I         859 49.39        20.9 0.13                            77 303 
 BRR  HE ES        9 0  6.30                             151     0.410   77 303 
 PAM  SZ EP        859 49.94                             150     0.010   83  35 
 PAM  SE ES        9 0  7.38                             150    -0.310   83  35 
 PTB  HZ EP   1    859 53.79                             132    -0.6 7  149 262 
 PTB  HE ES   1    9 0 15.30                             132    -0.3 7  149 262 
 ZAR  HZ EP   1    9 0  0.87                             122     0.6 6  209 294 
 ZAR  HE ES   1    9 0 25.55                             122    -0.6 6  209 294 
 ZAR  HZ I         9 0 32.40         7.3 0.41                           209 294 
                                                                                
