 2010  512 0427  9.9 L   7.041 -73.186152.0  RSN  5 0.4 1.6LRSN                1
 GAP=247        0.94      20.2    17.2 13.9 -0.2541E+03 -0.9848E+02  0.2141E+02E
 Epicentro: GIRON - SANTANDER                                                  3
 ACTION:UP  10-08-24 10:04 OP:vdl  STATUS:               ID:20100512042709 L   I
 2010-05-12-0423-55S.COL___104                                                 6
 STAT SP IPHASW D HRMM SECON CODA AMPLIT PERI AZIMU VELO AIN AR TRES W  DIS CAZ7
 BRR  HZ EP        427 30.90                             158    -0.210   59 277 
 BRR  HZ I         427 32.54         7.7 0.14                            59 277 
 BRR  HN ES   1    427 47.80                             158     0.2 7   59 277 
 BRI  SZ EP        427 33.52                             149     0.610   86  30 
 GUE  SZ EP        427 33.29                             147    -0.210   92  18 
 GRA  SZ EP        427 33.48                             144    -0.510  102  24 
 GRA  SZ ES   2    427 52.34                             144    -0.3 5  102  24 
 OCA  SZ EP        427 36.52                             137     0.210  133 354 
                                                                                
