 2011 1212 0441 18.3 L   6.788 -73.148140.9  RSN 11 0.4 2.2LRSN                1
 GAP=151        0.84       3.8     4.4  5.8 -0.6000E+01  0.4720E+01  0.6877E+01E
 Epicentro: LOS SANTOS - SANTANDER                                             3
 ACTION:UPD 12-07-13 16:15 OP:ep   STATUS:               ID:20111212044118 L   I
 2011-12-12-0440-00M.COL___186                                                 6
 STAT SP IPHASW D HRMM SECON CODA AMPLIT PERI AZIMU VELO AIN AR TRES W  DIS CAZ7
 BAR2 SZ EP        441 37.27                             171   -0.0510 22.0 190 
 BAR2 SZ ES   1    441 52.11                             171   -0.04 7 22.0 190 
 BAR2 SZ I         441 54.54        52.7 0.39                          22.0 190 
 GIR2 SZ EP        441 37.38                             166   -0.0510 32.5 351 
 GIR2 SZ ES   1    441 52.43                             166    0.08 7 32.5 351 
 BRR  HZ EP   1    441 39.15                             151    0.20 7 71.6 300 
 BRR  HN ES   1    441 55.77                             151    0.72 7 71.6 300 
 BRR  HZ I         441 59.26        31.7 0.15                          71.6 300 
 PAM  SZ EP        441 40.24                             150    0.1710 78.5  39 
 PAM  SN ES   1    441 56.93                             150   -0.12 7 78.5  39 
 PTB  HZ EP   1    441 43.92                             131   -0.91 7  147 259 
 PTB  HN ES   1    442  4.98                             131   -0.55 7  147 259 
 OCA  SZ EP   1    441 45.80                             128   -0.55 7  162 353 
 OCA  SZ ES   1    442  8.02                             128   -0.22 7  162 353 
 OCA  SZ I         442 11.46        22.7 0.21                           162 353 
 CTAU SZ EP   1    441 51.47                             122    0.64 6  201 210 
 CTAU SZ I         442 23.66        11.3 0.58                           201 210 
 NOR  SZ EP   1    441 53.82                             117    0.17 6  234 235 
 CHI  HZ EP   1    441 55.37                             116   -0.22 6  247 195 
 CHI  HN ES        442 24.41                             116   -0.27 8  247 195 
 CHI  HZ I         442 31.65         6.7 0.48                           247 195 
 HEL  HZ EP   1    441 58.76                             114    0.55 6  272 256 
 HEL  HE ES        442 29.42                             114    0.08 8  272 256 
 HEL  HZ I         442 35.67         7.2 0.42                           272 256 
 GUY  SZ EP   1    442  3.03                             111    1.18 5  303 235 
 GUY  SN ES   1    442 35.39                             111   -0.43 5  303 235 
 GUY  SZ I         442 42.79         9.6 0.38                           303 235 
                                                                                
