 2017 1012 0005 52.4 L   6.780 -73.102144.9  RSN  4 0.3 1.7LRSN                1
 GAP=143        0.79       4.2     5.0  6.7  0.1584E+01  0.1317E+02 -0.3883E+01E
 Epicentro: LOS SANTOS - SANTANDER                                             3
 ACTION:UPD 17-11-07 19:30 OP:rebc STATUS:               ID:20171012000552 L   I
 OLDACT:REG 17-10-12 13:11 OP:y    STATUS:               ID:20171011235957     3
 2017-10-12-0000-15M.COL___438                                                 6
 STAT SP IPHASW D HRMM SECON CODA AMPLIT PERI AZIMU VELO AIN AR TRES W  DIS CAZ7
 BAR2 EZ EP        0 6 11.68                             171   -0.2810 22.6 203 
 BAR2 EZ ES        0 6 27.07                             171   -0.1110 22.6 203 
 BAR2 EZ I         0 6 28.34        12.0 0.30            170           22.6 203 
 PAM  EZ EP        0 6 14.43                             151   -0.0710 76.2  36 
 PAM  EE ES        0 6 31.85                             151    0.1510 76.2  36 
 PAM  EZ I         0 6 33.82        12.8 0.52            154           76.2  36 
 RUS  HZ EP        0 6 15.63                             144   -0.3110 98.2 179 
 RUS  HN ES        0 6 34.62                             144    0.3510 98.2 179 
 RUS  HZ I         0 6 37.01         3.4 0.22            146           98.2 179 
 ZAR  HZ EP        0 6 26.02                             121    0.64 8  209 292 
 ZAR  HN ES        0 6 50.81                             121   -0.26 8  209 292 
 ZAR  HZ I         0 6 55.15         4.7 0.34            123            209 292 
                                                                                
