 2017 1112 0246  3.1 L   6.797 -73.138142.1  RSN  5 0.4 1.7LRSN                1
 GAP=138        1.03       5.2     5.5  7.4  0.6763E+01  0.9813E+01 -0.1596E+01E
 Epicentro: LOS SANTOS - SANTANDER                                             3
 ACTION:UPD 17-12-12 19:54 OP:rebc STATUS:               ID:20171112024603 L   I
 OLDACT:REG 17-11-12 13:01 OP:dnl  STATUS:               ID:20171112023740     3
 2017-11-12-0238-00M.COL___465                                                 6
 STAT SP IPHASW D HRMM SECON CODA AMPLIT PERI AZIMU VELO AIN AR TRES W  DIS CAZ7
 BAR2 EZ EP        246 22.13                             170   -0.2010 23.2 192 
 BAR2 EZ ES        246 36.45                             170   -0.8410 23.2 192 
 BAR2 EZ I         246 37.95        16.9 0.32            171           23.2 192 
 BRR  HZ EP     D  246 23.90                             151   -0.0510 72.1 298 
 BRR  HN ES        246 40.87                             151    0.6910 72.1 298 
 BRR  HZ I         246 43.84         9.6 0.12            152           72.1 298 
 PAM  EZ EP        246 24.95                             150    0.0010 77.1  39 
 PAM  EN ES        246 42.05                             150    0.1010 77.1  39 
 PAM  EZ I         246 43.93        10.7 0.56            152           77.1  39 
 RUS  HZ EP        246 26.72                             143    0.2110  100 177 
 RUS  HN ES     C  246 45.07                             143    0.3410  100 177 
 RUS  HZ I         246 46.65         7.5 0.36            146            100 177 
 ZAR  HZ EP        246 35.34                             121   -0.11 9  205 292 
 ZAR  HN ES        247  0.39                             121   -0.26 9  205 292 
                                                                                
