 2016 1012 0359 29.7 L   6.751 -73.124142.9  RSN  5 0.4 1.7LRSN                1
 GAP=236        1.01       5.6     7.3  7.3  0.1940E+02  0.1190E+02  0.5703E+00E
 Epicentro: LOS SANTOS - SANTANDER                                             3
 ACTION:UPD 16-11-09 19:18 OP:rebc STATUS:               ID:20161012035929 L   I
 OLDACT:REG 16-10-12 14:21 OP:ar   STATUS:               ID:20161012035739     3
 2016-10-12-0358-00M.COL___372                                                 6
 STAT SP IPHASW D HRMM SECON CODA AMPLIT PERI AZIMU VELO AIN AR TRES W  DIS CAZ7
 BAR2 EZ EP        359 48.65                             172   -0.2310 18.7 200 
 BAR2 EZ ES        4 0  3.51                             172   -0.3510 18.7 200 
 BAR2 EZ I         4 0  5.94        24.1 0.36            170           18.7 200 
 BRR  HZ EP        359 50.45                             150   -0.3510 76.0 301 
 BRR  HE ES        4 0  7.95                             150    0.6710 76.0 301 
 BRR  HZ I         4 0 12.22         8.3 0.18            149           76.0 301 
 RUS  HZ EP        359 52.90                             145    0.1510 95.0 177 
 RUS  HE ES        4 0 10.90                             145    0.1510 95.0 177 
 RUS  HZ I         4 0 12.30         4.6 0.28            148           95.0 177 
 SPBC HZ EP        359 57.69                             129   -0.02 9  161 221 
 SPBC HN ES        4 0 19.55                             129   -0.02 9  161 221 
 SPBC HZ I         4 0 22.54         7.0 0.12            130            161 221 
 ZAR  HZ EP        4 0  3.04                             121    0.65 8  208 293 
 ZAR  HN ES        4 0 27.25                             121   -0.65 8  208 293 
 ZAR  HZ I         4 0 33.29         4.9 0.28            122            208 293 
                                                                                
