 2016 1012 0319 56.4 L   6.767 -73.108139.3  RSN  7 0.4 1.3LRSN                1
 GAP=143        0.87       3.5     4.5  7.5  0.2706E+01 -0.5511E+01  0.3127E+01E
 Epicentro: LOS SANTOS - SANTANDER                                             3
 ACTION:UPD 16-11-09 19:18 OP:rebc STATUS:               ID:20161012031956 L   I
 OLDACT:UP  16-10-12 17:03 OP:ar   STATUS:               ID:20161012031740     3
 OLDACT:REG 16-10-12 14:18 OP:ar   STATUS:               ID:20161012031740     3
 2016-10-12-0318-00M.COL___375                                                 6
 STAT SP IPHASW D HRMM SECON CODA AMPLIT PERI AZIMU VELO AIN AR TRES W  DIS CAZ7
 BRR  HZ EP        320 16.84                             150   -0.3410 76.6 299 
 BRR  HN ES        320 33.59                             150    0.2010 76.6 299 
 BRR  HZ I         320 35.50         7.4 0.30            146           76.6 299 
 PAM  EZ EP        320 17.98                             150    0.0310 77.7  35 
 PAM  EN ES   4    320 31.83                             150   -2.94 0 77.7  35 
 PAM  EZ I         320 34.15         4.6 0.44            155           77.7  35 
 RUS  HZ EP        320 18.91                             144   -0.3310 96.8 178 
 RUS  HN ES        320 37.30                             144    0.2410 96.8 178 
 RUS  HZ I         320 39.02         1.0 0.34            143           96.8 178 
 PTB  HZ EP   4    320 25.35                             130    2.17 0  151 260 
 PTB  HN ES        320 43.65                             130   -0.41 9  151 260 
 PTB  HZ I         320 49.78         1.8 0.24            128            151 260 
 SPBC HZ EP        320 24.13                             128   -0.28 9  163 221 
 SPBC HN ES        320 46.15                             128   -0.10 9  163 221 
 SPBC HZ I         320 54.52         3.5 0.38            126            163 221 
 ZAR  HE ES        320 54.89                             120    0.49 8  209 293 
 ZAR  HZ I         321  1.85         2.4 0.26            120            209 293 
 CHI  HZ EP        320 34.29                             116    0.80 8  246 196 
 CHI  HN ES        321  2.47                             116    0.05 8  246 196 
 CHI  HZ I         321  6.19         1.5 0.32            116            246 196 
                                                                                
