 2016  412 0009 32.3 L   6.782 -73.137131.6  RSN  7 0.4 1.7LRSN                1
 GAP=139        1.04       4.6     4.6  8.2 -0.2184E+01  0.1813E+02 -0.3956E+01E
 Epicentro: LOS SANTOS - SANTANDER                                             3
 ACTION:UPD 16-05-05 14:20 OP:rebc STATUS:               ID:20160412000932 L   I
 OLDACT:UP  16-04-12 12:49 OP:mh   STATUS:               ID:20160412000005     3
 OLDACT:UP  16-04-12 12:49 OP:mh   STATUS:               ID:20160412000005     3
 OLDACT:UP  16-04-12 12:49 OP:mh   STATUS:               ID:20160412000005     3
 OLDACT:REG 16-04-12 12:26 OP:mh   STATUS:               ID:20160412000005     3
 2016-04-12-0000-05M.COL___310                                                 6
 STAT SP IPHASW D HRMM SECON CODA AMPLIT PERI AZIMU VELO AIN AR TRES W  DIS CAZ7
 BAR2 EZ EP        0 9 49.84                             170   -0.3010 21.5 194 
 BAR2 EZ ES        010  4.08                             170   -0.0110 21.5 194 
 BAR2 EZ I         010  6.18        13.6 0.10            171           21.5 194 
 PAM  EZ EP        0 9 52.68                             148   -0.3610 78.4  38 
 PAM  EN ES        010  9.41                             148    0.1510 78.4  38 
 PAM  EZ I         010 11.92         6.8 0.36            151           78.4  38 
 RUS  HZ EP   1    0 9 54.70                             141    0.23 7 98.5 177 
 RUS  HN ES        010 12.27                             141    0.4610 98.5 177 
 RUS  HZ I         010 14.24         5.4 0.30            145           98.5 177 
 PTB  HZ EP   4    0 9 56.53                             128   -1.63 0  148 260 
 PTB  HN ES        010 17.44                             128   -0.92 9  148 260 
 PTB  HZ I         010 21.20         5.6 0.28            130            148 260 
 ZAR  HZ EP        010  4.42                             119    0.43 8  206 293 
 ZAR  HN ES        010 29.18                             119    0.43 8  206 293 
 ZAR  HZ I         010 33.29         9.0 0.22            120            206 293 
 CHI  HN ES   1    010 37.32                             114   -0.37 6  247 196 
 HEL  HZ EP   1    010 11.48                             112   -0.35 6  273 256 
 HEL  HN ES        010 43.32                             112    0.61 8  273 256 
 HEL  HZ I         010 46.78         2.4 0.38            114            273 256 
 URE  HN ES   4    010 44.35                             110   -0.19 0  285 292 
                                                                                
