 2016  112 0622  5.9 L   5.747 -73.891108.4  RSN 18 0.5 2.2LRSN                1
 GAP= 51        1.05       2.2     2.2  5.0 -0.1340E+01  0.3058E+00 -0.7710E-01E
 Epicentro: ALBANIA - SANTANDER                                                3
 ACTION:UPD 16-03-09 23:24 OP:cam  STATUS:               ID:20160112062205 L   I
 OLDACT:UP  16-01-12 16:41 OP:mh   STATUS:               ID:20160112061751     3
 OLDACT:UP  16-01-12 16:39 OP:mh   STATUS:               ID:20160112061751     3
 OLDACT:REG 16-01-12 12:48 OP:mh   STATUS:               ID:20160112061751     3
 2016-01-12-0617-51M.COL___225                                                 6
 STAT SP IPHASW D HRMM SECON CODA AMPLIT PERI AZIMU VELO AIN AR TRES W  DIS CAZ7
 SPBC HZ IP     D  622 20.72                             167   -0.0710 22.7 242 
 SPBC HN ES        622 32.16                             167   -0.2610 22.7 242 
 SPBC HZ I         622 33.31       107.4 0.38            171           22.7 242 
 RUS  HZ EP        622 25.52                             137    0.1810 90.9  80 
 RUS  HN ES        622 40.62                             137    0.1010 90.9  80 
 RUS  HZ I         622 41.36        14.9 0.40            131           90.9  80 
 PTB  HZ EP     D  622 25.02                             131   -1.1310  108 324 
 PTB  HN ES        622 42.06                             131    0.0910  108 324 
 PTB  HZ I         622 42.53        19.2 0.36            128            108 324 
 NOR  HZ EP        622 26.04                             131   -0.4010  110 259 
 NOR  HE ES        622 42.59                             131    0.1010  110 259 
 NOR  HZ I         622 43.71        70.9 0.38            129            110 259 
 BAR2 EZ EP     C  622 28.20                             128    0.4110  122  40 
 BAR2 EZ ES        622 45.19                             128    0.3010  122  40 
 BAR2 EZ I         622 46.76        53.2 0.54            122            122  40 
 CHI  HZ EP        622 28.39                             127    0.0810  125 172 
 CHI  HN ES        622 45.54                             127   -0.2710  125 172 
 CHI  HZ I         622 49.24        14.0 0.34            124            125 172 
 BRR  HZ EP     C  622 30.49                             121    0.02 9  152   7 
 BRR  HN ES        622 50.01                             121    0.36 9  152   7 
 BRR  HZ I         622 56.32        16.5 0.16            117            152   7 
 GUY2CHZ EP   1    622 33.46                             117    0.07 7  173 251 
 GUY2CHN ES        622 55.22                             117    0.36 9  173 251 
 GUY2CHZ I         623  2.12        16.7 0.34                           173 251 
 HEL  HZ EP        622 35.64                             115    0.79 9  188 285 
 HEL  HN ES        622 56.81                             115   -0.64 9  188 285 
 HEL  HZ I         622 58.40        15.5 0.60            113            188 285 
 PAM  EZ EP        622 38.48                             111   -0.11 8  220  37 
 PAM  EE ES        623  4.17                             111    0.06 8  220  37 
 PAM  EZ I         623 10.78         5.8 0.18            108            220  37 
 ZAR  HZ EP   1    622 37.11                             111   -0.96 6  221 331 
 ZAR  HN ES        623  2.95                             111   -0.23 8  221 331 
 ZAR  HZ I         623  8.14        16.5 0.26            109            221 331 
 CBOC HZ EP   1    622 39.69                             109   -0.27 6  235 273 
 CBOC HN ES        623  7.09                             109    0.54 8  235 273 
 CBOC HZ I         623  8.65         8.0 0.26            108            235 273 
 TAM  HZ EP   1 C  622 41.07                             108    0.21 6  245  72 
 TAM  HN ES   1    623  7.64                             108   -0.51 6  245  72 
 TAM  HZ I         623 28.88         4.6 0.54            106            245  72 
 PRA  HZ EP   1    622 40.84                             108   -0.71 6  251 206 
 PRA  HE ES        623  9.39                             108    0.00 8  251 206 
 PRA  HZ I         623 11.51        13.0 0.28            107            251 206 
 ORTC HZ EP        622 41.77                             107   -0.05 8  253 217 
 ORTC HN ES        623 10.94                             107    1.08 8  253 217 
 ORTC HZ I         623 17.34        10.8 0.52            107            253 217 
 PTGC HZ EP        622 42.14                             107   -0.40 8  259 131 
 PTGC HN ES   4    623 10.37                             107   -0.77 0  259 131 
 PTGC HZ I         623 17.83        13.2 0.20            105            259 131 
 PAL  HZ EP   4    622 45.45                             105    0.29 0  281 251 
 OCA  HZ EP   1    622 46.27                             105    0.82 6  283  13 
 OCA  HE ES        623 16.52                             105    0.19 7  283  13 
 OCA  HZ I         623 27.83        21.6 0.34            104            283  13 
 SML  HZ EP   4    622 50.41                             101   -1.45 0  338 357 
 SML  HN ES   4    623 26.35                             101   -1.38 0  338 357 
 SML  HZ I         623 40.27         9.2 0.10            102            338 357 
                                                                                
