 2011 1112 0931 59.6 L   6.771 -73.153144.5  RSN  8 0.4 2.2LRSN                1
 GAP=137        0.82       3.3     4.7  6.2 -0.1612E+00  0.9032E+01  0.6198E+00E
 Epicentro: LOS SANTOS - SANTANDER                                             3
 ACTION:UPD 12-07-13 16:09 OP:ep   STATUS:               ID:20111112093159 L   I
 2011-11-12-0930-26S.COL___180                                                 6
 STAT SP IPHASW D HRMM SECON CODA AMPLIT PERI AZIMU VELO AIN AR TRES W  DIS CAZ7
 BAR2 SZ EP        932 19.26                             172    0.2810 20.0 189 
 BAR2 SZ ES   1    932 33.54                             172   -0.58 7 20.0 189 
 BAR2 SZ I         932 35.84        61.0 0.17                          20.0 189 
 BRR  HZ IP     C  932 21.13                             152    0.5110 72.1 301 
 BRR  HZ I         932 21.41        82.0 0.14                          72.1 301 
 BRR  HN ES   1    932 37.83                             152    0.78 7 72.1 301 
 PAM  SZ EP   1    932 21.74                             150   -0.08 7 80.4  39 
 PAM  SN ES   1    932 39.16                             150   -0.03 7 80.4  39 
 RUS  HZ EP   1    932 23.05                             144    0.09 7 97.5 175 
 RUS  HN ES   1    932 41.12                             144   -0.09 7 97.5 175 
 RUS  HZ I         932 43.10        13.0 0.31                          97.5 175 
 OCA  SZ EP        932 27.73                             129   -0.34 9  163 354 
 OCA  SZ ES   1    932 49.91                             129   -0.39 7  163 354 
 OCA  SZ I         932 55.66        15.6 0.27                           163 354 
 ZAR  HZ EP   1    932 31.60                             122   -0.37 6  205 293 
 ZAR  HN ES   1    932 56.89                             122   -0.36 6  205 293 
 ZAR  HZ I         933  3.68        12.3 0.21                           205 293 
 CHI  HZ EP   1    932 36.76                             117   -0.07 6  245 195 
 CHI  HN ES   1    933  5.53                             117   -0.37 6  245 195 
 CHI  HZ I         933 10.27         4.4 0.35                           245 195 
 HEL  HZ EP   1    932 40.19                             115    0.65 6  271 256 
 HEL  HN ES   1    933 10.30                             115   -0.42 6  271 256 
 HEL  HZ I         933 17.85         8.7 0.30                           271 256 
                                                                                
