 2010  412 0745  5.9 L   6.844 -72.947143.8  RSN  8 0.4 2.4LRSN                1
 GAP=271        0.61       5.4     7.8  6.7 -0.6320E+00 -0.4257E+01  0.2161E+02E
 Epicentro: CEPITA - SANTANDER                                                 3
 ACTION:UPD 10-08-24 09:58 OP:vdl  STATUS:               ID:20100412074505 L   I
 2010-04-12-0740-00S.COL___097                                                 6
 STAT SP IPHASW D HRMM SECON CODA AMPLIT PERI AZIMU VELO AIN AR TRES W  DIS CAZ7
 BAR2 SZ EP        745 25.89                             165     0.210   38 223 
 BAR2 SZ ES   2    745 40.85                             165    -0.2 5   38 223 
 BRR  HZ IP     C  745 27.97                             147     0.010   89 289 
 BRR  HE ES        745 45.02                             147    -0.110   89 289 
 BRR  HZ I         745 47.36        34.4 0.14                            89 289 
 CHI  HZ EP   2    745 44.70                             116     0.0 4  260 200 
 CHI  HE ES   2    746 14.49                             116    -0.5 4  260 200 
 CHI  HZ I         746 17.27         7.8 0.55                           260 200 
 ROSC BZ EP   2    745 46.27                             115     0.6 4  269 215 
 ROSC BE ES   2    746 17.37                             115     0.7 4  269 215 
 ROSC BZ I         746 22.86        11.2 0.55                           269 215 
 HEL  HZ EP   2    745 47.80                             112    -0.7 4  295 256 
 HEL  HZ I         746 24.30        11.0 0.29                           295 256 
 RREF BZ EP   2    745 54.33                             109     0.1 3  342 231 
 RREF BE ES   2    746 32.60                             109     0.7 3  342 231 
 RREF BZ I         746 38.29        11.9 0.26                           342 231 
 TOL  SZ EP        745 56.06                             108    -0.2 6  363 227 
 PRA  HZ EP   2    746  0.19                             105    -0.9 3  407 212 
 PRA  HN ES   2    746 43.90                             105    -0.3 3  407 212 
 PRA  HZ I         746 47.97        10.3 0.48                           407 212 
                                                                                
