 2016  212 0251 20.1 L   6.811 -73.220139.2  RSN  5 0.4 1.2LRSN                1
 GAP=147        0.96       5.2     5.3  7.5 -0.1214E+02  0.1167E+02 -0.2506E+01E
 Epicentro: ZAPATOCA - SANTANDER                                               3
 ACTION:UPD 16-03-04 21:25 OP:rebc STATUS:               ID:20160212025120 L   I
 OLDACT:UP  16-02-12 16:43 OP:ak   STATUS:               ID:20160212024751     3
 OLDACT:UP  16-02-12 16:42 OP:ak   STATUS:               ID:20160212024751     3
 OLDACT:REG 16-02-12 15:43 OP:ak   STATUS:               ID:20160212024751     3
 2016-02-12-0247-51M.COL___286                                                 6
 STAT SP IPHASW D HRMM SECON CODA AMPLIT PERI AZIMU VELO AIN AR TRES W  DIS CAZ7
 BAR2 EZ EP        251 38.37                             170   -0.6210 24.5 170 
 BAR2 EZ ES        251 53.77                             170    0.0710 24.5 170 
 BAR2 EZ I         251 55.70         3.9 0.20            169           24.5 170 
 PAM  EZ EP        251 42.34                             148    0.4010 82.0  44 
 PAM  EN ES        251 58.96                             148    0.0110 82.0  44 
 PAM  EZ I         252  1.38         4.2 0.44            153           82.0  44 
 RUS  HZ EP        251 42.87                             142   -0.5210  103 172 
 RUS  HN ES        252  1.77                             142    0.2310  103 172 
 RUS  HZ I         252  5.65         1.4 0.70            144            103 172 
 PTB  HZ EP        251 45.76                             132   -0.09 9  140 258 
 PTB  HN ES        252  5.87                             132   -0.04 9  140 258 
 PTB  HZ I         252  9.48         1.5 0.16            134            140 258 
 SPBC HZ EP        251 48.40                             128    0.66 9  159 216 
 SPBC HN ES        252  9.25                             128   -0.02 9  159 216 
 SPBC HZ I         252 12.91         4.1 0.33            131            159 216 
                                                                                
