 2017  912 0204 31.4 L   6.603 -73.438159.2  RSN  4 0.3 1.2LRSN                1
 GAP=121        0.60       4.1     6.5  7.7 -0.1310E+01 -0.2699E+01 -0.4453E+01E
 Epicentro: EL CARMEN - SANTANDER                                              3
 ACTION:UPD 17-10-05 19:11 OP:rebc STATUS:               ID:20170912020431 L   I
 OLDACT:REG 17-09-12 12:06 OP:mg   STATUS:               ID:20170912015741     3
 2017-09-12-0158-00M.COL___440                                                 6
 STAT SP IPHASW D HRMM SECON CODA AMPLIT PERI AZIMU VELO AIN AR TRES W  DIS CAZ7
 BAR2 EZ EP   2    2 4 51.98                             169   -0.76 5 28.2  92 
 BAR2 EZ ES   2    2 5  9.01                             169   -0.38 5 28.2  92 
 BAR2 EZ I         2 5 12.18         2.2 0.13            169           28.2  92 
 BRR  HZ EP        2 4 53.83                             157    0.2110 63.5 331 
 BRR  HN ES   1    2 5 11.06                             157    0.09 7 63.5 331 
 BRR  HZ I         2 5 16.82         3.6 0.30            158           63.5 331 
 RUS  HZ EP   1    2 4 55.67                             150    0.01 7 87.8 153 
 RUS  HN ES   1    2 5 14.91                             150    0.31 7 87.8 153 
 RUS  HZ I         2 5 17.57         0.9 0.18            156           87.8 153 
 SPBC HZ EP   4    2 5  1.35                             140    3.52 0  126 214 
 SPBC HN ES        2 5 18.28                             140   -0.1610  126 214 
 SPBC HZ I         2 5 18.69         5.4 0.07            147            126 214 
                                                                                
