 2017  512 0812  4.2 L   6.309 -73.671 97.3  RSN  5 0.3 0.8LRSN                1
 GAP=161        0.86       3.9     3.2  8.3  0.3647E+01  0.3996E+01 -0.4565E+01E
 Epicentro: SANTA HELENA DEL OPON - SANTANDER                                  3
 ACTION:UPD 17-06-16 13:35 OP:jn   STATUS:               ID:20170512081204 L   I
 OLDACT:DUP 17-05-12 17:59 OP:osc  STATUS:               ID:20170512080728d    3
 2017-05-12-0808-00M.COL___353                                                 6
 STAT SP IPHASW D HRMM SECON CODA AMPLIT PERI AZIMU VELO AIN AR TRES W  DIS CAZ7
 RUS  HZ EP        812 21.55                             138   -0.2310 79.7 125 
 RUS  HN ES        812 35.90                             138    0.4310 79.7 125 
 RUS  HZ I         812 40.78         1.3 0.36            150           79.7 125 
 BRR  HZ EP        812 21.83                             135   -0.0110 88.4 357 
 BRR  HN ES        812 35.66                             135    0.0810 88.4 357 
 PTB  HZ EP        812 22.02                             134   -0.0410 90.6 286 
 PTB  HN ES        812 35.47                             134   -0.5010 90.6 286 
 PTB  HZ I         812 48.97         1.9 0.28            141           90.6 286 
 PAM  EE ES        812 48.57                             118   -0.33 9  157  43 
 ZAR  HZ EP        812 31.97                             113    0.05 9  185 315 
 ZAR  HN ES        812 54.15                             113    0.64 9  185 315 
                                                                                
