 2014  812 0831  6.0 L   6.840 -73.139143.8  RSN  4 0.2 1.4LRSN                1
 GAP=279        0.48       5.1     3.3  6.8  0.3766E+01 -0.1737E+01 -0.1729E+02E
 Epicentro: LOS SANTOS - SANTANDER                                             3
 ACTION:UPD 14-09-15 21:49 OP:nd   STATUS:               ID:20140812083106 L   I
 OLDACT:DUP 14-08-12 17:16 OP:cam  STATUS:               ID:20140812083002d    3
 2014-08-12-0830-00M.COL___285                                                 6
 STAT SP IPHASW D HRMM SECON CODA AMPLIT PERI AZIMU VELO AIN AR TRES W  DIS CAZ7
 BAR2 SZ EP        831 25.71                             169    0.1710 27.9 190 
 RUS  HZ EP        831 30.05                             142    0.1310  105 177 
 RUS  HN ES        831 48.34                             142   -0.2110  105 177 
 RUS  HZ I         831 51.63         2.2 0.48            142            105 177 
 PTB  HZ EP        831 32.81                             131   -0.19 9  149 257 
 PTB  HN ES        831 54.03                             131   -0.00 9  149 257 
 PTB  HZ I         831 59.31         3.0 0.56            131            149 257 
 SPBC HZ EP        831 34.66                             128   -0.11 9  167 218 
 SPBC HN ES        831 57.39                             128    0.21 9  167 218 
 SPBC HZ I         832  3.60         4.0 0.26            128            167 218 
                                                                                
