 2016  212 0555 32.8 L   6.553 -73.532101.5  RSN 12 0.5 1.7LRSN                1
 GAP= 62        1.20       3.0     3.5  7.2 -0.1318E+01  0.1137E+02  0.6744E+00E
 Epicentro: EL CARMEN - SANTANDER                                              3
 ACTION:UPD 16-03-04 21:25 OP:rebc STATUS:               ID:20160212055532 L   I
 OLDACT:UP  16-02-12 18:14 OP:ak   STATUS:               ID:20160212054751     3
 OLDACT:REG 16-02-12 16:06 OP:ak   STATUS:               ID:20160212054751     3
 2016-02-12-0547-51M.COL___286                                                 6
 STAT SP IPHASW D HRMM SECON CODA AMPLIT PERI AZIMU VELO AIN AR TRES W  DIS CAZ7
 BAR2 EZ EP        555 48.14                             157    0.4110 38.9  84 
 BAR2 EZ ES        556  0.10                             157    0.7310 38.9  84 
 RUS  HZ EP        555 51.16                             136   -0.2810 88.3 146 
 RUS  HN ES        556  6.32                             136    0.3410 88.3 146 
 RUS  HZ I         556 10.13         4.6 0.34            138           88.3 146 
 PTB  HZ IP     D  555 50.98                             131   -1.0510  102 269 
 PTB  HN ES        556  5.98                             131   -1.0610  102 269 
 PTB  HZ I         556  8.21         9.9 0.20            130            102 269 
 SPBC HZ EP        555 53.27                             127   -0.1910  116 211 
 SPBC HN ES        556  9.21                             127   -0.3610  116 211 
 SPBC HZ I         556 10.94        19.2 0.10            128            116 211 
 PAM  EZ EP   2    555 54.77                             124   -0.24 5  127  47 
 PAM  EN ES        556 12.33                             124   -0.0110  127  47 
 ZAR  HZ EP        556  0.00                             114   -0.05 9  180 305 
 ZAR  HE ES        556 21.99                             114    0.68 9  180 305 
 ZAR  HZ I         556 24.95        14.1 0.28            114            180 305 
 OCA  HZ EP   2    556  0.63                             113   -0.54 4  188   7 
 OCA  HN ES        556 23.09                             113   -0.20 9  188   7 
 OCA  HZ I         556 28.89        13.8 0.36            113            188   7 
 CHI  HZ EP        556  4.30                             109   -0.15 8  214 186 
 CHI  HN ES        556 28.99                             109   -0.14 8  214 186 
 HEL  HZ EP        556  5.79                             108    0.17 8  225 260 
 HEL  HN ES        556 31.86                             108    0.63 8  225 260 
 HEL  HZ I         556 36.38         4.0 0.22            109            225 260 
 GUY2CHZ EP   2    556  9.35                             106    0.56 4  251 234 
 GUY2CHN ES        556 37.14                             106    0.27 8  251 234 
 GUY2CHZ I         556 41.71         3.6 0.28                           251 234 
 URE  HN ES   4    556 35.62                             105   -1.72 0  258 301 
 CBOC HZ EP        556 13.25                             103    0.78 7  285 255 
 CBOC HN ES   2    556 44.08                             103    0.67 4  285 255 
 CBOC HZ I         556 52.02         1.4 0.48            103            285 255 
 ORTC HZ EP        556 19.90                              99   -0.05 6  349 213 
 ORTC HE ES        556 57.12                              99    0.40 6  349 213 
 ORTC HZ I         556 59.72         1.0 0.28            100            349 213 
 SJC  HZ EP   4    556 25.60                              95   -2.02 0  412 334 
 SJC  HN ES   4    557  4.63                              95   -5.75 0  412 334 
                                                                                
