 2016  912 0237  2.7 L   6.769 -73.125139.0  RSN  9 0.5 1.9LRSN                1
 GAP=141        1.26       4.4     5.7  6.9 -0.7181E+00  0.7130E+01  0.5289E+01E
 Epicentro: LOS SANTOS - SANTANDER                                             3
 ACTION:UPD 17-08-17 21:09 OP:lp   STATUS:               ID:20160912023702 L   I
 OLDACT:UP  16-09-12 17:23 OP:ar   STATUS:               ID:20160912022733     3
 OLDACT:REG 16-09-12 15:04 OP:and  STATUS:               ID:20160912022733     3
 2016-09-12-0228-00M.COL___303                                                 6
 STAT SP IPHASW D HRMM SECON CODA AMPLIT PERI AZIMU VELO AIN AR TRES W  DIS CAZ7
 BAR2 EZ EP        237 21.19                             171   -0.2810 20.6 198 
 BAR2 EZ ES        237 35.66                             171   -0.4410 20.6 198 
 BAR2 EZ I         237 38.97        24.2 0.24            169           20.6 198 
 BRR  HZ IP     C  237 23.12                             150   -0.2310 74.9 300 
 BRR  HN ES        237 40.19                             150    0.7410 74.9 300 
 BRR  HZ I         237 44.13        17.5 0.16            150           74.9 300 
 PAM  EZ EP        237 24.19                             149   -0.0910 78.6  37 
 PAM  EE ES        237 41.29                             149    0.1810 78.6  37 
 PAM  EZ I         237 44.01         9.4 0.26            154           78.6  37 
 RUS  HZ EP        237 25.25                             143   -0.2910 97.0 177 
 RUS  HE ES        237 43.61                             143    0.2710 97.0 177 
 RUS  HZ I         237 45.12         6.4 0.18            145           97.0 177 
 PTB  HZ EP   9    237 27.95                             130   -1.34 0  149 260 
 PTB  HN ES        237 48.87                             130    0.19 9  149 260 
 PTB  HZ I         237 54.04        10.0 0.38            131            149 260 
 SPBC HZ EP        237 30.20                             128   -0.38 9  162 220 
 SPBC HN ES        237 52.43                             128    0.10 9  162 220 
 SPBC HZ I         237 56.69        18.7 0.22            129            162 220 
 ZAR  HZ EP        237 36.29                             120    1.21 8  208 293 
 ZAR  HN ES        237 59.15                             120   -1.18 8  208 293 
 ZAR  HZ I         238  4.43         9.9 0.38            122            208 293 
 CHI  HZ EP        237 39.65                             116   -0.10 8  246 196 
 CHI  HN ES        238  9.00                             116    0.36 8  246 196 
 CHI  HZ I         238 14.14         5.0 0.34            118            246 196 
 GUY2CHZ EP        237 46.35                             111    0.34 7  301 236 
 GUY2CHE ES   4    238 23.94                             111    4.16 0  301 236 
 GUY2CHZ I         238 27.69         5.9 0.62                           301 236 
                                                                                
