 2014  612 0430 47.8 L   6.810 -73.149145.3  RSN 14 0.4 2.0LRSN                1
 GAP=136        0.91       2.6     4.1  5.7 -0.1324E+01  0.9224E+01 -0.8305E+00E
 Epicentro: LOS SANTOS - SANTANDER                                             3
 OLDACT:REG 14-06-12 12:27 OP:mh   STATUS:               ID:20140612042815     3
 ACTION:UPD 14-07-01 22:53 OP:nd   STATUS:               ID:20140612043047 L   I
 OLDACT:UP  14-06-12 18:20 OP:mh   STATUS:               ID:20140612042815     3
 2014-06-12-0428-15M.COL___247                                                 6
 STAT SP IPHASW D HRMM SECON CODA AMPLIT PERI AZIMU VELO AIN AR TRES W  DIS CAZ7
 BAR2 SZ EP        431  7.51                             170    0.0810 24.4 189 
 BAR2 SZ ES        431 22.43                             170   -0.2810 24.4 189 
 BAR2 SZ I         431 25.71        25.6 0.50            167           24.4 189 
 PAM  SZ EP        431 10.31                             151    0.3510 76.8  40 
 PAM  SN ES   1    431 27.73                             151    0.51 7 76.8  40 
 PAM  SZ I         431 29.24        11.9 0.68            152           76.8  40 
 RUS  HZ EP        431 11.42                             143   -0.2010  102 176 
 RUS  HN ES        431 30.45                             143    0.2710  102 176 
 RUS  SZ I         431 31.61         8.9 0.34            141            102 176 
 PTB  HZ EP        431 14.19                             132   -0.56 9  148 258 
 PTB  HN ES   1    431 35.50                             132   -0.24 7  148 258 
 PTB  SZ I         431 37.23         7.3 0.42            127            148 258 
 OCA  HN ES   1    431 38.14                             130    0.18 7  159 353 
 SPBC HZ EP        431 16.47                             129    0.12 9  164 219 
 SPBC HN ES   1    431 38.39                             129   -0.21 7  164 219 
 SPBC SZ I         431 41.03        11.2 0.16            125            164 219 
 ZAR  HZ EP        431 19.74                             122   -0.42 9  203 292 
 ZAR  HN ES   1    431 45.74                             122    0.36 6  203 292 
 ZAR  SZ I         431 54.99         5.3 0.10            118            203 292 
 NOR  HN ES        431 51.81                             118    0.36 8  235 234 
 SML  HZ EP        431 24.47                             117    0.17 8  243 335 
 SML  HN ES        431 52.01                             117   -0.74 8  243 335 
 SML  SZ I         431 57.66        15.6 0.08            115            243 335 
 CHI  HZ EP        431 25.41                             117   -0.20 8  250 195 
 CHI  HN ES        431 54.40                             117   -0.68 8  250 195 
 CHI  SZ I         432  3.13         3.9 0.60            114            250 195 
 ROSC BZ EP   4    431 26.83                             116    0.82 0  254 211 
 ROSC BE ES   4    431 57.44                             116    1.65 0  254 211 
 ROSC SZ I         432  2.26         7.6 0.55            113            254 211 
 HEL  HZ EP   1    431 28.94                             115    0.93 6  272 256 
 HEL  SZ I         431 59.63         3.3 1.80            111            272 256 
 HEL  HN ES   1    432  0.16                             115    0.81 6  272 256 
 TOL  SZ EP        431 36.75                             109    0.62 7  344 224 
 TOL  SN ES   1    432 13.88                             109    0.08 5  344 224 
 TOL  SZ I         432 17.78        10.8 2.26            107            344 224 
 SJC  HZ EP   4    431 41.95                             106   -1.29 0  408 327 
 SJC  HN ES   4    432 24.33                             106   -2.13 0  408 327 
 SJC  SZ I         432 26.33         8.1 1.84            104            408 327 
                                                                                
