 2011  812 0147  7.1 L   6.816 -72.984142.3  RSN  7 0.4 1.7LRSN                1
 GAP=199        0.66       3.0     6.9  6.2  0.3968E-01  0.2227E+01  0.2366E+01E
 Epicentro: CEPITA - SANTANDER                                                 3
 ACTION:UPD 12-07-13 15:51 OP:ep   STATUS:               ID:20110812014707 L   I
 2011-08-12-0145-08S.COL___150                                                 6
 STAT SP IPHASW D HRMM SECON CODA AMPLIT PERI AZIMU VELO AIN AR TRES W  DIS CAZ7
 BAR2 SZ EP   1    147 26.13                             166   -0.41 7 33.0 222 
 BAR2 SZ ES   2    147 42.62                             166    0.91 5 33.0 222 
 BAR2 SZ I         147 44.67         7.9 0.37                          33.0 222 
 BRR  HZ EP        147 28.65                             147   -0.1710 86.6 292 
 BRR  HE ES   1    147 45.44                             147   -0.33 7 86.6 292 
 BRR  HZ I         147 51.81        15.1 0.26                          86.6 292 
 RUS  HZ EP   1    147 30.91                             142    0.26 7  103 186 
 RUS  HN ES   1    147 48.68                             142   -0.35 7  103 186 
 RUS  HZ I         147 50.87         3.7 0.31                           103 186 
 OCA  SZ EP   1    147 35.58                             128    0.32 7  162 347 
 OCA  SZ ES   1    147 57.47                             128    0.23 7  162 347 
 OCA  SZ I         148  5.62         8.2 0.59                           162 347 
 NOR  SZ EP   1    147 44.39                             116    0.06 6  250 237 
 NOR  SE ES   2    148 13.55                             116    0.18 4  250 237 
 CHI  HZ EP   1    147 44.93                             115   -0.42 6  256 199 
 CHI  HE ES   1    148 15.75                             115    0.55 6  256 199 
 CHI  HZ I         148 19.94         2.2 0.11                           256 199 
 RREF HZ EP   2    147 55.31                             109    0.52 3  337 231 
 RREF HN ES   2    148 32.05                             109    0.06 3  337 231 
 RREF HZ I         148 35.38         2.4 0.25                           337 231 
                                                                                
