 2016  612 0700 36.7 L   6.815 -73.128152.7  RSN 45 0.4 3.8LRSN                1
 GAP= 56        0.87       1.8     2.4  3.2 -0.1280E+01  0.1169E+01  0.2982E+00E
 Epicentro: LOS SANTOS - SANTANDER                                             3
      27.0      19.0      78.0  5.0  1.0  3.0  0.2  0.2           RSN FPFIT    F
 ACTION:UPD 16-07-21 22:18 OP:rebc STATUS:               ID:20160612070036 L   I
 OLDACT:UP  16-06-12 19:02 OP:nlst STATUS:               ID:20160612070036 L   3
 OLDACT:UP  16-06-12 15:47 OP:dani STATUS:               ID:20160612065741     3
 OLDACT:UP  16-06-12 15:31 OP:dani STATUS:               ID:20160612065741     3
 OLDACT:UP  16-06-12 15:31 OP:dani STATUS:               ID:20160612065741     3
 OLDACT:UP  16-06-12 15:28 OP:dani STATUS:               ID:20160612065741     3
 OLDACT:REG 16-06-12 13:34 OP:dani STATUS:               ID:20160612065741     3
 2016-06-12-0657-41M.COL___325                                                 6
 STAT SP IPHASW D HRMM SECON CODA AMPLIT PERI AZIMU VELO AIN AR TRES W  DIS CAZ7
 BAR2 EZ IP     C  7 0 57.24                             170    0.0110 25.3 194 
 BAR2 EZ ES        7 1 12.57                             170   -0.6510 25.3 194 
 BAR2 EZ I         7 1 13.56      1492.6 0.22                          25.3 194 
 BRR  HZ EP     C  7 0 59.05                             153    0.3710 72.2 297 
 BRR  HN ES        7 1 16.18                             153    0.3710 72.2 297 
 BRR  HZ I         7 1 20.10       577.0 0.32                          72.2 297 
 PAM  EZ IP     C  7 1  0.07                             153    0.5310 74.9  39 
 PAM  EN ES        7 1 17.55                             153    0.2110 74.9  39 
 PAM  EZ I         7 1 19.59      1024.3 0.42                          74.9  39 
 RUS  HZ IP     D  7 1  1.17                             145   -0.1010  102 177 
 RUS  HE ES        7 1 20.20                             145   -0.2110  102 177 
 RUS  HZ I         7 1 21.59       606.3 0.38                           102 177 
 PTB  HZ EP        7 1  3.65                             133   -0.81 9  150 258 
 PTB  HE ES        7 1 25.80                             133   -0.30 9  150 258 
 PTB  HZ I         7 1 31.34       610.0 0.30                           150 258 
 TAM  HZ IP   4 C  7 1  5.71                             132    0.89 0  154 106 
 TAM  HZ I         7 1 26.67       442.8 0.40                           154 106 
 TAM  HN ES        7 1 27.53                             132    0.79 9  154 106 
 OCA  HZ IP     C  7 1  5.28                             131   -0.18 9  159 352 
 OCA  HE ES        7 1 27.38                             131   -0.49 9  159 352 
 OCA  HZ I         7 1 35.80      1320.2 0.36                           159 352 
 SPBC HZ EP        7 1  6.07                             130    0.08 9  166 219 
 SPBC HN ES        7 1 28.54                             130   -0.29 9  166 219 
 SPBC HZ I         7 1 32.98      1330.3 0.28                           166 219 
 NOR  HZ EP        7 1 13.02                             120   -0.11 8  237 234 
 NOR  HN ES        7 1 41.96                             120    0.43 8  237 234 
 NOR  HZ I         7 1 50.85       424.4 0.42                           237 234 
 CHI  HZ EP        7 1 15.13                             118    0.09 8  251 196 
 CHI  HN ES        7 1 44.81                             118   -0.11 8  251 196 
 CHI  HZ I         7 1 49.88       466.8 0.50                           251 196 
 ROSC BZ EP   9    7 1 17.13                             118    1.64 0  255 211 
 ROSC BE ES        7 1 47.66                             118    0.29 8  255 211 
 ROSC BZ I         7 1 51.99      1377.5 0.45                           255 211 
 HEL  HZ EP        7 1 17.89                             116    0.34 8  274 256 
 HEL  HN ES        7 1 49.72                             116    0.32 8  274 256 
 HEL  HZ I         7 1 55.37       379.8 0.30                           274 256 
 URE  HZ EP   4    7 1 17.04                             115   -1.23 0  285 291 
 URE  HE ES   4    7 1 48.73                             115   -1.96 0  285 291 
 URE  HZ I         7 2  0.00       396.1 0.30                           285 291 
 GUY2CHZ EP        7 1 21.20                             113    0.26 7  304 235 
 GUY2CHE ES   4    7 2  0.28                             113    4.84 0  304 235 
 GUY2CHZ I         7 2  3.71       410.0 0.56                           304 235 
 VIL  SZ EP        7 1 20.51                             113   -0.18 7  305 192 
 VIL  SN ES        7 1 55.25                             113    0.27 7  305 192 
 LL1C HZ EP   4 D  7 1 22.43                             113    1.94 0  305 351 
 LL1C HN ES   4    7 1 57.82                             113    3.19 0  305 351 
 PTGC HZ IP     D  7 1 20.40                             113   -0.58 7  309 159 
 PTGC HN ES   4    7 1 54.33                             113   -1.18 0  309 159 
 PTGC HZ I         7 1 55.75       308.1 0.24                           309 159 
 LL6C HZ EP     C  7 1 21.75                             112   -0.80 7  323 357 
 LL6C HE ES        7 1 57.92                             112   -0.38 7  323 357 
 LL5C HZ EP     C  7 1 24.15                             111    0.74 7  331 349 
 LL5C HN ES        7 2  0.36                             111    0.53 7  331 349 
 LL5C HZ I         7 2 10.39       221.9 0.58                           331 349 
 ELA  HZ EP        7 1 24.51                             111    0.35 7  332 229 
 ELA  HN ES   4    7 2  5.65                             111    4.48 0  332 229 
 ELA  HZ I         7 2 13.88       317.8 0.48                           332 229 
 CBOC HZ EP     C  7 1 24.45                             111    0.25 7  336 252 
 CBOC HE ES   4    7 2  2.90                             111    1.66 0  336 252 
 CBOC HZ I         7 2 13.75        91.4 0.50                           336 252 
 DBB  SZ EP     C  7 1 24.70                             111    0.00 7  341 274 
 SDV  BZ EP     D  7 1 27.02                             110    0.28 6  358  50 
 SDV  BE ES        7 2  5.49                             110   -0.27 6  358  50 
 SDV  BZ I         7 2  7.62        94.0 0.40                           358  50 
 ARGC HZ EP   9    7 1 27.26                             109    0.71 0  358 340 
 ARGC HE ES        7 2  6.69                             110    0.56 6  358 340 
 ARGC HZ I         7 2 14.70        91.7 0.30                           358 340 
 ANIL HZ EP   9    7 1 28.54                             109    1.45 0  360 225 
 ANIL HN ES        7 2  8.65                             109    0.82 6  360 225 
 PRA  HZ EP        7 1 30.23                             107   -0.54 6  394 210 
 PRA  HE ES        7 2 12.47                             107   -0.45 6  394 210 
 PRA  HZ I         7 2 17.55       431.5 0.46                           394 210 
 ORTC HZ EP        7 1 31.65                             107    0.48 6  398 216 
 ORTC HN ES   4    7 2 15.15                             107    1.51 0  398 216 
 ORTC HZ I         7 2 18.73       260.0 0.24                           398 216 
 PAL  HZ EP     C  7 1 32.59                             107    0.18 6  408 239 
 PAL  HN ES   4    7 2 18.13                             107    2.28 0  408 239 
 PAL  HZ I         7 2 20.92       107.3 0.74                           408 239 
 SJC  HZ EP   4 D  7 1 30.88                             107   -1.61 0  409 327 
 SJC  HN ES   4    7 2 12.35                             107   -3.64 0  409 327 
 SJC  HZ I         7 2 27.07       141.1 0.76                           409 327 
 LCBC HE ES   4    7 2 20.10                             106    1.41 0  423 303 
 CRJC HZ EP   4    7 1 37.50                             104   -1.72 0  466   3 
 CRJC HE ES   4    7 2 25.46                             104   -2.51 0  466   3 
 CRJC HZ I         7 2 32.54       139.0 0.34                           466   3 
 YOT  HZ EP     D  7 1 39.79                             104   -0.48 5  474 229 
 GUA  SZ EP        7 1 39.31                             104   -0.92 5  475 173 
 GUA  SN ES   4    7 2 28.35                             104   -1.42 0  475 173 
 GUA  SZ I         7 2 34.73       209.6 0.28                           475 173 
 SOL  SZ EP        7 1 40.99                             104    0.49 5  478 262 
 SOL  SN ES   4    7 2 31.94                             104    1.68 0  478 262 
 SMAR HZ EP        7 1 41.79                             103   -0.86 4  496 346 
 SMAR HN ES   4    7 2 30.45                             103   -3.62 0  496 346 
 SMAR HZ I         7 2 33.09        79.7 0.40                           496 346 
 CAP2 HZ EP   9    7 1 42.11                             103   -2.09 0  509 294 
 CAP2 HN ES        7 2 35.46                             103    0.71 4  509 294 
 CAP2 HZ I         7 2 35.62        46.1 0.18                           509 294 
 BET  EZ EP        7 1 45.84                             103    0.38 4  519 209 
 BET  EE ES        7 2 39.33                             103    0.26 4  519 209 
 PTA  HZ EP   4    7 1 42.58                             103   -2.75 0  519 274 
 PTA  HE ES   4    7 2 37.29                             103   -1.55 0  519 274 
 PTA  HZ I         7 2 45.94        36.6 0.44                           519 274 
 BET  EZ I         7 2 43.44        62.9 0.40                           519 209 
 MACC HZ EP   4 D  7 1 44.23                             102   -1.60 0  522 189 
 MACC HN ES   4    7 2 36.80                             102   -2.94 0  522 189 
 MACC HZ I         7 2 41.65        90.9 0.76                           522 189 
 MARA HZ EP        7 1 47.99                             102   -0.22 4  540 216 
 MARA HE ES        7 2 45.11                             102    1.15 4  540 216 
 URI  HZ EP   9 C  7 1 48.07                             102   -1.58 0  555  13 
 URI  HN ES        7 2 44.31                             102   -0.64 4  555  13 
 URI  HZ I         7 2 49.60        31.6 0.40                           555  13 
 MAL  SZ EP   4    7 1 51.82                             101    1.57 0  560 237 
 GARC HZ EP   9    7 1 51.26                             101   -1.15 0  575 207 
 GARC HE ES        7 2 50.72                             101    0.42 3  575 207 
 GARC HZ I         7 2 55.61        81.1 0.26                           575 207 
 PCON HZ EP   4    7 1 58.69                             100    1.16 0  615 216 
 POP2 HZ EP     C  7 1 56.56                             100   -0.62 3  615 220 
 POP2 HE ES   4    7 3  4.05                             100    4.12 0  615 220 
 FLO2 HZ EP        7 1 59.87                             100   -0.39 2  643 206 
 FLO2 HN ES        7 3  5.29                             100   -0.12 2  643 206 
 FLO2 HZ I         7 3 10.31        29.3 0.52                           643 206 
 SOTA HZ EP        7 2  2.11                             100    0.93 2  646 217 
 BCIP BZ EP   4    7 2 14.90                              97   -2.39 0  784 290 
 BCIP BN ES   4    7 3 32.23                              97   -3.51 0  784 290 
 BCIP BZ I         7 3 49.11         6.5 0.75                           784 290 
 AZU  HZ EP        7 2 18.02                              97   -0.73 0  796 278 
 AZU  HE ES   4    7 3 35.55                              97   -2.78 0  796 278 
                                                                                
