 2011  912 0433  7.3 L   6.777 -73.068150.9  RSN  4 0.2 1.4LRSN                1
 GAP=191        0.37       5.8    12.9  8.2  0.5619E+02 -0.6324E+02 -0.2519E+02E
 Epicentro: LOS SANTOS - SANTANDER                                             3
 ACTION:UP  12-07-13 15:57 OP:ep   STATUS:               ID:20110912043307 L   I
 OLDACT:UPD 12-07-12 20:30 OP:ep   STATUS:               ID:20110912043307 L   3
 2011-09-12-0432-05S.COL___168                                                 6
 STAT SP IPHASW D HRMM SECON CODA AMPLIT PERI AZIMU VELO AIN AR TRES W  DIS CAZ7
 GIR2 SZ EP   3    433 27.68                             166    0.01 2 36.1 337 
 GIR2 SZ ES   3    433 43.89                             166    0.30 2 36.1 337 
 BRR  HZ EP   1    433 29.41                             150   -0.05 7 80.0 297 
 BRR  HN ES   2    433 46.83                             150    0.05 5 80.0 297 
 BRR  HZ I         433 50.25         4.8 0.57                          80.0 297 
 RUS  HZ EP   1    433 31.53                             145    0.21 7 97.8 181 
 RUS  HZ I         433 47.79         2.6 0.79                          97.8 181 
 RUS  HN ES   2    433 49.76                             145   -0.33 5 97.8 181 
 OCA  SZ EP   2    433 36.14                             130   -0.17 5  164 350 
 OCA  SZ I         434  6.94         3.0 0.67                           164 350 
                                                                                
