 2015  612 0810 55.9 L   6.799 -73.123150.0  RSN 11 0.5 1.7LRSN                1
 GAP=184        1.00       3.8     5.1  6.1 -0.3725E+00  0.4216E+01  0.3198E+01E
 Epicentro: LOS SANTOS - SANTANDER                                             3
 ACTION:UPD 15-09-10 22:11 OP:cam  STATUS:               ID:20150612081055 L   I
 OLDACT:REG 15-06-12 13:57 OP:ak\  STATUS:               ID:20150612080746     3
 2015-06-12-0807-46M.COL___294                                                 6
 STAT SP IPHASW D HRMM SECON CODA AMPLIT PERI AZIMU VELO AIN AR TRES W  DIS CAZ7
 BAR2 EZ EP        811 16.57                             171    0.5510 23.7 196 
 BAR2 EZ ES        811 31.13                             171   -0.6010 23.7 196 
 BAR2 EZ I         811 33.54         6.8 0.18            167           23.7 196 
 BRR  HZ EP        811 17.18                             152   -0.4210 73.5 298 
 BRR  HN ES        811 35.23                             152    0.6710 73.5 298 
 BRR  HZ I         811 39.51         6.0 0.14            150           73.5 298 
 ZAR  HZ EP   1    811 29.29                             123    0.46 6  206 292 
 ZAR  HN ES        811 53.85                             123   -0.70 8  206 292 
 ZAR  HZ I         812  0.73         4.3 0.28            123            206 292 
 NOR  HN ES        812  0.70                             119    0.42 8  237 235 
 NOR  HZ I         812  8.49         3.6 0.14            119            237 235 
 SML  HZ EP        811 33.08                             118    0.22 8  245 335 
 SML  HN ES        812  1.72                             118    0.00 8  245 335 
 SML  HZ I         812  4.92         9.9 0.10            120            245 335 
 HEL  HZ EP   1    811 36.25                             115   -0.31 6  274 256 
 HEL  HE ES        812  8.37                             115    0.07 8  274 256 
 HEL  HZ I         812 14.12         1.9 0.44            116            274 256 
 GUY2CHZ EP   2    811 39.98                             113    0.09 4  303 235 
 GUY2CHN ES        812 14.34                             113    0.11 7  303 235 
 GUY2CHZ I         812 27.01         2.6 0.44                           303 235 
 PTGC HZ EP        811 39.71                             112   -0.09 7  308 159 
 PTGC HN ES   4    812 12.03                             112   -2.03 0  308 159 
 MON  HZ EP   4    811 43.93                             109   -1.34 0  356 308 
 MON  HE ES   4    812 21.52                             109   -2.29 0  356 308 
 MON  HZ I         812 23.87         1.0 0.17            110            356 308 
 PRA  HZ EP        811 50.05                             107    0.39 6  393 210 
 PRA  HN ES        812 30.92                             107   -0.71 6  393 210 
 PRA  HZ I         812 38.30         2.2 0.28            108            393 210 
 SJC  HZ EP   1    811 50.95                             106   -0.80 4  411 327 
 SJC  HN ES   4    812 32.03                             106   -3.30 0  411 327 
                                                                                
