 2011  512 0839 57.9 L   6.752 -73.069140.7  RSN 11 0.2 1.7LRSN                1
 GAP=149        0.40       2.3     3.5  4.3 -0.3322E+01  0.4629E+01  0.4090E+00E
 Epicentro: LOS SANTOS - SANTANDER                                             3
 ACTION:UP  11-06-29 08:52 OP:tino STATUS:               ID:20110512083957 L   I
 2011-05-12-0836-41S.COL___129                                                 6
 STAT SP IPHASW D HRMM SECON CODA AMPLIT PERI AZIMU VELO SNR AR TRES W  DIS CAZ7
 BAR2 SZ EP   1    840 16.95                             171     0.1 7   22 215 
 BAR2 SZ ES   2    840 31.73                             171     0.0 5   22 215 
 BAR2 SZ I         840 33.25        14.1 0.31                            22 215 
 BTL  SZ EP   1    840 17.24                             168     0.2 7   29 310 
 GIR2 SZ EP   2    840 17.05                             164    -0.2 5   39 339 
 PAM  SZ EP   2    840 19.91                             150     0.4 5   77  32 
 PAM  SN ES   2    840 36.66                             150     0.2 5   77  32 
 BRR  HZ EP   1    840 18.95                             148    -0.2 7   81 299 
 BRR  HN ES   2    840 35.67                             148     0.0 5   81 299 
 BRR  HZ I         840 38.19        10.6 0.11                            81 299 
 RUS  HZ EP   1    840 20.82                             144     0.1 7   95 181 
 RUS  HZ I         840 22.18         5.0 0.18                            95 181 
 RUS  HN ES   2    840 38.55                             144     0.0 5   95 181 
 GRA  SZ EP   1    840 22.78                             135    -0.2 7  129  13 
 GRA  SZ ES   1    840 42.21                             135    -0.3 7  129  13 
 GRA  SZ I         840 45.08         5.0 0.42                           129  13 
 OCA  SZ EP   2    840 26.33                             127    -0.1 5  167 350 
 OCA  SZ ES   2    840 48.85                             127     0.1 5  167 350 
 OCA  SZ I         840 56.22         5.9 0.38                           167 350 
 NOR  SZ EP   2    840 33.46                             117    -0.3 4  239 237 
 NOR  SN ES   2    841  1.34                             117    -0.4 4  239 237 
 HEL  HZ EP   1    840 39.07                             113     0.4 6  279 257 
 HEL  HN ES   2    841 10.62                             113     0.2 4  279 257 
 HEL  HZ I         841 15.38         3.1 0.35                           279 257 
 PRA  HE ES   2    841 32.71                             106    -0.1 3  392 211 
                                                                                
