 2010  912 0202 36.5 L   6.806 -73.052147.2  RSN  5 0.2 1.5LRSN                1
 GAP=244        0.48       6.2    12.5  6.6  0.5985E+02 -0.2742E+02 -0.8952E+01E
 Epicentro: LOS SANTOS - SANTANDER                                             3
 ACTION:UP  11-02-18 11:02 OP:tino STATUS:               ID:20100912020236 L   I
 2010-09-12-0201-31S.COL___120                                                 6
 STAT SP IPHASW D HRMM SECON CODA AMPLIT PERI AZIMU VELO SNR AR TRES W  DIS CAZ7
 BTL  SZ EP   1    2 2 56.61                             170     0.2 7   27 298 
 BRR  HZ EP        2 2 58.19                             150    -0.110   80 295 
 BRR  HE ES   1    2 3 15.45                             150     0.1 7   80 295 
 BRR  HZ I         2 3 17.10         5.0 0.24                            80 295 
 RUS  HZ EP   1    2 3  0.42                             144     0.0 7  101 182 
 RUS  HN ES   1    2 3 19.10                             144     0.0 7  101 182 
 RUS  HZ I         2 3 20.62         3.4 0.43                           101 182 
 CHI  HZ EP   2    2 3 14.23                             117    -0.4 4  252 197 
 CHI  HZ I         2 3 15.30         1.1 0.03                           252 197 
 PRA  HZ EP   2    2 3 31.30                             107     0.6 3  398 211 
 PRA  HZ I         2 4 16.00         1.9 0.36                           398 211 
                                                                                
