 2017  812 0506 17.4 L   6.785 -73.101136.0  RSN  8 0.4 1.5LRSN                1
 GAP=143        0.93       3.5     4.5  5.7 -0.7928E+00  0.8626E+01  0.3448E+01E
 Epicentro: LOS SANTOS - SANTANDER                                             3
 ACTION:UPD 17-09-04 20:19 OP:rebc STATUS:               ID:20170812050617 L   I
 OLDACT:REG 17-08-12 12:36 OP:dhb  STATUS:               ID:20170812045641     3
 2017-08-12-0457-00M.COL___417                                                 6
 STAT SP IPHASW D HRMM SECON CODA AMPLIT PERI AZIMU VELO AIN AR TRES W  DIS CAZ7
 BAR2 EZ EP        5 6 35.53                             170   -0.3010 23.2 203 
 BAR2 EZ ES        5 6 50.12                             170   -0.1110 23.2 203 
 BAR2 EZ I         5 6 51.36         6.6 0.16            171           23.2 203 
 PAM  EZ IP     C  5 6 38.42                             150   -0.0410 75.6  36 
 PAM  EN ES        5 6 55.22                             150    0.3310 75.6  36 
 PAM  EZ I         5 6 59.24         4.3 0.32            150           75.6  36 
 BRR  HZ EP        5 6 37.37                             149   -0.4310 76.3 298 
 BRR  HN ES        5 6 54.04                             149    0.3210 76.3 298 
 BRR  HZ I         5 6 55.97         6.4 0.16            148           76.3 298 
 RUS  HZ EP        5 6 39.77                             142   -0.2810 98.8 179 
 RUS  HN ES     D  5 6 57.81                             142    0.0810 98.8 179 
 SPBC HZ EP        5 6 45.87                             126    0.53 9  165 221 
 SPBC HN ES        5 7  7.02                             126   -0.13 9  165 221 
 ZAR  HZ EP        5 6 50.06                             119    0.30 8  209 292 
 ZAR  HE ES        5 7 14.52                             119   -0.50 8  209 292 
 ZAR  HZ I         5 7 20.35         3.5 0.18            120            209 292 
 GUY2CHZ EP   1    5 7  2.17                             110    1.25 5  304 236 
 GUY2CHE ES   2    5 7 35.80                             110    0.92 4  304 236 
 GUY2CHZ I         5 7 40.54         1.3 0.25                           304 236 
 PRA  HZ EP        5 7  9.87                             105   -0.84 6  393 210 
 PRA  HE ES        5 7 52.44                             105    0.14 6  393 210 
 PRA  HZ I         5 7 57.25         1.5 0.25            106            393 210 
                                                                                
