 2014  812 0049 47.9 L   5.993 -73.690114.5  RSN  5 0.5 1.4LRSN                1
 GAP=129        1.18       6.1     5.1 10.2  0.1404E+01  0.1755E+01 -0.1986E+02E
 Epicentro: VELEZ - SANTANDER                                                  3
 ACTION:UPD 14-09-15 21:49 OP:nd   STATUS:               ID:20140812004947 L   I
 OLDACT:UP  14-08-12 17:49 OP:cam  STATUS:               ID:20140812004848     3
 OLDACT:REG 14-08-12 17:46 OP:cam  STATUS:               ID:20140812004848     3
 2014-08-12-0048-48M.COL___275                                                 6
 STAT SP IPHASW D HRMM SECON CODA AMPLIT PERI AZIMU VELO AIN AR TRES W  DIS CAZ7
 SPBC HN ES        050 18.86                             152    0.5310 56.7 228 
 SPBC HZ I         050 21.18         8.0 0.10            145           56.7 228 
 RUS  HZ EP        050  6.52                             147    0.2310 68.0  99 
 RUS  HN ES        050 20.26                             147   -0.3410 68.0  99 
 RUS  HZ I         050 21.81         2.6 0.62            142           68.0  99 
 BAR2 SZ EP        050  7.45                             140    0.1710 86.9  40 
 BAR2 SZ ES        050 21.96                             140   -0.4210 86.9  40 
 BAR2 SZ I         050 24.20        14.6 0.40            134           86.9  40 
 PTB  HZ EP        050  7.75                             134   -0.6610  104 306 
 PTB  HN ES        050 23.98                             134   -0.4110  104 306 
 PTB  HZ I         050 26.81         3.2 0.14            127            104 306 
 BRR  HZ EP        050 10.36                             129    0.2410  123 359 
 BRR  HZ I         050 24.01         8.9 0.42            122            123 359 
 BRR  HN ES        050 28.15                             129    0.7210  123 359 
                                                                                
