 2014  212 0526 36.0 L   6.809 -73.158146.3  RSN 12 0.3 2.0LRSN                1
 GAP= 70        0.70       1.9     2.1  3.9 -0.3186E+00  0.2305E+01  0.3065E+00E
 Epicentro: LOS SANTOS - SANTANDER                                             3
 ACTION:UPD 14-03-10 08:09 OP:ep   STATUS:               ID:20140212052636 L   I
 OLDACT:DUP 14-02-12 10:20 OP:carl STATUS:               ID:20140212052001d    3
 OLDACT:REG 14-02-12 08:14 OP:carl STATUS:               ID:20140212052000     3
 2014-02-12-0520-00M.COL___199                                                 6
 STAT SP IPHASW D HRMM SECON CODA AMPLIT PERI AZIMU VELO AIN AR TRES W  DIS CAZ7
 BAR2 SZ EP        526 55.85                             170    0.1210 24.1 186 
 BAR2 SZ ES        527 11.06                             170   -0.0510 24.1 186 
 BAR2 SZ I         527 11.97        27.5 0.28            169           24.1 186 
 PAM  SZ EP        526 58.66                             151    0.3510 77.5  41 
 PAM  SN ES        527 16.01                             151    0.3210 77.5  41 
 PAM  SZ I         527 17.95        17.1 0.22            146           77.5  41 
 RUS  HZ EP        526 59.68                             144   -0.2310  102 175 
 RUS  HN ES        527 18.00                             144   -0.5410  102 175 
 RUS  HZ I         527 19.84         7.8 0.32            140            102 175 
 PTB  HZ EP        527  2.71                             132   -0.22 9  147 258 
 PTB  HN ES        527 23.67                             132   -0.24 9  147 258 
 PTB  HZ I         527 31.40        14.4 0.34            129            147 258 
 TAM  HZ EP        527  3.97                             130    0.08 9  157 105 
 TAM  HZ I         527 24.78         7.8 0.44            125            157 105 
 TAM  HN ES        527 25.60                             130   -0.03 9  157 105 
 OCA  HZ EP   4    527  3.79                             130   -0.48 0  159 354 
 OCA  HN ES        527 26.17                             130   -0.13 9  159 354 
 OCA  HZ I         527 31.14        11.6 0.18            126            159 354 
 SPBC HZ EP        527  4.73                             129    0.18 9  163 218 
 SPBC HN ES        527 27.35                             129    0.54 9  163 218 
 ZAR  HN ES        527 33.99                             123    0.46 9  202 292 
 NOR  HZ EP        527 11.98                             119    0.26 8  234 234 
 NOR  HN ES        527 39.43                             119   -0.14 8  234 234 
 NOR  HZ I         527 43.59         8.9 0.28            115            234 234 
 SML  HZ EP        527 12.15                             118   -0.37 8  242 335 
 SML  HN ES        527 40.58                             118   -0.40 8  242 335 
 SML  HZ I         527 45.54        20.4 0.10            114            242 335 
 CHI  HZ EP        527 13.84                             117    0.03 8  249 195 
 CHI  HN ES        527 43.29                             117   -0.00 8  249 195 
 CHI  HZ I         527 49.15         3.8 0.38            114            249 195 
 CBOC HZ EP        527 22.75                             110   -0.09 7  333 252 
 CBOC HE ES        527 59.34                             110   -0.02 7  333 252 
 CBOC HZ I         528  8.90         1.9 0.40            107            333 252 
                                                                                
