 2015  312 0048 39.9 L   7.508 -73.319121.9  RSN  6 0.4 1.7LRSN                1
 GAP=135        0.86       4.0     3.6  7.2  0.5278E+00  0.1062E+02 -0.7646E+01E
 Epicentro: EL PLAYON - SANTANDER                                              3
 ACTION:UPD 15-04-30 16:25 OP:nd   STATUS:               ID:20150312004839 L   I
 OLDACT:REG 15-03-12 13:13 OP:cam  STATUS:               ID:20150312004740     3
 2015-03-12-0047-40M.COL___284                                                 6
 STAT SP IPHASW D HRMM SECON CODA AMPLIT PERI AZIMU VELO AIN AR TRES W  DIS CAZ7
 BRR  HZ EP     C  048 57.93                             151   -0.0610 62.0 224 
 BRR  HN ES        049 11.92                             151   -0.1510 62.0 224 
 BRR  HZ I         049 13.09        14.7 0.12            150           62.0 224 
 PAM  SZ EP        048 59.57                             148    0.3310 70.9 105 
 PAM  SE ES        049 14.40                             148    0.1010 70.9 105 
 PAM  SZ I         049 15.93         7.1 0.48            151           70.9 105 
 SML  HN ES        049 27.31                             123   -0.47 9  165 330 
 PTB  HZ EP        049  6.32                             123   -0.50 9  165 230 
 PTB  HN ES        049 27.54                             123   -0.25 9  165 230 
 PTB  HZ I         049 32.58         6.9 0.20            123            165 230 
 ZAR  HZ EP        049  7.72                             122    0.42 9  170 270 
 ZAR  HN ES        049 29.24                             122    0.60 9  170 270 
 ZAR  HN I         049 32.87        21.4 0.40            122            170 270 
 MON  HZ EP        049 20.81                             108   -0.33 7  294 299 
 MON  HN ES        049 53.53                             108    0.25 7  294 299 
 MON  HN I         049 55.77         1.6 0.16            109            294 299 
                                                                                
