 2012 1012 0449 57.1 L   6.768 -73.087141.2  RSN  5 0.3 1.6LRSN                1
 GAP=146        0.70       4.5     7.6  6.8 -0.4193E+01  0.3828E+01 -0.1543E+01E
 Epicentro: LOS SANTOS - SANTANDER                                             3
 ACTION:UPD 12-11-22 17:03 OP:ep   STATUS:               ID:20121012044957 L   I
 2012-10-12-0450-00M.COL___231                                                 6
 STAT SP IPHASW D HRMM SECON CODA AMPLIT PERI AZIMU VELO AIN AR TRES W  DIS CAZ7
 BAR2 SZ EP        450 16.11                             171   -0.0510 22.1 209 
 BAR2 SZ I         450 16.25         8.2 0.42                          22.1 209 
 BAR2 SZ ES   1    450 30.83                             171   -0.20 7 22.1 209 
 GIR2 SZ EP        450 16.11                             165   -0.2810 36.4 341 
 GIR2 SZ ES   3    450 31.44                             165    0.01 2 36.4 341 
 PAM  SZ IP        450 18.96                             150    0.1910 76.3  34 
 PAM  SZ I         450 19.17         8.1 0.24                          76.3  34 
 PAM  SN ES   1    450 35.71                             150    0.04 7 76.3  34 
 BRR  HZ EP        450 17.95                             149   -0.2610 78.6 299 
 BRR  HZ I         450 18.29         9.4 0.14                          78.6 299 
 BRR  HE ES   2    450 35.58                             149    0.91 5 78.6 299 
 RUS  HZ EP        450 20.56                             144    0.4310 96.8 180 
 RUS  HN ES   1    450 37.80                             144   -0.29 7 96.8 180 
 RUS  HN I         450 40.25         4.5 0.44                          96.8 180 
                                                                                
