 2016 1112 0022 54.4 L   6.839 -73.144146.0  RSN  8 0.4 1.8LRSN                1
 GAP=147        0.94       5.6     4.2  6.5 -0.7593E+01  0.6083E+01  0.1291E+02E
 Epicentro: LOS SANTOS - SANTANDER                                             3
 ACTION:UPD 17-10-26 21:07 OP:lp   STATUS:               ID:20161112002254 L   I
 OLDACT:UP  16-11-12 19:01 OP:and  STATUS:               ID:20161112000437d    3
 OLDACT:REG 16-11-12 12:20 OP:and  STATUS:               ID:20161112000437d    3
 2016-11-12-0018-00M.COL___340                                                 6
 STAT SP IPHASW D HRMM SECON CODA AMPLIT PERI AZIMU VELO AIN AR TRES W  DIS CAZ7
 BAR2 EZ IP     C  023 13.83                             169   -0.3010 27.6 189 
 BAR2 EZ ES        023 29.38                             169   -0.1510 27.6 189 
 BAR2 EZ I         023 30.53        10.9 0.26            169           27.6 189 
 BRR  HZ EP        023 15.53                             153    0.0810 69.4 295 
 BRR  HN ES        023 32.64                             153    0.7510 69.4 295 
 BRR  HZ I         023 35.42        14.1 0.40            153           69.4 295 
 PAM  EZ IP     D  023 16.68                             152    0.2610 74.0  42 
 PAM  EN ES        023 33.47                             152   -0.1510 74.0  42 
 PAM  EZ I         023 35.49        11.6 0.54            154           74.0  42 
 PTB  HZ EP        023 20.77                             132   -0.69 9  149 257 
 PTB  HN ES        023 42.30                             132   -0.28 9  149 257 
 PTB  HZ I         023 45.67         7.0 0.18            133            149 257 
 ZAR  HZ EP   4    023 27.98                             123    1.29 0  203 291 
 ZAR  HN ES        023 51.79                             123   -0.11 9  203 291 
 ZAR  HZ I         023 54.00         7.6 0.10            124            203 291 
 NOR  HZ EP        023 30.39                             118   -0.01 8  237 234 
 NOR  HE ES        023 58.45                             118   -0.05 8  237 234 
 NOR  HZ I         024  1.38         4.6 0.18            120            237 234 
 CBOC HN ES        024 18.13                             110   -0.08 7  335 251 
 ORTC HZ EP        023 49.47                             106    0.75 6  399 216 
 ORTC HE ES        024 31.93                             106    0.82 6  399 216 
                                                                                
