 2016  912 0053 54.0 L   6.798 -73.128145.5  RSN  9 0.4 1.9LRSN                1
 GAP=139        1.10       4.2     4.7  6.9 -0.7061E+00  0.5630E+01 -0.4670E+01E
 Epicentro: LOS SANTOS - SANTANDER                                             3
 ACTION:UPD 17-08-17 21:09 OP:lp   STATUS:               ID:20160912005354 L   I
 OLDACT:REG 16-09-12 14:36 OP:and  STATUS:               ID:20160912004741     3
 2016-09-12-0048-00M.COL___303                                                 6
 STAT SP IPHASW D HRMM SECON CODA AMPLIT PERI AZIMU VELO AIN AR TRES W  DIS CAZ7
 BAR2 EZ EP        054 13.78                             170    0.2210 23.5 195 
 BAR2 EZ ES        054 28.70                             170   -0.1410 23.5 195 
 BAR2 EZ I         054 29.28        14.0 0.26            172           23.5 195 
 BRR  HZ EP        054 15.61                             152    0.4310 73.0 298 
 BRR  HN ES        054 32.28                             152    0.5510 73.0 298 
 BRR  HZ I         054 36.69        10.6 0.12            150           73.0 298 
 PAM  EZ EP        054 16.52                             151    0.4410 76.3  38 
 PAM  EE EP        054 16.57                             151           76.3  38 
 PAM  EE ES        054 33.30                             151   -0.0410 76.3  38 
 PAM  EZ I         054 35.42        17.6 0.56            153           76.3  38 
 RUS  HZ EP        054 17.56                             144   -0.0910  100 177 
 RUS  HN ES        054 36.08                             144   -0.0610  100 177 
 RUS  HZ I         054 37.74         6.5 0.34            148            100 177 
 PTB  HZ EP        054 20.40                             132   -0.67 9  150 259 
 PTB  HE ES        054 41.59                             132   -0.63 9  150 259 
 PTB  HZ I         054 44.19         6.0 0.16            133            150 259 
 OCA  HZ EP        054 22.20                             129   -0.09 9  161 352 
 OCA  HE ES        054 43.52                             129   -0.87 9  161 352 
 OCA  HZ I         054 48.97        18.3 0.26            130            161 352 
 ZAR  HZ EP        054 26.85                             122    0.27 8  206 292 
 ZAR  HN ES        054 52.61                             122    0.58 8  206 292 
 ZAR  HZ I         054 58.58         7.2 0.26            123            206 292 
 GUY2CHZ EP   9    054 40.60                             112    2.88 0  303 235 
 GUY2CHN ES        055 14.90                                    0.17 7  303 235 
 GUY2CHZ I         055 18.60         2.8 0.30                           303 235 
 SJC  HZ EP   4    054 48.63                             106   -1.03 0  411 327 
 SJC  HN ES   4    055 30.03                             106   -3.08 0  411 327 
 SJC  HZ I         055 34.06         2.4 0.68            107            411 327 
                                                                                
