 2014 1012 0749 37.7 L   6.765 -73.192144.1  RSN  7 0.5 1.6LRSN                1
 GAP=132        1.18       5.5     6.3  7.8 -0.6363E+00  0.6409E+00 -0.8535E+01E
 Epicentro: LOS SANTOS - SANTANDER                                             3
 ACTION:UPD 14-11-29 23:49 OP:nd   STATUS:               ID:20141012074937 L   I
 OLDACT:DUP 14-10-12 18:05 OP:stll STATUS:               ID:20141012074749d    3
 2014-10-12-0747-48M.COL___285                                                 6
 STAT SP IPHASW D HRMM SECON CODA AMPLIT PERI AZIMU VELO AIN AR TRES W  DIS CAZ7
 BAR2 SZ EP        749 57.42                             172    0.3310 19.1 177 
 BAR2 SZ ES        750 11.74                             172   -0.4410 19.1 177 
 BAR2 SZ I         750 14.06        11.8 0.36            175           19.1 177 
 BRR  HZ EP     C  749 59.12                             153    0.5510 68.8 303 
 BRR  HZ I         749 59.41         8.1 0.14            141           68.8 303 
 BRR  HN ES        750 15.27                             153    0.4510 68.8 303 
 PAM  SZ EP        750  0.12                             148   -0.0410 83.6  41 
 PAM  SZ I         750  0.48        10.9 0.20            140           83.6  41 
 RUS  HZ EP        750  1.64                             144    0.5510 97.2 173 
 RUS  HE ES        750 18.79                             144   -0.5010 97.2 173 
 RUS  HZ I         750 21.46         4.4 0.20            144           97.2 173 
 PTB  HZ EP        750  3.89                             133   -0.16 9  142 260 
 PTB  HN ES        750 24.07                             133   -0.50 9  142 260 
 PTB  HZ I         750 32.04         4.2 0.24            124            142 260 
 SPBC HZ EP        750  5.13                             130   -0.39 9  157 218 
 SPBC HN ES        750 27.73                             130    0.54 9  157 218 
 SPBC HZ I         750 29.68         4.5 0.22            124            157 218 
 SML  HZ EP        750 13.74                             117   -0.69 8  245 337 
 SML  HZ I         750 51.01         4.9 0.26            109            245 337 
                                                                                
