 2014  512 0004 23.1 L   6.832 -73.089157.1  RSN  6 0.5 1.1LRSN                1
 GAP=142        1.02       5.0     7.4 15.1 -0.5894E+01  0.6550E+02 -0.1841E+02E
 Epicentro: LOS SANTOS - SANTANDER                                             3
 OLDACT:DUP 14-05-12 18:13 OP:spq  STATUS:               ID:20140512000010d    3
 ACTION:UPD 15-03-16 16:56 OP:nd   STATUS:               ID:20140512000423 L   I
 OLDACT:UP  14-05-12 18:25 OP:spq  STATUS:               ID:20140512000010d    3
 2014-05-12-0000-09M.COL___254                                                 6
 STAT SP IPHASW D HRMM SECON CODA AMPLIT PERI AZIMU VELO AIN AR TRES W  DIS CAZ7
 PAM  SZ EPg  1    0 4 46.75                             155    0.54 8 70.7  37 
 PAM  SN ES   1    0 5  3.76                             155   -0.45 8 70.7  37 
 PAM  SN ESg  1    0 5  3.94                             155   -0.27 8 70.7  37 
 PAM  SZ I         0 5  6.57         2.4 1.10            155           70.7  37 
 RUS  HN ES        0 5  8.22                             145    0.3810  104 180 
 PTB  HZ EP   1    0 4 50.72                             133   -0.95 7  155 258 
 PTB  HN ES   1    0 5 13.36                             133   -0.55 7  155 258 
 OCA  HN ES   1    0 5 14.91                             132    0.19 7  158 351 
 ZAR  HN ES   1    0 5 23.86                             124    0.79 6  209 291 
 SML  HN ES   1    0 5 29.50                             120    0.08 6  243 334 
                                                                                
