 2012  812 0631 11.4 L   6.776 -73.118146.0  RSN 14 0.4 2.2LRSN                1
 GAP= 68        0.84       3.4     3.6  4.8  0.6214E+00  0.8853E+00  0.3493E+01E
 Epicentro: LOS SANTOS - SANTANDER                                             3
 ACTION:UPD 12-09-10 11:56 OP:ep   STATUS:               ID:20120812063111 L   I
 2012-08-12-0630-00M.COL___218                                                 6
 STAT SP IPHASW D HRMM SECON CODA AMPLIT PERI AZIMU VELO AIN AR TRES W  DIS CAZ7
 BAR2 SZ EP        631 31.04                             171    0.0010 21.6 199 
 BAR2 SZ ES        631 46.12                             171   -0.2210 21.6 199 
 BAR2 SZ I         631 47.75        61.4 0.28                          21.6 199 
 GIR2 SZ EP        631 31.07                             166   -0.1310 34.5 346 
 BRR  HZ EP        631 32.88                             151    0.0710 75.1 299 
 BRR  HZ I         631 33.22        33.8 0.16                          75.1 299 
 BRR  HN ES        631 50.48                             151    0.9710 75.1 299 
 PAM  SZ EP        631 33.52                             151   -0.1410 77.6  37 
 PAM  SN ES   1    631 50.64                             151   -0.38 7 77.6  37 
 PAM  SZ I         631 53.53        19.7 0.56                          77.6  37 
 RUS  HZ EP        631 34.91                             145   -0.0810 97.8 178 
 RUS  HE ES   1    631 53.27                             145   -0.11 7 97.8 178 
 RUS  HZ I         631 54.87        16.7 0.35                          97.8 178 
 PTB  HZ EP        631 38.02                             132   -0.61 9  150 260 
 PTB  HE ES   1    631 59.54                             132   -0.32 7  150 260 
 PTB  HZ I         632  1.25        12.6 0.19                           150 260 
 TAM  HZ EP        631 39.21                             131    0.43 9  151 104 
 OCA  HZ EP   1    631 39.94                             129   -0.08 7  163 352 
 OCA  HN ES   1    632  2.10                             129   -0.24 7  163 352 
 OCA  HZ I         632  6.94        34.1 0.25                           163 352 
 YOP  SZ EP   1    631 41.49                             127    0.38 7  175 154 
 ZAR  HZ EP   1    631 44.07                             122   -0.20 6  208 292 
 ZAR  HN ES   1    632  9.79                             122   -0.10 6  208 292 
 ZAR  HZ I         632 14.65        23.3 0.31                           208 292 
 NOR  SZ EP   1    631 47.08                             118   -0.18 6  236 235 
 CHI  HZ EP   1    631 49.08                             117    0.14 6  247 196 
 CHI  HZ I         632 24.46         6.9 0.31                           247 196 
 HEL  HZ EP   1    631 52.73                             115    0.83 6  274 256 
 HEL  HZ I         632 30.66         5.4 0.36                           274 256 
 PRA  HZ EP   1    632  4.80                             107   -0.05 4  391 210 
 PRA  HE ES   1    632 46.45                             107   -0.09 4  391 210 
 PRA  HZ I         632 52.94         8.3 0.36                           391 210 
                                                                                
