 2012 1212 0620 26.1 L   6.799 -73.145142.2  RSN 14 0.5 2.0LRSN                1
 GAP= 71        0.87       3.0     3.4  5.5  0.6190E+00  0.3629E+01  0.1559E+01E
 Epicentro: LOS SANTOS - SANTANDER                                             3
 ACTION:UPD 13-01-04 14:27 OP:ep   STATUS:               ID:20121212062026 L   I
 2012-12-12-0620-00M.COL___242                                                 6
 STAT SP IPHASW D HRMM SECON CODA AMPLIT PERI AZIMU VELO AIN AR TRES W  DIS CAZ7
 BAR2 SZ EP   1    620 45.30                             170    0.01 7 23.2 190 
 BAR2 SZ ES   1    620 59.71                             170   -0.56 7 23.2 190 
 BAR2 SZ I         621  1.31        35.5 0.16                          23.2 190 
 GIR2 SZ EP   1    620 45.39                             167    0.05 7 31.4 350 
 GIR2 SZ ES   1    621  0.33                             167   -0.03 7 31.4 350 
 GIR2 SZ I         621  2.42        19.8 0.44                          31.4 350 
 BRR  HZ EP   1    620 47.20                             152    0.34 7 71.3 299 
 BRR  HN ES   1    621  4.12                             152    1.06 7 71.3 299 
 BRR  HZ I         621  5.81        23.4 0.14                          71.3 299 
 PAM  SZ EP   1    620 48.13                             150    0.20 7 77.4  39 
 PAM  SE ES   1    621  5.17                             150    0.21 7 77.4  39 
 PAM  SZ I         621  7.60        17.7 0.68                          77.4  39 
 RUS  HZ EP   1    620 49.33                             143   -0.15 7  100 176 
 RUS  HN ES   1    621  7.36                             143   -0.37 7  100 176 
 RUS  HZ I         621  9.08         9.4 0.32                           100 176 
 PTB  HZ EP   1    620 52.00                             131   -0.77 7  148 259 
 PTB  HN ES   1    621 13.12                             131   -0.46 7  148 259 
 PTB  HZ I         621 15.33        18.4 0.14                           148 259 
 TAM  HZ EP   1    620 53.63                             130    0.15 7  155 105 
 TAM  HE ES   1    621 15.06                             130    0.22 7  155 105 
 OCA  HZ EP   1    620 54.76                             129    0.63 7  160 353 
 OCA  HN ES   1    621 15.13                             129   -0.88 7  160 353 
 ZAR  HZ EP   1    620 58.10                             122   -0.21 6  204 292 
 ZAR  HN ES   1    621 24.21                             122    0.76 6  204 292 
 ZAR  HZ I         621 32.20        11.8 0.32                           204 292 
 SML  HZ EP   1    621  2.26                             117   -0.27 6  244 335 
 SML  HE ES   1    621 30.40                             117   -0.55 6  244 335 
 CHI  HZ EP   1    621  3.47                             116   -0.11 6  249 195 
 CHI  HN ES   1    621 32.96                             116    0.14 6  249 195 
 CHI  HZ I         621 38.67         2.7 0.36                           249 195 
 ROSC BZ EP   4    621  5.88                             116    1.87 0  253 211 
 ROSC BN ES   4    621 35.74                             116    2.15 0  253 211 
 ROSC BZ I         621 41.34         5.0 0.60                           253 211 
 HEL  HE ES   1    621 37.49                             114    0.14 6  272 256 
 HEL  HZ I         621 44.50         5.2 0.48                           272 256 
 MON  HZ EP   4    621 12.93                             108   -2.03 0  354 308 
 MON  HN ES   4    621 51.72                             108   -1.37 0  354 308 
 PRA  HZ EP   2    621 19.58                             106    0.10 3  392 210 
 PRA  HN ES   1    622  1.73                             106    0.61 4  392 210 
                                                                                
