 2012  112 0433 21.8 L   6.338 -73.602107.9  RSN 12 0.3 1.8LRSN                1
 GAP= 72        0.60       2.8     2.8  6.5 -0.4169E+00  0.4789E+01  0.3106E+01E
 Epicentro: SANTA HELENA DEL OPON - SANTANDER                                  3
 ACTION:UP  12-02-03 08:16 OP:REBC STATUS:               ID:20120112043321 L   I
 2012-01-12-0430-00M.COL___187                                                 6
 STAT SP IPHASW D HRMM SECON CODA AMPLIT PERI AZIMU VELO SNR AR TRES W  DIS CAZ7
 BAR2 SZ IP        433 38.25                             151     0.010   54  59 
 BAR2 SZ I         433 38.53        34.9 0.18                            54  59 
 BAR2 SZ ES   2    433 51.85                             151     0.7 5   54  59 
 RUS  HZ EP   1    433 39.83                             143    -0.2 7   76 131 
 RUS  HN ES   2    433 54.15                             143    -0.1 5   76 131 
 RUS  HZ I         433 55.95         7.9 0.32                            76 131 
 BRR  HZ EP   1    433 40.09                             138    -0.1 7   86 352 
 BRR  HZ I         434  2.02        11.5 0.14                            86 352 
 GIR2 SZ EP   2    433 40.82                             136    -0.2 5   94  29 
 GIR2 SZ ES   2    433 56.00                             136     0.0 5   94  29 
 PTB  HZ IP     D  433 40.80                             135    -0.310   97 283 
 PTB  HN ES   1    433 56.20                             135     0.0 7   97 283 
 PAM  SN ES   2    434  5.80                             122    -0.4 5  149  42 
 CHI  HZ EP   1    433 51.13                             115     0.1 7  189 184 
 CHI  HZ I         433 52.91         4.0 0.48                           189 184 
 ZAR  HZ EP   2    433 49.94                             115    -0.5 4  189 313 
 ZAR  HN ES   2    434 12.71                             115     0.0 4  189 313 
 ZAR  HZ I         434 18.75        10.8 0.34                           189 313 
 CHI  HN ES   2    434 13.99                             115     0.2 4  189 184 
 OCA  SZ EP   2    433 54.08                             112     0.8 4  213   8 
 OCA  SZ ES   2    434 18.38                             112     0.6 4  213   8 
 OCA  SZ I         434 24.29         9.5 0.31                           213   8 
 HEL  HZ EP   2    433 54.34                             112     0.7 4  214 266 
 HEL  HN ES   2    434 18.77                             112     0.2 4  214 266 
 HEL  HZ I         434 22.89         3.3 0.32                           214 266 
 RREF HN ES   2    434 26.92                             108     0.3 4  250 231 
 PRA  HZ EP   2    434  6.31                             102     0.2 3  323 206 
                                                                                
