 2017  612 0902  8.7 L   6.798 -73.173151.8  RSN  4 0.4 1.3LRSN                1
 GAP=278        0.93       6.2     9.9  9.5 -0.1926E+01 -0.1268E+02 -0.2720E+01E
 Epicentro: LOS SANTOS - SANTANDER                                             3
 ACTION:UPD 17-09-14 16:51 OP:jn   STATUS:               ID:20170612090208 L   I
 OLDACT:UP  17-07-04 16:13 OP:nlst STATUS:               ID:20170612090208 L   3
 OLDACT:UP  17-06-12 15:30 OP:dani STATUS:               ID:20170612085742d    3
 OLDACT:UP  17-06-12 15:30 OP:dani STATUS:               ID:20170612085742d    3
 OLDACT:DUP 17-06-12 15:28 OP:dani STATUS:               ID:20170612085742d    3
 OLDACT:UP  17-06-12 15:27 OP:dani STATUS:               ID:20170612085741     3
 OLDACT:REG 17-06-12 13:09 OP:dani STATUS:               ID:20170612085741     3
 2017-06-12-0858-00M.COL___347                                                 6
 STAT SP IPHASW D HRMM SECON CODA AMPLIT PERI AZIMU VELO AIN AR TRES W  DIS CAZ7
 BRR  HZ EP        9 2 30.35                             154    0.0110 68.6 300 
 BRR  HN ES        9 2 47.26                             154    0.0210 68.6 300 
 BRR  HZ I         9 2 47.71         4.0 0.36            146           68.6 300 
 PTB  HZ EP        9 2 35.30                             134   -0.57 9  145 259 
 PTB  HE ES        9 2 56.59                             134   -0.50 9  145 259 
 PTB  HZ I         9 2 58.80         2.0 0.14            129            145 259 
 SPBC HN ES        9 3  0.36                             131    0.46 9  161 218 
 ZAR  HZ EP        9 2 41.59                             124    0.36 9  201 293 
 ZAR  HN ES        9 3  6.98                             124    0.34 9  201 293 
 ZAR  HZ I         9 3 13.35         1.9 0.33            120            201 293 
                                                                                
