 2014  812 0944  9.7 L   6.841 -73.189141.4  RSN 20 0.5 2.5LRSN                1
 GAP=129        1.12       3.1     4.1  5.5  0.8221E+00  0.7857E+01  0.7664E+00E
 Epicentro: ZAPATOCA - SANTANDER                                               3
 ACTION:UPD 14-09-15 21:49 OP:nd   STATUS:               ID:20140812094409 L   I
 OLDACT:UP  14-08-12 17:42 OP:cam  STATUS:               ID:20140812094000     3
 OLDACT:UP  14-08-12 17:42 OP:cam  STATUS:               ID:20140812094000     3
 OLDACT:UP  14-08-12 17:41 OP:cam  STATUS:               ID:20140812094000     3
 OLDACT:UP  14-08-12 17:37 OP:cam  STATUS:               ID:20140812094000     3
 OLDACT:UP  14-08-12 17:37 OP:cam  STATUS:               ID:20140812094000     3
 OLDACT:UP  14-08-12 17:37 OP:cam  STATUS:               ID:20140812094000     3
 OLDACT:UP  14-08-12 17:36 OP:cam  STATUS:               ID:20140812094000     3
 OLDACT:REG 14-08-12 12:37 OP:cam  STATUS:               ID:20140812094000     3
 2014-08-12-0940-00M.COL___285                                                 6
 STAT SP IPHASW D HRMM SECON CODA AMPLIT PERI AZIMU VELO AIN AR TRES W  DIS CAZ7
 BAR2 SZ EP     C  944 28.87                             168   -0.0410 27.5 178 
 BAR2 SZ ES        944 43.44                             168   -0.4510 27.5 178 
 BAR2 SZ I         944 44.75       131.5 0.28            162           27.5 178 
 BRR  HZ IP     C  944 30.59                             154    0.5510 64.8 297 
 BRR  HE ES        944 46.33                             154    0.4410 64.8 297 
 BRR  HZ I         944 50.98        84.1 0.50            141           64.8 297 
 PAM  SZ EP        944 31.69                             150    0.2310 77.3  44 
 PAM  SN ES        944 48.73                             150    0.3110 77.3  44 
 PAM  SZ I         944 50.69        47.3 0.46            149           77.3  44 
 RUS  HZ EP     C  944 33.00                             141   -0.4110  105 174 
 RUS  HE ES        944 51.47                             141   -0.4110  105 174 
 RUS  HZ I         944 53.01        15.6 0.16            134            105 174 
 PTB  HZ EP        944 35.61                             132   -0.37 9  144 257 
 PTB  HN ES        944 56.48                             132    0.01 9  144 257 
 PTB  HZ I         944 59.12        47.2 0.16            120            144 257 
 SPBC HZ EP        944 38.21                             128    0.27 9  164 217 
 SPBC HN ES        945  0.12                             128    0.17 9  164 217 
 SPBC HZ I         945  7.88        40.0 0.26            118            164 217 
 ZAR  HZ EP        944 41.42                             122    0.18 9  198 291 
 ZAR  HN ES        945  6.38                             122    0.55 9  198 291 
 ZAR  HZ I         945 16.84        29.3 0.26            113            198 291 
 SML  HZ EP        944 45.21                             117   -0.23 8  238 336 
 SML  HN ES        945 12.87                             117   -0.43 8  238 336 
 SML  HZ I         945 24.58        47.1 0.10            109            238 336 
 CHI  HZ EP     C  944 47.34                             116   -0.18 8  252 194 
 CHI  HE ES        945 16.96                             116   -0.04 8  252 194 
 CHI  HZ I         945 24.60         7.0 0.32            109            252 194 
 ROSC BZ EP   4    944 49.24                             116    1.48 0  254 210 
 ROSC BN ES   4    945 20.16                             116    2.73 0  254 210 
 ROSC BZ I         945 27.57        14.2 0.45            108            254 210 
 HEL  HZ EP   4    944 51.21                             114    1.89 0  269 255 
 HEL  HZ I         945 26.91        26.0 0.38            106            269 255 
 URE  HZ EP        944 49.32                             113   -0.57 7  278 291 
 URE  HE ES        945 19.85                             113   -1.37 7  278 291 
 URE  HZ I         945 33.06        27.4 0.30            105            278 291 
 GUY2CHZ EP        944 54.41                             112    1.43 7  300 234 
 GUY2CHN ES        945 26.83                             112    0.11 7  300 234 
 GUY2CHZ I         945 35.59        13.4 0.40                           300 234 
 PTGC HZ EP   4    944 52.31                             110   -1.75 0  315 158 
 PTGC HN ES   4    945 25.71                             110   -2.94 0  315 158 
 PTGC HN I         945 27.40        35.4 0.38            105            315 158 
 CBOC HZ EP   4    944 57.11                             109    1.02 0  330 251 
 CBOC HZ I         945 44.89         7.2 0.62            102            330 251 
 DBB  SZ EP        944 56.65                             109    0.22 7  334 274 
 DBB  SZ ES   4    945 29.63                             109   -3.23 0  334 274 
 TOL  SZ EP   4    944 59.02                             108    1.24 0  343 224 
 TOL  SZ ES   4    945 37.42                             108    2.15 0  343 224 
 TOL  SZ I         945 47.57        24.9 0.42            102            343 224 
 PRA  HZ EP   1    945  3.03                             106   -0.24 4  394 209 
 PRA  HN ES   4    945 44.27                             106   -0.78 0  394 209 
 PRA  HZ I         945 50.93        12.0 0.36            100            394 209 
 ORTC HZ EP   1    945  3.52                             106   -0.07 4  396 215 
 ORTC HN ES   4    945 47.59                             106    1.99 0  396 215 
 ORTC HZ I         945 51.48         9.5 0.60            100            396 215 
 SJC  HZ EP   4    945  2.71                             105   -1.67 0  403 327 
 SJC  HN ES   4    945 44.17                             105   -2.85 0  403 327 
 SJC  HZ I         945 48.54        10.7 0.34             99            403 327 
                                                                                
