 2014 1112 0740 52.1 L   6.812 -73.173144.6  RSN  6 0.4 1.5LRSN                1
 GAP=133        1.01       4.1     5.1  7.4 -0.1935E+01  0.4654E+01  0.4584E+00E
 Epicentro: LOS SANTOS - SANTANDER                                             3
 ACTION:UPD 14-12-19 15:42 OP:nd   STATUS:               ID:20141112074052 L   I
 OLDACT:DUP 14-11-12 18:56 OP:stll STATUS:               ID:20141112073745d    3
 OLDACT:DUP 14-11-12 18:47 OP:stll STATUS:               ID:20141112073744d    3
 2014-11-12-0737-43M.COL___274                                                 6
 STAT SP IPHASW D HRMM SECON CODA AMPLIT PERI AZIMU VELO AIN AR TRES W  DIS CAZ7
 BAR2 SZ EP        741 11.82                             170    0.2310 24.3 182 
 BAR2 SZ ES        741 26.99                             170    0.1910 24.3 182 
 BRR  HZ EP        741 13.54                             153    0.6210 67.9 299 
 BRR  HZ I         741 13.91         9.9 0.16            153           67.9 299 
 BRR  HN ES        741 29.62                             153    0.4510 67.9 299 
 PAM  SZ EP        741 14.54                             150    0.3110 78.3  42 
 PAM  SZ I         741 14.71         7.5 0.22            151           78.3  42 
 PAM  SN ES        741 31.31                             150   -0.1910 78.3  42 
 RUS  HZ EP        741 15.73                             143   -0.1010  102 174 
 RUS  HN ES        741 33.95                             143   -0.4010  102 174 
 RUS  HZ I         741 35.67         3.1 0.34            143            102 174 
 PTB  HZ EP        741 18.41                             132   -0.30 9  145 258 
 PTB  HN ES        741 39.16                             132   -0.32 9  145 258 
 PTB  HZ I         741 41.35         3.8 0.42            131            145 258 
 OCA  HN ES        741 41.36                             130   -0.67 9  159 354 
                                                                                
