 2014 1112 0944 16.9 L   6.812 -73.161144.0  RSN 19 0.4 2.3LRSN                1
 GAP= 70        0.99       2.9     2.9  5.2 -0.1036E+01  0.3449E+01  0.2065E+01E
 Epicentro: LOS SANTOS - SANTANDER                                             3
 ACTION:UPD 14-12-19 15:42 OP:nd   STATUS:               ID:20141112094416 L   I
 OLDACT:ARG 14-11-12 12:06 OP:stll STATUS:               ID:20141112093744     3
 2014-11-12-0937-44M.COL___274                                                 6
 STAT SP IPHASW D HRMM SECON CODA AMPLIT PERI AZIMU VELO AIN AR TRES W  DIS CAZ7
 BAR2 SZ IP     D  944 36.33                             170   -0.0310 24.4 185 
 BAR2 SZ ES   1    944 51.10                             170   -0.43 7 24.4 185 
 BAR2 SZ I         944 52.27        83.6 0.28            168           24.4 185 
 BRR  HZ IP     C  944 38.23                             153    0.4710 69.0 298 
 BRR  HN ES        944 55.13                             153    1.1210 69.0 298 
 BRR  HZ I         944 58.37        30.4 0.16            150           69.0 298 
 PAM  SZ EP     C  944 39.17                             151    0.2110 77.5  41 
 PAM  SN ES        944 56.14                             151   -0.0010 77.5  41 
 PAM  SZ I         944 58.59        62.1 0.46            155           77.5  41 
 RUS  HZ EP        944 40.34                             143   -0.2710  102 175 
 RUS  HN ES        944 58.80                             143   -0.2810  102 175 
 RUS  HZ I         944 59.75        26.5 0.24            143            102 175 
 PTB  HZ EP        944 42.85                             132   -0.77 9  146 258 
 PTB  HE ES        945  4.35                             132   -0.09 9  146 258 
 PTB  HZ I         945  9.53        29.6 0.26            130            146 258 
 TAM  HZ EP     D  944 44.71                             130    0.06 9  157 105 
 TAM  HE ES        945  6.44                             130    0.16 9  157 105 
 TAM  HZ I         945  6.89        14.5 0.34            133            157 105 
 OCA  HZ EP        944 44.89                             130   -0.06 9  159 354 
 OCA  HN ES        945  6.25                             130   -0.57 9  159 354 
 OCA  HZ I         945 12.47        26.7 0.32            131            159 354 
 SPBC HZ EP        944 45.30                             129    0.02 9  163 218 
 SPBC HE ES        945  7.21                             129   -0.19 9  163 218 
 SPBC HZ I         945  9.43        29.2 0.10            128            163 218 
 NOR  HZ EP        944 52.43                             118   -0.05 8  234 234 
 NOR  HE ES        945 20.19                             118   -0.03 8  234 234 
 NOR  HZ I         945 24.37        19.8 0.38            118            234 234 
 CHI  HZ EP   1    944 54.70                             117    0.08 6  249 195 
 CHI  HN ES   1    945 23.73                             117   -0.29 6  249 195 
 CHI  HZ I         945 31.76         5.7 0.30            117            249 195 
 ROSC BZ EP   4    944 57.95                             116    2.97 0  253 211 
 ROSC BN ES   4    945 27.32                             116    2.66 0  253 211 
 ROSC BZ I         945 34.03        12.9 0.35            116            253 211 
 URE  HZ EP        944 57.48                             113   -0.19 7  282 292 
 URE  HN ES   1    945 28.58                             113   -0.87 6  282 292 
 URE  HZ I         945 36.48        14.7 0.34            113            282 292 
 PTGC HZ EP   4    944 59.61                             111   -1.30 0  311 158 
 PTGC HN ES   4    945 27.51                             111   -7.72 0  311 158 
 PTGC HZ I         945 32.83        20.5 0.46            112            311 158 
 CBOC HZ EP   1    945  4.43                             110    0.81 5  332 252 
 CBOC HE ES   1    945 40.70                             110    0.65 5  332 252 
 CBOC HZ I         945 53.11         3.8 0.39            110            332 252 
 DBB  SZ ES   1    945 40.74                             109   -0.19 5  338 274 
 TOL  SZ EP   4    945  6.63                             109    1.55 0  343 224 
 TOL  SE ES   4    945 45.15                             109    2.51 0  343 224 
 TOL  SZ I         945 52.19        12.3 0.24            109            343 224 
 MON  HZ EP   4    945  3.98                             108   -1.62 0  351 308 
 MON  HN ES   4    945 42.49                             108   -1.08 0  351 308 
 MON  HZ I         945 43.27         7.2 0.18            109            351 308 
 PRA  HZ EP        945 11.07                             106    0.65 6  392 209 
 PRA  HN ES        945 52.77                             106    0.62 6  392 209 
 PRA  HZ I         945 59.25         5.9 0.26            107            392 209 
 SJC  HZ EP   4    945 10.62                             106   -1.56 0  407 327 
 SJC  HE ES   4    945 50.96                             106   -4.33 0  407 327 
 SJC  HZ I         945 56.37         6.6 0.60            106            407 327 
                                                                                
