 2013  312 0042  2.1 L   6.743 -73.173146.0  RSN  5 0.5 1.7LRSN                1
 GAP=230        0.70       7.1     8.8 10.4  0.2841E+02 -0.4950E+01  0.1800E+02E
 Epicentro: VILLANUEVA - SANTANDER                                             3
 ACTION:UPD 13-04-09 14:01 OP:ep   STATUS:               ID:20130312004202 L   I
 2013-03-12-0040-00M.COL___231                                                 6
 STAT SP IPHASW D HRMM SECON CODA AMPLIT PERI AZIMU VELO AIN AR TRES W  DIS CAZ7
 BRR  HZ EP     D  042 23.04                             153   -0.2910 71.9 304 
 BRR  HN ES   1    042 40.46                             153    0.58 7 71.9 304 
 BRR  HZ I         042 45.17         7.0 0.16            155           71.9 304 
 RUS  HZ EP   1    042 25.41                             146   -0.06 7 94.6 174 
 RUS  HN ES   2    042 43.81                             146    0.13 5 94.6 174 
 RUS  HZ I         042 45.11         4.6 0.56            148           94.6 174 
 PTB  HN ES   2    042 48.65                             134   -0.86 5  144 261 
 PTB  HN I         042 49.43        13.1 0.30            136            144 261 
 ZAR  HN ES   2    043  0.09                             123    0.24 4  204 294 
 PRA  HZ EP   2    042 55.45                             107    0.62 3  385 210 
 PRA  HN ES   2    043 36.58                             107    0.63 3  385 210 
 PRA  HZ I         043 40.06         2.8 0.34            110            385 210 
                                                                                
