 2010 1212 0354 56.1 L   6.776 -73.052146.7  RSN  9 0.4 1.5LRSN                1
 GAP=169        0.62       3.7    13.7  8.4 -0.2267E+02  0.5921E+02 -0.7733E+01E
 Epicentro: LOS SANTOS - SANTANDER                                             3
 ACTION:UP  11-01-14 15:24 OP:pat  STATUS:               ID:20101212035456 L   I
 2010-12-12-0350-44S.COL___137                                                 6
 STAT SP IPHASW D HRMM SECON CODA AMPLIT PERI AZIMU VELO SNR AR TRES W  DIS CAZ7
 BAR2 SZ EP   2    355 15.35                             170    -0.5 5   25 216 
 BAR2 SZ ES   2    355 30.74                             170    -0.5 5   25 216 
 BTL  SZ EP        355 15.98                             168     0.010   29 304 
 GIR2 SZ EP   2    355 15.19                             165    -0.8 5   37 335 
 RUS  HZ EP   2    355 19.55                             145    -0.2 5   98 182 
 RUS  HE ES   1    355 38.46                             145     0.3 7   98 182 
 RUS  HZ I         355 39.92         5.6 0.45                            98 182 
 GRA  SZ EP   2    355 21.83                             137     0.4 5  126  13 
 GRA  SZ ES   2    355 41.42                             137     0.3 5  126  13 
 GRA  SZ I         355 42.29         4.1 0.32                           126  13 
 OCA  SZ EP   2    355 24.64                             129    -0.2 5  164 350 
 OCA  SZ ES   2    355 47.90                             129     0.6 5  164 350 
 OCA  SZ I         355 53.14         4.1 0.31                           164 350 
 CHI  HZ EP   2    355 33.88                             117     0.0 4  249 198 
 CHI  HN ES   2    356  3.66                             117     0.3 4  249 198 
 CHI  HZ I         356 11.26         1.9 0.40                           249 198 
 HEL  HZ EP   2    355 37.36                             114     0.0 4  281 257 
 PRA  HZ EP   2    355 49.64                             106    -0.3 3  395 211 
 PRA  HN ES   2    356 32.66                             106     0.7 3  395 211 
                                                                                
