 2014  212 0750  5.7 L   6.808 -73.101145.9  RSN  9 0.5 1.7LRSN                1
 GAP=142        1.14       3.1     5.4  7.0 -0.8058E+00  0.1278E+02 -0.1613E+01E
 Epicentro: LOS SANTOS - SANTANDER                                             3
 ACTION:UPD 14-03-10 08:09 OP:ep   STATUS:               ID:20140212075005 L   I
 OLDACT:REG 14-02-12 08:19 OP:carl STATUS:               ID:20140212075000     3
 2014-02-12-0750-00M.COL___199                                                 6
 STAT SP IPHASW D HRMM SECON CODA AMPLIT PERI AZIMU VELO AIN AR TRES W  DIS CAZ7
 BAR2 SZ IP     D  750 25.81                             170    0.4510 25.5 201 
 BAR2 SZ ES        750 40.79                             170    0.0710 25.5 201 
 BAR2 SZ I         750 42.73        15.5 0.28            168           25.5 201 
 PAM  SE ES        750 45.08                             152    0.2410 73.6  37 
 RUS  HZ EP        750 29.75                             144    0.2710  101 179 
 RUS  HN ES        750 48.16                             144    0.1110  101 179 
 RUS  HZ I         750 48.99         5.3 0.20            144            101 179 
 PTB  HZ EP        750 32.61                             131   -0.49 9  153 259 
 PTB  HN ES        750 54.12                             131   -0.38 9  153 259 
 PTB  HZ I         750 56.50        10.3 0.50            130            153 259 
 OCA  HZ EP        750 33.07                             130   -0.90 9  160 351 
 OCA  HN ES        750 55.40                             130   -0.64 9  160 351 
 OCA  HZ I         751  1.35         6.0 0.26            131            160 351 
 SPBC HZ EP        750 34.67                             128    0.13 9  167 220 
 SPBC HN ES        750 56.74                             128   -0.32 9  167 220 
 SPBC HZ I         751  3.48         4.3 0.22            128            167 220 
 ZAR  HZ EP        750 38.88                             122    0.32 8  208 291 
 ZAR  HE ES        751  5.14                             122    0.92 8  208 291 
 ZAR  HZ I         751  7.22         6.9 0.10            122            208 291 
 SML  HZ EP        750 42.90                             117    0.46 8  245 334 
 SML  HN ES        751 11.14                             117    0.02 8  245 334 
 SML  HZ I         751 15.13         5.5 0.22            118            245 334 
 CHI  HZ EP        750 44.06                             117    0.45 8  251 196 
 CHI  HN ES        751 12.55                             117   -0.66 8  251 196 
 CHI  HZ I         751 23.57         1.2 0.50            117            251 196 
                                                                                
