 2016  812 0452  6.9 L   6.744 -73.112140.8  RSN  6 0.3 1.8LRSN                1
 GAP=143        0.79       4.9     5.1  6.4 -0.1435E+02 -0.2485E+01  0.1178E+02E
 Epicentro: LOS SANTOS - SANTANDER                                             3
 ACTION:UPD 16-10-29 15:34 OP:rebc STATUS:               ID:20160812045206 L   I
 OLDACT:UP  16-08-12 14:32 OP:dani STATUS:               ID:20160812044736d    3
 OLDACT:UP  16-08-12 14:32 OP:dani STATUS:               ID:20160812044736d    3
 OLDACT:UP  16-08-12 14:31 OP:dani STATUS:               ID:20160812044736d    3
 OLDACT:DUP 16-08-12 14:27 OP:dani STATUS:               ID:20160812044736d    3
 OLDACT:UP  16-08-12 14:27 OP:dani STATUS:               ID:20160812044735     3
 OLDACT:UP  16-08-12 14:27 OP:dani STATUS:               ID:20160812044735     3
 OLDACT:UP  16-08-12 14:25 OP:dani STATUS:               ID:20160812044735     3
 OLDACT:UP  16-08-12 14:24 OP:dani STATUS:               ID:20160812044735     3
 OLDACT:UP  16-08-12 14:23 OP:dani STATUS:               ID:20160812044735     3
 OLDACT:UP  16-08-12 14:23 OP:dani STATUS:               ID:20160812044735     3
 OLDACT:UP  16-08-12 14:22 OP:dani STATUS:               ID:20160812044735     3
 OLDACT:REG 16-08-12 12:36 OP:dani STATUS:               ID:20160812044735     3
 2016-08-12-0448-00M.COL___389                                                 6
 STAT SP IPHASW D HRMM SECON CODA AMPLIT PERI AZIMU VELO AIN AR TRES W  DIS CAZ7
 BAR2 EZ EP        452 25.83                             172   -0.0310 18.5 205 
 BAR2 EZ ES        452 40.21                             172   -0.4210 18.5 205 
 BAR2 EZ I         452 41.87        26.8 0.23                          18.5 205 
 BRR  HZ EP        452 27.69                             149   -0.2210 77.5 301 
 BRR  HN ES        452 44.70                             149    0.4210 77.5 301 
 BRR  HZ I         452 47.86        14.2 0.32                          77.5 301 
 PAM  EZ EP        452 28.60                             149   -0.1710 80.1  35 
 PAM  EN ES        452 45.89                             149    0.0710 80.1  35 
 PAM  EZ I         452 47.82        10.3 0.52                          80.1  35 
 RUS  HZ EP        452 30.29                             145    0.5710 94.2 178 
 RUS  HZ I         452 49.41         5.8 0.19                          94.2 178 
 SPBC HZ EP        452 34.60                             128   -0.21 9  161 221 
 SPBC HN ES        452 56.70                             128    0.13 9  161 221 
 SPBC HZ I         453  1.76         7.9 0.21                           161 221 
 NOR  HZ EP   4    452 41.10                             117   -1.21 0  234 236 
 NOR  HE ES        453  9.71                             117   -0.21 8  234 236 
 NOR  HZ I         453 12.69         4.5 0.23                           234 236 
                                                                                
