 2012  512 0942 11.1 L   6.781 -73.172146.5  RSN  5 0.5 1.2LRSN                1
 GAP=134        0.93      14.3     9.0 11.1 -0.4923E+02 -0.1097E+02  0.8087E+01E
 Epicentro: LOS SANTOS - SANTANDER                                             3
 ACTION:UP  12-07-05 12:04 OP:pat  STATUS:               ID:20120512094211 L   I
 2012-05-12-0940-00M.COL___195                                                 6
 STAT SP IPHASW D HRMM SECON CODA AMPLIT PERI AZIMU VELO SNR AR TRES W  DIS CAZ7
 BAR2 SZ ES   2    942 45.35                             173    -0.8 5   21 183 
 BRR  HZ EP        942 32.70                             152     0.510   70 301 
 BRR  HN ES   1    942 48.99                             152     0.3 7   70 301 
 BRR  HZ I         942 49.63         4.5 0.18                            70 301 
 PAM  SZ EP        942 33.32                             149    -0.310   81  40 
 RUS  HN ES   3    942 54.37                             145     1.1 2   99 174 
 RUS  HZ I         942 56.46         1.4 0.60                            99 174 
 PTB  HZ EP        942 37.69                             132    -0.1 9  145 259 
 PTB  HN ES   2    942 58.24                             132    -0.4 5  145 259 
 PTB  HZ I         942 59.96         2.2 0.20                           145 259 
                                                                                
