 2014  612 0419 18.0 L   7.417 -73.384109.0  RSN  4 0.4 1.4LRSN                1
 GAP=226        0.81       4.6     6.6 10.5 -0.1562E+02  0.6155E+01  0.1432E+02E
 Epicentro: SABANA DE TORRES - SANTANDER                                       3
 ACTION:UPD 14-07-01 22:53 OP:nd   STATUS:               ID:20140612041918 L   I
 OLDACT:REG 14-06-12 12:26 OP:mh   STATUS:               ID:20140612041808     3
 2014-06-12-0418-08M.COL___247                                                 6
 STAT SP IPHASW D HRMM SECON CODA AMPLIT PERI AZIMU VELO AIN AR TRES W  DIS CAZ7
 OCA  HZ EP        419 37.48                             137    0.3510 91.2   4 
 OCA  HN ES        419 52.03                             137    0.0110 91.2   4 
 OCA  HZ I         419 55.38         6.2 0.40            145           91.2   4 
 PTB  HZ EP        419 42.77                             121   -0.09 9  153 231 
 PTB  HN ES   1    420  1.71                             121   -0.50 7  153 231 
 PTB  HZ I         420  5.74         3.0 0.15            127            153 231 
 ZAR  HZ EP   1    419 44.25                             119    0.37 7  163 273 
 ZAR  HN ES   1    420  4.71                             119    0.68 7  163 273 
 ZAR  HZ I         420  6.50         3.6 0.15            126            163 273 
 SML  HZ EP        419 44.47                             118   -0.24 9  171 334 
 SML  HN ES        420  5.11                             118   -0.41 9  171 334 
                                                                                
