 2017 1012 0259 44.6 L   6.778 -73.192142.7  RSN  5 0.2 1.7LRSN                1
 GAP=142        0.55       3.6     3.0  4.5  0.3900E+01 -0.1792E+01 -0.3160E+01E
 Epicentro: ZAPATOCA - SANTANDER                                               3
 ACTION:UPD 17-11-07 19:30 OP:rebc STATUS:               ID:20171012025944 L   I
 OLDACT:UP  17-10-12 16:10 OP:y    STATUS:               ID:20171012024741     3
 OLDACT:REG 17-10-12 13:40 OP:leo  STATUS:               ID:20171012024741     3
 2017-10-12-0248-00M.COL___426                                                 6
 STAT SP IPHASW D HRMM SECON CODA AMPLIT PERI AZIMU VELO AIN AR TRES W  DIS CAZ7
 BAR2 EZ EP        3 0  3.98                             171    0.1710 20.6 177 
 BAR2 EZ ES        3 0 18.58                             171   -0.2110 20.6 177 
 BAR2 EZ I         3 0 19.95        26.3 0.24            167           20.6 177 
 PAM  EZ EP        3 0  6.87                             149    0.0610 82.6  41 
 RUS  HZ EP        3 0  7.97                             144    0.0610 98.7 173 
 RUS  HN ES        3 0 26.37                             144    0.2710 98.7 173 
 RUS  HZ I         3 0 27.14         5.2 0.22            141           98.7 173 
 PTB  HZ EP        3 0 10.52                             132   -0.30 9  142 259 
 PTB  HN ES        3 0 31.35                             132    0.09 9  142 259 
 PTB  HZ I         3 0 35.20         4.5 0.14            131            142 259 
 YPLC HZ IP     D  3 0 14.33                             126    0.11 9  177 149 
 YPLC HN ES        3 0 37.01                             126   -0.31 9  177 149 
 YPLC HZ I         3 0 42.82         4.4 0.34            125            177 149 
                                                                                
