 2012  612 0052 28.9 L   7.258 -73.739 90.7  RSN  7 0.4 2.1LRSN                1
 GAP=117        0.70       2.7     3.0  9.8  0.6334E+00  0.1412E+01  0.2740E+01E
 Epicentro: PUERTO WILCHES - SANTANDER                                         3
 ACTION:UPD 12-08-06 17:48 OP:ep   STATUS:               ID:20120612005225 L   I
 2012-06-12-0050-00M.COL___201                                                 6
 STAT SP IPHASW D HRMM SECON CODA AMPLIT PERI AZIMU VELO AIN AR TRES W  DIS CAZ7
 BAR2 SZ EP   1    052 46.97                             130   -0.04 7 95.9 140 
 BAR2 SZ ES   1    053  1.21                             130    0.11 7 95.9 140 
 BAR2 SZ I         053  8.33        31.7 0.17            141           95.9 140 
 PTB  HZ EP   1    052 47.93                             125   -0.38 7  112 225 
 PTB  HN ES   1    053  2.91                             125   -0.52 7  112 225 
 PTB  HZ I         053  9.22        15.2 0.21            136            112 225 
 OCA  HZ EP   1    052 48.58                             123   -0.49 7  118  23 
 OCA  HE ES   1    053  4.85                             123    0.06 7  118  23 
 ZAR  HZ EP   1    052 50.25                             121    0.50 7  126 282 
 ZAR  HN ES   1    053  6.48                             121    0.49 7  126 282 
 ZAR  HZ I         053  8.78        50.7 0.27            135            126 282 
 RUS  HZ EP   1    052 54.91                             114    0.02 7  168 154 
 RUS  HN ES   1    053 15.36                             114    0.23 7  168 154 
 RUS  HZ I         053 16.82        12.9 0.25            125            168 154 
 HEL  HN ES   2    053 27.33                             107   -0.50 4  230 239 
 CHI  HN ES   1    053 41.19                             103    0.47 5  291 180 
                                                                                
