 2010 1112 0213 26.6 L   6.792 -73.081145.1  RSN 10 0.4 1.9LRSN                1
 GAP=166        0.75       3.2     6.5  5.2 -0.6125E+01 -0.1459E+01 -0.1124E+01E
 Epicentro: LOS SANTOS - SANTANDER                                             3
 ACTION:UP  10-12-17 16:51 OP:REBC STATUS:               ID:20101112021326 L   I
 2010-11-12-0211-31S.COL___129                                                 6
 STAT SP IPHASW D HRMM SECON CODA AMPLIT PERI AZIMU VELO SNR AR TRES W  DIS CAZ7
 BAR2 SZ EP        213 46.12                             170     0.010   25 207 
 BAR2 SZ I         214  2.85        28.8 0.36                            25 207 
 BTL  SZ EP        213 46.41                             170     0.210   25 304 
 BTL  SZ ES   1    214  1.62                             170     0.2 7   25 304 
 BAR2 SZ ES   1    214  1.01                             170    -0.4 7   25 207 
 BRR  HZ IP        213 48.03                             150     0.010   78 297 
 BRR  HZ I         213 48.40        17.0 0.17                            78 297 
 BRR  HN ES   1    214  5.19                             150     0.4 7   78 297 
 RUS  HZ EP        213 50.16                             144     0.010   99 180 
 RUS  HN ES   1    214  8.62                             144     0.0 7   99 180 
 RUS  HZ I         214  9.66         6.6 0.25                            99 180 
 GUE  SZ EP        213 51.25                             139     0.010  116   9 
 GRA  SZ IP        213 51.95                             137     0.310  125  14 
 GRA  SZ I         213 53.11        16.9 0.27                           125  14 
 GRA  SZ ES   1    214 11.08                             137    -0.2 7  125  14 
 OCA  SZ EP        213 54.52                             129    -0.5 9  162 351 
 OCA  SZ ES   2    214 17.20                             129     0.0 5  162 351 
 OCA  SZ I         214 20.45        17.4 0.04                           162 351 
 NOR  SZ EP   2    214  2.45                             118    -0.4 4  240 236 
 NOR  SN ES   2    214 30.12                             118    -1.0 4  240 236 
 CHI  HZ EP   3    214  4.06                             117    -0.3 2  250 197 
 CHI  HN ES   2    214 33.97                             117     0.1 4  250 197 
 CHI  HZ I         214 39.16         3.2 0.23                           250 197 
 RREF HZ EP   1    214 14.17                             110     0.9 5  327 230 
                                                                                
