 2012 1212 0055 22.4 L   6.742 -73.195141.4  RSN  5 0.4 1.4LRSN                1
 GAP=172        0.86       7.3     6.7  9.2  0.1812E+02  0.2100E+02  0.7116E+01E
 Epicentro: VILLANUEVA - SANTANDER                                             3
 ACTION:UPD 13-01-04 14:27 OP:ep   STATUS:               ID:20121212005522 L   I
 2012-12-12-0050-00M.COL___242                                                 6
 STAT SP IPHASW D HRMM SECON CODA AMPLIT PERI AZIMU VELO AIN AR TRES W  DIS CAZ7
 BAR2 SZ EP   1    055 41.49                             173    0.12 7 16.6 175 
 BAR2 SZ ES   1    055 55.86                             173   -0.32 7 16.6 175 
 BAR2 SZ I         055 58.73        11.2 0.20                          16.6 175 
 GIR2 SZ EP   1    055 41.34                             164   -0.38 7 37.3   0 
 GIR2 SZ ES   1    055 56.90                             164    0.10 7 37.3   0 
 GIR2 SZ I         055 59.85         4.6 0.38                          37.3   0 
 RUS  HZ EP   1    055 45.42                             145    0.13 7 94.7 172 
 RUS  HN ES   1    056  3.65                             145    0.50 7 94.7 172 
 RUS  HZ I         056  5.39         2.2 0.24                          94.7 172 
 PTB  HZ EP   1    055 48.04                             132   -0.37 7  141 261 
 PTB  HN ES   1    056  8.13                             132   -0.57 7  141 261 
 PTB  HZ I         056 11.53         3.5 0.12                           141 261 
 ZAR  HN ES   1    056 20.14                             122    0.96 6  202 294 
                                                                                
