 2015  812 0122 11.3 L   6.782 -73.124146.7  RSN 10 0.4 2.0LRSN                1
 GAP=140        1.00       3.0     4.3  5.9 -0.1446E+01  0.7848E+01 -0.2398E+01E
 Epicentro: LOS SANTOS - SANTANDER                                             3
 ACTION:UPD 15-09-15 23:01 OP:cam  STATUS:               ID:20150812012211 L   I
 OLDACT:UP  15-08-12 16:10 OP:mh   STATUS:               ID:20150812011748     3
 OLDACT:REG 15-08-12 14:02 OP:mh   STATUS:               ID:20150812011748     3
 2015-08-12-0117-48M.COL___316                                                 6
 STAT SP IPHASW D HRMM SECON CODA AMPLIT PERI AZIMU VELO AIN AR TRES W  DIS CAZ7
 BAR2 EZ EP        122 30.83                             171   -0.2310 21.9 197 
 BAR2 EZ ES        122 46.13                             171   -0.3110 21.9 197 
 BAR2 EZ I         122 46.98        15.4 0.18            167           21.9 197 
 BRR  HZ EP        122 32.59                             152   -0.1810 74.3 299 
 BRR  HN ES        122 49.94                             152    0.4610 74.3 299 
 BRR  HZ I         122 54.49        15.5 0.56            148           74.3 299 
 PAM  EZ EP        122 33.70                             151    0.0310 77.5  37 
 PAM  EN ES        122 50.87                             151   -0.2010 77.5  37 
 PAM  EZ I         122 52.83        19.2 0.54            156           77.5  37 
 RUS  HZ EP        122 35.05                             145    0.0110 98.4 177 
 RUS  HN ES        122 53.90                             145    0.3810 98.4 177 
 RUS  HZ I         122 54.27        11.0 0.30            145           98.4 177 
 OCA  HZ EP        122 40.14                             129    0.20 9  163 352 
 OCA  HN ES        123  2.95                             129    0.70 9  163 352 
 OCA  HZ I         123  4.24        24.5 0.20            131            163 352 
 SPBC HZ EP        122 39.90                             129   -0.02 9  163 220 
 SPBC HN ES        123  1.80                             129   -0.40 9  163 220 
 SPBC HZ I         123  7.74        19.9 0.28            128            163 220 
 ZAR  HE ES        123  9.07                             122   -0.68 8  207 292 
 ZAR  HZ I         123 14.31         9.8 0.42            121            207 292 
 SML  HZ EP        122 47.65                             117   -0.68 8  247 335 
 SML  HE ES        123 16.96                             117   -0.22 8  247 335 
 SML  HZ I         123 18.85        11.1 0.10            118            247 335 
 HEL  HZ EP        122 52.57                             115    0.76 8  274 256 
 HEL  HE ES        123 23.84                             115    0.47 8  274 256 
 HEL  HZ I         123 30.65         6.0 0.32            114            274 256 
 TOL  SZ EP   4    123  1.15                             109    1.48 0  344 225 
 TOL  SN ES   4    123 38.53                             109    1.17 0  344 225 
 TOL  SZ I         123 49.25         3.1 0.50            110            344 225 
                                                                                
