 2011  512 0114 18.8 L   6.669 -72.987159.1  RSN  6 0.4 1.5LRSN                1
 GAP=177        0.80       7.5    14.0 14.1 -0.1394E+02 -0.5786E+02 -0.2142E+02E
 Epicentro: ARATOCA - SANTANDER                                                3
 ACTION:UP  11-06-29 08:52 OP:tino STATUS:               ID:20110512011418 L   I
 2011-05-12-0109-40S.COL___129                                                 6
 STAT SP IPHASW D HRMM SECON CODA AMPLIT PERI AZIMU VELO SNR AR TRES W  DIS CAZ7
 BAR2 SZ EP   1    114 40.33                             172     0.2 7   23 248 
 BAR2 SZ I         114 55.95         7.5 0.26                            23 248 
 GIR2 SZ EP   1    114 40.27                             162    -0.5 7   51 333 
 RUS  HZ EP   2    114 43.43                             150     0.4 5   87 187 
 RUS  HN ES   2    115  1.62                             150    -0.3 5   87 187 
 RUS  HZ I         115  3.78         3.2 0.44                            87 187 
 BRR  HZ EP   1    114 42.31                             148    -0.5 7   94 301 
 BRR  HN ES   2    115  2.00                             148     0.6 5   94 301 
 BRR  HZ I         115  4.24        12.4 0.48                            94 301 
 BRI  SZ EP   1    114 44.99                             142     0.3 7  118  10 
 BRI  SZ ES   2    115  4.60                             142    -0.3 5  118  10 
 BRI  SZ I         115  5.56         4.3 0.63                           118  10 
 GRA  SZ EP   1    114 46.38                             137     0.3 7  136   9 
 GRA  SZ I         115 14.30         2.2 0.45                           136   9 
                                                                                
