 2015 1112 0129 36.7 L   6.805 -73.113150.5  RSN 25 0.5 2.4LRSN                1
 GAP=109        0.93       2.2     3.0  4.4 -0.1640E+01  0.3362E+01  0.1569E+01E
 Epicentro: LOS SANTOS - SANTANDER                                             3
 ACTION:UPD 15-12-28 16:10 OP:cam  STATUS:               ID:20151112012936 L   I
 OLDACT:REG 15-11-12 12:45 OP:dnl  STATUS:               ID:20151112012748     3
 2015-11-12-0127-48M.COL___319                                                 6
 STAT SP IPHASW D HRMM SECON CODA AMPLIT PERI AZIMU VELO AIN AR TRES W  DIS CAZ7
 BAR2 EZ EP        129 56.96                             170    0.0110 24.8 198 
 BAR2 EZ ES   2    130 12.41                             170   -0.32 5 24.8 198 
 BAR2 EZ I         130 14.77        38.8 0.42            169           24.8 198 
 BRR  HZ EP        129 58.87                             152    0.3210 74.1 297 
 BRR  HE ES        130 15.89                             152    0.3210 74.1 297 
 BRR  HZ I         130 25.58        20.7 0.14            151           74.1 297 
 PAM  EZ EP     C  129 59.61                             152    0.3210 74.7  38 
 PAM  EN ES        130 17.04                             152    0.1510 74.7  38 
 PAM  EZ I         130 19.35        30.9 0.60            157           74.7  38 
 RUS  HZ EP        130  0.83                             145   -0.1410  101 178 
 RUS  HN ES        130 19.71                             145   -0.1710  101 178 
 RUS  HZ I         130 22.38        26.0 0.34            148            101 178 
 OCA  HZ EP        130  5.57                             131    0.17 9  160 352 
 OCA  HN ES        130 27.60                             131   -0.16 9  160 352 
 OCA  HZ I         130 32.64        50.4 0.20            134            160 352 
 SPBC HZ EP        130  5.74                             130   -0.10 9  166 220 
 SPBC HE ES        130 28.13                             130   -0.43 9  166 220 
 SPBC HZ I         130 33.71        46.5 0.16            132            166 220 
 ZAR  HZ EP        130  8.88                             123   -0.92 8  207 292 
 ZAR  HN ES   2    130 35.14                             123   -0.46 4  207 292 
 ZAR  HZ I         130 41.91        14.4 0.16            125            207 292 
 NOR  HZ EP        130 13.09                             119    0.01 8  238 235 
 NOR  HE ES        130 41.18                             119   -0.26 8  238 235 
 NOR  HZ I         130 44.63        21.6 0.16            121            238 235 
 SML  HZ EP        130 13.19                             118   -0.54 8  245 334 
 SML  HE ES        130 42.91                             118    0.32 8  245 334 
 SML  HZ I         130 44.84        46.5 0.10            121            245 334 
 CHI  HZ EP        130 14.88                             118    0.03 8  250 196 
 CHI  HN ES        130 44.14                             118   -0.45 8  250 196 
 CHI  HZ I         130 49.78         6.9 0.33            121            250 196 
 ROSC BZ EP        130 15.81                             117    0.45 8  255 212 
 ROSC BN ES   4    130 48.28                             117    2.78 0  255 212 
 ROSC BZ I         130 54.52        18.1 0.40            120            255 212 
 HEL  HZ EP        130 18.30                             115    0.72 7  276 256 
 HEL  HN ES        130 49.67                             115    0.22 7  276 256 
 HEL  HZ I         130 55.21        12.8 0.30            117            276 256 
 URE  HZ EP   4    130 16.91                             114   -1.47 0  287 292 
 URE  HE ES   4    130 47.71                             114   -3.15 0  287 292 
 URE  HZ I         130 52.70        12.4 0.14            116            287 292 
 GUY2CHZ EP        130 21.83                             113    0.91 7  304 235 
 GUY2CHN ES        130 55.86                             113    0.46 7  304 235 
 GUY2CHZ I         131  3.76        11.6 0.32                           304 235 
 PTGC HZ EP        130 19.71                             112   -1.00 7  308 159 
 PTGC HN ES   4    130 53.08                             112   -1.94 0  308 159 
 ELA  HZ EP   4    130 25.43                             111    1.30 0  332 230 
 ELA  HN ES   4    130 59.09                             111   -2.02 0  332 230 
 ELA  HZ I         131  8.17         7.8 0.46            113            332 230 
 CBOC HZ EP        130 24.07                             110   -0.18 7  337 252 
 CBOC HE ES        131  1.01                             110   -0.31 7  337 252 
 CBOC HZ I         131  5.09         4.9 0.18            112            337 252 
 DBB  SZ EP   1    130 24.51                             110   -0.29 5  343 274 
 DBB  SZ ES        131  1.34                             110   -0.96 7  343 274 
 DBB  SZ I         131  4.87        33.5 0.72            112            343 274 
 MON  HZ EP   4    130 24.07                             109   -2.13 0  356 308 
 MON  HN ES   4    131  2.98                             109   -1.81 0  356 308 
 MON  HZ I         131 17.56         4.0 0.42            111            356 308 
 SDV  BZ EP        130 26.58                             109   -0.01 6  357  50 
 SDV  BN ES   4    131  3.66                             109   -1.82 0  357  50 
 SDV  BZ I         131  7.10         3.7 0.50            113            357  50 
 ANIL HZ EP   4    130 29.37                             109    2.32 0  360 225 
 ANIL HN ES        131  6.44                             109    0.13 6  360 225 
 ANIL HZ I         131 10.82        22.3 0.30            111            360 225 
 PRA  HZ EP        130 30.39                             107   -0.29 6  394 210 
 PRA  HN ES        131 13.59                             107    0.83 6  394 210 
 PRA  HZ I         131 17.25         7.7 0.30            109            394 210 
 ORTC HZ EP        130 31.84                             107    0.73 6  398 217 
 ORTC HE ES        131 14.34                             107    0.81 6  398 217 
 ORTC HZ I         131 20.52         5.0 0.21            109            398 217 
 PAL  HZ EP        130 32.49                             106    0.05 6  409 239 
 PAL  HE ES        131 15.68                             106   -0.22 6  409 239 
 PAL  HZ I         131 20.49         4.3 0.22            108            409 239 
 SJC  HZ EP   4    130 30.83                             106   -1.79 0  411 326 
 SJC  HN ES   4    131 12.01                             106   -4.21 0  411 326 
 SJC  HZ I         131 17.65         3.7 0.32            109            411 326 
                                                                                
