 2011  112 0133 24.5 L   6.330 -73.556109.3  RSN  8 0.4 1.8LRSN                1
 GAP=101        0.95       4.7     6.2  9.0 -0.8610E+01  0.2306E+02 -0.8763E+01E
 Epicentro: CONTRATACION - SANTANDER                                           3
 ACTION:UP  11-02-08 08:40 OP:pat  STATUS:               ID:20110112013324 L   I
 2011-01-12-0131-20S.COL___136                                                 6
 STAT SP IPHASW D HRMM SECON CODA AMPLIT PERI AZIMU VELO SNR AR TRES W  DIS CAZ7
 BAR2 SZ EP        133 41.02                             153     0.210   50  55 
 BAR2 SZ ES   1    133 53.39                             153    -0.2 7   50  55 
 BAR2 SZ I         133 55.26        36.9 0.36                            50  55 
 RUS  HZ EP   1    133 42.44                             145    -0.1 7   71 133 
 RUS  HE ES   1    133 56.72                             145     0.1 7   71 133 
 RUS  HZ I         133 58.67        12.7 0.18                            71 133 
 YOP  SZ EP   1    133 50.96                             119     0.2 7  166 131 
 YOP  SZ I         134 13.92         7.6 0.36                           166 131 
 NOR  SZ EP   2    133 50.68                             118    -0.3 5  168 240 
 NOR  SN ES   1    134 11.40                             118    -0.3 7  168 240 
 CHI  HZ EP   1    133 53.94                             115     0.3 7  189 186 
 CHI  HZ I         134 22.63         2.7 0.41                           189 186 
 GRA  SZ EP   1    133 53.07                             115    -0.5 7  191  26 
 GRA  SZ I         134 23.02         7.6 0.30                           191  26 
 OCA  SZ EP   1    133 55.18                             112    -0.8 6  213   7 
 OCA  SZ ES   1    134 21.46                             112     0.9 6  213   7 
 OCA  SZ I         134 26.47        16.6 0.29                           213   7 
 HEL  HZ EP   2    133 57.69                             111     0.7 4  219 266 
 HEL  HZ I         134 25.41         3.8 0.25                           219 266 
                                                                                
