 2010  912 0940 30.4 L   6.979 -73.008146.0  RSN  6 0.5 1.2LRSN                1
 GAP=171        1.23       6.9    15.1 14.8 -0.2746E+02 -0.8319E+02 -0.1074E+01E
 Epicentro: PIEDECUESTA - SANTANDER                                            3
 ACTION:UP  11-02-18 11:02 OP:tino STATUS:               ID:20100912094030 L   I
 2010-09-12-0940-08S.COL___120                                                 6
 STAT SP IPHASW D HRMM SECON CODA AMPLIT PERI AZIMU VELO SNR AR TRES W  DIS CAZ7
 BTL  SZ EP   1    940 50.29                             168     0.1 7   30 257 
 BAR2 SZ EP        940 50.67                             161    -0.110   47 204 
 BAR2 SZ ES   2    941  6.55                             161    -0.1 5   47 204 
 BAR2 SZ I         941 10.30         5.5 0.29                            47 204 
 BRR  HZ EP   1    940 52.43                             150     0.4 7   79 280 
 BRR  HE ES   1    941  8.64                             150    -0.3 7   79 280 
 BRR  HZ I         941  9.51         2.9 0.18                            79 280 
 GUE  SZ EP        940 54.22                             146     0.710   95   6 
 GRA  SZ EP        940 52.90                             143    -1.010  103  13 
 GRA  SZ ES   1    941 12.50                             143     0.3 7  103  13 
 RUS  HZ EP   1    940 55.75                             139     0.1 7  120 184 
 RUS  HZ I         940 56.51         1.3 0.26                           120 184 
 RUS  HE ES   1    941 15.52                             139     0.1 7  120 184 
                                                                                
