 2016 1012 0728 40.6 L   6.560 -73.590111.1  RSN  6 0.6 1.4LRSN                1
 GAP= 94        1.60       6.2     6.4 14.2 -0.9765E+01 -0.1473E+02  0.1249E+02E
 Epicentro: EL CARMEN - SANTANDER                                              3
 ACTION:UPD 16-11-09 19:18 OP:rebc STATUS:               ID:20161012072840 L   I
 OLDACT:REG 16-10-12 14:40 OP:ar   STATUS:               ID:20161012071747     3
 2016-10-12-0718-00M.COL___366                                                 6
 STAT SP IPHASW D HRMM SECON CODA AMPLIT PERI AZIMU VELO AIN AR TRES W  DIS CAZ7
 BRR  HE ES        729 11.57                             149    0.8910 62.0 347 
 RUS  HZ EP        729  0.09                             138   -0.3410 92.6 143 
 RUS  HN ES        729 16.02                             138    0.1010 92.6 143 
 RUS  HZ I         729 19.39         2.1 0.28            139           92.6 143 
 PTB  HZ EP        728 59.56                             136   -0.4810 95.9 269 
 PTB  HN ES        729 14.66                             136   -0.5710 95.9 269 
 PTB  HZ I         729 15.88         9.9 0.20            136           95.9 269 
 SPBC HZ EP        729  2.31                             131    0.5910  114 208 
 SPBC HE ES        729 18.27                             131    0.0410  114 208 
 SPBC HZ I         729 21.85         7.7 0.10            131            114 208 
 PAM  EZ EP        729  4.69                             127    0.8010  131  49 
 PAM  EE ES        729 21.07                             127   -1.0110  131  49 
 PAM  EZ I         729 22.25         3.2 0.44            129            131  49 
 ZAR  HN ES   4    729 31.63                             118    2.73 0  174 306 
 ZAR  HZ I         729 33.20         6.5 0.36            119            174 306 
                                                                                
