 2017  212 0919 18.2 L   6.769 -73.094156.0  RSN  6 0.3 1.4LRSN                1
 GAP=145        0.89       4.9     6.2  6.2  0.9008E+00  0.1191E+02 -0.7310E+00E
 Epicentro: LOS SANTOS - SANTANDER                                             3
 ACTION:UPD 17-05-24 15:35 OP:jn   STATUS:               ID:20170212091918 L   I
 OLDACT:UP  17-02-12 17:31 OP:ar   STATUS:               ID:20170212091742     3
 OLDACT:REG 17-02-12 13:16 OP:and  STATUS:               ID:20170212091742     3
 2017-02-12-0918-00M.COL___334                                                 6
 STAT SP IPHASW D HRMM SECON CODA AMPLIT PERI AZIMU VELO AIN AR TRES W  DIS CAZ7
 BAR2 EZ EP        919 38.97                             172   -0.0910 21.8 207 
 BAR2 EZ ES        919 54.98                             172   -0.3310 21.8 207 
 BAR2 EZ I         919 56.92         5.0 0.24            164           21.8 207 
 PAM  EZ EP        919 41.88                             153    0.3810 76.7  35 
 PAM  EN ES        919 59.28                             153   -0.3710 76.7  35 
 PAM  EZ I         920  1.04         5.3 0.58            151           76.7  35 
 BRR  HZ EP        919 41.26                             152    0.4010 77.9 299 
 BRR  HE ES        919 58.96                             152    0.4510 77.9 299 
 RUS  HZ EP        919 42.91                             147    0.1610 96.9 179 
 RUS  HN ES        920  1.92                             147    0.0510 96.9 179 
 RUS  HZ I         920  3.25         1.2 0.13            144           96.9 179 
 PTB  HZ EP        919 46.26                             133   -0.24 9  153 261 
 PTB  HE ES   4    920  7.04                             133   -1.50 0  153 261 
 PTB  HZ I         920 14.40         4.8 0.42            125            153 261 
 ZAR  HZ EP        919 51.44                             124   -0.59 8  211 292 
 ZAR  HZ I         920 14.50         4.1 0.26            116            211 292 
 ZAR  HN ES   4    920 19.96                             124    1.56 0  211 292 
                                                                                
