 2013  212 0310 17.6 L   6.901 -73.182148.9  RSN  9 0.5 1.6LRSN                1
 GAP=127        0.99       3.8     5.4  8.1  0.1510E+01  0.4869E+01  0.4780E+01E
 Epicentro: BETULIA - SANTANDER                                                3
 ACTION:UPD 13-03-12 09:32 OP:ep   STATUS:               ID:20130212031017 L   I
 2013-02-12-0310-00M.COL___240                                                 6
 STAT SP IPHASW D HRMM SECON CODA AMPLIT PERI AZIMU VELO AIN AR TRES W  DIS CAZ7
 BAR2 SZ EP   2    310 37.60                             167   -0.31 5 34.2 180 
 BRR  HZ IP     D  310 39.32                             156    0.6310 62.9 291 
 BRR  HN ES   1    310 56.02                             156    0.91 7 62.9 291 
 BRR  HZ I         311  0.69         8.3 0.50            157           62.9 291 
 PAM  SZ EP        310 40.19                             153    0.3010 72.0  48 
 PAM  SN ES   1    310 57.26                             153    0.03 7 72.0  48 
 PAM  SZ I         310 59.05         9.5 0.60            158           72.0  48 
 RUS  HZ EP        310 42.38                             141   -0.1710  112 174 
 RUS  HN ES   1    311  1.17                             141   -0.80 7  112 174 
 RUS  HZ I         311  6.28         2.8 0.40            144            112 174 
 PTB  HZ EP        310 44.40                             133   -0.36 9  146 254 
 PTB  HN ES   1    311  5.46                             133   -0.44 7  146 254 
 PTB  HZ I         311  7.67         5.7 0.10            135            146 254 
 OCA  HN ES   1    311  6.11                             133   -0.48 7  149 354 
 ZAR  HN ES   1    311 14.47                             124    0.10 6  196 290 
 ZAR  HZ I         311 17.42         3.9 0.10            127            196 290 
 SML  HZ EP        310 53.10                             119   -0.08 8  232 335 
 SML  HN ES   1    311 20.18                             119   -0.72 6  232 335 
 SML  HZ I         311 25.31         7.8 0.10            123            232 335 
 CHI  HZ EP        310 56.99                             117    0.40 8  258 194 
 CHI  HN ES   1    311 27.02                             117    0.06 6  258 194 
 CHI  HZ I         311 31.68         1.5 0.46            120            258 194 
                                                                                
