 2012  112 0658  8.5 L   6.779 -73.184148.0  RSN  7 0.3 1.4LRSN                1
 GAP=175        0.61       4.8     6.0  5.9  0.1187E+02  0.7742E+01  0.8007E+01E
 Epicentro: LOS SANTOS - SANTANDER                                             3
 ACTION:UP  12-02-03 08:16 OP:REBC STATUS:               ID:20120112065808 L   I
 2012-01-12-0650-00M.COL___187                                                 6
 STAT SP IPHASW D HRMM SECON CODA AMPLIT PERI AZIMU VELO SNR AR TRES W  DIS CAZ7
 BAR2 SZ EP   2    658 27.78                             172    -0.6 5   21 179 
 BAR2 SZ ES   2    658 44.03                             172     0.2 5   21 179 
 GIR2 SZ EP   1    658 28.19                             167    -0.3 7   33 358 
 GIR2 SZ ES   2    658 43.79                             167    -0.3 5   33 358 
 BRR  HZ EP        658 29.82                             154     0.110   69 302 
 BRR  HZ I         658 31.36         6.1 0.13                            69 302 
 BRR  HE ES   1    658 46.80                             154     0.5 7   69 302 
 RUS  HZ EP   1    658 32.81                             145     0.5 7   99 173 
 RUS  HN ES   2    658 50.57                             145    -0.4 5   99 173 
 RUS  HZ I         658 51.91         3.3 0.24                            99 173 
 PTB  HZ EP   1    658 35.00                             134    -0.2 7  143 259 
 PTB  HE ES   2    658 55.79                             134    -0.3 5  143 259 
 ZAR  HZ EP   1    658 40.73                             123    -0.1 6  201 293 
 ZAR  HE ES   2    659  5.92                             123     0.0 4  201 293 
 ZAR  HZ I         659 12.55         3.3 0.41                           201 293 
 CHI  HZ EP   1    658 46.15                             118     0.2 6  245 194 
 CHI  HZ I         658 46.71         1.4 0.24                           245 194 
 CHI  HE ES   2    659 15.06                             118    -0.1 4  245 194 
                                                                                
