 2014  112 0450 18.2 L   6.630 -73.515115.8  RSN  7 0.5 1.4LRSN                1
 GAP= 73        1.37       4.9     4.9  8.9 -0.4377E+01  0.6583E+01  0.1396E+02E
 Epicentro: EL CARMEN DE CHUCURI - SANTANDER                                   3
 ACTION:UPD 14-03-13 09:54 OP:ep   STATUS:               ID:20140112045018 L   I
 OLDACT:REG 14-01-12 07:18 OP:carl STATUS:               ID:20140112045000     3
 2014-01-12-0450-00M.COL___285                                                 6
 STAT SP IPHASW D HRMM SECON CODA AMPLIT PERI AZIMU VELO AIN AR TRES W  DIS CAZ7
 BAR2 SZ EP        450 34.88                             161    0.2010 37.1  96 
 BAR2 SZ ES        450 47.97                             161    0.4210 37.1  96 
 BAR2 SZ I         450 48.47        20.8 0.46            163           37.1  96 
 BRR  HZ EP        450 35.85                             152    0.5410 57.0 338 
 BRR  HN ES        450 49.57                             152    0.9110 57.0 338 
 RUS  HZ EP        450 38.57                             138   -0.0710 94.5 150 
 RUS  HN ES        450 53.94                             138   -0.6410 94.5 150 
 RUS  HZ I         450 56.13         7.1 0.52            141           94.5 150 
 PTB  HZ EP        450 38.39                             135   -0.4310  105 265 
 PTB  HN ES        450 53.94                             135   -0.9710  105 265 
 PTB  HZ I         450 58.12         3.8 0.10            136            105 265 
 PAM  SZ EP        450 40.40                             131   -0.4010  120  49 
 PAM  SE ES        450 57.94                             131   -0.4910  120  49 
 PAM  SZ I         451  2.60         3.0 0.48            133            120  49 
 ZAR  HN ES   4    451  9.97                             119    2.52 0  176 303 
 NOR  HZ EP        450 47.64                             117    0.16 9  191 232 
 NOR  HE ES        451 10.42                             117    0.10 9  191 232 
 NOR  HZ I         451 14.39         2.7 0.16            118            191 232 
 CHI  HZ EP        450 51.98                             113    0.52 8  223 186 
 CHI  HE ES        451 17.86                             113    0.45 8  223 186 
                                                                                
