 2014  112 0737  4.6 L   6.789 -73.131140.0  RSN 12 0.4 2.1LRSN                1
 GAP=139        1.03       2.9     3.8  5.7 -0.2442E+01  0.8779E+01  0.6664E+00E
 Epicentro: LOS SANTOS - SANTANDER                                             3
 ACTION:UPD 14-03-13 09:54 OP:ep   STATUS:               ID:20140112073704 L   I
 OLDACT:REG 14-01-12 07:25 OP:carl STATUS:               ID:20140112073000     3
 2014-01-12-0730-00M.COL___285                                                 6
 STAT SP IPHASW D HRMM SECON CODA AMPLIT PERI AZIMU VELO AIN AR TRES W  DIS CAZ7
 BAR2 SZ IP     D  737 23.73                             170    0.2510 22.5 195 
 BAR2 SZ ES        737 38.08                             170   -0.1610 22.5 195 
 BAR2 SZ I         737 39.48        66.6 0.20            170           22.5 195 
 PAM  SZ EP        737 26.72                             150    0.5610 77.3  38 
 PAM  SN ES        737 43.44                             150    0.4410 77.3  38 
 PAM  SZ I         737 45.87        25.9 0.52            153           77.3  38 
 RUS  HZ IP     C  737 27.71                             143    0.0610 99.3 177 
 RUS  HN ES        737 45.45                             143   -0.2210 99.3 177 
 RUS  HZ I         737 46.95        15.5 0.24            146           99.3 177 
 PTB  HZ EP        737 30.37                             130   -0.82 9  149 259 
 PTB  HE ES        737 52.32                             130    0.36 9  149 259 
 PTB  HZ I         737 53.66        27.0 0.18            131            149 259 
 OCA  HZ EP        737 31.79                             128   -0.77 9  162 353 
 OCA  HN ES        737 53.71                             128   -0.69 9  162 353 
 OCA  HZ I         737 57.11        12.7 0.44            130            162 353 
 SPBC HZ EP        737 32.65                             128    0.02 9  163 220 
 SPBC HN ES        737 54.77                             128    0.24 9  163 220 
 SPBC HZ I         737 59.42        13.0 0.26            129            163 220 
 ZAR  HZ EP        737 36.92                             121    0.08 8  206 292 
 ZAR  HE ES        738  2.47                             121    0.45 8  206 292 
 ZAR  HZ I         738 11.29        14.5 0.60            122            206 292 
 NOR  HZ EP        737 39.69                             117   -0.34 8  235 235 
 NOR  HN ES        738  7.42                             117   -0.28 8  235 235 
 NOR  HZ I         738  9.57        12.5 0.16            118            235 235 
 CHI  HZ EP        737 42.10                             116    0.23 8  248 196 
 CHI  HN ES        738 10.42                             116   -0.55 8  248 196 
 CHI  HZ I         738 15.22         3.9 0.28            118            248 196 
 ROSC BZ EP   4    737 43.93                             115    1.58 0  253 211 
 ROSC BN ES   4    738 14.95                             115    3.12 0  253 211 
 HEL  HZ EP        737 45.23                             113    0.60 8  273 256 
 HEL  HN ES        738 15.75                             113   -0.14 8  273 256 
 HEL  HZ I         738 22.66         9.7 0.28            115            273 256 
 RREF HZ EP   4    737 51.41                             110    0.90 0  322 230 
 RREF HN ES   4    738 29.10                             110    2.74 0  322 230 
 CBOC HZ EP        737 51.99                             109    0.61 7  335 252 
 CBOC HN ES        738 28.05                             109    0.15 7  335 252 
 CBOC HZ I         738 30.38         2.7 0.18            110            335 252 
 ORTC HZ EP        737 58.95                             105    0.66 6  395 216 
 ORTC HN ES        738 39.78                             105   -0.42 6  395 216 
 ORTC HZ I         738 45.32         3.0 0.62            107            395 216 
 SJC  HZ EP   4    737 58.55                             105   -1.61 0  411 327 
 SJC  HN ES   4    738 40.16                             105   -3.36 0  411 327 
                                                                                
