 2013  412 0856 48.1 L   6.754 -73.196145.6  RSN  6 0.4 2.1LRSN                1
 GAP=172        0.99       4.5     6.3  7.8  0.4790E+01  0.1632E+01 -0.2710E+01E
 Epicentro: VILLANUEVA - SANTANDER                                             3
 ACTION:UPD 13-05-22 14:37 OP:EP   STATUS:               ID:20130412085648 L   I
 2013-04-12-0848-48M.COL___212                                                 6
 STAT SP IPHASW D HRMM SECON CODA AMPLIT PERI AZIMU VELO AIN AR TRES W  DIS CAZ7
 BAR2 SZ EP        857  7.50                             173   -0.0910 18.0 175 
 BAR2 SZ ES        857 22.42                             173   -0.3910 18.0 175 
 BAR2 SZ I         857 23.79        20.6 0.22            174           18.0 175 
 GIR2 SZ EP        857  7.42                             165   -0.4410 35.9   0 
 BRR  HZ IP     C  857  9.26                             153    0.1710 69.1 304 
 BRR  HN ES        857 26.22                             153    0.7410 69.1 304 
 BRR  HN I         857 30.00        27.4 0.20            153           69.1 304 
 RUS  HZ EP        857 12.02                             145    0.5310 96.1 173 
 RUS  HN ES        857 29.78                             145    0.0210 96.1 173 
 PTB  HZ EP        857 14.34                             133   -0.12 9  141 260 
 PTB  HN ES        857 34.65                             133   -0.38 9  141 260 
 OCA  HN ES        857 39.08                             129   -0.12 9  165 355 
                                                                                
