 2015  212 0331  3.4 L   6.818 -73.159140.7  RSN  9 0.5 1.4LRSN                1
 GAP=134        1.28       4.0     6.0  7.6 -0.7946E+01  0.1532E+02 -0.5911E+01E
 Epicentro: LOS SANTOS - SANTANDER                                             3
 ACTION:UPD 15-04-30 21:25 OP:nd   STATUS:               ID:20150212033103 L   I
 OLDACT:REG 15-02-12 12:49 OP:fm   STATUS:               ID:20150212032737     3
 2015-02-12-0327-37M.COL___296                                                 6
 STAT SP IPHASW D HRMM SECON CODA AMPLIT PERI AZIMU VELO AIN AR TRES W  DIS CAZ7
 BAR2 EZ EP        331 22.46                             170   -0.0010 25.1 186 
 BAR2 EZ ES        331 37.75                             170    0.4210 25.1 186 
 BAR2 EZ I         331 40.00         3.4 0.24            171           25.1 186 
 BRR  HZ EP     C  331 24.47                             152    0.6010 68.9 298 
 BRR  HN ES        331 40.79                             152    0.9510 68.9 298 
 BRR  HZ I         331 44.46         2.9 0.18            151           68.9 298 
 PAM  SZ EP        331 25.29                             150    0.2510 76.8  41 
 PAM  SN ES        331 41.62                             150   -0.3110 76.8  41 
 PAM  SZ I         331 43.35         3.5 0.26            154           76.8  41 
 RUS  HE ES        331 44.59                             142   -0.4910  103 175 
 RUS  HZ I         331 46.36         1.9 0.14            147            103 175 
 PTB  HZ EP        331 29.07                             131   -0.79 9  147 258 
 PTB  HN ES        331 49.70                             131   -0.80 9  147 258 
 PTB  HZ I         331 56.29         4.5 0.40            132            147 258 
 OCA  HZ EP        331 31.47                             129    0.36 9  158 354 
 OCA  HE ES        331 52.24                             129   -0.49 9  158 354 
 OCA  HZ I         331 57.45         3.1 0.38            131            158 354 
 SPBC HZ EP        331 31.49                             128   -0.09 9  164 218 
 SPBC HN ES        331 53.34                             128   -0.22 9  164 218 
 SPBC HZ I         331 56.34         5.0 0.38            131            164 218 
 SML  HZ EP        331 39.57                             117    0.10 8  241 335 
 SML  HN ES        332  7.20                             117   -0.42 8  241 335 
 SML  HZ I         332 10.92         2.9 0.28            119            241 335 
 GUY2CHZ EP   1    331 47.67                             111    0.90 5  301 234 
 GUY2CHE ES        332 21.15                             111    0.55 7  301 234 
 GUY2CHZ I         332 28.72         1.2 0.30                           301 234 
                                                                                
