 2014 1212 0243 50.7 L   6.685 -73.451120.4  RSN  4 0.1 1.0LRSN                1
 GAP=169        0.42       3.4     2.5  3.7  0.5247E+01  0.2011E+01 -0.1944E+01E
 Epicentro: EL CARMEN - SANTANDER                                              3
 ACTION:UPD 15-02-10 17:02 OP:nd   STATUS:               ID:20141212024350 L   I
 OLDACT:REG 14-12-12 13:00 OP:fm   STATUS:               ID:20141212023743     3
 2014-12-12-0237-43M.COL___297                                                 6
 STAT SP IPHASW D HRMM SECON CODA AMPLIT PERI AZIMU VELO AIN AR TRES W  DIS CAZ7
 BAR2 EZ EP        244  7.44                             165   -0.1110 31.4 109 
 BAR2 EZ ES        244 20.69                             165    0.0210 31.4 109 
 BAR2 EZ I         244 21.73         7.5 0.24            168           31.4 109 
 RUS  HZ EP        244 11.59                             139   -0.1710 96.6 155 
 RUS  HN ES        244 28.33                             139    0.1710 96.6 155 
 RUS  HZ I         244 31.63         0.7 0.40            141           96.6 155 
 PTB  HZ EP        244 12.42                             134   -0.0110  112 262 
 PTB  HE ES        244 29.29                             134   -0.0610  112 262 
 PTB  HZ I         244 33.02         2.1 0.14            134            112 262 
 ZAR  HZ EP        244 19.26                             120    0.27 9  179 300 
 ZAR  HN ES        244 40.97                             120   -0.06 9  179 300 
 ZAR  HZ I         244 44.95         1.3 0.22            122            179 300 
                                                                                
