 2017  112 0041  4.1 L   6.666 -73.035137.9  RSN  6 0.3 0.9LRSN                1
 GAP=157        0.71       3.7     4.1  5.8 -0.5540E+01  0.8159E+00  0.4214E+01E
 Epicentro: ARATOCA - SANTANDER                                                3
 ACTION:UPD 17-05-22 15:58 OP:jn   STATUS:               ID:20170112004104 L   I
 OLDACT:UP  17-01-12 21:07 OP:and  STATUS:               ID:20170112003746d    3
 OLDACT:UP  17-01-12 21:07 OP:and  STATUS:               ID:20170112003746d    3
 OLDACT:UP  17-01-12 21:07 OP:and  STATUS:               ID:20170112003746d    3
 OLDACT:UP  17-01-12 21:07 OP:and  STATUS:               ID:20170112003746d    3
 OLDACT:UP  17-01-12 21:07 OP:and  STATUS:               ID:20170112003746d    3
 OLDACT:DUP 17-01-12 21:02 OP:and  STATUS:               ID:20170112003746d    3
 2017-01-12-0038-00M.COL___340                                                 6
 STAT SP IPHASW D HRMM SECON CODA AMPLIT PERI AZIMU VELO AIN AR TRES W  DIS CAZ7
 BAR2 EZ EP        041 22.91                             172    0.2310 18.2 244 
 PAM  EZ EP        041 25.67                             147   -0.1810 83.2  26 
 PAM  EN ES        041 42.83                             147    0.0110 83.2  26 
 PAM  EZ I         041 44.37         2.0 0.26            157           83.2  26 
 RUS  HZ EP   2    041 26.78                             146    0.76 5 85.7 184 
 RUS  HN ES        041 42.83                             146   -0.2910 85.7 184 
 RUS  HZ I         041 57.99         0.8 0.54            142           85.7 184 
 BRR  HZ EP   2    041 24.76                             145   -0.81 5 89.3 303 
 BRR  HN ES        041 42.51                             145    0.1910 89.3 303 
 PTB  HZ EP   9    041 29.91                             128   -1.47 0  158 265 
 PTB  HN ES        041 50.78                             130   -0.42 9  158 265 
 PTB  HZ I         041 54.22         1.5 0.17            136            158 265 
 NOR  HZ EP        041 39.64                             116    0.03 8  237 239 
 NOR  HN ES        042  7.38                             116    0.07 8  237 239 
                                                                                
