 2013  212 0240 52.5 L   6.817 -73.157147.1  RSN  8 0.5 1.7LRSN                1
 GAP=134        1.04       4.7     6.5  8.6  0.2951E+00  0.7230E+01  0.1124E+02E
 Epicentro: LOS SANTOS - SANTANDER                                             3
 ACTION:UPD 13-03-12 09:32 OP:ep   STATUS:               ID:20130212024052 L   I
 2013-02-12-0240-00M.COL___240                                                 6
 STAT SP IPHASW D HRMM SECON CODA AMPLIT PERI AZIMU VELO AIN AR TRES W  DIS CAZ7
 BAR2 SZ ES   1    241 27.67                             170   -0.15 7 25.0 186 
 BAR2 SZ I         241 28.56        24.2 0.36            170           25.0 186 
 BRR  HZ IP     C  241 14.26                             153    0.5410 69.2 298 
 BRR  HN ES   1    241 31.33                             153    1.09 7 69.2 298 
 PAM  SZ EP   1    241 15.20                             151    0.34 7 76.8  41 
 PAM  SE ES   1    241 31.71                             151   -0.56 7 76.8  41 
 PAM  SE I         241 33.62         8.4 0.64            151           76.8  41 
 RUS  HZ EP        241 16.30                             143   -0.2610  103 175 
 RUS  HN ES   1    241 35.28                             143   -0.01 7  103 175 
 RUS  HZ I         241 36.69         3.8 0.22            144            103 175 
 PTB  HZ EP   1    241 19.07                             132   -0.46 7  147 258 
 PTB  HN ES   1    241 39.72                             132   -0.87 7  147 258 
 PTB  HZ I         241 42.17         4.4 0.16            132            147 258 
 OCA  HE ES   1    241 42.33                             130   -0.45 7  158 354 
 OCA  HE I         241 48.16        11.0 0.50            129            158 354 
 ZAR  HN ES   2    241 49.89                             123   -0.21 4  202 292 
 CHI  HZ EP        241 30.66                             117    0.20 8  250 195 
 CHI  HN ES   1    242  0.33                             117    0.28 6  250 195 
 CHI  HZ I         242  5.65         1.3 0.26            117            250 195 
                                                                                
