 2012 1212 0316 60.0 L   5.959 -74.177 63.6  RSN  4 0.2 0.9LRSN                1
 GAP=119        0.46       3.2     2.3 10.2  0.3832E+01  0.6244E+01  0.2203E+02E
 Epicentro: LA BELLEZA - SANTANDER                                             3
 ACTION:UPD 13-01-04 14:27 OP:ep   STATUS:               ID:20121212031660 L   I
 2012-12-12-0310-00M.COL___242                                                 6
 STAT SP IPHASW D HRMM SECON CODA AMPLIT PERI AZIMU VELO AIN AR TRES W  DIS CAZ7
 PTB  HZ EP   1    317 13.32                             126    0.05 7 71.2 334 
 PTB  HN ES   1    317 23.78                             126    0.13 7 71.2 334 
 PTB  HZ I         317 27.02         3.3 0.14                          71.2 334 
 RUS  HZ EP   1    317 19.44                             111    0.08 7  121  93 
 RUS  HN ES   1    317 34.25                             111   -0.25 7  121  93 
 RUS  HZ I         317 34.69         1.4 0.36                           121  93 
 HEL  HZ EP   1    317 22.59                             105   -0.20 7  152 280 
 HEL  HN ES   2    317 40.33                             105   -0.27 5  152 280 
 HEL  HZ I         317 44.08         1.7 0.28                           152 280 
 CHI  HZ EP   1    317 23.65                             105    0.42 7  155 161 
 CHI  HN ES   1    317 41.28                             105   -0.11 7  155 161 
                                                                                
