 2016  512 0141  5.4 L   6.782 -73.186143.1  RSN  4 0.1 1.3LRSN                1
 GAP=142        0.38       2.3     2.2  3.2 -0.1573E+01  0.1928E+01 -0.7514E+00E
 Epicentro: LOS SANTOS - SANTANDER                                             3
 ACTION:UPD 16-08-18 17:45 OP:cam  STATUS:               ID:20160512014105 L   I
 OLDACT:REG 16-05-12 12:10 OP:drio STATUS:               ID:20160512013744     3
 2016-05-12-0137-44M.COL___313                                                 6
 STAT SP IPHASW D HRMM SECON CODA AMPLIT PERI AZIMU VELO AIN AR TRES W  DIS CAZ7
 BAR2 EZ EP        141 24.69                             171    0.0510 20.9 179 
 BAR2 EZ ES        141 39.50                             171   -0.1610 20.9 179 
 BAR2 EZ I         141 42.54         5.2 0.24            172           20.9 179 
 PAM  EZ EP        141 27.57                             149   -0.0110 81.8  41 
 PAM  EN ES        141 44.97                             149    0.0710 81.8  41 
 PAM  EZ I         141 47.33         3.2 0.48            153           81.8  41 
 RUS  HZ EP        141 28.57                             144   -0.1810 99.0 173 
 RUS  HN ES        141 47.14                             144    0.1610 99.0 173 
 RUS  HZ I         141 48.38         2.7 0.30            148           99.0 173 
 PTB  HZ EP        141 31.76                             132    0.07 9  143 259 
 PTB  HN ES        141 52.21                             132   -0.00 9  143 259 
 PTB  HZ I         141 58.45         2.7 0.52            133            143 259 
                                                                                
