 2011  112 0609 38.6 L   6.801 -73.164139.8  RSN  7 0.4 1.6LRSN                1
 GAP=157        0.77       5.0     7.1  8.2 -0.1453E+02  0.8202E+01 -0.4790E+01E
 Epicentro: LOS SANTOS - SANTANDER                                             3
 ACTION:UP  11-02-08 08:40 OP:pat  STATUS:               ID:20110112060938 L   I
 2011-01-12-0606-21S.COL___136                                                 6
 STAT SP IPHASW D HRMM SECON CODA AMPLIT PERI AZIMU VELO SNR AR TRES W  DIS CAZ7
 BTL  SZ EP        6 9 57.67                             172     0.210   17 319 
 BTL  SZ ES   1    610 12.29                             172     0.2 7   17 319 
 BAR2 SZ EP        6 9 57.54                             171     0.010   23 185 
 BAR2 SZ I         610 13.79        18.4 0.17                            23 185 
 RUS  HZ EP   1    610  1.56                             143    -0.3 7  101 175 
 RUS  HN ES   1    610 19.86                             143    -0.1 7  101 175 
 RUS  HZ I         610 21.39         5.0 0.30                           101 175 
 GRA  SZ EP        610  3.32                             136    -0.110  126  18 
 GRA  SZ I         610 23.87         3.9 0.55                           126  18 
 NOR  SN ES   1    610 40.55                             118    -0.8 6  233 234 
 CHI  HZ EP   2    610 16.53                             116     0.6 4  248 195 
 CHI  HE ES   2    610 45.28                             116     0.2 4  248 195 
 CHI  HZ I         610 46.16         4.0 0.69                           248 195 
 HEL  HN ES   2    610 50.18                             114     0.9 4  270 256 
 HEL  HZ I         610 56.35         2.6 0.38                           270 256 
                                                                                
