 2010  312 0320 48.9 L   6.815 -73.057143.8  RSN  5 0.1 2.2LRSN                1
 GAP=192        0.39       2.1     5.2  3.6  0.1010E+01 -0.1149E+01  0.5512E+00E
 Epicentro: LOS SANTOS - SANTANDER                                             3
 ACTION:UP  10-08-24 09:53 OP:vdl  STATUS:               ID:20100312032048 L   I
 2010-03-12-0316-31S.COL___094                                                 6
 STAT SP IPHASW D HRMM SECON CODA AMPLIT PERI AZIMU VELO SNR AR TRES W  DIS CAZ7
 BAR2 SZ IP        321  8.53                             168     0.110   28 209 
 BAR2 SZ ES   1    321 23.38                             168    -0.3 7   28 209 
 BRR  HZ IP        321 10.38                             149     0.110   79 294 
 BRR  HE ES   1    321 27.12                             149     0.1 7   79 294 
 BRR  HZ I         321 31.43        37.5 0.14                            79 294 
 RUS  BZ EP   1    321 12.56                             143     0.0 7  102 182 
 RUS  BN ES   2    321 31.24                             143     0.2 5  102 182 
 RUS  BZ I         321 32.13         9.5 0.23                           102 182 
 OCA  SZ EP   1    321 17.12                             129     0.1 7  160 350 
 OCA  SZ ES   1    321 38.85                             129    -0.1 7  160 350 
 OCA  SZ I         321 42.04        39.7 0.27                           160 350 
 PRA  HZ EP   1    321 42.79                             106    -0.3 4  398 211 
 PRA  HE ES   1    322 25.36                             106     0.0 4  398 211 
 PRA  HZ I         322 29.11         4.8 0.47                           398 211 
                                                                                
