 2013  412 0134 48.3 L   6.726 -73.218150.4  RSN  4 0.2 1.4LRSN                1
 GAP=217        0.61       5.0     4.8  6.1  0.1204E+02 -0.3390E+01 -0.1963E+01E
 Epicentro: VILLANUEVA - SANTANDER                                             3
 ACTION:UPD 13-05-22 14:37 OP:EP   STATUS:               ID:20130412013448 L   I
 2013-04-12-0128-44M.COL___212                                                 6
 STAT SP IPHASW D HRMM SECON CODA AMPLIT PERI AZIMU VELO AIN AR TRES W  DIS CAZ7
 BAR2 SZ EP        135  7.90                             174   -0.4310 15.3 165 
 BRR  HZ EP        135  9.85                             154    0.0410 69.0 308 
 BRR  HN ES        135 26.76                             154    0.1610 69.0 308 
 RUS  HZ EP        135 12.31                             147    0.3210 93.3 171 
 RUS  HN ES        135 30.45                             147   -0.0310 93.3 171 
 RUS  HN I         135 32.39         2.6 0.46            144           93.3 171 
 PTB  HZ EP        135 14.83                             135    0.02 9  138 262 
 PTB  HN ES        135 35.40                             135   -0.10 9  138 262 
 PTB  HN I         135 40.97         6.1 0.28            132            138 262 
                                                                                
