 2017  212 0811 56.3 L   6.792 -73.163144.7  RSN  5 0.4 1.0LRSN                1
 GAP=135        0.96       5.3     4.9  7.3 -0.3152E+01  0.2927E+01  0.4230E+01E
 Epicentro: LOS SANTOS - SANTANDER                                             3
 ACTION:UPD 17-05-24 15:35 OP:jn   STATUS:               ID:20170212081156 L   I
 OLDACT:REG 17-02-12 13:08 OP:and  STATUS:               ID:20170212080744     3
 2017-02-12-0808-00M.COL___331                                                 6
 STAT SP IPHASW D HRMM SECON CODA AMPLIT PERI AZIMU VELO AIN AR TRES W  DIS CAZ7
 BAR2 EZ EP        812 15.60                             171   -0.1610 22.2 186 
 BAR2 EZ ES        812 30.95                             171   -0.0010 22.2 186 
 BAR2 EZ I         812 31.38         3.9 0.16            172           22.2 186 
 BRR  HN ES        812 34.29                             153    0.6910 70.0 300 
 PAM  EZ EP        812 18.68                             150    0.1810 79.3  40 
 PAM  EN ES        812 35.35                             150   -0.4710 79.3  40 
 PAM  EZ I         812 37.77         1.8 0.60            151           79.3  40 
 RUS  HZ EP        812 20.23                             144    0.3610 99.8 175 
 RUS  HN ES        812 38.25                             144   -0.0210 99.8 175 
 RUS  HZ I         812 38.93         1.0 0.34            145           99.8 175 
 PTB  HZ EP        812 22.83                             132   -0.15 9  146 259 
 PTB  HN ES        812 43.28                             132   -0.52 9  146 259 
 PTB  HZ I         812 46.45         1.2 0.16            132            146 259 
                                                                                
