 2010 1212 0821 38.9 L   6.739 -72.971144.1  RSN  6 0.4 1.4LRSN                1
 GAP=201        0.65       4.7    21.0  7.5 -0.3151E+02  0.2827E+02 -0.3256E+00E
 Epicentro: CEPITA - SANTANDER                                                 3
 ACTION:UP  11-01-14 15:24 OP:pat  STATUS:               ID:20101212082138 L   I
 2010-12-12-0818-04S.COL___136                                                 6
 STAT SP IPHASW D HRMM SECON CODA AMPLIT PERI AZIMU VELO SNR AR TRES W  DIS CAZ7
 BAR2 SZ EP   1    821 58.35                             168    -0.1 7   29 235 
 BAR2 SZ ES   1    822 13.43                             168    -0.3 7   29 235 
 BAR2 SZ I         822 15.06         6.5 0.15                            29 235 
 BTL  SZ EP   1    821 58.43                             164    -0.3 7   38 301 
 RUS  HZ EP   2    822  2.30                             145     0.2 5   94 188 
 RUS  HN ES   2    822 20.56                             145     0.4 5   94 188 
 RUS  HZ I         822 22.85         2.5 0.27                            94 188 
 OCA  SZ EP   2    822  7.96                             127    -0.1 4  170 347 
 OCA  SZ ES   2    822 31.70                             127     0.9 4  170 347 
 OCA  SZ I         822 35.75         3.1 0.25                           170 347 
 CHI  HZ EP   2    822 16.49                             117     0.0 4  248 200 
 CHI  HE ES   2    822 46.42                             117     0.7 4  248 200 
 CHI  HZ I         822 49.47         1.7 0.36                           248 200 
 PRA  HZ EP   2    822 32.53                             106    -0.3 3  396 213 
 PRA  HE ES   2    823 14.73                             106    -0.2 3  396 213 
                                                                                
