 2017 1012 0719 31.7 L   6.834 -73.148132.3  RSN  4 0.4 1.5LRSN                1
 GAP=245        0.94       8.8     6.9  8.5  0.3899E+02  0.4186E+01 -0.2334E+02E
 Epicentro: LOS SANTOS - SANTANDER                                             3
 ACTION:UPD 17-11-07 19:31 OP:rebc STATUS:               ID:20171012071931 L   I
 OLDACT:UP  17-10-12 18:30 OP:y    STATUS:               ID:20171012071044     3
 OLDACT:REG 17-10-12 14:10 OP:leo  STATUS:               ID:20171012071044     3
 2017-10-12-0718-00M.COL___426                                                 6
 STAT SP IPHASW D HRMM SECON CODA AMPLIT PERI AZIMU VELO AIN AR TRES W  DIS CAZ7
 BAR2 EZ EP        719 50.26                             168    0.4510 27.0 188 
 BAR2 EZ ES        720  3.46                             168   -0.4610 27.0 188 
 BAR2 EZ I         720  6.23        10.0 0.16            172           27.0 188 
 RUS  HZ EP        719 54.38                             140   -0.0810  104 176 
 RUS  HN ES        720 12.55                             140    0.3610  104 176 
 RUS  HZ I         720 13.46         5.3 0.22            146            104 176 
 PTB  HZ EP        719 57.14                             128   -0.52 9  148 257 
 PTB  HN ES        720 17.84                             128   -0.06 9  148 257 
 PTB  HZ I         720 20.18         4.5 0.16            130            148 257 
 ZAR  HZ EP        720  2.97                             119   -0.17 9  202 291 
 ZAR  HN ES        720 28.15                             119    0.50 9  202 291 
 ZAR  HZ I         720 37.24         3.7 0.20            121            202 291 
                                                                                
