 2016  312 0153 12.9 L   6.824 -73.133147.4  RSN 19 0.5 2.3LRSN                1
 GAP=127        1.07       2.9     3.4  5.4 -0.2934E+01  0.5926E+01  0.9556E-01E
 Epicentro: LOS SANTOS - SANTANDER                                             3
 ACTION:UPD 16-05-13 21:23 OP:cam  STATUS:               ID:20160312015312 L   I
 OLDACT:UP  16-03-12 14:36 OP:ar   STATUS:               ID:20160312014747     3
 OLDACT:REG 16-03-12 13:17 OP:ar   STATUS:               ID:20160312014747     3
 2016-03-12-0147-47M.COL___310                                                 6
 STAT SP IPHASW D HRMM SECON CODA AMPLIT PERI AZIMU VELO AIN AR TRES W  DIS CAZ7
 BAR2 EZ EP        153 32.68                             170   -0.1010 26.2 192 
 BAR2 EZ ES        153 47.97                             170   -0.3210 26.2 192 
 BAR2 EZ I         153 49.68        26.1 0.32            169           26.2 192 
 PAM  EZ EP        153 35.58                             152    0.4610 74.5  40 
 PAM  EN ES        153 52.98                             152    0.5310 74.5  40 
 PAM  EZ I         153 56.71        10.4 0.52            154           74.5  40 
 RUS  HZ EP        153 36.83                             143   -0.1610  103 177 
 RUS  HN ES        153 55.48                             143   -0.3010  103 177 
 RUS  HZ I         153 56.25        16.8 0.24            147            103 177 
 PTB  HZ EP        153 39.33                             132   -0.84 9  150 258 
 PTB  HN ES        154  0.90                             132   -0.54 9  150 258 
 PTB  HZ I         154  8.15        27.8 0.40            131            150 258 
 OCA  HZ EP        153 41.29                             130    0.18 9  158 353 
 OCA  HN ES        154  3.71                             130    0.60 9  158 353 
 OCA  HZ I         154  8.58        46.9 0.22            130            158 353 
 SPBC HZ EP        153 41.55                             129   -0.24 9  166 219 
 SPBC HN ES        154  4.61                             129    0.28 9  166 219 
 SPBC HZ I         154  5.81        26.1 0.12            130            166 219 
 ZAR  HZ EP        153 46.10                             123    0.62 9  204 291 
 ZAR  HE ES        154 10.34                             123   -0.55 9  204 291 
 ZAR  HZ I         154 16.46        28.0 0.60            122            204 291 
 NOR  HZ EP        153 48.49                             118   -0.51 8  237 234 
 NOR  HN ES        154 17.11                             118   -0.06 8  237 234 
 NOR  HZ I         154 23.73        14.2 0.44            119            237 234 
 CHI  HZ EP        153 50.74                             117   -0.26 8  252 195 
 CHI  HN ES        154 21.01                             117    0.29 8  252 195 
 CHI  HZ I         154 25.93         9.2 0.28            119            252 195 
 ROSC BZ EP        153 52.04                             117    0.61 8  256 211 
 ROSC BN ES        154 21.44                             117   -0.04 8  256 211 
 ROSC BZ I         154 26.27        20.6 0.45            118            256 211 
 HEL  HZ EP   4    153 54.89                             115    1.48 0  274 255 
 HEL  HN ES        154 25.29                             115    0.28 8  274 255 
 HEL  HZ I         154 30.98         9.0 0.30            115            274 255 
 URE  HZ EP   4    153 57.02                             114    2.94 0  284 291 
 URE  HN ES   4    154 23.47                             114   -2.73 0  284 291 
 URE  HZ I         154 36.77        14.9 0.28            114            284 291 
 GUY2CHZ EP        153 57.74                             112    0.86 7  304 235 
 GUY2CHE ES        154 31.28                             112    0.10 7  304 235 
 GUY2CHZ I         154 41.39         8.1 0.32                           304 235 
 ELA  HZ EP   4    154  3.34                             110    3.21 0  332 229 
 ELA  HE ES        154 37.95                             110    0.98 7  332 229 
 ELA  HZ I         154 45.03         7.4 0.38            111            332 229 
 DBB  SZ EP        154  0.41                             110   -0.16 7  341 274 
 DBB  SZ ES        154 37.47                             110   -0.29 7  341 274 
 MON  HZ EP   4    153 59.36                             109   -2.54 0  353 308 
 MON  HN ES   2    154 39.18                             109   -0.94 3  353 308 
 MON  HZ I         154 54.02         6.2 0.46            109            353 308 
 SDV  BZ EP        154  1.70                             109   -0.98 6  358  50 
 SDV  BN ES   2    154 40.81                             109   -0.70 3  358  50 
 ANIL HN ES   2    154 44.09                             108    1.85 3  360 224 
 PAL  HZ EP        154  8.26                             106   -0.15 6  408 239 
 PAL  HN ES        154 51.30                             106   -0.40 6  408 239 
 PAL  HZ I         155  3.68         2.3 0.46            107            408 239 
                                                                                
