 2015  812 0548 34.0 L   6.823 -73.123146.9  RSN 14 0.4 2.1LRSN                1
 GAP=185        0.99       2.7     4.9  5.4 -0.8736E+00  0.6021E+01  0.1420E+01E
 Epicentro: LOS SANTOS - SANTANDER                                             3
 ACTION:UPD 15-09-15 23:01 OP:cam  STATUS:               ID:20150812054834 L   I
 OLDACT:UP  15-08-12 17:51 OP:mh   STATUS:               ID:20150812053750d    3
 OLDACT:UP  15-08-12 17:51 OP:mh   STATUS:               ID:20150812053750d    3
 OLDACT:UP  15-08-12 17:49 OP:mh   STATUS:               ID:20150812053750d    3
 OLDACT:UP  15-08-12 17:49 OP:mh   STATUS:               ID:20150812053750d    3
 OLDACT:UP  15-08-12 17:49 OP:mh   STATUS:               ID:20150812053750d    3
 OLDACT:DUP 15-08-12 17:44 OP:mh   STATUS:               ID:20150812053750d    3
 OLDACT:UP  15-08-12 17:44 OP:mh   STATUS:               ID:20150812053749     3
 OLDACT:UP  15-08-12 17:42 OP:mh   STATUS:               ID:20150812053749     3
 OLDACT:UP  15-08-12 17:20 OP:mh   STATUS:               ID:20150812053749     3
 OLDACT:UP  15-08-12 17:19 OP:mh   STATUS:               ID:20150812053749     3
 OLDACT:UP  15-08-12 17:17 OP:mh   STATUS:               ID:20150812053749     3
 OLDACT:REG 15-08-12 14:19 OP:mh   STATUS:               ID:20150812053749     3
 2015-08-12-0537-49M.COL___313                                                 6
 STAT SP IPHASW D HRMM SECON CODA AMPLIT PERI AZIMU VELO AIN AR TRES W  DIS CAZ7
 BAR2 EZ EP        548 53.88                             169    0.0310 26.3 194 
 BAR2 EZ ES        549  9.23                             169   -0.0910 26.3 194 
 BAR2 EZ I         549 10.54        28.0 0.13            166           26.3 194 
 BRR  HZ EP        548 55.59                             152    0.2410 72.3 296 
 BRR  HN ES        549 12.34                             152    0.3510 72.3 296 
 BRR  HZ I         549 15.70        21.2 0.26            149           72.3 296 
 RUS  HZ EP        548 57.95                             143   -0.1110  103 178 
 RUS  HN ES   1    549 16.79                             143   -0.02 7  103 178 
 RUS  HZ I         549 18.26        11.6 0.28            144            103 178 
 OCA  HZ EP        549  2.08                             130   -0.13 9  158 352 
 OCA  HN ES        549 24.84                             130    0.63 9  158 352 
 OCA  HZ I         549 30.44        25.1 0.44            132            158 352 
 SPBC HZ EP        549  2.89                             129   -0.05 9  167 219 
 SPBC HN ES        549 24.99                             129   -0.51 9  167 219 
 SPBC HZ I         549 30.42        19.5 0.28            128            167 219 
 ZAR  HZ EP        549  5.64                             122   -1.04 8  205 291 
 ZAR  HN ES   1    549 32.04                             122   -0.12 6  205 291 
 ZAR  HZ I         549 36.56        12.1 0.22            122            205 291 
 NOR  HZ EP        549 10.00                             118   -0.19 8  238 234 
 NOR  HN ES        549 38.06                             118   -0.35 8  238 234 
 NOR  HZ I         549 45.35        13.1 0.16            118            238 234 
 SML  HZ EP   1    549 10.45                             118   -0.13 6  242 335 
 SML  HN ES        549 38.40                             118   -0.69 8  242 335 
 SML  HZ I         549 42.11        27.3 0.26            119            242 335 
 CHI  HZ EP        549 12.22                             117    0.10 8  252 196 
 CHI  HN ES        549 41.71                             117   -0.13 8  252 196 
 CHI  HZ I         549 47.64         6.1 0.34            118            252 196 
 HEL  HZ EP        549 15.51                             115    0.88 8  275 255 
 HEL  HN ES        549 46.61                             115    0.31 8  275 255 
 HEL  HZ I         549 52.37         8.8 0.46            115            275 255 
 TOL  SZ EP        549 23.60                             109    0.87 6  347 225 
 TOL  SN ES   4    550  2.88                             109    2.15 0  347 225 
 TOL  SZ I         550 10.22         6.3 0.40            110            347 225 
 MON  HZ EP   4    549 20.41                             109   -2.70 0  354 308 
 MON  HN ES   4    549 59.35                             109   -2.05 0  354 308 
 MON  HZ I         550  1.54         2.7 0.54            109            354 308 
 ORTC HZ EP        549 28.43                             106    0.04 6  399 216 
 ORTC HN ES        550 11.55                             106    0.75 6  399 216 
 ORTC HZ I         550 18.55         3.7 0.40            107            399 216 
 SJC  HZ EP   4    549 28.04                             106   -1.49 0  408 326 
 SJC  HN ES   4    550  8.59                             106   -4.24 0  408 326 
 SJC  HZ I         550 16.61         2.5 0.28            107            408 326 
                                                                                
