 2014  112 0558 17.8 L   6.122 -73.434143.6  RSN 12 0.4 2.0LRSN                1
 GAP= 71        1.04       3.2     3.0  5.4 -0.4334E+01  0.2516E+01 -0.4538E+00E
 Epicentro: SUAITA - SANTANDER                                                 3
 ACTION:UPD 14-03-13 09:54 OP:ep   STATUS:               ID:20140112055817 L   I
 OLDACT:DUP 14-01-12 11:47 OP:carl STATUS:               ID:20140112055001d    3
 2014-01-12-0550-00M.COL___285                                                 6
 STAT SP IPHASW D HRMM SECON CODA AMPLIT PERI AZIMU VELO AIN AR TRES W  DIS CAZ7
 RUS  HZ EP        558 38.08                             161   -0.1310 46.4 123 
 RUS  HN ES        558 53.85                             161   -0.3010 46.4 123 
 BAR2 SZ EP        558 38.18                             157   -0.2110 59.0  28 
 BAR2 SZ ES        558 54.42                             157   -0.0510 59.0  28 
 BAR2 SZ I         558 56.31        31.7 0.16            153           59.0  28 
 SPBC HZ EP        558 40.24                             147    0.4010 87.7 234 
 SPBC HN ES        558 57.47                             147    0.4110 87.7 234 
 SPBC HZ I         559  0.70        20.1 0.22            146           87.7 234 
 PTB  HZ EP        558 41.76                             137   -0.5710  122 292 
 PTB  HN ES        559  1.00                             137   -0.4810  122 292 
 PTB  HZ I         559  3.15        23.0 0.30            137            122 292 
 PAM  SZ EP        558 46.48                             130    0.40 9  157  31 
 PAM  SN ES        559  9.11                             130    0.95 9  157  31 
 PAM  SZ I         559 12.63         6.7 0.50            126            157  31 
 CHI  HZ EP        558 46.86                             128   -0.17 9  168 191 
 CHI  HN ES        559 10.15                             128    0.30 9  168 191 
 CHI  HZ I         559 13.17         7.9 0.34            124            168 191 
 NOR  HZ EP        558 46.73                             127   -0.03 9  170 249 
 NOR  HN ES        559  8.93                             127   -0.44 9  170 249 
 ROSC BZ EP   4    558 49.04                             127    1.64 0  172 215 
 ROSC BN ES   4    559 12.32                             127    1.81 0  172 215 
 TAM  HZ EP        558 48.15                             125   -0.04 9  185  79 
 TAM  HZ I         559 11.27        15.8 0.26            120            185  79 
 TAM  HE ES        559 11.53                             125   -0.38 9  185  79 
 OCA  HZ EP        558 52.89                             118   -0.59 8  234   3 
 OCA  HN ES        559 21.50                             118    0.17 8  234   3 
 OCA  HZ I         559 23.84        10.4 0.26            115            234   3 
 RREF HZ EP   4    558 57.47                             116    1.54 0  251 238 
 RREF HN ES        559 26.55                             116    0.86 8  251 238 
 RREF HZ I         559 30.02        10.3 0.26            114            251 238 
 CBOC HZ EP        558 59.53                             113    0.25 7  287 264 
 CBOC HN ES        559 31.78                             113    0.13 7  287 264 
 CBOC HZ I         559 34.21         2.9 0.26            111            287 264 
 SML  HZ EP   4    558 59.56                             111   -1.49 0  305 347 
 SML  HN ES   4    559 32.56                             111   -2.24 0  305 347 
 ORTC HZ EP        559  2.83                             111    0.35 7  317 219 
 ORTC HN ES        559 36.70                             111   -0.66 7  317 219 
 ORTC HZ I         559 41.78         5.4 0.64            108            317 219 
                                                                                
