 2016  812 0613 29.6 L   6.774 -73.090144.8  RSN 16 0.4 2.0LRSN                1
 GAP=104        1.02       3.4     3.5  4.8 -0.2125E+01  0.2600E+01  0.2463E+01E
 Epicentro: LOS SANTOS - SANTANDER                                             3
 ACTION:UPD 16-10-29 15:34 OP:rebc STATUS:               ID:20160812061329 L   I
 OLDACT:UP  16-08-12 15:43 OP:dani STATUS:               ID:20160812060735     3
 OLDACT:UP  16-08-12 15:43 OP:dani STATUS:               ID:20160812060735     3
 OLDACT:UP  16-08-12 15:40 OP:dani STATUS:               ID:20160812060735     3
 OLDACT:REG 16-08-12 12:41 OP:dani STATUS:               ID:20160812060735     3
 2016-08-12-0608-00M.COL___377                                                 6
 STAT SP IPHASW D HRMM SECON CODA AMPLIT PERI AZIMU VELO AIN AR TRES W  DIS CAZ7
 BAR2 EZ EP        613 49.19                             171    0.1210 22.5 207 
 BAR2 EZ ES        614  4.19                             171   -0.0910 22.5 207 
 BAR2 EZ I         614  5.42        14.0 0.20                          22.5 207 
 PAM  EZ EP        613 52.14                             151    0.5410 76.0  35 
 PAM  EE ES        614  9.14                             151    0.3610 76.0  35 
 PAM  EZ I         614 11.34        22.0 0.64                          76.0  35 
 BRR  HZ EP        613 51.03                             150    0.0210 78.0 298 
 BRR  HE ES        614  8.10                             150    0.3610 78.0 298 
 BRR  HZ I         614 11.22        14.3 0.16                          78.0 298 
 RUS  HZ EP        613 52.28                             144   -0.7210 97.5 180 
 RUS  HN ES        614 11.12                             144   -0.1610 97.5 180 
 RUS  HZ I         614 12.97         7.9 0.30                          97.5 180 
 PTB  HZ EP        613 56.45                             131   -0.51 9  153 260 
 PTB  HE ES        614 17.68                             131   -0.65 9  153 260 
 PTB  HZ I         614 20.26        13.8 0.34                           153 260 
 SPBC HZ EP        613 58.15                             128   -0.01 9  165 221 
 SPBC HN ES        614 20.23                             128   -0.23 9  165 221 
 SPBC HZ I         614 26.25        15.9 0.20                           165 221 
 ZAR  HZ EP        614  2.15                             121   -0.50 8  211 292 
 ZAR  HE ES        614 27.91                             121   -0.55 8  211 292 
 ZAR  HZ I         614 33.82        21.8 0.68                           211 292 
 NOR  HZ EP        614  5.56                             118   -0.05 8  238 236 
 NOR  HE ES        614 34.54                             118    0.82 8  238 236 
 NOR  HZ I         614 35.31         7.7 0.18                           238 236 
 CHI  HZ EP   4    614  8.42                             117    1.33 0  248 197 
 CHI  HN ES        614 36.57                             117    0.20 8  248 197 
 CHI  HZ I         614 42.86         4.6 0.18                           248 197 
 HEL  HZ EP        614 10.81                             114    0.49 7  277 257 
 HEL  HN ES   4    614 40.37                             114   -1.73 0  277 257 
 HEL  HZ I         614 47.70         6.2 0.32                           277 257 
 URE  HZ EP   4    614 13.91                             113    2.56 0  291 292 
 URE  HE ES   4    614 39.94                             113   -4.00 0  291 292 
 URE  HZ I         614 53.86         6.6 0.31                           291 292 
 SOCV BZ EP        614 12.16                             112   -0.01 7  298  56 
 PTGC HZ EP        614 12.40                             112   -0.43 7  304 160 
 GUY2CHZ EP        614 13.69                             112    0.17 7  305 236 
 GUY2CHN ES        614 48.46                             112    0.66 7  305 236 
 GUY2CHZ I         614 54.52         6.8 0.34                           305 236 
 CBOC HZ EP        614 17.45                             109    0.44 7  339 253 
 CBOC HZ I         614 58.78         1.6 0.24                           339 253 
 PRA  HZ EP        614 23.77                             106    0.65 6  393 211 
 PRA  HN ES   4    615  6.49                             106    1.59 0  393 211 
 PRA  HZ I         615 11.77         5.4 0.58                           393 211 
                                                                                
