 2011  612 0411 24.8 L   7.371 -73.910 16.0  RSN  6 0.2 2.1LRSN                1
 GAP=158        0.57       1.9     3.0  5.3 -0.1168E+01  0.1089E+02 -0.3492E+01E
 Epicentro: PUERTO WILCHES - SANTANDER                                         3
 ACTION:UP  11-07-14 19:04 OP:ep   STATUS:               ID:20110612041124 L   I
 2011-06-12-0408-32S.COL___132                                                 6
 STAT SP IPHASW D HRMM SECON CODA AMPLIT PERI AZIMU VELO SNR AR TRES W  DIS CAZ7
 BRR  HZ EP        411 30.95                             110    -0.310   36 143 
 BRR  HN ES   1    411 36.60                             110     0.3 7   36 143 
 BRR  HZ I         411 37.99       157.9 0.11                            36 143 
 OCA  SZ EP        411 43.14                              96    -0.110  116  34 
 OCA  SZ ES   1    411 57.50                              96    -0.1 7  116  34 
 OCA  SZ I         412  1.13        37.5 0.41                           116  34 
 BRI  SZ EP        411 45.33                              95     0.210  129  73 
 BRI  SZ ES   1    412  0.84                              95    -0.2 7  129  73 
 BRI  SZ I         412  3.74        61.7 0.41                           129  73 
 GRA  SZ EP        411 46.06                              95     0.010  135  65 
 GRA  SZ ES   1    412  2.88                              95     0.3 7  135  65 
 GRA  SZ I         412  4.34       149.1 0.26                           135  65 
 RUS  HN ES   2    412 14.85                              56    -0.2 4  187 151 
 RUS  HZ I         412 15.70        10.6 0.50                           187 151 
 MON  HZ EP   1    412  0.32                              56     0.3 6  248 309 
 MON  HN ES   1    412 27.62                              56     0.0 6  248 309 
 MON  HZ I         412 35.27         2.1 0.61                           248 309 
                                                                                
