 2014  512 0131 55.1 L   6.765 -73.179140.7  RSN  6 0.4 1.3LRSN                1
 GAP=134        0.74       4.4     4.0  8.8 -0.3339E+01  0.1022E+02  0.1155E+01E
 Epicentro: LOS SANTOS - SANTANDER                                             3
 OLDACT:REG 14-05-12 13:12 OP:spq  STATUS:               ID:20140512012806     3
 ACTION:UPD 15-03-16 16:56 OP:nd   STATUS:               ID:20140512013155 L   I
 OLDACT:UP  14-05-12 14:46 OP:spq  STATUS:               ID:20140512012806     3
 2014-05-12-0128-06M.COL___254                                                 6
 STAT SP IPHASW D HRMM SECON CODA AMPLIT PERI AZIMU VELO AIN AR TRES W  DIS CAZ7
 PAM  SZ EP   1    132 17.52                             148    0.40 8 82.7  40 
 PAM  SE ES   1    132 34.26                             148   -0.03 8 82.7  40 
 PAM  SZ I         132 51.42         3.0 0.34            156           82.7  40 
 RUS  HZ EP   1    132 17.81                             144   -0.29 8 97.0 174 
 RUS  HN ES   1    132 35.59                             144   -0.45 8 97.0 174 
 PTB  HZ EP        132 21.13                             132   -0.1310  143 260 
 PTB  HN ES        132 42.09                             132    0.4210  143 260 
 PTB  SZ I         132 49.78         3.0 0.46            146            143 260 
 SPBC HZ EP   1    132 22.88                             129    0.18 7  158 219 
 SPBC HN ES   1    132 44.68                             129    0.44 7  158 219 
 SPBC SZ I         132 54.68         3.5 1.44            144            158 219 
 ZAR  HE ES   1    132 51.29                             122   -0.64 7  202 294 
 GUY2CHN ES   1    133 10.99                             112   -0.26 6  296 235 
                                                                                
