 2012  212 0044 40.8 L   6.743 -73.196151.6  RSN  5 0.5 1.3LRSN                1
 GAP=172        0.85       7.8     8.5  9.7  0.2474E+02  0.3123E+01  0.3408E+01E
 ACTION:UP  12-03-07 16:29 OP:epov STATUS:               ID:20120212004440 L   I
 2012-02-12-0040-00M.COL___188                                                 6
 STAT SP IPHASW D HRMM SECON CODA AMPLIT PERI AZIMU VELO AIN AR TRES W  DIS CAZ7
 GIR2 SZ EP   2    045  0.76                             165   -0.52 5 37.1   0 
 BRR  HZ EP        045  2.48                             154    0.0210 69.8 305 
 BRR  HN ES   1    045 19.87                             154    0.48 7 69.8 305 
 BRR  HZ I         045 20.78         5.1 0.08                          69.8 305 
 RUS  HZ EP   1    045  4.38                             147   -0.31 7 94.9 172 
 RUS  HN ES   1    045 23.46                             147    0.11 7 94.9 172 
 RUS  HZ I         045 24.13         2.5 0.31                          94.9 172 
 PTB  HZ EP   1    045  7.51                             135   -0.11 7  141 261 
 PTB  HE ES   1    045 27.91                             135   -0.67 7  141 261 
 NOR  SZ EP   1    045 16.87                             121    0.90 6  227 235 
                                                                                
