 2012  312 0019 47.2 L   7.218 -73.822 94.4  RSN  8 0.4 1.9LRSN                1
 GAP=101        0.97       4.0     4.0  8.4  0.3644E+00 -0.1271E+01 -0.1249E+01E
 ACTION:UP  12-03-31 23:19 OP:EP   STATUS:               ID:20120312001947 L   I
 2012-03-12-0017-41M.COL___176                                                 6
 STAT SP IPHASW D HRMM SECON CODA AMPLIT PERI AZIMU VELO SNR AR TRES W  DIS CAZ7
 BRR  HZ EP        020  0.41                             169     0.210   17 135 
 BRR  HN ES   1    020 10.32                             169     0.0 7   17 135 
 BRR  HZ I         020 11.41       121.5 0.13                            17 135 
 BAR2 SZ EP   1    020  6.20                             130     0.3 7   99 134 
 BAR2 SZ ES   1    020 21.18                             130     0.7 7   99 134 
 BAR2 SZ I         020 23.53        25.8 0.21                            99 134 
 PTB  HZ EP   1    020  5.75                             129    -0.2 7  103 223 
 PTB  HN ES   1    020 19.90                             129    -0.7 7  103 223 
 PTB  HZ I         020 24.52        12.1 0.11                           103 223 
 ZAR  HZ EP   1    020  8.02                             125     0.5 7  118 285 
 ZAR  HN ES   1    020 23.52                             125     0.2 7  118 285 
 ZAR  HZ I         020 26.65        22.9 0.10                           118 285 
 PAM  SZ EP   1    020  8.72                             124     0.0 7  125  84 
 PAM  SZ I         020 16.17         9.5 0.15                           125  84 
 OCA  SZ EP   1    020  8.44                             123     0.0 7  126  26 
 OCA  SZ ES   1    020 24.30                             123    -0.7 7  126  26 
 RUS  HZ EP   1    020 13.18                             115    -0.2 7  168 151 
 RUS  HN ES   1    020 33.31                             115    -0.5 7  168 151 
 RUS  HZ I         020 37.00         6.5 0.23                           168 151 
 NOR  SN ES   2    020 42.82                             109     0.0 4  217 212 
                                                                                
