 2014 1012 0553  8.5 L   6.818 -73.165139.6  RSN 20 0.6 2.6LRSN                1
 GAP= 69        1.58       3.6     4.2  7.0 -0.1109E+01  0.8381E+01  0.4250E+01E
 Epicentro: LOS SANTOS - SANTANDER                                             3
 ACTION:UPD 14-11-29 23:49 OP:nd   STATUS:               ID:20141012055308 L   I
 OLDACT:REG 14-10-12 13:48 OP:stll STATUS:               ID:20141012054742     3
 2014-10-12-0547-42M.COL___292                                                 6
 STAT SP IPHASW D HRMM SECON CODA AMPLIT PERI AZIMU VELO AIN AR TRES W  DIS CAZ7
 BAR2 SZ EP        553 27.53                             169    0.1010 25.0 184 
 BAR2 SZ ES        553 41.90                             169   -0.2910 25.0 184 
 BAR2 SZ I         553 51.14        73.5 0.32            170           25.0 184 
 BRR  HZ IP     D  553 29.44                             152    0.6110 68.4 298 
 BRR  HN ES        553 45.72                             152    1.0410 68.4 298 
 BRR  HZ I         553 50.00        60.9 0.12            146           68.4 298 
 PAM  SZ EP     D  553 30.30                             150    0.2410 77.3  42 
 PAM  SZ I         553 30.66        93.3 0.20            149           77.3  42 
 PAM  SN ES        553 47.36                             150    0.4810 77.3  42 
 RUS  HZ EP        553 31.83                             142    0.0110  103 175 
 RUS  HN ES        553 49.76                             142   -0.2410  103 175 
 RUS  HZ I         553 51.86        48.5 0.20            142            103 175 
 PTB  HZ EP        553 34.29                             131   -0.53 9  146 258 
 PTB  HN ES        553 55.27                             131   -0.07 9  146 258 
 PTB  HZ I         553 57.97        40.3 0.12            127            146 258 
 OCA  HZ EP        553 35.96                             129   -0.17 9  158 354 
 OCA  HN ES        553 57.05                             129   -0.63 9  158 354 
 OCA  HZ I         554  0.35        48.5 0.22            125            158 354 
 TAM  HZ IP     D  553 36.14                             128    0.19 9  158 105 
 TAM  HZ I         553 36.35        51.3 0.36            129            158 105 
 TAM  HN ES        553 56.97                             128   -0.38 9  158 105 
 SPBC HZ EP        553 36.67                             127    0.11 9  163 218 
 SPBC HN ES        553 57.83                             127   -0.61 9  163 218 
 SPBC HZ I         554  9.32        38.6 0.20            125            163 218 
 ZAR  HZ EP        553 40.23                             121   -0.04 9  201 292 
 ZAR  HN ES        554  5.50                             121    0.45 9  201 292 
 ZAR  HZ I         554 11.42        40.9 0.34            118            201 292 
 SML  HZ EP        553 43.80                             116   -0.70 8  241 336 
 SML  HN ES        554 11.93                             116   -0.65 8  241 336 
 SML  HZ I         554 18.55        81.1 0.10            113            241 336 
 CHI  HZ EP        553 45.87                             116   -0.15 8  250 195 
 CHI  HN ES        554 15.24                             116   -0.04 8  250 195 
 CHI  HZ I         554 21.08        20.0 0.26            114            250 195 
 GUY2CHZ EP        553 52.42                             111    0.65 7  301 234 
 GUY2CHN ES        554 25.19                             111   -0.32 7  301 234 
 GUY2CHZ I         554 35.62        20.8 0.38                           301 234 
 SOCV BZ EP   9    553 50.31                             111   -1.05 0  302  57 
 SOCV BN ES        554 21.64                                   -2.10 7  302  57 
 CBOC HZ EP        553 55.69                             109    0.68 7  332 252 
 CBOC HN ES        554 29.89                             109   -1.39 7  332 252 
 CBOC HZ I         554 43.67         6.1 0.50            107            332 252 
 DBB  SZ EP        553 56.08                             108    0.60 7  337 274 
 DBB  SZ I         554 35.48        39.3 0.46            106            337 274 
 TOL  SZ EP        553 57.72                             108    1.21 7  343 224 
 TOL  SE ES        554 33.35                             108   -0.60 7  343 224 
 MON  HZ EP   9    553 54.61                             108   -2.33 0  351 308 
 MON  HN ES        554 32.27                                   -0.12 6  351 308 
 MON  HZ I         554 47.59        11.4 0.62            105            351 308 
 PRA  HZ EP        554  1.51                             105   -0.39 6  393 209 
 PRA  HN ES        554 42.88                             105   -0.66 6  393 209 
 PRA  HZ I         554 48.45        24.2 0.50            104            393 209 
 ORTC HZ EP        554  2.04                             105   -0.22 6  396 216 
 ORTC HN ES        554 45.85                             105    1.66 6  396 216 
 ORTC HZ I         554 52.10        14.4 0.46            104            396 216 
 SJC  HZ EP   9    554  1.72                             105   -1.82 0  406 327 
 SJC  HE ES        554 41.86                                   -2.79 6  406 327 
                                                                                
