 2011 1112 0320 46.4 L   6.622 -73.297156.6  RSN  4 0.2 1.5LRSN                1
 GAP=145        0.42       6.7     7.5  5.4  0.4237E+02  0.2417E+01 -0.1676E+01E
 Epicentro: GALAN - SANTANDER                                                  3
 ACTION:UPD 12-07-13 16:09 OP:ep   STATUS:               ID:20111112032046 L   I
 2011-11-12-0319-37S.COL___180                                                 6
 STAT SP IPHASW D HRMM SECON CODA AMPLIT PERI AZIMU VELO AIN AR TRES W  DIS CAZ7
 BAR2 SZ EP   1    321  6.85                             175   -0.33 7 13.1 104 
 BAR2 SZ I         321 23.12         6.5 0.21                          13.1 104 
 BRR  HZ EP   1    321  8.83                             154    0.13 7 70.6 320 
 BRR  HZ I         321 12.04         8.2 0.30                          70.6 320 
 BRR  HN ES   1    321 26.21                             154    0.12 7 70.6 320 
 RUS  HZ EP   1    321 10.27                             151    0.10 7 84.0 164 
 RUS  HN ES   1    321 28.72                             151    0.01 7 84.0 164 
 RUS  HZ I         321 30.43         3.9 0.28                          84.0 164 
 ZAR  HZ EP   1    321 19.08                             126    0.16 6  198 299 
 ZAR  HN ES   1    321 44.09                             126   -0.20 6  198 299 
 ZAR  HZ I         321 50.74         2.1 0.13                           198 299 
                                                                                
