 2014 1012 0453 17.1 L   6.751 -73.187140.3  RSN  6 0.3 1.5LRSN                1
 GAP= 95        0.93       5.8     4.7  6.8  0.6317E+01 -0.8096E+01 -0.6576E+01E
 Epicentro: VILLANUEVA - SANTANDER                                             3
 ACTION:UPD 14-11-29 23:49 OP:nd   STATUS:               ID:20141012045317 L   I
 OLDACT:REG 14-10-12 13:46 OP:stll STATUS:               ID:20141012044744     3
 2014-10-12-0447-44M.COL___292                                                 6
 STAT SP IPHASW D HRMM SECON CODA AMPLIT PERI AZIMU VELO AIN AR TRES W  DIS CAZ7
 BAR2 SZ EP        453 36.04                             173    0.0610 17.5 178 
 BAR2 SZ ES        453 50.33                             173   -0.3710 17.5 178 
 BAR2 SZ I         453 53.22        10.8 0.28            175           17.5 178 
 BRR  HZ EP        453 37.57                             152   -0.0410 70.1 304 
 BRR  HN ES        453 54.14                             152    0.5410 70.1 304 
 BRR  HZ I         453 57.83         4.5 0.26            148           70.1 304 
 PAM  SZ EP        453 39.07                             147   -0.1310 84.5  40 
 PAM  SZ I         453 57.70        10.8 0.40            139           84.5  40 
 RUS  HZ EP        453 40.61                             144    0.6510 95.6 173 
 RUS  HN ES        453 57.83                             144    0.0410 95.6 173 
 RUS  HZ I         454  0.17         4.8 0.26            150           95.6 173 
 PTB  HZ EP        453 43.09                             132   -0.04 9  142 261 
 PTB  HN ES        454  2.96                             132   -0.47 9  142 261 
 PTB  HZ I         454  9.00         3.4 0.32            133            142 261 
 TAM  HZ EP        453 44.30                             129   -0.36 9  158 103 
                                                                                
