 2014 1212 0739 22.6 L   6.849 -73.135129.6  RSN  4 0.4 1.1LRSN                1
 GAP=246        0.90       8.0     7.1 12.9  0.3804E+02 -0.3065E+02 -0.6287E+02E
 Epicentro: LOS SANTOS - SANTANDER                                             3
 ACTION:UPD 15-02-10 17:03 OP:nd   STATUS:               ID:20141212073922 L   I
 OLDACT:REG 14-12-12 13:17 OP:fm   STATUS:               ID:20141212073742     3
 2014-12-12-0737-42M.COL___290                                                 6
 STAT SP IPHASW D HRMM SECON CODA AMPLIT PERI AZIMU VELO AIN AR TRES W  DIS CAZ7
 RUS  HZ EP        739 45.56                             138    0.3110  106 177 
 RUS  HZ I         739 59.51         0.8 0.30            146            106 177 
 RUS  HN ES        740  2.70                             138   -0.1910  106 177 
 PTB  HZ EP        739 49.18                             127    0.62 9  150 257 
 PTB  HN ES        740  8.81                             127    0.03 9  150 257 
 PTB  HZ I         740 16.59         1.9 0.36            134            150 257 
 SPBC HZ EP        739 50.26                             124   -0.18 9  168 218 
 SPBC HN ES        740 12.01                             124   -0.12 9  168 218 
 SPBC HZ I         740 18.57         3.0 0.10            131            168 218 
 ZAR  HZ EP        739 53.27                             119   -0.72 9  203 291 
 ZAR  HN ES        740 18.57                             119    0.13 9  203 291 
 ZAR  HZ I         740 29.11         1.7 0.26            123            203 291 
                                                                                
