 2011 1012 0207 50.4 L   6.777 -73.107149.5  RSN  4 0.2 1.6LRSN                1
 GAP=143        0.39       5.7     8.1  6.1  0.2970E+02 -0.2273E+02 -0.1342E+02E
 Epicentro: LOS SANTOS - SANTANDER                                             3
 ACTION:UPD 12-07-13 16:03 OP:ep   STATUS:               ID:20111012020750 L   I
 2011-10-12-0200-00M.COL___171                                                 6
 STAT SP IPHASW D HRMM SECON CODA AMPLIT PERI AZIMU VELO AIN AR TRES W  DIS CAZ7
 BAR2 SZ EP   2    2 8 10.00                             171   -0.46 5 22.1 202 
 BAR2 SZ ES   2    2 8 26.21                             171    0.11 5 22.1 202 
 BAR2 SZ I         2 8 27.42         6.5 0.39                          22.1 202 
 BRR  HZ EP        2 8 12.25                             152    0.0110 76.1 299 
 BRR  HZ I         2 8 12.51        13.2 0.15                          76.1 299 
 BRR  HN ES   1    2 8 29.27                             152    0.01 7 76.1 299 
 PAM  SZ EP   2    2 8 13.05                             152    0.07 5 76.8  36 
 RUS  HZ EP   2    2 8 14.63                             145    0.29 5 97.9 178 
 RUS  HN ES   2    2 8 32.91                             145   -0.09 5 97.9 178 
 RUS  HZ I         2 8 33.80         3.3 0.51                          97.9 178 
                                                                                
