 2014  512 0423  7.1 L   6.720 -73.110136.4  RSN  7 0.4 1.6LRSN                1
 GAP=145        0.99       5.0     4.8 10.9 -0.1437E+01  0.1442E+02 -0.8657E+01E
 Epicentro: JORDAN - SANTANDER                                                 3
 OLDACT:DUP 14-05-12 17:10 OP:spq  STATUS:               ID:20140512041808d    3
 ACTION:UPD 15-03-16 16:56 OP:nd   STATUS:               ID:20140512042307 L   I
 OLDACT:UP  14-05-12 17:39 OP:spq  STATUS:               ID:20140512041808d    3
 2014-05-12-0418-07M.COL___248                                                 6
 STAT SP IPHASW D HRMM SECON CODA AMPLIT PERI AZIMU VELO AIN AR TRES W  DIS CAZ7
 PAM  SZ EPg       423 28.95                             147    0.3010 82.2  33 
 PAM  SN ESg  1    423 45.57                             147    0.12 7 82.2  33 
 PAM  SZ I         423 48.03         4.9 0.54            156           82.2  33 
 RUS  HZ EP        423 29.59                             144    0.3010 91.5 178 
 RUS  HN ES        423 46.03                             144   -0.5610 91.5 178 
 RUS  SZ I         423 54.76         6.2 2.90            148           91.5 178 
 PTB  HZ EP        423 33.14                             129   -0.43 9  150 262 
 PTB  HE ES        423 54.43                             129    0.23 9  150 262 
 PTB  SZ I         423 56.34         5.3 1.84            135            150 262 
 SPBC HZ EP   1    423 34.23                             127   -0.28 7  159 222 
 SPBC HE ES   1    423 56.80                             127    0.93 7  159 222 
 SPBC SZ I         424  8.09         4.1 0.64            133            159 222 
 OCA  HZ EP   4    423 33.31                             125   -2.32 0  170 352 
 OCA  HN ES   4    423 55.49                             125   -2.38 0  170 352 
 OCA  SZ I         424  1.93         4.5 0.34            134            170 352 
 ZAR  HE ES        424  4.81                             119   -0.34 8  211 294 
 SML  HZ EP   4    423 42.35                             114   -1.96 0  253 335 
 SML  HN ES   4    424 10.83                             114   -2.49 0  253 335 
 SML  SZ I         424 13.92         6.6 0.08            122            253 335 
                                                                                
