 2015 1012 0648 41.0 L   6.798 -73.141139.5  RSN 21 0.6 2.5LRSN                1
 GAP=137        1.21       2.7     4.0  5.6 -0.1296E+01  0.9229E+01  0.2109E+01E
 Epicentro: LOS SANTOS - SANTANDER                                             3
 ACTION:UPD 15-12-22 20:39 OP:cam  STATUS:               ID:20151012064841 L   I
 OLDACT:REG 15-10-12 16:12 OP:ak   STATUS:               ID:20151012064748     3
 2015-10-12-0647-48M.COL___334                                                 6
 STAT SP IPHASW D HRMM SECON CODA AMPLIT PERI AZIMU VELO AIN AR TRES W  DIS CAZ7
 BAR2 EZ IP     C  648 59.89                             170    0.0610 23.2 191 
 BAR2 EZ ES        649 14.60                             170    0.0510 23.2 191 
 BAR2 EZ I         649 16.10        52.2 0.12            167           23.2 191 
 BRR  HZ IP     C  649  1.77                             151    0.3010 71.8 298 
 BRR  HN ES        649 18.30                             151    0.8410 71.8 298 
 BRR  HZ I         649 20.23        39.7 0.16            148           71.8 298 
 PAM  EZ EP        649  2.84                             150    0.3410 77.2  39 
 PAM  EN ES        649 19.69                             150    0.3910 77.2  39 
 PAM  EZ I         649 20.39        38.5 0.32            155           77.2  39 
 RUS  HZ EP        649  3.89                             143   -0.1910  100 176 
 RUS  HN ES        649 21.52                             143   -0.5910  100 176 
 OCA  HZ EP        649  8.23                             128   -0.59 9  161 353 
 OCA  HN ES        649 29.72                             128   -0.83 9  161 353 
 OCA  HZ I         649 33.32        59.6 0.26            130            161 353 
 SPBC HZ EP        649  8.87                             128   -0.13 9  163 219 
 SPBC HN ES        649 30.79                             128   -0.08 9  163 219 
 SPBC HZ I         649 33.45        54.5 0.12            127            163 219 
 ZAR  HZ EP        649 13.23                             121    0.17 9  205 292 
 ZAR  HN ES        649 38.79                             121    0.69 9  205 292 
 ZAR  HZ I         649 44.66        24.0 0.29            121            205 292 
 NOR  HZ EP        649 15.82                             117   -0.55 8  235 235 
 NOR  HN ES        649 43.13                             117   -0.85 8  235 235 
 NOR  HZ I         649 48.08        27.4 0.14            117            235 235 
 SML  HZ EP   1    649 16.36                             116   -0.93 6  244 335 
 SML  HN ES        649 45.06                             116   -0.56 8  244 335 
 SML  HZ I         649 50.34        47.3 0.10            117            244 335 
 CHI  HZ EP        649 18.08                             116   -0.23 8  249 195 
 CHI  HN ES        649 47.08                             116   -0.36 8  249 195 
 CHI  HZ I         649 53.33         9.9 0.34            117            249 195 
 ROSC BZ EP        649 19.32                             115    0.57 8  253 211 
 ROSC BN ES   4    649 50.82                             115    2.59 0  253 211 
 ROSC BZ I         649 57.43        26.4 0.35            116            253 211 
 HEL  HZ EP        649 21.72                             113    0.81 8  273 256 
 HEL  HN ES        649 51.65                             113   -0.42 8  273 256 
 HEL  HZ I         649 58.18        16.3 0.34            114            273 256 
 URE  HZ EP        649 22.60                             112    0.80 7  284 292 
 URE  HE ES   4    649 51.21                             112   -2.44 0  284 292 
 URE  HZ I         649 58.33        11.4 0.12            113            284 292 
 GUY2CHZ EP        649 24.42                             111    0.10 7  301 235 
 GUY2CHE ES        649 57.22                             111   -0.92 7  301 235 
 GUY2CHZ I         650  6.52        20.6 0.46                           301 235 
 VIL  SZ EP        649 24.07                             111   -0.02 7  303 192 
 VIL  SN ES        649 58.07                             111    0.35 7  303 192 
 ELA  HZ EP   1    649 28.31                             109    0.73 5  329 230 
 ELA  HN ES        650  4.78                             109    0.83 7  329 230 
 ELA  HZ I         650 13.96         9.3 0.36            110            329 230 
 CBOC HZ EP        649 27.96                             109    0.29 7  334 252 
 CBOC HN ES        650  3.48                             109   -0.63 7  334 252 
 CBOC HZ I         650 16.67         6.3 0.42            109            334 252 
 DBB  SZ EP        649 28.99                             108    0.74 7  340 274 
 DBB  SZ ES        650  4.19                             108   -0.95 7  340 274 
 ANIL HZ EP   1    649 30.69                             107    0.14 5  358 225 
 ANIL HE ES        650 10.02                             107    0.78 6  358 225 
 ANIL HZ I         650 17.76        32.9 0.44            108            358 225 
 ORTC HZ EP   4    649 33.17                             105   -1.52 0  396 216 
 ORTC HN ES        650 16.90                             105    0.31 6  396 216 
 ORTC HZ I         650 23.07        10.4 0.46            106            396 216 
 SJC  HZ EP   4    649 33.95                             105   -2.43 0  410 327 
 SJC  HN ES   4    650 14.83                             105   -4.78 0  410 327 
 SJC  HZ I         650 19.20         5.6 0.36            106            410 327 
                                                                                
