 2011  212 0719 36.3 L   7.121 -72.889158.0  RSN  4 0.4 1.7LRSN                1
 GAP=183        0.88      10.7    43.7 15.1 -0.3405E+03 -0.1697E+03  0.3838E+02E
 Epicentro: TONA - SANTANDER                                                   3
 ACTION:UP  11-03-28 15:07 OP:jfem STATUS:               ID:20110212071936 L   I
 2011-02-12-0718-22S.COL___136                                                 6
 STAT SP IPHASW D HRMM SECON CODA AMPLIT PERI AZIMU VELO SNR AR TRES W  DIS CAZ7
 BTL  SZ EP   1    719 58.00                             162     0.0 7   47 242 
 BAR2 SZ IP        719 59.09                             156     0.210   67 209 
 BAR2 SZ ES   2    720 16.28                             156    -0.2 5   67 209 
 BAR2 SZ I         720 19.57         6.5 0.34                            67 209 
 GRA  SZ EP   1    720  0.06                             150     0.3 7   85   6 
 GRA  SZ ES   2    720 17.67                             150    -0.4 5   85   6 
 GRA  SZ I         720 18.73        13.6 0.34                            85   6 
 RUS  HZ EP   1    720  3.31                             137    -0.7 7  138 189 
 RUS  HZ I         720 15.84         4.4 0.63                           138 189 
 RUS  HN ES   2    720 26.42                             137     0.7 5  138 189 
                                                                                
