 2015  512 0324 44.3 L   6.941 -73.187147.5  RSN  4 0.3 1.6LRSN                1
 GAP=246        0.79       9.3     9.8  6.3  0.7761E+02 -0.2356E+01 -0.8856E+01E
 Epicentro: BETULIA - SANTANDER                                                3
 ACTION:UPD 15-09-10 22:03 OP:cam  STATUS:               ID:20150512032444 L   I
 OLDACT:REG 15-05-12 20:49 OP:drio STATUS:               ID:20150512031748     3
 2015-05-12-0317-48M.COL___282                                                 6
 STAT SP IPHASW D HRMM SECON CODA AMPLIT PERI AZIMU VELO AIN AR TRES W  DIS CAZ7
 BAR2 EZ EP        325  4.20                             165   -0.3510 38.6 179 
 BAR2 EZ ES        325 20.45                             165    0.1210 38.6 179 
 BAR2 EZ I         325 21.59         9.8 0.36            160           38.6 179 
 BRR  HZ EP        325  4.80                             156   -0.3010 60.8 288 
 BRR  HN ES        325 21.56                             156    0.2410 60.8 288 
 RUS  HZ EP        325  9.70                             140    0.2710  117 174 
 RUS  HN ES        325 28.90                             140   -0.1210  117 174 
 ZAR  HZ EP        325 16.42                             124    0.54 9  194 288 
 ZAR  HN ES        325 40.16                             124   -0.34 9  194 288 
 ZAR  HZ I         325 46.05         3.0 0.30            122            194 288 
                                                                                
