 2014 1212 0014 49.2 L   6.507 -73.546110.7  RSN  9 0.5 1.5LRSN                1
 GAP= 90        1.15       3.7     4.0  7.7 -0.9591E-01  0.1316E+02 -0.9303E+01E
 Epicentro: SANTA HELENA DEL OPON - SANTANDER                                  3
 ACTION:UPD 15-02-10 17:02 OP:nd   STATUS:               ID:20141212001449 L   I
 OLDACT:REG 14-12-12 12:49 OP:fm   STATUS:               ID:20141212000745     3
 2014-12-12-0007-45M.COL___297                                                 6
 STAT SP IPHASW D HRMM SECON CODA AMPLIT PERI AZIMU VELO AIN AR TRES W  DIS CAZ7
 BAR2 EZ EP        015  5.43                             158    0.1510 41.3  77 
 BAR2 EZ ES        015 18.57                             158    0.7510 41.3  77 
 BAR2 EZ I         015 19.91        10.5 0.48            157           41.3  77 
 RUS  HZ EP        015  8.13                             140   -0.2810 85.1 143 
 RUS  HE ES        015 22.78                             140   -0.6210 85.1 143 
 RUS  HZ I         015 25.39         2.8 0.22            139           85.1 143 
 PTB  HZ EP        015  8.41                             134   -0.6410  101 272 
 PTB  HE ES        015 23.88                             134   -0.6610  101 272 
 PTB  HZ I         015 27.78         8.5 0.14            130            101 272 
 SPBC HZ EP        015 10.32                             131    0.2510  111 212 
 SPBC HN ES        015 26.53                             131    0.1710  111 212 
 SPBC HZ I         015 33.31         8.7 0.34            128            111 212 
 ZAR  HZ EP        015 16.63                             117   -0.48 9  181 307 
 ZAR  HN ES        015 39.07                             117    0.18 9  181 307 
 ZAR  HZ I         015 45.64         8.3 0.32            112            181 307 
 HEL  HN ES        015 48.54                             111    0.73 8  222 261 
 HEL  HZ I         015 53.01         2.4 0.38            108            222 261 
 GUY2CHZ EP        015 25.42                             109    0.39 8  246 235 
 GUY2CHN ES        015 53.39                             109    0.41 8  246 235 
 GUY2CHZ I         015 59.32         2.3 0.24                           246 235 
 SML  HZ EP        015 26.33                             108    0.30 8  260 347 
 SML  HE ES        015 55.16                             108    0.39 8  260 347 
 SML  HZ I         015 58.82         5.2 0.10            104            260 347 
 MON  HZ EP        015 35.76                             102   -0.06 7  343 317 
 MON  HZ I         016 10.18         1.1 0.42             98            343 317 
 MON  HN ES        016 11.59                             102   -0.60 7  343 317 
                                                                                
