 2014  612 0428 41.3 L   6.824 -73.180142.0  RSN  7 0.4 1.7LRSN                1
 GAP=131        0.80       3.7     4.3  6.7 -0.2101E+01  0.1060E+02 -0.4194E+01E
 Epicentro: ZAPATOCA - SANTANDER                                               3
 ACTION:UPD 14-07-01 22:53 OP:nd   STATUS:               ID:20140612042841 L   I
 OLDACT:UP  14-06-12 17:47 OP:mh   STATUS:               ID:20140612041810d    3
 OLDACT:DUP 14-06-12 17:43 OP:mh   STATUS:               ID:20140612041810d    3
 2014-06-12-0418-08M.COL___247                                                 6
 STAT SP IPHASW D HRMM SECON CODA AMPLIT PERI AZIMU VELO AIN AR TRES W  DIS CAZ7
 BAR2 SZ EP   1    429  0.53                             169   -0.00 7 25.7 181 
 BAR2 SZ ES        429 15.25                             169   -0.2810 25.7 181 
 BAR2 SZ I         429 16.60        21.0 0.39            168           25.7 181 
 PAM  SZ EP        429  3.54                             150    0.3910 77.8  43 
 PAM  SN ES   1    429 20.55                             150    0.36 7 77.8  43 
 PAM  SZ I         429 22.62        10.1 0.52            156           77.8  43 
 RUS  HZ EP        429  4.73                             142   -0.1810  104 174 
 RUS  HN ES   1    429 23.38                             142    0.06 7  104 174 
 RUS  HZ I         429 25.49         3.1 0.20            146            104 174 
 PTB  HZ EP        429  7.16                             132   -0.52 9  145 257 
 PTB  HN ES   1    429 28.15                             132   -0.10 7  145 257 
 PTB  HZ I         429 33.69         5.1 0.13            131            145 257 
 OCA  HN ES   1    429 30.07                             129   -0.59 7  157 354 
 OCA  HZ I         429 33.62         6.6 0.19            132            157 354 
 SPBC HN ES   1    429 32.03                             128    0.54 7  163 217 
 SPBC HZ I         429 39.77                             129            163 217 
 ZAR  HZ EP        429 13.27                             122    0.23 9  200 292 
 ZAR  HN ES   1    429 38.28                             122    0.49 6  200 292 
 ZAR  HZ I         429 47.42                             123            200 292 
                                                                                
