 2012  512 0846 49.1 L   6.791 -73.130149.0  RSN  7 0.4 1.8LRSN                1
 GAP=139        0.80       4.3     5.6  8.0  0.4749E+00  0.1159E-01 -0.2532E+01E
 Epicentro: LOS SANTOS - SANTANDER                                             3
 ACTION:UP  12-07-05 12:04 OP:pat  STATUS:               ID:20120512084649 L   I
 2012-05-12-0840-00M.COL___195                                                 6
 STAT SP IPHASW D HRMM SECON CODA AMPLIT PERI AZIMU VELO SNR AR TRES W  DIS CAZ7
 BAR2 SZ EP        847  9.03                             171    -0.110   23 195 
 BAR2 SZ I         847 25.98        14.6 0.68                            23 195 
 BRR  HZ EP        847 10.95                             152     0.210   73 299 
 BRR  HZ I         847 11.07        16.8 0.12                            73 299 
 BRR  HN ES   1    847 28.18                             152     0.6 7   73 299 
 PAM  SZ EP        847 11.70                             151     0.110   77  38 
 PAM  SN ES   1    847 29.04                             151    -0.2 7   77  38 
 RUS  HZ EP        847 13.26                             145     0.210  100 177 
 RUS  HN ES   1    847 31.49                             145    -0.3 7  100 177 
 RUS  HZ I         847 33.15         3.7 0.26                           100 177 
 PTB  HZ EP   2    847 15.91                             132    -0.6 5  149 259 
 PTB  HN ES   2    847 37.21                             132    -0.6 5  149 259 
 PTB  HZ I         847 42.14         4.7 0.14                           149 259 
 OCA  HZ EP        847 17.75                             130     0.0 9  161 353 
 OCA  HN ES   2    847 39.34                             130    -0.8 5  161 353 
 OCA  HZ I         847 44.12        14.6 0.28                           161 353 
 ZAR  HN ES   2    847 47.24                             123    -0.3 4  206 292 
 ZAR  HZ I         847 52.97         7.2 0.60                           206 292 
                                                                                
