 2015  112 0605 16.9 L   6.795 -73.142149.7  RSN 14 0.5 2.2LRSN                1
 GAP= 71        1.06       2.9     2.9  5.1 -0.1126E+01  0.4268E+01  0.1970E+00E
 Epicentro: LOS SANTOS - SANTANDER                                             3
 ACTION:UPD 15-03-02 15:39 OP:nd   STATUS:               ID:20150112060516 L   I
 OLDACT:REG 15-01-12 15:07 OP:carl STATUS:               ID:20150112055746     3
 2015-01-12-0557-46M.COL___256                                                 6
 STAT SP IPHASW D HRMM SECON CODA AMPLIT PERI AZIMU VELO AIN AR TRES W  DIS CAZ7
 BAR2 EZ EP        6 5 36.91                             171   -0.1010 22.8 191 
 BAR2 EZ ES        6 5 52.62                             171   -0.0710 22.8 191 
 BAR2 EZ I         6 5 56.22        17.4 0.18            169           22.8 191 
 BRR  HZ IP     C  6 5 38.83                             153    0.3110 71.8 299 
 BRR  HN ES        6 5 56.18                             153    0.8010 71.8 299 
 BRR  HZ I         6 5 57.33        33.9 0.14            153           71.8 299 
 PAM  SZ EP        6 5 39.93                             151    0.3710 77.6  39 
 PAM  SN ES        6 5 57.58                             151    0.3510 77.6  39 
 PAM  SZ I         6 5 59.50        36.7 0.62            151           77.6  39 
 RUS  HZ EP        6 5 40.81                             145   -0.2110  100 176 
 RUS  HN ES        6 5 59.68                             145   -0.1310  100 176 
 RUS  HZ I         6 6  1.88        12.0 0.22            142            100 176 
 PTB  HZ EP        6 5 43.53                             133   -0.70 9  148 259 
 PTB  HN ES        6 6  5.12                             133   -0.42 9  148 259 
 PTB  HZ I         6 6 10.91        23.2 0.16            131            148 259 
 TAM  HZ EP        6 5 44.84                             132   -0.02 9  155 105 
 TAM  HZ I         6 6  5.90        12.0 0.32            129            155 105 
 TAM  HN ES        6 6  6.35                             132   -0.31 9  155 105 
 OCA  HZ EP        6 5 45.13                             130   -0.46 9  161 353 
 OCA  HN ES        6 6  7.88                             130   -0.08 9  161 353 
 OCA  HZ I         6 6 14.54        16.5 0.50            129            161 353 
 SPBC HZ EP        6 5 45.81                             130    0.11 9  163 219 
 SPBC HN ES        6 6  7.91                             130   -0.24 9  163 219 
 SPBC HZ I         6 6 14.87        26.5 0.30            128            163 219 
 ZAR  HZ EP        6 5 50.15                             123    0.47 9  205 292 
 ZAR  HN ES        6 6 15.40                             123    0.17 9  205 292 
 ZAR  HZ I         6 6 20.75        28.2 0.34            122            205 292 
 NOR  HZ EP        6 5 52.98                             119    0.11 8  235 235 
 NOR  HN ES        6 6 20.58                             119   -0.34 8  235 235 
 NOR  HZ I         6 6 25.77        14.0 0.54            118            235 235 
 SML  HZ EP        6 5 53.39                             118   -0.45 8  244 335 
 SML  HN ES        6 6 21.97                             118   -0.66 8  244 335 
 SML  HZ I         6 6 26.81        30.5 0.10            117            244 335 
 HEL  HZ EP        6 5 58.24                             116    0.89 8  272 256 
 HEL  HN ES        6 6 28.57                             116   -0.33 8  272 256 
 HEL  HZ I         6 6 35.95        10.4 0.32            114            272 256 
 URE  HZ EP   4    6 6  0.66                             114    2.42 0  284 292 
 URE  HN ES   4    6 6 29.32                             114   -1.15 0  284 292 
 CBOC HZ EP        6 6  4.66                             111    0.65 7  334 252 
 CBOC HN ES        6 6 39.88                             111   -0.87 7  334 252 
 CBOC HZ I         6 6 51.95         3.3 0.38            109            334 252 
 TOL  SZ EP        6 6  6.13                             110    0.82 7  343 225 
 TOL  SN ES        6 6 43.81                             110    0.75 7  343 225 
 TOL  SZ I         6 6 54.18        11.5 0.48            109            343 225 
                                                                                
