 2017  512 0730  4.6 L   6.736 -73.172142.0  RSN  5 0.4 1.1LRSN                1
 GAP=136        0.96       4.7     4.3  7.6  0.1628E+01  0.7543E+01  0.4856E+00E
 Epicentro: VILLANUEVA - SANTANDER                                             3
 ACTION:UPD 17-06-16 13:35 OP:jn   STATUS:               ID:20170512073004 L   I
 OLDACT:UP  17-05-12 16:48 OP:osc  STATUS:               ID:20170512072744     3
 OLDACT:UP  17-05-12 16:48 OP:osc  STATUS:               ID:20170512072744     3
 OLDACT:UP  17-05-12 16:48 OP:osc  STATUS:               ID:20170512072744     3
 OLDACT:REG 17-05-12 13:19 OP:osc  STATUS:               ID:20170512072744     3
 2017-05-12-0728-00M.COL___359                                                 6
 STAT SP IPHASW D HRMM SECON CODA AMPLIT PERI AZIMU VELO AIN AR TRES W  DIS CAZ7
 BRR  HZ EP        730 25.56                             151    0.1210 72.4 305 
 BRR  HN ES        730 41.95                             151    0.2710 72.4 305 
 BRR  HZ I         730 48.27         2.6 0.30            152           72.4 305 
 PAM  EZ EP     D  730 26.69                             148   -0.2210 84.8  38 
 PAM  EN ES        730 44.26                             148   -0.0310 84.8  38 
 PAM  EZ I         730 46.40         2.3 0.66            154           84.8  38 
 RUS  HZ EP        730 27.76                             145    0.2410 93.7 174 
 RUS  HN ES        730 45.23                             145   -0.1410 93.7 174 
 RUS  HZ I         730 47.74         1.3 0.32            150           93.7 174 
 PTB  HZ EP        730 30.30                             132   -0.62 9  144 261 
 PTB  HN ES        730 51.64                             132    0.22 9  144 261 
 PTB  HZ I         730 57.55         1.5 0.36            135            144 261 
 ZAR  HZ EP        730 37.59                             122    0.75 9  204 294 
 ZAR  HN ES        731  1.37                             122   -0.60 9  204 294 
 ZAR  HZ I         731  6.82         2.1 0.36            125            204 294 
                                                                                
