 2015  612 0652 24.0 L   6.775 -73.156147.2  RSN  4 0.3 1.3LRSN                1
 GAP=234        0.68       4.3     7.0  7.0  0.8892E+01 -0.4373E+01  0.2767E+01E
 Epicentro: LOS SANTOS - SANTANDER                                             3
 ACTION:UPD 15-09-10 22:11 OP:cam  STATUS:               ID:20150612065224 L   I
 OLDACT:DUP 15-06-12 19:07 OP:spq  STATUS:               ID:20150612064751d    3
 2015-06-12-0647-50M.COL___294                                                 6
 STAT SP IPHASW D HRMM SECON CODA AMPLIT PERI AZIMU VELO AIN AR TRES W  DIS CAZ7
 BAR2 EZ I         653  0.91         3.6 0.36            165           20.4 188 
 BRR  HZ EP        652 45.04                             153   -0.3310 71.6 301 
 BRR  HN ES        653  2.19                             153    0.1810 71.6 301 
 BRR  HZ I         653  2.65                             151           71.6 301 
 RUS  HZ EP        652 48.15                             145    0.4010 97.9 175 
 RUS  HE ES        653  6.01                             145   -0.2310 97.9 175 
 RUS  HZ I         653  8.08         2.3 0.26            143           97.9 175 
 SPBC HZ EP        652 52.30                             130   -0.08 9  160 219 
 SPBC HN ES        653 14.54                             130    0.05 9  160 219 
 SPBC HZ I         653 21.41         3.5 0.32            128            160 219 
                                                                                
