 2010 1012 0321 22.7 L   6.822 -72.938138.0  RSN  4 0.2 1.8LRSN                1
 GAP=242        0.56       5.5    11.4 10.6 -0.1607E+02 -0.6481E+02  0.1464E+02E
 Epicentro: CEPITA - SANTANDER                                                 3
 ACTION:UP  11-02-18 11:09 OP:tino STATUS:               ID:20101012032122 L   I
 2010-10-12-0319-00S.COL___118                                                 6
 STAT SP IPHASW D HRMM SECON CODA AMPLIT PERI AZIMU VELO SNR AR TRES W  DIS CAZ7
 BAR2 SZ EP   1    321 42.03                             165     0.2 7   37 227 
 BRR  HZ IP     D  321 44.06                             145    -0.310   91 290 
 BRR  HN ES   1    322  1.32                             145     0.1 7   91 290 
 BRR  HZ I         322  6.10        13.5 0.15                            91 290 
 OCA  SZ EP   1    321 50.60                             128     0.0 7  162 345 
 OCA  SZ ES   1    322 12.53                             128     0.1 7  162 345 
 OCA  SZ I         322 20.32         6.4 0.18                           162 345 
 HEL  HZ EP   2    322  5.58                             112     0.4 4  295 256 
 HEL  HZ I         322 42.09         3.5 0.59                           295 256 
                                                                                
