 2013  712 0528 19.6 L   6.806 -73.134142.0  RSN 10 0.4 1.8LRSN                1
 GAP=184        0.89       2.9     4.4  5.1  0.3478E+00  0.7521E+01 -0.5190E+00E
 Epicentro: LOS SANTOS - SANTANDER                                             3
 ACTION:UPD 13-08-12 10:37 OP:ep   STATUS:               ID:20130712052819 L   I
 OLDACT:REG 13-07-12 08:50 OP:nd   STATUS:               ID:20130712051959     3
 2013-07-12-0519-59M.COL___267                                                 6
 STAT SP IPHASW D HRMM SECON CODA AMPLIT PERI AZIMU VELO AIN AR TRES W  DIS CAZ7
 BAR2 SZ EP        528 38.82                             170    0.0210 24.2 193 
 BAR2 SZ ES        528 54.09                             170    0.3210 24.2 193 
 BAR2 SZ I         528 55.13        16.1 0.40            168           24.2 193 
 GIR2 SZ EP        528 38.81                             167   -0.0010 30.8 348 
 GIR2 SZ ES        528 53.97                             167    0.1710 30.8 348 
 GIR2 SZ I         528 56.80         6.6 0.22            165           30.8 348 
 BRR  HZ IP     C  528 40.67                             152    0.2810 72.0 298 
 BRR  HN ES   2    528 56.80                             152    0.20 5 72.0 298 
 BRR  HZ I         529  1.99         8.6 0.42            148           72.0 298 
 RUS  HZ EP        528 42.59                             143   -0.4410  101 177 
 RUS  HN ES        529  1.07                             143   -0.2310  101 177 
 RUS  HZ I         529  2.66         7.7 0.22            143            101 177 
 PTB  HZ EP        528 45.63                             131   -0.76 9  149 259 
 PTB  HN ES        529  6.78                             131   -0.50 9  149 259 
 PTB  HZ I         529 12.52        13.7 0.38            128            149 259 
 OCA  HZ EP        528 47.76                             129    0.19 9  160 353 
 OCA  HN ES        529  9.52                             129    0.13 9  160 353 
 OCA  HZ I         529 13.89         9.5 0.26            128            160 353 
 ZAR  HZ EP        528 51.82                             121   -0.08 9  205 292 
 ZAR  HE ES        529 17.22                             121    0.13 9  205 292 
 ZAR  HZ I         529 24.09        11.5 0.30            119            205 292 
 SML  HZ EP   2    528 56.20                             117    0.19 4  244 335 
 SML  HN ES        529 23.95                             117   -0.46 8  244 335 
 SML  HZ I         529 27.42        14.9 0.22            116            244 335 
 GUY2CHZ EP        529  3.83                             111    0.63 7  303 235 
 GUY2CHN ES        529 38.08                             111    0.88 7  303 235 
 GUY2CHZ I         529 45.09         2.1 0.34                           303 235 
 PRA  HZ EP        529 13.45                             106    0.31 6  393 210 
 PRA  HZ I         529 31.70         1.0 0.40            105            393 210 
                                                                                
