 2012  412 0240 25.5 L   6.733 -73.113136.0  RSN  5 0.3 1.7LRSN                1
 GAP=172        0.65       8.3     4.1  6.8 -0.1425E+02 -0.5475E+00  0.1711E+02E
 Epicentro: JORDAN - SANTANDER                                                 3
 ACTION:UPD 12-07-05 11:52 OP:tino STATUS:               ID:20120412024025 L   I
 2012-04-12-0240-00M.COL___181                                                 6
 STAT SP IPHASW D HRMM SECON CODA AMPLIT PERI AZIMU VELO AIN AR TRES W  DIS CAZ7
 BAR2 SZ ES   2    240 57.91                             172    -0.3 5   17 206 
 BAR2 SZ I         241  2.17         8.4 0.25                            17 206 
 BRR  HZ EP        240 46.02                             148     0.010   78 302 
 BRR  HZ I         240 47.81        12.1 0.10                            78 302 
 BRR  HE ES        241  2.41                             148     0.310   78 302 
 PAM  SZ EP        240 46.89                             148    -0.110   81  34 
 PAM  SE ES   1    241  3.62                             148    -0.1 7   81  34 
 PTB  HZ EP        240 52.21                             129     0.3 9  150 262 
 PTB  HE ES   1    241 12.25                             129    -0.3 7  150 262 
 ZAR  HE ES   1    241 22.93                             119    -0.4 6  210 294 
 ZAR  HZ I         241 27.91         4.9 0.39                           210 294 
                                                                                
