 2013  512 0541 57.9 L   6.729 -73.164146.0  RSN  4 0.2 1.1LRSN                1
 GAP=230        0.40       4.8     6.5  5.5  0.2193E+02 -0.4597E+01  0.4031E+00E
 Epicentro: VILLANUEVA - SANTANDER                                             3
 ACTION:UPD 13-06-20 09:49 OP:ep   STATUS:               ID:20130512054157 L   I
 2013-05-12-0540-00M.COL___256                                                 6
 STAT SP IPHASW D HRMM SECON CODA AMPLIT PERI AZIMU VELO AIN AR TRES W  DIS CAZ7
 BAR2 SZ ES   2    542 32.44                             174   -0.17 5 15.3 188 
 BRR  HZ EP   1    542 18.93                             152   -0.24 7 73.6 305 
 BRR  HZ I         542 23.46         5.7 0.66            149           73.6 305 
 BRR  HN ES        542 35.92                             152    0.1310 73.6 305 
 RUS  HZ EP   1    542 21.26                             146    0.16 7 92.9 174 
 RUS  HN ES   1    542 39.20                             146   -0.02 7 92.9 174 
 RUS  HZ I         542 40.30         0.9 0.18            144           92.9 174 
 PTB  HN ES   2    542 45.26                             133   -0.10 5  144 262 
                                                                                
