 2010  312 0715 44.2 L   6.797 -73.037144.0  RSN  4 0.2 1.4LRSN                1
 GAP=194        0.52       4.6    10.7  7.5  0.3170E+02 -0.4284E+02 -0.1811E+02E
 Epicentro: CEPITA - SANTANDER                                                 3
 ACTION:UP  10-08-24 09:53 OP:vdl  STATUS:               ID:20100312071544 L   I
 2010-03-12-0715-14S.COL___094                                                 6
 STAT SP IPHASW D HRMM SECON CODA AMPLIT PERI AZIMU VELO SNR AR TRES W  DIS CAZ7
 BAR2 SZ IP        716  3.73                             169     0.010   28 216 
 BAR2 SZ ES   2    716 18.76                             169    -0.2 5   28 216 
 BRR  HZ IP        716  5.64                             149    -0.210   82 295 
 BRR  HE ES   1    716 22.91                             149     0.2 7   82 295 
 BRR  HZ I         716 25.23         4.4 0.21                            82 295 
 RUS  BZ EP   1    716  7.61                             144    -0.2 7  100 183 
 RUS  BN ES   1    716 26.42                             144     0.3 7  100 183 
 RUS  BZ I         716 29.68         1.6 0.38                           100 183 
 OCA  SZ EP   1    716 12.92                             129     0.3 7  162 349 
 OCA  SZ ES   2    716 34.70                             129    -0.1 5  162 349 
 OCA  SZ I         716 38.89         5.8 0.40                           162 349 
                                                                                
