 2014  612 0944 42.8 L   6.806 -73.129138.3  RSN 17 0.4 2.4LRSN                1
 GAP=138        0.96       2.3     3.5  5.3 -0.1995E+01  0.7116E+01  0.6051E+00E
 Epicentro: LOS SANTOS - SANTANDER                                             3
 ACTION:UPD 14-07-01 22:53 OP:nd   STATUS:               ID:20140612094442 L   I
 OLDACT:REG 14-06-12 13:32 OP:mh   STATUS:               ID:20140612093818     3
 2014-06-12-0938-18M.COL___250                                                 6
 STAT SP IPHASW D HRMM SECON CODA AMPLIT PERI AZIMU VELO AIN AR TRES W  DIS CAZ7
 BAR2 SZ IP     D  945  1.87                             170    0.3210 24.3 194 
 BAR2 SZ ES   1    945 15.84                             170   -0.33 7 24.3 194 
 BAR2 SZ I         945 18.14       121.4 0.20            167           24.3 194 
 PAM  SZ EP        945  4.66                             150    0.5410 75.7  39 
 PAM  SN ES        945 20.80                             150    0.0610 75.7  39 
 PAM  SZ I         945 26.26        24.3 0.58            155           75.7  39 
 RUS  HZ EP        945  5.83                             142   -0.0310  101 177 
 RUS  HN ES        945 23.69                             142   -0.1510  101 177 
 RUS  HZ I         945 25.76        16.0 0.36            144            101 177 
 PTB  HZ EP     C  945  8.51                             130   -0.83 9  150 259 
 PTB  HE ES        945 29.65                             130   -0.40 9  150 259 
 PTB  HZ I         945 32.20        23.1 0.12            130            150 259 
 OCA  HZ IP     C  945 10.90                             128    0.40 9  160 352 
 OCA  HN ES        945 32.17                             128    0.07 9  160 352 
 OCA  HZ I         945 35.06        25.2 0.20            131            160 352 
 SPBC HZ EP        945 10.84                             127   -0.05 9  165 219 
 SPBC HE ES        945 33.27                             127    0.46 9  165 219 
 SPBC HZ I         945 37.80        25.0 0.14            128            165 219 
 ZAR  HZ EP   1    945 14.75                             120   -0.17 6  206 292 
 ZAR  HE ES        945 40.20                             120    0.23 8  206 292 
 ZAR  HZ I         945 46.50        23.1 0.25            122            206 292 
 NOR  HZ IP     C  945 18.30                             117   -0.01 8  237 235 
 NOR  HN ES        945 45.13                             117   -0.87 8  237 235 
 NOR  HZ I         945 51.20        22.1 0.15            118            237 235 
 SML  HZ EP        945 18.65                             116   -0.38 8  244 335 
 SML  HE ES        945 46.78                             116   -0.52 8  244 335 
 SML  HZ I         945 48.81        22.6 0.28            118            244 335 
 CHI  HZ EP   1    945 20.08                             115   -0.13 6  250 196 
 CHI  HN ES        945 48.91                             115   -0.48 8  250 196 
 CHI  HZ I         945 56.43        12.5 0.58            117            250 196 
 ROSC BN ES   1    945 51.04                             115    0.81 6  254 211 
 ROSC BZ I         945 58.14        17.5 0.42            117            254 211 
 HEL  HZ EP   1    945 23.77                             113    0.91 6  274 256 
 HEL  HN ES        945 54.71                             113    0.61 8  274 256 
 HEL  HZ I         946  1.07         8.5 0.32            115            274 256 
 GUY2CHZ EP   1    945 26.27                             111   -0.01 5  303 235 
 GUY2CHE ES        946  0.99                             111    0.79 7  303 235 
 GUY2CHZ I         946  8.48        14.9 0.36                           303 235 
 CBOC HZ EP        945 29.70                             108    0.06 7  336 252 
 CBOC HE ES   4    946  3.62                             108   -2.55 0  336 252 
 CBOC HZ I         946 14.97         4.0 0.50            110            336 252 
 TOL  SZ EP        945 31.13                             108    0.17 7  345 225 
 TOL  SN ES        946  8.75                             108    0.22 7  345 225 
 TOL  SZ I         946 16.17        24.1 0.42            110            345 225 
 PRA  HZ EP        945 35.35                             105   -0.89 6  393 210 
 PRA  HN ES        946 17.90                             105   -0.02 6  393 210 
 PRA  HZ I         946 22.35        10.9 0.24            107            393 210 
 ORTC HZ EP        945 36.50                             105   -0.16 6  397 216 
 ORTC HE ES   1    946 18.81                             105    0.14 4  397 216 
 ORTC HZ I         946 26.03         8.2 0.40            107            397 216 
                                                                                
