 2014 1012 0718 28.7 L   6.797 -73.090150.4  RSN  7 0.6 1.5LRSN                1
 GAP=189        1.49       5.3    10.3 10.5 -0.1720E+01  0.1918E+02 -0.1255E+02E
 Epicentro: LOS SANTOS - SANTANDER                                             3
 ACTION:UPD 14-11-29 23:49 OP:nd   STATUS:               ID:20141012071828 L   I
 OLDACT:REG 14-10-12 13:52 OP:stll STATUS:               ID:20141012071742     3
 2014-10-12-0717-42M.COL___285                                                 6
 STAT SP IPHASW D HRMM SECON CODA AMPLIT PERI AZIMU VELO AIN AR TRES W  DIS CAZ7
 BAR2 SZ EP        718 49.43                             170    0.4610 24.9 204 
 BAR2 SZ ES        719  4.85                             170    0.1110 24.9 204 
 BAR2 SZ I         719  5.67         6.6 0.26            166           24.9 204 
 BRR  HZ EP        718 51.60                             151    0.8810 76.8 297 
 BRR  HN ES        719  8.61                             151    0.7610 76.8 297 
 BRR  HZ I         719 10.76         3.9 0.52            148           76.8 297 
 RUS  HN ES        719 10.75                             145   -1.0210  100 180 
 RUS  HZ I         719 13.28         2.3 0.44            145            100 180 
 PTB  HZ EP        718 56.60                             132   -0.04 9  154 259 
 PTB  HN ES        719 17.83                             132   -0.56 9  154 259 
 PTB  HZ I         719 23.28         3.6 0.18            130            154 259 
 OCA  HN ES        719 19.83                             130   -0.15 9  161 351 
 SPBC HZ EP        718 58.07                             129    0.12 9  167 221 
 SPBC HN ES        719 20.90                             129    0.16 9  167 221 
 SPBC HZ I         719 25.50         5.0 0.26            129            167 221 
 SML  HZ EP        719  5.81                             118   -0.14 8  247 334 
 SML  HN ES        719 33.86                             118   -1.11 8  247 334 
 SML  HZ I         719 38.07         5.5 0.10            119            247 334 
                                                                                
