 2017 1112 0602 54.3 L   5.996 -74.143 85.2  RSN  7 0.4 1.1LRSN                1
 GAP=142        0.90       2.9     2.7  8.1 -0.2337E+01 -0.4098E+01  0.2845E+01E
 Epicentro: LA BELLEZA - SANTANDER                                             3
 ACTION:UPD 17-12-12 19:54 OP:rebc STATUS:               ID:20171112060254 L   I
 OLDACT:UP  17-11-14 15:48 OP:nlst STATUS:               ID:20171112060254 L   3
 OLDACT:UP  17-11-12 14:25 OP:dnl  STATUS:               ID:20171112055739     3
 OLDACT:UP  17-11-12 14:25 OP:dnl  STATUS:               ID:20171112055739     3
 OLDACT:UP  17-11-12 14:25 OP:dnl  STATUS:               ID:20171112055739     3
 OLDACT:REG 17-11-12 13:06 OP:dnl  STATUS:               ID:20171112055739     3
 2017-11-12-0558-00M.COL___459                                                 6
 STAT SP IPHASW D HRMM SECON CODA AMPLIT PERI AZIMU VELO AIN AR TRES W  DIS CAZ7
 PTB  HZ IP     D  6 3  8.73                             137   -0.5410 69.4 330 
 PTB  HN ES        6 3 20.80                             137   -0.1110 69.4 330 
 PTB  HZ I         6 3 21.22         1.8 0.18            127           69.4 330 
 NOR  HZ EP        6 3 11.43                             128   -0.0810 93.5 239 
 NOR  HE ES        6 3 25.26                             128    0.3610 93.5 239 
 NOR  HZ I         6 3 27.51         7.1 0.12            116           93.5 239 
 RUS  HZ EP        6 3 14.37                             122   -0.1910  118  95 
 RUS  HZ I         6 3 29.75         0.7 0.48            105            118  95 
 RUS  HN ES        6 3 30.22                             122   -0.1110  118  95 
 BAR2 EZ IP     C  6 3 15.08                             120    0.0810  125  58 
 BAR2 EZ I         6 3 35.43         6.5 0.48            104            125  58 
 BRR  HZ IP     C  6 3 15.31                             118   -0.1110  132  21 
 BRR  HE ES        6 3 32.49                             118    0.6410  132  21 
 BRR  HZ I         6 3 33.43         3.6 0.14            104            132  21 
 GUY2CHZ EP        6 3 19.83                             113    0.67 9  160 238 
 GUY2CHN ES        6 3 38.12                             113   -0.39 9  160 238 
 GUY2CHZ I         6 3 44.18         1.8 0.38                           160 238 
 ZAR  HZ EP   2    6 3 21.16                             110   -0.10 4  183 335 
 ZAR  HE ES        6 3 42.12                             110   -0.13 9  183 335 
 ZAR  HZ I         6 3 47.46         2.5 0.40            100            183 335 
                                                                                
