 2017  712 0855 50.9 L   6.835 -73.136153.7  RSN 30 0.5 3.0LRSN                1
 GAP= 66        1.06       3.0     2.7  4.5  0.2213E+00  0.2575E+01 -0.3569E-01E
 Epicentro: LOS SANTOS - SANTANDER                                             3
 ACTION:UPD 17-08-30 15:32 OP:rebc STATUS:               ID:20170712085550 L   I
 OLDACT:UP  17-07-12 15:14 OP:dnl  STATUS:               ID:20170712084742     3
 OLDACT:UP  17-07-12 15:12 OP:dnl  STATUS:               ID:20170712084742     3
 OLDACT:REG 17-07-12 12:46 OP:dnl  STATUS:               ID:20170712084742     3
 2017-07-12-0848-00M.COL___353                                                 6
 STAT SP IPHASW D HRMM SECON CODA AMPLIT PERI AZIMU VELO AIN AR TRES W  DIS CAZ7
 BAR2 EZ IP     D  856 11.45                             169   -0.0810 27.3 191 
 BAR2 EZ ES        856 26.80                             169   -0.8510 27.3 191 
 BAR2 EZ I         856 28.21       247.6 0.32            168           27.3 191 
 BRR  HZ IP     C  856 13.33                             154    0.5010 70.4 295 
 BRR  HN ES        856 30.64                             154    0.6710 70.4 295 
 BRR  HZ I         856 33.04        90.7 0.20            153           70.4 295 
 PAM  EZ IP     C  856 14.22                             153    0.5010 73.7  41 
 PAM  EN ES        856 31.54                             153   -0.0110 73.7  41 
 PAM  EZ I         856 33.66       179.7 0.22            152           73.7  41 
 PTB  HZ EP        856 18.05                             133   -0.60 9  150 257 
 PTB  HE ES        856 39.69                             133   -0.63 9  150 257 
 PTB  HZ I         856 45.39       131.3 0.22            131            150 257 
 TAM  HZ IP     D  856 19.64                             132    0.47 9  155 106 
 TAM  HZ I         856 40.47        89.2 0.38            129            155 106 
 TAM  HN ES        856 41.29                             132    0.03 9  155 106 
 SPBC HZ EP        856 20.41                             130    0.09 9  167 218 
 SPBC HN ES        856 42.96                             130   -0.34 9  167 218 
 SPBC HZ I         856 47.55       193.9 0.34            128            167 218 
 YPLC HZ IP     D  856 21.63                             128    0.11 9  180 152 
 YPLC HN ES        856 45.28                             128   -0.15 9  180 152 
 YPLC HZ I         856 53.10        50.0 0.34            125            180 152 
 ZAR  HZ EP        856 24.22                             124    0.43 9  204 291 
 ZAR  HN ES        856 50.30                             124    0.82 9  204 291 
 ZAR  HZ I         856 55.95       152.9 0.20            122            204 291 
 TABC EZ EP   9    856 28.79                             120    1.29 0  234 210 
 TABC EZ ES        856 57.92                             120    0.55 8  234 210 
 TABC EZ I         857  3.72       133.2 0.44            118            234 210 
 NOR  HZ IP     C  856 27.40                             120    0.01 8  238 234 
 NOR  HN ES        856 55.79                             120   -0.10 8  238 234 
 NOR  HZ I         856 59.35       103.0 0.24            118            238 234 
 ROSC BZ EP   9    856 31.14                             118    1.30 0  257 211 
 ROSC BN ES        857  2.60                             118    1.05 8  257 211 
 ROSC BZ I         857  7.91       127.8 0.50            116            257 211 
 HEL  HZ EP   4    856 32.89                             116    1.18 0  274 255 
 HEL  HN ES        857  4.43                             116    0.86 8  274 255 
 HEL  HZ I         857 10.21        63.2 0.36            114            274 255 
 URE  HZ EP        856 31.88                             115   -0.40 7  283 291 
 URE  HE ES   4    857  2.14                             115   -2.45 0  283 291 
 URE  HZ I         857 12.33        51.5 0.32            113            283 291 
 GUY2CHZ EP        856 35.55                             114    0.36 7  304 234 
 GUY2CHN ES   4    857 13.56                             114    3.79 0  304 234 
 GUY2CHZ I         857 18.20        90.8 0.36                           304 234 
 PTGC HZ IP   4 D  856 34.31                             113   -1.13 0  312 159 
 PTGC HN ES   4    857  7.85                             113   -2.36 0  312 159 
 PTGC HZ I         857 14.65        29.7 0.24            111            312 159 
 LL6C HZ EP        856 35.95                             112   -0.52 7  321 357 
 LL6C HZ ES        857 11.59                             112   -0.46 7  321 357 
 LL6C HZ I         857 17.50        17.1 0.26            110            321 357 
 DBB  EZ EP        856 39.12                             111    0.36 7  340 274 
 DBB  EE ES        857 15.25                             111   -0.87 7  340 274 
 DBB  EZ I         857 17.42        32.4 0.30            109            340 274 
 ARGC HZ EP   9    856 41.57                             110    1.12 0  356 340 
 ARGC HE ES        857 19.80                             110   -0.45 6  356 340 
 ARGC HZ I         857 27.87        17.4 0.32            108            356 340 
 APAC HZ EP        856 45.39                             107    0.08 6  398 287 
 APAC HN ES        857 27.41                             107   -0.37 6  398 287 
 APAC HZ I         857 32.68        22.0 0.52            106            398 287 
 ORTC HZ EP        856 45.56                             107    0.07 6  399 216 
 ORTC HN ES   4    857 29.69                             107    1.58 0  399 216 
 ORTC HZ I         857 36.13        36.3 0.68            106            399 216 
 SJC  HZ EP        856 45.68                             107   -0.70 6  407 327 
 SJC  HN ES   4    857 26.95                             107   -2.74 0  407 327 
 SJC  HZ I         857 40.15        14.4 0.32            106            407 327 
 PAL  HZ EP        856 46.97                             107    0.34 6  409 239 
 PAL  HN ES   4    857 28.54                             107   -1.59 0  409 239 
 PAL  HZ I         857 35.94        19.2 0.46            105            409 239 
 CRJC HZ EP   9    856 51.53                             105   -1.59 0  464   3 
 CRJC HE ES        857 39.93                             105   -0.17 5  464   3 
 CRJC HZ I         857 46.07        31.1 0.40            103            464   3 
 YOT  HZ EP        856 53.90                             104   -0.63 5  475 229 
 YOT  HN ES   4    857 47.95                             104    3.76 0  475 229 
 GUA  EZ EP   4    856 53.69                             104   -0.98 0  478 173 
 GUA  EE ES        857 44.01                             104   -0.44 5  478 173 
 GUA  EZ I         857 51.47        16.6 0.24            102            478 173 
 SMAR HZ EP   2    856 56.04                             104   -0.49 2  494 346 
 SMAR HN ES   4    857 43.98                             104   -3.77 0  494 346 
 SMAR HZ I         857 51.03        17.5 0.40            102            494 346 
 MACC HZ EP   4    856 58.17                             103   -2.07 0  525 189 
 MACC HN ES   4    857 50.19                             103   -4.17 0  525 189 
 MACC HZ I         857 58.17         8.2 0.58            101            525 189 
 JAMC HZ EP        857  4.44                             102   -0.34 3  560 225 
 JAMC HN ES   4    858  5.22                             102    2.79 0  560 225 
 JAMC HZ I         858  9.24         2.7 0.40            100            560 225 
 POP2 HZ EP        857 11.10                             100   -0.37 3  616 220 
 POP2 HN ES   4    858  9.30                             100   -5.05 0  616 220 
 BBAC HZ EP        857 22.27                              99    0.63 1  701 221 
 BBAC HN ES   4    858 31.65                              99   -0.81 0  701 221 
 BBAC HZ I         858 37.04         2.5 0.30             97            701 221 
                                                                                
