 2014  212 0840 58.2 L   6.836 -73.148148.7  RSN  7 0.4 1.6LRSN                1
 GAP=202        0.89       2.7     7.2  9.5 -0.1018E+01 -0.2363E+02 -0.1616E+01E
 Epicentro: LOS SANTOS - SANTANDER                                             3
 ACTION:UPD 14-03-10 08:09 OP:ep   STATUS:               ID:20140212084058 L   I
 OLDACT:REG 14-02-12 08:21 OP:carl STATUS:               ID:20140212084000     3
 2014-02-12-0840-00M.COL___199                                                 6
 STAT SP IPHASW D HRMM SECON CODA AMPLIT PERI AZIMU VELO AIN AR TRES W  DIS CAZ7
 PTB  HZ EP        841 25.38                             132   -0.0710  148 257 
 PTB  HN ES        841 46.08                             132   -0.6310  148 257 
 PTB  HZ I         841 49.73         2.9 0.18            136            148 257 
 OCA  HE ES        841 48.41                             131    0.0810  156 353 
 OCA  HE I         841 51.70        14.7 0.18            135            156 353 
 SPBC HE ES        841 50.00                             129    0.1810  166 218 
 SPBC HZ I         841 54.85         4.2 0.24            133            166 218 
 ZAR  HZ EP        841 31.15                             123    0.50 9  202 291 
 ZAR  HE ES        841 56.62                             123    0.65 9  202 291 
 ZAR  HZ I         842  1.21         2.7 0.30            127            202 291 
 SML  HZ EP        841 34.84                             118    0.26 9  240 335 
 SML  HN ES        842  2.68                             118   -0.28 9  240 335 
 SML  HZ I         842  7.11         4.5 0.10            122            240 335 
 CHI  HZ EP        841 36.63                             117    0.17 8  252 195 
 CHI  HN ES        842  6.10                             117   -0.21 8  252 195 
 CHI  HZ I         842  9.50         0.7 0.54            121            252 195 
 SJC  HZ EP        841 52.65                             106   -0.79 6  406 327 
 SJC  HN ES        842 36.06                             106   -0.48 6  406 327 
                                                                                
