 2012  812 0837 34.1 L   6.771 -73.145145.9  RSN 12 0.3 2.2LRSN                1
 GAP= 72        0.68       2.7     3.4  4.5 -0.1233E+01  0.1206E+01  0.3171E+01E
 Epicentro: LOS SANTOS - SANTANDER                                             3
 ACTION:UPD 12-09-10 11:56 OP:ep   STATUS:               ID:20120812083734 L   I
 2012-08-12-0830-00M.COL___218                                                 6
 STAT SP IPHASW D HRMM SECON CODA AMPLIT PERI AZIMU VELO AIN AR TRES W  DIS CAZ7
 BAR2 SZ EP        837 53.76                             172    0.0910 20.2 192 
 BAR2 SZ ES   1    838  8.58                             172   -0.36 7 20.2 192 
 BAR2 SZ I         838 10.84        44.0 0.19                          20.2 192 
 GIR2 SZ EP        837 53.94                             166    0.0810 34.5 351 
 BRR  HZ EP        837 55.75                             152    0.4110 72.9 301 
 BRR  HE ES   1    838 12.59                             152    0.67 7 72.9 301 
 BRR  HZ I         838 16.20        25.6 0.18                          72.9 301 
 PAM  SZ EP   1    837 56.56                             150    0.10 7 79.9  38 
 PAM  SE ES   1    838 13.66                             150   -0.25 7 79.9  38 
 PAM  SZ I         838 16.38        18.6 0.64                          79.9  38 
 RUS  HZ EP        837 57.65                             145    0.0410 97.3 176 
 RUS  HN ES   1    838 16.11                             145    0.14 7 97.3 176 
 RUS  HZ I         838 17.96        22.4 0.41                          97.3 176 
 PTB  HZ EP        838  0.54                             132   -0.47 9  147 260 
 PTB  HE ES   1    838 21.87                             132   -0.15 7  147 260 
 PTB  HZ I         838 29.42        13.6 0.31                           147 260 
 TAM  HZ EP        838  1.84                             131    0.16 9  154 104 
 OCA  HZ EP   1    838  2.45                             129   -0.25 7  164 353 
 OCA  HN ES   1    838 24.39                             129   -0.64 7  164 353 
 NOR  SZ EP   1    838  9.85                             119    0.23 6  233 235 
 NOR  SZ I         838 43.29        13.3 0.26                           233 235 
 CHI  HZ EP        838 11.52                             117    0.07 8  246 195 
 CHI  HN ES   1    838 40.06                             117   -0.53 6  246 195 
 CHI  HZ I         838 46.88         9.1 0.36                           246 195 
 HEL  HZ EP   1    838 14.53                             115    0.31 6  271 256 
 HEL  HZ I         838 54.35         9.6 0.21                           271 256 
 PRA  HZ EP   1    838 27.03                             107   -0.25 4  389 210 
 PRA  HN ES   1    839  8.62                             107   -0.15 4  389 210 
 PRA  HZ I         839 12.86         8.4 0.35                           389 210 
                                                                                
