 2016 1112 0807 12.5 L   6.051 -73.750119.5  RSN 14 0.4 2.0LRSN                1
 GAP=159        0.96       2.8     3.2  6.2 -0.4521E+01  0.1389E+01  0.3277E+01E
 Epicentro: BOLIVAR - SANTANDER                                                3
 ACTION:UPD 17-10-26 21:07 OP:lp   STATUS:               ID:20161112080712 L   I
 OLDACT:DUP 16-11-12 18:05 OP:lv   STATUS:               ID:20161112075751d    3
 OLDACT:REG 16-11-12 13:02 OP:and  STATUS:               ID:20161112075749     3
 2016-11-12-0758-00M.COL___340                                                 6
 STAT SP IPHASW D HRMM SECON CODA AMPLIT PERI AZIMU VELO AIN AR TRES W  DIS CAZ7
 BAR2 EZ EP        8 7 32.12                             141   -0.2010 86.8  46 
 BAR2 EZ ES        8 7 47.14                             141   -0.6410 86.8  46 
 PTB  HZ IP   4 C  8 7 31.60                             139   -1.05 0 95.0 305 
 PTB  HN ES        8 7 48.49                             139    0.1210 95.0 305 
 PTB  HZ I         8 7 50.96        12.6 0.14            128           95.0 305 
 BRR  HZ IP     D  8 7 34.55                             132    0.0510  117   2 
 BRR  HN ES        8 7 52.17                             132    0.5110  117   2 
 BRR  HZ I         8 7 55.34        21.7 0.15            124            117   2 
 NOR  HZ EP        8 7 35.81                             128   -0.47 9  135 247 
 NOR  HN ES        8 7 54.60                             128   -0.23 9  135 247 
 NOR  HZ I         8 7 56.78        19.7 0.14            120            135 247 
 ROSC BZ EP        8 7 38.33                             125    0.34 9  148 205 
 ROSC BN ES        8 7 58.21                             125    0.33 9  148 205 
 ROSC BZ I         8 8  3.39        15.5 0.25            119            148 205 
 PAM  EZ EP        8 7 42.33                             119    0.52 9  184  39 
 PAM  EN ES        8 8  4.79                             119    0.12 9  184  39 
 PAM  EZ I         8 8  7.39         8.6 0.30            114            184  39 
 ZAR  HZ EP        8 7 42.92                             116   -0.13 9  201 323 
 ZAR  HN ES        8 8  6.88                             116    0.01 9  201 323 
 ZAR  HZ I         8 8  9.08        19.1 0.14            110            201 323 
 ELA  HZ EP        8 7 47.11                             113    0.71 8  225 234 
 ELA  HE ES        8 8 13.09                             113    0.24 8  225 234 
 ELA  HZ I         8 8 20.61         4.8 0.64            109            225 234 
 CBOC HZ EP        8 7 48.94                             111    0.05 8  251 265 
 CBOC HN ES        8 8 17.47                             111    0.20 8  251 265 
 CBOC HZ I         8 8 21.78         3.4 0.40            106            251 265 
 PTGC HN EP   4    8 7 48.86                             109   -2.20 0  272 139 
 PTGC HE ES   4    8 8 16.10                             109   -5.04 0  272 139 
 PTGC HN I         8 8 19.66        11.0 0.52            106            272 139 
 URE  HZ EP        8 7 50.20                             109   -0.90 8  272 314 
 URE  HN ES   4    8 8 19.47                             109   -1.74 0  272 314 
 URE  HZ I         8 8 23.27        11.4 0.20            105            272 314 
 PRA  HZ EP   9    8 7 49.12                             107   -3.77 0  288 206 
 PRA  HN ES        8 8 20.18                                   -0.45 7  288 206 
 PRA  HZ I         8 8 25.52         6.3 0.30            104            288 206 
 ORTC HZ EP        8 7 52.90                             107   -0.18 7  289 215 
 ORTC HN ES        8 8 24.08                             107   -0.66 7  289 215 
 ORTC HZ I         8 8 27.55         4.5 0.18            104            289 215 
 LL6C HZ EP   4    8 7 49.51                             101   -17.9 0  411   7 
 LL6C HN ES   4    8 8 30.13                             101   -20.2 0  411   7 
 SJC  HZ EP   9    8 8 11.07                              99   -1.57 0  454 340 
 SJC  HN ES        8 8 57.51                                   -0.47 5  454 340 
                                                                                
