 2016  512 0313 41.2 L   6.779 -73.137145.3  RSN  9 0.4 1.7LRSN                1
 GAP=139        0.98       3.9     4.2  6.2 -0.1918E+01  0.4233E+01 -0.1445E+01E
 Epicentro: LOS SANTOS - SANTANDER                                             3
 ACTION:UPD 16-08-18 17:45 OP:cam  STATUS:               ID:20160512031341 L   I
 OLDACT:UP  16-05-12 13:44 OP:drio STATUS:               ID:20160512030747     3
 OLDACT:REG 16-05-12 12:14 OP:drio STATUS:               ID:20160512030747     3
 2016-05-12-0307-47M.COL___307                                                 6
 STAT SP IPHASW D HRMM SECON CODA AMPLIT PERI AZIMU VELO AIN AR TRES W  DIS CAZ7
 BAR2 EZ EP        314  0.70                             171   -0.0410 21.2 194 
 BAR2 EZ ES        314 15.72                             171   -0.2610 21.2 194 
 BAR2 EZ I         314 16.58        12.7 0.38            172           21.2 194 
 BRR  HZ EP        314  2.46                             152    0.0510 73.1 300 
 BRR  HE ES        314 19.53                             152    0.5710 73.1 300 
 BRR  HZ I         314 23.57         6.9 0.32            150           73.1 300 
 PAM  EZ EP        314  3.68                             150    0.2310 78.6  38 
 PAM  EE ES        314 20.79                             150   -0.0110 78.6  38 
 PAM  EZ I         314 22.71         7.8 0.50            150           78.6  38 
 RUS  HZ EP        314  4.73                             144   -0.0110 98.2 176 
 RUS  HN ES        314 23.15                             144    0.0510 98.2 176 
 RUS  HZ I         314 23.98         4.2 0.24            146           98.2 176 
 PTB  HZ EP        314  8.64                             132    0.46 9  148 260 
 PTB  HE ES        314 28.38                             132   -0.84 9  148 260 
 PTB  HZ I         314 30.74         4.6 0.16            132            148 260 
 SPBC HZ EP        314  9.76                             129    0.21 9  162 220 
 SPBC HE ES        314 31.65                             129   -0.01 9  162 220 
 SPBC HZ I         314 34.23         4.9 0.28            130            162 220 
 OCA  HZ EP        314  8.96                             129   -0.75 9  163 353 
 OCA  HE ES   4    314 33.58                             129    1.64 0  163 353 
 OCA  HZ I         314 38.05        11.5 0.44            129            163 353 
 ZAR  HE ES        314 39.49                             122    0.27 8  206 293 
 PRA  HZ EP   4    314 36.03                             106    1.51 0  390 210 
 PRA  HE ES   4    315 17.67                             106    1.56 0  390 210 
 PRA  HZ I         315 22.40         2.7 0.26            107            390 210 
 SJC  HZ EP   4    314 35.41                             105   -1.63 0  412 327 
 SJC  HN ES   4    315 15.58                             105   -5.01 0  412 327 
                                                                                
