 2013  912 0155  8.8 L   5.986 -74.086 97.3  RSN 10 0.4 1.8LRSN                1
 GAP= 70        0.93       2.4     2.5  7.3 -0.3053E+00  0.1585E+00  0.5066E+01E
 Epicentro: LA BELLEZA - SANTANDER                                             3
 ACTION:UPD 13-10-22 09:22 OP:ep   STATUS:               ID:20130912015508 L   I
 OLDACT:REG 13-09-12 07:43 OP:carl STATUS:               ID:20130912014959     3
 2013-09-12-0149-59M.COL___269                                                 6
 STAT SP IPHASW D HRMM SECON CODA AMPLIT PERI AZIMU VELO AIN AR TRES W  DIS CAZ7
 PTB  HZ EP        155 24.72                             140   -0.4610 73.6 326 
 PTB  HN ES        155 38.04                             140    0.0710 73.6 326 
 PTB  HZ I         155 39.88        13.1 0.12            140           73.6 326 
 NOR  HZ EP        155 27.18                             131   -0.2110 98.5 242 
 NOR  HN ES   1    155 41.40                             131   -0.49 7 98.5 242 
 NOR  HZ I         155 42.50        25.2 0.20            131           98.5 242 
 RUS  HZ EP        155 29.15                             128   -0.0710  112  95 
 RUS  HN ES   1    155 44.62                             128   -0.53 7  112  95 
 RUS  HZ I         155 45.40         6.0 0.24            129            112  95 
 BAR2 SZ EP        155 30.07                             125    0.3110  120  56 
 BAR2 SZ ES   1    155 46.34                             125    0.23 7  120  56 
 BAR2 SZ I         155 48.29        19.6 0.60            126            120  56 
 BRR  HZ IP     C  155 30.72                             123    0.2310  131  18 
 BRR  HN ES   1    155 48.09                             123    0.67 7  131  18 
 BRR  HN I         155 48.80        50.0 0.18            123            131  18 
 CHI  HZ EP        155 33.01                             118   -0.62 9  155 165 
 CHI  HN ES        155 53.45                             118    0.44 9  155 165 
 CHI  HZ I         155 55.86         2.7 0.38            118            155 165 
 HEL  HZ EP        155 34.61                             117    0.36 9  161 278 
 HEL  HN ES        155 54.60                             117    0.50 9  161 278 
 HEL  HZ I         155 57.14        10.7 0.42            116            161 278 
 RREF HZ EP        155 37.12                             114   -0.02 9  184 229 
 RREF HN ES   1    155 59.38                             114    0.12 7  184 229 
 RREF HZ I         156  3.97         9.6 0.26            113            184 229 
 ZAR  HZ EP   1    155 36.65                             113   -0.03 7  187 333 
 ZAR  HN ES        155 57.85                             113   -0.58 9  187 333 
 ZAR  HZ I         156  3.61         8.4 0.24            112            187 333 
 PRA  HZ EP        155 45.75                             106   -0.23 8  266 199 
 PRA  HN ES   1    156 15.79                             106    0.81 6  266 199 
 PRA  HZ I         156 19.02         4.0 0.24            104            266 199 
                                                                                
