 2017  912 0747 29.3 L   6.810 -73.060152.2  RSN  8 0.5 1.7LRSN                1
 GAP=226        0.94       4.4     6.0  5.9  0.4387E+01  0.8615E+00  0.4250E+01E
 Epicentro: LOS SANTOS - SANTANDER                                             3
 ACTION:UPD 17-10-05 19:11 OP:rebc STATUS:               ID:20170912074729 L   I
 OLDACT:UP  17-09-12 15:43 OP:and  STATUS:               ID:20170912073746     3
 OLDACT:UP  17-09-12 15:41 OP:and  STATUS:               ID:20170912073746     3
 OLDACT:REG 17-09-12 13:03 OP:mg   STATUS:               ID:20170912073746     3
 2017-09-12-0738-00M.COL___442                                                 6
 STAT SP IPHASW D HRMM SECON CODA AMPLIT PERI AZIMU VELO AIN AR TRES W  DIS CAZ7
 BAR2 EZ IP     C  747 49.94                             169    0.1710 27.6 209 
 BAR2 EZ ES        748  5.11                             169   -0.6510 27.6 209 
 BAR2 EZ I         748  6.48        16.2 0.20            164           27.6 209 
 BRR  HZ EP        747 51.93                             151    0.3610 79.2 295 
 BRR  HN ES        748  9.22                             151    0.2510 79.2 295 
 BRR  HZ I         748 10.10         5.3 0.14            147           79.2 295 
 RUS  HZ EP        747 54.00                             145    0.2710  102 181 
 RUS  HN ES        748 13.18                             145    0.3810  102 181 
 RUS  HZ I         748 13.77         6.6 0.24            143            102 181 
 SPBC HZ EP        747 58.89                             129   -0.03 9  170 221 
 SPBC HN ES        748 21.39                             129   -0.66 9  170 221 
 SPBC HZ I         748 25.65         7.1 0.11            127            170 221 
 ZAR  HZ EP        748  2.52                             122   -0.48 8  212 291 
 ZAR  HN ES   3    748 28.26                             122   -1.05 2  212 291 
 ZAR  HZ I         748 34.27         4.5 0.40            121            212 291 
 NOR  HN ES        748 35.57                             119    0.43 8  243 236 
 NOR  HZ I         748 38.10         2.0 0.17            117            243 236 
 CHI  HZ EP        748  7.88                             118    0.14 8  252 197 
 CHI  HN ES        748 37.83                             118    0.09 8  252 197 
 CHI  HZ I         748 42.94         2.2 0.28            117            252 197 
 PTGC HZ EP        748 12.82                             113   -0.35 7  306 160 
 PTGC HN ES   3    748 45.09                             113   -2.32 2  306 160 
                                                                                
