 2015  612 0553 39.9 L   6.802 -73.126148.0  RSN  7 0.3 1.6LRSN                1
 GAP=185        0.79       3.3     5.7  6.6  0.4929E+01  0.4819E+01 -0.2381E+00E
 Epicentro: LOS SANTOS - SANTANDER                                             3
 ACTION:UPD 15-09-10 22:11 OP:cam  STATUS:               ID:20150612055339 L   I
 OLDACT:REG 15-06-12 13:30 OP:ak   STATUS:               ID:20150612054750     3
 2015-06-12-0547-50M.COL___294                                                 6
 STAT SP IPHASW D HRMM SECON CODA AMPLIT PERI AZIMU VELO AIN AR TRES W  DIS CAZ7
 BAR2 EZ EP        553 59.54                             170   -0.2910 24.1 195 
 BAR2 EZ ES   1    554 14.98                             170   -0.38 7 24.1 195 
 BAR2 EZ I         554 16.31         9.8 0.26            170           24.1 195 
 BRR  HZ EP        554  1.43                             152    0.0310 73.0 298 
 BRR  HN ES        554 18.81                             152    0.6510 73.0 298 
 BRR  HZ I         554 22.26         3.6 0.24            150           73.0 298 
 RUS  HZ EP   1    554  4.16                             144    0.27 7  101 177 
 RUS  HE ES   1    554 22.36                             144   -0.24 7  101 177 
 RUS  HZ I         554 23.56         4.2 0.28            148            101 177 
 OCA  HN ES   1    554 30.87                             130    0.26 7  160 352 
 OCA  HZ I         554 34.00         5.3 0.50            131            160 352 
 SPBC HZ EP        554  8.86                             129    0.13 9  165 220 
 SPBC HE ES        554 31.29                             129    0.08 9  165 220 
 SPBC HZ I         554 33.81         3.7 0.24            131            165 220 
 ZAR  HZ EP   1    554 12.87                             123    0.17 6  206 292 
 ZAR  HE ES        554 37.74                             123   -0.53 8  206 292 
 ZAR  HZ I         554 43.56         2.7 0.34            123            206 292 
 SML  HN ES   1    554 44.96                             118   -0.50 6  244 335 
 SML  HZ I         554 48.66         5.3 0.10            119            244 335 
                                                                                
