 2015 1212 0257  7.2 L   6.529 -73.527106.5  RSN 13 0.3 1.9LRSN                1
 GAP= 67        0.89       2.2     2.5  4.6 -0.1546E+01  0.4396E+01 -0.1975E+01E
 Epicentro: EL CARMEN - SANTANDER                                              3
 ACTION:UPD 16-02-04 15:04 OP:cam  STATUS:               ID:20151212025707 L   I
 OLDACT:REG 15-12-12 11:14 OP:drio STATUS:               ID:20151212024748     3
 2015-12-12-0247-48M.COL___340                                                 6
 STAT SP IPHASW D HRMM SECON CODA AMPLIT PERI AZIMU VELO AIN AR TRES W  DIS CAZ7
 BAR2 EZ IP        257 22.49                             158   -0.1610 38.7  80 
 BAR2 EZ ES        257 34.78                             158    0.0410 38.7  80 
 BAR2 EZ I         257 36.32        37.1 0.28            163           38.7  80 
 BRR  HZ EP        257 23.39                             145   -0.5610 67.1 342 
 BRR  HE ES        257 37.48                             145    0.4410 67.1 342 
 BRR  HZ I         257 47.33         9.8 0.16            145           67.1 342 
 RUS  HZ EP        257 26.47                             138    0.4210 85.8 145 
 RUS  HE ES        257 40.99                             138    0.2110 85.8 145 
 RUS  HZ I         257 42.39        11.3 0.46            146           85.8 145 
 PTB  HZ EP   9    257 25.30                             132   -1.55 0  103 271 
 PTB  HN ES        257 40.18                                   -0.4810  103 271 
 PTB  HZ I         257 41.51        24.1 0.32            134            103 271 
 SPBC HZ EP        257 27.33                             129   -0.6710  114 212 
 SPBC HE ES        257 44.05                             129   -0.2110  114 212 
 SPBC HZ I         257 45.35        28.5 0.46            134            114 212 
 PAM  EZ EP        257 30.48                             125    0.6110  128  46 
 PAM  EN ES        257 47.14                             125   -0.4510  128  46 
 PAM  EZ I         257 48.54        17.5 0.20            130            128  46 
 ZAR  HZ EP        257 35.21                             115    0.32 9  182 306 
 ZAR  HE ES        257 56.75                             115    0.23 9  182 306 
 ZAR  HZ I         258  2.09         7.2 0.22            118            182 306 
 NOR  HZ EP   9    257 34.01                             115   -1.09 0  183 234 
 NOR  HE ES        257 55.42                                   -0.38 9  183 234 
 NOR  HZ I         257 57.54         8.4 0.56            119            183 234 
 OCA  HZ EP        257 36.17                             114    0.11 9  190   7 
 OCA  HE ES        257 58.38                             114   -0.22 9  190   7 
 OCA  HZ I         258  3.74        22.0 0.14            117            190   7 
 HEL  HE ES        258  5.83                             110   -0.13 8  225 261 
 HEL  HZ I         258  8.30         4.9 0.34            113            225 261 
 GUY2CHZ EP        257 43.51                             107    0.31 8  249 235 
 GUY2CHN ES        258 11.34                             107    0.03 8  249 235 
 GUY2CHZ I         258 15.71         3.7 0.46                           249 235 
 SML  HZ EP        257 43.33                             106   -0.30 8  258 347 
 SML  HN ES        258 12.10                             106    0.02 8  258 347 
 SML  HZ I         258 16.29        15.9 0.28            109            258 347 
 CBOC HZ EP        257 46.94                             104   -0.01 7  285 255 
 CBOC HN ES        258 18.00                             104    0.01 7  285 255 
 CBOC HZ I         258 22.64         2.1 0.32            108            285 255 
                                                                                
