 2016  112 0219  3.9 L   6.755 -73.103153.6  RSN  6 0.5 1.2LRSN                1
 GAP=144        1.24       5.6     5.7 10.0 -0.2243E+01  0.8283E+01  0.8275E+01E
 Epicentro: LOS SANTOS - SANTANDER                                             3
 ACTION:UPD 16-03-09 23:24 OP:cam  STATUS:               ID:20160112021903 L   I
 OLDACT:REG 16-01-12 12:45 OP:mh   STATUS:               ID:20160112021755     3
 2016-01-12-0217-55M.COL___231                                                 6
 STAT SP IPHASW D HRMM SECON CODA AMPLIT PERI AZIMU VELO AIN AR TRES W  DIS CAZ7
 BRR  HZ EP   1    219 26.15                             152   -0.11 7 77.8 300 
 BRR  HZ I         219 43.85         3.2 0.50            146           77.8 300 
 BRR  HN ES        219 44.32                             152    0.6210 77.8 300 
 PAM  EZ EP        219 27.42                             152    0.4210 78.4  35 
 PAM  EN ES        219 44.29                             152   -0.7410 78.4  35 
 PAM  EZ I         219 46.66         1.8 0.50            150           78.4  35 
 RUS  HZ EP        219 28.52                             147    0.4510 95.4 179 
 RUS  HN ES        219 47.14                             147    0.2210 95.4 179 
 RUS  HZ I         219 48.56         1.3 0.36            145           95.4 179 
 PTB  HZ EP        219 31.30                             133   -0.55 9  152 261 
 PTB  HN ES        219 52.93                             133   -0.72 9  152 261 
 PTB  HZ I         220  0.30         1.7 0.22            128            152 261 
 SPBC HZ EP        219 32.68                             131   -0.26 9  162 221 
 SPBC HN ES        219 55.58                             131   -0.01 9  162 221 
 SPBC HZ I         220  3.60         3.3 0.20            127            162 221 
 ZAR  HE ES        220  4.28                             123    0.57 8  210 293 
                                                                                
