 2017  412 0408 57.7 L   6.779 -73.111144.7  RSN  6 0.4 1.5LRSN                1
 GAP=142        1.12       5.6     5.1  7.6  0.2701E+01  0.9928E+01 -0.1882E+01E
 Epicentro: LOS SANTOS - SANTANDER                                             3
 ACTION:UPD 17-05-30 21:11 OP:jn   STATUS:               ID:20170412040857 L   I
 OLDACT:UP  17-04-12 17:35 OP:edw  STATUS:               ID:20170412040747d    3
 OLDACT:DUP 17-04-12 17:32 OP:edw  STATUS:               ID:20170412040747d    3
 2017-04-12-0408-00M.COL___368                                                 6
 STAT SP IPHASW D HRMM SECON CODA AMPLIT PERI AZIMU VELO AIN AR TRES W  DIS CAZ7
 BAR2 EZ EP        4 9 16.25                             171   -0.9510 22.2 201 
 BAR2 EZ ES        4 9 32.57                             171    0.1810 22.2 201 
 BAR2 EZ I         4 9 33.25         7.0 0.26            172           22.2 201 
 BRR  HZ EP        4 9 19.29                             151    0.2710 75.7 299 
 BRR  HN ES        4 9 35.98                             151    0.3610 75.7 299 
 BRR  HZ I         4 9 40.53         9.7 0.32            149           75.7 299 
 PAM  EZ IP     C  4 9 20.24                             151    0.4510 76.8  36 
 PAM  EN ES        4 9 36.55                             151   -0.4510 76.8  36 
 PAM  EZ I         4 9 39.34         3.3 0.22            152           76.8  36 
 RUS  HZ EP        4 9 21.49                             144    0.3010 98.1 178 
 RUS  HN ES        4 9 39.71                             144    0.2210 98.1 178 
 RUS  HZ I         4 9 40.45         4.0 0.24            149           98.1 178 
 PTB  HZ EP        4 9 24.42                             131   -0.49 9  151 260 
 PTB  HN ES        4 9 45.83                             131   -0.29 9  151 260 
 ZAR  HZ EP        4 9 30.98                             121    0.42 8  209 292 
 ZAR  HN ES        4 9 56.17                             121   -0.00 8  209 292 
 ZAR  HZ I         410  2.33         3.4 0.28            122            209 292 
                                                                                
