 2013  812 0552 48.5 L   6.801 -73.623104.1  RSN  4 0.3 1.5LRSN                1
 GAP=164        0.71       7.1     3.8  6.5 -0.1852E+02  0.8062E+01 -0.1346E+02E
 Epicentro: EL CARMEN DE CHUCURI - SANTANDER                                   3
 ACTION:UPD 14-01-14 09:01 OP:ep   STATUS:               ID:20130812055248 L   I
 OLDACT:REG 13-08-12 08:39 OP:stll STATUS:               ID:20130812054839     3
 2013-08-12-0548-39M.COL___230                                                 6
 STAT SP IPHASW D HRMM SECON CODA AMPLIT PERI AZIMU VELO AIN AR TRES W  DIS CAZ7
 BAR2 SZ EP        553  4.44                             151   -0.0510 53.9 115 
 BAR2 SZ ES        553 16.97                             151   -0.0110 53.9 115 
 BAR2 SZ I         553 17.81        11.9 0.16            161           53.9 115 
 GIR2 SZ EP        553  4.96                             149    0.4510 56.5  57 
 GIR2 SZ ES        553 17.27                             149    0.2610 56.5  57 
 PTB  HZ EP        553  7.52                             133    0.1110 96.6 253 
 PTB  HN ES        553 21.93                             133   -0.2410 96.6 253 
 PTB  HN I         553 28.08         9.1 0.40            136           96.6 253 
 PAM  SZ EP        553  9.90                             128   -0.1310  118  60 
 PAM  SN ES        553 26.44                             128   -0.4110  118  60 
 PAM  SN I         553 31.30         5.0 0.30            132            118  60 
                                                                                
