 2012  812 0751 36.9 L   6.751 -73.135145.6  RSN  7 0.4 1.9LRSN                1
 GAP=140        0.92       4.7     5.7  6.8 -0.2857E+01  0.2825E+00  0.5859E+01E
 Epicentro: LOS SANTOS - SANTANDER                                             3
 ACTION:UPD 12-09-10 11:56 OP:ep   STATUS:               ID:20120812075136 L   I
 2012-08-12-0750-00M.COL___218                                                 6
 STAT SP IPHASW D HRMM SECON CODA AMPLIT PERI AZIMU VELO AIN AR TRES W  DIS CAZ7
 BAR2 SZ EP        751 56.64                             172    0.2610 18.3 196 
 BAR2 SZ ES        752 11.36                             172   -0.2410 18.3 196 
 BAR2 SZ I         752 12.99        31.6 0.41                          18.3 196 
 GIR2 SZ EP   1    751 55.77                             165   -0.90 7 36.8 350 
 BRR  HZ EP        751 58.38                             151    0.1810 74.9 302 
 BRR  HZ I         752 15.02        14.3 0.12                          74.9 302 
 BRR  HE ES        752 15.32                             151    0.4710 74.9 302 
 PAM  SZ EP        751 59.38                             150    0.1110 80.9  36 
 PAM  SE ES   1    752 16.39                             150   -0.36 7 80.9  36 
 PAM  SZ I         752 19.05        14.4 0.50                          80.9  36 
 RUS  HZ EP   1    752  0.60                             145    0.39 7 95.1 177 
 RUS  HN ES   1    752 18.70                             145    0.28 7 95.1 177 
 RUS  HZ I         752 20.42        12.0 0.24                          95.1 177 
 PTB  HZ EP   1    752  3.29                             132   -0.53 7  148 261 
 PTB  HE ES   1    752 24.54                             132   -0.32 7  148 261 
 PTB  HZ I         752 31.68         7.2 0.42                           148 261 
 CHI  HZ EP   1    752 14.52                             118    0.51 6  244 196 
 CHI  HN ES   1    752 42.38                             118   -0.62 6  244 196 
 CHI  HZ I         752 47.63         4.3 0.41                           244 196 
                                                                                
