 2014  312 0329 24.7 L   6.821 -73.141146.6  RSN 14 0.4 1.9LRSN                1
 GAP=136        0.78       2.9     3.3  5.3 -0.8933E+00  0.5934E+01  0.1746E+01E
 Epicentro: LOS SANTOS - SANTANDER                                             3
 OLDACT:DUP 14-03-12 11:30 OP:fm   STATUS:               ID:20140312032818d    3
 ACTION:UPD 14-04-09 23:16 OP:nd   STATUS:               ID:20140312032924 L   I
 OLDACT:UP  14-03-12 11:44 OP:fm   STATUS:               ID:20140312032818d    3
 2014-03-12-0328-17M.COL___245                                                 6
 STAT SP IPHASW D HRMM SECON CODA AMPLIT PERI AZIMU VELO AIN AR TRES W  DIS CAZ7
 BAR2 SZ EP        329 44.50                             170   -0.0110 25.7 190 
 BAR2 SZ ES   2    330  0.39                             170    0.45 5 25.7 190 
 BAR2 SZ I         330  7.76        18.5 0.82            156           25.7 190 
 PAM  SZ EP        329 47.27                             152    0.3610 75.3  40 
 PAM  SN ES        330  4.13                             152   -0.0810 75.3  40 
 PAM  SZ I         330  5.67        11.8 0.20            139           75.3  40 
 RUS  HZ EP        329 48.58                             143   -0.1510  103 176 
 RUS  HN ES        330  7.26                             143   -0.1910  103 176 
 RUS  SZ I         330  9.54         6.5 0.86            124            103 176 
 PTB  HZ EP        329 51.27                             132   -0.58 9  149 258 
 PTB  HN ES        330 13.40                             132    0.40 9  149 258 
 PTB  SZ I         330 15.73        10.6 0.16            118            149 258 
 SPBC HZ EP        329 53.57                             129    0.07 9  165 219 
 SPBC HE ES   1    330 15.74                             129   -0.19 7  165 219 
 SPBC SZ I         330 21.83        11.8 0.24            113            165 219 
 ZAR  HZ EP   2    329 57.09                             123   -0.10 4  204 291 
 ZAR  HN ES        330 22.41                             123   -0.09 9  204 291 
 ZAR  SZ I         330 27.88        11.0 0.26            111            204 291 
 NOR  HZ EP        330  1.10                             118    0.40 8  236 234 
 NOR  HE ES        330 28.76                             118    0.01 8  236 234 
 NOR  SZ I         330 33.50         6.6 0.32            106            236 234 
 SML  HZ EP   2    330  0.78                             118   -0.42 4  242 335 
 SML  HE ES   2    330 29.72                             118    0.08 4  242 335 
 SML  SZ I         330 41.38         7.3 0.08            107            242 335 
 CHI  HZ EP        330  3.27                             117    0.53 8  251 195 
 CHI  HN ES   1    330 31.90                             117   -0.48 6  251 195 
 CHI  SZ I         330 58.61         3.2 1.60            105            251 195 
 ROSC BZ EP   1    330  2.42                             117   -0.72 6  255 211 
 ROSC SZ I         330 47.69         4.8 1.60            105            255 211 
 HEL  HZ EP   4    330  6.94                             115    1.84 0  273 255 
 HEL  HN ES   4    330 37.57                             115    0.98 0  273 255 
 HEL  SZ I         330 42.17         3.5 0.90            104            273 255 
 URE  HZ EP   1    330  5.04                             114   -0.76 6  283 291 
 URE  HE ES   4    330 35.66                             114   -2.16 0  283 291 
 URE  SZ I         330 44.57         4.3 0.34            104            283 291 
 GUY2CHZ EP   1    330  9.50                             112    0.92 5  303 234 
 GUY2CHN ES   4    330 45.32                             112    2.55 0  303 234 
 GUY2CSZ I         330 52.53         4.0 0.62                           303 234 
 ORTC HZ EP   2    330 19.83                             106    0.90 3  398 216 
 ORTC SZ I         331  8.73         2.9 2.12             99            398 216 
                                                                                
