 2014  412 0627 34.1 L   6.500 -73.698 85.9  RSN  8 0.5 1.6LRSN                1
 GAP= 99        1.32       4.1     3.4 10.9 -0.2316E+01  0.7434E+01 -0.9174E+01E
 Epicentro: SANTA HELENA DEL OPON - SANTANDER                                  3
 ACTION:UPD 14-05-13 23:07 OP:nd   STATUS:               ID:20140412062734 L   I
 OLDACT:REG 14-04-12 14:48 OP:stll STATUS:               ID:20140412061820     3
 2014-04-12-0618-20M.COL___230                                                 6
 STAT SP IPHASW D HRMM SECON CODA AMPLIT PERI AZIMU VELO AIN AR TRES W  DIS CAZ7
 PTB  HZ EP        627 49.50                             132   -0.8910 83.9 273 
 PTB  HN ES        628  2.49                             132   -0.5910 83.9 273 
 PTB  HZ I         628  5.19         9.2 0.36            136           83.9 273 
 RUS  HZ EP        627 51.78                             128   -0.3610 95.7 135 
 RUS  HE ES        628  6.57                             128    0.3810 95.7 135 
 RUS  HZ I         628  7.90         7.0 0.26            135           95.7 135 
 SPBC HZ EP        627 51.86                             126   -0.4210  103 204 
 SPBC HN ES        628  6.47                             126    0.0310  103 204 
 SPBC HZ I         628  8.50        10.5 0.34            132            103 204 
 PAM  SZ EP        627 57.35                             116    0.13 9  144  50 
 PAM  SN ES        628 15.64                             116    0.40 9  144  50 
 PAM  HZ I         628 22.57         6.1 1.14            119            144  50 
 NOR  HZ EP        627 58.49                             112   -0.62 9  166 231 
 NOR  HN ES        628 19.35                             112    0.74 9  166 231 
 NOR  HZ I         628 23.23         8.0 0.20            116            166 231 
 ZAR  HZ EP        627 59.45                             112    0.08 9  169 311 
 ZAR  HN ES        628 19.70                             112    0.64 9  169 311 
 ZAR  HZ I         628 24.46         3.9 0.10            114            169 311 
 HEL  HZ EP        628  4.07                             108   -0.02 8  205 261 
 HEL  HN ES        628 27.66                             108    0.20 8  205 261 
 HEL  HZ I         628 30.44         6.1 1.48            110            205 261 
 GUY2CHZ EP        628  7.14                             105   -0.26 8  232 233 
 GUY2CHZ I         628 33.02         7.1 1.52                           232 233 
 GUY2CHN ES        628 34.50                             105    1.14 8  232 233 
                                                                                
