 2017  212 0326 23.0 L   6.801 -73.073142.0  RSN  5 0.2 1.0LRSN                1
 GAP=146        0.59       3.1     4.4  4.8 -0.5723E+00 -0.2605E+01  0.3702E+00E
 Epicentro: LOS SANTOS - SANTANDER                                             3
 ACTION:UPD 17-05-24 15:35 OP:jn   STATUS:               ID:20170212032623 L   I
 OLDACT:UP  17-02-12 16:27 OP:and  STATUS:               ID:20170212031744d    3
 OLDACT:DUP 17-02-12 16:25 OP:and  STATUS:               ID:20170212031744d    3
 2017-02-12-0318-00M.COL___352                                                 6
 STAT SP IPHASW D HRMM SECON CODA AMPLIT PERI AZIMU VELO AIN AR TRES W  DIS CAZ7
 BAR2 EZ ES        326 57.28                             169    0.0710 26.1 208 
 PAM  EZ IP     C  326 44.85                             152    0.3610 72.4  35 
 PAM  EN ES        327  1.07                             152   -0.2010 72.4  35 
 PAM  EZ I         327  3.78         3.3 0.48            154           72.4  35 
 BRR  HZ EP        326 43.79                             149   -0.3410 78.3 296 
 BRR  HE ES        327  0.79                             149    0.1410 78.3 296 
 RUS  HZ EP        326 46.35                             143    0.0110  100 181 
 RUS  HN ES        327  4.52                             143   -0.0510  100 181 
 RUS  HZ I         327  6.56         1.0 0.26            144            100 181 
 PTB  HZ EP   9    326 48.13                             130   -2.24 0  156 259 
 PTB  HN ES   2    327  9.76                             131    0.26 5  156 259 
 PTB  HZ I         327 17.00         1.0 0.26            129            156 259 
                                                                                
