 2014 1012 0733 52.6 L   6.800 -73.147145.5  RSN  6 0.5 1.6LRSN                1
 GAP=201        1.25       5.1     7.9  8.5  0.8164E+01  0.3399E+01 -0.9172E+01E
 Epicentro: LOS SANTOS - SANTANDER                                             3
 ACTION:UPD 14-11-29 23:49 OP:nd   STATUS:               ID:20141012073352 L   I
 OLDACT:REG 14-10-12 13:52 OP:stll STATUS:               ID:20141012072747     3
 2014-10-12-0727-47M.COL___284                                                 6
 STAT SP IPHASW D HRMM SECON CODA AMPLIT PERI AZIMU VELO AIN AR TRES W  DIS CAZ7
 BAR2 SZ EP        734 12.38                             171    0.1710 23.3 190 
 BAR2 SZ ES        734 27.28                             171   -0.2210 23.3 190 
 BAR2 SZ I         734 31.30        12.4 0.46            169           23.3 190 
 BRR  HZ EP        734 14.27                             153    0.5510 71.0 299 
 BRR  HN ES        734 31.03                             153    0.8410 71.0 299 
 BRR  HZ I         734 34.43         4.0 0.46            151           71.0 299 
 RUS  HZ EP        734 16.29                             144   -0.0510  101 176 
 RUS  HZ I         734 17.66         2.4 0.46            146            101 176 
 RUS  HN ES        734 34.29                             144   -0.5610  101 176 
 PTB  HZ EP        734 19.35                             132   -0.20 9  148 259 
 PTB  HN ES        734 39.70                             132   -0.85 9  148 259 
 PTB  HZ I         734 46.14         5.6 0.14            132            148 259 
 SPBC HZ EP        734 21.31                             129    0.22 9  163 219 
 SPBC HN ES        734 43.85                             129    0.56 9  163 219 
 SPBC HZ I         734 49.09         7.9 0.16            130            163 219 
 SML  HZ EP        734 29.10                             117   -0.11 8  244 335 
 SML  HE ES        734 57.13                             117   -0.63 8  244 335 
 SML  HZ I         735  0.78         7.1 0.10            119            244 335 
                                                                                
