 2013 1012 0101 25.6 L   6.755 -73.136146.6  RSN  7 0.4 1.6LRSN                1
 GAP=140        0.84       3.4     4.1  7.4 -0.1694E+01  0.4505E+01  0.3150E+01E
 Epicentro: LOS SANTOS - SANTANDER                                             3
 ACTION:UPD 13-11-25 09:21 OP:ep   STATUS:               ID:20131012010125 L   I
 OLDACT:UP  13-10-12 10:58 OP:mh   STATUS:               ID:20131012005959     3
 OLDACT:UP  13-10-12 10:56 OP:mh   STATUS:               ID:20131012005959     3
 OLDACT:UP  13-10-12 10:55 OP:mh   STATUS:               ID:20131012005959     3
 OLDACT:REG 13-10-12 07:32 OP:mh   STATUS:               ID:20131012005959     3
 2013-10-12-0059-59M.COL___273                                                 6
 STAT SP IPHASW D HRMM SECON CODA AMPLIT PERI AZIMU VELO AIN AR TRES W  DIS CAZ7
 BRR  HZ EP        1 1 47.11                             152    0.0910 74.6 302 
 BRR  HN ES        1 2  4.20                             152    0.4710 74.6 302 
 PAM  SZ EP   1    1 1 48.01                             150   -0.08 7 80.7  37 
 PAM  SN ES        1 2  5.23                             150   -0.4010 80.7  37 
 PAM  SZ I         1 2  7.69         9.9 0.44            155           80.7  37 
 RUS  HZ EP        1 1 49.13                             145    0.0710 95.5 176 
 RUS  HN ES        1 2  7.44                             145    0.0710 95.5 176 
 RUS  HZ I         1 2  9.10         2.3 0.10            147           95.5 176 
 PTB  HZ EP   1    1 1 52.16                             132   -0.47 7  148 261 
 PTB  HN ES        1 2 13.01                             132   -0.72 9  148 261 
 PTB  HZ I         1 2 19.21         4.9 0.17            133            148 261 
 SPBC HZ EP   1    1 1 54.15                             130    0.30 7  160 220 
 SPBC HN ES        1 2 16.12                             130    0.23 9  160 220 
 SPBC HZ I         1 2 21.29         6.9 0.19            131            160 220 
 OCA  HN ES   1    1 2 17.28                             129    0.34 7  165 353 
 ZAR  HE ES   1    1 2 24.23                             122    0.27 6  207 293 
 GUY2CHZ EP   4    1 2 10.15                             113    1.14 0  299 236 
 GUY2CHN ES   4    1 2 43.39                             113    0.51 0  299 236 
 SJC  HZ EP   4    1 2 19.23                             106   -2.50 0  414 327 
 SJC  HN ES   4    1 2 57.93                             106   -7.60 0  414 327 
                                                                                
