 2010 1112 0310 57.0 L   7.381 -73.304126.1  RSN 10 0.5 2.0LRSN                1
 GAP=127        0.93       4.4     4.7  7.3 -0.1674E+01  0.9051E+01 -0.4665E+01E
 Epicentro: EL PLAYON - SANTANDER                                              3
 ACTION:UP  10-12-17 16:51 OP:REBC STATUS:               ID:20101112031057 L   I
 2010-11-12-0309-38S.COL___129                                                 6
 STAT SP IPHASW D HRMM SECON CODA AMPLIT PERI AZIMU VELO SNR AR TRES W  DIS CAZ7
 BTL  SZ EP        311 15.50                             157     0.210   51 176 
 BRR  HZ EP        311 15.20                             156     0.110   54 236 
 BRR  HN ES        311 29.09                             156    -0.110   54 236 
 GUE  SZ EP        311 16.37                             151     0.310   65  40 
 GRA  SZ EP        311 16.94                             146     0.210   78  45 
 GRA  SZ ES   1    311 32.09                             146    -0.1 7   78  45 
 GRA  SZ I         311 33.60        44.6 0.06                            78  45 
 BAR2 SZ IP     C  311 17.74                             143     0.210   88 171 
 BAR2 SZ ES   2    311 32.88                             143    -0.7 5   88 171 
 RUS  HZ EP   1    311 24.37                             124    -0.5 7  166 172 
 RUS  HN ES   2    311 45.65                             124    -1.0 5  166 172 
 RUS  HZ I         311 47.20         6.0 0.22                           166 172 
 NOR  SN ES   2    312  5.57                             111     0.7 4  265 221 
 NOR  SZ I         312 13.03         2.7 0.80                           265 221 
 HEL  HZ EP   1    311 37.37                             110     0.3 6  279 242 
 HEL  HN ES   2    312  8.52                             110     0.2 4  279 242 
 HEL  HZ I         312 17.82         8.2 0.27                           279 242 
 MON  HZ EP        311 38.23                             108    -1.0 7  302 301 
 MON  HZ I         311 38.57        10.8 0.70                           302 301 
 MON  HN ES        312 12.30                             108     0.0 7  302 301 
 URI  HZ EP   2    312  1.76                              99    -0.9 2  499  17 
                                                                                
