 2015  612 0709 45.3 L   6.817 -73.101141.5  RSN 20 0.6 2.1LRSN                1
 GAP=122        1.22       2.8     4.2  5.6 -0.2119E+01  0.7470E+01  0.2808E+01E
 Epicentro: LOS SANTOS - SANTANDER                                             3
 ACTION:UPD 15-09-10 22:11 OP:cam  STATUS:               ID:20150612070945 L   I
 OLDACT:REG 15-06-12 13:54 OP:ak\  STATUS:               ID:20150612070748     3
 2015-06-12-0707-48M.COL___294                                                 6
 STAT SP IPHASW D HRMM SECON CODA AMPLIT PERI AZIMU VELO AIN AR TRES W  DIS CAZ7
 BAR2 EZ IP     C  710  4.65                             169    0.2010 26.4 200 
 BAR2 EZ ES        710 19.25                             169   -0.1610 26.4 200 
 BAR2 EZ I         710 20.59        19.2 0.26            168           26.4 200 
 PAM  SZ EP        710  7.33                             151    0.5810 72.9  37 
 PAM  SN ES        710 24.17                             151    0.6510 72.9  37 
 PAM  SZ I         710 29.52         9.7 0.40            152           72.9  37 
 BRR  HZ IP     C  710  6.40                             151    0.2410 74.7 295 
 BRR  HN ES        710 23.33                             151    0.8710 74.7 295 
 BRR  HZ I         710 29.39        25.6 0.14            151           74.7 295 
 RUS  HZ EP        710  9.18                             142    0.4710  102 179 
 RUS  HE ES        710 26.09                             142   -0.9210  102 179 
 RUS  HZ I         710 28.82        14.7 0.24            141            102 179 
 OCA  HZ EP        710 12.68                             129   -0.45 9  159 351 
 OCA  HN ES        710 34.20                             129   -0.67 9  159 351 
 SPBC HZ EP        710 13.65                             127   -0.22 9  168 220 
 SPBC HN ES        710 35.96                             127   -0.23 9  168 220 
 SPBC HZ I         710 39.30        17.6 0.10            126            168 220 
 ZAR  HZ EP        710 17.22                             121   -0.61 8  208 291 
 ZAR  HE ES        710 43.00                             121   -0.24 8  208 291 
 ZAR  HZ I         710 48.14        31.0 0.26            121            208 291 
 NOR  HZ EP   1    710 20.96                             117   -0.33 6  240 235 
 NOR  HN ES        710 48.95                             117   -0.45 8  240 235 
 NOR  HZ I         710 50.78         9.8 0.22            116            240 235 
 SML  HZ EP        710 21.04                             117   -0.65 8  244 334 
 SML  HE ES        710 49.84                             117   -0.28 8  244 334 
 CHI  HZ EP        710 23.13                             116    0.07 8  252 196 
 CHI  HN ES        710 52.17                             116   -0.38 8  252 196 
 CHI  HZ I         710 59.80         5.9 0.33            115            252 196 
 HEL  HZ EP   1    710 26.76                             113    0.92 6  277 256 
 HEL  HN ES        710 57.00                             113   -0.49 7  277 256 
 HEL  HZ I         711  4.72         9.1 0.38            113            277 256 
 GUY2CHZ EP        710 29.88                             111    0.63 7  306 235 
 GUY2CHN ES        711  3.51                             111   -0.05 7  306 235 
 GUY2CHZ I         711 13.18         6.5 0.46                           306 235 
 PTGC HZ EP        710 28.07                             111   -0.85 7  309 160 
 PTGC HZ I         710 52.53         9.6 0.42            110            309 160 
 PTGC HN ES   4    711  0.81                             111   -2.17 0  309 160 
 RREF HZ EP   1    710 32.43                             110    0.65 5  327 230 
 RREF HN ES        711  8.82                             110    0.75 7  327 230 
 RREF HZ I         711 17.18         2.8 0.36            109            327 230 
 CBOC HZ EP        710 33.37                             109    0.77 7  339 252 
 CBOC HN ES        711  8.92                             109   -0.61 7  339 252 
 CBOC HZ I         711 10.41         2.1 0.15            108            339 252 
 TOL  SZ EP        710 34.65                             108    0.75 6  348 225 
 TOL  SN ES        711 12.53                             108    0.70 6  348 225 
 TOL  SZ I         711 18.31         4.5 0.21            108            348 225 
 MON  HZ EP   4    710 31.91                             108   -2.50 0  356 308 
 MON  HN ES   4    711 10.25                             108   -2.51 0  356 308 
 MON  HZ I         711 24.86         5.2 0.52            107            356 308 
 PRA  HZ EP        710 39.07                             106   -0.04 6  396 210 
 PRA  HN ES        711 20.44                             106   -0.67 6  396 210 
 PRA  HZ I         711 27.38         9.7 0.28            105            396 210 
 ORTC HZ EP        710 39.70                             105    0.15 6  400 217 
 ORTC HN ES        711 22.84                             105    0.94 6  400 217 
 ORTC HZ I         711 29.54         3.8 0.20            105            400 217 
 SJC  HZ EP   4    710 38.43                             105   -2.39 0  410 326 
 SJC  HN ES   4    711 20.30                             105   -3.86 0  410 326 
 SJC  HZ I         711 24.15         4.4 0.66            105            410 326 
                                                                                
