 2011  512 0327 51.6 L   6.888 -73.546 13.6  RSN 14 0.4 3.6LRSN                1
 GAP= 61        1.02       2.1     2.7  4.9  0.3672E+00  0.5768E+01 -0.2326E-01E
 Epicentro: SAN VICENTE DE CHUCURI - SANTANDER                                 3
 Evento Sentido                                                                2
 Reportado como Sentido:                                                       3
 FLORIDABLANCA (SANTANDER)                                                     3
 ACTION:UP  11-06-29 08:52 OP:tino STATUS:               ID:20110512032751 L   I
 2011-05-12-0326-09S.COL___129                                                 6
 STAT SP IPHASW D HRMM SECON CODA AMPLIT PERI AZIMU VELO SNR AR TRES W  DIS CAZ7
 BRR  HZ IP     D  327 56.67                             110    -0.410   30 323 
 BRR  HZ I         328  1.00      7403.8 0.17                            30 323 
 BRR  HN ES   1    328  1.46                             110     0.1 7   30 323 
 BTL  SZ IP        327 57.98                             110     0.610   31  84 
 BAR2 SZ IP        328  0.71                             102     0.210   52 129 
 BAR2 SZ ES   1    328  7.61                             102     0.3 7   52 129 
 BAR2 SZ I         328  9.07      3565.9 0.23                            52 129 
 PAM  SZ IP        328  8.85                              96     0.010  106  62 
 PAM  SN ES   1    328 21.87                              96    -0.4 7  106  62 
 RUS  HZ IP     D  328 11.04                              95    -0.110  121 155 
 RUS  HN ES   1    328 25.60                              95    -0.8 7  121 155 
 RUS  HZ I         328 30.26       810.8 0.33                           121 155 
 BRI  SZ IP        328 11.37                              95     0.210  123  42 
 BRI  SZ ES   1    328 26.15                              95    -0.2 7  123  42 
 BRI  SZ I         328 29.59      2261.3 0.24                           123  42 
 GUE  SZ EP   1    328 11.48                              95     0.0 7  125  33 
 GRA  SZ IP        328 13.24                              94     0.0 9  137  37 
 GRA  SZ ES   1    328 30.04                              94     0.0 7  137  37 
 OCA  SZ EP   1    328 15.18                              56     0.0 7  151   9 
 OCA  SZ ES   1    328 33.07                              56    -0.5 7  151   9 
 NOR  SZ EP   1    328 21.80                              56    -0.2 6  207 225 
 HEL  HZ EP        328 24.84                              56    -0.7 8  233 251 
 HEL  HZ I         328 57.97       216.8 0.29                           233 251 
 ROSC BZ EP   1    328 27.81                              56     1.0 6  242 201 
 ROSC BZ I         329 13.43       371.4 0.38                           242 201 
 RREF HZ EP   1    328 34.30                              55     0.4 5  297 222 
 RREF HZ I         329 26.99       240.1 0.29                           297 222 
 MON  HZ IP     D  328 35.62                              55     0.4 7  314 312 
 MON  HN ES   1    329  9.80                              55     0.6 5  314 312 
 MON  HZ I         329 24.23       111.5 0.48                           314 312 
                                                                                
