 2012 1112 0428 50.2 L   6.802 -73.191136.0  RSN  9 0.3 1.5LRSN                1
 GAP=131        0.65       3.0     4.2  8.2 -0.3108E+01  0.9739E+01  0.4955E+01E
 Epicentro: ZAPATOCA - SANTANDER                                               3
 ACTION:UPD 12-12-05 15:32 OP:}ep  STATUS:               ID:20121112042850 L   I
 2012-11-12-0426-36M.COL___214                                                 6
 STAT SP IPHASW D HRMM SECON CODA AMPLIT PERI AZIMU VELO AIN AR TRES W  DIS CAZ7
 BAR2 SZ EP   1    429  8.60                             170   -0.04 7 23.2 178 
 BAR2 SZ I         429 25.17         8.7 0.23                          23.2 178 
 GIR2 SZ EP   1    429  9.16                             167    0.48 7 30.6 360 
 BRR  HZ EP   1    429 10.49                             152    0.46 7 66.7 300 
 BRR  HE ES   4    429 27.13                             152    1.63 0 66.7 300 
 BRR  HZ I         429 28.10         6.1 0.14                          66.7 300 
 PAM  SZ EP   1    429 11.60                             148    0.02 7 80.6  42 
 PAM  SN ES   1    429 28.49                             148    0.23 7 80.6  42 
 RUS  HZ EP   1    429 12.76                             141   -0.29 7  101 173 
 RUS  HN ES   1    429 30.54                             141   -0.33 7  101 173 
 RUS  HZ I         429 33.58         3.1 0.24                           101 173 
 PTB  HZ EP   1    429 15.47                             131   -0.45 7  143 258 
 PTB  HN ES   1    429 35.80                             131   -0.19 7  143 258 
 PTB  HZ I         429 39.14         4.7 0.11                           143 258 
 OCA  HE ES   1    429 38.69                             127   -0.45 7  160 355 
 NOR  HE ES   1    429 52.50                             117    0.46 6  231 234 
 NOR  HZ I         429 54.90         4.4 0.64                           231 234 
 CHI  HZ EP   1    429 27.18                             115   -0.07 6  248 194 
 CHI  HE ES   1    429 56.38                             115    0.23 6  248 194 
 CHI  HZ I         430  2.39         1.7 0.46                           248 194 
                                                                                
