 2013  312 0951 31.8 L   6.793 -73.122143.4  RSN 10 0.4 2.5LRSN                1
 GAP= 73        0.85       2.9     3.6  5.4  0.1690E+01  0.3810E+01  0.2561E+00E
 Epicentro: LOS SANTOS - SANTANDER                                             3
 ACTION:UPD 13-04-09 14:01 OP:ep   STATUS:               ID:20130312095131 L   I
 2013-03-12-0950-00M.COL___231                                                 6
 STAT SP IPHASW D HRMM SECON CODA AMPLIT PERI AZIMU VELO AIN AR TRES W  DIS CAZ7
 BAR2 SZ EP        951 51.16                             170    0.0310 23.2 197 
 BAR2 SZ I         951 51.29        72.6 0.36            168           23.2 197 
 BAR2 SZ ES   1    952  5.99                             170   -0.23 7 23.2 197 
 BRR  HZ IP     C  951 53.02                             151    0.1910 73.8 298 
 BRR  HN ES   1    952 10.08                             151    0.83 7 73.8 298 
 BRR  HN I         952 12.27        71.9 0.16            149           73.8 298 
 PAM  SZ EP        951 53.93                             151    0.2410 76.3  38 
 PAM  SN ES        952 10.95                             151    0.1810 76.3  38 
 PAM  SN I         952 12.42        51.1 0.44            153           76.3  38 
 RUS  HZ EP        951 55.00                             144   -0.2410 99.7 178 
 RUS  HN ES        952 13.56                             144    0.0210 99.7 178 
 RUS  HN I         952 15.47        27.8 0.24            144           99.7 178 
 TAM  HZ IP     C  951 59.32                             131    0.29 9  152 105 
 TAM  HN ES   2    952 19.83                             131   -0.44 5  152 105 
 TAM  HN I         952 21.69        24.4 0.58            134            152 105 
 OCA  HZ EP   1    951 59.70                             129   -0.32 7  161 352 
 OCA  HN ES   1    952 21.16                             129   -0.87 7  161 352 
 OCA  HN I         952 24.80       127.7 0.36            129            161 352 
 ZAR  HZ EP   1    952  4.34                             122   -0.02 6  207 292 
 ZAR  HN ES        952 29.41                             122   -0.35 8  207 292 
 ZAR  HN I         952 35.71        37.6 0.34            121            207 292 
 SML  HZ EP   1    952  8.27                             117   -0.20 6  245 335 
 SML  HN ES   1    952 36.77                             117   -0.32 6  245 335 
 SML  HN I         952 44.66        54.5 0.10            117            245 335 
 CHI  HZ EP   1    952  9.37                             117    0.01 6  249 196 
 CHI  HN ES   1    952 37.89                             117   -0.77 6  249 196 
 CHI  HN I         952 45.17        11.8 0.54            117            249 196 
 HEL  HZ EP   1    952 13.28                             114    1.14 6  274 256 
 HEL  HN ES   2    952 43.61                             114   -0.01 4  274 256 
 HEL  HN I         952 50.60         9.8 0.34            114            274 256 
                                                                                
