 2017  912 0727 13.5 L   6.328 -73.578112.3  RSN 33 0.5 2.5LRSN                1
 GAP= 41        0.85       1.6     1.7  3.6 -0.1767E+00  0.1892E+01  0.1456E+00E
 Epicentro: SANTA HELENA DEL OPON - SANTANDER                                  3
 ACTION:UPD 17-10-05 19:11 OP:rebc STATUS:               ID:20170912072713 L   I
 OLDACT:UP  17-09-12 15:35 OP:and  STATUS:               ID:20170912071745d    3
 OLDACT:UP  17-09-12 15:31 OP:and  STATUS:               ID:20170912071745d    3
 OLDACT:UP  17-09-12 15:31 OP:and  STATUS:               ID:20170912071745d    3
 OLDACT:UP  17-09-12 15:28 OP:and  STATUS:               ID:20170912071745d    3
 OLDACT:UP  17-09-12 15:27 OP:and  STATUS:               ID:20170912071745d    3
 OLDACT:UP  17-09-12 15:26 OP:and  STATUS:               ID:20170912071745d    3
 OLDACT:UP  17-09-12 15:26 OP:and  STATUS:               ID:20170912071745d    3
 OLDACT:UP  17-09-12 15:25 OP:and  STATUS:               ID:20170912071745d    3
 OLDACT:DUP 17-09-12 15:21 OP:and  STATUS:               ID:20170912071745d    3
 OLDACT:UP  17-09-12 15:19 OP:and  STATUS:               ID:20170912071743     3
 OLDACT:UP  17-09-12 15:18 OP:and  STATUS:               ID:20170912071743     3
 OLDACT:REG 17-09-12 13:02 OP:mg   STATUS:               ID:20170912071743     3
 2017-09-12-0718-00M.COL___442                                                 6
 STAT SP IPHASW D HRMM SECON CODA AMPLIT PERI AZIMU VELO AIN AR TRES W  DIS CAZ7
 BAR2 EZ IP     D  727 30.40                             153    0.0910 52.6  56 
 BAR2 EZ ES        727 43.69                             153    0.2610 52.6  56 
 RUS  HZ IP     D  727 31.64                             145   -0.3110 72.9 131 
 RUS  HN ES        727 46.44                             145    0.0910 72.9 131 
 RUS  HZ I         727 49.46        25.7 0.18            144           72.9 131 
 BRR  HZ IP     C  727 31.98                             139   -0.3710 87.5 350 
 BRR  HN ES        727 47.14                             139    0.0810 87.5 350 
 BRR  HZ I         727 54.60        66.6 0.18            139           87.5 350 
 SPBC HZ IP     D  727 32.44                             137   -0.4510 92.6 216 
 SPBC HN ES        727 47.79                             137   -0.2410 92.6 216 
 SPBC HZ I         727 55.28        76.7 0.09            136           92.6 216 
 PAM  EZ EP        727 38.69                             123    0.08 9  148  41 
 PAM  EN ES        727 58.55                             123    0.33 9  148  41 
 PAM  EZ I         728  2.89        34.4 0.18            123            148  41 
 TABC EZ IP   2 C  727 40.92                             121    0.98 5  161 206 
 TABC EZ ES        728  0.19                             121   -0.38 9  161 206 
 TABC EZ I         728  5.93        54.3 0.56            120            161 206 
 NOR  HZ IP   9 C  727 39.00                             120   -0.91 0  166 239 
 NOR  HN ES        727 59.64                             119    0.03 9  166 239 
 NOR  HZ I         728  2.05        76.9 0.18            119            166 239 
 YPLC HZ IP     D  727 40.19                             119    0.05 9  168 128 
 YPLC HN ES        728  1.17                             119    0.25 9  168 128 
 YPLC HZ I         728  3.67        91.8 0.34            118            168 128 
 ROSC BZ EP   3    727 43.61                             117    1.34 2  184 207 
 ROSC BN ES   4    728  6.96                             117    2.24 0  184 207 
 ROSC BZ I         728 13.08        27.6 0.30            116            184 207 
 CHI  HZ EP        727 42.39                             116   -0.41 9  189 185 
 CHI  HN ES        728  5.50                             116   -0.17 9  189 185 
 CHI  HZ I         728 10.18        22.1 0.24            115            189 185 
 ZAR  HZ IP     C  727 41.89                             115   -0.69 9  191 312 
 ZAR  HN ES        728  4.96                             115   -0.32 9  191 312 
 ZAR  HZ I         728  9.01       100.7 0.22            115            191 312 
 TAM  HZ IP     C  727 43.30                             115   -0.07 9  198  86 
 TAM  HZ I         728  5.71        39.0 0.25            114            198  86 
 TAM  HN ES        728  6.61                             115   -0.07 9  198  86 
 HEL  HZ EP        727 45.92                             112    0.08 8  216 266 
 HEL  HN ES        728 11.43                             112    0.35 8  216 266 
 HEL  HZ I         728 17.28        31.2 0.22            112            216 266 
 GUY2CHZ EP        727 48.03                             111    0.23 8  232 238 
 GUY2CHE ES   4    728 17.11                             111    2.55 0  232 238 
 GUY2CHZ I         728 20.13        31.7 0.26                           232 238 
 VIL  EZ EP        727 48.61                             109   -0.23 8  245 183 
 VIL  EN ES        728 16.91                             109    0.50 8  245 183 
 VIL  EZ I         728 21.19        50.3 0.34            109            245 183 
 ELA  HN ES   4    728 23.32                             108    3.22 0  259 231 
 ELA  HZ I         728 32.34        18.6 0.36            108            259 231 
 URE  HZ EP   3    727 49.31                             107   -1.92 2  267 306 
 URE  HN ES   4    728 17.94                             107   -2.73 0  267 306 
 URE  HZ I         728 30.29        29.1 0.16            107            267 306 
 CBOC HZ EP        727 52.56                             107    0.32 8  274 259 
 CBOC HN ES        728 21.82                             107   -0.65 8  274 259 
 CBOC HZ I         728 24.56        10.8 0.34            106            274 259 
 PTGC HZ EP   9    727 51.94                             106   -1.30 0  285 146 
 PTGC HN ES        728 22.45                             107   -0.50 7  285 146 
 PTGC HZ I         728 40.20        24.5 0.30            105            285 146 
 ANIL HZ EP        727 54.53                             106    0.69 7  287 225 
 ANIL HN ES   2    728 27.25                             106    1.94 4  287 225 
 ANIL HZ I         728 30.43        39.8 0.26            105            287 225 
 DBB  EZ EP        727 55.37                             105    0.12 7  301 285 
 DBB  EN ES        728 27.91                             105    0.09 7  301 285 
 DBB  EZ I         728 29.13        17.6 0.20            104            301 285 
 PRA  HZ EP        727 57.52                             103   -0.34 7  323 207 
 PRA  HN ES   2    728 33.65                             103    1.18 3  323 207 
 PRA  HZ I         728 38.72        19.0 0.28            103            323 207 
 ORTC HZ EP        727 58.25                             103    0.18 7  325 215 
 ORTC HN ES   4    728 36.13                             103    3.29 0  325 215 
 ORTC HZ I         728 38.92        14.1 0.22            103            325 215 
 PAL  HZ IP     C  727 59.41                             102   -0.28 7  338 242 
 PAL  HE ES        728 36.62                             102    0.90 7  338 242 
 PAL  HZ I         728 44.49         6.6 0.30            102            338 242 
 APAC HZ EP   3    728  2.50                             101   -1.39 2  374 298 
 APAC HN ES        728 42.89                             101   -0.32 6  374 298 
 APAC HZ I         728 44.99        12.5 0.38            100            374 298 
 LL6C HZ EP        728  4.57                             100    0.20 6  378   5 
 LL6C HE ES        728 44.92                             100    0.86 6  378   5 
 LL6C HZ I         728 54.33        15.0 0.42            100            378   5 
 ARGC HZ EP   3    728  8.29                             100    1.64 1  397 349 
 ARGC HE ES   4    728 52.47                             100    4.36 0  397 349 
 ARGC HZ I         728 57.85         6.9 0.26             99            397 349 
 GUA  EZ EP        728 10.80                              98    0.04 5  431 166 
 GUA  EN ES   4    728 52.63                              98   -2.80 0  431 166 
 GUA  EZ I         728 56.45        11.1 0.34             98            431 166 
 SJC  HZ EP   3    728  9.28                              98   -1.66 1  432 336 
 SJC  HN ES   4    728 52.65                              98   -3.11 0  432 336 
 SJC  HZ I         728 57.30         7.8 0.56             98            432 336 
 MACC HZ EP        728 13.76                              97   -0.88 5  463 184 
 MACC HN ES   4    728 59.46                              97   -2.89 0  463 184 
 VALLCHZ EP        728 15.11                              97    0.43 5  464   4 
 VALLCHN ES        729  2.34                              97   -0.08 5  464   4 
 FLO2 HZ EP   4    728 26.87                              94   -1.08 0  573 204 
 FLO2 HN ES        729 26.26                              94    0.23 3  573 204 
 FLO2 HZ I         729 28.89         1.6 0.36             94            573 204 
 URI  HZ EP   4    728 31.71                              94   -1.83 0  619  16 
 URI  HN ES   4    729 33.24                              94   -2.75 0  619  16 
 URI  HZ I         729 37.10         2.0 0.24             93            619  16 
                                                                                
