 2015  112 0224 50.4 L   6.822 -73.136148.9  RSN 11 0.4 1.8LRSN                1
 GAP=113        1.11       3.0     3.6  6.2  0.9823E+00  0.8618E+00 -0.1551E+01E
 Epicentro: LOS SANTOS - SANTANDER                                             3
 ACTION:UPD 15-03-02 15:39 OP:nd   STATUS:               ID:20150112022450 L   I
 OLDACT:REG 15-01-12 15:02 OP:carl STATUS:               ID:20150112021748     3
 2015-01-12-0217-48M.COL___253                                                 6
 STAT SP IPHASW D HRMM SECON CODA AMPLIT PERI AZIMU VELO AIN AR TRES W  DIS CAZ7
 BAR2 EZ EP        225 10.45                             170   -0.0210 25.9 191 
 BAR2 EZ ES        225 25.88                             170   -0.2310 25.9 191 
 BAR2 EZ I         225 27.22        12.2 0.26            169           25.9 191 
 BRR  HZ EP        225 12.59                             153    0.7110 71.0 296 
 BRR  HN ES        225 29.29                             153    0.6510 71.0 296 
 BRR  HZ I         225 34.75         9.1 0.14            152           71.0 296 
 RUS  HZ EP        225 14.45                             144   -0.1810  103 177 
 RUS  HN ES        225 33.51                             144   -0.0210  103 177 
 RUS  HZ I         225 36.06         5.5 0.44            146            103 177 
 PTB  HZ EP        225 17.54                             132   -0.23 9  149 258 
 PTB  HN ES        225 38.78                             132   -0.33 9  149 258 
 PTB  HZ I         225 44.42         6.6 0.24            133            149 258 
 TAM  HZ EP        225 18.74                             131    0.44 9  155 106 
 TAM  HN ES        225 40.34                             131    0.29 9  155 106 
 OCA  HZ EP        225 18.22                             131   -0.53 9  158 353 
 OCA  HN ES        225 39.83                             131   -1.03 9  158 353 
 OCA  HZ I         225 46.33         6.9 0.26            133            158 353 
 SPBC HZ EP        225 19.44                             129    0.05 9  166 219 
 SPBC HN ES        225 41.58                             129   -0.41 9  166 219 
 SPBC HZ I         225 49.97        11.0 0.26            131            166 219 
 ZAR  HZ EP        225 22.87                             123   -0.20 9  204 291 
 ZAR  HN ES        225 49.53                             123    0.99 9  204 291 
 ZAR  HZ I         225 54.12         7.6 0.32            124            204 291 
 NOR  HN ES        225 54.67                             119   -0.09 8  237 234 
 SML  HZ EP        225 27.15                             118    0.13 8  242 335 
 SML  HN ES        225 55.60                             118    0.02 8  242 335 
 SML  HZ I         225 58.73        13.0 0.10            120            242 335 
 CHI  HZ EP        225 28.76                             117    0.20 8  251 195 
 CHI  HN ES        225 58.06                             117   -0.27 8  251 195 
 CHI  HZ I         226  4.04         2.6 0.54            120            251 195 
                                                                                
