 2011  512 0924 16.9 L   6.781 -73.061146.6  RSN  6 0.1 1.5LRSN                1
 GAP=149        0.38       2.6     4.6  6.0  0.9113E-01 -0.1462E+02 -0.1121E+01E
 Epicentro: LOS SANTOS - SANTANDER                                             3
 ACTION:UP  11-06-29 08:52 OP:tino STATUS:               ID:20110512092416 L   I
 2011-05-12-0919-32S.COL___129                                                 6
 STAT SP IPHASW D HRMM SECON CODA AMPLIT PERI AZIMU VELO SNR AR TRES W  DIS CAZ7
 BAR2 SZ EP        924 36.45                             170    -0.210   25 213 
 BAR2 SZ I         924 54.82         9.4 0.37                            25 213 
 BTL  SZ EP        924 36.80                             169     0.110   27 304 
 PAM  SZ EP        924 39.13                             152     0.110   74  33 
 PAM  SN ES   3    924 56.28                             152     0.1 2   74  33 
 BRR  HZ EP        924 38.64                             150     0.010   80 297 
 BRR  HZ I         924 40.28         7.1 0.10                            80 297 
 BRR  HN ES   1    924 55.73                             150     0.1 7   80 297 
 RUS  HZ EP        924 40.64                             145     0.110   98 181 
 RUS  HN ES   2    924 59.04                             145     0.0 5   98 181 
 RUS  HZ I         925  0.66         3.0 0.54                            98 181 
 GRA  SZ EP        924 42.13                             137    -0.110  125  13 
 GRA  SZ ES   3    925  1.56                             137    -0.3 2  125  13 
 GRA  SZ I         925  2.99         4.6 0.52                           125  13 
                                                                                
