 2017  612 0609 30.4 L   6.810 -73.176160.0  RSN  4 0.4 1.7LRSN                1
 GAP=279        0.83       5.7     9.2  9.3  0.4875E+01 -0.1954E+02  0.1195E+02E
 Epicentro: LOS SANTOS - SANTANDER                                             3
 ACTION:UPD 17-09-14 16:51 OP:jn   STATUS:               ID:20170612060930 L   I
 OLDACT:UP  17-06-12 14:45 OP:dani STATUS:               ID:20170612060727     3
 OLDACT:UP  17-06-12 14:44 OP:dani STATUS:               ID:20170612060727     3
 OLDACT:UP  17-06-12 14:44 OP:dani STATUS:               ID:20170612060727     3
 OLDACT:UP  17-06-12 14:44 OP:dani STATUS:               ID:20170612060727     3
 OLDACT:REG 17-06-12 12:51 OP:dani STATUS:               ID:20170612060727     3
 2017-06-12-0608-00M.COL___350                                                 6
 STAT SP IPHASW D HRMM SECON CODA AMPLIT PERI AZIMU VELO AIN AR TRES W  DIS CAZ7
 BRR  HZ EP        6 9 52.93                             156   -0.0210 67.7 299 
 BRR  HN ES        610 10.55                             156    0.0310 67.7 299 
 BRR  HE I         610 11.34        14.6 0.17            153           67.7 299 
 PTB  HZ EP        6 9 58.06                             136   -0.26 9  145 258 
 PTB  HN ES   1    610 19.21                             136   -0.87 7  145 258 
 PTB  HZ I         610 24.99         4.0 0.36            134            145 258 
 SPBC HZ EP        610  0.01                             132    0.07 9  162 218 
 SPBC HE ES        610 23.29                             132    0.33 9  162 218 
 SPBC HZ I         610 25.52         4.5 0.09            131            162 218 
 ZAR  HE ES        610 29.70                             126    0.43 9  201 292 
 ROSC BE ES   4    610 42.70                             120    3.12 0  252 210 
                                                                                
