 2012  112 0538  7.7 L   6.154 -73.617113.4  RSN  7 0.3 1.3LRSN                1
 GAP=110        0.55       3.5     4.4  8.9  0.5762E+01  0.2032E+02  0.1398E+02E
 Epicentro: LA PAZ - SANTANDER                                                 3
 ACTION:UP  12-02-03 08:16 OP:REBC STATUS:               ID:20120112053807 L   I
 2012-01-12-0530-00M.COL___187                                                 6
 STAT SP IPHASW D HRMM SECON CODA AMPLIT PERI AZIMU VELO SNR AR TRES W  DIS CAZ7
 RUS  HZ EP   1    538 25.65                             148    -0.1 8   66 116 
 RUS  HZ I         538 25.88         2.2 0.17                            66 116 
 RUS  HN ES   2    538 39.48                             148    -0.4 5   66 116 
 BAR2 SZ EP   2    538 25.54                             147     0.0 5   68  45 
 BAR2 SZ ES   2    538 40.09                             147     0.6 5   68  45 
 BAR2 SZ I         538 40.67        13.5 0.50                            68  45 
 PTB  HZ EP        538 28.13                             135     0.310  102 295 
 PTB  HE ES   2    538 43.27                             135    -0.4 5  102 295 
 BRR  HZ EP   2    538 27.74                             134    -0.4 5  106 354 
 BRR  HZ I         538 28.02         5.1 0.09                           106 354 
 BRR  HN ES   2    538 43.99                             134    -0.2 5  106 354 
 GIR2 SZ ES   2    538 45.61                             132     0.1 5  112  25 
 CHI  HZ EP   1    538 34.83                             120    -0.1 7  169 184 
 CHI  HE ES   2    538 56.47                             120     0.3 5  169 184 
 CHI  HZ I         538 59.98         1.6 0.33                           169 184 
 ZAR  HN ES   2    539  1.41                             114    -0.2 4  202 317 
 ZAR  HZ I         539  2.47         3.2 0.13                           202 317 
                                                                                
