 2013 1212 0515  1.9 L   6.811 -73.134147.7  RSN  7 0.5 1.4LRSN                1
 GAP=184        0.96       4.2     8.1  7.3  0.1949E-01  0.6761E+01 -0.4089E+01E
 Epicentro: LOS SANTOS - SANTANDER                                             3
 ACTION:UPD 14-01-13 10:17 OP:ep   STATUS:               ID:20131212051501 L   I
 OLDACT:REG 13-12-12 07:00 OP:jn   STATUS:               ID:20131212051000     3
 2013-12-12-0510-00M.COL___285                                                 6
 STAT SP IPHASW D HRMM SECON CODA AMPLIT PERI AZIMU VELO AIN AR TRES W  DIS CAZ7
 BAR2 SZ EP        515 21.89                             170    0.1410 24.7 192 
 BAR2 SZ ES        515 36.82                             170   -0.4510 24.7 192 
 BAR2 SZ I         515 38.51         5.0 0.16            169           24.7 192 
 BRR  HZ EP        515 23.66                             152    0.4110 71.8 297 
 BRR  HN ES        515 40.53                             152    0.6010 71.8 297 
 BRR  HZ I         515 44.44         4.2 0.14            150           71.8 297 
 RUS  HZ EP   1    515 26.38                             144    0.50 7  102 177 
 RUS  HN ES   1    515 43.97                             144   -0.65 7  102 177 
 RUS  HZ I         515 45.27         2.4 0.46            146            102 177 
 OCA  HN ES   1    515 51.93                             130   -0.42 7  159 353 
 SPBC HZ EP   1    515 30.84                             129    0.17 7  165 219 
 SPBC HN ES   1    515 53.19                             129    0.05 7  165 219 
 SPBC HZ I         515 55.66         5.7 0.18            130            165 219 
 NOR  HE ES   1    516  5.30                             118   -0.69 6  236 234 
 SML  HZ EP        515 38.30                             118   -0.24 8  243 335 
 SML  HN ES   2    516  6.40                             118   -0.74 4  243 335 
                                                                                
