 2016  112 0438 37.7 L   6.713 -73.129151.9  RSN  5 0.4 1.6LRSN                1
 GAP=170        1.04       9.4     5.5  7.6 -0.1540E+02  0.1006E+02 -0.9954E+00E
 Epicentro: JORDAN - SANTANDER                                                 3
 ACTION:UPD 16-03-09 23:24 OP:cam  STATUS:               ID:20160112043837 L   I
 OLDACT:DUP 16-01-12 16:26 OP:mh   STATUS:               ID:20160112043356d    3
 2016-01-12-0433-55M.COL___246                                                 6
 STAT SP IPHASW D HRMM SECON CODA AMPLIT PERI AZIMU VELO AIN AR TRES W  DIS CAZ7
 BAR2 EZ EP        438 58.23                             174    0.3010 14.6 204 
 BAR2 EZ ES        439 13.63                             174   -0.0810 14.6 204 
 BAR2 EZ I         439 14.77         9.1 0.28            172           14.6 204 
 BRR  HZ EP        439  0.32                             151    0.4210 77.8 304 
 BRR  HN ES        439 17.84                             151    0.6410 77.8 304 
 BRR  HZ I         439 20.61         6.6 0.26            148           77.8 304 
 PAM  EZ EP        439  1.10                             150    0.1310 84.0  34 
 PAM  EN ES        439 18.52                             150   -0.5910 84.0  34 
 PAM  EZ I         439 20.32         3.2 0.42            150           84.0  34 
 PTB  HZ EP        439  4.66                             133   -0.55 9  148 263 
 PTB  HN ES        439 26.39                             133   -0.27 9  148 263 
 PTB  HZ I         439 31.01         4.1 0.28            133            148 263 
 ZAR  HZ EP        439 11.27                             123    0.14 8  210 294 
 ZAR  HN ES   1    439 36.65                             123   -0.54 6  210 294 
 ZAR  HZ I         439 42.59         5.6 0.32            122            210 294 
                                                                                
