 2017  812 0722 15.0 L   6.753 -73.161135.4  RSN  4 0.2 1.4LRSN                1
 GAP=241        0.51       3.2     3.8  4.4  0.4693E+01  0.5772E+01 -0.1687E+01E
 Epicentro: LOS SANTOS - SANTANDER                                             3
 ACTION:UPD 17-09-04 20:19 OP:rebc STATUS:               ID:20170812072215 L   I
 OLDACT:DUP 17-08-12 18:33 OP:dhb  STATUS:               ID:20170812071742d    3
 2017-08-12-0718-00M.COL___417                                                 6
 STAT SP IPHASW D HRMM SECON CODA AMPLIT PERI AZIMU VELO AIN AR TRES W  DIS CAZ7
 BAR2 EZ EP        722 33.58                             172    0.3010 17.9 187 
 BAR2 EZ ES        722 47.30                             172   -0.2410 17.9 187 
 BAR2 EZ I         722 49.05         4.1 0.24            170           17.9 187 
 RUS  HZ EP        722 37.29                             143   -0.0810 95.6 175 
 RUS  HN ES        722 54.95                             143    0.1310 95.6 175 
 RUS  HZ I         722 56.46         4.1 0.46            145           95.6 175 
 SPBC HZ EP        722 41.99                             127   -0.23 9  158 220 
 SPBC HN ES        723  3.52                             127    0.06 9  158 220 
 SPBC HZ I         723  6.56         5.0 0.05            128            158 220 
 ZAR  HZ EP        722 46.75                             120   -0.08 9  204 294 
 ZAR  HE ES        723 11.76                             120    0.10 9  204 294 
 ZAR  HZ I         723 17.41         2.5 0.08            120            204 294 
                                                                                
