 2013  812 0911 10.2 L   6.815 -73.118145.7  RSN 15 0.5 2.6LRSN                1
 GAP= 72        1.13       3.0     3.3  5.1 -0.1363E+01  0.3978E+01  0.6575E-01E
 Epicentro: LOS SANTOS - SANTANDER                                             3
 ACTION:UPD 14-01-14 09:01 OP:ep   STATUS:               ID:20130812091110 L   I
 OLDACT:UP  13-08-20 13:15 OP:ep   STATUS:               ID:20130812091110 L   3
 OLDACT:UP  13-08-20 13:14 OP:ep   STATUS:               ID:20130812091110 L   3
 OLDACT:UP  13-08-16 16:39 OP:ep   STATUS:               ID:20130812091110 L   3
 OLDACT:REG 13-08-12 08:47 OP:stll STATUS:               ID:20130812091000     3
 2013-08-12-0910-00M.COL___268                                                 6
 STAT SP IPHASW D HRMM SECON CODA AMPLIT PERI AZIMU VELO AIN AR TRES W  DIS CAZ7
 BAR2 SZ IP     C  911 29.91                             170    0.0110 25.6 196 
 BAR2 SZ ES        911 44.82                             170   -0.4210 25.6 196 
 BAR2 SZ I         911 47.51        43.8 0.20            167           25.6 196 
 GIR2 SZ EP        911 29.91                             168    0.0410 30.4 344 
 GIR2 SZ ES        911 44.49                             168   -0.7010 30.4 344 
 GIR2 SZ I         911 46.98        37.7 0.34            165           30.4 344 
 BRR  HZ IP     C  911 31.75                             152    0.2710 73.1 296 
 BRR  HN ES        911 48.80                             152    0.7410 73.1 296 
 BRR  HN I         911 50.32        87.5 0.18            147           73.1 296 
 PAM  SZ EP        911 32.67                             152    0.4210 74.2  39 
 PAM  SN ES        911 49.91                             152    0.4810 74.2  39 
 PAM  SN I         911 51.12        61.3 0.44            153           74.2  39 
 RUS  HZ EP        911 33.78                             143   -0.3010  102 178 
 RUS  HN ES        911 52.68                             143   -0.0010  102 178 
 RUS  HN I         911 54.01        20.7 0.40            142            102 178 
 CAPV BZ EP        911 37.52                             132    0.19 9  146  37 
 CAPV BZ ES        911 58.07                             132   -0.40 9  146  37 
 PTB  HZ EP   4    911 36.51                             131   -0.98 0  151 258 
 PTB  HN I         912  3.31       131.8 0.46            127            151 258 
 TAM  HZ IP     D  911 38.05                             131    0.38 9  153 106 
 TAM  HN ES        911 59.11                             131    0.04 9  153 106 
 TAM  HN I         912  0.51        31.9 0.32            132            153 106 
 OCA  HZ EP        911 38.03                             130   -0.39 9  159 352 
 OCA  HN ES        912  0.78                             130    0.37 9  159 352 
 SPBC HZ EP        911 38.80                             128   -0.22 9  166 219 
 SPBC HN ES        912  1.57                             128    0.09 9  166 219 
 SPBC HN I         912  4.98        77.5 0.18            125            166 219 
 ZAR  HZ EP        911 42.52                             122   -0.37 8  206 291 
 ZAR  HN ES        912  8.90                             122    0.52 8  206 291 
 ZAR  HN I         912 13.50        63.7 0.46            119            206 291 
 NOR  HZ EP        911 45.91                             118   -0.41 8  238 235 
 NOR  HN ES        912 13.91                             118   -0.56 8  238 235 
 NOR  HN I         912 18.44        52.5 0.16            115            238 235 
 SML  HZ EP        911 45.99                             117   -0.84 8  244 334 
 SML  HN ES        912 14.73                             117   -0.65 8  244 334 
 SML  HN I         912 24.97        58.5 0.10            115            244 334 
 HEL  HZ EP        911 51.75                             114    0.95 7  275 256 
 HEL  HN ES   4    912 24.36                             114    1.90 0  275 256 
 HEL  HN I         912 28.95        16.9 0.26            112            275 256 
 GUY2CHZ EP        911 54.86                             112    0.64 7  305 235 
 GUY2CHN ES   4    912 30.51                             112    1.98 0  305 235 
                                                                                
