 2011  112 0243 10.6 L   6.804 -73.177142.5  RSN  5 0.2 1.6LRSN                1
 GAP=155        0.60       4.0    10.1  5.4 -0.2067E+02  0.1230E+02 -0.4170E+01E
 Epicentro: LOS SANTOS - SANTANDER                                             3
 ACTION:UP  11-02-08 08:40 OP:pat  STATUS:               ID:20110112024310 L   I
 2011-01-12-0240-00S.COL___136                                                 6
 STAT SP IPHASW D HRMM SECON CODA AMPLIT PERI AZIMU VELO SNR AR TRES W  DIS CAZ7
 BTL  SZ EP   1    243 30.12                             173     0.4 8   16 322 
 BTL  SZ ES   1    243 44.58                             173    -0.1 8   16 322 
 BAR2 SZ EP   1    243 29.29                             170    -0.6 8   23 182 
 BAR2 SZ ES   1    243 44.92                             170     0.0 8   23 182 
 BAR2 SZ I         243 47.07        10.8 0.34                            23 182 
 RUS  HZ EP   1    243 34.05                             143    -0.1 8  101 174 
 RUS  HN ES   1    243 52.62                             143     0.2 8  101 174 
 RUS  HZ I         243 53.47         4.9 0.27                           101 174 
 GRA  SZ EP        243 35.74                             136     0.110  126  19 
 GRA  SZ ES   1    243 55.13                             136     0.0 7  126  19 
 GRA  SZ I         243 56.42         5.5 0.22                           126  19 
 NOR  SZ EP   1    243 45.97                             118     0.1 6  232 234 
                                                                                
