 2017  112 0935 43.6 L   6.037 -74.202  4.0  RSN  6 0.4 1.3LRSN                1
 GAP=137        1.13       3.0     2.3  6.2 -0.2138E+01  0.6063E+00 -0.1269E+01E
 Epicentro: LA BELLEZA - SANTANDER                                             3
 ACTION:UPD 17-05-22 15:58 OP:jn   STATUS:               ID:20170112093543 L   I
 OLDACT:UP  17-01-12 22:27 OP:dani STATUS:               ID:20170112092747d    3
 OLDACT:UP  17-01-12 22:25 OP:dani STATUS:               ID:20170112092747d    3
 OLDACT:UP  17-01-12 22:24 OP:dani STATUS:               ID:20170112092747d    3
 OLDACT:UP  17-01-12 22:24 OP:dani STATUS:               ID:20170112092747d    3
 OLDACT:UP  17-01-12 22:24 OP:dani STATUS:               ID:20170112092747d    3
 OLDACT:UP  17-01-12 22:23 OP:dani STATUS:               ID:20170112092747d    3
 OLDACT:DUP 17-01-12 22:21 OP:dani STATUS:               ID:20170112092747d    3
 2017-01-12-0928-00M.COL___334                                                 6
 STAT SP IPHASW D HRMM SECON CODA AMPLIT PERI AZIMU VELO AIN AR TRES W  DIS CAZ7
 PTB  HZ EP        935 53.43                              47   -0.2310 62.3 333 
 PTB  HN ES        936  1.18                              47   -0.3210 62.3 333 
 PTB  HZ I         936  2.90        19.5 0.30             47           62.3 333 
 NOR  HZ EP        935 58.22                              47    0.2310 90.6 235 
 NOR  HN ES        936  9.24                              47    0.0410 90.6 235 
 NOR  HZ I         936  9.64        14.7 0.11             47           90.6 235 
 RUS  HZ EP        936  3.67                              47    0.0310  125  97 
 RUS  HE ES        936 18.56                              47   -0.7010  125  97 
 BAR2 EZ EP        936  4.18                              47    0.2710  128  61 
 GUY2CHZ EP        936  9.27                              47    0.76 9  157 235 
 GUY2CHN ES        936 27.39                              47   -0.53 9  157 235 
 GUY2CHZ I         936 32.31         2.9 0.43                           157 235 
 ZAR  HN ES   4    936 29.22                              37   -3.04 0  177 336 
 PAM  EE ES        936 43.62                              37    0.69 8  220  49 
 PAM  EZ I         936 46.74         1.3 0.21             37            220  49 
                                                                                
