 2016  512 0621 17.4 L   6.752 -73.181145.8  RSN  4 0.2 0.9LRSN                1
 GAP=230        0.63       5.1     4.9  5.7  0.1010E+02  0.5967E+01 -0.1923E+01E
 Epicentro: LOS SANTOS - SANTANDER                                             3
 ACTION:UPD 16-08-18 17:45 OP:cam  STATUS:               ID:20160512062117 L   I
 OLDACT:DUP 16-05-12 14:18 OP:cara STATUS:               ID:20160512061743d    3
 OLDACT:REG 16-05-12 12:20 OP:drio STATUS:               ID:20160512061742     3
 2016-05-12-0617-42M.COL___304                                                 6
 STAT SP IPHASW D HRMM SECON CODA AMPLIT PERI AZIMU VELO AIN AR TRES W  DIS CAZ7
 BAR2 EZ EP        621 37.13                             173    0.1510 17.7 181 
 BAR2 EZ ES        621 51.81                             173   -0.4110 17.7 181 
 BAR2 EZ I         621 54.25         2.0 0.22            174           17.7 181 
 BRR  HZ EP        621 38.61                             153    0.0410 70.6 304 
 BRR  HN ES        621 55.27                             153    0.2310 70.6 304 
 BRR  HZ I         621 59.82         1.6 0.44            155           70.6 304 
 RUS  HN ES        621 59.32                             145    0.2110 95.7 174 
 RUS  HZ I         622  2.32         0.9 0.48            149           95.7 174 
 PTB  HZ EP        621 43.72                             133   -0.27 9  143 261 
 PTB  HN ES        622  4.72                             133    0.02 9  143 261 
 PTB  HZ I         622  5.72         1.0 0.46            136            143 261 
                                                                                
