 2011  512 0820 25.7 L   6.801 -73.069142.5  RSN  5 0.2 1.3LRSN                1
 GAP=167        0.49       3.3     6.2  6.4 -0.3927E+01 -0.1572E+02  0.3298E+00E
 Epicentro: LOS SANTOS - SANTANDER                                             3
 ACTION:UP  11-06-29 08:52 OP:tino STATUS:               ID:20110512082025 L   I
 2011-05-12-0818-22S.COL___129                                                 6
 STAT SP IPHASW D HRMM SECON CODA AMPLIT PERI AZIMU VELO SNR AR TRES W  DIS CAZ7
 BTL  SZ EP   2    820 45.06                             169     0.1 5   26 301 
 BAR2 SZ I         820 54.80         6.4 0.72                            26 209 
 BAR2 SZ ES   2    821  0.36                             169     0.3 5   26 209 
 BRR  HZ EP   1    820 46.72                             149    -0.2 8   79 296 
 BRR  HN ES   1    821  3.57                             149     0.1 8   79 296 
 BRR  HZ I         821  7.65         4.0 0.53                            79 296 
 RUS  HZ EP   1    820 49.26                             143     0.1 8  100 181 
 RUS  HN ES   2    821  6.99                             143    -0.4 5  100 181 
 RUS  HZ I         821  9.04         2.4 0.19                           100 181 
 GRA  SZ EP        820 50.58                             137     0.110  123  14 
 GRA  SZ ES   1    821  9.58                             137    -0.2 7  123  14 
 GRA  SZ I         821 12.91         2.6 0.34                           123  14 
                                                                                
