 2010  212 0252 47.4 L   6.818 -72.954146.2  RSN  6 0.3 2.2LRSN                1
 GAP=214        0.53       3.8     8.2  5.9 -0.1328E+02  0.9028E+01  0.5094E+01E
 Epicentro: CEPITA - SANTANDER                                                 3
 ACTION:UP  10-08-24 09:48 OP:vdl  STATUS:               ID:20100212025247dL   I
 2010-02-12-0250-58S.COL___094                                                 6
 STAT SP IPHASW D HRMM SECON CODA AMPLIT PERI AZIMU VELO SNR AR TRES W  DIS CAZ7
 BAR2 SZ EP        253  7.55                             166     0.210   36 225 
 BAR2 SZ ES   2    253 22.48                             166    -0.5 5   36 225 
 GIR2 SZ EP        253  7.52                             164     0.210   39 317 
 GIR2 SZ ES   2    253 22.85                             164    -0.1 5   39 317 
 OCA  SZ EP   1    253 15.61                             129    -0.3 7  162 346 
 CHI  HZ EP   1    253 25.96                             116     0.0 6  257 200 
 CHI  HN ES   1    253 56.36                             116     0.2 6  257 200 
 CHI  HZ I         254  3.00         5.7 0.37                           257 200 
 HEL  HZ EP   2    253 29.75                             113    -0.2 4  293 256 
 HEL  HN ES   2    254  3.66                             113     0.5 4  293 256 
 PRA  HZ EP        253 42.19                             106    -0.2 6  405 212 
 PRA  HN ES   1    254 24.62                             106    -0.7 4  405 212 
 PRA  HZ I         254 27.11         6.0 0.26                           405 212 
                                                                                
