 2013 1112 0505 13.4 L   6.832 -73.160143.9  RSN  9 0.4 1.8LRSN                1
 GAP=133        0.84       3.8     3.6  5.8 -0.1430E+01  0.3446E+01  0.3602E+01E
 Epicentro: LOS SANTOS - SANTANDER                                             3
 ACTION:UPD 14-01-09 16:27 OP:ep   STATUS:               ID:20131112050513 L   I
 OLDACT:REG 13-11-12 09:17 OP:nd   STATUS:               ID:20131112050000     3
 2013-11-12-0500-00M.COL___273                                                 6
 STAT SP IPHASW D HRMM SECON CODA AMPLIT PERI AZIMU VELO AIN AR TRES W  DIS CAZ7
 BAR2 SZ EP        5 5 32.80                             169   -0.0710 26.7 185 
 BAR2 SZ ES        5 5 48.01                             169   -0.0510 26.7 185 
 BAR2 SZ I         5 5 48.88        24.0 0.22            168           26.7 185 
 BRR  HZ IP     D  5 5 34.50                             153    0.3310 68.1 297 
 BRR  HN ES        5 5 50.76                             153    0.3910 68.1 297 
 BRR  HZ I         5 5 54.83         8.9 0.14            151           68.1 297 
 PAM  SZ EP        5 5 35.47                             151    0.1610 75.7  42 
 PAM  SN ES        5 5 52.13                             151   -0.2810 75.7  42 
 PAM  SZ I         5 5 54.37        14.3 0.44            156           75.7  42 
 RUS  HZ EP        5 5 37.35                             142    0.1110  104 175 
 RUS  HN ES   2    5 5 55.68                             142   -0.15 5  104 175 
 RUS  HZ I         5 5 57.24         4.8 0.30            144            104 175 
 PTB  HZ EP        5 5 39.42                             132   -0.72 9  147 257 
 PTB  HN ES        5 6  0.57                             132   -0.42 9  147 257 
 PTB  HZ I         5 6  3.34         6.2 0.20            132            147 257 
 SPBC HZ EP        5 5 42.35                             128    0.42 9  165 218 
 SPBC HN ES        5 6  4.18                             128    0.00 9  165 218 
 SPBC HZ I         5 6 12.31         3.9 0.32            129            165 218 
 ZAR  HZ EP   4    5 5 46.99                             122    1.56 0  201 291 
 ZAR  HN ES        5 6 10.72                             122    0.30 9  201 291 
 ZAR  HZ I         5 6 17.27         7.9 0.28            123            201 291 
 SML  HZ EP   4    5 5 48.45                             117   -1.04 0  240 335 
 SML  HN ES   2    5 6 16.84                             117   -0.81 4  240 335 
 SML  HZ I         5 6 19.41         8.2 0.10            119            240 335 
 SJC  HZ EP   4    5 6  6.14                             105   -2.30 0  405 327 
 SJC  HN ES   4    5 6 47.23                             105   -4.15 0  405 327 
 SJC  HZ I         5 6 51.75         2.0 0.56            107            405 327 
                                                                                
