 2014  812 0355 49.6 L   6.807 -73.185138.9  RSN  7 0.3 1.7LRSN                1
 GAP=131        0.80       3.0     4.1  5.8 -0.3005E+01  0.9136E+01 -0.4821E+01E
 Epicentro: ZAPATOCA - SANTANDER                                               3
 ACTION:UPD 14-09-15 21:49 OP:nd   STATUS:               ID:20140812035549 L   I
 OLDACT:DUP 14-08-12 13:23 OP:cam  STATUS:               ID:20140812035001d    3
 2014-08-12-0350-00M.COL___285                                                 6
 STAT SP IPHASW D HRMM SECON CODA AMPLIT PERI AZIMU VELO AIN AR TRES W  DIS CAZ7
 BAR2 SZ EP        356  8.42                             170    0.0210 23.8 179 
 BAR2 SZ ES        356 23.18                             170    0.1010 23.8 179 
 BAR2 SZ I         356 24.29        25.3 0.22            172           23.8 179 
 BRR  HZ EP        356 10.30                             153    0.5410 67.0 300 
 BRR  HN ES   4    356 27.20                             153    1.70 0 67.0 300 
 BRR  HZ I         356 28.06         5.7 0.10            150           67.0 300 
 PAM  SZ EP        356 10.65                             149   -0.5710 79.6  42 
 PAM  SN ES        356 27.87                             149   -0.2210 79.6  42 
 PAM  SZ I         356 30.30        11.9 0.44            152           79.6  42 
 RUS  HZ EP        356 13.02                             142    0.2610  102 174 
 RUS  HN ES        356 31.16                             142    0.3310  102 174 
 RUS  HZ I         356 31.76         6.6 0.24            147            102 174 
 PTB  HZ EP     D  356 15.42                             131   -0.20 9  144 258 
 PTB  HN ES        356 35.70                             131   -0.23 9  144 258 
 PTB  HZ I         356 41.27         3.9 0.26            132            144 258 
 SPBC HZ EP        356 17.24                             128   -0.13 9  161 218 
 SPBC HE ES        356 38.75                             128   -0.29 9  161 218 
 SPBC HZ I         356 41.71         7.3 0.18            130            161 218 
 SML  HZ EP        356 25.72                             116    0.16 8  241 336 
 SML  HE ES        356 53.92                             116    0.30 8  241 336 
 SML  HZ I         357  1.13         5.9 0.10            117            241 336 
                                                                                
