 2012  212 0232 25.4 L   6.782 -73.134147.8  RSN 14 0.4 2.4LRSN                1
 GAP=139        0.81       3.2     4.0  5.0 -0.1755E+01  0.3587E+01  0.2135E+01E
 ACTION:UP  12-03-07 16:29 OP:epov STATUS:               ID:20120212023225 L   I
 2012-02-12-0230-00M.COL___188                                                 6
 STAT SP IPHASW D HRMM SECON CODA AMPLIT PERI AZIMU VELO AIN AR TRES W  DIS CAZ7
 BAR2 SZ EP        232 45.28                             171   -0.0210 21.6 194 
 BAR2 SZ ES   1    233  0.92                             171    0.14 7 21.6 194 
 BAR2 SZ I         233  2.08        42.6 0.37                          21.6 194 
 BRR  HZ EP        232 47.17                             152    0.2310 73.3 299 
 BRR  HE ES        233  4.26                             152    0.5610 73.3 299 
 BRR  HZ I         233  9.13        34.3 0.16                          73.3 299 
 PAM  SZ EP        232 48.07                             151    0.1410 78.2  38 
 PAM  SE ES   1    233  5.29                             151   -0.18 7 78.2  38 
 RUS  HZ EP   1    232 49.06                             145   -0.20 7 98.5 177 
 RUS  HN ES   1    233  7.53                             145   -0.29 7 98.5 177 
 PTB  HZ EP   1    232 51.91                             132   -0.75 7  149 260 
 PTB  HN ES   1    233 13.22                             132   -0.67 7  149 260 
 OCA  SZ EP   1    232 54.18                             130    0.06 7  162 353 
 OCA  SZ ES   1    233 16.20                             130   -0.29 7  162 353 
 ZAR  HN ES   1    233 23.38                             123   -0.42 6  206 293 
 ZAR  HZ I         233 28.94        20.7 0.32                           206 293 
 NOR  SZ EP   1    233  1.41                             119    0.13 6  235 235 
 NOR  SN ES   1    233 28.90                             119   -0.34 6  235 235 
 CHI  HZ EP   1    233  3.28                             118    0.19 6  247 196 
 CHI  HN ES   1    233 32.48                             118    0.03 6  247 196 
 CHI  HZ I         233 38.63        10.3 0.24                           247 196 
 HEL  HZ EP   1    233  6.94                             115    1.09 6  273 256 
 HEL  HZ I         233 44.26         8.2 0.34                           273 256 
 GUY  SZ EP   1    233  9.88                             113    0.48 5  303 236 
 GUY  SZ I         233 52.82        17.2 0.31                           303 236 
 DBB  SZ EP   1    233 13.69                             110    0.52 5  341 275 
 COD  HZ EP   1    233 13.16                             109   -0.99 5  350 354 
 COD  HZ I         233 56.02        19.1 0.17                           350 354 
 PRA  HZ EP   1    233 18.81                             107   -0.10 4  391 210 
                                                                                
