 2012 1012 0301 18.3 L   6.764 -73.048142.8  RSN  5 0.4 1.7LRSN                1
 GAP=151        0.77       5.7     7.5  8.1 -0.3818E+01 -0.1281E+01 -0.9020E+01E
 Epicentro: LOS SANTOS - SANTANDER                                             3
 ACTION:UPD 12-11-22 17:03 OP:ep   STATUS:               ID:20121012030118 L   I
 2012-10-12-0300-00M.COL___231                                                 6
 STAT SP IPHASW D HRMM SECON CODA AMPLIT PERI AZIMU VELO AIN AR TRES W  DIS CAZ7
 BAR2 SZ EP        3 1 37.65                             170    0.0610 24.0 218 
 BAR2 SZ ES   1    3 1 53.09                             170    0.46 7 24.0 218 
 BAR2 SZ I         3 1 54.14         7.5 0.26                          24.0 218 
 GIR2 SZ EP   2    3 1 37.26                             164   -0.57 5 38.4 335 
 GIR2 SZ ES   3    3 1 52.98                             164   -0.09 2 38.4 335 
 PAM  SZ IP     C  3 1 40.50                             151    0.4810 74.4  31 
 PAM  SZ I         3 1 40.62         8.5 0.20                          74.4  31 
 PAM  SE ES   1    3 1 56.48                             151   -0.48 7 74.4  31 
 BRR  HZ EP        3 1 39.57                             148   -0.2510 82.6 297 
 BRR  HN ES   1    3 1 56.73                             148    0.13 7 82.6 297 
 BRR  HN I         3 1 57.41        12.1 0.50                          82.6 297 
 RUS  HE ES   1    3 1 59.15                             144   -0.37 7 96.4 182 
                                                                                
