 2015  612 0959 41.2 L   6.778 -73.157142.4  RSN  8 0.6 1.8LRSN                1
 GAP=136        1.42       5.5     7.9 10.9  0.4525E+01  0.2957E+01 -0.8457E+01E
 Epicentro: LOS SANTOS - SANTANDER                                             3
 ACTION:UPD 15-09-10 22:11 OP:cam  STATUS:               ID:20150612095941 L   I
 OLDACT:REG 15-06-12 23:43 OP:stll STATUS:               ID:20150612095750     3
 2015-06-12-0957-50M.COL___265                                                 6
 STAT SP IPHASW D HRMM SECON CODA AMPLIT PERI AZIMU VELO AIN AR TRES W  DIS CAZ7
 BAR2 EZ EP       10 0  0.21                             171   -0.1710 20.8 188 
 BAR2 EZ ES       10 0 14.81                             171   -0.5210 20.8 188 
 BAR2 EZ I        10 0 15.94        17.4 0.26            161           20.8 188 
 BRR  HZ EP       10 0  2.18                             152    0.1910 71.3 301 
 BRR  HZ I        10 0  2.32        10.2 0.22            149           71.3 301 
 BRR  HN ES       10 0 18.97                             152    0.7610 71.3 301 
 PAM  SZ EP       10 0  3.11                             149   -0.1110 80.0  39 
 PAM  SZ I        10 0  3.34         9.9 0.24            145           80.0  39 
 RUS  HZ EP       10 0  4.62                             144    0.1610 98.3 175 
 RUS  HZ I        10 0 23.60         5.0 0.26            131           98.3 175 
 SPBC HN ES       10 0 30.80                             129   -0.22 9  161 219 
 OCA  HN ES       10 0 32.15                             128    0.64 9  163 354 
 OCA  HZ I        10 0 33.54        16.7 0.22            123            163 354 
 ZAR  HZ EP       10 0 14.11                             122    0.70 9  204 293 
 ZAR  HN ES       10 0 38.19                             122   -0.34 9  204 293 
 ZAR  HZ I        10 0 44.52         5.3 0.32            115            204 293 
 SML  HN ES       10 0 44.92                             116   -1.47 8  245 336 
                                                                                
