 2017  812 0905 51.4 L   6.748 -73.081141.8  RSN  4 0.1 1.4LRSN                1
 GAP=240        0.43       2.6     4.2  4.1  0.2128E+01  0.1849E+01  0.1670E+00E
 Epicentro: JORDAN - SANTANDER                                                 3
 ACTION:UPD 17-09-04 20:19 OP:rebc STATUS:               ID:20170812090551 L   I
 OLDACT:DUP 17-08-12 18:59 OP:dnl  STATUS:               ID:20170812085745d    3
 OLDACT:UP  17-08-12 18:58 OP:dnl  STATUS:               ID:20170812085744     3
 OLDACT:UP  17-08-12 18:58 OP:dnl  STATUS:               ID:20170812085744     3
 OLDACT:REG 17-08-12 12:53 OP:dhb  STATUS:               ID:20170812085744     3
 2017-08-12-0858-00M.COL___411                                                 6
 STAT SP IPHASW D HRMM SECON CODA AMPLIT PERI AZIMU VELO AIN AR TRES W  DIS CAZ7
 BAR2 EZ EP        9 6 10.67                             171    0.1610 20.6 213 
 BAR2 EZ ES        9 6 25.21                             171   -0.1910 20.6 213 
 BAR2 EZ I         9 6 28.42         6.4 0.28            165           20.6 213 
 BRR  HZ EP        9 6 12.47                             149   -0.2010 80.2 300 
 BRR  HE ES        9 6 29.44                             149    0.1810 80.2 300 
 RUS  HZ EP   2    9 6 14.37                             145    0.03 5 94.6 180 
 RUS  HN ES        9 6 32.31                             145    0.0810 94.6 180 
 RUS  HZ I         9 6 35.36         2.0 0.26            142           94.6 180 
 SPBC HZ EP   2    9 6 19.67                             128    0.04 5  163 222 
 SPBC HN ES        9 6 41.60                             128   -0.05 9  163 222 
 SPBC HZ I         9 6 47.63         5.1 0.48            127            163 222 
                                                                                
