 2011  412 0215  2.0 L   6.572 -73.541109.9  RSN 15 0.4 2.7LRSN                1
 GAP= 63        0.94       3.3     4.1  6.8 -0.3545E+01  0.9650E+01  0.4967E+01E
 Epicentro: EL CARMEN DE CHUCURI - SANTANDER                                   3
 ACTION:UP  11-06-22 15:30 OP:REBC STATUS:               ID:20110412021502 L   I
 2011-04-12-0213-51S.COL___139                                                 6
 STAT SP IPHASW D HRMM SECON CODA AMPLIT PERI AZIMU VELO SNR AR TRES W  DIS CAZ7
 BAR2 SZ IP        215 17.90                             159     0.010   40  87 
 BAR2 SZ ES   1    215 30.17                             159    -0.1 7   40  87 
 BAR2 SZ I         215 32.20       973.8 0.44                            40  87 
 BTL  SZ IP        215 18.72                             154     0.410   49  38 
 BRR  HZ EP        215 18.70                             148    -0.110   62 342 
 BRR  HE ES   1    215 32.43                             148     0.5 7   62 342 
 BRR  HZ I         215 34.06       173.3 0.08                            62 342 
 GIR2 SZ IP        215 19.33                             146     0.010   68  34 
 PAM  SZ EP   1    215 24.24                             128    -0.5 7  126  48 
 PAM  SN ES        215 42.28                             128    -0.210  126  48 
 PAM  SZ I         215 44.89        25.3 0.23                           126  48 
 GRA  SZ EP        215 29.11                             119     0.7 9  166  29 
 GRA  SZ I         215 54.34        78.0 0.38                           166  29 
 YOP  SZ EP   1    215 29.99                             116    -0.2 7  183 137 
 YOP  SN ES   1    215 52.39                             116     0.2 7  183 137 
 YOP  SZ I         215 53.87        50.4 0.20                           183 137 
 NOR  SZ EP   1    215 30.32                             116     0.0 7  185 233 
 NOR  SN ES   1    215 51.41                             116    -0.9 7  185 233 
 OCA  SZ EP        215 29.86                             116    -0.7 9  186   8 
 OCA  SZ I         215 57.85        93.1 0.24                           186   8 
 CHI  HZ EP   1    215 34.21                             112     0.0 6  216 186 
 CHI  HE ES   1    215 59.19                             112    -0.2 6  216 186 
 CHI  HZ I         216  4.36        27.8 0.30                           216 186 
 HEL  HZ EP   1    215 35.13                             111     0.0 6  224 259 
 RREF HZ EP   1    215 41.13                             107     0.1 6  272 227 
 RREF HZ I         216 17.93        40.7 0.20                           272 227 
 TOL  SZ EP   1    215 43.78                             105     0.5 5  295 222 
 DBB  SZ EP        215 43.66                             104     0.2 7  299 280 
 DBB  SZ I         216 21.16         8.8 0.51                           299 280 
 PRA  HZ EP   1    215 49.27                             101    -0.1 5  349 205 
 PRA  HN ES   1    216 26.96                             101     0.6 5  349 205 
                                                                                
