 2010  612 0740 35.3 L   6.857 -72.946121.0  RSN  5 0.4 1.1LRSN                1
 GAP=178        0.73       9.5    49.3 14.8 -0.4114E+03 -0.4308E+02 -0.9731E+00E
 Epicentro: CEPITA - SANTANDER                                                 3
 ACTION:UP  10-08-24 10:09 OP:vdl  STATUS:               ID:20100612074035 L   I
 2010-06-12-0737-51S.COL___117                                                 6
 STAT SP IPHASW D HRMM SECON CODA AMPLIT PERI AZIMU VELO SNR AR TRES W  DIS CAZ7
 BAR2 SZ EP   1    740 52.37                             160    -0.1 8   39 222 
 BRI  SZ EP   2    740 56.78                             139     0.9 5   96  10 
 GUE  SZ EP   1    740 57.36                             135     0.4 8  108   1 
 RUS  HZ EP   2    740 56.75                             136    -0.5 5  108 188 
 RUS  HN ES   2    741 14.70                             136     0.3 5  108 188 
 RUS  HZ I         741 15.81         2.2 0.50                           108 188 
 GRA  SZ EP        740 57.17                             133    -0.210  115   8 
 GRA  SZ ES   1    741 14.45                             133    -0.2 7  115   8 
                                                                                
