 2017  912 0153 30.4 L   6.776 -73.110149.2  RSN  6 0.3 1.4LRSN                1
 GAP=142        0.88       4.0     4.6  7.0 -0.4711E+00  0.4293E+01 -0.8209E-01E
 Epicentro: LOS SANTOS - SANTANDER                                             3
 ACTION:UPD 17-10-05 19:11 OP:rebc STATUS:               ID:20170912015330 L   I
 OLDACT:UP  17-09-13 13:28 OP:nlst STATUS:               ID:20170912015330 L   3
 OLDACT:UP  17-09-12 15:03 OP:mg   STATUS:               ID:20170912014739d    3
 OLDACT:DUP 17-09-12 14:57 OP:mg   STATUS:               ID:20170912014739d    3
 2017-09-12-0148-00M.COL___437                                                 6
 STAT SP IPHASW D HRMM SECON CODA AMPLIT PERI AZIMU VELO AIN AR TRES W  DIS CAZ7
 BAR2 EZ EP        153 50.12                             171   -0.2710 21.8 202 
 BAR2 EZ ES        154  6.25                             171    0.2510 21.8 202 
 BAR2 EZ I         154  8.13         5.2 0.50            171           21.8 202 
 BRR  HZ EP        153 52.06                             152   -0.1110 76.0 299 
 BRR  HN ES        154  9.45                             152    0.2910 76.0 299 
 BRR  HZ I         154 10.75         3.6 0.35            150           76.0 299 
 PAM  EZ EP        153 53.01                             152    0.0710 77.0  36 
 PAM  EN ES        154 10.11                             152   -0.4210 77.0  36 
 PAM  EZ I         154 12.75         4.0 0.36            153           77.0  36 
 RUS  HZ EP        153 54.79                             145    0.5310 97.7 178 
 RUS  HN ES     C  154 13.01                             145    0.1110 97.7 178 
 RUS  HZ I         154 14.06         3.9 0.49            147           97.7 178 
 SPBC HZ EP   4    154  2.38                             130    3.19 0  164 221 
 SPBC HN ES        154 21.01                             130   -0.65 9  164 221 
 SPBC HZ I         154 23.74         4.9 0.23            130            164 221 
 ZAR  HN ES        154 29.51                             122    0.12 8  209 292 
 ZAR  HZ I         154 35.91         2.5 0.12            122            209 292 
                                                                                
