 2013 1012 0641 59.9 L   6.846 -73.110136.9  RSN  5 0.3 1.5LRSN                1
 GAP=204        0.72       3.6     5.7 11.1  0.7754E+01 -0.1434E+02 -0.1908E+02E
 Epicentro: LOS SANTOS - SANTANDER                                             3
 ACTION:UPD 13-11-25 09:21 OP:ep   STATUS:               ID:20131012064159 L   I
 OLDACT:UP  13-10-12 12:41 OP:mh   STATUS:               ID:20131012063959     3
 OLDACT:UP  13-10-12 12:41 OP:mh   STATUS:               ID:20131012063959     3
 OLDACT:UP  13-10-12 12:39 OP:mh   STATUS:               ID:20131012063959     3
 OLDACT:UP  13-10-12 12:39 OP:mh   STATUS:               ID:20131012063959     3
 OLDACT:REG 13-10-12 08:31 OP:mh   STATUS:               ID:20131012063959     3
 2013-10-12-0639-59M.COL___273                                                 6
 STAT SP IPHASW D HRMM SECON CODA AMPLIT PERI AZIMU VELO AIN AR TRES W  DIS CAZ7
 BRR  HN ES   4    642 38.68                             150    2.67 0 72.5 294 
 RUS  HZ EP   1    642 23.32                             140    0.14 8  105 178 
 RUS  HN ES   1    642 41.02                             140   -0.31 8  105 178 
 RUS  HZ I         642 45.12         1.6 0.38            149            105 178 
 PTB  HZ EP   1    642 25.94                             129   -0.70 8  153 257 
 PTB  HN ES   1    642 47.32                             129   -0.16 8  153 257 
 PTB  HZ I         642 54.75         4.5 0.48            134            153 257 
 SPBC HZ EP        642 28.32                             126   -0.0610  170 219 
 SPBC HN ES        642 51.11                             126    0.5310  170 219 
 SPBC HZ I         642 57.76         4.7 0.31            132            170 219 
 ZAR  HE ES        642 56.88                             120   -0.13 9  206 290 
 ZAR  HZ I         643  6.13         2.9 0.26            125            206 290 
 SML  HZ EP   1    642 36.00                             116    0.26 7  241 334 
 SML  HN ES        643  3.90                             116    0.21 9  241 334 
 SML  HZ I         643  9.87         5.3 0.06            122            241 334 
                                                                                
