 2014  212 0117 42.7 L   6.818 -73.164146.9  RSN  9 0.4 2.1LRSN                1
 GAP=143        0.97       3.2     4.2  5.8 -0.2201E+01  0.4552E+01  0.1021E+01E
 Epicentro: LOS SANTOS - SANTANDER                                             3
 ACTION:UPD 14-03-10 08:09 OP:ep   STATUS:               ID:20140212011742 L   I
 OLDACT:REG 14-02-12 08:07 OP:carl STATUS:               ID:20140212011000     3
 2014-02-12-0110-00M.COL___199                                                 6
 STAT SP IPHASW D HRMM SECON CODA AMPLIT PERI AZIMU VELO AIN AR TRES W  DIS CAZ7
 BAR2 SZ EP        118  2.34                             170   -0.1510 25.1 185 
 BAR2 SZ ES        118 17.60                             170   -0.3310 25.1 185 
 BAR2 SZ I         118 18.89        33.7 0.16            172           25.1 185 
 BRR  HZ EP        118  4.16                             154    0.3510 68.5 298 
 BRR  HN ES        118 21.13                             154    0.8510 68.5 298 
 BRR  HZ I         118 24.99        16.4 0.20            152           68.5 298 
 PAM  SZ EP        118  5.37                             151    0.3610 77.2  42 
 PAM  SN ES        118 22.22                             151   -0.2010 77.2  42 
 PAM  SZ I         118 24.40        21.8 0.52            152           77.2  42 
 PTB  HN ES        118 30.00                             133   -0.60 9  146 258 
 SPBC HZ EP        118 11.52                             129    0.22 9  163 218 
 SPBC HN ES        118 33.24                             129   -0.38 9  163 218 
 SPBC HZ I         118 35.96        10.8 0.34            131            163 218 
 ZAR  HZ EP        118 14.60                             123   -0.33 9  201 292 
 ZAR  HE ES        118 40.28                             123    0.19 9  201 292 
 NOR  HE ES        118 46.73                             119    0.42 8  234 234 
 SML  HZ EP        118 18.84                             118   -0.25 8  241 336 
 SML  HN ES        118 47.01                             118   -0.47 8  241 336 
 SML  HZ I         118 56.09        12.6 0.26            118            241 336 
 CHI  HZ EP        118 20.68                             117    0.08 8  250 195 
 CHI  HN ES        118 50.19                             117    0.02 8  250 195 
 CHI  HZ I         118 53.47         5.9 0.48            119            250 195 
                                                                                
