 2012  312 0748 57.9 L   6.750 -73.146139.0  RSN  8 0.4 1.5LRSN                1
 GAP=139        1.06       5.8     5.7  8.9 -0.4002E+01  0.1386E+02 -0.7963E+01E
 ACTION:UP  12-03-31 23:19 OP:EP   STATUS:               ID:20120312074857 L   I
 2012-03-12-0746-48M.COL___178                                                 6
 STAT SP IPHASW D HRMM SECON CODA AMPLIT PERI AZIMU VELO SNR AR TRES W  DIS CAZ7
 BAR2 SZ EP   1    749 16.92                             172     0.3 7   18 193 
 BAR2 SZ ES   1    749 31.09                             172    -0.1 7   18 193 
 BAR2 SZ I         749 33.11        15.8 0.20                            18 193 
 BRR  HZ EP        749 18.75                             150     0.310   74 302 
 BRR  HZ I         749 19.10        17.4 0.09                            74 302 
 BRR  HN ES   1    749 35.23                             150     0.7 7   74 302 
 PAM  SZ EP   1    749 19.74                             148     0.1 7   82  37 
 PAM  SN ES   1    749 35.98                             148    -0.6 7   82  37 
 PAM  SZ I         749 39.09         4.3 0.39                            82  37 
 RUS  HZ EP   1    749 20.67                             144     0.1 7   95 176 
 RUS  HN ES   1    749 38.39                             144     0.1 7   95 176 
 RUS  HZ I         749 40.99         4.3 0.27                            95 176 
 PTB  HZ EP   1    749 23.83                             131    -0.4 7  147 261 
 PTB  HN ES   1    749 44.01                             131    -0.7 7  147 261 
 PTB  HZ I         749 47.45         5.0 0.15                           147 261 
 OCA  SZ EP   1    749 25.60                             127    -0.6 7  166 353 
 OCA  SZ I         749 48.24         0.3 0.38                           166 353 
 ZAR  HZ EP   1    749 30.72                             120     0.6 6  206 294 
 ZAR  HN ES   1    749 55.30                             120     0.1 6  206 294 
 ZAR  HZ I         750  1.08         4.9 0.25                           206 294 
 NOR  SN ES   1    749 59.75                             117    -0.4 6  231 236 
                                                                                
