 2011  812 0725 13.3 L   6.716 -73.138145.0  RSN  8 0.3 1.7LRSN                1
 GAP=183        0.52       2.4     4.8  4.2 -0.1349E+01  0.4576E+01  0.1675E+01E
 Epicentro: JORDAN - SANTANDER                                                 3
 ACTION:UPD 12-07-13 15:51 OP:ep   STATUS:               ID:20110812072513 L   I
 2011-08-12-0720-00M.COL___151                                                 6
 STAT SP IPHASW D HRMM SECON CODA AMPLIT PERI AZIMU VELO AIN AR TRES W  DIS CAZ7
 BAR2 SZ EP   1    725 32.69                             174   -0.01 7 14.5 200 
 BAR2 SZ ES   1    725 47.73                             174   -0.10 7 14.5 200 
 BAR2 SZ I         725 49.44        16.0 0.22                          14.5 200 
 BRR  HZ EP   1    725 34.47                             151   -0.23 7 76.8 304 
 BRR  HN ES   1    725 51.66                             151    0.27 7 76.8 304 
 BRR  HZ I         725 53.85         7.3 0.18                          76.8 304 
 RUS  HZ EP   1    725 36.02                             146   -0.31 7 91.2 176 
 RUS  HE ES   1    725 54.40                             146    0.11 7 91.2 176 
 RUS  HZ I         725 57.21         3.2 0.38                          91.2 176 
 OCA  SZ EP   1    725 42.12                             128   -0.33 7  170 353 
 OCA  SZ ES   1    726  5.45                             128    0.27 7  170 353 
 OCA  SZ I         726  8.55         4.7 0.39                           170 353 
 NOR  SZ EP   2    725 47.95                             119   -0.55 4  230 236 
 NOR  SN ES   1    726 15.66                             119   -0.30 6  230 236 
 CHI  HZ EP   1    725 50.58                             118    0.56 6  240 196 
 CHI  HE ES   2    726 18.64                             118   -0.01 4  240 196 
 CHI  HZ I         726 28.82         2.0 0.48                           240 196 
 RREF HZ EP   1    725 59.02                             111    0.21 5  316 231 
 RREF HZ I         726 44.23         2.1 0.43                           316 231 
 PRA  HZ EP   1    726  6.49                             107    0.58 4  384 210 
 PRA  HE ES   1    726 46.93                             107   -0.01 4  384 210 
 PRA  HZ I         726 53.33         6.8 0.20                           384 210 
                                                                                
