 2016  712 0402 26.4 L   6.793 -73.145149.0  RSN  5 0.5 1.4LRSN                1
 GAP=251        1.24       7.7     8.3  9.1  0.1096E+02  0.1395E+02  0.1715E+01E
 Epicentro: LOS SANTOS - SANTANDER                                             3
 ACTION:UPD 17-03-29 16:49 OP:lp   STATUS:               ID:20160712040226 L   I
 OLDACT:DUP 16-07-12 16:03 OP:lv   STATUS:               ID:20160712035760d    3
 2016-07-12-0357-59S.COL___331                                                 6
 STAT SP IPHASW D HRMM SECON CODA AMPLIT PERI AZIMU VELO AIN AR TRES W  DIS CAZ7
 BAR2 EZ EP        4 2 46.44                             171   -0.0110 22.6 190 
 BAR2 EZ ES        4 3  1.51                             171   -0.5410 22.6 190 
 BAR2 EZ I         4 3  2.80         3.9 0.20            168           22.6 190 
 BRR  HZ EP        4 2 48.19                             153    0.2210 71.6 299 
 BRR  HN ES        4 3  5.46                             153    0.7110 71.6 299 
 BRR  HZ I         4 3 10.22         3.1 0.12            150           71.6 299 
 PTB  HZ EP        4 2 52.88                             133   -0.79 9  148 259 
 PTB  HN ES     C  4 3 14.32                             133   -0.59 9  148 259 
 PTB  HZ I         4 3 21.83         3.3 0.16            132            148 259 
 SPBC HZ EP        4 2 55.36                             130    0.22 9  163 219 
 SPBC HE ES        4 3 18.20                             130    0.67 9  163 219 
 SPBC HZ I         4 3 20.18         4.6 0.18            131            163 219 
 ZAR  HZ EP        4 2 59.41                             123    0.27 9  204 292 
 ZAR  HE ES        4 3 24.47                             123   -0.17 9  204 292 
 ZAR  HZ I         4 3 27.03         2.6 0.20            124            204 292 
                                                                                
