 2011  312 0451 33.3 L   6.717 -73.022144.9  RSN  7 0.3 2.3LRSN                1
 GAP=195        0.72       3.2     4.9  5.4 -0.1045E+01  0.1324E+02  0.1312E+01E
 Epicentro: ARATOCA - SANTANDER                                                3
 ACTION:UP  11-06-16 14:33 OP:jfem STATUS:               ID:20110312045133 L   I
 2011-03-12-0447-28S.COL___135                                                 6
 STAT SP IPHASW D HRMM SECON CODA AMPLIT PERI AZIMU VELO SNR AR TRES W  DIS CAZ7
 BAR2 SZ EP        451 52.60                             171    -0.210   23 232 
 BAR2 SZ ES        452  7.89                             171    -0.210   23 232 
 BAR2 SZ I         452 10.46        76.7 0.26                            23 232 
 RUS  HZ EP        451 56.35                             146     0.010   91 184 
 RUS  HN ES        452 14.71                             146     0.410   91 184 
 RUS  HZ I         452 18.28        19.0 0.32                            91 184 
 OCA  SZ ES        452 25.53                             127     0.0 9  171 349 
 OCA  SZ I         452 27.12        41.9 0.22                           171 349 
 NOR  SZ EP        452  9.53                             118    -0.2 8  241 238 
 NOR  SE ES   2    452 37.80                             118    -0.3 4  241 238 
 NOR  SZ I         452 42.95         3.8 0.27                           241 238 
 CHI  HZ EP        452 10.10                             117    -0.4 8  244 199 
 CHI  HN ES   2    452 39.34                             117    -0.1 4  244 199 
 CHI  HZ I         452 50.06        13.3 0.33                           244 199 
 HEL  HZ EP        452 15.18                             114     0.4 7  283 258 
 HEL  HE ES        452 47.19                             114     0.1 7  283 258 
 HEL  HZ I         452 52.11        12.8 0.34                           283 258 
 GUY  SZ EP        452 18.00                             112     0.4 7  308 238 
 GUY  SN ES        452 51.90                             112    -0.3 7  308 238 
 GUY  SZ I         452 59.53        20.3 0.36                           308 238 
                                                                                
