 2016  912 0720 48.5 L   6.790 -73.159138.8  RSN 12 0.4 1.6LRSN                1
 GAP=135        0.86       2.4     3.2  4.7 -0.1127E+01  0.4066E+01  0.1147E+01E
 Epicentro: LOS SANTOS - SANTANDER                                             3
 ACTION:UPD 17-08-17 21:09 OP:lp   STATUS:               ID:20160912072048 L   I
 OLDACT:REG 16-09-12 16:11 OP:and  STATUS:               ID:20160912071733     3
 2016-09-12-0718-00M.COL___300                                                 6
 STAT SP IPHASW D HRMM SECON CODA AMPLIT PERI AZIMU VELO AIN AR TRES W  DIS CAZ7
 BAR2 EZ EP        721  6.98                             171   -0.2510 22.1 187 
 BAR2 EZ ES        721 21.68                             171   -0.1910 22.1 187 
 BAR2 EZ I         721 23.68        16.6 0.25            170           22.1 187 
 BRR  HZ EP        721  8.77                             152   -0.0510 70.5 300 
 BRR  HN ES        721 25.12                             152    0.4310 70.5 300 
 BRR  HZ I         721 29.82         8.1 0.28            151           70.5 300 
 PAM  EZ EP        721  9.92                             149   -0.1310 79.1  40 
 PAM  EN ES        721 26.91                             149    0.0210 79.1  40 
 PAM  EZ I         721 27.84         4.0 0.21            153           79.1  40 
 RUS  HZ EP        721 10.97                             143   -0.4910 99.6 175 
 RUS  HE ES        721 29.90                             143    0.5010 99.6 175 
 RUS  HZ I         721 31.16         3.5 0.26            144           99.6 175 
 PTB  HZ EP        721 14.49                             131   -0.23 9  146 259 
 PTB  HN ES        721 34.58                             131   -0.62 9  146 259 
 PTB  HZ I         721 37.72         4.9 0.10            131            146 259 
 OCA  HZ EP        721 16.27                             128   -0.05 9  161 354 
 OCA  HN ES        721 38.33                             128    0.27 9  161 354 
 OCA  HZ I         721 40.59         8.5 0.13            130            161 354 
 SPBC HZ EP        721 16.25                             128   -0.02 9  161 219 
 SPBC HE ES        721 38.06                             128    0.11 9  161 219 
 SPBC HZ I         721 42.91         8.1 0.20            129            161 219 
 ZAR  HZ EP        721 20.65                             121    0.29 9  203 293 
 ZAR  HN ES        721 45.20                             121   -0.05 9  203 293 
 ZAR  HZ I         721 50.35         5.1 0.37            122            203 293 
 CHI  HZ EP        721 25.45                             116   -0.18 8  247 195 
 CHI  HN ES        721 54.73                             116    0.11 8  247 195 
 CHI  HZ I         721 58.24         1.5 0.12            117            247 195 
 HEL  HN ES        721 58.63                             114   -0.46 8  270 256 
 HEL  HZ I         722  5.62         2.1 0.40            115            270 256 
 GUY2CHZ EP        721 32.49                             111    0.94 7  299 235 
 GUY2CHN ES        722  5.71                             111    0.55 7  299 235 
 GUY2CHZ I         722 13.19         2.8 0.36                           299 235 
 PTGC HZ EP   4    721 30.13                             110   -1.83 0  308 158 
 PTGC HN ES   4    722  3.89                             110   -2.00 0  308 158 
 PTGC HZ I         722  8.62         4.2 0.30            112            308 158 
                                                                                
