 2016 1212 0107 41.3 L   6.735 -73.203152.1  RSN  4 0.2 1.2LRSN                1
 GAP=226        0.68       5.4     5.1  5.4  0.1340E+02  0.2681E+01  0.8192E+00E
 Epicentro: VILLANUEVA - SANTANDER                                             3
 ACTION:UPD 17-01-11 20:14 OP:rebc STATUS:               ID:20161212010741 L   I
 OLDACT:DUP 16-12-12 16:01 OP:edw  STATUS:               ID:20161212005748d    3
 2016-12-12-0058-00M.COL___390                                                 6
 STAT SP IPHASW D HRMM SECON CODA AMPLIT PERI AZIMU VELO AIN AR TRES W  DIS CAZ7
 BAR2 EZ EP        1 8  1.12                             174   -0.4110 16.0 172 
 BAR2 EZ ES        1 8 17.23                             174   -0.1110 16.0 172 
 BAR2 EZ I         1 8 18.32         3.5 0.07            178           16.0 172 
 BRR  HZ EP        1 8  3.03                             154    0.0210 69.7 306 
 BRR  HN ES        1 8 20.24                             154    0.2610 69.7 306 
 BRR  HZ I         1 8 27.07         3.1 0.28            152           69.7 306 
 RUS  HZ EP        1 8  5.65                             147    0.4610 94.1 172 
 RUS  HN ES        1 8 23.83                             147   -0.0410 94.1 172 
 RUS  HZ I         1 8 24.31         2.6 0.44            153           94.1 172 
 PTB  HZ EP        1 8  7.96                             135   -0.13 9  140 261 
 PTB  HN ES        1 8 28.97                             135   -0.06 9  140 261 
 PTB  HZ I         1 8 31.57         1.5 0.17            137            140 261 
                                                                                
