 2015  112 0204 46.9 L   6.820 -73.146148.6  RSN  8 0.4 1.7LRSN                1
 GAP=183        1.08       3.1     6.5  6.4  0.7382E+00 -0.4069E-01 -0.1453E+01E
 Epicentro: LOS SANTOS - SANTANDER                                             3
 ACTION:UPD 15-03-02 15:39 OP:nd   STATUS:               ID:20150112020446 L   I
 OLDACT:REG 15-01-12 15:02 OP:carl STATUS:               ID:20150112015746     3
 2015-01-12-0157-46M.COL___253                                                 6
 STAT SP IPHASW D HRMM SECON CODA AMPLIT PERI AZIMU VELO AIN AR TRES W  DIS CAZ7
 BAR2 EZ EP        2 5  6.77                             170   -0.1010 25.5 189 
 BAR2 EZ ES        2 5 22.14                             170   -0.3510 25.5 189 
 BAR2 EZ I         2 5 23.22         8.9 0.18            169           25.5 189 
 BRR  HZ EP        2 5  9.01                             153    0.7610 70.1 297 
 BRR  HN ES        2 5 25.75                             153    0.8110 70.1 297 
 BRR  HZ I         2 5 28.97         7.7 0.32            149           70.1 297 
 RUS  HZ EP        2 5 11.28                             144    0.2410  103 176 
 RUS  HN ES        2 5 29.88                             144   -0.0410  103 176 
 RUS  HZ I         2 5 30.76         4.6 0.26            146            103 176 
 PTB  HZ EP        2 5 13.90                             133   -0.19 9  148 258 
 PTB  HN ES        2 5 34.61                             133   -0.73 9  148 258 
 PTB  HZ I         2 5 41.42         5.6 0.40            131            148 258 
 OCA  HZ EP        2 5 14.54                             131   -0.64 9  158 353 
 OCA  HN ES        2 5 36.84                             131   -0.43 9  158 353 
 OCA  HZ I         2 5 45.42         5.6 0.22            131            158 353 
 SPBC HZ EP        2 5 15.82                             129    0.09 9  165 218 
 SPBC HN ES        2 5 38.25                             129   -0.01 9  165 218 
 SPBC HZ I         2 5 42.60         8.3 0.10            130            165 218 
 SML  HZ EP        2 5 23.43                             118    0.01 8  242 335 
 SML  HN ES        2 5 52.29                             118    0.35 8  242 335 
 SML  HZ I         2 5 58.19         6.0 0.26            118            242 335 
 CHI  HZ EP        2 5 25.12                             117    0.18 8  251 195 
 CHI  HN ES        2 5 54.62                             117   -0.03 8  251 195 
 CHI  HZ I         2 5 59.50         3.3 0.62            119            251 195 
                                                                                
