 2017  912 0145 33.8 L   6.759 -73.108147.4  RSN  4 0.1 1.5LRSN                1
 GAP=238        0.31       1.8     2.8  2.4  0.1020E+01  0.3970E+00  0.5437E+00E
 Epicentro: LOS SANTOS - SANTANDER                                             3
 ACTION:UPD 17-10-05 19:11 OP:rebc STATUS:               ID:20170912014533 L   I
 OLDACT:REG 17-09-12 12:01 OP:mg   STATUS:               ID:20170912013742     3
 2017-09-12-0138-00M.COL___437                                                 6
 STAT SP IPHASW D HRMM SECON CODA AMPLIT PERI AZIMU VELO AIN AR TRES W  DIS CAZ7
 BAR2 EZ EP        145 53.45                             172   -0.1410 20.2 204 
 BAR2 EZ ES        146  8.99                             172   -0.0210 20.2 204 
 BAR2 EZ I         146 10.67         7.8 0.20            163           20.2 204 
 BRR  HZ EP        145 55.56                             151    0.0810 77.0 300 
 BRR  HN ES        146 12.39                             151    0.0110 77.0 300 
 BRR  HZ I         146 13.02         8.7 0.42            147           77.0 300 
 RUS  HZ EP        145 57.45                             145    0.0410 95.9 178 
 RUS  HN ES        146 15.85                             145    0.0610 95.9 178 
 RUS  HZ I         146 16.70         2.2 0.28            142           95.9 178 
 SPBC HZ EP        146  2.38                             130    0.00 9  162 221 
 SPBC HN ES        146 24.60                             130   -0.04 9  162 221 
 SPBC HZ I         146 32.32         4.7 0.18            126            162 221 
                                                                                
