 2016  712 0453 15.4 L   7.383 -73.314106.8  RSN  5 0.7 1.1LRSN                1
 GAP=256        1.62      11.0    12.0 14.7  0.5861E+02  0.5452E+02 -0.1158E+02E
 Epicentro: EL PLAYON - SANTANDER                                              3
 ACTION:UPD 17-03-29 16:49 OP:lp   STATUS:               ID:20160712045315 L   I
 OLDACT:UP  16-09-06 03:33 OP:nlst STATUS:               ID:20160712045315 L   3
 OLDACT:REG 16-07-12 12:36 OP:lv   STATUS:               ID:20160712044759     3
 2016-07-12-0447-59S.COL___330                                                 6
 STAT SP IPHASW D HRMM SECON CODA AMPLIT PERI AZIMU VELO AIN AR TRES W  DIS CAZ7
 BRR  HZ EP        453 31.34                             151    0.0410 53.5 235 
 BRR  HN ES        453 43.41                             151   -0.3310 53.5 235 
 BRR  HZ I         453 45.67         1.8 0.23            143           53.5 235 
 BAR2 EZ ES        453 49.16                             137    0.3410 88.7 171 
 PTB  HZ EP        453 38.96                             120   -1.49 9  157 234 
 PTB  HN ES        453 59.72                             120   -0.29 9  157 234 
 PTB  HZ I         454  2.39         1.5 0.27            116            157 234 
 ZAR  HZ EP        453 42.72                             117    0.79 9  171 274 
 ZAR  HN ES        454  3.11                             117    0.46 9  171 274 
 ZAR  HZ I         454  5.86         2.4 0.23            115            171 274 
 SPBC HN ES        454 11.00                             112    0.61 8  209 204 
 SPBC HZ I         454 16.56         1.8 0.16            110            209 204 
                                                                                
