 2011 1212 0513 16.9 L   6.713 -73.506112.6  RSN  5 0.3 1.9LRSN                1
 GAP=107        0.65       4.9     4.1  6.8  0.6749E+01  0.6553E+01  0.6165E+01E
 Epicentro: EL CARMEN DE CHUCURI - SANTANDER                                   3
 ACTION:UPD 12-07-13 16:15 OP:ep   STATUS:               ID:20111212051316 L   I
 2011-12-12-0510-00M.COL___186                                                 6
 STAT SP IPHASW D HRMM SECON CODA AMPLIT PERI AZIMU VELO AIN AR TRES W  DIS CAZ7
 BAR2 SZ EP   1    513 33.15                             160    0.08 8 38.2 110 
 BAR2 SZ ES   1    513 45.77                             160    0.09 8 38.2 110 
 BAR2 SZ I         513 46.67        18.0 0.23                          38.2 110 
 BRR  HZ EP   1    513 33.25                             155    0.01 8 49.2 332 
 BRR  HZ I         513 33.55        28.0 0.12                          49.2 332 
 BRR  HN ES   1    513 46.28                             155    0.30 8 49.2 332 
 GIR2 SZ EP   1    513 33.03                             153   -0.63 8 53.2  40 
 RUS  HZ EP   1    513 37.95                             135    0.25 8  102 153 
 RUS  HN ES   1    513 53.78                             135   -0.13 8  102 153 
 PTB  HZ EP        513 37.72                             133    0.2510  107 260 
 PTB  HN ES   1    513 53.09                             133   -0.41 7  107 260 
                                                                                
