 2013 1112 0242 44.3 L   6.786 -73.160152.1  RSN  7 0.3 1.6LRSN                1
 GAP=199        0.81       3.3     4.6  5.4  0.4560E+01  0.1109E+01 -0.3933E+01E
 Epicentro: LOS SANTOS - SANTANDER                                             3
 ACTION:UPD 14-01-09 16:27 OP:ep   STATUS:               ID:20131112024244 L   I
 OLDACT:DUP 13-11-12 10:18 OP:nd   STATUS:               ID:20131112024001d    3
 2013-11-12-0240-00M.COL___273                                                 6
 STAT SP IPHASW D HRMM SECON CODA AMPLIT PERI AZIMU VELO AIN AR TRES W  DIS CAZ7
 BAR2 SZ EP        243  4.68                             172   -0.0210 21.6 187 
 BAR2 SZ ES        243 20.43                             172   -0.1510 21.6 187 
 BAR2 SZ I         243 21.35         9.1 0.40            167           21.6 187 
 BRR  HZ EP        243  6.29                             154    0.1410 70.6 300 
 BRR  HN ES        243 23.78                             154    0.6210 70.6 300 
 BRR  HZ I         243 28.90         4.0 0.14            150           70.6 300 
 RUS  HZ EP        243  8.53                             145   -0.1010 99.2 175 
 RUS  HN ES        243 27.15                             145   -0.4110 99.2 175 
 RUS  HZ I         243 28.50         2.1 0.46            146           99.2 175 
 PTB  HZ EP        243 11.62                             134   -0.06 9  146 259 
 PTB  HN ES        243 32.69                             134   -0.31 9  146 259 
 PTB  HZ I         243 38.67         4.3 0.38            132            146 259 
 SPBC HZ EP        243 13.52                             131    0.38 9  161 219 
 SPBC HN ES        243 36.02                             131    0.43 9  161 219 
 SPBC HZ I         243 42.83         5.8 0.32            130            161 219 
 ZAR  HZ EP   2    243 16.58                             124   -0.55 4  203 293 
 ZAR  HN ES        243 42.26                             124   -0.44 9  203 293 
 ZAR  HZ I         243 48.25         4.9 0.46            123            203 293 
 SML  HZ EP        243 21.58                             119    0.16 8  244 336 
 SML  HN ES        243 50.14                             119   -0.19 8  244 336 
 SML  HZ I         243 51.76         4.1 0.10            120            244 336 
                                                                                
