 2017  312 0839 15.2 L   6.817 -73.159150.2  RSN  5 0.4 1.5LRSN                1
 GAP=238        0.92       6.3     6.1  7.4  0.4620E+01  0.7187E+01 -0.5467E+01E
 Epicentro: LOS SANTOS - SANTANDER                                             3
 OLDACT:REG 17-03-12 13:17 OP:ar   STATUS:               ID:20170312082747     3
 ACTION:UPD 17-05-25 18:39 OP:jn   STATUS:               ID:20170312083915 L   I
 OLDACT:DUP 17-03-12 18:06 OP:ar   STATUS:               ID:20170312082750d    3
 OLDACT:UP  17-03-12 18:02 OP:cara STATUS:               ID:20170312082747     3
 2017-03-12-0828-00M.COL___388                                                 6
 STAT SP IPHASW D HRMM SECON CODA AMPLIT PERI AZIMU VELO AIN AR TRES W  DIS CAZ7
 BAR2 EZ EP        839 35.37                             170   -0.0310 25.0 186 
 BAR2 EZ ES        839 51.04                             170   -0.1110 25.0 186 
 BAR2 EZ I         839 51.24        11.1 0.34            170           25.0 186 
 BRR  HZ EP        839 36.96                             154    0.2410 69.1 298 
 BRR  HN ES   2    839 54.31                             154    0.81 5 69.1 298 
 RUS  HZ EP        839 39.16                             144   -0.3810  103 175 
 RUS  HN ES        839 58.44                             144   -0.0710  103 175 
 RUS  HZ I         839 58.92         3.1 0.32            144            103 175 
 PTB  HZ EP        839 42.09                             133   -0.36 9  147 258 
 PTB  HN ES        840  3.25                             133   -0.45 9  147 258 
 PTB  HZ I         840  4.82         4.1 0.16            133            147 258 
 SPBC HZ EP        839 44.80                             130    0.70 9  164 218 
 SPBC HN ES        840  6.97                             130    0.33 9  164 218 
                                                                                
