 2010 1212 0431 33.4 L   6.788 -73.031148.8  RSN  6 0.2 1.4LRSN                1
 GAP=172        0.42       3.1    13.8  4.7 -0.2181E+02  0.5153E+01 -0.2448E+01E
 Epicentro: CEPITA - SANTANDER                                                 3
 ACTION:UP  11-01-14 15:24 OP:pat  STATUS:               ID:20101212043133 L   I
 2010-12-12-0420-00M.COL___136                                                 6
 STAT SP IPHASW D HRMM SECON CODA AMPLIT PERI AZIMU VELO SNR AR TRES W  DIS CAZ7
 BAR2 SZ EP   2    431 53.30                             169    -0.1 5   27 218 
 BAR2 SZ I         431 57.52        11.5 0.56                            27 218 
 BAR2 SZ ES   1    432  9.06                             169     0.0 7   27 218 
 BTL  SZ EP        431 53.73                             167     0.210   30 299 
 RUS  HZ EP   1    431 57.25                             145    -0.1 7   99 183 
 RUS  HZ I         431 57.84         1.5 0.22                            99 183 
 RUS  HN ES   1    432 15.92                             145    -0.1 7   99 183 
 GRA  SZ EP   2    431 58.92                             138     0.2 5  124  12 
 GRA  SZ ES   2    432 18.28                             138    -0.2 5  124  12 
 GRA  SZ I         432 20.26         4.5 0.37                           124  12 
 OCA  SZ EP   2    432  1.86                             129    -0.4 5  164 349 
 OCA  SZ I         432 26.92         3.3 0.63                           164 349 
 CHI  HZ EP   2    432 11.37                             117    -0.1 4  251 198 
 CHI  HE ES   2    432 41.05                             117    -0.1 4  251 198 
 CHI  HZ I         432 44.83         1.1 0.45                           251 198 
                                                                                
