 2017  812 0906 34.1 L   6.827 -73.137142.8  RSN 18 0.4 2.3LRSN                1
 GAP=112        0.98       3.0     3.3  5.2  0.2735E+00  0.5538E+01  0.4250E+01E
 Epicentro: LOS SANTOS - SANTANDER                                             3
 ACTION:UPD 17-09-04 20:19 OP:rebc STATUS:               ID:20170812090634 L   I
 OLDACT:UP  17-08-12 18:58 OP:dnl  STATUS:               ID:20170812085744     3
 OLDACT:UP  17-08-12 18:58 OP:dnl  STATUS:               ID:20170812085744     3
 OLDACT:REG 17-08-12 12:53 OP:dhb  STATUS:               ID:20170812085744     3
 2017-08-12-0858-00M.COL___411                                                 6
 STAT SP IPHASW D HRMM SECON CODA AMPLIT PERI AZIMU VELO AIN AR TRES W  DIS CAZ7
 BAR2 EZ IP     D  9 6 53.20                             169   -0.2610 26.5 191 
 BAR2 EZ ES        9 7  8.14                             169   -0.4110 26.5 191 
 BAR2 EZ I         9 7  9.05        54.8 0.28            166           26.5 191 
 BRR  HZ IP     C  9 6 54.88                             152   -0.0410 70.7 296 
 BRR  HE ES        9 7 11.74                             152    0.6010 70.7 296 
 BRR  HZ I         9 7 15.01        46.1 0.14            150           70.7 296 
 PAM  EZ EP        9 6 55.96                             151    0.1210 74.4  40 
 PAM  EN ES        9 7 12.83                             151    0.0410 74.4  40 
 PAM  EZ I         9 7 14.88        65.9 0.48            155           74.4  40 
 RUS  HZ EP        9 6 57.30                             142   -0.4910  104 177 
 RUS  HN ES        9 7 15.75                             142   -0.5110  104 177 
 RUS  HZ I         9 7 17.51        12.2 0.64            142            104 177 
 SPBC HZ EP        9 7  2.20                             128   -0.47 9  166 219 
 SPBC HN ES        9 7 24.99                             128    0.04 9  166 219 
 SPBC HZ I         9 7 32.51        21.5 0.14            127            166 219 
 YPLC HZ IP     D  9 7  3.92                             126    0.01 9  179 152 
 YPLC HN ES        9 7 28.14                             126    0.99 9  179 152 
 YPLC HZ I         9 7 36.46        12.0 0.34            126            179 152 
 ZAR  HZ EP        9 7  7.06                             122    0.71 9  204 291 
 ZAR  HN ES        9 7 31.09                             122   -0.41 9  204 291 
 ZAR  HZ I         9 7 36.75        28.0 0.20            121            204 291 
 TABC EZ EP   4    9 7 11.06                             118    1.04 0  233 211 
 TABC EZ ES        9 7 38.91                             118    0.88 8  233 211 
 TABC EZ I         9 7 50.10        14.7 0.68            118            233 211 
 NOR  HZ EP        9 7 10.05                             118    0.10 8  237 234 
 NOR  HE ES        9 7 37.54                             118   -0.36 8  237 234 
 NOR  HZ I         9 7 41.64        16.0 0.26            117            237 234 
 CHI  HZ EP        9 7 11.79                             116   -0.21 8  252 195 
 CHI  HE ES        9 7 41.65                             116    0.11 8  252 195 
 CHI  HZ I         9 7 48.63         7.0 0.64            116            252 195 
 HEL  HZ EP   4    9 7 15.93                             114    1.56 0  274 255 
 HEL  HN ES        9 7 46.10                             114    0.33 8  274 255 
 HEL  HZ I         9 7 52.35        13.4 0.36            114            274 255 
 URE  HZ EP   4    9 7 17.24                             113    2.21 0  284 291 
 URE  HN ES   4    9 7 45.03                             113   -1.90 0  284 291 
 URE  HZ I         9 7 57.97        15.8 0.20            113            284 291 
 GUY2CHZ EP   2    9 7 18.62                             111    0.74 4  304 234 
 GUY2CHN ES        9 7 51.99                             111   -0.02 7  304 234 
 GUY2CHZ I         9 8  1.21         8.7 0.28                           304 234 
 DBB  EZ EP        9 7 21.30                             109   -0.27 7  340 274 
 DBB  EN ES   4    9 7 56.29                             109   -2.29 0  340 274 
 DBB  EZ I         9 8  0.81         6.6 0.20            109            340 274 
 ARGC HZ EP   4    9 7 24.04                             108    0.67 0  357 340 
 ARGC HE ES   4    9 7 59.80                             108   -1.99 0  357 340 
 ARGC HZ I         9 8  8.46         3.0 0.24            108            357 340 
 PRA  HZ EP        9 7 27.47                             106   -0.43 6  395 209 
 PRA  HN ES        9 8  9.66                             106   -0.19 6  395 209 
 PRA  HZ I         9 8 15.59        11.1 0.28            106            395 209 
 ORTC HZ EP   2    9 7 28.47                             106    0.18 3  398 216 
 ORTC HN ES        9 8 10.51                             106   -0.03 6  398 216 
 ORTC HZ I         9 8 16.09         6.4 0.50            106            398 216 
 SJC  HZ EP   4    9 7 27.46                             105   -1.89 0  407 327 
 SJC  HN ES   4    9 8  7.96                             105   -4.48 0  407 327 
 SJC  HZ I         9 8 12.49         7.4 0.58            106            407 327 
                                                                                
