 2016 1112 0157 51.0 L   6.681 -73.107147.9  RSN  4 0.3 1.4LRSN                1
 GAP=275        0.76       9.0     5.8  6.9  0.1983E+02  0.9759E+01  0.3721E+01E
 Epicentro: JORDAN - SANTANDER                                                 3
 ACTION:UPD 17-10-26 21:07 OP:lp   STATUS:               ID:20161112015751 L   I
 OLDACT:DUP 16-11-12 14:42 OP:and  STATUS:               ID:20161112014746d    3
 OLDACT:REG 16-11-12 12:30 OP:and  STATUS:               ID:20161112014744     3
 2016-11-12-0148-00M.COL___340                                                 6
 STAT SP IPHASW D HRMM SECON CODA AMPLIT PERI AZIMU VELO AIN AR TRES W  DIS CAZ7
 BAR2 EZ EP        158 11.15                             175    0.4010 12.9 220 
 BAR2 EZ ES        158 25.75                             175   -0.3810 12.9 220 
 BAR2 EZ I         158 27.30         4.2 0.26            172           12.9 220 
 BRR  HZ EP        158 12.98                             149   -0.0510 81.8 305 
 BRR  HE ES        158 30.43                             149    0.2410 81.8 305 
 PTB  HZ EP     C  158 18.06                             132   -0.31 9  150 264 
 PTB  HE ES        158 39.96                             132    0.26 9  150 264 
 PTB  HZ I         158 42.35         2.4 0.16            131            150 264 
 ZAR  HN ES        158 50.47                             121   -0.24 8  213 295 
 ZAR  HZ I         158 56.01         2.9 0.36            121            213 295 
                                                                                
