 2017  712 0547 59.0 L   6.816 -73.145151.0  RSN 14 0.4 2.0LRSN                1
 GAP=111        0.85       3.5     3.1  4.9  0.9326E+00  0.1868E+01  0.4848E+01E
 Epicentro: LOS SANTOS - SANTANDER                                             3
 ACTION:UPD 17-08-30 15:32 OP:rebc STATUS:               ID:20170712054759 L   I
 OLDACT:UP  17-07-12 14:19 OP:dnl  STATUS:               ID:20170712053741     3
 OLDACT:UP  17-07-12 14:19 OP:dnl  STATUS:               ID:20170712053741     3
 OLDACT:REG 17-07-12 12:38 OP:dnl  STATUS:               ID:20170712053741     3
 2017-07-12-0538-00M.COL___359                                                 6
 STAT SP IPHASW D HRMM SECON CODA AMPLIT PERI AZIMU VELO AIN AR TRES W  DIS CAZ7
 BAR2 EZ IP     D  548 19.08                             170   -0.2610 25.1 190 
 BAR2 EZ ES        548 34.67                             170   -0.5010 25.1 190 
 BAR2 EZ I         548 35.71        17.4 0.16            166           25.1 190 
 BRR  HZ IP     D  548 20.88                             154    0.1610 70.5 297 
 BRR  HN ES        548 37.95                             154    0.3210 70.5 297 
 BRR  HZ I         548 41.15        19.0 0.26            149           70.5 297 
 PAM  EZ IP     D  548 22.08                             152    0.3410 75.9  40 
 PAM  EN ES        548 39.28                             152   -0.1610 75.9  40 
 PAM  EZ I         548 42.04        10.3 0.54            158           75.9  40 
 PTB  HZ EP        548 25.85                             133   -0.64 9  148 258 
 PTB  HN ES   4    548 47.12                             133   -0.77 0  148 258 
 PTB  HZ I         548 52.06         7.6 0.42            130            148 258 
 SPBC HZ EP        548 28.07                             130   -0.02 9  165 219 
 SPBC HE ES        548 50.84                             130    0.10 9  165 219 
 SPBC HZ I         548 56.09        14.4 0.42            128            165 219 
 YPLC HZ EP        548 29.47                             128    0.10 9  178 152 
 YPLC HN ES        548 53.66                             128    0.64 9  178 152 
 YPLC HZ I         548 54.46        13.8 0.26            129            178 152 
 ZAR  HZ EP   2    548 31.68                             124   -0.10 4  203 292 
 ZAR  HN ES        548 57.65                             124    0.34 9  203 292 
 ZAR  HZ I         549  1.98         7.6 0.26            122            203 292 
 NOR  HZ EP        548 35.37                             119    0.17 8  236 234 
 NOR  HN ES   4    549  3.40                             119   -0.01 0  236 234 
 NOR  HZ I         549 10.95         6.5 0.16            118            236 234 
 ROSC BZ EP   9    548 38.36                             118    0.73 0  254 211 
 ROSC BN ES        549  8.95                                    0.50 8  254 211 
 ROSC BZ I         549 15.92         6.5 0.35            117            254 211 
 HEL  HZ EP   9    548 41.24                             116    1.65 0  273 255 
 HEL  HE ES        549 12.70                             116   -0.17 8  273 255 
 HEL  HZ I         549 17.86         5.0 0.44            115            273 255 
 GUY2CHZ EP   4    548 44.51                             113    1.48 0  302 235 
 GUY2CHN ES   4    549 21.45                             113    4.12 0  302 235 
 GUY2CHZ I         549 24.34         4.6 0.54                           302 235 
 PTGC HZ EP        548 42.66                             112   -0.66 7  310 159 
 PTGC HE ES   4    549 15.84                             112   -2.02 0  310 159 
 PTGC HZ I         549 16.96         6.4 0.28            113            310 159 
 CBOC HZ EP   2    548 46.76                             111    0.50 3  334 252 
 CBOC HN ES        549 22.95                             111   -0.13 7  334 252 
 CBOC HZ I         549 36.68         1.9 0.28            110            334 252 
 SJC  HZ EP   4    548 53.32                             107   -1.30 0  408 327 
 SJC  HN ES   4    549 33.29                             107   -4.67 0  408 327 
 SJC  HZ I         549 43.94         3.1 0.88            107            408 327 
                                                                                
