 2016 1212 0318 23.4 L   6.788 -73.141144.9  RSN  4 0.3 1.1LRSN                1
 GAP=237        0.82       6.5     6.3  6.6  0.2073E+02  0.3077E+01  0.1549E+00E
 Epicentro: LOS SANTOS - SANTANDER                                             3
 ACTION:UPD 17-01-11 20:14 OP:rebc STATUS:               ID:20161212031823 L   I
 OLDACT:REG 16-12-12 12:02 OP:edw  STATUS:               ID:20161212031743     3
 2016-12-12-0318-00M.COL___390                                                 6
 STAT SP IPHASW D HRMM SECON CODA AMPLIT PERI AZIMU VELO AIN AR TRES W  DIS CAZ7
 BAR2 EZ EP        318 42.49                             171   -0.4310 22.1 192 
 BAR2 EZ ES        318 58.22                             171    0.0910 22.1 192 
 BAR2 EZ I         318 58.42         3.4 0.38            169           22.1 192 
 BRR  HZ EP        318 44.29                             152   -0.2410 72.3 299 
 BRR  HN ES        319  1.27                             152    0.2610 72.3 299 
 RUS  HZ EP        318 47.14                             144    0.1610 99.2 176 
 RUS  HN ES        319  5.38                             144    0.0110 99.2 176 
 PTB  HZ EP        318 50.89                             132    0.56 9  148 259 
 PTB  HN ES        319 10.95                             132   -0.38 9  148 259 
 PTB  HZ I         319 12.88         1.1 0.09            131            148 259 
                                                                                
