 2010  112 0524 26.1 L   6.807 -73.558  9.0  RSN  5 0.4 1.9LRSN                1
 GAP=117        0.73       3.2     6.0 11.1 -0.1042E+02  0.5866E+02 -0.2232E+02E
 Epicentro: EL CARMEN DE CHUCURI - SANTANDER                                   3
 ACTION:UP  10-08-24 09:43 OP:vdl  STATUS:               ID:20100112052426 L   I
 2010-01-12-0522-35S.COL___097                                                 6
 STAT SP IPHASW D HRMM SECON CODA AMPLIT PERI AZIMU VELO SNR AR TRES W  DIS CAZ7
 BAR2 SZ IP        524 34.38                              97     0.210   48 120 
 BAR2 SZ ES   1    524 40.14                              97    -0.4 7   48 120 
 GIR2 SZ EP   1    524 34.45                              96     0.0 7   50  53 
 GIR2 SZ ES   1    524 40.63                              96    -0.4 7   50  53 
 RUS  BZ EP   2    524 44.83                              93     0.4 5  114 152 
 RUS  BE ES   2    524 59.09                              93     0.3 5  114 152 
 RUS  BZ I         524 59.25        16.9 0.22                           114 152 
 OCA  SZ EP   1    524 51.60                              56     0.5 7  161   9 
 OCA  SZ ES   1    525 10.80                              56     0.1 7  161   9 
 OCA  SZ I         525 13.82        31.0 0.18                           161   9 
 HEL  HZ EP   2    525  0.17                              56     0.3 4  228 253 
 HEL  HN ES   1    525 25.59                              56    -0.7 6  228 253 
 HEL  HZ I         525 32.38         4.7 0.33                           228 253 
                                                                                
