 2013 1112 0221 56.7 L   6.848 -73.173141.2  RSN 12 0.3 1.8LRSN                1
 GAP=131        0.73       2.5     4.1  4.9 -0.4016E+01  0.8700E+01 -0.1959E+01E
 Epicentro: ZAPATOCA - SANTANDER                                               3
 ACTION:UPD 14-01-09 16:27 OP:ep   STATUS:               ID:20131112022156 L   I
 OLDACT:REG 13-11-12 08:51 OP:nd   STATUS:               ID:20131112022000     3
 2013-11-12-0220-00M.COL___273                                                 6
 STAT SP IPHASW D HRMM SECON CODA AMPLIT PERI AZIMU VELO AIN AR TRES W  DIS CAZ7
 BAR2 SZ EP        222 15.81                             168   -0.0910 28.3 182 
 BAR2 SZ ES        222 31.03                             168    0.1610 28.3 182 
 BAR2 SZ I         222 32.31        17.0 0.24            168           28.3 182 
 BRR  HZ EP        222 17.62                             153    0.5510 66.1 296 
 BRR  HN ES   2    222 32.79                             153   -0.17 5 66.1 296 
 BRR  HZ I         222 38.27        11.6 0.30            149           66.1 296 
 PAM  SZ EP        222 18.28                             151   -0.0310 75.4  44 
 PAM  SN ES        222 35.20                             151    0.0310 75.4  44 
 PAM  SZ I         222 37.63        13.6 0.56            157           75.4  44 
 RUS  HZ EP        222 19.95                             142   -0.4710  106 175 
 RUS  HN ES        222 38.73                             142   -0.1910  106 175 
 RUS  HZ I         222 40.49         4.6 0.26            146            106 175 
 PTB  HZ EP        222 23.47                             131    0.34 9  146 257 
 PTB  HN ES   2    222 43.21                             131   -0.55 5  146 257 
 PTB  HZ I         222 46.10         8.8 0.32            131            146 257 
 OCA  HZ EP        222 24.46                             130    0.34 9  155 354 
 OCA  HN ES        222 45.35                             130   -0.17 9  155 354 
 OCA  HZ I         222 48.71         7.6 0.24            132            155 354 
 SPBC HZ EP        222 24.85                             128   -0.23 9  166 217 
 SPBC HN ES        222 47.21                             128   -0.01 9  166 217 
 SPBC HZ I         222 53.31        10.1 0.28            130            166 217 
 ZAR  HZ EP   4    222 29.24                             122    0.88 0  199 291 
 ZAR  HN ES   4    222 53.47                             122    0.42 0  199 291 
 ZAR  HZ I         223  1.39         5.8 0.30            123            199 291 
 NOR  HZ EP        222 32.20                             117   -0.05 8  235 233 
 NOR  HN ES        223  0.33                             117    0.35 8  235 233 
 NOR  HZ I         223  6.15         6.3 0.18            119            235 233 
 SML  HZ EP   2    222 31.83                             117   -0.58 4  238 335 
 SML  HN ES   2    222 59.26                             117   -1.00 4  238 335 
 SML  HZ I         223  2.59         9.7 0.26            119            238 335 
 GUY2CHZ EP   4    222 41.01                             111    0.83 0  302 234 
 GUY2CHN ES   4    223 16.45                             111    2.36 0  302 234 
 GUY2CHZ I         223 24.29         3.3 0.32                           302 234 
 SJC  HZ EP   4    222 50.08                             105   -1.31 0  403 327 
 SJC  HN ES   4    223 30.18                             105   -3.88 0  403 327 
 SJC  HZ I         223 35.32         2.4 0.52            107            403 327 
                                                                                
