 2013 1212 0427 36.3 L   6.759 -73.132148.2  RSN  5 0.5 1.4LRSN                1
 GAP=236        1.18       7.0     7.6  8.6  0.1166E+02  0.7688E+01  0.4816E+01E
 Epicentro: LOS SANTOS - SANTANDER                                             3
 ACTION:UPD 14-01-13 10:17 OP:ep   STATUS:               ID:20131212042736 L   I
 OLDACT:DUP 13-12-12 10:24 OP:jn   STATUS:               ID:20131212042001d    3
 2013-12-12-0420-00M.COL___285                                                 6
 STAT SP IPHASW D HRMM SECON CODA AMPLIT PERI AZIMU VELO AIN AR TRES W  DIS CAZ7
 BAR2 SZ EP        427 56.17                             172   -0.0010 19.3 197 
 BAR2 SZ ES        428 10.90                             172   -0.7610 19.3 197 
 BAR2 SZ I         428 13.97         7.2 0.18            165           19.3 197 
 BRR  HZ EP        427 57.98                             152    0.0410 74.8 301 
 BRR  HN ES        428 15.63                             152    0.8310 74.8 301 
 BRR  HZ I         428 17.19         3.3 0.30            149           74.8 301 
 RUS  HZ EP        428  0.11                             146    0.1210 96.0 177 
 RUS  HN ES        428 18.63                             146    0.1810 96.0 177 
 RUS  HZ I         428 20.01         1.5 0.22            144           96.0 177 
 PTB  HZ EP        428  3.12                             132   -0.43 9  148 261 
 PTB  HN ES        428 24.22                             132   -0.58 9  148 261 
 PTB  HZ I         428 31.07         2.9 0.18            130            148 261 
 SPBC HZ EP        428  4.89                             130    0.11 9  161 220 
 SPBC HN ES        428 27.42                             130    0.45 9  161 220 
 SPBC HZ I         428 34.07         5.6 0.22            128            161 220 
                                                                                
