 2011  112 0223 47.5 L   6.755 -73.106144.6  RSN 10 0.4 2.0LRSN                1
 GAP=163        0.85       3.7     7.8  8.0 -0.1454E+02  0.2555E+02 -0.3735E+01E
 Epicentro: LOS SANTOS - SANTANDER                                             3
 ACTION:UP  11-02-08 08:40 OP:pat  STATUS:               ID:20110112022347 L   I
 2011-01-12-0222-00S.COL___136                                                 6
 STAT SP IPHASW D HRMM SECON CODA AMPLIT PERI AZIMU VELO SNR AR TRES W  DIS CAZ7
 BAR2 SZ EP        224  6.95                             172     0.010   20 205 
 BAR2 SZ ES   1    224 21.79                             172    -0.3 7   20 205 
 BAR2 SZ I         224 23.57        19.1 0.24                            20 205 
 BTL  SZ EP        224  7.04                             170     0.010   25 315 
 GIR2 SZ EP   1    224  8.15                             165     0.9 7   37 345 
 RUS  HZ EP   1    224 10.76                             145     0.0 7   95 178 
 RUS  HN ES   1    224 28.94                             145     0.0 7   95 178 
 RUS  HZ I         224 30.90         9.9 0.26                            95 178 
 GRA  SZ EP   1    224 12.73                             136    -0.2 7  129  15 
 GRA  SZ ES   1    224 32.55                             136    -0.3 7  129  15 
 GRA  SZ I         224 38.12         7.1 0.37                           129  15 
 OCA  SZ EP   1    224 15.63                             128    -0.6 7  166 352 
 OCA  SZ ES   1    224 39.24                             128     0.6 7  166 352 
 OCA  SZ I         224 43.01        17.8 0.29                           166 352 
 NOR  SZ EP   1    224 22.97                             118    -0.3 6  236 236 
 NOR  SN ES   1    224 50.81                             118    -0.4 6  236 236 
 CHI  HZ EP   1    224 24.89                             117     0.1 6  245 196 
 CHI  HE ES   1    224 54.05                             117     0.2 6  245 196 
 CHI  HZ I         225  0.00         6.0 0.30                           245 196 
 HEL  HZ EP   2    224 28.18                             114     0.2 4  275 257 
 HEL  HZ I         225  6.71         5.5 0.28                           275 257 
 RREF HE ES   1    225  9.84                             111     0.2 5  322 231 
 RREF HZ I         225 15.41         6.1 0.20                           322 231 
                                                                                
