 2011  912 0335 31.0 L   6.848 -73.005143.9  RSN  6 0.2 1.6LRSN                1
 GAP=197        0.38       3.5     5.7  6.0  0.9079E+01 -0.5773E+01 -0.6882E+01E
 Epicentro: CEPITA - SANTANDER                                                 3
 ACTION:UPD 12-07-13 15:57 OP:ep   STATUS:               ID:20110912033531 L   I
 2011-09-12-0332-24S.COL___168                                                 6
 STAT SP IPHASW D HRMM SECON CODA AMPLIT PERI AZIMU VELO AIN AR TRES W  DIS CAZ7
 GIR2 SZ EP   3    335 50.76                             166    0.24 2 33.0 321 
 BAR2 SZ EP   1    335 50.79                             166    0.08 7 34.4 215 
 BAR2 SZ I         335 51.16         9.4 0.40                          34.4 215 
 BAR2 SZ ES   2    336  6.35                             166    0.29 5 34.4 215 
 BRR  HZ IP     D  335 52.54                             148   -0.1610 83.2 290 
 BRR  HZ I         335 52.72        11.8 0.15                          83.2 290 
 BRR  HN ES   2    336  9.42                             148   -0.19 5 83.2 290 
 RUS  HZ EP   2    335 54.99                             142    0.00 5  106 185 
 RUS  HN ES   2    336 13.57                             142   -0.12 5  106 185 
 RUS  HZ I         336 15.07         3.1 0.27                           106 185 
 OCA  SZ EP   2    335 59.33                             130    0.38 5  158 347 
 OCA  SZ ES   2    336 20.56                             130   -0.17 5  158 347 
 OCA  SZ I         336 25.42         5.2 0.32                           158 347 
 ZAR  HN ES   2    336 31.29                             120    0.37 4  217 289 
 ZAR  HZ I         336 33.67         4.8 0.35                           217 289 
                                                                                
