 2015  612 0555 54.6 L   6.779 -73.113149.3  RSN  4 0.3 1.2LRSN                1
 GAP=262        0.71       4.9     6.5  7.6  0.7156E+01  0.8196E+01  0.5254E+01E
 Epicentro: LOS SANTOS - SANTANDER                                             3
 ACTION:UPD 15-09-10 22:11 OP:cam  STATUS:               ID:20150612055554 L   I
 OLDACT:DUP 15-06-12 18:47 OP:spq  STATUS:               ID:20150612054751d    3
 2015-06-12-0547-50M.COL___294                                                 6
 STAT SP IPHASW D HRMM SECON CODA AMPLIT PERI AZIMU VELO AIN AR TRES W  DIS CAZ7
 BAR2 EZ EP   1    556 14.38                             171   -0.22 7 22.0 200 
 BAR2 EZ ES   1    556 29.80                             171   -0.43 7 22.0 200 
 BAR2 EZ I         556 32.09         2.7 0.26            165           22.0 200 
 BRR  HZ EP        556 16.46                             152    0.1210 75.4 299 
 BRR  HN ES        556 33.74                             152    0.4110 75.4 299 
 BRR  HZ I         556 40.86         2.1 0.36            149           75.4 299 
 SPBC HZ EP   1    556 23.57                             130    0.18 7  164 220 
 SPBC HN ES        556 45.95                             130    0.08 9  164 220 
 SPBC HZ I         556 52.88         2.4 0.30            130            164 220 
 ZAR  HN ES        556 53.06                             123   -0.44 8  208 292 
 ZAR  HZ I         556 58.75         1.4 0.30            124            208 292 
                                                                                
