 2016  912 0255 20.5 L   6.807 -73.143148.0  RSN 12 0.6 1.8LRSN                1
 GAP=136        1.32       4.2     5.1  6.9 -0.4559E+01  0.1071E+02  0.2037E+01E
 Epicentro: LOS SANTOS - SANTANDER                                             3
 ACTION:UPD 17-08-17 21:09 OP:lp   STATUS:               ID:20160912025520 L   I
 OLDACT:UP  16-09-12 17:45 OP:ar   STATUS:               ID:20160912024744     3
 OLDACT:REG 16-09-12 15:09 OP:and  STATUS:               ID:20160912024744     3
 2016-09-12-0248-00M.COL___303                                                 6
 STAT SP IPHASW D HRMM SECON CODA AMPLIT PERI AZIMU VELO AIN AR TRES W  DIS CAZ7
 BAR2 EZ EP        255 40.05                             170   -0.3210 24.2 190 
 BAR2 EZ ES        255 55.83                             170   -0.0710 24.2 190 
 BAR2 EZ I         255 57.14        12.3 0.14            169           24.2 190 
 BRR  HZ EP     D  255 41.92                             153    0.0810 71.1 298 
 BRR  HN ES        255 59.47                             153    0.9510 71.1 298 
 BRR  HZ I         256  3.78         9.3 0.30            152           71.1 298 
 PAM  EZ EP        255 42.82                             152   -0.0410 76.6  40 
 PAM  EN ES        256  0.64                             152    0.3010 76.6  40 
 PAM  EZ I         256  1.19         7.3 0.16            156           76.6  40 
 RUS  HZ EP        255 43.90                             144   -0.5810  101 176 
 RUS  HN ES        256  3.32                             144    0.1010  101 176 
 RUS  HZ I         256  5.25         4.2 0.48            146            101 176 
 PTB  HZ EP        255 46.98                             133   -0.66 9  148 259 
 PTB  HN ES        256  8.19                             133   -0.66 9  148 259 
 PTB  HZ I         256 10.17        10.8 0.38            133            148 259 
 OCA  HZ EP        255 49.43                             130    0.56 9  160 353 
 OCA  HE ES        256 10.45                             130   -0.58 9  160 353 
 OCA  HZ I         256 15.53        10.2 0.20            133            160 353 
 SPBC HZ EP        255 48.93                             130   -0.27 9  164 219 
 SPBC HN ES        256 11.49                             130   -0.13 9  164 219 
 SPBC HZ I         256 18.06        14.8 0.34            130            164 219 
 ZAR  HZ EP        255 52.43                             123   -0.61 9  204 292 
 ZAR  HN ES        256 18.63                             123    0.17 9  204 292 
 ZAR  HZ I         256 25.17        10.9 0.28            124            204 292 
 NOR  HZ EP        255 55.84                             119   -0.55 8  235 234 
 NOR  HN ES        256 25.07                             119    0.66 8  235 234 
 NOR  HZ I         256 25.87         5.4 0.26            120            235 234 
 ROSC BZ EP        255 59.88                             117    1.09 8  254 211 
 ROSC BN ES   4    256 32.05                             117    3.37 0  254 211 
 ROSC BZ I         256 37.61         7.8 0.40            119            254 211 
 GUY2CHZ EP        256  5.19                             113    0.95 7  302 235 
 GUY2CHN ES   4    256 39.58                             113    1.18 0  302 235 
 GUY2CHZ I         256 49.35         4.7 0.70                           302 235 
 CBOC HZ EP        256  8.32                             110    0.80 7  334 252 
 CBOC HN ES        256 43.85                             110   -0.38 7  334 252 
 CBOC HZ I         256 49.24         1.6 0.40            112            334 252 
                                                                                
