 2011  612 0256 33.9 L   5.928 -73.779108.6  RSN  9 0.3 2.1LRSN                1
 GAP=112        0.77       3.0     4.2  7.2 -0.5814E+01  0.8922E+01 -0.2173E+01E
 Epicentro: GUAVATA - SANTANDER                                                3
 ACTION:UP  11-07-14 19:04 OP:ep   STATUS:               ID:20110612025633 L   I
 2011-06-12-0254-01S.COL___132                                                 6
 STAT SP IPHASW D HRMM SECON CODA AMPLIT PERI AZIMU VELO SNR AR TRES W  DIS CAZ7
 RUS  HZ EP   1    256 52.18                             142    -0.1 7   77  93 
 RUS  HZ I         256 52.58        10.5 0.12                            77  93 
 RUS  HN ES   1    257  6.99                             142     0.4 7   77  93 
 BAR2 SZ EP        256 53.74                             135     0.110   99  42 
 BAR2 SZ ES   1    257  9.14                             135     0.0 7   99  42 
 BAR2 SZ I         257 10.91       123.7 0.44                            99  42 
 NOR  SZ EP   1    256 56.33                             126     0.3 7  127 252 
 NOR  SN ES   1    257 13.60                             126     0.2 7  127 252 
 BRR  HZ EP   1    256 55.58                             126    -0.7 7  131   3 
 BRR  HN ES   1    257 13.55                             126    -0.3 7  131   3 
 BRR  HZ I         257 17.02        18.2 0.14                           131   3 
 CHI  HZ EP   1    256 58.09                             123    -0.1 7  144 178 
 CHI  HN ES   1    257 16.76                             123    -0.4 7  144 178 
 CHI  HZ I         257 24.63         7.7 0.38                           144 178 
 BRI  SZ EP   1    257  7.24                             110     0.4 6  226  29 
 BRI  SZ I         257 38.61         7.2 0.36                           226  29 
 GRA  SZ EP   1    257  8.47                             109    -0.2 6  242  26 
 GRA  SZ I         257 40.55        14.9 0.30                           242  26 
 OCA  SZ EP   1    257 11.53                             107     0.7 6  261  11 
 OCA  SZ I         257 46.82         9.3 0.38                           261  11 
 PRA  HZ EP   1    257 12.19                             106    -0.1 6  274 207 
 PRA  HE ES   1    257 42.43                             106     0.2 6  274 207 
                                                                                
