 2017  412 0316 10.7 L   5.775 -73.906104.0  RSN 16 0.5 1.9LRSN                1
 GAP= 68        1.19       3.3     2.5  6.0 -0.3680E+00  0.2109E+01 -0.2458E+01E
 Epicentro: ALBANIA - SANTANDER                                                3
 ACTION:UPD 17-05-30 21:11 OP:jn   STATUS:               ID:20170412031610 L   I
 OLDACT:UP  17-04-12 17:13 OP:edw  STATUS:               ID:20170412030749     3
 OLDACT:UP  17-04-12 17:10 OP:edw  STATUS:               ID:20170412030749     3
 OLDACT:REG 17-04-12 13:02 OP:edw  STATUS:               ID:20170412030749     3
 2017-04-12-0308-00M.COL___368                                                 6
 STAT SP IPHASW D HRMM SECON CODA AMPLIT PERI AZIMU VELO AIN AR TRES W  DIS CAZ7
 SPBC HZ EP        316 25.03                             167   -0.0710 22.9 234 
 SPBC HN ES        316 36.74                             167    0.4010 22.9 234 
 SPBC HZ I         316 37.65        70.0 0.20            167           22.9 234 
 RUS  HZ IP     D  316 29.67                             135   -0.2110 92.0  82 
 RUS  HN ES        316 44.60                             135   -0.2310 92.0  82 
 PTB  HZ EP        316 29.47                             131   -0.8410  104 324 
 PTB  HN ES        316 44.71                             131   -0.9010  104 324 
 PTB  HZ I         316 50.64        14.6 0.10            133            104 324 
 NOR  HZ EP        316 30.30                             130   -0.5310  109 258 
 NOR  HN ES        316 47.03                             130    0.4910  109 258 
 NOR  HZ I         316 48.40        33.0 0.40            131            109 258 
 ROSC BZ EP        316 32.09                             129    0.4410  113 204 
 ROSC BE ES   4    316 50.82                             129    2.82 0  113 204 
 ROSC BZ I         316 52.69        10.2 0.40            131            113 204 
 BAR2 EZ EP        316 32.47                             127    0.2910  121  41 
 BAR2 EZ ES        316 49.37                             127    0.4410  121  41 
 BAR2 EZ I         316 51.06        22.3 0.44            129            121  41 
 CHI  HZ EP   9    316 32.28                             125   -0.86 0  128 171 
 CHI  HE ES        316 49.29                             128   -0.5010  128 171 
 CHI  HZ I         316 54.41         9.7 0.30            127            128 171 
 BRR  HZ IP     D  316 34.98                             120    0.25 9  149   8 
 BRR  HN ES   4    316 55.05                             120    1.57 0  149   8 
 BRR  HZ I         316 57.79        28.5 0.16            122            149   8 
 YPLC HZ EP        316 37.74                             116    0.19 9  174 104 
 YPLC HN ES        316 58.82                             116    0.32 9  174 104 
 YPLC HZ I         317  3.24        13.3 0.68            118            174 104 
 HEL  HZ EP        316 39.47                             114    0.28 9  186 284 
 HEL  HE ES        317  1.50                             114    0.08 9  186 284 
 HEL  HZ I         317  3.55         4.2 0.24            116            186 284 
 ZAR  HZ EP        316 41.56                             110   -0.76 8  217 331 
 ZAR  HN ES        317  7.33                             110    0.35 8  217 331 
 ZAR  HZ I         317 11.25        10.4 0.14            112            217 331 
 PAM  EZ EP   4    316 41.01                             110   -2.06 0  218  38 
 PAM  EE ES        317  8.03                             110   -0.29 8  218  38 
 CBOC HZ EP        316 44.69                             108    0.28 8  234 273 
 CBOC HE ES   4    317 11.73                             108    1.03 0  234 273 
 PRA  HZ EP   4    316 43.90                             106   -2.56 0  253 206 
 PRA  HE ES        317 13.55                             106   -0.81 8  253 206 
 PRA  HZ I         317 17.35         4.3 0.30            108            253 206 
 URE  HZ EP   9    316 48.30                             104   -1.73 0  283 321 
 URE  HE ES        317 19.22                             106    0.24 7  283 321 
 URE  HZ I         317 23.12         9.4 0.14            106            283 321 
 DBB  EZ EP        316 51.32                             103    0.44 7  290 298 
 DBB  EE ES        317 23.03                             103    0.81 7  290 298 
 DBB  EZ I         317 26.12         3.0 0.14            105            290 298 
                                                                                
