 2013 1212 0746 27.5 L   6.824 -73.155141.5  RSN  7 0.5 1.3LRSN                1
 GAP=182        1.25       4.9     8.0  9.6  0.6317E+01  0.7595E+01 -0.1452E+02E
 Epicentro: LOS SANTOS - SANTANDER                                             3
 ACTION:UPD 14-01-13 10:17 OP:ep   STATUS:               ID:20131212074627 L   I
 OLDACT:REG 13-12-12 07:09 OP:jn   STATUS:               ID:20131212074000     3
 2013-12-12-0740-00M.COL___285                                                 6
 STAT SP IPHASW D HRMM SECON CODA AMPLIT PERI AZIMU VELO AIN AR TRES W  DIS CAZ7
 BAR2 SZ EP        746 46.85                             169    0.2310 25.8 187 
 BAR2 SZ ES        747  0.98                             169   -0.5910 25.8 187 
 BAR2 SZ I         747  3.03         6.3 0.20            171           25.8 187 
 BRR  HZ EP        746 48.71                             152    0.7010 69.0 297 
 BRR  HN ES   1    747  5.21                             152    1.16 7 69.0 297 
 BRR  HZ I         747  9.87         4.1 0.46            153           69.0 297 
 RUS  HZ EP        746 51.59                             142    0.6110  103 176 
 RUS  HN ES        747  8.99                             142   -0.3510  103 176 
 RUS  HZ I         747 11.99         2.1 0.36            147            103 176 
 PTB  HZ EP        746 53.58                             131   -0.45 9  147 258 
 PTB  HN ES        747 14.63                             131   -0.12 9  147 258 
 PTB  HZ I         747 16.93         2.8 0.14            134            147 258 
 OCA  HN ES   1    747 16.18                             129   -0.61 7  158 353 
 OCA  HZ I         747 22.37         3.8 0.30            132            158 353 
 SPBC HN ES   1    747 17.55                             127   -0.29 7  165 218 
 SPBC HZ I         747 22.30         2.7 0.26            131            165 218 
 SML  HZ EP        747  3.27                             116   -0.26 8  241 335 
 SML  HN ES        747 31.41                             116   -0.26 8  241 335 
                                                                                
