 2017  112 0059 35.9 L   6.775 -73.157144.9  RSN 11 0.5 1.5LRSN                1
 GAP= 98        1.13       4.0     3.9  6.3  0.1515E+01  0.2993E+01  0.6437E+01E
 Epicentro: LOS SANTOS - SANTANDER                                             3
 ACTION:UPD 17-05-22 15:58 OP:jn   STATUS:               ID:20170112005935 L   I
 OLDACT:UP  17-01-12 21:29 OP:and  STATUS:               ID:20170112005745     3
 OLDACT:UP  17-01-12 21:26 OP:and  STATUS:               ID:20170112005745     3
 OLDACT:UP  17-01-12 21:26 OP:and  STATUS:               ID:20170112005745     3
 OLDACT:UP  17-01-12 21:24 OP:and  STATUS:               ID:20170112005745     3
 OLDACT:REG 17-01-12 20:02 OP:and  STATUS:               ID:20170112005745     3
 2017-01-12-0058-00M.COL___340                                                 6
 STAT SP IPHASW D HRMM SECON CODA AMPLIT PERI AZIMU VELO AIN AR TRES W  DIS CAZ7
 BAR2 EZ EP        059 55.19                             172   -0.1710 20.4 188 
 BAR2 EZ ES        1 0 10.58                             172    0.0310 20.4 188 
 BAR2 EZ I         1 0 12.73        10.0 0.23            170           20.4 188 
 BRR  HZ EP        059 56.97                             152    0.0110 71.5 301 
 BRR  HN ES        1 0 14.07                             152    0.6710 71.5 301 
 PAM  EZ IP     C  059 58.18                             150   -0.0110 80.3  39 
 PAM  EN ES        1 0 15.42                             150   -0.1610 80.3  39 
 PAM  EZ I         1 0 16.99         3.7 0.20            153           80.3  39 
 RUS  HZ EP        059 59.23                             144   -0.1410 97.9 175 
 RUS  HN ES        1 0 17.74                             144    0.0610 97.9 175 
 RUS  HZ I         1 0 20.68         3.3 0.36            145           97.9 175 
 PTB  HZ EP        1 0  1.83                             132   -0.80 9  146 260 
 PTB  HN ES        1 0 22.96                             132   -0.53 9  146 260 
 PTB  HZ I         1 0 24.68         4.4 0.12            132            146 260 
 TAM  HZ EP        1 0  4.15                             130    0.60 9  156 104 
 ZAR  HZ EP        1 0  8.98                             122    0.71 9  204 293 
 ZAR  HN ES        1 0 32.80                             122   -0.73 9  204 293 
 ZAR  HZ I         1 0 39.48         4.0 0.22            123            204 293 
 NOR  HZ EP        1 0 11.61                             119    0.32 8  232 235 
 NOR  HN ES        1 0 39.28                             119    0.37 8  232 235 
 NOR  HZ I         1 0 44.27         2.7 0.17            119            232 235 
 CHI  HZ EP        1 0 13.36                             117    0.14 8  246 195 
 CHI  HN ES        1 0 42.89                             117    0.55 8  246 195 
 CHI  HZ I         1 0 45.08         3.9 0.34            118            246 195 
 GUY2CHZ EP   3    1 0 20.54                             112    1.37 2  299 235 
 GUY2CHN ES   4    1 0 56.03                             112    3.10 0  299 235 
 GUY2CHZ I         1 1  3.01         1.6 0.22                           299 235 
 PTGC HZ EP   3    1 0 18.38                             112   -1.09 2  307 158 
 PTGC HN ES        1 0 52.40                             112   -1.06 7  307 158 
                                                                                
