 2011  412 0052 36.4 L   6.766 -73.145143.4  RSN 11 0.4 2.7LRSN                1
 GAP=154        0.80       5.0     7.1  5.9 -0.1809E+02  0.1825E+01  0.4313E+01E
 Epicentro: LOS SANTOS - SANTANDER                                             3
 ACTION:UP  11-06-22 15:30 OP:REBC STATUS:               ID:20110412005236 L   I
 2011-04-12-0049-09S.COL___139                                                 6
 STAT SP IPHASW D HRMM SECON CODA AMPLIT PERI AZIMU VELO SNR AR TRES W  DIS CAZ7
 BAR2 SZ IP        052 55.54                             172    -0.210   20 192 
 BAR2 SZ ES   1    053 10.57                             172    -0.2 7   20 192 
 BAR2 SZ I         053 12.06       127.0 0.17                            20 192 
 BTL  SZ EP   1    052 55.64                             171    -0.1 7   22 321 
 BTL  SZ ES   2    053 10.87                             171     0.1 5   22 321 
 BRR  HZ EP        052 57.43                             151     0.010   73 301 
 BRR  HN ES   1    053 14.02                             151     0.2 7   73 301 
 BRR  HZ I         053 18.42        71.9 0.10                            73 301 
 PAM  SZ EP   1    052 58.33                             149    -0.2 7   80  38 
 PAM  SN ES   2    053 15.24                             149    -0.6 5   80  38 
 GRA  SZ IP        053  2.36                             135     0.610  129  17 
 GRA  SZ ES   2    053 21.81                             135     0.3 5  129  17 
 GRA  SZ I         053 23.13        31.7 0.34                           129  17 
 OCA  SZ EP   1    053  4.32                             128    -0.6 7  164 353 
 NOR  SZ EP   1    053 11.64                             118    -0.1 6  233 235 
 NOR  SE ES   2    053 39.31                             118    -0.1 4  233 235 
 CHI  HZ EP   2    053 13.58                             117     0.0 4  245 195 
 CHI  HZ I         053 14.61        18.6 0.03                           245 195 
 CHI  HN ES   2    053 42.47                             117    -0.1 4  245 195 
 ROSC BZ EP   1    053 14.96                             116     0.9 6  250 211 
 ROSC BZ I         053 16.97        31.9 0.24                           250 211 
 DBB  SZ EP   2    053 22.77                             109    -1.1 3  340 275 
 PRA  HZ EP   2    053 29.11                             106    -0.4 3  389 210 
 PRA  HZ I         054 17.50        64.8 0.24                           389 210 
                                                                                
