 2016 1012 0145 19.4 L   6.783 -73.140145.6  RSN  8 0.4 1.7LRSN                1
 GAP=138        0.93       3.8     4.7  6.6 -0.4401E+01  0.1364E+01  0.9411E+01E
 Epicentro: LOS SANTOS - SANTANDER                                             3
 ACTION:UPD 16-11-09 19:18 OP:rebc STATUS:               ID:20161012014519 L   I
 OLDACT:UP  16-10-12 16:33 OP:ar   STATUS:               ID:20161012013745     3
 OLDACT:REG 16-10-12 14:00 OP:ar   STATUS:               ID:20161012013745     3
 2016-10-12-0138-00M.COL___372                                                 6
 STAT SP IPHASW D HRMM SECON CODA AMPLIT PERI AZIMU VELO AIN AR TRES W  DIS CAZ7
 BRR  HZ EP        145 40.65                             152    0.0210 72.7 300 
 BRR  HN ES        145 57.67                             152    0.4910 72.7 300 
 BRR  HZ I         145 58.23         8.4 0.12            152           72.7 300 
 PAM  EZ EP        145 41.83                             150    0.1510 78.4  38 
 PAM  EN ES        145 59.25                             150    0.2110 78.4  38 
 PAM  EZ I         145 59.58         6.6 0.28            156           78.4  38 
 RUS  HZ EP        145 42.81                             144   -0.2110 98.7 176 
 RUS  HN ES        146  0.85                             144   -0.5810 98.7 176 
 RUS  HZ I         146  2.67         5.2 0.40            145           98.7 176 
 PTB  HZ EP        145 45.71                             132   -0.69 9  148 260 
 PTB  HN ES        146  7.09                             132   -0.35 9  148 260 
 PTB  HZ I         146 13.75         4.9 0.44            132            148 260 
 SPBC HZ EP        145 47.99                             129    0.18 9  162 220 
 SPBC HE ES        146 10.04                             129    0.09 9  162 220 
 SPBC HZ I         146 16.69         8.0 0.22            129            162 220 
 CHI  HZ EP        145 57.00                             117    0.07 8  247 195 
 CHI  HN ES        146 26.51                             117    0.31 8  247 195 
 CHI  HZ I         146 31.60         3.0 0.30            118            247 195 
 GUY2CHZ EP   4    146  4.91                             112    1.95 0  301 235 
 GUY2CHN ES   4    146 39.30                             112    2.38 0  301 235 
 GUY2CHZ I         146 45.16         2.9 0.60                           301 235 
 PRA  HZ EP        146 12.89                             106    0.11 6  391 210 
 PRA  HE ES        146 55.37                             106    0.96 6  391 210 
                                                                                
