 2017  912 0313 43.7 L   6.774 -73.118136.0  RSN 18 0.5 2.0LRSN                1
 GAP=115        0.75       2.9     2.8  5.3 -0.5311E+00  0.3174E+01  0.6768E+01E
 Epicentro: LOS SANTOS - SANTANDER                                             3
 ACTION:UPD 17-10-05 19:11 OP:rebc STATUS:               ID:20170912031343 L   I
 OLDACT:UP  17-09-12 16:46 OP:mg   STATUS:               ID:20170912030742d    3
 OLDACT:DUP 17-09-12 16:36 OP:mg   STATUS:               ID:20170912030742d    3
 2017-09-12-0308-00M.COL___433                                                 6
 STAT SP IPHASW D HRMM SECON CODA AMPLIT PERI AZIMU VELO AIN AR TRES W  DIS CAZ7
 BAR2 EZ EP     D  314  1.90                             170   -0.2110 21.4 199 
 BAR2 EZ ES   2    314 15.81                             170   -0.67 5 21.4 199 
 BAR2 EZ I         314 18.07        31.4 0.18            166           21.4 199 
 BRR  HZ EP        314  3.73                             150   -0.3210 75.2 299 
 BRR  HN ES        314 20.56                             150    0.6410 75.2 299 
 BRR  HZ I         314 24.22        25.3 0.14            151           75.2 299 
 PAM  EZ EP        314  4.79                             150   -0.1210 77.7  36 
 PAM  EN ES        314 21.56                             150    0.1110 77.7  36 
 PAM  EZ I         314 23.64        39.0 0.44            157           77.7  36 
 RUS  HZ EP        314  5.97                             143   -0.3110 97.6 178 
 RUS  HN ES   1    314 24.54                             143    0.65 7 97.6 178 
 RUS  HZ I         314 26.18        14.8 0.34            143           97.6 178 
 SPBC HZ EP   1    314 11.30                             127   -0.14 7  163 220 
 SPBC HN ES   1    314 32.65                             127   -0.43 7  163 220 
 SPBC HZ I         314 39.28        17.5 0.16            128            163 220 
 YPLC HZ IP        314 12.48                             126    0.07 9  173 152 
 YPLC HN ES   3    314 36.31                             126    1.51 2  173 152 
 YPLC HZ I         314 39.01        14.0 0.30            128            173 152 
 ZAR  HZ EP   3    314 17.21                             120    1.27 2  208 293 
 ZAR  HN ES        314 41.06                             120   -0.03 8  208 293 
 ZAR  HZ I         314 45.73        11.4 0.23            123            208 293 
 NOR  HZ EP   1    314 18.84                             117   -0.14 6  236 235 
 NOR  HN ES        314 46.80                             117    0.31 8  236 235 
 NOR  HZ I         314 51.78         6.7 0.19            119            236 235 
 CHI  HZ EP   2    314 19.98                             116   -0.68 4  247 196 
 CHI  HN ES   1    314 49.44                             116   -0.06 6  247 196 
 CHI  HZ I         314 52.24         2.9 0.23            118            247 196 
 ROSC BZ EP   3    314 22.78                             115    1.57 2  252 212 
 ROSC BN ES   1    314 50.65                             115    0.18 6  252 212 
 ROSC BZ I         314 54.11         5.0 0.53            117            252 212 
 HEL  HN ES   1    314 54.24                             113   -0.64 6  274 257 
 HEL  HZ I         315  1.29         4.2 0.27            115            274 257 
 URE  HN ES   4    314 53.69                             112   -3.08 0  288 292 
 URE  HZ I         314 55.51         7.0 0.12            115            288 292 
 GUY2CHZ EP   3    314 28.41                             111    1.44 2  302 236 
 GUY2CHN ES   3    315  1.82                             111    1.09 2  302 236 
 GUY2CHZ I         315  7.52         3.6 0.39                           302 236 
 PTGC HZ EP   3    314 25.41                             110   -1.30 2  305 159 
 PTGC HN ES   4    314 57.99                             110   -2.26 0  305 159 
 PTGC HZ I         315  1.07         8.6 0.21            113            305 159 
 CBOC HZ EP   1    314 31.11                             108    0.65 5  336 253 
 CBOC HN ES        315  6.44                             108   -0.50 7  336 253 
 CBOC HZ I         315  9.81         1.7 0.26            111            336 253 
 PRA  HZ EP   1    314 36.68                             105   -0.11 4  391 210 
 PRA  HN ES   1    315 18.43                             105    0.23 4  391 210 
 PRA  HZ I         315 24.11         4.5 0.29            107            391 210 
 ORTC HZ EP   1    314 37.69                             105    0.44 4  395 217 
 ORTC HN ES   2    315 19.76                             105    0.75 3  395 217 
 ORTC HZ I         315 25.40         2.7 0.44            107            395 217 
 SJC  HZ EP   4    314 36.53                             104   -2.90 0  413 327 
 SJC  HN ES   4    315 18.12                             104   -4.79 0  413 327 
 SJC  HZ I         315 19.47         0.9 0.09            107            413 327 
                                                                                
