 2017  112 0611 38.7 L   6.045 -74.196  4.0  RSN 10 0.5 1.2LRSN                1
 GAP=128        1.14       2.6     2.4  6.6 -0.1965E+01  0.4774E+01  0.3305E+01E
 Epicentro: LA BELLEZA - SANTANDER                                             3
 ACTION:UPD 17-05-22 15:58 OP:jn   STATUS:               ID:20170112061138 L   I
 OLDACT:UP  17-01-13 09:27 OP:lv   STATUS:               ID:20170112060747     3
 OLDACT:REG 17-01-12 20:08 OP:and  STATUS:               ID:20170112060747     3
 2017-01-12-0608-00M.COL___340                                                 6
 STAT SP IPHASW D HRMM SECON CODA AMPLIT PERI AZIMU VELO AIN AR TRES W  DIS CAZ7
 PTB  HZ EP        611 48.46                              90   -0.2510 61.8 332 
 PTB  HN ES        611 56.19                              90   -0.3010 61.8 332 
 PTB  HZ I         611 56.51        30.3 0.07             47           61.8 332 
 NOR  HZ EP        611 53.27                              90   -0.0110 91.6 234 
 NOR  HN ES        612  4.14                              90   -0.4810 91.6 234 
 NOR  HZ I         612  4.68        19.0 0.12             47           91.6 234 
 RUS  HZ EP        611 58.94                              90    0.2510  124  98 
 RUS  HN ES        612 13.61                              90   -0.6310  124  98 
 RUS  HZ I         612 14.70         1.7 0.12             47            124  98 
 BAR2 EZ EP        611 59.28                              90    0.3910  127  62 
 BRR  HZ EP        611 58.83                              90   -0.0610  129  24 
 BRR  HE ES        612 14.58                              90   -0.0210  129  24 
 BRR  HZ I         612 15.79         4.6 0.14             47            129  24 
 GUY2CHZ EP        612  4.38                              90    0.59 9  158 235 
 GUY2CHN ES        612 22.49                              90   -0.84 9  158 235 
 GUY2CHZ I         612 24.03         2.9 0.26                           158 235 
 CHI  HZ EP   4    612  6.22                              90    1.49 0  165 162 
 CHI  HN ES   4    612 28.02                              90    3.01 0  165 162 
 CHI  HZ I         612 30.63         1.7 0.27             47            165 162 
 ZAR  HE ES   4    612 23.91                              56   -3.36 0  176 335 
 ZAR  HZ I         612 26.76         3.6 0.10             47            176 335 
 ELA  HZ EP        612  8.65                              56    0.63 9  187 226 
 ELA  HN ES        612 30.95                              56    0.10 9  187 226 
 ELA  HZ I         612 33.54         3.4 0.43             37            187 226 
 CBOC HZ EP        612 10.26                              56    0.79 9  202 264 
 CBOC HN ES        612 33.69                              56    0.25 9  202 264 
 CBOC HZ I         612 35.87         0.9 0.16             37            202 264 
                                                                                
