 2015  312 0452 27.2 L   6.810 -73.146144.8  RSN 13 0.5 2.2LRSN                1
 GAP=136        1.12       3.0     5.0  5.9 -0.2545E+01  0.9415E+01  0.8905E+00E
 Epicentro: LOS SANTOS - SANTANDER                                             3
 ACTION:UPD 15-04-30 16:25 OP:nd   STATUS:               ID:20150312045227 L   I
 OLDACT:UP  15-03-12 15:19 OP:cam  STATUS:               ID:20150312044747     3
 OLDACT:REG 15-03-12 13:22 OP:cam  STATUS:               ID:20150312044747     3
 2015-03-12-0447-47M.COL___284                                                 6
 STAT SP IPHASW D HRMM SECON CODA AMPLIT PERI AZIMU VELO AIN AR TRES W  DIS CAZ7
 BAR2 EZ EP        452 46.79                             170    0.0610 24.4 190 
 BAR2 EZ ES        453  1.71                             170   -0.2610 24.4 190 
 BAR2 EZ I         453  2.65        39.9 0.26            166           24.4 190 
 BRR  HZ IP     C  452 48.50                             153    0.2910 70.7 298 
 BRR  HN ES        453  5.35                             153    0.7410 70.7 298 
 BRR  HZ I         453  9.24        33.8 0.30            148           70.7 298 
 PAM  SZ EP     C  452 49.45                             151    0.1910 76.5  40 
 PAM  SN ES        453  6.74                             151    0.2710 76.5  40 
 PAM  SZ I         453  8.68        23.8 0.48            157           76.5  40 
 RUS  HZ EP        452 50.79                             143   -0.1410  102 176 
 RUS  HE ES        453  9.02                             143   -0.4210  102 176 
 PTB  HZ EP   4    452 53.08                             132   -1.02 0  148 258 
 PTB  HN ES   4    453 13.84                             132   -1.25 0  148 258 
 PTB  HZ I         453 19.65        15.4 0.26            130            148 258 
 OCA  HZ EP        452 54.81                             130   -0.52 9  159 353 
 OCA  HN ES        453 17.32                             130    0.05 9  159 353 
 OCA  HZ I         453 21.07        26.8 0.18            131            159 353 
 SPBC HZ EP        452 55.78                             129    0.08 9  164 219 
 SPBC HN ES        453 17.86                             129   -0.07 9  164 219 
 SPBC HZ I         453 25.58        15.5 0.30            128            164 219 
 ZAR  HZ EP   4    453  0.86                             122    1.33 0  204 292 
 ZAR  HN ES        453 24.79                             122    0.03 9  204 292 
 ZAR  HN I         453 32.95        27.7 0.26            122            204 292 
 NOR  HZ EP        453  3.32                             118    0.39 8  235 234 
 NOR  HN ES        453 29.85                             118   -0.96 8  235 234 
 NOR  HZ I         453 37.15         8.8 0.52            118            235 234 
 SML  HZ EP        453  2.89                             117   -0.77 8  243 335 
 SML  HN ES        453 31.51                             117   -0.59 8  243 335 
 SML  HZ I         453 33.29        18.6 0.10            119            243 335 
 ROSC BN ES   4    453 37.13                             116    2.00 0  254 211 
 GUY2CHZ EP        453 11.79                             112    0.96 7  302 235 
 GUY2CHZ I         453 55.72         6.5 0.52                           302 235 
 TOL  SZ EP        453 16.54                             109    1.04 7  344 225 
 TOL  SE ES   4    453 55.41                             109    2.23 0  344 225 
 TOL  SZ I         454  5.45         5.0 0.66            110            344 225 
 PRA  HZ EP        453 20.87                             106    0.08 6  393 209 
 PRA  HN ES        454  2.36                             106   -0.24 6  393 209 
 PRA  HZ I         454  7.96         8.6 0.28            107            393 209 
                                                                                
