 2017  312 0146 52.0 L   6.776 -73.140143.4  RSN  6 0.3 1.6LRSN                1
 GAP=138        0.90       4.2     4.5  6.2 -0.4671E+01  0.3883E+01  0.2814E+01E
 Epicentro: LOS SANTOS - SANTANDER                                             3
 ACTION:UPD 17-05-25 18:39 OP:jn   STATUS:               ID:20170312014652 L   I
 OLDACT:REG 17-03-12 13:06 OP:ar   STATUS:               ID:20170312013744     3
 2017-03-12-0138-00M.COL___400                                                 6
 STAT SP IPHASW D HRMM SECON CODA AMPLIT PERI AZIMU VELO AIN AR TRES W  DIS CAZ7
 BAR2 EZ EP        147 10.89                             171   -0.4110 20.8 193 
 BAR2 EZ ES        147 26.16                             171   -0.1910 20.8 193 
 BAR2 EZ I         147 27.01         9.6 0.18            169           20.8 193 
 BRR  HZ EP        147 13.17                             151    0.1710 73.1 300 
 BRR  HN ES        147 29.79                             151    0.4110 73.1 300 
 PAM  EZ EP        147 14.15                             150    0.0810 79.1  38 
 PAM  EN ES        147 31.28                             150    0.0010 79.1  38 
 PAM  EZ I         147 32.73        12.2 0.50            153           79.1  38 
 RUS  HZ EP        147 15.83                             144    0.5110 97.9 176 
 RUS  HN ES        147 33.22                             144   -0.2910 97.9 176 
 RUS  HZ I         147 35.37         5.6 0.26            143           97.9 176 
 PTB  HZ EP        147 18.28                             131   -0.50 9  148 260 
 PTB  HE ES        147 39.32                             131   -0.36 9  148 260 
 PTB  HZ I         147 40.23         2.3 0.16            132            148 260 
 SPBC HZ EP        147 20.16                             129    0.00 9  162 220 
 SPBC HN ES        147 42.66                             129    0.54 9  162 220 
 SPBC HZ I         147 49.19         5.4 0.14            129            162 220 
                                                                                
