 2017  612 0745 42.8 L   5.894 -73.948110.0  RSN  5 0.4 1.2LRSN                1
 GAP=196        0.76       4.1     6.7  7.5  0.4426E+01 -0.9028E+01 -0.1476E+02E
 Epicentro: LA BELLEZA - SANTANDER                                             3
 ACTION:UPD 17-09-14 16:51 OP:jn   STATUS:               ID:20170612074542 L   I
 OLDACT:UP  17-06-12 15:21 OP:dani STATUS:               ID:20170612073746d    3
 OLDACT:DUP 17-06-12 15:19 OP:dani STATUS:               ID:20170612073746d    3
 OLDACT:UP  17-06-12 15:18 OP:dani STATUS:               ID:20170612073745     3
 OLDACT:UP  17-06-12 15:18 OP:dani STATUS:               ID:20170612073745     3
 OLDACT:UP  17-06-12 15:17 OP:dani STATUS:               ID:20170612073745     3
 OLDACT:UP  17-06-12 15:17 OP:dani STATUS:               ID:20170612073745     3
 OLDACT:REG 17-06-12 13:03 OP:dani STATUS:               ID:20170612073745     3
 2017-06-12-0738-00M.COL___347                                                 6
 STAT SP IPHASW D HRMM SECON CODA AMPLIT PERI AZIMU VELO AIN AR TRES W  DIS CAZ7
 SPBC HZ EP        745 58.25                             165    0.1010 30.1 207 
 SPBC HN ES        746 10.23                             165    0.1210 30.1 207 
 SPBC HZ I         746 11.62        10.1 0.26             47           30.1 207 
 PTB  HZ EP        746  1.30                             138   -0.4710 90.9 322 
 PTB  HE ES        746 16.69                             138    0.1310 90.9 322 
 PTB  HZ I         746 20.29         2.1 0.09             47           90.9 322 
 BRR  HZ EP        746  5.72                             126   -0.26 9  137  11 
 BRR  HE ES        746 24.34                             126    0.28 9  137  11 
 BRR  HZ I         746 26.88         2.5 0.11             47            137  11 
 HEL  HZ EP   3    746 12.88                             118    2.07 2  178 281 
 HEL  HZ I         746 40.27         1.7 0.62             37            178 281 
 ZAR  HN ES        746 36.80                             114    0.01 9  203 330 
                                                                                
