 2016 1212 0528 39.7 L   6.767 -73.156145.3  RSN  7 0.3 1.8LRSN                1
 GAP= 97        0.81       4.0     2.7  5.0  0.2310E+01  0.1143E+01 -0.5218E+00E
 Epicentro: LOS SANTOS - SANTANDER                                             3
 ACTION:UPD 17-01-11 20:14 OP:rebc STATUS:               ID:20161212052839 L   I
 OLDACT:REG 16-12-12 13:49 OP:edw  STATUS:               ID:20161212052743     3
 2016-12-12-0528-00M.COL___389                                                 6
 STAT SP IPHASW D HRMM SECON CODA AMPLIT PERI AZIMU VELO AIN AR TRES W  DIS CAZ7
 BAR2 EZ EP        528 59.18                             172   -0.0610 19.5 189 
 BAR2 EZ ES        529 14.28                             172   -0.1710 19.5 189 
 BAR2 EZ I         529 16.81        23.4 0.30            174           19.5 189 
 BRR  HZ EP        529  0.92                             152    0.0410 72.0 302 
 BRR  HN ES        529 17.82                             152    0.4510 72.0 302 
 BRR  HZ I         529 21.82        12.4 0.26            151           72.0 302 
 PAM  EZ EP        529  2.05                             150   -0.0710 81.0  39 
 PAM  EN ES        529 19.42                             150   -0.1510 81.0  39 
 PAM  EZ I         529 21.96         9.0 0.56            151           81.0  39 
 RUS  HZ EP        529  3.27                             145    0.0910 97.0 175 
 RUS  HE ES        529 21.81                             145    0.3410 97.0 175 
 RUS  HZ I         529 23.01         9.3 0.38            149           97.0 175 
 PTB  HZ EP        529  5.89                             132   -0.61 9  146 260 
 PTB  HE ES        529 27.03                             132   -0.34 9  146 260 
 PTB  HZ I         529 29.46         6.3 0.12            133            146 260 
 TAM  HZ EP        529  7.56                             130    0.17 9  155 104 
 TAM  HN ES        529 28.76                             130   -0.21 9  155 104 
 ZAR  HZ EP        529 12.86                             122    0.68 9  204 293 
 ZAR  HE ES        529 37.36                             122   -0.13 9  204 293 
 ZAR  HZ I         529 46.60         5.6 0.48            123            204 293 
                                                                                
