 2010 1212 0826 14.2 L   6.796 -73.127145.6  RSN  5 0.2 1.2LRSN                1
 GAP=161        0.44       4.7    18.3  8.1 -0.4360E+02  0.2640E+02 -0.1159E+02E
 Epicentro: LOS SANTOS - SANTANDER                                             3
 ACTION:UP  11-01-14 15:24 OP:pat  STATUS:               ID:20101212082614 L   I
 2010-12-12-0820-29S.COL___137                                                 6
 STAT SP IPHASW D HRMM SECON CODA AMPLIT PERI AZIMU VELO SNR AR TRES W  DIS CAZ7
 BTL  SZ EP        826 33.80                             171     0.010   21 311 
 BAR2 SZ EP   2    826 33.52                             170    -0.3 5   23 195 
 BAR2 SZ ES   2    826 49.34                             170     0.2 5   23 195 
 BAR2 SZ I         826 49.97         4.3 0.59                            23 195 
 GIR2 SZ EP   2    826 33.67                             167    -0.2 5   32 347 
 RUS  HZ EP   2    826 38.31                             144     0.4 5  100 177 
 RUS  HN ES   2    826 56.10                             144    -0.3 5  100 177 
 RUS  HZ I         826 56.91         1.5 0.47                           100 177 
 GRA  SZ EP   2    826 39.40                             137     0.0 5  126  17 
 GRA  SZ ES   2    826 59.12                             137     0.0 5  126  17 
 GRA  SZ I         827  2.05         3.1 0.39                           126  17 
                                                                                
