 2016  412 0720 45.0 L   6.821 -73.163140.0  RSN  7 0.5 1.7LRSN                1
 GAP=133        1.09       4.1     4.9  7.5 -0.1785E+01  0.1374E+02 -0.4505E+01E
 Epicentro: LOS SANTOS - SANTANDER                                             3
 ACTION:UPD 16-05-05 14:20 OP:rebc STATUS:               ID:20160412072045 L   I
 OLDACT:UP  16-04-12 18:02 OP:mh   STATUS:               ID:20160412071745     3
 OLDACT:UP  16-04-12 18:01 OP:mh   STATUS:               ID:20160412071745     3
 OLDACT:REG 16-04-12 12:38 OP:mh   STATUS:               ID:20160412071745     3
 2016-04-12-0717-45M.COL___307                                                 6
 STAT SP IPHASW D HRMM SECON CODA AMPLIT PERI AZIMU VELO AIN AR TRES W  DIS CAZ7
 BAR2 EZ EP        721  3.82                             169   -0.1510 25.3 185 
 BAR2 EZ ES        721 19.25                             169    0.4710 25.3 185 
 BAR2 EZ I         721 21.54         8.3 0.14            172           25.3 185 
 PAM  EZ EP        721  6.52                             150   -0.0510 76.9  42 
 PAM  EN ES        721 23.61                             150    0.2210 76.9  42 
 PAM  EZ I         721 25.32         9.8 0.30            152           76.9  42 
 RUS  HZ EP        721  7.95                             142   -0.4110  103 175 
 RUS  HN ES        721 26.58                             142   -0.0110  103 175 
 RUS  HZ I         721 27.83         5.5 0.34            147            103 175 
 PTB  HZ EP   1    721 10.67                             131   -0.69 7  146 258 
 PTB  HN ES        721 31.28                             131   -0.65 9  146 258 
 OCA  HZ EP        721 12.76                             129    0.14 9  158 354 
 OCA  HN ES        721 33.67                             129   -0.50 9  158 354 
 OCA  HZ I         721 38.77                             130            158 354 
 ZAR  HZ EP        721 17.10                             121    0.31 9  201 292 
 ZAR  HN ES        721 42.15                             121    0.55 9  201 292 
 ZAR  HZ I         721 47.36         9.4 0.32            123            201 292 
 URE  HN ES   4    721 56.16                             113   -0.92 0  281 292 
 GUY2CHZ EP        721 29.31                             111    1.00 7  301 234 
 GUY2CHN ES   4    722  2.27                             111    0.17 0  301 234 
 GUY2CHZ I         722  9.78         2.4 0.34                           301 234 
                                                                                
