 2013  612 0236 18.6 L   5.953 -73.841 98.7  RSN  4 0.2 1.2LRSN                1
 GAP=219        0.44       4.1     2.3  5.8  0.3815E+01  0.1814E+01  0.4239E+01E
 Epicentro: SUCRE - SANTANDER                                                  3
 ACTION:UPD 14-01-08 09:54 OP:ep   STATUS:               ID:20130612023618 L   I
 OLDACT:DUP 13-06-12 09:37 OP:mh   STATUS:               ID:20130612022960d    3
 2013-06-12-0229-59M.COL___260                                                 6
 STAT SP IPHASW D HRMM SECON CODA AMPLIT PERI AZIMU VELO AIN AR TRES W  DIS CAZ7
 RUS  HZ EP   1    236 36.34                             137   -0.36 7 84.2  95 
 RUS  HN ES   1    236 50.95                             137    0.17 7 84.2  95 
 RUS  HN I         236 55.90         2.0 0.60            147           84.2  95 
 PTB  HZ EP   1    236 36.97                             133    0.07 7 94.0 314 
 PTB  HN ES        236 51.12                             133   -0.0210 94.0 314 
 PTB  HN I         236 56.83         2.8 0.10            142           94.0 314 
 BAR2 SZ EP   1    236 37.98                             131    0.09 7  102  46 
 BAR2 SZ ES        236 52.91                             131    0.0010  102  46 
 BAR2 SZ I         236 53.68         6.4 0.26            142            102  46 
 BRR  HZ EP   1    236 40.44                             124    0.22 7  128   6 
 BRR  HN ES   2    236 56.69                             124   -0.35 5  128   6 
 BRR  HN I         237  0.49         3.8 0.14            134            128   6 
                                                                                
