 2014 1112 0423  3.2 L   6.761 -73.146135.0  RSN  5 0.5 1.3LRSN                1
 GAP=138        1.25       6.3     6.2  9.2 -0.3461E+01  0.8076E+01  0.2379E+01E
 Epicentro: LOS SANTOS - SANTANDER                                             3
 ACTION:UPD 14-12-19 15:42 OP:nd   STATUS:               ID:20141112042303 L   I
 OLDACT:ARG 14-11-12 12:06 OP:stll STATUS:               ID:20141112041745     3
 2014-11-12-0417-45M.COL___283                                                 6
 STAT SP IPHASW D HRMM SECON CODA AMPLIT PERI AZIMU VELO AIN AR TRES W  DIS CAZ7
 BAR2 SZ EP        423 21.51                             172    0.0910 19.1 192 
 BAR2 SZ I         423 22.49         6.6 0.40            171           19.1 192 
 BAR2 SZ ES        423 35.89                             172    0.2410 19.1 192 
 BRR  HZ EP        423 23.47                             150    0.1810 73.3 302 
 BRR  HN ES        423 39.73                             150    0.7510 73.3 302 
 PAM  SZ EP        423 24.74                             148    0.2710 80.8  38 
 PAM  SZ I         423 25.74         4.8 0.30            147           80.8  38 
 PAM  SN ES        423 40.27                             148   -0.8110 80.8  38 
 RUS  HZ EP        423 26.06                             143    0.5110 96.3 176 
 RUS  HZ I         423 26.62         1.9 0.20            142           96.3 176 
 RUS  HE ES        423 42.70                             143   -0.3110 96.3 176 
 PTB  HZ EP        423 28.69                             129   -0.51 9  147 260 
 PTB  HN ES        423 48.96                             129   -0.54 9  147 260 
 PTB  HZ I         423 51.92         2.6 0.12            128            147 260 
                                                                                
