 2010  212 0909 48.8 L   6.721 -72.796144.8  RSN  6 0.3 1.8LRSN                1
 GAP=223        0.53       4.7    12.6  5.3 -0.3447E+02 -0.2364E+02  0.1241E+02E
 Epicentro: MOLAGAVITA - SANTANDER                                             3
 ACTION:UP  10-08-24 09:48 OP:vdl  STATUS:               ID:20100212090948 L   I
 2010-02-12-0907-05S.COL___094                                                 6
 STAT SP IPHASW D HRMM SECON CODA AMPLIT PERI AZIMU VELO SNR AR TRES W  DIS CAZ7
 BAR2 SZ IP        910  9.24                             163     0.310   45 252 
 BAR2 SZ ES   1    910 24.51                             163    -0.2 7   45 252 
 GIR2 SZ EP        910  9.40                             157     0.010   59 312 
 GIR2 SZ ES   1    910 25.46                             157    -0.1 7   59 312 
 OCA  SZ EP   1    910 18.53                             127    -0.2 7  178 341 
 CHI  HZ EP        910 27.26                             116     0.3 8  253 204 
 CHI  HE ES   2    910 56.48                             116    -0.3 4  253 204 
 CHI  HZ I         911  0.11         2.9 0.61                           253 204 
 RREF BN ES   2    911 16.47                             109     0.4 3  347 235 
 PRA  HZ EP   1    910 43.16                             106    -0.7 4  405 215 
 PRA  HN ES   2    911 26.61                             106    -0.2 3  405 215 
 PRA  HZ I         911 29.39         2.8 0.61                           405 215 
                                                                                
