 2017 1112 0501 31.5 L   6.804 -73.132152.2  RSN  9 0.3 1.7LRSN                1
 GAP=221        0.82       3.8     5.3  5.3  0.7237E+01  0.1090E+01  0.2005E+01E
 Epicentro: LOS SANTOS - SANTANDER                                             3
 ACTION:UPD 17-12-12 19:54 OP:rebc STATUS:               ID:20171112050131 L   I
 OLDACT:UP  17-11-12 13:32 OP:dnl  STATUS:               ID:20171112045648     3
 OLDACT:REG 17-11-12 13:04 OP:dnl  STATUS:               ID:20171112045648     3
 2017-11-12-0457-00M.COL___459                                                 6
 STAT SP IPHASW D HRMM SECON CODA AMPLIT PERI AZIMU VELO AIN AR TRES W  DIS CAZ7
 BAR2 EZ EP        5 1 51.98                             170    0.0210 24.1 193 
 BAR2 EZ ES        5 2  7.50                             170   -0.3910 24.1 193 
 BAR2 EZ I         5 2  8.17        14.4 0.28            165           24.1 193 
 BRR  HZ IP     C  5 1 53.75                             153    0.3010 72.3 298 
 BRR  HN ES        5 2 10.97                             153    0.4310 72.3 298 
 BRR  HZ I         5 2 15.72         5.5 0.26            144           72.3 298 
 RUS  HZ EP   2    5 1 56.39                             145    0.43 5  101 177 
 RUS  HN ES        5 2 14.96                             145   -0.0410  101 177 
 RUS  HZ I         5 2 16.43         4.6 0.54            139            101 177 
 PTB  HZ EP        5 1 58.76                             133   -0.42 9  149 259 
 PTB  HZ I         5 2 21.82         4.2 0.58            125            149 259 
 SPBC HZ EP        5 2  1.13                             130    0.47 9  164 219 
 SPBC HN ES        5 2 23.27                             130   -0.11 9  164 219 
 SPBC HZ I         5 2 28.69         6.7 0.20            123            164 219 
 ZAR  HZ EP   4    5 2  7.64                             124    3.10 0  205 292 
 ZAR  HE ES        5 2 29.89                             124   -0.39 8  205 292 
 ZAR  HZ I         5 2 31.43         3.7 0.10            117            205 292 
 CHI  HZ EP   2    5 2 10.30                             118    0.61 4  249 195 
 CHI  HN ES        5 2 39.53                             118    0.08 8  249 195 
 CHI  HZ I         5 2 41.86         3.7 0.36            113            249 195 
 ROSC BZ EP   9    5 2 12.46                             118    2.31 0  254 211 
 ROSC BN ES        5 2 43.12                             116    0.55 8  254 211 
 ROSC BZ I         5 2 46.67         6.2 0.40            112            254 211 
 PTGC HZ EP        5 2 15.26                             113   -0.42 7  309 159 
 PTGC HN ES   4    5 2 47.32                             113   -2.78 0  309 159 
 PTGC HZ I         5 2 55.45         5.1 0.28            109            309 159 
                                                                                
