 2010  812 0835 56.4 L   6.819 -73.046143.1  RSN 16 0.5 2.4LRSN                1
 GAP=133        1.11       4.1     6.9  6.1 -0.1120E+02 -0.1289E+00  0.4397E+01E
 Epicentro: LOS SANTOS - SANTANDER                                             3
 ACTION:UP  10-09-07 10:54 OP:vdl  STATUS:               ID:20100812083556 L   I
 2010-08-12-0834-23S.COL___127                                                 6
 STAT SP IPHASW D HRMM SECON CODA AMPLIT PERI AZIMU VELO SNR AR TRES W  DIS CAZ7
 BTL  SZ IP        836 16.16                             169     0.410   27 294 
 BTL  SZ ES   1    836 31.36                             169     0.5 7   27 294 
 BAR2 SZ IP        836 16.00                             167     0.210   29 211 
 BAR2 SZ ES   1    836 30.33                             167    -0.7 7   29 211 
 GIR2 SZ IP        836 16.09                             167     0.310   33 330 
 GIR2 SZ ES   3    836 31.28                                     0.4 2   33 330 
 BRR  HZ IP     C  836 17.92                             149     0.110   80 293 
 BRR  HZ I         836 18.27        85.3 0.10                            80 293 
 BRR  HE ES   1    836 34.69                             149     0.2 7   80 293 
 RUS  HZ IP     C  836 19.96                             142     0.010  103 182 
 RUS  HN ES   1    836 38.59                             142     0.2 7  103 182 
 RUS  HZ I         836 41.04        14.0 0.43                           103 182 
 GUE  SZ EP   1    836 20.95                             140     0.4 7  113   7 
 GRA  SZ IP        836 20.30                             138    -0.710  121  13 
 GRA  SZ ES   1    836 39.44                             138    -0.7 7  121  13 
 GRA  SZ I         836 40.92        44.2 0.29                           121  13 
 OCA  SZ EP        836 24.71                             129     0.3 9  160 349 
 OCA  SZ ES   2    836 45.44                             129    -0.9 5  160 349 
 OCA  SZ I         836 51.03        30.8 0.27                           160 349 
 CHI  HZ EP        836 34.18                             116    -0.3 8  254 197 
 CHI  HN ES   1    837  3.61                             116    -0.6 6  254 197 
 CHI  HZ I         837  9.60        11.1 0.19                           254 197 
 ROSC BZ EP        836 36.00                             115     0.8 8  260 213 
 ROSC BE ES   3    837  4.52                                    -0.9 2  260 213 
 ROSC BZ I         837 13.83        21.3 0.43                           260 213 
 HEL  HZ EP   1    836 36.86                             113    -0.8 6  283 256 
 HEL  HN ES   1    837  9.77                             113    -0.2 6  283 256 
 HEL  HZ I         837 15.24        14.3 0.32                           283 256 
 GUY  SZ EP   2    836 41.80                                     0.8 3  312 236 
 RREF HZ EP   1    836 43.18                             109    -0.3 5  332 230 
 RREF HZ I         837 24.74        19.0 0.34                           332 230 
 SDV  BZ IP     C  836 45.62                             108     0.4 6  351  49 
 SDV  BZ I         836 46.31         8.8 0.33                           351  49 
 ANIL HZ EP   1    836 47.78                                     0.6 5  367 226 
 ANIL HE ES   2    837 26.80                                     0.0 3  367 226 
 PRA  HZ EP        836 49.42                                    -1.2 6  399 211 
 PRA  HN ES   2    837 33.16                             105     0.2 3  399 211 
 PRA  HZ I         837 39.35        14.4 0.37                           399 211 
                                                                                
