 2015 1012 0733  4.3 L   6.720 -73.516108.6  RSN 27 0.4 2.7LRSN                1
 GAP= 47        0.97       1.9     2.0  4.2 -0.3012E+00  0.2872E+01  0.9028E+00E
 Epicentro: EL CARMEN - SANTANDER                                              3
 ACTION:UPD 15-12-22 20:39 OP:cam  STATUS:               ID:20151012073304 L   I
 OLDACT:REG 15-10-12 16:14 OP:ak   STATUS:               ID:20151012072749     3
 2015-10-12-0727-49M.COL___334                                                 6
 STAT SP IPHASW D HRMM SECON CODA AMPLIT PERI AZIMU VELO AIN AR TRES W  DIS CAZ7
 BAR2 EZ IP     D  733 20.49                             159    0.4510 39.5 111 
 BAR2 EZ ES        733 32.64                             159    0.3110 39.5 111 
 BAR2 EZ I         733 34.37       501.0 0.36            160           39.5 111 
 BRR  HZ IP     C  733 20.25                             154    0.1410 48.0 333 
 BRR  HN ES        733 32.71                             154    0.2610 48.0 333 
 BRR  HZ I         733 33.94       150.4 0.12            154           48.0 333 
 RUS  HZ EP     D  733 25.08                             133    0.2510  103 152 
 RUS  HE ES        733 40.58                             133   -0.2810  103 152 
 RUS  HZ I         733 42.61       130.5 0.20            133            103 152 
 PAM  EZ EP     C  733 25.87                             131    0.1410  113  53 
 PAM  EN ES        733 42.28                             131   -0.1810  113  53 
 PAM  EZ I         733 43.70        73.0 0.16            131            113  53 
 SPBC HZ IP     C  733 26.94                             125   -0.1910  133 208 
 SPBC HN ES        733 44.58                             125   -0.3710  133 208 
 SPBC HZ I         733 50.99       108.8 0.06            123            133 208 
 OCA  HZ EP        733 30.52                             118   -0.45 9  169   7 
 OCA  HN ES        733 51.38                             118   -0.41 9  169   7 
 OCA  HZ I         733 52.88       116.3 0.17            118            169   7 
 ZAR  HZ EP        733 31.40                             118    0.42 9  171 300 
 ZAR  HN ES        733 52.29                             118    0.49 9  171 300 
 ZAR  HZ I         733 55.30        93.7 0.12            116            171 300 
 TAM  HZ IP     D  733 33.99                             114    0.53 9  193  99 
 TAM  HN ES        733 56.06                             114   -0.15 9  193  99 
 TAM  HZ I         733 56.56        22.8 0.24            114            193  99 
 NOR  HZ EP     C  733 33.43                             114   -0.45 9  197 230 
 NOR  HN ES        733 56.33                             114   -0.64 9  197 230 
 NOR  HZ I         733 58.73        52.7 0.28            112            197 230 
 ROSC BZ EP   4    733 39.44                             110    1.83 0  226 203 
 ROSC BE ES   4    734  7.09                             110    3.48 0  226 203 
 ROSC BZ I         734 10.77        29.5 0.45            109            226 203 
 HEL  HZ EP        733 37.98                             110   -0.07 8  230 255 
 HEL  HN ES        734  3.93                             110   -0.46 8  230 255 
 HEL  HZ I         734  9.23        28.8 0.20            109            230 255 
 CHI  HZ EP        733 38.20                             110   -0.15 8  232 186 
 CHI  HN ES        734  4.90                             110   -0.03 8  232 186 
 CHI  HZ I         734 16.64        14.4 0.50            109            232 186 
 SML  HZ EP        733 37.93                             109   -0.56 8  238 345 
 SML  HN ES        734  5.39                             109    0.23 8  238 345 
 SML  HZ I         734 12.08       139.8 0.10            108            238 345 
 URE  HZ EP        733 38.99                             108   -0.92 8  250 297 
 URE  HN ES   4    734  4.84                             108   -2.86 0  250 297 
 URE  HZ I         734  8.75        80.2 0.15            107            250 297 
 GUY2CHZ EP        733 42.61                             107    0.61 8  263 231 
 GUY2CHN ES        734 11.35                             107   -0.07 8  263 231 
 GUY2CHZ I         734 19.17        25.7 0.44                           263 231 
 CBOC HZ EP        733 45.64                             105    0.64 7  292 251 
 CBOC HE ES        734 16.49                             105   -0.27 7  292 251 
 CBOC HZ I         734 21.31        15.5 0.66            104            292 251 
 ELA  HZ EP   4    733 47.41                             105    1.85 0  293 226 
 ELA  HN ES        734 17.42                             105   -0.34 7  293 226 
 ELA  HZ I         734 27.37        28.1 0.34            104            293 226 
 DBB  SZ EP        733 46.14                             104    0.36 7  300 276 
 DBB  SZ ES        734 17.80                             104   -0.35 7  300 276 
 PTGC HZ EP        733 47.43                             103   -0.45 7  318 151 
 PTGC HE ES        734 21.53                             103   -0.35 7  318 151 
 ANIL HZ EP        733 49.95                             103    1.10 7  323 220 
 ANIL HN ES        734 24.68                             103    1.06 7  323 220 
 ANIL HZ I         734 30.76        60.4 0.32            102            323 220 
 ARGC HZ EP   4    733 54.72                             101    2.29 0  356 347 
 ARGC HN ES   4    734 33.13                             101    3.14 0  356 347 
 ARGC HZ I         734 43.68         9.5 0.32            100            356 347 
 ORTC HZ EP        733 53.98                             100    0.42 6  365 212 
 ORTC HN ES   4    734 34.26                             100    2.26 0  365 212 
 ORTC HZ I         734 41.49         9.8 0.60             99            365 212 
 SJC  HZ EP   4    733 55.70                              99   -1.62 0  396 333 
 SJC  HN ES   4    734 35.72                              99   -2.96 0  396 333 
 SJC  HZ I         734 40.15         9.5 0.28             98            396 333 
 CRJC HZ EP   1    734  7.63                              96    0.06 3  481   8 
 CRJC HN ES   4    734 52.62                              96   -4.31 0  481   8 
 CRJC HZ I         735  8.94        11.6 0.18             95            481   8 
 MACC HZ EP   1    734 11.11                              95    0.41 3  507 184 
 MACC HN ES   4    735  0.19                              95   -2.32 0  507 184 
 URI  HZ EP   4    734 17.51                              93   -1.50 0  576  17 
 URI  HN ES   1    735 16.86                              93   -0.43 2  576  17 
 POP2 HZ EP        734 20.03                              93    0.19 3  580 217 
 POP2 HN ES   4    735 24.46                              93    5.69 0  580 217 
 POP2 HZ I         735 29.43         4.3 0.50             93            580 217 
                                                                                
