 2015  912 0753 26.7 L   6.780 -73.124143.4  RSN  8 0.4 1.6LRSN                1
 GAP=185        0.90       3.4     4.7  5.7  0.3412E+01  0.6557E+00 -0.6305E+01E
 Epicentro: LOS SANTOS - SANTANDER                                             3
 ACTION:UPD 15-10-28 16:25 OP:cam  STATUS:               ID:20150912075326 L   I
 OLDACT:REG 15-09-12 12:43 OP:drio STATUS:               ID:20150912074748     3
 2015-09-12-0747-48M.COL___320                                                 6
 STAT SP IPHASW D HRMM SECON CODA AMPLIT PERI AZIMU VELO AIN AR TRES W  DIS CAZ7
 BAR2 EZ EP        753 46.34                             171    0.3110 21.7 197 
 BAR2 EZ ES        754  0.93                             171   -0.1710 21.7 197 
 BAR2 EZ I         754  2.56         5.4 0.38            169           21.7 197 
 BRR  HZ EP        753 48.42                             151    0.6310 74.3 299 
 BRR  HN ES        754  4.33                             151    0.1010 74.3 299 
 BRR  HZ I         754  9.25         5.1 0.10            149           74.3 299 
 RUS  HZ EP        753 50.23                             144    0.1710 98.3 177 
 RUS  HE ES        754  8.11                             144   -0.1710 98.3 177 
 RUS  HZ I         754 10.31         4.6 0.30            147           98.3 177 
 PTB  HZ EP        753 53.38                             131   -0.28 9  150 260 
 PTB  HN ES        754 14.33                             131   -0.35 9  150 260 
 PTB  HZ I         754 17.24         2.9 0.20            131            150 260 
 OCA  HZ EP        753 55.13                             129    0.06 9  163 352 
 OCA  HN ES   4    754 15.78                             129   -1.42 0  163 352 
 OCA  HZ I         754 20.42        10.1 0.20            130            163 352 
 SPBC HZ EP        753 54.96                             128   -0.05 9  163 220 
 SPBC HN ES        754 16.86                             128   -0.23 9  163 220 
 SPBC HZ I         754 22.91         5.9 0.24            130            163 220 
 ZAR  HZ EP        753 59.65                             121    0.33 8  207 292 
 ZAR  HN ES        754 25.28                             121    0.53 8  207 292 
 ZAR  HZ I         754 34.62         3.6 0.30            122            207 292 
 SML  HZ EP        754  2.72                             117   -0.81 8  247 335 
 SML  HE ES        754 31.83                             117   -0.42 8  247 335 
                                                                                
