 2014 1012 0515 35.4 L   6.028 -73.733111.6  RSN 14 0.6 1.8LRSN                1
 GAP= 78        1.64       3.5     5.1  8.2 -0.5121E+01  0.1108E+02  0.6062E+00E
 Epicentro: BOLIVAR - SANTANDER                                                3
 ACTION:UPD 14-11-29 23:49 OP:nd   STATUS:               ID:20141012051535 L   I
 OLDACT:REG 14-10-12 13:46 OP:stll STATUS:               ID:20141012050745     3
 2014-10-12-0507-45M.COL___290                                                 6
 STAT SP IPHASW D HRMM SECON CODA AMPLIT PERI AZIMU VELO AIN AR TRES W  DIS CAZ7
 SPBC HZ EP        515 52.26                             151    0.0910 56.0 222 
 SPBC HN ES        516  5.34                             151    0.1310 56.0 222 
 SPBC HZ I         516  8.00        12.6 0.22            149           56.0 222 
 RUS  HZ EP        515 53.85                             145   -0.0210 73.5 102 
 RUS  HN ES        516  7.84                             145   -0.4110 73.5 102 
 RUS  HZ I         516  9.87         9.8 0.22            138           73.5 102 
 BAR2 SZ EP        515 55.09                             140    0.5410 87.2  44 
 BAR2 SZ ES        516 10.08                             140    0.6210 87.2  44 
 PTB  HZ EP        515 54.47                             136   -0.6710 98.0 305 
 PTB  HN ES        516  9.64                             136   -0.8610 98.0 305 
 PTB  HZ I         516 11.87         8.1 0.16            130           98.0 305 
 BRR  HZ EP     C  515 57.32                             129    0.2810  119   1 
 BRR  HN ES        516 14.74                             129    0.8510  119   1 
 BRR  HZ I         516 17.49        26.5 0.12            123            119   1 
 CHI  HZ EP        516  0.92                             122   -0.17 9  155 180 
 CHI  HN ES        516 20.04                             122   -1.06 9  155 180 
 CHI  HZ I         516 26.14         3.8 0.36            117            155 180 
 GUY2CHZ EP        516  7.26                             114    1.04 9  201 244 
 GUY2CHN ES        516 31.26                             114    1.03 9  201 244 
 GUY2CHZ I         516 37.72         4.4 0.42                           201 244 
 ZAR  HZ EP        516  6.00                             114    0.07 9  204 323 
 ZAR  HN ES        516 28.46                             114   -1.26 9  204 323 
 ZAR  HZ I         516 32.28         5.7 0.10            110            204 323 
 RREF HZ EP   9    516  3.17                             112   -5.10 0  218 235 
 RREF HN ES        516 30.53                                    1.75 8  218 235 
 RREF HZ I         516 35.51         3.9 0.24            109            218 235 
 TOL  SZ EP        516 10.49                             110    0.38 8  237 228 
 TOL  SE ES        516 37.61                             110    0.46 8  237 228 
 OCA  HZ EP        516 11.38                             109    0.20 8  249  11 
 OCA  HE ES        516 39.12                             109    0.05 8  249  11 
 OCA  HZ I         516 47.83         7.3 0.36            106            249  11 
 PRA  HZ EP        516 14.83                             106   -0.55 7  286 207 
 PRA  HE ES        516 46.01                             106   -0.53 7  286 207 
 PRA  HZ I         516 52.27         3.6 0.16            104            286 207 
 ORTC HZ EP        516 15.63                             106   -0.00 7  288 216 
 ORTC HN ES        516 47.17                             106    0.19 7  288 216 
 ORTC HZ I         516 51.59         4.6 0.44            104            288 216 
 SML  HZ EP        516 17.42                             104   -0.61 7  309 353 
 SML  HZ I         516 56.85         9.2 0.10            102            309 353 
                                                                                
