 2017  412 0632 26.5 L   6.803 -73.154150.4  RSN 12 0.5 2.0LRSN                1
 GAP=111        1.11       3.6     4.2  5.7  0.3242E+01  0.3675E+01  0.1725E+01E
 Epicentro: LOS SANTOS - SANTANDER                                             3
 ACTION:UPD 17-05-30 21:11 OP:jn   STATUS:               ID:20170412063226 L   I
 OLDACT:UP  17-04-12 18:25 OP:edw  STATUS:               ID:20170412062549     3
 OLDACT:UP  17-04-12 18:20 OP:edw  STATUS:               ID:20170412062549     3
 OLDACT:REG 17-04-12 13:17 OP:edw  STATUS:               ID:20170412062549     3
 2017-04-12-0628-00M.COL___368                                                 6
 STAT SP IPHASW D HRMM SECON CODA AMPLIT PERI AZIMU VELO AIN AR TRES W  DIS CAZ7
 BAR2 EZ IP     C  632 46.52                             171   -0.1310 23.5 188 
 BAR2 EZ ES        633  2.00                             171   -0.3910 23.5 188 
 BRR  HZ IP     C  632 48.34                             153    0.2910 70.2 299 
 BRR  HN ES        633  5.65                             153    0.7610 70.2 299 
 BRR  HZ I         633  8.77        17.6 0.26            153           70.2 299 
 PAM  EZ EP        632 49.41                             151    0.2310 77.7  40 
 PAM  EN ES        633  6.62                             151   -0.2910 77.7  40 
 PAM  EZ I         633  8.75        13.5 0.46            154           77.7  40 
 RUS  HZ EP        632 50.67                             144   -0.0310  101 176 
 RUS  HN ES        633  8.92                             144   -0.6810  101 176 
 RUS  HZ I         633 10.64        18.7 0.28            146            101 176 
 PTB  HZ EP   9    632 53.24                             133   -0.49 0  147 259 
 PTB  HN ES        633 14.21                             134   -0.30 9  147 259 
 PTB  HZ I         633 16.40         5.7 0.10            133            147 259 
 SPBC HZ EP        632 55.31                             130    0.03 9  163 219 
 SPBC HN ES        633 17.39                             130   -0.38 9  163 219 
 SPBC HZ I         633 21.70         9.4 0.24            131            163 219 
 YPLC HZ EP        632 57.03                             127    0.36 9  178 151 
 YPLC HN ES        633 20.90                             127    0.67 9  178 151 
 YPLC HZ I         633 23.72        11.4 0.26            129            178 151 
 ZAR  HZ EP        632 58.32                             123   -0.78 9  203 292 
 ZAR  HN ES        633 24.73                             123    0.17 9  203 292 
 ZAR  HZ I         633 30.11        12.3 0.52            124            203 292 
 CHI  HZ EP        633  4.94                             118    0.51 8  249 195 
 CHI  HE ES        633 34.07                             118    0.03 8  249 195 
 CHI  HZ I         633 36.37         4.9 0.40            119            249 195 
 PTGC HZ EP   9    633  9.73                             112   -0.87 0  309 159 
 PTGC HE ES        633 43.49                             113   -0.67 7  309 159 
 PTGC HZ I         633 45.72         5.7 0.46            114            309 159 
 DBB  EN ES        633 51.41                             110    0.31 7  338 274 
 SJC  HZ EP        633 21.07                             106   -1.01 6  408 327 
 SJC  HN ES   4    634  2.69                             106   -2.77 0  408 327 
                                                                                
