 2014  512 0523 53.8 L   6.916 -73.229145.1  RSN  7 0.4 2.0WRSN                1
 SPEC AVERAGE  MO 12.0 ST0.443 OM  1.9 f0 8.82 R0.2181 AL 0.00 WI 30.0 MW  2.0 3
 SPEC SD       MO  0.0 ST0.000 OM  1.9 f00.000 R0.0000 AL      WI      MW  0.0 3
 GAP=121        1.00       4.5     4.8 10.7 -0.5183E+01  0.1555E+02  0.2119E+01E
 SPEC PTB HH Z MO 12.0 ST0.443 OM  0.0 f0 8.82 R0.2181 AL-0.00 WI 30.0 MW  2.0 3
 SPEC PTB HH Z T 52439 K 0.000 GD  203 VS 5.20 DE 3.50 Q0750.0 QA 1.50 VS 5.20 3
 Epicentro: BETULIA - SANTANDER                                                3
 OLDACT:DUP 14-05-12 18:40 OP:spq  STATUS:               ID:20140512051808d    3
 OLDACT:UP  14-05-12 18:49 OP:spq  STATUS:               ID:20140512051808d    3
 ACTION:UP  15-03-16 16:56 OP:nd   STATUS:               ID:20140512052353 L   I
 OLDACT:UPD 14-06-06 16:41 OP:nd   STATUS:               ID:20140512052353 L   3
 2014-05-12-0518-07M.COL___248                                                 6
 STAT SP IPHASW D HRMM SECON CODA AMPLIT PERI AZIMU VELO AIN AR TRES W  DIS CAZ7
 PAM  SZ EPg       524 16.06                             151    0.2210 74.9  51 
 PAM  SE ESg       524 33.03                             151    0.0310 74.9  51 
 RUS  HZ EP   1    524 18.22                             140   -0.35 7  114 172 
 RUS  HE ES   4    524 35.85                             140   -2.01 0  114 172 
 PTB  HZ EP        524 20.18                             133   -0.05 9  142 253 
 PTB  HE ES        524 41.49                             133    0.68 9  142 253 
 OCA  HE ES   1    524 41.29                             132   -0.60 7  147 356 
 SPBC HN ES        524 45.07                             128   -0.24 9  168 214 
 ZAR  HZ EP        524 25.13                             124    0.23 9  191 290 
 ZAR  HE ES        524 48.37                             124   -0.74 9  191 290 
 SML  HN ES   1    524 56.70                             119    0.70 6  228 336 
                                                                                
