 2012  112 0728  2.2 L   6.039 -73.727111.4  RSN 12 0.3 1.9LRSN                1
 GAP= 77        0.68       2.4     3.2  6.8 -0.8028E+00  0.1029E+02  0.2003E+01E
 Epicentro: BOLIVAR - SANTANDER                                                3
 ACTION:UP  12-02-03 08:16 OP:REBC STATUS:               ID:20120112072802 L   I
 2012-01-12-0720-00M.COL___187                                                 6
 STAT SP IPHASW D HRMM SECON CODA AMPLIT PERI AZIMU VELO SNR AR TRES W  DIS CAZ7
 RUS  HZ EP   1    728 20.54                             145     0.0 7   73 103 
 RUS  HN ES   1    728 34.76                             145    -0.2 7   73 103 
 RUS  HZ I         728 36.44        16.4 0.35                            73 103 
 BAR2 SZ EP   1    728 21.25                             140     0.1 7   86  45 
 BAR2 SZ ES   1    728 36.33                             140     0.4 7   86  45 
 PTB  HZ EP   1    728 21.01                             135    -0.8 7   98 304 
 PTB  HN ES   2    728 37.40                             135     0.2 5   98 304 
 BRR  HZ EP   1    728 23.48                             130    -0.2 7  118   1 
 BRR  HN ES   1    728 40.35                             130     0.0 7  118   1 
 BRR  HZ I         728 43.75        13.0 0.17                           118   1 
 GIR2 SZ EP   1    728 24.94                             127     0.0 7  129  27 
 GIR2 SZ ES   2    728 42.74                             127     0.1 5  129  27 
 NOR  SZ EP   1    728 25.79                             125     0.2 7  137 247 
 NOR  SN ES   2    728 44.50                             125     0.7 5  137 247 
 CHI  HZ EP   1    728 27.90                             121    -0.1 7  156 180 
 CHI  HN ES   1    728 47.79                             121    -0.3 7  156 180 
 CHI  HZ I         728 51.29         5.8 0.45                           156 180 
 HEL  HZ EP   1    728 33.14                             114     0.5 6  200 275 
 HEL  HN ES   2    728 56.50                             114     0.1 4  200 275 
 HEL  HZ I         729  0.97         4.9 0.51                           200 275 
 ZAR  HZ EP   1    728 32.46                             114    -0.1 6  204 322 
 ZAR  HN ES   2    728 55.72                             114    -0.6 4  204 322 
 ZAR  HZ I         729  1.25        19.0 0.39                           204 322 
 RREF HN ES   2    729  0.51                             112    -0.4 4  219 235 
 RREF HZ I         729  5.59         6.9 0.63                           219 235 
 OCA  SZ ES   2    729  6.11                             109     0.6 4  247  10 
 OCA  SZ I         729 16.48         7.7 0.43                           247  10 
 PRA  HZ EP   1    728 42.65                             106     0.4 5  287 207 
 PRA  HN ES   2    729 13.80                             106     0.2 4  287 207 
                                                                                
