 2017  912 0544 10.7 L   6.787 -73.117142.8  RSN  4 0.1 1.3LRSN                1
 GAP=240        0.33       2.1     3.2  2.7  0.1791E+01  0.1040E+01  0.9805E+00E
 Epicentro: LOS SANTOS - SANTANDER                                             3
 ACTION:UPD 17-10-05 19:11 OP:rebc STATUS:               ID:20170912054410 L   I
 OLDACT:DUP 17-09-12 18:40 OP:mg   STATUS:               ID:20170912053740d    3
 2017-09-12-0538-00M.COL___439                                                 6
 STAT SP IPHASW D HRMM SECON CODA AMPLIT PERI AZIMU VELO AIN AR TRES W  DIS CAZ7
 BAR2 EZ EP   2    544 30.01                             171    0.05 5 22.7 199 
 BAR2 EZ ES        544 44.99                             171    0.0110 22.7 199 
 BAR2 EZ I         544 47.19         3.9 0.24            163           22.7 199 
 BRR  HZ EP        544 31.59                             151   -0.1410 74.7 298 
 BRR  HN ES        544 48.20                             151    0.0710 74.7 298 
 BRR  HZ I         544 54.44         3.9 0.35            146           74.7 298 
 RUS  HZ EP        544 34.18                             144    0.1410 99.0 178 
 RUS  HN ES        544 52.15                             144   -0.1010 99.0 178 
 RUS  HZ I         544 54.27         3.2 0.27            144           99.0 178 
 SPBC HZ EP        544 39.04                             128   -0.02 9  164 220 
 SPBC HN ES        545  1.20                             128    0.02 9  164 220 
 SPBC HZ I         545  7.98         2.5 0.26            127            164 220 
                                                                                
