 2014 1112 0640 21.7 L   6.813 -73.148143.6  RSN 25 0.6 2.6LRSN                1
 GAP= 55        1.75       4.5     4.7  7.8 -0.3967E+01  0.8502E+01  0.8685E+01E
 Epicentro: LOS SANTOS - SANTANDER                                             3
 ACTION:UPD 14-12-19 15:42 OP:nd   STATUS:               ID:20141112064021 L   I
 OLDACT:ARG 14-11-12 12:06 OP:stll STATUS:               ID:20141112063742     3
 2014-11-12-0637-42M.COL___274                                                 6
 STAT SP IPHASW D HRMM SECON CODA AMPLIT PERI AZIMU VELO AIN AR TRES W  DIS CAZ7
 BAR2 SZ IP        640 41.21                             169    0.0710 24.7 189 
 BAR2 SZ ES        640 56.23                             169   -0.0410 24.7 189 
 BAR2 SZ I         640 58.88        95.2 0.26            172           24.7 189 
 BRR  HZ IP     D  640 43.11                             153    0.5110 70.3 298 
 BRR  HN ES        640 59.92                             153    1.0510 70.3 298 
 BRR  HZ I         641  2.68        57.9 0.14            150           70.3 298 
 PAM  SZ IP     C  640 43.94                             151    0.2710 76.4  40 
 PAM  SN ES        641  0.81                             151    0.0410 76.4  40 
 PAM  SZ I         641  3.29        78.2 0.20            148           76.4  40 
 RUS  HZ IP     D  640 45.05                             143   -0.3310  102 176 
 RUS  HZ I         640 45.92        41.4 0.44            144            102 176 
 RUS  HN ES        641  3.29                             143   -0.5410  102 176 
 PTB  HZ EP        640 47.67                             131   -0.86 9  148 258 
 PTB  HE ES        641  9.24                             131   -0.19 9  148 258 
 PTB  HZ I         641 16.51        86.3 0.48            130            148 258 
 TAM  HZ IP     D  640 49.39                             130    0.09 9  156 105 
 TAM  HZ I         641 10.13        50.8 0.38            130            156 105 
 TAM  HN ES        641 10.63                             130   -0.17 9  156 105 
 OCA  HZ EP        640 49.61                             129   -0.13 9  159 353 
 OCA  HE ES        641 11.44                             129   -0.14 9  159 353 
 OCA  HZ I         641 19.46        45.9 0.28            127            159 353 
 SPBC HZ EP        640 50.05                             128   -0.11 9  164 219 
 SPBC HE ES        641 13.00                             128    0.66 9  164 219 
 SPBC HZ I         641 17.97       142.1 0.16            128            164 219 
 NOR  HZ EP        640 57.04                             118   -0.37 8  235 234 
 NOR  HN ES        641 24.71                             118   -0.53 8  235 234 
 NOR  HZ I         641 28.87        61.8 0.20            117            235 234 
 CHI  HZ EP     C  640 59.15                             116   -0.31 8  250 195 
 CHI  HZ I         641  0.10        20.8 0.46            116            250 195 
 CHI  HN ES        641 28.16                             116   -0.73 8  250 195 
 ROSC BZ IP     D  641  0.71                             116    0.85 8  254 211 
 ROSC BN ES        641 30.37                             116    0.77 8  254 211 
 ROSC BZ I         641 38.97        65.2 0.45            116            254 211 
 HEL  HZ EP        641  1.86                             114    0.01 8  272 255 
 HEL  HN ES        641 33.67                             114    0.53 8  272 255 
 HEL  HZ I         641 39.78        28.7 0.38            114            272 255 
 URE  HZ EP   9    641  1.15                             113   -1.47 0  283 292 
 URE  HE ES        641 31.89                                   -1.14 7  283 292 
 URE  HZ I         641 42.03        29.6 0.28            112            283 292 
 PTGC HZ IP   9 D  641  4.02                             111   -1.64 0  310 159 
 PTGC HN ES        641 37.08                                   -1.20 7  310 159 
 CBOC HZ EP        641  8.82                             109    0.23 7  334 252 
 CBOC HZ I         641  9.82        12.5 0.20            109            334 252 
 CBOC HE ES        641 43.44                             109   -1.69 7  334 252 
 DBB  SZ EP        641  8.76                             109   -0.33 7  339 274 
 TOL  SZ EP        641 10.46                             109    0.45 7  344 224 
 TOL  SN ES        641 48.26                             109    0.60 7  344 224 
 MON  HZ EP   9    641  8.30                             108   -2.23 0  353 308 
 MON  HN ES        641 46.15                                   -0.21 6  353 308 
 MON  HZ I         642  1.89        10.7 0.36            107            353 308 
 ANIL HZ EP        641 12.52                             108    0.96 6  358 224 
 ANIL HE ES        641 50.10                             108   -0.32 6  358 224 
 ANIL HZ I         641 55.15         8.5 0.32            108            358 224 
 ARGC HZ EP   9    641 11.14                             108   -0.00 0  358 340 
 ARGC HN ES        641 48.45                                   -1.22 6  358 340 
 ARGC HZ I         641 58.02        13.0 0.26            107            358 340 
 SDV  BZ IP   9 D  641 10.57                             108   -1.04 0  360  50 
 SDV  BE ES        641 47.07                                   -2.40 6  360  50 
 PRA  HZ EP        641 14.34                             106   -0.98 6  393 209 
 PRA  HN ES        641 57.34                             106    0.23 6  393 209 
 PRA  HZ I         642  1.80        24.7 0.40            106            393 209 
 SJC  HZ EP   9    641 15.04                             105   -2.03 0  408 327 
 SJC  HN ES        641 56.12                                   -2.08 6  408 327 
 SJC  HZ I         642  1.86         6.3 0.18            104            408 327 
 SMAR HZ EP   9    641 26.04                             102   -1.34 0  496 346 
 SMAR HE ES        642 13.29                                   -3.95 4  496 346 
 URI  HZ EP   9    641 31.49                             100   -3.04 0  555  13 
 URI  HN ES        642 25.38                                   -2.89 4  555  13 
 URI  HZ I         642 33.18         2.9 0.66            100            555  13 
                                                                                
