 2011  112 0101 26.1 L   6.793 -72.933132.1  RSN  4 0.2 1.8LRSN                1
 GAP=183        0.42       2.8    11.9  6.3 -0.1604E+02 -0.4422E+02  0.5137E+01E
 Epicentro: CEPITA - SANTANDER                                                 3
 ACTION:UP  11-02-08 08:40 OP:pat  STATUS:               ID:20110112010126 L   I
 2011-01-12-0057-40S.COL___136                                                 6
 STAT SP IPHASW D HRMM SECON CODA AMPLIT PERI AZIMU VELO SNR AR TRES W  DIS CAZ7
 BAR2 SZ EP   1    1 1 44.26                             164    -0.1 7   36 231 
 BAR2 SZ ES   2    1 1 59.04                             164     0.4 5   36 231 
 BAR2 SZ I         1 2  0.32        22.2 0.20                            36 231 
 BTL  SZ EP   1    1 1 44.54                             162     0.0 7   39 291 
 BTL  SZ ES   1    1 1 58.88                             162    -0.1 7   39 291 
 RUS  HZ EP   1    1 1 48.47                             141     0.0 7  101 189 
 RUS  HN ES   1    1 2  6.01                             141     0.0 7  101 189 
 RUS  HZ I         1 2  8.37        10.5 0.44                           101 189 
 GRA  SZ EP   2    1 1 50.18                             135     0.4 5  122   7 
 GRA  SZ ES   1    1 2  8.11                             135    -0.1 7  122   7 
 GRA  SZ I         1 2 10.99         7.3 0.40                           122   7 
                                                                                
