 2016  112 0112 32.8 L   6.824 -73.168146.3  RSN  5 0.4 1.0LRSN                1
 GAP=133        1.12       4.9     5.7  9.5  0.3414E+00  0.7823E+01 -0.6378E+00E
 Epicentro: LOS SANTOS - SANTANDER                                             3
 ACTION:UPD 16-03-09 23:24 OP:cam  STATUS:               ID:20160112011232 L   I
 OLDACT:DUP 16-01-12 15:06 OP:mher STATUS:               ID:20160112010748d    3
 2016-01-12-0107-47M.COL___265                                                 6
 STAT SP IPHASW D HRMM SECON CODA AMPLIT PERI AZIMU VELO AIN AR TRES W  DIS CAZ7
 BRR  HZ EP        112 54.53                             154    0.7110 67.8 298 
 BRR  HN ES        113 10.50                             154    0.2910 67.8 298 
 BRR  HZ I         113 14.10         2.2 0.48            154           67.8 298 
 PAM  EZ EP        112 55.61                             151    0.5610 77.0  42 
 PAM  EN ES        113 12.07                             151   -0.3310 77.0  42 
 PAM  EZ I         113 14.82         1.8 0.63            155           77.0  42 
 RUS  HZ EP        112 56.43                             143   -0.3710  103 175 
 RUS  HN ES        113 15.35                             143   -0.1810  103 175 
 RUS  HZ I         113 16.82         1.1 0.46            147            103 175 
 PTB  HZ EP        112 59.41                             132   -0.23 9  146 258 
 PTB  HN ES        113 20.56                             132   -0.01 9  146 258 
 PTB  HZ I         113 24.88         1.3 0.34            135            146 258 
 SML  HN ES        113 36.64                             118   -0.75 8  240 336 
                                                                                
