 2012  212 0206  6.5 L   6.756 -73.151150.0  RSN  6 0.4 1.3LRSN                1
 GAP=183        0.83       6.9     6.6 10.9  0.6212E+01  0.8514E-03  0.2651E+01E
 ACTION:UP  12-03-07 16:29 OP:epov STATUS:               ID:20120212020606 L   I
 2012-02-12-0200-00M.COL___188                                                 6
 STAT SP IPHASW D HRMM SECON CODA AMPLIT PERI AZIMU VELO AIN AR TRES W  DIS CAZ7
 BAR2 SZ EP   1    2 6 26.66                             173    0.07 7 18.4 191 
 GIR2 SZ EP   2    2 6 26.45                             166   -0.40 5 36.0 353 
 BRR  HZ EP   1    2 6 28.56                             153    0.30 7 73.1 302 
 BRR  HE ES   1    2 6 45.61                             153    0.42 7 73.1 302 
 BRR  HZ I         2 6 49.95         5.8 0.15                          73.1 302 
 RUS  HZ EP   1    2 6 30.43                             146    0.05 7 95.8 175 
 RUS  HN ES   1    2 6 48.81                             146   -0.15 7 95.8 175 
 RUS  HZ I         2 6 50.11         2.2 0.32                          95.8 175 
 PTB  HZ EP   1    2 6 33.44                             133   -0.29 7  146 261 
 PTB  HN ES   1    2 6 54.05                             133   -0.88 7  146 261 
 NOR  SE ES   1    2 7 10.72                             120    0.76 6  231 235 
                                                                                
