 2012  412 0045  1.7 L   6.677 -73.091149.6  RSN  4 0.1 1.6LRSN                1
 GAP=197        0.33       6.1     3.3  5.6 -0.9012E+01 -0.9605E+01  0.2112E+02E
 Epicentro: JORDAN - SANTANDER                                                 3
 ACTION:UPD 12-07-05 11:52 OP:tino STATUS:               ID:20120412004501 L   I
 2012-04-12-0040-00M.COL___180                                                 6
 STAT SP IPHASW D HRMM SECON CODA AMPLIT PERI AZIMU VELO AIN AR TRES W  DIS CAZ7
 BAR2 SZ EP        045 21.64                             175     0.010   14 227 
 BAR2 SZ I         045 22.77         5.5 0.22                            14 227 
 BRR  HZ EP        045 24.02                             149     0.110   83 305 
 BRR  HZ I         045 26.12         8.7 0.31                            83 305 
 BRR  HN ES        045 41.35                             149     0.010   83 305 
 PAM  SZ EP   1    045 24.64                             149    -0.1 7   85  31 
 PTB  HZ EP        045 29.30                             132     0.0 9  152 264 
 PTB  HE ES   1    045 50.77                             132    -0.1 7  152 264 
                                                                                
