 2014 1212 0716  1.2 L   6.815 -73.182134.7  RSN 11 0.4 1.8LRSN                1
 GAP=179        1.04       3.4     4.6  7.8 -0.3135E-01  0.1586E+02 -0.1544E+01E
 Epicentro: ZAPATOCA - SANTANDER                                               3
 ACTION:UPD 15-02-10 17:03 OP:nd   STATUS:               ID:20141212071601 L   I
 OLDACT:REG 14-12-12 13:14 OP:fm   STATUS:               ID:20141212070741     3
 2014-12-12-0707-41M.COL___294                                                 6
 STAT SP IPHASW D HRMM SECON CODA AMPLIT PERI AZIMU VELO AIN AR TRES W  DIS CAZ7
 BAR2 EZ EP        716 20.40                             169    0.8710 24.6 180 
 BAR2 EZ ES   1    716 34.46                             169    0.63 7 24.6 180 
 BAR2 EZ I         716 37.06        12.1 0.20            169           24.6 180 
 RUS  HZ EP        716 23.43                             141   -0.6010  103 174 
 RUS  HE ES        716 41.42                             141   -0.4210  103 174 
 RUS  HZ I         716 43.80         5.4 0.44            148            103 174 
 PTB  HZ EP        716 26.55                             130   -0.40 9  144 258 
 PTB  HN ES        716 46.74                             130   -0.29 9  144 258 
 PTB  HZ I         716 54.75         5.4 0.50            131            144 258 
 OCA  HN ES        716 49.89                             127    0.14 9  158 355 
 OCA  HZ I         716 55.12        11.0 0.44            130            158 355 
 SPBC HZ EP        716 28.35                             127   -0.40 9  162 218 
 SPBC HE ES        716 50.02                             127   -0.22 9  162 218 
 SPBC HZ I         716 52.77        14.5 0.22            130            162 218 
 ZAR  HZ EP        716 32.43                             120   -0.06 9  200 292 
 ZAR  HE ES        716 56.51                             120   -0.38 9  200 292 
 ZAR  HZ I         717  4.90         5.8 0.42            122            200 292 
 NOR  HE ES        717  3.70                             116    0.45 8  232 234 
 NOR  HZ I         717  8.99         4.2 0.28            119            232 234 
 HEL  HZ EP        716 40.75                             113    0.27 8  269 255 
 HEL  HN ES        717 11.14                             113    0.03 8  269 255 
 HEL  HZ I         717 19.80         2.6 0.22            115            269 255 
 GUY2CHZ EP        716 44.61                             110    0.56 7  299 234 
 GUY2CHE ES        717 18.05                             110    0.57 7  299 234 
 GUY2CHZ I         717 28.29         2.5 0.28                           299 234 
 TOL  SE ES        717 26.37                             107    0.37 7  342 224 
 TOL  SZ I         717 33.19         6.5 0.32            110            342 224 
 MON  HE ES        717 26.62                             107   -0.21 6  349 309 
 MON  HZ I         717 41.34         1.7 0.58            109            349 309 
                                                                                
