 2012  212 0626  8.8 L   6.784 -73.146150.1  RSN  9 0.3 1.7LRSN                1
 GAP=137        0.66       4.0     3.9  5.6  0.4293E+00  0.2521E+01 -0.1978E+01E
 ACTION:UP  12-03-07 16:29 OP:epov STATUS:               ID:20120212062608 L   I
 2012-02-12-0620-00M.COL___188                                                 6
 STAT SP IPHASW D HRMM SECON CODA AMPLIT PERI AZIMU VELO AIN AR TRES W  DIS CAZ7
 BAR2 SZ EP   1    626 28.79                             171   -0.14 7 21.6 191 
 BAR2 SZ ES   1    626 44.40                             171   -0.22 7 21.6 191 
 BAR2 SZ I         626 46.99        11.5 0.42                          21.6 191 
 GIR2 SZ EP   1    626 29.05                             167    0.01 7 33.0 351 
 BRR  HZ EP        626 30.86                             153    0.3910 72.0 300 
 BRR  HE ES   1    626 47.93                             153    0.56 7 72.0 300 
 BRR  HZ I         626 51.12        13.0 0.24                          72.0 300 
 PAM  SZ EP   1    626 31.75                             151    0.18 7 78.8  39 
 PAM  SE ES   1    626 49.06                             151   -0.26 7 78.8  39 
 RUS  HZ EP   1    626 32.79                             145   -0.07 7 98.8 176 
 RUS  HN ES   1    626 51.79                             145    0.16 7 98.8 176 
 RUS  HZ I         626 54.21         2.9 0.23                          98.8 176 
 PTB  HZ EP   1    626 35.82                             133   -0.28 7  147 260 
 PTB  HN ES   1    626 56.81                             133   -0.58 7  147 260 
 OCA  SZ EP   1    626 37.15                             130   -0.47 7  162 353 
 ZAR  HN ES   1    627  7.33                             123    0.15 6  205 293 
 ZAR  HZ I         627 12.79         6.2 0.31                           205 293 
 CHI  HZ EP   2    626 46.95                             118    0.38 4  247 195 
 CHI  HZ I         627 24.17         3.1 0.54                           247 195 
                                                                                
