 2014 1112 0027 42.5 L   6.810 -73.168143.2  RSN 10 0.5 2.0LRSN                1
 GAP=133        1.12       3.5     5.1  6.1 -0.4854E+01  0.6305E+01  0.5052E+01E
 Epicentro: LOS SANTOS - SANTANDER                                             3
 ACTION:UPD 14-12-19 15:42 OP:nd   STATUS:               ID:20141112002742 L   I
 OLDACT:ARG 14-11-12 12:06 OP:stll STATUS:               ID:20141112001747     3
 2014-11-12-0017-47M.COL___289                                                 6
 STAT SP IPHASW D HRMM SECON CODA AMPLIT PERI AZIMU VELO AIN AR TRES W  DIS CAZ7
 BAR2 SZ EP        028  2.07                             170    0.2110 24.1 184 
 BAR2 SZ I         028  2.38        24.2 0.10            168           24.1 184 
 BAR2 SZ ES        028 16.92                             170   -0.0310 24.1 184 
 BRR  HZ IP     C  028  3.92                             153    0.6710 68.5 299 
 BRR  HZ I         028  4.11        32.0 0.28            152           68.5 299 
 BRR  HN ES        028 19.88                             153    0.4710 68.5 299 
 PAM  SZ EP        028  4.77                             150    0.2510 78.2  41 
 PAM  SZ I         028  5.10        23.8 0.24            152           78.2  41 
 PAM  SN ES        028 21.71                             150    0.0410 78.2  41 
 RUS  HZ EP        028  6.02                             143   -0.1010  102 175 
 RUS  HN ES        028 24.35                             143   -0.1710  102 175 
 RUS  HZ I         028 25.82        10.2 0.34            142            102 175 
 PTB  HZ EP        028  8.65                             132   -0.43 9  146 258 
 PTB  HN ES        028 29.63                             132   -0.17 9  146 258 
 PTB  HZ I         028 32.27         9.9 0.16            130            146 258 
 OCA  HZ EP        028 10.45                             129   -0.06 9  159 354 
 OCA  HN ES        028 31.44                             129   -0.90 9  159 354 
 NOR  HZ EP        028 18.43                             118    0.47 8  233 234 
 NOR  HN ES        028 45.41                             118   -0.19 8  233 234 
 NOR  HZ I         028 47.75         7.1 0.16            117            233 234 
 CHI  HZ EP        028 19.86                             117   -0.27 8  249 195 
 CHI  HZ I         028 21.53         3.6 0.48            116            249 195 
 CHI  HN ES        028 49.33                             117   -0.13 8  249 195 
 PRA  HZ EP        028 35.99                             106    0.06 6  392 209 
 PRA  HN ES        029 16.00                             106   -1.58 6  392 209 
 PRA  HZ I         029 24.14         3.7 0.24            106            392 209 
 ORTC HZ EP        028 36.67                             106    0.38 6  395 216 
 ORTC HN ES        029 19.52                             106    1.29 6  395 216 
 ORTC HZ I         029 26.72         3.0 0.50            105            395 216 
                                                                                
