 2012  212 0346 29.2 L   6.740 -73.155150.7  RSN  8 0.4 1.9LRSN                1
 GAP=138        0.76       4.9     4.5  7.6  0.2298E+00  0.9753E+01  0.4046E+01E
 ACTION:UP  12-03-07 16:29 OP:epov STATUS:               ID:20120212034629 L   I
 2012-02-12-0340-00M.COL___188                                                 6
 STAT SP IPHASW D HRMM SECON CODA AMPLIT PERI AZIMU VELO AIN AR TRES W  DIS CAZ7
 BAR2 SZ EP        346 49.50                             173    0.1610 16.6 190 
 BAR2 SZ ES   1    347  5.18                             173    0.15 7 16.6 190 
 BAR2 SZ I         347  6.59         7.5 0.26                          16.6 190 
 GIR2 SZ EP   1    346 49.51                             165   -0.17 7 37.7 354 
 BRR  HZ EP   1    346 51.36                             152    0.30 7 73.7 303 
 BRR  HZ I         346 51.68        19.9 0.14                          73.7 303 
 BRR  HN ES   1    347  8.70                             152    0.62 7 73.7 303 
 PAM  SE ES   1    347  9.57                             150   -0.77 7 83.3  37 
 RUS  HZ EP   1    346 53.42                             147    0.40 7 94.0 175 
 RUS  HN ES   1    347 11.47                             147   -0.10 7 94.0 175 
 PTB  HZ EP   1    346 56.35                             133   -0.06 7  146 261 
 PTB  HN ES   1    347 17.36                             133   -0.25 7  146 261 
 ZAR  HE ES   1    347 27.79                             123   -0.07 6  206 294 
 ZAR  HZ I         347 34.63         7.7 0.28                           206 294 
 NOR  SN ES   1    347 31.88                             120   -0.58 6  230 236 
                                                                                
