 2015 1112 0323 20.3 L   7.421 -73.241117.4  RSN 19 0.6 2.2LRSN                1
 GAP=104        1.19       2.9     4.3  6.4  0.7887E+00  0.1184E+02  0.5738E+01E
 Epicentro: EL PLAYON - SANTANDER                                              3
 ACTION:UPD 15-12-28 16:10 OP:cam  STATUS:               ID:20151112032320 L   I
 OLDACT:UP  15-11-12 17:05 OP:dnl  STATUS:               ID:20151112031751d    3
 OLDACT:DUP 15-11-12 16:55 OP:dnl  STATUS:               ID:20151112031751d    3
 2015-11-12-0317-50M.COL___319                                                 6
 STAT SP IPHASW D HRMM SECON CODA AMPLIT PERI AZIMU VELO AIN AR TRES W  DIS CAZ7
 PAM  EZ EP        323 38.97                             151    0.5210 60.4  99 
 PAM  EN ES        323 53.61                             151    0.9710 60.4  99 
 PAM  EZ I         323 55.86        16.7 0.16            157           60.4  99 
 BRR  HZ IP     C  323 37.52                             150   -0.3510 62.5 236 
 BRR  HN ES        323 51.18                             150   -0.4310 62.5 236 
 BRR  HZ I         323 52.03       103.2 0.14            146           62.5 236 
 OCA  HZ EP        323 40.10                             140    0.0110 90.9 355 
 OCA  HN ES        323 55.97                             140    0.4110 90.9 355 
 OCA  HZ I         324  2.37        39.5 0.14            139           90.9 355 
 BAR2 EZ EP        323 40.10                             139   -0.1910 91.8 176 
 BAR2 EZ ES        323 55.41                             139   -0.4910 91.8 176 
 BAR2 EZ I         323 56.62       111.3 0.38            140           91.8 176 
 RUS  HZ EP        323 47.13                             121   -0.85 9  170 174 
 RUS  HE ES        324  8.72                             121   -0.88 9  170 174 
 SML  HZ EP   1    323 47.91                             119   -0.28 7  178 329 
 SML  HN ES        324  9.16                             119   -0.82 9  178 329 
 SML  HZ I         324 13.77        31.1 0.10            119            178 329 
 ZAR  HZ EP   1    323 48.00                             119   -0.28 7  179 273 
 ZAR  HN ES        324 10.76                             119    0.62 9  179 273 
 ZAR  HZ I         324 14.19        40.2 0.24            118            179 273 
 SPBC HZ EP        323 51.85                             114   -0.63 8  216 205 
 SPBC HE ES        324 17.76                             114    0.16 8  216 205 
 SPBC HZ I         324 23.39        15.3 0.16            114            216 205 
 URE  HZ EP   2    323 56.04                             110   -0.81 4  256 278 
 URE  HN ES   4    324 23.74                             110   -1.65 0  256 278 
 URE  HZ I         324 31.47        36.8 0.32            109            256 278 
 NOR  HZ EP        323 58.72                             108   -0.21 8  273 221 
 NOR  HE ES        324 29.71                             108    0.62 8  273 221 
 NOR  HZ I         324 35.44         8.2 0.18            108            273 221 
 HEL  HZ EP        324  1.35                             107    0.40 7  287 242 
 HEL  HN ES        324 32.82                             107    0.13 7  287 242 
 HEL  HZ I         324 40.30         3.7 0.12            107            287 242 
 MON  HZ EP   4    324  0.62                             106   -2.13 0  306 300 
 MON  HN ES   4    324 33.89                             106   -1.99 0  306 300 
 MON  HZ I         324 49.24         3.0 0.30            106            306 300 
 CHI  HZ EP        324  4.82                             105    0.74 7  313 190 
 CHI  HN ES        324 38.84                             105    0.59 7  313 190 
 CHI  HZ I         324 47.50         4.1 0.52            106            313 190 
 GUY2CHZ EP        324  7.79                             104    0.73 7  338 224 
 GUY2CHN ES        324 43.86                             104    0.31 7  338 224 
 GUY2CHZ I         324 49.16         2.9 0.48                           338 224 
 SJC  HZ EP   4    324  6.21                             103   -1.42 0  347 322 
 SJC  HN ES   4    324 42.08                             103   -2.49 0  347 322 
 SJC  HZ I         324 44.41         4.5 0.38            103            347 322 
 CBOC HZ EP   1    324  7.83                             103   -0.45 5  351 241 
 CBOC HE ES   4    324 42.27                             103   -3.46 0  351 241 
 ELA  HZ EP   4    324 13.07                             102    2.09 0  370 220 
 ELA  HN ES        324 50.35                             102   -0.20 6  370 220 
 ELA  HZ I         325  4.16         4.0 0.42            102            370 220 
 ORTC HZ EP   1    324 20.44                              99    0.85 4  447 210 
 ORTC HN ES        325  6.25                              99    0.38 5  447 210 
 ORTC HZ I         325 13.96         3.8 0.54             99            447 210 
 PRA  HZ EP   2    324 19.65                              99   -0.10 3  449 204 
 PRA  HN ES        325  6.79                              99    0.65 5  449 204 
 PRA  HZ I         325 11.96         3.9 0.26             99            449 204 
                                                                                
