 2010  912 0442  2.5 L   6.847 -73.047137.0  RSN  7 0.2 1.5LRSN                1
 GAP=169        0.43       2.9     7.1  7.6 -0.7493E+01 -0.1829E+02  0.3895E+01E
 Epicentro: LOS SANTOS - SANTANDER                                             3
 ACTION:UP  11-02-18 11:02 OP:tino STATUS:               ID:20100912044202 L   I
 2010-09-12-0441-09S.COL___120                                                 6
 STAT SP IPHASW D HRMM SECON CODA AMPLIT PERI AZIMU VELO SNR AR TRES W  DIS CAZ7
 BTL  SZ EP   1    442 21.40                             169     0.2 7   26 288 
 GIR2 SZ EP   2    442 21.09                             167     0.0 5   30 328 
 BAR2 SZ EP   1    442 21.14                             166    -0.2 7   32 208 
 BAR2 SZ I         442 21.72         8.2 0.04                            32 208 
 BRR  HZ EP   2    442 22.83                             148    -0.4 5   79 291 
 BRR  HN ES   2    442 39.50                             148     0.2 5   79 291 
 RUS  HZ EP   1    442 25.73                             140    -0.1 7  106 182 
 RUS  HZ I         442 26.45         2.7 0.20                           106 182 
 RUS  HE ES   2    442 44.06                             140     0.1 5  106 182 
 GUE  SZ EP   1    442 25.89                             139     0.0 7  110   7 
 GRA  SZ EP   1    442 26.58                             137     0.3 7  118  13 
 GRA  SZ ES   1    442 44.72                             137    -0.2 7  118  13 
 GRA  SZ I         442 46.71        12.1 0.38                           118  13 
                                                                                
