 2010 1112 0628 46.1 L   6.758 -72.987144.0  RSN  4 0.4 1.5LRSN                1
 GAP=177        0.93       8.2    13.2 15.4 -0.9277E+01 -0.1021E+03 -0.1265E+02E
 Epicentro: CEPITA - SANTANDER                                                 3
 ACTION:UP  10-12-17 16:51 OP:REBC STATUS:               ID:20101112062846 L   I
 2010-11-12-0627-40S.COL___129                                                 6
 STAT SP IPHASW D HRMM SECON CODA AMPLIT PERI AZIMU VELO SNR AR TRES W  DIS CAZ7
 BRR  HZ EP        629  7.75                             147    -0.410   89 296 
 BRR  HZ I         629  8.05        11.9 0.00                            89 296 
 BRR  HN ES        629 25.58                             147     0.210   89 296 
 RUS  HN ES   2    629 27.74                             145     0.2 5   96 186 
 RUS  HZ I         629 29.34         2.7 0.29                            96 186 
 GRA  SZ EP   1    629 11.70                             137     0.5 7  126   9 
 GRA  SZ ES   2    629 30.20                             137    -0.6 5  126   9 
 GRA  SZ I         629 32.31         4.2 0.23                           126   9 
 OCA  SZ ES   2    629 37.83                             129     0.3 5  168 347 
 OCA  SZ I         629 42.04         4.9 0.00                           168 347 
                                                                                
