 2011  812 0646 27.3 L   6.529 -73.507114.1  RSN 18 0.3 3.2LRSN                1
 GAP= 67        0.59       1.7     2.6  3.6 -0.1412E+01  0.3415E+01  0.8605E+00E
 Epicentro: EL CARMEN DE CHUCURI - SANTANDER                                   3
 ACTION:UPD 12-07-13 15:51 OP:ep   STATUS:               ID:20110812064627 L   I
 2011-08-12-0644-43S.COL___150                                                 6
 STAT SP IPHASW D HRMM SECON CODA AMPLIT PERI AZIMU VELO AIN AR TRES W  DIS CAZ7
 BAR2 SZ IP        646 44.02                             161    0.4310 36.5  79 
 BAR2 SZ ES   1    646 56.25                             161   -0.02 7 36.5  79 
 BAR2 SZ I         646 57.83      1344.7 0.42                          36.5  79 
 BRR  HZ IP     D  646 44.83                             147   -0.0910 67.9 340 
 BRR  HZ I         646 45.12       516.9 0.13                          67.9 340 
 BRR  HN ES   1    646 58.65                             147    0.00 7 67.9 340 
 RUS  HZ IP     D  646 46.95                             141    0.1410 84.5 146 
 RUS  HE ES   1    647  1.98                             141   -0.03 7 84.5 146 
 RUS  HZ I         647  3.81       223.5 0.40                          84.5 146 
 PAM  SZ EP        646 50.49                             129    0.0510  126  45 
 PAM  SE ES   1    647  8.14                             129   -0.34 7  126  45 
 NOR  SZ EP        646 55.43                             117   -0.43 9  185 235 
 NOR  SE ES   1    647 17.18                             117   -0.94 7  185 235 
 OCA  SZ EP        646 56.65                             116    0.06 9  190   6 
 OCA  SZ ES   1    647 19.65                             116    0.23 7  190   6 
 OCA  SZ I         647 25.82       258.3 0.52                           190   6 
 CHI  HZ EP        646 59.38                             114    0.12 8  211 187 
 CHI  HZ I         647  1.66        97.6 0.45                           211 187 
 CHI  HE ES   2    647 24.88                             114    0.70 4  211 187 
 GUY  SZ EP   1    647  3.99                             109   -0.14 6  254 235 
 GUY  SE ES   1    647 32.78                             109   -0.06 6  254 235 
 GUY  SZ I         647 37.33       226.5 0.42                           254 235 
 VIL  SZ EP   2    647  5.54                             108    0.18 4  268 184 
 VIL  SZ I         647  7.78        71.5 0.09                           268 184 
 RREF HZ EP   1    647  6.73                             108    0.28 6  272 229 
 RREF HE ES   2    647 37.38                             108    0.41 4  272 229 
 RREF HZ I         647 42.51        84.9 0.29                           272 229 
 TOL  SZ EP        647  9.07                             106    0.39 7  294 223 
 DBB  SZ EP   1    647  9.44                             105   -0.04 5  304 280 
 ANIL HZ EP   1    647 10.20                             105   -0.06 5  308 223 
 ANIL HE ES   1    647 44.46                             105    0.72 5  308 223 
 PRA  HZ EP        647 14.40                             103   -0.13 6  347 206 
 PRA  HN ES   2    647 51.40                             103    0.05 3  347 206 
 SJA  SZ EP        647 16.42                             102   -0.17 6  363 188 
 SJA  SZ ES   1    647 55.05                             102    0.03 5  363 188 
 SJA  SZ I         648  0.55       102.2 0.32                           363 188 
 COD  HZ EP        647 18.08                             101    0.03 6  377   1 
 COD  HN ES   1    647 57.55                             101   -0.07 5  377   1 
 GUA  SZ EP        647 26.49                              98   -0.52 5  451 167 
 GUA  SZ ES   1    648 12.79                              98   -0.78 4  451 167 
 GUA  SZ I         648 18.52        16.7 0.17                           451 167 
 FLO2 HZ EP   1    647 43.79                              94   -0.87 2  597 204 
 FLO2 HZ I         647 45.67        11.6 0.42                           597 204 
 FLO2 HN ES   2    648 44.71                              94   -0.28 1  597 204 
                                                                                
