 2016 1012 0532 42.8 L   6.819 -73.175150.7  RSN  6 0.5 1.4LRSN                1
 GAP=236        1.20       7.0     8.2  9.1  0.2608E+02  0.1244E+02  0.4488E+01E
 Epicentro: ZAPATOCA - SANTANDER                                               3
 ACTION:UPD 16-11-09 19:18 OP:rebc STATUS:               ID:20161012053242 L   I
 OLDACT:DUP 16-10-12 18:38 OP:ar   STATUS:               ID:20161012052749d    3
 OLDACT:REG 16-10-12 14:29 OP:ar   STATUS:               ID:20161012052748     3
 2016-10-12-0528-00M.COL___372                                                 6
 STAT SP IPHASW D HRMM SECON CODA AMPLIT PERI AZIMU VELO AIN AR TRES W  DIS CAZ7
 BAR2 EZ EP        533  3.38                             170    0.3210 25.1 182 
 BAR2 EZ ES        533 18.45                             170   -0.4110 25.1 182 
 BAR2 EZ I         533 20.88         6.6 0.22            166           25.1 182 
 BRR  HZ EP        533  3.41                             155   -0.8710 67.3 298 
 BRR  HN ES        533 21.90                             155    0.8710 67.3 298 
 BRR  HZ I         533 26.13         4.4 0.18            148           67.3 298 
 RUS  HZ EP        533  7.33                             144    0.1210  103 174 
 RUS  HN ES        533 26.07                             144   -0.1710  103 174 
 RUS  HZ I         533 27.06         4.0 0.32            146            103 174 
 PTB  HZ EP   2    533  9.98                             134    0.05 5  145 258 
 PTB  HN ES   2    533 30.91                             134   -0.18 5  145 258 
 PTB  HZ I         533 35.96         1.8 0.22            130            145 258 
 SPBC HZ EP        533 12.38                             130    0.73 9  163 218 
 SPBC HN ES        533 33.93                             130   -0.21 9  163 218 
 SPBC HZ I         533 39.60         3.7 0.36            129            163 218 
 ZAR  HZ EP   2    533 15.01                             124   -0.18 4  200 292 
 ZAR  HE ES        533 40.15                             124   -0.30 9  200 292 
 ZAR  HZ I         533 51.72         2.1 0.30            122            200 292 
                                                                                
