 2010  112 0350 39.7 L   6.796 -73.045148.7  RSN  5 0.3 1.5LRSN                1
 GAP=210        0.58       5.3    15.5  5.9 -0.6121E+01  0.2295E+02  0.1298E+02E
 Epicentro: LOS SANTOS - SANTANDER                                             3
 ACTION:UP  10-08-24 09:43 OP:vdl  STATUS:               ID:20100112035039 L   I
 2010-01-12-0350-44S.COL___097                                                 6
 STAT SP IPHASW D HRMM SECON CODA AMPLIT PERI AZIMU VELO SNR AR TRES W  DIS CAZ7
 BAR2 SZ IP        350 59.77                             169     0.010   27 214 
 BAR2 SZ ES   1    351 14.96                             169    -0.5 7   27 214 
 GIR2 SZ EP   1    350 59.77                             166    -0.1 7   35 332 
 GIR2 SZ ES   1    351 15.99                             166     0.4 7   35 332 
 RUS  BZ EP   2    351  3.60                             145    -0.1 5  100 182 
 RUS  BN ES   2    351 22.72                             145     0.3 5  100 182 
 RUS  BZ I         351 23.68         4.1 0.28                           100 182 
 CHI  HZ IP        351 18.03                             117     0.2 8  251 198 
 CHI  HN ES   2    351 47.67                             117     0.0 4  251 198 
 CHI  HZ I         351 53.70         1.4 0.43                           251 198 
 HEL  HZ EP   2    351 21.14                             114    -0.1 4  283 256 
 HEL  HZ I         351 58.84         2.5 0.46                           283 256 
                                                                                
