 2015  912 0710 13.8 L   6.752 -73.152139.7  RSN  5 0.5 1.1LRSN                1
 GAP=233        1.18       6.8     8.1  9.3  0.9714E+01  0.2065E+02  0.4426E+01E
 Epicentro: LOS SANTOS - SANTANDER                                             3
 ACTION:UPD 15-10-28 16:25 OP:cam  STATUS:               ID:20150912071013 L   I
 OLDACT:DUP 15-09-12 15:57 OP:drio STATUS:               ID:20150912070751d    3
 2015-09-12-0707-50M.COL___320                                                 6
 STAT SP IPHASW D HRMM SECON CODA AMPLIT PERI AZIMU VELO AIN AR TRES W  DIS CAZ7
 BAR2 EZ EP        710 32.52                             172   -0.0610 18.0 191 
 BAR2 EZ ES        710 46.84                             172   -0.4010 18.0 191 
 BAR2 EZ I         710 50.53         2.8 0.34            172           18.0 191 
 BRR  HZ EP        710 34.58                             151    0.1810 73.3 302 
 BRR  HN ES        710 51.13                             151    0.6510 73.3 302 
 RUS  HE ES        710 54.21                             144   -0.1110 95.4 175 
 PTB  HZ EP        710 39.45                             131   -0.66 9  146 261 
 PTB  HN ES        711  0.02                             131   -0.63 9  146 261 
 PTB  HZ I         711  3.51         2.0 0.14            132            146 261 
 SPBC HZ EP        710 41.86                             128    0.47 9  159 220 
 SPBC HN ES        711  3.46                             128    0.54 9  159 220 
                                                                                
