 2013  812 0703 30.2 L   6.812 -73.127143.6  RSN  8 0.5 2.1LRSN                1
 GAP=138        1.20       4.7     6.3  6.8  0.4157E+01  0.8501E+01 -0.4916E+01E
 Epicentro: LOS SANTOS - SANTANDER                                             3
 ACTION:UPD 14-01-14 09:01 OP:ep   STATUS:               ID:20130812070330 L   I
 OLDACT:REG 13-08-12 08:42 OP:stll STATUS:               ID:20130812065850     3
 2013-08-12-0658-50M.COL___221                                                 6
 STAT SP IPHASW D HRMM SECON CODA AMPLIT PERI AZIMU VELO AIN AR TRES W  DIS CAZ7
 BAR2 SZ EP        7 3 49.82                             170    0.2110 25.0 194 
 BAR2 SZ ES        7 4  4.27                             170   -0.4710 25.0 194 
 BAR2 SZ I         7 4  5.89        15.3 0.20            170           25.0 194 
 GIR2 SZ EP        7 3 49.91                             167    0.3210 30.4 346 
 GIR2 SZ ES        7 4  4.23                             167   -0.4910 30.4 346 
 BRR  HZ EP        7 3 51.53                             152    0.3410 72.4 297 
 BRR  HN ES        7 4  8.23                             152    0.6810 72.4 297 
 BRR  HN I         7 4  9.23        42.7 0.22            150           72.4 297 
 PAM  SZ EP        7 3 52.75                             151    0.7010 75.1  39 
 PAM  SN ES        7 4  9.31                             151    0.2210 75.1  39 
 PAM  SN I         7 4 10.84        21.5 0.42            153           75.1  39 
 RUS  HZ EP        7 3 53.76                             143   -0.0710  102 177 
 RUS  HN ES        7 4 11.94                             143   -0.3110  102 177 
 RUS  HN I         7 4 14.09         7.5 0.32            145            102 177 
 OCA  HZ EP        7 3 57.52                             129   -0.73 9  159 352 
 OCA  HN ES        7 4 19.97                             129   -0.15 9  159 352 
 OCA  HN I         7 4 23.09        37.5 0.22            130            159 352 
 ZAR  HZ EP        7 4  3.08                             122    0.42 8  205 292 
 ZAR  HN ES        7 4 27.75                             122   -0.22 8  205 292 
 ZAR  HN I         7 4 33.89        11.8 0.30            122            205 292 
 SML  HZ EP        7 4  5.81                             117   -0.87 8  243 335 
                                                                                
