 2013 1112 0638 21.2 L   6.766 -73.162149.0  RSN  6 0.5 1.7LRSN                1
 GAP=199        1.15       4.7     7.3  7.8  0.6526E+01  0.3350E+01 -0.7791E+01E
 Epicentro: LOS SANTOS - SANTANDER                                             3
 ACTION:UPD 14-01-09 16:27 OP:ep   STATUS:               ID:20131112063821 L   I
 OLDACT:REG 13-11-12 09:30 OP:nd   STATUS:               ID:20131112063000     3
 2013-11-12-0630-00M.COL___273                                                 6
 STAT SP IPHASW D HRMM SECON CODA AMPLIT PERI AZIMU VELO AIN AR TRES W  DIS CAZ7
 BAR2 SZ EP        638 41.13                             172    0.0210 19.4 187 
 BAR2 SZ ES        638 56.16                             172   -0.5110 19.4 187 
 BAR2 SZ I         638 57.64        20.3 0.18            172           19.4 187 
 BRR  HZ EP        638 42.92                             153    0.2410 71.5 302 
 BRR  HN ES        639  0.30                             153    0.8410 71.5 302 
 BRR  HZ I         639 10.57         5.2 0.32            150           71.5 302 
 RUS  HZ EP        638 45.50                             145    0.5210 97.0 175 
 RUS  HN ES        639  3.28                             145   -0.2810 97.0 175 
 RUS  HZ I         639  4.98         5.5 0.28            151           97.0 175 
 PTB  HZ EP        638 47.99                             133   -0.19 9  145 260 
 PTB  HN ES        639  8.99                             133   -0.26 9  145 260 
 PTB  HZ I         639 14.45         2.6 0.18            134            145 260 
 SPBC HZ EP        638 50.09                             130    0.55 9  159 219 
 SPBC HN ES        639 11.29                             130   -0.37 9  159 219 
 SPBC HZ I         639 14.92         9.9 0.26            134            159 219 
 SML  HZ EP        638 57.51                             118   -0.75 8  246 336 
 SML  HN ES        639 27.00                             118   -0.19 8  246 336 
 SML  HZ I         639 31.35         6.2 0.09            120            246 336 
                                                                                
