 2017 1012 0021 10.6 L   6.796 -73.177142.3  RSN  4 0.2 1.3LRSN                1
 GAP=143        0.53       3.2     3.1  4.5 -0.3079E+01  0.3831E+01 -0.1387E+01E
 Epicentro: LOS SANTOS - SANTANDER                                             3
 ACTION:UPD 17-11-07 19:30 OP:rebc STATUS:               ID:20171012002110 L   I
 OLDACT:REG 17-10-12 13:16 OP:y    STATUS:               ID:20171012001742     3
 2017-10-12-0018-00M.COL___435                                                 6
 STAT SP IPHASW D HRMM SECON CODA AMPLIT PERI AZIMU VELO AIN AR TRES W  DIS CAZ7
 BAR2 EZ EP        021 29.80                             171    0.0110 22.5 182 
 BAR2 EZ ES        021 44.95                             171    0.2010 22.5 182 
 BAR2 EZ I         021 45.62         6.3 0.18            171           22.5 182 
 PAM  EZ EP        021 32.83                             149    0.2410 79.9  41 
 PAM  EE ES        021 49.52                             149   -0.2310 79.9  41 
 PAM  EZ I         021 50.23         3.5 0.30            152           79.9  41 
 RUS  HZ EP        021 34.10                             143    0.1110  100 174 
 RUS  HN ES        021 52.07                             143   -0.1710  100 174 
 RUS  HZ I         021 53.08         4.2 0.24            145            100 174 
 PTB  HZ EP        021 36.69                             132   -0.27 9  144 259 
 PTB  HN ES        021 57.62                             132    0.09 9  144 259 
 PTB  HZ I         022  1.18         2.2 0.28            132            144 259 
                                                                                
