 2011  612 0854 43.7 L   6.866 -73.322122.0  RSN  6 0.2 1.8LRSN                1
 GAP=121        0.58       3.6     4.9  5.6 -0.9312E+01  0.1938E+01 -0.3797E+01E
 Epicentro: BETULIA - SANTANDER                                                3
 ACTION:UP  11-07-14 19:04 OP:ep   STATUS:               ID:20110612085443 L   I
 2011-06-12-0852-48S.COL___132                                                 6
 STAT SP IPHASW D HRMM SECON CODA AMPLIT PERI AZIMU VELO SNR AR TRES W  DIS CAZ7
 BAR2 SZ EP   1    855  0.62                             164    -0.1 7   34 153 
 BAR2 SZ ES   1    855 13.90                             164    -0.2 7   34 153 
 BAR2 SZ I         855 15.08        50.6 0.35                            34 153 
 BRR  HZ EP        855  1.05                             156    -0.110   51 302 
 BRR  HE ES   1    855 14.98                             156     0.3 7   51 302 
 BRR  HZ I         855 15.87        13.4 0.11                            51 302 
 BRI  SZ EP   1    855  5.69                             135     0.1 7  111  32 
 GRA  SZ EP   1    855  7.10                             131     0.1 7  126  27 
 GRA  SZ ES   1    855 25.47                             131     0.4 7  126  27 
 GRA  SZ I         855 28.02         7.3 0.37                           126  27 
 OCA  SZ EP   1    855  9.38                             125     0.0 7  152   0 
 OCA  SZ ES   1    855 28.96                             125    -0.5 7  152   0 
 OCA  SZ I         855 36.66         8.3 0.44                           152   0 
 NOR  SN ES   1    855 42.95                             114     0.1 6  224 230 
                                                                                
