 2012  212 0535  8.3 L   6.737 -73.169152.0  RSN  8 0.2 1.4LRSN                1
 GAP=136        0.45       3.2     3.0  4.6  0.3996E+01 -0.1765E+01  0.1226E+01E
 ACTION:UP  12-03-07 16:29 OP:epov STATUS:               ID:20120212053508 L   I
 2012-02-12-0530-00M.COL___188                                                 6
 STAT SP IPHASW D HRMM SECON CODA AMPLIT PERI AZIMU VELO AIN AR TRES W  DIS CAZ7
 BAR2 SZ EP   1    535 28.49                             174   -0.07 7 16.1 185 
 BAR2 SZ I         535 45.30         3.8 0.33                          16.1 185 
 GIR2 SZ EP   1    535 28.75                             165   -0.15 7 37.9 356 
 BRR  HZ EP   1    535 30.41                             153    0.21 7 72.6 304 
 BRR  HN ES        535 47.55                             153    0.2610 72.6 304 
 BRR  HZ I         535 49.65         4.1 0.24                          72.6 304 
 PAM  SZ EP   2    535 31.30                             150   -0.30 5 84.4  38 
 RUS  HZ EP   1    535 32.26                             147    0.05 7 93.9 174 
 RUS  HZ I         535 50.55         3.5 0.59                          93.9 174 
 RUS  HN ES   1    535 50.70                             147   -0.16 7 93.9 174 
 PTB  HZ EP   1    535 35.29                             134   -0.16 7  144 261 
 PTB  HN ES        535 56.59                             134   -0.04 9  144 261 
 ZAR  HE ES        536  6.67                             124   -0.18 9  204 294 
 ZAR  HZ I         536 12.30         2.7 0.19                           204 294 
 CHI  HZ EP   1    535 45.93                             119    0.37 6  241 195 
                                                                                
