 2014 1012 0007 30.6 L   6.802 -73.153146.6  RSN  6 0.4 1.6LRSN                1
 GAP=136        1.01       5.5     5.6  7.9 -0.1132E+00 -0.2144E+01 -0.5188E+01E
 Epicentro: LOS SANTOS - SANTANDER                                             3
 ACTION:UPD 14-11-29 23:48 OP:nd   STATUS:               ID:20141012000730 L   I
 OLDACT:REG 14-10-12 13:27 OP:stll STATUS:               ID:20141012000000     3
 2014-10-12-0000-00M.COL___292                                                 6
 STAT SP IPHASW D HRMM SECON CODA AMPLIT PERI AZIMU VELO AIN AR TRES W  DIS CAZ7
 BAR2 SZ EP        0 7 50.75                             170    0.4210 23.5 188 
 BAR2 SZ ES        0 8  5.17                             170   -0.5510 23.5 188 
 BAR2 SZ I         0 8  6.90        15.5 0.36            170           23.5 188 
 BRR  HZ EP        0 7 51.89                             153    0.1010 70.4 299 
 BRR  HN ES        0 8  8.92                             153    0.6010 70.4 299 
 BRR  HZ I         0 8 13.78         6.5 0.16            150           70.4 299 
 PAM  SZ EP        0 7 52.70                             151   -0.2210 77.7  40 
 PAM  SZ I         0 7 53.10        14.4 0.12            154           77.7  40 
 RUS  HZ EP        0 7 54.62                             144    0.1710  101 176 
 RUS  HN ES        0 8 13.02                             144   -0.0410  101 176 
 RUS  HZ I         0 8 13.99         4.3 0.56            147            101 176 
 PTB  HZ EP        0 7 57.10                             132   -0.47 9  147 259 
 PTB  HN ES        0 8 18.16                             132   -0.45 9  147 259 
 PTB  HZ I         0 8 24.44         3.2 0.16            132            147 259 
 SPBC HN ES        0 8 21.79                             129    0.40 9  163 219 
 SPBC HZ I         0 8 24.22         6.4 0.32            130            163 219 
                                                                                
