 2017  412 0943 15.3 L   6.805 -73.155140.0  RSN 15 0.7 2.3LRSN                1
 GAP=111        1.56       4.8     4.8  7.9  0.2150E+01  0.1130E+02  0.9287E+01E
 Epicentro: LOS SANTOS - SANTANDER                                             3
 ACTION:UPD 17-05-30 21:11 OP:jn   STATUS:               ID:20170412094315 L   I
 OLDACT:UP  17-04-12 19:04 OP:dani STATUS:               ID:20170412093739     3
 OLDACT:UP  17-04-12 19:03 OP:dani STATUS:               ID:20170412093739     3
 OLDACT:REG 17-04-12 13:32 OP:edw  STATUS:               ID:20170412093739     3
 2017-04-12-0938-00M.COL___368                                                 6
 STAT SP IPHASW D HRMM SECON CODA AMPLIT PERI AZIMU VELO AIN AR TRES W  DIS CAZ7
 BAR2 EZ EP        943 34.02                             170   -0.2210 23.7 187 
 BAR2 EZ ES        943 48.95                             170   -0.0710 23.7 187 
 BAR2 EZ I         943 50.31        51.0 0.22            169           23.7 187 
 BRR  HZ EP        943 35.45                             152   -0.3010 70.0 299 
 BRR  HE ES        943 52.50                             152    0.7910 70.0 299 
 BRR  HZ I         943 56.93        21.3 0.29            150           70.0 299 
 PAM  EZ EP        943 36.95                             149    0.0310 77.7  40 
 PAM  EN ES        943 53.88                             149    0.1010 77.7  40 
 PAM  EZ I         943 56.26        54.1 0.48            154           77.7  40 
 RUS  HZ EP        943 38.02                             142   -0.5010  101 175 
 RUS  HN ES        943 56.92                             142    0.2710  101 175 
 RUS  HZ I         943 57.83        22.1 0.28            144            101 175 
 PTB  HZ EP        943 40.68                             131   -1.03 9  147 259 
 PTB  HN ES        944  1.66                             131   -0.65 9  147 259 
 PTB  HZ I         944  7.76        20.9 0.74            131            147 259 
 SPBC HZ EP        943 43.06                             128   -0.27 9  163 219 
 SPBC HE ES        944  5.03                             128   -0.17 9  163 219 
 SPBC HZ I         944  9.77        31.7 0.22            129            163 219 
 YPLC HZ EP        943 44.47                             125   -0.30 9  178 151 
 YPLC HN ES        944  8.15                             125    0.39 9  178 151 
 YPLC HZ I         944 11.30        20.4 0.26            128            178 151 
 ZAR  HZ EP        943 48.85                             121    1.61 9  203 292 
 ZAR  HN ES        944 11.33                             121   -0.84 9  203 292 
 ZAR  HZ I         944 17.22        20.9 0.36            122            203 292 
 NOR  HZ EP        943 50.13                             117   -0.50 8  234 234 
 NOR  HE ES        944 18.75                             117    0.56 8  234 234 
 NOR  HZ I         944 19.50        10.4 0.24            118            234 234 
 CHI  HZ EP        943 52.15                             116   -0.55 8  249 195 
 CHI  HN ES        944 21.25                             116   -0.63 8  249 195 
 CHI  HZ I         944 25.09        17.6 0.51            118            249 195 
 ROSC BZ EP        943 54.80                             115    1.71 8  253 211 
 ROSC BN ES        944 22.99                             115    0.42 8  253 211 
 ROSC BZ I         944 28.57        34.2 0.42            117            253 211 
 HEL  HZ EP        943 55.81                             114    0.70 8  271 256 
 HEL  HN ES        944 25.40                             114   -0.78 8  271 256 
 HEL  HZ I         944 32.14        12.3 0.32            115            271 256 
 URE  HZ EP   3    943 54.05                             112   -1.90 2  283 292 
 URE  HN ES   4    944 24.55                             112   -3.12 0  283 292 
 URE  HZ I         944 37.77         9.8 0.34            114            283 292 
 PTGC HZ EP   3    943 57.15                             110   -1.84 2  310 158 
 PTGC HE ES   4    944 30.49                             110   -2.59 0  310 158 
 PTGC HZ I         944 33.52        14.1 0.39            113            310 158 
 CBOC HZ EP        944  2.38                             109    0.51 7  333 252 
 CBOC HN ES        944 39.13                             109    0.92 7  333 252 
 CBOC HZ I         944 43.67         3.5 0.51            110            333 252 
                                                                                
