 2016 1112 0632 39.8 L   6.792 -73.132145.5  RSN 14 0.5 2.0LRSN                1
 GAP= 89        1.14       4.4     3.5  6.6 -0.1752E+01  0.3230E+01  0.8128E+01E
 Epicentro: LOS SANTOS - SANTANDER                                             3
 ACTION:UPD 17-10-26 21:07 OP:lp   STATUS:               ID:20161112063239 L   I
 OLDACT:UP  16-11-12 17:55 OP:and  STATUS:               ID:20161112062746     3
 OLDACT:REG 16-11-12 12:53 OP:and  STATUS:               ID:20161112062746     3
 2016-11-12-0628-00M.COL___340                                                 6
 STAT SP IPHASW D HRMM SECON CODA AMPLIT PERI AZIMU VELO AIN AR TRES W  DIS CAZ7
 BAR2 EZ IP     C  632 59.13                             171   -0.2810 22.7 194 
 BAR2 EZ ES        633 14.41                             171   -0.2810 22.7 194 
 BAR2 EZ I         633 15.81        21.2 0.22            167           22.7 194 
 BRR  HZ EP     D  633  1.14                             152    0.0910 73.0 299 
 BRR  HE ES        633 18.18                             152    0.5710 73.0 299 
 BRR  HZ I         633 21.36        13.2 0.28            151           73.0 299 
 PAM  EZ IP     C  633  1.95                             151   -0.0510 77.1  38 
 PAM  EN ES        633 18.95                             151   -0.3510 77.1  38 
 PAM  EZ I         633 21.52        30.0 0.62            156           77.1  38 
 PTB  HZ EP        633  5.92                             132   -0.97 9  149 259 
 PTB  HE ES        633 27.73                             132   -0.28 9  149 259 
 PTB  HZ I         633 32.81        11.3 0.20            131            149 259 
 TAM  HZ IP     C  633  7.35                             131    0.03 9  153 105 
 TAM  HE ES        633 29.38                             131    0.61 9  153 105 
 ZAR  HZ EP        633 12.39                             122   -0.05 8  206 292 
 ZAR  HN ES        633 37.93                             122    0.06 8  206 292 
 ZAR  HZ I         633 43.21        12.1 0.26            123            206 292 
 NOR  HZ EP        633 15.58                             118   -0.04 8  235 235 
 NOR  HE ES        633 44.35                             118    0.82 8  235 235 
 NOR  HZ I         633 51.72         5.6 0.23            119            235 235 
 CHI  HZ EP   4    633 19.27                             117    1.81 0  248 196 
 CHI  HN ES        633 46.58                             117   -0.23 8  248 196 
 CHI  HZ I         633 49.34         3.1 0.19            118            248 196 
 ROSC BZ EP   9    633 19.87                             117    1.94 0  253 211 
 ROSC BN ES        633 49.69                                    0.10 8  253 211 
 ROSC BZ I         633 56.83        11.5 0.45            117            253 211 
 PTGC HN ES   4    633 55.53                             112   -2.05 0  307 159 
 LL6C HZ EP   9    633  5.03                             110   -20.6 0  326 357 
 LL6C HN ES        633 42.15                                    1.39 7  326 357 
 PRA  HZ EP   9    633 31.13                             106   -2.20 0  392 210 
 PRA  HN ES        634 12.46                                   -0.40 6  392 210 
 PRA  HZ I         634 15.85         5.0 0.66            107            392 210 
 ORTC HZ EP        633 34.48                             106    0.73 6  396 216 
 ORTC HN ES        634 16.48                             106    0.66 6  396 216 
 ORTC HZ I         634 23.90         3.2 0.36            107            396 216 
 SJC  HZ EP   4    633 33.84                             106   -1.73 0  411 327 
 SJC  HN ES   4    634 14.98                             106   -4.07 0  411 327 
 SJC  HZ I         634 19.19         3.0 0.27            107            411 327 
 CRJC HZ EP   9    633 39.30                             103   -3.12 0  468   3 
 CRJC HN ES        634 28.67                                    0.55 5  468   3 
                                                                                
