 2014 1112 0748 16.4 L   6.808 -73.172143.3  RSN 18 0.6 2.3LRSN                1
 GAP= 69        1.47       4.0     4.3  7.0 -0.4627E+01  0.4799E+01  0.7191E+01E
 Epicentro: LOS SANTOS - SANTANDER                                             3
 ACTION:UPD 14-12-19 15:42 OP:nd   STATUS:               ID:20141112074816 L   I
 OLDACT:DUP 14-11-12 18:47 OP:stll STATUS:               ID:20141112073744d    3
 2014-11-12-0737-43M.COL___274                                                 6
 STAT SP IPHASW D HRMM SECON CODA AMPLIT PERI AZIMU VELO AIN AR TRES W  DIS CAZ7
 BAR2 SZ IP        748 35.89                             170    0.1110 23.9 183 
 BAR2 SZ ES        748 50.47                             170   -0.4010 23.9 183 
 BAR2 SZ I         748 51.97        54.1 0.24            170           23.9 183 
 BRR  HZ EP        748 37.72                             153    0.5810 68.2 299 
 BRR  HE ES        748 54.64                             153    1.3410 68.2 299 
 BRR  HZ I         748 57.87        40.5 0.42            149           68.2 299 
 PAM  SZ EP     D  748 38.79                             150    0.3410 78.6  42 
 PAM  SN ES        748 55.57                             150   -0.0710 78.6  42 
 PAM  SZ I         748 58.01        68.4 0.46            152           78.6  42 
 RUS  HZ IP     D  748 39.87                             143   -0.1510  102 174 
 RUS  HN ES        748 58.50                             143    0.0710  102 174 
 RUS  HZ I         748 59.59        29.4 0.24            144            102 174 
 PTB  HZ EP        748 42.50                             132   -0.45 9  145 258 
 PTB  HN ES        749  3.37                             132   -0.27 9  145 258 
 PTB  HZ I         749 10.85        15.8 0.18            130            145 258 
 TAM  HZ IP     D  748 44.32                             129    0.12 9  158 105 
 TAM  HZ I         748 44.50        41.6 0.36            132            158 105 
 TAM  HE ES        749  5.30                             129   -0.56 9  158 105 
 OCA  HZ EP        748 43.47                             129   -0.96 9  159 354 
 OCA  HN ES        749  5.79                             129   -0.48 9  159 354 
 OCA  HZ I         749  9.21        23.5 0.20            129            159 354 
 SPBC HZ EP        748 44.88                             129    0.25 9  162 218 
 SPBC HE ES        749  6.58                             129   -0.06 9  162 218 
 SPBC HZ I         749  7.97        34.5 0.52            128            162 218 
 NOR  HZ EP        748 52.04                             118    0.22 8  233 234 
 NOR  HN ES        749 19.03                             118   -0.39 8  233 234 
 NOR  HZ I         749 25.82        19.7 0.20            118            233 234 
 CHI  HZ IP     C  748 54.14                             116    0.13 8  249 194 
 CHI  HN ES        749 22.48                             116   -0.84 8  249 194 
 CHI  HZ I         749 26.82        17.8 0.46            117            249 194 
 ROSC BZ EP        748 55.70                             116    1.36 8  252 210 
 ROSC BE ES        749 24.70                             116    0.79 8  252 210 
 ROSC BZ I         749 29.54        25.1 0.35            116            252 210 
 RREF HZ EP   9    748 59.30                             110   -2.98 0  320 229 
 RREF HE ES        749 33.82                                   -1.25 7  320 229 
 RREF HZ I         749 44.41        13.8 0.34            110            320 229 
 CBOC HZ EP        749  3.45                             110    0.50 7  331 252 
 CBOC HE ES        749 37.42                             110   -1.83 7  331 252 
 CBOC HZ I         749 45.43         3.1 0.36            109            331 252 
 TOL  SZ EP        749  5.01                             109    0.59 7  342 224 
 TOL  SN ES        749 42.23                             109    0.37 7  342 224 
 MON  HZ EP   9    749  2.82                             108   -2.18 0  351 309 
 MON  HN ES        749 40.53                                   -0.18 6  351 309 
 MON  HZ I         749 44.25         2.8 0.14            108            351 309 
 ANIL HN ES        749 44.68                             108    0.05 6  356 224 
 ANIL HZ I         749 50.45         3.5 0.40            108            356 224 
 ARGC HZ EP   9    749  6.37                             108    0.60 0  357 341 
 ARGC HN ES        749 43.96                                   -0.90 6  357 341 
 ARGC HZ I         749 56.16         6.0 0.28            108            357 341 
 PRA  HZ EP        749  9.39                             106   -0.40 6  391 209 
 PRA  HN ES        749 50.78                             106   -0.63 6  391 209 
 PRA  HZ I         749 57.69         9.9 0.36            106            391 209 
                                                                                
