 2014  612 0502 12.7 L   6.556 -73.609100.2  RSN  5 0.4 1.6LRSN                1
 GAP=138        0.86       5.6     4.8  9.2 -0.7930E+01  0.2254E+02 -0.1867E+02E
 Epicentro: EL CARMEN DE CHUCURI - SANTANDER                                   3
 ACTION:UPD 14-07-01 22:53 OP:nd   STATUS:               ID:20140612050212 L   I
 OLDACT:REG 14-06-12 12:29 OP:mh   STATUS:               ID:20140612045819     3
 2014-06-12-0458-19M.COL___247                                                 6
 STAT SP IPHASW D HRMM SECON CODA AMPLIT PERI AZIMU VELO AIN AR TRES W  DIS CAZ7
 BAR2 SZ EP        5 2 27.65                             153   -0.2310 47.4  85 
 BAR2 SZ ES   1    5 2 40.31                             153    0.55 7 47.4  85 
 BAR2 SZ I         5 2 41.55        27.1 0.39            159           47.4  85 
 PTB  HZ IP     C  5 2 30.57                             134   -0.4410 93.7 269 
 PTB  HN ES   1    5 2 44.94                             134   -0.38 7 93.7 269 
 SPBC HZ EP   1    5 2 32.48                             128   -0.37 7  112 207 
 SPBC HN ES        5 2 48.68                             128    0.0810  112 207 
 ZAR  HZ EP        5 2 39.20                             116    0.15 9  172 307 
 ZAR  HN ES   4    5 2 57.58                             116   -2.06 0  172 307 
 ZAR  HZ I         5 3  6.07         3.1 0.23            117            172 307 
 HEL  HZ EP        5 2 45.02                             111    0.55 8  216 259 
 HEL  HN ES   1    5 3  9.76                             111    0.49 6  216 259 
                                                                                
