 2016 1212 0339 28.8 L   6.791 -73.135148.4  RSN 32 0.5 3.1LRSN 3.6WRSN        1
 SPEC AVERAGE  MO 14.5 ST0.728 OM  2.5 f0 1.32 R1.7301 AL 0.00 WI 30.0 MW  3.6 3
 SPEC SD       MO  0.2 ST  1.3 OM  0.3 f00.757 R0.5301 AL      WI      MW  0.1 3
 GAP= 66        0.78       2.1     2.4  3.4  0.1024E+00  0.2039E+01  0.1741E+01E
 Epicentro: LOS SANTOS - SANTANDER                                             3
 SPEC RUS HH Z MO 14.6 ST0.464 OM  2.6 f0 1.27 R1.5150 AL-0.00 WI 30.0 MW  3.7 3
 SPEC RUS HH Z T 340 9 K 0.000 GD  178 VS 5.20 DE 3.50 Q0750.0 QA 1.50 Q1 0.00 3
 SPEC ZAR HH Z MO 14.2 ST  5.1 OM  2.1 f0 3.69 R0.5214 AL-0.00 WI 30.0 MW  3.4 3
 SPEC ZAR HH Z T 34025 K 0.000 GD  253 VS 5.20 DE 3.50 Q0750.0 QA 1.50 Q1 0.00 3
 SPEC CHI HH Z MO 14.7 ST0.179 OM  2.5 f00.851 R2.2609 AL-0.00 WI 30.0 MW  3.7 3
 SPEC CHI HH Z T 34034 K 0.000 GD  289 VS 5.20 DE 3.50 Q0750.0 QA 1.50 Q1 0.00 3
 SPEC ROSCBH Z MO 14.7 ST0.304 OM  2.5 f0 1.01 R1.9050 AL-0.00 WI 30.0 MW  3.7 3
 SPEC ROSCBH Z T 34035 K 0.000 GD  293 VS 5.20 DE 3.50 Q0750.0 QA 1.50 Q1 0.00 3
 SPECGUY2CHH Z MO 14.4 ST0.111 OM  2.2 f00.869 R2.2140 AL-0.00 WI 30.0 MW  3.6 3
 SPECGUY2CHH Z T 34048 K 0.000 GD  336 VS 5.20 DE 3.50 Q0750.0 QA 1.50 Q1 0.00 3
 SPEC PTGCHH Z MO 14.4 ST0.653 OM  2.2 f0 1.56 R1.2333 AL-0.00 WI 30.0 MW  3.6 3
 SPEC PTGCHH Z T 34043 K 0.000 GD  340 VS 5.20 DE 3.50 Q0750.0 QA 1.50 Q1 0.00 3
 SPEC ELA HH Z MO 14.6 ST0.116 OM  2.3 f00.797 R2.4141 AL-0.00 WI 30.0 MW  3.7 3
 SPEC ELA HH Z T 34052 K 0.000 GD  360 VS 5.20 DE 3.50 Q0750.0 QA 1.50 Q1 0.00 3
 SPEC ANILHH Z MO 14.6 ST0.829 OM  2.3 f0 1.50 R1.2827 AL-0.00 WI 30.0 MW  3.7 3
 SPEC ANILHH Z T 34058 K 0.000 GD  386 VS 5.20 DE 3.50 Q0750.0 QA 1.50 Q1 0.00 3
 SPEC PRA HH Z MO 14.6 ST0.308 OM  2.3 f0 1.05 R1.8324 AL-0.00 WI 30.0 MW  3.7 3
 SPEC PRA HH Z T 341 2 K 0.000 GD  419 VS 5.20 DE 3.50 Q0750.0 QA 1.50 Q1 0.00 3
 SPEC ORTCHH Z MO 14.7 ST0.208 OM  2.4 f00.851 R2.2609 AL-0.00 WI 30.0 MW  3.8 3
 SPEC ORTCHH Z T 341 4 K 0.000 GD  421 VS 5.20 DE 3.50 Q0750.0 QA 1.50 Q1 0.00 3
 SPEC SJC HH Z MO 14.3 ST0.266 OM  1.9 f0 1.34 R1.4358 AL-0.00 WI 30.0 MW  3.4 3
 SPEC SJC HH Z T 341 2 K 0.000 GD  436 VS 5.20 DE 3.50 Q0750.0 QA 1.50 Q1 0.00 3
 SPEC MACCHH Z MO 14.4 ST0.183 OM  2.0 f0 1.02 R1.8863 AL-0.00 WI 30.0 MW  3.6 3
 SPEC MACCHH Z T 34125 K 0.000 GD  540 VS 5.20 DE 3.50 Q0750.0 QA 1.50 Q1 0.00 3
 OLDACT:UP  16-12-12 18:53 OP:edw  STATUS:               ID:20161212033748     3
 OLDACT:REG 16-12-12 12:03 OP:edw  STATUS:               ID:20161212033748     3
 ACTION:UPD 17-01-11 20:14 OP:rebc STATUS:               ID:20161212033928 L   I
 OLDACT:UP  16-12-14 15:55 OP:nlst STATUS:               ID:20161212033928 L   3
 OLDACT:UP  16-12-12 18:55 OP:edw  STATUS:               ID:20161212033748     3
 2016-12-12-0338-00M.COL___390                                                 6
 STAT SP IPHASW D HRMM SECON CODA AMPLIT PERI AZIMU VELO AIN AR TRES W  DIS CAZ7
 BAR2 EZ IP     D  339 48.64                             171   -0.1310 22.6 193 
 BAR2 EZ ES        340  4.09                             171   -0.2210 22.6 193 
 BAR2 EZ I         340  4.76       343.5 0.34            171           22.6 193 
 BRR  HZ IP     D  339 50.41                             152    0.0610 72.7 299 
 BRR  HN ES        340  7.40                             152    0.2710 72.7 299 
 BRR  HZ I         340 11.59       299.1 0.28            151           72.7 299 
 PAM  EZ EP        339 51.57                             151    0.2410 77.4  38 
 PAM  EN ES        340  8.43                             151   -0.4510 77.4  38 
 PAM  EZ I         340 11.14       536.9 0.74            149           77.4  38 
 RUS  HZ IP     D  339 52.55                             145   -0.2210 99.5 177 
 RUS  HN ES        340 11.39                             145   -0.0510 99.5 177 
 RUS  HZ I         340 12.57       244.5 0.34            143           99.5 177 
 PTB  HZ EP   9    339 55.17                             132   -0.93 0  149 259 
 PTB  HN ES        340 16.46                             132    0.02 9  149 259 
 PTB  HZ I         340 18.32       120.6 0.34            130            149 259 
 TAM  HZ IP     D  339 57.08                             131    0.49 9  154 105 
 TAM  HZ I         340 17.84        49.3 0.26            129            154 105 
 TAM  HN ES        340 18.74                             131    0.50 9  154 105 
 ZAR  HZ EP        340  1.42                             123   -0.18 8  206 292 
 ZAR  HN ES        340 27.08                             123   -0.08 8  206 292 
 ZAR  HZ I         340 32.77       173.0 0.26            120            206 292 
 CHI  HZ EP        340  6.84                             118    0.23 8  248 195 
 CHI  HN ES        340 35.64                             118   -0.44 8  248 195 
 CHI  HZ I         340 39.72        99.5 0.38            116            248 195 
 ROSC BZ IP   4 C  340  8.78                             117    1.71 0  253 211 
 ROSC BE ES        340 37.18                             117    0.28 8  253 211 
 ROSC BZ I         340 42.47       177.5 0.40            115            253 211 
 URE  HZ EP   4    340  8.68                             114   -1.51 0  285 292 
 URE  HN ES   4    340 39.92                             114   -2.53 0  285 292 
 URE  HZ I         340 50.51       107.3 0.22            112            285 292 
 GUY2CHZ EP        340 12.96                             113    0.35 7  302 235 
 GUY2CHN ES   4    340 49.63                             113    2.88 0  302 235 
 GUY2CHZ I         340 54.66        40.8 0.32                           302 235 
 VIL  EZ EP        340 12.39                             113    0.10 7  303 192 
 VIL  EN ES        340 45.82                             113   -0.37 7  303 192 
 VIL  EZ I         340 52.13       134.7 0.36            111            303 192 
 PTGC HZ IP        340 11.87                             112   -0.79 7  307 159 
 PTGC HN ES   4    340 45.42                             112   -1.42 0  307 159 
 PTGC HZ I         340 48.11       125.8 0.42            110            307 159 
 LL1C HZ EP   4    340 13.80                             112    1.13 0  308 351 
 LL1C HN ES   4    340 49.18                             112    2.31 0  308 351 
 LL6C HZ EP   4    339 53.74                             111   -21.0 0  326 357 
 LL6C HN ES   4    340 28.26                             111   -22.3 0  326 357 
 ELA  HZ EP   4    340 18.40                             111    2.58 0  329 230 
 ELA  HN ES   4    340 53.66                             111    1.18 0  329 230 
 ELA  HZ I         341  1.40        43.4 0.66            109            329 230 
 CBOC HZ EP        340 16.52                             110    0.57 7  334 252 
 CBOC HN ES        340 52.51                             110   -0.19 7  334 252 
 DBB  EZ EP        340 16.22                             110   -0.34 7  341 274 
 DBB  EN ES   4    340 51.57                             110   -2.21 0  341 274 
 ANIL HZ EP   4    340 19.94                             109    1.19 0  357 225 
 ANIL HN ES   4    341  0.16                             109    2.47 0  357 225 
 ARGC HZ EP   4    340 19.28                             109    0.54 0  361 340 
 ARGC HN ES        340 57.97                             109    0.30 6  361 340 
 ARGC HZ I         341  5.55        17.6 0.38            107            361 340 
 PRA  HZ EP        340 22.22                             107   -0.19 6  392 210 
 PRA  HN ES        341  4.03                             107   -0.18 6  392 210 
 PRA  HZ I         341  9.65        73.1 0.52            105            392 210 
 ORTC HZ EP        340 23.03                             107    0.20 6  395 216 
 ORTC HN ES        341  6.10                             107    1.15 6  395 216 
 ORTC HZ I         341  8.04        36.3 0.26            105            395 216 
 APAC HZ EP   4    340 16.94                             107   -6.34 0  400 288 
 APAC HN ES   4    341  4.52                             107   -1.22 0  400 288 
 APAC HZ I         341  9.44        24.3 0.41            105            400 288 
 PAL  HZ EP        340 24.38                             106    0.24 6  406 239 
 PAL  HN ES   4    341  5.94                             106   -1.34 0  406 239 
 PAL  HZ I         341 12.66        13.8 0.30            105            406 239 
 SJC  HZ EP   4    340 22.33                             106   -2.32 0  411 327 
 SJC  HN ES   4    341  3.89                             106   -4.30 0  411 327 
 SJC  HZ I         341  8.57        19.5 0.31            104            411 327 
 LCBC HZ EP   3    340 28.04                             105    1.98 1  423 303 
 LCBC HN ES   3    341  8.48                             105   -2.22 1  423 303 
 LCBC HZ I         341 13.40        40.6 0.20            104            423 303 
 CRJC HZ EP   9    340 28.93                             104   -2.58 0  469   3 
 CRJC HN ES        341 18.37                             104    0.55 5  469   3 
 CRJC HZ I         341 19.85        34.0 0.18            102            469   3 
 YOT  HZ EP   2    340 30.88                             104   -1.10 2  472 229 
 YOT  HN ES   4    341 26.32                             104    5.09 0  472 229 
 GUA  EZ EP        340 31.47                             103   -0.46 5  473 173 
 GUA  EN ES   4    341 18.27                             103   -2.87 0  473 173 
 GUA  EZ I         341 25.86        43.3 0.26            102            473 173 
 SMAR HZ EP        340 33.59                             103   -1.33 4  498 346 
 SMAR HN ES   4    341 21.67                             103   -4.79 0  498 346 
 SMAR HZ I         341 29.23        20.3 0.42            101            498 346 
 MACC HZ EP   4    340 35.74                             102   -1.77 0  520 189 
 MACC HN ES   4    341 26.97                             102   -4.11 0  520 189 
 MACC HZ I         341 35.45        15.1 0.50            100            520 189 
 MARO HZ EP   2    340 39.72                             102   -0.18 2  537 216 
 MARO HN ES   4    341 30.78                             102   -4.56 0  537 216 
 MARO HZ I         341 39.87         9.1 0.28            100            537 216 
 GARC HZ EP   4    340 42.76                             101   -1.34 0  572 207 
 GARC HN ES   4    341 40.88                             101   -1.93 0  572 207 
 GARC HZ I         341 44.73        17.3 0.26             99            572 207 
 CONO HZ EP        340 49.91                             100    0.67 3  612 216 
 CONO HN ES   4    341 54.29                             100    2.32 0  612 216 
 CONO HZ I         342 15.89         4.7 0.56             98            612 216 
 FLO2 HZ EP        340 51.38                              99   -0.58 2  640 206 
 FLO2 HN ES   4    341 59.10                              99    2.30 0  640 206 
 FLO2 HZ I         341 59.82         3.6 0.36             98            640 206 
 SOTO HZ EP   4    340 54.37                              99    1.48 0  643 217 
                                                                                
