 2016  712 0319 59.4 L   6.790 -73.104144.4  RSN  6 0.5 1.4LRSN                1
 GAP=241        1.27       7.2     7.4  8.6  0.5498E+01  0.1546E+02  0.1016E+02E
 Epicentro: LOS SANTOS - SANTANDER                                             3
 ACTION:UPD 17-03-29 16:49 OP:lp   STATUS:               ID:20160712031959 L   I
 OLDACT:REG 16-07-12 12:27 OP:lv   STATUS:               ID:20160712031759     3
 2016-07-12-0317-59S.COL___331                                                 6
 STAT SP IPHASW D HRMM SECON CODA AMPLIT PERI AZIMU VELO AIN AR TRES W  DIS CAZ7
 BAR2 EZ EP        320 18.59                             170   -0.2410 23.6 202 
 BAR2 EZ ES        320 33.61                             170   -0.4210 23.6 202 
 BAR2 EZ I         320 36.62         5.2 0.46            166           23.6 202 
 BRR  HZ EP        320 20.70                             151    0.0710 75.8 298 
 BRR  HN ES        320 38.10                             151    0.8810 75.8 298 
 BRR  HZ I         320 39.27         3.6 0.36            151           75.8 298 
 RUS  HZ EP        320 23.15                             144    0.2610 99.3 179 
 RUS  HN ES        320 41.58                             144    0.3410 99.3 179 
 RUS  HZ I         320 44.39         2.1 0.21            144           99.3 179 
 PTB  HZ EP        320 25.80                             131   -0.82 9  152 260 
 PTB  HE ES        320 47.28                             131   -0.60 9  152 260 
 PTB  HZ I         320 52.73         3.3 0.15            132            152 260 
 SPBC HZ EP        320 27.76                             128   -0.20 9  165 220 
 SPBC HN ES        320 49.99                             128   -0.28 9  165 220 
 SPBC HZ I         320 55.65         7.3 0.13            129            165 220 
 GUY2CHZ EP        320 44.09                             112    0.82 7  304 235 
 GUY2CHE ES        321 18.12                             112    0.61 7  304 235 
 GUY2CHZ I         321 23.90         1.9 0.46                           304 235 
                                                                                
