 2013 1212 0859 57.8 L   6.798 -73.165141.7  RSN  9 0.5 1.8LRSN                1
 GAP=134        1.17       4.7     5.8  7.7 -0.2148E+01  0.1507E+02  0.9447E+01E
 Epicentro: LOS SANTOS - SANTANDER                                             3
 ACTION:UPD 14-01-13 10:17 OP:ep   STATUS:               ID:20131212085957 L   I
 OLDACT:REG 13-12-12 07:12 OP:jn   STATUS:               ID:20131212090000     3
 2013-12-12-0900-00M.COL___285                                                 6
 STAT SP IPHASW D HRMM SECON CODA AMPLIT PERI AZIMU VELO AIN AR TRES W  DIS CAZ7
 BAR2 SZ EP        9 0 17.07                             170    0.0910 22.8 185 
 BAR2 SZ ES        9 0 32.29                             170    0.3910 22.8 185 
 BAR2 SZ I         9 0 32.80        21.0 0.26            168           22.8 185 
 BRR  HZ EP        9 0 19.00                             152    0.5410 69.5 300 
 BRR  HN ES        9 0 35.30                             152    0.7610 69.5 300 
 BRR  HZ I         9 0 40.05        12.4 0.12            139           69.5 300 
 PAM  SN ES        9 0 36.26                             150   -0.5410 79.0  41 
 PAM  SZ I         9 0 38.96        12.1 0.54            143           79.0  41 
 RUS  HZ EP        9 0 21.13                             143   -0.0610  100 175 
 RUS  HN ES        9 0 39.32                             143   -0.0810  100 175 
 RUS  HZ I         9 0 41.28         6.6 0.36            138            100 175 
 PTB  HZ EP        9 0 23.88                             132   -0.41 9  146 259 
 PTB  HN ES        9 0 44.23                             132   -0.69 9  146 259 
 PTB  HZ I         9 0 51.69         7.0 0.14            121            146 259 
 OCA  HN ES   1    9 0 46.94                             129   -0.75 7  160 354 
 OCA  HZ I         9 0 52.63         7.9 0.30            119            160 354 
 NOR  HZ EP        9 0 33.82                             118    0.68 8  233 234 
 NOR  HN ES        9 1  0.14                             118   -0.53 8  233 234 
 NOR  HZ I         9 1  7.00         6.3 0.22            110            233 234 
 CHI  HZ EP   1    9 0 35.30                             116    0.07 6  248 195 
 CHI  HN ES   1    9 1  4.07                             116   -0.33 6  248 195 
 CHI  HZ I         9 1  7.84         3.0 0.26            109            248 195 
 HEL  HZ EP   1    9 0 38.25                             114    0.63 6  270 256 
 HEL  HZ I         9 1 16.74         4.6 0.32            106            270 256 
                                                                                
