 2011 1212 0610 22.9 L   6.802 -73.176145.0  RSN  6 0.4 1.5LRSN                1
 GAP=178        0.67       8.1     6.5  7.9  0.1742E+02  0.5162E+01 -0.1818E+01E
 Epicentro: LOS SANTOS - SANTANDER                                             3
 ACTION:UPD 12-07-13 16:15 OP:ep   STATUS:               ID:20111212061022 L   I
 2011-12-12-0610-00M.COL___186                                                 6
 STAT SP IPHASW D HRMM SECON CODA AMPLIT PERI AZIMU VELO AIN AR TRES W  DIS CAZ7
 BAR2 SZ EP   1    610 42.33                             171   -0.13 7 23.2 182 
 BAR2 SZ ES   2    610 58.50                             171    0.81 5 23.2 182 
 BAR2 SZ I         610 59.21         7.5 0.18                          23.2 182 
 GIR2 SZ EP   2    610 42.39                             167   -0.10 5 30.7 356 
 RUS  HZ EP   1    610 46.72                             143    0.09 7  101 174 
 RUS  HN ES   1    611  4.73                             143   -0.40 7  101 174 
 RUS  HZ I         611  6.77         3.5 0.24                           101 174 
 PTB  HZ EP   1    610 49.27                             132   -0.27 7  145 258 
 PTB  HN ES   1    611 10.26                             132   -0.04 7  145 258 
 CTAU SZ EP   2    610 56.77                             123    1.07 4  201 209 
 CTAU SZ I         611 25.96         3.6 0.38                           201 209 
 CHI  HZ EP   1    611  0.57                             117    0.06 6  248 194 
 CHI  HZ I         611 35.08         1.8 0.27                           248 194 
                                                                                
