 2012  112 0254 49.7 L   6.780 -73.124154.4  RSN  5 0.2 1.6LRSN                1
 GAP=190        0.46       6.4     8.1  5.9  0.3572E+02  0.3512E+01  0.2242E+01E
 Epicentro: LOS SANTOS - SANTANDER                                             3
 ACTION:UP  12-02-03 08:16 OP:REBC STATUS:               ID:20120112025449 L   I
 2012-01-12-0250-00M.COL___187                                                 6
 STAT SP IPHASW D HRMM SECON CODA AMPLIT PERI AZIMU VELO SNR AR TRES W  DIS CAZ7
 BAR2 SZ EP   1    255 10.38                             172     0.1 7   22 197 
 BAR2 SZ ES   2    255 26.13                             172    -0.3 5   22 197 
 BAR2 SZ I         255 27.89         8.2 0.26                            22 197 
 GIR2 SZ EP   2    255 10.27                             167    -0.2 5   34 347 
 GIR2 SZ ES   2    255 26.54                             167    -0.1 5   34 347 
 BRR  HZ IP     C  255 12.09                             153     0.110   74 299 
 BRR  HZ I         255 12.46         9.1 0.09                            74 299 
 BRR  HE ES   2    255 29.58                             153     0.3 5   74 299 
 RUS  HZ EP   1    255 13.95                             146    -0.2 7   98 177 
 RUS  HN ES   2    255 33.45                             146     0.3 5   98 177 
 RUS  HZ I         255 34.09         2.2 0.36                            98 177 
 ZAR  HN ES   2    255 48.62                             124    -0.4 4  207 292 
 ZAR  HZ I         255 54.92         6.0 0.24                           207 292 
                                                                                
