 2013  512 0234 40.5 L   6.826 -73.162146.5  RSN 14 0.5 2.3LRSN                1
 GAP= 64        1.05       3.1     3.4  5.6  0.4372E+00  0.3672E+01  0.2625E+01E
 Epicentro: LOS SANTOS - SANTANDER                                             3
 ACTION:UPD 13-06-20 09:49 OP:ep   STATUS:               ID:20130512023440 L   I
 2013-05-12-0230-00M.COL___256                                                 6
 STAT SP IPHASW D HRMM SECON CODA AMPLIT PERI AZIMU VELO AIN AR TRES W  DIS CAZ7
 BAR2 SZ IP     D  235  0.24                             169   -0.0110 26.0 185 
 BAR2 SZ ES   1    235 15.50                             169   -0.17 7 26.0 185 
 BAR2 SZ I         235 18.07        27.7 0.26            168           26.0 185 
 GIR2 SZ EP        235  0.21                             169    0.0610 28.1 353 
 GIR2 SZ ES   1    235 15.23                             169   -0.27 7 28.1 353 
 GIR2 SZ I         235 17.03        22.6 0.36            170           28.1 353 
 BRR  HZ IP     C  235  1.99                             154    0.4510 68.3 297 
 BRR  HN ES   1    235 18.90                             154    0.93 7 68.3 297 
 BRR  HZ I         235 19.52        50.0 0.10            153           68.3 297 
 PAM  SZ EP        235  3.06                             151    0.3610 76.3  42 
 PAM  SN ES   1    235 20.03                             151   -0.02 7 76.3  42 
 PAM  SZ I         235 21.47        19.7 0.14            156           76.3  42 
 RUS  HZ EP        235  4.37                             143   -0.1410  104 175 
 RUS  HN ES   1    235 22.88                             143   -0.39 7  104 175 
 RUS  HZ I         235 24.70        15.2 0.26            144            104 175 
 PTB  HZ EP        235  6.72                             132   -0.67 9  147 258 
 PTB  HN ES   1    235 27.75                             132   -0.64 7  147 258 
 PTB  HZ I         235 32.99        34.4 0.12            133            147 258 
 OCA  HZ EP        235  7.45                             130   -1.10 9  157 354 
 OCA  HN ES   1    235 31.49                             130    1.04 7  157 354 
 OCA  HZ I         235 34.56        32.4 0.20            133            157 354 
 TAM  HZ EP        235  8.64                             130    0.20 9  158 106 
 TAM  HE ES   1    235 30.22                             130   -0.03 7  158 106 
 TAM  HZ I         235 30.88        16.5 0.22            134            158 106 
 YOP  SZ EP        235 11.12                             126    0.22 9  182 153 
 YOP  SN ES        235 34.39                             126   -0.24 9  182 153 
 YOP  SZ I         235 37.87        60.5 0.84            128            182 153 
 NOR  HZ EP        235 16.81                             119    0.54 8  235 234 
 NOR  HN ES        235 44.21                             119    0.02 8  235 234 
 NOR  HZ I         235 50.33        20.1 0.20            119            235 234 
 SML  HZ EP        235 16.16                             118   -0.61 8  240 335 
 SML  HN ES   1    235 44.78                             118   -0.31 6  240 335 
 CHI  HZ EP        235 18.66                             117    0.20 8  251 195 
 CHI  HN ES   1    235 48.10                             117    0.00 6  251 195 
 CHI  HZ I         235 54.25         6.1 0.54            118            251 195 
 HEL  HZ EP        235 21.04                             115    0.43 8  271 255 
 HEL  HN ES        235 52.01                             115    0.09 8  271 255 
 HEL  HZ I         235 59.89        12.2 0.30            116            271 255 
 PRA  HZ EP        235 34.65                             107    0.44 6  394 209 
                                                                                
