 2017  612 0740 40.4 L   6.781 -73.119143.1  RSN 11 0.5 2.0LRSN                1
 GAP=166        0.98       4.1     4.3  7.6  0.8712E+00 -0.5898E+01  0.7509E+01E
 Epicentro: LOS SANTOS - SANTANDER                                             3
 ACTION:UPD 17-09-14 16:51 OP:jn   STATUS:               ID:20170612074040 L   I
 OLDACT:UP  17-06-12 15:18 OP:dani STATUS:               ID:20170612073745     3
 OLDACT:UP  17-06-12 15:18 OP:dani STATUS:               ID:20170612073745     3
 OLDACT:UP  17-06-12 15:17 OP:dani STATUS:               ID:20170612073745     3
 OLDACT:UP  17-06-12 15:17 OP:dani STATUS:               ID:20170612073745     3
 OLDACT:REG 17-06-12 13:03 OP:dani STATUS:               ID:20170612073745     3
 2017-06-12-0738-00M.COL___347                                                 6
 STAT SP IPHASW D HRMM SECON CODA AMPLIT PERI AZIMU VELO AIN AR TRES W  DIS CAZ7
 BRR  HZ EP        741  1.59                             151    0.0710 74.8 299 
 BRR  HE ES        741 18.31                             151    0.3610 74.8 299 
 BRR  HZ I         741 23.93        15.9 0.16            150           74.8 299 
 PTB  HZ EP   3    741  6.14                             131   -1.29 2  150 260 
 PTB  HN ES        741 27.80                             131   -0.67 9  150 260 
 PTB  HZ I         741 33.65        11.1 0.54            131            150 260 
 TAM  HZ IP     D  741  7.85                             131    0.25 9  152 105 
 SPBC HZ EP        741  8.57                             128   -0.20 9  163 220 
 SPBC HN ES        741 31.02                             128    0.16 9  163 220 
 SPBC HZ I         741 33.16        25.4 0.22            129            163 220 
 ZAR  HZ EP        741 12.98                             121   -0.10 8  208 292 
 ZAR  HE ES        741 38.05                             121   -0.49 8  208 292 
 ZAR  HZ I         741 44.08        10.7 0.20            123            208 292 
 NOR  HZ EP        741 16.36                             118    0.21 8  236 235 
 CHI  HZ EP        741 17.06                             117   -0.81 8  247 196 
 CHI  HN ES        741 46.49                             117   -0.56 8  247 196 
 CHI  HZ I         741 54.20         4.2 0.21            119            247 196 
 ROSC BZ EP   3    741 20.00                             116    1.60 2  253 212 
 ROSC BE ES        741 48.58                             116    0.58 8  253 212 
 ROSC BZ I         741 56.43        11.7 0.27            118            253 212 
 HEL  HZ EP        741 21.52                             114    0.73 8  274 256 
 HEL  HN ES        741 52.67                             114    0.42 8  274 256 
 HEL  HZ I         741 58.38         5.5 0.34            115            274 256 
 CBOC HZ EP        741 27.40                             109   -0.10 7  336 253 
 CBOC HN ES        742  4.55                             109    0.35 7  336 253 
 CBOC HZ I         742 11.99         2.0 0.40            111            336 253 
 SJC  HZ EP   4    741 33.63                             105   -2.69 0  413 327 
 SJC  HN ES   4    742 15.33                             105   -4.56 0  413 327 
 SJC  HZ I         742 26.08         2.4 0.70            107            413 327 
                                                                                
