 2015 1212 0323 15.1 L   7.331 -73.446101.3  RSN  8 0.3 1.6LRSN                1
 GAP= 86        0.85       2.7     2.9  6.0 -0.1330E+01  0.6097E+01 -0.2298E+01E
 Epicentro: SABANA DE TORRES - SANTANDER                                       3
 ACTION:UPD 16-02-04 15:04 OP:cam  STATUS:               ID:20151212032315 L   I
 OLDACT:REG 15-12-12 11:15 OP:drio STATUS:               ID:20151212031742     3
 2015-12-12-0317-42M.COL___340                                                 6
 STAT SP IPHASW D HRMM SECON CODA AMPLIT PERI AZIMU VELO AIN AR TRES W  DIS CAZ7
 BRR  HZ EP        323 29.21                             157   -0.4410 38.4 230 
 BRR  HE ES        323 41.07                             157    0.0910 38.4 230 
 BRR  HZ I         323 44.53         8.1 0.32            159           38.4 230 
 PAM  EZ EP        323 33.76                             138    0.5110 82.4  89 
 PAM  EN ES        323 47.77                             138    0.3810 82.4  89 
 PAM  EZ I         323 49.56         4.3 0.26            144           82.4  89 
 BAR2 EZ EP        323 33.12                             136   -0.1410 86.8 160 
 BAR2 EZ ES        323 46.89                             136   -0.5210 86.8 160 
 BAR2 EZ I         323 48.46        12.0 0.32            142           86.8 160 
 OCA  HZ EP        323 34.12                             131   -0.3110  101   8 
 OCA  HN ES        323 49.42                             131   -0.0810  101   8 
 OCA  HZ I         323 51.73        18.8 0.32            136            101   8 
 PTB  HZ EP   4    323 36.93                             121   -1.34 0  142 232 
 PTB  HN ES        323 56.38                             121    0.06 9  142 232 
 PTB  HZ I         324  0.68         3.6 0.26            125            142 232 
 ZAR  HZ EP        323 39.97                             118    0.11 9  157 277 
 ZAR  HN ES        323 59.48                             118    0.33 9  157 277 
 ZAR  HZ I         324  1.95         7.6 0.48            122            157 277 
 SPBC HN ES        324  7.86                             111    0.35 9  198 200 
 URE  HZ EP        323 48.43                             107   -0.26 8  235 282 
 URE  HN ES   4    324 13.50                             107   -1.38 0  235 282 
 URE  HZ I         324 14.94         7.2 0.14            111            235 282 
                                                                                
