 2013  312 0026 35.6 L   6.798 -73.168146.2  RSN  4 0.4 1.3LRSN                1
 GAP=134        0.64       4.2     6.3 11.4  0.1317E+01  0.1779E+02 -0.1463E+02E
 Epicentro: LOS SANTOS - SANTANDER                                             3
 *PAM-RUS-PTB-SML                                                              3
 ACTION:UPD 13-04-09 14:01 OP:ep   STATUS:               ID:20130312002001dL   I
 2013-03-12-0020-00M.COL___231                                                 6
 STAT SP IPHASW D HRMM SECON CODA AMPLIT PERI AZIMU VELO AIN AR TRES W  DIS CAZ7
 PAM  SZ EP   1    026 58.44                             150    0.44 7 79.1  41 
 PAM  SN ES   2    027 15.37                             150   -0.08 5 79.1  41 
 PAM  SZ I         027 20.12         2.9 0.40            157           79.1  41 
 RUS  HZ EP   1    026 59.50                             143    0.07 7  101 175 
 RUS  HN ES   1    027 17.66                             143   -0.32 7  101 175 
 RUS  HZ I         027 19.42         2.2 0.45            153            101 175 
 PTB  HZ EP   2    027  1.99                             132   -0.43 5  145 259 
 PTB  HN ES   2    027 23.98                             132    0.67 5  145 259 
 PTB  HZ I         027 31.04         4.6 0.34            136            145 259 
 SML  HN ES   1    027 40.34                             117   -0.38 6  243 336 
                                                                                
