 2015  612 0247 13.5 L   6.787 -73.094150.2  RSN 13 0.3 1.8LRSN                1
 GAP=144        0.74       2.5     3.6  4.7 -0.1909E+01  0.4642E+01 -0.6132E+00E
 Epicentro: LOS SANTOS - SANTANDER                                             3
 ACTION:UPD 15-09-10 22:11 OP:cam  STATUS:               ID:20150612024713 L   I
 OLDACT:REG 15-06-12 12:53 OP:ak   STATUS:               ID:20150612023748     3
 2015-06-12-0237-48M.COL___300                                                 6
 STAT SP IPHASW D HRMM SECON CODA AMPLIT PERI AZIMU VELO AIN AR TRES W  DIS CAZ7
 BAR2 EZ EP        247 33.62                             171   -0.0910 23.7 204 
 BAR2 EZ ES   1    247 49.52                             171    0.07 7 23.7 204 
 BAR2 EZ I         247 50.39        10.1 0.42            170           23.7 204 
 PAM  SZ EP   1    247 35.95                             152   -0.15 7 75.0  35 
 PAM  SE ES   1    247 54.08                             152    0.39 7 75.0  35 
 PAM  SZ I         247 55.82         7.3 0.58            155           75.0  35 
 BRR  HZ EP        247 35.53                             152    0.0310 77.0 297 
 BRR  HE ES        247 53.05                             152    0.4210 77.0 297 
 BRR  HZ I         247 53.87        11.7 0.26            150           77.0 297 
 RUS  HZ EP   1    247 37.67                             145    0.05 7 98.9 179 
 RUS  HN ES   1    247 56.19                             145   -0.20 7 98.9 179 
 RUS  HZ I         247 57.55         3.9 0.22            147           98.9 179 
 OCA  HZ EP        247 42.41                             130    0.01 9  162 351 
 OCA  HE ES        248  4.95                             130    0.03 9  162 351 
 OCA  HZ I         248  9.50        17.6 0.26            131            162 351 
 SPBC HZ EP        247 42.47                             130   -0.16 9  166 221 
 SPBC HE ES        248  4.91                             130   -0.41 9  166 221 
 SPBC HZ I         248  7.97        12.3 0.12            131            166 221 
 ZAR  HZ EP        247 46.30                             123   -0.58 8  210 292 
 ZAR  HE ES        248 12.31                             123   -0.58 8  210 292 
 ZAR  HZ I         248 17.27         6.2 0.40            123            210 292 
 NOR  HE ES        248 18.53                             119    0.18 8  239 236 
 NOR  HZ I         248 22.18         4.5 0.16            120            239 236 
 SML  HZ EP   1    247 50.82                             118   -0.00 6  247 334 
 SML  HE ES   1    248 19.91                             118    0.01 6  247 334 
 SML  HZ I         248 21.50        12.9 0.10            119            247 334 
 HEL  HZ EP   4    247 55.95                             115    1.39 0  277 256 
 HEL  HN ES   1    248 27.19                             115    0.63 6  277 256 
 HEL  HZ I         248 32.19         3.2 0.34            116            277 256 
 GUY2CHZ EP   1    247 58.35                             113    0.55 5  305 236 
 GUY2CHE ES   4    248 34.51                             113    2.19 0  305 236 
 GUY2CHZ I         248 39.81         2.3 0.44                           305 236 
 CBOC HZ EP        248  1.98                             110    0.76 7  339 253 
 SJC  HZ EP   4    248  8.40                             106   -1.36 0  414 326 
 SJC  HN ES   4    248 51.17                             106   -2.44 0  414 326 
 SJC  HZ I         248 53.48         1.9 0.72            107            414 326 
                                                                                
