 2010  412 0237 29.2 L   6.689 -73.458123.8  RSN  5 0.3 2.1LRSN                1
 GAP=222        0.60       5.3     6.7  7.2 -0.1696E+02  0.7440E+01  0.5150E+01E
 Epicentro: EL CARMEN DE CHUCURI - SANTANDER                                   3
 ACTION:UPD 10-08-24 09:58 OP:vdl  STATUS:               ID:20100412023729 L   I
 2010-04-12-0220-00S.COL___097                                                 6
 STAT SP IPHASW D HRMM SECON CODA AMPLIT PERI AZIMU VELO AIN AR TRES W  DIS CAZ7
 BRR  HZ IP     C  237 46.80                             156    -0.210   54 329 
 BRR  HE ES   1    238  1.14                             156     0.2 7   54 329 
 BRR  HZ I         238  2.03        27.9 0.13                            54 329 
 OCA  SZ EP   1    237 57.49                             122     0.4 7  172   5 
 OCA  SZ ES   2    238 18.60                             122    -0.3 4  172   5 
 OCA  SZ I         238 27.24        29.8 0.23                           172   5 
 HEL  HZ EP   2    238  4.03                             113    -0.2 4  236 257 
 HEL  HN ES   2    238 31.93                             113     0.3 4  236 257 
 HEL  HZ I         238 36.08         8.6 0.20                           236 257 
 RREF BZ EP   2    238 11.18                             108     0.6 4  288 227 
 RREF BE ES   2    238 42.45                             108    -0.4 4  288 227 
 RREF BZ I         238 49.46         7.3 0.21                           288 227 
 MON  HE ES   1    238 51.15                             105    -0.1 5  335 314 
 MON  HZ I         238 53.29         2.4 0.19                           335 314 
                                                                                
