 2010  812 0726 27.3 L   6.764 -73.064142.6  RSN  8 0.3 1.7LRSN                1
 GAP=168        0.71       3.7     7.0  6.2 -0.3700E+01 -0.1587E+02 -0.9764E+00E
 Epicentro: LOS SANTOS - SANTANDER                                             3
 ACTION:UP  10-09-07 10:54 OP:vdl  STATUS:               ID:20100812072627 L   I
 2010-08-12-0724-00S.COL___127                                                 6
 STAT SP IPHASW D HRMM SECON CODA AMPLIT PERI AZIMU VELO SNR AR TRES W  DIS CAZ7
 BAR2 SZ EP        726 46.54                             171    -0.110   23 215 
 BAR2 SZ ES   1    727  1.07                             171    -0.5 7   23 215 
 BAR2 SZ I         727  2.50         8.3 0.13                            23 215 
 GIR2 SZ EP   1    726 46.83                             164     0.0 7   38 338 
 BRR  HZ EP        726 48.67                             149    -0.110   81 298 
 BRR  HN ES        727  5.73                             149     0.310   81 298 
 BRR  HZ I         727 10.38        12.9 0.15                            81 298 
 RUS  HZ EP   1    726 50.54                             145     0.1 7   96 181 
 RUS  HN ES   2    727  8.91                             145     0.4 5   96 181 
 RUS  HZ I         727 10.27         3.5 0.44                            96 181 
 GUE  SZ EP        726 51.91                             138     0.010  119   7 
 GRA  SZ EP        726 52.75                             136     0.310  127  13 
 GRA  SZ ES   1    727 12.18                             136     0.2 7  127  13 
 GRA  SZ I         727 14.64         6.5 0.42                           127  13 
 OCA  SZ EP   1    726 55.46                             128    -0.4 7  165 350 
 OCA  SZ ES   2    727 17.58                             128    -0.6 5  165 350 
 OCA  SZ I         727 20.70         7.4 0.36                           165 350 
 PRA  HZ EP   1    727 21.00                             106     0.1 4  393 211 
 PRA  HZ I         728  9.15         1.7 0.23                           393 211 
                                                                                
