 2016  412 0456 24.8 L   6.797 -73.205143.7  RSN  7 0.4 1.5LRSN                1
 GAP=129        0.97       3.5     4.3  7.5 -0.2363E+01  0.1009E+02 -0.6289E+00E
 Epicentro: ZAPATOCA - SANTANDER                                               3
 ACTION:UPD 16-05-05 14:20 OP:rebc STATUS:               ID:20160412045624 L   I
 OLDACT:UP  16-04-12 17:12 OP:mh   STATUS:               ID:20160412044743     3
 OLDACT:REG 16-04-12 12:35 OP:mh   STATUS:               ID:20160412044743     3
 2016-04-12-0447-43M.COL___320                                                 6
 STAT SP IPHASW D HRMM SECON CODA AMPLIT PERI AZIMU VELO AIN AR TRES W  DIS CAZ7
 BAR2 EZ EP   1    456 44.13                             171   -0.06 7 22.8 174 
 BAR2 EZ ES        456 59.67                             171    0.3710 22.8 174 
 BAR2 EZ I         457  0.81         7.7 0.10            167           22.8 174 
 PAM  EN EP        456 47.15                             149    0.0510 82.0  43 
 PAM  EZ ES        457  4.32                             149   -0.1610 82.0  43 
 PAM  EN I         457  6.15         9.2 0.52            142           82.0  43 
 RUS  HZ EP        456 48.10                             143   -0.3010  101 172 
 RUS  HN ES        457  6.69                             143   -0.0910  101 172 
 RUS  HZ I         457  8.10         3.7 0.26            164            101 172 
 PTB  HZ EP        456 51.02                             133   -0.01 9  141 258 
 PTB  HN ES        457 10.51                             133   -0.96 9  141 258 
 PTB  HZ I         457 18.94         3.0 0.38            134            141 258 
 SPBC HZ EP        456 53.02                             129    0.27 9  159 217 
 SPBC HN ES        457 15.00                             129    0.46 9  159 217 
 SPBC HZ I         457 17.77         5.1 0.10            139            159 217 
 OCA  HN ES        457 14.89                             129    0.02 9  160 355 
 OCA  HZ I         458  9.24         4.2 0.50            124            160 355 
 ZAR  HN ES        457 21.77                             123    0.53 9  198 293 
 ZAR  HZ I         457 25.84         2.2 0.38            122            198 293 
                                                                                
