 2014  512 0225 18.3 L   6.798 -73.121141.0  RSN  6 0.5 1.4LRSN                1
 GAP=140        0.87       5.4     5.2 10.2 -0.5865E-01  0.1009E+02  0.5462E+01E
 Epicentro: LOS SANTOS - SANTANDER                                             3
 OLDACT:REG 14-05-12 13:20 OP:spq  STATUS:               ID:20140512021805     3
 ACTION:UPD 15-03-16 16:56 OP:nd   STATUS:               ID:20140512022517 L   I
 OLDACT:UP  14-05-12 19:12 OP:nlst STATUS:               ID:20140512022517 L   3
 OLDACT:UP  14-05-12 15:00 OP:spq  STATUS:               ID:20140512021805     3
 2014-05-12-0218-05M.COL___254                                                 6
 STAT SP IPHASW D HRMM SECON CODA AMPLIT PERI AZIMU VELO AIN AR TRES W  DIS CAZ7
 BRR  HZ EP   1    225 39.55                             151    0.50 7 73.7 298 
 BRR  HN ES   1    225 55.96                             151    0.70 7 73.7 298 
 BRR  SZ I         226  3.92         5.0 2.86            162           73.7 298 
 PAM  SZ EP   1    225 39.97                             151    0.09 7 75.8  38 
 PAM  SN ES   1    225 56.02                             151   -0.73 7 75.8  38 
 RUS  HZ EP   1    225 41.63                             143    0.10 7  100 178 
 RUS  HN ES   1    225 59.93                             143    0.25 7  100 178 
 RUS  SZ I         226 15.35         3.6 3.92            145            100 178 
 PTB  HZ EP   1    225 44.83                             130   -0.26 7  150 259 
 PTB  HN ES   1    226  5.37                             130   -0.65 7  150 259 
 PTB  SZ I         226  9.98         3.8 2.50            140            150 259 
 SPBC HN ES   2    226  8.24                             128   -0.38 5  165 220 
 ZAR  HE ES   1    226 15.97                             121    0.02 6  207 292 
                                                                                
