 2016  912 0757 34.0 L   6.775 -74.045 76.0  RSN  5 0.4 1.0LRSN                1
 GAP=114        0.93       3.1     3.1  7.0 -0.1718E+01 -0.3864E+01  0.9747E+00E
 Epicentro: PUERTO PARRA - SANTANDER                                           3
 ACTION:UPD 17-08-17 21:09 OP:lp   STATUS:               ID:20160912075734 L   I
 OLDACT:UP  16-09-12 21:50 OP:lv   STATUS:               ID:20160912074740d    3
 OLDACT:UP  16-09-12 21:50 OP:ar   STATUS:               ID:20160912074740d    3
 OLDACT:DUP 16-09-12 21:35 OP:lv   STATUS:               ID:20160912074740d    3
 2016-09-12-0748-00M.COL___300                                                 6
 STAT SP IPHASW D HRMM SECON CODA AMPLIT PERI AZIMU VELO AIN AR TRES W  DIS CAZ7
 BRR  HZ IP     D  757 46.24                             142   -0.4510 52.0  45 
 BRR  HN ES        757 56.93                             142    0.3810 52.0  45 
 BRR  HZ I         757 57.49         2.9 0.11            141           52.0  45 
 PTB  HZ EP        757 46.38                             142   -0.3510 52.3 240 
 PTB  HN ES        757 56.30                             142   -0.3410 52.3 240 
 PTB  HZ I         757 56.80         4.2 0.12            141           52.3 240 
 ZAR  HZ EP        757 53.67                             117    0.4010  120 312 
 ZAR  HE ES        758  8.44                             117    0.1610  120 312 
 ZAR  HZ I         758 12.31         1.2 0.09            115            120 312 
 SPBC HZ EP        757 54.11                             116    0.2510  124 181 
 SPBC HE ES        758  9.66                             116    0.3310  124 181 
 SPBC HZ I         758 11.12         2.8 0.13            115            124 181 
 PAM  EZ EP        757 58.05                             110   -0.54 9  161  67 
 PAM  EE ES        758 17.94                             110    0.19 9  161  67 
 PAM  EZ I         758 19.27         2.4 0.25            109            161  67 
                                                                                
