 2013  112 0949  4.3 L   6.726 -73.148147.0  RSN  5 0.3 1.8LRSN                1
 GAP=231        0.68       5.3     4.9  5.2  0.1670E+02  0.4216E+01 -0.4158E+00E
 Epicentro: JORDAN - SANTANDER                                                 3
 ACTION:UPD 13-02-15 09:13 OP:ep   STATUS:               ID:20130112094904 L   I
 2013-01-12-0947-38M.COL___183                                                 6
 STAT SP IPHASW D HRMM SECON CODA AMPLIT PERI AZIMU VELO AIN AR TRES W  DIS CAZ7
 BAR2 SZ EP        949 23.61                             174   -0.3510 15.2 194 
 BAR2 SZ ES        949 39.19                             174   -0.0910 15.2 194 
 BAR2 SZ I         949 40.89         9.6 0.38            167           15.2 194 
 BRR  HZ EP   1    949 25.86                             151    0.04 7 75.2 304 
 BRR  HN ES        949 42.83                             151    0.2310 75.2 304 
 BRR  HN I         949 44.44        11.6 0.22            149           75.2 304 
 RUS  HZ EP        949 28.19                             146    0.5710 92.4 176 
 RUS  HN ES        949 45.63                             146   -0.1610 92.4 176 
 RUS  HN I         949 48.37         5.6 0.40            145           92.4 176 
 PTB  HZ EP        949 31.09                             133   -0.14 9  146 262 
 PTB  HN ES        949 52.21                             133   -0.01 9  146 262 
 PTB  HN I         949 57.66        10.3 0.34            130            146 262 
 ZAR  HZ EP   1    949 36.86                             122   -0.28 6  207 294 
 ZAR  HN ES        950  2.79                             122    0.04 8  207 294 
 ZAR  HN I         950  8.23         7.8 0.26            122            207 294 
                                                                                
