 2013  112 0007 38.4 L   6.794 -73.162132.0  RSN  7 0.4 1.8LRSN                1
 GAP=181        1.11       4.1     6.1  9.7  0.7565E+01  0.1454E+01  0.8484E+01E
 Epicentro: LOS SANTOS - SANTANDER                                             3
 ACTION:UPD 13-02-15 09:13 OP:ep   STATUS:               ID:20130112000738 L   I
 2013-01-12-0000-00M.COL___241                                                 6
 STAT SP IPHASW D HRMM SECON CODA AMPLIT PERI AZIMU VELO AIN AR TRES W  DIS CAZ7
 BAR2 SZ EP        0 7 56.41                             170    0.0710 22.5 186 
 BRR  HZ EP        0 7 58.46                             150    0.4810 69.9 300 
 BRR  HN ES        0 8 13.85                             150    0.5810 69.9 300 
 BRR  HN I         0 8 15.89        29.7 0.22            149           69.9 300 
 RUS  HZ EP        0 8  1.15                             141    0.3910  100 175 
 RUS  HN ES        0 8 17.62                             141   -0.6010  100 175 
 RUS  HN I         0 8 20.61         7.3 0.38            142            100 175 
 PTB  HZ EP        0 8  4.40                             129    0.32 9  146 259 
 PTB  HN ES        0 8 23.78                             129   -0.35 9  146 259 
 PTB  HN I         0 8 29.10         6.1 0.26            129            146 259 
 OCA  HN ES        0 8 26.45                             126   -0.55 9  161 354 
 OCA  HN I         0 8 29.01        18.3 0.56            128            161 354 
 ZAR  HN ES        0 8 33.93                             119   -0.40 9  203 292 
 ZAR  HN I         0 8 39.96         6.4 0.34            120            203 292 
 CHI  HZ EP        0 8 14.73                             114   -0.50 8  248 195 
 CHI  HN ES        0 8 44.26                             114    0.28 8  248 195 
 CHI  HN I         0 8 47.33         3.6 0.38            115            248 195 
                                                                                
