 2016  212 0628 27.4 L   6.824 -73.158143.3  RSN  4 0.1 1.2LRSN                1
 GAP=278        0.36       3.3     2.4  3.3  0.4691E+00  0.1338E+01 -0.3258E+00E
 Epicentro: LOS SANTOS - SANTANDER                                             3
 ACTION:UPD 16-03-04 21:25 OP:rebc STATUS:               ID:20160212062827 L   I
 OLDACT:DUP 16-02-12 18:19 OP:ak   STATUS:               ID:20160212061751d    3
 2016-02-12-0617-50M.COL___286                                                 6
 STAT SP IPHASW D HRMM SECON CODA AMPLIT PERI AZIMU VELO AIN AR TRES W  DIS CAZ7
 BAR2 EZ EP        628 46.86                             169    0.0610 25.8 186 
 BAR2 EZ ES        629  2.01                             169    0.0910 25.8 186 
 BAR2 EZ I         629  3.54         4.1 0.12            168           25.8 186 
 RUS  HZ EP        628 51.01                             142   -0.1210  103 175 
 RUS  HE ES        629  9.51                             142   -0.1110  103 175 
 RUS  HZ I         629 11.11         1.8 0.30            143            103 175 
 PTB  HZ EP   2    628 54.09                             132   -0.01 5  147 258 
 PTB  HN ES        629 14.78                             132   -0.14 9  147 258 
 PTB  HZ I         629 16.98         1.6 0.14            132            147 258 
 SPBC HZ EP        628 55.95                             128    0.11 9  164 218 
 SPBC HN ES        629 18.15                             128    0.14 9  164 218 
 SPBC HZ I         629 20.57         4.0 0.26            129            164 218 
                                                                                
