 2014  512 0808 58.8 L   6.839 -73.190137.1  RSN  5 0.4 1.0LRSN                1
 GAP=129        0.91       4.5     4.6  9.2  0.6894E+00  0.1717E+02 -0.5540E+01E
 Epicentro: ZAPATOCA - SANTANDER                                               3
 ACTION:UPD 15-03-16 16:57 OP:nd   STATUS:               ID:20140512080858 L   I
 OLDACT:REG 14-05-12 14:07 OP:spq  STATUS:               ID:20140512080807     3
 2014-05-12-0808-07M.COL___248                                                 6
 STAT SP IPHASW D HRMM SECON CODA AMPLIT PERI AZIMU VELO AIN AR TRES W  DIS CAZ7
 PAM  SN ES        8 9 36.88                             149    0.1710 77.4  44 
 PAM  SZ I         8 9 39.98         1.5 0.48            152           77.4  44 
 RUS  HZ EP        8 9 22.34                             141    0.2810  105 174 
 RUS  HN ES        8 9 39.72                             141   -0.5010  105 174 
 RUS  HZ I         8 9 41.43         1.0 0.20            147            105 174 
 PTB  HZ EP        8 9 24.77                             131    0.07 9  144 257 
 PTB  HN ES        8 9 45.44                             131    0.53 9  144 257 
 PTB  HZ I         8 9 47.87         1.6 0.14            133            144 257 
 ZAR  HN ES        8 9 53.88                             121   -0.52 9  198 292 
 ZAR  HZ I         810  2.77         1.4 0.28            123            198 292 
 SML  HZ EP        8 9 34.14                             116   -0.15 8  238 336 
                                                                                
