 2013 1112 0224 34.5 L   6.798 -73.107142.6  RSN  7 0.3 1.4LRSN                1
 GAP=142        0.83       3.4     4.8  5.7 -0.2402E+01  0.5214E+01  0.2558E+00E
 Epicentro: LOS SANTOS - SANTANDER                                             3
 ACTION:UPD 14-01-09 16:27 OP:ep   STATUS:               ID:20131112022434 L   I
 OLDACT:DUP 13-11-12 09:52 OP:nd   STATUS:               ID:20131112022001d    3
 2013-11-12-0220-00M.COL___273                                                 6
 STAT SP IPHASW D HRMM SECON CODA AMPLIT PERI AZIMU VELO AIN AR TRES W  DIS CAZ7
 BAR2 SZ EP        224 53.84                             170    0.1210 24.2 200 
 BAR2 SZ ES        225  9.15                             170    0.4010 24.2 200 
 BAR2 SZ I         225 10.47         5.9 0.36            169           24.2 200 
 PAM  SZ EP        224 56.71                             151    0.5210 74.9  37 
 PAM  SN ES        225 12.39                             151   -0.7510 74.9  37 
 PAM  SZ I         225 15.04         2.7 0.18            152           74.9  37 
 BRR  HZ EP     C  224 55.57                             151    0.0710 75.1 297 
 BRR  HN ES        225 12.00                             151    0.1010 75.1 297 
 BRR  HZ I         225 13.10         4.5 0.12            147           75.1 297 
 RUS  HZ EP        224 57.89                             143    0.0310  100 179 
 RUS  HN ES        225 16.17                             143    0.0510  100 179 
 RUS  HZ I         225 18.83         1.9 0.34            145            100 179 
 SPBC HZ EP        225  2.84                             128   -0.12 9  166 220 
 SPBC HN ES        225 24.74                             128   -0.45 9  166 220 
 SPBC HZ I         225 29.17         2.4 0.26            127            166 220 
 ZAR  HZ EP   2    225  6.58                             121   -0.55 4  208 292 
 ZAR  HN ES   2    225 32.80                             121    0.19 4  208 292 
 ZAR  HZ I         225 38.81         3.7 0.38            120            208 292 
 SML  HZ EP   2    225 10.97                             116   -0.16 4  246 334 
 SML  HN ES   2    225 39.90                             116    0.16 4  246 334 
 SML  HZ I         225 46.92         3.5 0.10            116            246 334 
                                                                                
