 2016  512 0046  8.3 L   6.774 -73.153139.7  RSN  8 0.4 2.0LRSN                1
 GAP=137        1.02       4.0     4.3  6.4 -0.1186E+01  0.6230E+01  0.5609E+01E
 Epicentro: LOS SANTOS - SANTANDER                                             3
 ACTION:UPD 16-08-18 17:45 OP:cam  STATUS:               ID:20160512004608 L   I
 OLDACT:DUP 16-05-12 13:06 OP:drio STATUS:               ID:20160512003746d    3
 2016-05-12-0037-45M.COL___313                                                 6
 STAT SP IPHASW D HRMM SECON CODA AMPLIT PERI AZIMU VELO AIN AR TRES W  DIS CAZ7
 BAR2 EZ EP        046 26.90                             171   -0.2710 20.4 189 
 BAR2 EZ ES        046 41.26                             171   -0.6110 20.4 189 
 BAR2 EZ I         046 42.76        23.2 0.22            169           20.4 189 
 BRR  HZ EP        046 28.93                             151    0.0710 71.9 301 
 BRR  HE ES        046 45.72                             151    0.8310 71.9 301 
 BRR  HZ I         046 49.45        21.1 0.16            150           71.9 301 
 PAM  EZ EP        046 30.08                             149    0.0110 80.1  39 
 PAM  EE ES        046 46.87                             149   -0.1710 80.1  39 
 PAM  EZ I         046 48.87        30.4 0.46            154           80.1  39 
 RUS  HZ EP        046 31.45                             143    0.1710 97.8 175 
 RUS  HE ES        046 49.54                             143    0.3510 97.8 175 
 RUS  HZ I         046 51.38         6.6 0.32            145           97.8 175 
 PTB  HZ EP        046 34.16                             131   -0.52 9  146 260 
 PTB  HN ES        046 54.77                             131   -0.47 9  146 260 
 PTB  HZ I         046 59.97         8.4 0.44            131            146 260 
 SPBC HZ EP        046 36.44                             128    0.34 9  160 219 
 SPBC HN ES        046 58.00                             128    0.23 9  160 219 
 SPBC HZ I         047  4.59         9.6 0.14            128            160 219 
 ZAR  HZ EP   4    046 41.66                             121    1.24 0  204 293 
 ZAR  HN ES        047  5.49                             121    0.04 9  204 293 
 ZAR  HZ I         047 10.67        14.2 0.40            122            204 293 
 PRA  HZ EP        047  1.82                             106    0.52 6  389 210 
 PRA  HN ES        047 42.04                             106   -0.58 6  389 210 
 PRA  HZ I         047 49.05         3.0 0.26            107            389 210 
                                                                                
