 2016  712 0709 47.7 L   6.431 -73.530108.0  RSN  4 0.3 1.0LRSN                1
 GAP=212        0.48       7.4     5.6  8.3 -0.1270E+02 -0.1361E+01  0.3884E+02E
 Epicentro: SANTA HELENA DEL OPON - SANTANDER                                  3
 ACTION:UPD 17-03-29 16:49 OP:lp   STATUS:               ID:20160712070701dL   I
 OLDACT:UPD 16-07-12 17:14 OP:dnl  STATUS:               ID:20160712070760 L   3
 2016-07-12-0707-59S.COL___313                                                 6
 STAT SP IPHASW D HRMM SECON CODA AMPLIT PERI AZIMU VELO AIN AR TRES W  DIS CAZ7
 BAR2 EZ EP   2    710  3.52                             157    0.04 5 42.3  65 
 BAR2 EZ ES   3    710 16.44                             157    0.62 2 42.3  65 
 BAR2 EZ I         710 18.60         2.0 0.34            169           42.3  65 
 BRR  HZ EP        710  5.08                             142   -0.2510 77.4 345 
 BRR  HE ES        710 19.20                             142    0.0810 77.4 345 
 BRR  HZ I         710 20.20         3.0 0.12            145           77.4 345 
 PTB  HZ EP        710  7.60                             133    0.1010  103 277 
 PTB  HN ES   2    710 22.69                             133   -0.29 5  103 277 
 PTB  HZ I         710 28.05         1.9 0.16            133            103 277 
 ZAR  HZ EP   2    710 16.66                             115    0.50 4  188 309 
 ZAR  HN ES   4    710 35.85                             115   -2.54 0  188 309 
 ZAR  HZ I         710 44.69         1.3 0.40            118            188 309 
                                                                                
