 2017  212 0648 51.9 L   6.755 -73.148147.9  RSN  9 0.4 1.7LRSN                1
 GAP= 95        1.08       4.6     3.9  6.8  0.6871E+01  0.2590E+01  0.5155E+01E
 Epicentro: LOS SANTOS - SANTANDER                                             3
 ACTION:UPD 17-05-24 15:35 OP:jn   STATUS:               ID:20170212064851 L   I
 OLDACT:UP  17-02-12 15:25 OP:ar   STATUS:               ID:20170212064744     3
 OLDACT:UP  17-02-12 15:25 OP:ar   STATUS:               ID:20170212064744     3
 OLDACT:REG 17-02-12 12:59 OP:and  STATUS:               ID:20170212064744     3
 2017-02-12-0648-00M.COL___331                                                 6
 STAT SP IPHASW D HRMM SECON CODA AMPLIT PERI AZIMU VELO AIN AR TRES W  DIS CAZ7
 BAR2 EZ EP        649 11.86                             173    0.1910 18.4 192 
 BAR2 EZ I         649 27.80        16.4 0.24            172           18.4 192 
 BRR  HZ IP     D  649 13.65                             152    0.2610 73.5 302 
 BRR  HN ES        649 30.54                             152    0.3810 73.5 302 
 BRR  HZ I         649 34.66        12.1 0.12            152           73.5 302 
 PAM  EZ IP     D  649 14.56                             150   -0.0010 81.4  37 
 PAM  EN ES        649 31.49                             150   -0.7610 81.4  37 
 PAM  EZ I         649 33.40         6.4 0.62            153           81.4  37 
 RUS  HZ EP        649 15.73                             146    0.2410 95.6 176 
 RUS  HE ES        649 34.21                             146    0.3110 95.6 176 
 RUS  HZ I         649 35.01         4.8 0.26            147           95.6 176 
 PTB  HZ EP        649 18.61                             133   -0.31 9  147 261 
 PTB  HN ES        649 39.39                             133   -0.62 9  147 261 
 PTB  HZ I         649 46.69         3.5 0.20            133            147 261 
 TAM  HZ EP        649 20.08                             131    0.45 9  154 103 
 ZAR  HZ EP        649 24.94                             123    0.30 8  206 293 
 ZAR  HE ES        649 50.92                             123    0.73 8  206 293 
 ZAR  HZ I         649 56.47         4.7 0.18            124            206 293 
 URE  HZ EP        649 32.95                             114   -0.29 7  286 293 
 URE  HN ES        650  4.82                             114   -0.68 7  286 293 
 URE  HZ I         650  5.37         4.1 0.36            115            286 293 
 PTGC HZ EP        649 35.04                             112   -0.27 7  304 158 
 PTGC HE ES        650  8.63                             112   -0.56 7  304 158 
 PTGC HZ I         650 10.46         3.4 0.40            114            304 158 
                                                                                
