 2012  712 0341 13.6 L   6.798 -73.141140.7  RSN  9 0.4 2.1LRSN                1
 GAP=137        1.02       4.2     4.6  7.5 -0.2765E+01  0.1309E+02 -0.4947E+01E
 Epicentro: LOS SANTOS - SANTANDER                                             3
 ACTION:UPD 12-08-14 11:44 OP:ep   STATUS:               ID:20120712034113 L   I
 2012-07-12-0340-00M.COL___194                                                 6
 STAT SP IPHASW D HRMM SECON CODA AMPLIT PERI AZIMU VELO AIN AR TRES W  DIS CAZ7
 BAR2 SZ EP   1    341 32.82                             170     0.2 7   23 191 
 BAR2 SZ ES        341 47.27                             170    -0.210   23 191 
 BAR2 SZ I         341 56.49        12.0 0.37            171             23 191 
 BRR  HZ EP   1    341 34.64                             151     0.4 7   72 299 
 BRR  HE ES   1    341 50.96                             151     0.6 7   72 299 
 BRR  HZ I         341 55.46        25.6 0.13            151             72 299 
 PAM  SZ EP   1    341 35.45                             150     0.2 7   77  39 
 PAM  SN ES   1    341 52.29                             150     0.1 7   77  39 
 RUS  HZ EP   1    341 37.67                             143     0.8 7  100 176 
 RUS  HN ES        341 54.66                             143    -0.310  100 176 
 PTB  HZ EP   1    341 39.89                             131    -0.3 7  148 259 
 PTB  HN ES        342  0.91                             131     0.0 9  148 259 
 PTB  HZ I         342  3.76         7.5 0.10            134            148 259 
 OCA  HZ EP   1    341 40.86                             128    -0.7 7  161 353 
 OCA  HN ES   1    342  2.66                             128    -0.7 7  161 353 
 OCA  HZ I         342  7.22        44.5 0.18            132            161 353 
 ZAR  HZ EP   1    341 45.66                             121    -0.1 6  205 292 
 ZAR  HN ES        342 11.29                             121     0.4 9  205 292 
 ZAR  HZ I         342 17.40        14.9 0.34            125            205 292 
 NOR  SN ES        342 16.19                             117    -0.5 8  235 235 
 HEL  HZ EP   1    341 54.05                             114     0.4 6  273 256 
 HEL  HE ES   1    342 24.80                             114     0.0 6  273 256 
 HEL  HZ I         342 32.64         5.2 0.23            118            273 256 
