 2012  112 0946 37.9 L   6.768 -73.206145.4  RSN  6 0.3 1.4LRSN                1
 GAP=228        0.48       6.8     6.8  6.8  0.2762E+02  0.1522E+02  0.9711E+01E
 Epicentro: VILLANUEVA - SANTANDER                                             3
 ACTION:UP  12-02-03 08:16 OP:REBC STATUS:               ID:20120112094637 L   I
 2012-01-12-0940-00M.COL___187                                                 6
 STAT SP IPHASW D HRMM SECON CODA AMPLIT PERI AZIMU VELO SNR AR TRES W  DIS CAZ7
 BAR2 SZ EP   2    946 57.07                             172    -0.3 5   20 172 
 BAR2 SZ ES   2    947 12.28                             172    -0.3 5   20 172 
 BAR2 SZ I         947 14.24         3.9 0.27                            20 172 
 BRR  HZ EP   2    946 58.92                             154     0.1 5   67 304 
 BRR  HE ES   2    947 15.45                             154     0.4 5   67 304 
 RUS  HE ES   2    947 20.04                             145     0.3 5   98 172 
 PTB  HZ EP   1    947  3.99                             133    -0.2 7  141 260 
 PTB  HE ES   2    947 24.43                             133    -0.2 5  141 260 
 ZAR  HE ES   2    947 34.92                             123     0.2 4  199 294 
 CHI  HZ EP   2    947 15.40                             118     0.4 4  244 194 
 CHI  HZ I         947 16.77         2.5 0.58                           244 194 
                                                                                
