 2011 1212 0604  8.4 L   6.836 -73.175145.4  RSN  4 0.3 1.3LRSN                1
 GAP=146        0.53       4.6     4.4  8.1 -0.7110E+01  0.1226E+02 -0.4048E+01E
 Epicentro: ZAPATOCA - SANTANDER                                               3
 ACTION:UPD 12-07-13 16:15 OP:ep   STATUS:               ID:20111212060408 L   I
 2011-12-12-0600-00M.COL___186                                                 6
 STAT SP IPHASW D HRMM SECON CODA AMPLIT PERI AZIMU VELO AIN AR TRES W  DIS CAZ7
 BAR2 SZ EP   1    6 4 27.59                             169   -0.42 7 27.0 182 
 BAR2 SZ I         6 4 37.55         7.4 0.43                          27.0 182 
 PAM  SZ EP   1    6 4 30.86                             151    0.39 7 76.5  43 
 PAM  SZ I         6 4 31.20         3.5 0.21                          76.5  43 
 PAM  SN ES   1    6 4 47.62                             151   -0.11 7 76.5  43 
 RUS  HZ EP   2    6 4 32.14                             142   -0.24 5  105 174 
 RUS  HE ES   1    6 4 51.30                             142    0.18 7  105 174 
 RUS  HZ I         6 4 51.72         1.6 0.23                           105 174 
 PTB  HZ EP   1    6 4 35.12                             132    0.05 7  145 257 
 PTB  HE ES   1    6 4 55.95                             132    0.03 7  145 257 
                                                                                
