 2015  312 0518 53.4 L   6.782 -73.161144.9  RSN  6 0.4 1.6LRSN                1
 GAP=135        1.11       5.2     5.5  7.8 -0.7049E+01  0.5501E+01  0.3217E+01E
 Epicentro: LOS SANTOS - SANTANDER                                             3
 ACTION:UPD 15-04-30 16:25 OP:nd   STATUS:               ID:20150312051853 L   I
 OLDACT:UP  15-03-12 15:33 OP:cam  STATUS:               ID:20150312050735     3
 OLDACT:UP  15-03-12 15:33 OP:cam  STATUS:               ID:20150312050735     3
 OLDACT:REG 15-03-12 13:23 OP:cam  STATUS:               ID:20150312050735     3
 2015-03-12-0507-35M.COL___281                                                 6
 STAT SP IPHASW D HRMM SECON CODA AMPLIT PERI AZIMU VELO AIN AR TRES W  DIS CAZ7
 BAR2 EZ EP        519 12.75                             171   -0.1610 21.2 186 
 BAR2 EZ ES        519 27.60                             171   -0.5010 21.2 186 
 BAR2 EZ I         519 28.91        11.5 0.12            171           21.2 186 
 BRR  HZ EP        519 14.78                             153    0.3310 70.6 301 
 BRR  HN ES        519 31.69                             153    0.8510 70.6 301 
 BRR  HZ I         519 32.32        11.5 0.12            153           70.6 301 
 PAM  SZ EP     C  519 15.71                             150    0.0010 80.0  40 
 PAM  SN ES        519 32.87                             150   -0.2110 80.0  40 
 PAM  SZ I         519 37.47         6.1 0.48            152           80.0  40 
 RUS  HZ EP        519 17.02                             144    0.0610 98.8 175 
 RUS  HN ES        519 35.52                             144    0.2010 98.8 175 
 RUS  HZ I         519 36.88         3.3 0.28            146           98.8 175 
 PTB  HZ EP        519 19.71                             132   -0.42 9  146 259 
 PTB  HN ES        519 40.20                             132   -0.76 9  146 259 
 PTB  HZ I         519 43.82         7.7 0.16            134            146 259 
 SPBC HZ EP   1    519 21.97                             129    0.36 7  161 219 
 SPBC HN ES        519 43.94                             129    0.35 9  161 219 
 SPBC HZ I         519 48.91         5.6 0.10            131            161 219 
                                                                                
