 2012 1112 0406 55.5 L   6.810 -73.152147.4  RSN 20 0.5 3.1LRSN                1
 GAP= 70        0.82       2.5     2.9  4.7 -0.1144E+01  0.3862E+01  0.1971E+01E
 Epicentro: LOS SANTOS - SANTANDER                                             3
 ACTION:UPD 12-12-05 15:32 OP:}ep  STATUS:               ID:20121112040655 L   I
 2012-11-12-0400-00M.COL___230                                                 6
 STAT SP IPHASW D HRMM SECON CODA AMPLIT PERI AZIMU VELO AIN AR TRES W  DIS CAZ7
 BAR2 SZ EP        4 7 15.37                             170    0.0710 24.3 188 
 BAR2 SZ ES   1    4 7 30.62                             170   -0.16 7 24.3 188 
 BAR2 SZ I         4 7 32.24       435.4 0.42                          24.3 188 
 GIR2 SZ EP   1    4 7 15.39                             168    0.10 7 30.1 351 
 GIR2 SZ ES   1    4 7 31.05                             168    0.29 7 30.1 351 
 BRR  HZ IP     C  4 7 17.22                             153    0.5010 70.1 298 
 BRR  HN ES   4    4 7 34.30                             153    1.00 0 70.1 298 
 BRR  HZ I         4 7 39.49       144.3 0.18                          70.1 298 
 PAM  SZ EP   1    4 7 18.16                             151    0.34 7 77.0  40 
 PAM  SN ES   1    4 7 35.46                             151    0.20 7 77.0  40 
 PAM  SZ I         4 7 37.66       136.1 0.50                          77.0  40 
 RUS  HZ EP   1    4 7 19.20                             144   -0.25 7  102 176 
 RUS  HN ES   1    4 7 37.84                             144   -0.32 7  102 176 
 RUS  HZ I         4 7 39.68       132.3 0.38                           102 176 
 PTB  HZ EP        4 7 21.78                             132   -0.74 9  147 258 
 PTB  HN ES   1    4 7 43.18                             132   -0.45 7  147 258 
 TAM  HZ IP     D  4 7 23.47                             131    0.12 9  156 105 
 TAM  HE ES   1    4 7 44.87                             131   -0.23 7  156 105 
 OCA  HZ EP   1    4 7 23.45                             130   -0.34 7  159 353 
 OCA  HN ES   1    4 7 46.26                             130    0.38 7  159 353 
 OCA  HZ I         4 7 51.32       154.1 0.26                           159 353 
 ZAR  HZ EP   1    4 7 27.75                             123   -0.16 6  203 292 
 ZAR  HE ES   1    4 7 53.17                             123   -0.04 6  203 292 
 ZAR  HZ I         4 7 59.23       151.1 0.56                           203 292 
 NOR  HZ EP   1    4 7 31.04                             119   -0.25 6  235 234 
 NOR  HE ES   1    4 7 58.38                             119   -0.86 6  235 234 
 NOR  HZ I         4 8  6.68       109.1 0.18                           235 234 
 CHI  HZ EP   1    4 7 33.23                             117   -0.11 6  250 195 
 CHI  HN ES   1    4 8  2.62                             117   -0.27 6  250 195 
 CHI  HZ I         4 8  8.61        47.6 0.32                           250 195 
 ROSC BZ EP   4    4 7 34.99                             117    1.26 0  253 211 
 ROSC BN ES   2    4 8  4.32                             117    0.73 4  253 211 
 ROSC BZ I         4 8  8.84       113.8 0.40                           253 211 
 HEL  HZ EP   1    4 7 35.76                             115    0.05 6  272 256 
 HEL  HN ES   1    4 8  6.93                             115   -0.18 6  272 256 
 HEL  HZ I         4 8 14.16        51.4 0.32                           272 256 
 VIL  SZ EP   1    4 7 39.14                             112    0.08 5  304 191 
 VIL  SN ES   1    4 8 13.31                             112    0.25 5  304 191 
 GUY  SZ EP   1    4 7 40.13                             112    0.71 5  304 235 
 GUY  SN ES   1    4 8 14.79                             112    1.09 5  304 235 
 RREF HZ EP   1    4 7 42.13                             111    0.43 5  322 229 
 RREF HZ I         4 8 23.95        67.5 0.28                           322 229 
 COD  HZ EP   1    4 7 43.27                             109   -0.50 5  347 355 
 COD  HN ES   1    4 8 21.16                             109   -0.29 5  347 355 
 MON  HZ EP   4    4 7 42.39                             109   -2.00 0  352 308 
 MON  HN ES   4    4 8 20.71                             109   -1.84 0  352 308 
 ANIL HZ EP   1    4 7 46.78                             109    1.42 5  358 224 
 ANIL HE ES   1    4 8 25.08                             109    0.79 5  358 224 
 PRA  HZ EP   1    4 7 48.70                             107   -0.41 4  393 209 
 PRA  HN ES   1    4 8 30.44                             107   -0.52 4  393 209 
 PRA  HZ I         4 8 34.58        46.5 0.30                           393 209 
 YOT  HZ EP   1    4 7 57.55                             103   -1.03 4  472 229 
                                                                                
