 2013 1012 0918 53.9 L   6.774 -73.191151.5  RSN  5 0.5 1.2LRSN                1
 GAP=230        0.92       7.0     8.8 10.4  0.2540E+02 -0.3299E+01 -0.1518E+01E
 Epicentro: VILLANUEVA - SANTANDER                                             3
 ACTION:UPD 13-11-25 09:21 OP:ep   STATUS:               ID:20131012091853 L   I
 OLDACT:UP  13-10-12 13:53 OP:mh   STATUS:               ID:20131012091736     3
 OLDACT:REG 13-10-12 13:18 OP:mh   STATUS:               ID:20131012091736     3
 2013-10-12-0917-36M.COL___230                                                 6
 STAT SP IPHASW D HRMM SECON CODA AMPLIT PERI AZIMU VELO AIN AR TRES W  DIS CAZ7
 BRR  HZ EP        919 15.89                             154    0.3910 68.3 303 
 BRR  HN ES   1    919 32.47                             154    0.11 7 68.3 303 
 BRR  HZ I         919 36.96         3.7 0.48            155           68.3 303 
 RUS  HZ EP        919 18.11                             146    0.0710 98.2 173 
 RUS  HN ES   1    919 36.37                             146   -0.50 7 98.2 173 
 PTB  HZ EP        919 20.22                             135   -0.62 9  142 260 
 PTB  HN ES   2    919 41.23                             135   -0.64 5  142 260 
 PTB  HZ I         919 44.14         1.8 0.12            137            142 260 
 SPBC HZ EP   1    919 22.51                             131    0.18 7  158 218 
 SPBC HN ES   1    919 45.32                             131    0.81 7  158 218 
 SPBC HZ I         919 46.99         1.8 0.62            135            158 218 
 ZAR  HN ES   2    919 51.60                             124   -0.08 4  201 293 
                                                                                
