 2015 1112 0953 54.1 L   6.779 -73.112141.7  RSN 11 0.4 1.8LRSN                1
 GAP=142        0.96       2.7     4.4  5.4 -0.1527E+01  0.7386E+01  0.2694E+01E
 Epicentro: LOS SANTOS - SANTANDER                                             3
 ACTION:UPD 15-12-28 16:10 OP:cam  STATUS:               ID:20151112095354 L   I
 OLDACT:REG 15-11-12 13:52 OP:dnl  STATUS:               ID:20151112094746     3
 2015-11-12-0947-46M.COL___316                                                 6
 STAT SP IPHASW D HRMM SECON CODA AMPLIT PERI AZIMU VELO AIN AR TRES W  DIS CAZ7
 BAR2 EZ EP        954 13.17                             171   -0.0510 22.1 201 
 BAR2 EZ ES        954 28.16                             171    0.0310 22.1 201 
 BAR2 EZ I         954 29.64        20.4 0.24            172           22.1 201 
 BRR  HZ EP        954 14.96                             150   -0.1210 75.6 299 
 BRR  HN ES        954 31.81                             150    0.3810 75.6 299 
 PAM  EZ EP        954 16.08                             150    0.2210 76.9  36 
 PAM  EN ES        954 32.97                             150    0.1410 76.9  36 
 PAM  EZ I         954 35.43         6.2 0.32            143           76.9  36 
 RUS  HZ EP        954 16.80                             144   -0.4810 98.1 178 
 RUS  HN ES        954 35.39                             144    0.0410 98.1 178 
 RUS  HZ I         954 37.05         3.5 0.48            139           98.1 178 
 OCA  HZ EP   1    954 22.17                             128   -0.20 7  163 352 
 OCA  HE ES        954 44.19                             128   -0.22 9  163 352 
 OCA  HZ I         954 46.37        18.4 0.20            120            163 352 
 SPBC HZ EP        954 22.31                             128   -0.05 9  164 221 
 SPBC HN ES        954 44.04                             128   -0.35 9  164 221 
 SPBC HZ I         954 49.60         7.6 0.21            122            164 221 
 ZAR  HZ EP        954 27.39                             121    0.65 8  208 292 
 ZAR  HE ES        954 51.28                             121   -0.91 8  208 292 
 ZAR  HZ I         954 57.36         5.4 0.19            114            208 292 
 SML  HZ EP   4    954 29.28                             116   -1.63 0  247 335 
 SML  HN ES   4    954 57.12                             116   -2.49 0  247 335 
 SML  HZ I         955  1.95         5.6 0.10            110            247 335 
 CHI  HZ EP        954 31.42                             116   -0.03 8  247 196 
 CHI  HN ES        955  0.75                             116    0.17 8  247 196 
 CHI  HZ I         955  7.69         3.1 0.42            111            247 196 
 GUY2CHZ EP        954 38.59                             111    0.86 7  303 236 
 GUY2CHE ES        955 12.59                             111    0.84 7  303 236 
 GUY2CHZ I         955 19.75         4.1 0.38                           303 236 
 PRA  HZ EP   1    954 46.93                             106   -0.55 4  392 210 
 PRA  HE ES        955 28.47                             106   -0.63 6  392 210 
 PRA  HZ I         955 35.80         4.0 0.26            101            392 210 
                                                                                
