 2013  112 0458  7.4 L   6.797 -73.144148.5  RSN  7 0.3 1.9LRSN                1
 GAP=183        0.83       3.8     4.6  6.6  0.4951E+01  0.4963E+01 -0.6625E+00E
 Epicentro: LOS SANTOS - SANTANDER                                             3
 ACTION:UPD 13-02-15 09:13 OP:ep   STATUS:               ID:20130112045807 L   I
 2013-01-12-0450-00M.COL___241                                                 6
 STAT SP IPHASW D HRMM SECON CODA AMPLIT PERI AZIMU VELO AIN AR TRES W  DIS CAZ7
 BAR2 SZ EP        458 27.43                             171    0.0710 23.1 190 
 BAR2 SZ ES        458 43.12                             171    0.2010 23.1 190 
 BAR2 SZ I         458 45.59         8.9 0.50            170           23.1 190 
 BRR  HZ EP        458 29.37                             153    0.5110 71.5 299 
 BRR  HN ES        458 45.75                             153    0.1510 71.5 299 
 BRR  HN I         458 47.06        17.2 0.34            151           71.5 299 
 RUS  HZ EP        458 31.59                             144    0.1910  100 176 
 RUS  HN ES        458 49.81                             144   -0.3110  100 176 
 RUS  HN I         458 51.72         5.5 0.22            147            100 176 
 PTB  HZ EP        458 34.22                             133   -0.38 9  148 259 
 PTB  HN ES        458 55.51                             133   -0.31 9  148 259 
 PTB  HN I         459  0.75        11.8 0.68            132            148 259 
 OCA  HE ES        458 57.70                             130   -0.53 9  161 353 
 OCA  HN I         459  1.55        18.5 0.28            131            161 353 
 ZAR  HN ES        459  5.89                             123    0.37 9  204 292 
 ZAR  HN I         459 12.19         8.0 0.24            123            204 292 
 HEL  HE ES   2    459 19.03                             115   -0.21 4  272 256 
                                                                                
