 2015  112 0043 55.6 L   6.799 -73.166146.0  RSN 10 0.5 1.8LRSN                1
 GAP=134        1.15       3.5     4.7  6.9 -0.1576E+01  0.7762E+01  0.3784E+01E
 Epicentro: LOS SANTOS - SANTANDER                                             3
 ACTION:UPD 15-03-02 15:39 OP:nd   STATUS:               ID:20150112004355 L   I
 OLDACT:REG 15-01-12 14:59 OP:carl STATUS:               ID:20150112003747     3
 2015-01-12-0037-47M.COL___253                                                 6
 STAT SP IPHASW D HRMM SECON CODA AMPLIT PERI AZIMU VELO AIN AR TRES W  DIS CAZ7
 BAR2 EZ ES        044 30.50                             171   -0.0710 22.9 184 
 BAR2 EZ I         044 31.63        13.0 0.28            168           22.9 184 
 BRR  HZ EP        044 17.13                             153    0.4710 69.3 300 
 BRR  HN ES        044 34.12                             153    1.0310 69.3 300 
 BRR  HZ I         044 36.52        10.1 0.16            150           69.3 300 
 PAM  SZ EP        044 18.17                             150    0.2410 78.9  41 
 PAM  SN ES        044 35.26                             150   -0.0910 78.9  41 
 PAM  SZ I         044 37.31        12.8 0.40            155           78.9  41 
 RUS  HZ EP        044 19.52                             144    0.1510  101 175 
 RUS  HN ES        044 37.71                             144   -0.2110  101 175 
 RUS  HZ I         044 39.02         8.9 0.36            144            101 175 
 PTB  HZ EP        044 21.74                             133   -0.63 9  145 259 
 PTB  HN ES        044 42.64                             133   -0.63 9  145 259 
 PTB  HZ I         044 44.57         5.1 0.28            131            145 259 
 OCA  HN ES        044 45.08                             130   -0.91 9  160 354 
 SPBC HZ EP        044 23.97                             129    0.00 9  162 218 
 SPBC HN ES        044 45.74                             129   -0.36 9  162 218 
 SPBC HZ I         044 53.10        11.8 0.20            129            162 218 
 ZAR  HZ EP        044 28.08                             123    0.24 9  202 292 
 ZAR  HN ES        044 53.18                             123    0.19 9  202 292 
 ZAR  HZ I         045  3.60         5.1 0.20            122            202 292 
 NOR  HN ES        044 59.09                             119    0.24 8  233 234 
 NOR  HZ I         045  6.97         5.5 0.18            119            233 234 
 CHI  HZ EP        044 33.44                             117    0.21 8  248 195 
 CHI  HN ES        045  2.64                             117    0.06 8  248 195 
 CHI  HZ I         045  8.90         2.9 0.32            118            248 195 
                                                                                
