 2014  712 0923 15.6 L   6.786 -73.154140.4  RSN 21 0.5 2.5LRSN                1
 GAP= 63        1.08       2.4     2.7  5.0 -0.8657E+00  0.2828E+01  0.2987E+00E
 Epicentro: LOS SANTOS - SANTANDER                                             3
 ACTION:UPD 15-03-16 20:43 OP:nd   STATUS:               ID:20140712092315 L   I
 OLDACT:DUP 14-07-12 17:17 OP:stll STATUS:               ID:20140712091821d    3
 2014-07-12-0918-20M.COL___259                                                 6
 STAT SP IPHASW D HRMM SECON CODA AMPLIT PERI AZIMU VELO AIN AR TRES W  DIS CAZ7
 BAR2 SZ IP     C  923 35.12                             171    0.5410 21.7 188 
 BAR2 SZ ES        923 49.84                             171    0.4810 21.7 188 
 BAR2 SZ I         923 51.98        44.2 0.22            170           21.7 188 
 RUS  HZ IP     D  923 38.91                             143    0.1610 99.1 175 
 RUS  HZ I         923 40.07        23.7 0.42            145           99.1 175 
 RUS  HE ES        923 56.78                             143    0.0010 99.1 175 
 PTB  HZ EP        923 41.82                             131   -0.24 9  147 259 
 PTB  HE ES        924  2.14                             131   -0.53 9  147 259 
 PTB  HZ I         924  5.79        37.0 0.30            131            147 259 
 TAM  HZ IP     D  923 43.40                             129    0.47 9  156 104 
 TAM  HZ I         923 43.54        59.2 0.20            133            156 104 
 TAM  HN ES        924  4.15                             129   -0.08 9  156 104 
 SPBC HZ EP        923 43.93                             128    0.38 9  161 219 
 SPBC HN ES        924  5.32                             128   -0.01 9  161 219 
 SPBC HZ I         924 10.71        42.2 0.32            129            161 219 
 OCA  HZ EP        923 44.27                             128    0.60 9  162 354 
 OCA  HN ES        924  5.25                             128   -0.28 9  162 354 
 OCA  HZ I         924  9.89        20.6 0.28            130            162 354 
 ZAR  HZ EP        923 47.99                             121    0.28 9  204 293 
 ZAR  HN ES        924 12.96                             121    0.23 9  204 293 
 ZAR  HZ I         924 19.20        37.3 0.36            122            204 293 
 NOR  HZ EP        923 50.95                             118    0.07 8  233 235 
 NOR  HN ES        924 18.43                             118    0.06 8  233 235 
 NOR  HZ I         924 26.04        25.8 0.16            119            233 235 
 SML  HZ EP        923 52.46                             116    0.38 8  245 336 
 SML  HN ES        924 19.53                             116   -0.97 8  245 336 
 SML  HZ I         924 24.60        34.1 0.10            118            245 336 
 CHI  HZ EP        923 52.81                             116   -0.04 8  247 195 
 CHI  HN ES        924 21.01                             116   -0.87 8  247 195 
 CHI  HZ I         924 26.21        10.1 0.42            118            247 195 
 ROSC BZ EP        923 53.87                             116    0.60 8  251 211 
 ROSC BE ES        924 21.70                             116   -0.92 8  251 211 
 HEL  HZ EP        923 55.60                             114    0.16 8  271 256 
 HEL  HN ES        924 25.96                             114   -0.53 8  271 256 
 HEL  HZ I         924 33.75        14.0 0.44            115            271 256 
 GUY2CHZ EP        923 59.27                             111    0.46 7  300 235 
 GUY2CHN ES        924 32.52                             111    0.03 7  300 235 
 GUY2CHZ I         924 41.16        14.7 0.28                           300 235 
 SOCV BZ EP        923 57.24                             111   -1.38 7  303  57 
 PTGC HZ IP     D  923 57.88                             111   -1.25 7  308 158 
 PTGC HZ I         923 58.39        39.1 0.18            113            308 158 
 RREF HZ EP        924  1.94                             110    0.58 7  320 229 
 RREF HE ES        924 37.00                             110   -0.02 7  320 229 
 RREF HZ I         924 44.44        16.0 0.22            111            320 229 
 DBB  SZ EP        924  2.62                             109   -0.19 7  339 275 
 DBB  SZ ES        924 39.45                             109   -0.15 7  339 275 
 DBB  SZ I         924 41.29        39.8 0.32            110            339 275 
 TOL  SZ EP        924  4.28                             108    0.80 7  342 225 
 TOL  SN ES        924 40.51                             108   -0.29 7  342 225 
 ANIL HZ EP        924  5.35                             108    0.31 6  356 225 
 ANIL HE ES        924 43.53                             108   -0.04 6  356 225 
 ANIL HZ I         924 53.63        28.7 0.20            109            356 225 
 PRA  HZ EP        924  8.59                             106   -0.17 6  390 210 
 PRA  HN ES        924 50.52                             106    0.32 6  390 210 
 PRA  HZ I         924 55.39        11.6 0.26            107            390 210 
 ORTC HZ EP        924  9.11                             105   -0.06 6  394 216 
 ORTC HN ES        924 51.11                             105    0.19 6  394 216 
 ORTC HZ I         924 57.93         6.5 0.18            107            394 216 
                                                                                
