 2013  812 0350  1.8 L   6.802 -73.151145.6  RSN  9 0.6 1.9LRSN                1
 GAP=136        1.41       4.6     5.8  8.0 -0.2422E+01  0.1455E+02 -0.2771E+01E
 Epicentro: LOS SANTOS - SANTANDER                                             3
 ACTION:UPD 14-01-14 09:01 OP:ep   STATUS:               ID:20130812035001 L   I
 OLDACT:REG 13-08-12 08:34 OP:stll STATUS:               ID:20130812034837     3
 2013-08-12-0348-37M.COL___230                                                 6
 STAT SP IPHASW D HRMM SECON CODA AMPLIT PERI AZIMU VELO AIN AR TRES W  DIS CAZ7
 BAR2 SZ EP        350 21.50                             171    0.1410 23.4 188 
 BAR2 SZ ES        350 36.54                             171   -0.1210 23.4 188 
 BAR2 SZ I         350 39.09         9.9 0.34            173           23.4 188 
 BRR  HZ IP     C  350 23.28                             153    0.4310 70.6 299 
 BRR  HN ES        350 40.64                             153    1.3410 70.6 299 
 BRR  HN I         350 41.64        16.5 0.22            153           70.6 299 
 PAM  SZ EP        350 24.04                             151    0.0810 77.6  40 
 PAM  SZ I         350 24.50        12.2 0.24            151           77.6  40 
 PAM  SN ES        350 41.49                             151    0.2110 77.6  40 
 RUS  HZ EP        350 25.62                             144    0.1210  101 176 
 RUS  HN ES        350 43.16                             144   -0.8710  101 176 
 RUS  HN I         350 45.67         6.7 0.16            147            101 176 
 PTB  HZ EP        350 28.36                             132   -0.30 9  147 259 
 PTB  HE ES        350 48.97                             132   -0.67 9  147 259 
 SPBC HZ EP        350 30.23                             129    0.01 9  163 219 
 SPBC HN ES        350 52.24                             129   -0.18 9  163 219 
 ZAR  HZ EP        350 34.45                             122    0.33 9  203 292 
 ZAR  HN ES        350 58.82                             122   -0.55 9  203 292 
 SML  HZ EP        350 38.01                             117   -0.31 8  243 335 
 SML  HN ES        351  5.78                             117   -1.06 8  243 335 
 SML  HN I         351 13.94        17.7 0.10            118            243 335 
 GUY2CHZ EP        350 45.85                             112    0.54 7  301 235 
 GUY2CHN ES        351 20.07                             112    0.78 7  301 235 
                                                                                
