 2016  512 0244 43.9 L   6.762 -73.164154.0  RSN  4 0.3 1.1LRSN                1
 GAP=232        0.88       5.5     6.6  7.9  0.1096E+02 -0.3765E+01  0.6779E+00E
 Epicentro: LOS SANTOS - SANTANDER                                             3
 ACTION:UPD 16-08-18 17:45 OP:cam  STATUS:               ID:20160512024443 L   I
 OLDACT:REG 16-05-12 12:13 OP:drio STATUS:               ID:20160512023743     3
 2016-05-12-0237-43M.COL___307                                                 6
 STAT SP IPHASW D HRMM SECON CODA AMPLIT PERI AZIMU VELO AIN AR TRES W  DIS CAZ7
 BRR  HZ EP        245  5.95                             154   -0.0510 71.6 302 
 BRR  HN ES        245 23.56                             154    0.3510 71.6 302 
 RUS  HZ EP        245  8.29                             146    0.0510 96.6 175 
 RUS  HN ES        245 26.82                             146   -0.3710 96.6 175 
 RUS  HZ I         245 27.93         0.9 0.46            146           96.6 175 
 PTB  HZ EP        245 11.04                             134   -0.31 9  145 260 
 PTB  HN ES        245 32.25                             134   -0.48 9  145 260 
 PTB  HZ I         245 39.78         1.6 0.24            132            145 260 
 SPBC HZ EP        245 13.03                             132    0.36 9  159 219 
 SPBC HE ES        245 35.56                             132    0.48 9  159 219 
 SPBC HZ I         245 37.55         2.5 0.32            130            159 219 
                                                                                
