 2017  812 0536  9.7 L   5.957 -73.723116.1  RSN  9 0.4 1.4LRSN                1
 GAP= 85        0.99       3.0     3.1  6.2 -0.1454E+01  0.7425E+01 -0.3437E+00E
 Epicentro: GUAVATA - SANTANDER                                                3
 ACTION:UPD 17-09-04 20:19 OP:rebc STATUS:               ID:20170812053609 L   I
 OLDACT:DUP 17-08-12 17:59 OP:dhb  STATUS:               ID:20170812052742d    3
 OLDACT:DUP 17-08-12 17:55 OP:dhb  STATUS:               ID:20170812052741d    3
 OLDACT:REG 17-08-12 12:38 OP:dhb  STATUS:               ID:20170812052740     3
 2017-08-12-0528-00M.COL___417                                                 6
 STAT SP IPHASW D HRMM SECON CODA AMPLIT PERI AZIMU VELO AIN AR TRES W  DIS CAZ7
 SPBC HZ EP        536 26.60                             155   -0.0910 51.4 229 
 SPBC HN ES        536 39.92                             155    0.0010 51.4 229 
 SPBC HZ I         536 41.12         8.2 0.10            153           51.4 229 
 RUS  HZ EP        536 28.65                             147    0.2010 71.1  96 
 RUS  HN ES        536 43.56                             147    0.5010 71.1  96 
 RUS  HZ I         536 44.01         3.0 0.28            149           71.1  96 
 BAR2 HZ EP        536 29.81                             139    0.1610 92.2  40 
 BAR2 HZ ES        536 44.86                             139   -0.3310 92.2  40 
 NOR  HZ IP     C  536 33.25                             127    0.0810  134 251 
 NOR  HN ES        536 51.47                             127    0.0210  134 251 
 NOR  HZ I         536 53.92        10.8 0.14            127            134 251 
 CHI  HZ EP        536 34.72                             125   -0.16 9  147 180 
 CHI  HN ES        536 54.03                             125   -0.48 9  147 180 
 CHI  HZ I         536 57.71         2.1 0.20            125            147 180 
 GUY2CHZ EP        536 40.65                             116    0.16 9  199 246 
 GUY2CHN ES        537  3.80                             116   -0.69 9  199 246 
 GUY2CHZ I         537  6.56         1.4 0.28                           199 246 
 HEL  HZ EP        536 41.24                             116    0.62 9  202 277 
 HEL  HE ES        537  5.63                             116    0.91 9  202 277 
 HEL  HZ I         537  8.12         6.5 0.26            116            202 277 
 ZAR  HZ EP        536 40.85                             114   -0.36 8  211 324 
 ZAR  HE ES        537  5.11                             114   -0.66 8  211 324 
 ZAR  HZ I         537  8.15         2.5 0.11            115            211 324 
 PRA  HZ EP        536 48.94                             107   -0.14 7  280 208 
 PRA  HE ES        537 19.97                             107    0.20 7  280 208 
 PRA  HZ I         537 25.19         2.2 0.40            108            280 208 
                                                                                
