 2012  512 0647 35.8 L   6.757 -73.159139.4  RSN  7 0.4 1.6LRSN                1
 GAP=137        0.88       7.3     7.0  8.3  0.1835E+02  0.1577E+02  0.1070E+02E
 Epicentro: LOS SANTOS - SANTANDER                                             3
 ACTION:UP  12-07-05 12:04 OP:pat  STATUS:               ID:20120512064735 L   I
 2012-05-12-0640-00M.COL___195                                                 6
 STAT SP IPHASW D HRMM SECON CODA AMPLIT PERI AZIMU VELO SNR AR TRES W  DIS CAZ7
 BAR2 SZ EP        647 54.70                             172     0.210   18 188 
 BAR2 SZ ES   1    648  8.70                             172    -0.5 7   18 188 
 BAR2 SZ I         648 10.27        15.3 0.26                            18 188 
 BRR  HZ EP        647 56.49                             151     0.210   72 302 
 BRR  HZ I         647 56.83        15.5 0.32                            72 302 
 BRR  HN ES   1    648 12.84                             151     0.5 7   72 302 
 PAM  SZ EP   3    647 57.21                             148    -0.4 2   82  38 
 PAM  SN ES   2    648 14.07                             148    -0.6 5   82  38 
 RUS  HZ EP        647 58.89                             144     0.310   96 175 
 RUS  HN ES   2    648 16.38                             144     0.0 5   96 175 
 RUS  HZ I         648 17.77         2.6 0.20                            96 175 
 PTB  HZ EP        648  1.45                             131    -0.6 9  146 261 
 PTB  HN ES   2    648 22.03                             131    -0.5 5  146 261 
 PTB  HZ I         648 24.29         3.1 0.30                           146 261 
 OCA  HZ EP   3    648  3.02                             127    -1.0 2  165 354 
 ZAR  HZ EP   2    648  7.85                             121     0.0 4  205 294 
 ZAR  HN ES   2    648 33.42                             121     0.5 4  205 294 
 ZAR  HZ I         648 41.17         3.3 0.32                           205 294 
                                                                                
