 2017  212 0351 52.4 L   6.776 -73.110149.5  RSN 10 0.4 1.6LRSN                1
 GAP= 97        0.95       3.8     3.8  6.1 -0.1268E+01 -0.1201E+01  0.7167E+01E
 Epicentro: LOS SANTOS - SANTANDER                                             3
 ACTION:UPD 17-05-24 15:35 OP:jn   STATUS:               ID:20170212035152 L   I
 OLDACT:UP  17-02-12 16:57 OP:and  STATUS:               ID:20170212034749d    3
 OLDACT:UP  17-02-12 16:57 OP:and  STATUS:               ID:20170212034749d    3
 OLDACT:UP  17-02-12 16:57 OP:and  STATUS:               ID:20170212034749d    3
 OLDACT:UP  17-02-12 16:55 OP:and  STATUS:               ID:20170212034749d    3
 OLDACT:DUP 17-02-12 16:52 OP:and  STATUS:               ID:20170212034749d    3
 OLDACT:UP  17-02-12 16:50 OP:and  STATUS:               ID:20170212034748d    3
 OLDACT:UP  17-02-12 16:49 OP:and  STATUS:               ID:20170212034748d    3
 OLDACT:UP  17-02-12 16:49 OP:and  STATUS:               ID:20170212034748d    3
 OLDACT:UP  17-02-12 16:49 OP:and  STATUS:               ID:20170212034748d    3
 OLDACT:UP  17-02-12 16:48 OP:and  STATUS:               ID:20170212034748d    3
 OLDACT:UP  17-02-12 16:46 OP:and  STATUS:               ID:20170212034748d    3
 OLDACT:UP  17-02-12 16:46 OP:and  STATUS:               ID:20170212034748d    3
 OLDACT:UP  17-02-12 16:44 OP:and  STATUS:               ID:20170212034748d    3
 OLDACT:UP  17-02-12 16:44 OP:and  STATUS:               ID:20170212034748d    3
 OLDACT:UP  17-02-12 16:44 OP:and  STATUS:               ID:20170212034748d    3
 OLDACT:UP  17-02-12 16:43 OP:and  STATUS:               ID:20170212034748d    3
 OLDACT:UP  17-02-12 16:41 OP:and  STATUS:               ID:20170212034748d    3
 OLDACT:DUP 17-02-12 16:38 OP:and  STATUS:               ID:20170212034748d    3
 OLDACT:UP  17-02-12 16:38 OP:and  STATUS:               ID:20170212034747     3
 OLDACT:UP  17-02-12 16:38 OP:and  STATUS:               ID:20170212034747     3
 OLDACT:UP  17-02-12 16:38 OP:and  STATUS:               ID:20170212034747     3
 OLDACT:REG 17-02-12 12:42 OP:and  STATUS:               ID:20170212034747     3
 2017-02-12-0348-00M.COL___352                                                 6
 STAT SP IPHASW D HRMM SECON CODA AMPLIT PERI AZIMU VELO AIN AR TRES W  DIS CAZ7
 BAR2 EZ EP        352 12.21                             171   -0.2510 21.8 202 
 BAR2 EZ ES   2    352 27.75                             171   -0.36 5 21.8 202 
 BAR2 EZ I         352 28.89         9.0 0.28            169           21.8 202 
 BRR  HZ EP        352 14.12                             152   -0.1210 76.0 299 
 BRR  HN ES        352 31.36                             152    0.1010 76.0 299 
 BRR  HZ I         352 41.52         6.4 0.36            150           76.0 299 
 PAM  EZ IP     D  352 15.20                             152    0.1910 77.1  36 
 PAM  EN ES        352 32.24                             152   -0.3910 77.1  36 
 PAM  EZ I         352 34.35        14.6 0.58            156           77.1  36 
 RUS  HZ EP        352 16.24                             145   -0.0910 97.7 178 
 RUS  HN ES        352 35.62                             145    0.6310 97.7 178 
 RUS  HZ I         352 36.67         4.8 0.23            147           97.7 178 
 TAM  HZ IP     C  352 20.47                             132    0.49 9  151 104 
 PTB  HZ EP   9    352 19.26                             132   -0.73 0  151 260 
 PTB  HN ES        352 40.32                                   -0.46 9  151 260 
 PTB  HZ I         352 45.53         4.6 0.20            132            151 260 
 ZAR  HN ES        352 51.00                             123   -0.46 8  209 292 
 ZAR  HZ I         352 54.96         5.5 0.26            124            209 292 
 NOR  HZ EP        352 28.17                             119   -0.37 8  236 236 
 NOR  HN ES        352 57.24                             119    0.52 8  236 236 
 NOR  HZ I         353  1.64         2.4 0.22            120            236 236 
 CHI  HZ EP        352 30.68                             118    0.52 8  247 196 
 CHI  HN ES        352 59.01                             118   -0.59 8  247 196 
 CHI  HZ I         353  7.57         1.2 0.22            120            247 196 
 PTGC HZ EP   2    352 35.28                             112   -0.71 4  305 159 
 PTGC HN ES   3    353  8.54                             112   -1.45 2  305 159 
 SJC  HZ EP   4    352 46.49                             106   -2.12 0  414 327 
 SJC  HN ES   4    353 28.21                             106   -4.24 0  414 327 
                                                                                
