 2013  212 0950 41.7 L   6.769 -73.165147.8  RSN 10 0.5 2.0LRSN                1
 GAP=135        0.91       3.5     4.9  6.8  0.1502E+01  0.7579E+01  0.1825E+01E
 Epicentro: LOS SANTOS - SANTANDER                                             3
 ACTION:UPD 13-03-12 09:32 OP:ep   STATUS:               ID:20130212095041 L   I
 2013-02-12-0950-00M.COL___240                                                 6
 STAT SP IPHASW D HRMM SECON CODA AMPLIT PERI AZIMU VELO AIN AR TRES W  DIS CAZ7
 BAR2 SZ EP        951  1.41                             172   -0.0710 19.6 186 
 BAR2 SZ ES   1    951 17.00                             172    0.07 7 19.6 186 
 BAR2 SZ I         951 18.16        37.3 0.26            172           19.6 186 
 BRR  HZ EP        951  3.59                             153    0.5510 71.1 302 
 BRR  HN ES   1    951 20.70                             153    1.00 7 71.1 302 
 BRR  HZ I         951 21.31        14.5 0.30            152           71.1 302 
 PAM  SZ EP        951  4.58                             150    0.2310 81.4  39 
 PAM  SN ES   1    951 21.77                             150   -0.27 7 81.4  39 
 PAM  SZ I         951 24.07        14.1 0.50            152           81.4  39 
 RUS  HZ IP     C  951  5.24                             145   -0.1610 97.3 175 
 RUS  HE ES   1    951 23.73                             145   -0.17 7 97.3 175 
 RUS  HZ I         951 25.20        14.8 0.34            147           97.3 175 
 PTB  HZ EP        951  8.18                             133   -0.38 9  145 260 
 PTB  HN ES   1    951 28.75                             133   -0.79 7  145 260 
 PTB  HZ I         951 30.20        14.2 0.12            133            145 260 
 OCA  HN ES   1    951 32.24                             130   -0.64 7  163 354 
 OCA  HZ I         951 35.69         9.1 0.34            130            163 354 
 ZAR  HZ EP   1    951 14.75                             123    0.56 6  203 293 
 ZAR  HE ES   1    951 39.55                             123    0.00 6  203 293 
 ZAR  HZ I         951 46.16        12.5 0.34            123            203 293 
 CHI  HZ EP   1    951 19.04                             118   -0.03 6  245 195 
 CHI  HN ES   1    951 48.28                             118    0.05 6  245 195 
 CHI  HZ I         951 52.25         2.7 0.62            119            245 195 
 SML  HZ EP   2    951 18.56                             118   -0.10 4  246 336 
 SML  HN ES   1    951 46.92                             118   -0.59 6  246 336 
 HEL  HZ EP   2    951 22.41                             115    0.74 4  269 256 
 URE  HZ EP   4    951 22.58                             114   -0.19 0  283 293 
 URE  HE ES   4    951 52.52                             114   -2.30 0  283 293 
                                                                                
