 2011  512 0246 13.9 L   7.408 -73.214131.5  RSN  8 0.3 1.4LRSN                1
 GAP=162        0.54       4.2     7.2  5.2 -0.1711E+02  0.4060E+01  0.2206E+01E
 Epicentro: EL PLAYON - SANTANDER                                              3
 ACTION:UP  11-06-29 08:52 OP:tino STATUS:               ID:20110512024613 L   I
 2011-05-12-0242-31S.COL___129                                                 6
 STAT SP IPHASW D HRMM SECON CODA AMPLIT PERI AZIMU VELO SNR AR TRES W  DIS CAZ7
 GIR2 SZ EP   1    246 31.88                             164    -0.2 7   36 176 
 GIR2 SZ ES   1    246 45.99                             164    -0.2 7   36 176 
 BTL  SZ EP   1    246 33.34                             156     0.4 7   54 186 
 PAM  SN ES   2    246 48.40                             155    -0.3 5   57  98 
 BRI  SZ EP   1    246 33.23                             155     0.2 7   57  53 
 BRI  SZ ES   2    246 48.43                             155     0.5 5   57  53 
 BRI  SZ I         246 50.81         5.2 0.38                            57  53 
 BRR  HZ EP   2    246 33.04                             152    -0.1 5   64 239 
 BRR  HE ES   2    246 48.19                             152     0.1 5   64 239 
 BRR  HZ I         246 49.22         7.6 0.17                            64 239 
 GRA  SZ EP   1    246 33.38                             150    -0.3 7   69  41 
 GRA  SZ ES   1    246 49.03                             150     0.0 7   69  41 
 GRA  SZ I         246 50.79         8.7 0.31                            69  41 
 BAR2 SZ EP   2    246 35.28                             144     0.1 5   90 178 
 BAR2 SZ ES   2    246 51.62                             144    -0.1 5   90 178 
 BAR2 SZ I         247  7.72         9.2 0.42                            90 178 
 RUS  HZ EP   1    246 42.13                             125    -0.2 7  168 175 
 RUS  HZ I         246 42.35         1.4 0.50                           168 175 
 RUS  HE ES   2    247  4.98                             125     0.4 5  168 175 
                                                                                
