 2013  812 0321 57.0 L   6.732 -73.157148.8  RSN  6 0.4 1.6LRSN                1
 GAP=138        1.14       5.8     5.3  9.3  0.2794E+01  0.6136E+01 -0.3454E+01E
 Epicentro: VILLANUEVA - SANTANDER                                             3
 ACTION:UPD 14-01-14 09:01 OP:ep   STATUS:               ID:20130812032157 L   I
 OLDACT:DUP 13-08-12 10:52 OP:stll STATUS:               ID:20130812031838d    3
 2013-08-12-0318-37M.COL___230                                                 6
 STAT SP IPHASW D HRMM SECON CODA AMPLIT PERI AZIMU VELO AIN AR TRES W  DIS CAZ7
 BAR2 SZ ES        322 32.53                             174    0.1910 15.6 190 
 BAR2 SZ I         322 32.91         4.8 0.18            174           15.6 190 
 BRR  HZ EP        322 19.29                             152    0.6810 74.0 304 
 BRR  HN ES        322 35.95                             152    0.4610 74.0 304 
 BRR  HN I         322 36.88        13.8 0.18            152           74.0 304 
 PAM  SZ EP        322 20.22                             149    0.3010 84.1  37 
 PAM  SN ES        322 37.25                             149   -0.5710 84.1  37 
 RUS  HZ EP        322 20.23                             147   -0.2810 93.1 175 
 RUS  HN ES        322 38.69                             147   -0.1810 93.1 175 
 PTB  HN ES        322 44.94                             133   -0.07 9  145 262 
 ZAR  HN ES        322 54.66                             123   -0.75 8  206 294 
                                                                                
