 2014  312 0850 13.4 L   6.818 -73.137146.8  RSN 18 0.4 2.4LRSN                1
 GAP=137        0.70       1.8     2.6  4.0 -0.1008E+01  0.3606E+01 -0.2617E+00E
 Epicentro: LOS SANTOS - SANTANDER                                             3
 OLDACT:REG 14-03-12 08:02 OP:fm   STATUS:               ID:20140312084818     3
 ACTION:UPD 14-04-09 23:16 OP:nd   STATUS:               ID:20140312085013 L   I
 OLDACT:UP  14-03-13 04:09 OP:stll STATUS:               ID:20140312085013 L   3
 OLDACT:UP  14-03-12 10:21 OP:fm   STATUS:               ID:20140312084818     3
 2014-03-12-0848-18M.COL___229                                                 6
 STAT SP IPHASW D HRMM SECON CODA AMPLIT PERI AZIMU VELO AIN AR TRES W  DIS CAZ7
 BAR2 SZ EP        850 33.22                             170    0.0110 25.5 191 
 BAR2 SZ ES   1    850 49.14                             170    0.49 7 25.5 191 
 BAR2 SZ I         850 50.86       100.5 0.24            168           25.5 191 
 PAM  SZ IP     C  850 36.06                             152    0.4610 75.2  40 
 PAM  SE ES        850 53.09                             152    0.1710 75.2  40 
 PAM  SZ I         850 55.72        23.8 0.44            155           75.2  40 
 RUS  HZ EP        850 37.21                             143   -0.1910  103 177 
 RUS  HE ES        850 55.95                             143   -0.1710  103 177 
 RUS  SZ I         850 56.96        16.5 0.70            147            103 177 
 PTB  HZ EP        850 40.21                             132   -0.37 9  149 258 
 PTB  HN ES        851  1.48                             132   -0.29 9  149 258 
 PTB  SZ I         851  8.08        22.9 0.20            130            149 258 
 OCA  HZ EP        850 41.30                             130   -0.32 9  158 353 
 OCA  HN ES        851  3.31                             130   -0.31 9  158 353 
 OCA  SZ I         851  6.44        21.1 0.28            131            158 353 
 SPBC HZ EP        850 42.18                             129   -0.01 9  165 219 
 SPBC HE ES        851  4.65                             129    0.01 9  165 219 
 SPBC SZ I         851  8.76        36.2 0.22            129            165 219 
 ZAR  HZ EP   1    850 46.46                             123    0.53 6  204 292 
 ZAR  HN ES        851 11.12                             123   -0.18 9  204 292 
 ZAR  SZ I         851 16.35        22.3 0.32            122            204 292 
 NOR  HZ EP        850 49.32                             118   -0.08 8  237 234 
 NOR  HN ES        851 17.15                             118   -0.33 8  237 234 
 NOR  SZ I         851 22.62        15.2 0.18            119            237 234 
 SML  HZ EP   1    850 49.45                             118   -0.48 6  242 335 
 SML  HE ES   1    851 18.85                             118    0.43 6  242 335 
 SML  SZ I         851 23.42        22.2 0.08            118            242 335 
 CHI  HZ EP        850 51.62                             117    0.22 8  251 195 
 CHI  HE ES        851 20.85                             117   -0.19 8  251 195 
 CHI  SZ I         851 24.12        17.0 0.50            119            251 195 
 ROSC BZ EP   2    850 52.13                             117    0.30 4  255 211 
 ROSC BN ES   4    851 24.02                             117    2.23 0  255 211 
 ROSC SZ I         851 27.90        34.7 0.45            118            255 211 
 HEL  HZ EP   1    850 54.53                             115    0.70 6  273 255 
 HEL  HE ES   1    851 26.17                             115    0.81 6  273 255 
 HEL  SZ I         851 31.46        12.1 0.44            115            273 255 
 URE  HZ EP   4    850 53.06                             114   -1.48 0  284 291 
 URE  HN ES   4    851 23.70                             114   -2.92 0  284 291 
 URE  SZ I         851 42.28         8.9 0.20            114            284 291 
 VIL  SN ES   4    851 31.31                             112    0.10 0  306 192 
 PTGC HZ EP   4    850 56.32                             112   -1.17 0  310 159 
 PTGC HN ES   4    851 30.24                             112   -1.63 0  310 159 
 CBOC HZ EP   1    851  0.96                             110    0.42 5  335 252 
 CBOC HE ES   1    851 37.92                             110    0.62 5  335 252 
 CBOC SZ I         851 45.65         4.0 0.66            111            335 252 
 DBB  SZ EP   1    851  0.95                             110   -0.07 5  340 274 
 DBB  SZ ES   1    851 37.57                             110   -0.58 5  340 274 
 COD  HZ EP   1    851  1.20                             109   -0.40 5  346 354 
 COD  HN ES   1    851 39.71                             109    0.52 5  346 354 
 COD  SZ I         851 49.31         7.2 0.64            110            346 354 
 ORTC HZ EP        851  7.50                             106   -0.12 6  398 216 
 ORTC HN ES   1    851 50.43                             106    0.53 4  398 216 
 ORTC SZ I         851 54.34         9.1 0.54            108            398 216 
 SJC  HZ EP   4    851  7.38                             106   -1.48 0  408 327 
 SJC  HN ES   4    851 47.61                             106   -4.51 0  408 327 
 SJC  SZ I         851 55.97         6.8 0.96            107            408 327 
                                                                                
