 2011  912 0530 45.9 L   7.315 -73.046161.8  RSN  8 0.2 2.0LRSN                1
 GAP=102        0.36       2.6     3.1  4.0  0.1175E+00  0.2317E+01  0.9530E+00E
 Epicentro: MATANZA - SANTANDER                                                3
 ACTION:UPD 12-07-13 15:57 OP:ep   STATUS:               ID:20110912053045 L   I
 2011-09-12-0526-16S.COL___168                                                 6
 STAT SP IPHASW D HRMM SECON CODA AMPLIT PERI AZIMU VELO AIN AR TRES W  DIS CAZ7
 GIR2 SZ EP   1    531  7.48                             169    0.00 7 30.7 212 
 GIR2 SZ ES   3    531 23.90                             169   -0.40 2 30.7 212 
 PAM  SZ EP   1    531  8.43                             166    0.23 7 38.4  86 
 PAM  SE ES   2    531 25.29                             166   -0.29 5 38.4  86 
 BRR  HZ EP   1    531  9.19                             153    0.07 7 77.0 253 
 BRR  HN ES   2    531 27.78                             153    0.56 5 77.0 253 
 BRR  HZ I         531 29.44        29.0 0.01                          77.0 253 
 BAR2 SZ EP   1    531  9.74                             152    0.03 7 81.3 191 
 BAR2 SZ I         531  9.92        17.2 0.07                          81.3 191 
 BAR2 SZ ES   2    531 28.16                             152   -0.10 5 81.3 191 
 OCA  SZ EP   1    531 11.00                             145   -0.19 7  107 344 
 OCA  SZ ES   2    531 31.00                             145    0.09 5  107 344 
 RUS  HZ EP   1    531 15.69                             134   -0.02 7  157 181 
 RUS  HN ES   2    531 38.79                             134   -0.16 5  157 181 
 RUS  HZ I         531 39.52         5.3 0.39                           157 181 
 ZAR  HN ES   2    531 44.78                             126   -0.28 4  201 276 
 ZAR  HZ I         531 52.95        11.6 0.17                           201 276 
 HEL  HZ EP   1    531 30.09                             115   -0.09 5  301 246 
 HEL  HN ES   2    532  4.68                             115   -0.02 4  301 246 
 HEL  HZ I         532  6.26         4.9 0.40                           301 246 
                                                                                
