 2016  212 0835 17.0 L   6.791 -73.128146.7  RSN  6 0.4 1.4LRSN                1
 GAP=139        0.89       4.1     4.1  6.6 -0.2268E+01  0.9244E+01 -0.2734E+01E
 Epicentro: LOS SANTOS - SANTANDER                                             3
 ACTION:UPD 16-03-04 21:25 OP:rebc STATUS:               ID:20160212083517 L   I
 OLDACT:UP  16-02-12 19:04 OP:ak   STATUS:               ID:20160212082748d    3
 OLDACT:DUP 16-02-12 18:58 OP:ak   STATUS:               ID:20160212082748d    3
 OLDACT:UP  16-02-12 18:55 OP:ak   STATUS:               ID:20160212082747     3
 OLDACT:REG 16-02-12 16:19 OP:ak   STATUS:               ID:20160212082747     3
 2016-02-12-0827-47M.COL___283                                                 6
 STAT SP IPHASW D HRMM SECON CODA AMPLIT PERI AZIMU VELO AIN AR TRES W  DIS CAZ7
 BAR2 EZ EP        835 36.85                             171    0.1210 22.8 195 
 BAR2 EZ ES        835 51.99                             171   -0.1310 22.8 195 
 BAR2 EZ I         835 54.34         5.6 0.24            169           22.8 195 
 PAM  EZ EP        835 39.41                             151    0.1310 76.9  38 
 PAM  EN ES        835 56.72                             151    0.0610 76.9  38 
 PAM  EZ I         835 58.82         2.5 0.12            156           76.9  38 
 RUS  HZ EP        835 40.47                             144   -0.2910 99.5 177 
 RUS  HN ES        835 59.31                             144    0.0110 99.5 177 
 RUS  HZ I         836  2.12         2.6 0.42            147           99.5 177 
 PTB  HZ EP   2    835 43.54                             132   -0.66 5  150 259 
 PTB  HN ES        836  4.68                             132   -0.74 9  150 259 
 PTB  HZ I         836 12.02         4.5 0.50            132            150 259 
 SPBC HZ EP        835 45.67                             129    0.06 9  164 220 
 SPBC HN ES        836  8.61                             129    0.67 9  164 220 
 SPBC HZ I         836 13.56         3.9 0.34            131            164 220 
 ZAR  HZ EP        835 49.60                             122   -0.13 8  206 292 
 ZAR  HN ES        836 15.79                             122    0.53 8  206 292 
 ZAR  HZ I         836 21.84         2.1 0.25            124            206 292 
                                                                                
