 2012  312 0659 20.6 L   6.779 -73.172138.3  RSN  9 0.4 1.7LRSN                1
 GAP=134        1.01       4.8     5.9  9.3 -0.2793E+00  0.2428E+02 -0.2414E+01E
 ACTION:UP  12-03-31 23:19 OP:EP   STATUS:               ID:20120312065920 L   I
 2012-03-12-0657-41M.COL___181                                                 6
 STAT SP IPHASW D HRMM SECON CODA AMPLIT PERI AZIMU VELO SNR AR TRES W  DIS CAZ7
 BAR2 SZ ES   1    659 53.38                             171    -0.5 7   21 183 
 BAR2 SZ I         659 56.43        21.8 0.27                            21 183 
 BRR  HZ EP        659 41.52                             152     0.610   70 301 
 BRR  HZ I         659 41.81        32.6 0.14                            70 301 
 PAM  SN ES   1    659 58.83                             148    -0.3 7   81  40 
 RUS  HZ EP   1    659 43.57                             143     0.1 7   99 174 
 RUS  HN ES   1    7 0  1.67                             143     0.3 7   99 174 
 RUS  HZ I         7 0  4.04         8.7 0.43                            99 174 
 PTB  HZ EP   1    659 46.25                             131    -0.4 7  144 259 
 PTB  HN ES   1    7 0  7.28                             131     0.3 7  144 259 
 PTB  HZ I         7 0  9.90         7.7 0.16                           144 259 
 OCA  SZ EP   1    659 48.86                             127     0.3 7  162 354 
 OCA  SZ I         7 0 16.23         0.4 0.26                           162 354 
 ZAR  HZ EP   1    659 51.44                             121    -1.0 6  202 293 
 ZAR  HN ES        7 0 17.30                             121     0.1 9  202 293 
 ZAR  HZ I         7 0 24.47        11.8 0.29                           202 293 
 NOR  SZ EP   1    659 55.43                             117    -0.1 6  231 234 
 NOR  SN ES   1    7 0 22.62                             117    -0.1 6  231 234 
 CHI  HN ES   1    7 0 26.32                             116    -0.1 6  246 195 
                                                                                
