 2012  612 0150 16.1 L   6.060 -74.223  9.9  RSN  8 0.5 1.5LRSN                1
 GAP= 74        0.84       2.8     2.9  6.0 -0.1963E+00 -0.7373E+01  0.1947E+01E
 Epicentro: CIMITARRA - SANTANDER                                              3
 ACTION:UPD 12-08-06 17:48 OP:ep   STATUS:               ID:20120612015020 L   I
 2012-06-12-0150-00M.COL___201                                                 6
 STAT SP IPHASW D HRMM SECON CODA AMPLIT PERI AZIMU VELO AIN AR TRES W  DIS CAZ7
 PTB  HZ EP   1    150 26.00                              95    0.34 7 59.0 334 
 PTB  HN ES   1    150 33.65                              95    0.51 7 59.0 334 
 NOR  SZ EP   1    150 30.61                              93    0.21 7 90.1 233 
 NOR  SE ES   2    150 41.33                              93   -0.26 5 90.1 233 
 RUS  HZ EP   1    150 35.88                              92   -0.64 7  128  98 
 RUS  HZ I         150 50.45         4.2 0.18             56            128  98 
 BAR2 SZ EP   1    150 36.39                              92   -0.13 7  129  63 
 BAR2 SZ I         150 53.48        17.1 0.24             56            129  63 
 HEL  HZ EP   1    150 39.28                              92    0.22 7  145 276 
 HEL  HE ES   1    150 56.17                              92   -0.83 7  145 276 
 HEL  HZ I         150 59.47         7.5 0.23             97            145 276 
 CHI  HN ES   1    151  3.22                              56    0.60 7  167 161 
 CHI  HZ I         151  8.21         7.3 0.39             56            167 161 
 ZAR  HZ EP   1    150 42.73                              56    0.25 7  173 336 
 ZAR  HN ES   2    151  2.39                              56   -0.69 4  173 336 
 ZAR  HZ I         151  3.60         7.0 0.38             56            173 336 
 PAM  SN ES   1    151 14.31                              56   -0.21 6  220  50 
                                                                                
