 2011  612 0652 57.9 L   6.750 -73.082142.6  RSN  8 0.3 2.0LRSN                1
 GAP=181        0.64       3.1     5.5  5.2 -0.1004E+02 -0.2959E+01  0.4477E+01E
 Epicentro: LOS SANTOS - SANTANDER                                             3
 ACTION:UP  11-07-14 19:04 OP:ep   STATUS:               ID:20110612065257 L   I
 2011-06-12-0651-40S.COL___132                                                 6
 STAT SP IPHASW D HRMM SECON CODA AMPLIT PERI AZIMU VELO SNR AR TRES W  DIS CAZ7
 BAR2 SZ EP        653 17.26                             171     0.210   21 212 
 BAR2 SZ ES   1    653 31.82                             171    -0.2 7   21 212 
 BAR2 SZ I         653 33.20        17.2 0.28                            21 212 
 BRR  HZ IP     D  653 19.07                             149    -0.210   80 300 
 BRR  HN ES   1    653 36.12                             149     0.2 7   80 300 
 BRR  HZ I         653 39.07        33.6 0.14                            80 300 
 BRI  SZ EP        653 21.85                             140     0.110  111  16 
 BRI  SZ I         654  1.73        17.4 0.42                           111  16 
 GRA  SZ EP        653 23.06                             135    -0.110  129  14 
 GRA  SZ ES   1    653 42.72                             135    -0.1 7  129  14 
 GRA  SZ I         653 45.61        10.4 0.46                           129  14 
 OCA  SZ EP   1    653 25.94                             128    -0.6 7  167 351 
 OCA  SZ ES   1    653 49.40                             128     0.4 7  167 351 
 OCA  SZ I         653 52.21        17.2 0.32                           167 351 
 NOR  SZ EP        653 33.69                             117     0.0 8  237 237 
 NOR  SE ES   1    654  1.51                             117    -0.2 6  237 237 
 CHI  HZ EP   1    653 35.58                             117     0.5 6  245 197 
 CHI  HN ES   1    654  3.90                             117    -0.1 6  245 197 
 CHI  HZ I         654 11.22         5.4 0.45                           245 197 
 PRA  HZ EP   1    653 51.33                             106     0.2 4  391 211 
 PRA  HN ES   1    654 32.69                             106     0.0 4  391 211 
                                                                                
