 2011  812 0530  2.4 L   6.753 -73.112149.0  RSN 12 0.3 2.7LRSN                1
 GAP=143        0.51       2.0     3.7  3.2 -0.1620E+01  0.3977E+01  0.1515E+01E
 Epicentro: LOS SANTOS - SANTANDER                                             3
 ACTION:UPD 12-07-13 15:51 OP:ep   STATUS:               ID:20110812053002 L   I
 2011-08-12-0526-42S.COL___150                                                 6
 STAT SP IPHASW D HRMM SECON CODA AMPLIT PERI AZIMU VELO AIN AR TRES W  DIS CAZ7
 BAR2 SZ IP        530 22.51                             172    0.1210 19.4 204 
 BAR2 SZ ES        530 37.91                             172   -0.0310 19.4 204 
 BAR2 SZ I         530 40.54        89.7 0.34                          19.4 204 
 BRR  HZ IP     C  530 24.31                             151    0.0410 77.0 301 
 BRR  HZ I         530 24.66       115.3 0.14                          77.0 301 
 BRR  HN ES   1    530 41.69                             151    0.40 7 77.0 301 
 PAM  SZ EP   1    530 25.27                             151    0.16 7 79.2  35 
 PAM  SE ES   1    530 42.54                             151   -0.25 7 79.2  35 
 RUS  HZ EP        530 26.27                             146    0.1310 95.2 178 
 RUS  HE ES   1    530 44.49                             146   -0.13 7 95.2 178 
 RUS  HZ I         530 47.82        51.1 0.55                          95.2 178 
 OCA  SZ EP   1    530 31.15                             129   -0.38 7  166 352 
 OCA  SZ ES   1    530 53.91                             129   -0.30 7  166 352 
 OCA  SZ I         530 57.91        62.9 0.17                           166 352 
 NOR  SZ EP   1    530 38.30                             119   -0.07 6  235 236 
 NOR  SN ES   2    531  6.25                             119   -0.14 4  235 236 
 CHI  HZ EP        530 40.33                             118    0.44 8  245 196 
 CHI  HZ I         530 43.21        23.2 0.50                           245 196 
 CHI  HN ES   1    531  8.87                             118   -0.23 6  245 196 
 RREF HZ EP   1    530 48.77                             111    0.10 5  321 231 
 RREF HN ES   1    531 24.40                             111   -0.33 5  321 231 
 RREF HZ I         531 34.11        24.4 0.76                           321 231 
 TOL  SZ EP   1    530 50.21                             110   -0.50 5  342 226 
 DBB  SZ EP   1    530 50.94                             110    0.42 5  344 275 
 PRA  HZ EP        530 55.90                             107    0.13 6  389 210 
 PRA  HE ES   1    531 37.00                             107   -0.36 4  389 210 
 SJA  SZ EP   1    530 55.94                             107   -0.68 4  396 194 
 SJA  SZ ES   2    531 39.32                             107    0.45 3  396 194 
 SJA  SZ I         531 50.38        31.4 0.36                           396 194 
                                                                                
