 2016 1012 0535 54.5 L   6.788 -73.128147.8  RSN  7 0.4 1.9LRSN                1
 GAP=185        1.11       4.0     5.8  7.2  0.2140E+01  0.4092E+01 -0.4183E+01E
 Epicentro: LOS SANTOS - SANTANDER                                             3
 ACTION:UPD 16-11-09 19:18 OP:rebc STATUS:               ID:20161012053554 L   I
 OLDACT:REG 16-10-12 14:29 OP:ar   STATUS:               ID:20161012052748     3
 2016-10-12-0528-00M.COL___372                                                 6
 STAT SP IPHASW D HRMM SECON CODA AMPLIT PERI AZIMU VELO AIN AR TRES W  DIS CAZ7
 BAR2 EZ EP        536 14.04                             171   -0.3110 22.4 196 
 BAR2 EZ ES        536 29.05                             171   -0.7910 22.4 196 
 BAR2 EZ I         536 32.19        13.7 0.34            172           22.4 196 
 BRR  HZ EP        536 16.30                             152    0.3010 73.6 299 
 BRR  HN ES        536 33.42                             152    0.6510 73.6 299 
 BRR  HZ I         536 37.93        10.5 0.34            151           73.6 299 
 RUS  HZ EP        536 18.39                             145    0.0510 99.1 177 
 RUS  HN ES        536 37.22                             145    0.2810 99.1 177 
 RUS  HZ I         536 40.01         4.2 0.20            150           99.1 177 
 PTB  HZ EP        536 21.46                             132   -0.32 9  149 259 
 PTB  HN ES        536 42.39                             132   -0.67 9  149 259 
 PTB  HZ I         536 49.64        13.4 0.40            134            149 259 
 OCA  HZ EP        536 23.25                             130    0.14 9  162 353 
 OCA  HN ES        536 45.58                             130    0.15 9  162 353 
 OCA  HZ I         536 52.13        12.5 0.24            132            162 353 
 SPBC HZ EP        536 23.32                             129    0.15 9  163 220 
 SPBC HN ES        536 46.18                             129    0.65 9  163 220 
 ZAR  HZ EP        536 26.87                             122   -0.44 8  206 292 
 ZAR  HE ES        536 53.02                             122    0.11 8  206 292 
 ZAR  HZ I         536 58.43         9.8 0.28            125            206 292 
                                                                                
