 2012 1212 1245  4.4 L   6.790 -73.131143.8  RSN 14 0.6 2.8LRSN 3.0WRSN        1
 SPEC AVERAGE  MO 13.6 ST  4.6 OM  2.1 f0 4.08 R0.3764 AL 2.90 WI 15.7 MW  3.0 3
 SPEC SD       MO  0.3 ST  3.7 OM  0.4 f00.876 R0.0772 AL      WI      MW  0.2 3
 GAP=139        1.34       3.5     5.2  6.2 -0.6004E+00  0.9341E+01  0.3343E+01E
 Epicentro: LOS SANTOS - SANTANDER                                             3
 SPEC PTB HH N MO 13.7 ST  2.0 OM  2.0 f0 3.06 R0.4804 AL 1.47 WI 16.8 MW  3.1 3
 SPEC PTB HH N T124549 K 0.000 GD  207 VS 4.20 DE 3.20 Q0300.0 QA 0.60 VS 4.20 3
 SPEC RUS HH E MO 13.2 ST  1.1 OM  1.6 f0 3.53 R0.4164 AL 2.21 WI 12.5 MW  2.8 3
 SPEC RUS HH E T124545 K 0.000 GD  174 VS 4.20 DE 3.20 Q0300.0 QA 0.60 VS 4.20 3
 SPEC PRA HH N MO 13.3 ST  4.1 OM  1.3 f0 5.24 R0.2805 AL 3.41 WI 11.1 MW  2.8 3
 SPEC PRA HH N T124639 K 0.000 GD  417 VS 4.20 DE 3.20 Q0300.0 QA 0.60 VS 4.20 3
 SPEC HEL HH N MO 13.6 ST  3.4 OM  1.7 f0 3.99 R0.3684 AL 3.35 WI 21.5 MW  3.0 3
 SPEC HEL HH N T124614 K 0.000 GD  308 VS 4.20 DE 3.20 Q0300.0 QA 0.60 VS 4.20 3
 SPEC OCA HH E MO 14.0 ST  9.7 OM  2.3 f0 4.03 R0.3648 AL 2.98 WI 16.2 MW  3.3 3
 SPEC OCA HH E T124552 K 0.000 GD  216 VS 4.20 DE 3.20 Q0300.0 QA 0.60 VS 4.20 3
 SPEC PAM SH N MO 13.3 ST  4.0 OM  1.7 f0 5.24 R0.2805 AL 4.52 WI 10.8 MW  2.8 3
 SPEC PAM SH N T124542 K 0.000 GD  163 VS 4.20 DE 3.20 Q0300.0 QA 0.60 VS 4.20 3
 SPEC CHI HH N MO 13.8 ST  2.5 OM  1.9 f0 3.17 R0.4637 AL 2.68 WI 20.8 MW  3.1 3
 SPEC CHI HH N T124610 K 0.000 GD  286 VS 4.20 DE 3.20 Q0300.0 QA 0.60 VS 4.20 3
 SPEC BRR HH N MO 13.8 ST 12.7 OM  2.2 f0 5.24 R0.2805 AL 3.20 WI 18.7 MW  3.1 3
 SPEC BRR HH N T124542 K 0.000 GD  161 VS 4.20 DE 3.20 Q0300.0 QA 0.60 VS 4.20 3
 SPEC BAR2SH Z MO 13.7 ST  2.2 OM  2.1 f0 3.25 R0.4523 AL 2.30 WI 13.0 MW  3.0 3
 SPEC BAR2SH Z T124537 K 0.000 GD  145 VS 4.20 DE 3.20 Q0300.0 QA 0.60 VS 4.20 3
 ACTION:UPD 13-01-04 14:27 OP:ep   STATUS:               ID:20121212124504 L   I
 2012-12-12-1240-00M.COL___242                                                 6
 STAT SP IPHASW D HRMM SECON CODA AMPLIT PERI AZIMU VELO AIN AR TRES W  DIS CAZ7
 BAR2 SZ IP       1245 23.85                             171    0.0510 22.6 195 
 BAR2 SZ ES       1245 38.89                             171   -0.0310 22.6 195 
 BAR2 SZ I        1245 39.83       128.5 0.26                          22.6 195 
 GIR2 SZ EP       1245 23.89                             167   -0.0110 32.7 348 
 GIR2 SZ ES       1245 38.60                             167   -0.4910 32.7 348 
 GIR2 SZ I        1245 40.74        45.8 0.34                          32.7 348 
 BRR  HZ EP       1245 25.59                             151    0.1210 73.2 299 
 BRR  HN ES       1245 42.91                             151    1.0210 73.2 299 
 BRR  HN I        1245 43.76       144.8 0.30                          73.2 299 
 PAM  SZ EP       1245 26.58                             151    0.1610 77.2  38 
 PAM  SN ES       1245 43.48                             151   -0.1010 77.2  38 
 PAM  SN I        1245 45.17        65.4 0.46                          77.2  38 
 RUS  HZ EP       1245 27.73                             144   -0.1610 99.4 177 
 RUS  HN ES       1245 46.29                             144    0.0910 99.4 177 
 RUS  HN I        1245 48.00        54.9 0.40                          99.4 177 
 PTB  HZ EP       1245 30.35                             131   -1.01 9  149 259 
 PTB  HN ES       1245 51.37                             131   -0.99 9  149 259 
 PTB  HN I        1245 57.24       174.4 0.46                           149 259 
 OCA  HZ EP       1245 31.86                             129   -0.84 9  162 353 
 OCA  HN ES       1245 55.18                             129    0.41 9  162 353 
 OCA  HN I        1245 59.26       178.4 0.26                           162 353 
 ZAR  HZ EP       1245 37.40                             122    0.46 8  206 292 
 ZAR  HN ES       1246  2.58                             122    0.28 8  206 292 
 ZAR  HN I        1246  7.30        96.8 0.42                           206 292 
 SML  HZ EP       1245 40.18                             117   -0.94 8  245 335 
 SML  HN ES       1246 10.48                             117    0.73 8  245 335 
 SML  HN I        1246 16.14        88.0 0.10                           245 335 
 CHI  HZ EP       1245 41.92                             117   -0.02 8  248 196 
 CHI  HN ES       1246 11.35                             117    0.15 8  248 196 
 CHI  HN I        1246 16.37        31.0 0.32                           248 196 
 ROSC BZ EP       1245 43.31                             116    0.89 8  253 211 
 HEL  HE ES       1246 15.70                             114   -0.38 8  273 256 
 HEL  HE I        1246 24.00        33.8 0.40                           273 256 
 RREF HZ EP       1245 51.50                             110    0.96 7  322 230 
 PRA  HZ EP       1245 58.07                             106    0.22 6  392 210 
 PRA  HN ES       1246 39.81                             106    0.28 6  392 210 
 PRA  HN I        1246 44.94        14.1 0.50                           392 210 
                                                                                
