 2017 1012 1549  5.2 L   6.721 -73.222131.9  RSN  5 0.3 1.3LRSN                1
 GAP=228        0.71       5.0     4.0  6.7  0.7552E+01  0.1045E+02  0.1984E+00E
 Epicentro: VILLANUEVA - SANTANDER                                             3
 ACTION:UPD 17-11-07 19:31 OP:rebc STATUS:               ID:20171012154905 L   I
 OLDACT:REG 17-10-12 20:16 OP:lv   STATUS:               ID:20171012154101     3
 2017-10-12-1548-00M.COL___438                                                 6
 STAT SP IPHASW D HRMM SECON CODA AMPLIT PERI AZIMU VELO AIN AR TRES W  DIS CAZ7
 BAR2 EZ EP       1549 22.76                             173   -0.3010 14.9 163 
 BAR2 EZ ES       1549 36.73                             173   -0.2210 14.9 163 
 BAR2 EZ I        1549 39.21         8.6 0.18            172           14.9 163 
 RUS  HZ EP       1549 27.27                             143    0.1910 92.8 170 
 RUS  HN ES       1549 44.50                             143    0.3910 92.8 170 
 RUS  HZ I        1549 46.62         3.5 0.30            145           92.8 170 
 PTB  HZ EP       1549 30.08                             131   -0.12 9  138 262 
 PTB  HN ES       1549 49.63                             131   -0.04 9  138 262 
 PTB  HZ I        1549 53.01         1.6 0.30            133            138 262 
 ZAR  HE ES       1550  1.09                             120    0.42 9  200 295 
 NOR  HN ES       1550  4.85                             117   -0.31 8  223 235 
                                                                                
