 2017  212 1344 41.3 L   6.716 -73.168144.3  RSN  4 0.3 1.2LRSN                1
 GAP=228        0.72       7.8     9.0  6.4  0.5847E+02  0.4322E+01 -0.5509E+00E
 Epicentro: VILLANUEVA - SANTANDER                                             3
 ACTION:UPD 17-05-24 15:35 OP:jn   STATUS:               ID:20170212134441 L   I
 OLDACT:REG 17-02-12 21:07 OP:edw  STATUS:               ID:20170212133748     3
 2017-02-12-1338-00M.COL___346                                                 6
 STAT SP IPHASW D HRMM SECON CODA AMPLIT PERI AZIMU VELO AIN AR TRES W  DIS CAZ7
 BAR2 EZ EP       1345  0.30                             174   -0.3110 13.8 186 
 BAR2 EZ ES       1345 15.65                             174   -0.0110 13.8 186 
 BAR2 EZ I        1345 16.92         3.6 0.26            173           13.8 186 
 BRR  HZ EP       1345  2.32                             151   -0.1510 74.0 306 
 BRR  HN ES       1345 19.25                             151    0.2810 74.0 306 
 RUS  HZ EP       1345  4.77                             146    0.4810 91.5 174 
 RUS  HN ES       1345 22.01                             146   -0.1910 91.5 174 
 RUS  HZ I        1345 23.42         2.5 0.26            146           91.5 174 
 ZAR  HN ES       1345 39.03                             122   -0.13 8  205 295 
                                                                                
