 2014  112 1738 41.3 L   6.777 -73.128147.0  RSN  9 0.4 2.0LRSN                1
 GAP=140        1.06       4.0     5.5  6.2 -0.8252E+01  0.8825E+01  0.2182E+01E
 Epicentro: LOS SANTOS - SANTANDER                                             3
 ACTION:UPD 14-03-13 09:54 OP:ep   STATUS:               ID:20140112173841 L   I
 OLDACT:UP  14-01-13 05:38 OP:MIGU STATUS:               ID:20140112173841 L   3
 OLDACT:REG 14-01-12 16:25 OP:stll STATUS:               ID:20140112173816     3
 2014-01-12-1738-16M.COL___246                                                 6
 STAT SP IPHASW D HRMM SECON CODA AMPLIT PERI AZIMU VELO AIN AR TRES W  DIS CAZ7
 BAR2 SZ IP     D 1739  1.15                             171    0.1110 21.3 196 
 BAR2 SZ ES       1739 16.42                             171   -0.0110 21.3 196 
 BAR2 SZ I        1739 17.42        27.8 0.34            170           21.3 196 
 BRR  HZ IP     C 1739  3.00                             152    0.2510 74.1 300 
 BRR  HZ I        1739  3.28        32.9 0.26            150           74.1 300 
 BRR  HN ES       1739 20.03                             152    0.5610 74.1 300 
 PAM  SZ IP     C 1739  3.90                             151    0.2110 78.2  37 
 PAM  SZ I        1739  4.24        27.4 0.22            153           78.2  37 
 PAM  SN ES       1739 21.15                             151   -0.0110 78.2  37 
 RUS  HZ EP       1739  5.08                             145    0.0910 98.0 177 
 RUS  HN ES       1739 22.73                             145   -0.7310 98.0 177 
 RUS  HZ I        1739 24.95         9.3 0.24            145           98.0 177 
 SPBC HZ EP       1739 10.05                             129    0.22 9  162 220 
 SPBC HN ES       1739 31.73                             129   -0.34 9  162 220 
 SPBC HZ I        1739 36.09        13.1 0.40            129            162 220 
 NOR  HZ EP       1739 17.41                             119    0.30 8  235 235 
 NOR  HN ES       1739 44.54                             119   -0.51 8  235 235 
 NOR  HZ I        1739 50.44         6.7 0.28            118            235 235 
 SML  HZ EP       1739 17.14                             117   -1.19 8  247 335 
 SML  HN ES   4   1739 45.21                             117   -2.00 0  247 335 
 SML  HZ I        1739 49.67        17.8 0.24            117            247 335 
 CHI  HZ EP       1739 19.26                             118    0.40 8  247 196 
 CHI  HZ I        1739 21.79         2.8 0.36            117            247 196 
 CHI  HN ES       1739 48.57                             118    0.42 8  247 196 
 GUY2CHZ EP   4   1739 26.06                             112    1.08 0  301 235 
 GUY2CHN ES       1739 59.04                             112   -0.01 7  301 235 
 GUY2CHZ I        1740  8.37         3.0 0.26                           301 235 
                                                                                
