 2010  712 1438 11.1 L   6.838 -73.048143.4  RSN 12 0.6 2.4LRSN                1
 GAP=166        1.40       5.0    10.0  8.0 -0.2051E+02  0.3963E+01  0.4136E+01E
 Epicentro: LOS SANTOS - SANTANDER                                             3
 ACTION:UPD 10-12-01 15:17 OP:pat  STATUS:               ID:20100712143811 L   I
 2010-07-12-1432-43S.COL___120                                                 6
 STAT SP IPHASW D HRMM SECON CODA AMPLIT PERI AZIMU VELO AIN AR TRES W  DIS CAZ7
 BAR2 SZ EP       1438 30.37                             167    -0.210   31 209 
 GIR2 SZ EP       1438 30.33                             167    -0.110   31 329 
 BAR2 SZ ES       1438 45.85                             167     0.010   31 209 
 BAR2 SZ I        1438 46.94        68.8 0.23                            31 209 
 BRR  HZ EP       1438 32.13                             149    -0.310   79 292 
 BRR  HN ES       1438 49.08                             149     0.010   79 292 
 BRR  HZ I        1438 52.99        64.1 0.43                            79 292 
 BRI  SZ EP       1438 34.75                             143     0.610  101  16 
 BRI  SZ ES   1   1438 52.02                             143    -0.2 7  101  16 
 RUS  HZ EP       1438 34.47                             142    -0.410  105 182 
 RUS  HN ES       1438 52.95                             142    -0.510  105 182 
 RUS  HZ I        1438 55.14        35.6 0.07                           105 182 
 GUE  SZ EP       1438 35.23                             140     0.110  111   7 
 GUE  SZ I        1438 55.21        16.1 0.31                           111   7 
 GRA  SZ EP       1438 35.89                             138     0.410  119  13 
 GRA  SZ ES   1   1438 55.00                             138     0.4 7  119  13 
 GRA  SZ I        1438 57.80        38.6 0.07                           119  13 
 CHI  HZ EP   1   1438 48.79                             116    -0.6 6  256 197 
 CHI  HN ES   1   1439 20.19                             116     0.9 6  256 197 
 CHI  HZ I        1439 24.18        19.9 0.35                           256 197 
 ROSC BZ EP   1   1438 50.37                             115     0.3 6  262 213 
 ROSC BE ES   1   1439 22.00                             115     1.5 6  262 213 
 ROSC BZ I        1439 25.65        26.2 0.47                           262 213 
 RREF HZ EP       1438 59.16                             109     0.8 7  333 230 
 RREF HZ I        1439  0.94        14.2 0.25                           333 230 
 DBB  SZ EP   1   1438 58.30                             108    -1.4 5  350 273 
 PRA  HZ EP       1439  4.33                             106    -1.2 6  401 211 
                                                                                
