 2014 1112 1300 15.4 L   6.756 -73.166149.3  RSN  7 0.4 1.9LRSN                1
 GAP=136        1.03       4.4     4.8  6.5 -0.4262E+01  0.5398E+01  0.7762E+01E
 Epicentro: LOS SANTOS - SANTANDER                                             3
 ACTION:UPD 14-12-19 15:42 OP:nd   STATUS:               ID:20141112130015 L   I
 OLDACT:UP  14-11-12 23:23 OP:cam  STATUS:               ID:20141112125815     3
 OLDACT:REG 14-11-12 19:41 OP:cam  STATUS:               ID:20141112125815     3
 2014-11-12-1258-15M.COL___277                                                 6
 STAT SP IPHASW D HRMM SECON CODA AMPLIT PERI AZIMU VELO AIN AR TRES W  DIS CAZ7
 BAR2 SZ EP     C 13 0 35.43                             173    0.1110 18.2 186 
 BAR2 SZ ES       13 0 50.68                             173   -0.2110 18.2 186 
 BAR2 SZ I        13 0 51.97        33.4 0.20            170           18.2 186 
 BRR  HZ EP       13 0 37.19                             153    0.2710 71.8 303 
 BRR  HN ES       13 0 54.47                             153    0.7310 71.8 303 
 BRR  HN I        13 0 55.09        49.4 0.24            153           71.8 303 
 PAM  SZ EP     C 13 0 38.19                             150   -0.0710 82.6  39 
 PAM  SN ES       13 0 55.71                             150   -0.4110 82.6  39 
 PAM  SZ I        13 0 57.44         6.7 0.42            154           82.6  39 
 RUS  HZ EP       13 0 39.16                             146    0.0310 95.9 175 
 RUS  HE ES       13 0 57.57                             146   -0.1010 95.9 175 
 RUS  HZ I        13 0 59.24         5.4 0.22            145           95.9 175 
 PTB  HZ EP       13 0 41.78                             133   -0.56 9  145 261 
 PTB  HN ES       13 1  3.45                             133    0.06 9  145 261 
 PTB  HZ I        13 1  9.09         8.5 0.26            133            145 261 
 NOR  HZ EP       13 0 50.56                             120   -0.24 8  230 235 
 NOR  HN ES       13 1 17.70                             120   -0.74 8  230 235 
 NOR  HZ I        13 1 23.24         8.4 0.16            120            230 235 
 CHI  HZ EP       13 0 53.48                             118    0.80 8  243 195 
 CHI  HN ES       13 1 22.15                             118    0.36 8  243 195 
 CHI  HZ I        13 1 28.54         3.7 0.50            119            243 195 
                                                                                
