 2011 1012 1411  1.2 L   6.854 -73.322128.0  RSN  4 0.2 1.3LRSN                1
 GAP=137        0.33       3.0     6.7  6.4 -0.4162E+01 -0.2321E+02  0.3732E+01E
 Epicentro: ZAPATOCA - SANTANDER                                               3
 ACTION:UPD 12-07-13 16:03 OP:ep   STATUS:               ID:20111012141101 L   I
 2011-10-12-1407-53S.COL___169                                                 6
 STAT SP IPHASW D HRMM SECON CODA AMPLIT PERI AZIMU VELO AIN AR TRES W  DIS CAZ7
 BAR2 SZ I        1411 27.37         4.7 0.70                          32.8 152 
 BAR2 SZ ES   3   1411 32.96                             165    0.19 2 32.8 152 
 BRR  HE ES   2   1411 33.47                             157    0.00 5 51.4 303 
 PAM  SZ EP       1411 22.25                             144    0.0510 87.3  52 
 PAM  SN ES   3   1411 38.14                             144   -0.47 2 87.3  52 
 RUS  HZ EP       1411 23.87                             137   -0.0610  110 166 
 RUS  HN ES   2   1411 41.82                             137    0.12 5  110 166 
                                                                                
