 2013 1212 1115 48.1 L   6.797 -73.124145.2  RSN 10 0.4 2.0LRSN                1
 GAP=113        1.06       3.8     4.9  6.2  0.3125E+01  0.1625E+01  0.4547E+00E
 Epicentro: LOS SANTOS - SANTANDER                                             3
 ACTION:UPD 14-01-13 10:17 OP:ep   STATUS:               ID:20131212111548 L   I
 OLDACT:UP  13-12-12 16:15 OP:cam  STATUS:               ID:20131212111000     3
 OLDACT:UP  13-12-12 16:14 OP:cam  STATUS:               ID:20131212111000     3
 OLDACT:UP  13-12-12 16:14 OP:cam  STATUS:               ID:20131212111000     3
 OLDACT:REG 13-12-12 14:40 OP:cma  STATUS:               ID:20131212111000     3
 2013-12-12-1110-00M.COL___285                                                 6
 STAT SP IPHASW D HRMM SECON CODA AMPLIT PERI AZIMU VELO AIN AR TRES W  DIS CAZ7
 BAR2 SZ EP       1116  7.59                             170   -0.0610 23.5 196 
 BAR2 SZ ES       1116 22.92                             170    0.0110 23.5 196 
 BAR2 SZ I        1116 23.65        35.3 0.18            164           23.5 196 
 BRR  HZ EP       1116  9.82                             152    0.5210 73.4 298 
 BRR  HE ES       1116 26.52                             152    0.6710 73.4 298 
 BRR  HZ I        1116 30.42        19.3 0.10            148           73.4 298 
 RUS  HZ EP       1116 11.69                             144   -0.0610  100 177 
 RUS  HN ES       1116 29.75                             144   -0.4510  100 177 
 PTB  HZ EP   1   1116 15.03                             131   -0.18 7  150 259 
 PTB  HN ES   4   1116 34.93                             131   -1.44 0  150 259 
 PTB  HZ I        1116 38.68        18.0 0.14            125            150 259 
 TAM  HZ EP       1116 16.00                             131    0.50 9  153 105 
 OCA  HZ EP   1   1116 16.06                             129   -0.35 7  161 352 
 OCA  HE ES       1116 37.72                             129   -0.79 9  161 352 
 OCA  HZ I        1116 41.39        11.8 0.14            126            161 352 
 ZAR  HZ EP   1   1116 20.81                             122    0.07 6  206 292 
 ZAR  HN ES       1116 46.52                             122    0.32 8  206 292 
 ZAR  HZ I        1116 51.79        11.7 0.26            117            206 292 
 NOR  HZ EP       1116 24.21                             118    0.24 8  236 235 
 NOR  HN ES       1116 51.17                             118   -0.78 8  236 235 
 NOR  HZ I        1116 53.64         9.0 0.14            113            236 235 
 SML  HZ EP   1   1116 24.25                             117   -0.57 6  245 335 
 SML  HN ES   4   1116 52.10                             117   -1.38 0  245 335 
 CHI  HZ EP       1116 26.03                             117    0.24 8  249 196 
 CHI  HZ I        1116 59.48         3.2 0.44            111            249 196 
 SJC  HZ EP   4   1116 42.01                             105   -1.81 0  411 327 
                                                                                
