 2010  712 1127  2.8 L   6.783 -73.076140.0  RSN  7 0.6 1.7LRSN                1
 GAP=164        1.94      13.7    24.3 26.6  0.1253E+03 -0.4351E+03 -0.2151E+03E
 Epicentro: LOS SANTOS - SANTANDER                                             3
 ACTION:UPD 10-12-01 15:17 OP:pat  STATUS:               ID:20100712112702 L   I
 2010-07-12-1122-34S.COL___120                                                 6
 STAT SP IPHASW D HRMM SECON CODA AMPLIT PERI AZIMU VELO AIN AR TRES W  DIS CAZ7
 BAR2 SZ ES   2   1127 36.06                             170    -0.5 5   24 209 
 BAR2 SZ I        1127 37.76        15.2 0.89                            24 209 
 BRR  HZ EP       1127 23.63                             150    -0.210   79 297 
 BRR  HN ES       1127 40.50                             150     0.310   79 297 
 BRR  HZ I        1127 44.99        15.4 0.27                            79 297 
 RUS  HZ EP   1   1127 26.14                             144     0.3 7   98 180 
 RUS  HN ES   1   1127 43.62                             144    -0.2 7   98 180 
 RUS  HZ I        1127 46.20         4.0 0.36                            98 180 
 BRI  SZ EP       1127 27.44                             141     1.310  108  17 
 BRI  SZ I        1127 28.22        11.9 0.71                           108  17 
 GUE  SZ EP       1127 26.81                             138    -0.210  117   8 
 GUE  SZ I        1127 28.64         4.7 0.22                           117   8 
 GRA  SZ EP       1127 26.73                             136    -0.810  126  14 
 GRA  SZ I        1127 28.04        10.6 0.10                           126  14 
 OCA  SZ EP       1127 30.56                             128    -0.4 9  163 351 
 OCA  SZ I        1127 56.18        10.5 0.17                           163 351 
                                                                                
