 2012  812 1520 38.5 L   6.783 -73.171141.1  RSN  5 0.4 1.5LRSN                1
 GAP=134        0.76       5.5     5.6  8.5 -0.5192E+01  0.3486E+01 -0.1571E+01E
 Epicentro: LOS SANTOS - SANTANDER                                             3
 ACTION:UPD 12-09-10 11:56 OP:ep   STATUS:               ID:20120812152038 L   I
 2012-08-12-1520-00M.COL___218                                                 6
 STAT SP IPHASW D HRMM SECON CODA AMPLIT PERI AZIMU VELO AIN AR TRES W  DIS CAZ7
 BAR2 SZ EP   1   1520 57.53                             171    0.03 7 21.1 183 
 BAR2 SZ ES   1   1521 12.62                             171    0.28 7 21.1 183 
 BAR2 SZ I        1521 13.94        13.4 0.11                          21.1 183 
 BRR  HZ EP   1   1520 59.45                             152    0.41 7 69.7 301 
 BRR  HZ I        1521  0.38         5.4 0.53                          69.7 301 
 BRR  HN ES   2   1521 15.90                             152    0.82 5 69.7 301 
 PAM  SZ EP   1   1521  0.41                             149    0.01 7 80.7  40 
 PAM  SZ I        1521  0.59         7.2 0.21                          80.7  40 
 PAM  SE ES   1   1521 16.96                             149   -0.54 7 80.7  40 
 RUS  HZ EP   1   1521  1.68                             143    0.03 7 98.9 174 
 RUS  HN ES   1   1521 19.73                             143    0.01 7 98.9 174 
 RUS  HZ I        1521 21.20         4.2 0.32                          98.9 174 
 PTB  HN ES   1   1521 24.64                             131   -0.66 7  145 259 
                                                                                
