 2013  812 1100 23.1 L   6.822 -73.175143.9  RSN 20 0.4 3.0LRSN 3.2WRSN        1
 SPEC AVERAGE  MO 13.9 ST  9.8 OM  1.9 f0 7.03 R0.3683 AL 0.00 WI 22.9 MW  3.2 3
 SPEC SD       MO  0.2 ST  5.9 OM  0.4 f0 2.69 R0.1125 AL      WI      MW  0.1 3
 GAP= 69        0.97       2.5     2.9  4.2 -0.7893E+00  0.3962E+01  0.1340E+01E
 Epicentro: LOS SANTOS - SANTANDER                                             3
 SPEC PRA HH N MO 14.0 ST  5.1 OM  2.0 f0 3.48 R0.4466 AL 0.00 WI 29.7 MW  3.3 3
 SPEC PRA HH N T11 156 K 0.000 GD  418 VS 4.20 DE 3.20 Q0300.0 QA 0.60 VS 4.20 3
 SPEC PTB HH Z MO 14.0 ST 14.3 OM  1.5 f0 9.12 R0.3083 AL 0.00 WI 18.9 MW  3.3 3
 SPEC PTB HH Z T11 048 K 0.000 GD  204 VP 7.60 DE 3.20 Q0300.0 QA 0.60 VS 4.20 3
 SPEC RUS HH Z MO 13.9 ST  4.9 OM  1.5 f0 6.69 R0.4203 AL 0.00 WI 16.7 MW  3.2 3
 SPEC RUS HH Z T11 046 K 0.000 GD  176 VP 7.60 DE 3.20 Q0300.0 QA 0.60 VS 4.20 3
 SPEC HEL HH Z MO 14.1 ST  2.5 OM  1.4 f0 4.79 R0.5871 AL 0.00 WI 27.4 MW  3.3 3
 SPEC HEL HH Z T11 1 2 K 0.000 GD  305 VP 7.60 DE 3.20 Q0300.0 QA 0.60 VS 4.20 3
 SPEC NOR HH Z MO 13.9 ST 15.9 OM  1.3 f0 10.0 R0.2812 AL 0.00 WI 27.3 MW  3.2 3
 SPEC NOR HH Z T11 057 K 0.000 GD  273 VP 7.60 DE 3.20 Q0300.0 QA 0.60 VS 4.20 3
 SPEC OCA HH Z MO 13.8 ST 12.4 OM  1.3 f0 10.0 R0.2812 AL 0.00 WI 20.1 MW  3.1 3
 SPEC OCA HH Z T11 050 K 0.000 GD  213 VP 7.60 DE 3.20 Q0300.0 QA 0.60 VS 4.20 3
 SPEC PAM SH Z MO 13.7 ST  7.7 OM  1.3 f0 9.32 R0.3017 AL 0.00 WI 16.5 MW  3.1 3
 SPEC PAM SH Z T11 045 K 0.000 GD  163 VP 7.60 DE 3.20 Q0300.0 QA 0.60 VS 4.20 3
 SPEC PAM SH Z MO 13.4 ST 10.4 OM  1.8 f0 7.02 R0.2214 AL 0.00 WI 16.4 MW  2.9 3
 SPEC PAM SH Z T11 1 0 K 0.000 GD  163 VS 4.20 DE 3.20 Q0300.0 QA 0.60 VS 4.20 3
 SPEC CBOCHH N MO 14.0 ST  7.1 OM  2.0 f0 4.08 R0.3809 AL 0.00 WI 36.5 MW  3.2 3
 SPEC CBOCHH N T11 144 K 0.000 GD  360 VS 4.20 DE 3.20 Q0300.0 QA 0.60 VS 4.20 3
 SPEC CHI HH N MO 14.2 ST  4.0 OM  2.3 f0 2.87 R0.5415 AL 0.00 WI 25.9 MW  3.4 3
 SPEC CHI HH N T11 128 K 0.000 GD  288 VS 4.20 DE 3.20 Q0300.0 QA 0.60 VS 4.20 3
 SPEC BRR HH Z MO 14.1 ST 23.2 OM  1.7 f0 10.0 R0.2812 AL 0.00 WI 16.0 MW  3.3 3
 SPEC BRR HH Z T11 043 K 0.000 GD  158 VP 7.60 DE 3.20 Q0300.0 QA 0.60 VS 4.20 3
 ACTION:UPD 14-01-14 09:01 OP:ep   STATUS:               ID:20130812110023 L   I
 OLDACT:UP  13-08-12 18:58 OP:jn   STATUS:               ID:20130812105959     3
 OLDACT:REG 13-08-12 16:03 OP:jn   STATUS:               ID:20130812105959     3
 2013-08-12-1059-59M.COL___271                                                 6
 STAT SP IPHASW D HRMM SECON CODA AMPLIT PERI AZIMU VELO AIN AR TRES W  DIS CAZ7
 BAR2 SZ IP     D 11 0 42.65                             169    0.1110 25.4 182 
 BAR2 SZ ES       11 0 57.82                             169    0.1110 25.4 182 
 BAR2 SZ I        11 1  0.50       146.5 0.28            169           25.4 182 
 GIR2 SZ EP       11 0 42.60                             168    0.1310 28.5 356 
 GIR2 SZ ES       11 0 57.34                             168   -0.2510 28.5 356 
 GIR2 SZ I        11 0 59.12        91.0 0.36            165           28.5 356 
 BRR  HZ IP     C 11 0 44.38                             153    0.5610 67.2 298 
 BRR  HN ES   1   11 1  1.13                             153    1.14 7 67.2 298 
 BRR  HZ I        11 1  1.94       249.8 0.12            148           67.2 298 
 PAM  SZ EP       11 0 45.50                             150    0.3710 77.7  42 
 PAM  SN ES       11 1  2.18                             150   -0.1410 77.7  42 
 PAM  SZ I        11 1  3.08        99.1 0.20            150           77.7  42 
 RUS  HZ EP       11 0 46.67                             143   -0.1810  103 174 
 RUS  HN ES       11 1  5.06                             143   -0.3310  103 174 
 RUS  HZ I        11 1  7.25        92.0 0.22            141            103 174 
 PTB  HZ EP       11 0 49.13                             132   -0.53 9  145 258 
 PTB  HN ES       11 1  9.67                             132   -0.72 9  145 258 
 PTB  HZ I        11 1 12.82       164.1 0.14            128            145 258 
 OCA  HZ EP       11 0 50.96                             130   -0.04 9  158 354 
 OCA  HN ES       11 1 12.33                             130   -0.44 9  158 354 
 OCA  HZ I        11 1 16.97       175.2 0.18            127            158 354 
 TAM  HZ IP     D 11 0 51.04                             129    0.07 9  159 106 
 TAM  HE ES   1   11 1 12.51                             129   -0.21 7  159 106 
 TAM  HZ I        11 1 13.42        84.9 0.60            129            159 106 
 SPBC HZ EP       11 0 51.50                             129    0.07 9  163 218 
 SPBC HE ES   1   11 1 13.98                             129    0.44 7  163 218 
 SPBC HZ I        11 1 20.93       151.6 0.36            125            163 218 
 ZAR  HZ EP       11 0 54.84                             122   -0.17 9  200 292 
 ZAR  HN ES   1   11 1 20.78                             122    0.87 6  200 292 
 ZAR  HZ I        11 1 26.88       134.0 0.48            119            200 292 
 NOR  HZ EP       11 0 58.64                             118    0.06 8  233 234 
 NOR  HN ES       11 1 26.66                             118    0.40 8  233 234 
 NOR  HZ I        11 1 32.75        91.6 0.20            115            233 234 
 SML  HZ EP       11 0 58.94                             117   -0.29 8  240 336 
 SML  HE ES       11 1 27.02                             117   -0.40 8  240 336 
 CHI  HZ EP       11 1  1.05                             116    0.21 8  250 194 
 CHI  HN ES   1   11 1 30.11                             116   -0.19 6  250 194 
 CHI  HZ I        11 1 36.94        31.5 0.36            114            250 194 
 ROSC BZ EP   4   11 1  2.75                             116    1.60 0  253 210 
 ROSC BN ES   4   11 1 31.39                             116    0.55 0  253 210 
 HEL  HZ EP       11 1  3.46                             115    0.53 8  270 255 
 HEL  HN ES   1   11 1 32.82                             115   -1.18 6  270 255 
 HEL  HZ I        11 1 41.33        60.1 0.52            112            270 255 
 GUY2CHZ EP       11 1  7.18                             112    0.71 7  300 234 
 GUY2CHZ I        11 1 51.00        79.6 0.72                           300 234 
 CBOC HZ EP       11 1 10.07                             110    0.41 7  331 252 
 CBOC HE ES   1   11 1 45.76                             110   -0.22 5  331 252 
 CBOC HZ I        11 1 58.62        24.1 0.38            107            331 252 
 DBB  SZ EP       11 1 10.18                             109    0.08 7  336 274 
 PRA  HZ EP       11 1 16.08                             106   -0.52 6  393 209 
 PRA  HN ES       11 1 57.62                             106   -0.72 6  393 209 
 PRA  HZ I        11 2  3.32        39.9 0.32            104            393 209 
 ORTC HZ EP       11 1 17.10                             106    0.15 6  395 216 
 SJC  HZ EP   4   11 1 16.29                             105   -1.86 0  405 327 
 SJC  HZ I        11 2  1.26        27.4 0.34            103            405 327 
                                                                                
