 2017 1112 1046 29.4 L   6.795 -73.141149.0  RSN 26 0.8 2.3LRSN                1
 GAP= 66        1.03       2.7     2.7  4.8 -0.5681E+00  0.1918E+01  0.1320E+01E
 Epicentro: LOS SANTOS - SANTANDER                                             3
 ACTION:UPD 17-12-12 19:54 OP:rebc STATUS:               ID:20171112104629 L   I
 OLDACT:UP  17-11-12 22:51 OP:mg   STATUS:               ID:20171112103744     3
 OLDACT:REG 17-11-12 20:59 OP:mg   STATUS:               ID:20171112103744     3
 2017-11-12-1038-00M.COL___447                                                 6
 STAT SP IPHASW D HRMM SECON CODA AMPLIT PERI AZIMU VELO AIN AR TRES W  DIS CAZ7
 BAR2 EZ EP     C 1046 49.36                             171   -0.0910 22.9 191 
 BAR2 EZ ES   2   1047  4.75                             171   -0.31 5 22.9 191 
 BAR2 EZ I        1047  5.78        91.2 0.22            168           22.9 191 
 BRR  HZ IP     C 1046 51.19                             153    0.2210 71.9 299 
 BRR  HN ES       1047  8.56                             153    0.7810 71.9 299 
 BRR  HZ I        1047 14.61        28.3 0.14            151           71.9 299 
 PAM  EZ EP       1046 52.21                             151    0.2110 77.5  39 
 PAM  EN ES       1047  9.51                             151   -0.1010 77.5  39 
 PAM  EZ I        1047 11.66        16.3 0.42            155           77.5  39 
 RUS  HZ EP       1046 53.51                             145    0.0510100.0 176 
 RUS  HN ES       1047 12.09                             145   -0.1210100.0 176 
 RUS  HZ I        1047 13.01        29.3 0.22            144          100.0 176 
 PTB  HZ EP       1046 55.88                             133   -0.82 9  148 259 
 PTB  HN ES       1047 17.42                             133   -0.55 9  148 259 
 PTB  HZ I        1047 19.24        26.2 0.38            132            148 259 
 TAM  HZ IP     D 1046 57.61                             131    0.30 9  154 105 
 TAM  HN ES       1047 19.14                             131    0.08 9  154 105 
 SPBC HZ EP   1   1046 58.20                             130    0.03 7  163 219 
 SPBC HN ES       1047 20.28                             130   -0.30 9  163 219 
 SPBC HZ I        1047 23.29        44.8 0.20            129            163 219 
 YPLC HZ EP       1046 59.57                             127    0.18 9  176 151 
 YPLC HN ES   2   1047 22.59                             127   -0.17 4  176 151 
 YPLC HZ I        1047 27.24        13.5 0.32            129            176 151 
 ZAR  HZ EP   1   1047  1.88                             123   -0.28 6  205 292 
 ZAR  HN ES       1047 27.45                             123   -0.24 9  205 292 
 ZAR  HZ I        1047 29.96        22.7 0.22            123            205 292 
 TABC EZ EP   9   1047  6.75                             120    1.40 0  230 211 
 TABC EZ ES       1047 34.52                             120   -0.25 8  230 211 
 TABC EZ I        1047 37.78        18.1 0.23            120            230 211 
 NOR  HZ EP       1047  5.20                             119   -0.16 8  235 235 
 NOR  HN ES       1047 33.81                             119    0.43 8  235 235 
 NOR  HZ I        1047 38.96        13.9 0.32            119            235 235 
 CHI  HZ EP   1   1047  7.31                             118    0.04 6  248 195 
 CHI  HE ES       1047 36.99                             118    0.21 8  248 195 
 CHI  HZ I        1047 44.99         9.1 0.48            118            248 195 
 ROSC BZ EP   3   1047  9.68                             117    1.98 2  253 211 
 ROSC BN ES   2   1047 38.55                             117    0.99 4  253 211 
 ROSC BZ I        1047 41.51        15.8 0.30            117            253 211 
 URE  HZ EP   2   1047  9.22                             114   -1.51 4  284 292 
 URE  HN ES   3   1047 39.43                             114   -3.52 2  284 292 
 URE  HZ I        1047 52.86        15.6 0.16            114            284 292 
 DRL03HZ EP       1047 11.70                             114    0.43 7  290 353 
 DRL03HE ES       1047 44.02                             114    0.12 7  290 353 
 GUY2CHZ EP   2   1047 14.23                             113    1.03 4  301 235 
 GUY2CHN ES   3   1047 50.59                             113    3.25 2  301 235 
 GUY2CHZ I        1047 53.88         7.9 0.44                           301 235 
 PTGC HZ EP       1047 12.21                             112   -1.14 7  308 159 
 PTGC HE ES   2   1047 45.67                             112   -1.95 4  308 159 
 ELA  HZ EP   2   1047 18.96                             111    2.54 3  329 230 
 ELA  HE ES       1047 53.04                             111   -0.03 7  329 230 
 ELA  HZ I        1048  0.75        10.0 0.28            111            329 230 
 CBOC HZ EP   2   1047 17.69                             110    1.18 3  334 252 
 CBOC HE ES       1047 52.99                             110   -0.25 7  334 252 
 CBOC HZ I        1047 59.64         3.1 0.28            111            334 252 
 DBB  EZ EP   1   1047 17.96                             110    0.86 5  340 274 
 DBB  EN ES   2   1047 52.88                             110   -1.40 3  340 274 
 DBB  EZ I        1047 57.39         6.4 0.16            110            340 274 
 ANIL HZ EP   2   1047 20.64                             109    1.29 3  357 225 
 ANIL HE ES   1   1047 58.43                             109    0.14 5  357 225 
 ANIL HZ I        1048  5.79        21.3 0.40            109            357 225 
 PRA  HZ EP       1047 23.12                             107    0.09 6  392 210 
 PRA  HE ES   2   1048  5.59                             107    0.74 3  392 210 
 PRA  HZ I        1048 11.17        10.1 0.48            107            392 210 
 ORTC HZ EP       1047 23.43                             107   -0.01 6  395 216 
 ORTC HN ES   3   1048  8.02                             107    2.45 1  395 216 
 ORTC HZ I        1048 12.47         6.1 0.46            107            395 216 
 PAL  HZ EP       1047 24.81                             106    0.10 6  406 239 
 PAL  HN ES   3   1048  6.13                             106   -1.70 1  406 239 
 PAL  HZ I        1048 13.15         3.9 0.26            107            406 239 
 SJC  HZ EP   2   1047 23.50                             106   -1.69 3  410 327 
 SJC  HN ES   4   1048  5.17                             106   -3.51 0  410 327 
 SJC  HZ I        1048 12.04         2.0 0.35            107            410 327 
 CRJC HZ EP   2   1047 31.11                             104   -0.98 2  468   3 
 CRJC HE ES   4   1048 18.07                             104   -2.89 0  468   3 
 CRJC HZ I        1048 22.03         4.1 0.12            105            468   3 
                                                                                
