 2012 1112 1046 35.1 L   6.507 -73.627  0.0  RSN  5 0.4 1.9LRSN                1
 GAP=169        1.05       2.7     3.6  6.3 -0.7036E+00 -0.2360E+01  0.1980E+01E
 Epicentro: SANTA HELENA DEL OPON - SANTANDER                                  3
 ACTION:UPD 12-12-05 15:32 OP:}ep  STATUS:               ID:20121112104635 L   I
 2012-11-12-1040-00M.COL___230                                                 6
 STAT SP IPHASW D HRMM SECON CODA AMPLIT PERI AZIMU VELO AIN AR TRES W  DIS CAZ7
 BAR2 SZ IP     C 1046 43.61                              47   -0.4410 50.1  79 
 BAR2 SZ ES       1046 50.76                              47   -0.3210 50.1  79 
 BAR2 SZ I        1046 51.25        73.7 0.14                          50.1  79 
 BRR  HZ IP       1046 45.78                              47   -0.5910 67.0 352 
 BRR  HN ES       1046 55.20                              47    0.0010 67.0 352 
 BRR  HN I        1047  0.71        34.9 0.14                          67.0 352 
 GIR2 SZ EP       1046 48.95                              47    0.5610 79.4  37 
 PAM  SZ EP       1046 58.25                              47    0.65 9  138  48 
 PAM  SN ES       1047 15.32                              47    0.13 9  138  48 
 PAM  SN I        1047 21.88        18.5 0.20                           138  48 
 CHI  HZ EP       1047  7.35                              37   -0.11 8  208 183 
 CHI  HN ES       1047 32.98                              37    0.23 8  208 183 
 CHI  HN I        1047 35.79        10.4 0.30                           208 183 
                                                                                
