 2016 1012 1815 44.3 L   6.801 -73.120153.2  RSN  5 0.2 1.4LRSN                1
 GAP=140        0.46       2.6     2.3  3.9 -0.1202E+00  0.2951E+01 -0.9833E+00E
 Epicentro: LOS SANTOS - SANTANDER                                             3
 ACTION:UPD 16-11-09 19:19 OP:rebc STATUS:               ID:20161012181544 L   I
 OLDACT:UP  16-10-12 23:56 OP:edw  STATUS:               ID:20161012180740     3
 OLDACT:UP  16-10-12 23:56 OP:edw  STATUS:               ID:20161012180740     3
 OLDACT:UP  16-10-12 23:55 OP:edw  STATUS:               ID:20161012180740     3
 OLDACT:REG 16-10-12 20:16 OP:edw  STATUS:               ID:20161012180740     3
 2016-10-12-1808-00M.COL___369                                                 6
 STAT SP IPHASW D HRMM SECON CODA AMPLIT PERI AZIMU VELO AIN AR TRES W  DIS CAZ7
 BAR2 EZ ES       1816 20.66                             171   -0.1610 24.1 197 
 BAR2 EZ I        1816 21.94         7.1 0.28            171           24.1 197 
 PAM  EZ EP       1816  6.92                             153   -0.2510 75.5  38 
 PAM  EN ES       1816 25.27                             153    0.2410 75.5  38 
 PAM  EZ I        1816 26.40         3.0 0.34            154           75.5  38 
 RUS  HZ EP       1816  8.73                             145   -0.0210  101 178 
 RUS  HN ES       1816 27.93                             145    0.0810  101 178 
 RUS  HZ I        1816 29.56         2.5 0.40            147            101 178 
 PTB  HZ EP       1816 12.21                             133    0.11 9  151 259 
 PTB  HN ES       1816 33.83                             133    0.02 9  151 259 
 PTB  HZ I        1816 35.53         4.0 0.12            134            151 259 
 ZAR  HZ EP   2   1816 17.92                             124    0.45 4  207 292 
 ZAR  HN ES       1816 43.28                             124   -0.09 8  207 292 
 ZAR  HZ I        1816 46.32         1.8 0.09            124            207 292 
                                                                                
