 2013  912 1751 42.3 L   6.768 -73.169146.5  RSN  7 0.2 2.1LRSN                1
 GAP=135        0.58       3.1     2.9  4.2 -0.7371E+00  0.1863E+01 -0.6093E+00E
 Epicentro: LOS SANTOS - SANTANDER                                             3
 ACTION:UPD 13-10-22 09:22 OP:ep   STATUS:               ID:20130912175142 L   I
 OLDACT:UP  13-09-12 16:50 OP:cam  STATUS:               ID:20130912174959     3
 OLDACT:REG 13-09-12 15:20 OP:cam  STATUS:               ID:20130912174959     3
 2013-09-12-1749-59M.COL___269                                                 6
 STAT SP IPHASW D HRMM SECON CODA AMPLIT PERI AZIMU VELO AIN AR TRES W  DIS CAZ7
 BAR2 SZ EP   1 C 1752  1.85                             172   -0.09 7 19.5 184 
 BAR2 SZ ES       1752 16.92                             172   -0.3510 19.5 184 
 BAR2 SZ I        1752 18.32        35.0 0.22            172           19.5 184 
 BRR  HZ EP       1752  3.54                             153    0.0410 70.8 302 
 BRR  HN ES       1752 20.41                             153    0.3710 70.8 302 
 BRR  HZ I        1752 25.70        25.1 0.12            137           70.8 302 
 PAM  SZ EP       1752  4.73                             150   -0.1210 81.7  39 
 PAM  SN ES   1   1752 22.32                             150   -0.13 7 81.7  39 
 PAM  SZ I        1752 24.72         9.4 0.20            138           81.7  39 
 RUS  HZ EP       1752  5.97                             145    0.0810 97.3 174 
 RUS  HE ES       1752 24.60                             145    0.3210 97.3 174 
 RUS  HZ I        1752 25.33        15.9 0.26            140           97.3 174 
 PTB  HZ EP   1   1752  8.97                             133   -0.07 7  145 260 
 PTB  HN ES       1752 29.72                             133   -0.17 9  145 260 
 PTB  HZ I        1752 31.96        17.2 0.22            120            145 260 
 ZAR  HZ EP   1   1752 14.93                             123    0.24 6  203 293 
 ZAR  HZ I        1752 46.00        24.1 0.52            110            203 293 
 NOR  HZ EP   4   1752 20.34                             119    2.71 0  231 235 
 NOR  HE ES   1   1752 44.82                             119   -0.36 6  231 235 
 NOR  HZ I        1752 51.41        14.2 0.16            109            231 235 
 GUY2CHZ EP   4   1752 27.55                             113    2.07 0  297 235 
                                                                                
