 2010 1212 1210 38.1 L   6.760 -72.907140.8  RSN  6 0.2 1.4LRSN                1
 GAP=186        0.45       3.2    12.4  6.1 -0.2173E+02 -0.4831E+02  0.6820E+01E
 Epicentro: CEPITA - SANTANDER                                                 3
 ACTION:UP  11-01-14 15:24 OP:pat  STATUS:               ID:20101212121038 L   I
 2010-12-12-1207-29S.COL___137                                                 6
 STAT SP IPHASW D HRMM SECON CODA AMPLIT PERI AZIMU VELO SNR AR TRES W  DIS CAZ7
 BAR2 SZ IP       1210 57.37                             165    -0.110   36 239 
 BAR2 SZ I        1210 57.86        10.3 0.32                            36 239 
 BAR2 SZ ES   2   1211 12.54                             165     0.0 5   36 239 
 BTL  SZ IP       1210 57.61                             162    -0.110   44 294 
 BTL  SZ ES   1   1211 13.28                             162     0.2 7   44 294 
 GIR2 SZ EP       1210 57.58                             161    -0.110   47 318 
 RUS  HZ EP       1211  1.20                             144     0.010   98 192 
 RUS  HN ES   2   1211 19.17                             144     0.0 5   98 192 
 RUS  HZ I        1211 21.08         1.7 0.56                            98 192 
 GUE  SZ EP   3   1211  2.76                             138     0.3 2  118 359 
 GRA  SZ EP       1211  3.06                             136     0.310  125   5 
 GRA  SZ I        1211  4.81         4.1 0.46                           125   5 
 GRA  SZ ES   1   1211 21.88                             136    -0.2 7  125   5 
                                                                                
