 2016  712 1225  0.6 L   6.670 -73.153146.2  RSN  5 0.3 1.6LRSN                1
 GAP=227        0.75       5.8     5.5  5.9  0.1608E+02  0.7946E+01 -0.5538E+01E
 Epicentro: VILLANUEVA - SANTANDER                                             3
 ACTION:UPD 17-03-29 16:50 OP:lp   STATUS:               ID:20160712122500 L   I
 OLDACT:UP  16-07-12 23:27 OP:dani STATUS:               ID:20160712121759     3
 OLDACT:REG 16-07-12 21:29 OP:dani STATUS:               ID:20160712121759     3
 2016-07-12-1217-59S.COL___325                                                 6
 STAT SP IPHASW D HRMM SECON CODA AMPLIT PERI AZIMU VELO AIN AR TRES W  DIS CAZ7
 BAR2 EZ EP       1225 20.28                             176    0.2310 9.18 201 
 BAR2 EZ ES       1225 34.92                             176   -0.3310 9.18 201 
 BAR2 EZ I        1225 39.38         4.5 0.70            176           9.18 201 
 BRR  HZ EP       1225 22.30                             150    0.1110 78.5 308 
 BRR  HN ES       1225 39.00                             150   -0.0610 78.5 308 
 BRR  HZ I        1225 42.27         9.5 0.28            149           78.5 308 
 RUS  HE ES       1225 41.47                             148    0.2910 86.3 175 
 PTB  HZ EP       1225 27.02                             133   -0.29 9  145 264 
 PTB  HN ES       1225 48.02                             133   -0.15 9  145 264 
 PTB  HZ I        1225 50.61         4.1 0.16            135            145 264 
 ZAR  HZ EP       1225 33.23                             122   -0.34 8  209 296 
 ZAR  HN ES       1225 59.88                             122    0.56 8  209 296 
 ZAR  HZ I        1226  5.46         5.2 0.26            124            209 296 
                                                                                
