 2012  212 1209 44.8 L   6.791 -73.184139.6  RSN  7 0.4 1.7LRSN                1
 GAP=132        0.80       5.2     5.2  7.6 -0.3890E+01  0.5133E+01  0.3129E+01E
 ACTION:UP  12-03-07 16:29 OP:epov STATUS:               ID:20120212120944 L   I
 2012-02-12-1207-38S.COL___161                                                 6
 STAT SP IPHASW D HRMM SECON CODA AMPLIT PERI AZIMU VELO AIN AR TRES W  DIS CAZ7
 BAR2 SZ EP   1   1210  3.79                             171    0.12 7 21.9 180 
 BAR2 SZ ES   1   1210 18.12                             171   -0.26 7 21.9 180 
 BAR2 SZ I        1210 19.69        13.1 0.14                          21.9 180 
 GIR2 SZ EP   1   1210  3.90                             166    0.13 7 31.9 358 
 BRR  HZ EP   1   1210  5.10                             153   -0.02 7 68.1 301 
 BRR  HN ES   1   1210 21.81                             153    0.86 7 68.1 301 
 BRR  HZ I        1210 25.74        17.3 0.36                          68.1 301 
 PAM  SZ EP   1   1210  6.59                             148    0.00 7 80.9  41 
 PAM  SN ES   1   1210 23.26                             148   -0.32 7 80.9  41 
 PAM  SZ I        1210 25.69         7.6 0.44                          80.9  41 
 RUS  HZ EP   1   1210  7.83                             143   -0.08 7 99.9 174 
 RUS  HE ES   1   1210 26.16                             143    0.23 7 99.9 174 
 RUS  HZ I        1210 27.40         8.5 0.23                          99.9 174 
 PTB  HZ EP   1   1210 10.85                             132   -0.03 7  143 259 
 PTB  HN ES   1   1210 30.35                             132   -0.87 7  143 259 
 PRA  HN ES   2   1211 20.05                             106    0.96 3  389 209 
                                                                                
