 2017  112 1532 18.7 L   6.778 -73.159140.6  RSN 20 0.3 3.2LRSN 3.7WRSN        1
 SPEC AVERAGE  MO 14.6 ST0.220 OM  2.8 f00.900 R2.2750 AL 0.00 WI 30.0 MW  3.7 3
 SPEC SD       MO  0.3 ST  1.0 OM  0.4 f00.628 R0.7903 AL      WI      MW  0.2 3
 GAP= 71        0.70       2.2     1.9  3.4 -0.2896E+00  0.2093E+01  0.2015E+01E
 Epicentro: LOS SANTOS - SANTANDER                                             3
 SPEC BAR2EH Z MO 14.9 ST0.743 OM  3.0 f0 1.18 R1.6305 AL-0.00 WI 30.0 MW  3.9 3
 SPEC BAR2EH Z T153250 K 0.000 GD  142 VS 5.20 DE 3.50 Q0750.0 QA 1.50 VS 5.20 3
 SPEC PAM EH Z MO 14.4 ST0.223 OM  2.5 f0 1.11 R1.7333 AL-0.00 WI 30.0 MW  3.6 3
 SPEC PAM EH Z T153255 K 0.000 GD  161 VS 5.20 DE 3.50 Q0750.0 QA 1.50 VS 5.20 3
 SPEC TAM HH Z MO 14.9 ST0.101 OM  2.9 f00.575 R3.3461 AL-0.00 WI 30.0 MW  3.9 3
 SPEC TAM HH Z T1533 5 K 0.000 GD  210 VS 5.20 DE 3.50 Q0750.0 QA 1.50 VS 5.20 3
 SPEC CHI HH Z MO 14.5 ST0.135 OM  2.3 f00.908 R2.1189 AL-0.00 WI 30.0 MW  3.6 3
 SPEC CHI HH Z T153323 K 0.000 GD  283 VS 5.20 DE 3.50 Q0750.0 QA 1.50 VS 5.20 3
 SPEC ROSCBH Z MO 14.9 ST0.177 OM  2.7 f00.728 R2.6429 AL-0.00 WI 30.0 MW  3.9 3
 SPEC ROSCBH Z T153323 K 0.000 GD  286 VS 5.20 DE 3.50 Q0750.0 QA 1.50 VS 5.20 3
 SPECGUY2CHH Z MO 14.9 ST  0.1 OM  2.7 f00.655 R  2.94 AL-0.00 WI 30.0 MW  3.9 3
 SPECGUY2CHH Z T153333 K       GD330.4 VS 5.20 DE 3.50 Q0750.0 QA 1.50 VS 5.20 3
 SPEC PTGCHH Z MO 14.3 ST0.180 OM  2.1 f0 1.10 R1.7491 AL-0.00 WI 30.0 MW  3.5 3
 SPEC PTGCHH Z T153331 K 0.000 GD  337 VS 5.20 DE 3.50 Q0750.0 QA 1.50 VS 5.20 3
 SPEC ELA HH Z MO 14.8 ST0.122 OM  2.5 f00.699 R2.7525 AL-0.00 WI 30.0 MW  3.8 3
 SPEC ELA HH Z T153336 K 0.000 GD  355 VS 5.20 DE 3.50 Q0750.0 QA 1.50 VS 5.20 3
 SPEC CBOCHH Z MO 14.6 ST0.078 OM  2.3 f00.699 R2.7525 AL-0.00 WI 30.0 MW  3.7 3
 SPEC CBOCHH Z T153340 K 0.000 GD  359 VS 5.20 DE 3.50 Q0750.0 QA 1.50 VS 5.20 3
 SPEC ORTCHH Z MO 14.4 ST0.223 OM  2.1 f0 1.10 R1.7491 AL-0.00 WI 30.0 MW  3.6 3
 SPEC ORTCHH Z T153351 K 0.000 GD  417 VS 5.20 DE 3.50 Q0750.0 QA 1.50 VS 5.20 3
 OLDACT:DUP 17-01-12 23:32 OP:cara STATUS:               ID:20170112152746d    3
 ACTION:UPD 17-05-22 15:58 OP:jn   STATUS:               ID:20170112153218 L   I
 OLDACT:UP  17-03-28 16:31 OP:nlst STATUS:               ID:20170112153218 L   3
 OLDACT:UP  17-01-12 23:44 OP:cara STATUS:               ID:20170112152746d    3
 2017-01-12-1528-00M.COL___337                                                 6
 STAT SP IPHASW D HRMM SECON CODA AMPLIT PERI AZIMU VELO AIN AR TRES W  DIS CAZ7
 BAR2 EZ IP     D 1532 37.75                             171    0.1110 20.7 187 
 BAR2 EZ ES       1532 52.37                             171   -0.0510 20.7 187 
 BAR2 EZ I        1532 53.94       396.9 0.30            168           20.7 187 
 BRR  HZ EP     C 1532 39.59                             152    0.3210 71.1 301 
 BRR  HN ES       1532 55.97                             152    0.6410 71.1 301 
 BRR  HZ I        1533  0.77       227.2 0.26            149           71.1 301 
 PAM  EZ EP     C 1532 40.57                             149    0.0510 80.2  39 
 PAM  EN ES       1532 57.31                             149   -0.2510 80.2  39 
 RUS  HZ EP       1532 41.67                             143   -0.0910 98.3 175 
 RUS  HN ES       1532 59.97                             143    0.2110 98.3 175 
 PTB  HZ EP       1532 44.84                             131   -0.22 9  146 260 
 PTB  HN ES       1533  5.07                             131   -0.56 9  146 260 
 PTB  HZ I        1533 11.45       149.4 0.44            130            146 260 
 TAM  HZ IP     C 1532 46.07                             129    0.04 9  156 104 
 TAM  HN ES       1533  7.15                             129   -0.21 9  156 104 
 ZAR  HZ EP       1532 50.52                             121   -0.23 9  204 293 
 ZAR  HN ES       1533 15.46                             121   -0.30 9  204 293 
 ZAR  HZ I        1533 21.02       201.8 0.34            122            204 293 
 NOR  HZ EP       1532 53.65                             118   -0.19 8  232 235 
 NOR  HN ES       1533 21.35                             118    0.09 8  232 235 
 NOR  HZ I        1533 26.07        93.9 0.46            118            232 235 
 CHI  HZ EP       1532 56.00                             116    0.20 8  246 195 
 CHI  HN ES       1533 24.83                             116    0.08 8  246 195 
 CHI  HZ I        1533 28.72        69.4 0.56            117            246 195 
 ROSC BZ EP   4   1532 57.35                             116    1.14 0  250 211 
 ROSC BN ES       1533 25.03                             116   -0.46 8  250 211 
 ROSC BZ I        1533 32.11       197.0 0.50            117            250 211 
 URE  HZ EP   4   1532 58.52                             113   -0.94 0  283 292 
 URE  HN ES   4   1533 28.21                             113   -3.05 0  283 292 
 URE  HZ I        1533 40.74        66.7 0.20            113            283 292 
 GUY2CHZ EP       1533  2.05                             111    0.29 7  299 235 
 GUY2CHN ES       1533 34.99                             111   -0.37 7  299 235 
 GUY2CHZ  IAML    1533 49.66        80.8 0.60                           299 235 
 PTGC HZ EP   4   1533  0.42                             111   -1.70 0  307 158 
 ELA  HZ EP   4   1533  7.00                             109    1.99 0  326 230 
 ELA  HN ES   4   1533 37.79                             109   -3.36 0  326 230 
 ELA  HZ I        1533 57.05        72.8 0.48            110            326 230 
 LL6C HZ EP   9   1532 43.72                             109   -20.7 0  327 358 
 LL6C HE ES       1533 19.01                                   -0.40 7  327 358 
 CBOC HZ EP       1533  5.55                             109    0.41 7  331 252 
 CBOC HN ES       1533 41.88                             109    0.50 7  331 252 
 DBB  EZ EP       1533  5.65                             109   -0.16 7  338 275 
 DBB  EZ ES   4   1533 37.59                             109   -4.97 0  338 275 
 DBB  EZ I        1533 43.19        42.0 0.39            109            338 275 
 ORTC HZ EP       1533 12.19                             106    0.09 6  393 216 
 ORTC HN ES       1533 53.47                             106   -0.29 6  393 216 
 ORTC HZ I        1534  1.41        33.6 0.40            106            393 216 
 PAL  HZ EP       1533 13.50                             105    0.12 6  403 239 
 PAL  HE ES       1533 56.59                             105    0.54 6  403 239 
 SJC  HZ EP   4   1533 11.59                             105   -2.63 0  410 327 
 SJC  HN ES   4   1533 52.31                             105   -5.24 0  410 327 
 CRJC HZ EP   4   1533 18.21                             102   -3.13 0  470   4 
 CRJC HN ES   4   1534  3.39                             102   -6.82 0  470   4 
 CRJC HZ I        1534 11.78        41.5 0.36            104            470   4 
 SMAR HZ EP   4   1533 22.62                             101   -2.04 0  499 346 
 SMAR HN ES   4   1534 10.39                             101   -5.74 0  499 346 
 SMAR HZ I        1534 13.48        22.7 0.30            103            499 346 
                                                                                
