 2016 1212 1950 49.3 L   6.777 -73.140143.5  RSN  9 0.4 2.2LRSN                1
 GAP=138        0.94       3.5     3.7  5.4 -0.5227E+00  0.6537E+01  0.4289E+01E
 Epicentro: LOS SANTOS - SANTANDER                                             3
 ACTION:UPD 17-01-11 20:14 OP:rebc STATUS:               ID:20161212195049 L   I
 OLDACT:UP  16-12-13 01:42 OP:cara STATUS:               ID:20161212194645d    3
 OLDACT:DUP 16-12-13 01:37 OP:cara STATUS:               ID:20161212194645d    3
 OLDACT:REG 16-12-12 21:10 OP:ar   STATUS:               ID:20161212194644     3
 2016-12-12-1947-00M.COL___372                                                 6
 STAT SP IPHASW D HRMM SECON CODA AMPLIT PERI AZIMU VELO AIN AR TRES W  DIS CAZ7
 BAR2 EZ EP     D 1951  8.56                             171   -0.0110 20.9 193 
 BAR2 EZ ES       1951 23.47                             171   -0.1610 20.9 193 
 BAR2 EZ I        1951 24.80        63.0 0.20            171           20.9 193 
 BRR  HZ IP       1951 10.66                             151    0.4010 73.0 300 
 BRR  HN ES       1951 27.08                             151    0.4310 73.0 300 
 BRR  HZ I        1951 30.89        28.4 0.40            150           73.0 300 
 PAM  EZ IP       1951 11.54                             150    0.2110 79.0  38 
 PAM  EN ES       1951 28.46                             150   -0.0910 79.0  38 
 PAM  EZ I        1951 30.75        29.5 0.54            153           79.0  38 
 RUS  HZ EP       1951 12.50                             144   -0.1010 98.0 176 
 RUS  HE ES       1951 30.76                             144   -0.0410 98.0 176 
 RUS  HZ I        1951 32.09        22.2 0.28            147           98.0 176 
 PTB  HZ EP       1951 15.39                             131   -0.66 9  148 260 
 PTB  HE ES       1951 36.45                             131   -0.50 9  148 260 
 PTB  HZ I        1951 40.45        20.0 0.32            132            148 260 
 ZAR  HZ EP       1951 21.45                             122   -0.26 8  206 293 
 ZAR  HN ES       1951 47.14                             122    0.11 8  206 293 
 ZAR  HZ I        1951 53.58        18.3 0.40            123            206 293 
 NOR  HZ EP       1951 24.19                             118   -0.56 8  234 235 
 NOR  HE ES       1951 52.15                             118   -0.28 8  234 235 
 NOR  HZ I        1951 54.09        12.8 0.18            119            234 235 
 CHI  HZ EP       1951 26.55                             117   -0.03 8  246 195 
 CHI  HE ES       1951 56.00                             117    0.31 8  246 195 
 CHI  HZ I        1951 59.30         6.5 0.50            119            246 195 
 GUY2CHZ EP       1951 33.56                             112    0.91 7  300 235 
 GUY2CHN ES       1952  7.27                             112    0.77 7  300 235 
 GUY2CHZ I        1952 14.95         8.6 0.28                           300 235 
                                                                                
