 2017 1012 1700 59.1 L   6.759 -73.137142.5  RSN  5 0.1 1.5LRSN                1
 GAP=243        0.41       3.0     2.5  3.5  0.2452E+01  0.1043E+01 -0.1115E+01E
 Epicentro: LOS SANTOS - SANTANDER                                             3
 ACTION:UPD 17-11-07 19:31 OP:rebc STATUS:               ID:20171012170059 L   I
 OLDACT:REG 17-10-12 20:19 OP:lv   STATUS:               ID:20171012165746     3
 2017-10-12-1658-00M.COL___435                                                 6
 STAT SP IPHASW D HRMM SECON CODA AMPLIT PERI AZIMU VELO AIN AR TRES W  DIS CAZ7
 BAR2 EZ EP       17 1 18.04                             172   -0.1810 19.1 195 
 BAR2 EZ ES       17 1 33.09                             172   -0.0810 19.1 195 
 BAR2 EZ I        17 1 34.24        19.7 0.24            171           19.1 195 
 RUS  HZ EP       17 1 22.29                             144    0.1210 96.0 176 
 RUS  HN ES       17 1 40.28                             144    0.1010 96.0 176 
 RUS  HZ I        17 1 41.61         3.5 0.30            145           96.0 176 
 PTB  HZ EP   9   17 1 24.84                             131   -0.94 0  148 261 
 PTB  HN ES       17 1 45.51                                   -0.17 9  148 261 
 PTB  HZ I        17 1 47.97         3.0 0.32            132            148 261 
 ZAR  HN ES       17 1 57.05                             121    0.12 8  207 293 
 NOR  HN ES       17 2  1.90                             118   -0.08 8  233 236 
                                                                                
