 2012 1012 1830 13.0 L   6.778 -73.138138.7  RSN 10 0.4 2.6LRSN                1
 GAP=115        0.67       3.3     3.5  5.1  0.2727E+01  0.6770E+01  0.8399E+01E
 Epicentro: LOS SANTOS - SANTANDER                                             3
 ACTION:UPD 12-11-22 17:03 OP:ep   STATUS:               ID:20121012183013 L   I
 2012-10-12-1830-00M.COL___231                                                 6
 STAT SP IPHASW D HRMM SECON CODA AMPLIT PERI AZIMU VELO AIN AR TRES W  DIS CAZ7
 BAR2 SZ EP   1   1830 31.58                             171   -0.12 7 21.1 194 
 BAR2 SZ I        1830 32.01       113.5 0.10                          21.1 194 
 BAR2 SZ ES   1   1830 46.10                             171   -0.21 7 21.1 194 
 GIR2 SZ EP   1   1830 31.70                             166   -0.18 7 33.9 349 
 GIR2 SZ ES   1   1830 46.46                             166   -0.16 7 33.9 349 
 BRR  HZ EP   1   1830 33.46                             151   -0.01 7 73.2 300 
 BRR  HZ I        1830 33.82       115.3 0.26                          73.2 300 
 BRR  HE ES   1   1830 50.08                             151    0.61 7 73.2 300 
 PAM  SZ EP   1   1830 34.48                             149   -0.04 7 78.7  38 
 PAM  SN ES   1   1830 51.19                             149   -0.14 7 78.7  38 
 PAM  SN I        1830 52.44       211.9 0.48                          78.7  38 
 YOP  SZ EP   1   1830 42.26                             125    0.01 7  176 153 
 YOP  SN ES   1   1831  5.51                             125    0.42 7  176 153 
 ZAR  HZ EP   1   1830 44.87                             121   -0.28 6  206 293 
 ZAR  HZ I        1830 48.62        11.9 0.14                           206 293 
 ZAR  HN ES   1   1831 10.47                             121    0.22 6  206 293 
 CHI  HZ EP   1   1830 49.60                             116   -0.45 6  247 196 
 CHI  HN ES   1   1831 19.29                             116    0.32 6  247 196 
 CHI  HN I        1831 23.68        23.5 0.26                           247 196 
 HEL  HZ EP   1   1830 53.62                             113    0.76 6  272 256 
 HEL  HE ES   1   1831 23.12                             113   -0.86 6  272 256 
 GUY  SZ EP   1   1830 57.02                             111    0.57 5  303 236 
 PRA  HZ EP   1   1831  5.97                             105   -0.08 4  390 210 
 PRA  HN ES   1   1831 46.98                             105   -0.48 4  390 210 
 PRA  HZ I        1831 55.07         9.9 0.48                           390 210 
                                                                                
