 2010  712 1248 55.6 L   6.796 -72.998142.0  RSN  7 0.5 2.3LRSN                1
 GAP=173        1.03       5.0     7.7  9.0 -0.6086E+01 -0.4242E+01 -0.2825E+01E
 Epicentro: CEPITA - SANTANDER                                                 3
 ACTION:UPD 10-12-01 15:17 OP:pat  STATUS:               ID:20100712124855 L   I
 2010-07-12-1244-53S.COL___120                                                 6
 STAT SP IPHASW D HRMM SECON CODA AMPLIT PERI AZIMU VELO AIN AR TRES W  DIS CAZ7
 BAR2 SZ EP   1   1249 14.84                             167    -0.1 7   31 222 
 BAR2 SZ ES   3   1249 29.48                             167    -0.5 2   31 222 
 BRR  HZ EP       1249 16.74                             147    -0.510   86 294 
 BRR  HN ES       1249 34.19                             147     0.010   86 294 
 BRR  HZ I        1249 35.98        33.3 0.38                            86 294 
 RUS  HZ EP       1249 18.60                             143    -0.310  100 185 
 RUS  HN ES       1249 37.42                             143     0.210  100 185 
 RUS  HZ I        1249 46.16        62.3 0.66                           100 185 
 BRI  SZ EP   3   1249 19.86                             142     1.1 2  104  12 
 GUE  SZ EP   1   1249 20.13                             139     0.3 7  115   4 
 GRA  SZ EP       1249 20.53                             137     0.310  122  10 
 GRA  SZ I        1249 41.40        16.3 0.35                           122  10 
 RREF HZ EP       1249 42.38                             109    -0.6 7  334 231 
 RREF HN ES       1250 20.78                             109     0.8 7  334 231 
 RREF HZ I        1250 25.77        11.4 0.49                           334 231 
                                                                                
