 2017  212 1219 58.1 L   6.203 -73.779 23.7  RSN  5 0.1 1.2LRSN                1
 GAP=182        0.35       1.5     0.9  2.3  0.5163E+00 -0.3105E+00 -0.1957E+01E
 Epicentro: LANDAZURI - SANTANDER                                              3
 ACTION:UPD 17-05-24 15:35 OP:jn   STATUS:               ID:20170212121958 L   I
 OLDACT:REG 17-02-12 20:59 OP:edw  STATUS:               ID:20170212121741     3
 2017-02-12-1218-00M.COL___346                                                 6
 STAT SP IPHASW D HRMM SECON CODA AMPLIT PERI AZIMU VELO AIN AR TRES W  DIS CAZ7
 BAR2 EZ IP     D 1220 11.23                             105   -0.0510 78.7  57 
 BAR2 EZ ES       1220 21.50                             105   -0.0510 78.7  57 
 BAR2 EZ I        1220 23.10         7.6 0.18             94           78.7  57 
 PTB  HZ IP     C 1220 11.85                             104    0.0910 83.7 296 
 PTB  HN ES       1220 22.35                             104   -0.0610 83.7 296 
 PTB  HZ I        1220 23.09         9.4 0.14             94           83.7 296 
 RUS  HZ EP     C 1220 12.43                             104    0.0710 84.3 114 
 RUS  HN ES       1220 23.53                             104    0.0410 84.3 114 
 RUS  HZ I        1220 24.45         6.2 0.14             94           84.3 114 
 BRR  HZ EP       1220 14.07                              71   -0.1010  100   4 
 BRR  HN ES       1220 26.88                              71    0.1810  100   4 
 BRR  HZ I        1220 27.40         8.1 0.30             61            100   4 
 PAM  EZ EP       1220 23.77                              56   -0.15 9  173  43 
                                                                                
