 2015  712 1046 28.2 L   6.824 -73.118145.7  RSN  8 0.4 1.9LRSN                1
 GAP=186        0.73       2.6     4.8  6.2  0.1013E+01  0.8864E+01 -0.1625E+01E
 Epicentro: LOS SANTOS - SANTANDER                                             3
 ACTION:UPD 15-09-08 21:48 OP:cam  STATUS:               ID:20150712104628 L   I
 OLDACT:DUP 15-07-12 23:11 OP:spq  STATUS:               ID:20150712103749d    3
 OLDACT:REG 15-07-12 20:50 OP:spq  STATUS:               ID:20150712103748     3
 2015-07-12-1037-48M.COL___316                                                 6
 STAT SP IPHASW D HRMM SECON CODA AMPLIT PERI AZIMU VELO AIN AR TRES W  DIS CAZ7
 BAR2 EZ EP   1   1046 48.07                             169    0.22 8 26.6 196 
 BAR2 EZ ES   1   1047  3.27                             169    0.07 8 26.6 196 
 BAR2 EZ I        1047  5.72        13.2 0.46            165           26.6 196 
 RUS  HZ EP   1   1046 51.75                             143   -0.33 8  103 178 
 RUS  HN ES   1   1047 10.49                             143   -0.25 8  103 178 
 RUS  HZ I        1047 13.39         5.1 0.44            144            103 178 
 OCA  HZ EP       1046 56.13                             130   -0.1210  158 352 
 OCA  HN ES   1   1047 18.59                             130    0.43 7  158 352 
 OCA  HZ I        1047 21.27        11.1 0.24            133            158 352 
 ZAR  HZ EP       1047  1.44                             122    0.65 9  206 291 
 ZAR  HN ES       1047 26.11                             122   -0.14 9  206 291 
 ZAR  HZ I        1047 32.02        10.4 0.36            122            206 291 
 SML  HZ EP       1047  4.02                             118   -0.64 9  243 334 
 SML  HE ES   1   1047 33.28                             118    0.15 7  243 334 
 SML  HZ I        1047 36.14         9.8 0.10            119            243 334 
 CHI  HN ES   1   1047 36.16                             117    0.25 6  252 196 
 CHI  HZ I        1047 45.22         3.5 0.30            118            252 196 
 HEL  HZ EP   4   1047 10.28                             114    1.51 0  276 255 
 HEL  HE ES   1   1047 39.91                             114   -0.54 6  276 255 
 HEL  HZ I        1047 47.67         3.8 0.48            115            276 255 
 PRA  HZ EP       1047 22.09                             106   -0.03 6  396 210 
 PRA  HN ES       1048  4.62                             106    0.40 6  396 210 
 PRA  HZ I        1048  7.93         3.8 0.60            107            396 210 
                                                                                
