 2012 1212 1843 38.9 L   6.804 -73.166143.7  RSN 16 0.6 3.0LRSN 3.2WRSN        1
 SPEC AVERAGE  MO 13.9 ST 11.8 OM  2.3 f0 4.29 R0.3870 AL 3.09 WI 15.4 MW  3.2 3
 SPEC SD       MO  0.1 ST 10.2 OM  0.3 f0 1.27 R0.1570 AL      WI      MW  0.1 3
 GAP= 70        1.33       3.3     4.2  5.8 -0.1639E+01  0.5975E+01  0.3582E+01E
 Epicentro: LOS SANTOS - SANTANDER                                             3
 SPEC PTB HH N MO 13.8 ST  9.6 OM  2.1 f0 4.76 R0.3088 AL 2.87 WI 18.5 MW  3.1 3
 SPEC PTB HH N T184424 K 0.000 GD  204 VS 4.20 DE 3.20 Q0300.0 QA 0.60 VS 4.20 3
 SPEC RUS HH N MO 13.7 ST  5.0 OM  2.1 f0 4.03 R0.3648 AL 3.29 WI  8.0 MW  3.1 3
 SPEC RUS HH N T184420 K 0.000 GD  175 VS 4.20 DE 3.20 Q0300.0 QA 0.60 VS 4.20 3
 SPEC PRA HH N MO 13.8 ST  3.3 OM  1.8 f0 3.33 R0.4414 AL 1.74 WI 14.7 MW  3.2 3
 SPEC PRA HH N T184513 K 0.000 GD  416 VS 4.20 DE 3.20 Q0300.0 QA 0.60 VS 4.20 3
 SPEC HEL HH N MO 13.7 ST  6.5 OM  1.8 f0 4.60 R0.3196 AL 2.77 WI 22.7 MW  3.1 3
 SPEC HEL HH N T184448 K 0.000 GD  305 VS 4.20 DE 3.20 Q0300.0 QA 0.60 VS 4.20 3
 SPEC NOR HH N MO 14.0 ST 33.0 OM  2.2 f0 6.05 R0.2430 AL 4.35 WI 19.8 MW  3.3 3
 SPEC NOR HH N T184440 K 0.000 GD  273 VS 4.20 DE 3.20 Q0300.0 QA 0.60 VS 4.20 3
 SPEC OCA HH N MO 14.0 ST 16.5 OM  2.3 f0 4.82 R0.3050 AL 2.59 WI 14.2 MW  3.3 3
 SPEC OCA HH N T184428 K 0.000 GD  215 VS 4.20 DE 3.20 Q0300.0 QA 0.60 VS 4.20 3
 SPEC PAM SH N MO 13.6 ST0.880 OM  2.0 f0 2.50 R0.5880 AL 3.11 WI 14.2 MW  3.0 3
 SPEC PAM SH N T184417 K 0.000 GD  163 VS 4.20 DE 3.20 Q0300.0 QA 0.60 VS 4.20 3
 SPEC CHI HH N MO 14.0 ST0.906 OM  2.1 f0 1.94 R0.7577 AL 2.10 WI 15.7 MW  3.2 3
 SPEC CHI HH N T184445 K 0.000 GD  286 VS 4.20 DE 3.20 Q0300.0 QA 0.60 VS 4.20 3
 SPEC BRR HH N MO 14.0 ST 22.0 OM  2.4 f0 5.43 R0.2707 AL 3.82 WI 14.2 MW  3.3 3
 SPEC BRR HH N T184416 K 0.000 GD  159 VS 4.20 DE 3.20 Q0300.0 QA 0.60 VS 4.20 3
 SPEC BAR2SH Z MO 14.0 ST 20.1 OM  2.4 f0 5.43 R0.2707 AL 4.30 WI 12.0 MW  3.3 3
 SPEC BAR2SH Z T184410 K 0.000 GD  145 VS 4.20 DE 3.20 Q0300.0 QA 0.60 VS 4.20 3
 ACTION:UPD 13-01-04 14:27 OP:ep   STATUS:               ID:20121212184338 L   I
 2012-12-12-1840-00M.COL___242                                                 6
 STAT SP IPHASW D HRMM SECON CODA AMPLIT PERI AZIMU VELO AIN AR TRES W  DIS CAZ7
 BAR2 SZ EP     D 1843 58.40                             170    0.0710 23.4 184 
 BAR2 SZ ES       1844 13.36                             170   -0.1010 23.4 184 
 BAR2 SZ I        1844 14.88       353.7 0.18                          23.4 184 
 GIR2 SZ EP     C 1843 58.43                             167    0.0710 30.6 354 
 GIR2 SZ ES       1844 13.56                             167    0.0610 30.6 354 
 GIR2 SZ I        1844 15.83        66.8 0.26                          30.6 354 
 BRR  HZ EP       1844  0.20                             153    0.4510 69.0 299 
 BRR  HN ES       1844 17.20                             153    1.2210 69.0 299 
 BRR  HN I        1844 18.03       573.6 0.26                          69.0 299 
 PAM  SZ EP       1844  1.15                             150    0.1410 78.5  41 
 PAM  SN ES       1844 18.28                             150    0.0510 78.5  41 
 PAM  SN I        1844 19.83        86.0 0.48                          78.5  41 
 RUS  HZ EP       1844  2.30                             143   -0.2410  101 175 
 RUS  HN ES       1844 20.65                             143   -0.2910  101 175 
 RUS  HN I        1844 22.66       271.6 0.36                           101 175 
 PTB  HZ EP       1844  4.72                             132   -0.83 9  146 259 
 PTB  HN ES       1844 25.78                             132   -0.53 9  146 259 
 PTB  HN I        1844 31.62       161.5 0.34                           146 259 
 TAM  HZ IP     C 1844  6.65                             130   -0.03 9  157 105 
 OCA  HZ EP       1844  6.75                             129   -0.29 9  160 354 
 OCA  HE ES       1844 28.32                             129   -0.63 9  160 354 
 OCA  HE I        1844 35.54       129.8 0.20                           160 354 
 ZAR  HZ EP       1844 10.99                             122   -0.04 9  202 292 
 ZAR  HN ES       1844 36.43                             122    0.38 9  202 292 
 ZAR  HN I        1844 41.63       117.0 0.30                           202 292 
 NOR  HZ EP       1844 14.13                             118   -0.26 8  233 234 
 NOR  HN ES       1844 41.33                             118   -0.70 8  233 234 
 NOR  HN I        1844 51.12       124.2 0.16                           233 234 
 SML  HZ EP       1844 15.40                             117    0.08 8  242 336 
 SML  HN ES       1844 43.08                             117   -0.60 8  242 336 
 SML  HN I        1844 48.73       142.5 0.10                           242 336 
 CHI  HZ EP       1844 16.43                             117   -0.08 8  248 195 
 CHI  HN ES       1844 45.54                             117   -0.27 8  248 195 
 CHI  HN I        1844 52.19        71.0 0.38                           248 195 
 ROSC BZ EP       1844 18.00                             116    1.13 8  252 211 
 HEL  HZ EP       1844 20.36                             115    1.54 8  270 256 
 HEL  HN ES       1844 49.03                             115   -0.90 8  270 256 
 HEL  HN I        1844 56.49        27.8 0.38                           270 256 
 RREF HZ EP       1844 25.43                             111    0.59 7  320 229 
 RREF HN ES       1845  1.16                             111    0.53 7  320 229 
 PRA  HZ EP       1844 31.62                             106   -0.69 6  391 209 
 PRA  HN ES       1845 14.26                             106    0.33 6  391 209 
 PRA  HN I        1845 20.01        21.2 0.44                           391 209 
 SJC  HN ES   4   1845 13.25                             105   -4.15 0  408 327 
                                                                                
