 2014  312 1925 35.2 L   6.821 -74.041 76.8  RSN 10 0.5 1.7LRSN                1
 GAP= 99        1.13       3.1     2.9  7.8 -0.9313E+00 -0.2863E+01  0.4353E+01E
 Epicentro: PUERTO PARRA - SANTANDER                                           3
 ACTION:UPD 14-04-09 23:16 OP:nd   STATUS:               ID:20140312192535 L   I
 OLDACT:REG 14-03-12 18:06 OP:nd   STATUS:               ID:20140312191818     3
 2014-03-12-1918-18M.COL___241                                                 6
 STAT SP IPHASW D HRMM SECON CODA AMPLIT PERI AZIMU VELO AIN AR TRES W  DIS CAZ7
 BRR  HZ EP       1925 48.50                             145    0.8910 48.1  49 
 BRR  HN ES   2   1925 58.22                             145    0.91 5 48.1  49 
 BRR  HZ I        1926  0.89        33.6 0.44            147           48.1  49 
 PTB  HZ EP       1925 47.45                             141   -0.7310 55.5 236 
 PTB  HN ES       1925 58.06                             141   -0.2810 55.5 236 
 PTB  HZ I        1925 58.87        19.9 0.42            143           55.5 236 
 ZAR  HZ EP       1925 53.75                             118   -0.3710  117 309 
 ZAR  HN ES       1926  8.82                             118   -0.0910  117 309 
 ZAR  HZ I        1926 10.69        23.6 0.22            122            117 309 
 SPBC HZ EP       1925 55.43                             115   -0.1810  129 182 
 SPBC HN ES       1926 11.85                             115    0.2910  129 182 
 SPBC HZ I        1926 15.71        15.1 0.12            116            129 182 
 RUS  HZ EP       1925 57.76                             112   -0.42 9  148 134 
 RUS  HN ES       1926 15.98                             112   -0.15 9  148 134 
 RUS  HZ I        1926 19.66         2.8 0.10            113            148 134 
 PAM  SZ EP       1925 58.96                             110   -0.52 9  159  69 
 PAM  SN ES       1926 18.56                             110    0.12 9  159  69 
 PAM  SZ I        1926 23.21         7.7 0.40            112            159  69 
 NOR  HZ EP       1925 59.69                             109   -0.14 9  167 213 
 NOR  HN ES       1926 18.79                             109   -0.29 9  167 213 
 NOR  HZ I        1926 23.01        18.5 0.80            111            167 213 
 HEL  HZ EP       1926  2.62                             108    0.97 9  179 247 
 HEL  HN ES   1   1926 22.54                             108    0.23 7  179 247 
 HEL  HZ I        1926 25.52         7.3 0.36            110            179 247 
 GUY2CHZ EP       1926  8.34                             103    0.51 8  230 220 
 GUY2CHN ES   2   1926 33.85                             103    0.54 4  230 220 
 GUY2CHZ I        1926 38.62         3.8 0.32                           230 220 
 CHI  HZ EP       1926  9.65                             102    0.06 8  245 172 
 CHI  HN ES   2   1926 37.04                             102    0.59 4  245 172 
 CHI  HZ I        1926 47.38         2.7 0.60            103            245 172 
                                                                                
