 2013  912 1837 28.5 L   6.781 -73.175156.8  RSN  5 0.4 1.4LRSN                1
 GAP=198        0.82       4.7     6.8  7.5  0.1293E+02 -0.1902E+01 -0.1201E+02E
 Epicentro: LOS SANTOS - SANTANDER                                             3
 ACTION:UPD 13-10-22 09:22 OP:ep   STATUS:               ID:20130912183728 L   I
 OLDACT:UP  13-09-12 16:55 OP:cam  STATUS:               ID:20130912182959     3
 OLDACT:REG 13-09-12 15:22 OP:cam  STATUS:               ID:20130912182959     3
 2013-09-12-1829-59M.COL___269                                                 6
 STAT SP IPHASW D HRMM SECON CODA AMPLIT PERI AZIMU VELO AIN AR TRES W  DIS CAZ7
 BAR2 SZ ES   1   1838  5.73                             172   -0.02 7 20.9 182 
 BRR  HZ EP   1   1837 51.22                             155    0.44 7 69.4 301 
 BRR  HN ES       1838  8.62                             155    0.4810 69.4 301 
 RUS  HZ EP   1   1837 53.59                             147    0.34 7 98.8 174 
 RUS  HN ES       1838 12.15                             147   -0.3910 98.8 174 
 RUS  HZ I        1838 12.99         2.6 0.36            146           98.8 174 
 PTB  HZ EP   1   1837 56.02                             135   -0.08 7  144 259 
 PTB  HN ES       1838 17.44                             135   -0.17 9  144 259 
 PTB  HZ I        1838 20.42         3.6 0.10            133            144 259 
 SML  HZ EP   1   1838  6.00                             120    0.15 6  244 336 
 SML  HN ES       1838 34.36                             120   -0.61 8  244 336 
                                                                                
