 2017 1112 1304  5.8 L   6.772 -73.209146.0  RSN  4 0.3 1.2LRSN                1
 GAP=228        0.66       6.0     5.6  6.9  0.1019E+02  0.3430E+01 -0.2840E-01E
 Epicentro: ZAPATOCA - SANTANDER                                               3
 ACTION:UPD 17-12-12 19:54 OP:rebc STATUS:               ID:20171112130405 L   I
 OLDACT:UP  17-11-12 23:45 OP:mg   STATUS:               ID:20171112125744     3
 OLDACT:REG 17-11-12 21:19 OP:mg   STATUS:               ID:20171112125744     3
 2017-11-12-1258-00M.COL___453                                                 6
 STAT SP IPHASW D HRMM SECON CODA AMPLIT PERI AZIMU VELO AIN AR TRES W  DIS CAZ7
 BAR2 EZ EP   1   13 4 25.10                             172   -0.31 7 20.1 172 
 BAR2 EZ ES   2   13 4 39.89                             172   -0.81 5 20.1 172 
 BAR2 EZ I        13 4 41.31         3.6 0.15            171           20.1 172 
 BRR  HZ EP       13 4 26.85                             154    0.1010 66.8 304 
 BRR  HN ES       13 4 43.31                             154    0.2310 66.8 304 
 BRR  HZ I        13 4 45.39         6.3 0.32            153           66.8 304 
 RUS  HN ES   1   13 4 48.23                             145    0.40 7 98.2 172 
 RUS  HZ I        13 4 48.64         3.2 0.22            146           98.2 172 
 PTB  HZ EP       13 4 32.02                             134   -0.12 9  140 260 
 PTB  HN ES       13 4 52.59                             134   -0.08 9  140 260 
 PTB  HZ I        13 4 55.98         0.9 0.10            134            140 260 
                                                                                
