 2014 1212 1917 56.6 L   6.798 -73.186137.0  RSN  4 0.1 2.0LRSN                1
 GAP=143        0.31       1.8     1.8  2.6 -0.9980E+00  0.1325E+01 -0.4719E+00E
 Epicentro: ZAPATOCA - SANTANDER                                               3
 ACTION:UPD 15-02-10 17:03 OP:nd   STATUS:               ID:20141212191756 L   I
 OLDACT:DUP 14-12-13 00:12 OP:stll STATUS:               ID:20141212190750d    3
 OLDACT:REG 14-12-12 20:51 OP:stll STATUS:               ID:20141212190748     3
 2014-12-12-1907-48M.COL___294                                                 6
 STAT SP IPHASW D HRMM SECON CODA AMPLIT PERI AZIMU VELO AIN AR TRES W  DIS CAZ7
 BAR2 EZ EP       1918 15.28                             170    0.0610 22.8 179 
 BAR2 EZ ES       1918 29.67                             170   -0.0310 22.8 179 
 BAR2 EZ I        1918 31.35        20.6 0.26            171           22.8 179 
 PAM  SZ EP       1918 18.23                             148    0.1010 80.4  42 
 PAM  SN ES       1918 34.83                             148   -0.0610 80.4  42 
 PAM  SZ I        1918 37.18        36.2 0.50            151           80.4  42 
 RUS  HZ EP       1918 19.50                             142   -0.0710  101 174 
 RUS  HN ES       1918 37.48                             142    0.0410  101 174 
 RUS  HZ I        1918 39.73        12.2 0.42            144            101 174 
 PTB  HZ EP       1918 22.41                             131   -0.10 9  143 259 
 PTB  HN ES       1918 42.74                             131    0.05 9  143 259 
 PTB  HZ I        1918 45.76        13.9 0.48            133            143 259 
                                                                                
