 2012  212 1641  6.7 L   6.573 -73.501106.1  RSN  7 0.4 1.3LRSN                1
 GAP=148        0.76       5.2     4.1  7.5 -0.4402E+01  0.1275E+02  0.7961E+01E
 ACTION:UP  12-03-07 16:29 OP:epov STATUS:               ID:20120212164106 L   I
 2012-02-12-1640-00M.COL___188                                                 6
 STAT SP IPHASW D HRMM SECON CODA AMPLIT PERI AZIMU VELO AIN AR TRES W  DIS CAZ7
 BAR2 SZ EP   1   1641 22.11                             160    0.12 7 35.3  87 
 BAR2 SZ ES   1   1641 34.12                             160    0.19 7 35.3  87 
 BAR2 SZ I        1641 36.03        26.1 0.33                          35.3  87 
 BRR  HZ EP   1   1641 23.21                             147    0.02 7 63.5 338 
 BRR  HN ES   1   1641 36.26                             147    0.20 7 63.5 338 
 BRR  HZ I        1641 37.83        20.4 0.12                          63.5 338 
 GIR2 SZ EP   1   1641 23.71                             146    0.19 7 65.4  31 
 PTB  HZ EP   1   1641 25.67                             131   -0.95 7  106 268 
 PTB  HZ I        1641 41.61         0.1 0.17                           106 268 
 PAM  SZ EP   1   1641 29.07                             127    0.23 7  123  46 
 PAM  SN ES   1   1641 45.56                             127   -0.55 7  123  46 
 PAM  SZ I        1641 47.56         3.2 0.22                           123  46 
 ZAR  HZ EP   1   1641 34.78                             115    0.43 7  181 304 
 ZAR  HN ES   1   1641 55.93                             115    0.00 7  181 304 
 ZAR  HZ I        1641 58.70         8.1 0.11                           181 304 
 GUY  SZ EP   1   1641 44.01                             107    0.42 6  257 235 
 GUY  SN ES   1   1642 12.27                             107   -0.11 6  257 235 
                                                                                
