 2013  112 1852 59.8 L   6.785 -73.147141.0  RSN  6 0.2 2.1LRSN                1
 GAP=236        0.59       3.7     3.5  4.2  0.3176E+01  0.2891E+01  0.5004E+01E
 Epicentro: LOS SANTOS - SANTANDER                                             3
 ACTION:UPD 13-02-15 09:13 OP:ep   STATUS:               ID:20130112185259 L   I
 2013-01-12-1848-41M.COL___187                                                 6
 STAT SP IPHASW D HRMM SECON CODA AMPLIT PERI AZIMU VELO AIN AR TRES W  DIS CAZ7
 BAR2 SZ EP       1853 18.71                             171   -0.1210 21.6 190 
 BAR2 SZ ES       1853 33.50                             171   -0.1710 21.6 190 
 BAR2 SZ I        1853 35.39        25.9 0.14            174           21.6 190 
 BRR  HZ EP       1853 20.54                             151    0.0610 71.9 300 
 BRR  HN ES       1853 36.92                             151    0.3110 71.9 300 
 BRR  HN I        1853 41.27        29.4 0.16            151           71.9 300 
 RUS  HZ EP       1853 23.04                             143    0.0710 98.9 176 
 RUS  HN ES       1853 41.11                             143    0.0810 98.9 176 
 PTB  HN ES       1853 46.58                             131   -0.46 9  147 259 
 NOR  HZ EP       1853 35.05                             118   -0.09 8  234 235 
 NOR  HE ES       1854  3.07                             118    0.37 8  234 235 
 CHI  HZ EP       1853 37.05                             116   -0.01 8  247 195 
                                                                                
