 2017  112 1212 38.4 L   6.844 -73.227134.0  RSN  4 0.3 1.2LRSN                1
 GAP=151        0.79       4.6     4.4  6.7 -0.6342E+01  0.8754E+01 -0.3091E+01E
 Epicentro: ZAPATOCA - SANTANDER                                               3
 ACTION:UPD 17-05-22 15:58 OP:jn   STATUS:               ID:20170112121238 L   I
 OLDACT:REG 17-01-12 20:12 OP:cara STATUS:               ID:20170112120744     3
 2017-01-12-1208-00M.COL___340                                                 6
 STAT SP IPHASW D HRMM SECON CODA AMPLIT PERI AZIMU VELO AIN AR TRES W  DIS CAZ7
 BAR2 EZ EP       1212 56.93                             167    0.1710 28.2 170 
 BAR2 EZ ES       1213 11.43                             167    0.3710 28.2 170 
 BAR2 EZ I        1213 14.53         6.0 0.30            171           28.2 170 
 PAM  EZ IP       1212 59.72                             148    0.1610 80.0  47 
 PAM  EE ES       1213 15.75                             148   -0.3110 80.0  47 
 PAM  EZ I        1213 19.94         2.2 0.46            153           80.0  47 
 RUS  HZ EP       1213  1.09                             140   -0.3910  106 171 
 RUS  HN ES       1213 19.44                             140   -0.0310  106 171 
 RUS  HZ I        1213 21.41         2.1 0.36            146            106 171 
 PTB  HZ EP       1213  4.10                             131    0.37 9  140 256 
 PTB  HN ES       1213 23.13                             131   -0.35 9  140 256 
 PTB  HZ I        1213 29.56         1.9 0.26            134            140 256 
                                                                                
