 2015  512 1541 37.9 L   6.808 -73.129144.6  RSN  8 0.3 2.1LRSN                1
 GAP=202        0.80       2.6     4.6  4.8  0.2982E+01  0.4671E+01  0.6409E+00E
 Epicentro: LOS SANTOS - SANTANDER                                             3
 ACTION:UPD 15-09-10 22:03 OP:cam  STATUS:               ID:20150512154137 L   I
 OLDACT:UP  15-05-13 00:38 OP:drio STATUS:               ID:20150512153749     3
 OLDACT:REG 15-05-12 21:25 OP:drio STATUS:               ID:20150512153749     3
 2015-05-12-1537-49M.COL___282                                                 6
 STAT SP IPHASW D HRMM SECON CODA AMPLIT PERI AZIMU VELO AIN AR TRES W  DIS CAZ7
 BAR2 EZ EP       1541 57.59                             170    0.1710 24.5 194 
 BAR2 EZ ES       1542 12.32                             170   -0.3210 24.5 194 
 BAR2 EZ I        1542 13.62        30.5 0.20            166           24.5 194 
 BRR  HZ EP       1541 59.63                             152    0.6310 72.4 297 
 BRR  HN ES       1542 15.72                             152    0.2710 72.4 297 
 RUS  HZ EP       1542  1.78                             143    0.1810  101 177 
 RUS  HN ES       1542 20.11                             143    0.0310  101 177 
 RUS  HZ I        1542 21.02        12.9 0.30            143            101 177 
 SPBC HZ EP       1542  6.55                             128    0.06 9  165 219 
 SPBC HN ES       1542 28.48                             128   -0.30 9  165 219 
 SPBC HZ I        1542 36.88        20.9 0.42            127            165 219 
 ZAR  HN ES       1542 35.70                             122   -0.08 8  205 292 
 ZAR  HZ I        1542 41.90        11.2 0.24            121            205 292 
 NOR  HN ES   4   1542 40.42                             118   -1.34 0  237 235 
 SML  HZ EP       1542 14.12                             117   -0.35 8  244 335 
 SML  HN ES       1542 42.43                             117   -0.55 8  244 335 
 SML  HZ I        1542 44.88        14.0 0.10            118            244 335 
 CHI  HZ EP       1542 15.69                             117    0.01 8  250 196 
 CHI  HZ I        1542 17.33         6.7 0.66            117            250 196 
 CHI  HN ES       1542 44.58                             117   -0.57 8  250 196 
 GUY2CHZ EP       1542 21.79                             112    0.10 7  303 235 
 GUY2CHN ES       1542 56.16                             112    0.33 7  303 235 
 GUY2CHZ I        1543  1.83         5.8 0.32                           303 235 
                                                                                
