 2015  112 1429 52.0 L   6.830 -73.148147.3  RSN 18 0.4 2.7LRSN                1
 GAP= 70        0.96       2.7     2.9  4.9  0.5269E-01  0.3883E+01  0.1350E+01E
 Epicentro: LOS SANTOS - SANTANDER                                             3
 ACTION:UPD 15-03-02 15:39 OP:nd   STATUS:               ID:20150112142952 L   I
 OLDACT:UP  15-01-13 00:08 OP:mh   STATUS:               ID:20150112142748     3
 OLDACT:REG 15-01-12 20:21 OP:mh   STATUS:               ID:20150112142748     3
 2015-01-12-1427-48M.COL___259                                                 6
 STAT SP IPHASW D HRMM SECON CODA AMPLIT PERI AZIMU VELO AIN AR TRES W  DIS CAZ7
 BAR2 EZ IP     D 1430 12.04                             169    0.1110 26.6 188 
 BAR2 EZ ES   1   1430 27.25                             169   -0.19 7 26.6 188 
 BAR2 EZ I        1430 29.41        73.5 0.50            166           26.6 188 
 BRR  HZ EP   1   1430 13.79                             153    0.53 7 69.4 296 
 BRR  HN ES       1430 30.44                             153    0.6310 69.4 296 
 BRR  HZ I        1430 35.13        36.6 0.24            151           69.4 296 
 PAM  SZ EP   1   1430 14.77                             152    0.48 7 75.0  41 
 PAM  SN ES       1430 31.99                             152    0.3510 75.0  41 
 PAM  SZ I        1430 33.95        73.8 0.48            159           75.0  41 
 RUS  HZ EP       1430 15.90                             143   -0.2910  104 176 
 RUS  HN ES       1430 34.47                             143   -0.5610  104 176 
 PTB  HZ EP       1430 18.55                             132   -0.63 9  148 258 
 PTB  HN ES   1   1430 39.79                             132   -0.55 7  148 258 
 PTB  HZ I        1430 47.05        72.4 0.48            132            148 258 
 TAM  HZ EP       1430 19.97                             131    0.01 9  156 106 
 TAM  HN ES   1   1430 41.85                             131    0.13 7  156 106 
 OCA  HZ EP       1430 19.78                             131   -0.39 9  157 353 
 OCA  HN ES       1430 41.72                             131   -0.38 9  157 353 
 OCA  HZ I        1430 50.12        44.5 0.58            134            157 353 
 SPBC HZ EP       1430 20.83                             129   -0.06 9  166 218 
 SPBC HN ES   1   1430 43.61                             129    0.22 7  166 218 
 SPBC HZ I        1430 49.73        85.8 0.36            129            166 218 
 ZAR  HZ EP   1   1430 24.74                             123    0.30 6  203 291 
 ZAR  HN ES       1430 49.87                             123    0.17 9  203 291 
 ZAR  HZ I        1430 56.37        49.4 0.22            124            203 291 
 NOR  HZ EP       1430 27.94                             119   -0.11 8  236 234 
 NOR  HN ES   1   1430 55.92                             119   -0.21 6  236 234 
 NOR  HZ I        1430 59.67        36.2 0.26            119            236 234 
 SML  HZ EP       1430 28.27                             118   -0.15 8  241 335 
 SML  HN ES       1430 56.40                             118   -0.39 8  241 335 
 SML  HZ I        1430 59.52        32.5 0.36            120            241 335 
 ROSC BZ EP   1   1430 31.54                             117    0.99 6  255 211 
 ROSC BN ES   4   1431  3.29                             117    2.71 0  255 211 
 ROSC BZ I        1431  9.96        50.6 0.35            118            255 211 
 HEL  HZ EP       1430 33.17                             115    0.77 8  273 255 
 HEL  HN ES       1431  3.80                             115   -0.07 8  273 255 
 HEL  HZ I        1431 10.47        22.0 0.38            116            273 255 
 URE  HZ EP   4   1430 35.77                             114    2.75 0  282 291 
 URE  HN ES   4   1431  4.20                             114   -0.79 0  282 291 
 URE  HZ I        1431 15.73        20.3 0.20            115            282 291 
 VIL  SZ EP   1   1430 35.36                             112   -0.54 5  307 191 
 VIL  SN ES   4   1431 10.02                             112   -0.08 0  307 191 
 VIL  SZ I        1431 20.24        24.2 0.62            114            307 191 
 RREF HZ EP   4   1430 40.02                             111    1.54 0  324 229 
 RREF HN ES   4   1431 17.10                             111    2.41 0  324 229 
 RREF HZ I        1431 24.44        24.8 0.38            112            324 229 
 DBB  SZ EP   1   1430 39.02                             110   -0.50 5  339 274 
 DBB  SZ ES       1431 16.51                             110   -0.05 7  339 274 
 DBB  SZ I        1431 18.79        67.1 0.47            111            339 274 
 TOL  SZ EP       1430 41.67                             109    1.06 6  346 224 
 TOL  SN ES   4   1431 19.31                             109    0.81 0  346 224 
 TOL  SZ I        1431 25.62        59.2 0.40            111            346 224 
 ANIL HZ EP   4   1430 44.25                             109    2.09 0  360 224 
 ANIL HN ES   4   1431 22.98                             109    1.73 0  360 224 
                                                                                
