 2016 1112 1116 13.5 L   6.804 -73.161144.0  RSN 16 0.5 2.4LRSN                1
 GAP=102        1.02       4.3     2.9  5.6 -0.1933E+01  0.3324E+01  0.1010E+02E
 Epicentro: LOS SANTOS - SANTANDER                                             3
 OLDACT:UP  16-11-12 22:17 OP:dnl  STATUS:               ID:20161112110746     3
 OLDACT:UP  16-11-12 22:15 OP:dnl  STATUS:               ID:20161112110746     3
 OLDACT:UP  16-11-12 22:14 OP:dnl  STATUS:               ID:20161112110746     3
 OLDACT:REG 16-11-12 20:46 OP:dnl  STATUS:               ID:20161112110746     3
 ACTION:UPD 17-10-26 21:07 OP:lp   STATUS:               ID:20161112111613 L   I
 OLDACT:UP  16-11-12 23:17 OP:dnl  STATUS:               ID:20161112110748d    3
 OLDACT:UP  16-11-12 23:16 OP:dnl  STATUS:               ID:20161112110748d    3
 OLDACT:UP  16-11-12 23:15 OP:dnl  STATUS:               ID:20161112110748d    3
 OLDACT:DUP 16-11-12 23:00 OP:dnl  STATUS:               ID:20161112110748d    3
 OLDACT:UP  16-11-12 22:18 OP:dnl  STATUS:               ID:20161112110746     3
 2016-11-12-1108-00M.COL___331                                                 6
 STAT SP IPHASW D HRMM SECON CODA AMPLIT PERI AZIMU VELO AIN AR TRES W  DIS CAZ7
 BAR2 EZ EP       1116 32.82                             170   -0.0710 23.5 186 
 BAR2 EZ ES       1116 48.18                             170    0.1410 23.5 186 
 BAR2 EZ I        1116 49.12        78.7 0.20            168           23.5 186 
 BRR  HZ EP       1116 34.60                             153    0.2710 69.5 299 
 BRR  HN ES       1116 51.37                             153    0.7710 69.5 299 
 BRR  HZ I        1116 54.06        29.0 0.16            152           69.5 299 
 PAM  EZ IP     C 1116 35.48                             150   -0.0610 78.2  41 
 PAM  EN ES       1116 52.53                             150   -0.2310 78.2  41 
 PAM  EZ I        1116 54.70        49.2 0.48            149           78.2  41 
 PTB  HZ EP       1116 39.38                             132   -0.77 9  146 259 
 PTB  HN ES       1117  0.39                             132   -0.57 9  146 259 
 PTB  HZ I        1117  3.89        29.5 0.40            130            146 259 
 TAM  HZ IP     C 1116 41.07                             130   -0.10 9  157 105 
 TAM  HZ I        1117  1.66        19.8 0.40            127            157 105 
 TAM  HE ES       1117  2.62                             130   -0.15 9  157 105 
 ZAR  HZ EP       1116 45.76                             122    0.14 9  202 292 
 ZAR  HE ES       1117 10.75                             122    0.05 9  202 292 
 ZAR  HZ I        1117 17.47        18.4 0.19            121            202 292 
 NOR  HZ EP       1116 48.81                             118   -0.16 8  234 234 
 NOR  HE ES       1117 16.22                             118   -0.44 8  234 234 
 NOR  HZ I        1117 21.86        26.1 0.28            116            234 234 
 CHI  HZ EP       1116 51.06                             117   -0.00 8  249 195 
 CHI  HN ES   4   1117 18.72                             117   -1.67 0  249 195 
 CHI  HZ I        1117 24.48        12.2 0.34            114            249 195 
 ROSC BZ EP   4   1116 52.92                             116    1.49 0  252 211 
 ROSC BE ES       1117 20.90                             116   -0.15 8  252 211 
 ROSC BZ I        1117 28.87        22.5 0.45            114            252 211 
 PTGC HZ EP   4   1116 55.93                             111   -1.43 0  310 158 
 PTGC HE ES   4   1117 28.80                             111   -2.79 0  310 158 
 PTGC HZ I        1117 29.09        13.4 0.32            109            310 158 
 LL6C HZ EP   4   1116 38.06                             110   -21.0 0  324 358 
 LL6C HN ES   4   1117 14.69                             110   -19.9 0  324 358 
 ELA  HZ EP       1117  0.27                             110    0.14 7  328 229 
 ELA  HN ES       1117 37.14                             110    0.62 7  328 229 
 ELA  HZ I        1117 44.38        11.6 0.30            108            328 229 
 CBOC HZ EP       1117  0.69                             110    0.55 7  332 252 
 CBOC HN ES       1117 35.48                             110   -1.06 7  332 252 
 CBOC HZ I        1117 46.64         5.2 0.58            108            332 252 
 ANIL HZ EP       1117  3.82                             108    0.72 6  356 224 
 ANIL HN ES   4   1117 43.76                             108    1.95 0  356 224 
 ANIL HZ I        1117 47.48        20.5 0.34            106            356 224 
 ORTC HZ EP       1117  7.78                             106    0.53 6  395 216 
 ORTC HN ES       1117 50.09                             106    0.89 6  395 216 
 ORTC HZ I        1117 57.26         7.0 0.26            104            395 216 
 SJC  HZ EP   4   1117  6.82                             105   -2.00 0  408 327 
 SJC  HN ES   4   1117 48.15                             105   -3.85 0  408 327 
 SJC  HZ I        1117 51.58         6.7 0.36            104            408 327 
 CRJC HZ EP   4   1117 11.66                             103   -4.22 0  467   4 
 CRJC HN ES   4   1117 55.76                             103   -8.80 0  467   4 
 CRJC HZ I        1118  4.97         5.3 0.48            102            467   4 
                                                                                
