 2012 1112 1051 29.8 L   6.419 -73.705 14.6  RSN  7 0.5 1.3LRSN                1
 GAP=133        1.20       3.1     2.3  4.8  0.7575E+00  0.3447E+01 -0.1318E+01E
 Epicentro: SANTA HELENA DEL OPON - SANTANDER                                  3
 ACTION:UPD 12-12-05 15:32 OP:}ep  STATUS:               ID:20121112105129 L   I
 2012-11-12-1050-00M.COL___230                                                 6
 STAT SP IPHASW D HRMM SECON CODA AMPLIT PERI AZIMU VELO AIN AR TRES W  DIS CAZ7
 BAR2 SZ EP       1051 40.36                             101    0.3710 60.9  72 
 BAR2 SZ ES       1051 47.29                             101   -0.6710 60.9  72 
 BAR2 SZ I        1051 47.86        14.6 0.16                          60.9  72 
 BRR  HZ EP       1051 42.31                              98    0.3110 76.1 359 
 BRR  HN ES       1051 51.90                              98    0.3510 76.1 359 
 BRR  HN I        1051 58.43         6.6 0.14                          76.1 359 
 PTB  HZ EP       1051 43.09                              98   -0.1310 84.1 279 
 PTB  HN ES       1051 53.14                              98   -0.5810 84.1 279 
 RUS  HZ EP       1051 45.10                              97    0.4710 90.2 130 
 RUS  HN ES       1051 55.89                              97   -0.3410 90.2 130 
 PAM  SN ES       1052 11.91                              56   -0.18 9  151  47 
 ZAR  HZ EP       1051 56.48                              56    0.60 9  174 313 
 ZAR  HN ES       1052 15.54                              56   -0.72 9  174 313 
 ZAR  HN I        1052 18.74         4.5 0.16                           174 313 
 HEL  HZ EP       1052  0.67                              56    0.70 9  203 263 
 HEL  HN ES       1052 23.52                              56   -0.02 9  203 263 
 HEL  HN I        1052 25.33         3.7 0.18                           203 263 
                                                                                
