 2012  812 1257 31.8 L   6.755 -73.071144.1  RSN  6 0.2 1.5LRSN                1
 GAP=148        0.46       3.0     3.5  4.2  0.1835E+01  0.1413E+01  0.4035E+00E
 Epicentro: LOS SANTOS - SANTANDER                                             3
 ACTION:UPD 12-09-10 11:56 OP:ep   STATUS:               ID:20120812125731 L   I
 2012-08-12-1250-00M.COL___219                                                 6
 STAT SP IPHASW D HRMM SECON CODA AMPLIT PERI AZIMU VELO AIN AR TRES W  DIS CAZ7
 BAR2 SZ EP   1   1257 51.14                             171   -0.01 7 21.8 214 
 BAR2 SZ ES   1   1258  6.51                             171    0.23 7 21.8 214 
 BAR2 SZ I        1258  7.41         5.9 0.20                          21.8 214 
 GIR2 SZ EP       1257 51.21                             164   -0.2310 38.3 339 
 GIR2 SZ ES   1   1258  6.54                             164   -0.25 7 38.3 339 
 PAM  SZ EP   1   1257 53.99                             151    0.25 7 76.6  32 
 PAM  SZ I        1257 54.45         6.8 0.26                          76.6  32 
 PAM  SN ES   1   1258 11.07                             151    0.17 7 76.6  32 
 BRR  HZ EP   1   1257 53.02                             149   -0.27 7 80.8 299 
 BRR  HZ I        1257 53.48        10.7 0.11                          80.8 299 
 BRR  HN ES   1   1258 10.10                             149    0.00 7 80.8 299 
 RUS  HZ EP   1   1257 55.10                             145    0.13 7 95.4 181 
 RUS  HN ES   1   1258 13.02                             145   -0.06 7 95.4 181 
 RUS  HZ I        1258 15.04         4.3 0.29                          95.4 181 
 ZAR  HE ES   1   1258 31.37                             121    0.30 6  214 293 
                                                                                
