 2014  612 1252 19.6 L   6.809 -73.163146.0  RSN 16 0.5 2.6LRSN                1
 GAP=134        1.12       2.9     3.9  5.8 -0.1928E+01  0.6333E+01  0.1169E+01E
 Epicentro: LOS SANTOS - SANTANDER                                             3
 OLDACT:DUP 14-06-12 23:33 OP:fm   STATUS:               ID:20140612124821d    3
 ACTION:UPD 14-07-01 22:53 OP:nd   STATUS:               ID:20140612125219 L   I
 OLDACT:UP  14-06-12 23:56 OP:fm   STATUS:               ID:20140612124821d    3
 OLDACT:UP  14-06-12 23:56 OP:fm   STATUS:               ID:20140612124821d    3
 2014-06-12-1248-19M.COL___253                                                 6
 STAT SP IPHASW D HRMM SECON CODA AMPLIT PERI AZIMU VELO AIN AR TRES W  DIS CAZ7
 BAR2 SZ IP     C 1252 39.16                             170   -0.1610 24.0 185 
 BAR2 SZ ES   1   1252 54.19                             170   -0.47 7 24.0 185 
 BAR2 SZ I        1252 55.92       114.6 0.46            169           24.0 185 
 BRR  HZ IP       1252 41.00                             153    0.3010 69.0 299 
 BRR  HN ES       1252 58.32                             153    1.2010 69.0 299 
 BRR  SZ I        1253  3.35        43.9 0.14            151           69.0 299 
 PAM  SZ EP       1252 41.95                             151    0.0310 77.9  41 
 PAM  SN ES       1252 59.19                             151   -0.1010 77.9  41 
 PAM  SZ I        1253  1.17        73.5 0.50            155           77.9  41 
 RUS  HZ EP       1252 44.04                             144    0.5410  102 175 
 RUS  HN ES       1253  2.24                             144    0.1410  102 175 
 RUS  SZ I        1253  3.89        45.4 0.66            146            102 175 
 PTB  HZ EP       1252 46.01                             133   -0.46 9  146 258 
 PTB  HE ES       1253  6.97                             133   -0.43 9  146 258 
 PTB  SZ I        1253  8.57        44.7 0.30            132            146 258 
 OCA  HZ EP       1252 47.81                             130   -0.05 9  159 354 
 OCA  HE ES       1253  9.12                             130   -0.75 9  159 354 
 OCA  SZ I        1253 13.80        45.9 0.46            132            159 354 
 SPBC HZ EP       1252 48.03                             129   -0.08 9  163 218 
 SPBC HN ES       1253 10.08                             129   -0.24 9  163 218 
 SPBC SZ I        1253 15.60        64.3 0.22            130            163 218 
 ZAR  HN ES       1253 17.20                             123    0.18 9  202 292 
 NOR  HZ EP       1252 55.10                             119   -0.18 8  234 234 
 NOR  HN ES       1253 23.15                             119    0.08 8  234 234 
 NOR  SZ I        1253 27.28        28.9 0.24            120            234 234 
 SML  HZ EP       1252 55.52                             118   -0.58 8  242 336 
 SML  HE ES       1253 24.76                             118    0.22 8  242 336 
 SML  SZ I        1253 27.31        51.1 0.10            119            242 336 
 CHI  HZ EP       1252 57.22                             117   -0.18 8  249 195 
 CHI  HN ES       1253 26.42                             117   -0.43 8  249 195 
 CHI  SZ I        1253 32.27        14.1 0.34            119            249 195 
 ROSC BN ES   4   1253 31.25                             117    3.77 0  253 211 
 HEL  HZ EP       1253  0.45                             115    0.77 8  270 256 
 HEL  HN ES       1253 30.48                             115   -0.43 8  270 256 
 HEL  SZ I        1253 37.40        22.7 0.32            116            270 256 
 URE  HZ EP   4   1252 59.29                             114   -1.19 0  282 292 
 URE  HN ES   4   1253 29.97                             114   -2.36 0  282 292 
 URE  SZ I        1253 44.15        19.7 0.20            115            282 292 
 GUY2CHZ EP       1253  3.78                             113    0.64 7  300 234 
 GUY2CHE ES   4   1253 39.49                             113    2.42 0  300 234 
 GUY2CSZ I        1253 44.49        23.3 0.70                           300 234 
 CBOC HZ EP       1253  7.03                             110    0.64 7  332 252 
 CBOC HN ES       1253 42.32                             110   -0.53 7  332 252 
 CBOC SZ I        1253 49.64         9.8 0.90            111            332 252 
 SJC  HZ EP   4   1253 12.99                             106   -2.00 0  407 327 
 SJC  HN ES   4   1253 54.27                             106   -3.90 0  407 327 
 SJC  SZ I        1253 57.39         9.2 1.16            107            407 327 
                                                                                
