 2010  912 1107  7.7 L   6.798 -73.061150.5  RSN 10 0.3 1.8LRSN                1
 GAP=168        0.58       3.0     5.5  4.4 -0.4157E+01  0.3219E+01 -0.5595E+00E
 Epicentro: LOS SANTOS - SANTANDER                                             3
 ACTION:UP  11-02-18 11:02 OP:tino STATUS:               ID:20100912110707 L   I
 2010-09-12-1103-06S.COL___120                                                 6
 STAT SP IPHASW D HRMM SECON CODA AMPLIT PERI AZIMU VELO SNR AR TRES W  DIS CAZ7
 BAR2 SZ EP       11 7 27.79                             170    -0.210   27 211 
 BAR2 SZ ES       11 7 43.81                             170     0.110   27 211 
 BAR2 SZ I        11 7 44.56        15.4 0.24                            27 211 
 GIR2 SZ EP   2   11 7 28.10                             167     0.1 5   34 335 
 BRR  HZ IP     C 11 7 29.66                             151    -0.210   80 295 
 BRR  HZ I        11 7 29.92        16.0 0.12                            80 295 
 BRR  HN ES   1   11 7 47.25                             151     0.1 7   80 295 
 RUS  HZ EP   1   11 7 31.62                             145    -0.2 7  100 181 
 RUS  HE ES   1   11 7 50.75                             145     0.0 7  100 181 
 GRA  SZ EP   1   11 7 33.59                             139     0.4 7  123  13 
 GRA  SZ ES   2   11 7 53.03                             139     0.0 5  123  13 
 GRA  SZ I        11 7 57.99         4.1 0.40                           123  13 
 OCA  SZ EP   1   11 7 36.35                             130    -0.2 7  162 350 
 OCA  SZ I        11 8  2.18         5.1 0.35                           162 350 
 CHI  HZ EP   2   11 7 45.62                             118    -0.3 4  251 197 
 CHI  HE ES   2   11 8 16.42                             118     0.7 4  251 197 
 CHI  HZ I        11 8 31.06         4.1 0.60                           251 197 
 GUY  SZ EP   2   11 7 53.35                             113     1.0 4  309 236 
 GUY  SZ I        11 7 55.87         7.2 0.66                           309 236 
 GUY  SE ES   2   11 8 27.18                             113    -0.1 4  309 236 
 RREF HZ EP   2   11 7 54.81                             111     0.0 3  329 230 
 RREF HN ES   2   11 8 30.88                             111    -0.7 3  329 230 
 RREF HZ I        11 8 40.35         2.6 0.47                           329 230 
 PRA  HZ EP   2   11 8  1.63                             107    -0.3 3  397 211 
 PRA  HE ES   2   11 8 44.92                             107     0.7 3  397 211 
 PRA  HZ I        11 8 47.70         2.8 0.38                           397 211 
                                                                                
