 2016 1112 1457 38.4 L   6.783 -73.187141.6  RSN  5 0.3 1.7LRSN                1
 GAP=137        0.67       5.6     3.1  5.8 -0.3401E+01  0.3887E+01 -0.3299E+01E
 Epicentro: ZAPATOCA - SANTANDER                                               3
 ACTION:UPD 17-10-26 21:07 OP:lp   STATUS:               ID:20161112145738 L   I
 OLDACT:UP  16-11-13 00:18 OP:dnl  STATUS:               ID:20161112144715     3
 OLDACT:REG 16-11-12 21:16 OP:dnl  STATUS:               ID:20161112144715     3
 2016-11-12-1448-00M.COL___343                                                 6
 STAT SP IPHASW D HRMM SECON CODA AMPLIT PERI AZIMU VELO AIN AR TRES W  DIS CAZ7
 BAR2 EZ EP     D 1457 57.63                             171    0.1610 21.0 178 
 BAR2 EZ ES       1458 12.44                             171    0.0810 21.0 178 
 BAR2 EZ I        1458 13.64        13.6 0.26            171           21.0 178 
 BRR  HZ EP   2   1457 59.11                             153    0.20 5 68.2 302 
 BRR  HN ES       1458 15.37                             153    0.4410 68.2 302 
 PAM  EZ EP     D 1458  0.50                             149    0.0710 81.8  41 
 PAM  EN ES       1458 17.25                             149   -0.3910 81.8  41 
 PAM  EZ I        1458 18.38         4.8 0.20            150           81.8  41 
 PTB  HZ EP   2   1458  4.51                             132   -0.06 5  143 259 
 PTB  HN ES       1458 24.55                             132   -0.44 9  143 259 
 PTB  HZ I        1458 31.95         5.3 0.40            129            143 259 
 ZAR  HZ EP   2   1458 10.38                             122    0.19 4  201 293 
 ZAR  HN ES       1458 34.94                             122   -0.07 9  201 293 
 ZAR  HZ I        1458 44.73         7.5 0.22            120            201 293 
                                                                                
