 2011  912 1148 12.2 L   6.779 -73.082138.9  RSN  5 0.3 1.8LRSN                1
 GAP=146        0.67       4.9     7.0  6.5  0.2319E+01 -0.9819E+01  0.2021E+01E
 Epicentro: LOS SANTOS - SANTANDER                                             3
 ACTION:UPD 12-07-13 15:57 OP:ep   STATUS:               ID:20110912114812 L   I
 2011-09-12-1144-33S.COL___168                                                 6
 STAT SP IPHASW D HRMM SECON CODA AMPLIT PERI AZIMU VELO AIN AR TRES W  DIS CAZ7
 BAR2 SZ IP       1148 30.89                             170   -0.1710 23.4 208 
 BAR2 SZ ES   1   1148 45.64                             170   -0.09 7 23.4 208 
 BAR2 SZ I        1148 46.67         8.4 0.18                          23.4 208 
 GIR2 SZ EP       1148 31.04                             165   -0.1910 35.4 340 
 GIR2 SZ ES   2   1148 45.29                             165   -0.75 5 35.4 340 
 PAM  SZ EP       1148 33.95                             150    0.3510 75.1  34 
 PAM  SE ES   2   1148 50.30                             150    0.05 5 75.1  34 
 BRR  HZ EP       1148 32.90                             149   -0.2110 78.5 298 
 BRR  HZ I        1148 32.99        21.0 0.62                          78.5 298 
 BRR  HN ES   1   1148 49.88                             149    0.51 7 78.5 298 
 RUS  HZ EP       1148 35.18                             143    0.0410 98.0 180 
 RUS  HE ES   2   1148 53.45                             143    0.45 5 98.0 180 
                                                                                
