 2012  112 1003 12.8 L   6.383 -73.583105.7  RSN  5 0.5 1.3LRSN                1
 GAP=218        0.83      14.3     5.0 11.7 -0.4331E+01  0.1350E+02 -0.1794E+02E
 Epicentro: SANTA HELENA DEL OPON - SANTANDER                                  3
 ACTION:UP  12-02-03 08:16 OP:REBC STATUS:               ID:20120112100313 L   I
 2012-01-12-1000-00M.COL___187                                                 6
 STAT SP IPHASW D HRMM SECON CODA AMPLIT PERI AZIMU VELO SNR AR TRES W  DIS CAZ7
 BAR2 SZ EP       10 3 29.17                             153     0.410   50  62 
 BAR2 SZ ES   1   10 3 41.37                             153     0.1 7   50  62 
 BAR2 SZ I        10 3 42.91        14.4 0.22                            50  62 
 BRR  HZ EP   3   10 3 30.09                             139    -0.5 2   81 350 
 GIR2 SZ EP   1   10 3 30.73                             137    -0.6 7   88  29 
 GIR2 SZ ES   3   10 3 44.82                             137    -1.0 2   88  29 
 PTB  HZ EP   1   10 3 31.97                             134    -0.1 7   98 280 
 PTB  HN ES   1   10 3 46.69                             134    -0.3 7   98 280 
 PTB  HZ I        10 3 48.28         2.4 0.20                            98 280 
 ZAR  HZ EP   3   10 3 41.39                             114     0.3 2  187 311 
 ZAR  HN ES   2   10 4  4.12                             114     1.0 4  187 311 
                                                                                
