 2012  812 1342 35.0 L   6.393 -73.714 12.8  RSN  6 0.4 1.3LRSN                1
 GAP=153        0.71       2.7     2.2  6.7  0.1905E+01  0.4553E+01 -0.1821E+01E
 Epicentro: SANTA HELENA DEL OPON - SANTANDER                                  3
 ACTION:UPD 12-09-10 11:56 OP:ep   STATUS:               ID:20120812134235 L   I
 2012-08-12-1340-00M.COL___219                                                 6
 STAT SP IPHASW D HRMM SECON CODA AMPLIT PERI AZIMU VELO AIN AR TRES W  DIS CAZ7
 BAR2 SZ EP   1   1342 45.48                              98    0.00 7 62.8  69 
 BAR2 SZ ES   2   1342 52.67                              98   -0.97 5 62.8  69 
 BRR  HZ EP   1   1342 47.88                              96    0.21 7 79.0   0 
 BRR  HZ I        1342 48.37        10.9 0.09                          79.0   0 
 BRR  HN ES   1   1342 57.66                              96    0.13 7 79.0   0 
 PTB  HZ EP   1   1342 48.54                              96    0.14 7 83.7 281 
 PTB  HE ES   1   1342 58.33                              96   -0.50 7 83.7 281 
 PTB  HZ I        1342 58.88        10.2 0.18                          83.7 281 
 RUS  HZ EP   1   1342 50.23                              96    0.54 7 89.0 128 
 RUS  HN ES   1   1343  0.91                              96   -0.22 7 89.0 128 
 RUS  HZ I        1343  2.17         6.2 0.15                          89.0 128 
 GIR2 SZ EP   1   1342 50.50                              95    0.24 7 95.2  37 
 ZAR  HN ES   1   1343 21.97                              56   -0.13 7  175 314 
                                                                                
