 2012 1112 1030 32.0 L   6.729 -73.167146.4  RSN  7 0.4 1.7LRSN                1
 GAP=137        0.98       6.4     5.8  7.7  0.3553E+01 -0.1178E+01 -0.2320E+02E
 Epicentro: VILLANUEVA - SANTANDER                                             3
 ACTION:UPD 12-12-05 15:32 OP:}ep  STATUS:               ID:20121112103032 L   I
 2012-11-12-1030-00M.COL___230                                                 6
 STAT SP IPHASW D HRMM SECON CODA AMPLIT PERI AZIMU VELO AIN AR TRES W  DIS CAZ7
 BAR2 SZ EP       1030 51.67                             174    0.1010 15.2 186 
 BAR2 SZ ES       1031  6.68                             174   -0.1610 15.2 186 
 BAR2 SZ I        1031  7.42         6.7 0.40                          15.2 186 
 GIR2 SZ EP       1030 51.81                             164   -0.1610 38.8 356 
 BRR  HZ EP       1030 54.13                             152    0.8010 73.3 305 
 BRR  HN ES       1031 10.16                             152    0.1810 73.3 305 
 BRR  HN I        1031 10.79        14.1 0.24                          73.3 305 
 PAM  SZ IP     C 1030 54.70                             148   -0.0510 85.0  37 
 PAM  SZ I        1030 54.88         8.1 0.24                          85.0  37 
 RUS  HN ES       1031 13.31                             146   -0.1310 92.9 174 
 PTB  HZ EP       1030 58.97                             133    0.28 9  144 262 
 PTB  HN ES       1031 19.07                             133   -0.43 9  144 262 
 SML  HZ EP       1031  8.59                             117   -0.74 8  250 337 
                                                                                
