 2015  412 1109 18.9 L   7.037 -73.498109.2  RSN 12 0.5 2.1LRSN                1
 GAP= 75        1.10       2.8     3.1  6.6 -0.1151E+01  0.6588E+01 -0.1548E+01E
 Epicentro: SAN VICENTE DE CHUCURI - SANTANDER                                 3
 ACTION:UPD 15-06-03 16:54 OP:cam  STATUS:               ID:20150412110918 L   I
 OLDACT:REG 15-04-12 20:49 OP:mh   STATUS:               ID:20150412110747     3
 2015-04-12-1107-47M.COL___263                                                 6
 STAT SP IPHASW D HRMM SECON CODA AMPLIT PERI AZIMU VELO AIN AR TRES W  DIS CAZ7
 BRR  HZ EP       11 9 34.28                             166    0.4210 24.9 288 
 BRR  HN ES       11 9 45.71                             166    0.2010 24.9 288 
 BRR  HZ I        11 9 46.21        48.7 0.12            163           24.9 288 
 BAR2 EZ EP       11 9 36.51                             149    0.6410 60.3 145 
 BAR2 EZ ES   1   11 9 49.15                             149    0.06 7 60.3 145 
 BAR2 EZ I        11 9 50.61        88.5 0.20            152           60.3 145 
 PAM  SZ EP       11 9 38.97                             136    0.2310 94.3  69 
 PAM  SN ES       11 9 54.13                             136   -0.0810 94.3  69 
 PAM  SZ I        11 9 57.53        18.7 0.22            136           94.3  69 
 PTB  HZ EP       11 9 39.97                             129   -0.3910  119 243 
 PTB  HE ES       11 9 56.34                             129   -0.7510  119 243 
 PTB  HZ I        11 9 57.64        16.5 0.14            128            119 243 
 OCA  HZ EP   1   11 9 41.82                             125   -0.18 7  134   8 
 OCA  HN ES       11 9 59.55                             125   -0.4610  134   8 
 OCA  HZ I        1110  6.86                             123            134   8 
 RUS  HZ EP       11 9 42.67                             125    0.1910  135 160 
 RUS  HN ES   1   1110  0.26                             125   -0.60 7  135 160 
 RUS  HZ I        1110  2.85         6.7 0.24            126            135 160 
 ZAR  HZ EP   1   11 9 44.91                             120    0.62 7  158 289 
 ZAR  HN ES       1110  4.82                             120    0.74 9  158 289 
 ZAR  HZ I        1110  7.34        23.7 0.34            118            158 289 
 SPBC HN ES       1110  5.18                             119   -0.49 9  166 203 
 SML  HZ EP       11 9 48.84                             113   -0.53 9  205 342 
 SML  HN ES       1110 13.14                             113    0.01 9  205 342 
 SML  HZ I        1110 22.12        36.8 0.12            111            205 342 
 NOR  HZ EP   4   11 9 52.87                             111    1.43 0  223 223 
 NOR  HN ES       1110 16.85                             111    0.04 8  223 223 
 NOR  HZ I        1110 23.52         8.3 0.18            110            223 223 
 URE  HZ EP   1   11 9 53.21                             109    0.05 6  238 290 
 URE  HN ES       1110 19.17                             109   -0.71 8  238 290 
 URE  HZ I        1110 28.44         8.8 0.32            108            238 290 
 HEL  HZ EP   1   11 9 54.37                             109    0.16 6  243 247 
 HEL  HN ES       1110 22.52                             109    0.79 8  243 247 
 HEL  HZ I        1110 26.23         6.9 0.26            108            243 247 
 MON  HZ EP   4   1110  0.85                             104   -0.34 0  307 309 
 MON  HN ES   4   1110 32.44                             104   -1.72 0  307 309 
                                                                                
