 2013  712 1427 29.6 L   6.831 -73.150134.6  RSN  7 0.6 2.0LRSN                1
 GAP=137        1.50       6.6     6.1  9.9 -0.7103E+01  0.1498E+02 -0.1462E+02E
 Epicentro: LOS SANTOS - SANTANDER                                             3
 ACTION:UPD 13-08-12 10:37 OP:ep   STATUS:               ID:20130712142729 L   I
 OLDACT:UP  13-07-14 23:05 OP:Juan STATUS:               ID:20130712142729 L   3
 OLDACT:DUP 13-07-12 18:47 OP:stll STATUS:               ID:20130712141853d    3
 2013-07-12-1418-52M.COL___211                                                 6
 STAT SP IPHASW D HRMM SECON CODA AMPLIT PERI AZIMU VELO AIN AR TRES W  DIS CAZ7
 BAR2 SZ IP     C 1427 48.01                             168    0.0510 26.7 188 
 BAR2 SZ ES       1428  2.69                             168    0.4010 26.7 188 
 BAR2 SZ I        1428  3.94         9.7 0.30            169           26.7 188 
 GIR2 SZ ES       1428  2.38                             168    0.3010 27.8 350 
 BRR  HZ IP       1427 49.80                             151    0.3710 69.2 296 
 BRR  HN ES   4   1428  6.77                             151    1.87 0 69.2 296 
 BRR  HN I        1428 10.18        29.1 0.64            151           69.2 296 
 RUS  HZ EP       1427 52.45                             140   -0.0910  104 176 
 RUS  HN ES       1428 10.49                             140    0.0610  104 176 
 RUS  HN I        1428 12.41        17.5 0.26            144            104 176 
 CAPV BZ EP       1427 56.48                             130    0.60 9  147  39 
 CAPV BZ ES       1428 15.30                             130   -1.08 9  147  39 
 PTB  HZ EP       1427 54.78                             129   -0.92 9  148 257 
 PTB  HN ES       1428 15.20                             129   -0.86 9  148 257 
 PTB  HN I        1428 20.59        16.7 0.34            131            148 257 
 ZAR  HZ EP       1428  2.06                             120    0.90 9  202 291 
 ZAR  HE ES       1428 26.08                             120    0.30 9  202 291 
                                                                                
