 2016  212 1433 34.0 L   6.822 -73.173140.3  RSN  8 0.4 1.8LRSN                1
 GAP=140        0.82       3.8     3.8  6.3 -0.3414E+01  0.4824E+01  0.6699E+01E
 Epicentro: ZAPATOCA - SANTANDER                                               3
 ACTION:UPD 16-03-04 21:25 OP:rebc STATUS:               ID:20160212143334 L   I
 OLDACT:REG 16-02-12 20:18 OP:dnl  STATUS:               ID:20160212142746     3
 2016-02-12-1427-46M.COL___316                                                 6
 STAT SP IPHASW D HRMM SECON CODA AMPLIT PERI AZIMU VELO AIN AR TRES W  DIS CAZ7
 BAR2 EZ EP       1433 53.14                             169    0.1110 25.4 182 
 BAR2 EZ ES       1434  8.12                             169    0.2510 25.4 182 
 BAR2 EZ I        1434 10.58        13.5 0.26            169           25.4 182 
 PAM  EZ EP       1433 56.15                             150    0.4910 77.5  42 
 PAM  EE ES       1434 11.99                             150   -0.5510 77.5  42 
 PAM  EZ I        1434 16.03         6.7 0.20            154           77.5  42 
 PTB  HZ EP   2   1433 59.76                             131   -0.55 5  145 258 
 PTB  HN ES       1434 20.46                             131   -0.37 9  145 258 
 PTB  HZ I        1434 23.06         8.0 0.10            132            145 258 
 SPBC HZ EP       1434  2.11                             128    0.01 9  163 218 
 SPBC HE ES       1434 24.56                             128    0.55 9  163 218 
 SPBC HZ I        1434 29.99         8.8 0.20            129            163 218 
 ZAR  HZ EP   3   1434  5.78                             122    0.06 2  200 292 
 ZAR  HE ES       1434 30.58                             122    0.12 9  200 292 
 ZAR  HZ I        1434 36.60         5.8 0.10            123            200 292 
 NOR  HZ EP   2   1434  9.31                             117   -0.01 4  234 234 
 NOR  HE ES   2   1434 36.75                             117   -0.11 4  234 234 
 NOR  HZ I        1434 41.87         5.2 0.22            119            234 234 
 CHI  HZ EP       1434 11.46                             116   -0.13 8  250 194 
 CHI  HE ES       1434 40.39                             116   -0.50 8  250 194 
 CHI  HZ I        1434 43.06         4.7 0.36            118            250 194 
 GUY2CHZ EP   4   1434 18.46                             111    1.21 0  300 234 
 GUY2CHN ES   4   1434 49.49                             111   -1.49 0  300 234 
 GUY2CHZ I        1434 58.36         2.4 0.24                           300 234 
                                                                                
