 2017  912 1410 41.5 L   6.810 -73.151145.5  RSN  5 0.3 1.5LRSN                1
 GAP=135        0.65       3.6     4.1  5.5 -0.5221E+01  0.3429E+01  0.1971E+01E
 Epicentro: LOS SANTOS - SANTANDER                                             3
 ACTION:UPD 17-10-05 19:11 OP:rebc STATUS:               ID:20170912141041 L   I
 OLDACT:REG 17-09-12 20:19 OP:dnl  STATUS:               ID:20170912140742     3
 2017-09-12-1408-00M.COL___446                                                 6
 STAT SP IPHASW D HRMM SECON CODA AMPLIT PERI AZIMU VELO AIN AR TRES W  DIS CAZ7
 BAR2 EZ EP       1411  1.05                             170   -0.0710 24.3 188 
 BAR2 EZ ES       1411 16.30                             170   -0.1210 24.3 188 
 BAR2 EZ I        1411 18.36         9.5 0.16            170           24.3 188 
 BRR  HZ EP   2   1411  2.88                             153    0.32 5 70.1 298 
 BRR  HE ES       1411 19.27                             153    0.2810 70.1 298 
 BRR  HZ I        1411 21.96        10.0 0.28            151           70.1 298 
 PAM  EZ EP       1411  3.94                             151    0.2810 77.0  40 
 PAM  EE ES       1411 20.55                             151   -0.4010 77.0  40 
 PAM  EZ I        1411 22.67         5.1 0.20            154           77.0  40 
 RUS  HZ EP   2   1411  5.09                             143   -0.22 5  102 176 
 RUS  HN ES       1411 24.15                             143    0.2810  102 176 
 RUS  HZ I        1411 24.75         3.5 0.18            145            102 176 
 NOR  HZ EP   2   1411 17.05                             118   -0.18 4  235 234 
 NOR  HN ES       1411 44.72                             118   -0.37 8  235 234 
 NOR  HZ I        1411 50.09         2.9 0.30            119            235 234 
                                                                                
