 2016 1112 1144 51.1 L   6.817 -73.149147.7  RSN 17 0.6 2.5LRSN                1
 GAP=118        1.28       5.2     5.2  7.2 -0.2779E+01  0.6444E+01  0.1716E+02E
 Epicentro: LOS SANTOS - SANTANDER                                             3
 ACTION:UPD 17-10-26 21:07 OP:lp   STATUS:               ID:20161112114451 L   I
 OLDACT:UP  16-11-12 23:49 OP:dnl  STATUS:               ID:20161112113745     3
 OLDACT:UP  16-11-12 23:48 OP:dnl  STATUS:               ID:20161112113745     3
 OLDACT:UP  16-11-12 23:48 OP:dnl  STATUS:               ID:20161112113745     3
 OLDACT:REG 16-11-12 20:47 OP:dnl  STATUS:               ID:20161112113745     3
 2016-11-12-1138-00M.COL___331                                                 6
 STAT SP IPHASW D HRMM SECON CODA AMPLIT PERI AZIMU VELO AIN AR TRES W  DIS CAZ7
 BAR2 EZ EP       1145 11.04                             170    0.0410 25.2 188 
 BAR2 EZ ES       1145 25.86                             170   -0.6610 25.2 188 
 BAR2 EZ I        1145 27.26       107.9 0.22            167           25.2 188 
 BRR  HZ IP     C 1145 12.79                             153    0.4010 69.9 297 
 BRR  HE ES       1145 30.04                             153    1.0510 69.9 297 
 BRR  HZ I        1145 33.68        47.0 0.30            150           69.9 297 
 PAM  EZ EP       1145 13.89                             151    0.4310 76.2  41 
 PAM  EN ES       1145 30.81                             151   -0.0810 76.2  41 
 PAM  EZ I        1145 33.21        54.1 0.46            158           76.2  41 
 PTB  HZ EP       1145 17.49                             132   -0.74 9  148 258 
 PTB  HN ES       1145 38.67                             132   -0.71 9  148 258 
 PTB  HZ I        1145 45.79        39.1 0.32            131            148 258 
 ZAR  HZ EP       1145 23.46                             123   -0.10 9  203 292 
 ZAR  HN ES       1145 48.31                             123   -0.57 9  203 292 
 ZAR  HZ I        1145 54.58        34.3 0.52            123            203 292 
 NOR  HZ EP       1145 27.00                             119   -0.03 8  235 234 
 NOR  HE ES       1145 55.07                             119    0.02 8  235 234 
 NOR  HZ I        1145 59.69        28.4 0.30            119            235 234 
 CHI  HZ EP       1145 29.19                             117    0.09 8  250 195 
 CHI  HE ES       1145 59.02                             117    0.29 8  250 195 
 CHI  HZ I        1146  1.79        21.8 0.38            118            250 195 
 ROSC BZ EP   4   1145 31.22                             117    1.73 0  254 211 
 ROSC BN ES   4   1146  2.16                             117    2.74 0  254 211 
 ROSC BZ I        1146  5.70        33.6 0.40            118            254 211 
 PTGC HZ EP       1145 34.19                             112   -1.08 7  311 159 
 PTGC HE ES   4   1146  7.49                             112   -2.22 0  311 159 
 PTGC HZ I        1146  7.57        22.0 0.36            114            311 159 
 LL6C HZ EP   4   1145 16.86                             111   -19.8 0  323 358 
 LL6C HE ES   4   1145 50.89                             111   -21.3 0  323 358 
 LL6C HZ I        1146  5.87         8.9 0.42            113            323 358 
 ELA  HZ EP   4   1145 40.06                             110    1.92 0  330 229 
 ELA  HN ES   4   1146 13.96                             110   -0.87 0  330 229 
 ELA  HZ I        1146 22.80        12.0 0.42            111            330 229 
 CBOC HZ EP       1145 38.77                             110    0.65 7  334 252 
 CBOC HN ES   4   1146 13.42                             110   -1.37 0  334 252 
 CBOC HZ I        1146 19.01         5.7 0.50            111            334 252 
 ANIL HZ EP   4   1145 43.13                             109    2.02 0  358 224 
 ANIL HE ES   4   1146 21.59                             109    1.48 0  358 224 
 PRA  HZ EP       1145 44.85                             107   -0.01 6  393 209 
 PRA  HE ES       1146 26.89                             107    0.10 6  393 209 
 PRA  HZ I        1146 31.50        15.8 0.74            108            393 209 
 ORTC HZ EP       1145 45.27                             106    0.03 6  397 216 
 ORTC HE ES       1146 28.97                             106    1.50 6  397 216 
 ORTC HZ I        1146 34.05        10.7 0.56            108            397 216 
 PAL  HZ EP       1145 46.58                             106    0.18 6  406 239 
 PAL  HN ES   4   1146 27.97                             106   -1.57 0  406 239 
 PAL  HZ I        1146 32.96         7.0 0.42            107            406 239 
 SJC  HZ EP   4   1145 45.12                             106   -1.40 0  407 327 
 SJC  HN ES   4   1146 26.72                             106   -3.02 0  407 327 
 SJC  HZ I        1146 36.06         4.2 0.24            107            407 327 
 CRJC HZ EP   4   1145 51.37                             104   -2.07 0  466   4 
 CRJC HN ES   4   1146 38.45                             104   -3.60 0  466   4 
 CRJC HZ I        1146 46.32         7.7 0.28            105            466   4 
                                                                                
