 2012  512 1018 32.0 L   5.908 -73.669122.3  RSN  8 0.3 1.8LRSN                1
 GAP=118        0.72       3.6     4.0  7.5 -0.1157E+01  0.1427E+02  0.5335E+01E
 Epicentro: PUENTE NACIONAL - SANTANDER                                        3
 ACTION:UP  12-07-05 12:04 OP:pat  STATUS:               ID:20120512101832 L   I
 2012-05-12-1010-00M.COL___195                                                 6
 STAT SP IPHASW D HRMM SECON CODA AMPLIT PERI AZIMU VELO SNR AR TRES W  DIS CAZ7
 RUS  HZ EP   1   1018 50.91                             150    -0.1 8   65  91 
 RUS  HZ I        1018 51.44         9.8 0.15                            65  91 
 RUS  HN ES   1   1019  5.64                             150    -0.2 8   65  91 
 BAR2 SZ EP   1   1018 52.72                             140     0.1 8   93  35 
 BAR2 SZ ES   1   1019  8.58                             140     0.0 8   93  35 
 BAR2 SZ I        1019  9.66        37.5 0.25                            93  35 
 PTB  HZ EP   1   1018 53.28                             135    -0.6 8  112 309 
 PTB  HZ I        1018 54.83         7.3 0.08                           112 309 
 PTB  HE ES   1   1019 10.87                             135     0.0 8  112 309 
 BRR  HZ EP       1018 55.81                             129     0.110  133 358 
 BRR  HZ I        1018 57.00        16.7 0.12                           133 358 
 BRR  HE ES   1   1019 14.76                             129     0.6 7  133 358 
 HEL  HZ EP   1   1019  4.34                             116     0.3 7  208 279 
 HEL  HZ I        1019 33.89         5.1 0.50                           208 279 
 RREF HN ES   1   1019 31.05                             115    -0.1 7  217 239 
 RREF HZ I        1019 38.32         4.7 0.32                           217 239 
 ZAR  HZ EP   1   1019  4.23                             115    -0.5 7  219 323 
 ZAR  HN ES   2   1019 29.93                             115    -0.3 4  219 323 
 ZAR  HZ I        1019 35.95         7.4 0.38                           219 323 
 PRA  HZ EP   1   1019 11.69                             109     0.3 6  278 209 
 PRA  HN ES   2   1019 42.76                             109     0.7 4  278 209 
                                                                                
