 2010  912 1127 34.5 L   6.827 -73.047141.4  RSN  6 0.4 1.6LRSN                1
 GAP=169        0.64       3.7     7.7  6.2  0.1607E+01 -0.2542E+01  0.2678E+01E
 Epicentro: LOS SANTOS - SANTANDER                                             3
 ACTION:UP  11-02-18 11:02 OP:tino STATUS:               ID:20100912112734 L   I
 2010-09-12-1123-44S.COL___120                                                 6
 STAT SP IPHASW D HRMM SECON CODA AMPLIT PERI AZIMU VELO SNR AR TRES W  DIS CAZ7
 BAR2 SZ IP       1127 53.78                             167     0.010   30 210 
 BAR2 SZ I        1127 54.09         9.2 0.09                            30 210 
 BAR2 SZ ES   1   1128  8.74                             167     0.0 7   30 210 
 BRR  HZ IP     C 1127 55.55                             149    -0.110   80 293 
 BRR  HZ I        1127 55.90        13.8 0.04                            80 293 
 BRR  HE ES   1   1128 12.25                             149     0.0 7   80 293 
 RUS  HZ EP   1   1127 57.85                             142    -0.2 7  103 182 
 RUS  HZ I        1127 58.52         3.5 0.33                           103 182 
 RUS  HN ES   1   1128 16.44                             142     0.1 7  103 182 
 GRA  SZ EP   2   1127 59.65                             137     0.8 5  120  13 
 GRA  SZ ES   2   1128 17.86                             137     0.0 5  120  13 
 GRA  SZ I        1128 20.24         5.0 0.27                           120  13 
 CHI  HZ EP   2   1128 11.77                             116    -0.8 4  255 197 
 CHI  HE ES   2   1128 42.95                             116     0.6 4  255 197 
 CHI  HZ I        1128 48.63         1.5 0.62                           255 197 
 PRA  HZ EP   2   1128 28.74                             105    -0.1 3  400 211 
 PRA  HN ES   2   1129 12.07                             105     0.9 3  400 211 
 PRA  HZ I        1129 14.81         1.9 0.33                           400 211 
                                                                                
