 2014  312 1238 27.9 L   6.914 -73.248134.6  RSN  4 0.3 1.7LRSN                1
 GAP=239        0.73       6.9     5.2  6.9  0.2375E+02  0.7747E+00 -0.1549E+02E
 Epicentro: BETULIA - SANTANDER                                                3
 ACTION:UPD 14-04-09 23:16 OP:nd   STATUS:               ID:20140312123827 L   I
 OLDACT:REG 14-03-12 16:29 OP:nd   STATUS:               ID:20140312122816     3
 2014-03-12-1228-16M.COL___238                                                 6
 STAT SP IPHASW D HRMM SECON CODA AMPLIT PERI AZIMU VELO AIN AR TRES W  DIS CAZ7
 BAR2 SZ EP       1238 46.45                             164   -0.1110 36.3 168 
 BAR2 SZ ES       1239  1.03                             164   -0.0810 36.3 168 
 BAR2 SZ I        1239  2.37        48.1 0.32            165           36.3 168 
 RUS  HZ EP     D 1238 51.85                             137    0.1810  114 171 
 RUS  HN ES       1239 10.34                             137    0.1310  114 171 
 RUS  HZ I        1239 12.30         1.5 0.54            140            114 171 
 PTB  HZ EP       1238 52.62                             131   -0.63 9  140 253 
 PTB  HN ES       1239 13.14                             131    0.12 9  140 253 
 PTB  HZ I        1239 15.51         6.6 0.42            131            140 253 
 ZAR  HZ EP       1238 58.50                             122    0.43 9  189 290 
 ZAR  HN ES       1239 21.63                             122    0.03 9  189 290 
 ZAR  HZ I        1239 26.68         8.4 0.40            123            189 290 
                                                                                
