 2013  412 1329 38.0 L   6.738 -73.168141.4  RSN  5 0.5 1.8LRSN                1
 GAP=136        1.06       7.3     7.1 10.2 -0.3832E+01  0.1085E+02 -0.2363E+00E
 Epicentro: VILLANUEVA - SANTANDER                                             3
 ACTION:UPD 13-05-22 14:37 OP:EP   STATUS:               ID:20130412132938 L   I
 2013-04-12-1328-50M.COL___215                                                 6
 STAT SP IPHASW D HRMM SECON CODA AMPLIT PERI AZIMU VELO AIN AR TRES W  DIS CAZ7
 BAR2 SZ EP   1   1329 56.90                             173   -0.05 7 16.2 185 
 BAR2 SZ ES   1   1330 11.34                             173   -0.41 7 16.2 185 
 BAR2 SZ I        1330 13.46        29.3 0.18            173           16.2 185 
 BRR  HZ EP       1329 59.11                             151    0.3810 72.6 304 
 BRR  HN ES   1   1330 15.88                             151    0.96 7 72.6 304 
 PAM  SZ EP   1   1330  0.08                             148   -0.08 7 84.3  38 
 PAM  SN ES   1   1330 16.90                             148   -0.56 7 84.3  38 
 PAM  SZ I        1330 19.18         9.3 0.52            151           84.3  38 
 RUS  HZ EP   1   1330  0.74                             145   -0.08 7 94.0 174 
 RUS  HN ES   1   1330 19.14                             145    0.50 7 94.0 174 
 RUS  HZ I        1330 20.64         7.3 0.36            146           94.0 174 
 PTB  HZ EP   1   1330  4.19                             132   -0.06 7  144 261 
 PTB  HN ES   1   1330 23.75                             132   -1.00 7  144 261 
 PTB  HZ I        1330 27.30         6.5 0.14            133            144 261 
                                                                                
