 2011  612 1654 53.1 L   6.759 -73.116145.4  RSN  6 0.2 2.0LRSN                1
 GAP=159        0.43       3.4     4.8  5.5 -0.1079E+02  0.3793E+01 -0.2466E+01E
 Epicentro: LOS SANTOS - SANTANDER                                             3
 ACTION:UP  11-07-14 19:04 OP:ep   STATUS:               ID:20110612165453 L   I
 2011-06-12-1651-28S.COL___132                                                 6
 STAT SP IPHASW D HRMM SECON CODA AMPLIT PERI AZIMU VELO SNR AR TRES W  DIS CAZ7
 BAR2 SZ EP   1   1655 12.58                             172     0.0 7   20 202 
 BAR2 SZ ES   2   1655 27.31                             172    -0.5 5   20 202 
 BAR2 SZ I        1655 29.66        19.1 0.29                            20 202 
 BRR  HZ EP   1   1655 14.48                             151     0.0 7   76 300 
 BRR  HE ES   2   1655 31.45                             151     0.3 5   76 300 
 BRR  HZ I        1655 35.54        25.9 0.19                            76 300 
 RUS  HN ES   2   1655 35.04                             145     0.4 5   96 178 
 RUS  HZ I        1655 36.62        12.3 0.43                            96 178 
 BRI  SZ EP   1   1655 17.20                             140     0.0 7  112  18 
 BRI  SZ ES   2   1655 36.00                             140     0.0 5  112  18 
 BRI  SZ I        1655 37.52        16.7 0.44                           112  18 
 GRA  SZ EP   1   1655 18.46                             136    -0.1 7  129  15 
 GRA  SZ ES   1   1655 38.45                             136     0.0 7  129  15 
 GRA  SZ I        1655 38.94        15.3 0.30                           129  15 
 NOR  SN ES   1   1655 56.55                             118    -0.1 6  235 236 
                                                                                
