 2013  612 1239 12.0 L   6.732 -73.150155.0  RSN  6 0.4 1.8LRSN                1
 GAP=183        0.95       7.9     6.7  8.2  0.1820E+02 -0.2084E+01 -0.7341E+01E
 Epicentro: JORDAN - SANTANDER                                                 3
 ACTION:UPD 14-01-08 09:54 OP:ep   STATUS:               ID:20130612123912 L   I
 OLDACT:UP  13-06-12 17:03 OP:cam  STATUS:               ID:20130612123848     3
 OLDACT:REG 13-06-12 16:54 OP:cam  STATUS:               ID:20130612123848     3
 2013-06-12-1238-48M.COL___226                                                 6
 STAT SP IPHASW D HRMM SECON CODA AMPLIT PERI AZIMU VELO AIN AR TRES W  DIS CAZ7
 BAR2 SZ EP       1239 32.59                             174   -0.0810 15.9 193 
 BAR2 SZ ES       1239 48.19                             174   -0.5610 15.9 193 
 BAR2 SZ I        1239 49.51        10.3 0.40            168           15.9 193 
 GIR2 SZ EP       1239 32.75                             165   -0.2710 38.6 353 
 BRR  HZ EP       1239 34.40                             153    0.0110 74.7 304 
 BRR  HZ I        1239 34.77        19.8 0.24            151           74.7 304 
 BRR  HN ES       1239 52.50                             153    0.6810 74.7 304 
 RUS  HZ EP   1   1239 36.76                             148    0.54 7 93.1 175 
 RUS  HN ES   1   1239 55.52                             148    0.45 7 93.1 175 
 RUS  HZ I        1239 56.36         6.6 0.24            145           93.1 175 
 PTB  HZ EP   1   1239 39.55                             134   -0.08 7  146 262 
 PTB  HN ES       1240  0.81                             134   -0.33 9  146 262 
 PTB  HZ I        1240  6.23         7.6 0.48            132            146 262 
 ZAR  HN ES   2   1240 11.34                             124   -0.01 4  207 294 
                                                                                
