 2013  512 1807  0.8 L   6.540 -73.535113.9  RSN 12 0.5 2.4LRSN                1
 GAP= 64        0.96       3.1     3.6  6.0 -0.2995E+01  0.9694E+01  0.7564E+00E
 Epicentro: EL CARMEN DE CHUCURI - SANTANDER                                   3
 ACTION:UPD 13-06-20 09:49 OP:ep   STATUS:               ID:20130512180700 L   I
 2013-05-12-1800-00M.COL___256                                                 6
 STAT SP IPHASW D HRMM SECON CODA AMPLIT PERI AZIMU VELO AIN AR TRES W  DIS CAZ7
 BAR2 SZ IP     C 18 7 17.20                             160    0.0610 39.4  82 
 BAR2 SZ ES       18 7 29.66                             160   -0.2410 39.4  82 
 BAR2 SZ I        18 7 31.04       238.6 0.49            163           39.4  82 
 BRR  HZ EP       18 7 18.10                             148   -0.1110 65.7 343 
 BRR  HE ES       18 7 32.00                             148    0.1810 65.7 343 
 BRR  HZ I        18 7 33.40        34.6 0.10            144           65.7 343 
 GIR2 SZ EP     D 18 7 18.79                             146    0.0510 70.5  32 
 GIR2 SZ I        18 7 19.00        51.6 0.15            146           70.5  32 
 GIR2 SZ ES       18 7 33.06                             146    0.3110 70.5  32 
 RUS  HZ EP       18 7 20.16                             140   -0.3010 87.3 145 
 PAM  SZ EP       18 7 24.05                             128    0.0410  128  46 
 PAM  SE ES       18 7 41.90                             128   -0.2310  128  46 
 PAM  SZ I        18 7 43.23        29.0 0.20            129            128  46 
 ZAR  HZ EP   4   18 7 29.47                             118    0.72 0  180 306 
 ZAR  HN ES   4   18 7 52.43                             118    1.86 0  180 306 
 ZAR  HZ I        18 7 54.14        39.7 0.28            116            180 306 
 NOR  HZ EP       18 7 28.69                             117   -0.42 9  183 234 
 NOR  HN ES       18 7 50.64                             117   -0.57 9  183 234 
 NOR  HZ I        18 7 53.49        24.0 0.16            117            183 234 
 OCA  HZ EP   1   18 7 30.09                             116    0.16 7  189   7 
 OCA  HN ES   2   18 7 53.04                             116    0.36 4  189   7 
 OCA  HZ I        18 7 58.37        28.7 0.30            116            189   7 
 CHI  HZ EP   4   18 7 35.06                             114    2.25 0  212 186 
 CHI  HN ES   1   18 7 58.84                             114    1.04 6  212 186 
 CHI  HZ I        18 8  0.26         6.7 0.36            114            212 186 
 HEL  HZ EP       18 7 34.72                             112    0.66 8  224 260 
 HEL  HN ES   1   18 8  1.02                             112    1.00 6  224 260 
 HEL  HZ I        18 8  4.15        12.6 0.18            111            224 260 
 SML  HZ EP   1   18 7 37.32                             109   -0.04 6  257 347 
 SML  HE ES       18 8  6.12                             109    0.23 8  257 347 
 SML  HZ I        18 8 11.66        37.1 0.10            108            257 347 
 URE  HZ EP   1   18 7 37.15                             109   -0.37 6  258 301 
 URE  HN ES   1   18 8  5.01                             109   -1.18 6  258 301 
 URE  HZ I        18 8 12.64        15.4 0.34            108            258 301 
                                                                                
