 2012  712 1847 48.8 L   6.781 -73.146141.5  RSN  5 0.1 1.5LRSN                1
 GAP=137        0.39       2.6     2.6  4.3  0.1356E+01 -0.4610E+00  0.7852E+00E
 Epicentro: LOS SANTOS - SANTANDER                                             3
 ACTION:UPD 12-08-14 11:44 OP:ep   STATUS:               ID:20120712184748 L   I
 2012-07-12-1840-00M.COL___197                                                 6
 STAT SP IPHASW D HRMM SECON CODA AMPLIT PERI AZIMU VELO AIN AR TRES W  DIS CAZ7
 BAR2 SZ EP   1   1848  7.73                             171    -0.1 7   21 191 
 BAR2 SZ I        1848 23.45         7.4 0.27            163             21 191 
 BRR  HZ EP       1848  9.59                             151     0.010   72 300 
 BRR  HZ I        1848 16.59         8.3 0.29            144             72 300 
 BRR  HN ES       1848 25.83                             151     0.110   72 300 
 PAM  SZ EP       1848 10.79                             149     0.110   79  39 
 PAM  SN ES   1   1848 27.54                             149    -0.2 7   79  39 
 RUS  HZ EP   1   1848 11.92                             143    -0.1 7   98 176 
 RUS  HN ES   1   1848 30.07                             143     0.0 7   98 176 
 ZAR  HN ES   1   1848 46.02                             121    -0.2 6  205 293 
 ZAR  HZ I        1848 52.62         2.1 0.20            113            205 293 
