 2017  712 1233 59.1 L   6.814 -73.139143.4  RSN  8 0.4 1.9LRSN                1
 GAP=151        1.09       5.3     4.9  7.0 -0.9733E+01  0.9423E+01  0.5443E+01E
 Epicentro: LOS SANTOS - SANTANDER                                             3
 ACTION:UPD 17-08-30 15:32 OP:rebc STATUS:               ID:20170712123359 L   I
 OLDACT:REG 17-07-12 20:46 OP:dhb  STATUS:               ID:20170712122739     3
 2017-07-12-1228-00M.COL___374                                                 6
 STAT SP IPHASW D HRMM SECON CODA AMPLIT PERI AZIMU VELO AIN AR TRES W  DIS CAZ7
 BAR2 EZ IP     C 1234 18.47                             170    0.0310 25.0 191 
 BAR2 EZ ES       1234 32.75                             170   -0.8110 25.0 191 
 BAR2 EZ I        1234 35.29        11.2 0.13            171           25.0 191 
 BRR  HZ IP     C 1234 20.20                             152    0.2510 71.1 297 
 BRR  HN ES       1234 36.93                             152    0.6810 71.1 297 
 BRR  HZ I        1234 40.77        14.0 0.26            150           71.1 297 
 PAM  EZ EP       1234 21.34                             151    0.4110 75.7  40 
 PAM  EE ES       1234 38.03                             151    0.0410 75.7  40 
 PAM  EZ I        1234 39.86        17.5 0.20            154           75.7  40 
 PTB  HZ EP       1234 25.48                             131   -0.45 9  149 258 
 PTB  HN ES       1234 46.65                             131   -0.24 9  149 258 
 PTB  HZ I        1234 49.44         6.5 0.11            132            149 258 
 SPBC HZ EP       1234 27.58                             128    0.05 9  165 219 
 SPBC HE ES       1234 49.90                             128    0.15 9  165 219 
 SPBC HZ I        1234 53.43         7.8 0.12            130            165 219 
 ZAR  HZ EP       1234 30.49                             122   -0.87 9  204 292 
 ZAR  HN ES       1234 56.45                             122   -0.11 9  204 292 
 ZAR  HZ I        1235  3.17        15.0 0.29            123            204 292 
 NOR  HZ EP       1234 35.03                             118    0.22 8  236 234 
 NOR  HE ES       1235  3.28                             118    0.58 8  236 234 
 NOR  HZ I        1235  4.56         7.1 0.14            120            236 234 
 GUY2CHZ EP   4   1234 44.31         3.8 0.32            112    1.59 0  303 235 
 GUY2CHE ES       1235 16.82                             112    0.03 7  303 235 
 GUY2CHZ I        1235 25.11         3.8 0.32                           303 235 
                                                                                
