 2011  712 1753 12.9 L   6.797 -73.116142.1  RSN 18 0.5 3.0LRSN                1
 GAP=128        0.97       3.4     4.8  5.8 -0.7407E+01  0.6273E+01  0.2895E+01E
 Epicentro: LOS SANTOS - SANTANDER                                             3
 ACTION:UPD 12-07-25 14:00 OP:epov STATUS:               ID:20110712175312 L   I
 2011-07-12-1750-15S.COL___143                                                 6
 STAT SP IPHASW D HRMM SECON CODA AMPLIT PERI AZIMU VELO AIN AR TRES W  DIS CAZ7
 BTL  SZ IP     C 1753 32.86                             171    0.7810 21.5 309 
 BAR2 SZ IP     D 1753 32.25                             170    0.1310 23.8 198 
 BAR2 SZ ES   1   1753 46.30                             170   -0.80 7 23.8 198 
 BAR2 SZ I        1753 48.09       146.8 0.15                          23.8 198 
 GIR2 SZ EP   1   1753 32.31                             167    0.12 7 32.3 345 
 BRR  HZ IP     C 1753 34.10                             151    0.2410 74.3 298 
 BRR  HZ I        1753 34.57       213.7 0.12                          74.3 298 
 BRR  HN ES   1   1753 50.91                             151    0.73 7 74.3 298 
 PAM  SZ EP       1753 35.02                             151    0.3810 75.6  37 
 PAM  SN ES   1   1753 51.91                             151    0.33 7 75.6  37 
 RUS  HZ EP       1753 36.23                             143   -0.0510  100 178 
 RUS  HN ES   1   1753 54.15                             143   -0.35 7  100 178 
 RUS  HZ I        1753 56.59       156.7 0.29                           100 178 
 BRI  SZ EP       1753 36.80                             141    0.4010  108  19 
 BRI  SZ ES   1   1753 54.60                             141   -0.11 7  108  19 
 BRI  SZ I        1753 56.94       139.9 0.26                           108  19 
 GRA  SZ IP     C 1753 37.43                             136   -0.3610  125  16 
 GRA  SZ ES   1   1753 56.30                             136   -0.88 7  125  16 
 GRA  SZ I        1753 57.96       140.5 0.32                           125  16 
 OCA  SZ EP   1   1753 40.71                             129   -0.31 7  161 352 
 OCA  SZ ES   1   1754  2.06                             129   -0.88 7  161 352 
 OCA  SZ I        1754  4.28        53.3 0.22                           161 352 
 NOR  SZ EP   1   1753 48.28                             117   -0.44 6  237 235 
 NOR  SN ES   1   1754 16.15                             117   -0.48 6  237 235 
 CHI  HZ EP   1   1753 50.72                             116    0.23 6  249 196 
 CHI  HN ES   1   1754 19.86                             116    0.08 6  249 196 
 CHI  HZ I        1754 23.24        37.9 0.32                           249 196 
 ROSC BZ EP   1   1753 51.89                             116    0.88 6  254 212 
 ROSC BZ I        1754 26.17        78.9 0.41                           254 212 
 HEL  HZ EP       1753 53.31                             114    0.01 8  275 256 
 HEL  HN ES   1   1754 24.82                             114    0.02 6  275 256 
 GUY  SZ EP   1   1753 56.79                             111   -0.13 5  306 235 
 GUY  SN ES   1   1754 30.76                             111   -0.47 5  306 235 
 DBB  SZ EP   1   1754  0.79                             109    0.15 5  343 274 
 SDV  BZ EP   1   1754  1.96                             108   -0.59 5  358  50 
 SDV  BZ I        1754  2.78        23.5 0.17                           358  50 
 PRA  HZ EP   1   1754  5.72                             106   -0.76 4  393 210 
 PRA  HZ I        1754 53.84       110.3 0.24                           393 210 
 SJA  SZ EP   1   1754  6.59                             105   -0.82 4  401 193 
                                                                                
