 2010  812 1235 25.0 L   6.802 -73.080141.2  RSN  6 0.3 1.9LRSN                1
 GAP=166        0.69       3.7     9.0  7.1 -0.1035E+02 -0.1017E+02 -0.5831E+00E
 Epicentro: LOS SANTOS - SANTANDER                                             3
 ACTION:UP  10-09-07 10:54 OP:vdl  STATUS:               ID:20100812123525 L   I
 2010-08-12-1232-46S.COL___126                                                 6
 STAT SP IPHASW D HRMM SECON CODA AMPLIT PERI AZIMU VELO SNR AR TRES W  DIS CAZ7
 BAR2 SZ EP       1235 44.28                             169     0.110   26 206 
 BAR2 SZ ES   1   1235 59.25                             169     0.2 7   26 206 
 BAR2 SZ I        1236  0.97        36.5 0.13                            26 206 
 BRR  HZ EP       1235 46.14                             149     0.110   78 296 
 BRR  HE ES   2   1236  2.22                             149    -0.2 5   78 296 
 RUS  HZ EP       1235 48.15                             143    -0.210  101 180 
 RUS  HE ES   2   1236  6.75                             143     0.3 5  101 180 
 RUS  HZ I        1236  8.06         9.7 0.29                           101 180 
 GUE  SZ EP   1   1235 49.12                             139    -0.1 7  115   9 
 GRA  SZ EP       1235 50.01                             136     0.310  124  14 
 GRA  SZ I        1235 51.09         7.9 0.54                           124  14 
 GRA  SZ ES   1   1236  8.27                             136    -0.6 7  124  14 
 CHI  HZ EP   3   1236  2.42                             116    -0.3 2  251 197 
 CHI  HE ES   2   1236 31.38                             116    -0.7 4  251 197 
 CHI  HZ I        1236 39.87         3.7 0.17                           251 197 
                                                                                
