 2014 1112 1512 43.2 L   6.760 -73.088145.7  RSN  4 0.3 1.6LRSN                1
 GAP=146        0.86       4.6     6.9  7.0 -0.7052E+00 -0.3372E+01  0.9617E+00E
 Epicentro: LOS SANTOS - SANTANDER                                             3
 ACTION:UPD 14-12-19 15:42 OP:nd   STATUS:               ID:20141112151243 L   I
 OLDACT:UP  14-11-12 23:41 OP:cam  STATUS:               ID:20141112150820     3
 OLDACT:REG 14-11-12 19:50 OP:cam  STATUS:               ID:20141112150820     3
 2014-11-12-1508-20M.COL___289                                                 6
 STAT SP IPHASW D HRMM SECON CODA AMPLIT PERI AZIMU VELO AIN AR TRES W  DIS CAZ7
 BAR2 SZ EP     D 1513  2.74                             171   -0.0410 21.3 209 
 BAR2 SZ ES       1513 17.46                             171   -0.6010 21.3 209 
 BAR2 SZ I        1513 19.36         8.1 0.24            172           21.3 209 
 PAM  SZ EP       1513  5.55                             151    0.1610 77.1  34 
 PAM  SN ES       1513 22.78                             151    0.0810 77.1  34 
 PAM  SZ I        1513 24.84         6.7 0.54            153           77.1  34 
 BRR  HZ EP       1513  4.43                             150   -0.3610 78.9 299 
 BRR  HN ES       1513 22.05                             150    0.4110 78.9 299 
 BRR  HN I        1513 24.49        22.8 0.20            151           78.9 299 
 RUS  HZ EP       1513  6.62                             145    0.0010 96.0 180 
 RUS  HN ES       1513 25.23                             145    0.3510 96.0 180 
 RUS  HZ I        1513 27.33         2.8 0.30            147           96.0 180 
                                                                                
