 2011  512 1947 28.4 L   6.789 -73.100142.4  RSN  9 0.3 2.4LRSN                1
 GAP=143        0.72       3.6     6.0  4.6 -0.9016E+01  0.5037E+00  0.1003E+01E
 Epicentro: LOS SANTOS - SANTANDER                                             3
 ACTION:UP  11-06-29 08:52 OP:tino STATUS:               ID:20110512194728 L   I
 2011-05-12-1945-54S.COL___129                                                 6
 STAT SP IPHASW D HRMM SECON CODA AMPLIT PERI AZIMU VELO SNR AR TRES W  DIS CAZ7
 BTL  SZ IP       1947 47.71                             170     0.010   23 308 
 BTL  SZ ES   1   1948  2.62                             170     0.0 7   23 308 
 BAR2 SZ IP       1947 47.59                             170    -0.110   24 203 
 BAR2 SZ ES   1   1948  2.68                             170     0.0 7   24 203 
 BAR2 SZ I        1948  3.67        52.8 0.26                            24 203 
 PAM  SZ EP       1947 50.59                             151     0.410   75  36 
 PAM  SN ES   1   1948  7.56                             151     0.4 7   75  36 
 BRR  HZ IP     C 1947 49.35                             150    -0.210   76 298 
 BRR  HZ I        1947 49.62       106.0 0.12                            76 298 
 BRR  HN ES   1   1948  6.34                             150     0.4 7   76 298 
 RUS  HZ EP       1947 51.60                             143    -0.210   99 179 
 RUS  HN ES   2   1948  9.50                             143    -0.4 5   99 179 
 BRI  SZ EP       1947 52.18                             141     0.210  108  18 
 BRI  SZ ES   1   1948  9.94                             141    -0.4 7  108  18 
 GRA  SZ IP       1947 53.40                             136     0.010  126  15 
 GRA  SZ ES   1   1948 12.44                             136    -0.4 7  126  15 
 GRA  SZ I        1948 20.39        17.6 0.43                           126  15 
 OCA  SZ EP       1947 56.25                             129    -0.4 9  162 351 
 OCA  SZ I        1948 22.73        32.8 0.18                           162 351 
 TOL  SZ EP       1948 17.20                             109     0.3 6  346 225 
                                                                                
