 2013  412 1741 48.4 L   6.759 -73.348127.0  RSN  8 0.5 1.5LRSN                1
 GAP= 96        1.09       4.5     6.4  7.7  0.2258E+01  0.1152E+02 -0.2442E+01E
 Epicentro: ZAPATOCA - SANTANDER                                               3
 ACTION:UPD 13-05-22 14:37 OP:EP   STATUS:               ID:20130412174148 L   I
 2013-04-12-1740-00M.COL___245                                                 6
 STAT SP IPHASW D HRMM SECON CODA AMPLIT PERI AZIMU VELO AIN AR TRES W  DIS CAZ7
 BAR2 SZ EP       1742  6.16                             168    0.3110 26.0 135 
 BAR2 SZ ES       1742 18.94                             168   -0.5210 26.0 135 
 GIR2 SZ EP       1742  6.22                             162    0.0910 39.2  26 
 BRR  HZ EP       1742  6.97                             155    0.3010 55.7 314 
 BRR  HE ES       1742 21.39                             155    0.4810 55.7 314 
 BRR  HZ I        1742 23.14         9.1 0.37            144           55.7 314 
 PAM  SZ EP       1742 10.11                             141    0.0910 96.2  48 
 PAM  SN ES       1742 27.21                             141    0.3410 96.2  48 
 PAM  SZ I        1742 28.54         5.8 0.36            144           96.2  48 
 RUS  HZ EP       1742 10.57                             140    0.2410  100 163 
 RUS  HE ES   1   1742 26.99                             140   -0.44 7  100 163 
 RUS  HZ I        1742 28.67         4.1 0.28            134            100 163 
 PTB  HZ EP       1742 11.32                             133   -0.4610  125 259 
 PTB  HZ I        1742 33.84         5.4 0.16            121            125 259 
 OCA  HN ES   1   1742 35.56                             124   -1.38 7  164   1 
 SML  HZ EP   1   1742 23.30                             114   -0.29 6  240 341 
 SML  HN ES   1   1742 51.30                             114    0.27 6  240 341 
                                                                                
