 2017  412 1819 21.1 L   6.801 -73.150144.7  RSN 23 0.5 2.6LRSN                1
 GAP=111        1.08       3.2     3.3  4.9  0.8352E+00  0.4872E+01  0.2947E+01E
 Epicentro: LOS SANTOS - SANTANDER                                             3
 ACTION:UPD 17-05-30 21:11 OP:jn   STATUS:               ID:20170412181921 L   I
 OLDACT:UP  17-04-12 23:32 OP:cog  STATUS:               ID:20170412181740     3
 OLDACT:UP  17-04-12 23:30 OP:cog  STATUS:               ID:20170412181740     3
 OLDACT:UP  17-04-12 23:19 OP:cog  STATUS:               ID:20170412181740     3
 OLDACT:UP  17-04-12 23:19 OP:cog  STATUS:               ID:20170412181740     3
 OLDACT:REG 17-04-12 21:05 OP:cog  STATUS:               ID:20170412181740     3
 2017-04-12-1818-00M.COL___362                                                 6
 STAT SP IPHASW D HRMM SECON CODA AMPLIT PERI AZIMU VELO AIN AR TRES W  DIS CAZ7
 BAR2 EZ EP       1819 40.50                             170   -0.1510 23.4 189 
 BAR2 EZ ES       1819 55.69                             170   -0.1810 23.4 189 
 BAR2 EZ I        1819 57.25       138.3 0.46            165           23.4 189 
 BRR  HZ EP       1819 42.34                             152    0.1910 70.7 299 
 BRR  HE ES       1819 58.86                             152    0.3210 70.7 299 
 BRR  HZ I        1820  3.59        83.7 0.14            153           70.7 299 
 PAM  EZ EP       1819 43.28                             151    0.0210 77.6  40 
 PAM  EN ES       1820  0.71                             151    0.1910 77.6  40 
 PAM  EZ I        1820  2.79        76.3 0.50            153           77.6  40 
 RUS  HZ EP       1819 44.32                             144   -0.4910  101 176 
 RUS  HE ES       1820  3.23                             144   -0.0310  101 176 
 RUS  HZ I        1820  4.34        42.4 0.22            139            101 176 
 PTB  HZ EP       1819 47.21                             132   -0.77 9  147 259 
 PTB  HN ES       1820  8.39                             132   -0.53 9  147 259 
 PTB  HZ I        1820 11.49        51.0 0.32            130            147 259 
 SPBC HZ EP       1819 49.44                             129   -0.10 9  163 219 
 SPBC HN ES       1820 11.65                             129   -0.04 9  163 219 
 SPBC HZ I        1820 14.19        80.5 0.32            126            163 219 
 YPLC HZ EP       1819 50.64                             126   -0.26 9  177 151 
 YPLC HE ES       1820 14.90                             126    0.79 9  177 151 
 YPLC HZ I        1820 21.96        17.8 0.38            123            177 151 
 ZAR  HZ EP       1819 53.28                             122   -0.19 9  204 292 
 ZAR  HE ES       1820 18.61                             122   -0.07 9  204 292 
 TABC EZ EP   4   1819 58.27                             119    1.45 0  230 211 
 TABC EZ I        1820 29.49        54.0 0.48            117            230 211 
 NOR  HZ EP       1819 56.48                             118   -0.30 8  234 234 
 NOR  HE ES       1820 24.78                             118    0.21 8  234 234 
 NOR  HZ I        1820 32.57        32.6 0.20            116            234 234 
 CHI  HZ EP       1819 58.61                             117   -0.17 8  249 195 
 CHI  HN ES       1820 27.53                             117   -0.61 8  249 195 
 CHI  HZ I        1820 36.37        20.1 0.63            115            249 195 
 ROSC BZ EP   9   1820  0.35                             116    1.16 0  253 211 
 ROSC BN ES       1820 30.80                             117    0.77 8  253 211 
 ROSC BZ I        1820 36.87        41.6 0.55            114            253 211 
 HEL  HZ EP       1820  2.53                             115    1.28 8  272 256 
 HEL  HN ES       1820 32.90                             115    0.36 8  272 256 
 VIL  HE ES   3   1820 37.95                             112   -0.40 2  303 191 
 PTGC HZ EP   3   1820  3.19                             111   -1.80 2  309 159 
 PTGC HN ES   4   1820 37.08                             111   -2.11 0  309 159 
 ELA  HZ EP       1820  9.50                             110    1.58 7  329 229 
 ELA  HE ES       1820 44.80                             110    0.40 7  329 229 
 ELA  HZ I        1820 52.20        23.3 0.42            109            329 229 
 CBOC HZ EP       1820  8.55                             110    0.59 7  333 252 
 CBOC HN ES   4   1820 42.35                             110   -2.13 0  333 252 
 DBB  EZ EP       1820  8.88                             109    0.36 7  339 274 
 DBB  EN ES   3   1820 44.45                             109   -1.02 2  339 274 
 ANIL HZ EP   9   1820 12.24                             108    1.36 0  357 224 
 ANIL HE ES       1820 51.76                             108    0.73 6  357 224 
 PRA  HZ EP       1820 14.14                             106   -0.47 6  392 209 
 PRA  HN ES       1820 56.50                             106    0.18 6  392 209 
 ORTC HZ EP       1820 14.66                             106   -0.34 6  395 216 
 ORTC HN ES   4   1820 59.24                             106    2.22 0  395 216 
 APAC HN ES       1820 57.00                             106   -0.43 6  398 288 
 PAL  HZ EP       1820 15.84                             106   -0.38 6  405 239 
 PAL  HN ES   4   1821  1.56                             106    2.37 0  405 239 
 PAL  HZ I        1821  2.96         6.0 0.20            105            405 239 
                                                                                
