 2017  312 1510 29.6 L   6.717 -73.117139.5  RSN  6 0.5 1.2LRSN                1
 GAP=144        1.22       5.9     5.5  8.9  0.2357E+01  0.1043E+02 -0.3684E+00E
 Epicentro: JORDAN - SANTANDER                                                 3
 ACTION:UPD 17-05-25 18:39 OP:jn   STATUS:               ID:20170312151029 L   I
 OLDACT:REG 17-03-12 21:51 OP:lv   STATUS:               ID:20170312150745     3
 2017-03-12-1508-00M.COL___403                                                 6
 STAT SP IPHASW D HRMM SECON CODA AMPLIT PERI AZIMU VELO AIN AR TRES W  DIS CAZ7
 BAR2 EZ EP       1510 48.35                             173    0.0010 15.6 208 
 BAR2 EZ ES       1511  3.12                             173    0.1610 15.6 208 
 BAR2 EZ I        1511  4.09         4.3 0.21            172           15.6 208 
 BRR  HZ EP       1510 51.26                             149    0.7310 78.7 303 
 BRR  HN ES       1511  7.29                             149    0.4310 78.7 303 
 BRR  HZ I        1511 20.31         9.2 0.30            149           78.7 303 
 PAM  EZ EP       1510 51.36                             148   -0.1410 82.8  34 
 PAM  EN ES       1511  8.00                             148   -0.5810 82.8  34 
 PAM  EZ I        1511 10.28         1.7 0.35            152           82.8  34 
 RUS  HZ EP       1510 52.42                             145    0.3510 91.3 178 
 RUS  HN ES       1511  9.65                             145    0.0510 91.3 178 
 RUS  HZ I        1511 12.33         1.3 0.24            152           91.3 178 
 PTB  HZ EP       1510 55.58                             130   -0.65 9  149 263 
 PTB  HN ES       1511 16.16                             130   -0.83 9  149 263 
 PTB  HZ I        1511 19.90         2.2 0.14            133            149 263 
 ZAR  HE ES       1511 28.28                             120    0.41 8  211 294 
                                                                                
