 2010 1212 1457 47.7 L   6.794 -73.046145.4  RSN  6 0.1 1.6LRSN                1
 GAP=170        0.26       1.4     7.5  2.9 -0.4538E+01  0.5323E+01 -0.7325E+00E
 Epicentro: LOS SANTOS - SANTANDER                                             3
 ACTION:UP  11-01-14 15:24 OP:pat  STATUS:               ID:20101212145747 L   I
 2010-12-12-1455-07S.COL___135                                                 6
 STAT SP IPHASW D HRMM SECON CODA AMPLIT PERI AZIMU VELO SNR AR TRES W  DIS CAZ7
 BAR2 SZ EP       1458  7.30                             169     0.010   27 214 
 BAR2 SZ I        1458  7.57        12.1 0.17                            27 214 
 BAR2 SZ ES   2   1458 22.62                             169     0.0 5   27 214 
 GIR2 SZ EP       1458  7.42                             166     0.010   35 333 
 GIR2 SZ ES   2   1458 22.92                             166     0.1 5   35 333 
 RUS  HZ EP       1458 11.36                             144     0.010  100 182 
 RUS  HN ES   1   1458 29.71                             144    -0.1 7  100 182 
 RUS  HZ I        1458 31.51         4.0 0.23                           100 182 
 GRA  SZ ES   1   1458 32.23                             137     0.0 7  124  13 
 GRA  SZ I        1458 33.71         8.0 0.28                           124  13 
 OCA  SZ EP       1458 16.12                             129     0.0 9  163 349 
 OCA  SZ I        1458 41.86         6.1 0.52                           163 349 
 CHI  HZ EP   3   1458 25.83                             117     0.2 2  251 198 
 CHI  HN ES   2   1458 55.27                             117     0.1 4  251 198 
 CHI  HZ I        1458 59.72         1.7 0.24                           251 198 
                                                                                
