 2010 1012 1024 36.1 L   6.894 -73.151148.9  RSN  7 0.5 2.1LRSN                1
 GAP=167        1.13       6.7    12.4 14.1 -0.3879E+02  0.1415E+02  0.2169E+02E
 Epicentro: BETULIA - SANTANDER                                                3
 ACTION:UP  11-02-18 11:09 OP:tino STATUS:               ID:20101012102436 L   I
 2010-10-12-1020-35S.COL___124                                                 6
 STAT SP IPHASW D HRMM SECON CODA AMPLIT PERI AZIMU VELO SNR AR TRES W  DIS CAZ7
 BTL  SZ EP       1024 56.18                             175     0.210   13 282 
 BTL  SZ ES   2   1025 11.67                             175     0.2 5   13 282 
 BAR2 SZ EP   3   1024 56.03                             167    -0.3 2   34 186 
 BAR2 SZ ES   1   1025 11.37                             167    -0.8 7   34 186 
 BAR2 SZ I        1025 13.54        22.7 0.58                            34 186 
 BRR  HE ES   1   1025 14.59                             154     0.7 7   66 291 
 BRR  HZ I        1025 18.08        25.7 0.19                            66 291 
 GRA  SZ ES   1   1025 20.28                             140     0.1 7  116  19 
 GRA  SZ I        1025 23.31        26.5 0.29                           116  19 
 OCA  SZ ES   1   1025 24.80                             132    -0.4 7  150 353 
 OCA  SZ I        1025 32.58        12.9 0.18                           150 353 
 NOR  SZ ES   1   1025 40.48                             118    -0.7 6  241 232 
 CHI  HN ES   1   1025 45.94                             116     0.5 6  259 194 
 CHI  HZ I        1025 48.61         4.5 0.10                           259 194 
                                                                                
