 2015  512 1518  4.2 L   6.830 -73.131154.2  RSN 13 0.3 2.4LRSN                1
 GAP=137        0.71       2.1     2.8  4.2 -0.6243E-01  0.4239E+01  0.1072E+01E
 Epicentro: LOS SANTOS - SANTANDER                                             3
 ACTION:UPD 15-09-10 22:03 OP:cam  STATUS:               ID:20150512151804 L   I
 OLDACT:UP  15-05-12 23:49 OP:drio STATUS:               ID:20150512150749     3
 OLDACT:UP  15-05-12 23:43 OP:drio STATUS:               ID:20150512150749     3
 OLDACT:UP  15-05-12 23:43 OP:drio STATUS:               ID:20150512150749     3
 OLDACT:REG 15-05-12 21:22 OP:drio STATUS:               ID:20150512150749     3
 2015-05-12-1507-49M.COL___282                                                 6
 STAT SP IPHASW D HRMM SECON CODA AMPLIT PERI AZIMU VELO AIN AR TRES W  DIS CAZ7
 BAR2 EZ EP       1518 25.04                             170    0.1710 26.8 192 
 BAR2 EZ ES       1518 40.61                             170   -0.4210 26.8 192 
 BAR2 EZ I        1518 41.37        45.3 0.22            169           26.8 192 
 BRR  HZ EP       1518 26.28                             154    0.0610 71.1 296 
 BRR  HN ES       1518 43.82                             154    0.4010 71.1 296 
 PAM  SZ EP       1518 27.15                             153    0.0710 73.9  40 
 PAM  SN ES       1518 45.13                             153    0.1810 73.9  40 
 PAM  SZ I        1518 47.24        35.4 0.64            155           73.9  40 
 RUS  HZ IP       1518 28.71                             145   -0.2610  104 177 
 RUS  HN ES       1518 48.09                             145   -0.2310  104 177 
 RUS  HZ I        1518 48.59        22.9 0.32            145            104 177 
 SPBC HZ EP       1518 33.95                             130    0.31 9  167 219 
 SPBC HE ES       1518 56.71                             130    0.07 9  167 219 
 SPBC HZ I        1519  1.71        38.0 0.20            130            167 219 
 ZAR  HE ES       1519  3.22                             124    0.26 9  204 291 
 NOR  HZ EP       1518 40.54                             120   -0.19 8  238 234 
 NOR  HE ES       1519  8.89                             120   -0.36 8  238 234 
 NOR  HZ I        1519 14.21        23.5 0.44            120            238 234 
 SML  HZ EP   2   1518 41.43                             119    0.40 4  241 335 
 SML  HN ES       1519  9.24                             119   -0.54 8  241 335 
 SML  HZ I        1519 11.35        14.7 0.28            120            241 335 
 CHI  HZ EP       1518 42.91                             118    0.19 8  252 195 
 CHI  HN ES       1519 12.98                             118    0.18 8  252 195 
 CHI  HZ I        1519 16.46         9.7 0.36            119            252 195 
 HEL  HN ES       1519 17.44                             116    0.46 8  274 255 
 GUY2CHZ EP   4   1518 50.66                             114    2.14 0  304 234 
 GUY2CHN ES       1519 22.91                             114   -0.22 7  304 234 
 GUY2CHZ I        1519 31.40        14.4 0.32                           304 234 
 MON  HN ES       1519 31.25                             110   -0.57 6  353 308 
 SJC  HZ EP   4   1518 59.22                             107   -0.57 0  407 327 
 SJC  HN ES   4   1519 39.71                             107   -3.47 0  407 327 
 SJC  HZ I        1519 43.78         5.2 0.38            108            407 327 
                                                                                
