 2013  112 1011 34.3 L   6.680 -73.224146.8  RSN  5 0.3 1.5LRSN                1
 GAP=203        0.81       6.1     5.5  6.5  0.2048E+02  0.6720E+01  0.1561E+01E
 Epicentro: BARICHARA - SANTANDER                                              3
 ACTION:UPD 13-02-15 09:13 OP:ep   STATUS:               ID:20130112101134 L   I
 2013-01-12-1008-44M.COL___183                                                 6
 STAT SP IPHASW D HRMM SECON CODA AMPLIT PERI AZIMU VELO AIN AR TRES W  DIS CAZ7
 BAR2 SZ EP       1011 53.23                             176   -0.6210 10.7 154 
 BAR2 SZ ES       1012  9.24                             176    0.1310 10.7 154 
 BAR2 SZ I        1012  9.67         5.6 0.26            172           10.7 154 
 BRR  HZ EP       1011 55.45                             153   -0.1110 71.7 311 
 BRR  HN ES       1012 12.40                             153    0.2310 71.7 311 
 BRR  HN I        1012 16.42         8.4 0.18            149           71.7 311 
 RUS  HZ EP       1011 57.66                             148    0.3710 88.4 170 
 RUS  HN ES       1012 15.18                             148   -0.0710 88.4 170 
 RUS  HN I        1012 17.83         4.3 0.36            149           88.4 170 
 PTB  HZ EP       1012  0.74                             134    0.36 9  137 264 
 PTB  HN ES       1012 20.46                             134   -0.29 9  137 264 
 PTB  HN I        1012 26.29         3.0 0.28            132            137 264 
 ZAR  HN ES       1012 31.70                             123    0.00 9  202 297 
 ZAR  HN I        1012 40.42         4.2 0.24            122            202 297 
                                                                                
