 2017  812 1142  4.6 L   6.561 -73.108164.5  RSN  4 0.4 1.6LRSN                1
 GAP=226        0.71       8.9     9.4  6.5  0.6446E+02  0.6649E+01 -0.1188E+02E
 Epicentro: SAN GIL - SANTANDER                                                3
 ACTION:UPD 17-09-04 20:19 OP:rebc STATUS:               ID:20170812114204 L   I
 OLDACT:UP  17-08-12 21:40 OP:dani STATUS:               ID:20170812113740d    3
 OLDACT:UP  17-08-12 21:40 OP:dani STATUS:               ID:20170812113740d    3
 OLDACT:UP  17-08-12 21:40 OP:dani STATUS:               ID:20170812113740d    3
 OLDACT:DUP 17-08-12 21:38 OP:dani STATUS:               ID:20170812113740d    3
 OLDACT:UP  17-08-12 21:37 OP:dani STATUS:               ID:20170812113739     3
 OLDACT:REG 17-08-12 20:45 OP:dani STATUS:               ID:20170812113739     3
 2017-08-12-1138-00M.COL___413                                                 6
 STAT SP IPHASW D HRMM SECON CODA AMPLIT PERI AZIMU VELO AIN AR TRES W  DIS CAZ7
 BAR2 EZ EP       1142 26.19                             177   -0.1010 8.90 293 
 BAR2 EZ ES       1142 42.92                             177   -0.3010 8.90 293 
 BAR2 EZ I        1142 44.56         7.2 0.24            176           8.90 293 
 RUS  HZ EP       1142 28.75                             155    0.1010 74.0 178 
 RUS  HN ES       1142 47.50                             155    0.0810 74.0 178 
 RUS  HZ I        1142 48.71         3.2 0.22            158           74.0 178 
 BRR  HZ EP       1142 29.30                             150    0.4610 90.0 312 
 BRR  HN ES   3   1142 49.11                             150    1.35 2 90.0 312 
 BRR  HZ I        1142 50.87         8.7 0.26            150           90.0 312 
 ZAR  HZ EP       1142 39.48                             124   -0.33 8  219 298 
 ZAR  HN ES       1143  7.15                             124   -0.14 8  219 298 
                                                                                
