 2010  512 1210 49.5 L   6.754 -73.374113.9  RSN  6 0.5 1.8LRSN                1
 GAP=155        0.80       4.5     9.9 10.0 -0.7226E+01 -0.1364E+02 -0.5264E+01E
 Epicentro: ZAPATOCA - SANTANDER                                               3
 ACTION:UP  10-08-24 10:04 OP:vdl  STATUS:               ID:20100512121049 L   I
 2010-05-12-1208-46S.COL___104                                                 6
 STAT SP IPHASW D HRMM SECON CODA AMPLIT PERI AZIMU VELO AIN AR TRES W  DIS CAZ7
 BAR2 SZ IP     D 1211  5.48                             166     0.110   28 130 
 BAR2 SZ ES   2   1211 17.68                             166    -0.2 5   28 130 
 BRR  HZ EP   1   1211  6.28                             153     0.1 7   54 316 
 BRR  HN ES   2   1211 19.29                             153     0.0 5   54 316 
 BRR  HZ I        1211 19.84        38.5 0.12                            54 316 
 RUS  HZ EP   1   1211 10.15                             136    -0.1 7  101 161 
 RUS  HE ES   2   1211 26.41                             136     0.0 5  101 161 
 RUS  HZ I        1211 27.26         7.5 0.15                           101 161 
 BRI  SZ ES   2   1211 30.82                             129     1.4 5  124  31 
 GUE  SZ EP   1   1211 12.37                             128    -0.2 7  129  23 
 GUE  SZ ES   2   1211 30.13                             128    -0.5 5  129  23 
 GRA  SZ EP   1   1211 13.67                             125     0.2 7  140  27 
 GRA  SZ ES   2   1211 31.14                             125    -1.0 5  140  27 
                                                                                
