 2017 1012 1457 53.2 L   6.746 -73.173137.6  RSN  9 0.4 2.0LRSN                1
 GAP=111        0.91       3.5     3.2  5.8  0.1462E+01  0.4865E+01  0.1328E+01E
 Epicentro: LOS SANTOS - SANTANDER                                             3
 ACTION:UPD 17-11-07 19:31 OP:rebc STATUS:               ID:20171012145753 L   I
 OLDACT:REG 17-10-12 20:13 OP:lv   STATUS:               ID:20171012144406     3
 2017-10-12-1448-00M.COL___435                                                 6
 STAT SP IPHASW D HRMM SECON CODA AMPLIT PERI AZIMU VELO AIN AR TRES W  DIS CAZ7
 BAR2 EZ EP       1458 11.91                             173    0.2310 17.0 183 
 BAR2 EZ ES       1458 26.15                             173    0.0110 17.0 183 
 BAR2 EZ I        1458 27.59        30.7 0.29            172           17.0 183 
 PAM  EZ EP       1458 14.93                             147    0.0110 83.9  39 
 PAM  EN ES       1458 31.55                             147   -0.3610 83.9  39 
 PAM  EZ I        1458 34.09        24.8 0.66            150           83.9  39 
 RUS  HZ EP       1458 15.86                             144    0.1710 94.9 174 
 RUS  HN ES       1458 33.51                             144    0.2410 94.9 174 
 RUS  HZ I        1458 35.19         9.2 0.24            145           94.9 174 
 PTB  HZ EP       1458 18.62                             131   -0.47 9  144 261 
 PTB  HN ES       1458 38.95                             131   -0.37 9  144 261 
 PTB  HZ I        1458 41.93        12.4 0.26            131            144 261 
 YPLC HZ EP       1458 22.44                             125    0.44 9  173 150 
 YPLC HN ES       1458 44.31                             125   -0.18 9  173 150 
 YPLC HZ I        1458 48.67        13.6 0.26            127            173 150 
 ZAR  HZ EP       1458 25.07                             121    0.04 9  204 294 
 ZAR  HE ES       1458 50.82                             121    0.92 9  204 294 
 ZAR  HZ I        1458 58.71        16.9 0.52            121            204 294 
 NOR  HZ EP       1458 27.09                             117   -0.69 8  229 235 
 NOR  HN ES       1458 54.77                             117   -0.02 8  229 235 
 NOR  HZ I        1459  0.05         5.4 0.16            118            229 235 
 GUY2CHZ EP   9   1458 37.65                             111    1.93 0  295 235 
 GUY2CHN ES       1459 11.21                                    0.36 7  295 235 
 GUY2CHZ I        1459 17.32         4.7 0.26                           295 235 
 SJC  HZ EP   9   1458 42.74                             104   -6.12 0  413 328 
 SJC  HN ES       1459 26.20                                    0.01 6  413 328 
                                                                                
