 2016 1012 1338  0.6 L   6.910 -73.240122.9  RSN  7 0.2 1.7LRSN                1
 GAP=237        1.01       4.7     5.5  6.3  0.1211E+02  0.1044E+02  0.6403E+01E
 Epicentro: BETULIA - SANTANDER                                                3
 ACTION:UPD 16-11-09 19:18 OP:rebc STATUS:               ID:20161012133800 L   I
 OLDACT:UP  16-10-12 22:37 OP:edw  STATUS:               ID:20161012132746     3
 OLDACT:REG 16-10-12 19:58 OP:edw  STATUS:               ID:20161012132746     3
 2016-10-12-1328-00M.COL___372                                                 6
 STAT SP IPHASW D HRMM SECON CODA AMPLIT PERI AZIMU VELO AIN AR TRES W  DIS CAZ7
 BAR2 EZ EP       1338 17.87                             163    0.0310 35.7 170 
 BAR2 EZ ES       1338 31.56                             163    0.2610 35.7 170 
 BAR2 EZ I        1338 32.06        53.1 0.24            164           35.7 170 
 BRR  HZ EP     C 1338 18.20                             154   -0.2310 56.5 293 
 BRR  HN ES       1338 32.29                             154   -0.0610 56.5 293 
 RUS  HZ EP       1338 23.36                             134    0.0910  114 171 
 RUS  HN ES       1338 40.58                             134   -0.3910  114 171 
 RUS  HZ I        1338 41.61         3.4 0.18            135            114 171 
 PTB  HZ EP   9 C 1338 23.10                             127   -1.99 0  141 253 
 PTB  HN ES       1338 40.98                             129   -1.23 9  141 253 
 PTB  HZ I        1338 44.85         5.6 0.14            127            141 253 
 ZAR  HZ EP       1338 30.19                             118    0.06 9  190 290 
 ZAR  HN ES       1338 53.28                             118    0.11 9  190 290 
 ZAR  HZ I        1338 56.83         6.7 0.30            118            190 290 
 CHI  HN ES       1339  7.46                             110   -0.05 8  258 192 
 GUY2CHZ EP       1338 43.33                             107    0.22 7  300 232 
 GUY2CHN ES       1339 16.43                             107    0.15 7  300 232 
 GUY2CHZ I        1339 21.47         1.6 0.38                           300 232 
                                                                                
