 2012  512 1259 12.0 L   6.776 -73.133147.4  RSN  7 0.4 1.8LRSN                1
 GAP=237        0.84       6.1     7.2  7.9  0.1847E+02  0.1772E+02  0.1160E+02E
 Epicentro: LOS SANTOS - SANTANDER                                             3
 ACTION:UP  12-07-05 12:04 OP:pat  STATUS:               ID:20120512125912 L   I
 2012-05-12-1257-38M.COL___190                                                 6
 STAT SP IPHASW D HRMM SECON CODA AMPLIT PERI AZIMU VELO SNR AR TRES W  DIS CAZ7
 BAR2 SZ EP   1   1259 31.70                             171     0.0 7   21 195 
 BAR2 SZ ES   1   1259 46.32                             171    -0.9 7   21 195 
 BAR2 SZ I        1259 49.51        20.1 0.31                            21 195 
 BRR  HZ EP       1259 33.50                             152     0.110   74 300 
 BRR  HE ES   1   1259 50.71                             152     0.5 7   74 300 
 BRR  HZ I        1259 54.53        16.1 0.24                            74 300 
 RUS  HZ EP   1   1259 35.71                             145     0.0 7   98 177 
 RUS  HE ES   1   1259 54.74                             145     0.6 7   98 177 
 RUS  HZ I        1259 55.61         6.6 0.22                            98 177 
 PTB  HZ EP   1   1259 39.16                             132     0.0 7  149 260 
 PTB  HN ES   2   13 0  0.09                             132    -0.3 5  149 260 
 PTB  HZ I        13 0  3.50         5.6 0.21                           149 260 
 ZAR  HN ES   1   13 0 10.13                             122    -0.2 6  206 293 
 NOR  SE ES   2   13 0 16.04                             119     0.4 4  234 235 
 PRA  HZ EP   1   13 0  5.09                             107    -0.3 4  390 210 
 PRA  HE ES   1   13 0 46.69                             107    -0.3 4  390 210 
                                                                                
