 2010  812 1356 41.1 L   6.530 -73.520114.0  RSN  7 0.3 1.9LRSN                1
 GAP=107        0.54       4.1     5.6  7.4  0.5866E+01  0.2317E+02  0.1839E+02E
 Epicentro: EL CARMEN DE CHUCURI - SANTANDER                                   3
 ACTION:UP  10-09-07 10:54 OP:vdl  STATUS:               ID:20100812135641 L   I
 2010-08-12-1353-30S.COL___126                                                 6
 STAT SP IPHASW D HRMM SECON CODA AMPLIT PERI AZIMU VELO SNR AR TRES W  DIS CAZ7
 BAR2 SZ IP       1356 57.41                             160     0.010   38  80 
 BAR2 SZ I        1356 57.76        42.9 0.30                            38  80 
 BAR2 SZ ES   2   1357  9.97                             160    -0.1 5   38  80 
 BTL  SZ ES   1   1357 11.62                             154     0.4 7   51  33 
 BRR  HZ EP       1356 58.36                             147    -0.310   67 342 
 BRR  HZ I        1357 11.03        21.5 0.23                            67 342 
 BRR  HN ES   2   1357 12.39                             147     0.1 5   67 342 
 RUS  HZ EP       1357  0.65                             141     0.010   85 146 
 RUS  HE ES   2   1357 15.56                             141    -0.3 5   85 146 
 RUS  HZ I        1357 17.06        12.2 0.43                            85 146 
 CHI  HZ EP   2   1357 13.45                             114     0.4 4  211 186 
 CHI  HZ I        1357 15.02         3.8 0.48                           211 186 
 GUY  SZ EP   3   1357 18.08                             109     0.6 2  250 235 
 GUY  SN ES   2   1357 46.32                             109     0.4 4  250 235 
 GUY  SZ I        1357 52.45        14.4 0.66                           250 235 
 PRA  HZ EP   1   1357 28.14                             103    -0.1 5  346 206 
 PRA  HN ES   2   1358  4.66                             103    -0.3 3  346 206 
 PRA  HZ I        1358 11.86         2.6 0.41                           346 206 
                                                                                
