 2013 1212 1757  9.0 L   6.780 -73.133147.5  RSN  5 0.2 1.6LRSN                1
 GAP=139        0.65       3.6     3.4  5.1 -0.1198E+01  0.1803E+01  0.1434E+01E
 Epicentro: LOS SANTOS - SANTANDER                                             3
 ACTION:UPD 14-01-13 10:17 OP:ep   STATUS:               ID:20131212175709 L   I
 OLDACT:UP  13-12-12 16:58 OP:cam  STATUS:               ID:20131212175001d    3
 OLDACT:DUP 13-12-12 16:56 OP:cam  STATUS:               ID:20131212175001d    3
 2013-12-12-1750-00M.COL___285                                                 6
 STAT SP IPHASW D HRMM SECON CODA AMPLIT PERI AZIMU VELO AIN AR TRES W  DIS CAZ7
 BAR2 SZ EP       1757 28.75                             171   -0.0210 21.5 195 
 BAR2 SZ ES   1   1757 44.32                             171    0.11 7 21.5 195 
 BAR2 SZ I        1757 45.84        16.7 0.26            171           21.5 195 
 BRR  HZ EP       1757 30.56                             152    0.1210 73.5 300 
 BRR  HN ES       1757 47.28                             152    0.1010 73.5 300 
 PAM  SZ EP     C 1757 31.72                             151    0.3010 78.2  38 
 PAM  SN ES       1757 48.63                             151   -0.3010 78.2  38 
 PAM  SZ I        1757 51.13         6.1 0.54            154           78.2  38 
 RUS  HZ EP       1757 32.92                             145    0.1910 98.3 177 
 RUS  HE ES       1757 51.15                             145   -0.1010 98.3 177 
 RUS  HZ I        1757 53.08         4.5 0.18            147           98.3 177 
 PTB  HZ EP       1757 35.61                             132   -0.56 9  149 260 
 PTB  HN ES       1757 57.52                             132    0.14 9  149 260 
 PTB  HZ I        1758  2.36         3.8 0.14            133            149 260 
                                                                                
