 2013  712 1606 11.8 L   6.701 -73.194141.6  RSN  4 0.1 1.8LRSN                1
 GAP=174        0.43       5.2     3.0  3.7 -0.9179E+00  0.9810E+00  0.5276E+00E
 Epicentro: VILLANUEVA - SANTANDER                                             3
 ACTION:UPD 13-08-12 10:37 OP:ep   STATUS:               ID:20130712160611 L   I
 OLDACT:DUP 13-07-12 19:16 OP:stll STATUS:               ID:20130712155852d    3
 2013-07-12-1558-51M.COL___216                                                 6
 STAT SP IPHASW D HRMM SECON CODA AMPLIT PERI AZIMU VELO AIN AR TRES W  DIS CAZ7
 BAR2 SZ EP       16 6 30.87                             175    0.0910 12.1 174 
 BAR2 SZ ES       16 6 45.57                             175    0.0110 12.1 174 
 BAR2 SZ I        16 6 46.50        12.1 0.80            169           12.1 174 
 GIR2 SZ EP       16 6 31.09                             163   -0.2510 41.8   0 
 BRR  HZ EP       16 6 32.83                             151    0.2110 72.8 308 
 BRR  HN ES       16 6 48.86                             151    0.0210 72.8 308 
 BRR  HN I        16 6 50.09        15.8 0.30            150           72.8 308 
 PTB  HZ EP       16 6 37.81                             132   -0.02 9  141 263 
 PTB  HN ES       16 6 58.03                             132   -0.07 9  141 263 
 PTB  HN I        16 7  4.13         8.3 0.38            130            141 263 
                                                                                
