 2011  612 1106 11.7 L   6.788 -73.102136.2  RSN  7 0.3 2.0LRSN                1
 GAP=184        0.62       5.0     7.6  6.6 -0.2245E+02  0.5152E+01 -0.7131E+01E
 Epicentro: LOS SANTOS - SANTANDER                                             3
 ACTION:UP  11-07-14 19:04 OP:ep   STATUS:               ID:20110612110611 L   I
 2011-06-12-1103-04S.COL___132                                                 6
 STAT SP IPHASW D HRMM SECON CODA AMPLIT PERI AZIMU VELO SNR AR TRES W  DIS CAZ7
 BTL  SZ EP   1   11 6 30.58                             170     0.4 7   23 308 
 BAR2 SZ EP   1   11 6 30.17                             170     0.0 7   23 202 
 BAR2 SZ ES   1   11 6 44.34                             170    -0.3 7   23 202 
 BAR2 SZ I        11 6 46.47        25.0 0.21                            23 202 
 BRR  HZ EP   1   11 6 32.14                             149     0.0 7   76 298 
 BRR  HE ES   2   11 6 48.46                             149     0.4 5   76 298 
 BRR  HZ I        11 6 53.26        26.6 0.15                            76 298 
 BRI  SZ EP   1   11 6 34.82                             139     0.1 7  108  18 
 BRI  SZ ES   2   11 6 52.09                             139    -0.5 5  108  18 
 BRI  SZ I        11 6 54.87        13.7 0.34                           108  18 
 GRA  SZ EP   1   11 6 36.06                             135    -0.1 7  126  15 
 GRA  SZ ES   1   11 6 55.57                             135     0.4 7  126  15 
 GRA  SZ I        11 6 57.58        11.7 0.26                           126  15 
 OCA  SZ EP   1   11 6 39.20                             127    -0.3 7  162 352 
 OCA  SZ ES   2   11 7  0.71                             127    -0.5 5  162 352 
 OCA  SZ I        11 7  4.80        12.7 0.40                           162 352 
 NOR  SN ES   2   11 7 14.95                             116     0.0 4  238 235 
                                                                                
