 2013  412 1140 26.9 L   6.750 -73.122138.0  RSN  5 0.2 1.4LRSN                1
 GAP=190        0.51       3.3     4.2  5.0  0.4684E+01  0.8866E+00  0.6249E+00E
 Epicentro: LOS SANTOS - SANTANDER                                             3
 ACTION:UPD 13-05-22 14:37 OP:EP   STATUS:               ID:20130412114026 L   I
 2013-04-12-1140-00M.COL___245                                                 6
 STAT SP IPHASW D HRMM SECON CODA AMPLIT PERI AZIMU VELO AIN AR TRES W  DIS CAZ7
 BAR2 SZ EP       1140 45.46                             172   -0.0610 18.7 201 
 GIR2 SZ EP       1140 45.57                             164   -0.2810 37.2 348 
 GIR2 SZ ES   1   1141  0.78                             164    0.17 7 37.2 348 
 BRR  HZ EP       1140 47.55                             149    0.0210 76.2 301 
 BRR  HN ES   1   1141  3.77                             149    0.16 7 76.2 301 
 BRR  HZ I        1141  5.05         8.5 0.24            150           76.2 301 
 RUS  HZ EP       1140 49.85                             144    0.3610 94.9 177 
 RUS  HN ES       1141  6.94                             144   -0.1610 94.9 177 
 RUS  HZ I        1141  8.92         3.1 0.32            144           94.9 177 
 PTB  HZ EP   1   1140 53.36                             130   -0.05 7  149 261 
 PTB  HE ES   1   1141 14.02                             130   -0.06 7  149 261 
 PTB  HZ I        1141 15.58         2.8 0.15            130            149 261 
                                                                                
