 2015  612 1405 35.5 L   6.812 -73.118147.4  RSN 20 0.5 2.5LRSN                1
 GAP=121        1.11       2.6     3.8  5.4 -0.2850E+01  0.4090E+01  0.2247E+01E
 Epicentro: LOS SANTOS - SANTANDER                                             3
 ACTION:UPD 15-09-10 22:11 OP:cam  STATUS:               ID:20150612140535 L   I
 OLDACT:REG 15-06-12 23:48 OP:stll STATUS:               ID:20150612135748     3
 2015-06-12-1357-48M.COL___302                                                 6
 STAT SP IPHASW D HRMM SECON CODA AMPLIT PERI AZIMU VELO AIN AR TRES W  DIS CAZ7
 BRR  HZ IP     D 14 5 57.46                             152    0.4710 73.3 296 
 BRR  HZ I        14 5 57.68        46.7 0.28            151           73.3 296 
 BRR  HN ES       14 6 14.58                             152    0.8710 73.3 296 
 PAM  SZ EP       14 5 58.09                             152    0.3310 74.4  38 
 PAM  SN ES       14 6 15.27                             152    0.1810 74.4  38 
 PAM  SZ I        14 6 17.65        52.7 0.50            156           74.4  38 
 RUS  HZ EP       14 5 59.29                             144   -0.2510  102 178 
 RUS  HZ I        14 6  0.46        19.9 0.44            146            102 178 
 RUS  HE ES       14 6 17.63                             144   -0.6310  102 178 
 OCA  HZ EP       14 6  4.26                             130    0.37 9  159 352 
 OCA  HN ES       14 6 25.75                             130   -0.26 9  159 352 
 OCA  HZ I        14 6 31.39        62.6 0.20            133            159 352 
 SPBC HZ EP       14 6  4.57                             129    0.12 9  166 220 
 SPBC HE ES       14 6 26.77                             129   -0.22 9  166 220 
 SPBC HZ I        14 6 33.55        80.3 0.34            130            166 220 
 ZAR  HZ EP       14 6  7.27                             122   -1.06 8  206 291 
 ZAR  HE ES       14 6 33.21                             122   -0.70 8  206 291 
 ZAR  HZ I        14 6 40.09        57.2 0.56            124            206 291 
 NOR  HZ EP       14 6 11.38                             118   -0.33 8  238 235 
 NOR  HN ES       14 6 39.75                             118   -0.18 8  238 235 
 NOR  HZ I        14 6 43.13        27.5 0.18            120            238 235 
 SML  HZ EP       14 6 12.40                             118    0.13 8  244 335 
 SML  HN ES       14 6 40.70                             118   -0.21 8  244 335 
 SML  HZ I        14 6 45.31        34.6 0.38            120            244 335 
 CHI  HZ EP       14 6 13.40                             117   -0.16 8  251 196 
 CHI  HE ES       14 6 43.01                             117   -0.20 8  251 196 
 CHI  HZ I        14 6 46.88        14.2 0.42            119            251 196 
 HEL  HZ EP       14 6 17.58                             115    1.38 7  275 256 
 HEL  HN ES       14 6 48.10                             115    0.19 7  275 256 
 HEL  HZ I        14 6 54.21        23.5 0.32            116            275 256 
 SOCV BZ EP       14 6 18.05                             113   -0.25 7  298  57 
 SOCV BN ES   4   14 6 49.46                             113   -2.19 0  298  57 
 GUY2CHZ EP       14 6 19.51                             112   -0.08 7  304 235 
 GUY2CHN ES       14 6 54.21                             112    0.26 7  304 235 
 GUY2CHZ I        14 7  2.66        22.5 0.66                           304 235 
 RREF HZ EP       14 6 22.56                             111    0.44 7  325 230 
 RREF HE ES       14 6 58.41                             111   -0.03 7  325 230 
 RREF HZ I        14 7  5.28        10.4 0.28            112            325 230 
 CBOC HZ EP       14 6 23.02                             110    0.12 7  337 252 
 CBOC HZ I        14 6 24.27         8.7 0.36            111            337 252 
 CBOC HN ES   4   14 6 59.58                             110   -0.26 0  337 252 
 TOL  SZ EP       14 6 24.87                             109    0.65 6  347 225 
 TOL  SE ES       14 7  2.04                             109   -0.14 6  347 225 
 TOL  SZ I        14 7  8.99        13.7 0.44            111            347 225 
 MON  HZ EP   9   14 6 22.69                             109   -2.10 0  355 308 
 MON  HN ES       14 7  0.23                                   -0.87 6  355 308 
 MON  HZ I        14 7  3.84         6.9 0.34            110            355 308 
 ANIL HE ES       14 7  4.84                             109   -0.10 6  360 225 
 PRA  HZ EP       14 6 29.96                             107    0.53 6  395 210 
 PRA  HN ES       14 7 11.07                             107   -0.39 6  395 210 
 PRA  HZ I        14 7 17.25        13.5 0.38            108            395 210 
 ORTC HZ EP       14 6 29.84                             106   -0.01 6  398 216 
 ORTC HN ES       14 7 12.23                             106    0.02 6  398 216 
 ORTC HZ I        14 7 17.15        10.4 0.38            108            398 216 
 SJC  HZ EP       14 6 29.85                             106   -1.37 6  410 326 
 SJC  HN ES   4   14 7  9.13                             106   -5.52 0  410 326 
 SJC  HZ I        14 7 15.08         4.2 0.36            108            410 326 
                                                                                
