 2011  812 1637 29.8 L   6.779 -73.115144.7  RSN  5 0.3 1.9LRSN                1
 GAP=239        0.68       4.9     6.3  6.2  0.5981E+01  0.9904E+01  0.7433E+01E
 Epicentro: LOS SANTOS - SANTANDER                                             3
 ACTION:UPD 12-07-13 15:51 OP:ep   STATUS:               ID:20110812163729 L   I
 2011-08-12-1632-01S.COL___150                                                 6
 STAT SP IPHASW D HRMM SECON CODA AMPLIT PERI AZIMU VELO AIN AR TRES W  DIS CAZ7
 BAR2 SZ EP       1637 49.09                             171   -0.2110 22.0 200 
 BAR2 SZ ES   1   1638  4.00                             171   -0.49 7 22.0 200 
 BAR2 SZ I        1638  5.74        25.6 0.16                          22.0 200 
 BRR  HZ EP       1637 51.09                             151    0.0010 75.3 299 
 BRR  HN ES   1   1638  8.18                             151    0.50 7 75.3 299 
 BRR  HZ I        1638 11.81        21.5 0.26                          75.3 299 
 RUS  HZ EP       1637 53.24                             144   -0.0510 98.1 178 
 RUS  HE ES   1   1638 12.07                             144    0.47 7 98.1 178 
 RUS  HZ I        1638 13.58        13.1 0.46                          98.1 178 
 NOR  SZ EP       1638  5.79                             118    0.15 8  236 235 
 NOR  SN ES   1   1638 33.03                             118   -0.55 6  236 235 
 CHI  HZ EP   2   1638  7.48                             117    0.17 4  247 196 
 CHI  HZ I        1638  9.41         4.0 0.28                           247 196 
 CHI  HN ES   2   1638 36.97                             117    0.41 4  247 196 
                                                                                
