 2012  712 1651 45.3 L   5.896 -73.676111.1  RSN  8 0.3 2.0LRSN                1
 GAP= 92        0.72       2.9     3.0  6.5 -0.2713E+00  0.6077E+01  0.1322E+01E
 Epicentro: PUENTE NACIONAL - SANTANDER                                        3
 ACTION:UPD 12-08-14 11:44 OP:ep   STATUS:               ID:20120712165145 L   I
 2012-07-12-1650-00M.COL___197                                                 6
 STAT SP IPHASW D HRMM SECON CODA AMPLIT PERI AZIMU VELO AIN AR TRES W  DIS CAZ7
 RUS  HZ EP       1652  3.15                             148     0.010   66  90 
 RUS  HZ I        1652  3.77        14.7 0.13            152             66  90 
 RUS  HN ES   1   1652 16.58                             148    -0.5 7   66  90 
 BAR2 SZ EP       1652  5.09                             137     0.110   94  35 
 BAR2 SZ ES       1652 20.62                             137     0.310   94  35 
 BAR2 SZ I        1652 21.99        68.5 0.33            141             94  35 
 PTB  HZ EP       1652  5.81                             131    -0.410  112 310 
 PTB  HN ES   1   1652 22.45                             131     0.0 7  112 310 
 PTB  HZ I        1652 25.45         7.6 0.12            134            112 310 
 BRR  HZ EP       1652  8.12                             126    -0.210  134 358 
 BRR  HZ I        1652  9.46        30.3 0.14            129            134 358 
 BRR  HE ES       1652 26.22                             126     0.010  134 358 
 NOR  SZ EP   1   1652  9.28                             125     0.6 7  137 255 
 NOR  SN ES   1   1652 27.11                             125     0.2 7  137 255 
 CHI  HZ EP   1   1652  9.34                             125    -0.1 7  140 183 
 CHI  HN ES   2   1652 28.29                             125     0.0 5  140 183 
 CHI  HZ I        1652 32.12         8.2 0.17            127            140 183 
 PAM  SZ EP   1   1652 15.40                             115     0.3 7  193  34 
 ZAR  HZ EP   1   1652 17.23                             112    -0.3 6  220 324 
 ZAR  HN ES   1   1652 42.52                             112    -0.1 6  220 324 
 ZAR  HZ I        1652 45.14         8.6 0.21            114            220 324 
