 2017  612 1218 48.7 L   6.810 -73.127141.0  RSN  5 0.4 1.7LRSN                1
 GAP=282        0.87       5.1     8.3  8.3 -0.8865E+01 -0.1847E+02  0.4587E+01E
 Epicentro: LOS SANTOS - SANTANDER                                             3
 ACTION:UPD 17-09-14 16:51 OP:jn   STATUS:               ID:20170612121848 L   I
 OLDACT:DUP 17-06-12 23:53 OP:ar   STATUS:               ID:20170612120744d    3
 2017-06-12-1208-00M.COL___347                                                 6
 STAT SP IPHASW D HRMM SECON CODA AMPLIT PERI AZIMU VELO AIN AR TRES W  DIS CAZ7
 BRR  HZ IP     D 1219  8.90                             151   -0.5210 72.5 297 
 BRR  HE ES       1219 25.92                             151    0.3510 72.5 297 
 BRR  HZ I        1219 28.75        12.2 0.30            147           72.5 297 
 PTB  HZ EP   9   1219 14.10                             130   -1.40 0  150 259 
 PTB  HN ES       1219 34.80                                   -0.20 9  150 259 
 PTB  HZ I        1219 39.60         4.0 0.16            129            150 259 
 SPBC HE ES       1219 39.08                             128   -0.08 9  165 219 
 ZAR  HZ EP       1219 21.64                             121    0.64 8  206 292 
 ZAR  HN ES       1219 45.79                             121   -0.40 8  206 292 
 ZAR  HZ I        1219 51.13         5.9 0.28            120            206 292 
 NOR  HZ EP   2   1219 24.39                             117   -0.03 4  237 235 
 NOR  HN ES       1219 52.37                             117    0.10 8  237 235 
                                                                                
