 2012  112 1945 15.2 L   6.787 -73.186140.9  RSN  6 0.3 1.2LRSN                1
 GAP=132        0.61       3.6     4.5  7.4 -0.5617E+01  0.6349E+01  0.3585E+01E
 Epicentro: LOS SANTOS - SANTANDER                                             3
 ACTION:UP  12-02-03 08:16 OP:REBC STATUS:               ID:20120112194515 L   I
 2012-01-12-1940-00M.COL___188                                                 6
 STAT SP IPHASW D HRMM SECON CODA AMPLIT PERI AZIMU VELO SNR AR TRES W  DIS CAZ7
 BAR2 SZ EP   1   1945 34.27                             171     0.0 7   22 179 
 BAR2 SZ I        1945 51.06        17.3 0.43                            22 179 
 GIR2 SZ EP   1   1945 34.45                             166     0.1 7   32 358 
 PAM  SZ EP       1945 37.20                             149     0.010   81  41 
 PAM  SN ES   1   1945 54.46                             149     0.2 7   81  41 
 PAM  SZ I        1945 56.42         9.0 0.12                            81  41 
 RUS  HZ EP   1   1945 38.13                             143    -0.3 7  100 173 
 RUS  HN ES   1   1945 56.19                             143    -0.3 7  100 173 
 RUS  HZ I        1945 58.24         6.0 0.15                           100 173 
 PTB  HZ EP   1   1945 41.17                             132    -0.2 7  143 259 
 PTB  HN ES   1   1946  1.82                             132     0.0 7  143 259 
 PTB  HZ I        1946  8.22         0.1 0.36                           143 259 
 CHI  HZ EP   1   1945 52.33                             116    -0.1 6  246 194 
 CHI  HN ES   1   1946 22.06                             116     0.7 6  246 194 
                                                                                
