 2015  912 1103 43.2 L   6.112 -73.381129.9  RSN  5 0.5 1.4LRSN                1
 GAP=214        1.13       8.1     9.2 11.5 -0.2058E+02  0.5410E+02 -0.1744E+02E
 Epicentro: SUAITA - SANTANDER                                                 3
 ACTION:UPD 15-10-28 16:25 OP:cam  STATUS:               ID:20150912110343 L   I
 OLDACT:DUP 15-09-12 23:20 OP:stll STATUS:               ID:20150912105749d    3
 2015-09-12-1057-48M.COL___323                                                 6
 STAT SP IPHASW D HRMM SECON CODA AMPLIT PERI AZIMU VELO AIN AR TRES W  DIS CAZ7
 BAR2 EZ ES       11 4 16.59                             155   -0.4310 57.5  23 
 BAR2 EZ I        11 4 18.37         5.2 0.28            154           57.5  23 
 SPBC HN ES   1   11 4 21.14                             143    0.60 7 91.8 236 
 BRR  HN ES       11 4 24.44                             135    0.6910  116 342 
 PTB  HZ EP       11 4  6.65                             132   -0.3910  128 292 
 PTB  HN ES       11 4 25.28                             132   -0.3910  128 292 
 PTB  HZ I        11 4 28.38         3.8 0.50            131            128 292 
 ZAR  HZ EP       11 4 17.18                             116    0.46 8  223 313 
 ZAR  HE ES       11 4 42.66                             116   -0.25 8  223 313 
 ZAR  HZ I        11 4 47.50         1.8 0.20            116            223 313 
                                                                                
