 2010  612 1646 47.9 L   6.789 -73.148147.8  RSN  7 0.3 1.8LRSN                1
 GAP=158        0.45       2.7    11.6  5.3 -0.1878E+02  0.1847E+02 -0.1660E+01E
 Epicentro: LOS SANTOS - SANTANDER                                             3
 ACTION:UP  10-08-24 10:10 OP:vdl  STATUS:               ID:20100612164647 L   I
 2010-06-12-1643-40S.COL___117                                                 6
 STAT SP IPHASW D HRMM SECON CODA AMPLIT PERI AZIMU VELO SNR AR TRES W  DIS CAZ7
 BAR2 SZ EP   1   1647  7.68                             171     0.0 7   22 190 
 BAR2 SZ ES   2   1647 22.87                             171    -0.3 5   22 190 
 RUS  HZ EP   1   1647 11.55                             145    -0.2 7   99 176 
 RUS  HN ES   2   1647 30.62                             145     0.3 5   99 176 
 RUS  HZ I        1647 32.75         6.2 0.55                            99 176 
 BRI  SZ EP   1   1647 12.21                             141     0.2 7  110  21 
 BRI  SZ ES   2   1647 31.36                             141     0.4 5  110  21 
 GUE  SZ EP   1   1647 12.67                             139    -0.2 7  118  12 
 GUE  SZ ES   2   1647 32.66                             139     0.3 5  118  12 
 GRA  SZ EP   1   1647 13.49                             137     0.1 7  127  17 
 GRA  SZ ES   2   1647 32.71                             137    -0.6 5  127  17 
 OCA  SZ EP   1   1647 16.40                             130    -0.1 7  161 353 
 OCA  SZ ES   2   1647 38.93                             130     0.2 5  161 353 
 CHI  HZ EP   1   1647 25.63                             118     0.1 6  247 195 
 CHI  HE ES   2   1647 55.18                             118     0.3 4  247 195 
 CHI  HZ I        1647 58.53         6.8 0.48                           247 195 
                                                                                
