 2013  312 1358 23.7 L   6.749 -73.141142.2  RSN  6 0.4 1.9LRSN                1
 GAP=139        0.92       5.4     4.7  6.8 -0.3550E-01  0.7126E+01 -0.9249E+00E
 Epicentro: LOS SANTOS - SANTANDER                                             3
 ACTION:UPD 13-04-09 14:01 OP:ep   STATUS:               ID:20130312135823 L   I
 2013-03-12-1350-00M.COL___231                                                 6
 STAT SP IPHASW D HRMM SECON CODA AMPLIT PERI AZIMU VELO AIN AR TRES W  DIS CAZ7
 BAR2 SZ EP       1358 42.99                             172    0.1610 17.9 195 
 BAR2 SZ ES       1358 57.51                             172   -0.2210 17.9 195 
 BAR2 SZ I        1358 59.17        25.1 0.19            171           17.9 195 
 BRR  HZ EP       1358 45.03                             151    0.3510 74.5 302 
 BRR  HE ES       1359  1.67                             151    0.6410 74.5 302 
 BRR  HE I        1359  5.98        21.5 0.19            149           74.5 302 
 PAM  SZ EP       1358 45.89                             149    0.0710 81.5  37 
 PAM  SZ I        1358 46.18        17.5 0.24            152           81.5  37 
 PAM  SN ES       1359  2.59                             149   -0.4610 81.5  37 
 RUS  HZ EP   1   1358 46.81                             145    0.09 7 94.9 176 
 RUS  HE ES   1   1359  4.93                             145    0.27 7 94.9 176 
 RUS  HE I        1359  6.57        12.3 0.17            148           94.9 176 
 PTB  HZ EP   1   1358 49.77                             131   -0.59 7  147 261 
 PTB  HE ES   1   1359 10.39                             131   -0.75 7  147 261 
 PTB  HZ I        1359 14.09         6.8 0.18            131            147 261 
 ZAR  HZ EP   1   1358 55.87                             121   -0.35 6  207 294 
 ZAR  HN ES   1   1359 21.74                             121    0.18 6  207 294 
 ZAR  HZ I        1359 28.06         5.7 0.49            122            207 294 
                                                                                
