 2011  112 1055 34.3 L   6.787 -72.950136.0  RSN  4 0.3 1.6LRSN                1
 GAP=181        0.61       5.3    23.0 10.4 -0.6112E+02 -0.1454E+03  0.1227E+02E
 Epicentro: CEPITA - SANTANDER                                                 3
 ACTION:UP  11-02-08 08:40 OP:pat  STATUS:               ID:20110112105534 L   I
 2011-01-12-1040-00M.COL___136                                                 6
 STAT SP IPHASW D HRMM SECON CODA AMPLIT PERI AZIMU VELO SNR AR TRES W  DIS CAZ7
 BAR2 SZ EP   1   1055 52.86                             166    -0.2 7   34 230 
 BAR2 SZ ES   2   1056  7.34                             166    -0.3 5   34 230 
 BAR2 SZ I        1056  8.65        14.1 0.29                            34 230 
 BTL  SZ EP   1   1055 52.89                             164    -0.3 7   38 293 
 BTL  SZ ES   2   1056  8.55                             164     0.6 5   38 293 
 RUS  HZ EP   1   1055 57.27                             142     0.2 7  100 188 
 RUS  HN ES   2   1056 14.90                             142     0.1 5  100 188 
 RUS  HZ I        1056 17.28         6.0 0.33                           100 188 
 GRA  SZ EP   1   1055 58.69                             135     0.3 7  122   8 
 GRA  SZ ES   2   1056 17.03                             135    -0.2 5  122   8 
 GRA  SZ I        1056 20.73         3.5 0.33                           122   8 
                                                                                
