 2010  112 1634 54.9 L   6.584 -72.852112.5  RSN  4 0.2 1.4LRSN                1
 GAP=233        0.44       4.0    23.7  7.2  0.1930E+02 -0.9650E+02  0.4885E+01E
 Epicentro: MOLAGAVITA - SANTANDER                                             3
 ACTION:UP  10-08-24 09:43 OP:vdl  STATUS:               ID:20100112163454 L   I
 2010-01-12-1632-34S.COL___097                                                 6
 STAT SP IPHASW D HRMM SECON CODA AMPLIT PERI AZIMU VELO SNR AR TRES W  DIS CAZ7
 BAR2 SZ EP   1   1635 11.16                             161     0.2 7   37 271 
 BAR2 SZ ES   2   1635 23.13                             161    -0.4 5   37 271 
 GIR2 SZ EP   1   1635 12.30                             147    -0.1 7   66 325 
 GIR2 SZ ES   2   1635 26.33                             147     0.2 5   66 325 
 RUS  BZ EP   1   1635 13.79                             142    -0.1 7   81 198 
 RUS  BN ES   2   1635 28.97                             142     0.2 5   81 198 
 RUS  BZ I        1635 31.57         3.7 0.36                            81 198 
 CHI  HZ EP   1   1635 29.65                             110     0.0 6  237 204 
 CHI  HZ I        1635 57.23         3.8 0.36                           237 204 
                                                                                
