 2014 1112 1753 50.6 L   6.740 -73.169138.8  RSN  4 0.4 1.1LRSN                1
 GAP=230        0.95       7.3     7.0  7.7  0.2576E+02  0.6944E+01  0.2463E+01E
 Epicentro: LOS SANTOS - SANTANDER                                             3
 ACTION:UPD 14-12-19 15:42 OP:nd   STATUS:               ID:20141112175350 L   I
 OLDACT:UP  14-11-12 23:52 OP:cam  STATUS:               ID:20141112174819     3
 OLDACT:REG 14-11-12 22:08 OP:cam  STATUS:               ID:20141112174819     3
 2014-11-12-1748-19M.COL___289                                                 6
 STAT SP IPHASW D HRMM SECON CODA AMPLIT PERI AZIMU VELO AIN AR TRES W  DIS CAZ7
 BAR2 SZ EP       1754  9.28                             173    0.0510 16.4 185 
 BAR2 SZ ES       1754 23.17                             173   -0.6310 16.4 185 
 BAR2 SZ I        1754 25.58         4.7 0.20            165           16.4 185 
 BRR  HZ EP       1754 10.90                             151   -0.1410 72.5 304 
 BRR  HN ES       1754 27.57                             151    0.5610 72.5 304 
 RUS  HZ EP       1754 13.50                             144    0.3310 94.2 174 
 RUS  HE ES       1754 31.01                             144    0.2110 94.2 174 
 RUS  HZ I        1754 34.11         1.9 0.38            141           94.2 174 
 PTB  HZ EP       1754 16.23                             131   -0.40 9  144 261 
 PTB  HN ES       1754 36.95                             131   -0.02 9  144 261 
 PTB  HZ I        1754 42.30         1.7 0.20            129            144 261 
                                                                                
