 2017 1212 1659 34.8 L   6.800 -73.192140.1  RSN  6 0.6 1.9LRSN                1
 GAP=144        0.97       8.1     7.1  7.6 -0.4044E+02  0.1546E+02 -0.1492E+01E
 Epicentro: ZAPATOCA - SANTANDER                                               3
 ACTION:UPD 18-01-04 13:19 OP:rebc STATUS:               ID:20171212165934 L   I
 OLDACT:DUP 17-12-13 00:03 OP:osc  STATUS:               ID:20171212165743d    3
 2017-12-12-1658-00M.COL___467                                                 6
 STAT SP IPHASW D HRMM SECON CODA AMPLIT PERI AZIMU VELO AIN AR TRES W  DIS CAZ7
 BAR2 EZ EP       1659 53.41                             170   -0.3010 23.0 177 
 BAR2 EZ ES       17 0  8.96                             170    0.4710 23.0 177 
 BAR2 EZ I        17 0 10.19        15.6 0.24            172           23.0 177 
 PAM  EZ EP       1659 56.67                             149    0.0810 80.7  42 
 PAM  EN ES       17 0 13.67                             149    0.0610 80.7  42 
 PAM  EZ I        17 0 16.04        10.5 0.42            152           80.7  42 
 PTB  HZ EP       17 0  0.95                             132    0.13 9  143 258 
 PTB  HN ES       17 0 20.64                             132   -0.50 9  143 258 
 PTB  HZ I        17 0 22.16         6.1 0.12            132            143 258 
 SPBC HZ EP       17 0  2.35                             128   -0.18 9  160 218 
 SPBC HE ES       17 0 23.88                             128   -0.32 9  160 218 
 SPBC HZ I        17 0 31.12        10.5 0.40            130            160 218 
 ZAR  HZ EP   4   17 0  7.09                             122    0.74 0  199 293 
 ZAR  HN ES   4   17 0 26.01                             122   -4.99 0  199 293 
 ZAR  HZ I        17 0 38.15        10.6 0.36            122            199 293 
 GUY2CHZ EP       17 0 18.24                             111    0.59 7  297 234 
 GUY2CHE ES   3   17 0 54.81                             111    3.71 2  297 234 
 GUY2CHZ I        17 1  2.70         3.9 0.52                           297 234 
                                                                                
