 2014 1212 1106 29.4 L   6.819 -73.167142.4  RSN  5 0.3 1.5LRSN                1
 GAP=181        0.89       4.2     5.2  7.7  0.5668E+01  0.1166E+02 -0.5127E+01E
 Epicentro: LOS SANTOS - SANTANDER                                             3
 ACTION:UPD 15-02-10 17:03 OP:nd   STATUS:               ID:20141212110629 L   I
 OLDACT:REG 14-12-12 20:21 OP:stll STATUS:               ID:20141212105745     3
 2014-12-12-1057-45M.COL___284                                                 6
 STAT SP IPHASW D HRMM SECON CODA AMPLIT PERI AZIMU VELO AIN AR TRES W  DIS CAZ7
 BAR2 EZ EP       11 6 49.17                             170    0.4610 25.2 184 
 BAR2 EZ ES       11 7  4.17                             170    0.4410 25.2 184 
 BAR2 EZ I        11 7  5.45        18.5 0.20            166           25.2 184 
 RUS  HZ EP       11 6 53.05                             142    0.0110  103 175 
 RUS  HN ES       11 7 10.86                             142   -0.5710  103 175 
 RUS  HZ I        11 7 12.83         4.5 0.40            141            103 175 
 PTB  HZ EP       11 6 55.73                             132   -0.24 9  146 258 
 PTB  HN ES       11 7 16.66                             132    0.01 9  146 258 
 PTB  HZ I        11 7 24.11         5.6 0.48            128            146 258 
 OCA  HE ES       11 7 18.58                             129   -0.39 9  158 354 
 ZAR  HZ EP       11 7  1.68                             122    0.31 9  201 292 
 ZAR  HZ I        11 7 10.06         1.5 0.36            120            201 292 
 ZAR  HN ES       11 7 26.20                             122   -0.06 9  201 292 
                                                                                
