 2010  812 1848  2.6 L   6.796 -73.162140.4  RSN  5 0.3 1.5LRSN                1
 GAP=157        0.69       5.5    20.8  7.4 -0.6273E+02 -0.7359E+02  0.9117E+01E
 Epicentro: LOS SANTOS - SANTANDER                                             3
 ACTION:UP  10-09-07 10:54 OP:vdl  STATUS:               ID:20100812184802 L   I
 2010-08-12-1845-04S.COL___126                                                 6
 STAT SP IPHASW D HRMM SECON CODA AMPLIT PERI AZIMU VELO SNR AR TRES W  DIS CAZ7
 BTL  SZ EP   1   1848 21.92                             174     0.4 7   18 319 
 BTL  SZ ES       1848 36.38                             174     0.110   18 319 
 BAR2 SZ EP   1   1848 20.98                             170    -0.6 7   23 186 
 BAR2 SZ ES   1   1848 36.12                             170    -0.3 7   23 186 
 BAR2 SZ I        1848 38.42        10.4 0.30                            23 186 
 GIR2 SZ EP   2   1848 21.26                             167    -0.4 5   31 354 
 RUS  HZ EP   1   1848 26.06                             143     0.2 7  100 175 
 RUS  HN ES   2   1848 44.20                             143     0.3 5  100 175 
 RUS  HZ I        1848 45.59         4.3 0.39                           100 175 
 GRA  SZ EP   1   1848 27.50                             136     0.0 7  127  18 
 GRA  SZ ES   1   1848 46.87                             136     0.0 7  127  18 
                                                                                
