 2011  712 1357 57.0 L   7.460 -73.173133.2  RSN  6 0.5 1.9LRSN                1
 GAP=164        0.93       7.9    10.2  8.6 -0.4884E+02  0.6188E+01  0.1590E+02E
 Epicentro: EL PLAYON - SANTANDER                                              3
 ACTION:UPD 12-07-25 14:00 OP:epov STATUS:               ID:20110712135757 L   I
 2011-07-12-1352-27S.COL___143                                                 6
 STAT SP IPHASW D HRMM SECON CODA AMPLIT PERI AZIMU VELO AIN AR TRES W  DIS CAZ7
 BRI  SZ EP   1   1358 16.72                             158    0.81 7 50.3  56 
 BRI  SZ ES   1   1358 31.18                             158    0.50 7 50.3  56 
 BRI  SZ I        1358 35.48        18.0 0.18                          50.3  56 
 GRA  SZ EP   1   1358 15.80                             154   -0.67 7 62.2  41 
 GRA  SZ ES   1   1358 31.02                             154   -0.67 7 62.2  41 
 GRA  SZ I        1358 32.34        52.5 0.26                          62.2  41 
 BRR  HZ EP   1   1358 17.02                             150    0.26 7 71.1 237 
 BRR  HN ES   1   1358 32.30                             150    0.11 7 71.1 237 
 BRR  HZ I        1358 32.80         9.2 0.13                          71.1 237 
 BAR2 SZ EP   1   1358 18.83                             142    0.04 7 96.0 181 
 BAR2 SZ ES   1   1358 35.54                             142   -0.27 7 96.0 181 
 BAR2 SZ I        1358 36.51        14.6 0.13                          96.0 181 
 RUS  HZ EP   1   1358 26.26                             124    0.17 7  174 177 
 NOR  SZ EP   1   1358 36.76                             111   -0.45 6  281 222 
                                                                                
