 2016  812 1052 45.1 L   6.800 -73.169148.9  RSN 11 0.4 1.7LRSN                1
 GAP=134        0.96       3.6     3.8  5.5 -0.2222E+01  0.6105E+01  0.3351E+01E
 Epicentro: LOS SANTOS - SANTANDER                                             3
 ACTION:UPD 16-10-29 15:34 OP:rebc STATUS:               ID:20160812105245 L   I
 OLDACT:REG 16-08-12 19:35 OP:lv   STATUS:               ID:20160812104759     3
 2016-08-12-1047-59S.COL___346                                                 6
 STAT SP IPHASW D HRMM SECON CODA AMPLIT PERI AZIMU VELO AIN AR TRES W  DIS CAZ7
 BAR2 EZ EP       1053  4.86                             171   -0.2110 23.0 184 
 BAR2 EZ ES       1053 20.10                             171   -0.5710 23.0 184 
 BAR2 EZ I        1053 21.55        16.2 0.14                          23.0 184 
 BRR  HZ EP       1053  6.71                             154    0.2810 69.0 300 
 BRR  HN ES       1053 23.82                             154    0.7210 69.0 300 
 BRR  HZ I        1053 27.72         8.6 0.22                          69.0 300 
 PAM  EZ EP       1053  7.93                             151    0.2110 79.1  41 
 PAM  EN ES       1053 25.09                             151   -0.3010 79.1  41 
 PAM  EZ I        1053 27.07        15.8 0.52                          79.1  41 
 RUS  HZ EP       1053  9.39                             144    0.2510  101 175 
 RUS  HE ES       1053 28.26                             144    0.3410  101 175 
 RUS  HZ I        1053 28.79         3.8 0.26                           101 175 
 PTB  HZ EP       1053 11.70                             133   -0.37 9  145 259 
 PTB  HN ES       1053 32.56                             133   -0.57 9  145 259 
 PTB  HZ I        1053 39.30         4.0 0.18                           145 259 
 SPBC HZ EP       1053 13.87                             130    0.21 9  162 218 
 SPBC HE ES       1053 35.97                             130    0.01 9  162 218 
 SPBC HZ I        1053 40.56         7.2 0.14                           162 218 
 ZAR  HZ EP       1053 17.28                             123   -0.20 9  202 292 
 ZAR  HE ES       1053 42.89                             123    0.13 9  202 292 
 ZAR  HZ I        1053 49.88         3.6 0.11                           202 292 
 NOR  HZ EP       1053 20.15                             119   -0.61 8  233 234 
 NOR  HE ES       1053 49.10                             119    0.51 8  233 234 
 NOR  HZ I        1053 56.79         3.3 0.14                           233 234 
 GUY2CHZ EP   4   1053 31.84                             113    3.26 0  299 234 
 GUY2CHE ES       1054  2.61                             113    0.08 7  299 234 
 GUY2CHZ I        1054 11.35         1.9 0.31                           299 234 
 PRA  HZ EP       1053 38.98                             107    0.43 6  391 209 
 PRA  HE ES       1054 19.79                             107   -0.47 6  391 209 
 PRA  HZ I        1054 23.78         1.9 0.30                           391 209 
 SJC  HZ EP   4   1053 39.04                             106   -1.53 0  408 327 
 SJC  HE ES   4   1054 18.35                             106   -5.51 0  408 327 
 SJC  HZ I        1054 26.51         1.3 0.32                           408 327 
                                                                                
