 2011  912 1519  5.3 L   6.803 -72.994130.5  RSN  4 0.3 1.6LRSN                1
 GAP=222        0.56       8.3    14.8  8.5  0.1013E+03 -0.6993E+02 -0.3567E+02E
 Epicentro: CEPITA - SANTANDER                                                 3
 ACTION:UPD 12-07-13 15:57 OP:ep   STATUS:               ID:20110912151905 L   I
 2011-09-12-1516-44S.COL___169                                                 6
 STAT SP IPHASW D HRMM SECON CODA AMPLIT PERI AZIMU VELO AIN AR TRES W  DIS CAZ7
 BAR2 SZ EP   1   1519 23.34                             165    0.07 7 31.3 222 
 BAR2 SZ ES   1   1519 37.02                             165   -0.30 7 31.3 222 
 BAR2 SZ I        1519 39.99         9.1 0.23                          31.3 222 
 GIR2 SZ EP   2   1519 23.77                             163    0.43 5 37.6 324 
 BRR  HZ EP   1   1519 25.34                             144   -0.44 7 86.2 293 
 BRR  HN ES   1   1519 42.07                             144    0.29 7 86.2 293 
 BRR  HZ I        1519 47.01        15.2 0.16                          86.2 293 
 RUS  HZ EP   1   1519 27.71                             140    0.11 7  101 186 
 RUS  HN ES   1   1519 45.09                             140    0.08 7  101 186 
 RUS  HZ I        1519 47.01         4.8 0.34                           101 186 
                                                                                
