 2011  112 1523 27.6 L   6.750 -73.065140.7  RSN 10 0.5 2.5LRSN                1
 GAP=168        0.94       6.9     9.3  8.4 -0.2588E+02  0.2628E+02  0.8362E+01E
 Epicentro: LOS SANTOS - SANTANDER                                             3
 ACTION:UP  11-02-08 08:40 OP:pat  STATUS:               ID:20110112152327 L   I
 2011-01-12-1520-00M.COL___136                                                 6
 STAT SP IPHASW D HRMM SECON CODA AMPLIT PERI AZIMU VELO SNR AR TRES W  DIS CAZ7
 BAR2 SZ IP       1523 46.48                             171    -0.110   22 217 
 BAR2 SZ ES   2   1524  0.86                             171    -0.5 5   22 217 
 BAR2 SZ I        1524  2.08       105.1 0.33                            22 217 
 BTL  SZ EP   1   1523 47.51                             168     0.8 7   29 310 
 BTL  SZ ES   2   1524  2.44                             168     0.8 5   29 310 
 GIR2 SZ EP   1   1523 46.52                             164    -0.3 7   39 339 
 GIR2 SZ ES   2   1524  1.68                             164    -0.3 5   39 339 
 RUS  HZ EP   1   1523 50.50                             144     0.1 7   95 181 
 RUS  HE ES   2   1524  8.33                             144     0.1 5   95 181 
 RUS  HZ I        1524 10.67        48.1 0.29                            95 181 
 GRA  SZ EP   1   1523 52.28                             135    -0.3 7  129  13 
 GRA  SZ ES   2   1524 11.90                             135    -0.3 5  129  13 
 GRA  SZ I        1524 12.96        44.5 0.31                           129  13 
 NOR  SZ EP   1   1524  2.79                             117    -0.7 6  239 237 
 NOR  SE ES   2   1524 30.64                             117    -0.8 4  239 237 
 HEL  HZ EP   1   1524  8.40                             113     0.1 6  279 257 
 HEL  HN ES   2   1524 39.96                             113    -0.2 4  279 257 
 HEL  HZ I        1524 45.54        21.1 0.31                           279 257 
 GUY  SZ EP   1   1524 12.24                             111     0.8 5  306 237 
 RREF HZ EP   1   1524 14.82                             110     1.0 5  325 231 
 RREF HZ I        1524 55.04        13.4 0.34                           325 231 
 SJA  SZ EP   1   1524 20.82                             105    -0.7 4  397 194 
                                                                                
