 2015 1112 1517 13.7 L   6.139 -73.474129.2  RSN  4 0.3 1.4LRSN                1
 GAP=125        0.77       3.6     6.7 10.1  0.6627E+01  0.4335E+02  0.6028E+01E
 Epicentro: SAN BENITO - SANTANDER                                             3
 ACTION:UPD 15-12-28 16:10 OP:cam  STATUS:               ID:20151112151713 L   I
 OLDACT:DUP 15-11-12 23:33 OP:cara STATUS:               ID:20151112150750d    3
 OLDACT:REG 15-11-12 20:36 OP:cara STATUS:               ID:20151112150749     3
 2015-11-12-1507-49M.COL___322                                                 6
 STAT SP IPHASW D HRMM SECON CODA AMPLIT PERI AZIMU VELO AIN AR TRES W  DIS CAZ7
 RUS  HZ EP       1517 32.21                             157   -0.4910 51.1 122 
 RUS  HN ES       1517 47.63                             157    0.1110 51.1 122 
 RUS  HZ I        1517 48.76         3.5 0.22            159           51.1 122 
 BAR2 EZ IP     D 1517 33.22                             154    0.4710 59.6  33 
 BAR2 EZ ES       1517 47.50                             154   -0.1210 59.6  33 
 BAR2 EZ I        1517 48.78        11.5 0.38            155           59.6  33 
 CHI  HN ES       1518  4.22                             124    0.09 9  169 190 
 ZAR  HN ES       1518 11.48                             117   -0.06 8  214 314 
                                                                                
