 2013  212 1800 18.5 L   6.734 -73.119146.7  RSN  7 0.3 1.4LRSN                1
 GAP=143        0.70       3.5     3.2  6.1 -0.9168E+00  0.3148E+01  0.2706E+01E
 Epicentro: JORDAN - SANTANDER                                                 3
 ACTION:UPD 13-03-12 09:32 OP:ep   STATUS:               ID:20130212180018 L   I
 2013-02-12-1800-00M.COL___240                                                 6
 STAT SP IPHASW D HRMM SECON CODA AMPLIT PERI AZIMU VELO AIN AR TRES W  DIS CAZ7
 BAR2 SZ EP       18 0 38.13                             173    0.0310 17.2 204 
 BAR2 SZ I        18 0 57.36         6.9 0.06            151           17.2 204 
 BRR  HZ EP       18 0 40.19                             151    0.1110 77.4 302 
 BRR  HN ES       18 0 57.12                             151    0.1910 77.4 302 
 PAM  SZ IP     D 18 0 41.25                             150    0.2210 81.4  35 
 PAM  SN ES       18 0 58.18                             150   -0.4510 81.4  35 
 PAM  SZ I        18 1  0.59         8.4 0.40            156           81.4  35 
 RUS  HZ EP       18 0 42.06                             146    0.2710 93.2 178 
 RUS  HN ES       18 1  0.02                             146    0.0310 93.2 178 
 RUS  HZ I        18 1 29.70         0.8 0.45            133           93.2 178 
 PTB  HZ EP       18 0 45.27                             132   -0.39 9  149 262 
 PTB  HN ES       18 1  7.08                             132    0.21 9  149 262 
 PTB  HN I        18 1 12.77         9.2 0.28            135            149 262 
 ZAR  HN ES   1   18 1 17.34                             122    0.00 6  210 294 
 NOR  HN ES   1   18 1 21.16                             119   -0.67 6  233 236 
                                                                                
