 2017 1012 1333  6.7 L   6.813 -73.146146.0  RSN  4 0.3 1.4LRSN                1
 GAP=244        0.67       7.0     5.2  6.4  0.2400E+02  0.2783E+01 -0.8306E+01E
 Epicentro: LOS SANTOS - SANTANDER                                             3
 ACTION:UPD 17-11-07 19:31 OP:rebc STATUS:               ID:20171012133306 L   I
 OLDACT:REG 17-10-12 20:11 OP:lv   STATUS:               ID:20171012132523     3
 2017-10-12-1328-00M.COL___435                                                 6
 STAT SP IPHASW D HRMM SECON CODA AMPLIT PERI AZIMU VELO AIN AR TRES W  DIS CAZ7
 BAR2 EZ EP       1333 26.42                             170    0.0210 24.7 189 
 BAR2 EZ ES       1333 41.53                             170   -0.2310 24.7 189 
 BAR2 EZ I        1333 42.76         7.9 0.34            168           24.7 189 
 RUS  HZ EP       1333 30.76                             143    0.1710  102 176 
 RUS  HN ES       1333 49.44                             143    0.2310  102 176 
 RUS  HZ I        1333 50.40         2.8 0.28            143            102 176 
 PTB  HZ EP       1333 33.30                             132   -0.42 9  148 258 
 PTB  HN ES       1333 54.66                             132   -0.12 9  148 258 
 PTB  HZ I        1333 56.18         2.3 0.14            132            148 258 
 ZAR  HN ES       1334  4.77                             122    0.39 9  203 292 
                                                                                
