 2013  712 1602 37.5 L   6.800 -73.123145.5  RSN 10 0.4 2.6LRSN                1
 GAP= 72        1.10       3.7     4.4  6.8 -0.1159E+01 -0.4768E-01 -0.1414E+01E
 Epicentro: LOS SANTOS - SANTANDER                                             3
 ACTION:UPD 13-08-12 10:37 OP:ep   STATUS:               ID:20130712160237 L   I
 OLDACT:UP  13-07-14 23:05 OP:Juan STATUS:               ID:20130712160237 L   3
 OLDACT:REG 13-07-12 16:17 OP:stll STATUS:               ID:20130712155851     3
 2013-07-12-1558-51M.COL___216                                                 6
 STAT SP IPHASW D HRMM SECON CODA AMPLIT PERI AZIMU VELO AIN AR TRES W  DIS CAZ7
 BAR2 SZ EP       16 2 57.18                             170    0.0610 24.0 196 
 BAR2 SZ ES       16 3 12.36                             170   -0.0610 24.0 196 
 BAR2 SZ I        16 3 14.98        30.4 0.52            171           24.0 196 
 GIR2 SZ EP       16 2 57.25                             167    0.0910 31.8 346 
 BRR  HZ EP       16 2 59.00                             152    0.2410 73.4 298 
 BRR  HN ES       16 3 16.31                             152    0.9810 73.4 298 
 BRR  HN I        16 3 16.98        52.5 0.50            151           73.4 298 
 RUS  HZ EP       16 3  1.19                             144   -0.0410  100 178 
 RUS  HN ES       16 3 19.32                             144   -0.4110  100 178 
 RUS  HN I        16 3 21.38        50.4 0.40            146            100 178 
 GRA  SZ EP       16 3  2.93                             137    0.2710  125  16 
 GRA  SZ ES       16 3 22.26                             137   -0.0210  125  16 
 CAPV BZ EP       16 3  5.04                             132    0.30 9  148  37 
 CAPV BZ ES       16 3 25.25                             132   -0.73 9  148  37 
 PTB  HZ EP       16 3  4.11                             131   -0.57 9  150 259 
 PTB  HN ES   4   16 3 24.75                             131   -1.13 0  150 259 
 PTB  HN I        16 3 26.38        37.5 0.18            132            150 259 
 TAM  HZ IP     C 16 3  5.33                             131    0.39 9  153 105 
 TAM  HN ES   4   16 3 24.58                             131   -1.75 0  153 105 
 TAM  HN I        16 3 27.71        43.6 0.38            134            153 105 
 OCA  HN ES       16 3 27.62                             130   -0.29 9  161 352 
 OCA  HN I        16 3 31.73       112.3 0.28            130            161 352 
 ZAR  HZ EP       16 3 10.34                             122    0.16 8  206 292 
 ZAR  HE ES       16 3 35.04                             122   -0.62 8  206 292 
 ZAR  HE I        16 3 43.07        57.3 0.40            123            206 292 
                                                                                
