 2012  612 1820 23.0 L   6.773 -73.154145.8  RSN  6 0.3 1.7LRSN                1
 GAP=137        0.53       2.9     3.4  6.1 -0.6196E+00  0.6761E+01 -0.1953E+01E
 Epicentro: LOS SANTOS - SANTANDER                                             3
 ACTION:UPD 12-08-06 17:49 OP:ep   STATUS:               ID:20120612182023 L   I
 2012-06-12-1820-00M.COL___200                                                 6
 STAT SP IPHASW D HRMM SECON CODA AMPLIT PERI AZIMU VELO AIN AR TRES W  DIS CAZ7
 BAR2 SZ ES   1   1820 58.05                             172    0.22 7 20.3 189 
 PAM  SZ EP   1   1820 45.30                             150   -0.08 7 80.3  39 
 PAM  SN ES   1   1821  2.44                             150   -0.41 7 80.3  39 
 RUS  HZ EP   1   1820 46.76                             145    0.22 7 97.7 175 
 RUS  HN ES   1   1821  5.00                             145    0.09 7 97.7 175 
 RUS  HZ I        1821  6.10         4.3 0.25            147           97.7 175 
 PTB  HZ EP   1   1820 49.61                             132   -0.22 7  146 260 
 PTB  HN ES   1   1821 10.44                             132   -0.32 7  146 260 
 PTB  HZ I        1821 13.58         3.2 0.18            131            146 260 
 OCA  HN ES   1   1821 14.20                             129    0.34 7  163 354 
 OCA  HZ I        1821 16.61        25.0 0.19            129            163 354 
 ZAR  HN ES   1   1821 20.98                             122    0.19 6  204 293 
 ZAR  HZ I        1821 25.80         5.4 0.21            122            204 293 
                                                                                
