 2016  612 1314 11.1 L   7.439 -73.174127.9  RSN 13 0.4 2.2LRSN                1
 GAP=112        0.86       2.7     2.7  4.5 -0.4788E+00  0.3163E+01  0.2998E+01E
 Epicentro: EL PLAYON - SANTANDER                                              3
 ACTION:UPD 16-07-21 22:18 OP:rebc STATUS:               ID:20160612131411 L   I
 OLDACT:UP  16-06-12 23:17 OP:edw  STATUS:               ID:20160612130743     3
 OLDACT:REG 16-06-12 20:34 OP:edw  STATUS:               ID:20160612130743     3
 2016-06-12-1307-43M.COL___325                                                 6
 STAT SP IPHASW D HRMM SECON CODA AMPLIT PERI AZIMU VELO AIN AR TRES W  DIS CAZ7
 PAM  EZ EP       1314 30.47                             156    0.4410 53.6 102 
 PAM  EN ES       1314 44.91                             156    0.0910 53.6 102 
 PAM  EZ I        1314 46.76        29.7 0.18                          53.6 102 
 BRR  HZ EP     D 1314 30.14                             150   -0.0810 69.8 238 
 BRR  HN ES       1314 45.65                             150    0.4910 69.8 238 
 OCA  HZ EP       1314 32.00                             143    0.1910 89.9 350 
 OCA  HN ES       1314 47.77                             143   -0.2210 89.9 350 
 OCA  HZ I        1314 50.44        43.4 0.36                          89.9 350 
 BAR2 EZ EP     D 1314 32.02                             142   -0.1910 93.6 181 
 BAR2 EZ ES       1314 48.27                             142   -0.4310 93.6 181 
 BAR2 EZ I        1314 49.62        34.6 0.10                          93.6 181 
 RUS  HZ EP       1314 39.68                             123    0.08 9  171 177 
 RUS  HN ES       1315  1.62                             123   -0.25 9  171 177 
 PTB  HZ EP       1314 38.49                             123   -0.67 9  173 235 
 PTB  HN ES       1315  0.75                             123   -0.33 9  173 235 
 PTB  HZ I        1315  3.24        17.8 0.22                           173 235 
 TAM  HZ EP       1314 40.68                             120   -0.16 9  189 126 
 TAM  HN ES       1315  4.16                             120    0.10 9  189 126 
 SPBC HZ EP       1314 44.31                             116   -0.06 8  221 207 
 SPBC HN ES       1315 10.62                             116    0.27 8  221 207 
 SPBC HZ I        1315 18.07        14.1 0.22                           221 207 
 URE  HZ EP       1314 49.23                             112    0.33 8  263 278 
 URE  HN ES   4   1315 15.70                             112   -2.70 0  263 278 
 NOR  HZ EP       1314 50.51                             110   -0.38 7  280 222 
 NOR  HN ES       1315 21.30                             110   -0.65 7  280 222 
 NOR  HZ I        1315 26.90        10.0 0.22                           280 222 
 HEL  HZ EP       1314 53.18                             109    0.17 7  295 242 
 HEL  HE ES       1315 26.02                             109    0.29 7  295 242 
 HEL  HZ I        1315 33.85         7.3 0.48                           295 242 
 CHI  HZ EP       1314 55.59                             108   -0.04 7  317 191 
 CHI  HE ES       1315 31.32                             108    0.93 7  317 191 
 GUY2CHZ EP   4   1315  0.48                             106    1.52 0  345 225 
 GUY2CHN ES       1315 36.91                             106    0.59 7  345 225 
                                                                                
