 2013 1212 1334 40.5 L   6.819 -73.209153.2  RSN  4 0.2 1.5LRSN                1
 GAP=232        0.56       4.7     4.6  5.8  0.1009E+02 -0.3174E+01 -0.2413E+01E
 Epicentro: ZAPATOCA - SANTANDER                                               3
 ACTION:UPD 14-01-13 10:17 OP:ep   STATUS:               ID:20131212133440 L   I
 OLDACT:UP  13-12-12 16:27 OP:cam  STATUS:               ID:20131212133000     3
 OLDACT:REG 13-12-12 14:46 OP:cma  STATUS:               ID:20131212133000     3
 2013-12-12-1330-00M.COL___285                                                 6
 STAT SP IPHASW D HRMM SECON CODA AMPLIT PERI AZIMU VELO AIN AR TRES W  DIS CAZ7
 BAR2 SZ EP       1335  0.88                             170   -0.1710 25.2 173 
 BRR  HZ EP       1335  1.96                             156   -0.1210 64.1 300 
 BRR  HE ES       1335 19.06                             156    0.1410 64.1 300 
 RUS  HZ EP   1   1335  5.75                             144    0.57 7  103 172 
 RUS  HN ES       1335 24.31                             144   -0.1210  103 172 
 PTB  HZ EP       1335  7.47                             135   -0.05 9  141 257 
 PTB  HN ES       1335 28.58                             135   -0.01 9  141 257 
 PTB  HZ I        1335 35.99         3.7 0.18            129            141 257 
                                                                                
