 2016  812 1156 27.4 L   6.720 -73.121139.9  RSN  9 0.4 1.7LRSN                1
 GAP=143        0.97       3.8     3.9  5.8 -0.1524E+01  0.8029E+01  0.3199E+01E
 Epicentro: JORDAN - SANTANDER                                                 3
 ACTION:UPD 16-10-29 15:34 OP:rebc STATUS:               ID:20160812115627 L   I
 OLDACT:REG 16-08-12 19:38 OP:lv   STATUS:               ID:20160812114759     3
 2016-08-12-1147-59S.COL___346                                                 6
 STAT SP IPHASW D HRMM SECON CODA AMPLIT PERI AZIMU VELO AIN AR TRES W  DIS CAZ7
 BAR2 EZ EP       1156 46.22                             173    0.0210 15.6 206 
 BAR2 EZ ES       1157  1.02                             173    0.1710 15.6 206 
 BAR2 EZ I        1157  3.84        14.3 0.16                          15.6 206 
 BRR  HZ EP       1156 48.37                             149    0.0310 78.1 303 
 BRR  HE ES       1157  5.30                             149    0.6310 78.1 303 
 BRR  HZ I        1157  9.83         8.2 0.10                          78.1 303 
 PAM  EZ EP       1156 48.96                             148   -0.3910 82.9  34 
 PAM  EN ES       1157  6.37                             148   -0.0910 82.9  34 
 PAM  EZ I        1157  7.62         7.6 0.19                          82.9  34 
 RUS  HZ EP       1156 50.36                             145    0.4210 91.5 177 
 RUS  HN ES       1157  7.20                             145   -0.3110 91.5 177 
 RUS  HZ I        1157 12.03         4.8 0.25                          91.5 177 
 PTB  HZ EP       1156 53.28                             130   -0.74 9  149 262 
 PTB  HN ES       1157 14.00                             130   -0.77 9  149 262 
 PTB  HZ I        1157 22.00         9.8 0.25                           149 262 
 ZAR  HZ EP       1157  0.20                             120    0.09 8  210 294 
 ZAR  HE ES       1157 25.77                             120    0.16 8  210 294 
 ZAR  HZ I        1157 31.70         6.0 0.15                           210 294 
 NOR  HZ EP       1157  2.61                             117    0.11 8  232 237 
 NOR  HN ES       1157 30.13                             117    0.26 8  232 237 
 NOR  HZ I        1157 39.02         5.7 0.20                           232 237 
 CHI  HZ EP   2   1157  4.87                             117    0.94 4  241 196 
 CHI  HN ES   2   1157 32.22                             117   -0.20 4  241 196 
 CHI  HZ I        1157 42.31         2.5 0.29                           241 196 
 GUY2CHZ EP       1157 11.02                             111    0.59 7  298 236 
 GUY2CHE ES       1157 43.95                             111   -0.04 7  298 236 
 GUY2CHZ I        1157 53.17         2.8 0.26                           298 236 
                                                                                
