 2017  412 1012 35.7 L   6.691 -73.504108.5  RSN  4 0.4 1.3LRSN                1
 GAP=134        0.94       5.9     5.0  8.2  0.1371E+02  0.1183E+02  0.1510E+02E
 Epicentro: EL CARMEN - SANTANDER                                              3
 ACTION:UPD 17-05-30 21:11 OP:jn   STATUS:               ID:20170412101235 L   I
 OLDACT:REG 17-04-12 20:17 OP:cog  STATUS:               ID:20170412100741     3
 2017-04-12-1008-00M.COL___368                                                 6
 STAT SP IPHASW D HRMM SECON CODA AMPLIT PERI AZIMU VELO AIN AR TRES W  DIS CAZ7
 BAR2 EZ EP       1012 51.25                             160   -0.1510 37.2 107 
 BAR2 EZ ES       1013  3.25                             160   -0.3610 37.2 107 
 BAR2 EZ I        1013  5.46        11.0 0.42            165           37.2 107 
 BRR  HZ EP       1012 51.39                             153   -0.3610 51.4 333 
 BRR  HE ES       1013  4.76                             153    0.5310 51.4 333 
 RUS  HZ EP       1012 56.60                             134    0.6110 99.9 152 
 RUS  HN ES       1013 11.75                             134   -0.0310 99.9 152 
 PTB  HZ EP       1012 55.71                             132   -0.2310  107 261 
 PTB  HN ES       1013 11.68                             132   -0.0210  107 261 
 PTB  HZ I        1013 17.32         2.7 0.20            132            107 261 
                                                                                
