 2011 1212 1012  7.3 L   6.759 -73.204147.8  RSN  4 0.3 1.3LRSN                1
 GAP=228        0.51       8.4     8.3  8.5  0.3713E+02  0.1353E+02  0.7142E+01E
 Epicentro: VILLANUEVA - SANTANDER                                             3
 ACTION:UPD 12-07-13 16:15 OP:ep   STATUS:               ID:20111212101207 L   I
 2011-12-12-1010-00M.COL___186                                                 6
 STAT SP IPHASW D HRMM SECON CODA AMPLIT PERI AZIMU VELO AIN AR TRES W  DIS CAZ7
 BAR2 SZ ES   2   1012 41.96                             172   -0.61 5 18.6 172 
 BAR2 SZ I        1012 42.94         6.1 0.25                          18.6 172 
 BRR  HZ EP   2   1012 28.75                             154    0.22 5 68.0 304 
 BRR  HN ES   2   1012 45.41                             154    0.35 5 68.0 304 
 BRR  HZ I        1012 48.23         5.1 0.35                          68.0 304 
 RUS  HZ EP   2   1012 31.05                             145    0.03 5 96.8 172 
 RUS  HN ES   2   1012 49.87                             145    0.37 5 96.8 172 
 RUS  HZ I        1012 51.15         2.3 0.33                          96.8 172 
 PTB  HZ EP   2   1012 33.43                             134   -0.40 5  141 260 
 PTB  HN ES   2   1012 54.48                             134   -0.01 5  141 260 
                                                                                
