 2011  612 1942 40.1 L   7.507 -73.070149.3  RSN  7 0.2 1.9LRSN                1
 GAP=103        0.49       2.7     5.6  4.5 -0.1385E+01  0.6931E+01  0.2685E+01E
 Epicentro: EL PLAYON - SANTANDER                                              3
 ACTION:UP  11-07-14 19:04 OP:ep   STATUS:               ID:20110612194240 L   I
 2011-06-12-1940-02S.COL___132                                                 6
 STAT SP IPHASW D HRMM SECON CODA AMPLIT PERI AZIMU VELO SNR AR TRES W  DIS CAZ7
 BRI  SZ EP   1   1943  0.75                             165     0.3 7   38  52 
 BRI  SZ I        1943  0.92        14.6 0.12                            38  52 
 BRI  SZ ES   1   1943 16.46                             165     0.1 7   38  52 
 PAM  SN ES   1   1943 17.46                             163    -0.1 7   45 114 
 GRA  SZ EP   1   1943  0.78                             160    -0.1 7   51  35 
 GRA  SZ ES   1   1943 17.05                             160    -0.1 7   51  35 
 GRA  SZ I        1943 18.63        18.5 0.32                            51  35 
 BRR  HZ EP   2   1943  2.99                             149     0.6 5   84 238 
 BRR  HN ES   2   1943 19.53                             149    -0.2 5   84 238 
 OCA  SZ EP   1   1943  2.68                             149     0.0 7   85 341 
 OCA  SZ I        1943  2.93        27.9 0.15                            85 341 
 OCA  SZ ES   1   1943 20.26                             149    -0.1 7   85 341 
 BAR2 SZ EP   1   1943  4.00                             144     0.0 7  102 187 
 BAR2 SZ ES   1   1943 22.70                             144     0.1 7  102 187 
 BAR2 SZ I        1943 24.06        12.1 0.57                           102 187 
 RUS  HZ EP   1   1943 10.51                             127    -0.4 7  179 180 
 RUS  HN ES   2   1943 34.91                             127     0.0 4  179 180 
 RUS  HZ I        1943 39.93         5.2 0.69                           179 180 
                                                                                
