 2010  912 1411 10.3 L   6.809 -73.080148.2  RSN  7 0.2 1.8LRSN                1
 GAP=166        0.55       3.5     6.7  6.3 -0.4853E+01 -0.1396E+02  0.3251E+00E
 Epicentro: LOS SANTOS - SANTANDER                                             3
 ACTION:UP  11-02-18 11:02 OP:tino STATUS:               ID:20100912141110 L   I
 2010-09-12-1406-40S.COL___120                                                 6
 STAT SP IPHASW D HRMM SECON CODA AMPLIT PERI AZIMU VELO SNR AR TRES W  DIS CAZ7
 BAR2 SZ EP   2   1411 30.48                             169     0.2 5   27 205 
 BAR2 SZ I        1411 46.74        11.9 0.69                            27 205 
 GIR2 SZ EP   2   1411 30.19                             167    -0.1 5   32 337 
 GIR2 SZ ES   2   1411 45.86                             167     0.0 5   32 337 
 BRR  HZ IP     D 1411 31.96                             151    -0.110   77 295 
 BRR  HZ I        1411 32.15        13.7 0.16                            77 295 
 BRR  HE ES   1   1411 49.03                             151     0.0 7   77 295 
 RUS  HZ EP   2   1411 34.67                             144     0.3 5  101 180 
 RUS  HN ES   2   1411 53.03                             144    -0.1 5  101 180 
 GUE  SZ EP   1   1411 34.82                             140    -0.2 7  114   9 
 GRA  SZ IP       1411 35.79                             138     0.310  123  14 
 GRA  SZ I        1411 37.02         7.3 0.23                           123  14 
 GRA  SZ ES   1   1411 54.93                             138    -0.3 7  123  14 
 OCA  SZ EP   1   1411 38.43                             130    -0.4 7  160 351 
 OCA  SZ ES   1   1412  1.46                             130     0.4 7  160 351 
 OCA  SZ I        1412  4.09         8.6 0.30                           160 351 
                                                                                
