 2011  312 1314 33.2 L   5.903 -73.762102.5  RSN  8 0.4 2.2LRSN                1
 GAP=106        0.81       4.5     3.8  8.9 -0.9987E+01  0.1340E+02 -0.5004E+01E
 Epicentro: JESUS MARIA - SANTANDER                                            3
 ACTION:UP  11-06-16 14:33 OP:jfem STATUS:               ID:20110312131433 L   I
 2011-03-12-1310-43S.COL___135                                                 6
 STAT SP IPHASW D HRMM SECON CODA AMPLIT PERI AZIMU VELO SNR AR TRES W  DIS CAZ7
 RUS  HZ EP       1314 51.29                             141     0.410   75  91 
 RUS  HN ES   1   1315  4.48                             141    -0.2 7   75  91 
 RUS  HZ I        1315 10.14        22.3 0.38                            75  91 
 BAR2 SZ IP       1314 52.68                             132     0.110   99  40 
 BAR2 SZ ES   1   1315  7.56                             132    -0.1 7   99  40 
 BAR2 SZ I        1315  9.67        85.2 0.32                            99  40 
 NOR  SZ EP   1   1314 54.19                             124    -0.9 7  129 253 
 NOR  SN ES   1   1315 12.50                             124     0.3 7  129 253 
 NOR  SZ I        1315 14.38        10.8 0.16                           129 253 
 CHI  HZ EP   2   1314 56.67                             121    -0.2 5  141 179 
 GUY  SZ EP   1   1315  2.83                             113     0.2 7  193 247 
 GUY  SN ES   1   1315 25.36                             113    -0.2 7  193 247 
 GUY  SZ I        1315 29.10        18.1 0.23                           193 247 
 HEL  HZ EP   1   1315  3.13                             112     0.1 6  198 279 
 HEL  HN ES   2   1315 26.53                             112     0.2 4  198 279 
 HEL  HZ I        1315 30.65        11.4 0.48                           198 279 
 GRA  SZ EP   1   1315  8.30                             107     0.3 6  243  26 
 GRA  SZ ES   1   1315 34.61                             107    -0.5 6  243  26 
 GRA  SZ I        1315 40.29        15.3 0.32                           243  26 
 PRA  HZ EP   2   1315 11.12                             104    -0.1 4  272 207 
 PRA  HN ES   1   1315 40.71                             104    -0.2 6  272 207 
 PRA  HZ I        1315 47.02        41.9 0.19                           272 207 
                                                                                
