 2016  612 1145  2.8 L   6.756 -73.129154.6  RSN  7 0.3 1.3LRSN                1
 GAP=236        0.91       4.5     5.3  7.1  0.1478E+01  0.5963E+01  0.4821E+01E
 Epicentro: LOS SANTOS - SANTANDER                                             3
 ACTION:UPD 16-07-21 22:18 OP:rebc STATUS:               ID:20160612114502 L   I
 OLDACT:DUP 16-06-12 22:27 OP:edw  STATUS:               ID:20160612113749d    3
 OLDACT:UP  16-06-12 22:26 OP:edw  STATUS:               ID:20160612113748     3
 OLDACT:REG 16-06-12 20:17 OP:edw  STATUS:               ID:20160612113748     3
 2016-06-12-1137-48M.COL___325                                                 6
 STAT SP IPHASW D HRMM SECON CODA AMPLIT PERI AZIMU VELO AIN AR TRES W  DIS CAZ7
 BAR2 EZ EP       1145 24.02                             173    0.6110 19.1 198 
 BAR2 EZ ES       1145 39.08                             173   -0.4110 19.1 198 
 BAR2 EZ I        1145 40.13         5.4 0.14                          19.1 198 
 BRR  HZ EP       1145 24.76                             153   -0.3610 75.2 301 
 BRR  HE ES       1145 42.83                             153    0.3010 75.2 301 
 RUS  HZ EP       1145 26.67                             147   -0.4110 95.6 177 
 RUS  HE ES       1145 46.15                             147    0.1210 95.6 177 
 RUS  HZ I        1145 47.69         2.2 0.28                          95.6 177 
 PTB  HZ EP       1145 30.81                             134    0.23 9  149 261 
 PTB  HE ES       1145 51.98                             134   -0.27 9  149 261 
 SPBC HZ EP   4   1145 23.15                             131   -8.60 0  161 221 
 SPBC HN ES       1145 54.75                             131    0.42 9  161 221 
 NOR  HE ES       1146  6.88                             120   -0.21 8  233 236 
 CHI  HE ES       1146  9.96                             119   -0.04 8  244 196 
                                                                                
