 2017  112 1643 24.2 L   6.707 -73.149139.8  RSN  5 0.3 1.7LRSN                1
 GAP=161        0.76       6.1     3.6  5.5 -0.4905E+01  0.5647E+01 -0.1383E+01E
 Epicentro: VILLANUEVA - SANTANDER                                             3
 ACTION:UPD 17-05-22 15:58 OP:jn   STATUS:               ID:20170112164324 L   I
 OLDACT:REG 17-01-12 20:42 OP:cara STATUS:               ID:20170112163746     3
 2017-01-12-1638-00M.COL___337                                                 6
 STAT SP IPHASW D HRMM SECON CODA AMPLIT PERI AZIMU VELO AIN AR TRES W  DIS CAZ7
 BAR2 EZ EP       1643 43.49                             174    0.5010 13.2 196 
 BAR2 EZ ES       1643 57.26                             174   -0.3510 13.2 196 
 BAR2 EZ I        1644  0.41        16.7 0.84            173           13.2 196 
 BRR  HZ EP       1643 45.29                             150    0.2410 76.3 305 
 BRR  HN ES       1644  1.70                             150    0.4110 76.3 305 
 PAM  EZ EP       1643 46.30                             147   -0.0610 85.8  35 
 PAM  EN ES       1644  3.40                             147   -0.2210 85.8  35 
 PAM  EZ I        1644  4.98         6.1 0.16            151           85.8  35 
 PTB  HZ EP       1643 50.37                             131   -0.17 9  146 263 
 PTB  HN ES       1644 10.96                             131   -0.10 9  146 263 
 PTB  HZ I        1644 16.35         5.8 0.36            132            146 263 
 ZAR  HZ EP       1643 56.40                             120   -0.29 8  208 295 
 ZAR  HN ES       1644 21.90                             120   -0.11 8  208 295 
 ZAR  HZ I        1644 27.17         7.4 0.44            122            208 295 
                                                                                
