 2017  412 1930  2.6 L   6.064 -73.695118.3  RSN  4 0.2 1.2LRSN                1
 GAP=164        0.68       5.5     3.5  6.1  0.6101E+01  0.3342E+01 -0.3147E+01E
 Epicentro: VELEZ - SANTANDER                                                  3
 ACTION:UPD 17-05-30 21:11 OP:jn   STATUS:               ID:20170412193002 L   I
 OLDACT:UP  17-04-12 23:46 OP:cog  STATUS:               ID:20170412192746     3
 OLDACT:REG 17-04-12 21:10 OP:cog  STATUS:               ID:20170412192746     3
 2017-04-12-1928-00M.COL___359                                                 6
 STAT SP IPHASW D HRMM SECON CODA AMPLIT PERI AZIMU VELO AIN AR TRES W  DIS CAZ7
 SPBC HZ EP       1930 20.61                             151    0.1910 61.8 223 
 SPBC HN ES       1930 34.19                             151   -0.1110 61.8 223 
 RUS  HZ EP       1930 21.80                             148    0.2710 70.4 106 
 RUS  HN ES       1930 36.12                             148   -0.1610 70.4 106 
 RUS  HZ I        1930 37.75         2.4 0.24            151           70.4 106 
 PTB  HZ EP       1930 22.56                             137   -0.4610 99.3 302 
 PTB  HN ES       1930 39.19                             137    0.2610 99.3 302 
 PTB  HZ I        1930 41.04         4.1 0.32            139           99.3 302 
 NOR  HZ EP       1930 26.91                             126   -0.01 9  141 247 
 NOR  HN ES   4   1930 43.70                             126   -2.17 0  141 247 
 NOR  HZ I        1930 49.21         3.5 0.38            127            141 247 
                                                                                
