 2014  212 1443 16.3 L   6.121 -73.691101.3  RSN  5 0.5 1.7LRSN                1
 GAP=134        1.08       6.6     4.8 13.6  0.3230E+01  0.3425E+02  0.2366E+02E
 Epicentro: CHIPATA - SANTANDER                                                3
 ACTION:UPD 14-03-10 08:09 OP:ep   STATUS:               ID:20140212144316 L   I
 OLDACT:REG 14-02-12 15:04 OP:mh   STATUS:               ID:20140212144000     3
 2014-02-12-1440-00M.COL___199                                                 6
 STAT SP IPHASW D HRMM SECON CODA AMPLIT PERI AZIMU VELO AIN AR TRES W  DIS CAZ7
 RUS  HZ EP       1443 33.75                             142    0.1110 71.9 111 
 RUS  HE ES   1   1443 46.17                             142   -0.97 7 71.9 111 
 RUS  HZ I        1443 49.70         2.7 0.27            150           71.9 111 
 BAR2 SZ EP   1   1443 33.64                             140   -0.01 7 76.7  47 
 BAR2 SZ ES       1443 47.78                             140    0.6210 76.7  47 
 BAR2 SZ I        1443 49.07        67.8 0.32            148           76.7  47 
 PTB  HZ EP   1   1443 34.27                             132   -0.75 7 96.5 299 
 PTB  HN ES   1   1443 49.44                             132   -0.16 7 96.5 299 
 PTB  HZ I        1443 52.43         6.6 0.12            137           96.5 299 
 NOR  HZ EP       1443 40.10                             120    0.31 9  144 245 
 NOR  HN ES   1   1443 58.53                             120    0.44 7  144 245 
 NOR  HZ I        1444  1.46         7.4 0.22            125            144 245 
 ZAR  HE ES   1   1444  8.37                             111   -0.36 6  199 320 
 ZAR  HZ I        1444 10.91        10.4 0.18            117            199 320 
                                                                                
