 2013  812 1439 11.0 L   6.752 -73.165142.5  RSN  7 0.4 1.5LRSN                1
 GAP=136        0.93       4.9     5.2  7.8 -0.1824E+01  0.1393E+02  0.4295E+00E
 Epicentro: LOS SANTOS - SANTANDER                                             3
 ACTION:UPD 14-01-14 09:01 OP:ep   STATUS:               ID:20130812143911 L   I
 OLDACT:REG 13-08-12 17:56 OP:jn   STATUS:               ID:20130812143750     3
 2013-08-12-1437-50M.COL___218                                                 6
 STAT SP IPHASW D HRMM SECON CODA AMPLIT PERI AZIMU VELO AIN AR TRES W  DIS CAZ7
 BAR2 SZ EP   1   1439 30.24                             172    0.10 7 17.8 186 
 BAR2 SZ ES   1   1439 45.12                             172    0.05 7 17.8 186 
 BAR2 SZ I        1439 46.89         8.3 0.24            171           17.8 186 
 GIR2 SZ ES   1   1439 46.40                             165    0.81 7 36.3 355 
 BRR  HZ EP   1   1439 32.45                             152    0.60 7 72.1 303 
 PAM  SZ EP       1439 33.07                             148   -0.1510 82.8  38 
 PAM  SN ES       1439 50.08                             148   -0.4610 82.8  38 
 PAM  SZ I        1439 52.38         7.3 0.54            152           82.8  38 
 RUS  HZ EP       1439 34.57                             144    0.5010 95.5 175 
 RUS  HN ES       1439 51.78                             144   -0.2810 95.5 175 
 RUS  HZ I        1439 55.68         4.1 0.38            145           95.5 175 
 PTB  HZ EP       1439 37.02                             132   -0.41 9  145 261 
 PTB  HN ES   1   1439 57.80                             132   -0.24 7  145 261 
 PTB  HZ I        1440  0.32         5.6 0.12            134            145 261 
 ZAR  HN ES   1   1440  8.37                             122   -0.03 6  204 294 
                                                                                
