 2017 1112 1144 10.0 L   6.789 -73.156141.9  RSN 10 0.5 1.8LRSN                1
 GAP=208        0.98       4.0     5.2  6.5  0.5373E+01  0.9081E+01  0.4566E+01E
 Epicentro: LOS SANTOS - SANTANDER                                             3
 ACTION:UPD 17-12-12 19:54 OP:rebc STATUS:               ID:20171112114410 L   I
 OLDACT:UP  17-11-12 23:22 OP:mg   STATUS:               ID:20171112113743     3
 OLDACT:REG 17-11-12 21:11 OP:mg   STATUS:               ID:20171112113743     3
 2017-11-12-1138-00M.COL___456                                                 6
 STAT SP IPHASW D HRMM SECON CODA AMPLIT PERI AZIMU VELO AIN AR TRES W  DIS CAZ7
 BAR2 EZ EP       1144 28.94                             171   -0.1810 21.9 188 
 BAR2 EZ ES   1   1144 43.67                             171   -0.37 7 21.9 188 
 BAR2 EZ I        1144 44.57        14.8 0.36            168           21.9 188 
 BRR  HZ EP       1144 30.85                             152    0.1610 70.8 300 
 BRR  HN ES       1144 47.54                             152    0.6910 70.8 300 
 BRR  HZ I        1144 52.44        18.9 0.28            150           70.8 300 
 RUS  HZ EP   1   1144 33.60                             143    0.33 7 99.4 175 
 RUS  HN ES       1144 50.94                             143   -0.4910 99.4 175 
 RUS  HZ I        1144 52.19         9.0 0.24            144           99.4 175 
 PTB  HZ EP   1   1144 36.00                             131   -0.52 7  146 259 
 PTB  HN ES   1   1144 56.83                             131   -0.38 7  146 259 
 PTB  HZ I        1145  0.18         3.9 0.14            131            146 259 
 SPBC HZ EP   1   1144 37.93                             128   -0.10 7  162 219 
 SPBC HN ES   1   1144 59.98                             128    0.08 7  162 219 
 SPBC HZ I        1145  3.70        12.2 0.20            128            162 219 
 ZAR  HZ EP       1144 42.58                             121    0.46 9  204 293 
 ZAR  HN ES       1145  6.86                             121   -0.33 9  204 293 
 ZAR  HZ I        1145 13.06        11.5 0.36            122            204 293 
 NOR  HZ EP   1   1144 45.98                             118    0.66 6  233 235 
 NOR  HN ES       1145 12.79                             118   -0.08 8  233 235 
 NOR  HZ I        1145 14.88         5.7 0.15            118            233 235 
 CHI  HZ EP       1144 47.11                             116   -0.20 8  247 195 
 CHI  HN ES       1145 16.98                             116    0.56 8  247 195 
 CHI  HZ I        1145 26.29         2.3 0.19            117            247 195 
 GUY2CHZ EP   2   1144 54.82                             111    1.59 4  300 235 
 GUY2CHN ES       1145 26.41                             111   -0.56 7  300 235 
 GUY2CHZ I        1145 37.69         2.7 0.46                           300 235 
 SJC  HZ EP   2   1145  3.85                             105   -1.63 3  410 327 
 SJC  HN ES   4   1145 44.86                             105   -3.90 0  410 327 
 SJC  HZ I        1145 50.54         1.4 0.48            106            410 327 
                                                                                
