 2014 1012 1617 23.8 L   6.574 -73.454114.3  RSN 21 0.5 2.5LRSN                1
 GAP= 65        1.19       2.4     3.5  5.7 -0.1123E+01  0.6149E+01  0.1636E+01E
 Epicentro: EL CARMEN - SANTANDER                                              3
 ACTION:UPD 14-11-29 23:49 OP:nd   STATUS:               ID:20141012161723 L   I
 OLDACT:REG 14-10-12 21:14 OP:fm   STATUS:               ID:20141012160747     3
 2014-10-12-1607-47M.COL___283                                                 6
 STAT SP IPHASW D HRMM SECON CODA AMPLIT PERI AZIMU VELO AIN AR TRES W  DIS CAZ7
 BAR2 SZ EP     C 1617 40.05                             164    0.1910 30.1  86 
 BAR2 SZ ES   1   1617 52.63                             164    0.25 7 30.1  86 
 BAR2 SZ I        1617 54.60       305.7 0.26            163           30.1  86 
 BRR  HZ EP       1617 41.48                             148    0.2110 65.5 334 
 BRR  HN ES       1617 55.99                             148    1.1010 65.5 334 
 BRR  HZ I        1617 57.55        59.3 0.40            144           65.5 334 
 RUS  HZ EP       1617 43.46                             141    0.0510 85.8 151 
 RUS  HE ES       1617 58.17                             141   -0.5310 85.8 151 
 RUS  HZ I        1618  0.22       102.8 0.22            136           85.8 151 
 PTB  HZ EP     C 1617 43.88                             132   -0.9810  111 268 
 PTB  HN ES       1618  0.31                             132   -0.9710  111 268 
 PTB  HZ I        1618  4.47        59.5 0.16            128            111 268 
 PAM  SZ EP       1617 46.11                             131   -0.1110  119  45 
 PAM  SN ES       1618  3.81                             131    0.1110  119  45 
 PAM  SZ I        1618  7.08        34.5 0.26            127            119  45 
 SPBC HZ EP       1617 45.92                             129   -0.1410  123 214 
 SPBC HN ES       1618  3.42                             129    0.0110  123 214 
 SPBC HZ I        1618 10.76        61.0 0.60            124            123 214 
 ZAR  HZ EP       1617 52.60                             117    0.24 9  185 303 
 ZAR  HN ES       1618 14.80                             117    0.16 9  185 303 
 ZAR  HZ I        1618 20.70        35.6 0.24            113            185 303 
 OCA  HZ EP       1617 52.14                             117   -0.33 9  185   5 
 OCA  HN ES       1618 14.37                             117   -0.47 9  185   5 
 OCA  HZ I        1618 22.10        47.5 0.48            113            185   5 
 CHI  HZ EP       1617 56.65                             113    0.25 8  217 188 
 CHI  HE ES       1618 21.83                             113    0.01 8  217 188 
 CHI  HZ I        1618 31.17        10.6 0.40            109            217 188 
 SML  HZ EP       1617 59.63                             109   -0.60 8  256 345 
 SML  HE ES       1618 29.35                             109    0.70 8  256 345 
 SML  HZ I        1618 32.74        56.1 0.10            105            256 345 
 GUY2CHZ EP       1618  2.03                             109    0.80 8  259 235 
 GUY2CHE ES   4   1618 33.13                             109    2.70 0  259 235 
 GUY2CHZ I        1618 39.09        20.8 0.48                           259 235 
 URE  HZ EP   4   1617 59.72                             108   -1.51 0  264 300 
 URE  HN ES   4   1618 28.77                             108   -1.66 0  264 300 
 URE  HZ I        1618 30.84        30.0 0.38            104            264 300 
 VIL  SZ EP       1618  2.43                             107   -0.06 8  274 186 
 VIL  SE ES       1618 32.47                             107   -0.20 8  274 186 
 VIL  SZ I        1618 41.52        26.7 0.38            103            274 186 
 RREF HZ EP   4   1618  1.07                             107   -2.76 0  280 229 
 RREF HN ES   4   1618 32.65                             107   -2.41 0  280 229 
 RREF HZ I        1618 42.41        21.8 0.28            103            280 229 
 CBOC HZ EP   1   1618  3.94                             106   -0.97 5  294 255 
 CBOC HN ES       1618 36.67                             106   -0.30 7  294 255 
 CBOC HZ I        1618 43.48         5.8 0.20            102            294 255 
 TOL  SZ EP       1618  6.72                             105    0.66 7  302 223 
 TOL  SE ES       1618 39.47                             105    0.45 7  302 223 
 TOL  SZ I        1618 49.59        35.2 0.26            101            302 223 
 DBB  SZ EP   1   1618  6.10                             105   -0.43 5  309 279 
 DBB  SZ ES   4   1618 36.78                             105   -3.08 0  309 279 
 DBB  SZ I        1618 45.01        27.1 0.40            101            309 279 
 ANIL HZ EP   4   1618  9.65                             104    2.01 0  316 223 
 ANIL HN ES   4   1618 44.92                             104    3.08 0  316 223 
 PRA  HZ EP   4   1618 10.34                             102   -1.52 0  354 207 
 PRA  HN ES       1618 50.20                             102    0.85 6  354 207 
 PRA  HZ I        1618 57.73         8.5 0.34             98            354 207 
 ORTC HZ EP   1   1618 12.19                             102    0.15 5  355 214 
 ORTC HN ES   4   1618 52.57                             102    2.91 0  355 214 
 ORTC HZ I        1618 58.58         9.8 0.42             98            355 214 
 PAL  HZ EP   1   1618 13.76                             102    0.70 5  364 240 
 PAL  HN ES       1618 51.63                             102    0.15 6  364 240 
 PAL  HZ I        1619  2.87         8.7 0.22             98            364 240 
 SJC  HZ EP   4   1618 17.36                             100   -1.69 0  414 333 
 SJC  HN ES   4   1618 58.34                             100   -3.80 0  414 333 
 SJC  HZ I        1619  0.70         4.8 0.60             95            414 333 
                                                                                
