 2017  112 1042 10.0 L   7.189 -74.114  4.0  RSN 14 0.4 2.4LRSN                1
 GAP=152        1.00       2.8     1.6  3.7  0.4811E+00  0.4934E+00  0.3862E+01E
 Epicentro: PUERTO WILCHES - SANTANDER                                         3
 ACTION:UPD 17-05-22 15:58 OP:jn   STATUS:               ID:20170112104210 L   I
 OLDACT:UP  17-01-12 21:07 OP:cara STATUS:               ID:20170112103744     3
 OLDACT:REG 17-01-12 20:07 OP:cara STATUS:               ID:20170112103744     3
 2017-01-12-1038-00M.COL___340                                                 6
 STAT SP IPHASW D HRMM SECON CODA AMPLIT PERI AZIMU VELO AIN AR TRES W  DIS CAZ7
 BRR  HZ IP       1042 17.20                              47   -0.2110 45.3 101 
 BRR  HN ES       1042 23.15                              47   -0.0810 45.3 101 
 BRR  HZ I        1042 24.85       287.7 0.68             47           45.3 101 
 PTB  HZ EP     D 1042 23.12                              47    0.2510 81.2 208 
 PTB  HZ IP     D 1042 23.14                              47           81.2 208 
 PTB  HN ES       1042 32.33                              47   -0.6110 81.2 208 
 PTB  HZ I        1042 33.67       165.5 0.14             47           81.2 208 
 ZAR  HZ EP       1042 24.02                              47    0.0010 88.8 292 
 ZAR  HN ES       1042 34.58                              47   -0.4010 88.8 292 
 ZAR  HZ I        1042 35.28       199.9 0.26             47           88.8 292 
 BAR2 EZ EP       1042 29.55                              47    0.2310  122 123 
 BAR2 EZ ES       1042 43.75                              47   -0.6810  122 123 
 BAR2 EZ I        1042 45.70        66.9 0.42             47            122 123 
 PAM  EZ EP     D 1042 35.06                              47    0.20 9  157  84 
 PAM  HN ES       1042 54.30                              47    0.03 9  157  84 
 PAM  EZ I        1042 56.95       163.7 0.40             47            157  84 
 URE  HZ EP       1042 35.62                              47   -0.49 9  169 292 
 URE  HN ES   4   1042 54.39                              47   -2.11 0  169 292 
 URE  HZ I        1043  2.26        29.3 0.16             47            169 292 
 RUS  HZ EP     C 1042 39.48                              37    0.78 9  183 141 
 RUS  HN ES       1043  1.31                              37    0.19 9  183 141 
 NOR  HZ EP       1042 40.12                              37    0.06 9  198 205 
 NOR  HN ES       1043  3.44                              37   -0.10 9  198 205 
 NOR  HZ I        1043  6.42        35.2 0.28             37            198 205 
 DBB  EZ EP   4   1042 46.87                              37    2.51 0  232 265 
 DBB  EZ ES       1043 12.13                              37    0.94 8  232 265 
 DBB  EZ I        1043 18.03        15.7 0.44             37            232 265 
 CBOC HZ EP   9   1042 50.33                              37    2.90 0  256 235 
 CBOC HN ES       1043 19.65                                    0.10 8  256 235 
 CBOC HZ I        1043 26.59        10.4 0.40             37            256 235 
 GUY2CHZ EP   4   1042 49.33                              37    1.33 0  258 213 
 GUY2CHN ES       1043 18.08                              37    0.42 8  258 213 
 GUY2CHZ  IAML    1043 22.59        15.9 0.48                           258 213 
 TAM  HZ EP   9   1042 54.50                              37    5.49 0  270 108 
 TAM  HN ES       1043 25.21                                    0.26 8  270 108 
 TAM  HZ I        1043 32.14        16.5 0.22             37            270 108 
 CHI  HZ EP       1042 51.63                              37    0.15 7  286 171 
 CHI  HN ES   4   1043 26.45                              37    2.58 0  286 171 
 CHI  HZ I        1043 49.71         6.8 0.54             37            286 171 
 ELA  HZ EP   9   1042 56.02                              36    3.39 0  294 209 
 ELA  HN ES       1043 28.71                                   -0.59 7  294 209 
 ELA  HZ I        1043 36.31        16.2 0.34             36            294 209 
 LL6C HZ EP   4   1042 31.94                              36   -20.3 0  297  18 
 LL6C HN ES   4   1043  4.39                              36   -20.9 0  297  18 
                                                                                
