 2017  512 1818 11.1 L   6.394 -73.660 97.8  RSN 20 0.5 2.5LRSN                1
 GAP= 82        1.17       2.4     2.5  6.1  0.8315E+00  0.3421E+01  0.2183E+01E
 Epicentro: SANTA HELENA DEL OPON - SANTANDER                                  3
 ACTION:UPD 17-06-16 13:35 OP:jn   STATUS:               ID:20170512181811 L   I
 OLDACT:UP  17-05-13 01:41 OP:lv   STATUS:               ID:20170512181240     3
 OLDACT:REG 17-05-13 00:45 OP:lv   STATUS:               ID:20170512181240     3
 2017-05-12-1813-00M.COL___374                                                 6
 STAT SP IPHASW D HRMM SECON CODA AMPLIT PERI AZIMU VELO AIN AR TRES W  DIS CAZ7
 BRR  HZ EP       1818 27.97                             138    0.0510 79.1 356 
 BRR  HN ES       1818 41.77                             138    0.7010 79.1 356 
 BRR  HZ I        1818 43.11        49.7 0.09            141           79.1 356 
 RUS  HZ IP     D 1818 28.71                             137   -0.3410 84.6 131 
 RUS  HN ES       1818 43.05                             137   -0.0410 84.6 131 
 RUS  HZ I        1818 46.22        31.7 0.10            138           84.6 131 
 PTB  HZ EP       1818 27.98                             134   -0.8510 89.5 280 
 PTB  HN ES       1818 42.31                             134   -0.3810 89.5 280 
 PTB  HZ I        1818 44.87       184.2 0.31            135           89.5 280 
 SPBC HZ EP       1818 29.07                             133   -0.2510 93.8 209 
 SPBC HN ES       1818 44.02                             133    0.4610 93.8 209 
 SPBC HZ I        1818 46.29       263.7 0.23            133           93.8 209 
 PAM  EZ EP       1818 35.11                             120   -0.26 9  149  45 
 PAM  EN ES       1818 54.16                             120   -0.17 9  149  45 
 PAM  EZ I        1819  0.18        66.2 0.60            122            149  45 
 NOR  HZ EP       1818 35.38                             117   -0.87 9  162 236 
 NOR  HN ES       1818 55.30                             117   -0.60 9  162 236 
 NOR  HZ I        1818 58.55        81.5 0.16            117            162 236 
 ZAR  HZ EP       1818 37.98                             114   -0.15 9  180 313 
 ZAR  HN ES       1818 59.82                             114    0.58 9  180 313 
 ZAR  HZ I        1819  4.18       100.1 0.22            115            180 313 
 YPLC HZ EP       1818 38.16                             114   -0.04 9  180 128 
 YPLC HN ES       1818 59.75                             114    0.37 9  180 128 
 YPLC HZ I        1819  1.76        59.1 0.28            115            180 128 
 ROSC BZ EP   9   1818 40.71                             114    1.30 0  187 203 
 ROSC BN ES   2   1819  3.35                                    0.52 4  187 203 
 ROSC BZ I        1819 10.51        33.8 0.43            113            187 203 
 CHI  HZ EP       1818 39.91                             113   -0.50 9  195 182 
 CHI  HN ES       1819  3.39                             113    0.09 9  195 182 
 CHI  HZ I        1819  6.81        28.4 0.15            112            195 182 
 HEL  HZ EP       1818 42.24                             111    0.43 8  208 264 
 HEL  HN ES       1819  5.74                             111   -0.06 8  208 264 
 HEL  HZ I        1819  8.39        26.9 0.09            111            208 264 
 RECRCHZ EP   4   1818 45.22                             108   -1.19 0  245 230 
 RECRCHN ES   4   1819 16.45                             108    2.47 0  245 230 
 VIL  EZ EP       1818 46.32                             107   -0.37 8  252 181 
 VIL  EN ES       1819 15.31                             107    0.82 8  252 181 
 VIL  EZ I        1819 17.97        50.5 0.15            106            252 181 
 ELA  HZ EP       1818 48.26                             107    0.56 8  257 229 
 ELA  HN ES   2   1819 16.81                             107    0.52 4  257 229 
 ELA  HZ I        1819 25.39        29.2 0.43            106            257 229 
 CBOC HZ EP       1818 48.87                             106    0.41 8  267 257 
 CBOC HN ES   4   1819 15.45                             106   -2.19 0  267 257 
 CBOC HZ I        1819 21.03        13.8 0.07            105            267 257 
 ANIL HZ EP       1818 51.57                             105    0.73 7  286 223 
 ANIL HN ES   4   1819 24.13                             105    2.25 0  286 223 
 ANIL HZ I        1819 31.54        51.7 0.28            103            286 223 
 DBB  EZ EP       1818 51.68                             105    0.55 7  290 284 
 DBB  EN ES       1819 21.57                             105   -0.82 7  290 284 
 DBB  EZ I        1819 25.31        11.7 0.14            103            290 284 
 PTGC HZ EP   9   1818 50.08                             104   -1.63 0  296 145 
 PTGC HN IS       1819 21.57                                   -0.22 7  296 145 
 ORTC HZ EP       1818 54.63                             103   -0.77 7  326 213 
 ORTC HN ES       1819 30.86                             103    0.87 7  326 213 
 APAC HZ EP       1819  0.50                             101    0.71 6  363 297 
 APAC HN ES       1819 38.30                             101    0.50 6  363 297 
 APAC HZ I        1819 42.99         5.2 0.13             99            363 297 
 SJC  HZ EP   4   1819  4.99                             100   -2.05 0  422 337 
 SJC  HN ES   4   1819 48.14                             100   -2.57 0  422 337 
 MACC HZ ES   4   1819 58.11                              98   -2.97 0  470 183 
 CAP2 HZ EP   4   1819 11.68                              98   -2.15 0  478 302 
 CAP2 HN ES   4   1819 57.37                              98   -5.43 0  478 302 
 URI  HZ EP   4   1819 28.03                              81   -2.53 0  615  17 
 URI  HN ES   4   1820 29.05                              81   -3.52 0  615  17 
 URI  HZ I        1820 31.44         2.3 0.49             92            615  17 
                                                                                
