 2017  112 1105 57.2 L   6.602 -73.511105.2  RSN  9 0.4 1.8LRSN                1
 GAP= 69        0.95       2.8     2.8  5.7 -0.1913E+00  0.5422E+01  0.4424E+01E
 Epicentro: EL CARMEN - SANTANDER                                              3
 ACTION:UPD 17-05-22 15:58 OP:jn   STATUS:               ID:20170112110557 L   I
 OLDACT:DUP 17-01-12 21:17 OP:cara STATUS:               ID:20170112105743d    3
 OLDACT:REG 17-01-12 20:08 OP:cara STATUS:               ID:20170112105742     3
 2017-01-12-1058-00M.COL___340                                                 6
 STAT SP IPHASW D HRMM SECON CODA AMPLIT PERI AZIMU VELO AIN AR TRES W  DIS CAZ7
 BAR2 EZ IP     C 11 6 12.55                             160    0.1310 36.4  92 
 BAR2 EZ ES       11 6 24.67                             160    0.3710 36.4  92 
 BRR  HZ EP       11 6 13.08                             148   -0.2710 60.1 338 
 BRR  HN ES       11 6 25.92                             148   -0.0510 60.1 338 
 BRR  HZ I        11 6 27.12        19.7 0.46            150           60.1 338 
 RUS  HZ EP       11 6 16.41                             136   -0.0210 91.7 149 
 RUS  HN ES       11 6 31.93                             136    0.4810 91.7 149 
 RUS  HZ I        11 6 32.74        22.2 0.64            137           91.7 149 
 PTB  HZ EP   4   11 6 15.65                             131   -1.28 0  105 266 
 PTB  HN ES       11 6 32.29                             131   -0.0610  105 266 
 PTB  HZ I        11 6 35.77        14.4 0.10            131            105 266 
 PAM  EZ IP     C 11 6 18.91                             127   -0.2110  121  48 
 PAM  EN ES       11 6 35.69                             127   -0.5510  121  48 
 PAM  EZ I        11 6 37.39        10.0 0.32            130            121  48 
 ZAR  HZ EP       11 6 25.14                             115    0.66 9  178 304 
 ZAR  HN ES       11 6 45.74                             115   -0.04 9  178 304 
 ZAR  HZ I        11 6 49.36        12.2 0.20            116            178 304 
 NOR  HZ EP       11 6 26.09                             114    0.36 9  189 233 
 NOR  HN ES       11 6 47.48                             114   -0.53 9  189 233 
 NOR  HZ I        11 6 52.15         6.5 0.20            114            189 233 
 CHI  HZ EP       11 6 29.98                             110    0.36 8  220 186 
 CHI  HN ES       11 6 54.12                             110   -0.81 8  220 186 
 CHI  HZ I        11 7  3.15         2.4 0.40            111            220 186 
 GUY2CHZ EP       11 6 34.19                             107    0.31 8  256 234 
 GUY2CHN ES       11 7  2.37                             107   -0.15 8  256 234 
 GUY2CHZ  IAML    11 7 10.29         3.3 0.56                           256 234 
                                                                                
