 2014 1012 1921 43.9 L   7.528 -73.292130.0  RSN  7 0.5 1.6LRSN                1
 GAP=110        1.00       4.5     4.7  7.6  0.1153E+01  0.1224E+02  0.3386E+00E
 Epicentro: EL PLAYON - SANTANDER                                              3
 ACTION:UPD 14-11-29 23:49 OP:nd   STATUS:               ID:20141012192143 L   I
 OLDACT:REG 14-10-12 21:21 OP:fm   STATUS:               ID:20141012191743     3
 2014-10-12-1917-43M.COL___287                                                 6
 STAT SP IPHASW D HRMM SECON CODA AMPLIT PERI AZIMU VELO AIN AR TRES W  DIS CAZ7
 BRR  HZ EP   1   1922  3.12                             152    0.14 7 65.6 225 
 BRR  HN ES       1922 18.54                             152    0.6310 65.6 225 
 BRR  HZ I        1922 21.96         9.1 0.24            153           65.6 225 
 PAM  SZ EP       1922  4.24                             151    0.3710 68.7 108 
 PAM  SN ES       1922 19.63                             151    0.1510 68.7 108 
 PAM  SZ I        1922 22.31         4.5 0.44            161           68.7 108 
 OCA  HN ES   1   1922 19.02                             147   -0.74 7 78.7 358 
 BAR2 SZ EP       1922  5.89                             139   -0.1310  104 173 
 BAR2 SZ ES   1   1922 22.62                             139   -0.68 7  104 173 
 BAR2 SZ I        1922 23.94        15.9 0.44            146            104 173 
 SML  HZ EP   1   1922 11.94                             125    0.70 7  165 329 
 SML  HN ES   1   1922 32.13                             125   -0.47 7  165 329 
 SML  HZ I        1922 39.34         6.0 0.28            127            165 329 
 PTB  HZ EP   1   1922 11.29                             124   -0.36 7  169 230 
 PTB  HZ IP       1922 11.29                             124   -0.36 9  169 230 
 PTB  HN ES   1   1922 32.90                             124   -0.44 7  169 230 
 PTB  HZ I        1922 36.55         5.1 0.34            128            169 230 
 ZAR  HZ EP   1   1922 12.01                             124   -0.05 7  173 269 
 ZAR  HN ES   1   1922 34.66                             124    0.60 7  173 269 
 ZAR  HZ I        1922 42.48         3.2 0.32            126            173 269 
                                                                                
