 2012  512 1553  4.4 L   6.807 -73.171145.0  RSN  9 0.4 2.4LRSN                1
 GAP=133        0.80       3.8     4.2  6.3  0.2021E+00  0.7953E+01  0.4325E+01E
 Epicentro: LOS SANTOS - SANTANDER                                             3
 ACTION:UP  12-07-05 12:04 OP:pat  STATUS:               ID:20120512155304 L   I
 2012-05-12-1550-00M.COL___195                                                 6
 STAT SP IPHASW D HRMM SECON CODA AMPLIT PERI AZIMU VELO SNR AR TRES W  DIS CAZ7
 BAR2 SZ IP       1553 23.90                             170     0.010   24 183 
 BAR2 SZ ES   1   1553 38.79                             170    -0.4 7   24 183 
 BAR2 SZ I        1553 39.94        50.1 0.38                            24 183 
 BRR  HZ EP       1553 25.69                             153     0.410   68 299 
 BRR  HZ I        1553 26.06        54.3 0.09                            68 299 
 BRR  HN ES   2   1553 42.19                             153     0.6 5   68 299 
 PAM  SZ EP       1553 26.67                             150     0.110   79  41 
 PAM  SN ES   1   1553 43.79                             150    -0.1 7   79  41 
 RUS  HZ EP       1553 27.87                             143    -0.210  102 174 
 RUS  HE ES   1   1553 46.96                             143     0.3 7  102 174 
 RUS  HZ I        1553 48.41        31.2 0.28                           102 174 
 PTB  HZ EP       1553 30.55                             132    -0.5 9  145 258 
 PTB  HZ I        1553 31.97        22.8 0.21                           145 258 
 PTB  HN ES   1   1553 51.76                             132    -0.1 7  145 258 
 ZAR  HZ EP   1   1553 35.95                             123    -0.5 6  201 292 
 ZAR  HN ES   1   1554  1.56                             123     0.1 6  201 292 
 ZAR  HZ I        1554  7.75        39.4 0.36                           201 292 
 CHI  HZ EP   1   1553 42.46                             117     0.4 6  249 194 
 CHI  HN ES   1   1554 10.97                             117    -0.4 6  249 194 
 CHI  HZ I        1554 20.01        12.1 0.68                           249 194 
 HEL  HZ EP   2   1553 45.01                             115     0.8 4  270 256 
 HEL  HN ES   2   1554 15.38                             115     0.0 4  270 256 
 HEL  HZ I        1554 23.04        15.2 0.46                           270 256 
 PRA  HZ EP   1   1553 57.97                             106     0.2 4  391 209 
 PRA  HE ES   1   1554 40.05                             106     0.6 4  391 209 
                                                                                
