 2011 1112 1415 51.0 L   6.682 -73.631 14.5  RSN  5 0.5 1.5LRSN                1
 GAP=158        1.10       3.8     5.3  9.1  0.1300E+02  0.3341E+02  0.1415E+02E
 Epicentro: EL CARMEN DE CHUCURI - SANTANDER                                   3
 ACTION:UPD 12-07-13 16:09 OP:ep   STATUS:               ID:20111112141551 L   I
 2011-11-12-1413-17S.COL___179                                                 6
 STAT SP IPHASW D HRMM SECON CODA AMPLIT PERI AZIMU VELO AIN AR TRES W  DIS CAZ7
 BRR  HZ EP       1415 58.96                             104   -0.0310 47.9 349 
 BRR  HZ I        1415 59.46        22.1 0.17                          47.9 349 
 BRR  HE ES       1416  5.12                             104   -0.1410 47.9 349 
 BAR2 SZ EP       1415 59.64                             104   -0.0110 50.6 101 
 BAR2 SZ ES   1   1416  6.16                             104   -0.28 7 50.6 101 
 BAR2 SZ I        1416  6.73        24.6 0.15                          50.6 101 
 RUS  HZ EP       1416  8.93                              96    0.6910  106 145 
 RUS  HE ES   1   1416 20.81                              96   -0.92 7  106 145 
 RUS  HZ I        1416 23.31         5.4 0.18                           106 145 
 PAM  SZ EP   1   1416 12.17                              95    0.94 7  126  55 
 PAM  SN ES   1   1416 26.70                              95   -0.34 7  126  55 
 ZAR  HN ES       1416 34.69                              56   -0.18 9  162 304 
 ZAR  HZ I        1416 37.29        20.2 0.18                           162 304 
                                                                                
