 2013  712 1654 44.5 L   6.806 -73.151141.6  RSN 11 0.5 2.2LRSN                1
 GAP= 71        1.16       3.7     3.9  7.2 -0.2064E+01  0.3741E+01  0.8454E+00E
 Epicentro: LOS SANTOS - SANTANDER                                             3
 ACTION:UPD 13-08-12 10:37 OP:ep   STATUS:               ID:20130712165444 L   I
 OLDACT:UP  13-07-14 23:05 OP:Juan STATUS:               ID:20130712165444 L   3
 OLDACT:REG 13-07-12 16:22 OP:stll STATUS:               ID:20130712164851     3
 2013-07-12-1648-51M.COL___222                                                 6
 STAT SP IPHASW D HRMM SECON CODA AMPLIT PERI AZIMU VELO AIN AR TRES W  DIS CAZ7
 BAR2 SZ EP       1655  3.76                             170    0.1010 23.9 188 
 BAR2 SZ ES       1655 18.91                             170    0.3210 23.9 188 
 BAR2 SZ I        1655 20.41        17.9 0.24            170           23.9 188 
 GIR2 SZ EP       1655  3.95                             167    0.2810 30.5 351 
 GIR2 SZ ES   4   1655 17.26                             167   -1.35 0 30.5 351 
 BRR  HZ EP       1655  5.75                             152    0.5810 70.3 298 
 BRR  HN ES   4   1655 22.66                             152    1.39 0 70.3 298 
 BRR  HN I        1655 23.22        56.7 0.28            152           70.3 298 
 PAM  SZ EP       1655  6.83                             150    0.5510 77.2  40 
 PAM  SN ES       1655 23.60                             150    0.3410 77.2  40 
 PAM  SN I        1655 26.05        32.9 0.48            153           77.2  40 
 RUS  HZ EP       1655  7.85                             143   -0.0710  101 176 
 RUS  HN ES       1655 26.39                             143    0.2210  101 176 
 RUS  HN I        1655 27.23        11.2 0.24            145            101 176 
 GRA  SZ EP       1655  9.64                             136    0.2910  125  18 
 GRA  SZ ES       1655 27.89                             136   -0.8310  125  18 
 PTB  HZ EP       1655 10.70                             131   -0.40 9  147 259 
 PTB  HN ES       1655 31.36                             131   -0.48 9  147 259 
 PTB  HN I        1655 36.72        22.9 0.26            132            147 259 
 CAPV BZ EP       1655 11.57                             131    0.01 9  149  38 
 TAM  HZ EP   1   1655 12.35                             129    0.41 7  156 105 
 TAM  HN ES       1655 32.22                             129   -1.11 9  156 105 
 ZAR  HE ES       1655 41.33                             122   -0.30 9  203 292 
 CHI  HZ EP       1655 21.89                             116   -0.16 8  249 195 
 CHI  HN ES       1655 51.33                             116    0.01 8  249 195 
 CHI  HN I        1655 53.92        16.0 0.44            118            249 195 
                                                                                
