 2010  312 1732 49.0 L   6.345 -73.499122.6  RSN 10 0.5 2.1LRSN                1
 GAP= 85        1.07       4.2     6.1  9.6  0.1999E+01  0.3946E+02  0.8542E+01E
 Epicentro: CONTRATACION - SANTANDER                                           3
 ACTION:UP  10-08-24 09:53 OP:vdl  STATUS:               ID:20100312173249 L   I
 2010-03-12-1731-46S.COL___093                                                 6
 STAT SP IPHASW D HRMM SECON CODA AMPLIT PERI AZIMU VELO SNR AR TRES W  DIS CAZ7
 BAR2 SZ IP     D 1733  6.96                             159     0.410   44  52 
 BAR2 SZ ES   1   1733 20.07                             159    -0.2 7   44  52 
 RUS  HZ EP   1   1733  8.38                             149     0.2 7   68 137 
 RUS  HN ES       1733 23.10                             149     0.010   68 137 
 RUS  HZ I        1733 24.06        22.0 0.28                            68 137 
 BRR  HZ IP       1733  8.53                             142    -0.310   88 344 
 BRR  HN ES       1733 23.99                             142    -0.310   88 344 
 BRR  HZ I        1733 28.70        32.6 0.41                            88 344 
 CHI  HN ES   1   1733 42.22                             119    -0.5 7  191 188 
 CHI  HZ I        1733 46.20         7.5 0.45                           191 188 
 OCA  SZ ES   2   1733 47.36                             116     1.6 4  210   5 
 HEL  HZ EP       1733 22.81                             114     0.0 8  225 266 
 HEL  HN ES       1733 49.63                             114     0.4 8  225 266 
 HEL  HZ I        1733 51.12        10.9 0.24                           225 266 
 RREF HZ EP   1   1733 27.02                             111     0.0 6  260 232 
 RREF HN ES   1   1733 57.51                             111     0.8 6  260 232 
 RREF HZ I        1734  1.21         9.7 0.25                           260 232 
 TOL  SZ EP   1   1733 28.99                             109     0.0 6  280 226 
 DBB  SZ EP       1733 31.07                             107    -0.9 7  309 284 
 PRA  HN ES   2   1734  9.33                             105    -0.4 3  329 208 
                                                                                
