 2012  712 1112 11.9 L   6.787 -73.154142.5  RSN  8 0.4 1.8LRSN                1
 GAP= 71        1.10       4.9     5.1  6.6 -0.2141E+00  0.1584E+01 -0.1167E+01E
 Epicentro: LOS SANTOS - SANTANDER                                             3
 ACTION:UPD 12-08-14 11:44 OP:ep   STATUS:               ID:20120712111211 L   I
 2012-07-12-1110-00M.COL___194                                                 6
 STAT SP IPHASW D HRMM SECON CODA AMPLIT PERI AZIMU VELO AIN AR TRES W  DIS CAZ7
 BAR2 SZ EP   1   1112 31.30                             171     0.2 7   22 188 
 BAR2 SZ ES       1112 45.60                             171    -0.510   22 188 
 BAR2 SZ I        1112 48.10        19.7 0.22            163             22 188 
 BRR  HZ EP       1112 33.02                             152     0.310   71 300 
 BRR  HZ I        1112 33.52        28.0 0.12            138             71 300 
 BRR  HN ES       1112 49.68                             152     0.810   71 300 
 PAM  SZ EP       1112 34.06                             150     0.210   79  39 
 PAM  SE ES       1112 50.98                             150     0.010   79  39 
 RUS  HZ EP       1112 35.36                             144     0.110   99 175 
 RUS  HN ES   1   1112 53.22                             144    -0.2 7   99 175 
 RUS  HZ I        1112 55.41         3.5 0.31            137             99 175 
 PTB  HZ EP       1112 38.01                             131    -0.5 9  147 259 
 PTB  HE ES   1   1112 58.76                             131    -0.5 7  147 259 
 PTB  HZ I        1113  1.68         9.1 0.17            120            147 259 
 TAM  HZ EP       1112 39.40                             130     0.0 9  156 104 
 OCA  HZ EP       1112 39.82                             129    -0.2 9  162 354 
 OCA  HE ES   1   1113  1.31                             129    -0.7 7  162 354 
 ZAR  HZ EP       1112 44.23                             122     0.1 9  204 293 
 ZAR  HZ I        1113 15.24         7.3 0.12            112            204 293 
