 2010 1212 1756 58.6 L   6.788 -73.116141.6  RSN 13 0.4 2.8LRSN                1
 GAP=138        0.86       2.9     5.9  5.3 -0.4902E+01  0.1301E+02  0.1603E+01E
 Epicentro: LOS SANTOS - SANTANDER                                             3
 ACTION:UP  11-01-14 15:24 OP:pat  STATUS:               ID:20101212175658 L   I
 2010-12-12-1755-02S.COL___136                                                 6
 STAT SP IPHASW D HRMM SECON CODA AMPLIT PERI AZIMU VELO SNR AR TRES W  DIS CAZ7
 BAR2 SZ IP       1757 17.82                             170     0.110   23 199 
 BAR2 SZ I        1757 18.40       197.8 0.34            170             23 199 
 BAR2 SZ ES   1   1757 33.02                             170     0.4 7   23 199 
 GIR2 SZ IP   2   1757 16.90                             166    -0.9 5   33 345 
 GIR2 SZ ES   1   1757 32.33                             166    -0.5 7   33 345 
 RUS  HZ EP       1757 21.66                             143    -0.210   99 178 
 RUS  HE ES       1757 39.85                             143    -0.110   99 178 
 RUS  HZ I        1757 41.80       109.4 0.23                            99 178 
 GRA  SZ IP       1757 23.65                             136     0.210  126  16 
 GRA  SZ ES       1757 43.36                             136     0.410  126  16 
 GRA  SZ I        1757 44.36       107.7 0.29                           126  16 
 OCA  SZ EP       1757 26.16                             128    -0.6 9  162 352 
 OCA  SZ ES   1   1757 48.69                             128     0.0 7  162 352 
 OCA  SZ I        1757 54.73        83.2 0.15                           162 352 
 YOP  SZ EP       1757 28.29                             126     0.2 9  176 154 
 YOP  SZ I        1757 53.43        36.5 0.59                           176 154 
 NOR  SZ EP   2   1757 33.98                             117    -0.3 4  237 235 
 CHI  HZ EP       1757 35.77                             116    -0.3 8  248 196 
 CHI  HZ I        1757 38.55        33.2 0.46                           248 196 
 CHI  HN ES   2   1758  5.66                             116     0.4 4  248 196 
 HEL  HZ EP       1757 39.51                             114     0.6 8  275 256 
 HEL  HN ES   3   1758 10.45                             114     0.1 2  275 256 
 HEL  HZ I        1758 16.86        33.8 0.16                           275 256 
 GUY  SZ EP       1757 42.38                             111     0.1 7  303 235 
 GUY  SN ES   2   1758 16.01                             111    -0.3 4  303 235 
 GUY  SZ I        1758 24.03        52.0 0.24                           303 235 
 RREF HZ EP       1757 44.73                             110     0.0 7  323 230 
 RREF HN ES   1   1758 20.69                             110    -0.1 5  323 230 
 RREF HZ I        1758 29.37        46.7 0.24                           323 230 
 TOL  SZ EP       1757 47.39                             108     0.5 7  345 225 
 PRA  HZ EP       1757 51.55                             106    -0.5 6  392 210 
                                                                                
