 2010  612 1321 52.6 L   6.808 -73.223148.8  RSN  6 0.4 1.3LRSN                1
 GAP=183        0.79       9.3    41.4 12.0 -0.3272E+03  0.2558E+03 -0.5622E+02E
 Epicentro: ZAPATOCA - SANTANDER                                               3
 ACTION:UP  10-08-24 10:09 OP:vdl  STATUS:               ID:20100612132152 L   I
 2010-06-12-1316-40S.COL___117                                                 6
 STAT SP IPHASW D HRMM SECON CODA AMPLIT PERI AZIMU VELO SNR AR TRES W  DIS CAZ7
 BAR2 SZ EP   1   1322 12.65                             170     0.1 8   24 170 
 BAR2 SZ ES   2   1322 28.10                             170    -0.1 5   24 170 
 RUS  HZ EP   1   1322 16.54                             144    -0.2 8  102 171 
 RUS  HZ I        1322 17.70         3.5 0.22                           102 171 
 RUS  HE ES   2   1322 35.50                             144    -0.1 5  102 171 
 BRI  SZ EP   1   1322 17.16                             141     0.2 8  111  25 
 GUE  SZ EP   1   1322 16.78                             140    -0.9 8  118  16 
 GRA  SZ EP       1322 18.41                             137     0.210  128  21 
 GRA  SZ ES   2   1322 38.94                             137     0.7 5  128  21 
 CHI  HZ EP   1   1322 30.79                             118     0.5 6  247 193 
                                                                                
