 2011 1212 1613 47.1 L   6.772 -73.169139.6  RSN  5 0.3 1.5LRSN                1
 GAP=135        0.53       5.9     5.8  8.4 -0.1454E+01  0.1599E+02 -0.2013E+01E
 Epicentro: LOS SANTOS - SANTANDER                                             3
 ACTION:UPD 12-07-13 16:15 OP:ep   STATUS:               ID:20111212161347 L   I
 2011-12-12-1610-00M.COL___185                                                 6
 STAT SP IPHASW D HRMM SECON CODA AMPLIT PERI AZIMU VELO AIN AR TRES W  DIS CAZ7
 BAR2 SZ EP   1   1614  5.96                             172    0.04 7 20.0 184 
 BAR2 SZ ES   2   1614 20.05                             172   -0.55 5 20.0 184 
 BAR2 SZ I        1614 21.83         9.7 0.27                          20.0 184 
 BRR  HZ EP   1   1614  7.77                             151    0.23 7 70.5 302 
 BRR  HN ES   2   1614 23.92                             151    0.44 5 70.5 302 
 BRR  HZ I        1614 34.73        18.1 0.53                          70.5 302 
 PAM  SN ES   2   1614 25.72                             148   -0.20 5 81.4  40 
 RUS  HN ES   2   1614 28.26                             143    0.33 5 97.8 174 
 RUS  HZ I        1614 29.39         2.1 0.33                          97.8 174 
 PTB  HZ EP   2   1614 12.76                             131   -0.52 5  145 260 
 PTB  HN ES   2   1614 33.52                             131   -0.18 5  145 260 
                                                                                
