 2010  512 1747 58.8 L   6.714 -72.995149.4  RSN  4 0.2 2.2LRSN                1
 GAP=228        0.36       4.5     6.3  5.2 -0.1414E+02 -0.7253E+01  0.1151E+01E
 Epicentro: ARATOCA - SANTANDER                                                3
 ACTION:UP  10-08-24 10:04 OP:vdl  STATUS:               ID:20100512174758 L   I
 2010-05-12-1745-34S.COL___105                                                 6
 STAT SP IPHASW D HRMM SECON CODA AMPLIT PERI AZIMU VELO AIN AR TRES W  DIS CAZ7
 BAR2 SZ EP   1   1748 19.00                             170     0.1 7   25 237 
 BAR2 SZ ES   2   1748 34.49                             170    -0.1 5   25 237 
 BRR  HZ IP     C 1748 21.57                             147     0.010   90 299 
 BRR  HZ I        1748 21.83        26.0 0.15                            90 299 
 BRR  HE ES   2   1748 39.08                             147    -0.2 5   90 299 
 GUE  SZ EP   1   1748 24.34                             138    -0.1 7  124   4 
 GUE  SZ ES   2   1748 44.83                             138     0.4 5  124   4 
 GRA  SZ EP   1   1748 24.75                             137    -0.1 7  131   9 
 GRA  SZ ES   2   1748 44.94                             137    -0.2 5  131   9 
                                                                                
