 2017 1212 1713 18.8 L   6.814 -73.198141.6  RSN  8 0.5 2.0LRSN                1
 GAP=107        1.24       3.9     4.4  7.9 -0.1218E+01  0.9020E+01  0.3200E+01E
 Epicentro: ZAPATOCA - SANTANDER                                               3
 ACTION:UPD 18-01-04 13:19 OP:rebc STATUS:               ID:20171212171318 L   I
 OLDACT:REG 17-12-12 21:24 OP:osc  STATUS:               ID:20171212170739     3
 2017-12-12-1708-00M.COL___464                                                 6
 STAT SP IPHASW D HRMM SECON CODA AMPLIT PERI AZIMU VELO AIN AR TRES W  DIS CAZ7
 BAR2 EZ EP       1713 37.85                             170   -0.0810 24.5 176 
 BAR2 EZ ES       1713 52.85                             170   -0.0310 24.5 176 
 BAR2 EZ I        1713 55.59        19.9 0.48            170           24.5 176 
 PAM  EZ EP       1713 40.72                             149    0.0010 80.1  43 
 PAM  EN ES       1713 57.90                             149    0.0710 80.1  43 
 PAM  EZ I        1713 59.96        14.8 0.52            154           80.1  43 
 PTB  HZ EP       1713 43.45                             132   -1.47 9  142 258 
 PTB  HE ES       1714  5.46                             132    0.15 9  142 258 
 PTB  HZ I        1714  8.49         5.0 0.26            133            142 258 
 OCA  HZ EP       1713 46.97                             129    0.40 9  158 355 
 OCA  HN ES       1714  8.18                             129   -0.07 9  158 355 
 OCA  HZ I        1714 11.69        18.0 0.24            132            158 355 
 SPBC HZ EP       1713 46.68                             128   -0.05 9  161 217 
 SPBC HE ES       1714  8.54                             128    0.00 9  161 217 
 SPBC HZ I        1714 15.65        15.4 0.26            131            161 217 
 YPLC HZ EP       1713 48.28                             125   -0.40 9  181 150 
 YPLC HN ES       1714 12.42                             125    0.41 9  181 150 
 YPLC HZ I        1714 13.13        15.4 0.26            130            181 150 
 ZAR  HZ EP       1713 50.30                             122   -0.04 9  198 292 
 ZAR  HN ES       1714 15.32                             122    0.36 9  198 292 
 ZAR  HZ I        1714 24.71         7.2 0.16            124            198 292 
 ROSC BZ EP   4   1713 58.71                             116    2.22 0  251 210 
 GUY2CHZ EP       1714  3.07                             112    1.31 7  297 234 
 GUY2CHN ES       1714 35.41                             112    0.12 7  297 234 
 GUY2CHZ I        1714 43.93         4.4 0.40                           297 234 
                                                                                
