 2014 1012 1202  0.5 L   6.745 -73.192153.1  RSN  6 0.4 1.4LRSN                1
 GAP=196        0.84       5.9     6.6  8.2  0.1313E+02  0.9285E+01 -0.1104E+02E
 Epicentro: VILLANUEVA - SANTANDER                                             3
 ACTION:UPD 14-11-29 23:49 OP:nd   STATUS:               ID:20141012120200 L   I
 OLDACT:REG 14-10-12 21:03 OP:fm   STATUS:               ID:20141012115745     3
 2014-10-12-1157-45M.COL___278                                                 6
 STAT SP IPHASW D HRMM SECON CODA AMPLIT PERI AZIMU VELO AIN AR TRES W  DIS CAZ7
 BAR2 SZ EP   1   12 2 21.01                             173    0.07 7 17.0 176 
 BAR2 SZ ES   1   12 2 37.45                             173    0.60 7 17.0 176 
 BAR2 SZ I        12 2 37.72         6.7 0.16            176           17.0 176 
 BRR  HZ EP   1   12 2 22.82                             154    0.40 7 70.0 305 
 BRR  HN ES       12 2 39.51                             154    0.0310 70.0 305 
 BRR  HZ I        12 2 41.84         6.3 0.42            153           70.0 305 
 RUS  HN ES   1   12 2 42.69                             147   -0.74 7 95.1 173 
 RUS  HZ I        12 2 44.69         2.1 0.40            150           95.1 173 
 PTB  HZ EP   1   12 2 27.47                             135   -0.11 7  142 261 
 PTB  HN ES       12 2 48.67                             135    0.00 9  142 261 
 PTB  HZ I        12 2 51.22         3.4 0.14            135            142 261 
 ZAR  HZ EP   1   12 2 33.76                             124    0.52 6  202 294 
 ZAR  HN ES   1   12 2 58.50                             124   -0.24 6  202 294 
 ZAR  HZ I        12 3  2.02         1.9 0.10            124            202 294 
 SML  HZ EP   4   12 2 34.02                             119   -3.93 0  247 337 
 SML  HE ES   1   12 3  6.36                             119   -0.78 6  247 337 
 SML  HZ I        12 3 11.43         3.0 0.10            119            247 337 
                                                                                
