 2013 1212 1806 36.9 L   6.797 -73.139148.9  RSN  9 0.5 2.2LRSN                1
 GAP=138        1.12       3.8     4.6  6.7 -0.2126E+01  0.8240E+01 -0.2093E+01E
 Epicentro: LOS SANTOS - SANTANDER                                             3
 ACTION:UPD 14-01-13 10:17 OP:ep   STATUS:               ID:20131212180636 L   I
 OLDACT:UP  13-12-12 17:07 OP:cam  STATUS:               ID:20131212180000     3
 OLDACT:UP  13-12-12 17:07 OP:cam  STATUS:               ID:20131212180000     3
 OLDACT:REG 13-12-12 14:55 OP:cma  STATUS:               ID:20131212180000     3
 2013-12-12-1800-00M.COL___285                                                 6
 STAT SP IPHASW D HRMM SECON CODA AMPLIT PERI AZIMU VELO AIN AR TRES W  DIS CAZ7
 BAR2 SZ IP       18 6 56.85                             171   -0.0910 23.1 192 
 BAR2 SZ ES       18 7 12.34                             171   -0.2110 23.1 192 
 BAR2 SZ I        18 7 13.50        30.8 0.46            170           23.1 192 
 BRR  HZ IP       18 6 58.71                             153    0.2310 72.1 298 
 BRR  HE ES       18 7 16.17                             153    0.8910 72.1 298 
 BRR  HZ I        18 7 21.07        17.2 0.20            150           72.1 298 
 PAM  SZ IP     C 18 6 59.63                             151    0.1510 77.2  39 
 PAM  SE ES       18 7 16.99                             151   -0.0710 77.2  39 
 PAM  SZ I        18 7 18.99        13.9 0.56            155           77.2  39 
 RUS  HZ EP       18 7  1.20                             145    0.2310  100 176 
 RUS  HN ES       18 7 19.41                             145   -0.3110  100 176 
 RUS  HZ I        18 7 20.65        13.9 0.26            148            100 176 
 PTB  HZ EP       18 7  3.54                             133   -0.69 9  148 259 
 PTB  HN ES       18 7 25.04                             133   -0.47 9  148 259 
 PTB  HZ I        18 7 30.52        12.2 0.44            132            148 259 
 SPBC HZ EP   1   18 7  6.33                             130    0.63 7  163 219 
 SPBC HN ES       18 7 28.05                             130   -0.09 9  163 219 
 SPBC HZ I        18 7 31.86        23.0 0.24            131            163 219 
 ZAR  HN ES       18 7 35.92                             123    0.70 9  205 292 
 ZAR  HZ I        18 7 41.91        18.2 0.30            124            205 292 
 NOR  HZ EP       18 7 13.26                             119    0.36 8  235 235 
 NOR  HN ES       18 7 40.64                             119   -0.31 8  235 235 
 NOR  HZ I        18 7 46.06        10.9 0.26            121            235 235 
 SML  HZ EP       18 7 13.78                             118   -0.03 8  244 335 
 SML  HN ES       18 7 41.67                             118   -0.90 8  244 335 
 SML  HZ I        18 7 45.39        28.4 0.10            120            244 335 
 GUY2CHZ EP   4   18 7 22.19                             113    1.45 0  302 235 
                                                                                
