 2013  312 1942 39.9 L   6.755 -73.136142.2  RSN  5 0.4 1.7LRSN                1
 GAP=140        0.74       5.0     5.6  8.5  0.4262E+00  0.7338E+01  0.3202E+01E
 Epicentro: LOS SANTOS - SANTANDER                                             3
 ACTION:UPD 13-04-09 14:02 OP:ep   STATUS:               ID:20130312194239 L   I
 2013-03-12-1940-00M.COL___231                                                 6
 STAT SP IPHASW D HRMM SECON CODA AMPLIT PERI AZIMU VELO AIN AR TRES W  DIS CAZ7
 BRR  HZ EP   1   1943  1.22                             151    0.41 7 74.6 302 
 BRR  HZ I        1943 14.63         7.6 0.41            115           74.6 302 
 BRR  HN ES   1   1943 17.50                             151    0.34 7 74.6 302 
 PAM  SZ EP       1943  1.92                             149    0.0410 80.6  37 
 PAM  SZ I        1943  2.40         8.5 0.26            130           80.6  37 
 PAM  SN ES   1   1943 18.71                             149   -0.36 7 80.6  37 
 RUS  HZ EP   1   1943  3.30                             144    0.42 7 95.5 176 
 RUS  HN ES   1   1943 20.64                             144   -0.21 7 95.5 176 
 RUS  HN I        1943 23.72        11.8 0.24            113           95.5 176 
 PTB  HZ EP   1   1943  5.91                             131   -0.63 7  148 261 
 PTB  HN EP   1   1943 27.11                                            148 261 
 PTB  HZ I        1943 30.46         4.8 0.16            102            148 261 
 ZAR  HN ES   2   1943 37.36                             121   -0.37 4  207 293 
 ZAR  HZ I        1943 44.48         3.6 0.25             98            207 293 
                                                                                
