 2010  312 1438 15.5 L   6.836 -72.978143.9  RSN  6 0.4 1.6LRSN                1
 GAP=256        0.59       5.0     7.8  6.6  0.1917E+02 -0.8785E+01  0.4956E+01E
 Epicentro: CEPITA - SANTANDER                                                 3
 ACTION:UP  10-08-24 09:53 OP:vdl  STATUS:               ID:20100312143815 L   I
 2010-03-12-1434-59S.COL___092                                                 6
 STAT SP IPHASW D HRMM SECON CODA AMPLIT PERI AZIMU VELO SNR AR TRES W  DIS CAZ7
 BAR2 SZ EP   1   1438 35.24                             164     0.0 7   35 220 
 BAR2 SZ ES   2   1438 50.73                             164     0.2 5   35 220 
 BRR  HZ EP       1438 37.33                             147    -0.110   87 290 
 BRR  HN ES       1438 54.37                             147    -0.110   87 290 
 RUS  HZ EP       1438 39.53                             142     0.110  105 186 
 RUS  HN ES   1   1438 58.06                             142     0.0 7  105 186 
 RUS  HZ I        1438 59.31         5.2 0.73                           105 186 
 CHI  HZ EP   2   1438 53.32                             116    -0.8 4  258 199 
 CHI  HZ I        1438 54.48         2.8 0.27                           258 199 
 CHI  HN ES   3   1439 23.07                             116    -1.1 2  258 199 
 RREF HN ES   2   1439 42.02                             109     1.1 3  339 231 
 RREF HZ I        1439 43.67         2.3 0.57                           339 231 
 PRA  HN ES   2   1439 52.84                             106    -0.5 3  405 212 
                                                                                
