 2012 1112 1800 10.6 L   6.803 -73.151150.7  RSN  8 0.4 2.0LRSN                1
 GAP=136        1.14       4.2     5.8  8.0  0.1800E+00  0.6595E+01 -0.2973E+01E
 Epicentro: LOS SANTOS - SANTANDER                                             3
 ACTION:UPD 12-12-05 15:33 OP:}ep  STATUS:               ID:20121112180010 L   I
 2012-11-12-1800-00M.COL___230                                                 6
 STAT SP IPHASW D HRMM SECON CODA AMPLIT PERI AZIMU VELO AIN AR TRES W  DIS CAZ7
 BAR2 SZ IP       18 0 30.91                             171    0.0710 23.5 188 
 BAR2 SZ I        18 0 30.98        19.6 0.22                          23.5 188 
 BAR2 SZ ES       18 0 46.22                             171   -0.3910 23.5 188 
 GIR2 SZ EP       18 0 31.06                             168    0.2010 30.9 351 
 BRR  HZ IP       18 0 32.83                             154    0.5710 70.5 299 
 BRR  HZ I        18 0 33.01        10.8 0.30                          70.5 299 
 BRR  HN ES       18 0 50.06                             154    0.9210 70.5 299 
 PAM  SZ EP       18 0 33.80                             152    0.4410 77.5  40 
 PAM  SE ES       18 0 51.02                             152   -0.0910 77.5  40 
 PAM  SN I        18 0 51.87        11.7 0.22                          77.5  40 
 RUS  HZ EP       18 0 34.79                             145   -0.0810  101 176 
 RUS  HN ES       18 0 53.47                             145   -0.3310  101 176 
 RUS  HN I        18 0 55.04        15.1 0.42                           101 176 
 PTB  HZ EP       18 0 37.65                             133   -0.29 9  147 259 
 PTB  HN ES       18 0 59.01                             133   -0.24 9  147 259 
 PTB  HN I        18 1  4.07        13.2 0.26                           147 259 
 OCA  HN ES       18 1  1.11                             131   -0.52 9  160 353 
 OCA  HN I        18 1  6.39        25.7 0.22                           160 353 
 SML  HN ES       18 1 15.55                             118   -0.66 8  243 335 
                                                                                
