 2013 1212 1707 41.3 L   6.797 -73.144148.1  RSN 13 0.4 2.2LRSN                1
 GAP=137        0.89       3.0     3.6  5.1 -0.5368E+00  0.4858E+01  0.1933E+00E
 Epicentro: LOS SANTOS - SANTANDER                                             3
 ACTION:UPD 14-01-13 10:17 OP:ep   STATUS:               ID:20131212170741 L   I
 OLDACT:UP  13-12-12 16:47 OP:cam  STATUS:               ID:20131212170000     3
 OLDACT:REG 13-12-12 14:53 OP:cma  STATUS:               ID:20131212170000     3
 2013-12-12-1700-00M.COL___285                                                 6
 STAT SP IPHASW D HRMM SECON CODA AMPLIT PERI AZIMU VELO AIN AR TRES W  DIS CAZ7
 BAR2 SZ EP       17 8  1.17                             171   -0.0610 23.1 190 
 BAR2 SZ ES       17 8 16.43                             171   -0.3210 23.1 190 
 BAR2 SZ I        17 8 17.61        35.7 0.12            172           23.1 190 
 BRR  HZ EP       17 8  3.13                             153    0.3910 71.4 299 
 BRR  HN ES       17 8 19.98                             153    0.5410 71.4 299 
 BRR  HZ I        17 8 23.49        21.5 0.32            150           71.4 299 
 PAM  SZ EP       17 8  4.10                             151    0.3110 77.5  39 
 PAM  SN ES       17 8 21.32                             151   -0.0010 77.5  39 
 PAM  SN I        17 8 22.38        26.1 0.62            152           77.5  39 
 RUS  HZ EP       17 8  5.06                             144   -0.2210  100 176 
 RUS  HN ES       17 8 23.99                             144    0.0210  100 176 
 RUS  HZ I        17 8 25.29        11.4 0.24            147            100 176 
 PTB  HZ EP       17 8  8.11                             132   -0.38 9  148 259 
 PTB  HN ES       17 8 29.23                             132   -0.45 9  148 259 
 PTB  HZ I        17 8 31.75        19.2 0.38            132            148 259 
 SPBC HZ EP   4   17 8  8.43                             130   -1.56 0  163 219 
 SPBC HN ES       17 8 32.34                             130   -0.01 9  163 219 
 SPBC HZ I        17 8 34.77        30.2 0.22            131            163 219 
 ZAR  HZ EP       17 8 13.82                             123   -0.12 9  204 292 
 ZAR  HN ES       17 8 39.90                             123    0.51 9  204 292 
 ZAR  HZ I        17 8 45.29        14.8 0.32            123            204 292 
 NOR  HZ EP       17 8 17.77                             119    0.59 8  235 235 
 NOR  HE ES       17 8 44.99                             119   -0.16 8  235 235 
 NOR  HZ I        17 8 48.74        16.5 0.18            120            235 235 
 SML  HZ EP   2   17 8 17.28                             118   -0.83 4  244 335 
 SML  HN ES       17 8 46.11                             118   -0.70 8  244 335 
 SML  HZ I        17 8 51.94        21.3 0.10            118            244 335 
 CHI  HZ EP       17 8 19.26                             118    0.14 8  248 195 
 GUY2CHZ EP   4   17 8 26.03                             113    1.00 0  301 235 
 GUY2CHE ES   4   17 9  0.37                             113    1.24 0  301 235 
 GUY2CHZ I        17 9  7.30         7.9 0.32                           301 235 
 COD  HZ EP   4   17 8 29.13                             109   -0.69 0  349 355 
 COD  HN ES   4   17 9  7.90                             109    0.25 0  349 355 
 COD  HZ I        17 9 11.73         7.7 0.80            110            349 355 
 SJC  HZ EP   4   17 8 35.36                             106   -1.64 0  410 327 
 SJC  HN ES   4   17 9 16.35                             106   -4.07 0  410 327 
 SJC  HZ I        17 9 22.53         2.5 0.42            106            410 327 
                                                                                
