 2015 1012 1007 13.0 L   6.795 -73.096144.1  RSN  6 0.3 1.4LRSN                1
 GAP=143        0.89       3.2     5.5  5.8 -0.1693E+01  0.6711E+01 -0.2470E+01E
 Epicentro: LOS SANTOS - SANTANDER                                             3
 ACTION:UPD 15-12-22 20:39 OP:cam  STATUS:               ID:20151012100713 L   I
 OLDACT:DUP 15-10-12 21:59 OP:stll STATUS:               ID:20151012095748d    3
 2015-10-12-0957-47M.COL___340                                                 6
 STAT SP IPHASW D HRMM SECON CODA AMPLIT PERI AZIMU VELO AIN AR TRES W  DIS CAZ7
 BAR2 EZ EP       10 7 32.65                             170    0.1910 24.3 203 
 BAR2 EZ ES       10 7 47.21                             170   -0.4310 24.3 203 
 BAR2 EZ I        10 7 49.13         4.4 0.36            166           24.3 203 
 PAM  EZ EP     D 10 7 35.30                             151    0.4210 74.5  36 
 PAM  EZ I        10 7 35.52         3.4 0.22            155           74.5  36 
 PAM  EN ES       10 7 51.88                             151   -0.0610 74.5  36 
 BRR  HZ EP       10 7 34.53                             150    0.2510 76.3 297 
 BRR  HN ES       10 7 51.38                             150    0.5110 76.3 297 
 BRR  HZ I        10 7 54.44         7.0 0.54            147           76.3 297 
 RUS  HZ EP       10 7 36.77                             144    0.2310 99.8 179 
 RUS  HN ES       10 7 54.51                             144   -0.3810 99.8 179 
 RUS  HZ I        10 7 57.80         1.4 0.48            144           99.8 179 
 SPBC HZ EP       10 7 41.54                             128   -0.13 9  166 221 
 SPBC HN ES       10 8  4.04                             128    0.01 9  166 221 
 SPBC HZ I        10 8 10.50         5.7 0.36            127            166 221 
 SML  HZ EP       10 7 49.19                             117   -0.66 8  247 334 
 SML  HN ES       10 8 18.23                             117   -0.36 8  247 334 
 SML  HZ I        10 8 24.55         5.5 0.30            117            247 334 
                                                                                
