 2014  912 1846 41.2 L   6.760 -73.119140.8  RSN  7 0.6 2.0LRSN                1
 GAP=122        2.05       8.0    10.2 13.7 -0.1230E+02  0.2129E+02 -0.1204E+02E
 Epicentro: LOS SANTOS - SANTANDER                                             3
 ACTION:UPD 14-10-03 23:04 OP:nd   STATUS:               ID:20140912184641 L   I
 OLDACT:REG 14-09-12 20:38 OP:stll STATUS:               ID:20140912183820     3
 2014-09-12-1838-20M.COL___293                                                 6
 STAT SP IPHASW D HRMM SECON CODA AMPLIT PERI AZIMU VELO AIN AR TRES W  DIS CAZ7
 BAR2 SZ EP       1847  0.47                             171    0.2610 19.9 201 
 BAR2 SZ ES       1847 15.09                             171    0.0910 19.9 201 
 BAR2 SZ I        1847 16.71        29.2 0.16            172           19.9 201 
 BRR  HZ EP       1847  2.66                             150    0.5210 76.0 300 
 BRR  HN ES       1847 19.46                             150    1.0210 76.0 300 
 BRR  HZ I        1847 23.96        18.3 0.52            150           76.0 300 
 PAM  SZ EP       1847  3.62                             149    0.5810 79.0  36 
 PAM  SZ I        1847  3.83        37.7 0.28            152           79.0  36 
 PAM  SN ES       1847 20.10                             149    0.0710 79.0  36 
 RUS  HZ EP       1847  4.56                             144    0.3810 96.0 178 
 RUS  HN ES       1847 21.32                             144   -0.7410 96.0 178 
 RUS  HZ I        1847 23.94         6.0 0.34            147           96.0 178 
 PTB  HZ EP       1847  7.53                             130   -0.48 9  150 261 
 PTB  HN ES       1847 28.08                             130   -0.81 9  150 261 
 PTB  HZ I        1847 30.53         9.1 0.28            132            150 261 
 OCA  HZ EP       1847  9.20                             127   -0.43 9  165 352 
 OCA  HE ES       1847 30.90                             127   -0.87 9  165 352 
 OCA  HZ I        1847 34.41        14.1 0.18            129            165 352 
 SOCV BZ EP   9   1847 23.56                             111   -0.50 0  301  56 
 SOCV BN ES       1847 54.25                                   -2.71 7  301  56 
                                                                                
