 2011  412 1534 59.8 L   6.826 -73.030141.5  RSN  5 0.2 1.9LRSN                1
 GAP=180        0.43       4.2     5.1  5.4 -0.8692E+01 -0.2855E+01 -0.7432E+00E
 Epicentro: CEPITA - SANTANDER                                                 3
 ACTION:UP  11-06-22 15:30 OP:REBC STATUS:               ID:20110412153459 L   I
 2011-04-12-1520-00M.COL___139                                                 6
 STAT SP IPHASW D HRMM SECON CODA AMPLIT PERI AZIMU VELO SNR AR TRES W  DIS CAZ7
 BAR2 SZ EP   1   1535 19.18                             167     0.0 7   31 213 
 BAR2 SZ ES   1   1535 34.02                             167    -0.2 7   31 213 
 BAR2 SZ I        1535 35.13        23.5 0.25                            31 213 
 GIR2 SZ EP   2   1535 19.29                             166     0.2 5   33 327 
 PAM  SZ EP   2   1535 21.11                             153     0.1 5   67  33 
 PAM  SN ES   2   1535 37.91                             153     0.4 5   67  33 
 BRR  HZ EP   1   1535 21.03                             148    -0.1 7   82 292 
 BRR  HZ I        1535 21.34        19.1 0.19                            82 292 
 BRR  HN ES   1   1535 37.96                             148     0.2 7   82 292 
 GRA  SZ EP   2   1535 24.28                             137     0.1 5  120  12 
 GRA  SZ ES   1   1535 42.94                             137    -0.3 7  120  12 
 GRA  SZ I        1535 45.04         8.3 0.46                           120  12 
                                                                                
