 2012  212 1710 38.7 L   6.761 -73.121128.3  RSN  5 0.4 1.3LRSN                1
 GAP=141        0.78       4.7     5.5  8.0  0.5677E+01  0.5870E+01  0.2139E+01E
 ACTION:UP  12-03-07 16:29 OP:epov STATUS:               ID:20120212171038 L   I
 2012-02-12-1710-00M.COL___188                                                 6
 STAT SP IPHASW D HRMM SECON CODA AMPLIT PERI AZIMU VELO AIN AR TRES W  DIS CAZ7
 BAR2 SZ ES   1   1711  9.07                             171   -0.71 7 19.8 200 
 BRR  HZ EP   1   1710 58.35                             147    0.07 7 75.7 300 
 BRR  HN ES   1   1711 14.19                             147    0.64 7 75.7 300 
 BRR  HZ I        1711 19.67         6.5 0.12                          75.7 300 
 PAM  SZ EP   1   1710 59.04                             147   -0.18 7 79.2  36 
 PAM  SN ES   1   1711 15.34                             147    0.13 7 79.2  36 
 RUS  HZ IP       1711  0.50                             141    0.0610 96.1 177 
 RUS  HZ EP       1711  0.50                             141           96.1 177 
 RUS  HN ES   1   1711 17.63                             141    0.25 7 96.1 177 
 RUS  HZ I        1711 19.74         2.4 0.16                          96.1 177 
 ZAR  HN ES   1   1711 34.91                             118   -0.43 6  208 293 
                                                                                
