 2016  712 1244 38.7 L   6.825 -73.131145.9  RSN 16 0.5 2.3LRSN                1
 GAP= 91        1.11       3.7     3.8  5.4 -0.3477E+00  0.7459E+00 -0.2072E+00E
 Epicentro: LOS SANTOS - SANTANDER                                             3
 ACTION:UPD 17-03-29 16:50 OP:lp   STATUS:               ID:20160712124438 L   I
 OLDACT:UP  16-07-12 23:39 OP:dani STATUS:               ID:20160712123760d    3
 OLDACT:UP  16-07-12 23:39 OP:dani STATUS:               ID:20160712123760d    3
 OLDACT:UP  16-07-12 23:38 OP:dani STATUS:               ID:20160712123760d    3
 OLDACT:DUP 16-07-12 23:30 OP:dani STATUS:               ID:20160712123760d    3
 2016-07-12-1237-59S.COL___325                                                 6
 STAT SP IPHASW D HRMM SECON CODA AMPLIT PERI AZIMU VELO AIN AR TRES W  DIS CAZ7
 BAR2 HZ EP       1244 58.41                             169   -0.0210 26.4 192 
 BAR2 HZ ES       1245 13.69                             169   -0.1110 26.4 192 
 BAR2 HZ I        1245 14.23        55.2 0.36            166           26.4 192 
 BRR  HZ EP     C 1245  0.22                             152    0.3310 71.3 296 
 BRR  HE ES       1245 17.02                             152    0.6210 71.3 296 
 BRR  HZ I        1245 17.65        35.3 0.13            150           71.3 296 
 RUS  HZ EP       1245  2.47                             143   -0.2110  103 177 
 RUS  HE ES       1245 20.69                             143   -0.6710  103 177 
 RUS  HZ I        1245 22.87        27.1 0.16            142            103 177 
 PTB  HZ EP       1245  5.02                             132   -0.87 9  150 258 
 PTB  HN ES       1245 26.53                             132   -0.55 9  150 258 
 PTB  HZ I        1245 28.25        29.4 0.12            129            150 258 
 TAM  HZ EP     D 1245  6.84                             131    0.51 9  154 106 
 SPBC HZ EP       1245  7.50                             129   -0.03 9  166 219 
 SPBC HN ES       1245 30.54                             129    0.54 9  166 219 
 SPBC HZ I        1245 35.57        44.2 0.22            127            166 219 
 ZAR  HZ EP       1245 11.62                             122    0.40 9  205 291 
 ZAR  HN ES       1245 36.86                             122    0.29 9  205 291 
 ZAR  HZ I        1245 42.61        29.6 0.28            121            205 291 
 NOR  HZ EP       1245 14.78                             118    0.01 8  238 234 
 NOR  HN ES       1245 42.96                             118    0.07 8  238 234 
 NOR  HZ I        1245 48.18        22.6 0.14            117            238 234 
 CHI  HZ EP       1245 17.68                             117    0.92 8  252 195 
 CHI  HN ES       1245 46.20                             117   -0.24 8  252 195 
 CHI  HZ I        1245 52.32         5.3 0.44            116            252 195 
 HEL  HZ EP   4   1245 20.80                             115    1.61 0  274 255 
 HEL  HN ES   4   1245 49.69                             115   -1.06 0  274 255 
 HEL  HZ I        1245 56.97        19.5 0.34            114            274 255 
 URE  HZ EP       1245 19.12                             114   -0.73 7  284 291 
 URE  HE ES   4   1245 50.08                             114   -1.85 0  284 291 
 URE  HZ I        1245 53.62        13.5 0.14            113            284 291 
 SOCV BZ EP       1245 21.47                             112    0.02 7  298  57 
 SOCV BE ES   4   1245 51.33                             112   -3.45 0  298  57 
 GUY2CHZ EP   4   1245 24.08                             112    1.41 0  304 235 
 GUY2CHN ES     D 1245 57.03                             112    0.09 7  304 235 
 GUY2CHZ I        1246  7.54         9.4 0.64                           304 235 
 PRA  HZ EP       1245 33.31                             106    0.69 6  395 210 
 PRA  HE ES       1246 14.36                             106   -0.30 6  395 210 
 PRA  HZ I        1246 17.54         5.6 0.24            106            395 210 
 SJC  HZ EP       1245 33.02                             106   -1.10 6  408 327 
 PAL  HZ EP       1245 33.83                             106   -0.39 6  408 239 
 PAL  HE ES       1246 17.97                             106    0.47 6  408 239 
 PAL  HZ I        1246 24.91         3.7 0.32            105            408 239 
                                                                                
