 2013 1112 1705 26.1 L   6.787 -73.199142.1  RSN  5 0.4 1.6LRSN                1
 GAP=131        1.17       6.1     5.8  8.6 -0.3224E+01  0.6047E+01  0.2422E+01E
 Epicentro: ZAPATOCA - SANTANDER                                               3
 ACTION:UPD 14-01-09 16:27 OP:ep   STATUS:               ID:20131112170526 L   I
 OLDACT:REG 13-11-12 15:40 OP:stll STATUS:               ID:20131112165818     3
 2013-11-12-1658-18M.COL___207                                                 6
 STAT SP IPHASW D HRMM SECON CODA AMPLIT PERI AZIMU VELO AIN AR TRES W  DIS CAZ7
 BAR2 SZ EP       17 5 45.44                             171    0.1510 21.6 175 
 BAR2 SZ ES       17 5 59.99                             171   -0.2410 21.6 175 
 BAR2 SZ I        17 6  1.05        18.9 0.28            170           21.6 175 
 BRR  HZ EP       17 5 46.97                             153    0.3310 66.8 302 
 BRR  HN ES       17 6  3.50                             153    0.8610 66.8 302 
 PAM  SZ EP       17 5 48.23                             149   -0.0410 82.3  42 
 PAM  SN ES       17 6  4.97                             149   -0.5710 82.3  42 
 PAM  SZ I        17 6  7.02         9.5 0.56            150           82.3  42 
 RUS  HZ EP       17 5 49.49                             143    0.0310 99.7 173 
 RUS  HN ES       17 6  7.91                             143    0.2510 99.7 173 
 RUS  HZ I        17 6  9.76         3.2 0.24            144           99.7 173 
 PTB  HZ EP       17 5 52.19                             132   -0.06 9  142 259 
 PTB  HN ES       17 6 11.80                             132   -0.82 9  142 259 
 PTB  HZ I        17 6 15.10         5.3 0.12            133            142 259 
                                                                                
