 2015  212 1659 18.5 L   6.779 -73.160139.7  RSN  6 0.4 1.6LRSN                1
 GAP=136        1.02       4.7     5.1  7.5 -0.6436E+01  0.1826E+01  0.5461E+01E
 Epicentro: LOS SANTOS - SANTANDER                                             3
 ACTION:UPD 15-04-30 21:25 OP:nd   STATUS:               ID:20150212165918 L   I
 OLDACT:REG 15-02-12 21:02 OP:stll STATUS:               ID:20150212165747     3
 2015-02-12-1657-47M.COL___275                                                 6
 STAT SP IPHASW D HRMM SECON CODA AMPLIT PERI AZIMU VELO AIN AR TRES W  DIS CAZ7
 BAR2 EZ EP       1659 37.16                             171   -0.1410 20.8 187 
 BAR2 EZ ES       1659 51.34                             171   -0.6610 20.8 187 
 BAR2 EZ I        1659 53.64         7.2 0.22            167           20.8 187 
 BRR  HZ EP       1659 39.08                             151    0.1510 70.9 301 
 BRR  HN ES       1659 55.63                             151    0.7310 70.9 301 
 PAM  SZ EP       1659 40.07                             149   -0.1310 80.2  39 
 PAM  SZ I        1659 40.28        13.1 0.20            154           80.2  39 
 PAM  SN ES       1659 57.09                             149   -0.0710 80.2  39 
 RUS  HZ EP       1659 41.44                             143   -0.0110 98.4 175 
 RUS  HE ES       1659 59.95                             143    0.5610 98.4 175 
 RUS  HZ I        17 0  2.61         3.4 0.52            142           98.4 175 
 PTB  HE ES       17 0  4.76                             131   -0.49 9  146 260 
 PTB  HZ I        17 0 11.00         4.3 0.20            130            146 260 
 SPBC HZ EP       1659 46.33                             128    0.11 9  160 219 
 SPBC HN ES       17 0  7.77                             128   -0.11 9  160 219 
 SPBC HZ I        17 0 14.98         6.8 0.40            127            160 219 
                                                                                
