 2013  812 1625 22.6 L   6.780 -73.151141.3  RSN 10 0.5 1.9LRSN                1
 GAP=137        1.29       4.1     5.5  7.0  0.1333E+01  0.1031E+02  0.1117E+01E
 Epicentro: LOS SANTOS - SANTANDER                                             3
 ACTION:UPD 14-01-14 09:01 OP:ep   STATUS:               ID:20130812162522 L   I
 OLDACT:REG 13-08-12 17:12 OP:jn   STATUS:               ID:20130812161959     3
 2013-08-12-1619-59M.COL___271                                                 6
 STAT SP IPHASW D HRMM SECON CODA AMPLIT PERI AZIMU VELO AIN AR TRES W  DIS CAZ7
 BAR2 SZ EP       1625 41.97                             171    0.3210 21.0 189 
 BAR2 SZ ES       1625 56.20                             171   -0.3110 21.0 189 
 BAR2 SZ I        1625 57.72        19.8 0.36            171           21.0 189 
 GIR2 SZ EP       1625 41.98                             166    0.1710 33.4 352 
 GIR2 SZ ES       1625 56.68                             166   -0.1110 33.4 352 
 GIR2 SZ I        1625 59.26         8.7 0.28            165           33.4 352 
 BRR  HZ EP       1625 43.92                             152    0.6110 71.8 300 
 BRR  HN ES       1626  0.50                             152    1.0510 71.8 300 
 BRR  HZ I        1626  4.91        23.5 0.12            150           71.8 300 
 PAM  SZ EP       1625 44.80                             149    0.3210 79.5  39 
 PAM  SN ES       1626  1.56                             149    0.0210 79.5  39 
 PAM  SZ I        1626  3.76        11.9 0.56            153           79.5  39 
 RUS  HZ EP       1625 45.83                             143    0.0710 98.4 176 
 RUS  HN ES       1626  3.26                             143   -0.5610 98.4 176 
 RUS  HZ I        1626  5.33        10.9 0.42            146           98.4 176 
 PTB  HZ EP       1625 48.60                             131   -0.52 9  147 260 
 PTB  HN ES       1626  8.98                             131   -0.82 9  147 260 
 PTB  HZ I        1626 12.86        12.5 0.18            131            147 260 
 OCA  HN ES   1   1626 11.89                             128   -0.87 7  162 353 
 ZAR  HZ EP       1625 55.08                             121    0.28 9  204 293 
 ZAR  HE ES       1626 20.38                             121    0.48 9  204 293 
 ZAR  HZ I        1626 26.32        12.6 0.32            122            204 293 
 CHI  HZ EP   1   1626  0.20                             116    0.40 6  246 195 
 CHI  HN ES       1626 28.99                             116    0.17 8  246 195 
 CHI  HZ I        1626 32.63         4.1 0.26            118            246 195 
 SML  HZ EP       1625 58.42                             116   -0.76 8  246 336 
 SML  HN ES   1   1626 26.75                             116   -0.96 6  246 336 
 SML  HZ I        1626 31.48        15.8 0.10            118            246 336 
                                                                                
