 2017  212 1321 17.8 L   6.766 -73.123141.5  RSN  6 0.2 1.7LRSN                1
 GAP=141        0.56       2.8     2.8  3.6  0.1596E+01  0.8739E+00 -0.1052E+01E
 Epicentro: LOS SANTOS - SANTANDER                                             3
 ACTION:UPD 17-05-24 15:35 OP:jn   STATUS:               ID:20170212132117 L   I
 OLDACT:UP  17-02-12 23:58 OP:edw  STATUS:               ID:20170212131649     3
 OLDACT:REG 17-02-12 21:06 OP:edw  STATUS:               ID:20170212131649     3
 2017-02-12-1318-00M.COL___346                                                 6
 STAT SP IPHASW D HRMM SECON CODA AMPLIT PERI AZIMU VELO AIN AR TRES W  DIS CAZ7
 BAR2 EZ EP       1321 36.66                             171   -0.1510 20.2 199 
 BAR2 EZ ES       1321 51.43                             171   -0.2510 20.2 199 
 BAR2 EZ I        1321 52.43        16.6 0.28            172           20.2 199 
 BRR  HZ IP     C 1321 38.49                             150   -0.1910 75.2 300 
 BRR  HN ES       1321 55.41                             150    0.4110 75.2 300 
 BRR  HZ I        1321 57.07         9.5 0.16            149           75.2 300 
 PAM  EZ IP     D 1321 39.64                             149    0.0310 78.9  36 
 PAM  EN ES       1321 56.66                             149    0.0010 78.9  36 
 PAM  EZ I        1321 58.89        11.0 0.50            150           78.9  36 
 RUS  HZ EP       1321 40.90                             144    0.1010 96.6 177 
 RUS  HN ES       1321 58.88                             144    0.1010 96.6 177 
 RUS  HZ I        1321 59.96         7.7 0.20            146           96.6 177 
 PTB  HZ EP   9   1321 43.38                             131   -1.16 0  149 260 
 PTB  HN ES       1322  4.20                             131   -0.07 9  149 260 
 PTB  HZ I        1322  6.20         6.1 0.44            131            149 260 
 ZAR  HZ EP       1321 50.56                             121    0.24 8  208 293 
 ZAR  HN ES       1322 15.42                             121   -0.29 8  208 293 
 ZAR  HZ I        1322 21.38         6.2 0.32            121            208 293 
 CHI  HN ES   4   1322 25.35                             116    1.49 0  246 196 
                                                                                
