 2013  512 1836 45.7 L   6.808 -73.105145.7  RSN 11 0.5 2.5LRSN                1
 GAP=141        0.93       3.9     4.6  5.8 -0.2427E+01  0.1056E+02  0.3299E+00E
 Epicentro: LOS SANTOS - SANTANDER                                             3
 ACTION:UPD 13-06-20 09:49 OP:ep   STATUS:               ID:20130512183645 L   I
 OLDACT:UP  13-05-20 05:58 OP:CAM  STATUS:               ID:20130512183645 L   3
 2013-05-12-1830-00M.COL___256                                                 6
 STAT SP IPHASW D HRMM SECON CODA AMPLIT PERI AZIMU VELO AIN AR TRES W  DIS CAZ7
 BAR2 SZ EP       1837  5.35                             170   -0.0610 25.4 200 
 BAR2 SZ ES       1837 20.32                             170   -0.4410 25.4 200 
 BAR2 SZ I        1837 22.01        34.0 0.48            167           25.4 200 
 GIR2 SZ EP   1   1837  5.47                             167    0.05 7 31.5 342 
 GIR2 SZ ES       1837 20.47                             167   -0.2910 31.5 342 
 GIR2 SZ I        1837 22.29      3724.6 0.02            166           31.5 342 
 PAM  SZ EP       1837  8.07                             152    0.3210 73.9  37 
 PAM  SZ I        1837  8.33        36.7 0.22            156           73.9  37 
 PAM  SN ES       1837 25.24                             152    0.3210 73.9  37 
 BRR  HZ EP       1837  7.27                             151    0.1710 74.8 296 
 BRR  HN ES       1837 24.38                             151    0.6310 74.8 296 
 BRR  HZ I        1837 28.04        19.8 0.12            149           74.8 296 
 RUS  HZ EP   2   1837  9.26                             144   -0.28 5  101 179 
 RUS  HN ES       1837 28.06                             144   -0.0410  101 179 
 RUS  HZ I        1837 29.83        13.6 0.26            144            101 179 
 PTB  HZ EP   4   1837 12.15                             131   -0.98 0  152 259 
 PTB  HN ES   4   1837 33.13                             131   -1.36 0  152 259 
 PTB  HZ I        1837 36.43        20.6 0.24            130            152 259 
 ZAR  HN ES   1   1837 43.85                             122   -0.35 6  208 291 
 NOR  HZ EP       1837 21.79                             118   -0.13 8  239 235 
 NOR  HN ES       1837 49.83                             118   -0.31 8  239 235 
 NOR  HZ I        1837 55.82        18.8 0.18            118            239 235 
 SML  HZ EP   2   1837 22.13                             117   -0.36 4  245 334 
 SML  HN ES   1   1837 50.11                             117   -1.04 6  245 334 
 SML  HZ I        1837 51.92        27.5 0.26            118            245 334 
 HEL  HZ EP   2   1837 27.79                             114    1.32 4  277 256 
 HEL  HN ES   1   1837 59.00                             114    0.77 6  277 256 
 HEL  HZ I        1838  4.03         8.6 0.40            114            277 256 
 URE  HZ EP   2   1837 26.20                             113   -1.05 4  288 291 
                                                                                
