 2010  512 1649  5.6 L   6.790 -73.015148.9  RSN  9 0.4 2.2LRSN                1
 GAP=171        0.67       3.9     8.1  6.6 -0.1728E+02  0.1590E+01  0.6629E+01E
 Epicentro: CEPITA - SANTANDER                                                 3
 ACTION:UP  10-08-24 10:04 OP:vdl  STATUS:               ID:20100512164905 L   I
 2010-05-12-1648-41S.COL___104                                                 6
 STAT SP IPHASW D HRMM SECON CODA AMPLIT PERI AZIMU VELO AIN AR TRES W  DIS CAZ7
 BAR2 SZ EP   1   1649 25.21                             168    -0.5 7   29 221 
 BAR2 SZ ES   2   1649 41.24                             168    -0.1 5   29 221 
 BRR  HZ EP   1   1649 27.93                             149     0.1 7   85 295 
 BRR  HZ I        1649 28.20        40.8 0.12                            85 295 
 BRR  HN ES   2   1649 45.49                             149     0.3 5   85 295 
 RUS  HZ EP   1   1649 29.62                             145     0.1 7  100 184 
 RUS  HN ES   2   1649 48.22                             145     0.0 5  100 184 
 BRI  SZ EP   1   1649 29.89                             143     0.4 7  105  13 
 BRI  SZ ES   2   1649 48.35                             143     0.2 5  105  13 
 GUE  SZ EP   1   1649 30.74                             140     0.3 7  115   5 
 GUE  SZ ES   2   1649 48.78                             140    -1.1 5  115   5 
 GRA  SZ EP   1   1649 31.06                             138     0.2 7  123  11 
 GRA  SZ ES   2   1649 50.80                             138     0.2 5  123  11 
 CHI  HZ EP   1   1649 43.51                             118    -0.3 6  252 198 
 CHI  HE ES   2   1650 14.29                             118     0.7 4  252 198 
 CHI  HZ I        1650 17.59         4.9 0.73                           252 198 
 RREF BZ EP   1   1649 52.83                             111    -0.2 5  332 231 
 RREF BN ES   2   1650 30.14                             111     0.1 3  332 231 
 RREF BZ I        1650 37.54         7.1 0.38                           332 231 
 PRA  HZ EP   1   1649 59.30                             107    -0.6 4  398 211 
 PRA  HN ES   2   1650 43.12                             107     0.8 3  398 211 
 PRA  HZ I        1650 46.33         3.7 0.28                           398 211 
                                                                                
