 2014  812 1659 19.9 L   6.798 -73.125147.7  RSN 11 0.4 2.0LRSN                1
 GAP=185        0.89       3.0     5.1  6.0  0.5509E+00  0.1182E+01  0.5103E+00E
 Epicentro: LOS SANTOS - SANTANDER                                             3
 ACTION:UPD 14-09-15 21:49 OP:nd   STATUS:               ID:20140812165919 L   I
 OLDACT:REG 14-08-12 22:19 OP:spq  STATUS:               ID:20140812165817     3
 2014-08-12-1658-17M.COL___269                                                 6
 STAT SP IPHASW D HRMM SECON CODA AMPLIT PERI AZIMU VELO AIN AR TRES W  DIS CAZ7
 BAR2 SZ EP       1659 39.67                             171   -0.0510 23.6 196 
 BAR2 SZ ES   1   1659 54.58                             171   -0.64 7 23.6 196 
 BAR2 SZ I        1659 55.65        47.2 0.34            169           23.6 196 
 BRR  HZ EP     C 1659 41.52                             152    0.1910 73.4 298 
 BRR  HE ES       1659 58.47                             152    0.3910 73.4 298 
 BRR  HZ I        17 0  1.74        18.8 0.28            150           73.4 298 
 RUS  HZ EP   1   1659 43.51                             144   -0.26 7  100 177 
 RUS  HE ES   1   17 0  2.52                             144    0.10 7  100 177 
 RUS  HZ I        17 0  3.27         7.7 0.22            145            100 177 
 PTB  HZ EP       1659 46.77                             132   -0.41 9  150 259 
 PTB  HN ES       17 0  8.20                             132   -0.30 9  150 259 
 PTB  HZ I        17 0 10.59         7.6 0.18            131            150 259 
 OCA  HE ES       17 0 11.23                             130    0.63 9  161 352 
 OCA  HZ I        17 0 14.80        17.9 0.34            131            161 352 
 SPBC HZ EP       1659 48.67                             129    0.04 9  164 220 
 SPBC HN ES       17 0 11.24                             129    0.18 9  164 220 
 SPBC HZ I        17 0 16.83        10.2 0.14            129            164 220 
 ZAR  HN ES       17 0 18.18                             123   -0.06 8  206 292 
 ZAR  HZ I        17 0 24.38         8.1 0.38            122            206 292 
 SML  HZ EP       1659 56.10                             118   -0.62 8  245 335 
 SML  HN ES   1   17 0 25.02                             118   -0.45 6  245 335 
 SML  HZ I        17 0 29.88        15.9 0.09            118            245 335 
 MON  HZ EP   4   17 0  7.29                             109   -1.87 0  356 308 
 MON  HN ES   4   17 0 45.86                             109   -1.76 0  356 308 
 MON  HZ I        17 0 46.43         2.1 0.18            109            356 308 
 PRA  HZ EP     D 17 0 14.39                             107    0.83 6  393 210 
 PRA  HN ES   1   17 0 56.18                             107    0.74 4  393 210 
 PRA  HZ I        17 1  2.89         3.8 0.28            107            393 210 
 SJC  HZ EP   4   17 0 13.95                             106   -1.70 0  411 327 
 SJC  HE ES   4   17 0 54.75                             106   -4.42 0  411 327 
 SJC  HZ I        17 0 59.55         2.5 0.49            106            411 327 
                                                                                
