 2017 1212 1720 30.1 L   6.835 -73.199145.2  RSN 11 0.6 2.3LRSN                1
 GAP=106        1.28       3.4     4.4  7.5 -0.6360E+00  0.8774E+01 -0.1527E+01E
 Epicentro: ZAPATOCA - SANTANDER                                               3
 ACTION:UPD 18-01-04 13:19 OP:rebc STATUS:               ID:20171212172030 L   I
 OLDACT:UP  17-12-13 00:25 OP:osc  STATUS:               ID:20171212171750     3
 OLDACT:REG 17-12-12 21:24 OP:osc  STATUS:               ID:20171212171750     3
 2017-12-12-1718-00M.COL___457                                                 6
 STAT SP IPHASW D HRMM SECON CODA AMPLIT PERI AZIMU VELO AIN AR TRES W  DIS CAZ7
 BAR2 EZ EP       1720 49.44                             169   -0.2810 26.9 176 
 BAR2 EZ ES       1721  4.63                             169   -0.4110 26.9 176 
 BAR2 EZ I        1721  5.70        44.1 0.30            171           26.9 176 
 PAM  EZ EP       1720 52.29                             150   -0.0110 78.4  45 
 PAM  EN ES       1721  9.45                             150   -0.1810 78.4  45 
 PAM  EZ I        1721 11.58        21.1 0.54            153           78.4  45 
 PTB  HZ EP       1720 56.17                             133   -0.39 9  143 257 
 PTB  HE ES       1721 17.93                             133    0.72 9  143 257 
 PTB  HZ I        1721 19.14        11.8 0.13            134            143 257 
 OCA  HZ EP       1720 57.59                             130   -0.34 9  156 355 
 OCA  HN ES       1721 19.74                             130    0.09 9  156 355 
 OCA  HZ I        1721 23.74        49.1 0.18            132            156 355 
 SPBC HZ EP       1720 58.27                             129   -0.21 9  163 217 
 SPBC HN ES       1721 20.68                             129    0.04 9  163 217 
 SPBC HZ I        1721 24.65        27.9 0.16            131            163 217 
 YPLC HZ EP     C 1720 59.91                             125   -0.53 9  183 150 
 YPLC HE ES       1721 24.97                             125    0.84 9  183 150 
 ZAR  HZ EP       1721  1.29                             123   -0.49 9  197 292 
 ZAR  HE ES       1721 26.84                             123    0.33 9  197 292 
 ZAR  HZ I        1721 32.65        20.0 0.24            125            197 292 
 ROSC BZ EP   4   1721 10.41                             116    2.20 0  253 209 
 ROSC BN ES       1721 38.29                             116    0.34 8  253 209 
 URE  HZ EP       1721 10.05                             114   -0.30 7  277 292 
 URE  HE ES       1721 40.72                             114   -1.05 7  277 292 
 URE  HZ I        1721 42.04         9.4 0.16            115            277 292 
 DRL03HZ EP       1721 11.27                             113    0.12 7  284 354 
 DRL03HE ES       1721 44.88                             113    1.69 7  284 354 
 GUY2CHZ EP       1721 14.06                             112    0.68 7  299 234 
 GUY2CHE ES   3   1721 48.42                             112    1.26 2  299 234 
 GUY2CHZ I        1721 55.89         9.5 0.58                           299 234 
                                                                                
