 2010  112 1145 33.7 L   6.804 -73.053150.7  RSN 10 0.4 2.6LRSN                1
 GAP=133        0.60       3.5     6.4  5.3 -0.9735E+01  0.8438E+01  0.1238E+01E
 Epicentro: LOS SANTOS - SANTANDER                                             3
 ACTION:UP  10-08-24 09:43 OP:vdl  STATUS:               ID:20100112114533 L   I
 2010-01-12-1143-53S.COL___096                                                 6
 STAT SP IPHASW D HRMM SECON CODA AMPLIT PERI AZIMU VELO SNR AR TRES W  DIS CAZ7
 BAR2 SZ IP       1145 54.00                             169     0.010   28 212 
 BAR2 SZ ES   2   1146  9.50                             169    -0.3 5   28 212 
 GIR2 SZ IP       1145 54.08                             167     0.110   34 333 
 GIR2 SZ ES   2   1146 10.13                             167     0.2 5   34 333 
 RUS  BZ EP   1   1145 58.40                             145     0.5 7  101 182 
 RUS  BE ES   2   1146 16.76                             145    -0.1 5  101 182 
 RUS  BZ I        1146 17.88        28.4 0.25                           101 182 
 OCA  SZ EP   1   1146  1.93                             131    -0.6 7  161 350 
 OCA  SZ ES   2   1146 25.21                             131     0.3 5  161 350 
 CHI  HZ EP   1   1146 11.83                             118    -0.2 6  252 197 
 CHI  HE ES   2   1146 41.49                             118    -0.4 4  252 197 
 CHI  HZ I        1146 47.09        14.8 0.37                           252 197 
 HEL  HZ EP   1   1146 15.33                             115     0.1 6  282 256 
 HEL  HZ I        1146 52.34        30.9 0.38                           282 256 
 RREF BZ EP   1   1146 20.94                             111     0.0 5  330 230 
 RREF BE ES   2   1146 59.02                             111     1.2 3  330 230 
 RREF BZ I        1147  5.70        21.8 0.37                           330 230 
 TOL  SZ EP   1   1146 22.60                             110    -0.4 5  351 226 
 TOL  SZ ES   2   1147  1.50                             110     0.0 3  351 226 
 SDV  BZ EP   1   1146 23.38                             110     0.4 5  352  49 
 PRA  HZ EP   1   1146 27.98                             107     0.0 4  398 211 
 PRA  HE ES   2   1147  9.85                             107    -0.6 3  398 211 
 PRA  HZ I        1147 13.44        19.2 0.50                           398 211 
                                                                                
