 2013  812 1808 30.7 L   6.749 -73.132140.8  RSN  8 0.4 1.5LRSN                1
 GAP=141        0.91       4.6     5.7  6.7  0.3725E-01  0.1205E+01 -0.7080E+00E
 Epicentro: LOS SANTOS - SANTANDER                                             3
 ACTION:UPD 14-01-14 09:01 OP:ep   STATUS:               ID:20130812180830 L   I
 OLDACT:REG 13-08-12 18:00 OP:jn   STATUS:               ID:20130812180750     3
 2013-08-12-1807-50M.COL___221                                                 6
 STAT SP IPHASW D HRMM SECON CODA AMPLIT PERI AZIMU VELO AIN AR TRES W  DIS CAZ7
 BAR2 SZ EP       18 8 49.56                             172   -0.0410 18.2 198 
 BAR2 SZ ES       18 9  5.02                             172    0.6510 18.2 198 
 BAR2 SZ I        18 9  5.71         7.8 0.12            172           18.2 198 
 GIR2 SZ EP   1   18 8 49.62                             164   -0.30 7 37.1 349 
 GIR2 SZ ES       18 9  4.46                             164   -0.4810 37.1 349 
 GIR2 SZ I        18 9  5.93        12.9 0.46            156           37.1 349 
 BRR  HZ EP       18 8 51.57                             150    0.0510 75.4 302 
 BRR  HN ES   1   18 9  8.10                             150    0.31 7 75.4 302 
 PAM  SZ EP       18 8 52.55                             149   -0.0210 81.0  36 
 PAM  SZ I        18 9 10.14         5.2 0.30            136           81.0  36 
 RUS  HZ EP       18 8 53.50                             144   -0.0110 94.8 177 
 RUS  HN ES   1   18 9 11.12                             144   -0.21 7 94.8 177 
 RUS  HZ I        18 9 12.70         3.3 0.44            140           94.8 177 
 PTB  HN ES   1   18 9 17.19                             131   -0.84 7  148 261 
 PTB  HZ I        18 9 19.58         6.4 0.14            128            148 261 
 NOR  HE ES   1   18 9 33.86                             118    0.49 6  233 236 
 SML  HN ES   1   18 9 37.09                             116    0.59 6  250 336 
                                                                                
