 2011  412 1129 36.9 L   6.733 -73.123146.0  RSN  4 0.2 1.9LRSN                1
 GAP=187        0.55       5.9     6.7  6.4 -0.1664E+02 -0.1889E+01 -0.4619E+01E
 Epicentro: JORDAN - SANTANDER                                                 3
 ACTION:UP  11-06-22 15:30 OP:REBC STATUS:               ID:20110412112936 L   I
 2011-04-12-1127-45S.COL___138                                                 6
 STAT SP IPHASW D HRMM SECON CODA AMPLIT PERI AZIMU VELO SNR AR TRES W  DIS CAZ7
 BAR2 SZ EP   1   1129 56.65                             173     0.2 7   17 203 
 BAR2 SZ ES   1   1130 11.64                             173    -0.1 7   17 203 
 BAR2 SZ I        1130 12.62        19.0 0.39                            17 203 
 BRR  HZ EP       1129 58.24                             151    -0.210   77 302 
 BRR  HZ I        1129 58.62        35.6 0.14                            77 302 
 BRR  HN ES   1   1130 15.50                             151     0.3 7   77 302 
 GRA  SZ EP   1   1130  2.99                             136     0.3 7  132  15 
 GRA  SZ ES   2   1130 22.49                             136    -0.4 5  132  15 
 GRA  SZ I        1130 24.03         4.2 0.27                           132  15 
 NOR  SE ES   2   1130 39.98                             119    -0.2 4  233 236 
                                                                                
