 2017  212 1103 33.7 L   6.696 -73.149144.1  RSN  5 0.4 1.2LRSN                1
 GAP=140        1.11       7.1     6.6  8.6  0.1065E+02 -0.3488E+01 -0.1009E+02E
 Epicentro: VILLANUEVA - SANTANDER                                             3
 ACTION:UPD 17-05-24 15:35 OP:jn   STATUS:               ID:20170212110333 L   I
 OLDACT:DUP 17-02-12 22:51 OP:edw  STATUS:               ID:20170212105741d    3
 OLDACT:UP  17-02-12 22:50 OP:edw  STATUS:               ID:20170212105740     3
 OLDACT:UP  17-02-12 22:49 OP:edw  STATUS:               ID:20170212105740     3
 OLDACT:REG 17-02-12 19:59 OP:edw  STATUS:               ID:20170212105740     3
 2017-02-12-1058-00M.COL___343                                                 6
 STAT SP IPHASW D HRMM SECON CODA AMPLIT PERI AZIMU VELO AIN AR TRES W  DIS CAZ7
 BAR2 EZ EP     C 11 3 52.88                             175   -0.1110 12.0 198 
 BAR2 EZ ES       11 4  7.45                             175   -0.5610 12.0 198 
 BAR2 EZ I        11 4  8.85         3.1 0.20            171           12.0 198 
 BRR  HZ EP       11 3 55.02                             150   -0.0310 77.1 306 
 BRR  HN ES       11 4 12.47                             150    0.7910 77.1 306 
 PAM  EZ EP     D 11 3 56.08                             148   -0.2910 86.8  35 
 RUS  HZ EP       11 3 57.12                             147    0.5910 89.1 175 
 RUS  HN ES       11 4 14.42                             147    0.1210 89.1 175 
 RUS  HZ I        11 4 16.37         4.4 0.32            146           89.1 175 
 PTB  HZ EP       11 4  0.18                             132   -0.19 9  146 263 
 PTB  HN ES       11 4 20.76                             132   -0.39 9  146 263 
 PTB  HZ I        11 4 24.72         1.7 0.12            131            146 263 
                                                                                
