 2015 1112 1111  1.1 L   6.787 -73.172140.0  RSN  5 0.3 1.5LRSN                1
 GAP=134        0.63       5.2     3.5  6.5  0.1610E+01  0.3765E+01  0.2141E+01E
 Epicentro: LOS SANTOS - SANTANDER                                             3
 ACTION:UPD 15-12-28 16:10 OP:cam  STATUS:               ID:20151112111101 L   I
 OLDACT:UP  15-11-19 06:51 OP:CARA STATUS:               ID:20151112111101 L   3
 OLDACT:UP  15-11-12 21:53 OP:cara STATUS:               ID:20151112110751d    3
 OLDACT:DUP 15-11-12 21:39 OP:cara STATUS:               ID:20151112110751d    3
 OLDACT:REG 15-11-12 20:22 OP:cara STATUS:               ID:20151112110750     3
 2015-11-12-1107-50M.COL___316                                                 6
 STAT SP IPHASW D HRMM SECON CODA AMPLIT PERI AZIMU VELO AIN AR TRES W  DIS CAZ7
 BAR2 EZ ES   2   1111 34.23                             171   -0.56 5 21.6 183 
 BAR2 EZ I        1111 36.63         5.5 0.40            170           21.6 183 
 BRR  HZ EP       1111 21.92                             152    0.3510 69.4 301 
 BRR  HN ES       1111 37.75                             152    0.2510 69.4 301 
 BRR  HZ I        1111 43.53        11.1 0.26            155           69.4 301 
 PAM  EZ IP     C 1111 22.76                             149   -0.1810 80.3  40 
 PAM  EN ES       1111 39.92                             149   -0.0110 80.3  40 
 PAM  EZ I        1111 41.87         6.6 0.54            155           80.3  40 
 RUS  HZ EP   2   1111 24.37                             143    0.12 5 99.4 174 
 RUS  HN ES   2   1111 42.17                             143   -0.10 5 99.4 174 
 RUS  HZ I        1111 45.24         4.1 0.36            146           99.4 174 
 ZAR  HN ES       1111 57.48                             121   -0.37 9  202 293 
                                                                                
