 2017 1112 1110 56.3 L   7.310 -73.902  9.2  RSN  4 0.2 1.0LRSN                1
 GAP=216        0.51       2.7     1.6  5.4  0.2451E+01  0.9922E+00  0.5096E+00E
 Epicentro: PUERTO WILCHES - SANTANDER                                         3
 ACTION:UPD 17-12-12 19:54 OP:rebc STATUS:               ID:20171112111056 L   I
 OLDACT:REG 17-11-12 21:08 OP:mg   STATUS:               ID:20171112110743     3
 2017-11-12-1108-00M.COL___447                                                 6
 STAT SP IPHASW D HRMM SECON CODA AMPLIT PERI AZIMU VELO AIN AR TRES W  DIS CAZ7
 BRR  HZ IP     D 1111  1.45                             101   -0.1910 30.7 137 
 BRR  HN ES       1111  5.90                             101    0.1010 30.7 137 
 BRR  HZ I        1111  6.16        13.5 0.10             47           30.7 137 
 PTB  HZ EP       1111 13.01                              93    0.1610  105 216 
 PTB  HZ ES       1111 25.65                              93   -0.1010  105 216 
 PTB  HZ I        1111 26.69         3.1 0.18             47            105 216 
 ZAR  HZ EP   2   1111 12.63                              93   -0.59 5  107 281 
 ZAR  HN ES       1111 26.53                              93    0.1310  107 281 
 ZAR  HZ I        1111 28.31         3.7 0.15             47            107 281 
 RUS  HZ EP   2   1111 24.81                              56    0.46 4  181 150 
 RUS  HN ES   2   1111 46.00                              56   -0.21 4  181 150 
 RUS  HZ I        1111 47.34         1.7 0.19             47            181 150 
                                                                                
