 2015 1012 1438  5.5 L   6.807 -73.159139.9  RSN  6 0.4 1.6LRSN                1
 GAP=135        0.98       3.6     6.3  7.1 -0.2017E+00  0.1036E+02 -0.4868E+01E
 Epicentro: LOS SANTOS - SANTANDER                                             3
 ACTION:UPD 15-12-22 20:39 OP:cam  STATUS:               ID:20151012143805 L   I
 OLDACT:DUP 15-10-13 00:18 OP:stll STATUS:               ID:20151012142752d    3
 2015-10-12-1427-50M.COL___337                                                 6
 STAT SP IPHASW D HRMM SECON CODA AMPLIT PERI AZIMU VELO AIN AR TRES W  DIS CAZ7
 BAR2 EZ EP       1438 24.39                             170   -0.0110 23.9 186 
 BAR2 EZ ES       1438 38.66                             170   -0.5110 23.9 186 
 BAR2 EZ I        1438 41.32         7.7 0.24            170           23.9 186 
 BRR  HZ EP       1438 26.40                             152    0.5210 69.6 299 
 BRR  HN ES       1438 42.10                             152    0.2910 69.6 299 
 BRR  HZ I        1438 47.28         5.6 0.12            151           69.6 299 
 PAM  EZ EP   2   1438 28.19                             150    1.12 5 77.7  41 
 PAM  EN ES       1438 44.16                             150    0.2210 77.7  41 
 PAM  EZ I        1438 46.24         9.3 0.54            154           77.7  41 
 RUS  HZ EP       1438 28.47                             142   -0.2310  101 175 
 RUS  HN ES       1438 46.54                             142   -0.2910  101 175 
 RUS  HZ I        1438 47.58         5.5 0.24            146            101 175 
 SPBC HE ES       1438 55.66                             128    0.32 9  163 218 
 SPBC HZ I        1438 59.60         9.9 0.10            130            163 218 
 SML  HZ EP       1438 41.38                             116   -0.24 8  242 336 
 SML  HN ES       1439  9.23                             116   -0.60 8  242 336 
                                                                                
