 2010  812 1308  0.7 L   6.781 -72.890131.2  RSN  5 0.5 1.7LRSN                1
 GAP=194        0.91       6.1    26.2 15.7 -0.5010E+02 -0.2079E+03  0.1890E+02E
 Epicentro: SAN ANDRES - SANTANDER                                             3
 ACTION:UP  10-09-07 10:54 OP:vdl  STATUS:               ID:20100812130800 L   I
 2010-08-12-1305-32S.COL___126                                                 6
 STAT SP IPHASW D HRMM SECON CODA AMPLIT PERI AZIMU VELO SNR AR TRES W  DIS CAZ7
 BAR2 SZ EP       13 8 18.89                             161    -0.110   39 237 
 BAR2 SZ ES   2   13 8 33.47                                     0.2 5   39 237 
 BAR2 SZ I        13 8 35.11        10.9 0.14                            39 237 
 BRR  HN ES   3   13 8 38.11                             139    -0.7 2   98 292 
 RUS  HZ EP   1   13 8 23.12                             139     0.1 7  101 192 
 RUS  HZ I        13 8 42.91         4.0 0.22                           101 192 
 GUE  SZ EP       13 8 24.25                             135     0.210  116 358 
 GUE  SZ ES   1   13 8 41.81                             135    -0.4 7  116 358 
 OCA  SZ EP   2   13 8 27.73                             123    -0.9 5  168 344 
 OCA  SZ ES   2   13 8 51.69                             123     1.2 5  168 344 
 OCA  SZ I        13 8 57.10        12.2 0.03                           168 344 
                                                                                
