 2010  912 1323 51.9 L   6.771 -73.042146.3  RSN  4 0.2 1.6LRSN                1
 GAP=246        0.34       4.1     8.9  5.2  0.1769E+02 -0.1303E-01  0.5125E+01E
 Epicentro: LOS SANTOS - SANTANDER                                             3
 ACTION:UP  11-02-18 11:02 OP:tino STATUS:               ID:20100912132351 L   I
 2010-09-12-1320-11S.COL___120                                                 6
 STAT SP IPHASW D HRMM SECON CODA AMPLIT PERI AZIMU VELO SNR AR TRES W  DIS CAZ7
 BAR2 SZ EP   2   1324 11.56                             170    -0.1 5   25 218 
 BAR2 SZ ES   2   1324 27.15                             170     0.1 5   25 218 
 BAR2 SZ I        1324 29.34         7.5 0.22                            25 218 
 BRR  HZ EP   2   1324 13.54                             149    -0.2 5   83 297 
 BRR  HZ I        1324 24.57         8.6 0.52                            83 297 
 BRR  HE ES   2   1324 30.97                             149     0.1 5   83 297 
 RUS  HZ EP   2   1324 15.61                             145     0.2 5   97 183 
 RUS  HN ES   2   1324 33.64                             145    -0.2 5   97 183 
 CHI  HZ EP   2   1324 29.82                             117     0.2 4  249 198 
 CHI  HE ES   2   1324 59.03                             117     0.0 4  249 198 
                                                                                
