 2012  412 1938 41.9 L   6.748 -73.145149.2  RSN  4 0.4 1.7LRSN                1
 GAP=157        0.94      12.8     7.5  9.4 -0.5119E+02  0.2841E+01  0.5324E+01E
 Epicentro: LOS SANTOS - SANTANDER                                             3
 ACTION:UPD 12-07-05 11:52 OP:tino STATUS:               ID:20120412193841 L   I
 2012-04-12-1935-49M.COL___175                                                 6
 STAT SP IPHASW D HRMM SECON CODA AMPLIT PERI AZIMU VELO AIN AR TRES W  DIS CAZ7
 BAR2 SZ EP   1   1939  1.80                             173    -0.1 7   18 194 
 BAR2 SZ ES   1   1939 17.73                             173     0.3 7   18 194 
 BAR2 SZ I        1939 18.59        20.2 0.24                            18 194 
 BRR  HZ EP       1939  3.89                             152     0.310   74 302 
 BRR  HN ES   1   1939 20.97                             152     0.4 7   74 302 
 BRR  HZ I        1939 21.97         8.0 0.18                            74 302 
 PAM  SZ EP       1939  4.91                             150     0.110   82  37 
 PAM  SN ES   1   1939 21.92                             150    -0.7 7   82  37 
 PTB  HZ EP   1   1939  8.92                             133    -0.2 7  147 261 
 PTB  HN ES   1   1939 29.66                             133    -0.6 7  147 261 
 PTB  HZ I        1939 32.36         2.8 0.13                           147 261 
                                                                                
