 2016  712 1445 29.8 L   6.841 -73.350124.0  RSN 15 0.4 2.9LRSN                1
 GAP= 55        1.00       3.1     3.2  4.9 -0.1962E+01  0.3095E+01 -0.3209E+00E
 Epicentro: SAN VICENTE DE CHUCURI - SANTANDER                                 3
 ACTION:UPD 17-03-29 16:50 OP:lp   STATUS:               ID:20160712144529 L   I
 OLDACT:UP  16-07-13 00:29 OP:dani STATUS:               ID:20160712143760d    3
 OLDACT:UP  16-07-13 00:28 OP:dani STATUS:               ID:20160712143760d    3
 OLDACT:UP  16-07-13 00:22 OP:dani STATUS:               ID:20160712143760d    3
 OLDACT:UP  16-07-13 00:22 OP:dani STATUS:               ID:20160712143760d    3
 OLDACT:UP  16-07-13 00:21 OP:dani STATUS:               ID:20160712143760d    3
 OLDACT:DUP 16-07-13 00:15 OP:dani STATUS:               ID:20160712143760d    3
 OLDACT:REG 16-07-12 22:06 OP:dani STATUS:               ID:20160712143759     3
 2016-07-12-1437-59S.COL___319                                                 6
 STAT SP IPHASW D HRMM SECON CODA AMPLIT PERI AZIMU VELO AIN AR TRES W  DIS CAZ7
 BAR2 EZ EP     D 1445 47.26                             164    0.1310 33.2 146 
 BAR2 EZ ES       1446  0.51                             164   -0.1110 33.2 146 
 BAR2 EZ I        1446  1.68       832.0 0.42            165           33.2 146 
 BRR  HZ EP       1445 47.66                             157    0.2110 49.7 306 
 BRR  HN ES       1446  1.82                             157    0.6310 49.7 306 
 BRR  HZ I        1446  2.46       345.9 0.14            155           49.7 306 
 PAM  EZ EP       1445 50.45                             142   -0.2710 90.5  52 
 PAM  EE ES       1446  6.90                             142   -0.1110 90.5  52 
 PAM  EZ I        1446 10.78       212.3 0.48            146           90.5  52 
 RUS  HZ EP       1445 52.09                             136   -0.1110  109 164 
 RUS  HE ES       1446  9.67                             136    0.0310  109 164 
 RUS  HZ I        1446 11.74        46.4 0.32            137            109 164 
 PTB  HZ EP     D 1445 52.58                             131   -0.5510  127 255 
 PTB  HN ES       1446 10.71                             131   -0.5810  127 255 
 PTB  HZ I        1446 14.71       114.1 0.20            130            127 255 
 SPBC HZ EP       1445 55.70                             125   -0.12 9  154 211 
 SPBC HN ES       1446 15.86                             125   -0.23 9  154 211 
 SPBC HZ I        1446 22.82       113.4 0.20            125            154 211 
 TAM  HZ EP       1445 58.19                             121   -0.04 9  178 105 
 TAM  HE ES   4   1446 18.40                             121   -1.98 0  178 105 
 TAM  HZ I        1446 20.58        34.6 0.18            123            178 105 
 ZAR  HZ EP       1445 59.12                             120    0.58 9  181 293 
 ZAR  HN ES   4   1446 22.53                             120    1.59 0  181 293 
 ZAR  HZ I        1446 26.84       166.4 0.24            120            181 293 
 CHI  HZ EP       1446  7.37                             112    1.00 8  248 190 
 CHI  HE ES       1446 34.91                             112    0.04 8  248 190 
 CHI  HZ I        1446 41.34        33.4 0.46            112            248 190 
 HEL  HZ EP   4   1446  8.17                             112    1.48 0  252 254 
 HEL  HN ES       1446 35.96                             112    0.52 8  252 254 
 HEL  HZ I        1446 41.76        21.6 0.20            112            252 254 
 URE  HZ EP       1446  6.64                             111   -0.71 8  261 293 
 URE  HN ES   4   1446 35.03                             111   -1.58 0  261 293 
 URE  HZ I        1446 43.05        67.8 0.16            111            261 293 
 GUY2CHZ EP   4   1446 11.99                             109    1.23 0  286 231 
 GUY2CHN ES       1446 42.52                             109   -0.16 7  286 231 
 GUY2CHZ I        1446 48.18        29.8 0.56                           286 231 
 LL6C HZ EP       1446 14.63                             106    0.48 7  320   2 
 ANIL HZ EP   4   1446 20.61                             105    3.14 0  345 221 
 ANIL HN ES   4   1446 59.11                             105    4.49 0  345 221 
 ANIL HZ I        1447  3.64        37.9 0.40            105            345 221 
 ARGC HZ EP   4   1446 15.04                             105   -2.37 0  348 344 
 CRJC HZ EP       1446 30.80                             100   -0.69 5  465   6 
                                                                                
