 2014 1012 1147 42.5 L   6.700 -73.204143.9  RSN  6 0.4 1.5LRSN                1
 GAP=220        0.80       5.0     4.9  7.0  0.5928E+01  0.7318E+01  0.5463E+01E
 Epicentro: VILLANUEVA - SANTANDER                                             3
 ACTION:UPD 14-11-29 23:49 OP:nd   STATUS:               ID:20141012114742 L   I
 OLDACT:DUP 14-10-12 23:19 OP:fm   STATUS:               ID:20141012113744d    3
 2014-10-12-1137-43M.COL___281                                                 6
 STAT SP IPHASW D HRMM SECON CODA AMPLIT PERI AZIMU VELO AIN AR TRES W  DIS CAZ7
 BAR2 SZ EP   1   1148  1.27                             175   -0.47 7 12.1 169 
 BAR2 SZ ES   1   1148 16.75                             175    0.00 7 12.1 169 
 BAR2 SZ I        1148 17.94        18.0 0.16            173           12.1 169 
 BRR  HZ EP   1   1148  3.12                             152   -0.39 7 72.0 309 
 BRR  HN ES       1148 20.29                             152    0.4110 72.0 309 
 BRR  HZ I        1148 22.97         7.7 0.38            153           72.0 309 
 RUS  HZ EP       1148  5.68                             146    0.3210 90.3 171 
 RUS  HN ES       1148 23.20                             146    0.0210 90.3 171 
 RUS  HZ I        1148 25.22         4.9 0.26            147           90.3 171 
 PTB  HZ EP       1148  8.70                             133    0.10 9  140 263 
 PTB  HN ES       1148 28.53                             133   -0.41 9  140 263 
 PTB  HZ I        1148 31.75         1.6 0.14            134            140 263 
 SPBC HN ES   1   1148 30.47                             131   -0.41 7  151 220 
 SPBC HZ I        1148 35.39         4.4 0.24            132            151 220 
 GUY2CHN ES   1   1148 58.30                             113    0.65 5  290 236 
 GUY2CHZ I        1149  6.78         1.2 0.52                           290 236 
                                                                                
