 2014  912 1513 47.3 L   6.760 -73.148141.7  RSN  5 0.4 1.7LRSN                1
 GAP=203        1.10       9.0     5.5  8.5 -0.3128E+01 -0.7803E+00 -0.1598E+02E
 Epicentro: LOS SANTOS - SANTANDER                                             3
 ACTION:UPD 14-10-03 23:04 OP:nd   STATUS:               ID:20140912151347 L   I
 OLDACT:DUP 14-09-12 22:41 OP:stll STATUS:               ID:20140912150819d    3
 2014-09-12-1508-18M.COL___293                                                 6
 STAT SP IPHASW D HRMM SECON CODA AMPLIT PERI AZIMU VELO AIN AR TRES W  DIS CAZ7
 BAR2 SZ EP       1514  6.52                             172    0.1710 18.9 191 
 BAR2 SZ I        1514  6.57        18.9 0.20            167           18.9 191 
 BAR2 SZ ES       1514 21.59                             172    0.3810 18.9 191 
 RUS  HZ EP       1514 10.57                             144    0.2510 96.2 176 
 RUS  HZ I        1514 11.52         2.6 0.46            142           96.2 176 
 RUS  HN ES       1514 27.48                             144   -0.8110 96.2 176 
 PTB  HZ EP       1514 13.28                             131   -0.55 9  147 260 
 PTB  HN ES       1514 34.30                             131   -0.22 9  147 260 
 PTB  HZ I        1514 40.39         6.9 0.58            128            147 260 
 TAM  HZ EP       1514 14.55                             130   -0.02 9  154 103 
 SPBC HZ EP       1514 15.41                             129    0.28 9  160 220 
 SPBC HE ES       1514 37.41                             129    0.56 9  160 220 
 SPBC HZ I        1514 43.25         7.6 0.18            126            160 220 
                                                                                
