 2014  512 1431 58.4 L   6.835 -73.179148.3  RSN  5 0.4 1.6LRSN                1
 GAP=131        1.03       4.2     5.4  9.2 -0.5996E+01  0.2109E+02 -0.7500E+01E
 Epicentro: ZAPATOCA - SANTANDER                                               3
 ACTION:UPD 15-03-16 16:57 OP:nd   STATUS:               ID:20140512143158 L   I
 OLDACT:REG 14-05-12 21:33 OP:carl STATUS:               ID:20140512142807     3
 2014-05-12-1428-07M.COL___238                                                 6
 STAT SP IPHASW D HRMM SECON CODA AMPLIT PERI AZIMU VELO AIN AR TRES W  DIS CAZ7
 PAM  SZ IP     D 1432 21.57                             151    0.6810 76.9  44 
 PAM  SN ES       1432 38.32                             151   -0.0810 76.9  44 
 PAM  SZ I        1432 39.08         5.8 0.20            156           76.9  44 
 RUS  HZ EP       1432 22.84                             143    0.1110  105 174 
 RUS  HE ES       1432 41.26                             143   -0.4310  105 174 
 PTB  HZ EP       1432 25.59                             133    0.24 9  145 257 
 PTB  HN ES       1432 46.18                             133   -0.17 9  145 257 
 PTB  HZ I        1432 50.61         3.4 0.14            133            145 257 
 NOR  HZ EP       1432 33.74                             119   -0.49 8  234 233 
 NOR  HN ES       1433  2.75                             119    0.59 8  234 233 
 NOR  HZ I        1433  9.69         2.6 0.16            120            234 233 
 SML  HZ EP       1432 33.92                             118   -0.73 8  239 336 
 SML  HN ES       1433  2.99                             118    0.08 8  239 336 
 SML  HZ I        1433  5.36         5.2 0.12            120            239 336 
                                                                                
