 2016 1012 1027  8.9 L   6.829 -73.147149.4  RSN 26 0.4 2.7LRSN                1
 GAP= 70        1.01       2.8     2.9  4.6 -0.8678E+00  0.3262E+01  0.1006E+01E
 Epicentro: LOS SANTOS - SANTANDER                                             3
 ACTION:UPD 16-11-09 19:18 OP:rebc STATUS:               ID:20161012102708 L   I
 OLDACT:UP  16-10-12 21:28 OP:edw  STATUS:               ID:20161012101746d    3
 OLDACT:UP  16-10-12 21:26 OP:edw  STATUS:               ID:20161012101746d    3
 OLDACT:UP  16-10-12 21:25 OP:edw  STATUS:               ID:20161012101746d    3
 OLDACT:DUP 16-10-12 21:14 OP:edw  STATUS:               ID:20161012101746d    3
 OLDACT:UP  16-10-12 21:13 OP:edw  STATUS:               ID:20161012101745     3
 OLDACT:UP  16-10-12 21:11 OP:edw  STATUS:               ID:20161012101745     3
 OLDACT:UP  16-10-12 21:10 OP:edw  STATUS:               ID:20161012101745     3
 OLDACT:REG 16-10-12 19:35 OP:edw  STATUS:               ID:20161012101745     3
 2016-10-12-1018-00M.COL___372                                                 6
 STAT SP IPHASW D HRMM SECON CODA AMPLIT PERI AZIMU VELO AIN AR TRES W  DIS CAZ7
 BAR2 EZ IP     C 1027 28.88                             170   -0.1210 26.5 189 
 BAR2 EZ ES       1027 44.45                             170   -0.2610 26.5 189 
 BAR2 EZ I        1027 45.12       171.8 0.24            166           26.5 189 
 BRR  HZ IP     C 1027 30.67                             154    0.3410 69.6 296 
 BRR  HN ES       1027 47.05                             154   -0.0110 69.6 296 
 BRR  HZ I        1027 52.70        90.8 0.17            152           69.6 296 
 PAM  EZ IP     C 1027 31.88                             152    0.5410 75.0  41 
 PAM  EN ES       1027 49.07                             152    0.2110 75.0  41 
 PAM  EZ I        1027 51.07        89.2 0.44            158           75.0  41 
 RUS  HZ EP     C 1027 32.82                             144   -0.3910  104 176 
 RUS  HN ES       1027 51.80                             144   -0.3910  104 176 
 RUS  HZ I        1027 53.60        60.6 0.26            143            104 176 
 PTB  HZ EP   9   1027 35.40                             133   -0.79 0  148 258 
 PTB  HN ES       1027 56.64                             133   -0.07 9  148 258 
 PTB  HZ I        1028  3.68        66.8 0.46            131            148 258 
 TAM  HZ IP     D 1027 37.29                             131    0.36 9  156 106 
 TAM  HN ES       1027 58.53                             131   -0.28 9  156 106 
 OCA  HZ EP       1027 37.33                             131    0.16 9  157 353 
 OCA  HN ES       1027 59.59                             131    0.34 9  157 353 
 OCA  HZ I        1028  5.52        90.7 0.42            133            157 353 
 SPBC HZ EP       1027 37.63                             129   -0.25 9  166 218 
 SPBC HN ES       1028  1.00                             129    0.50 9  166 218 
 SPBC HZ I        1028  6.95        97.6 0.28            128            166 218 
 ZAR  HZ EP       1027 41.39                             123   -0.03 9  203 291 
 ZAR  HN ES       1028  6.55                             123   -0.27 9  203 291 
 ZAR  HZ I        1028 12.28        49.4 0.36            123            203 291 
 NOR  HZ EP       1027 44.97                             119   -0.03 8  236 234 
 NOR  HN ES       1028 12.88                             119   -0.30 8  236 234 
 NOR  HZ I        1028 17.54        43.5 0.32            119            236 234 
 CHI  HZ EP       1027 47.08                             117   -0.02 8  252 195 
 CHI  HN ES       1028 16.84                             117   -0.08 8  252 195 
 CHI  HZ I        1028 19.68        34.5 0.36            118            252 195 
 ROSC BZ EP   4   1027 48.78                             117    1.30 0  255 211 
 ROSC BN ES   4   1028 19.72                             117    2.12 0  255 211 
 ROSC BZ I        1028 23.57        47.2 0.40            117            255 211 
 HEL  HZ EP   4   1027 51.10                             115    1.75 0  273 255 
 HEL  HN ES       1028 21.51                             115    0.59 8  273 255 
 HEL  HZ I        1028 28.54        27.3 0.32            115            273 255 
 URE  HZ EP       1027 48.79                             114   -1.19 7  283 291 
 URE  HN ES   4   1028 20.48                             114   -1.56 0  283 291 
 URE  HZ I        1028 26.60        28.1 0.16            115            283 291 
 GUY2CHZ EP       1027 53.85                             113    1.00 7  303 234 
 GUY2CHN ES   4   1028 31.07                             113    3.92 0  303 234 
 GUY2CHZ I        1028 35.06        28.1 0.26                           303 234 
 VIL  EZ EP   4   1027 54.69                             112    1.88 0  306 191 
 VIL  EN ES   4   1028 26.20                             112   -0.87 0  306 191 
 VIL  EZ I        1028 35.53        31.3 0.66            113            306 191 
 PTGC HZ EP   4   1027 52.12                             112   -1.11 0  312 159 
 PTGC HN ES   4   1028 25.55                             112   -2.28 0  312 159 
 PTGC HZ I        1028 36.39        37.5 0.40            113            312 159 
 LL6C HZ EP   4   1027 34.28                             111   -20.1 0  322 358 
 LL6C HN ES   4   1028  9.66                             111   -20.2 0  322 358 
 LL6C HZ I        1028 15.65        13.0 0.44            113            322 358 
 ELA  HZ EP   4   1027 58.15                             111    2.04 0  331 229 
 ELA  HN ES   4   1028 35.82                             111    2.87 0  331 229 
 ELA  HZ I        1028 40.58        20.1 0.26            111            331 229 
 CBOC HZ EP   4   1027 57.31                             110    1.27 0  334 252 
 CBOC HN ES   2   1028 32.72                             110   -0.11 3  334 252 
 CBOC HZ I        1028 36.91         8.7 0.44            111            334 252 
 ARGC HZ EP   4   1027 59.65                             109    1.33 0  356 340 
 ARGC HN ES   4   1028 39.04                             109    2.16 0  356 340 
 ANIL HZ EP   4   1028  0.20                             109    1.13 0  360 224 
 ANIL HN ES   2   1028 38.34                             109    0.11 3  360 224 
 ANIL HZ I        1028 44.58        67.8 0.30            109            360 224 
 SJC  HZ IP     C 1028  3.07                             106   -1.16 6  406 327 
 SJC  HN ES   4   1028 43.82                             106   -3.60 0  406 327 
 SJC  HZ I        1028 50.96         7.2 0.64            107            406 327 
 PAL  HZ EP       1028  4.55                             106    0.22 6  407 239 
 PAL  HN ES       1028 47.53                             106   -0.07 6  407 239 
 PAL  HZ I        1028 51.31        10.6 0.24            107            407 239 
 CRJC HZ EP   9   1028  9.30                             104   -1.80 0  464   4 
 CRJC HN ES       1028 56.26                             107   -1.58 5  464   4 
 CRJC HZ I        1029  4.22        12.4 0.28            105            464   4 
 YOT  HZ EP   4   1028 13.81                             104    1.55 0  474 229 
 YOT  HE ES   4   1029  6.78                             104    5.08 0  474 229 
 YOT  HZ I        1029 13.53         4.7 0.88            104            474 229 
 URI  HZ EP   4   1028 19.67                             101   -1.92 0  554  13 
 URI  HN ES   4   1029 17.54                             101   -0.77 0  554  13 
 URI  HZ I        1029 28.80         2.4 0.42            102            554  13 
                                                                                
