 2014 1012 1730 25.9 L   6.801 -73.145154.5  RSN  9 0.5 1.7LRSN                1
 GAP=137        1.16       4.4     5.1  7.9 -0.1010E+01  0.9377E+01 -0.8715E+01E
 Epicentro: LOS SANTOS - SANTANDER                                             3
 ACTION:UPD 14-11-29 23:49 OP:nd   STATUS:               ID:20141012173025 L   I
 OLDACT:REG 14-10-12 21:17 OP:fm   STATUS:               ID:20141012172745     3
 2014-10-12-1727-45M.COL___284                                                 6
 STAT SP IPHASW D HRMM SECON CODA AMPLIT PERI AZIMU VELO AIN AR TRES W  DIS CAZ7
 BAR2 SZ EP       1730 46.92                             171    0.3510 23.5 190 
 BAR2 SZ ES   1   1731  2.80                             171    0.10 7 23.5 190 
 BAR2 SZ I        1731  4.41         9.8 0.14            169           23.5 190 
 BRR  HZ EP       1730 48.55                             154    0.5610 71.2 298 
 BRR  HN ES       1731  5.49                             154    0.2710 71.2 298 
 BRR  HZ I        1731  8.85         7.3 0.60            151           71.2 298 
 PAM  SZ EP       1730 49.64                             152    0.6110 77.2  40 
 PAM  SN ES       1731  6.43                             152   -0.6410 77.2  40 
 PAM  SZ I        1731  8.52        11.3 0.52            157           77.2  40 
 RUS  HZ EP   1   1730 50.45                             145   -0.07 7  101 176 
 RUS  HN ES       1731  9.46                             145   -0.2610  101 176 
 RUS  HZ I        1731 12.71         2.3 0.28            148            101 176 
 PTB  HZ EP       1730 52.77                             134   -0.82 9  148 259 
 PTB  HN ES       1731 14.59                             134   -0.61 9  148 259 
 PTB  HZ I        1731 19.67         7.0 0.38            133            148 259 
 SPBC HN ES       1731 18.35                             131    0.49 9  163 219 
 SPBC HZ I        1731 24.49         4.3 0.12            132            163 219 
 ZAR  HZ EP       1730 58.63                             124   -0.29 9  204 292 
 ZAR  HN ES       1731 25.12                             124    0.43 9  204 292 
 ZAR  HZ I        1731 34.62         4.2 0.30            125            204 292 
 SML  HZ EP       1731  2.74                             119   -0.27 8  244 335 
 SML  HN ES       1731 31.98                             119    0.02 8  244 335 
 SML  HZ I        1731 36.96         7.1 0.24            121            244 335 
 GUY2CHZ EP   4   1731 13.01                             114    3.07 0  301 235 
 GUY2CHN ES   4   1731 50.03                             114    5.74 0  301 235 
 GUY2CHZ I        1731 55.53         2.3 0.68                           301 235 
 ORTC HZ EP   4   1731 25.82                             108    5.68 0  396 216 
                                                                                
