 2012  512 1521 39.9 L   6.788 -73.150146.2  RSN  9 0.3 2.1LRSN                1
 GAP=137        0.69       3.8     3.9  6.0 -0.1103E+01  0.9303E+01  0.2492E+01E
 Epicentro: LOS SANTOS - SANTANDER                                             3
 ACTION:UP  12-07-05 12:04 OP:pat  STATUS:               ID:20120512152139 L   I
 2012-05-12-1520-00M.COL___195                                                 6
 STAT SP IPHASW D HRMM SECON CODA AMPLIT PERI AZIMU VELO SNR AR TRES W  DIS CAZ7
 BAR2 SZ EP   1   1521 59.40                             171    -0.1 7   22 189 
 BAR2 SZ ES   1   1522 14.62                             171    -0.2 7   22 189 
 BAR2 SZ I        1522 15.83        43.6 0.15                            22 189 
 BRR  HZ EP   1   1522  1.45                             152     0.4 7   71 300 
 BRR  HN ES   2   1522 17.91                             152     0.3 5   71 300 
 BRR  HZ I        1522 19.56        21.1 0.19                            71 300 
 PAM  SZ EP   1   1522  2.48                             150     0.3 7   79  39 
 PAM  SE ES   1   1522 19.29                             150    -0.3 7   79  39 
 RUS  HZ EP   1   1522  3.43                             144    -0.1 7   99 176 
 RUS  HE ES   1   1522 22.54                             144     0.5 7   99 176 
 RUS  HZ I        1522 23.14        16.1 0.39                            99 176 
 PTB  HZ EP   1   1522  6.19                             132    -0.6 7  147 259 
 PTB  HN ES   1   1522 27.41                             132    -0.4 7  147 259 
 PTB  HZ I        1522 29.61        13.7 0.22                           147 259 
 ZAR  HZ EP   1   1522 12.54                             122     0.2 6  204 293 
 ZAR  HN ES   1   1522 37.84                             122     0.2 6  204 293 
 ZAR  HZ I        1522 43.90        10.6 0.21                           204 293 
 HEL  HN ES   2   1522 51.94                             115     0.6 4  271 256 
 RREF HZ EP   2   1522 25.89                             111     0.0 3  321 230 
 RREF HN ES   1   1523  1.85                             111     0.1 5  321 230 
 RREF HZ I        1523 14.95         5.5 0.37                           321 230 
 PRA  HZ EP   2   1522 33.25                             107     0.0 3  391 210 
 PRA  HN ES   1   1523 14.46                             107    -0.4 4  391 210 
                                                                                
