 2010 1012 1032 52.0 L   7.320 -73.081 28.3  RSN  6 0.4 1.5LRSN                1
 GAP=162        1.21       4.0     6.2 11.0 -0.1508E+02  0.2170E+02 -0.2019E+02E
 Epicentro: MATANZA - SANTANDER                                                3
 ACTION:UP  11-02-18 11:09 OP:tino STATUS:               ID:20101012103252 L   I
 2010-10-12-1030-25S.COL___124                                                 6
 STAT SP IPHASW D HRMM SECON CODA AMPLIT PERI AZIMU VELO SNR AR TRES W  DIS CAZ7
 BTL  SZ EP       1033  0.95                             112    -0.210   49 205 
 GUE  SZ EP       1033  1.87                             107    -0.710   59  17 
 GRA  SZ EP       1033  4.60                             101     0.810   70  26 
 GRA  SZ ES   1   1033 12.80                             101    -0.3 7   70  26 
 GRA  SZ I        1033 14.08        26.0 0.37                            70  26 
 BRR  HZ EP       1033  4.61                              99     0.410   74 251 
 BRR  HN ES   1   1033 13.62                              99    -0.1 7   74 251 
 BRR  HZ I        1033 14.59        16.5 0.29                            74 251 
 BAR2 SZ EP       1033  5.75                              97     0.210   81 188 
 BAR2 SZ ES   1   1033 15.74                              97    -0.4 7   81 188 
 BAR2 SZ I        1033 18.99        11.2 0.63                            81 188 
 OCA  SZ EP       1033  8.50                              61     0.010  105 346 
 OCA  SZ ES   2   1033 21.04                              61    -0.3 5  105 346 
 OCA  SZ I        1033 22.85         8.8 0.39                           105 346 
                                                                                
