 2017 1112 1942 47.1 L   6.683 -74.095 20.7  RSN  4 0.3 1.0LRSN                1
 GAP=120        0.86       2.6     2.1  3.2 -0.6792E+00 -0.1202E+01  0.5301E+00E
 Epicentro: PUERTO PARRA - SANTANDER                                           3
 ACTION:UPD 17-12-12 19:54 OP:rebc STATUS:               ID:20171112194247 L   I
 OLDACT:REG 17-11-12 22:03 OP:mg   STATUS:               ID:20171112193744     3
 2017-11-12-1938-00M.COL___450                                                 6
 STAT SP IPHASW D HRMM SECON CODA AMPLIT PERI AZIMU VELO AIN AR TRES W  DIS CAZ7
 PTB  HZ IP     D 1942 54.71                             113   -0.0110 42.9 248 
 PTB  HN ES       1943  0.55                             113   -0.1210 42.9 248 
 PTB  HZ I        1943  0.91         4.6 0.18             47           42.9 248 
 BRR  HZ EP       1942 57.49                             106   -0.1110 63.2  42 
 BRR  HN ES       1943  5.78                             106   -0.0310 63.2  42 
 BRR  HZ I        1943  6.29         8.8 0.34             47           63.2  42 
 ZAR  HZ EP       1943  6.59                              56    0.3110  123 317 
 ZAR  HE ES       1943 21.06                              56   -0.2110  123 317 
 ZAR  HZ I        1943 23.83         3.4 0.11             47            123 317 
 RUS  HZ EP       1943  9.96                              56    0.71 9  142 128 
 RUS  HN ES       1943 26.05                              56   -0.50 9  142 128 
 RUS  HZ I        1943 29.72         2.4 0.20             47            142 128 
                                                                                
