 2010  512 1710 23.8 L   6.756 -72.919147.6  RSN  7 0.5 2.0LRSN                1
 GAP=183        0.88       8.1    17.3 10.8 -0.1003E+03  0.5787E+02 -0.1583E+02E
 Epicentro: CEPITA - SANTANDER                                                 3
 ACTION:UP  10-08-24 10:04 OP:vdl  STATUS:               ID:20100512171023 L   I
 2010-05-12-1707-58S.COL___104                                                 6
 STAT SP IPHASW D HRMM SECON CODA AMPLIT PERI AZIMU VELO AIN AR TRES W  DIS CAZ7
 BAR2 SZ EP   1   1710 43.47                             166    -0.4 7   34 238 
 BAR2 SZ ES   2   1710 58.73                             166    -0.9 5   34 238 
 RUS  HZ EP   1   1710 47.37                             145    -0.1 7   97 191 
 RUS  HZ I        1710 48.52         7.4 0.06                            97 191 
 RUS  HE ES   2   1711  6.50                             145     0.6 5   97 191 
 BRI  SZ EP   1   1710 48.33                             142     0.6 7  107   7 
 GRA  SZ EP   1   1710 49.32                             138     0.2 7  125   6 
 CHI  HZ EP   1   1711  1.58                             117    -0.3 6  252 201 
 CHI  HE ES   2   1711 32.64                             117     1.0 4  252 201 
 CHI  HZ I        1711 34.99         4.7 0.93                           252 201 
 RREF BZ EP   1   1711 11.63                             110    -0.2 5  338 233 
 RREF BN ES   2   1711 49.81                             110     0.4 3  338 233 
 RREF BZ I        1711 53.88         5.4 0.28                           338 233 
 PRA  HZ EP   1   1711 17.56                             107    -0.8 4  401 213 
 PRA  HN ES   2   1712  1.49                             107     0.5 3  401 213 
 PRA  HZ I        1712  5.83         6.3 0.30                           401 213 
                                                                                
