 2016  212 1624 21.0 L   6.790 -73.148140.5  RSN  7 0.4 1.8LRSN                1
 GAP=243        0.55       5.0     5.5  6.3  0.8198E+01  0.8236E+01  0.5488E+01E
 Epicentro: LOS SANTOS - SANTANDER                                             3
 ACTION:UPD 16-03-04 21:25 OP:rebc STATUS:               ID:20160212162421 L   I
 OLDACT:REG 16-02-12 20:21 OP:dnl  STATUS:               ID:20160212161748     3
 2016-02-12-1617-48M.COL___319                                                 6
 STAT SP IPHASW D HRMM SECON CODA AMPLIT PERI AZIMU VELO AIN AR TRES W  DIS CAZ7
 BAR2 EZ EP       1624 40.11                             171    0.1110 22.1 190 
 BAR2 EZ ES   2   1624 55.15                             171    0.35 5 22.1 190 
 BAR2 EZ I        1624 56.69        13.5 0.20            164           22.1 190 
 RUS  HZ EP   2   1624 44.21                             143    0.03 5 99.4 176 
 RUS  HE ES   2   1625  1.55                             143   -0.69 5 99.4 176 
 RUS  HZ I        1625  5.14         5.8 0.40            144           99.4 176 
 PTB  HZ EP   2   1624 46.99                             131   -0.54 5  147 259 
 PTB  HE ES   2   1625  7.99                             131   -0.21 5  147 259 
 PTB  HZ I        1625  8.93         9.1 0.14            129            147 259 
 SPBC HZ EP       1624 49.02                             128   -0.01 9  162 219 
 SPBC HN ES   2   1625 11.64                             128    0.77 5  162 219 
 SPBC HZ I        1625 18.30        10.8 0.12            128            162 219 
 ZAR  HZ EP   2   1624 52.83                             121   -0.33 4  204 292 
 ZAR  HE ES   2   1625 18.19                             121   -0.03 4  204 292 
 ZAR  HZ I        1625 28.32         5.6 0.15            121            204 292 
 CHI  HZ EP       1624 58.46                             116    0.15 8  247 195 
 CHI  HN ES   2   1625 26.77                             116   -0.62 4  247 195 
 CHI  HZ I        1625 30.03         2.5 0.36            118            247 195 
 GUY2CHZ EP   2   1625  4.75                             111    0.45 4  300 235 
 GUY2CHN ES   4   1625 39.76                             111    1.71 0  300 235 
 GUY2CHZ I        1625 50.42         3.7 0.46                           300 235 
                                                                                
