 2012  712 1720  7.1 L   6.752 -73.169146.7  RSN  6 0.4 1.7LRSN                1
 GAP=136        1.06       6.0     6.0  8.2  0.8530E+01  0.9778E+01  0.4563E-01E
 Epicentro: VILLANUEVA - SANTANDER                                             3
 ACTION:UPD 12-08-14 11:44 OP:ep   STATUS:               ID:20120712172007 L   I
 2012-07-12-1720-00M.COL___197                                                 6
 STAT SP IPHASW D HRMM SECON CODA AMPLIT PERI AZIMU VELO AIN AR TRES W  DIS CAZ7
 BAR2 SZ EP       1720 26.71                             173    -0.110   18 185 
 BAR2 SZ ES   1   1720 41.44                             173    -0.7 7   18 185 
 BAR2 SZ I        1720 43.29        14.1 0.32            171             18 185 
 BRR  HZ EP       1720 28.66                             153     0.210   72 303 
 BRR  HZ I        1720 28.92        19.1 0.14            150             72 303 
 BRR  HE ES       1720 45.72                             153     0.710   72 303 
 PAM  SZ EP   1   1720 29.75                             149     0.0 7   83  39 
 PAM  SE ES   1   1720 47.02                             149    -0.5 7   83  39 
 RUS  HZ EP       1720 30.71                             146     0.110   96 174 
 RUS  HN ES       1720 49.20                             146     0.310   96 174 
 RUS  HZ I        1720 50.67         5.2 0.24            147             96 174 
 PTB  HZ EP       1720 33.44                             133    -0.4 9  144 261 
 PTB  HN ES   1   1720 54.25                             133    -0.5 7  144 261 
 PTB  HZ I        1720 56.66         4.8 0.15            132            144 261 
 ZAR  HZ EP   1   1720 39.81                             123     0.2 6  204 294 
 ZAR  HN ES   1   1721  4.76                             123    -0.2 6  204 294 
 ZAR  HZ I        1721 11.30         6.2 0.39            122            204 294 
