 2015 1112 1115  5.3 L   6.803 -73.144139.0  RSN 12 0.4 2.0LRSN                1
 GAP=137        0.91       2.5     3.5  4.8 -0.9156E+00  0.6186E+01  0.1705E+01E
 Epicentro: LOS SANTOS - SANTANDER                                             3
 ACTION:UPD 15-12-28 16:10 OP:cam  STATUS:               ID:20151112111505 L   I
 OLDACT:UP  15-11-12 21:39 OP:cara STATUS:               ID:20151112110750     3
 OLDACT:REG 15-11-12 20:22 OP:cara STATUS:               ID:20151112110750     3
 2015-11-12-1107-50M.COL___316                                                 6
 STAT SP IPHASW D HRMM SECON CODA AMPLIT PERI AZIMU VELO AIN AR TRES W  DIS CAZ7
 BAR2 EZ IP     C 1115 24.08                             170   -0.0310 23.7 190 
 BAR2 EZ ES       1115 38.60                             170   -0.1910 23.7 190 
 BRR  HZ EP       1115 26.18                             151    0.4710 71.2 298 
 BRR  HN ES       1115 41.21                             151   -0.4210 71.2 298 
 BRR  HZ I        1115 43.20        29.1 0.28            154           71.2 298 
 PAM  EZ EP       1115 26.90                             150    0.1410 77.0  40 
 PAM  EN ES       1115 43.87                             150    0.3610 77.0  40 
 PAM  EZ I        1115 46.74        17.3 0.40            151           77.0  40 
 RUS  HZ EP       1115 28.06                             142   -0.3410  101 176 
 RUS  HE ES       1115 46.60                             142    0.1710  101 176 
 RUS  HZ I        1115 47.87         9.2 0.38            141            101 176 
 SPBC HZ EP       1115 33.05                             127   -0.26 9  164 219 
 SPBC HE ES       1115 55.09                             127   -0.08 9  164 219 
 ZAR  HN ES       1116  2.91                             121    0.63 9  204 292 
 NOR  HZ IP     C 1115 40.75                             117    0.08 8  235 234 
 NOR  HN ES       1116  8.16                             117   -0.11 8  235 234 
 SML  HZ EP       1115 41.21                             116   -0.31 8  243 335 
 SML  HE ES       1116  9.17                             116   -0.61 8  243 335 
 CHI  HZ EP       1115 42.24                             116   -0.42 8  249 195 
 CHI  HN ES       1116 12.27                             116    0.46 8  249 195 
 CHI  HZ I        1116 21.95         3.7 0.42            116            249 195 
 HEL  HZ EP       1115 45.95                             113    0.76 8  272 256 
 HEL  HE ES       1116 15.82                             113   -0.50 8  272 256 
 GUY2CHZ EP       1115 49.11                             111    0.48 7  302 235 
 GUY2CHE ES       1116 22.84                             111    0.40 7  302 235 
 PRA  HZ EP       1115 58.33                             105   -0.30 6  392 210 
 PRA  HN ES       1116 39.53                             105   -0.70 6  392 210 
 PRA  HZ I        1116 48.50         5.2 0.42            106            392 210 
                                                                                
