 2014  612 1726 53.9 L   6.807 -73.133143.6  RSN 11 0.5 2.1LRSN                1
 GAP=200        1.06       4.1     6.3  7.4 -0.3235E+00  0.1136E+01  0.8787E+01E
 Epicentro: LOS SANTOS - SANTANDER                                             3
 OLDACT:REG 14-06-13 01:10 OP:fm   STATUS:               ID:20140612172550     3
 ACTION:UPD 14-07-01 22:53 OP:nd   STATUS:               ID:20140612172653 L   I
 OLDACT:UP  14-06-13 01:21 OP:fm   STATUS:               ID:20140612172550     3
 2014-06-12-1725-50M.COL___262                                                 6
 STAT SP IPHASW D HRMM SECON CODA AMPLIT PERI AZIMU VELO AIN AR TRES W  DIS CAZ7
 BAR2 SZ EP       1727 13.42                             170    0.1110 24.4 193 
 BAR2 SZ ES   1   1727 28.31                             170   -0.12 7 24.4 193 
 BAR2 SZ I        1727 29.65        34.4 0.36            163           24.4 193 
 BRR  HZ IP       1727 15.28                             152    0.4010 72.1 297 
 BRR  HN ES       1727 31.69                             152    0.4610 72.1 297 
 BRR  SZ I        1727 32.92        21.9 0.14            145           72.1 297 
 PTB  HZ EP       1727 20.20                             131   -0.65 9  149 259 
 PTB  HN ES       1727 41.02                             131   -0.84 9  149 259 
 PTB  SZ I        1727 46.39        12.0 0.56            126            149 259 
 OCA  HN ES       1727 43.58                             129   -0.32 9  160 353 
 ZAR  HZ EP   1   1727 26.87                             122    0.54 6  205 292 
 ZAR  HE ES       1727 52.14                             122    0.53 9  205 292 
 ZAR  SZ I        1727 59.27         8.2 0.14            119            205 292 
 NOR  HN ES   1   1727 57.52                             118   -0.08 6  236 235 
 SML  HZ EP   1   1727 29.55                             117   -0.86 6  244 335 
 SML  HN ES   4   1727 57.50                             117   -1.37 0  244 335 
 SML  SZ I        1728  1.49        10.7 0.10            116            244 335 
 CHI  HZ EP       1727 31.63                             117    0.01 8  250 195 
 CHI  HN ES       1728  1.12                             117    0.09 8  250 195 
 CHI  SZ I        1728  5.38         7.3 3.08            115            250 195 
 GUY2CHZ EP       1727 38.27                             112    0.66 7  303 235 
 GUY2CHN ES   4   1728 13.73                             112    2.04 0  303 235 
 GUY2CSZ I        1728 21.50         3.2 0.60                           303 235 
 RREF HZ EP   4   1727 41.79                             110    1.64 0  323 229 
 RREF HN ES   4   1728 18.71                             110    2.50 0  323 229 
 RREF SZ I        1728 27.50         4.8 2.80            109            323 229 
 PRA  HZ EP   1   1727 47.53                             106    0.00 4  393 210 
 PRA  HN ES   4   1728 28.61                             106   -0.74 0  393 210 
 PRA  SZ I        1728 36.35         7.2 0.60            105            393 210 
 ORTC HN ES   4   1728 29.15                             106   -0.93 0  397 216 
                                                                                
