 2012 1212 1435  5.7 L   6.818 -73.142143.2  RSN 13 0.5 2.5LRSN                1
 GAP=136        1.23       3.3     4.8  6.2  0.4854E+00  0.1074E+02  0.1485E+01E
 Epicentro: LOS SANTOS - SANTANDER                                             3
 ACTION:UPD 13-01-04 14:27 OP:ep   STATUS:               ID:20121212143505 L   I
 2012-12-12-1430-00M.COL___242                                                 6
 STAT SP IPHASW D HRMM SECON CODA AMPLIT PERI AZIMU VELO AIN AR TRES W  DIS CAZ7
 BAR2 SZ EP       1435 25.20                             169    0.0910 25.4 190 
 BAR2 SZ ES       1435 40.30                             169    0.0910 25.4 190 
 BAR2 SZ I        1435 41.30        58.4 0.18                          25.4 190 
 BRR  HZ IP       1435 27.05                             152    0.4710 70.6 297 
 BRR  HN ES       1435 43.70                             152    0.8610 70.6 297 
 BRR  HN I        1435 47.30        69.9 0.14                          70.6 297 
 PAM  SZ EP       1435 27.74                             151    0.1610 75.5  40 
 PAM  SN ES       1435 44.55                             151   -0.0510 75.5  40 
 PAM  SN I        1435 46.33        37.3 0.68                          75.5  40 
 RUS  HZ EP       1435 29.15                             143   -0.2410  103 176 
 RUS  HN ES       1435 47.12                             143   -0.7110  103 176 
 RUS  HN I        1435 48.78        24.8 0.20                           103 176 
 PTB  HZ EP       1435 32.05                             131   -0.53 9  149 258 
 PTB  HN ES       1435 52.89                             131   -0.62 9  149 258 
 PTB  HN I        1435 58.26        44.5 0.22                           149 258 
 OCA  HN ES       1435 55.53                             129    0.08 9  158 353 
 OCA  HN I        1435 57.90        95.7 0.28                           158 353 
 ZAR  HZ EP       1435 38.41                             122    0.42 9  204 292 
 ZAR  HN ES       1436  3.12                             122   -0.02 9  204 292 
 ZAR  HN I        1436 11.64        33.6 0.30                           204 292 
 SML  HZ EP       1435 42.62                             117    0.57 8  242 335 
 SML  HE ES       1436  9.41                             117   -0.95 8  242 335 
 SML  HE I        1436 13.24        36.3 0.10                           242 335 
 CHI  HZ EP       1435 43.48                             116   -0.05 8  251 195 
 CHI  HN ES       1436 13.14                             116    0.14 8  251 195 
 CHI  HN I        1436 18.63        12.2 0.24                           251 195 
 HEL  HZ EP       1435 46.98                             114    1.05 8  273 255 
 HEL  HN ES       1436 17.29                             114    0.01 8  273 255 
 HEL  HN I        1436 24.20         8.3 0.36                           273 255 
 URE  HZ EP       1435 46.08                             113   -0.57 7  283 291 
 URE  HN I        1436 30.95        19.8 0.24                           283 291 
 MON  HZ EP       1435 53.40                             108   -1.14 6  353 308 
 MON  HN ES   4   1436 31.22                             108   -1.38 0  353 308 
 MON  HN I        1436 33.56         9.9 0.34                           353 308 
 PRA  HZ EP       1435 59.57                             106    0.16 6  394 209 
 PRA  HN ES       1436 42.10                             106    0.83 6  394 209 
 PRA  HN I        1436 45.46         7.1 0.30                           394 209 
 SJC  HN ES   4   1436 39.95                             105   -4.24 0  408 327 
                                                                                
