 2010 1212 1239 26.4 L   6.779 -73.018140.5  RSN  4 0.1 1.5LRSN                1
 GAP=173        0.36       2.8    14.8  6.1 -0.7185E+01 -0.7022E+02  0.5372E+00E
 Epicentro: CEPITA - SANTANDER                                                 3
 ACTION:UP  11-01-14 15:24 OP:pat  STATUS:               ID:20101212123927 L   I
 2010-12-12-1238-06S.COL___136                                                 6
 STAT SP IPHASW D HRMM SECON CODA AMPLIT PERI AZIMU VELO SNR AR TRES W  DIS CAZ7
 BAR2 SZ EP       1239 45.40                             168    -0.110   28 222 
 BAR2 SZ ES   2   1240  0.55                             168     0.2 5   28 222 
 BAR2 SZ I        1240  2.15         9.5 0.56                            28 222 
 BTL  SZ EP       1239 45.55                             167     0.010   32 299 
 BTL  SZ ES   1   1240  0.57                             167     0.0 7   32 299 
 RUS  HZ EP       1239 49.56                             143     0.110   98 184 
 RUS  HN ES   2   1240  7.20                             143    -0.2 5   98 184 
 RUS  HZ I        1240  8.84         2.5 0.26                            98 184 
 GRA  SZ EP       1239 51.07                             136     0.010  125  11 
 GRA  SZ I        1239 52.30         5.7 0.26                           125  11 
                                                                                
