 2014 1112 1746 58.6 L   6.784 -73.148151.3  RSN  5 0.3 1.6LRSN                1
 GAP=137        0.86       4.7     4.5  6.3 -0.2076E+01  0.3249E+01  0.1217E+01E
 Epicentro: LOS SANTOS - SANTANDER                                             3
 ACTION:UPD 14-12-19 15:42 OP:nd   STATUS:               ID:20141112174658 L   I
 OLDACT:UP  14-11-12 23:50 OP:cam  STATUS:               ID:20141112173818     3
 OLDACT:REG 14-11-12 22:07 OP:cam  STATUS:               ID:20141112173818     3
 2014-11-12-1738-18M.COL___286                                                 6
 STAT SP IPHASW D HRMM SECON CODA AMPLIT PERI AZIMU VELO AIN AR TRES W  DIS CAZ7
 BAR2 SZ EP     D 1747 18.96                             172    0.0710 21.6 190 
 BAR2 SZ ES       1747 34.76                             172    0.0610 21.6 190 
 BAR2 SZ I        1747 35.36         6.1 0.22            173           21.6 190 
 BRR  HZ EP       1747 20.80                             153    0.3910 71.8 300 
 BRR  HN ES       1747 37.73                             153    0.3310 71.8 300 
 BRR  HN I        1747 42.16        21.0 0.16            153           71.8 300 
 PAM  SZ EP       1747 21.70                             151    0.1810 78.9  39 
 PAM  SN ES       1747 38.91                             151   -0.4810 78.9  39 
 PAM  SZ I        1747 41.22         4.7 0.48            153           78.9  39 
 RUS  HZ EP       1747 23.06                             145    0.2510 98.9 176 
 RUS  HN ES       1747 41.57                             145   -0.1010 98.9 176 
 RUS  HZ I        1747 43.37         3.7 0.34            148           98.9 176 
 PTB  HZ EP       1747 25.33                             133   -0.67 9  147 259 
 PTB  HN ES       1747 47.21                             133   -0.14 9  147 259 
 PTB  HZ I        1747 48.72         7.4 0.34            135            147 259 
                                                                                
