 2017  512 1111 14.6 L   6.407 -73.579117.7  RSN  4 0.1 1.1LRSN                1
 GAP=125        0.40       2.4     1.7  4.6 -0.4835E+00 -0.1160E-01 -0.3656E+01E
 Epicentro: SANTA HELENA DEL OPON - SANTANDER                                  3
 ACTION:UPD 17-06-16 13:35 OP:jn   STATUS:               ID:20170512111114 L   I
 OLDACT:DUP 17-05-12 21:06 OP:lv   STATUS:               ID:20170512110740d    3
 2017-05-12-1108-00M.COL___365                                                 6
 STAT SP IPHASW D HRMM SECON CODA AMPLIT PERI AZIMU VELO AIN AR TRES W  DIS CAZ7
 RUS  HZ EP       1111 33.83                             144   -0.2110 79.0 136 
 RUS  HE ES       1111 49.25                             144    0.0510 79.0 136 
 PTB  HZ EP       1111 34.80                             137   -0.0610 98.2 279 
 PTB  HN ES       1111 50.66                             137    0.0010 98.2 279 
 PTB  HZ I        1111 51.13         3.7 0.07            135           98.2 279 
 PAM  EZ EP       1111 39.62                             126    0.15 9  142  43 
 PAM  EN ES       1111 58.89                             126    0.02 9  142  43 
 PAM  EZ I        1111 59.47         2.0 0.08            126            142  43 
 NOR  HZ EP   4   1111 43.33                             121    1.48 0  171 237 
 NOR  HN ES   2   1112  3.41                             121    0.32 4  171 237 
 NOR  HZ I        1112  6.25         1.0 0.36            119            171 237 
                                                                                
