 2013  112 1012 27.7 L   6.824 -73.144148.9  RSN 15 0.6 2.9LRSN 3.4WRSN        1
 SPEC AVERAGE  MO 14.1 ST 10.9 OM  2.5 f0 3.25 R0.4933 AL 2.04 WI 26.9 MW  3.4 3
 SPEC SD       MO  0.2 ST 13.5 OM  0.6 f0 1.05 R0.1336 AL      WI      MW  0.2 3
 GAP= 70        1.32       3.6     3.8  6.2 -0.8386E+00  0.6652E+01  0.3301E+01E
 Epicentro: LOS SANTOS - SANTANDER                                             3
 SPEC ZAR HH N MO 14.3 ST 48.8 OM  2.5 f0 5.75 R0.2557 AL 2.70 WI 34.1 MW  3.5 3
 SPEC ZAR HH N T101323 K 0.000 GD  251 VS 4.20 DE 3.00 Q0230.0 QA 0.60 VS 4.20 3
 SPEC RREFHH Z MO 14.2 ST  7.4 OM  1.5 f0 3.25 R0.4523 AL 2.04 WI 35.4 MW  3.4 3
 SPEC RREFHH Z T101314 K 0.000 GD  356 VP 7.60 DE 3.00 Q0230.0 QA 0.60 VS 4.20 3
 SPEC TAM HH E MO 13.8 ST  1.7 OM  2.1 f0 2.69 R0.5465 AL 1.57 WI 15.5 MW  3.1 3
 SPEC TAM HH E T101317 K 0.000 GD  215 VS 4.20 DE 3.00 Q0230.0 QA 0.60 VS 4.20 3
 SPEC RUS HH Z MO 13.8 ST0.963 OM  1.4 f0 2.23 R0.6592 AL 1.60 WI 16.4 MW  3.1 3
 SPEC RUS HH Z T101251 K 0.000 GD  181 VP 7.60 DE 3.00 Q0230.0 QA 0.60 VS 4.20 3
 SPEC HEL HH N MO 14.2 ST  4.3 OM  2.3 f0 2.78 R0.5288 AL 1.71 WI 35.9 MW  3.4 3
 SPEC HEL HH N T101338 K 0.000 GD  310 VS 4.20 DE 3.00 Q0230.0 QA 0.60 VS 4.20 3
 SPEC OCA HH N MO 14.5 ST 22.4 OM  2.8 f0 3.70 R0.3973 AL 2.28 WI 38.2 MW  3.6 3
 SPEC OCA HH N T101317 K 0.000 GD  217 VS 4.20 DE 3.00 Q0230.0 QA 0.60 VS 4.20 3
 SPEC PTB HH N MO 14.3 ST  2.5 OM  2.6 f0 2.09 R0.7033 AL 1.47 WI 24.1 MW  3.5 3
 SPEC PTB HH N T101314 K 0.000 GD  209 VS 4.20 DE 3.00 Q0230.0 QA 0.60 VS 4.20 3
 SPEC PAM SH Z MO 13.8 ST  7.4 OM  1.4 f0 4.53 R0.3245 AL 2.06 WI 16.8 MW  3.1 3
 SPEC PAM SH Z T101250 K 0.000 GD  166 VP 7.60 DE 3.00 Q0230.0 QA 0.60 VS 4.20 3
 SPEC ANILHH N MO 14.4 ST  6.3 OM  2.4 f0 2.71 R0.5424 AL 1.54 WI 29.4 MW  3.5 3
 SPEC ANILHH N T101357 K 0.000 GD  388 VS 4.20 DE 3.00 Q0230.0 QA 0.60 VS 4.20 3
 SPEC CHI HH N MO 14.1 ST  2.6 OM  2.3 f0 2.40 R0.6125 AL 2.28 WI 24.6 MW  3.4 3
 SPEC CHI HH N T101333 K 0.000 GD  291 VS 4.20 DE 3.00 Q0230.0 QA 0.60 VS 4.20 3
 SPEC BRR HH N MO 14.4 ST 16.1 OM  2.8 f0 3.64 R0.4038 AL 3.15 WI 25.9 MW  3.5 3
 SPEC BRR HH N T1013 6 K 0.000 GD  164 VS 4.20 DE 3.00 Q0230.0 QA 0.60 VS 4.20 3
 ACTION:UPD 13-02-15 09:13 OP:ep   STATUS:               ID:20130112101227 L   I
 2013-01-12-1008-44M.COL___183                                                 6
 STAT SP IPHASW D HRMM SECON CODA AMPLIT PERI AZIMU VELO AIN AR TRES W  DIS CAZ7
 BAR2 SZ IP       1012 47.76                             170   -0.0510 25.9 189 
 BAR2 SZ ES       1013  2.96                             170   -0.4910 25.9 189 
 BAR2 SZ I        1013  5.51       119.0 0.36            169           25.9 189 
 BRR  HZ IP     D 1012 49.65                             153    0.4810 70.1 297 
 BRR  HZ I        1012 49.90        94.7 0.16            147           70.1 297 
 BRR  HN ES       1013  6.80                             153    0.9110 70.1 297 
 PAM  SZ EP       1012 50.54                             152    0.3710 75.3  41 
 PAM  SN ES       1013  7.60                             152   -0.0710 75.3  41 
 PAM  SN I        1013  9.00       122.1 0.48            150           75.3  41 
 RUS  HZ IP     C 1012 51.57                             144   -0.4210  103 176 
 RUS  HE ES       1013 10.86                             144   -0.0410  103 176 
 PTB  HZ EP       1012 54.37                             132   -0.66 9  148 258 
 PTB  HN ES       1013 15.68                             132   -0.63 9  148 258 
 PTB  HN I        1013 21.39       303.8 0.34            128            148 258 
 TAM  HZ IP     C 1012 55.91                             131    0.19 9  156 106 
 TAM  HZ I        1012 56.02        60.5 0.34            131            156 106 
 TAM  HE ES       1013 17.69                             131    0.14 9  156 106 
 OCA  HZ EP       1012 55.91                             131   -0.15 9  158 353 
 OCA  HN ES       1013 18.02                             131   -0.13 9  158 353 
 OCA  HN I        1013 23.00       191.6 0.34            126            158 353 
 ZAR  HZ EP       1013  0.13                             123   -0.18 9  203 291 
 ZAR  HN ES       1013 26.13                             123    0.42 9  203 291 
 ZAR  HN I        1013 32.11       117.4 0.60            119            203 291 
 CHI  HZ EP       1013  5.67                             117   -0.23 8  251 195 
 CHI  HN ES       1013 35.23                             117   -0.42 8  251 195 
 CHI  HN I        1013 37.64        49.8 0.28            115            251 195 
 ROSC BZ EP       1013  7.25                             117    0.96 8  255 211 
 ROSC BN ES       1013 35.54                             117   -0.81 8  255 211 
 ROSC BZ I        1013 45.17        33.4 0.35            114            255 211 
 HEL  HZ EP       1013  8.98                             115    0.77 8  273 255 
 HEL  HN ES       1013 40.14                             115    0.38 8  273 255 
 HEL  HN I        1013 49.54        25.6 0.24            112            273 255 
 URE  HE EP       1013  7.92                             114   -0.95 7  283 291 
 RREF HZ EP       1013 14.61                             111    0.38 7  324 229 
 RREF HE ES       1013 50.09                             111   -0.40 7  324 229 
 RREF HN ES       1013 51.34                             111            324 229 
 RREF HZ I        1013 59.89        21.1 0.48            109            324 229 
 ANIL HZ EP       1013 19.30                             109    1.40 6  359 224 
 ANIL HE ES       1013 57.77                             109    0.75 6  359 224 
 ANIL HN I        1014  3.33        46.8 0.30            106            359 224 
 SJC  HE EP       1013 21.70                             106   -1.46 6  407 327 
 SJC  HE I        1014  7.13        14.9 0.30            104            407 327 
                                                                                
