 2016  512 1454 13.8 L   6.794 -73.138150.0  RSN  8 0.4 1.5LRSN                1
 GAP=238        0.98       4.8     5.5  6.4  0.1030E+02  0.8766E+01  0.8233E+01E
 Epicentro: LOS SANTOS - SANTANDER                                             3
 ACTION:UPD 16-08-18 17:45 OP:cam  STATUS:               ID:20160512145413 L   I
 OLDACT:REG 16-05-12 21:14 OP:ak   STATUS:               ID:20160512144745     3
 2016-05-12-1447-45M.COL___313                                                 6
 STAT SP IPHASW D HRMM SECON CODA AMPLIT PERI AZIMU VELO AIN AR TRES W  DIS CAZ7
 BAR2 EZ EP       1454 34.10                             171    0.1410 22.8 192 
 BAR2 EZ ES       1454 49.05                             171   -0.6110 22.8 192 
 BAR2 EZ I        1454 50.81         9.3 0.24            169           22.8 192 
 BRR  HZ EP       1454 35.93                             153    0.4310 72.3 299 
 BRR  HE ES       1454 53.00                             153    0.6010 72.3 299 
 RUS  HZ EP       1454 37.76                             145   -0.1910 99.8 177 
 RUS  HN ES       1454 57.06                             145    0.3010 99.8 177 
 RUS  HZ I        1454 59.52         3.8 0.44            145           99.8 177 
 PTB  HZ EP       1454 40.66                             133   -0.55 9  148 259 
 PTB  HN ES       1455  1.98                             133   -0.59 9  148 259 
 PTB  HZ I        1455  7.79         3.9 0.25            133            148 259 
 ZAR  HZ EP   2   1454 45.99                             123   -0.67 4  205 292 
 ZAR  HN ES       1455 12.34                             123    0.07 9  205 292 
 NOR  HZ EP       1454 50.13                             119    0.29 8  235 235 
 NOR  HE ES       1455 18.21                             119    0.28 8  235 235 
 CHI  HZ EP       1454 51.47                             118   -0.25 8  248 195 
 CHI  HN ES       1455 21.43                             118    0.16 8  248 195 
 PRA  HZ EP   2   1455  8.43                             107    0.95 3  392 210 
 PRA  HN ES   4   1455 45.10                             107   -4.22 0  392 210 
 SJC  HZ EP   4   1455  8.16                             106   -1.50 0  410 327 
 SJC  HE ES   4   1455 50.10                             106   -3.10 0  410 327 
                                                                                
