 2017  512 1820 27.2 L   6.744 -73.144146.4  RSN  5 0.3 1.8LRSN                1
 GAP=139        0.70       3.7     3.6  6.2  0.1978E+01  0.5470E+01  0.2475E+01E
 Epicentro: LOS SANTOS - SANTANDER                                             3
 ACTION:UPD 17-06-16 13:35 OP:jn   STATUS:               ID:20170512182027 L   I
 OLDACT:UP  17-05-13 00:22 OP:lv   STATUS:               ID:20170512181738d    3
 OLDACT:DUP 17-05-13 00:19 OP:lv   STATUS:               ID:20170512181738d    3
 2017-05-12-1818-00M.COL___368                                                 6
 STAT SP IPHASW D HRMM SECON CODA AMPLIT PERI AZIMU VELO AIN AR TRES W  DIS CAZ7
 BRR  HZ EP       1820 48.74                             152    0.1310 74.5 303 
 BRR  HN ES       1821  5.39                             152    0.0810 74.5 303 
 PAM  EZ EP       1820 49.85                             150    0.0810 82.1  37 
 PAM  EE ES       1821  7.12                             150   -0.2610 82.1  37 
 PAM  EZ I        1821  9.39        13.0 0.35            149           82.1  37 
 RUS  HZ EP       1820 50.68                             146    0.1010 94.4 176 
 RUS  HN ES       1821  8.98                             146    0.1710 94.4 176 
 PTB  HZ EP       1820 53.64                             132   -0.50 9  147 261 
 PTB  HN ES   2   1821 14.33                             132   -0.82 5  147 261 
 ZAR  HZ EP   3   1821  0.91                             122    0.96 2  207 294 
 ZAR  HE ES       1821 25.87                             122    0.37 8  207 294 
 ZAR  HZ I        1821 31.38         5.9 0.13            122            207 294 
                                                                                
