 2017 1012 1932 53.6 L   6.753 -73.179129.7  RSN  5 0.3 1.4LRSN                1
 GAP=134        0.73       3.6     3.3  6.1 -0.5594E+00  0.6911E+01 -0.2469E+01E
 Epicentro: LOS SANTOS - SANTANDER                                             3
 ACTION:UPD 17-11-07 19:31 OP:rebc STATUS:               ID:20171012193253 L   I
 OLDACT:REG 17-10-12 20:32 OP:l    STATUS:               ID:20171012192739     3
 2017-10-12-1928-00M.COL___438                                                 6
 STAT SP IPHASW D HRMM SECON CODA AMPLIT PERI AZIMU VELO AIN AR TRES W  DIS CAZ7
 BAR2 EZ IP     C 1933 11.30                             172    0.1610 17.7 181 
 BAR2 EZ ES       1933 24.59                             172   -0.2710 17.7 181 
 BAR2 EZ I        1933 27.39         8.9 0.22            171           17.7 181 
 PAM  EZ EP       1933 14.34                             145   -0.1710 83.8  39 
 PAM  EN ES       1933 30.91                             145    0.0510 83.8  39 
 PAM  EZ I        1933 31.74         5.7 0.18            150           83.8  39 
 RUS  HZ EP       1933 15.42                             142    0.0410 95.7 174 
 RUS  HN ES       1933 32.74                             142    0.3310 95.7 174 
 RUS  HZ I        1933 35.01         2.8 0.28            143           95.7 174 
 PTB  HZ EP       1933 18.51                             129   -0.31 9  143 261 
 PTB  HN ES       1933 38.23                             129   -0.30 9  143 261 
 PTB  HZ I        1933 41.31         4.0 0.26            131            143 261 
 ZAR  HE ES       1933 49.82                             119    0.55 9  203 294 
                                                                                
