 2014  312 1257 34.2 L   6.968 -73.243114.0  RSN  5 0.5 1.9LRSN                1
 GAP=174        1.24      18.3    10.6 14.2 -0.1630E+03 -0.9482E+01  0.1115E+03E
 Epicentro: BETULIA - SANTANDER                                                3
 ACTION:UPD 14-04-09 23:16 OP:nd   STATUS:               ID:20140312125734 L   I
 OLDACT:DUP 14-03-12 18:29 OP:nd   STATUS:               ID:20140312124819d    3
 2014-03-12-1248-18M.COL___241                                                 6
 STAT SP IPHASW D HRMM SECON CODA AMPLIT PERI AZIMU VELO AIN AR TRES W  DIS CAZ7
 PAM  SZ EP       1257 52.08                             146   -0.7510 72.7  56 
 PAM  SN ES       1258  7.95                             146    0.6010 72.7  56 
 PAM  SZ I        1258  9.51        10.9 0.22            153           72.7  56 
 PTB  HZ EP   4   1257 57.40                             125   -0.84 0  142 251 
 PTB  HN ES       1258 16.30                             125   -0.69 9  142 251 
 PTB  HZ I        1258 19.66        21.0 0.18            128            142 251 
 NOR  HZ EP       1258  8.53                             111   -0.13 8  238 229 
 NOR  HN ES       1258 36.00                             111    0.47 8  238 229 
 NOR  HZ I        1258 43.10         7.8 0.46            114            238 229 
 HEL  HZ EP       1258 13.03                             108    0.60 8  267 251 
 HEL  HN ES       1258 42.85                             108    0.61 8  267 251 
 HEL  HZ I        1258 47.71         7.4 0.32            112            267 251 
 GUY2CHZ EP       1258 16.85                             105   -0.02 7  304 231 
 GUY2CHN ES       1258 49.84                             105   -0.31 7  304 231 
 GUY2CHZ I        1258 59.35         4.3 0.32                           304 231 
                                                                                
