 2013  212 1804 54.4 L   6.779 -73.141151.2  RSN  7 0.5 2.0LRSN                1
 GAP=138        1.22       5.9     5.2 10.4 -0.2073E+01  0.9610E+01  0.9064E+01E
 Epicentro: LOS SANTOS - SANTANDER                                             3
 ACTION:UPD 13-03-12 09:32 OP:ep   STATUS:               ID:20130212180454 L   I
 2013-02-12-1800-00M.COL___240                                                 6
 STAT SP IPHASW D HRMM SECON CODA AMPLIT PERI AZIMU VELO AIN AR TRES W  DIS CAZ7
 BAR2 SZ EP       18 5 14.59                             172   -0.1010 21.2 192 
 BRR  HZ EP       18 5 16.64                             153    0.3710 72.7 300 
 BRR  HN ES       18 5 34.34                             153    1.0410 72.7 300 
 BRR  HN I        18 5 38.04        21.5 0.20            151           72.7 300 
 PAM  SZ IP     C 18 5 17.43                             151    0.1010 78.9  38 
 PAM  SN ES       18 5 34.54                             151   -0.6410 78.9  38 
 PAM  SN I        18 5 35.77        17.2 0.48            154           78.9  38 
 RUS  HZ EP       18 5 18.98                             146    0.4110 98.2 176 
 RUS  HN ES       18 5 37.15                             146   -0.2410 98.2 176 
 RUS  HN I        18 5 38.70        19.1 0.40            148           98.2 176 
 PTB  HZ EP       18 5 21.58                             133   -0.29 9  148 260 
 PTB  HN ES       18 5 42.81                             133   -0.45 9  148 260 
 PTB  HZ I        18 5 44.38         7.6 0.40            133            148 260 
 ZAR  HN ES       18 5 52.64                             123   -0.44 8  205 293 
 ZAR  HN I        18 5 58.91         5.8 0.18            124            205 293 
 NOR  HN ES       18 5 58.47                             120    0.03 8  234 235 
 NOR  HN I        18 6  2.19        13.5 0.20            121            234 235 
                                                                                
