 2010 1112 1458 46.6 L   6.778 -73.114142.4  RSN  9 0.3 2.1LRSN                1
 GAP=162        0.64       3.1     5.1  5.0 -0.6493E+01  0.2576E-01  0.2121E+01E
 Epicentro: LOS SANTOS - SANTANDER                                             3
 ACTION:UP  10-12-17 16:52 OP:REBC STATUS:               ID:20101112145846 L   I
 2010-11-12-1455-48S.COL___129                                                 6
 STAT SP IPHASW D HRMM SECON CODA AMPLIT PERI AZIMU VELO SNR AR TRES W  DIS CAZ7
 BAR2 SZ EP   1   1459  5.70                             171    -0.1 7   22 200 
 BAR2 SZ ES   1   1459 20.66                             171    -0.1 7   22 200 
 BAR2 SZ I        1459 22.13        30.2 0.20                            22 200 
 BRR  HZ EP       1459  7.47                             150    -0.210   75 299 
 BRR  HE ES   1   1459 24.33                             150     0.3 7   75 299 
 BRR  HZ I        1459 28.22        35.0 0.36                            75 299 
 RUS  HZ EP       1459  9.73                             144    -0.110   98 178 
 RUS  HE ES   2   1459 28.04                             144     0.1 5   98 178 
 RUS  HZ I        1459 29.41        10.9 0.30                            98 178 
 GUE  SZ EP       1459 11.48                             138     0.310  118  10 
 GRA  SZ EP       1459 11.49                             136    -0.210  127  16 
 GRA  SZ I        1459 12.76        17.9 0.28                           127  16 
 NOR  SZ EP   1   1459 22.11                             118    -0.2 6  236 236 
 NOR  SE ES   2   1459 49.24                             118    -0.9 4  236 236 
 CHI  HZ EP   1   1459 24.08                             116     0.1 6  247 196 
 CHI  HE ES   1   1459 53.52                             116     0.4 6  247 196 
 CHI  HZ I        1459 56.84         8.5 0.31                           247 196 
 RREF HZ EP   1   1459 32.87                             110     0.1 5  323 230 
 RREF HN ES   1   15 0  9.18                             110     0.5 5  323 230 
 RREF HZ I        15 0 15.49         6.8 0.16                           323 230 
 PRA  HZ EP   1   1459 40.35                             106     0.4 4  392 210 
 PRA  HN ES   2   15 0 20.79                             106    -0.8 3  392 210 
                                                                                
