 2015  912 1131 41.2 L   6.819 -73.157145.5  RSN  6 0.6 1.4LRSN                1
 GAP=182        1.47       6.2     8.6 13.3  0.1146E+01  0.3462E+02 -0.3630E+02E
 Epicentro: LOS SANTOS - SANTANDER                                             3
 ACTION:UPD 15-10-28 16:25 OP:cam  STATUS:               ID:20150912113141 L   I
 OLDACT:REG 15-09-12 21:41 OP:stll STATUS:               ID:20150912112749     3
 2015-09-12-1127-49M.COL___323                                                 6
 STAT SP IPHASW D HRMM SECON CODA AMPLIT PERI AZIMU VELO AIN AR TRES W  DIS CAZ7
 BAR2 EZ EP       1132  1.13                             170    0.3210 25.2 186 
 BAR2 EZ ES       1132 15.76                             170   -0.3610 25.2 186 
 BAR2 EZ I        1132 17.09         5.9 0.42            167           25.2 186 
 RUS  HN ES       1132 23.81                             143    0.1210  103 175 
 RUS  HZ I        1132 25.37         3.3 0.28            144            103 175 
 PTB  HZ EP       1132  8.20                             132    0.15 9  147 258 
 PTB  HE ES       1132 29.06                             132    0.06 9  147 258 
 PTB  HZ I        1132 33.12         3.0 0.10            131            147 258 
 OCA  HZ EP       1132 10.01                             130    0.76 9  158 354 
 OCA  HN ES       1132 30.78                             130   -0.37 9  158 354 
 ZAR  HZ EP       1132 11.81                             123   -1.59 9  202 292 
 ZAR  HN ES       1132 39.21                             123    0.68 9  202 292 
 ZAR  HZ I        1132 45.27         1.9 0.38            122            202 292 
 SML  HN ES       1132 45.99                             118    0.12 8  241 335 
                                                                                
