 2017  812 1146 36.0 L   6.733 -73.138144.0  RSN  6 0.4 1.7LRSN                1
 GAP=233        0.97       4.7     5.8  7.5  0.6725E+01  0.1273E+02 -0.1398E+01E
 Epicentro: JORDAN - SANTANDER                                                 3
 ACTION:UPD 17-09-04 20:19 OP:rebc STATUS:               ID:20170812114636 L   I
 OLDACT:UP  17-08-12 21:37 OP:dani STATUS:               ID:20170812113739     3
 OLDACT:REG 17-08-12 20:45 OP:dani STATUS:               ID:20170812113739     3
 2017-08-12-1138-00M.COL___413                                                 6
 STAT SP IPHASW D HRMM SECON CODA AMPLIT PERI AZIMU VELO AIN AR TRES W  DIS CAZ7
 BAR2 EZ EP     C 1146 54.95                             173   -0.3610 16.3 197 
 BAR2 EZ ES       1147 10.54                             173    0.1710 16.3 197 
 BAR2 EZ I        1147 11.94         8.9 0.26            172           16.3 197 
 BRR  HZ EP       1146 56.92                             151   -0.3210 75.7 303 
 BRR  HE ES       1147 13.96                             151    0.1710 75.7 303 
 BRR  HZ I        1147 18.12        11.8 0.28            149           75.7 303 
 RUS  HZ EP       1146 59.09                             146    0.0210 93.1 176 
 RUS  HN ES       1147 17.35                             146    0.3010 93.1 176 
 RUS  HZ I        1147 18.47         6.4 0.34            149           93.1 176 
 SPBC HZ EP   3   1147  5.28                             130    1.39 2  158 221 
 SPBC HN ES       1147 24.87                             130   -0.76 9  158 221 
 SPBC HZ I        1147 29.21         6.8 0.16            131            158 221 
 ZAR  HZ EP       1147  9.33                             122    0.61 8  208 294 
 ZAR  HN ES       1147 34.03                             122   -0.21 8  208 294 
 ZAR  HZ I        1147 39.25         3.8 0.25            123            208 294 
 NOR  HN ES       1147 39.20                             119    0.45 8  231 236 
                                                                                
