 2013  312 1513 53.0 L   6.708 -73.223145.4  RSN  4 0.3 1.8LRSN                1
 GAP=221        0.73       5.9     5.9  7.3  0.2299E+02  0.7999E+00 -0.1846E+01E
 Epicentro: VILLANUEVA - SANTANDER                                             3
 ACTION:UPD 13-04-09 14:01 OP:ep   STATUS:               ID:20130312151353 L   I
 2013-03-12-1510-00M.COL___231                                                 6
 STAT SP IPHASW D HRMM SECON CODA AMPLIT PERI AZIMU VELO AIN AR TRES W  DIS CAZ7
 BRR  HZ EP       1514 13.72                             153   -0.2810 69.8 309 
 BRR  HN ES       1514 30.35                             153   -0.0610 69.8 309 
 BRR  HN I        1514 34.38        16.3 0.16            154           69.8 309 
 RUS  HZ EP       1514 16.36                             146    0.3010 91.5 170 
 RUS  HN ES       1514 34.10                             146    0.0410 91.5 170 
 RUS  HN I        1514 35.62         6.5 0.36            150           91.5 170 
 PTB  HZ EP       1514 18.73                             134   -0.28 9  138 262 
 PTB  HN ES       1514 39.14                             134   -0.18 9  138 262 
 PTB  HN I        1514 42.79         7.4 0.14            137            138 262 
 ZAR  HN ES       1514 50.56                             123    0.55 9  200 296 
                                                                                
