 2011  212 1936 25.4 L   6.781 -73.271140.0  RSN  4 0.4 1.3LRSN                1
 GAP=167        0.77       6.8    11.4 10.4 -0.1712E+02  0.2830E+02  0.2799E+02E
 Epicentro: ZAPATOCA - SANTANDER                                               3
 ACTION:UP  11-03-28 15:08 OP:jfem STATUS:               ID:20110212193625 L   I
 2011-02-12-1935-11S.COL___136                                                 6
 STAT SP IPHASW D HRMM SECON CODA AMPLIT PERI AZIMU VELO SNR AR TRES W  DIS CAZ7
 BTL  SZ EP       1936 44.09                             174    -0.110   15   1 
 BTL  SZ ES   1   1936 59.20                             174     0.3 7   15   1 
 RUS  HZ EP   1   1936 48.48                             143    -0.1 7  100 168 
 RUS  HZ I        1936 49.14         3.2 0.11                           100 168 
 RUS  HE ES   2   1937  5.91                             143    -0.7 5  100 168 
 NOR  SZ EP   2   1936 59.87                             119     0.4 4  222 233 
 NOR  SN ES   2   1937 25.27                             119    -0.8 4  222 233 
 CHI  HZ EP   2   1937  1.99                             117    -0.2 4  243 192 
 CHI  HZ I        1937  4.42         1.4 0.33                           243 192 
 CHI  HN ES   1   1937 31.56                             117     0.7 6  243 192 
                                                                                
