 2016  212 1533 32.3 L   6.785 -73.178136.5  RSN  8 0.2 1.7LRSN                1
 GAP=140        0.38       3.3     3.0  5.5 -0.5241E+01  0.2913E+01  0.8192E+01E
 Epicentro: LOS SANTOS - SANTANDER                                             3
 ACTION:UPD 16-03-04 21:25 OP:rebc STATUS:               ID:20160212153332 L   I
 OLDACT:REG 16-02-12 20:19 OP:dnl  STATUS:               ID:20160212152748     3
 2016-02-12-1527-48M.COL___318                                                 6
 STAT SP IPHASW D HRMM SECON CODA AMPLIT PERI AZIMU VELO AIN AR TRES W  DIS CAZ7
 BAR2 EZ EP       1533 50.80                             171    0.0210 21.3 181 
 BAR2 EZ I        1534  7.51        11.3 0.24            168           21.3 181 
 PAM  EZ EP       1533 53.75                             148   -0.0210 81.0  41 
 PAM  EE ES       1534 10.53                             148    0.0110 81.0  41 
 PAM  EZ I        1534 12.98         8.5 0.20            155           81.0  41 
 PTB  HZ EP   4   1533 59.83                             131    1.66 0  144 259 
 PTB  HE ES   2   1534 18.13                             131   -0.22 5  144 259 
 PTB  HZ I        1534 26.39         5.8 0.34            131            144 259 
 SPBC HZ EP       1533 59.71                             127   -0.05 9  160 218 
 SPBC HE ES   2   1534 21.64                             127    0.47 5  160 218 
 SPBC HZ I        1534 27.86        10.0 0.11            129            160 218 
 ZAR  HN ES   2   1534 28.37                             121   -0.14 4  201 293 
 ZAR  HZ I        1534 35.24         5.0 0.15            123            201 293 
 NOR  HZ EP   2   1534  7.05                             117   -0.03 4  231 234 
 NOR  HE ES   2   1534 34.21                             117    0.00 4  231 234 
 NOR  HZ I        1534 40.57         4.7 0.16            119            231 234 
 CHI  HZ EP   3   1534  8.72                             115   -0.50 2  246 194 
 CHI  HN ES   2   1534 37.59                             115   -0.42 4  246 194 
 CHI  HZ I        1534 42.05         2.4 0.60            118            246 194 
 GUY2CHZ EP   2   1534 15.75                             111    0.70 4  297 235 
 GUY2CHE ES   4   1534 51.55                             111    3.16 0  297 235 
 GUY2CHZ I        1534 57.69         3.6 0.32                           297 235 
                                                                                
