 2016  512 1840 42.2 L   6.794 -73.127143.4  RSN 12 0.4 2.0LRSN                1
 GAP=139        0.85       3.2     3.4  4.9 -0.1677E+01  0.4807E+01  0.3937E+01E
 Epicentro: LOS SANTOS - SANTANDER                                             3
 ACTION:UPD 16-08-18 17:45 OP:cam  STATUS:               ID:20160512184042 L   I
 OLDACT:REG 16-05-12 21:25 OP:ak   STATUS:               ID:20160512183745     3
 2016-05-12-1837-45M.COL___309                                                 6
 STAT SP IPHASW D HRMM SECON CODA AMPLIT PERI AZIMU VELO AIN AR TRES W  DIS CAZ7
 BAR2 EZ EP       1841  1.48                             170   -0.0410 23.2 195 
 BAR2 EZ ES       1841 16.70                             170    0.0910 23.2 195 
 BAR2 EZ I        1841 17.93        17.8 0.26            168           23.2 195 
 BRR  HZ EP       1841  3.25                             152    0.0610 73.3 298 
 BRR  HE ES       1841 20.12                             152    0.5410 73.3 298 
 BRR  HZ I        1841 20.89        20.5 0.10            151           73.3 298 
 PAM  EZ EP       1841  4.38                             151    0.2910 76.6  38 
 PAM  EN ES       1841 20.77                             151   -0.4210 76.6  38 
 PAM  EZ I        1841 23.31        14.5 0.58            154           76.6  38 
 RUS  HZ EP       1841  5.72                             143    0.0810 99.8 177 
 RUS  HN ES       1841 23.96                             143    0.0210 99.8 177 
 RUS  HZ I        1841 26.17         7.8 0.24            143           99.8 177 
 PTB  HZ EP       1841  8.30                             131   -0.83 9  150 259 
 PTB  HN ES       1841 29.32                             131   -0.83 9  150 259 
 PTB  HZ I        1841 31.92        10.6 0.17            131            150 259 
 SPBC HZ EP       1841 10.76                             128    0.19 9  164 220 
 SPBC HN ES       1841 33.05                             128    0.33 9  164 220 
 SPBC HZ I        1841 38.12         9.9 0.14            128            164 220 
 ZAR  HZ EP   2   1841 14.92                             122    0.23 4  206 292 
 ZAR  HE ES       1841 40.27                             122    0.22 8  206 292 
 ZAR  HZ I        1841 44.86         8.0 0.18            122            206 292 
 NOR  HE ES       1841 45.78                             118   -0.00 8  236 235 
 NOR  HZ I        1841 49.63         5.6 0.38            118            236 235 
 URE  HZ EP   2   1841 24.04                             113    0.67 4  286 292 
 PRA  HZ EP       1841 35.39                             106   -0.28 6  392 210 
 PRA  HN ES       1842 17.72                             106    0.32 6  392 210 
 PRA  HZ I        1842 25.35         4.6 0.18            107            392 210 
 ORTC HZ EP       1841 36.15                             106    0.05 6  396 216 
 ORTC HN ES       1842 18.03                             106   -0.13 6  396 216 
 ORTC HZ I        1842 24.29         4.0 0.42            106            396 216 
 PAL  HZ EP   2   1841 37.23                             105   -0.20 3  407 239 
 PAL  HN ES       1842 20.90                             105    0.38 6  407 239 
                                                                                
