 2012  412 1345 11.4 L   6.744 -73.126145.7  RSN  5 0.3 1.9LRSN                1
 GAP=165        0.85      12.2     5.8 11.4  0.2884E+01  0.1651E+02  0.6573E+02E
 Epicentro: JORDAN - SANTANDER                                                 3
 ACTION:UPD 12-07-05 11:52 OP:tino STATUS:               ID:20120412134511 L   I
 2012-04-12-1340-00M.COL___181                                                 6
 STAT SP IPHASW D HRMM SECON CODA AMPLIT PERI AZIMU VELO AIN AR TRES W  DIS CAZ7
 BAR2 SZ EP       1345 31.08                             173     0.210   18 200 
 BAR2 SZ I        1345 31.39        16.8 0.08                            18 200 
 BRR  HZ EP       1345 32.88                             151     0.110   76 302 
 BRR  HN ES   1   1345 49.90                             151     0.4 7   76 302 
 BRR  HZ I        1345 52.82        18.1 0.16                            76 302 
 PAM  SZ EP       1345 33.99                             150     0.210   81  36 
 PAM  SN ES   1   1345 50.84                             150    -0.5 7   81  36 
 PTB  HZ EP   1   1345 37.77                             132    -0.7 7  149 261 
 PTB  HZ I        1346  0.75         5.4 0.33                           149 261 
 ZAR  HZ EP   1   1345 44.58                             122     0.3 6  208 293 
 ZAR  HE ES   1   1346  9.73                             122    -0.2 6  208 293 
 ZAR  HZ I        1346 14.85        10.3 0.38                           208 293 
                                                                                
