 2012  212 1938 39.2 L   6.811 -73.196138.0  RSN  5 0.3 1.7LRSN                1
 GAP=172        0.62       5.2     5.4  7.3  0.1657E+02 -0.9630E+00 -0.9688E+01E
 ACTION:UP  12-03-07 16:29 OP:epov STATUS:               ID:20120212193839 L   I
 2012-02-12-1930-00M.COL___188                                                 6
 STAT SP IPHASW D HRMM SECON CODA AMPLIT PERI AZIMU VELO AIN AR TRES W  DIS CAZ7
 GIR2 SZ EP   1   1938 57.93                             167    0.00 8 29.6   1 
 BRR  HZ EP   1   1938 59.66                             153    0.44 8 65.7 300 
 BRR  HZ I        1939  0.67        21.2 0.10                          65.7 300 
 BRR  HN ES   1   1939 14.44                             153   -0.39 8 65.7 300 
 RUS  HZ EP   1   1939  1.92                             142   -0.43 7  102 173 
 RUS  HN ES       1939 20.61                             142    0.2210  102 173 
 RUS  HZ I        1939 22.73         1.9 0.15                           102 173 
 PTB  HZ EP   1   1939  4.81                             131   -0.28 7  143 258 
 PTB  HN ES   1   1939 25.17                             131   -0.09 7  143 258 
 ZAR  HZ EP   1   1939 10.63                             121    0.04 6  198 292 
 ZAR  HN ES   1   1939 35.41                             121    0.36 6  198 292 
 ZAR  HZ I        1939 42.17         8.2 0.34                           198 292 
                                                                                
