 2014  912 1119 53.2 L   6.772 -73.148138.1  RSN  6 0.5 1.4LRSN                1
 GAP=138        1.21       5.8     5.3  8.2  0.2964E+01  0.1158E+02 -0.2180E+01E
 Epicentro: LOS SANTOS - SANTANDER                                             3
 ACTION:UPD 14-10-03 23:04 OP:nd   STATUS:               ID:20140912111953 L   I
 OLDACT:REG 14-09-12 20:20 OP:stll STATUS:               ID:20140912111819     3
 2014-09-12-1118-19M.COL___293                                                 6
 STAT SP IPHASW D HRMM SECON CODA AMPLIT PERI AZIMU VELO AIN AR TRES W  DIS CAZ7
 BAR2 SZ EP       1120 11.89                             171    0.0210 20.2 191 
 BAR2 SZ ES       1120 26.77                             171    0.3510 20.2 191 
 BAR2 SZ I        1120 27.98         7.7 0.36            170           20.2 191 
 BRR  HZ EP       1120 13.65                             151    0.0210 72.5 301 
 BRR  HN ES       1120 30.35                             151    0.8110 72.5 301 
 PAM  SZ EP       1120 14.70                             149   -0.0910 79.9  38 
 PAM  SZ I        1120 15.12         6.5 0.24            151           79.9  38 
 PAM  SN ES       1120 31.07                             149   -0.5510 79.9  38 
 RUS  HZ EP       1120 16.58                             143    0.5810 97.5 176 
 RUS  HN ES       1120 33.33                             143   -0.4410 97.5 176 
 RUS  HZ I        1120 35.95         2.0 0.52            145           97.5 176 
 PTB  HZ EP       1120 19.08                             130   -0.42 9  147 260 
 PTB  HN ES       1120 39.58                             130   -0.42 9  147 260 
 PTB  HZ I        1120 42.27         3.0 0.18            129            147 260 
 ZAR  HZ EP       1120 25.91                             120    0.63 9  205 293 
 ZAR  HN ES       1120 49.72                             120   -0.57 9  205 293 
 ZAR  HZ I        1120 59.84         2.5 0.16            120            205 293 
                                                                                
