 2013  412 1001 48.0 L   6.772 -73.187145.5  RSN  4 0.1 0.9LRSN                1
 GAP=174        0.39       3.5     2.8  4.4  0.1531E+01  0.1574E+01  0.2459E+01E
 Epicentro: VILLANUEVA - SANTANDER                                             3
 ACTION:UPD 13-05-22 14:37 OP:EP   STATUS:               ID:20130412100148 L   I
 2013-04-12-1000-00M.COL___245                                                 6
 STAT SP IPHASW D HRMM SECON CODA AMPLIT PERI AZIMU VELO AIN AR TRES W  DIS CAZ7
 BAR2 SZ EP   1   10 2  7.44                             172   -0.13 7 19.9 178 
 GIR2 SZ EP   1   10 2  7.61                             166   -0.14 7 33.9 359 
 GIR2 SZ ES   1   10 2 23.24                             166    0.11 7 33.9 359 
 RUS  HZ EP       10 2 11.77                             144    0.2010 97.9 173 
 RUS  HZ I        10 2 28.52         1.3 0.64            128           97.9 173 
 RUS  HE ES   1   10 2 29.77                             144   -0.16 7 97.9 173 
 PTB  HZ EP       10 2 14.48                             133   -0.05 9  143 260 
 PTB  HN ES       10 2 35.21                             133    0.03 9  143 260 
 PTB  HZ I        10 2 39.43         1.0 0.10            124            143 260 
                                                                                
