 2016  312 1744 38.8 L   6.771 -73.139141.6  RSN  4 0.2 1.7LRSN                1
 GAP=139        0.51       3.0     3.0  4.2 -0.2826E+01  0.3488E+01 -0.1200E+01E
 Epicentro: LOS SANTOS - SANTANDER                                             3
 ACTION:UPD 16-05-13 21:23 OP:cam  STATUS:               ID:20160312174438 L   I
 OLDACT:REG 16-03-12 23:28 OP:cara STATUS:               ID:20160312173751     3
 2016-03-12-1737-51M.COL___295                                                 6
 STAT SP IPHASW D HRMM SECON CODA AMPLIT PERI AZIMU VELO AIN AR TRES W  DIS CAZ7
 BAR2 EZ IP       1744 58.00                             171    0.1310 20.3 194 
 BAR2 EZ ES       1745 12.56                             171   -0.1810 20.3 194 
 BAR2 EZ I        1745 13.59        11.9 0.34            172           20.3 194 
 PAM  EZ IP     C 1745  0.91                             149    0.2110 79.4  38 
 PAM  EN ES       1745 17.70                             149   -0.0710 79.4  38 
 PAM  EZ I        1745 19.76        14.8 0.46            151           79.4  38 
 RUS  HZ EP       1745  1.69                             144   -0.2110 97.3 176 
 RUS  HE ES       1745 20.09                             144    0.1710 97.3 176 
 RUS  HZ I        1745 21.97         6.6 0.44            146           97.3 176 
 PTB  HZ EP       1745  5.24                             131   -0.20 9  148 260 
 PTB  HN ES       1745 26.37                             131    0.14 9  148 260 
 PTB  HZ I        1745 28.77         4.1 0.16            132            148 260 
                                                                                
