 2017  412 1405 27.1 L   6.803 -73.182142.8  RSN  9 0.5 1.6LRSN                1
 GAP=108        1.38       4.8     5.1  8.3  0.4426E+01  0.1254E+02  0.9308E+01E
 Epicentro: ZAPATOCA - SANTANDER                                               3
 ACTION:UPD 17-05-30 21:11 OP:jn   STATUS:               ID:20170412140527 L   I
 OLDACT:UP  17-04-12 22:48 OP:cog  STATUS:               ID:20170412135744     3
 OLDACT:REG 17-04-12 20:45 OP:cog  STATUS:               ID:20170412135744     3
 2017-04-12-1358-00M.COL___359                                                 6
 STAT SP IPHASW D HRMM SECON CODA AMPLIT PERI AZIMU VELO AIN AR TRES W  DIS CAZ7
 BAR2 EZ EP       14 5 46.19                             170   -0.1410 23.3 180 
 BAR2 EZ ES       14 6  2.22                             170    0.8610 23.3 180 
 BAR2 EZ I        14 6  7.16         7.9 0.20            166           23.3 180 
 BRR  HZ EP       14 5 47.95                             153    0.2710 67.6 300 
 BRR  HN ES       14 6  4.41                             153    0.6410 67.6 300 
 PAM  EZ EP       14 5 48.91                             149   -0.1910 79.7  42 
 PAM  EN ES       14 6  5.88                             149   -0.4110 79.7  42 
 PAM  EZ I        14 6  6.55         7.7 0.24            157           79.7  42 
 RUS  HZ EP       14 5 50.34                             143   -0.2310  101 174 
 RUS  HN ES       14 6  7.76                             143   -1.1510  101 174 
 RUS  HZ I        14 6 11.09         2.8 0.20            143            101 174 
 PTB  HZ EP       14 5 53.22                             132   -0.22 9  144 258 
 PTB  HN ES       14 6 13.26                             132   -0.75 9  144 258 
 PTB  HZ I        14 6 18.91         8.6 0.12            133            144 258 
 YPLC HZ EP   4   14 5 54.85                             126   -2.01 0  179 150 
 YPLC HN ES       14 6 20.65                             126    0.55 9  179 150 
 ZAR  HZ EP       14 5 58.90                             122   -0.02 9  200 292 
 ZAR  HN ES       14 6 23.97                             122    0.20 9  200 292 
 NOR  HZ EP       14 6  2.95                             118    0.66 8  232 234 
 NOR  HN ES       14 6 29.29                             118   -0.48 8  232 234 
 NOR  HZ I        14 6 36.26         4.6 0.20            120            232 234 
 CHI  HZ EP       14 6  4.61                             117    0.09 8  248 194 
 CHI  HN ES       14 6 34.49                             117    0.75 8  248 194 
 CHI  HZ I        14 6 41.90         2.2 0.42            118            248 194 
                                                                                
