 2015  312 1855 21.9 L   6.840 -73.216132.0  RSN  8 0.4 1.7LRSN                1
 GAP=126        0.80       3.7     4.8  7.0 -0.8271E+01  0.1651E+02 -0.6540E+01E
 Epicentro: ZAPATOCA - SANTANDER                                               3
 ACTION:UPD 15-04-30 16:25 OP:nd   STATUS:               ID:20150312185521 L   I
 OLDACT:REG 15-03-12 21:13 OP:spq  STATUS:               ID:20150312184749     3
 2015-03-12-1847-49M.COL___287                                                 6
 STAT SP IPHASW D HRMM SECON CODA AMPLIT PERI AZIMU VELO AIN AR TRES W  DIS CAZ7
 BAR2 EZ EP       1855 39.67                             168   -0.3010 27.6 172 
 BAR2 EZ ES   1   1855 54.36                             168    0.29 7 27.6 172 
 BAR2 EZ I        1855 55.56        10.8 0.14            171           27.6 172 
 PAM  SZ EP       1855 42.63                             148   -0.1510 79.4  46 
 PAM  SN ES       1855 59.55                             148    0.4610 79.4  46 
 PAM  SZ I        1856  1.64        12.5 0.46            151           79.4  46 
 RUS  HZ EP   1   1855 44.22                             140   -0.50 7  106 172 
 RUS  HN ES   1   1856  2.20                             140   -0.32 7  106 172 
 RUS  HZ I        1856  3.42         7.3 0.24            144            106 172 
 PTB  HZ EP   1   1855 46.81                             130   -0.33 7  141 256 
 PTB  HE ES   1   1856  6.43                             130   -0.41 7  141 256 
 PTB  HZ I        1856  8.96         5.5 0.31            132            141 256 
 SPBC HE ES       1856 10.89                             126    0.31 9  162 216 
 SPBC HZ I        1856 13.12         9.1 0.30            129            162 216 
 NOR  HZ EP   1   1855 56.98                             116    0.52 6  231 232 
 NOR  HN ES   1   1856 23.62                             116    0.20 6  231 232 
 NOR  HZ I        1856 25.23         2.7 0.14            118            231 232 
 SML  HZ EP   1   1855 56.55                             116   -0.43 6  236 337 
 SML  HE ES   1   1856 24.39                             116    0.04 6  236 337 
 SML  HZ I        1856 28.03         6.2 0.24            117            236 337 
 GUY2CHZ EP   1   1856  5.36                             110    0.89 5  298 233 
 GUY2CHN ES   4   1856 39.29                             110    1.60 0  298 233 
 GUY2CHZ I        1856 44.85         1.9 0.28                           298 233 
                                                                                
