 2014 1112 1800  8.6 L   6.791 -73.159141.5  RSN 15 0.6 2.4LRSN                1
 GAP=135        1.30       4.2     4.9  6.7 -0.1508E+01  0.1070E+02  0.2886E+01E
 Epicentro: LOS SANTOS - SANTANDER                                             3
 ACTION:UPD 14-12-19 15:42 OP:nd   STATUS:               ID:20141112180008 L   I
 OLDACT:UP  14-11-13 00:00 OP:cam  STATUS:               ID:20141112175814     3
 OLDACT:UP  14-11-12 23:59 OP:cam  STATUS:               ID:20141112175814     3
 OLDACT:UP  14-11-12 23:59 OP:cam  STATUS:               ID:20141112175814     3
 OLDACT:REG 14-11-12 22:08 OP:cam  STATUS:               ID:20141112175814     3
 2014-11-12-1758-14M.COL___289                                                 6
 STAT SP IPHASW D HRMM SECON CODA AMPLIT PERI AZIMU VELO AIN AR TRES W  DIS CAZ7
 BAR2 SZ EP     C 18 0 27.71                             171    0.0710 22.2 187 
 BAR2 SZ ES       18 0 42.51                             171   -0.0210 22.2 187 
 BAR2 SZ I        18 0 43.43        74.1 0.34            168           22.2 187 
 BRR  HZ IP     C 18 0 29.60                             152    0.4110 70.4 300 
 BRR  HN ES       18 0 46.24                             152    0.9510 70.4 300 
 BRR  HZ I        18 0 47.56        49.6 0.12            149           70.4 300 
 PAM  SZ IP     C 18 0 30.60                             149    0.1810 79.0  40 
 PAM  SN ES       18 0 47.39                             149   -0.0810 79.0  40 
 PAM  SZ I        18 0 49.82        69.2 0.58            153           79.0  40 
 RUS  HZ EP     D 18 0 31.68                             143   -0.1410 99.7 175 
 RUS  HE ES       18 0 49.58                             143   -0.3910 99.7 175 
 PTB  HZ EP       18 0 34.37                             131   -0.66 9  146 259 
 PTB  HN ES       18 0 55.02                             131   -0.65 9  146 259 
 PTB  HZ I        18 0 58.47        41.6 0.26            129            146 259 
 OCA  HZ EP       18 0 36.05                             128   -0.56 9  161 354 
 OCA  HN ES   4   18 0 57.00                             128   -1.49 0  161 354 
 OCA  HZ I        18 1  2.69        34.6 0.14            129            161 354 
 SPBC HZ EP       18 0 36.49                             128   -0.08 9  162 219 
 SPBC HN ES       18 0 58.29                             128   -0.13 9  162 219 
 SPBC HZ I        18 1  1.90        23.5 0.28            127            162 219 
 NOR  HZ EP       18 0 43.85                             118   -0.00 8  233 234 
 NOR  HN ES   4   18 1  9.52                             118   -1.86 0  233 234 
 NOR  HZ I        18 1 18.88        14.8 0.22            117            233 234 
 CHI  HZ EP       18 0 45.83                             116   -0.05 8  247 195 
 CHI  HN ES       18 1 15.18                             116    0.19 8  247 195 
 CHI  HZ I        18 1 24.67         9.7 0.40            117            247 195 
 HEL  HZ EP       18 0 50.03                             114    1.66 8  270 256 
 HEL  HE ES       18 1 19.35                             114   -0.07 8  270 256 
 HEL  HZ I        18 1 26.79        12.8 0.42            113            270 256 
 URE  HZ EP   4   18 0 49.03                             113   -0.28 0  283 292 
 URE  HN ES   4   18 1 19.02                             113   -2.07 0  283 292 
 URE  HZ I        18 1 31.21        20.6 0.24            112            283 292 
 DBB  SZ ES       18 1 32.37                             109   -0.10 7  338 274 
 TOL  SZ EP       18 0 57.56                             109    1.12 7  342 225 
 TOL  SE ES   4   18 1 35.43                             109    1.63 0  342 225 
 TOL  SZ I        18 1 41.67        17.5 0.36            109            342 225 
 MON  HZ EP   4   18 0 55.68                             108   -1.65 0  353 309 
 MON  HN ES       18 1 34.38                             108   -0.99 6  353 309 
 MON  HZ I        18 1 37.99         7.2 0.52            108            353 309 
 PRA  HZ EP       18 1  1.10                             106   -0.65 6  390 209 
                                                                                
