 2013  312 1141 54.7 L   6.798 -73.018142.5  RSN  4 0.1 1.7LRSN                1
 GAP=154        0.39       3.0     4.4  5.5  0.1676E+01  0.3041E+01  0.5099E+01E
 Epicentro: CEPITA - SANTANDER                                                 3
 ACTION:UPD 13-04-09 14:01 OP:ep   STATUS:               ID:20130312114154 L   I
 2013-03-12-1140-00M.COL___231                                                 6
 STAT SP IPHASW D HRMM SECON CODA AMPLIT PERI AZIMU VELO AIN AR TRES W  DIS CAZ7
 BAR2 SZ EP       1142 14.31                             168    0.2010 29.1 218 
 BAR2 SZ I        1142 30.75        11.7 0.24            166           29.1 218 
 PAM  SN ES   1   1142 32.78                             153   -0.06 7 69.4  30 
 BRR  HZ EP   1   1142 16.23                             148   -0.09 7 83.9 294 
 BRR  HE ES   1   1142 33.12                             148   -0.02 7 83.9 294 
 BRR  HZ I        1142 36.59         8.8 0.36            140           83.9 294 
 RUS  HZ EP   1   1142 17.99                             143   -0.17 7  100 184 
 RUS  HE ES   1   1142 36.41                             143   -0.01 7  100 184 
 RUS  HE I        1142 38.30         6.7 0.50            136            100 184 
                                                                                
