 2011 1112 1333 36.9 L   6.774 -73.127138.8  RSN  6 0.2 1.7LRSN                1
 GAP=140        0.39       1.7     2.6  2.9 -0.1274E+00  0.4655E+00  0.1047E+01E
 Epicentro: LOS SANTOS - SANTANDER                                             3
 ACTION:UPD 12-07-13 16:09 OP:ep   STATUS:               ID:20111112133336 L   I
 2011-11-12-1330-20S.COL___180                                                 6
 STAT SP IPHASW D HRMM SECON CODA AMPLIT PERI AZIMU VELO AIN AR TRES W  DIS CAZ7
 BAR2 SZ EP       1333 55.56                             171   -0.0510 21.0 197 
 BAR2 SZ ES       1334 10.11                             171   -0.1310 21.0 197 
 BAR2 SZ I        1334 11.90        10.8 0.19                          21.0 197 
 BRR  HZ EP       1333 57.42                             150   -0.0410 74.4 300 
 BRR  HZ I        1334  4.48        23.4 0.30                          74.4 300 
 BRR  HN ES       1334 13.72                             150    0.1910 74.4 300 
 PAM  SZ EP       1333 58.37                             149   -0.0410 78.4  37 
 PAM  SE ES       1334 15.31                             149    0.1010 78.4  37 
 RUS  HZ EP       1333 59.67                             143   -0.0510 97.5 177 
 RUS  HN ES       1334 17.48                             143   -0.0610 97.5 177 
 RUS  HZ I        1334 20.63         5.2 0.32                          97.5 177 
 ZAR  HN ES   2   1334 33.87                             120   -0.53 4  207 293 
 ZAR  HZ I        1334 39.39         6.0 0.29                           207 293 
 CHI  HZ EP   1   1334 14.20                             116    0.26 6  246 196 
 CHI  HE ES   1   1334 43.09                             116    0.23 6  246 196 
 CHI  HZ I        1334 51.28         2.0 0.55                           246 196 
                                                                                
