 2011 1112 1225 11.5 L   6.777 -73.092149.1  RSN  6 0.2 1.6LRSN                1
 GAP=145        0.45       3.1     3.5  3.8 -0.3485E+01  0.1068E+01  0.3838E+01E
 Epicentro: LOS SANTOS - SANTANDER                                             3
 ACTION:UPD 12-07-13 16:09 OP:ep   STATUS:               ID:20111112122511 L   I
 2011-11-12-1224-04S.COL___180                                                 6
 STAT SP IPHASW D HRMM SECON CODA AMPLIT PERI AZIMU VELO AIN AR TRES W  DIS CAZ7
 BAR2 SZ EP       1225 31.46                             171   -0.0210 22.7 206 
 BAR2 SZ ES       1225 47.37                             171    0.2710 22.7 206 
 BAR2 SZ I        1225 50.40        11.8 0.33                          22.7 206 
 PAM  SZ EP   1   1225 34.10                             152    0.15 7 75.8  35 
 PAM  SN ES       1225 51.37                             152   -0.1210 75.8  35 
 BRR  HZ EP       1225 33.46                             151    0.1210 77.7 298 
 BRR  HZ I        1225 35.00        13.8 0.14                          77.7 298 
 BRR  HN ES   1   1225 50.06                             151   -0.35 7 77.7 298 
 RUS  HZ EP       1225 35.28                             145   -0.0710 97.8 179 
 RUS  HE ES   2   1225 53.68                             145   -0.30 5 97.8 179 
 RUS  HZ I        1225 56.83         3.4 0.26                          97.8 179 
 NOR  SN ES   1   1226 16.17                             119    0.11 6  238 236 
 CHI  HZ EP   1   1225 49.17                             118   -0.08 6  248 197 
 CHI  HZ I        1225 52.19         2.4 0.33                           248 197 
                                                                                
