 2013  912 1131 54.7 L   6.803 -73.147151.0  RSN  9 0.3 2.2LRSN                1
 GAP=136        0.75       2.6     3.2  4.3  0.2103E+00  0.2892E+01 -0.1056E+01E
 Epicentro: LOS SANTOS - SANTANDER                                             3
 ACTION:UPD 13-10-22 09:22 OP:ep   STATUS:               ID:20130912113154 L   I
 OLDACT:UP  13-09-12 15:52 OP:cam  STATUS:               ID:20130912112959     3
 OLDACT:REG 13-09-12 14:49 OP:cam  STATUS:               ID:20130912112959     3
 2013-09-12-1129-59M.COL___269                                                 6
 STAT SP IPHASW D HRMM SECON CODA AMPLIT PERI AZIMU VELO AIN AR TRES W  DIS CAZ7
 BAR2 SZ EP       1132 14.86                             171   -0.0910 23.6 189 
 BAR2 SZ ES       1132 30.48                             171   -0.2810 23.6 189 
 BAR2 SZ I        1132 32.63        28.5 0.32            170           23.6 189 
 BRR  HZ EP       1132 16.69                             153    0.3110 70.9 298 
 BRR  HN ES       1132 33.84                             153    0.5310 70.9 298 
 BRR  HZ I        1132 37.64        22.2 0.18            152           70.9 298 
 PAM  SZ EP       1132 17.70                             152    0.2510 77.2  40 
 PAM  SN ES       1132 35.13                             152   -0.0810 77.2  40 
 PAM  SZ I        1132 37.19        19.3 0.68            156           77.2  40 
 RUS  HZ EP       1132 18.84                             145   -0.1410  101 176 
 RUS  HE ES       1132 37.93                             145    0.0010  101 176 
 RUS  HZ I        1132 38.74        12.2 0.38            147            101 176 
 PTB  HZ EP   1   1132 21.63                             133   -0.44 7  148 259 
 PTB  HE ES       1132 43.32                             133   -0.12 9  148 259 
 PTB  HZ I        1132 47.48        13.3 0.38            133            148 259 
 SPBC HZ EP       1132 23.80                             130    0.20 9  163 219 
 SPBC HN ES       1132 45.79                             130   -0.37 9  163 219 
 SPBC HZ I        1132 52.74        18.4 0.22            131            163 219 
 ZAR  HZ EP       1132 27.58                             123    0.14 9  204 292 
 ZAR  HN ES       1132 53.28                             123    0.28 9  204 292 
 ZAR  HZ I        1132 59.12        13.1 0.34            124            204 292 
 SML  HZ EP       1132 31.35                             119   -0.21 8  243 335 
 SML  HE ES       1132 59.70                             119   -0.63 8  243 335 
 SML  HZ I        1133  3.06        29.4 0.10            120            243 335 
 CHI  HZ EP   1   1132 33.17                             118    0.46 6  249 195 
                                                                                
