 2013 1012 1043 52.3 L   6.752 -73.173143.6  RSN  8 0.2 1.7LRSN                1
 GAP=135        0.57       2.3     2.5  3.7 -0.8111E+00  0.2628E+01 -0.1525E+01E
 Epicentro: VILLANUEVA - SANTANDER                                             3
 ACTION:UPD 13-11-25 09:21 OP:ep   STATUS:               ID:20131012104352 L   I
 OLDACT:REG 13-10-12 15:32 OP:nd   STATUS:               ID:20131012103959     3
 2013-10-12-1039-59M.COL___273                                                 6
 STAT SP IPHASW D HRMM SECON CODA AMPLIT PERI AZIMU VELO AIN AR TRES W  DIS CAZ7
 BAR2 SZ EP       1044 11.55                             173   -0.0510 17.7 183 
 BAR2 SZ ES       1044 26.94                             173    0.3110 17.7 183 
 BAR2 SZ I        1044 27.73        13.6 0.28            173           17.7 183 
 BRR  HZ EP       1044 13.69                             152    0.4410 71.4 303 
 BRR  HN ES       1044 29.46                             152   -0.1210 71.4 303 
 BRR  HZ I        1044 33.23         9.1 0.34            151           71.4 303 
 PAM  SZ IP     C 1044 14.74                             148    0.0610 83.3  39 
 PAM  SN ES       1044 31.84                             148   -0.2810 83.3  39 
 PAM  SZ I        1044 34.42         7.1 0.62            151           83.3  39 
 RUS  HZ IP   4 D 1044 12.76                             145   -2.75 0 95.6 174 
 RUS  HN ES       1044 33.60                             145    0.0110 95.6 174 
 RUS  HZ I        1044 35.03         3.6 0.26            148           95.6 174 
 PTB  HZ EP       1044 18.38                             132   -0.39 9  144 261 
 PTB  HN ES       1044 39.26                             132   -0.13 9  144 261 
 PTB  HZ I        1044 43.04         4.6 0.10            133            144 261 
 SPBC HZ EP       1044 20.19                             130    0.09 9  157 219 
 SPBC HN ES       1044 41.61                             130   -0.15 9  157 219 
 SPBC HZ I        1044 45.78         4.5 0.18            131            157 219 
 ZAR  HZ EP   2   1044 24.74                             122    0.18 4  203 294 
 ZAR  HN ES       1044 49.93                             122    0.22 9  203 294 
 ZAR  HZ I        1044 53.31         4.8 0.34            123            203 294 
 SML  HZ EP       1044 29.19                             117   -0.03 8  247 336 
 SML  HN ES   2   1044 57.84                             117   -0.16 4  247 336 
 SML  HZ I        1045  1.96        11.3 0.28            118            247 336 
                                                                                
