 2017  912 1510  4.2 L   6.760 -73.098141.2  RSN  6 0.3 2.1LRSN                1
 GAP=172        0.58       4.8     4.2  4.5 -0.1317E+02  0.1395E+01  0.6923E+01E
 Epicentro: LOS SANTOS - SANTANDER                                             3
 ACTION:UPD 17-10-05 19:11 OP:rebc STATUS:               ID:20170912151004 L   I
 OLDACT:REG 17-09-12 20:21 OP:dnl  STATUS:               ID:20170912150743     3
 2017-09-12-1508-00M.COL___452                                                 6
 STAT SP IPHASW D HRMM SECON CODA AMPLIT PERI AZIMU VELO AIN AR TRES W  DIS CAZ7
 BAR2 EZ IP     C 1510 23.12                             171   -0.1310 20.7 207 
 BAR2 EZ ES       1510 38.08                             171   -0.0110 20.7 207 
 BAR2 EZ I        1510 39.09        32.1 0.22            158           20.7 207 
 PAM  EZ EP       1510 26.20                             150    0.2310 77.8  34 
 PAM  EN ES       1510 42.96                             150    0.0210 77.8  34 
 PAM  EZ I        1510 45.41        25.4 0.66            141           77.8  34 
 BRR  HZ EP       1510 25.01                             149   -0.2710 77.9 300 
 BRR  HE ES       1510 41.80                             149    0.0910 77.9 300 
 BRR  HZ I        1510 43.59        20.1 0.12            149           77.9 300 
 NOR  HZ EP   2   1510 39.64                             117   -0.24 4  236 236 
 NOR  HE ES       1511  7.36                             117   -0.34 8  236 236 
 NOR  HZ I        1511 11.09         7.9 0.42            107            236 236 
 GUY2CHZ EP       1510 47.79                             111   -0.03 7  303 236 
 GUY2CHN ES       1511 22.49                             111    0.65 7  303 236 
 GUY2CHZ I        1511 26.09         3.0 0.34                           303 236 
 PRA  HZ EP   2   1510 57.68                             106    0.24 3  391 211 
 PRA  HZ I        1511 45.91         4.6 0.24             96            391 211 
                                                                                
