 2013  612 1353 21.5 L   6.753 -73.199148.4  RSN  4 0.3 1.6LRSN                1
 GAP=228        0.71       6.8     7.1  7.5  0.2603E+02  0.5359E+01 -0.2618E+01E
 Epicentro: VILLANUEVA - SANTANDER                                             3
 ACTION:UPD 14-01-08 09:54 OP:ep   STATUS:               ID:20130612135321 L   I
 OLDACT:REG 13-06-12 14:34 OP:cam  STATUS:               ID:20130612134959     3
 2013-06-12-1349-59M.COL___261                                                 6
 STAT SP IPHASW D HRMM SECON CODA AMPLIT PERI AZIMU VELO AIN AR TRES W  DIS CAZ7
 BAR2 SZ EP   1   1353 41.07                             173   -0.32 7 17.9 174 
 BAR2 SZ ES   1   1353 56.30                             173   -0.58 7 17.9 174 
 BAR2 SZ I        1353 57.44        11.9 0.10            170           17.9 174 
 BRR  HZ EP   1   1353 42.93                             154    0.09 7 68.9 305 
 BRR  HN ES   1   1354  0.01                             154    0.55 7 68.9 305 
 RUS  HZ EP   1   1353 45.48                             146    0.25 7 96.0 172 
 RUS  HE ES       1354  3.91                             146    0.2010 96.0 172 
 RUS  HZ I        1354  5.43         5.2 0.40            144           96.0 172 
 PTB  HZ EP   1   1353 47.91                             134   -0.21 7  141 260 
 PTB  HN ES   1   1354  8.68                             134   -0.18 7  141 260 
 PTB  HZ I        1354 10.80         5.2 0.16            133            141 260 
                                                                                
