 2014 1012 1448 31.2 L   6.821 -73.152146.2  RSN  7 0.5 1.5LRSN                1
 GAP=201        1.00       4.8     6.5  7.6  0.4722E+01  0.1033E+02 -0.6254E+01E
 Epicentro: LOS SANTOS - SANTANDER                                             3
 ACTION:UPD 14-11-29 23:49 OP:nd   STATUS:               ID:20141012144831 L   I
 OLDACT:DUP 14-10-12 21:34 OP:fm   STATUS:               ID:20141012143747d    3
 2014-10-12-1437-46M.COL___281                                                 6
 STAT SP IPHASW D HRMM SECON CODA AMPLIT PERI AZIMU VELO AIN AR TRES W  DIS CAZ7
 BAR2 SZ EP   1   1448 51.03                             170    0.05 7 25.5 187 
 BAR2 SZ ES   1   1449  6.28                             170   -0.09 7 25.5 187 
 BAR2 SZ I        1449  7.05        13.9 0.42            171           25.5 187 
 BRR  HZ EP       1448 52.74                             153    0.3910 69.5 297 
 BRR  HN ES       1449  9.60                             153    0.8010 69.5 297 
 BRR  HZ I        1449 13.00         5.6 0.16            151           69.5 297 
 RUS  HN ES   1   1449 13.30                             143   -0.61 7  103 176 
 RUS  HZ I        1449 14.57         2.1 0.22            147            103 176 
 PTB  HZ EP       1448 58.05                             132   -0.18 9  148 258 
 PTB  HN ES       1449 18.85                             132   -0.42 9  148 258 
 PTB  HZ I        1449 20.94         3.1 0.14            133            148 258 
 ZAR  HZ EP   1   1449  3.82                             123    0.26 6  202 292 
 ZAR  HN ES       1449 28.13                             123   -0.64 9  202 292 
 ZAR  HZ I        1449 35.59         3.0 0.46            124            202 292 
 SML  HZ EP   1   1449  7.43                             118   -0.21 6  241 335 
 SML  HN ES       1449 35.72                             118   -0.30 8  241 335 
 SML  HZ I        1449 38.24         2.8 0.20            119            241 335 
 GUY2CHZ EP   1   1449 15.39                             113    0.43 5  302 234 
 GUY2CHN ES   1   1449 49.70                             113    0.65 5  302 234 
 GUY2CHZ I        1449 55.51         1.2 0.30                           302 234 
                                                                                
