 2017  912 1234 22.2 L   6.817 -73.116143.3  RSN  9 0.5 2.0LRSN                1
 GAP=242        0.85       3.9     4.8  6.4  0.3426E+01  0.1163E+02  0.5989E+01E
 Epicentro: LOS SANTOS - SANTANDER                                             3
 ACTION:UPD 17-10-05 19:11 OP:rebc STATUS:               ID:20170912123422 L   I
 OLDACT:UP  17-09-12 21:32 OP:dnl  STATUS:               ID:20170912122735     3
 OLDACT:UP  17-09-12 21:31 OP:dnl  STATUS:               ID:20170912122735     3
 OLDACT:REG 17-09-12 20:16 OP:dnl  STATUS:               ID:20170912122735     3
 2017-09-12-1228-00M.COL___445                                                 6
 STAT SP IPHASW D HRMM SECON CODA AMPLIT PERI AZIMU VELO AIN AR TRES W  DIS CAZ7
 BAR2 EZ EP       1234 41.54                             169   -0.0110 25.9 196 
 BAR2 EZ ES       1234 56.83                             169    0.1510 25.9 196 
 BAR2 EZ I        1234 58.14        43.0 0.20            167           25.9 196 
 BRR  HZ EP       1234 43.57                             151    0.4110 73.3 296 
 BRR  HN ES       1234 59.43                             151   -0.1210 73.3 296 
 BRR  HZ I        1235  3.66        14.8 0.32            149           73.3 296 
 RUS  HZ EP       1234 45.45                             143   -0.3410  102 178 
 RUS  HN ES       1235  4.37                             143    0.1510  102 178 
 RUS  HZ I        1235  5.41         8.4 0.26            144            102 178 
 SPBC HZ EP   4   1234 48.87                             128   -1.94 0  167 219 
 SPBC HN ES       1235 12.94                             128   -0.21 9  167 219 
 SPBC HZ I        1235 17.29        21.6 0.20            128            167 219 
 ZAR  HZ EP   2   1234 54.09                             121   -0.60 4  206 291 
 ZAR  HN ES       1235 19.88                             121   -0.19 8  206 291 
 ZAR  HZ I        1235 26.01         6.7 0.32            121            206 291 
 NOR  HZ EP   2   1234 57.98                             118   -0.17 4  238 235 
 NOR  HE ES       1235 25.82                             118   -0.40 8  238 235 
 NOR  HZ I        1235 29.85         5.9 0.50            118            238 235 
 GUY2CHZ EP   2   1235  8.09                             112    2.01 4  305 235 
 GUY2CHE ES       1235 41.07                             112    0.74 7  305 235 
 GUY2CHZ I        1235 53.56         3.6 0.38                           305 235 
 PRA  HZ EP   2   1235 15.07                             106   -0.90 3  395 210 
 PRA  HN ES       1235 57.71                             106   -0.24 6  395 210 
 PRA  HZ I        1236  3.20         3.9 0.24            107            395 210 
 SJC  HZ EP   4   1235 15.21                             105   -2.46 0  410 326 
 SJC  HN ES   4   1235 57.66                             105   -3.31 0  410 326 
 SJC  HZ I        1236  2.03         1.8 0.26            106            410 326 
                                                                                
