 2011  812 1341 22.9 L   6.777 -73.128146.0  RSN  7 0.3 2.0LRSN                1
 GAP=140        0.55       2.9     4.3  4.3 -0.3061E+01  0.4269E+01 -0.7417E+00E
 Epicentro: LOS SANTOS - SANTANDER                                             3
 ACTION:UPD 12-07-13 15:51 OP:ep   STATUS:               ID:20110812134122 L   I
 2011-08-12-1339-23S.COL___149                                                 6
 STAT SP IPHASW D HRMM SECON CODA AMPLIT PERI AZIMU VELO AIN AR TRES W  DIS CAZ7
 BAR2 SZ IP       1341 42.48                             171   -0.0510 21.3 196 
 BAR2 SZ ES   1   1341 57.50                             171   -0.34 7 21.3 196 
 BAR2 SZ I        1341 58.81        18.1 0.20                          21.3 196 
 BRR  HZ IP     D 1341 44.39                             152    0.1310 74.2 300 
 BRR  HZ I        1341 44.74        30.1 0.12                          74.2 300 
 BRR  HE ES   1   1342  1.39                             152    0.49 7 74.2 300 
 PAM  SZ EP       1341 45.41                             151    0.2110 78.2  37 
 PAM  SE ES   1   1342  2.43                             151   -0.15 7 78.2  37 
 RUS  HZ EP       1341 46.74                             145    0.2410 97.9 177 
 RUS  HE ES   1   1342  4.85                             145   -0.04 7 97.9 177 
 RUS  HZ I        1342  5.56         9.6 0.26                          97.9 177 
 OCA  SZ EP       1341 51.20                             129   -0.30 9  163 353 
 OCA  SZ ES   3   1342 13.22                             129   -0.58 2  163 353 
 OCA  SZ I        1342 20.02        12.8 0.30                           163 353 
 NOR  SZ EP       1341 58.37                             119   -0.30 8  235 235 
 NOR  SN ES   2   1342 26.28                             119   -0.28 4  235 235 
 RREF HZ EP   3   1342  9.69                             111    0.64 2  322 230 
 RREF HN ES   3   1342 45.08                             111    0.05 2  322 230 
 RREF HZ I        1342 54.79         4.4 0.28                           322 230 
                                                                                
