 2017 1012 1240 38.5 L   6.697 -73.180139.2  RSN  4 0.5 1.0LRSN                1
 GAP=270        1.00      11.0     7.3  9.3  0.3280E+02  0.1588E+02 -0.8050E+01E
 Epicentro: VILLANUEVA - SANTANDER                                             3
 ACTION:UPD 17-11-07 19:31 OP:rebc STATUS:               ID:20171012124038 L   I
 OLDACT:REG 17-10-12 20:09 OP:lv   STATUS:               ID:20171012122907     3
 2017-10-12-1238-00M.COL___429                                                 6
 STAT SP IPHASW D HRMM SECON CODA AMPLIT PERI AZIMU VELO AIN AR TRES W  DIS CAZ7
 BAR2 EZ EP       1240 57.12                             176   -0.0610 11.6 181 
 BAR2 EZ ES       1241 12.03                             176    0.3010 11.6 181 
 BAR2 EZ I        1241 13.93         2.7 0.12            173           11.6 181 
 RUS  HZ EP       1241  1.40                             146    0.5510 89.7 173 
 RUS  HN ES       1241 17.67                             146   -0.6010 89.7 173 
 RUS  HZ I        1241 21.02         1.3 0.32            147           89.7 173 
 PTB  HZ EP       1241  4.11                             132   -0.34 9  142 263 
 PTB  HN ES       1241 24.71                             132    0.03 9  142 263 
 PTB  HZ I        1241 26.67         1.3 0.17            133            142 263 
 NOR  HE ES   3   1241 41.43                             118    1.82 2  225 236 
                                                                                
