 2010  512 1640 35.8 L   6.758 -73.022149.1  RSN  9 0.4 2.3LRSN                1
 GAP=171        0.71       3.9     8.1  7.0 -0.1375E+02  0.6636E+01  0.5026E+01E
 Epicentro: CEPITA - SANTANDER                                                 3
 ACTION:UP  10-08-24 10:04 OP:vdl  STATUS:               ID:20100512164035 L   I
 2010-05-12-1637-06S.COL___104                                                 6
 STAT SP IPHASW D HRMM SECON CODA AMPLIT PERI AZIMU VELO AIN AR TRES W  DIS CAZ7
 BAR2 SZ IP     D 1640 55.56                             170    -0.310   26 224 
 BAR2 SZ ES   2   1641 10.74                             170    -0.7 5   26 224 
 BRR  HZ IP     C 1640 58.13                             149     0.010   86 297 
 BRR  HZ I        1640 58.44        81.0 0.14                            86 297 
 BRR  HE ES   2   1641 15.71                             149     0.2 5   86 297 
 RUS  HZ EP   1   1640 59.41                             146    -0.1 7   96 184 
 RUS  HE ES   2   1641 18.32                             146     0.3 5   96 184 
 RUS  HZ I        1641 21.62        17.9 0.44                            96 184 
 BRI  SZ EP   1   1641  0.19                             142     0.2 7  109  13 
 BRI  SZ ES   2   1641 19.84                             142     0.9 5  109  13 
 GUE  SZ EP   1   1641  0.90                             140    -0.1 7  119   5 
 GUE  SZ ES   2   1641 20.44                             140    -0.2 5  119   5 
 GRA  SZ EP   1   1641  1.51                             138     0.1 7  127  11 
 GRA  SZ ES   2   1641 21.09                             138    -0.3 5  127  11 
 CHI  HZ EP   1   1641 13.56                             118     0.0 6  248 199 
 CHI  HE ES   2   1641 44.52                             118     1.4 4  248 199 
 CHI  HZ I        1641 48.79         7.6 0.73                           248 199 
 HEL  HZ EP   1   1641 17.63                             114     0.1 6  284 257 
 PRA  HZ EP   1   1641 29.17                             107    -0.6 4  395 212 
 PRA  HE ES   2   1642 11.87                             107     0.0 3  395 212 
 PRA  HZ I        1642 17.25         9.6 0.57                           395 212 
                                                                                
