 2013  612 1420 47.1 L   6.727 -73.189151.0  RSN  4 0.2 1.4LRSN                1
 GAP=227        0.45       3.8     3.5  4.1  0.6436E+01  0.1351E+01  0.3016E+00E
 Epicentro: VILLANUEVA - SANTANDER                                             3
 ACTION:UPD 14-01-08 09:54 OP:ep   STATUS:               ID:20130612142047 L   I
 OLDACT:REG 13-06-12 14:37 OP:cam  STATUS:               ID:20130612141959     3
 2013-06-12-1419-59M.COL___261                                                 6
 STAT SP IPHASW D HRMM SECON CODA AMPLIT PERI AZIMU VELO AIN AR TRES W  DIS CAZ7
 BAR2 SZ EP     D 1421  6.97                             174   -0.2710 14.9 177 
 BAR2 SZ ES   1   1421 22.82                             174   -0.12 7 14.9 177 
 BAR2 SZ I        1421 24.69         5.6 0.39            170           14.9 177 
 BRR  HZ EP   1   1421  8.99                             153    0.13 7 71.5 306 
 BRR  HN ES       1421 25.94                             153    0.1410 71.5 306 
 RUS  HZ EP   1   1421 10.97                             147    0.10 7 93.0 173 
 RUS  HN ES       1421 29.50                             147    0.1110 93.0 173 
 RUS  HZ I        1421 30.57         4.9 0.30            146           93.0 173 
 PTB  HZ EP       1421 14.10                             134    0.11 9  142 262 
 PTB  HN ES       1421 34.78                             134   -0.16 9  142 262 
 PTB  HZ I        1421 39.48         3.5 0.22            133            142 262 
                                                                                
