 2011  412 1015 20.6 L   6.783 -73.090137.5  RSN  4 0.5 1.6LRSN                1
 GAP=171        1.03       9.9    10.9 11.3 -0.4609E+02 -0.9817E+01 -0.9443E+01E
 Epicentro: LOS SANTOS - SANTANDER                                             3
 ACTION:UP  11-06-22 15:30 OP:REBC STATUS:               ID:20110412101520 L   I
 2011-04-12-1000-00M.COL___139                                                 6
 STAT SP IPHASW D HRMM SECON CODA AMPLIT PERI AZIMU VELO SNR AR TRES W  DIS CAZ7
 BAR2 SZ EP   1   1015 38.78                             170    -0.4 7   23 206 
 BAR2 SZ I        1015 39.25         9.2 0.08                            23 206 
 BAR2 SZ ES   1   1015 54.02                             170     0.3 7   23 206 
 PAM  SZ EP   1   1015 41.90                             150     0.1 7   75  35 
 PAM  SE ES   1   1015 58.22                             150    -0.1 7   75  35 
 BRR  HZ EP   1   1015 40.70                             149    -0.5 7   77 298 
 BRR  HZ I        1015 41.23        10.7 0.07                            77 298 
 BRR  HN ES   1   1015 57.60                             149     0.3 7   77 298 
 GRA  SZ EP   1   1015 45.99                             135     0.9 7  126  15 
 GRA  SZ ES   1   1016  3.76                             135    -0.5 7  126  15 
 GRA  SZ I        1016  7.66         3.7 0.48                           126  15 
                                                                                
