 2010  412 1121 26.6 L   6.845 -73.045146.0  RSN 10 0.6 2.9LRSN                1
 GAP=208        0.97       5.0     9.1  7.8 -0.1469E+02 -0.4694E+00  0.1296E+02E
 Epicentro: LOS SANTOS - SANTANDER                                             3
 ACTION:UP  10-08-24 09:58 OP:vdl  STATUS:               ID:20100412112127 L   I
 2010-04-12-1119-01S.COL___099                                                 6
 STAT SP IPHASW D HRMM SECON CODA AMPLIT PERI AZIMU VELO AIN AR TRES W  DIS CAZ7
 BAR2 SZ IP       1121 46.44                             167     0.010   32 209 
 BAR2 SZ ES   2   1122  1.12                             167    -0.9 5   32 209 
 BRR  HZ EP       1121 48.57                             150     0.310   79 292 
 BRR  HN ES       1122  5.40                             150     0.210   79 292 
 BRR  HZ I        1122  9.67       197.7 0.33                            79 292 
 OCA  SZ EP       1121 54.88                             130     0.2 9  157 349 
 OCA  SZ ES   1   1122 16.15                             130    -0.4 7  157 349 
 OCA  SZ I        1122 20.70       164.7 0.54                           157 349 
 CHI  HZ EP   2   1122  5.67                             116     0.5 4  256 197 
 CHI  HN ES   2   1122 34.69                             116    -0.6 4  256 197 
 ROSC BN ES   2   1122 37.68                             116     1.2 4  263 213 
 ROSC BZ I        1122 42.44        29.8 0.33                           263 213 
 HEL  HZ EP   1   1122  8.35                             114     0.2 6  284 255 
 HEL  HN ES   2   1122 39.31                             114    -1.3 4  284 255 
 HEL  HZ I        1122 45.13        31.1 0.32                           284 255 
 RREF HZ EP   1   1122 14.52                             110     0.4 5  333 230 
 RREF HE ES   2   1122 52.01                             110     0.9 3  333 230 
 RREF HZ I        1123  0.58        22.8 0.30                           333 230 
 DBB  SZ EP       1122 14.58                             109    -0.8 6  350 273 
 ANIL HE ES   2   1122 58.11                             108     0.5 3  369 225 
 PRA  HZ EP       1122 20.54                             106    -0.8 6  402 211 
 PRA  HN ES   1   1123  3.88                             106    -0.1 4  402 211 
 PRA  HZ I        1123  7.40        18.5 0.74                           402 211 
                                                                                
