 2016  612 1636  2.9 L   6.777 -73.083149.5  RSN 11 0.4 2.0LRSN                1
 GAP=189        0.83       2.7     5.0  4.6 -0.3546E+01  0.4677E+01  0.2197E+01E
 Epicentro: LOS SANTOS - SANTANDER                                             3
 ACTION:UPD 16-07-21 22:18 OP:rebc STATUS:               ID:20160612163602 L   I
 OLDACT:UP  16-06-13 01:07 OP:edw  STATUS:               ID:20160612162745     3
 OLDACT:REG 16-06-12 21:10 OP:edw  STATUS:               ID:20160612162745     3
 2016-06-12-1627-45M.COL___322                                                 6
 STAT SP IPHASW D HRMM SECON CODA AMPLIT PERI AZIMU VELO AIN AR TRES W  DIS CAZ7
 BAR2 EZ EP       1636 23.21                             171    0.2010 23.2 208 
 BAR2 EZ ES       1636 38.51                             171   -0.1610 23.2 208 
 BAR2 EZ I        1636 39.27        32.8 0.18                          23.2 208 
 BRR  HZ EP       1636 24.79                             151   -0.1210 78.5 298 
 BRR  HN ES       1636 41.88                             151   -0.1610 78.5 298 
 BRR  HZ I        1636 42.55        17.3 0.30                          78.5 298 
 RUS  HZ EP       1636 27.19                             145    0.3310 97.8 180 
 RUS  HN ES       1636 45.71                             145    0.1810 97.8 180 
 RUS  HZ I        1636 46.59         8.7 0.30                          97.8 180 
 PTB  HZ EP   4   1636 29.71                             132   -1.07 0  154 260 
 PTB  HN ES   4   1636 50.58                             132   -1.92 0  154 260 
 PTB  HZ I        1636 53.10         8.2 0.34                           154 260 
 OCA  HZ EP       1636 31.40                             130   -0.46 9  164 351 
 OCA  HN ES       1636 54.96                             130    0.54 9  164 351 
 OCA  HZ I        1637  1.50        20.5 0.44                           164 351 
 SPBC HZ EP       1636 31.55                             129   -0.41 9  166 221 
 SPBC HE ES       1636 54.49                             129   -0.11 9  166 221 
 SPBC HZ I        1636 58.95        16.4 0.14                           166 221 
 NOR  HZ EP       1636 39.53                             119    0.19 8  239 236 
 NOR  HE ES       1637  7.14                             119   -0.59 8  239 236 
 NOR  HZ I        1637  9.10         6.5 0.14                           239 236 
 CHI  HZ EP       1636 40.14                             118   -0.65 8  248 197 
 CHI  HN ES       1637 10.43                             118    0.12 8  248 197 
 GUY2CHZ EP       1636 47.65                             113    0.45 7  305 236 
 GUY2CHN ES       1637 22.11                             113    0.39 7  305 236 
 GUY2CHZ I        1637 29.81         3.5 0.24                           305 236 
 PRA  HZ EP       1636 56.59                             107   -0.15 6  393 211 
 PRA  HE ES       1637 38.51                             107   -0.19 6  393 211 
 ORTC HZ EP       1636 57.46                             107    0.23 6  398 217 
 ORTC HN ES       1637 40.50                             107    0.92 6  398 217 
 ORTC HZ I        1637 49.30         2.6 0.36                           398 217 
                                                                                
