 2015 1012 1658 44.3 L   6.815 -73.119147.2  RSN  8 0.4 1.9LRSN                1
 GAP=139        0.89       3.4     4.0  5.4 -0.3957E+00  0.8026E+01  0.4367E+01E
 Epicentro: LOS SANTOS - SANTANDER                                             3
 ACTION:UPD 15-12-22 20:39 OP:cam  STATUS:               ID:20151012165844 L   I
 OLDACT:REG 15-10-12 21:40 OP:stll STATUS:               ID:20151012165748     3
 2015-10-12-1657-48M.COL___331                                                 6
 STAT SP IPHASW D HRMM SECON CODA AMPLIT PERI AZIMU VELO AIN AR TRES W  DIS CAZ7
 BAR2 EZ EP       1659  4.08                             170   -0.0310 25.6 196 
 BAR2 EZ ES       1659 19.42                             170   -0.1710 25.6 196 
 BAR2 EZ I        1659 21.59        15.9 0.24            167           25.6 196 
 BRR  HZ EP       1659  5.56                             152   -0.1110 73.1 296 
 BRR  HN ES       1659 23.08                             152    0.7110 73.1 296 
 PAM  EZ EP       1659  6.58                             152    0.1310 74.3  39 
 PAM  EZ I        1659  6.83        17.0 0.46            156           74.3  39 
 PAM  EN ES       1659 23.69                             152   -0.0610 74.3  39 
 RUS  HZ EP       1659  8.12                             144   -0.1410  102 178 
 RUS  HN ES       1659 26.84                             144   -0.1410  102 178 
 RUS  HZ I        1659 28.50         8.6 0.42            144            102 178 
 ZAR  HZ EP       1659 16.48                             122   -0.55 8  206 291 
 ZAR  HN ES       1659 42.20                             122   -0.38 8  206 291 
 ZAR  HZ I        1659 47.71        10.7 0.38            122            206 291 
 NOR  HZ EP       1659 20.47                             118    0.03 8  238 235 
 NOR  HN ES       1659 48.09                             118   -0.56 8  238 235 
 NOR  HZ I        1659 56.58         4.4 0.24            118            238 235 
 CHI  HZ EP       1659 22.57                             117    0.27 8  251 196 
 CHI  HZ I        1659 24.26         3.0 0.36            118            251 196 
 CHI  HN ES       1659 51.94                             117   -0.02 8  251 196 
 GUY2CHZ EP       1659 29.25                             112    0.93 7  305 235 
 GUY2CHN ES       17 0  3.09                             112    0.41 7  305 235 
 GUY2CHZ I        17 0 10.69         3.9 0.62                           305 235 
                                                                                
