 2011  112 1934 41.1 L   7.275 -72.929154.8  RSN  5 0.2 2.1LRSN                1
 GAP=175        0.41       4.0     8.0  6.2 -0.1764E+02  0.1574E+02  0.5375E+00E
 Epicentro: CHARTA - SANTANDER                                                 3
 ACTION:UP  11-02-08 08:40 OP:pat  STATUS:               ID:20110112193441 L   I
 2011-01-12-1919-58S.COL___136                                                 6
 STAT SP IPHASW D HRMM SECON CODA AMPLIT PERI AZIMU VELO SNR AR TRES W  DIS CAZ7
 BTL  SZ IP       1935  2.80                             160     0.010   54 223 
 GRA  SZ EP   1   1935  3.57                             155     0.2 7   69  12 
 GRA  SZ ES   2   1935 20.38                             155    -0.3 5   69  12 
 GRA  SZ I        1935 20.88        51.7 0.33                            69  12 
 BAR2 SZ EP   1   1935  3.95                             151    -0.2 7   81 200 
 BAR2 SZ I        1935  4.12        18.3 0.15                            81 200 
 BAR2 SZ ES   2   1935 22.37                             151     0.3 5   81 200 
 RUS  HZ EP   1   1935 10.09                             133     0.1 7  154 186 
 RUS  HZ I        1935 10.74         8.7 0.22                           154 186 
 RUS  HN ES   2   1935 32.37                             133    -0.2 5  154 186 
 NOR  SZ EP   1   1935 22.86                             115    -0.1 6  286 229 
 NOR  SE ES   2   1935 55.64                             115     0.1 4  286 229 
                                                                                
