 2013 1012 1505 17.1 L   6.674 -73.196149.4  RSN  4 0.5 1.6LRSN                1
 GAP=220        1.25       9.8     9.3 10.0  0.4421E+02  0.1208E+02  0.3972E+01E
 Epicentro: VILLANUEVA - SANTANDER                                             3
 ACTION:UPD 13-11-25 09:21 OP:ep   STATUS:               ID:20131012150517 L   I
 OLDACT:REG 13-10-12 15:42 OP:nd   STATUS:               ID:20131012145959     3
 2013-10-12-1459-59M.COL___273                                                 6
 STAT SP IPHASW D HRMM SECON CODA AMPLIT PERI AZIMU VELO AIN AR TRES W  DIS CAZ7
 BAR2 SZ EP       15 5 37.34                             176    0.3410 9.20 170 
 BAR2 SZ ES       15 5 51.80                             176   -0.7010 9.20 170 
 BAR2 SZ I        15 5 52.94        16.5 0.38            175           9.20 170 
 BRR  HZ IP     D 15 5 39.39                             152    0.5410 74.4 310 
 BRR  HN ES       15 5 55.89                             152    0.0910 74.4 310 
 BRR  HZ I        15 6  0.75         7.8 0.14            151           74.4 310 
 RUS  HZ EP       15 5 39.77                             148   -0.5710 87.3 172 
 RUS  HN ES       15 5 59.09                             148    0.6410 87.3 172 
 RUS  HZ I        15 6  0.54         3.1 0.26            151           87.3 172 
 PTB  HZ EP       15 5 43.29                             134   -0.43 9  140 264 
 PTB  HN ES       15 6  4.51                             134    0.05 9  140 264 
 PTB  HZ I        15 6  8.19         7.4 0.16            134            140 264 
 SML  HZ EP   4   15 5 52.64                             117   -2.46 0  254 338 
 SML  HN ES   4   15 6 20.72                             117   -4.00 0  254 338 
                                                                                
