 2017 1212 1641 49.5 L   6.813 -73.161147.0  RSN  9 0.5 2.0LRSN                1
 GAP=110        1.20       4.8     4.4  8.0 -0.9359E+00  0.1089E+02  0.9252E+01E
 Epicentro: LOS SANTOS - SANTANDER                                             3
 ACTION:UPD 18-01-04 13:19 OP:rebc STATUS:               ID:20171212164149 L   I
 OLDACT:DUP 17-12-12 23:58 OP:osc  STATUS:               ID:20171212163743d    3
 2017-12-12-1638-00M.COL___461                                                 6
 STAT SP IPHASW D HRMM SECON CODA AMPLIT PERI AZIMU VELO AIN AR TRES W  DIS CAZ7
 BAR2 EZ EP       1642  9.07                             170   -0.2110 24.5 186 
 BAR2 EZ ES       1642 24.55                             170   -0.1710 24.5 186 
 BAR2 EZ I        1642 25.64        23.6 0.18            170           24.5 186 
 PAM  EZ EP       1642 11.98                             151    0.1610 77.4  41 
 PAM  EN ES       1642 29.15                             151   -0.1010 77.4  41 
 PAM  EZ I        1642 31.44         8.6 0.16            154           77.4  41 
 PTB  HZ EP       1642 15.63                             133   -0.79 9  146 258 
 PTB  HN ES       1642 36.90                             133   -0.54 9  146 258 
 PTB  HZ I        1642 37.89         9.9 0.14            134            146 258 
 SPBC HZ EP       1642 18.06                             129   -0.01 9  163 218 
 SPBC HE ES       1642 41.37                             129    0.99 9  163 218 
 SPBC HZ I        1642 47.04        17.6 0.32            131            163 218 
 YPLC HZ EP       1642 19.56                             127    0.01 9  179 151 
 YPLC HN ES       1642 43.23                             127    0.21 9  179 151 
 YPLC HZ I        1642 46.09        10.5 0.30            128            179 151 
 ZAR  HZ EP       1642 21.66                             123   -0.13 9  202 292 
 ZAR  HE ES       1642 47.99                             123    1.00 9  202 292 
 ZAR  HZ I        1642 52.57        12.0 0.38            125            202 292 
 GUY2CHZ EP       1642 33.92                             113    0.84 7  301 234 
 GUY2CHN ES       1643  6.63                             113   -0.46 7  301 234 
 GUY2CHZ I        1643 19.41         5.3 0.42                           301 234 
 ELA  HN ES       1643 12.32                             110   -0.57 7  329 229 
 PRA  HE ES       1643 24.65                             107   -0.25 6  392 209 
                                                                                
