 2014  812 1825 18.7 L   7.332 -73.404119.6  RSN  4 0.4 1.5LRSN                1
 GAP=188        0.86       5.2     6.5  8.4  0.4390E+01  0.1238E+01 -0.6296E+01E
 Epicentro: SABANA DE TORRES - SANTANDER                                       3
 ACTION:UPD 14-09-15 21:49 OP:nd   STATUS:               ID:20140812182518 L   I
 OLDACT:DUP 14-08-13 00:56 OP:spq  STATUS:               ID:20140812181816d    3
 2014-08-12-1818-15M.COL___266                                                 6
 STAT SP IPHASW D HRMM SECON CODA AMPLIT PERI AZIMU VELO AIN AR TRES W  DIS CAZ7
 BRR  HZ EP       1825 35.40                             159   -0.1010 42.1 234 
 BRR  HE ES       1825 48.64                             159    0.0510 42.1 234 
 BRR  HZ I        1825 49.02         8.1 0.19            161           42.1 234 
 BAR2 SZ EP       1825 39.00                             142    0.5510 85.4 163 
 BAR2 SZ ES   1   1825 53.36                             142   -0.48 7 85.4 163 
 BAR2 SZ I        1825 54.08         6.4 0.18            145           85.4 163 
 PTB  HZ EP       1825 42.97                             126   -0.50 9  146 233 
 PTB  HN ES       1826  3.05                             126    0.27 9  146 233 
 PTB  HZ I        1826  3.69         3.4 0.12            127            146 233 
 SML  HE ES   1   1826  8.67                             120   -0.06 7  178 336 
 SML  HZ I        1826 13.28         5.7 0.10            118            178 336 
                                                                                
