 2015 1012 1435 26.3 L   6.814 -73.148149.1  RSN  6 0.5 1.6LRSN                1
 GAP=201        1.20       5.1     8.4  8.6  0.1734E+02  0.2530E+01 -0.9337E+01E
 Epicentro: LOS SANTOS - SANTANDER                                             3
 ACTION:UPD 15-12-22 20:39 OP:cam  STATUS:               ID:20151012143526 L   I
 OLDACT:DUP 15-10-13 00:15 OP:stll STATUS:               ID:20151012142751d    3
 2015-10-12-1427-50M.COL___337                                                 6
 STAT SP IPHASW D HRMM SECON CODA AMPLIT PERI AZIMU VELO AIN AR TRES W  DIS CAZ7
 BAR2 EZ EP       1435 46.05                             170   -0.3310 24.8 189 
 BAR2 EZ ES       1436  1.42                             170   -0.6010 24.8 189 
 BAR2 EZ I        1436  3.36         4.3 0.14            172           24.8 189 
 BRR  HZ EP       1435 48.33                             153    0.5610 70.3 298 
 BRR  HN ES       1436  5.32                             153    0.8110 70.3 298 
 RUS  HZ EP       1435 50.68                             144    0.1810  102 176 
 RUS  HN ES       1436  9.60                             144    0.2310  102 176 
 RUS  HZ I        1436 10.11         5.0 0.24            147            102 176 
 SPBC HZ EP       1435 55.39                             130    0.22 9  164 219 
 SPBC HN ES       1436 17.05                             130   -0.62 9  164 219 
 ZAR  HN ES       1436 24.27                             123   -0.04 9  203 292 
 ZAR  HZ I        1436 30.65         3.4 0.26            122            203 292 
 SML  HZ EP       1436  2.95                             118   -0.02 8  242 335 
 SML  HN ES       1436 30.82                             118   -0.74 8  242 335 
 SML  HZ I        1436 39.77         5.1 0.10            118            242 335 
                                                                                
