 2016  612 1940 11.2 L   6.800 -73.127144.4  RSN  6 0.3 1.3LRSN                1
 GAP=139        0.69       3.3     3.5  4.7 -0.2783E+01  0.2289E+01  0.1758E+01E
 Epicentro: LOS SANTOS - SANTANDER                                             3
 ACTION:UPD 16-07-21 22:18 OP:rebc STATUS:               ID:20160612194011 L   I
 OLDACT:DUP 16-06-13 01:29 OP:cara STATUS:               ID:20160612193744d    3
 2016-06-12-1937-43M.COL___328                                                 6
 STAT SP IPHASW D HRMM SECON CODA AMPLIT PERI AZIMU VELO AIN AR TRES W  DIS CAZ7
 BAR2 EZ EP       1940 30.43                             170   -0.2810 23.7 195 
 BAR2 EZ ES       1940 45.75                             170   -0.1510 23.7 195 
 BAR2 EZ I        1940 47.09         4.0 0.36                          23.7 195 
 BRR  HZ EP       1940 32.70                             152    0.3510 73.1 298 
 BRR  HN ES       1940 49.18                             152    0.3710 73.1 298 
 BRR  HZ I        1940 53.00         7.3 0.74                          73.1 298 
 PAM  EZ IP       1940 33.44                             151    0.2110 76.1  38 
 PAM  EN ES       1940 50.10                             151   -0.2910 76.1  38 
 PAM  EZ I        1940 51.41         2.2 0.14                          76.1  38 
 RUS  HZ EP       1940 34.97                             144    0.1310  100 177 
 RUS  HN ES       1940 53.38                             144    0.1310  100 177 
 RUS  HZ I        1940 54.58         1.6 0.40                           100 177 
 PTB  HZ EP       1940 38.11                             131   -0.17 9  150 259 
 PTB  HE ES       1940 59.01                             131   -0.37 9  150 259 
 PTB  HZ I        1941  1.58         2.1 0.14                           150 259 
 SPBC HZ EP       1940 39.54                             128   -0.22 9  164 220 
 SPBC HN ES       1941  2.22                             128    0.22 9  164 220 
 SPBC HZ I        1941  7.39         4.3 0.16                           164 220 
                                                                                
