 2015 1212 1904 57.3 L   6.817 -73.146143.9  RSN 11 0.6 2.0LRSN                1
 GAP=136        1.26       3.8     5.2  7.0 -0.3400E+01  0.1342E+02  0.3796E+00E
 Epicentro: LOS SANTOS - SANTANDER                                             3
 ACTION:UPD 16-02-04 15:04 OP:cam  STATUS:               ID:20151212190457 L   I
 OLDACT:UP  15-12-13 01:41 OP:mh   STATUS:               ID:20151212185743     3
 OLDACT:UP  15-12-13 01:41 OP:mh   STATUS:               ID:20151212185743     3
 OLDACT:REG 15-12-12 22:38 OP:mh   STATUS:               ID:20151212185743     3
 2015-12-12-1857-43M.COL___343                                                 6
 STAT SP IPHASW D HRMM SECON CODA AMPLIT PERI AZIMU VELO AIN AR TRES W  DIS CAZ7
 BAR2 EZ IP     C 19 5 16.87                             170    0.1510 25.1 189 
 BAR2 EZ ES       19 5 31.65                             170   -0.2410 25.1 189 
 BAR2 EZ I        19 5 32.95        11.5 0.14            170           25.1 189 
 BRR  HZ EP       19 5 18.71                             153    0.5310 70.3 297 
 BRR  HN ES       19 5 35.16                             153    0.6910 70.3 297 
 BRR  HZ I        19 5 38.77        19.2 0.11            150           70.3 297 
 PAM  EZ EP       19 5 19.64                             151    0.4310 76.0  40 
 PAM  EN ES       19 5 36.36                             151    0.0410 76.0  40 
 PAM  EZ I        19 5 37.13        22.8 0.30            153           76.0  40 
 RUS  HZ EP       19 5 20.87                             143   -0.1110  102 176 
 RUS  HN ES       19 5 39.50                             143    0.0310  102 176 
 RUS  HZ I        19 5 41.10        10.6 0.38            145            102 176 
 PTB  HZ EP   1   19 5 23.50                             132   -0.62 7  148 258 
 PTB  HN ES       19 5 44.22                             132   -0.84 9  148 258 
 PTB  HZ I        19 5 49.55        16.1 0.16            131            148 258 
 OCA  HN ES       19 5 46.00                             130   -1.11 9  158 353 
 ZAR  HZ EP       19 5 28.93                             122   -0.60 9  203 292 
 ZAR  HN ES   1   19 5 54.94                             122    0.26 6  203 292 
 NOR  HZ EP       19 5 33.00                             118   -0.01 8  236 234 
 NOR  HN ES       19 6  0.95                             118    0.07 8  236 234 
 NOR  HZ I        19 6  4.48        11.8 0.20            119            236 234 
 SML  HZ EP       19 5 33.19                             117   -0.43 8  242 335 
 SML  HN ES       19 6  2.82                             117    0.86 8  242 335 
 SML  HZ I        19 6 12.22        11.2 0.22            118            242 335 
 URE  HZ EP   4   19 5 38.75                             113    0.57 0  283 292 
 URE  HN ES   4   19 6  7.67                             113   -2.41 0  283 292 
 SOCV BZ EP   4   19 5 38.75                             112   -1.38 0  300  57 
 SOCV BN ES   4   19 6  9.37                             112   -4.19 0  300  57 
 GUY2CHZ EP       19 5 41.73                             112    0.81 7  302 234 
 GUY2CHN ES       19 6 15.60                             112    0.64 7  302 234 
 GUY2CHZ I        19 6 23.72         5.6 0.48                           302 234 
 ORTC HZ EP   1   19 5 50.72                             106   -0.59 4  397 216 
 ORTC HN ES   1   19 6 32.62                             106   -0.83 4  397 216 
 ORTC HZ I        19 6 39.70         3.6 0.24            107            397 216 
                                                                                
