 2012 1112 1956 44.8 L   6.756 -73.123143.3  RSN  6 0.3 1.7LRSN                1
 GAP=141        0.82       4.2     5.6  5.9 -0.1064E+01  0.5420E+01  0.3083E+00E
 Epicentro: LOS SANTOS - SANTANDER                                             3
 ACTION:UPD 12-12-05 15:33 OP:}ep  STATUS:               ID:20121112195644 L   I
 2012-11-12-1950-00M.COL___230                                                 6
 STAT SP IPHASW D HRMM SECON CODA AMPLIT PERI AZIMU VELO AIN AR TRES W  DIS CAZ7
 BAR2 SZ EP       1957  4.10                             172    0.0110 19.3 200 
 BAR2 SZ ES       1957 18.87                             172   -0.2410 19.3 200 
 BAR2 SZ I        1957 20.00        13.1 0.40                          19.3 200 
 GIR2 SZ EP       1957  4.21                             165   -0.1510 36.5 348 
 BRR  HZ EP       1957  6.04                             150    0.0610 75.8 301 
 BRR  HN ES       1957 22.93                             150    0.4510 75.8 301 
 BRR  HN I        1957 23.57        18.0 0.26                          75.8 301 
 PAM  SZ EP       1957  6.99                             150    0.0710 79.7  36 
 PAM  SZ I        1957  7.27         3.8 0.22                          79.7  36 
 PAM  SN ES       1957 24.01                             150   -0.1510 79.7  36 
 RUS  HZ EP       1957  8.53                             145    0.5510 95.6 177 
 RUS  HE ES       1957 25.94                             145   -0.1010 95.6 177 
 RUS  HN I        1957 28.09         5.0 0.28                          95.6 177 
 PTB  HZ EP       1957 11.18                             131   -0.56 9  149 261 
 PTB  HN I        1957 34.82         7.2 0.26                           149 261 
                                                                                
