 2015  612 1712 42.8 L   6.817 -73.156147.4  RSN 21 0.5 2.6LRSN                1
 GAP=134        1.21       3.0     4.3  5.8 -0.3669E+01  0.6996E+01  0.3522E+01E
 Epicentro: LOS SANTOS - SANTANDER                                             3
 ACTION:UPD 15-09-10 22:11 OP:cam  STATUS:               ID:20150612171242 L   I
 OLDACT:REG 15-06-12 23:59 OP:stll STATUS:               ID:20150612170751     3
 2015-06-12-1707-51M.COL___309                                                 6
 STAT SP IPHASW D HRMM SECON CODA AMPLIT PERI AZIMU VELO AIN AR TRES W  DIS CAZ7
 BAR2 EZ IP     D 1713  2.53                             170   -0.1410 25.1 187 
 BAR2 EZ ES       1713 17.98                             170   -0.1710 25.1 187 
 BAR2 EZ I        1713 20.05        55.5 0.32            168           25.1 187 
 BRR  HZ IP     C 1713  4.53                             153    0.5110 69.3 298 
 BRR  HZ I        1713  4.56        70.1 0.14            153           69.3 298 
 BRR  HN ES       1713 21.65                             153    1.0810 69.3 298 
 PAM  SZ IP     C 1713  5.48                             151    0.3310 76.7  41 
 PAM  SZ I        1713  5.62        60.5 0.24            155           76.7  41 
 PAM  SN ES       1713 22.41                             151   -0.1710 76.7  41 
 RUS  HZ EP     D 1713  6.22                             144   -0.6410  103 175 
 RUS  HZ I        1713 26.75        27.1 0.40            143            103 175 
 OCA  HZ EP       1713 11.15                             130    0.10 9  158 353 
 OCA  HN ES       1713 32.90                             130   -0.18 9  158 353 
 OCA  HZ I        1713 37.51       101.1 0.26            132            158 353 
 SPBC HZ IP     C 1713 11.57                             129    0.07 9  164 218 
 SPBC HN ES       1713 33.45                             129   -0.43 9  164 218 
 SPBC HZ I        1713 40.59        78.3 0.26            129            164 218 
 ZAR  HZ EP       1713 14.76                             123   -0.41 9  202 292 
 ZAR  HE ES       1713 40.14                             123   -0.28 9  202 292 
 ZAR  HZ I        1713 46.99        50.1 0.52            123            202 292 
 NOR  HZ EP       1713 18.66                             119    0.01 8  235 234 
 NOR  HE ES       1713 46.16                             119   -0.44 8  235 234 
 NOR  HZ I        1713 49.76        30.0 0.18            119            235 234 
 SML  HZ EP       1713 19.10                             118   -0.18 8  241 335 
 SML  HN ES       1713 47.45                             118   -0.28 8  241 335 
 SML  HZ I        1713 52.34        60.4 0.10            119            241 335 
 CHI  HZ EP       1713 20.66                             117   -0.10 8  250 195 
 CHI  HE ES       1713 50.02                             117   -0.35 8  250 195 
 CHI  HZ I        1713 57.55        10.6 0.22            117            250 195 
 HEL  HZ EP       1713 24.40                             115    1.37 8  271 255 
 HEL  HE ES       1713 54.38                             115   -0.02 8  271 255 
 HEL  HZ I        1714  2.35        21.3 0.54            115            271 255 
 URE  HZ EP   4   1713 22.45                             114   -1.31 0  282 292 
 URE  HN ES   4   1713 52.59                             114   -3.10 0  282 292 
 URE  HZ I        1714  4.49        24.6 0.18            114            282 292 
 GUY2CHZ EP       1713 27.06                             113    0.55 7  301 234 
 GUY2CHN ES       1714  1.11                             113    0.52 7  301 234 
 GUY2CHZ I        1714  9.47        19.2 0.34                           301 234 
 RREF HZ EP       1713 29.47                             111    0.41 7  322 229 
 RREF HN ES       1714  5.65                             111    0.51 7  322 229 
 RREF HZ I        1714 12.19         8.1 0.28            111            322 229 
 CBOC HZ EP       1713 30.10                             110    0.37 7  333 252 
 CBOC HE ES       1714  5.02                             110   -1.31 7  333 252 
 CBOC HZ I        1714 17.94         8.5 0.52            110            333 252 
 TOL  SZ EP       1713 31.85                             109    0.66 7  344 224 
 TOL  SN ES       1714  8.84                             109   -0.09 7  344 224 
 TOL  SZ I        1714 15.95        19.0 0.40            110            344 224 
 MON  HZ EP   9   1713 29.56                             109   -2.07 0  352 308 
 MON  HN ES       1714  6.33                                   -1.31 6  352 308 
 MON  HZ I        1714 12.30         8.3 0.32            109            352 308 
 ANIL HE ES       1714 11.87                             109    0.19 6  358 224 
 ANIL HZ I        1714 18.52        42.9 0.48            109            358 224 
 PRA  HZ EP       1713 35.96                             107   -0.55 6  393 209 
 PRA  HN ES       1714 17.85                             107   -0.55 6  393 209 
 PRA  HZ I        1714 21.37         9.3 0.60            107            393 209 
 ORTC HZ EP       1713 37.33                             107    0.45 6  396 216 
 ORTC HN ES       1714 18.96                             107   -0.10 6  396 216 
 ORTC HZ I        1714 23.05         8.4 0.68            107            396 216 
 SJC  HZ EP       1713 36.73                             106   -1.43 6  407 327 
 SJC  HN ES   4   1714 17.86                             106   -3.47 0  407 327 
 SJC  HZ I        1714 22.41         8.0 0.74            107            407 327 
                                                                                
