 2014 1012 1514 32.5 L   6.835 -73.135151.5  RSN  7 0.4 1.7LRSN                1
 GAP=199        0.83       4.0     5.8  7.1 -0.5514E+01  0.8850E+01 -0.2116E+01E
 Epicentro: LOS SANTOS - SANTANDER                                             3
 ACTION:UPD 14-11-29 23:49 OP:nd   STATUS:               ID:20141012151432 L   I
 OLDACT:REG 14-10-12 21:13 OP:fm   STATUS:               ID:20141012150745     3
 2014-10-12-1507-45M.COL___281                                                 6
 STAT SP IPHASW D HRMM SECON CODA AMPLIT PERI AZIMU VELO AIN AR TRES W  DIS CAZ7
 BAR2 SZ EP   1   1514 52.82                             169   -0.08 8 27.4 191 
 BAR2 SZ ES   1   1515  8.47                             169   -0.34 8 27.4 191 
 BAR2 SZ I        1515 10.61        11.2 0.26            171           27.4 191 
 BRR  HZ EP   1   1514 54.34                             154    0.11 8 70.5 295 
 BRR  HE ES   1   1515 11.71                             154    0.53 8 70.5 295 
 BRR  HZ I        1515 16.48         5.8 0.18            151           70.5 295 
 PTB  HZ EP   1   1514 59.62                             133   -0.49 7  150 257 
 PTB  HN ES       1515 21.32                             133   -0.3310  150 257 
 PTB  HZ I        1515 28.12         5.6 0.38            135            150 257 
 OCA  HN ES   1   1515 23.69                             132    0.61 7  157 353 
 OCA  HZ I        1515 28.72         4.4 0.38            134            157 353 
 ZAR  HZ EP   1   1515  5.08                             124   -0.21 7  204 291 
 ZAR  HN ES       1515 30.59                             124   -0.27 9  204 291 
 ZAR  HZ I        1515 37.10         2.8 0.12            125            204 291 
 SML  HZ EP   1   1515  9.28                             119    0.16 6  241 335 
 SML  HN ES       1515 37.51                             119   -0.18 9  241 335 
 SML  HZ I        1515 41.04         7.1 0.28            121            241 335 
 GUY2CHZ EP   1   1515 16.64                             113   -0.10 6  304 234 
 GUY2CHN ES       1515 52.20                             113    0.96 8  304 234 
 GUY2CHZ I        1515 58.36         2.0 0.28                           304 234 
                                                                                
