 2013  512 1844 49.2 L   6.825 -73.140146.7  RSN 19 0.5 2.9LRSN                1
 GAP= 56        1.10       2.7     3.2  5.0  0.9517E+00  0.2071E+01  0.1644E+01E
 Epicentro: LOS SANTOS - SANTANDER                                             3
 ACTION:UPD 13-06-20 09:49 OP:ep   STATUS:               ID:20130512184449 L   I
 2013-05-12-1840-00M.COL___256                                                 6
 STAT SP IPHASW D HRMM SECON CODA AMPLIT PERI AZIMU VELO AIN AR TRES W  DIS CAZ7
 BAR2 SZ EP     C 1845  8.85                             169   -0.1110 26.1 190 
 BAR2 SZ ES       1845 23.83                             169   -0.5710 26.1 190 
 BAR2 SZ I        1845 25.62       172.8 0.45            169           26.1 190 
 GIR2 SZ EP       1845  8.90                             168    0.0210 28.7 348 
 GIR2 SZ ES   1   1845 24.16                             168   -0.09 7 28.7 348 
 BRR  HZ EP       1845 10.67                             153    0.3010 70.5 296 
 BRR  HN ES       1845 27.81                             153    0.9010 70.5 296 
 BRR  HZ I        1845 29.46        49.1 0.42            150           70.5 296 
 PAM  SZ EP     C 1845 11.56                             152    0.2310 74.9  41 
 PAM  SZ I        1845 11.91       178.0 0.24            153           74.9  41 
 PAM  SN ES       1845 28.74                             152    0.1210 74.9  41 
 RUS  HZ EP     D 1845 12.77                             143   -0.4310  103 176 
 RUS  HN ES       1845 31.50                             143   -0.4410  103 176 
 RUS  HZ I        1845 32.72        85.0 0.32            143            103 176 
 PTB  HZ EP       1845 15.53                             132   -0.78 9  149 258 
 PTB  HN ES   1   1845 36.41                             132   -1.07 7  149 258 
 PTB  HZ I        1845 38.68        87.4 0.36            130            149 258 
 TAM  HZ IP     C 1845 17.09                             131    0.16 9  155 106 
 TAM  HZ I        1845 17.14        89.1 0.32            132            155 106 
 TAM  HN ES       1845 38.77                             131    0.19 9  155 106 
 OCA  HZ EP   1   1845 17.32                             130    0.02 7  158 353 
 OCA  HE ES       1845 39.08                             130   -0.16 9  158 353 
 OCA  HZ I        1845 44.41       103.8 0.28            129            158 353 
 YOP  SZ EP       1845 19.55                             126    0.06 9  181 154 
 YOP  SN ES       1845 43.86                             126    0.72 9  181 154 
 YOP  SZ I        1845 44.19       115.7 0.28            127            181 154 
 ZAR  HZ EP   1   1845 22.04                             123    0.42 6  204 291 
 ZAR  HE ES       1845 47.52                             123    0.58 9  204 291 
 ZAR  HZ I        1845 53.46        67.7 0.34            121            204 291 
 NOR  HZ EP       1845 24.83                             118   -0.34 8  237 234 
 NOR  HN ES       1845 53.35                             118    0.10 8  237 234 
 NOR  HZ I        1845 58.21        73.9 0.54            117            237 234 
 SML  HZ EP   2   1845 25.44                             118   -0.16 4  241 335 
 SML  HE ES       1845 53.69                             118   -0.33 8  241 335 
 SML  HZ I        1845 55.36        89.7 0.26            117            241 335 
 CHI  HZ EP       1845 27.02                             117   -0.20 8  251 195 
 CHI  HN ES       1845 56.71                             117   -0.18 8  251 195 
 CHI  HZ I        1846  3.35        46.2 0.38            117            251 195 
 ROSC BZ EP       1845 28.63                             117    1.01 8  255 211 
 HEL  HZ EP   1   1845 30.63                             115    1.07 6  273 255 
 HEL  HN ES   4   1846  2.93                             115    1.86 0  273 255 
 HEL  HZ I        1846  8.69        51.1 0.46            114            273 255 
 VIL  SZ EP   2   1845 32.54                             112   -0.40 4  306 192 
 COD  HZ EP   2   1845 36.80                             109   -0.47 3  346 354 
 COD  HE ES   1   1846 14.31                             109   -0.48 5  346 354 
 COD  HZ I        1846 25.24        15.4 0.52            109            346 354 
 SDV  BZ EP       1845 38.30                             108   -0.68 6  358  50 
 SDV  BZ I        1845 39.96        16.4 0.25            109            358  50 
 SDV  BN ES   4   1846 15.19                             108   -2.65 0  358  50 
 SJC  HZ EP   4   1845 42.84                             106   -1.69 0  407 327 
 SJC  HE ES   4   1846 24.40                             106   -3.31 0  407 327 
 SJC  HZ I        1846 27.42        19.3 0.34            105            407 327 
                                                                                
