 2016  112 1940  4.7 L   6.184 -73.639114.0  RSN 13 0.4 2.2LRSN                1
 GAP= 69        1.01       2.3     3.1  5.1 -0.1101E+01  0.3870E+01  0.3403E+00E
 Epicentro: LA PAZ - SANTANDER                                                 3
 ACTION:UPD 16-03-09 23:24 OP:cam  STATUS:               ID:20160112194004 L   I
 OLDACT:UP  16-01-13 00:22 OP:drio STATUS:               ID:20160112193751     3
 OLDACT:REG 16-01-12 21:29 OP:drio STATUS:               ID:20160112193751     3
 2016-01-12-1937-51M.COL___277                                                 6
 STAT SP IPHASW D HRMM SECON CODA AMPLIT PERI AZIMU VELO AIN AR TRES W  DIS CAZ7
 BAR2 EZ EP       1940 22.90                             147    0.2810 67.7  48 
 BAR2 EZ ES       1940 36.61                             147    0.0110 67.7  48 
 RUS  HZ EP       1940 23.20                             147    0.1010 69.4 118 
 RUS  HN ES       1940 37.57                             147    0.1210 69.4 118 
 RUS  HZ I        1940 39.07        21.0 0.24            148           69.4 118 
 SPBC HZ EP       1940 22.90                             144   -0.0810 75.9 219 
 SPBC HN ES       1940 37.13                             144   -0.1210 75.9 219 
 SPBC HZ I        1940 42.59        48.7 0.24            144           75.9 219 
 PTB  HZ EP       1940 23.55                             136   -1.1110 98.6 294 
 PTB  HN ES       1940 40.38                             136    0.1510 98.6 294 
 PTB  HZ I        1940 41.43        44.0 0.12            135           98.6 294 
 BRR  HZ EP       1940 24.91                             135   -0.0510  102 355 
 BRR  HE ES       1940 40.99                             135    0.2310  102 355 
 BRR  HZ I        1940 44.83        26.9 0.20            134            102 355 
 NOR  HZ EP       1940 29.73                             123   -0.10 9  153 243 
 NOR  HE ES       1940 48.95                             123   -0.48 9  153 243 
 NOR  HZ I        1940 52.46        28.7 0.46            122            153 243 
 PAM  EZ EP       1940 31.75                             121    0.10 9  165  39 
 PAM  EN ES   4   1940 51.22                             121   -1.44 0  165  39 
 PAM  EZ I        1940 57.86         8.9 0.40            121            165  39 
 CHI  HZ EP       1940 32.66                             119    0.31 9  172 183 
 CHI  HN ES       1940 53.50                             119   -0.42 9  172 183 
 ZAR  HZ EP       1940 34.48                             115   -0.12 9  198 317 
 ZAR  HE ES       1940 57.96                             115    0.05 9  198 317 
 ZAR  HZ I        1940 60.00        29.3 0.58            115            198 317 
 GUY2CHZ EP       1940 38.10                             113    0.57 8  219 241 
 GUY2CHN ES       1941  4.37                             113    1.23 8  219 241 
 GUY2CHZ I        1941 10.12        16.7 0.62                           219 241 
 SML  HZ EP       1940 45.43                             106   -0.09 7  293 351 
 SML  HE ES       1941 17.32                             106   -0.04 7  293 351 
 SML  HZ I        1941 29.81        15.4 0.10            106            293 351 
 PRA  HZ EP       1940 46.79                             105   -0.31 7  306 207 
 PRA  HN ES       1941 20.11                             105   -0.06 7  306 207 
 PRA  HZ I        1941 27.62         6.2 0.66            105            306 207 
 ORTC HZ EP       1940 47.48                             105    0.13 7  308 215 
 ORTC HN ES   4   1941 22.10                             105    1.49 0  308 215 
 ORTC HZ I        1941 30.19         3.7 0.16            105            308 215 
                                                                                
