 2014  112 1253 47.9 L   6.825 -73.164145.6  RSN  9 0.5 2.0LRSN                1
 GAP=133        1.26       3.6     5.4  7.0  0.1115E+01  0.7680E+01 -0.9700E+00E
 Epicentro: LOS SANTOS - SANTANDER                                             3
 ACTION:UPD 14-03-13 09:54 OP:ep   STATUS:               ID:20140112125347 L   I
 OLDACT:REG 14-01-12 16:13 OP:stll STATUS:               ID:20140112124807     3
 2014-01-12-1248-07M.COL___243                                                 6
 STAT SP IPHASW D HRMM SECON CODA AMPLIT PERI AZIMU VELO AIN AR TRES W  DIS CAZ7
 BAR2 SZ IP     D 1254  7.75                             169    0.1910 25.8 185 
 BAR2 SZ ES       1254 22.38                             169   -0.5110 25.8 185 
 BAR2 SZ I        1254 24.25        47.6 0.16            169           25.8 185 
 BRR  HZ IP     D 1254  9.52                             153    0.6610 68.2 297 
 BRR  HN ES       1254 26.04                             153    0.8310 68.2 297 
 BRR  HZ I        1254 30.37        23.5 0.16            150           68.2 297 
 PAM  SZ EP       1254 10.58                             151    0.5310 76.6  42 
 PAM  SN ES       1254 27.32                             151   -0.0010 76.6  42 
 PAM  SZ I        1254 29.81        23.9 0.50            155           76.6  42 
 RUS  HZ EP       1254 11.82                             143   -0.0210  103 175 
 RUS  HZ I        1254 12.38         7.0 0.32            146            103 175 
 RUS  HE ES       1254 30.73                             143    0.2210  103 175 
 PTB  HZ EP       1254 14.52                             132   -0.20 9  146 258 
 PTB  HN ES       1254 34.91                             132   -0.74 9  146 258 
 PTB  HZ I        1254 40.99         9.3 0.30            131            146 258 
 OCA  HZ EP       1254 15.33                             130   -0.59 9  157 354 
 OCA  HN ES       1254 36.92                             130   -0.85 9  157 354 
 ZAR  HZ EP       1254 20.56                             123    0.53 9  201 292 
 ZAR  HN ES       1254 45.50                             123    0.40 9  201 292 
 ZAR  HZ I        1254 54.04        10.7 0.28            123            201 292 
 SML  HZ EP       1254 23.95                             118   -0.20 8  240 335 
 SML  HN ES       1254 52.27                             118   -0.16 8  240 335 
 SML  HZ I        1254 59.31        12.0 0.30            119            240 335 
 CHI  HZ EP       1254 26.00                             117    0.19 8  251 195 
 CHI  HN ES       1254 54.68                             117   -0.71 8  251 195 
 CHI  HZ I        1254 59.07         5.7 0.40            119            251 195 
                                                                                
