 2011  412 1630 37.8 L   6.793 -73.113143.1  RSN 10 0.3 2.6LRSN                1
 GAP=117        0.63       2.8     3.7  5.2 -0.3467E+01  0.1617E+01  0.4392E+01E
 Epicentro: LOS SANTOS - SANTANDER                                             3
 ACTION:UP  11-06-22 15:30 OP:REBC STATUS:               ID:20110412163037 L   I
 2011-04-12-1626-23S.COL___137                                                 6
 STAT SP IPHASW D HRMM SECON CODA AMPLIT PERI AZIMU VELO SNR AR TRES W  DIS CAZ7
 BAR2 SZ EP       1630 57.03                             170     0.010   24 199 
 BAR2 SZ ES   2   1631 11.54                             170    -0.6 5   24 199 
 BAR2 SZ I        1631 13.17       116.1 0.32                            24 199 
 GIR2 SZ EP   1   1630 57.07                             167    -0.1 7   33 344 
 BRR  HZ EP       1630 58.96                             151     0.110   75 298 
 BRR  HE ES   1   1631 15.61                             151     0.4 7   75 298 
 BRR  HZ I        1631 20.34       123.7 0.17                            75 298 
 PAM  SZ EP       1630 59.84                             151     0.310   76  37 
 PAM  SE ES   1   1631 16.49                             151    -0.1 7   76  37 
 GRA  SZ IP       1631  2.98                             137     0.210  125  16 
 GRA  SZ I        1631  4.28        72.2 0.20                           125  16 
 GRA  SZ ES   1   1631 22.43                             137     0.2 7  125  16 
 OCA  SZ EP       1631  5.49                             129    -0.5 9  161 352 
 OCA  SZ ES   1   1631 27.49                             129    -0.5 7  161 352 
 OCA  SZ I        1631 31.48        48.0 0.24                           161 352 
 YOP  SZ EP   1   1631  7.42                             126     0.0 7  177 154 
 YOP  SN ES   2   1631 30.42                             126    -0.1 4  177 154 
 YOP  SZ I        1631 32.09        27.1 0.33                           177 154 
 NOR  SZ EP   1   1631 13.65                             118     0.0 6  237 235 
 NOR  SE ES   1   1631 41.82                             118     0.3 6  237 235 
 HEL  HZ EP   2   1631 18.31                             114     0.1 4  275 256 
 HEL  HN ES   2   1631 49.35                             114    -0.4 4  275 256 
 HEL  HZ I        1631 54.31        15.8 0.34                           275 256 
 PRA  HZ EP   1   1631 31.44                             106     0.1 4  393 210 
 PRA  HE ES   1   1632 12.68                             106    -0.4 4  393 210 
                                                                                
