 2016  712 1046 52.0 L   6.838 -73.156151.5  RSN 24 0.5 2.8LRSN                1
 GAP= 69        1.03       2.6     3.0  4.3 -0.1546E+01  0.1945E+01 -0.1280E+01E
 Epicentro: LOS SANTOS - SANTANDER                                             3
 ACTION:UPD 17-03-29 16:50 OP:lp   STATUS:               ID:20160712104652 L   I
 OLDACT:UP  16-07-12 23:17 OP:dani STATUS:               ID:20160712103759     3
 OLDACT:UP  16-07-12 23:16 OP:dani STATUS:               ID:20160712103759     3
 OLDACT:UP  16-07-12 23:14 OP:dani STATUS:               ID:20160712103759     3
 OLDACT:UP  16-07-12 23:14 OP:dani STATUS:               ID:20160712103759     3
 OLDACT:UP  16-07-12 23:13 OP:dani STATUS:               ID:20160712103759     3
 OLDACT:UP  16-07-12 23:12 OP:dani STATUS:               ID:20160712103759     3
 OLDACT:REG 16-07-12 21:21 OP:dani STATUS:               ID:20160712103759     3
 2016-07-12-1037-59S.COL___310                                                 6
 STAT SP IPHASW D HRMM SECON CODA AMPLIT PERI AZIMU VELO AIN AR TRES W  DIS CAZ7
 BAR2 EZ EP     C 1047 12.45                             169    0.0610 27.3 186 
 BAR2 HN ES       1047 27.84                             169   -0.4710 27.3 186 
 BAR2 EZ I        1047 29.13       168.9 0.18            167           27.3 186 
 BRR  HZ EP       1047 14.36                             154    0.7610 68.2 296 
 BRR  HN ES       1047 31.45                             154    0.9910 68.2 296 
 BRR  HZ I        1047 34.07        94.8 0.26            150           68.2 296 
 PAM  EZ EP       1047 15.24                             152    0.5610 75.0  42 
 PAM  EN ES       1047 32.56                             152    0.1810 75.0  42 
 PAM  EZ I        1047 34.61        93.5 0.46            155           75.0  42 
 RUS  HZ EP       1047 16.35                             144   -0.2610  105 176 
 RUS  HE ES       1047 35.16                             144   -0.6510  105 176 
 RUS  HZ I        1047 36.50        52.8 0.33            143            105 176 
 PTB  HZ EP       1047 18.95                             133   -0.45 9  147 257 
 PTB  HN ES       1047 40.36                             133   -0.42 9  147 257 
 PTB  HZ I        1047 45.65        82.3 0.16            130            147 257 
 TAM  HZ EP     C 1047 20.63                             131    0.30 9  157 106 
 TAM  HN ES       1047 42.43                             131   -0.01 9  157 106 
 TAM  HZ I        1047 43.12        34.7 0.32            133            157 106 
 SPBC HZ EP       1047 21.31                             130    0.14 9  166 218 
 SPBC HE ES       1047 43.67                             130   -0.26 9  166 218 
 SPBC HZ I        1047 49.26       132.2 0.12            128            166 218 
 ZAR  HZ EP   9   1047 25.46                             124    0.92 0  201 291 
 ZAR  HE ES       1047 50.74                             124   -0.12 9  201 291 
 ZAR  HZ I        1047 56.57        89.1 0.34            121            201 291 
 NOR  HZ EP       1047 28.47                             120    0.26 8  236 233 
 NOR  HN ES       1047 56.16                             120   -0.31 8  236 233 
 NOR  HZ I        1048  1.17        52.3 0.24            118            236 233 
 CHI  HZ EP       1047 30.49                             118    0.08 8  252 195 
 CHI  HN ES       1048  0.10                             118   -0.28 8  252 195 
 CHI  HZ I        1048  8.64        24.1 0.36            117            252 195 
 ROSC BZ EP   9   1047 32.08                             118    1.33 0  256 210 
 ROSC BE ES       1048  2.52                             117    0.20 8  256 210 
 ROSC BZ I        1048 10.25        85.7 0.40            116            256 210 
 HEL  HZ EP   4   1047 33.78                             116    1.30 0  272 255 
 HEL  HE ES   4   1048  1.69                             116   -2.39 0  272 255 
 HEL  HZ I        1048 12.66        27.8 0.24            114            272 255 
 URE  HZ EP       1047 32.55                             115   -0.49 7  281 291 
 URE  HE ES   4   1048  3.15                             115   -1.92 0  281 291 
 URE  HZ I        1048 18.00        36.8 0.38            113            281 291 
 SOCV BZ EP       1047 34.86                             113   -0.29 7  300  58 
 GUY2CHZ EP       1047 36.70                             113    0.67 7  303 234 
 GUY2CHE ES   4   1048 13.27                             113    2.89 0  303 234 
 GUY2CHZ I        1048 19.15        46.0 0.28                           303 234 
 PTGC HZ EP   4 C 1047 35.36                             112   -1.23 0  313 159 
 PTGC HN ES   4   1048  8.79                             112   -2.59 0  313 159 
 PTGC HZ I        1048 19.03        12.6 0.36            112            313 159 
 LL6C HZ EP       1047 36.94                             112   -0.51 7  321 358 
 LL6C HE ES       1048 12.53                             112   -0.39 7  321 358 
 LL6C HZ I        1048 16.01        12.4 0.26            111            321 358 
 ARGC HZ EP   4   1047 42.48                             109    1.12 0  355 340 
 ARGC HE ES       1048 20.15                             109    0.27 6  355 340 
 ARGC HZ I        1048 30.43        11.9 0.28            109            355 340 
 ANIL HZ EP   9   1047 43.80                             109    1.54 0  360 224 
 ANIL HN ES       1048 23.12                             109    0.10 6  360 224 
 ANIL HZ I        1048 30.51        75.8 0.44            108            360 224 
 PRA  HZ EP       1047 45.70                             107   -0.36 6  395 209 
 PRA  HE ES       1048 28.80                             107    0.55 6  395 209 
 PRA  HZ I        1048 34.30        35.3 0.24            106            395 209 
 SJC  HZ EP       1047 46.66                             107   -0.59 6  405 327 
 SJC  HE ES   4   1048 26.81                             107   -3.55 0  405 327 
 SJC  HN ES       1048 29.36                             107   -1.00 6  405 327 
 SJC  HZ I        1048 40.16         8.6 0.34            106            405 327 
 PAL  HZ EP       1047 47.97                             107    0.50 6  407 238 
 PAL  HE ES       1048 31.23                             107    0.47 6  407 238 
 PAL  HZ I        1048 33.97         8.4 0.32            106            407 238 
 CRJC HZ EP   4   1047 52.65                             104   -1.51 0  464   4 
 CRJC HN ES   4   1048 39.79                             104   -2.87 0  464   4 
 CRJC HZ I        1048 47.56        16.9 0.28            104            464   4 
 SMAR HZ EP       1047 57.92                             103    0.43 4  493 346 
 SMAR HE ES   4   1048 46.06                             103   -2.52 0  493 346 
 CAP2 HN ES   4   1048 48.49                             103   -2.72 0  505 294 
 MACC HZ EP   4   1047 57.85                             102   -3.46 0  525 188 
                                                                                
