 2017  512 1102 39.9 L   6.689 -73.537 79.9  RSN  5 0.4 1.1LRSN                1
 GAP=110        0.94       3.7     3.7  8.6  0.1065E+01 -0.2711E+01  0.3866E+01E
 Epicentro: EL CARMEN - SANTANDER                                              3
 ACTION:UPD 17-06-16 13:35 OP:jn   STATUS:               ID:20170512110239 L   I
 OLDACT:REG 17-05-12 20:23 OP:lv   STATUS:               ID:20170512105744     3
 2017-05-12-1058-00M.COL___365                                                 6
 STAT SP IPHASW D HRMM SECON CODA AMPLIT PERI AZIMU VELO AIN AR TRES W  DIS CAZ7
 BRR  HN ES       11 3  3.00                             145    0.1110 50.1 337 
 RUS  HZ EP       11 2 57.57                             124   -0.5010  101 150 
 RUS  HN ES       11 3 12.67                             124    0.4510  101 150 
 PTB  HZ EP   4   11 2 59.36                             123    1.74 0  103 261 
 PTB  HN ES   1   11 3 10.87                             123   -0.55 7  103 261 
 PAM  EZ EP       11 2 59.82                             120    0.0910  117  52 
 PAM  EE ES       11 3 14.93                             120   -0.2410  117  52 
 PAM  EZ I        11 3 17.78         2.7 0.18            114            117  52 
 ZAR  HZ EP       11 3  5.65                             110    0.48 9  171 301 
 ZAR  HE ES   4   11 3 27.17                             110    2.32 0  171 301 
 ZAR  HZ I        11 3 31.92         2.3 0.10            104            171 301 
                                                                                
