 2016 1212 1753 40.4 L   6.796 -73.152144.3  RSN 14 0.4 2.4LRSN                1
 GAP=101        0.87       3.3     2.6  4.2 -0.4006E+00  0.2376E+01  0.2991E+01E
 Epicentro: LOS SANTOS - SANTANDER                                             3
 ACTION:UPD 17-01-11 20:14 OP:rebc STATUS:               ID:20161212175340 L   I
 OLDACT:UP  16-12-13 01:40 OP:ar   STATUS:               ID:20161212174646d    3
 OLDACT:UP  16-12-13 01:39 OP:ar   STATUS:               ID:20161212174646d    3
 OLDACT:UP  16-12-13 01:39 OP:ar   STATUS:               ID:20161212174646d    3
 OLDACT:DUP 16-12-13 01:33 OP:ar   STATUS:               ID:20161212174646d    3
 2016-12-12-1747-00M.COL___373                                                 6
 STAT SP IPHASW D HRMM SECON CODA AMPLIT PERI AZIMU VELO AIN AR TRES W  DIS CAZ7
 BAR2 EZ IP     D 1753 59.47                             171   -0.3510 22.8 188 
 BAR2 EZ ES       1754 14.94                             171   -0.0510 22.8 188 
 BAR2 EZ I        1754 15.48        60.8 0.24            167           22.8 188 
 BRR  HZ EP       1754  1.30                             152   -0.0410 70.8 299 
 BRR  HN ES       1754 18.38                             152    0.6810 70.8 299 
 BRR  HZ I        1754 21.30        47.7 0.30            151           70.8 299 
 PAM  EZ EP       1754  2.49                             150    0.0110 78.2  40 
 PAM  EN ES       1754 19.67                             150   -0.0610 78.2  40 
 PAM  EZ I        1754 20.19        26.7 0.20            155           78.2  40 
 RUS  HZ EP       1754  3.47                             144   -0.4810  100 176 
 RUS  HN ES       1754 22.21                             144   -0.1310  100 176 
 RUS  HZ I        1754 24.92        14.7 0.16            142            100 176 
 PTB  HZ EP   9   1754  6.07                             132   -1.08 0  147 259 
 PTB  HN ES       1754 26.51                             130   -0.45 9  147 259 
 PTB  HZ I        1754 32.17        28.2 0.30            131            147 259 
 TAM  HZ EP       1754  7.96                             130   -0.03 9  156 105 
 TAM  HE ES       1754 29.81                             130    0.28 9  156 105 
 TAM  HZ I        1754 30.02        18.7 0.30            133            156 105 
 ZAR  HZ EP       1754 12.13                             122   -0.54 9  204 292 
 ZAR  HN ES       1754 37.48                             122   -0.38 9  204 292 
 ZAR  HZ I        1754 43.56        26.5 0.32            122            204 292 
 NOR  HZ EP     C 1754 16.56                             118    0.64 8  234 234 
 NOR  HN ES       1754 43.89                             118    0.24 8  234 234 
 NOR  HZ I        1754 48.76        16.6 0.16            118            234 234 
 CHI  HZ EP       1754 17.85                             117   -0.07 8  248 195 
 CHI  HN ES   4   1754 46.82                             117   -0.39 0  248 195 
 CHI  HZ I        1754 51.95        13.1 0.38            117            248 195 
 ROSC BZ EP   9   1754 20.25                             116    1.92 0  252 211 
 ROSC BN ES       1754 49.71                             116   -0.15 8  252 211 
 ROSC BZ I        1754 54.03        27.9 0.45            116            252 211 
 GUY2CHZ EP       1754 24.35                             112    0.54 7  300 235 
 GUY2CHN ES   4   1755  1.03                             112    3.33 0  300 235 
 GUY2CHZ I        1755  5.73        12.0 0.60                           300 235 
 ELA  HZ EP   4   1754 32.42                             110    5.36 0  328 229 
 ELA  HE ES   4   1755  6.29                             110    2.81 0  328 229 
 ELA  HZ I        1755 11.41         9.1 0.76            110            328 229 
 CBOC HZ EP       1754 27.82                             110    0.69 7  333 252 
 CBOC HN ES       1755  3.24                             110   -0.36 7  333 252 
 ANIL HE ES   4   1755 10.91                             108    2.16 0  356 224 
 PRA  HZ EP       1754 33.50                             106   -0.25 6  391 210 
 PRA  HN ES       1755 15.41                             106    0.02 6  391 210 
 PRA  HZ I        1755 21.83        11.1 0.24            107            391 210 
                                                                                
