 2017  812 1721 17.3 L   6.804 -73.159140.0  RSN 12 0.8 2.4LRSN                1
 GAP=110        1.50       4.9     5.5  8.3  0.2851E+01  0.1761E+02  0.1008E+02E
 Epicentro: LOS SANTOS - SANTANDER                                             3
 ACTION:UPD 17-09-04 20:19 OP:rebc STATUS:               ID:20170812172117 L   I
 OLDACT:UP  17-08-13 02:15 OP:mg   STATUS:               ID:20170812171745     3
 OLDACT:REG 17-08-12 21:20 OP:mg   STATUS:               ID:20170812171745     3
 2017-08-12-1718-00M.COL___416                                                 6
 STAT SP IPHASW D HRMM SECON CODA AMPLIT PERI AZIMU VELO AIN AR TRES W  DIS CAZ7
 BAR2 EZ IP     C 1721 35.81                             170   -0.3910 23.6 186 
 BAR2 EZ ES       1721 50.53                             170   -0.4510 23.6 186 
 BAR2 EZ I        1721 52.46        59.9 0.16            169           23.6 186 
 BRR  HZ IP     C 1721 37.50                             152   -0.2010 69.6 299 
 BRR  HN ES       1721 54.72                             152    1.0810 69.6 299 
 BRR  HZ I        1721 57.47        36.5 0.18            150           69.6 299 
 PAM  EZ IP     C 1721 38.69                             150   -0.2110 78.0  41 
 PAM  EN ES       1721 55.93                             150    0.1510 78.0  41 
 PAM  EZ I        1721 57.97        56.1 0.48            154           78.0  41 
 RUS  HZ EP       1721 39.79                             143   -0.7010  101 175 
 RUS  HN ES       1721 59.05                             143    0.4410  101 175 
 RUS  HZ I        1721 59.68        61.5 0.34            145            101 175 
 SPBC HZ EP       1721 44.71                             128   -0.56 9  163 218 
 SPBC HN ES       1722  6.76                             128   -0.35 9  163 218 
 SPBC HZ I        1722  9.52        45.7 0.32            129            163 218 
 YPLC HE ES       1722 10.31                             125    0.55 9  178 151 
 ZAR  HZ EP       1721 49.17                             121   -0.00 9  202 292 
 ZAR  HN ES       1722 13.62                             121   -0.44 9  202 292 
 ZAR  HZ I        1722 22.71        17.2 0.23            122            202 292 
 TABC EZ EP       1721 53.20                             118    0.57 8  230 210 
 NOR  HZ EP       1721 52.27                             117   -0.29 8  234 234 
 NOR  HN ES       1722 20.03                             117   -0.06 8  234 234 
 NOR  HZ I        1722 24.46        18.2 0.22            119            234 234 
 CHI  HZ EP       1721 54.03                             116   -0.62 8  249 195 
 CHI  HN ES       1722 23.87                             116    0.05 8  249 195 
 CHI  HZ I        1722 26.97        10.5 0.31            118            249 195 
 HEL  HZ EP       1721 58.00                             114    0.97 8  271 256 
 HEL  HN ES       1722 27.29                             114   -0.77 8  271 256 
 HEL  HZ I        1722 34.51        10.9 0.48            115            271 256 
 GUY2CHZ EP       1722  2.19                             111    1.69 7  300 235 
 GUY2CHE ES   3   1722 39.14                             111    4.92 2  300 235 
 GUY2CHZ I        1722 41.75        12.1 0.34                           300 235 
                                                                                
