 2012  312 1945 44.3 L   6.791 -73.134148.6  RSN 20 0.6 3.4LRSN                1
 GAP=104        1.23       3.8     4.7  6.7 -0.1846E+01  0.4765E+01  0.3470E+01E
 ACTION:UP  12-03-31 23:19 OP:EP   STATUS:               ID:20120312194544 L   I
 2012-03-12-1940-00M.COL___195                                                 6
 STAT SP IPHASW D HRMM SECON CODA AMPLIT PERI AZIMU VELO SNR AR TRES W  DIS CAZ7
 BAR2 SZ IP       1946  4.19                             171     0.010   23 194 
 BAR2 SZ ES   1   1946 19.31                             171    -0.5 7   23 194 
 BAR2 SZ I        1946 21.98       553.9 0.30                            23 194 
 BRR  HZ IP     C 1946  6.10                             152     0.310   73 299 
 BRR  HE ES   1   1946 23.49                             152     0.9 7   73 299 
 BRR  HZ I        1946 25.72       593.5 0.13                            73 299 
 PAM  SZ EP       1946  6.99                             151     0.210   77  38 
 PAM  SE ES   1   1946 24.17                             151    -0.2 7   77  38 
 RUS  HZ IP     D 1946  7.97                             145    -0.310  100 177 
 RUS  HN ES   1   1946 26.89                             145     0.0 7  100 177 
 RUS  HZ I        1946 27.89       144.2 0.26                           100 177 
 PTB  HZ EP       1946 10.64                             132    -0.9 9  149 259 
 PTB  HN ES   1   1946 32.04                             132    -0.8 7  149 259 
 PTB  HZ I        1946 39.60       456.7 0.31                           149 259 
 OCA  SZ EP       1946 13.22                             130     0.3 9  161 353 
 OCA  SZ ES   1   1946 36.02                             130     0.8 7  161 353 
 YOP  SZ EP   1   1946 14.53                             127     0.1 7  177 154 
 YOP  SN ES   1   1946 38.08                             127     0.2 7  177 154 
 YOP  SZ I        1946 41.48        85.0 0.24                           177 154 
 ZAR  HZ EP   1   1946 16.56                             123    -0.5 6  206 292 
 ZAR  HE ES   1   1946 42.32                             123    -0.3 6  206 292 
 ZAR  HZ I        1946 48.05       284.0 0.32                           206 292 
 NOR  SZ EP   1   1946 19.96                             119    -0.3 6  235 235 
 NOR  SN ES   1   1946 47.45                             119    -0.8 6  235 235 
 CHI  HZ EP   1   1946 22.15                             118     0.1 6  248 196 
 CHI  HN ES   1   1946 51.17                             118    -0.4 6  248 196 
 CHI  HZ I        1946 59.39       134.9 0.26                           248 196 
 ROSC BZ EP   1   1946 23.62                             117     1.1 6  253 211 
 ROSC BN ES   1   1946 53.05                             117     0.7 6  253 211 
 ROSC BZ I        1947  1.53       260.7 0.42                           253 211 
 CVER SZ EP   1   1946 25.27                             115     0.5 6  272 203 
 HEL  HZ EP   1   1946 25.76                             115     1.0 6  273 256 
 HEL  HN ES   1   1946 56.83                             115     0.5 6  273 256 
 HEL  HZ I        1947  2.95       152.9 0.24                           273 256 
 VIL  SZ EP   1   1946 27.70                             113    -0.1 5  303 192 
 VIL  SZ I        1947  5.89        92.3 0.29                           303 192 
 RREF HZ EP       1946 31.20                             111     0.6 7  322 230 
 RREF HZ I        1947 16.79       221.9 0.35                           322 230 
 DBB  SZ EP   1   1946 31.94                             110    -0.1 5  341 274 
 TOL  SZ EP   1   1946 33.51                             110     0.8 5  344 225 
 COD  HZ EP   1   1946 31.91                             109    -1.0 5  349 354 
 COD  HZ I        1947 16.44       156.5 0.34                           349 354 
 SDV  BZ EP       1946 33.62                             109    -0.8 6  360  50 
 SDV  BZ I        1947 16.07        21.7 0.40                           360  50 
 PRA  HZ EP   1   1946 36.96                             107    -0.9 4  392 210 
 PRA  HN ES   1   1947 19.94                             107     0.3 4  392 210 
                                                                                
