 2010 1212 1517 57.4 L   6.776 -73.131143.9  RSN 11 0.4 2.0LRSN                1
 GAP=160        0.69       3.1     6.6  5.7 -0.1115E+02  0.1611E+02 -0.2901E+01E
 Epicentro: LOS SANTOS - SANTANDER                                             3
 ACTION:UP  11-01-14 15:24 OP:pat  STATUS:               ID:20101212151757 L   I
 2010-12-12-1515-49S.COL___136                                                 6
 STAT SP IPHASW D HRMM SECON CODA AMPLIT PERI AZIMU VELO SNR AR TRES W  DIS CAZ7
 BAR2 SZ EP       1518 16.70                             171    -0.110   21 196 
 BAR2 SZ ES   1   1518 31.67                             171    -0.2 7   21 196 
 BAR2 SZ I        1518 33.81        17.4 0.04                            21 196 
 RUS  HZ EP       1518 20.68                             144    -0.110   98 177 
 RUS  HN ES   1   1518 39.25                             144     0.2 7   98 177 
 RUS  HZ I        1518 40.70         7.2 0.22                            98 177 
 GUE  SZ EP   1   1518 21.82                             138    -0.3 7  119  11 
 GRA  SZ EP       1518 22.79                             136     0.110  128  16 
 GRA  SZ ES   1   1518 42.55                             136     0.2 7  128  16 
 GRA  SZ I        1518 44.52        15.4 0.31                           128  16 
 OCA  SZ EP       1518 25.42                             129    -0.4 9  163 353 
 OCA  SZ ES   2   1518 49.18                             129     1.2 5  163 353 
 OCA  SZ I        1518 53.08        24.3 0.28                           163 353 
 NOR  SZ EP   1   1518 32.92                             118    -0.1 6  235 235 
 NOR  SN ES   2   1519  0.35                             118    -0.4 4  235 235 
 CHI  HZ EP       1518 34.84                             117     0.1 8  246 196 
 CHI  HZ I        1519  8.01         3.8 0.44                           246 196 
 HEL  HZ EP   2   1518 38.06                             114     0.4 4  273 256 
 HEL  HZ I        1519 15.45         6.5 0.54                           273 256 
 GUY  SZ EP   3   1518 41.93                             112     1.0 2  301 235 
 GUY  SN ES   2   1519 14.58                             112    -0.3 4  301 235 
 GUY  SZ I        1519 26.69         8.8 0.44                           301 235 
 RREF HZ EP   2   1518 44.07                             110     0.7 3  321 230 
 RREF HN ES   2   1519 19.40                             110     0.1 3  321 230 
 RREF HZ I        1519 25.88         6.4 0.21                           321 230 
 PRA  HZ EP       1518 51.10                             106     0.4 6  390 210 
 PRA  HN ES   2   1519 32.02                             106    -0.2 3  390 210 
                                                                                
