 2017  812 1345 17.5 L   6.803 -73.094140.5  RSN  6 0.3 1.4LRSN                1
 GAP=143        0.77       4.0     4.2  5.8  0.4077E+01  0.3181E+01 -0.3745E+01E
 Epicentro: LOS SANTOS - SANTANDER                                             3
 ACTION:UPD 17-09-04 20:19 OP:rebc STATUS:               ID:20170812134517 L   I
 OLDACT:DUP 17-08-12 22:10 OP:dani STATUS:               ID:20170812133742d    3
 2017-08-12-1338-00M.COL___416                                                 6
 STAT SP IPHASW D HRMM SECON CODA AMPLIT PERI AZIMU VELO AIN AR TRES W  DIS CAZ7
 BAR2 EZ EP       1345 36.44                             169   -0.1310 25.3 203 
 BAR2 EZ ES       1345 51.04                             169   -0.3810 25.3 203 
 BAR2 EZ I        1345 52.42         8.1 0.26            172           25.3 203 
 PAM  EZ EP       1345 39.26                             151    0.3010 73.6  36 
 PAM  EZ I        1346  0.58         4.8 0.62            134           73.6  36 
 BRR  HZ EP       1345 38.36                             150   -0.0410 76.1 296 
 BRR  HN ES       1345 55.09                             150    0.4110 76.1 296 
 BRR  HZ I        1345 59.99         8.2 0.15            145           76.1 296 
 RUS  HZ EP       1345 41.02                             143    0.2510  101 179 
 RUS  HN ES       1345 58.80                             143   -0.1010  101 179 
 RUS  HZ I        1346  0.20         1.6 0.21            145            101 179 
 ZAR  HZ EP       1345 49.58                             120   -0.59 8  209 291 
 ZAR  HE ES       1346 15.56                             120   -0.08 8  209 291 
 ZAR  HZ I        1346 23.29         3.9 0.34            116            209 291 
 NOR  HN ES       1346 21.79                             117    0.27 8  240 235 
                                                                                
