 2010  412 1358  3.2 L   6.794 -72.978148.0  RSN  4 0.3 2.4LRSN                1
 GAP=279        0.60       5.9     6.7  6.5 -0.6766E+01 -0.7283E+00  0.2069E+02E
 Epicentro: CEPITA - SANTANDER                                                 3
 ACTION:UPD 10-08-24 09:58 OP:vdl  STATUS:               ID:20100412135803 L   I
 2010-04-12-1353-20S.COL___099                                                 6
 STAT SP IPHASW D HRMM SECON CODA AMPLIT PERI AZIMU VELO AIN AR TRES W  DIS CAZ7
 BAR2 SZ EP       1358 23.30                             167     0.010   32 225 
 BAR2 SZ ES   1   1358 39.09                             167     0.2 7   32 225 
 BRR  HZ IP     C 1358 25.53                             147    -0.110   88 293 
 BRR  HZ I        1358 25.79        60.8 0.39                            88 293 
 BRR  HN ES       1358 42.94                             147    -0.110   88 293 
 RREF HN ES       1359 28.73                             110     0.4 7  336 232 
 RREF HZ I        1359 34.50         8.3 0.52                           336 232 
 PRA  HZ EP       1358 57.68                             106    -0.1 6  401 212 
 PRA  HZ I        1358 58.91         4.2 0.29                           401 212 
 PRA  HN ES   2   1359 39.37                             106    -1.1 3  401 212 
                                                                                
