 2017  312 1039 54.2 L   6.735 -73.199141.7  RSN  7 0.4 1.4LRSN                1
 GAP=133        1.02       5.0     4.4  7.5  0.2036E+01  0.6390E+01  0.7934E-01E
 Epicentro: VILLANUEVA - SANTANDER                                             3
 ACTION:UPD 17-05-25 18:39 OP:jn   STATUS:               ID:20170312103954 L   I
 OLDACT:REG 17-03-12 21:38 OP:lv   STATUS:               ID:20170312103742     3
 2017-03-12-1038-00M.COL___394                                                 6
 STAT SP IPHASW D HRMM SECON CODA AMPLIT PERI AZIMU VELO AIN AR TRES W  DIS CAZ7
 BAR2 EZ EP       1040 13.17                             173   -0.0310 15.8 173 
 BAR2 EZ ES       1040 27.98                             173   -0.0510 15.8 173 
 BAR2 EZ I        1040 29.10         9.4 0.57            173           15.8 173 
 BRR  HZ EP       1040 15.23                             152    0.3910 70.0 306 
 BRR  HE ES       1040 31.31                             152    0.3710 70.0 306 
 BRR  HZ I        1040 35.13         7.0 0.55            152           70.0 306 
 PAM  EZ EP       1040 16.13                             147   -0.4410 86.7  40 
 PAM  EN ES       1040 33.81                             147   -0.2210 86.7  40 
 PAM  EZ I        1040 36.39         3.4 0.25            151           86.7  40 
 RUS  HZ EP       1040 17.38                             145    0.3110 94.0 172 
 RUS  HN ES       1040 35.14                             145    0.2310 94.0 172 
 RUS  HZ I        1040 36.86         2.8 0.13            148           94.0 172 
 PTB  HZ EP       1040 20.08                             132   -0.11 9  141 261 
 PTB  HN ES       1040 39.55                             132   -0.91 9  141 261 
 PTB  HZ I        1040 47.24         3.4 0.16            134            141 261 
 ZAR  HN ES       1040 51.46                             122    0.46 9  201 295 
 GUY2CHZ EP   4   1040 39.26                             112    2.66 0  292 235 
 GUY2CHN ES   4   1041 14.04                             112    4.37 0  292 235 
 GUY2CHZ  IAML    1041 19.59         2.0 0.37                           292 235 
                                                                                
