 2017  812 1317 17.9 L   6.830 -73.120135.7  RSN  4 0.3 1.4LRSN                1
 GAP=243        0.86       9.3    10.6  6.8  0.8299E+02  0.1476E+01 -0.7378E+01E
 Epicentro: LOS SANTOS - SANTANDER                                             3
 ACTION:UPD 17-09-04 20:19 OP:rebc STATUS:               ID:20170812131717 L   I
 OLDACT:UP  17-08-12 22:04 OP:dani STATUS:               ID:20170812130744     3
 OLDACT:UP  17-08-12 22:04 OP:dani STATUS:               ID:20170812130744     3
 OLDACT:UP  17-08-12 22:04 OP:dani STATUS:               ID:20170812130744     3
 OLDACT:REG 17-08-12 20:52 OP:dani STATUS:               ID:20170812130744     3
 2017-08-12-1308-00M.COL___416                                                 6
 STAT SP IPHASW D HRMM SECON CODA AMPLIT PERI AZIMU VELO AIN AR TRES W  DIS CAZ7
 BAR2 EZ EP       1317 36.20                             168   -0.1610 27.2 195 
 BAR2 EZ ES       1317 51.09                             168    0.3010 27.2 195 
 BAR2 EZ I        1317 51.96         8.2 0.30            163           27.2 195 
 BRR  HZ EP       1317 37.73                             150   -0.2510 72.2 295 
 BRR  HN ES       1317 53.60                             150   -0.0710 72.2 295 
 BRR  HZ I        1317 58.14         7.5 0.48            147           72.2 295 
 RUS  HZ EP       1317 40.65                             141   -0.2210  104 178 
 RUS  HN ES       1317 58.85                             141    0.0310  104 178 
 RUS  HZ I        1318  0.28         3.3 0.39            141            104 178 
 ZAR  HZ EP       1317 50.64                             120    0.83 8  205 291 
 ZAR  HE ES       1318 14.40                             120   -0.33 8  205 291 
 ZAR  HZ I        1318 19.47         2.4 0.18            120            205 291 
                                                                                
