 2016  312 1004 53.5 L   6.811 -73.176144.7  RSN  6 0.2 1.4LRSN                1
 GAP=132        0.56       2.3     3.0  4.3 -0.1979E+00  0.5916E+01  0.1111E+01E
 Epicentro: LOS SANTOS - SANTANDER                                             3
 ACTION:UPD 16-05-13 21:23 OP:cam  STATUS:               ID:20160312100453 L   I
 OLDACT:REG 16-03-12 21:04 OP:cara STATUS:               ID:20160312095747     3
 2016-03-12-0957-47M.COL___288                                                 6
 STAT SP IPHASW D HRMM SECON CODA AMPLIT PERI AZIMU VELO AIN AR TRES W  DIS CAZ7
 BAR2 EZ IP       10 5 12.85                             170   -0.1310 24.2 182 
 BAR2 EZ ES       10 5 28.06                             170   -0.1510 24.2 182 
 BAR2 EZ I        10 5 29.01         5.8 0.22            170           24.2 182 
 PAM  EZ EP       10 5 15.47                             150   -0.1710 78.6  42 
 PAM  EE ES       10 5 33.15                             150    0.2110 78.6  42 
 PAM  EZ I        10 5 34.93         5.9 0.50            153           78.6  42 
 RUS  HZ EP       10 5 17.28                             143    0.0710  102 174 
 RUS  HN ES       10 5 35.93                             143    0.1910  102 174 
 RUS  HZ I        10 5 37.05         2.7 0.42            146            102 174 
 ZAR  HZ EP       10 5 25.56                             123    0.09 9  201 292 
 ZAR  HN ES       10 5 50.28                             123   -0.16 9  201 292 
 ZAR  HZ I        10 5 57.53         2.4 0.42            123            201 292 
 CHI  HZ IP       10 5 31.28                             117    0.15 8  249 194 
 CHI  HN ES       10 6  0.06                             117   -0.46 8  249 194 
 CHI  HZ I        10 6  3.75         1.3 0.54            118            249 194 
 GUY2CHE ES       10 6 11.03                             112    0.44 7  299 234 
 GUY2CHZ I        10 6 19.11         1.1 0.34                           299 234 
                                                                                
