 2012  712 1305 35.7 L   6.779 -73.149148.5  RSN  5 0.3 1.3LRSN                1
 GAP=137        0.79       5.3     5.2  8.5 -0.2893E+01 -0.3808E+00  0.6070E+01E
 Epicentro: LOS SANTOS - SANTANDER                                             3
 ACTION:UPD 12-08-14 11:44 OP:ep   STATUS:               ID:20120712130535 L   I
 2012-07-12-1300-00M.COL___194                                                 6
 STAT SP IPHASW D HRMM SECON CODA AMPLIT PERI AZIMU VELO AIN AR TRES W  DIS CAZ7
 BAR2 SZ EP       13 5 55.40                             172    -0.210   21 190 
 BAR2 SZ I        13 5 55.71         3.6 0.20            168             21 190 
 BRR  HZ EP       13 5 57.25                             153     0.110   72 300 
 BRR  HZ I        13 5 57.71         8.6 0.21            151             72 300 
 BRR  HE ES   1   13 6 14.47                             153     0.5 7   72 300 
 PAM  SZ EP       13 5 58.35                             151     0.010   79  39 
 PAM  SE ES   1   13 6 15.63                             151    -0.3 7   79  39 
 RUS  HZ EP       13 5 59.91                             145     0.410   98 176 
 RUS  HN ES   1   13 6 18.05                             145    -0.1 7   98 176 
 RUS  HZ I        13 6 19.41         2.4 0.37            145             98 176 
 PTB  HZ EP   1   13 6  2.45                             133    -0.4 7  147 260 
 PTB  HN ES   1   13 6 23.64                             133    -0.3 7  147 260 
 PTB  HZ I        13 6 29.47         2.3 0.33            132            147 260 
