 2012  112 1911 46.8 L   6.789 -73.169144.3  RSN  4 0.1 1.6LRSN                1
 GAP=134        0.36       2.5     2.5  4.5  0.1303E+01  0.3499E+01 -0.1007E+01E
 Epicentro: LOS SANTOS - SANTANDER                                             3
 ACTION:UP  12-02-03 08:16 OP:REBC STATUS:               ID:20120112191146 L   I
 2012-01-12-1910-00M.COL___188                                                 6
 STAT SP IPHASW D HRMM SECON CODA AMPLIT PERI AZIMU VELO SNR AR TRES W  DIS CAZ7
 BAR2 SZ EP   2   1912  5.90                             171    -0.3 6   22 184 
 BAR2 SZ ES   1   1912 21.42                             171     0.1 9   22 184 
 BAR2 SZ I        1912 22.97        10.8 0.11                            22 184 
 PAM  SZ EP   1   1912  9.14                             150     0.1 9   80  40 
 PAM  SN ES   1   1912 26.25                             150    -0.1 9   80  40 
 RUS  HZ EP   1   1912 10.32                             144     0.0 9  100 175 
 RUS  HN ES   1   1912 28.68                             144     0.0 9  100 175 
 RUS  HZ I        1912 30.23         3.3 0.34                           100 175 
 ZAR  HE ES       1912 44.00                             122     0.010  202 293 
 ZAR  HZ I        1912 49.87         5.0 0.54                           202 293 
                                                                                
