 2013  412 1341 16.4 L   5.959 -73.676116.1  RSN  7 0.4 1.6LRSN                1
 GAP=112        0.86       4.3     4.1  8.3 -0.4329E+01  0.5587E+01  0.1130E+02E
 Epicentro: VELEZ - SANTANDER                                                  3
 ACTION:UPD 13-05-22 14:37 OP:EP   STATUS:               ID:20130412134116 L   I
 2013-04-12-1340-00M.COL___245                                                 6
 STAT SP IPHASW D HRMM SECON CODA AMPLIT PERI AZIMU VELO AIN AR TRES W  DIS CAZ7
 RUS  HZ EP   1   1341 34.50                             149   -0.32 7 66.0  96 
 RUS  HE ES   1   1341 49.03                             149   -0.14 7 66.0  96 
 RUS  HZ I        1341 50.11         8.6 0.30             47           66.0  96 
 BAR2 SZ EP       1341 36.19                             140    0.1110 88.8  38 
 BAR2 SZ ES       1341 51.55                             140    0.1310 88.8  38 
 PTB  HZ EP   1   1341 37.43                             134    0.09 7  108 307 
 PTB  HN ES   1   1341 52.65                             134   -1.01 7  108 307 
 PTB  HZ I        1341 56.15         6.3 0.16             47            108 307 
 BRR  HE ES       1341 56.96                             129    0.1710  127 358 
 GIR2 SZ EP       1341 40.10                             127    0.0610  135  23 
 GIR2 SZ ES       1341 58.48                             127    0.0210  135  23 
 GIR2 SZ I        1342  1.52         7.4 0.32             47            135  23 
 NOR  HN ES   1   1341 59.87                             126    0.86 7  139 252 
 PRA  HZ EP       1341 55.81                             107   -0.26 7  282 208 
 PRA  HZ I        1342 28.50         3.0 0.24             36            282 208 
                                                                                
