 2014  312 1519 20.1 L   6.604 -73.527111.5  RSN  7 0.4 1.5LRSN                1
 GAP=114        0.86       3.2     5.2  7.2 -0.7781E+01  0.2096E+02 -0.6054E+01E
 Epicentro: EL CARMEN DE CHUCURI - SANTANDER                                   3
 ACTION:UPD 14-04-09 23:16 OP:nd   STATUS:               ID:20140312151920 L   I
 OLDACT:REG 14-03-12 17:11 OP:nd   STATUS:               ID:20140312151818     3
 2014-03-12-1518-18M.COL___247                                                 6
 STAT SP IPHASW D HRMM SECON CODA AMPLIT PERI AZIMU VELO AIN AR TRES W  DIS CAZ7
 BAR2 SZ EP       1519 36.51                             160    0.3410 38.1  92 
 BAR2 SZ ES       1519 48.87                             160    0.2010 38.1  92 
 BAR2 SZ I        1519 51.02        22.6 0.42            172           38.1  92 
 RUS  HZ EP       1519 39.68                             138   -0.3610 92.8 148 
 RUS  HN ES       1519 55.47                             138   -0.0910 92.8 148 
 RUS  HZ I        1519 56.61         6.1 0.28            146           92.8 148 
 PAM  SZ EP       1519 42.44                             129   -0.2210  122  48 
 PAM  SN ES       1519 59.97                             129   -0.2610  122  48 
 PAM  SZ I        1520  4.66         3.2 0.20            135            122  48 
 NOR  HZ EP   2   1519 47.78                             116   -1.10 4  188 232 
 NOR  HN ES       1520 10.94                             116   -0.37 9  188 232 
 NOR  HZ I        1520 20.62         3.8 0.20            117            188 232 
 CHI  HZ EP       1519 53.00                             112    0.13 8  220 186 
 CHI  HN ES       1520 19.00                             112    0.61 8  220 186 
 CHI  HZ I        1520 26.14         1.9 0.32            115            220 186 
 SML  HZ EP       1519 56.21                             109    0.36 8  250 346 
 SML  HN ES   2   1520 24.49                             109    0.79 4  250 346 
 SML  HZ I        1520 33.34         4.4 0.26            110            250 346 
 GUY2CHZ EP   4   1519 58.65                             108    1.72 0  254 233 
 GUY2CHZ I        1520 34.57         1.9 0.30                           254 233 
                                                                                
