 2010  212 1003 28.2 L   6.763 -72.908139.8  RSN  4 0.4 1.6LRSN                1
 GAP=217        0.57       4.8    31.5  8.0 -0.7979E+02 -0.2529E+02  0.7984E+01E
 Epicentro: CEPITA - SANTANDER                                                 3
 ACTION:UP  10-08-24 09:48 OP:vdl  STATUS:               ID:20100212100328 L   I
 2010-02-12-1001-06S.COL___094                                                 6
 STAT SP IPHASW D HRMM SECON CODA AMPLIT PERI AZIMU VELO SNR AR TRES W  DIS CAZ7
 BAR2 SZ EP   1   10 3 47.47                             165     0.0 7   36 238 
 BAR2 SZ ES   2   10 4  2.17                             165    -0.3 5   36 238 
 OCA  SZ EP   1   10 3 57.10                             126     0.1 7  169 345 
 OCA  SZ ES   2   10 4 19.48                             126     0.1 5  169 345 
 CHI  HZ EP   1   10 4  6.00                             115    -0.1 6  253 201 
 CHI  HN ES   2   10 4 36.43                             115     0.8 4  253 201 
 CHI  HZ I        10 4 40.40         1.5 0.28                           253 201 
 PRA  HZ EP   1   10 4 22.13                             105    -0.6 4  402 213 
 PRA  HZ I        10 5 17.77         1.7 0.45                           402 213 
                                                                                
