 2012  512 1040 24.1 L   6.746 -73.134148.0  RSN  7 0.3 1.9LRSN                1
 GAP=140        0.73       4.9     4.9  7.0  0.4990E+01  0.1211E+02  0.9669E+01E
 Epicentro: JORDAN - SANTANDER                                                 3
 ACTION:UP  12-07-05 12:04 OP:pat  STATUS:               ID:20120512104024 L   I
 2012-05-12-1040-00M.COL___195                                                 6
 STAT SP IPHASW D HRMM SECON CODA AMPLIT PERI AZIMU VELO SNR AR TRES W  DIS CAZ7
 BAR2 SZ EP   1   1040 43.79                             173    -0.1 7   18 198 
 BAR2 SZ ES   1   1040 59.39                             173     0.0 7   18 198 
 BAR2 SZ I        1041  0.67        17.8 0.25                            18 198 
 BRR  HZ EP   1   1040 45.90                             151     0.2 7   75 302 
 BRR  HZ I        1040 46.27        21.2 0.13                            75 302 
 BRR  HE ES   1   1041  3.23                             151     0.6 7   75 302 
 PAM  SN ES   1   1041  4.19                             150    -0.3 7   81  36 
 RUS  HZ EP   1   1040 47.72                             146     0.1 7   95 177 
 RUS  HN ES   1   1041  6.08                             146     0.1 7   95 177 
 RUS  HZ I        1041  7.82         7.8 0.20                            95 177 
 PTB  HZ EP   1   1040 51.13                             132    -0.2 7  148 261 
 PTB  HN ES   1   1041 11.80                             132    -0.7 7  148 261 
 PTB  HZ I        1041 14.07         7.2 0.22                           148 261 
 ZAR  HN ES   1   1041 22.87                             122     0.1 6  208 294 
 ZAR  HZ I        1041 30.27         9.3 0.48                           208 294 
 PRA  HZ EP   1   1041 17.60                             107     0.4 4  387 210 
 PRA  HN ES   2   1041 58.88                             107     0.3 3  387 210 
                                                                                
