 2011  512 1241 33.2 L   6.778 -73.065148.0  RSN  6 0.4 1.7LRSN                1
 GAP=148        0.99       5.5     9.3  8.3 -0.9278E+01 -0.8135E+01  0.5957E+01E
 Epicentro: LOS SANTOS - SANTANDER                                             3
 ACTION:UP  11-06-29 08:52 OP:tino STATUS:               ID:20110512124133 L   I
 2011-05-12-1239-25S.COL___129                                                 6
 STAT SP IPHASW D HRMM SECON CODA AMPLIT PERI AZIMU VELO SNR AR TRES W  DIS CAZ7
 BAR2 SZ EP       1241 52.94                             170    -0.110   24 212 
 BAR2 SZ I        1241 53.25         8.4 0.23                            24 212 
 BAR2 SZ ES   1   1242  8.79                             170     0.2 7   24 212 
 BTL  SZ EP       1241 53.14                             169     0.010   27 305 
 BTL  SZ ES   1   1242  8.85                             169     0.1 7   27 305 
 PAM  SZ EP       1241 55.93                             152     0.510   74  33 
 PAM  SN ES   1   1242 13.10                             152     0.3 7   74  33 
 BRR  HZ EP       1241 54.93                             150    -0.110   80 297 
 BRR  HZ I        1241 55.39        13.9 0.11                            80 297 
 BRR  HN ES   1   1242 12.37                             150     0.2 7   80 297 
 RUS  HZ EP       1241 57.03                             145     0.110   98 181 
 RUS  HN ES   1   1242 14.95                             145    -0.5 7   98 181 
 RUS  HZ I        1242 18.56         3.9 0.50                            98 181 
 GRA  SZ ES   1   1242 17.47                             137    -1.0 7  126  13 
 GRA  SZ I        1242 19.66         8.6 0.42                           126  13 
                                                                                
