 2017  412 1746 17.5 L   6.775 -73.146148.8  RSN  6 0.2 1.3LRSN                1
 GAP=138        0.55       2.8     2.5  4.0  0.6102E+00  0.1828E+01  0.1440E+00E
 Epicentro: LOS SANTOS - SANTANDER                                             3
 ACTION:UPD 17-05-30 21:11 OP:jn   STATUS:               ID:20170412174617 L   I
 OLDACT:REG 17-04-12 21:00 OP:cog  STATUS:               ID:20170412173741     3
 2017-04-12-1738-00M.COL___361                                                 6
 STAT SP IPHASW D HRMM SECON CODA AMPLIT PERI AZIMU VELO AIN AR TRES W  DIS CAZ7
 BAR2 EZ EP       1746 37.48                             172    0.0710 20.6 191 
 BAR2 EZ ES       1746 53.02                             172    0.0610 20.6 191 
 BAR2 EZ I        1746 55.13         6.9 0.17            171           20.6 191 
 BRR  HZ EP       1746 39.10                             153    0.0810 72.6 300 
 BRR  HN ES       1746 55.98                             153    0.1510 72.6 300 
 BRR  HZ I        1746 58.79         6.1 0.64            153           72.6 300 
 PAM  EZ EP       1746 40.23                             151    0.0910 79.6  38 
 PAM  EE ES       1746 57.54                             151   -0.2810 79.6  38 
 PAM  EZ I        1747  0.09         3.4 0.35            154           79.6  38 
 RUS  HZ EP       1746 41.51                             145    0.1910 97.8 176 
 RUS  HN ES       1746 59.93                             145    0.0110 97.8 176 
 RUS  HZ I        1747  1.47         1.9 0.52            148           97.8 176 
 PTB  HZ EP       1746 44.22                             133   -0.42 9  147 260 
 PTB  HE ES       1747  5.61                             133   -0.21 9  147 260 
 PTB  HZ I        1747 11.52         2.7 0.16            134            147 260 
 ZAR  HE ES       1747 16.02                             123    0.25 9  205 293 
                                                                                
