 2010  712 1420  5.8 L   6.868 -73.222121.8  RSN  5 0.3 1.2LRSN                1
 GAP=205        0.75       4.8    27.2  8.5 -0.9324E+02  0.4657E+02 -0.1771E+02E
 Epicentro: ZAPATOCA - SANTANDER                                               3
 ACTION:UPD 10-12-01 15:17 OP:pat  STATUS:               ID:20100712142005 L   I
 2010-07-12-1417-16S.COL___120                                                 6
 STAT SP IPHASW D HRMM SECON CODA AMPLIT PERI AZIMU VELO AIN AR TRES W  DIS CAZ7
 BAR2 SZ EP       1420 23.05                             165     0.310   31 172 
 BAR2 SZ ES   1   1420 35.74                             165    -0.2 7   31 172 
 BRI  SZ EP   1   1420 27.51                             137     0.3 7  105  27 
 RUS  HZ EP       1420 27.46                             136    -0.510  109 172 
 RUS  HN ES       1420 45.50                             136     0.210  109 172 
 RUS  HZ I        1420 46.45         3.3 0.47                           109 172 
 GUE  SZ EP       1420 27.86                             135    -0.110  111  17 
 GRA  SZ EP       1420 28.76                             132     0.110  122  22 
 GRA  SZ ES   1   1420 46.16                             132    -0.3 7  122  22 
                                                                                
