 2011 1112 1241 16.3 L   5.932 -73.785110.7  RSN  9 0.3 2.2LRSN                1
 GAP= 84        0.61       2.0     2.1  5.4 -0.1127E+01  0.3755E+01  0.2267E+00E
 Epicentro: GUAVATA - SANTANDER                                                3
 ACTION:UPD 12-07-13 16:09 OP:ep   STATUS:               ID:20111112124116 L   I
 2011-11-12-1237-50S.COL___180                                                 6
 STAT SP IPHASW D HRMM SECON CODA AMPLIT PERI AZIMU VELO AIN AR TRES W  DIS CAZ7
 RUS  HZ IP     D 1241 35.06                             143    0.0710 77.9  93 
 RUS  HZ I        1241 35.55        21.5 0.24                          77.9  93 
 RUS  HE ES   1   1241 49.53                             143   -0.02 7 77.9  93 
 BAR2 SZ IP       1241 36.60                             135    0.2710 98.9  42 
 BAR2 SZ ES       1241 51.81                             135   -0.1210 98.9  42 
 BAR2 SZ I        1241 53.59       163.3 0.35                          98.9  42 
 NOR  SZ EP       1241 38.61                             127   -0.0310  127 251 
 NOR  SE ES       1241 56.27                             127    0.2310  127 251 
 BRR  HZ EP       1241 39.22                             126    0.3110  130   4 
 BRR  HZ I        1241 40.45        40.1 0.15                           130   4 
 BRR  HN ES       1241 56.45                             126   -0.0710  130   4 
 CHI  HZ EP       1241 40.80                             124   -0.04 9  144 178 
 CHI  HN ES   1   1241 59.54                             124   -0.42 7  144 178 
 HEL  HZ EP   1   1241 46.82                             115    0.60 6  195 279 
 HEL  HN ES   1   1242  9.34                             115   -0.20 6  195 279 
 HEL  HZ I        1242 14.76         6.9 0.60                           195 279 
 PAM  SZ EP   1   1241 46.43                             115   -0.11 6  197  38 
 RREF HZ EP   1   1241 47.65                             113   -0.26 6  207 237 
 RREF HN ES   1   1242 12.63                             113    0.08 6  207 237 
 RREF HZ I        1242 16.47         9.8 0.27                           207 237 
 ZAR  HZ EP   1   1241 46.60                             113   -0.76 6  209 326 
 ZAR  HN ES   1   1242 11.28                             113   -0.28 6  209 326 
 ZAR  HZ I        1242 13.55        16.0 0.57                           209 326 
                                                                                
