 2014 1112 1443  2.0 L   6.745 -73.129147.4  RSN  6 0.4 1.7LRSN                1
 GAP=141        1.06       5.4     5.1  7.7 -0.6779E+01  0.7257E+01  0.3121E+01E
 Epicentro: LOS SANTOS - SANTANDER                                             3
 ACTION:UPD 14-12-19 15:42 OP:nd   STATUS:               ID:20141112144302 L   I
 OLDACT:REG 14-11-12 19:47 OP:cam  STATUS:               ID:20141112143813     3
 2014-11-12-1438-13M.COL___289                                                 6
 STAT SP IPHASW D HRMM SECON CODA AMPLIT PERI AZIMU VELO AIN AR TRES W  DIS CAZ7
 BAR2 SZ EP       1443 21.76                             173    0.0610 17.9 199 
 BAR2 SZ ES       1443 37.11                             173    0.0310 17.9 199 
 BAR2 SZ I        1443 37.98         8.8 0.18            172           17.9 199 
 BRR  HZ EP       1443 23.67                             151    0.1110 75.8 302 
 BRR  HN ES       1443 40.98                             151    0.5810 75.8 302 
 BRR  HN I        1443 45.09        23.6 0.24            151           75.8 302 
 PAM  SZ EP       1443 24.90                             150    0.3210 81.0  36 
 PAM  SE ES       1443 41.85                             150   -0.3610 81.0  36 
 PAM  SZ I        1443 44.39         5.4 0.38            152           81.0  36 
 RUS  HZ EP       1443 25.55                             146    0.1010 94.4 177 
 RUS  HE ES       1443 43.62                             146   -0.1410 94.4 177 
 RUS  HZ I        1443 45.51         3.5 0.30            148           94.4 177 
 PTB  HZ EP       1443 28.53                             132   -0.61 9  149 261 
 PTB  HN ES       1443 49.61                             132   -0.72 9  149 261 
 PTB  HE I        1443 50.78         8.0 0.30            133            149 261 
 NOR  HE ES       1444  6.06                             119    0.69 8  233 236 
 NOR  HZ I        1444 10.36         3.5 0.18            120            233 236 
                                                                                
