 2011  512 1040 20.7 L   6.772 -73.044143.3  RSN  4 0.3 1.5LRSN                1
 GAP=151        0.77       5.9     9.3  8.7  0.1627E+02 -0.2913E+02 -0.1251E+02E
 Epicentro: LOS SANTOS - SANTANDER                                             3
 ACTION:UP  11-06-29 08:52 OP:tino STATUS:               ID:20110512104020 L   I
 2011-05-12-1039-00S.COL___123                                                 6
 STAT SP IPHASW D HRMM SECON CODA AMPLIT PERI AZIMU VELO SNR AR TRES W  DIS CAZ7
 BAR2 SZ EP       1040 39.99                             170    -0.110   25 218 
 BAR2 SZ I        1040 40.58         8.9 0.42                            25 218 
 BAR2 SZ ES   1   1040 54.82                             170    -0.4 7   25 218 
 PAM  SZ EP       1040 42.83                             151     0.410   73  31 
 PAM  SN ES   3   1040 58.46                             151    -0.9 2   73  31 
 BRR  HZ EP       1040 41.95                             149    -0.310   83 297 
 BRR  HZ I        1040 42.27        12.2 0.10                            83 297 
 BRR  HN ES   1   1040 59.40                             149     0.3 7   83 297 
 RUS  HZ EP       1040 43.98                             144     0.010   97 183 
 RUS  HN ES   1   1041  2.26                             144     0.1 7   97 183 
 RUS  HZ I        1041  3.90         2.9 0.38                            97 183 
                                                                                
