 2010 1212 1420 11.3 L   6.789 -73.125147.2  RSN 13 0.2 2.1LRSN                1
 GAP=161        0.44       1.9     4.6  2.8 -0.3506E+01  0.2160E+01  0.1479E+00E
 Epicentro: LOS SANTOS - SANTANDER                                             3
 ACTION:UP  11-01-14 15:24 OP:pat  STATUS:               ID:20101212142011 L   I
 2010-12-12-1420-00M.COL___136                                                 6
 STAT SP IPHASW D HRMM SECON CODA AMPLIT PERI AZIMU VELO SNR AR TRES W  DIS CAZ7
 BTL  SZ IP       1420 31.24                             171     0.110   21 312 
 BTL  SZ ES   1   1420 46.80                             171     0.3 7   21 312 
 BAR2 SZ IP       1420 31.05                             171    -0.110   23 197 
 BAR2 SZ ES   1   1420 46.41                             171    -0.2 7   23 197 
 BAR2 SZ I        1420 47.30        31.6 0.52                            23 197 
 GIR2 SZ IP       1420 31.24                             167     0.010   33 347 
 GIR2 SZ ES   1   1420 46.90                             167     0.2 7   33 347 
 RUS  HZ EP       1420 35.14                             144     0.010   99 177 
 RUS  HN ES   1   1420 53.49                             144    -0.2 7   99 177 
 RUS  HZ I        1420 54.85        15.5 0.35                            99 177 
 GUE  SZ EP   2   1420 36.50                             140     0.3 5  117  11 
 GRA  SZ IP       1420 36.88                             137     0.110  126  16 
 GRA  SZ ES   2   1420 56.52                             137     0.0 5  126  16 
 GRA  SZ I        1420 57.31        17.3 0.48                           126  16 
 OCA  SZ EP       1420 39.49                             130    -0.4 9  162 352 
 OCA  SZ ES   2   1421  1.91                             130    -0.3 5  162 352 
 OCA  SZ I        1421  7.22        19.8 0.29                           162 352 
 NOR  SN ES   2   1421 14.82                             119    -0.5 4  236 235 
 CHI  HZ EP       1420 49.02                             117     0.0 8  248 196 
 CHI  HZ I        1420 51.74         5.4 0.42                           248 196 
 CHI  HN ES   2   1421 18.79                             117     0.3 4  248 196 
 HEL  HZ EP   2   1420 52.11                             115     0.3 4  274 256 
 HEL  HN ES   3   1421 23.79                             115     0.4 2  274 256 
 GUY  SN ES   3   1421 29.41                             112     0.1 2  303 235 
 RREF HZ EP   3   1420 57.91                             111     0.3 2  323 230 
 RREF HN ES   3   1421 33.79                             111     0.0 2  323 230 
 RREF HZ I        1421 40.37         7.2 0.20                           323 230 
 PRA  HZ EP       1421  5.10                             107     0.2 6  392 210 
 PRA  HN ES   3   1421 47.53                             107     0.8 1  392 210 
                                                                                
