 2010 1012 1044 16.8 L   6.736 -73.106139.1  RSN  8 0.2 2.5LRSN                1
 GAP=194        0.58       3.6     5.9  5.0 -0.1140E+02 -0.1594E+01  0.2381E+01E
 Epicentro: JORDAN - SANTANDER                                                 3
 ACTION:UP  11-02-18 11:09 OP:tino STATUS:               ID:20101012104416 L   I
 2010-10-12-1042-41S.COL___124                                                 6
 STAT SP IPHASW D HRMM SECON CODA AMPLIT PERI AZIMU VELO SNR AR TRES W  DIS CAZ7
 BAR2 SZ IP       1044 35.64                             172     0.110   18 208 
 BAR2 SZ ES   1   1044 49.92                             172    -0.2 7   18 208 
 BAR2 SZ I        1044 52.27        53.9 0.19                            18 208 
 BTL  SZ EP       1044 35.87                             169     0.110   27 319 
 BRR  HZ IP     C 1044 37.38                             149    -0.310   79 302 
 BRR  HZ I        1044 37.75        66.2 0.12                            79 302 
 BRR  HN ES   1   1044 54.42                             149     0.4 7   79 302 
 GUE  SZ EP       1044 41.34                             136    -0.110  123   9 
 GRA  SZ IP       1044 42.23                             134     0.310  131  15 
 GRA  SZ I        1044 43.38        33.4 0.25                           131  15 
 GRA  SZ ES   1   1045  1.40                             134    -0.2 7  131  15 
 OCA  SZ ES   1   1045  7.38                             127    -0.2 7  168 352 
 OCA  SZ I        1045  9.89        34.1 0.21                           168 352 
 NOR  SZ EP       1044 52.06                             117    -0.1 8  234 237 
 NOR  SN ES   3   1045 19.51                             117    -0.2 2  234 237 
 PRA  HZ EP   3   1045  9.95                             106     0.3 1  388 211 
 PRA  HE ES   2   1045 50.77                             106    -0.1 3  388 211 
 PRA  HZ I        1045 55.07        13.3 0.34                           388 211 
                                                                                
