 2012  312 1508  0.4 L   6.687 -73.207150.9  RSN  4 0.2 1.9LRSN                1
 GAP=216        0.61       5.6     6.0  6.2  0.1735E+02  0.3480E+01 -0.4494E+01E
 ACTION:UP  12-03-31 23:19 OP:EP   STATUS:               ID:20120312150800 L   I
 2012-03-12-1500-00M.COL___196                                                 6
 STAT SP IPHASW D HRMM SECON CODA AMPLIT PERI AZIMU VELO SNR AR TRES W  DIS CAZ7
 BAR2 SZ EP   1   15 8 20.22                             176    -0.2 7   11 166 
 BAR2 SZ ES   1   15 8 35.71                             176    -0.4 7   11 166 
 BAR2 SZ I        15 8 36.36        17.3 0.27                            11 166 
 BRR  HZ EP       15 8 22.24                             153     0.110   73 310 
 BRR  HE ES   1   15 8 39.57                             153     0.4 7   73 310 
 BRR  HZ I        15 8 41.24        16.8 0.26                            73 310 
 RUS  HZ EP   1   15 8 24.02                             148     0.1 7   89 171 
 RUS  HE ES       15 8 42.33                             148     0.210   89 171 
 RUS  HZ I        15 8 44.24        11.1 0.48                            89 171 
 PTB  HZ EP   1   15 8 26.93                             135    -0.1 7  139 263 
 PTB  HN ES   1   15 8 47.66                             135    -0.2 7  139 263 
                                                                                
