 2014  112 1955 21.2 L   6.775 -73.159144.5  RSN  6 0.3 1.6LRSN                1
 GAP=136        0.82       3.5     4.8  5.5 -0.4399E+01  0.4822E+01  0.5511E+01E
 Epicentro: LOS SANTOS - SANTANDER                                             3
 ACTION:UPD 14-03-13 09:54 OP:ep   STATUS:               ID:20140112195521 L   I
 OLDACT:REG 14-01-12 16:31 OP:stll STATUS:               ID:20140112194806     3
 2014-01-12-1948-06M.COL___246                                                 6
 STAT SP IPHASW D HRMM SECON CODA AMPLIT PERI AZIMU VELO AIN AR TRES W  DIS CAZ7
 BAR2 SZ EP       1955 40.59                             172   -0.0510 20.4 187 
 BAR2 SZ ES       1955 55.32                             172   -0.4710 20.4 187 
 BAR2 SZ I        1955 56.69        15.0 0.34            169           20.4 187 
 BRR  HZ EP       1955 42.57                             152    0.3410 71.3 301 
 BRR  HN ES       1955 59.03                             152    0.4010 71.3 301 
 BRR  HZ I        1956  0.81         7.6 0.42            151           71.3 301 
 PAM  SZ EP       1955 43.51                             150    0.0310 80.4  39 
 PAM  SN ES       1956  0.53                             150   -0.3210 80.4  39 
 PAM  SZ I        1956  2.70        10.3 0.50            154           80.4  39 
 RUS  HZ EP       1955 44.57                             144   -0.0810 98.0 175 
 RUS  HN ES       1956  3.41                             144    0.4710 98.0 175 
 RUS  HZ I        1956  4.08         3.5 0.40            144           98.0 175 
 NOR  HZ EP       1955 56.50                             118   -0.08 8  232 235 
 NOR  HN ES       1956 23.58                             118   -0.57 8  232 235 
 NOR  HZ I        1956 31.72         3.9 0.26            118            232 235 
 CHI  HZ EP       1955 58.56                             117    0.04 8  246 195 
 CHI  HN ES       1956 27.73                             117    0.12 8  246 195 
 CHI  HZ I        1956 33.87         1.9 0.56            117            246 195 
                                                                                
