 2010  112 1716 15.1 L   6.764 -72.971150.0  RSN  5 0.4 2.1LRSN                1
 GAP=315        0.74      10.7    14.7  9.8 -0.5901E+02  0.5056E+02  0.1412E+02E
 Epicentro: CEPITA - SANTANDER                                                 3
 ACTION:UP  10-08-24 09:43 OP:vdl  STATUS:               ID:20100112171615 L   I
 2010-01-12-1700-00S.COL___097                                                 6
 STAT SP IPHASW D HRMM SECON CODA AMPLIT PERI AZIMU VELO SNR AR TRES W  DIS CAZ7
 BAR2 SZ EP   1   1716 34.87                             168    -0.5 7   30 231 
 BAR2 SZ ES   2   1716 51.20                             168     0.0 5   30 231 
 RUS  BZ EP   1   1716 39.35                             145     0.3 7   97 187 
 RUS  BN ES   2   1716 57.89                             145     0.2 5   97 187 
 RUS  BZ I        1716 59.07         8.8 0.48                            97 187 
 CHI  HZ EP   1   1716 53.03                             118    -0.2 6  251 200 
 CHI  HN ES   2   1717 22.85                             118    -0.1 4  251 200 
 CHI  HZ I        1717 28.55         4.9 0.50                           251 200 
 RREF BZ EP   1   1717  3.75                             111     0.9 5  334 232 
 RREF BN ES   2   1717 40.03                             111     0.0 3  334 232 
 RREF BZ I        1717 45.80         5.7 0.28                           334 232 
 PRA  HZ EP   1   1717  9.21                             107    -0.3 4  399 212 
 PRA  HE ES   2   1717 51.16                             107    -0.8 3  399 212 
 PRA  HZ I        1717 56.03         8.1 0.29                           399 212 
                                                                                
