 2011  612 1046 43.2 L   6.747 -73.156153.9  RSN  5 0.3 1.7LRSN                1
 GAP=173        0.64       5.4     7.7  7.2 -0.2367E+02 -0.1068E+01 -0.2204E+01E
 Epicentro: LOS SANTOS - SANTANDER                                             3
 ACTION:UP  11-07-14 19:04 OP:ep   STATUS:               ID:20110612104643 L   I
 2011-06-12-1045-08S.COL___132                                                 6
 STAT SP IPHASW D HRMM SECON CODA AMPLIT PERI AZIMU VELO SNR AR TRES W  DIS CAZ7
 BAR2 SZ EP   1   1047  3.67                             173     0.0 8   17 190 
 BAR2 SZ ES   1   1047 19.51                             173    -0.2 8   17 190 
 BAR2 SZ I        1047 20.01         8.7 0.15                            17 190 
 BRR  HZ EP   1   1047  5.47                             153     0.1 8   73 303 
 BRR  HN ES   1   1047 22.53                             153    -0.1 8   73 303 
 BRR  HZ I        1047 26.27        10.6 0.19                            73 303 
 GRA  SZ EP   1   1047  9.39                             137    -0.3 7  132  17 
 GRA  SZ I        1047 10.80         5.6 0.28                           132  17 
 GRA  SZ ES       1047 30.65                             137     0.310  132  17 
 OCA  SZ EP   2   1047 12.82                             130     0.1 5  166 354 
 OCA  SZ ES   2   1047 34.92                             130    -0.8 5  166 354 
 OCA  SZ I        1047 37.22         6.4 0.18                           166 354 
 NOR  SN ES   2   1047 47.24                             121     0.4 4  230 235 
                                                                                
