 2010  912 1620 39.8 L   6.761 -73.086151.8  RSN  5 0.1 1.7LRSN                1
 GAP=166        0.34       3.0     5.1  4.5  0.1865E+01 -0.5895E+01 -0.2842E+01E
 Epicentro: LOS SANTOS - SANTANDER                                             3
 ACTION:UP  11-02-18 11:02 OP:tino STATUS:               ID:20100912162039 L   I
 2010-09-12-1616-08S.COL___120                                                 6
 STAT SP IPHASW D HRMM SECON CODA AMPLIT PERI AZIMU VELO SNR AR TRES W  DIS CAZ7
 BAR2 SZ EP   2   1621  0.18                             172     0.1 5   22 210 
 BAR2 SZ I        1621 10.64         8.6 0.45                            22 210 
 BAR2 SZ ES   2   1621 16.17                             172     0.2 5   22 210 
 BRR  HZ IP     C 1621  2.04                             151     0.010   79 299 
 BRR  HZ I        1621  2.28        13.0 0.15                            79 299 
 BRR  HE ES   1   1621 19.38                             151     0.0 7   79 299 
 RUS  HZ EP   2   1621  3.61                             146    -0.2 5   96 180 
 RUS  HE ES   2   1621 22.58                             146     0.0 5   96 180 
 GRA  SZ EP   2   1621  6.01                             138     0.2 5  128  14 
 GRA  SZ ES   2   1621 25.81                             138    -0.2 5  128  14 
 GRA  SZ I        1621 27.86         4.1 0.34                           128  14 
 OCA  SZ EP   2   1621  9.17                             130     0.1 5  165 351 
 OCA  SZ I        1621 36.99         6.2 0.23                           165 351 
                                                                                
