 2017 1112 1341 28.9 L   6.799 -73.155142.7  RSN 15 0.5 2.0LRSN                1
 GAP= 65        0.89       2.5     3.0  4.9 -0.3974E+00  0.2930E+01  0.5425E+00E
 Epicentro: LOS SANTOS - SANTANDER                                             3
 ACTION:UPD 17-12-12 19:54 OP:rebc STATUS:               ID:20171112134128 L   I
 OLDACT:UP  17-11-12 23:53 OP:mg   STATUS:               ID:20171112133738     3
 OLDACT:UP  17-11-12 23:53 OP:mg   STATUS:               ID:20171112133738     3
 OLDACT:REG 17-11-12 21:22 OP:mg   STATUS:               ID:20171112133738     3
 2017-11-12-1338-00M.COL___453                                                 6
 STAT SP IPHASW D HRMM SECON CODA AMPLIT PERI AZIMU VELO AIN AR TRES W  DIS CAZ7
 BAR2 EZ EP       1341 47.87                             170   -0.2410 23.0 188 
 BAR2 EZ ES   2   1342  3.44                             170    0.32 5 23.0 188 
 BAR2 EZ I        1342  5.60        26.8 0.28            168           23.0 188 
 BRR  HZ EP       1341 49.68                             152    0.0610 70.4 299 
 BRR  HN ES       1342  6.29                             152    0.4710 70.4 299 
 BRR  HZ I        1342 10.07        21.3 0.33            152           70.4 299 
 PAM  EZ EP       1341 50.84                             150    0.0510 78.2  40 
 PAM  EN ES       1342  7.84                             150   -0.0610 78.2  40 
 PAM  EZ I        1342 10.20        15.8 0.38            156           78.2  40 
 RUS  HZ EP   2   1341 52.23                             143   -0.07 5  101 175 
 RUS  HN ES       1342 10.45                             143   -0.1310  101 175 
 RUS  HZ I        1342 12.00        12.1 0.26            144            101 175 
 PTB  HZ EP       1341 54.57                             132   -0.90 9  147 259 
 PTB  HN ES   1   1342 15.41                             132   -0.83 7  147 259 
 PTB  HZ I        1342 20.24         8.7 0.26            132            147 259 
 TAM  HZ EP       1341 56.42                             130    0.04 9  156 105 
 SPBC HZ EP   1   1341 57.09                             129    0.05 7  162 219 
 SPBC HN ES   1   1342 18.85                             129   -0.18 7  162 219 
 SPBC HZ I        1342 25.07        14.8 0.09            129            162 219 
 YPLC HN ES   1   1342 22.37                             126    0.82 7  177 151 
 YPLC HZ I        1342 25.23        16.8 0.26            129            177 151 
 ZAR  HZ EP       1342  1.35                             122    0.34 9  203 292 
 ZAR  HN ES       1342 26.10                             122    0.02 9  203 292 
 ZAR  HZ I        1342 33.19        11.1 0.14            123            203 292 
 NOR  HZ EP   1   1342  3.98                             118   -0.32 6  234 234 
 NOR  HZ E        1342  3.98                                            234 234 
 NOR  HN ES       1342 32.30                             118    0.35 8  234 234 
 NOR  HZ I        1342 35.23        10.1 0.34            119            234 234 
 CHI  HZ EP       1342  6.22                             117   -0.12 8  248 195 
 CHI  HN ES   1   1342 35.01                             117   -0.56 6  248 195 
 CHI  HZ I        1342 41.89         5.6 0.38            118            248 195 
 DRL03HZ EP       1342 10.67                             113    0.35 7  289 353 
 DRL03HN ES       1342 42.59                             113   -0.08 7  289 353 
 GUY2CHZ EP   2   1342 13.16                             112    0.95 4  300 235 
 GUY2CHN ES   3   1342 49.82                             112    3.79 2  300 235 
 GUY2CHZ I        1342 55.75         8.0 0.66                           300 235 
 DBB  EZ EP       1342 15.70                             109   -0.39 7  338 274 
 DBB  EN ES   2   1342 53.85                             109    0.92 3  338 274 
 DBB  EZ I        1343  2.00         2.7 0.06            110            338 274 
 PRA  HZ EP   1   1342 22.39                             106    0.20 4  391 209 
 PRA  HN ES       1343  4.34                             106    0.54 6  391 209 
 PRA  HZ I        1343 10.51         6.9 0.30            107            391 209 
                                                                                
