 2010  612 1531 36.7 L   6.799 -73.058144.1  RSN  7 0.4 1.8LRSN                1
 GAP=166        0.81       4.9    20.4  8.8 -0.3781E+02 -0.2262E+02 -0.2026E+01E
 Epicentro: LOS SANTOS - SANTANDER                                             3
 ACTION:UP  10-08-24 10:09 OP:vdl  STATUS:               ID:20100612153136 L   I
 2010-06-12-1528-13S.COL___117                                                 6
 STAT SP IPHASW D HRMM SECON CODA AMPLIT PERI AZIMU VELO SNR AR TRES W  DIS CAZ7
 BAR2 SZ EP   1   1531 56.10                             169    -0.1 7   27 211 
 BAR2 SZ ES   2   1532 10.52                             169    -0.9 5   27 211 
 GIR2 SZ EP   1   1531 57.03                             166     0.8 7   34 334 
 GIR2 SZ ES   2   1532 11.67                             166     0.2 5   34 334 
 RUS  HZ EP   1   1532  0.37                             143     0.1 7  100 182 
 RUS  HN ES   2   1532 18.56                             143    -0.1 5  100 182 
 RUS  HZ I        1532 19.97         8.3 0.40                           100 182 
 BRI  SZ EP   1   1532  0.58                             142     0.4 7  105  16 
 BRI  SZ ES   2   1532 19.02                             142     0.5 5  105  16 
 GUE  SZ EP   1   1532  0.91                             139    -0.2 7  115   7 
 GUE  SZ ES   2   1532 20.28                             139     0.1 5  115   7 
 GRA  SZ EP   1   1532  0.89                             137    -0.7 7  123  13 
 GRA  SZ ES   2   1532 20.58                             137    -0.4 5  123  13 
 OCA  SZ EP   1   1532  4.71                             129    -0.3 7  162 350 
 OCA  SZ ES   2   1532 27.26                             129     0.2 5  162 350 
 OCA  SZ I        1532 29.73        11.6 0.41                           162 350 
                                                                                
