 2013  712 1336  4.2 L   6.772 -73.175147.9  RSN  7 0.6 1.9LRSN                1
 GAP=156        1.35       6.5     7.8  8.8 -0.1289E+01  0.1147E+01  0.1564E+01E
 Epicentro: LOS SANTOS - SANTANDER                                             3
 ACTION:UPD 13-08-12 10:37 OP:ep   STATUS:               ID:20130712133604 L   I
 OLDACT:REG 13-07-12 16:10 OP:stll STATUS:               ID:20130712132851     3
 2013-07-12-1328-51M.COL___213                                                 6
 STAT SP IPHASW D HRMM SECON CODA AMPLIT PERI AZIMU VELO AIN AR TRES W  DIS CAZ7
 BAR2 SZ EP       1336 24.06                             172    0.0110 19.9 182 
 BAR2 SZ ES       1336 38.62                             172   -0.9010 19.9 182 
 BAR2 SZ I        1336 42.58         5.8 0.14            169           19.9 182 
 GIR2 SZ EP       1336 23.68                             166   -0.5510 34.0 357 
 BRR  HZ EP       1336 25.99                             153    0.4510 70.0 302 
 BRR  HN ES       1336 42.78                             153    0.6110 70.0 302 
 BRR  HN I        1336 44.38        24.1 0.22            151           70.0 302 
 RUS  HZ EP       1336 28.25                             145    0.2610 97.7 174 
 RUS  HN ES       1336 47.17                             145    0.6410 97.7 174 
 GRA  SZ EP       1336 29.99                             137   -0.0010  130  18 
 PTB  HZ EP       1336 30.51                             133   -0.52 9  144 260 
 PTB  HN ES       1336 51.95                             133    0.00 9  144 260 
 PTB  HN I        1336 57.54        23.4 0.36            132            144 260 
 PRA  HZ EP       1336 58.19                             107    0.87 6  388 209 
 PRA  HN ES       1337 37.69                             107   -1.04 6  388 209 
 PRA  HN I        1337 44.86         1.9 0.34            108            388 209 
                                                                                
