 2016  912 1547 21.2 L   6.808 -73.154147.5  RSN 15 0.5 2.4LRSN                1
 GAP=135        1.02       3.6     3.8  5.6 -0.1210E+01  0.5387E+01  0.2745E+01E
 Epicentro: LOS SANTOS - SANTANDER                                             3
 ACTION:UPD 17-08-17 21:09 OP:lp   STATUS:               ID:20160912154721 L   I
 OLDACT:REG 16-09-12 20:31 OP:dnl  STATUS:               ID:20160912153739     3
 2016-09-12-1538-00M.COL___312                                                 6
 STAT SP IPHASW D HRMM SECON CODA AMPLIT PERI AZIMU VELO AIN AR TRES W  DIS CAZ7
 BAR2 EZ EP       1547 41.00                             170   -0.1010 24.1 188 
 BAR2 EZ ES       1547 56.14                             170   -0.4410 24.1 188 
 BAR2 EZ I        1547 57.62        55.5 0.16            171           24.1 188 
 BRR  HZ IP       1547 42.79                             153    0.2810 70.0 298 
 BRR  HN ES       1547 59.89                             153    0.7910 70.0 298 
 BRR  HZ I        1548  3.04        42.4 0.28            150           70.0 298 
 PAM  EZ EP       1547 43.97                             151    0.3410 77.2  40 
 PAM  EE ES       1548  1.27                             151    0.1710 77.2  40 
 PAM  EZ I        1548  3.25        20.4 0.24            152           77.2  40 
 RUS  HZ EP       1547 45.01                             144   -0.2210  102 176 
 RUS  HN ES       1548  3.80                             144   -0.1510  102 176 
 RUS  HZ I        1548  4.77        20.2 0.20            146            102 176 
 PTB  HZ EP       1547 47.66                             133   -0.63 9  147 258 
 PTB  HN ES       1548  8.92                             133   -0.47 9  147 258 
 PTB  HZ I        1548 15.76        35.0 0.48            131            147 258 
 SPBC HZ EP       1547 49.97                             129    0.08 9  163 219 
 SPBC HN ES       1548 12.00                             129   -0.24 9  163 219 
 SPBC HZ I        1548 14.58        50.2 0.34            129            163 219 
 ZAR  HZ EP       1547 53.27                             123   -0.41 9  203 292 
 ZAR  HE ES       1548 18.45                             123   -0.53 9  203 292 
 ZAR  HZ I        1548 24.32        28.6 0.36            122            203 292 
 NOR  HZ EP       1547 57.13                             119    0.08 8  235 234 
 NOR  HN ES       1548 25.15                             119    0.16 8  235 234 
 NOR  HZ I        1548 27.53        24.0 0.16            119            235 234 
 CHI  HZ EP       1547 59.24                             117    0.13 8  249 195 
 CHI  HE ES       1548 29.21                             117    0.57 8  249 195 
 CHI  HZ I        1548 31.84        12.7 0.40            118            249 195 
 HEL  HZ EP   2   1548  2.87                             115    1.40 4  271 256 
 HEL  HE ES       1548 33.57                             115    0.72 8  271 256 
 HEL  HZ I        1548 38.61        12.5 0.34            115            271 256 
 URE  HZ EP   2   1548  1.60                             114   -0.67 4  283 292 
 URE  HN ES   4   1548 32.86                             114   -1.41 0  283 292 
 URE  HZ I        1548 42.89        13.6 0.18            113            283 292 
 GUY2CHZ EP   9   1548  6.27                             113    1.36 0  301 235 
 GUY2CHE ES       1548 40.89                                    0.56 7  301 235 
 GUY2CHZ I        1548 46.21         9.4 0.62                           301 235 
 PTGC HZ EP   4   1548  4.27                             112   -1.04 0  310 159 
 PTGC HN ES   4   1548 37.58                             112   -2.10 0  310 159 
 PTGC HZ I        1548 43.19        16.4 0.28            113            310 159 
 SJC  HZ EP   4   1548 15.06                             106   -1.65 0  408 327 
 SJC  HE ES   4   1548 58.38                             106   -1.60 0  408 327 
 SJC  HZ I        1549  3.90         4.2 0.30            106            408 327 
 CRJC HZ EP   4   1548 21.45                             104   -2.24 0  467   4 
 CRJC HN ES   4   1549  8.46                             104   -3.93 0  467   4 
 CRJC HZ I        1549 17.61        10.4 0.56            104            467   4 
                                                                                
