 2010 1112 1016 31.2 L   6.792 -73.150137.0  RSN  9 0.3 1.8LRSN                1
 GAP=158        0.63       3.5     4.7  4.5 -0.4390E+01  0.7761E+01  0.5493E-01E
 Epicentro: LOS SANTOS - SANTANDER                                             3
 ACTION:UP  10-12-17 16:52 OP:REBC STATUS:               ID:20101112101631 L   I
 2010-11-12-1014-25S.COL___128                                                 6
 STAT SP IPHASW D HRMM SECON CODA AMPLIT PERI AZIMU VELO SNR AR TRES W  DIS CAZ7
 BTL  SZ EP       1016 49.89                             172     0.210   19 317 
 BTL  SZ ES       1017  3.98                             172    -0.210   19 317 
 BAR2 SZ EP       1016 49.71                             170    -0.110   22 190 
 BAR2 SZ ES       1017  4.60                             170     0.310   22 190 
 BAR2 SZ I        1017  6.01        22.0 0.17                            22 190 
 RUS  HZ EP   1   1016 54.14                             142     0.1 7  100 176 
 RUS  HN ES   1   1017 11.41                             142    -0.5 7  100 176 
 RUS  HZ I        1017 13.63         5.2 0.27                           100 176 
 GRA  SZ EP   1   1016 55.62                             135    -0.2 7  127  18 
 GRA  SZ I        1016 57.00        11.7 0.15                           127  18 
 OCA  SZ ES   2   1017 20.62                             127     0.0 5  161 353 
 NOR  SZ EP   2   1017  6.06                             117    -0.3 4  234 235 
 NOR  SE ES   1   1017 33.51                             117    -0.3 6  234 235 
 CHI  HE ES   2   1017 38.09                             115     0.8 4  248 195 
 CHI  HZ I        1017 43.91         2.9 0.25                           248 195 
 HEL  HZ EP   1   1017 11.28                             113     0.4 6  271 256 
 HEL  HN ES   1   1017 41.93                             113     0.0 6  271 256 
 HEL  HZ I        1017 48.99         6.4 0.35                           271 256 
 PRA  HZ EP   1   1017 24.05                             105    -0.3 4  391 210 
                                                                                
