 2016 1212 1134 19.0 L   6.980 -73.240130.8  RSN  4 0.5 1.5LRSN                1
 GAP=244        1.25      13.1     8.6 11.4  0.5115E+02  0.2181E+02 -0.6863E+01E
 Epicentro: BETULIA - SANTANDER                                                3
 ACTION:UPD 17-01-11 20:14 OP:rebc STATUS:               ID:20161212113419 L   I
 OLDACT:REG 16-12-12 20:27 OP:ar   STATUS:               ID:20161212112747     3
 2016-12-12-1128-00M.COL___361                                                 6
 STAT SP IPHASW D HRMM SECON CODA AMPLIT PERI AZIMU VELO AIN AR TRES W  DIS CAZ7
 BAR2 EZ EP       1134 37.38                             161   -0.0910 43.4 172 
 BAR2 EZ ES       1134 51.32                             161   -0.5610 43.4 172 
 BAR2 EZ I        1134 53.37        11.9 0.20            154           43.4 172 
 BRR  HZ EP       1134 37.84                             156    0.2410 54.0 285 
 BRR  HE ES       1134 52.76                             156    0.6610 54.0 285 
 PTB  HZ EP       1134 44.65                             129    0.31 9  143 250 
 PTB  HN ES       1135  4.33                             129    0.22 9  143 250 
 PTB  HZ I        1135  8.73         2.9 0.12            127            143 250 
 ZAR  HZ ES       1135 11.04                             121   -0.94 9  187 288 
                                                                                
