 2011  912 1207  9.6 L   6.687 -73.231147.5  RSN  5 0.4 1.6LRSN                1
 GAP=148        0.68      12.6    13.1  9.4  0.1269E+03 -0.9731E+01 -0.2623E+02E
 Epicentro: BARICHARA - SANTANDER                                              3
 ACTION:UPD 12-07-13 15:57 OP:ep   STATUS:               ID:20110912120709 L   I
 2011-09-12-1200-00M.COL___169                                                 6
 STAT SP IPHASW D HRMM SECON CODA AMPLIT PERI AZIMU VELO AIN AR TRES W  DIS CAZ7
 BAR2 SZ EP   1   12 7 29.31                             175    0.04 7 11.7 153 
 BAR2 SZ ES   1   12 7 44.20                             175   -0.41 7 11.7 153 
 BAR2 SZ I        12 7 46.69         8.2 0.39                          11.7 153 
 GIR2 SZ EP   2   12 7 29.42                             163   -0.45 5 43.5   5 
 BRR  HZ EP   1   12 7 31.20                             153    0.28 7 70.6 311 
 BRR  HE ES   1   12 7 47.94                             153    0.41 7 70.6 311 
 BRR  HZ I        12 7 49.21         6.5 0.08                          70.6 311 
 RUS  HN ES   2   12 7 51.12                             147    0.31 5 89.3 169 
 ZAR  HN ES   2   12 8  6.17                             123   -0.77 4  201 296 
                                                                                
