 2013  312 1755 58.9 L   6.945 -73.225132.0  RSN  5 0.2 1.7LRSN                1
 GAP=244        0.56       4.7     4.1  4.6  0.8909E+01  0.1520E+01 -0.1330E+01E
 Epicentro: BETULIA - SANTANDER                                                3
 ACTION:UPD 13-04-09 14:02 OP:ep   STATUS:               ID:20130312175558 L   I
 2013-03-12-1750-00M.COL___231                                                 6
 STAT SP IPHASW D HRMM SECON CODA AMPLIT PERI AZIMU VELO AIN AR TRES W  DIS CAZ7
 BAR2 SZ EP       1756 17.25                             163   -0.1410 39.3 173 
 BAR2 SZ ES       1756 31.87                             163    0.0910 39.3 173 
 BAR2 SZ I        1756 33.00        36.3 0.38            165           39.3 173 
 BRR  HZ EP       1756 17.56                             155   -0.2510 56.7 288 
 BRR  HE ES       1756 32.65                             155    0.1310 56.7 288 
 BRR  HE I        1756 33.26        12.9 0.16            137           56.7 288 
 RUS  HZ EP   1   1756 22.78                             136    0.05 7  117 172 
 RUS  HN ES   1   1756 41.46                             136    0.17 7  117 172 
 PTB  HZ EP   1   1756 24.09                             130   -0.31 7  143 252 
 PTB  HN ES       1756 44.19                             130   -0.07 9  143 252 
 PTB  HZ I        1756 45.55         3.8 0.19            116            143 252 
 ZAR  HZ EP   1   1756 29.69                             121    0.62 7  190 289 
 ZAR  HZ I        1756 55.42         3.4 0.30            106            190 289 
                                                                                
