 2015  912 1617  6.4 L   6.743 -73.158136.0  RSN  7 0.3 1.9LRSN                1
 GAP=138        0.76       3.1     3.2  5.0 -0.4194E+00  0.4316E+01 -0.4467E+00E
 Epicentro: LOS SANTOS - SANTANDER                                             3
 ACTION:UPD 15-10-28 16:25 OP:cam  STATUS:               ID:20150912161706 L   I
 OLDACT:DUP 15-09-13 01:00 OP:stll STATUS:               ID:20150912160751d    3
 2015-09-12-1607-50M.COL___335                                                 6
 STAT SP IPHASW D HRMM SECON CODA AMPLIT PERI AZIMU VELO AIN AR TRES W  DIS CAZ7
 BAR2 EZ EP     D 1617 24.94                             173    0.1710 16.8 189 
 BAR2 EZ I        1617 25.03        17.9 0.40            172           16.8 189 
 BAR2 EZ ES       1617 39.06                             173   -0.0110 16.8 189 
 BRR  HZ EP       1617 26.95                             150    0.2910 73.3 303 
 BRR  HZ I        1617 27.16        25.4 0.26            149           73.3 303 
 BRR  HN ES       1617 42.87                             150    0.4310 73.3 303 
 PAM  EZ EP       1617 28.06                             147    0.0710 83.2  37 
 PAM  EN ES       1617 44.40                             147   -0.4110 83.2  37 
 PAM  EZ I        1617 47.54         9.7 0.42            150           83.2  37 
 RUS  HZ EP       1617 28.67                             143   -0.1010 94.3 175 
 RUS  HE ES       1617 46.31                             143    0.1110 94.3 175 
 RUS  HZ I        1617 47.79         8.4 0.44            146           94.3 175 
 PTB  HZ EP       1617 32.04                             130   -0.36 9  145 261 
 PTB  HN ES       1617 52.02                             130   -0.62 9  145 261 
 PTB  HZ I        1617 55.30        13.2 0.14            130            145 261 
 SPBC HZ EP   1   1617 34.04                             128    0.40 7  157 220 
 SPBC HN ES       1617 54.89                             128    0.03 9  157 220 
 SPBC HZ I        1617 58.99        12.7 0.22            129            157 220 
 ZAR  HZ EP       1617 38.32                             120   -0.07 8  205 294 
 ZAR  HN ES       1618  3.54                             120    0.22 8  205 294 
 ZAR  HZ I        1618 10.22         8.3 0.28            121            205 294 
                                                                                
