 2016  612 1530 22.7 L   7.362 -73.726 46.4  RSN 20 0.5 2.9LRSN                1
 GAP= 66        1.10       2.1     2.1  6.1 -0.3899E+00  0.3197E+01 -0.6422E+00E
 Epicentro: PUERTO WILCHES - SANTANDER                                         3
 ACTION:UPD 16-07-21 22:18 OP:rebc STATUS:               ID:20160612153022 L   I
 OLDACT:UP  16-06-13 00:52 OP:edw  STATUS:               ID:20160612152744     3
 OLDACT:REG 16-06-12 21:06 OP:edw  STATUS:               ID:20160612152744     3
 2016-06-12-1527-44M.COL___325                                                 6
 STAT SP IPHASW D HRMM SECON CODA AMPLIT PERI AZIMU VELO AIN AR TRES W  DIS CAZ7
 BRR  HZ EP     C 1530 30.36                             143   -0.2910 28.3 177 
 BRR  HN ES       1530 37.19                             143    0.3310 28.3 177 
 BRR  HZ I        1530 38.14       531.1 0.26                          28.3 177 
 BAR2 EZ EP     D 1530 38.95                             102   -0.1910  104 145 
 BAR2 EZ ES       1530 51.73                             102   -0.2610  104 145 
 BAR2 EZ I        1530 52.86       352.7 0.14                           104 145 
 OCA  HZ EP     C 1530 38.68                             101   -0.6710  107  25 
 OCA  HE ES       1530 51.96                             101   -0.4010  107  25 
 OCA  HZ I        1530 52.82       623.6 0.30                           107  25 
 PAM  EZ EP       1530 40.80                             100    0.2410  113  91 
 PAM  EN ES       1530 54.91                             100    0.4010  113  91 
 PAM  EZ I        1530 57.04       714.6 0.60                           113  91 
 PTB  HZ EP   4 D 1530 38.98                              99   -2.00 0  122 222 
 PTB  HN ES   4   1530 51.96                              99   -3.30 0  122 222 
 PTB  HZ I        1530 52.25       225.0 0.18                           122 222 
 RUS  HZ EP       1530 48.71                              94    0.30 9  177 156 
 RUS  HE ES       1531  8.71                              94    0.23 9  177 156 
 RUS  HZ I        1531 10.40       123.8 0.62                           177 156 
 SPBC HZ EP   4   1530 48.56                              94   -1.28 0  193 191 
 SPBC HE ES       1531 10.23                              94   -0.79 9  193 191 
 URE  HZ EP       1530 51.25                              93    0.15 9  204 282 
 URE  HN ES       1531 13.93                              93    0.66 9  204 282 
 URE  HZ I        1531 15.97       133.7 0.36                           204 282 
 NOR  HZ EP       1530 54.61                              93   -0.45 8  236 213 
 NOR  HN ES       1531 20.21                              93   -0.11 8  236 213 
 NOR  HZ I        1531 22.97        73.2 0.46                           236 213 
 TAM  HZ EP       1530 55.40                              93    0.17 8  237 115 
 TAM  HE ES       1531 20.57                              93   -0.05 8  237 115 
 DBB  SZ EP       1531  1.34                              92    1.15 7  277 262 
 DBB  SZ ES       1531 28.83                              92   -0.61 7  277 262 
 DBB  SZ I        1531 38.32       142.0 0.44                           277 262 
 GUY2CHZ EP       1531  3.43                              92    0.17 7  298 218 
 GUY2CHE ES       1531 33.23                              92   -1.68 7  298 218 
 CBOC HN ES       1531 35.45                              92    0.26 7  302 237 
 CBOC HZ I        1531 45.96        24.9 0.66                           302 237 
 CHI  HZ EP       1531  3.92                              92    0.22 7  302 180 
 CHI  HE ES       1531 36.10                              92    0.40 7  302 180 
 CHI  HZ I        1531 42.54        17.4 0.28                           302 180 
 CBOC HZ EP       1531  4.35                              92    0.94 7  302 237 
 SJC  HZ EP       1531  6.02                              92    0.21 7  323 330 
 SJC  HN ES       1531 39.19                              92   -0.26 7  323 330 
 ELA  HZ EP       1531  7.55                              92   -0.09 7  333 214 
 ELA  HN ES       1531 42.35                              92   -0.36 7  333 214 
 ELA  HZ I        1531 49.79        38.5 0.32                           333 214 
 VIL  SZ EP   4   1531 13.67                              91    3.24 0  359 179 
 VIL  SE ES   4   1531 52.68                              91    5.01 0  359 179 
 ANIL HZ EP       1531 11.89                              91    0.23 6  368 210 
 ANIL HN ES       1531 50.16                              91    0.30 6  368 210 
 ANIL HZ I        1531 56.56        45.5 0.38                           368 210 
 PTGC HZ EP   4   1531 12.21                              91   -2.05 0  392 153 
 PTGC HN ES   4   1531 54.27                              91   -0.22 0  392 153 
 CRJC HZ EP       1531 17.20                              91   -0.04 6  415  13 
 CRJC HN ES   4   1531 56.57                              91   -3.23 0  415  13 
 CRJC HZ I        1532  3.22        31.7 0.24                           415  13 
 ORTC HZ EP   4   1531 17.66                              91    0.20 0  417 204 
 ORTC HN ES       1532  0.12                              91   -0.07 5  417 204 
 ORTC HZ I        1532  4.72        16.3 0.34                           417 204 
 PRA  HZ EP       1531 18.74                              91    0.53 5  423 198 
 PRA  HN ES       1532  2.05                              91    0.52 5  423 198 
 PRA  HZ I        1532 15.44        14.0 0.32                           423 198 
                                                                                
