 2015  112 1537  7.0 L   6.849 -73.300125.8  RSN 10 0.5 2.1LRSN                1
 GAP=105        1.06       3.4     3.9  6.2 -0.1729E+01  0.9681E+01 -0.1109E+01E
 Epicentro: ZAPATOCA - SANTANDER                                               3
 ACTION:UPD 15-03-02 15:39 OP:nd   STATUS:               ID:20150112153707 L   I
 OLDACT:UP  15-01-13 00:40 OP:mh   STATUS:               ID:20150112152745     3
 OLDACT:UP  15-01-13 00:40 OP:mh   STATUS:               ID:20150112152745     3
 OLDACT:UP  15-01-13 00:39 OP:mh   STATUS:               ID:20150112152745     3
 OLDACT:REG 15-01-12 20:34 OP:mh   STATUS:               ID:20150112152745     3
 2015-01-12-1527-45M.COL___259                                                 6
 STAT SP IPHASW D HRMM SECON CODA AMPLIT PERI AZIMU VELO AIN AR TRES W  DIS CAZ7
 BAR2 EZ EP     D 1537 25.09                             165    0.5910 31.2 155 
 BAR2 EZ ES       1537 37.51                             165   -0.6010 31.2 155 
 BAR2 EZ I        1537 39.42        61.8 0.26            168           31.2 155 
 BRR  HZ EP       1537 25.41                             155    0.3310 53.7 302 
 BRR  HN ES       1537 38.87                             155   -0.2710 53.7 302 
 BRR  HZ I        1537 40.86        26.8 0.58            154           53.7 302 
 PAM  SN ES       1537 44.53                             144    0.6110 85.7  51 
 PAM  SZ I        1537 46.51        17.3 0.26            146           85.7  51 
 RUS  HZ EP       1537 29.39                             137   -0.1510  108 167 
 RUS  HN ES   1   1537 47.00                             137   -0.07 7  108 167 
 RUS  HZ I        1537 48.52         7.4 0.30            139            108 167 
 PTB  HZ EP   1   1537 30.07                             130   -0.93 7  132 255 
 PTB  HN ES       1537 50.19                             130    0.5110  132 255 
 PTB  HZ I        1537 52.30        18.9 0.20            131            132 255 
 OCA  HZ EP   1   1537 32.62                             126   -0.62 7  154 359 
 OCA  HN ES       1537 53.36                             126   -0.31 9  154 359 
 OCA  HZ I        1537 54.56        17.3 0.22            127            154 359 
 ZAR  HZ EP       1537 36.86                             120    0.49 9  186 293 
 ZAR  HN ES       1537 59.21                             120   -0.04 9  186 293 
 ZAR  HZ I        1538  2.24        18.2 0.36            121            186 293 
 NOR  HZ EP       1537 39.99                             115   -0.57 8  224 231 
 NOR  HN ES   1   1538  6.59                             115   -0.11 6  224 231 
 NOR  HZ I        1538  8.89         7.9 0.14            116            224 231 
 SML  HZ EP       1537 41.55                             114    0.21 8  232 339 
 SML  HN ES   1   1538  7.46                             114   -0.62 6  232 339 
 SML  HZ I        1538 12.89        27.5 0.10            115            232 339 
 HEL  HZ EP       1537 44.85                             112    0.24 8  257 254 
 HEL  HN ES       1538 14.12                             112    0.20 8  257 254 
 HEL  HZ I        1538 17.97         5.1 0.24            113            257 254 
                                                                                
