 2013  212 1039 21.4 L   6.654 -73.358147.3  RSN  9 0.5 2.3LRSN                1
 GAP= 68        1.25       4.0     4.7  7.4  0.1056E-01  0.1134E+02  0.3094E+01E
 Epicentro: GALAN - SANTANDER                                                  3
 ACTION:UPD 13-03-12 09:32 OP:ep   STATUS:               ID:20130212103921 L   I
 2013-02-12-1038-50M.COL___175                                                 6
 STAT SP IPHASW D HRMM SECON CODA AMPLIT PERI AZIMU VELO AIN AR TRES W  DIS CAZ7
 BAR2 SZ EP       1039 40.95                             172   -0.2210 20.5 109 
 BAR2 SZ ES       1039 56.54                             172   -0.0410 20.5 109 
 BAR2 SZ I        1039 57.68        40.4 0.38            174           20.5 109 
 BRR  HZ IP     C 1039 42.45                             155    0.1310 63.6 322 
 BRR  HN ES       1039 59.63                             155    1.0010 63.6 322 
 BRR  HN I        1040  0.05        62.1 0.18            155           63.6 322 
 RUS  HZ IP     C 1039 44.17                             147   -0.3710 89.5 160 
 RUS  HN ES       1040  2.06                             147   -0.5310 89.5 160 
 RUS  HN I        1040  2.40        26.2 0.28            148           89.5 160 
 PAM  SZ EP       1039 46.14                             143    0.5110  105  44 
 PAM  SN ES       1040  4.62                             143    0.0910  105  44 
 PAM  SN I        1040  5.76        21.3 0.34            144            105  44 
 PTB  HZ EP       1039 45.54                             138   -0.7610  122 264 
 PTB  HN ES   1   1040  4.82                             138   -0.89 7  122 264 
 PTB  HN I        1040  5.15        38.2 0.26            138            122 264 
 OCA  HZ EP   1   1039 51.24                             127   -0.03 7  175   1 
 OCA  HN ES       1040 14.10                             127   -0.47 9  175   1 
 ZAR  HZ EP       1039 52.20                             125   -0.32 9  190 299 
 ZAR  HN ES       1040 16.83                             125    0.04 9  190 299 
 ZAR  HN I        1040 17.84        29.5 0.10            125            190 299 
 CHI  HZ EP       1039 57.21                             120    0.27 8  228 191 
 CHI  HN ES       1040 25.43                             120    0.78 8  228 191 
 HEL  HZ EP       1039 59.59                             118    0.79 8  246 258 
 HEL  HN ES       1040 28.00                             118    0.03 8  246 258 
 HEL  HN I        1040 34.82        10.6 0.32            118            246 258 
                                                                                
