 2011  812 1634 26.8 L   6.761 -73.120140.0  RSN  4 0.1 1.7LRSN                1
 GAP=237        0.32       3.0     4.2  4.0  0.6428E+01 -0.1959E+01 -0.3725E+00E
 Epicentro: LOS SANTOS - SANTANDER                                             3
 ACTION:UPD 12-07-25 14:08 OP:epov STATUS:               ID:20110812163426 L   I
 2011-08-12-1632-01S.COL___150                                                 6
 STAT SP IPHASW D HRMM SECON CODA AMPLIT PERI AZIMU VELO AIN AR TRES W  DIS CAZ7
 BAR2 SZ EP       1634 45.58                             171   -0.0710 19.9 200 
 BAR2 SZ ES   2   1635  0.30                             171   -0.07 5 19.9 200 
 BRR  HZ EP       1634 47.52                             150   -0.0710 75.8 300 
 BRR  HE ES   1   1635  3.94                             150    0.13 7 75.8 300 
 BRR  HZ I        1635  9.60        15.5 0.50                          75.8 300 
 RUS  HZ EP       1634 49.75                             144    0.1110 96.1 178 
 RUS  HN ES   1   1635  7.46                             144   -0.01 7 96.1 178 
 RUS  HZ I        1635  9.62         6.4 0.30                          96.1 178 
 NOR  SE ES   2   1635 29.71                             117   -0.06 4  235 236 
                                                                                
