 2010  512 1634 39.8 L   6.776 -73.062148.3  RSN  5 0.3 1.6LRSN                1
 GAP=174        0.56       4.6     9.3  7.0 -0.1241E+01 -0.5012E+01  0.6958E+00E
 Epicentro: LOS SANTOS - SANTANDER                                             3
 ACTION:UP  10-08-24 10:04 OP:vdl  STATUS:               ID:20100512163439 L   I
 2010-05-12-1633-36S.COL___104                                                 6
 STAT SP IPHASW D HRMM SECON CODA AMPLIT PERI AZIMU VELO AIN AR TRES W  DIS CAZ7
 BAR2 SZ EP   1   1634 59.41                             170    -0.3 7   24 214 
 BAR2 SZ ES   2   1635 14.84                             170    -0.5 5   24 214 
 BRR  HZ EP   1   1635  1.87                             150     0.1 7   81 297 
 BRR  HN ES   2   1635 19.23                             150     0.3 5   81 297 
 RUS  HZ EP   1   1635  3.62                             145     0.0 7   98 181 
 RUS  HN ES   2   1635 22.69                             145     0.5 5   98 181 
 RUS  HZ I        1635 23.17         5.0 0.25                            98 181 
 GUE  SZ EP   1   1635  4.92                             139     0.1 7  118   7 
 PRA  HZ EP   1   1635 33.96                             107     0.3 4  394 211 
 PRA  HN ES   2   1636 15.03                             107    -0.7 3  394 211 
 PRA  HZ I        1636 19.47         1.6 0.70                           394 211 
                                                                                
