 2016  812 1458 41.9 L   5.976 -74.167 10.4  RSN  6 0.4 1.4LRSN                1
 GAP= 85        1.03       2.9     2.2  5.5 -0.5932E+00  0.1261E+01  0.6387E+01E
 Epicentro: LA BELLEZA - SANTANDER                                             3
 ACTION:UPD 16-10-29 15:34 OP:rebc STATUS:               ID:20160812145841 L   I
 OLDACT:REG 16-08-12 20:41 OP:lv   STATUS:               ID:20160812145759     3
 2016-08-12-1457-59S.COL___349                                                 6
 STAT SP IPHASW D HRMM SECON CODA AMPLIT PERI AZIMU VELO AIN AR TRES W  DIS CAZ7
 PTB  HZ IP     D 1458 53.32                              97    0.1610 70.1 333 
 PTB  HN ES       1459  2.34                              97    0.3810 70.1 333 
 PTB  HZ I        1459  2.56        31.3 0.20                          70.1 333 
 NOR  HZ EP       1458 56.56                              95    0.3310 90.2 240 
 NOR  HE ES       1459  7.31                              95   -0.1110 90.2 240 
 NOR  HZ I        1459  8.44        11.6 0.16                          90.2 240 
 RUS  HZ EP       1459  0.51                              94   -0.7410  120  94 
 RUS  HE ES   4   1459 14.13                              94   -2.23 0  120  94 
 RUS  HZ I        1459 15.47        10.6 0.19                           120  94 
 BAR2 EZ EP       1459  2.26                              94    0.0410  129  58 
 BAR2 EZ ES       1459 18.09                              94    0.0110  129  58 
 BAR2 EZ I        1459 22.91         3.5 0.29                           129  58 
 HEL  HZ EP       1459  6.21                              56    0.20 9  153 279 
 HEL  HN ES       1459 24.08                              56   -0.74 9  153 279 
 HEL  HZ I        1459 25.65         6.1 0.22                           153 279 
 CHI  HN ES       1459 26.39                              56    0.44 9  156 162 
 CHI  HZ I        1459 34.09         1.8 0.11                           156 162 
                                                                                
