 2012  612 1102 52.2 L   6.703 -73.196145.0  RSN  4 0.5 1.4LRSN                1
 GAP=237        0.92      12.5     9.6 13.9  0.6532E+02  0.4049E+02 -0.3590E+02E
 Epicentro: VILLANUEVA - SANTANDER                                             3
 ACTION:UPD 12-08-06 17:49 OP:ep   STATUS:               ID:20120612110251 L   I
 2012-06-12-1100-00M.COL___201                                                 6
 STAT SP IPHASW D HRMM SECON CODA AMPLIT PERI AZIMU VELO AIN AR TRES W  DIS CAZ7
 BAR2 SZ EP   1   11 3 11.34                             175   -0.18 7 12.4 173 
 BAR2 SZ ES   1   11 3 26.31                             175   -0.31 7 12.4 173 
 BAR2 SZ I        11 3 26.85         8.8 0.20            172           12.4 173 
 RUS  HE ES   1   11 3 33.65                             146    0.61 7 90.5 172 
 RUS  HZ I        11 3 34.34         2.4 0.23            148           90.5 172 
 PTB  HZ EP   1   11 3 18.14                             133   -0.26 7  140 263 
 PTB  HN ES   1   11 3 38.34                             133   -0.54 7  140 263 
 PTB  HZ I        11 3 42.37         3.6 0.05            131            140 263 
 ZAR  HN ES   1   11 3 50.47                             122    0.80 6  203 296 
 ZAR  HZ I        11 3 55.90         3.4 0.32            121            203 296 
                                                                                
