 2013 1212 1216 59.8 L   6.679 -73.182151.7  RSN  4 0.2 1.7LRSN                1
 GAP=224        0.53       4.3     4.1  4.4  0.7813E+01  0.2697E+01 -0.1907E+00E
 Epicentro: VILLANUEVA - SANTANDER                                             3
 ACTION:UPD 14-01-13 10:17 OP:ep   STATUS:               ID:20131212121659 L   I
 OLDACT:UP  13-12-12 16:22 OP:cam  STATUS:               ID:20131212121000     3
 OLDACT:REG 13-12-12 14:44 OP:cma  STATUS:               ID:20131212121000     3
 2013-12-12-1210-00M.COL___285                                                 6
 STAT SP IPHASW D HRMM SECON CODA AMPLIT PERI AZIMU VELO AIN AR TRES W  DIS CAZ7
 BAR2 SZ EP       1217 19.73                             176   -0.1910 9.63 180 
 BAR2 SZ ES       1217 35.45                             176   -0.2010 9.63 180 
 BAR2 SZ I        1217 36.53        15.9 0.30            172           9.63 180 
 BRR  HZ EP       1217 21.84                             152    0.0510 75.3 309 
 BRR  HN ES       1217 39.19                             152    0.2210 75.3 309 
 RUS  HZ EP   1   1217 23.67                             149    0.42 7 87.7 173 
 RUS  HN ES       1217 41.62                             149    0.0610 87.7 173 
 RUS  HZ I        1217 43.20         6.4 0.32            147           87.7 173 
 PTB  HZ EP       1217 26.53                             135   -0.17 9  142 264 
 PTB  HN ES       1217 47.68                             135   -0.03 9  142 264 
 PTB  HZ I        1217 51.52         5.4 0.12            133            142 264 
                                                                                
