 2016  212 1658 18.2 L   6.814 -73.168143.1  RSN 17 0.3 2.5LRSN                1
 GAP=133        0.54       1.7     2.3  3.4 -0.1142E+01  0.3299E+01  0.3624E+00E
 Epicentro: LOS SANTOS - SANTANDER                                             3
 ACTION:UPD 16-03-04 21:25 OP:rebc STATUS:               ID:20160212165818 L   I
 OLDACT:REG 16-02-12 20:23 OP:t    STATUS:               ID:20160212165750     3
 2016-02-12-1657-50M.COL___319                                                 6
 STAT SP IPHASW D HRMM SECON CODA AMPLIT PERI AZIMU VELO AIN AR TRES W  DIS CAZ7
 BAR2 EZ EP     D 1658 37.56                             170    0.0310 24.6 184 
 BAR2 EZ ES       1658 52.73                             170    0.1310 24.6 184 
 BAR2 EZ I        1658 55.37        88.1 0.28            169           24.6 184 
 PAM  EZ IP     C 1658 40.40                             150    0.2510 77.8  42 
 PAM  EN ES       1658 57.42                             150    0.1510 77.8  42 
 PAM  EZ I        1659  0.67        44.7 0.34            154           77.8  42 
 RUS  HZ EP   2   1658 41.56                             143   -0.25 5  102 175 
 RUS  HN ES   2   1658 59.51                             143   -0.72 5  102 175 
 RUS  HZ I        1659  1.47        34.1 0.38            147            102 175 
 PTB  HZ EP   2   1658 44.18                             132   -0.58 5  146 258 
 PTB  HN ES   2   1659  5.08                             132   -0.39 5  146 258 
 PTB  HZ I        1659  9.32        23.7 0.20            131            146 258 
 OCA  HZ EP       1658 45.73                             129   -0.40 9  158 354 
 OCA  HE ES       1659  7.98                             129    0.07 9  158 354 
 OCA  HZ I        1659 11.43        82.0 0.20            130            158 354 
 SPBC HZ EP       1658 46.44                             128   -0.02 9  163 218 
 SPBC HE ES       1659  8.44                             128   -0.07 9  163 218 
 SPBC HZ I        1659 11.05        51.1 0.18            130            163 218 
 ZAR  HZ EP   2   1658 50.53                             122    0.36 4  201 292 
 ZAR  HE ES       1659 14.92                             122   -0.20 9  201 292 
 ZAR  HZ I        1659 20.90        40.3 0.34            122            201 292 
 NOR  HZ EP       1658 53.68                             118    0.02 8  234 234 
 NOR  HE ES   2   1659 21.32                             118    0.00 4  234 234 
 NOR  HZ I        1659 27.08        21.2 0.24            119            234 234 
 CHI  HZ EP     C 1658 55.90                             116    0.06 8  250 195 
 CHI  HN ES       1659 25.14                             116   -0.06 8  250 195 
 CHI  HZ I        1659 30.39        19.0 0.30            119            250 195 
 ROSC BZ EP   4   1658 57.69                             116    1.51 0  253 210 
 ROSC BE ES   2   1659 25.51                             116   -0.30 4  253 210 
 ROSC BZ I    4   1659 32.26        62.4 0.40            118            253 210 
 HEL  HZ EP   2   1658 58.18                             114    0.12 4  270 255 
 HEL  HN ES       1659 29.53                             114    0.39 8  270 255 
 HEL  HZ I        1659 37.86        13.3 0.36            115            270 255 
 URE  HZ EP   2   1658 58.13                             113   -0.69 4  281 292 
 URE  HN ES   4   1659 28.18                             113   -2.32 0  281 292 
 URE  HZ I        1659 41.32        14.3 0.11            114            281 292 
 GUY2CHZ EP       1659  1.98                             112    0.42 7  300 234 
 GUY2CHN ES       1659 35.00                             112   -0.38 7  300 234 
 GUY2CHZ I        1659 43.97        20.6 0.62                           300 234 
 SOCV BZ EP   4   1658 59.45                             111   -1.81 0  302  57 
 CBOC HZ EP   2   1659  5.36                             109    0.57 3  332 252 
 CBOC HN ES   2   1659 41.54                             109    0.41 3  332 252 
 CBOC HZ I        1659 52.57         5.2 0.48            110            332 252 
 DBB  SZ EP       1659  5.26                             109   -0.01 7  337 274 
 DBB  SZ ES   4   1659 39.76                             109   -2.23 0  337 274 
 DBB  SZ I        1659 45.18        51.6 0.44            110            337 274 
 ANIL HZ EP   4   1659  9.11                             108    1.28 0  357 224 
 ANIL HE ES   2   1659 47.35                             108    0.80 3  357 224 
 SJC  HZ EP   4   1659 11.68                             105   -1.68 0  407 327 
 SJC  HN ES   4   1659 52.09                             105   -4.30 0  407 327 
 SJC  HZ I        17 0  7.62         5.5 0.20            107            407 327 
                                                                                
