 2016 1212 1633 10.0 L   6.849 -73.311121.1  RSN  7 0.3 1.6LRSN                1
 GAP=108        0.90       3.7     3.2  6.3  0.1662E-01  0.5751E+01  0.3594E+00E
 Epicentro: ZAPATOCA - SANTANDER                                               3
 ACTION:UPD 17-01-11 20:14 OP:rebc STATUS:               ID:20161212163310 L   I
 OLDACT:UP  16-12-13 01:15 OP:ar   STATUS:               ID:20161212162645     3
 OLDACT:UP  16-12-13 01:14 OP:ar   STATUS:               ID:20161212162645     3
 OLDACT:REG 16-12-12 20:57 OP:ar   STATUS:               ID:20161212162645     3
 2016-12-12-1627-00M.COL___364                                                 6
 STAT SP IPHASW D HRMM SECON CODA AMPLIT PERI AZIMU VELO AIN AR TRES W  DIS CAZ7
 BAR2 EZ EP       1633 26.81                             164   -0.1110 31.8 153 
 BAR2 EZ ES       1633 39.77                             164   -0.3410 31.8 153 
 BRR  HZ EP       1633 27.03                             155   -0.4210 52.6 303 
 BRR  HZ I        1633 39.05        13.9 0.38            152           52.6 303 
 BRR  HE ES       1633 41.17                             155    0.1110 52.6 303 
 PAM  EZ EP       1633 30.08                             142   -0.2510 86.6  51 
 PAM  EN ES       1633 46.75                             142    0.5810 86.6  51 
 PAM  EZ I        1633 49.97         8.9 0.64            139           86.6  51 
 RUS  HZ EP       1633 32.37                             136    0.2610  109 167 
 RUS  HN ES       1633 49.14                             136   -0.2010  109 167 
 RUS  HZ I        1633 50.18         2.4 0.12            135            109 167 
 PTB  HZ EP   4   1633 31.92                             129   -1.56 0  131 255 
 PTB  HE ES       1633 52.31                             129    0.5310  131 255 
 PTB  HZ I        1633 53.71         9.8 0.36            127            131 255 
 ZAR  HZ EP       1633 39.13                             119    0.21 9  185 293 
 ZAR  HE ES       1634  0.98                             119   -0.49 9  185 293 
 ZAR  HZ I        1634  3.44         7.7 0.24            117            185 293 
 NOR  HZ EP   4   1633 39.17                             114   -4.01 0  223 231 
 NOR  HN ES       1634  9.22                             114    0.17 8  223 231 
 NOR  HZ I        1634 12.35         2.2 0.40            112            223 231 
                                                                                
