 2016 1012 1213 45.4 L   6.778 -73.167147.5  RSN  6 0.3 1.5LRSN                1
 GAP=135        0.86       4.3     3.8  5.8  0.1816E+01  0.5495E+01 -0.1128E+01E
 Epicentro: LOS SANTOS - SANTANDER                                             3
 ACTION:UPD 16-11-09 19:18 OP:rebc STATUS:               ID:20161012121345 L   I
 OLDACT:UP  16-10-12 21:49 OP:edw  STATUS:               ID:20161012120746     3
 OLDACT:REG 16-10-12 19:50 OP:edw  STATUS:               ID:20161012120746     3
 2016-10-12-1208-00M.COL___369                                                 6
 STAT SP IPHASW D HRMM SECON CODA AMPLIT PERI AZIMU VELO AIN AR TRES W  DIS CAZ7
 BAR2 EZ EP       1214  5.04                             172   -0.1210 20.6 185 
 BAR2 EZ ES       1214 20.59                             172   -0.0010 20.6 185 
 BAR2 EZ I        1214 21.14        16.2 0.28            171           20.6 185 
 BRR  HZ EP       1214  6.73                             153    0.0710 70.3 301 
 BRR  HN ES       1214 23.90                             153    0.6410 70.3 301 
 PAM  EZ EP       1214  7.86                             150   -0.1110 80.8  40 
 PAM  EN ES       1214 25.27                             150   -0.3410 80.8  40 
 PAM  EZ I        1214 27.38         6.8 0.62            154           80.8  40 
 RUS  HZ EP       1214  9.70                             145    0.5710 98.3 175 
 RUS  HN ES       1214 27.55                             145   -0.1210 98.3 175 
 RUS  HZ I        1214 31.01         2.7 0.38            146           98.3 175 
 PTB  HZ EP       1214 11.89                             133   -0.34 9  145 260 
 PTB  HN ES       1214 32.71                             133   -0.46 9  145 260 
 PTB  HZ I        1214 38.29         2.9 0.12            133            145 260 
 ZAR  HZ EP       1214 17.98                             123    0.18 9  203 293 
 ZAR  HN ES       1214 43.07                             123   -0.02 9  203 293 
 ZAR  HZ I        1214 49.54         4.0 0.24            123            203 293 
                                                                                
