 2010  712 1811 48.6 L;  6.759 -73.067143.1  RSN  8 0.2 2.2LRSN                1
 GAP=195        0.58       4.2     5.3  5.2 -0.1038E+02 -0.9779E+01  0.2853E+01E
 Epicentro: LOS SANTOS - SANTANDER                                             3
 ACTION:UPD 10-12-01 15:17 OP:pat  STATUS:               ID:20100712181148 L   I
 2010-07-12-1808-20S.COL___120                                                 6
 STAT SP IPHASW D HRMM SECON CODA AMPLIT PERI AZIMU VELO AIN AR TRES W  DIS CAZ7
 BAR2 SZ EP       1812  8.08                             171     0.110   23 215 
 BAR2 SZ ES   1   1812 22.71                             171    -0.3 7   23 215 
 BAR2 SZ I        1812 25.94        35.4 0.17                            23 215 
 GIR2 SZ EP       1812  8.20                             164     0.010   38 338 
 BRR  HZ EP       1812  9.88                             149    -0.210   81 298 
 BRR  HN ES       1812 26.98                             149     0.210   81 298 
 BRR  HZ I        1812 30.01        23.4 0.39                            81 298 
 BRI  SZ EP       1812 12.64                             140     0.210  110  16 
 GUE  SZ EP       1812 13.11                             138    -0.210  119   8 
 GRA  SZ EP       1812 13.88                             136     0.110  128  13 
 GRA  SZ I        1812 34.39        11.1 0.63                           128  13 
 HEL  HN ES   2   1813  1.30                             114    -0.1 4  279 257 
 HEL  HZ I        1813  7.42         7.9 1.53                           279 257 
 PRA  HZ EP   1   1812 41.78                             106    -0.3 4  392 211 
 PRA  HN ES   1   1813 24.27                             106     0.4 4  392 211 
 PRA  HZ I        1813 30.56         8.6 0.55                           392 211 
                                                                                
