 2017 1012 1712 55.4 L   6.683 -73.704 80.4  RSN  6 0.4 1.4LRSN                1
 GAP=155        1.02       5.3     3.3  8.7  0.1151E+01  0.1341E+02  0.5893E+01E
 Epicentro: EL CARMEN - SANTANDER                                              3
 ACTION:UPD 17-11-07 19:31 OP:rebc STATUS:               ID:20171012171255 L   I
 OLDACT:REG 17-10-12 20:19 OP:l    STATUS:               ID:20171012170206     3
 2017-10-12-1708-00M.COL___435                                                 6
 STAT SP IPHASW D HRMM SECON CODA AMPLIT PERI AZIMU VELO AIN AR TRES W  DIS CAZ7
 BAR2 EZ EP       1713  9.23                             141   -0.1210 58.5 100 
 BAR2 EZ ES       1713 20.62                             141    0.4210 58.5 100 
 BAR2 EZ I        1713 22.40         9.9 0.20            145           58.5 100 
 PTB  HZ EP       1713 11.67                             129    0.3310 84.7 259 
 PTB  HN ES       1713 23.15                             129   -0.5910 84.7 259 
 PTB  HZ I        1713 24.63         3.5 0.10            132           84.7 259 
 RUS  HZ EP       1713 13.97                             121   -0.6610  111 142 
 RUS  HN ES       1713 29.71                             121    0.1110  111 142 
 RUS  HZ I        1713 31.08         3.3 0.22            125            111 142 
 ZAR  HZ EP       1713 19.17                             112    0.21 9  156 305 
 ZAR  HN ES   4   1713 38.89                             112    1.59 0  156 305 
 ZAR  HZ I        1713 40.37        12.4 0.42            114            156 305 
 NOR  HZ EP       1713 21.21                             109   -0.47 9  179 226 
 NOR  HN ES       1713 42.29                             109    0.15 9  179 226 
 NOR  HZ I        1713 45.14         5.3 0.16            111            179 226 
 GUY2CHZ EP       1713 30.43                             103    0.41 8  245 229 
 GUY2CHN ES       1713 57.50                             103    0.50 8  245 229 
 GUY2CHZ I        1714  3.48         2.8 0.44                           245 229 
                                                                                
