 2014  112 1204  3.5 L   6.803 -73.226141.4  RSN  4 0.2 1.4LRSN                1
 GAP=146        0.67       4.1     3.8  5.7 -0.4768E+01  0.5978E+01 -0.2464E+01E
 Epicentro: ZAPATOCA - SANTANDER                                               3
 ACTION:UPD 14-03-13 09:54 OP:ep   STATUS:               ID:20140112120403 L   I
 OLDACT:REG 14-01-12 16:11 OP:stll STATUS:               ID:20140112115805     3
 2014-01-12-1158-05M.COL___237                                                 6
 STAT SP IPHASW D HRMM SECON CODA AMPLIT PERI AZIMU VELO AIN AR TRES W  DIS CAZ7
 BAR2 SZ EP       12 4 22.60                             170   -0.0510 23.8 168 
 BAR2 SZ ES       12 4 37.98                             170    0.4210 23.8 168 
 BAR2 SZ I        12 4 38.41         8.7 0.40            169           23.8 168 
 PAM  SZ EP       12 4 25.73                             148    0.0810 83.1  44 
 PAM  SZ I        12 4 25.80         9.9 0.26            149           83.1  44 
 PAM  SN ES       12 4 42.66                             148   -0.2310 83.1  44 
 RUS  HZ EP       12 4 26.82                             142   -0.1310  102 171 
 RUS  HE ES       12 4 45.09                             142   -0.1310  102 171 
 RUS  HZ I        12 4 46.52         2.1 0.46            142            102 171 
 PTB  HZ EP       12 4 29.71                             133    0.35 9  139 258 
 PTB  HZ I        12 4 30.70         3.1 0.36            133            139 258 
 PTB  HN ES       12 4 49.20                             133   -0.31 9  139 258 
                                                                                
