 2010  712 1512 41.9 L   5.896 -73.627122.5  RSN 13 0.5 2.6LRSN                1
 GAP=120        1.18       4.5     5.1  8.7 -0.9958E+01  0.1839E+02 -0.3625E+01E
 Epicentro: BARBOSA - SANTANDER                                                3
 ACTION:UPD 10-12-01 15:17 OP:pat  STATUS:               ID:20100712151241 L   I
 2010-07-12-1508-20S.COL___120                                                 6
 STAT SP IPHASW D HRMM SECON CODA AMPLIT PERI AZIMU VELO AIN AR TRES W  DIS CAZ7
 RUS  HZ IP     C 1513  0.40                             152    -0.210   60  90 
 RUS  HN ES       1513 15.07                             152    -0.110   60  90 
 RUS  HZ I        1513 16.03        79.7 0.13                            60  90 
 BAR2 SZ EP       1513  2.31                             141     0.010   91  33 
 BAR2 SZ I        1513  2.92       177.9 0.35                            91  33 
 BAR2 SZ ES   1   1513 18.10                             141    -0.2 7   91  33 
 BRR  HZ EP       1513  5.60                             129    -0.110  134 356 
 BRR  HZ I        1513  5.98       137.1 0.16                           134 356 
 BRR  HN ES       1513 24.81                             129     0.510  134 356 
 GIR2 SZ EP       1513  6.37                             128     0.0 9  139  20 
 ROSC BZ EP       1513  7.40                             128     0.6 9  140 213 
 ROSC BZ I        1513 31.33        19.3 0.67                           140 213 
 HEL  HN ES       1513 38.75                             116    -1.0 8  213 279 
 HEL  HZ I        1513 44.30        32.7 0.53                           213 279 
 RREF HZ EP   1   1513 15.20                             115    -0.3 6  220 240 
 RREF HN ES       1513 42.47                             115     0.8 8  220 240 
 RREF HZ I        1513 46.54        18.4 1.31                           220 240 
 BRI  SZ EP   1   1513 15.49                             115     0.5 6  221  24 
 GUE  SZ EP       1513 15.43                             114    -0.5 8  228  20 
 GRA  SZ EP   2   1513 16.99                             113     0.1 4  238  22 
 OCA  SZ EP   1   1513 20.10                             110     0.6 6  261   7 
 OCA  SZ I        1513 55.25        42.1 0.22                           261   7 
 PRA  HZ EP   1   1513 20.65                             109    -0.7 6  279 210 
 PRA  HN ES   1   1513 51.78                             109    -0.4 6  279 210 
 PRA  HZ I        1513 57.03        27.5 1.04                           279 210 
 DBB  SZ EP       1513 25.47                             107     0.3 7  311 294 
                                                                                
