 2012  812 1413  5.2 L   6.764 -73.133152.0  RSN  6 0.4 1.2LRSN                1
 GAP=188        0.74       6.0     5.9  6.7  0.1471E+02  0.7513E+01  0.2661E+01E
 Epicentro: LOS SANTOS - SANTANDER                                             3
 ACTION:UPD 12-09-10 11:56 OP:ep   STATUS:               ID:20120812141305 L   I
 2012-08-12-1410-00M.COL___219                                                 6
 STAT SP IPHASW D HRMM SECON CODA AMPLIT PERI AZIMU VELO AIN AR TRES W  DIS CAZ7
 BAR2 SZ EP   1   1413 25.46                             172   -0.09 7 19.8 196 
 BAR2 SZ I        1413 25.63         4.2 0.20                          19.8 196 
 BAR2 SZ ES   1   1413 41.24                             172   -0.16 7 19.8 196 
 GIR2 SZ EP   1   1413 25.72                             166   -0.04 7 35.4 349 
 GIR2 SZ ES   1   1413 41.26                             166   -0.51 7 35.4 349 
 BRR  HZ EP       1413 27.40                             152    0.1610 74.4 301 
 BRR  HZ I        1413 27.57         4.8 0.14                          74.4 301 
 BRR  HN ES   1   1413 44.92                             152    0.52 7 74.4 301 
 RUS  HZ EP   1   1413 29.29                             146   -0.03 7 96.5 177 
 RUS  HN ES   1   1413 48.59                             146    0.48 7 96.5 177 
 RUS  HZ I        1413 49.68         1.3 0.44                          96.5 177 
 PTB  HZ EP   1   1413 32.45                             133   -0.33 7  148 260 
 PTB  HN ES   1   1413 53.67                             133   -0.59 7  148 260 
 ZAR  HN ES   1   1414  4.70                             123    0.46 6  207 293 
                                                                                
