 2011  612 1028 29.6 L   6.168 -73.758104.0  RSN  4 0.2 1.5LRSN                1
 GAP=125        0.51       3.6     4.3 10.4 -0.7756E+01 -0.7416E+01  0.1539E+02E
 Epicentro: LANDAZURI - SANTANDER                                              3
 ACTION:UP  11-07-14 19:04 OP:ep   STATUS:               ID:20110612102829 L   I
 2011-06-12-1027-00S.COL___127                                                 6
 STAT SP IPHASW D HRMM SECON CODA AMPLIT PERI AZIMU VELO SNR AR TRES W  DIS CAZ7
 BAR2 SZ EP   1   1028 47.51                             140     0.1 7   79  54 
 BAR2 SZ I        1028 47.65        12.2 0.08                            79  54 
 BAR2 SZ ES   2   1029  1.24                             140     0.0 5   79  54 
 BRR  HZ EP   1   1028 48.82                             131    -0.3 7  104   3 
 BRR  HZ I        1028 49.29         8.7 0.14                           104   3 
 BRR  HN ES   2   1029  4.60                             131     0.2 5  104   3 
 NOR  SE ES   1   1029 10.88                             122     0.0 7  140 242 
 CHI  HZ EP   1   1028 56.70                             117     0.3 7  170 179 
 CHI  HN ES   2   1029 17.05                             117    -0.3 5  170 179 
 CHI  HZ I        1029 22.28         1.8 0.19                           170 179 
                                                                                
