 2017  212 1037 22.0 L   6.802 -73.202142.5  RSN  4 0.3 1.1LRSN                1
 GAP=232        0.88       6.9     6.5  7.1  0.2227E+02  0.4573E+01  0.2042E+01E
 Epicentro: ZAPATOCA - SANTANDER                                               3
 ACTION:UPD 17-05-24 15:35 OP:jn   STATUS:               ID:20170212103722 L   I
 OLDACT:DUP 17-02-12 22:28 OP:edw  STATUS:               ID:20170212102747d    3
 2017-02-12-1028-00M.COL___334                                                 6
 STAT SP IPHASW D HRMM SECON CODA AMPLIT PERI AZIMU VELO AIN AR TRES W  DIS CAZ7
 BAR2 EZ EP       1037 41.24                             170    0.0410 23.2 175 
 BAR2 EZ ES       1037 56.46                             170    0.2510 23.2 175 
 BAR2 EZ I        1037 57.76         3.1 0.13            168           23.2 175 
 BRR  HZ EP       1037 43.01                             154    0.5510 65.7 301 
 BRR  HN ES       1037 57.92                             154   -0.5210 65.7 301 
 RUS  HZ EP       1037 45.03                             143   -0.4310  101 173 
 RUS  HN ES       1038  3.84                             143    0.0610  101 173 
 RUS  HZ I        1038  4.96         3.1 0.36            143            101 173 
 PTB  HZ EP       1037 48.00                             133   -0.12 9  142 258 
 PTB  HN ES       1038  8.68                             133    0.17 9  142 258 
 PTB  HZ I        1038 11.48         1.0 0.38            132            142 258 
                                                                                
