 2011  512 1000 23.7 L   6.796 -73.129142.5  RSN  6 0.2 1.4LRSN                1
 GAP=161        0.47       3.6     6.7  8.5 -0.8950E+01 -0.2010E+02  0.1314E+02E
 Epicentro: LOS SANTOS - SANTANDER                                             3
 ACTION:UP  11-06-29 08:52 OP:tino STATUS:               ID:20110512100023 L   I
 2011-05-12-1000-05S.COL___129                                                 6
 STAT SP IPHASW D HRMM SECON CODA AMPLIT PERI AZIMU VELO SNR AR TRES W  DIS CAZ7
 BTL  SZ EP       10 0 43.01                             171     0.110   21 311 
 BAR2 SZ EP       10 0 42.74                             170    -0.210   23 195 
 GIR2 SZ ES   3   10 0 58.18                             167     0.1 2   32 347 
 BRR  HZ EP       10 0 44.74                             151     0.110   73 298 
 BRR  HN ES   2   10 1  0.57                             151    -0.3 5   73 298 
 BRR  HZ I        10 1  4.30         5.0 0.14                            73 298 
 RUS  HZ EP       10 0 47.15                             143     0.110  100 177 
 GRA  SZ EP       10 0 48.46                             136    -0.210  126  17 
 GRA  SZ ES   1   10 1  8.26                             136     0.2 7  126  17 
 GRA  SZ I        10 1  9.19         3.6 0.47                           126  17 
                                                                                
