 2014 1112 1810 16.2 L   7.199 -73.255 21.7  RSN  4 0.3 1.3LRSN                1
 GAP=194        0.83       3.2     3.7  4.6 -0.4662E+01  0.1167E+02 -0.1074E+01E
 Epicentro: LEBRIJA - SANTANDER                                                3
 ACTION:UPD 14-12-19 15:42 OP:nd   STATUS:               ID:20141112181016 L   I
 OLDACT:REG 14-11-12 22:08 OP:cam  STATUS:               ID:20141112180819     3
 2014-11-12-1808-19M.COL___292                                                 6
 STAT SP IPHASW D HRMM SECON CODA AMPLIT PERI AZIMU VELO AIN AR TRES W  DIS CAZ7
 PAM  SZ EP       1810 27.67                             108    0.3610 63.2  76 
 PAM  SN ES       1810 35.54                             108   -0.4210 63.2  76 
 PAM  SZ I        1810 37.37         7.6 0.20             47           63.2  76 
 BAR2 SZ EP       1810 28.08                             106    0.4110 67.6 173 
 BAR2 SZ ES       1810 36.32                             106   -0.2810 67.6 173 
 RUS  HZ EP       1810 39.12                              56    0.37 9  146 173 
 RUS  HE ES       1810 56.27                              56   -0.07 9  146 173 
 RUS  HZ I        1810 59.58         3.3 0.26             47            146 173 
 PTB  HZ EP       1810 38.70                              56   -0.21 9  152 241 
 PTB  HN ES       1810 56.44                              56   -0.17 9  152 241 
 PTB  HZ I        1810 58.51         9.1 0.38             47            152 241 
                                                                                
