 2013 1212 1934 57.0 L   6.799 -73.166145.4  RSN  8 0.5 1.9LRSN                1
 GAP=134        1.07       4.1     4.9  7.1 -0.3229E+01  0.1023E+02 -0.5286E+01E
 Epicentro: LOS SANTOS - SANTANDER                                             3
 ACTION:UPD 14-01-13 10:17 OP:ep   STATUS:               ID:20131212193457 L   I
 OLDACT:UP  13-12-12 17:14 OP:cam  STATUS:               ID:20131212193000     3
 OLDACT:REG 13-12-12 17:11 OP:cam  STATUS:               ID:20131212193000     3
 2013-12-12-1930-00M.COL___285                                                 6
 STAT SP IPHASW D HRMM SECON CODA AMPLIT PERI AZIMU VELO AIN AR TRES W  DIS CAZ7
 BAR2 SZ EP   1   1935 16.95                             171    0.40 7 22.9 185 
 BAR2 SZ ES       1935 31.30                             171   -0.5210 22.9 185 
 BAR2 SZ I        1935 32.77        31.0 0.22            173           22.9 185 
 BRR  HZ EP       1935 18.31                             153    0.3410 69.3 299 
 BRR  HN ES       1935 35.14                             153    0.7810 69.3 299 
 BRR  HZ I        1935 39.19        15.7 0.32            152           69.3 299 
 PAM  SZ EP       1935 19.46                             150    0.2210 78.9  41 
 PAM  SN ES       1935 36.42                             150   -0.1810 78.9  41 
 PAM  SZ I        1935 38.39        17.8 0.62            152           78.9  41 
 RUS  HZ EP   1   1935 20.91                             144    0.22 7  101 175 
 RUS  HN ES       1935 39.14                             144   -0.0510  101 175 
 RUS  HZ I        1935 39.92         3.3 0.20            147            101 175 
 PTB  HZ EP   1   1935 24.12                             132    0.41 7  146 259 
 PTB  HN ES       1935 44.05                             132   -0.52 9  146 259 
 ZAR  HN ES   2   1935 55.23                             123    0.92 4  202 292 
 NOR  HZ EP   1   1935 32.84                             119    0.36 6  233 234 
 NOR  HN ES       1935 59.77                             119   -0.41 8  233 234 
 NOR  HZ I        1936  2.05         5.7 0.24            120            233 234 
 SML  HZ EP       1935 32.66                             117   -0.83 8  243 336 
 SML  HN ES       1936  1.66                             117   -0.31 8  243 336 
 SML  HZ I        1936  5.55        14.2 0.10            119            243 336 
                                                                                
