 2017  712 1240 40.7 L   6.629 -73.256130.0  RSN  7 0.5 1.4LRSN                1
 GAP=160        1.17       7.1     6.7  9.1  0.4367E+01  0.2131E+02  0.2342E+02E
 Epicentro: BARICHARA - SANTANDER                                              3
 ACTION:UPD 17-08-30 15:32 OP:rebc STATUS:               ID:20170712124040 L   I
 OLDACT:DUP 17-07-12 23:17 OP:dhb  STATUS:               ID:20170712123741d    3
 2017-07-12-1238-00M.COL___377                                                 6
 STAT SP IPHASW D HRMM SECON CODA AMPLIT PERI AZIMU VELO AIN AR TRES W  DIS CAZ7
 BAR2 EZ EP       1240 57.61                             176   -0.5910 9.13 117 
 BAR2 EZ ES       1241 12.46                             176    0.6010 9.13 117 
 BAR2 EZ I        1241 13.94        10.1 0.18            175           9.13 117 
 BRR  HZ EP       1240 59.73                             149   -0.5410 73.0 316 
 BRR  HN ES       1241 15.44                             149   -0.1010 73.0 316 
 PTB  HZ EP       1241  4.91                             132   -0.1410  133 266 
 PTB  HE ES       1241 23.72                             132   -0.3210  133 266 
 PTB  HZ I        1241 27.46         2.5 0.06            131            133 266 
 SPBC HZ EP       1241  6.67                             130    0.80 9  141 220 
 SPBC HN ES   3   1241 25.67                             130    0.17 2  141 220 
 ZAR  HZ EP   2   1241 12.45                             119    0.61 4  201 298 
 ZAR  HE ES       1241 36.85                             119    0.71 9  201 298 
 ZAR  HZ I        1241 40.87         2.5 0.10            120            201 298 
 NOR  HZ EP       1241 13.26                             118   -0.03 8  214 237 
 NOR  HN ES       1241 38.31                             118   -0.40 8  214 237 
 NOR  HZ I        1241 44.94         1.5 0.19            118            214 237 
 GUY2CHZ EP   4   1241 22.60                             111    1.36 0  280 236 
 GUY2CHN ES   4   1241 54.93                             111    2.06 0  280 236 
 GUY2CHZ I        1242  3.55         1.3 0.28                           280 236 
                                                                                
