 2015  112 1701 32.9 L   6.812 -73.174142.0  RSN 16 0.4 2.6LRSN 3.4WRSN        1
 SPEC AVERAGE  MO 14.2 ST0.122 OM  2.7 f0 1.05 R1.8410 AL 0.00 WI 32.0 MW  3.4 3
 SPEC SD       MO  0.2 ST0.076 OM  0.8 f00.041 R0.0717 AL      WI      MW  0.1 3
 GAP=132        0.95       2.4     3.7  5.5 -0.1202E+01  0.2715E+01  0.1320E+01E
 Epicentro: LOS SANTOS - SANTANDER                                             3
 SPEC SPBCHH Z MO 14.4 ST0.229 OM  2.4 f0 1.10 R1.7491 AL-0.00 WI 32.0 MW  3.6 3
 SPEC SPBCHH Z T17 221 K 0.000 GD  215 VS 5.20 DE 3.50 Q0750.0 QA 1.50 VS 5.20 3
 SPEC ROSCBH Z MO 14.1 ST0.082 OM  1.9 f0 1.04 R1.8500 AL-0.00 WI 32.0 MW  3.3 3
 SPEC ROSCBH Z T17 240 K 0.000 GD  289 VS 5.20 DE 3.50 Q0750.0 QA 1.50 VS 5.20 3
 SPEC RREFHH Z MO 14.0 ST0.056 OM  1.7 f0 1.00 R1.9240 AL-0.00 WI 32.0 MW  3.2 3
 SPEC RREFHH Z T17 254 K 0.000 GD  350 VS 5.20 DE 3.50 Q0750.0 QA 1.50 VS 5.20 3
 OLDACT:UP  15-01-13 00:48 OP:mh   STATUS:               ID:20150112165746     3
 OLDACT:REG 15-01-12 20:54 OP:mh   STATUS:               ID:20150112165746     3
 ACTION:UPD 15-03-02 15:39 OP:nd   STATUS:               ID:20150112170132 L   I
 OLDACT:UP  15-01-13 00:48 OP:mh   STATUS:               ID:20150112165746     3
 2015-01-12-1657-46M.COL___259                                                 6
 STAT SP IPHASW D HRMM SECON CODA AMPLIT PERI AZIMU VELO AIN AR TRES W  DIS CAZ7
 BAR2 EZ EP     C 17 1 52.24                             170    0.1210 24.3 182 
 BAR2 EZ I        17 2  7.88        79.1 0.26            168           24.3 182 
 BRR  HZ EP       17 1 54.07                             153    0.5910 67.8 299 
 BRR  HN ES       17 2  9.96                             153    0.4510 67.8 299 
 BRR  HZ I        17 2 14.02        47.8 0.30            151           67.8 299 
 PAM  SZ EP       17 1 54.75                             150   -0.0510 78.4  42 
 PAM  SN ES   1   17 2 11.86                             150   -0.01 7 78.4  42 
 PAM  SZ I        17 2 13.99        33.2 0.54            153           78.4  42 
 RUS  HZ EP       17 1 56.20                             143   -0.2310  102 174 
 RUS  HN ES       17 2 14.54                             143   -0.2210  102 174 
 RUS  HZ I        17 2 15.83        24.0 0.42            143            102 174 
 PTB  HZ EP       17 1 58.81                             132   -0.53 9  145 258 
 PTB  HN ES       17 2 19.51                             132   -0.42 9  145 258 
 PTB  HZ I        17 2 22.30        39.0 0.38            131            145 258 
 OCA  HZ IPg      17 2  0.49                             129   -0.30 9  159 354 
 OCA  HN ES       17 2 22.94                             129    0.42 9  159 354 
 SPBC HZ EP       17 2  1.28                             128    0.23 9  162 218 
 SPBC HN ES       17 2 23.05                             128    0.06 9  162 218 
 SPBC HZ I        17 2 25.23        61.4 0.24            128            162 218 
 ZAR  HZ EP   1   17 2  4.77                             122   -0.01 6  201 292 
 ZAR  HN ES       17 2 29.52                             122   -0.10 9  201 292 
 ZAR  HZ I        17 2 35.81        37.4 0.28            122            201 292 
 NOR  HZ EP       17 2  8.23                             118   -0.02 8  233 234 
 NOR  HN ES       17 2 35.93                             118    0.12 8  233 234 
 NOR  HZ I        17 2 41.33        38.4 0.20            118            233 234 
 SML  HZ EP       17 2  8.81                             117   -0.26 8  241 336 
 SML  HN ES       17 2 36.68                             117   -0.58 8  241 336 
 SML  HZ I        17 2 43.22        35.4 0.10            118            241 336 
 CHI  HZ EP       17 2 10.44                             116   -0.03 8  249 194 
 CHI  HN ES       17 2 39.25                             116   -0.51 8  249 194 
 CHI  HZ I        17 2 46.72        14.4 0.48            117            249 194 
 ROSC BZ EP   1   17 2 10.91                             116    0.11 6  252 210 
 ROSC BN ES   4   17 2 42.40                             116    2.07 0  252 210 
 ROSC BZ I        17 2 45.79        27.6 0.35            116            252 210 
 RREF HZ EP   4   17 2 19.84                             110    1.10 0  320 229 
 RREF HE ES   4   17 2 56.37                             110    1.90 0  320 229 
 RREF HZ I        17 3  6.18        20.3 0.40            110            320 229 
 DBB  SZ EP   1   17 2 19.40                             109   -0.48 5  336 274 
 DBB  SZ ES   4   17 2 54.38                             109   -2.13 0  336 274 
 DBB  SZ I        17 3  5.76        38.4 0.56            109            336 274 
 TOL  SZ EP       17 2 22.48                             109    1.59 7  342 224 
 TOL  SN ES       17 2 58.59                             109    0.28 7  342 224 
 TOL  SZ I        17 3  6.42        37.7 0.36            109            342 224 
 SJC  HZ EP   4   17 2 22.95                             105   -5.09 0  406 327 
 SJC  HN ES   4   17 3  6.20                             105   -4.82 0  406 327 
 SJC  HZ I        17 3 11.66         7.1 0.50            106            406 327 
                                                                                
