 2014  612 1441 11.7 L   6.744 -73.171141.3  RSN  7 0.4 1.8LRSN                1
 GAP=230        0.91       5.3     5.5  7.2  0.1023E+02  0.1088E+02  0.4821E+01E
 Epicentro: VILLANUEVA - SANTANDER                                             3
 OLDACT:REG 14-06-12 20:59 OP:fm   STATUS:               ID:20140612143817     3
 ACTION:UPD 14-07-01 22:53 OP:nd   STATUS:               ID:20140612144111 L   I
 OLDACT:UP  14-06-13 00:04 OP:fm   STATUS:               ID:20140612143817     3
 2014-06-12-1438-17M.COL___253                                                 6
 STAT SP IPHASW D HRMM SECON CODA AMPLIT PERI AZIMU VELO AIN AR TRES W  DIS CAZ7
 BAR2 SZ EP       1441 30.62                             173   -0.0310 16.8 184 
 BAR2 SZ ES   1   1441 45.15                             173   -0.30 7 16.8 184 
 BAR2 SZ I        1441 46.42        25.5 0.32            178           16.8 184 
 BRR  HZ IP       1441 32.32                             151   -0.0710 72.0 304 
 BRR  SZ I        1441 49.11        15.9 0.26            147           72.0 304 
 BRR  HN ES       1441 49.14                             151    0.5910 72.0 304 
 RUS  HZ EP   1   1441 35.02                             145    0.46 7 94.6 174 
 RUS  HN ES   1   1441 52.16                             145   -0.25 7 94.6 174 
 RUS  SZ I        1441 54.28         5.5 0.74            146           94.6 174 
 PTB  HZ EP       1441 37.29                             132   -0.63 9  144 261 
 PTB  HN ES       1441 58.21                             132   -0.19 9  144 261 
 PTB  SZ I        1442  4.48         7.1 0.78            130            144 261 
 ZAR  HZ EP       1441 44.31                             121    0.50 9  204 294 
 ZAR  HE ES       1442  8.51                             121   -0.37 9  204 294 
 ZAR  SZ I        1442 14.17         5.5 0.26            118            204 294 
 SML  HE ES   4   1442 15.14                             116   -2.17 0  248 336 
 GUY2CHZ EP   4   1441 56.43                             112    2.02 0  295 235 
 GUY2CHE ES   1   1442 27.92                             112    0.18 5  295 235 
 GUY2CSZ I        1442 34.52         2.6 1.06                           295 235 
 PRA  HN ES   1   1442 45.93                             106    0.69 4  385 210 
                                                                                
