 2011 1212 1825 30.6 L   6.724 -73.206145.5  RSN  4 0.3 1.6LRSN                1
 GAP=223        0.51       8.0     7.4  7.6  0.2855E+02  0.1327E+02  0.5114E+01E
 Epicentro: VILLANUEVA - SANTANDER                                             3
 ACTION:UPD 12-07-13 16:15 OP:ep   STATUS:               ID:20111212182530 L   I
 2011-12-12-1820-00M.COL___185                                                 6
 STAT SP IPHASW D HRMM SECON CODA AMPLIT PERI AZIMU VELO AIN AR TRES W  DIS CAZ7
 BAR2 SZ EP   2   1825 49.71                             174   -0.38 5 14.8 170 
 BAR2 SZ ES   2   1826  4.79                             174   -0.47 5 14.8 170 
 BAR2 SZ I        1826  5.74         5.1 0.11                          14.8 170 
 BRR  HZ EP   2   1825 51.73                             153    0.04 5 70.1 307 
 BRR  HE ES   2   1826  8.65                             153    0.54 5 70.1 307 
 BRR  HZ I        1826 13.03        21.9 0.48                          70.1 307 
 RUS  HZ EP   2   1825 54.29                             146    0.47 5 93.0 172 
 RUS  HN ES   2   1826 12.09                             146    0.18 5 93.0 172 
 RUS  HZ I        1826 13.05         3.6 0.31                          93.0 172 
 PTB  HZ EP   1   1825 56.72                             134   -0.14 7  140 262 
 PTB  HN ES   2   1826 17.20                             134   -0.11 5  140 262 
                                                                                
