 2017  212 1210 26.6 L   6.758 -73.153141.3  RSN  7 0.4 1.8LRSN                1
 GAP=138        0.89       3.4     4.3  5.3  0.1898E+01  0.3285E+01  0.2659E+01E
 Epicentro: LOS SANTOS - SANTANDER                                             3
 ACTION:UPD 17-05-24 15:35 OP:jn   STATUS:               ID:20170212121026 L   I
 OLDACT:UP  17-02-12 23:31 OP:edw  STATUS:               ID:20170212120746     3
 OLDACT:REG 17-02-12 20:57 OP:edw  STATUS:               ID:20170212120746     3
 2017-02-12-1208-00M.COL___346                                                 6
 STAT SP IPHASW D HRMM SECON CODA AMPLIT PERI AZIMU VELO AIN AR TRES W  DIS CAZ7
 BAR2 EZ EP     C 1210 45.65                             172    0.0810 18.6 190 
 BAR2 EZ ES       1211  0.21                             172   -0.1810 18.6 190 
 BAR2 EZ I        1211  2.01        16.0 0.36            168           18.6 190 
 BRR  HZ EP       1210 47.50                             151    0.1710 72.9 302 
 BRR  HN ES       1211  4.29                             151    0.7610 72.9 302 
 BRR  HZ I        1211  9.22         9.9 0.24            149           72.9 302 
 PAM  EZ EP     C 1210 48.43                             149   -0.1310 81.5  38 
 PAM  EN ES       1211  5.66                             149   -0.0610 81.5  38 
 PAM  EZ I        1211  7.86        14.2 0.50            154           81.5  38 
 RUS  HZ EP       1210 49.68                             144    0.1410 96.0 175 
 RUS  HN ES       1211  7.00                             144   -0.4710 96.0 175 
 RUS  HZ I        1211 11.14        15.8 0.34            144           96.0 175 
 PTB  HZ EP   9   1210 52.44                             131   -0.58 0  146 261 
 PTB  HN ES       1211 13.02                             132   -0.06 9  146 261 
 PTB  HZ I        1211 16.15         7.3 0.11            130            146 261 
 ZAR  HZ EP       1210 58.55                             121   -0.28 9  205 293 
 ZAR  HN ES       1211 23.37                             121   -0.63 9  205 293 
 ZAR  HZ I        1211 32.27         8.9 0.30            121            205 293 
 CHI  HZ EP       1211  3.91                             117    0.41 8  244 195 
 CHI  HN ES       1211 32.47                             117    0.15 8  244 195 
 CHI  HZ I        1211 41.53         3.1 0.68            117            244 195 
 SJC  HZ EP   4   1211 19.81                             105   -2.58 0  413 327 
 SJC  HN ES   4   1212  0.31                             105   -5.63 0  413 327 
                                                                                
