 2011  612 1129 20.6 L   6.341 -73.646103.8  RSN  7 0.3 2.1LRSN                1
 GAP=117        0.67       3.1     4.1  6.5 -0.3840E+01  0.6540E+01 -0.7219E+01E
 Epicentro: SANTA HELENA DEL OPON - SANTANDER                                  3
 ACTION:UP  11-07-14 19:04 OP:ep   STATUS:               ID:20110612112920 L   I
 2011-06-12-1127-21S.COL___132                                                 6
 STAT SP IPHASW D HRMM SECON CODA AMPLIT PERI AZIMU VELO SNR AR TRES W  DIS CAZ7
 BAR2 SZ IP       1129 37.12                             148     0.210   58  62 
 BAR2 SZ ES   1   1129 49.32                             148    -0.2 7   58  62 
 BAR2 SZ I        1129 51.13        93.8 0.26                            58  62 
 RUS  HZ EP   1   1129 38.88                             140     0.1 7   80 129 
 RUS  HZ I        1129 39.14        14.8 0.21                            80 129 
 RUS  HN ES   1   1129 52.81                             140    -0.1 7   80 129 
 BRR  HZ EP   1   1129 38.25                             137    -0.3 7   85 355 
 BRR  HE ES   1   1129 52.36                             137    -0.1 7   85 355 
 BRR  HZ I        1130  1.24        25.0 0.12                            85 355 
 NOR  SN ES   1   1130  5.96                             118     0.2 7  160 238 
 BRI  SZ EP   1   1129 47.93                             115    -0.2 7  179  32 
 BRI  SZ ES   1   1130 10.20                             115     0.7 7  179  32 
 BRI  SZ I        1130 15.65        15.3 0.28                           179  32 
 GRA  SZ EP   1   1129 49.41                             113    -0.4 6  194  29 
 GRA  SZ ES   1   1130 12.77                             113     0.2 6  194  29 
 GRA  SZ I        1130 16.63         9.8 0.31                           194  29 
 OCA  SZ EP   1   1129 51.61                             110    -0.3 6  213  10 
 OCA  SZ ES   1   1130 16.43                             110     0.1 6  213  10 
 OCA  SZ I        1130 21.22        16.4 0.36                           213  10 
                                                                                
