 2012  612 1329  3.3 L   6.781 -73.170149.5  RSN  5 0.2 1.8LRSN                1
 GAP=180        0.51       3.3     3.9  5.6  0.3306E+01  0.6230E+01 -0.2476E+01E
 Epicentro: LOS SANTOS - SANTANDER                                             3
 ACTION:UPD 12-08-06 17:49 OP:ep   STATUS:               ID:20120612132859 L   I
 2012-06-12-1327-47M.COL___158                                                 6
 STAT SP IPHASW D HRMM SECON CODA AMPLIT PERI AZIMU VELO AIN AR TRES W  DIS CAZ7
 BAR2 SZ EP       1329 23.41                             172    0.0310 20.9 184 
 BAR2 SZ ES   1   1329 38.86                             172   -0.15 7 20.9 184 
 BAR2 SZ I        1329 44.30         8.8 0.22            168           20.9 184 
 RUS  HZ EP   1   1329 27.21                             145   -0.12 7 98.7 174 
 RUS  HN ES   1   1329 46.35                             145    0.30 7 98.7 174 
 RUS  HZ I        1329 47.77         5.2 0.20            150           98.7 174 
 PTB  HZ EP       1329 30.36                             133    0.02 9  145 259 
 PTB  HN ES   1   1329 51.00                             133   -0.41 7  145 259 
 PTB  HZ I        1329 58.70        12.4 0.43            135            145 259 
 OCA  HN ES   1   1329 54.49                             130   -0.06 7  162 354 
 ZAR  HZ EP   1   1329 35.75                             123   -0.11 6  202 293 
 ZAR  HN ES   1   1330  1.73                             123    0.51 6  202 293 
 ZAR  HZ I        1330  7.85         6.9 0.13            126            202 293 
                                                                                
