 2012 1112 1528 36.7 L   6.801 -73.145150.4  RSN  7 0.5 1.9LRSN                1
 GAP=137        1.30       5.3     6.6  7.7  0.7566E+00  0.9086E+01 -0.5189E+01E
 Epicentro: LOS SANTOS - SANTANDER                                             3
 ACTION:UPD 12-12-05 15:32 OP:}ep  STATUS:               ID:20121112152837 L   I
 2012-11-12-1520-00M.COL___230                                                 6
 STAT SP IPHASW D HRMM SECON CODA AMPLIT PERI AZIMU VELO AIN AR TRES W  DIS CAZ7
 BAR2 SZ EP       1528 56.77                             171   -0.1010 23.4 190 
 BAR2 SZ ES       1529 12.10                             171   -0.5110 23.4 190 
 BAR2 SZ I        1529 13.66        13.2 0.32                          23.4 190 
 GIR2 SZ EP       1528 57.26                             168    0.3610 31.2 350 
 GIR2 SZ ES       1529 12.09                             168   -0.5810 31.2 350 
 BRR  HZ IP     C 1528 58.83                             153    0.5010 71.2 298 
 BRR  HZ I        1528 59.09        16.6 0.20                          71.2 298 
 BRR  HN ES       1529 16.47                             153    1.2510 71.2 298 
 PAM  SZ EP       1528 59.69                             152    0.3110 77.3  40 
 PAM  SN ES       1529 17.02                             152   -0.0710 77.3  40 
 PAM  SN I        1529 18.31        13.9 0.68                          77.3  40 
 RUS  HZ EP       1529  0.75                             145   -0.1410  101 176 
 RUS  HN ES       1529 19.85                             145    0.0710  101 176 
 RUS  HN I        1529 21.19         7.7 0.16                           101 176 
 PTB  HZ EP       1529  3.97                             133   -0.07 9  148 259 
 PTB  HN ES       1529 24.92                             133   -0.45 9  148 259 
 PTB  HN I        1529 30.60        29.0 0.32                           148 259 
 SML  HZ EP       1529 13.28                             118   -0.28 8  244 335 
 SML  HN ES       1529 41.63                             118   -0.70 8  244 335 
                                                                                
