 2011  712 1058 39.6 L   6.785 -73.113143.0  RSN  8 0.4 2.1LRSN                1
 GAP=159        0.71       3.9     6.2  5.3 -0.6356E+01  0.4371E+01  0.1601E+01E
 Epicentro: LOS SANTOS - SANTANDER                                             3
 ACTION:UPD 12-07-25 14:00 OP:epov STATUS:               ID:20110712105839 L   I
 2011-07-12-1054-34S.COL___142                                                 6
 STAT SP IPHASW D HRMM SECON CODA AMPLIT PERI AZIMU VELO AIN AR TRES W  DIS CAZ7
 BAR2 SZ EP   1   1058 58.91                             171    0.05 7 22.6 200 
 BAR2 SZ ES   1   1059 13.29                             171   -0.61 7 22.6 200 
 BAR2 SZ I        1059 16.15        30.5 0.20                          22.6 200 
 GIR2 SZ EP   1   1058 59.04                             166    0.05 7 33.7 345 
 GIR2 SZ ES   1   1059 13.90                             166   -0.23 7 33.7 345 
 BRR  HZ EP   1   1059  0.71                             151    0.06 7 75.1 298 
 BRR  HN ES   1   1059 17.73                             151    0.63 7 75.1 298 
 BRR  HZ I        1059 18.52        27.9 0.10                          75.1 298 
 RUS  HZ EP   1   1059  2.82                             144   -0.10 7 98.7 178 
 RUS  HN ES   1   1059 21.68                             144    0.55 7 98.7 178 
 RUS  HZ I        1059 23.47        14.2 0.28                          98.7 178 
 BRI  SZ EP   1   1059  3.37                             141    0.14 7  109  19 
 BRI  SZ I        1059 27.08        12.5 0.48                           109  19 
 OCA  SZ IP   1   1059  7.44                             129   -0.43 7  162 352 
 NOR  SZ EP   1   1059 15.34                             118   -0.02 6  237 235 
 NOR  SN ES   1   1059 43.08                             118   -0.19 6  237 235 
 PRA  HZ EP   1   1059 33.59                             106    0.55 4  392 210 
 PRA  HN ES   1   11 0 14.03                             106   -0.71 4  392 210 
 PRA  HZ I        11 0 18.21        11.8 0.16                           392 210 
                                                                                
