 2016  612 1323 47.9 L   6.796 -73.133151.3  RSN 10 0.4 2.1LRSN                1
 GAP=184        0.98       3.1     5.0  5.6 -0.3100E+01  0.3030E+01  0.2916E+01E
 Epicentro: LOS SANTOS - SANTANDER                                             3
 ACTION:UPD 16-07-21 22:18 OP:rebc STATUS:               ID:20160612132347 L   I
 OLDACT:REG 16-06-12 20:35 OP:edw  STATUS:               ID:20160612131741     3
 2016-06-12-1317-41M.COL___325                                                 6
 STAT SP IPHASW D HRMM SECON CODA AMPLIT PERI AZIMU VELO AIN AR TRES W  DIS CAZ7
 BAR2 EZ EP       1324  8.06                             171   -0.0910 23.2 194 
 BAR2 EZ ES       1324 23.58                             171   -0.3910 23.2 194 
 BAR2 EZ I        1324 24.78        14.4 0.30                          23.2 194 
 BRR  HZ EP       1324 10.10                             153    0.4210 72.6 298 
 BRR  HE ES       1324 27.55                             153    0.8510 72.6 298 
 RUS  HZ EP       1324 12.45                             145    0.3310  100 177 
 RUS  HN ES       1324 30.69                             145   -0.3510  100 177 
 RUS  HZ I        1324 31.90         7.2 0.40                           100 177 
 PTB  HZ EP       1324 14.81                             133   -0.58 9  149 259 
 PTB  HN ES       1324 36.30                             133   -0.57 9  149 259 
 PTB  HZ I        1324 41.94        13.1 0.24                           149 259 
 OCA  HZ EP       1324 16.47                             131   -0.19 9  161 353 
 OCA  HN ES       1324 39.04                             131   -0.08 9  161 353 
 OCA  HZ I        1324 43.98        38.8 0.36                           161 353 
 SPBC HZ EP       1324 17.07                             130    0.24 9  164 219 
 SPBC HE ES       1324 39.41                             130   -0.03 9  164 219 
 SPBC HZ I        1324 46.08        29.0 0.26                           164 219 
 NOR  HZ EP       1324 24.06                             119    0.06 8  236 235 
 NOR  HN ES       1324 52.37                             119    0.17 8  236 235 
 NOR  HZ I        1324 55.79        11.7 0.18                           236 235 
 CHI  HZ EP       1324 26.02                             118    0.16 8  249 195 
 CHI  HN ES       1324 55.88                             118    0.38 8  249 195 
 CHI  HZ I        1324 59.48         4.3 0.36                           249 195 
 GUY2CHZ EP   4   1324 33.31                             113    1.49 0  302 235 
 GUY2CHN ES       1325  5.86                             113   -0.26 7  302 235 
 GUY2CHZ I        1325 15.29         6.9 0.32                           302 235 
 PRA  HZ EP       1324 40.80                             107   -0.81 6  392 210 
 PRA  HN ES       1325 24.12                             107    0.59 6  392 210 
 PRA  HZ I        1325 31.52         5.9 0.26                           392 210 
                                                                                
