 2016  612 1944 32.7 L   6.792 -73.163139.5  RSN  4 0.3 1.1LRSN                1
 GAP=141        0.75       4.4     4.4  6.4 -0.6060E+01  0.8337E+01 -0.2794E+01E
 Epicentro: LOS SANTOS - SANTANDER                                             3
 ACTION:UPD 16-07-21 22:18 OP:rebc STATUS:               ID:20160612194432 L   I
 OLDACT:DUP 16-06-13 01:35 OP:cara STATUS:               ID:20160612193745d    3
 OLDACT:DUP 16-06-13 01:29 OP:cara STATUS:               ID:20160612193744d    3
 2016-06-12-1937-43M.COL___328                                                 6
 STAT SP IPHASW D HRMM SECON CODA AMPLIT PERI AZIMU VELO AIN AR TRES W  DIS CAZ7
 BAR2 EZ ES       1945  6.67                             171    0.4610 22.2 186 
 BAR2 EZ I        1945  7.40         3.8 0.52                          22.2 186 
 PAM  EZ IP       1944 54.48                             149    0.1610 79.3  40 
 PAM  EN ES       1945 10.91                             149   -0.3110 79.3  40 
 PAM  EZ I        1945 14.68         1.6 0.46                          79.3  40 
 RUS  HZ EP       1944 55.94                             143    0.2110 99.8 175 
 RUS  HE ES       1945 13.38                             143   -0.3610 99.8 175 
 RUS  HZ I        1945 15.46         1.6 0.22                          99.8 175 
 PTB  HZ EP       1944 58.82                             131   -0.11 9  146 259 
 PTB  HN ES       1945 19.34                             131   -0.08 9  146 259 
 PTB  HZ I        1945 21.81         2.1 0.16                           146 259 
                                                                                
