 2010  712 1422 26.5 L   6.625 -73.389135.4  RSN  7 0.6 2.1LRSN                1
 GAP= 97        1.42       6.0    10.4  9.5 -0.1658E+02  0.5522E+01 -0.3755E+01E
 Epicentro: GALAN - SANTANDER                                                  3
 ACTION:UPD 10-12-01 15:17 OP:pat  STATUS:               ID:20100712142226 L   I
 2010-07-12-1417-16S.COL___120                                                 6
 STAT SP IPHASW D HRMM SECON CODA AMPLIT PERI AZIMU VELO AIN AR TRES W  DIS CAZ7
 BAR2 SZ EP       1422 44.88                             168     0.010   23  99 
 BAR2 SZ ES       1422 59.21                             168    -0.110   23  99 
 BRR  HZ EP       1422 45.57                             154    -0.610   64 326 
 BRR  HZ I        1422 46.62        48.4 0.29                            64 326 
 BRR  HN ES       1423  1.20                             154    -0.310   64 326 
 RUS  HZ EP       1422 48.30                             145    -0.110   88 157 
 RUS  HN ES   1   1423  5.58                             145     0.2 7   88 157 
 RUS  HZ I        1423  8.13         8.7 0.35                            88 157 
 BRI  SZ EP   1   1422 52.54                             131     0.6 7  137  28 
 BRI  SZ I        1423 16.25        18.6 0.74                           137  28 
 GUE  SZ EP       1422 52.33                             130    -0.3 9  143  21 
 GUE  SZ ES   1   1423 12.05                             130    -0.9 7  143  21 
 GRA  SZ EP       1422 53.69                             128     0.3 9  154  25 
 GRA  SZ ES       1423 15.53                             128     1.1 9  154  25 
 GRA  SZ I        1423 17.05        25.5 0.38                           154  25 
 RREF HZ EP   1   1423  8.37                             111    -0.1 5  289 229 
 RREF HN ES   2   1423 42.67                             111     1.5 4  289 229 
 RREF HZ I        1423 46.82         7.7 0.90                           289 229 
                                                                                
