 2015  712 1548 36.2 L   6.282 -73.551118.0  RSN  9 0.4 2.0LRSN                1
 GAP=123        0.83       2.6     3.8  9.1 -0.1770E+01  0.1487E+02 -0.2539E+01E
 Epicentro: EL GUACAMAYO - SANTANDER                                           3
 ACTION:UPD 15-09-08 21:48 OP:cam  STATUS:               ID:20150712154836 L   I
 OLDACT:REG 15-07-12 21:18 OP:spq  STATUS:               ID:20150712154747     3
 2015-07-12-1547-47M.COL___324                                                 6
 STAT SP IPHASW D HRMM SECON CODA AMPLIT PERI AZIMU VELO AIN AR TRES W  DIS CAZ7
 RUS  HZ EP   1   1548 54.99                             149    0.16 8 67.4 130 
 RUS  HN ES   1   1549  9.52                             149    0.12 8 67.4 130 
 RUS  HZ I        1549  9.96        11.2 0.32            146           67.4 130 
 NOR  HZ EP   4   1549  1.72                             121   -1.23 0  166 241 
 NOR  HE ES       1549 23.13                             121   -0.7210  166 241 
 NOR  HZ I        1549 24.19        26.4 0.26            119            166 241 
 CHI  HN ES   1   1549 27.57                             119   -0.44 7  184 186 
 CHI  HZ I        1549 28.56         4.1 0.62            116            184 186 
 ZAR  HZ EP       1549  5.90                             116   -0.2710  197 313 
 ZAR  HN ES       1549 29.33                             116   -0.2510  197 313 
 ZAR  HZ I        1549 30.58        16.6 0.24            114            197 313 
 OCA  HE ES       1549 34.32                             114    0.28 9  218   7 
 OCA  HZ I        1549 37.59        19.1 0.42            111            218   7 
 HEL  HZ EP   1   1549  8.96                             114   -0.13 7  219 267 
 HEL  HN ES       1549 35.25                             114    0.48 9  219 267 
 HEL  HZ I        1549 37.10        10.1 0.30            111            219 267 
 GUY2CHZ EP       1549 10.64                             112   -0.08 9  232 240 
 GUY2CHN ES       1549 38.35                             112    0.66 9  232 240 
 GUY2CHZ I        1549 40.93         7.0 0.28                           232 240 
 TOL  SN ES       1549 45.35                             109    0.06 8  271 226 
 TOL  SZ I        1549 52.98         3.8 0.46            106            271 226 
 PRA  HZ EP   1   1549 19.95                             105   -0.39 6  320 208 
 PRA  HN ES       1549 55.26                             105    0.46 8  320 208 
 PRA  HZ I        1549 58.72         3.6 0.22            103            320 208 
                                                                                
