 2010  412 1614 37.1 L   6.778 -72.976143.1  RSN  6 0.3 2.0LRSN                1
 GAP=265        0.57       4.2     6.8  5.9 -0.9129E+00  0.3292E+01  0.1263E+02E
 Epicentro: CEPITA - SANTANDER                                                 3
 ACTION:UPD 10-08-24 09:58 OP:vdl  STATUS:               ID:20100412161437 L   I
 2010-04-12-1610-53S.COL___099                                                 6
 STAT SP IPHASW D HRMM SECON CODA AMPLIT PERI AZIMU VELO AIN AR TRES W  DIS CAZ7
 BAR2 SZ EP       1614 56.69                             167     0.110   31 228 
 BAR2 SZ ES   1   1615 11.74                             167     0.0 7   31 228 
 BRR  HZ EP       1614 58.83                             146    -0.210   89 294 
 BRR  HZ I        1614 59.48        19.3 0.42                            89 294 
 BRR  HN ES       1615 16.26                             146     0.110   89 294 
 CHI  HN ES   1   1615 44.69                             116     0.1 6  252 199 
 CHI  HZ I        1615 46.83         3.5 0.22                           252 199 
 RREF HE ES   1   1616  1.94                             109     0.3 5  335 232 
 RREF HZ I        1616  8.26         4.8 0.06                           335 232 
 TOL  SZ EP       1615 26.78                             108     0.2 6  355 227 
 PRA  HN ES   1   1616 13.03                             106    -0.7 4  400 212 
 PRA  HZ I        1616 18.61         3.4 0.12                           400 212 
                                                                                
