 2012  812 1607 36.9 L   6.759 -73.134143.9  RSN  5 0.3 1.4LRSN                1
 GAP=140        0.59       4.3     4.1  6.0 -0.2078E+01  0.2140E+01  0.2635E+01E
 Epicentro: LOS SANTOS - SANTANDER                                             3
 ACTION:UPD 12-09-10 11:56 OP:ep   STATUS:               ID:20120812160736 L   I
 2012-08-12-1600-00M.COL___219                                                 6
 STAT SP IPHASW D HRMM SECON CODA AMPLIT PERI AZIMU VELO AIN AR TRES W  DIS CAZ7
 BAR2 SZ EP   1   16 7 56.15                             172   -0.05 7 19.2 196 
 BAR2 SZ ES   1   16 8 11.55                             172    0.27 7 19.2 196 
 BAR2 SZ I        16 8 12.54         9.6 0.16                          19.2 196 
 BRR  HN ES   1   16 8 14.91                             151    0.40 7 74.6 301 
 PAM  SZ EP   1   16 7 59.06                             150    0.00 7 80.1  37 
 PAM  SZ I        16 7 59.27         4.9 0.22                          80.1  37 
 PAM  SN ES   1   16 8 16.01                             150   -0.35 7 80.1  37 
 RUS  HZ EP   1   16 8  0.32                             145    0.21 7 96.0 177 
 RUS  HZ I        16 8  1.36         2.7 0.16                          96.0 177 
 RUS  HN ES   1   16 8 18.08                             145   -0.16 7 96.0 177 
 PTB  HZ EP   1   16 8  3.90                             131    0.16 7  148 261 
 PTB  HN ES   1   16 8 24.16                             131   -0.53 7  148 261 
                                                                                
