 2016  112 1728  9.4 L   6.771 -73.093148.9  RSN  9 0.5 2.0LRSN                1
 GAP=162        1.31       5.0     7.6  8.1 -0.1941E+02  0.9483E+01  0.7966E+01E
 Epicentro: LOS SANTOS - SANTANDER                                             3
 ACTION:UPD 16-03-09 23:24 OP:cam  STATUS:               ID:20160112172809 L   I
 OLDACT:UP  16-01-12 23:58 OP:drio STATUS:               ID:20160112171752     3
 OLDACT:UP  16-01-12 23:53 OP:drio STATUS:               ID:20160112171752     3
 OLDACT:REG 16-01-12 21:21 OP:drio STATUS:               ID:20160112171752     3
 2016-01-12-1717-52M.COL___253                                                 6
 STAT SP IPHASW D HRMM SECON CODA AMPLIT PERI AZIMU VELO AIN AR TRES W  DIS CAZ7
 BAR2 EZ EP       1728 28.40                             171   -1.0010 22.1 207 
 BAR2 EZ ES       1728 44.47                             171   -0.5210 22.1 207 
 BAR2 EZ I        1728 45.70        15.8 0.24            167           22.1 207 
 PAM  EZ EP       1728 32.40                             152    0.4910 76.4  35 
 PAM  EN ES       1728 49.62                             152    0.1610 76.4  35 
 PAM  EZ I        1728 51.65        14.5 0.52            156           76.4  35 
 BRR  HZ EP       1728 31.42                             151    0.1310 77.8 299 
 BRR  HN ES       1728 48.78                             151    0.4410 77.8 299 
 PTB  HZ EP       1728 36.42                             132   -0.69 9  153 260 
 PTB  HN ES   4   1728 57.29                             132   -1.42 0  153 260 
 PTB  HZ I        1729  4.73        12.6 0.36            131            153 260 
 SPBC HZ EP       1728 38.38                             129    0.10 9  164 221 
 SPBC HE ES       1729  1.28                             129    0.48 9  164 221 
 SPBC HZ I        1729  8.02        11.9 0.20            130            164 221 
 OCA  HZ EP       1728 37.80                             130   -0.55 9  164 351 
 OCA  HE ES       1729  1.36                             130    0.46 9  164 351 
 OCA  HZ I        1729  3.67        27.8 0.18            132            164 351 
 NOR  HZ EP       1728 45.72                             119    0.07 8  238 236 
 NOR  HE ES       1729 13.11                             119   -0.80 8  238 236 
 NOR  HZ I        1729 21.37         5.5 0.14            119            238 236 
 CHI  HZ EP       1728 47.85                             118    0.71 8  247 197 
 CHI  HN ES       1729 16.93                             118    0.38 8  247 197 
 CHI  HZ I        1729 19.51         2.8 0.32            120            247 197 
 GUY2CHZ EP   4   1728 54.61                             113    1.10 0  304 236 
 GUY2CHE ES       1729 28.45                             113    0.55 7  304 236 
 GUY2CHZ I        1729 34.84         3.6 0.36                           304 236 
                                                                                
