 2010  412 1031 16.5 L   6.779 -72.994143.8  RSN  5 0.2 1.9LRSN                1
 GAP=224        0.54       3.4     6.2  5.2 -0.6200E+01 -0.5224E+01  0.4108E+00E
 Epicentro: CEPITA - SANTANDER                                                 3
 ACTION:UPD 10-08-24 09:58 OP:vdl  STATUS:               ID:20100412103116 L   I
 2010-04-12-1029-44S.COL___099                                                 6
 STAT SP IPHASW D HRMM SECON CODA AMPLIT PERI AZIMU VELO AIN AR TRES W  DIS CAZ7
 BAR2 SZ EP       1031 36.26                             168     0.210   29 225 
 BAR2 SZ ES   1   1031 51.02                             168    -0.3 7   29 225 
 BRR  HZ IP     C 1031 38.50                             147     0.110   87 295 
 BRR  HZ I        1031 38.86        23.2 0.03                            87 295 
 BRR  HE ES       1031 55.58                             147     0.010   87 295 
 OCA  SZ EP       1031 45.10                             128    -0.1 9  165 347 
 OCA  SZ ES   1   1032  7.30                             128    -0.2 7  165 347 
 OCA  SZ I        1032 11.64        15.7 0.60                           165 347 
 RREF HN ES   1   1032 40.88                             110     0.1 5  333 232 
 RREF HZ I        1032 44.50         1.6 0.88                           333 232 
 PRA  HE ES   2   1032 52.11                             106    -0.9 3  399 212 
 PRA  HZ I        1032 57.24         1.5 0.07                           399 212 
                                                                                
