 2012  812 1915  6.0 L   6.735 -73.128147.4  RSN  8 0.4 2.0LRSN                1
 GAP=142        0.72       3.9     5.1  6.3  0.2525E+01  0.7459E+01  0.1323E+01E
 Epicentro: JORDAN - SANTANDER                                                 3
 ACTION:UPD 12-09-10 11:56 OP:ep   STATUS:               ID:20120812191506 L   I
 2012-08-12-1910-00M.COL___218                                                 6
 STAT SP IPHASW D HRMM SECON CODA AMPLIT PERI AZIMU VELO AIN AR TRES W  DIS CAZ7
 BAR2 SZ EP   1   1915 25.69                             173   -0.06 7 16.9 201 
 BAR2 SZ ES   1   1915 40.99                             173   -0.13 7 16.9 201 
 BAR2 SZ I        1915 42.50        25.3 0.35                          16.9 201 
 GIR2 SZ EP   1   1915 26.16                             165    0.04 7 38.7 349 
 GIR2 SZ ES   1   1915 42.08                             165    0.30 7 38.7 349 
 BRR  HZ EP   1   1915 27.92                             151    0.25 7 76.6 303 
 BRR  HZ I        1915 28.29        25.8 0.15                          76.6 303 
 BRR  HN ES   1   1915 44.88                             151    0.34 7 76.6 303 
 PAM  SZ EP   1   1915 29.08                             150    0.39 7 81.8  35 
 PAM  SZ I        1915 29.95        13.3 0.23                          81.8  35 
 PAM  SN ES   1   1915 46.39                             150    0.03 7 81.8  35 
 RUS  HZ EP   1   1915 29.74                             146    0.30 7 93.3 177 
 RUS  HN ES   1   1915 47.19                             146   -0.50 7 93.3 177 
 RUS  HZ I        1915 48.41        11.7 0.32                          93.3 177 
 PTB  HZ EP   1   1915 32.83                             132   -0.37 7  149 262 
 PTB  HZ I        1915 53.80        14.3 0.40                           149 262 
 OCA  HE ES   1   1915 57.01                             129   -0.87 7  168 353 
 ZAR  HN ES   1   1916  4.91                             122    0.09 6  209 294 
                                                                                
