 2012  212 1927 28.6 L   6.769 -73.157142.4  RSN  7 0.4 1.7LRSN                1
 GAP=136        0.73       4.6     4.4 10.4 -0.3964E+01  0.1686E+02 -0.3113E+01E
 ACTION:DUP 12-03-07 16:29 OP:epov STATUS:               ID:20120212192729dL   I
 2012-02-12-1920-00M.COL___188                                                 6
 STAT SP IPHASW D HRMM SECON CODA AMPLIT PERI AZIMU VELO AIN AR TRES W  DIS CAZ7
 GIR2 SZ EP   1   1927 48.19                             166    0.20 7 34.5 353 
 BRR  HZ EP   1   1927 49.92                             152    0.47 7 71.8 301 
 BRR  HZ I        1927 50.33        16.8 0.13                          71.8 301 
 PAM  SZ EP   1   1927 50.97                             149    0.27 7 80.9  39 
 PAM  SN ES   1   1928  7.38                             149   -0.53 7 80.9  39 
 RUS  HZ EP   1   1927 51.62                             144   -0.18 7 97.2 175 
 RUS  HN ES   1   1928 10.06                             144    0.18 7 97.2 175 
 RUS  HZ I        1928 12.41         3.9 0.29                          97.2 175 
 PTB  HZ EP   1   1927 54.84                             131   -0.31 7  146 260 
 PTB  HN ES   1   1928 16.31                             131    0.48 7  146 260 
 PTB  HZ I        1928 19.04                                            146 260 
 ZAR  HN ES   1   1928 25.81                             121   -0.21 6  204 293 
 ZAR  HZ I        1928 31.82         5.4 0.25                           204 293 
 NOR  SE ES   1   1928 30.70                             118   -0.60 6  232 235 
                                                                                
