 2012  912 1759 26.1 L   6.779 -73.121146.0  RSN  5 0.4 1.6LRSN                1
 GAP=191        0.71       7.9     9.6  9.0  0.5454E+02  0.2286E+02  0.2040E+02E
 Epicentro: LOS SANTOS - SANTANDER                                             3
 ACTION:UPD 12-10-22 14:18 OP:ep   STATUS:               ID:20120912175926 L   I
 2012-09-12-1757-48M.COL___211                                                 6
 STAT SP IPHASW D HRMM SECON CODA AMPLIT PERI AZIMU VELO AIN AR TRES W  DIS CAZ7
 BAR2 SZ EP   1   1759 45.58                             171   -0.16 7 21.7 198 
 BAR2 SZ I        1759 45.77        12.0 0.20                          21.7 198 
 GIR2 SZ ES   1   18 0  1.02                             166   -0.30 7 34.1 346 
 BRR  HZ EP   1   1759 47.46                             151   -0.03 7 74.7 299 
 BRR  HZ I        1759 48.42         9.7 0.36                          74.7 299 
 BRR  HN ES   1   18 0  4.80                             151    0.64 7 74.7 299 
 RUS  HZ EP   1   1759 50.09                             144    0.38 7 98.1 178 
 RUS  HN ES   1   18 0  7.90                             144   -0.22 7 98.1 178 
 RUS  HZ I        18 0  8.90         3.0 0.26                          98.1 178 
 ZAR  HN ES   1   18 0 24.10                             122   -0.42 6  207 292 
 ZAR  HZ I        18 0 29.52         5.5 0.32                           207 292 
                                                                                
