 2016  612 1122 59.2 L   6.879 -73.334122.1  RSN  8 0.3 1.9LRSN                1
 GAP=152        0.84       2.5     3.9  4.9 -0.1101E+01  0.2532E+01  0.1717E+01E
 Epicentro: BETULIA - SANTANDER                                                3
 ACTION:UPD 16-07-21 22:18 OP:rebc STATUS:               ID:20160612112259 L   I
 OLDACT:REG 16-06-12 20:12 OP:edw  STATUS:               ID:20160612111742     3
 2016-06-12-1117-42M.COL___319                                                 6
 STAT SP IPHASW D HRMM SECON CODA AMPLIT PERI AZIMU VELO AIN AR TRES W  DIS CAZ7
 BAR2 EZ EP     C 1123 16.58                             163    0.2510 35.8 152 
 BAR2 EZ ES       1123 29.41                             163   -0.3110 35.8 152 
 BRR  HZ EP       1123 16.91                             157    0.3910 48.8 301 
 BRR  HN ES       1123 30.43                             157    0.3610 48.8 301 
 BRR  HZ I        1123 31.44        15.8 0.11                          48.8 301 
 RUS  HZ EP       1123 21.58                             135   -0.0810  113 166 
 RUS  HN ES       1123 39.17                             135   -0.0510  113 166 
 PTB  HZ EP     D 1123 21.90                             130   -0.6610  130 253 
 PTB  HN ES       1123 40.60                             130   -0.2210  130 253 
 PTB  HZ I        1123 44.02        13.0 0.16                           130 253 
 OCA  HZ EP       1123 24.71                             126   -0.04 9  150   1 
 OCA  HN ES       1123 44.68                             126   -0.04 9  150   1 
 OCA  HZ I        1123 46.47        19.8 0.23                           150   1 
 SPBC HZ EP       1123 24.84                             124   -0.62 9  158 211 
 SPBC HN ES       1123 46.19                             124    0.21 9  158 211 
 SPBC HZ I        1123 47.65        11.3 0.08                           158 211 
 TAM  HZ EP   4   1123 10.41                             121   -17.0 0  177 106 
 NOR  HZ EP       1123 32.83                             114    0.43 8  224 230 
 NOR  HE ES       1123 58.38                             114    0.05 8  224 230 
 NOR  HZ I        1124  2.15         3.9 0.18                           224 230 
 CHI  HZ EP       1123 36.47                             111    0.36 8  253 190 
 CHI  HE ES       1124  5.13                             111    0.20 8  253 190 
                                                                                
