 2014  812 1600 40.9 L   6.776 -73.168148.5  RSN  6 0.4 1.7LRSN                1
 GAP=198        0.83       4.6     6.1  7.4  0.2758E+01  0.3562E+01 -0.9170E+01E
 Epicentro: LOS SANTOS - SANTANDER                                             3
 ACTION:UPD 14-09-15 21:49 OP:nd   STATUS:               ID:20140812160040 L   I
 OLDACT:REG 14-08-12 22:12 OP:spq  STATUS:               ID:20140812155818     3
 2014-08-12-1558-18M.COL___263                                                 6
 STAT SP IPHASW D HRMM SECON CODA AMPLIT PERI AZIMU VELO AIN AR TRES W  DIS CAZ7
 BAR2 SZ EP     D 16 1  0.71                             172   -0.0810 20.4 184 
 BAR2 SZ ES   1   16 1 16.00                             172   -0.31 7 20.4 184 
 BAR2 SZ I        16 1 16.69        13.7 0.20            170           20.4 184 
 BRR  HZ EP   1   16 1  2.86                             153    0.58 7 70.4 301 
 BRR  HN ES       16 1 19.35                             153    0.3810 70.4 301 
 BRR  HZ I        16 1 19.39        15.8 0.36            150           70.4 301 
 RUS  HE ES   1   16 1 23.20                             145   -0.13 7 98.1 175 
 RUS  HZ I        16 1 24.15         2.6 0.21            143           98.1 175 
 PTB  HZ EP       16 1  7.53                             133   -0.28 9  145 260 
 PTB  HN ES       16 1 28.36                             133   -0.46 9  145 260 
 PTB  HZ I        16 1 30.73         5.3 0.10            130            145 260 
 SPBC HE ES   1   16 1 32.00                             130    0.62 7  160 219 
 SPBC HZ I        16 1 37.50         3.8 0.26            127            160 219 
 SML  HZ EP   1   16 1 18.13                             118    0.32 6  245 336 
 SML  HN ES   1   16 1 46.25                             118   -0.37 6  245 336 
 SML  HZ I        16 1 52.35         4.8 0.10            116            245 336 
                                                                                
