 2011  512 1054 42.1 L   6.783 -73.099143.7  RSN  8 0.3 1.8LRSN                1
 GAP=168        0.66       5.3     6.9  4.9 -0.1133E+02 -0.8634E+01 -0.5161E+01E
 Epicentro: LOS SANTOS - SANTANDER                                             3
 ACTION:UP  11-06-29 08:52 OP:tino STATUS:               ID:20110512105442 L   I
 2011-05-12-1053-02S.COL___129                                                 6
 STAT SP IPHASW D HRMM SECON CODA AMPLIT PERI AZIMU VELO SNR AR TRES W  DIS CAZ7
 BAR2 SZ EP       1055  1.40                             171     0.010   23 204 
 BAR2 SZ ES   1   1055 16.18                             171    -0.4 7   23 204 
 BAR2 SZ I        1055 17.53        13.0 0.17                            23 204 
 BTL  SZ EP       1055  1.54                             171     0.110   24 309 
 BTL  SZ ES   1   1055 16.59                             171     0.0 7   24 309 
 GIR2 SZ EP       1055  1.50                             166    -0.110   34 342 
 GIR2 SZ ES   1   1055 16.75                             166     0.0 7   34 342 
 PAM  SZ EP       1055  4.38                             151     0.410   76  36 
 PAM  SN ES   3   1055 20.38                             151    -0.7 2   76  36 
 BRR  HZ EP       1055  3.31                             151     0.010   77 298 
 BRR  HN ES   1   1055 20.15                             151     0.3 7   77 298 
 BRI  SZ EP       1055  5.91                             141     0.210  108  18 
 GRA  SZ EP       1055  7.15                             136     0.010  126  15 
 GRA  SZ ES   1   1055 26.82                             136     0.1 7  126  15 
 GRA  SZ I        1055 27.95         7.6 0.16                           126  15 
 OCA  SZ EP       1055  9.88                             129    -0.6 9  163 351 
 OCA  SZ I        1055 36.37         9.6 0.07                           163 351 
                                                                                
