 2013  312 1300 54.8 L   6.767 -73.092150.1  RSN  8 0.4 2.4LRSN                1
 GAP=145        0.81       4.0     5.4  6.2  0.5406E+01  0.9849E+01  0.4649E+01E
 Epicentro: LOS SANTOS - SANTANDER                                             3
 ACTION:UPD 13-04-09 14:01 OP:ep   STATUS:               ID:20130312130054 L   I
 2013-03-12-1300-00M.COL___231                                                 6
 STAT SP IPHASW D HRMM SECON CODA AMPLIT PERI AZIMU VELO AIN AR TRES W  DIS CAZ7
 BAR2 SZ IP       13 1 15.08                             171    0.1210 21.7 207 
 BAR2 SZ ES   1   13 1 30.50                             171   -0.15 7 21.7 207 
 BAR2 SZ I        13 1 31.74        49.2 0.36            161           21.7 207 
 PAM  SZ EP   1   13 1 17.79                             152    0.31 7 76.8  34 
 PAM  SN ES   1   13 1 34.99                             152   -0.15 7 76.8  34 
 PAM  SZ I        13 1 37.29        20.0 0.25            151           76.8  34 
 BRR  HZ IP     C 13 1 17.00                             151    0.1510 78.2 299 
 BRR  HE ES       13 1 34.53                             151    0.5010 78.2 299 
 BRR  HN I        13 1 37.99       121.0 0.18            139           78.2 299 
 RUS  HZ EP       13 1 18.85                             146    0.1110 96.6 179 
 RUS  HN ES   1   13 1 36.69                             146   -0.70 7 96.6 179 
 RUS  HN I        13 1 38.24        28.0 0.30            138           96.6 179 
 RUS  HZ I        13 1 38.92        16.1 0.38                          96.6 179 
 ZAR  HZ EP   1   13 1 27.52                             122   -0.75 6  211 292 
 ZAR  HN ES   1   13 1 53.88                             122   -0.47 6  211 292 
 ZAR  HZ I        13 1 59.71        29.0 0.46            113            211 292 
 SML  HN ES   1   13 2  1.02                             118   -0.57 6  250 334 
 HEL  HZ EP   1   13 1 36.37                             115    0.56 6  277 257 
 HEL  HZ I        13 2 15.12         9.8 0.43            108            277 257 
 PRA  HZ EP   1   13 1 48.24                             107   -0.24 4  392 211 
 PRA  HN ES   1   13 2 30.66                             107    0.34 4  392 211 
 PRA  HZ I        13 2 36.02        11.4 0.60            102            392 211 
                                                                                
