 2017 1112 1550 16.2 L   6.782 -73.128140.0  RSN 12 0.5 1.9LRSN                1
 GAP=114        1.02       3.8     3.9  6.4 -0.1659E+01  0.5065E+01  0.8305E+01E
 Epicentro: LOS SANTOS - SANTANDER                                             3
 ACTION:UPD 17-12-12 19:54 OP:rebc STATUS:               ID:20171112155016 L   I
 OLDACT:UP  17-11-13 00:28 OP:mg   STATUS:               ID:20171112153537     3
 OLDACT:REG 17-11-12 22:08 OP:mg   STATUS:               ID:20171112153537     3
 2017-11-12-1548-00M.COL___462                                                 6
 STAT SP IPHASW D HRMM SECON CODA AMPLIT PERI AZIMU VELO AIN AR TRES W  DIS CAZ7
 BAR2 EZ EP       1550 34.94                             171   -0.1610 21.8 196 
 BAR2 EZ ES   2   1550 49.69                             171   -0.16 5 21.8 196 
 BAR2 EZ I        1550 52.10        17.1 0.20            168           21.8 196 
 BRR  HZ EP       1550 36.30                             151   -0.5910 73.9 299 
 BRR  HN ES       1550 53.50                             151    0.4710 73.9 299 
 BRR  HZ I        1550 54.38        11.5 0.10            151           73.9 299 
 PAM  EZ EP       1550 37.99                             150    0.1710 77.7  37 
 PAM  EN ES       1550 54.65                             150   -0.0410 77.7  37 
 PAM  EZ I        1550 57.13        13.1 0.48            155           77.7  37 
 RUS  HZ EP       1550 39.01                             143   -0.2210 98.4 177 
 RUS  HN ES       1550 57.17                             143   -0.0210 98.4 177 
 RUS  HZ I        1550 59.80        10.4 0.34            145           98.4 177 
 PTB  HZ EP   1   1550 41.77                             130   -1.08 7  149 260 
 PTB  HN ES   2   1551  2.56                             130   -1.08 5  149 260 
 PTB  HZ I        1551  6.98         5.7 0.14            131            149 260 
 SPBC HZ EP       1550 44.02                             128   -0.21 9  163 220 
 SPBC HN ES       1551  6.55                             128    0.45 9  163 220 
 SPBC HZ I        1551 11.81        13.0 0.13            129            163 220 
 YPLC HZ EP       1550 45.59                             126    0.28 9  174 152 
 ZAR  HZ EP   2   1550 49.47                             121    0.92 4  207 292 
 ZAR  HE ES       1551 14.12                             121    0.34 8  207 292 
 ZAR  HZ I        1551 19.88        10.5 0.32            123            207 292 
 NOR  HZ EP       1550 51.67                             117    0.02 8  235 235 
 NOR  HN ES       1551 18.82                             117   -0.48 8  235 235 
 NOR  HZ I        1551 23.00         7.4 0.34            119            235 235 
 CHI  HN EP   2   1550 54.67                             116    1.24 4  247 196 
 CHI  HE ES   2   1551 23.70                             116    1.24 4  247 196 
 CHI  HN I        1551 26.53         5.2 0.23            118            247 196 
 GUY2CHZ EP       1551  0.15                             111    0.55 7  302 235 
 GUY2CHN ES       1551 33.80                             111    0.35 7  302 235 
 GUY2CHZ I        1551 41.36         4.0 0.42                           302 235 
 PRA  HZ EP       1551  9.75                             106    0.32 6  391 210 
 PRA  HE ES       1551 50.07                             106   -0.89 6  391 210 
 PRA  HZ I        1551 55.85         2.6 0.26            107            391 210 
                                                                                
