 2014 1212 1341 45.0 L   6.824 -73.151149.7  RSN  5 0.5 1.8LRSN                1
 GAP=143        1.29       7.5     7.6  9.9 -0.2542E+02  0.2109E+02 -0.3721E+01E
 Epicentro: LOS SANTOS - SANTANDER                                             3
 ACTION:UPD 15-02-10 17:03 OP:nd   STATUS:               ID:20141212134145 L   I
 OLDACT:REG 14-12-12 20:36 OP:stll STATUS:               ID:20141212133748     3
 2014-12-12-1337-48M.COL___287                                                 6
 STAT SP IPHASW D HRMM SECON CODA AMPLIT PERI AZIMU VELO AIN AR TRES W  DIS CAZ7
 BAR2 EZ EP       1342  5.21                             170    0.0810 25.9 188 
 BAR2 EZ I        1342  5.51        14.9 0.32            170           25.9 188 
 BAR2 EZ ES       1342 21.15                             170    0.3010 25.9 188 
 PAM  SZ EP       1342  7.92                             152    0.4110 75.7  41 
 PAM  SZ I        1342  8.20        12.9 0.22            153           75.7  41 
 PAM  SN ES       1342 25.05                             152   -0.0410 75.7  41 
 RUS  HZ EP       1342  8.99                             144   -0.3110  103 176 
 RUS  HZ I        1342  9.85         4.3 0.26            147            103 176 
 RUS  HN ES       1342 27.54                             144   -0.7410  103 176 
 PTB  HZ EP       1342 11.85                             133   -0.41 9  148 258 
 PTB  HN ES       1342 33.04                             133   -0.51 9  148 258 
 PTB  HZ I        1342 40.43        12.2 0.36            131            148 258 
 SPBC HZ EP       1342 14.15                             130    0.21 9  165 218 
 SPBC HZ I        1342 14.43        12.2 0.18            130            165 218 
 SPBC HN ES       1342 37.65                             130    1.12 9  165 218 
                                                                                
