 2010  312 1305  9.6 L   6.826 -72.956148.0  RSN  4 0.1 1.7LRSN                1
 GAP=257        0.42       4.8     6.5  4.8  0.1739E+02 -0.6554E+01 -0.1929E+00E
 Epicentro: CEPITA - SANTANDER                                                 3
 ACTION:UP  10-08-24 09:53 OP:vdl  STATUS:               ID:20100312130509 L   I
 2010-03-12-1304-27S.COL___093                                                 6
 STAT SP IPHASW D HRMM SECON CODA AMPLIT PERI AZIMU VELO SNR AR TRES W  DIS CAZ7
 BAR2 SZ EP   1   13 5 29.95                             166     0.1 7   36 224 
 BAR2 SZ ES   1   13 5 45.46                             166    -0.1 7   36 224 
 BRR  HZ EP       13 5 31.92                             147    -0.210   89 290 
 BRR  HN ES       13 5 49.76                             147     0.110   89 290 
 RUS  HZ EP   1   13 5 34.01                             143     0.2 7  104 188 
 RUS  HN ES   2   13 5 52.67                             143    -0.1 5  104 188 
 RUS  HZ I        13 5 53.96         4.6 0.21                           104 188 
 RREF HE ES   2   13 6 35.46                             110    -0.1 3  340 231 
 RREF HZ I        13 6 41.73         3.2 0.12                           340 231 
                                                                                
