 2013 1012 1533  9.6 L   6.748 -73.066141.3  RSN  5 0.2 1.5LRSN                1
 GAP=149        0.45       2.0     3.5  3.3 -0.1243E+01 -0.3802E-02  0.1892E+01E
 Epicentro: LOS SANTOS - SANTANDER                                             3
 ACTION:UPD 13-11-25 09:21 OP:ep   STATUS:               ID:20131012153309 L   I
 OLDACT:REG 13-10-12 15:42 OP:nd   STATUS:               ID:20131012152959     3
 2013-10-12-1529-59M.COL___273                                                 6
 STAT SP IPHASW D HRMM SECON CODA AMPLIT PERI AZIMU VELO AIN AR TRES W  DIS CAZ7
 BAR2 SZ EP       1533 28.81                             171    0.1310 21.5 217 
 BAR2 SZ ES       1533 43.29                             171   -0.2610 21.5 217 
 BAR2 SZ I        1533 54.25        10.0 0.60            170           21.5 217 
 PAM  SZ EP       1533 31.40                             150    0.0610 76.9  32 
 PAM  SN ES       1533 48.17                             150   -0.1010 76.9  32 
 PAM  SZ I        1533 51.01         9.6 0.54            157           76.9  32 
 BRR  HZ IP     C 1533 30.80                             148   -0.1410 81.7 299 
 BRR  HN ES       1533 47.71                             148    0.1610 81.7 299 
 BRR  HZ I        1533 51.13         9.6 0.44            152           81.7 299 
 RUS  HZ EP       1533 32.64                             145    0.1310 94.6 181 
 RUS  HN ES       1533 50.56                             145    0.2010 94.6 181 
 RUS  HZ I        1533 52.50         2.3 0.34            148           94.6 181 
 CHI  HZ EP       1533 46.64                             116   -0.11 8  246 198 
 CHI  HN ES       1534 15.53                             116   -0.18 8  246 198 
 CHI  HZ I        1534 19.08         1.3 0.40            121            246 198 
                                                                                
