 2012  512 1403 57.1 L   6.794 -73.122150.2  RSN 11 0.4 2.8LRSN                1
 GAP=140        0.87       3.4     4.2  6.0 -0.1498E+01  0.6534E+01  0.3869E+01E
 Epicentro: LOS SANTOS - SANTANDER                                             3
 ACTION:UP  12-07-05 12:04 OP:pat  STATUS:               ID:20120512140357 L   I
 2012-05-12-1400-00M.COL___195                                                 6
 STAT SP IPHASW D HRMM SECON CODA AMPLIT PERI AZIMU VELO SNR AR TRES W  DIS CAZ7
 BAR2 SZ IP       14 4 17.19                             171    -0.110   23 197 
 BAR2 SZ ES   1   14 4 32.71                             171    -0.3 7   23 197 
 BAR2 SZ I        14 4 34.34       117.7 0.36                            23 197 
 BRR  HZ IP     C 14 4 19.15                             152     0.310   74 298 
 BRR  HZ I        14 4 19.43       204.6 0.17                            74 298 
 BRR  HE ES   1   14 4 36.70                             152     0.9 7   74 298 
 PAM  SZ EP       14 4 19.99                             152     0.310   76  38 
 PAM  SN ES   1   14 4 37.41                             152     0.1 7   76  38 
 RUS  HZ EP       14 4 21.02                             145    -0.210  100 178 
 RUS  HN ES   1   14 4 39.82                             145    -0.2 7  100 178 
 RUS  HZ I        14 4 41.58        54.5 0.38                           100 178 
 PTB  HZ EP   1   14 4 23.91                             132    -0.7 7  150 259 
 PTB  HN ES   1   14 4 45.41                             132    -0.7 7  150 259 
 PTB  HZ I        14 4 52.28        56.4 0.43                           150 259 
 OCA  HZ EP   1   14 4 25.84                             130     0.0 7  161 352 
 OCA  HE ES   1   14 4 47.85                             130    -0.4 7  161 352 
 OCA  HZ I        14 4 53.24       164.6 0.38                           161 352 
 ZAR  HZ EP   1   14 4 29.65                             123    -0.4 6  207 292 
 ZAR  HN ES   1   14 4 55.69                             123    -0.1 6  207 292 
 ZAR  HZ I        14 5  1.71        83.0 0.39                           207 292 
 CHI  HZ EP   1   14 4 35.08                             118     0.0 6  249 196 
 CHI  HN ES   1   14 5  4.76                             118     0.1 6  249 196 
 CHI  HZ I        14 5  8.67        22.5 0.38                           249 196 
 HEL  HZ EP   1   14 4 37.86                             115     0.1 6  274 256 
 HEL  HE ES   1   14 5  9.80                             115     0.3 6  274 256 
 HEL  HZ I        14 5 16.27        36.4 0.43                           274 256 
 RREF HZ EP   1   14 4 44.00                             111     0.4 5  323 230 
 RREF HN ES   1   14 5 20.52                             111     0.6 5  323 230 
 RREF HZ I        14 5 26.24        34.4 0.30                           323 230 
 PRA  HZ EP   1   14 4 50.83                             107     0.0 4  393 210 
 PRA  HE ES   1   14 5 33.15                             107     0.4 4  393 210 
                                                                                
