 2013  912 1902 19.3 L   6.803 -73.116145.6  RSN  9 0.5 2.0LRSN                1
 GAP=140        1.01       3.9     4.8  6.6 -0.1508E+01  0.1054E+02 -0.2717E+01E
 Epicentro: LOS SANTOS - SANTANDER                                             3
 ACTION:UPD 13-10-22 09:22 OP:ep   STATUS:               ID:20130912190219 L   I
 OLDACT:UP  13-09-12 17:01 OP:cam  STATUS:               ID:20130912185959     3
 OLDACT:REG 13-09-12 15:22 OP:cam  STATUS:               ID:20130912185959     3
 2013-09-12-1859-59M.COL___269                                                 6
 STAT SP IPHASW D HRMM SECON CODA AMPLIT PERI AZIMU VELO AIN AR TRES W  DIS CAZ7
 BAR2 SZ EP       19 2 38.86                             170   -0.0610 24.4 198 
 BAR2 SZ ES       19 2 53.77                             170   -0.4710 24.4 198 
 BAR2 SZ I        19 2 54.71        16.3 0.16            171           24.4 198 
 BRR  HZ EP       19 2 40.63                             152    0.0510 74.0 297 
 BRR  HN ES       19 2 57.78                             152    0.5910 74.0 297 
 BRR  HZ I        19 2 59.53        19.3 0.14            149           74.0 297 
 PAM  SZ EP       19 2 41.64                             151    0.2910 75.0  38 
 PAM  SN ES       19 2 58.81                             151    0.2510 75.0  38 
 PAM  SZ I        19 3  1.03        20.1 0.48            152           75.0  38 
 RUS  HZ EP   1   19 2 42.94                             144   -0.09 7  101 178 
 RUS  HN ES       19 3  1.43                             144   -0.1310  101 178 
 RUS  HZ I        19 3  3.06         3.6 0.30            146            101 178 
 PTB  HZ EP   4   19 2 45.35                             131   -1.19 0  151 259 
 PTB  HN ES   1   19 3  6.74                             131   -1.07 7  151 259 
 PTB  HZ I        19 3  8.89        10.3 0.14            130            151 259 
 ZAR  HZ EP   1   19 2 52.31                             122    0.28 6  207 292 
 ZAR  HN ES   1   19 3 17.73                             122    0.16 6  207 292 
 ZAR  HZ I        19 3 23.44        19.5 0.26            121            207 292 
 NOR  HZ EP   1   19 2 54.93                             118   -0.39 6  238 235 
 NOR  HE ES       19 3 23.96                             118    0.54 8  238 235 
 NOR  HZ I        19 3 27.93         7.7 0.52            118            238 235 
 SML  HZ EP   1   19 2 55.05                             117   -0.97 6  245 335 
 SML  HN ES       19 3 24.31                             117   -0.37 8  245 335 
 SML  HZ I        19 3 32.31        16.4 0.24            117            245 335 
 GUY2CHZ EP   1   19 3  4.03                             112    0.81 5  304 235 
                                                                                
