 2013  812 1024  3.4 L   6.822 -73.186145.3  RSN  5 0.1 1.2LRSN                1
 GAP=131        0.37       2.0     2.7  3.9 -0.2463E+00  0.2356E+01 -0.3782E+01E
 Epicentro: ZAPATOCA - SANTANDER                                               3
 ACTION:UPD 14-01-14 09:01 OP:ep   STATUS:               ID:20130812102403 L   I
 OLDACT:REG 13-08-12 16:02 OP:jn   STATUS:               ID:20130812101960d    3
 2013-08-12-1019-59M.COL___270                                                 6
 STAT SP IPHASW D HRMM SECON CODA AMPLIT PERI AZIMU VELO AIN AR TRES W  DIS CAZ7
 BAR2 SZ ES   1   1024 38.31                             170   -0.02 7 25.4 179 
 BAR2 SZ I        1024 42.15         5.8 0.48            172           25.4 179 
 PAM  SZ EP       1024 25.87                             150    0.2310 78.4  43 
 PAM  SN ES   1   1024 42.90                             150   -0.08 7 78.4  43 
 PAM  SZ I        1024 45.47         3.4 0.64            152           78.4  43 
 RUS  HZ EP   1   1024 27.25                             143   -0.07 7  103 174 
 RUS  HN ES       1024 45.90                             143   -0.0710  103 174 
 RUS  HZ I        1024 46.83         1.5 0.36            147            103 174 
 PTB  HN ES   1   1024 50.84                             133    0.11 7  144 258 
 SML  HZ EP       1024 39.41                             118   -0.16 8  240 336 
 SML  HN ES   1   1025  7.75                             118   -0.03 6  240 336 
                                                                                
