 2017  512 1315 53.2 L   6.781 -73.152145.0  RSN  7 0.4 1.6LRSN                1
 GAP=137        0.99       4.2     4.2  7.3 -0.1984E+01  0.8120E+01  0.2583E+01E
 Epicentro: LOS SANTOS - SANTANDER                                             3
 ACTION:UPD 17-06-16 13:35 OP:jn   STATUS:               ID:20170512131553 L   I
 OLDACT:REG 17-05-12 20:31 OP:lv   STATUS:               ID:20170512130742     3
 2017-05-12-1308-00M.COL___368                                                 6
 STAT SP IPHASW D HRMM SECON CODA AMPLIT PERI AZIMU VELO AIN AR TRES W  DIS CAZ7
 BRR  HZ EP       1316 14.36                             152    0.0410 71.6 300 
 BRR  HN ES       1316 31.38                             152    0.6110 71.6 300 
 BRR  HZ I        1316 36.00         8.6 0.17            153           71.6 300 
 PAM  EZ EP       1316 15.47                             150   -0.0210 79.5  39 
 PAM  EN ES       1316 32.50                             150   -0.3510 79.5  39 
 PAM  EZ I        1316 34.61         6.3 0.37            153           79.5  39 
 RUS  HZ EP       1316 17.12                             144    0.3710 98.5 176 
 RUS  HN ES       1316 35.08                             144   -0.0210 98.5 176 
 RUS  HZ I        1316 36.41         6.9 0.32            148           98.5 176 
 PTB  HZ EP       1316 19.61                             132   -0.42 9  147 260 
 PTB  HN ES       1316 39.99                             132   -0.95 9  147 260 
 PTB  HZ I        1316 44.28         4.4 0.30            134            147 260 
 SPBC HN ES   1   1316 43.76                             129    0.26 7  161 219 
 ZAR  HZ EP       1316 25.69                             122    0.05 9  204 293 
 ZAR  HN ES       1316 51.30                             122    0.38 9  204 293 
 NOR  HZ EP       1316 28.74                             118    0.02 8  233 235 
 NOR  HN ES       1316 56.57                             118    0.17 8  233 235 
 NOR  HZ I        1316 58.26         4.5 0.16            121            233 235 
 CHI  HN ES   4   1317  2.20                             117    2.38 0  246 195 
 SJC  HZ EP   4   1316 47.44                             105   -1.49 0  411 327 
 SJC  HN ES   4   1317 28.90                             105   -3.47 0  411 327 
                                                                                
