 2011  712 1152 20.3 L   6.811 -73.148149.1  RSN  8 0.4 2.0LRSN                1
 GAP=155        0.72       4.0     6.3  6.0 -0.5598E+01  0.4144E+01  0.4784E+01E
 Epicentro: LOS SANTOS - SANTANDER                                             3
 ACTION:UPD 12-07-25 14:00 OP:epov STATUS:               ID:20110712115220 L   I
 2011-07-12-1150-12S.COL___142                                                 6
 STAT SP IPHASW D HRMM SECON CODA AMPLIT PERI AZIMU VELO AIN AR TRES W  DIS CAZ7
 BAR2 SZ EP   1   1152 40.23                             170   -0.12 7 24.5 189 
 BAR2 SZ ES   1   1152 55.47                             170   -0.53 7 24.5 189 
 BAR2 SZ I        1152 58.28        27.3 0.27                          24.5 189 
 GIR2 SZ EP   1   1152 40.70                             168    0.36 7 30.1 350 
 BRR  HZ EP   1   1152 41.97                             153    0.21 7 70.4 298 
 BRR  HN ES   1   1152 58.98                             153    0.47 7 70.4 298 
 BRR  HZ I        1153  1.60        17.1 0.12                          70.4 298 
 RUS  HZ EP   1   1152 44.28                             144   -0.18 7  102 176 
 RUS  HN ES   1   1153  3.36                             144    0.04 7  102 176 
 RUS  HZ I        1153  4.30        12.5 0.23                           102 176 
 BRI  SZ EP   1   1152 44.34                             142   -0.09 7  107  21 
 BRI  SZ I        1153  8.75         7.9 0.40                           107  21 
 NOR  SZ EP   1   1152 55.90                             119   -0.37 6  235 234 
 NOR  SN ES   1   1153 23.58                             119   -0.75 6  235 234 
 CHI  HZ EP   1   1152 58.25                             118   -0.05 6  250 195 
 CHI  HZ I        1152 58.96         5.1 0.09                           250 195 
 CHI  HE ES   1   1153 28.67                             118    0.73 6  250 195 
 PRA  HZ EP   1   1153 13.80                             107   -0.24 4  393 209 
 PRA  HZ I        1153 15.59        14.4 0.17                           393 209 
 PRA  HN ES   1   1153 56.59                             107    0.64 4  393 209 
                                                                                
