 2010  812 1708  2.3 L   6.779 -73.091146.9  RSN  6 0.2 1.7LRSN                1
 GAP=165        0.50       3.6     7.3  6.0  0.9581E+01 -0.2263E+02 -0.1026E+02E
 Epicentro: LOS SANTOS - SANTANDER                                             3
 ACTION:UP  10-09-07 10:54 OP:vdl  STATUS:               ID:20100812170802 L   I
 2010-08-12-1706-10S.COL___126                                                 6
 STAT SP IPHASW D HRMM SECON CODA AMPLIT PERI AZIMU VELO SNR AR TRES W  DIS CAZ7
 BAR2 SZ EP       17 8 21.98                             171    -0.110   23 206 
 BAR2 SZ ES   1   17 8 37.10                             171    -0.4 7   23 206 
 BAR2 SZ I        17 8 38.72        17.4 0.19                            23 206 
 BTL  SZ EP       17 8 22.15                             170     0.110   25 308 
 BRR  HZ EP       17 8 23.76                             151    -0.210   78 298 
 BRR  HE ES   1   17 8 41.02                             151     0.2 7   78 298 
 RUS  HZ EP       17 8 25.86                             145    -0.110   98 179 
 RUS  HN ES   1   17 8 44.77                             145     0.3 7   98 179 
 RUS  HZ I        17 8 46.54         5.5 0.47                            98 179 
 GUE  SZ EP       17 8 27.22                             139     0.010  118   9 
 GRA  SZ EP   1   17 8 27.78                             137     0.1 7  126  15 
                                                                                
