 2012  912 1525 45.1 L   6.510 -73.517115.2  RSN  9 0.4 2.3LRSN                1
 GAP= 90        0.75       3.5     3.5  6.2 -0.1493E+01  0.9606E+01  0.1530E+01E
 Epicentro: EL CARMEN DE CHUCURI - SANTANDER                                   3
 ACTION:UPD 12-10-22 14:18 OP:ep   STATUS:               ID:20120912152546dL   I
 2012-09-12-1520-00M.COL___227                                                 6
 STAT SP IPHASW D HRMM SECON CODA AMPLIT PERI AZIMU VELO AIN AR TRES W  DIS CAZ7
 BAR2 SZ IP       1526  1.75                             160    0.2210 38.1  76 
 BAR2 SZ ES   1   1526 14.65                             160    0.28 7 38.1  76 
 BAR2 SZ I        1526 15.38       526.0 0.48                          38.1  76 
 BRR  HZ EP   1   1526  2.61                             147   -0.29 7 69.5 342 
 BRR  HZ I        1526  2.88        61.2 0.12                          69.5 342 
 BRR  HE ES   1   1526 16.72                             147   -0.08 7 69.5 342 
 GIR2 SZ EP       1526  3.37                             146    0.0810 72.3  30 
 GIR2 SZ ES   1   1526 17.45                             146   -0.05 7 72.3  30 
 RUS  HZ EP   1   1526  4.80                             142    0.21 7 83.5 145 
 RUS  HN ES   1   1526 19.88                             142    0.06 7 83.5 145 
 RUS  HZ I        1526 21.71        19.1 0.40                          83.5 145 
 PTB  HN EP   1   1526  4.57                             135   -1.03 7  104 272 
 PTB  HN I        1526 20.42        54.0 0.18                           104 272 
 PAM  SZ EP       1526  8.39                             129   -0.1010  129  45 
 PAM  SZ I        1526  9.12        13.8 0.18                           129  45 
 PAM  SE ES   1   1526 26.48                             129   -0.28 7  129  45 
 NOR  SZ EP   1   1526 13.30                             118   -0.15 7  183 235 
 NOR  SN ES   1   1526 35.34                             118   -0.25 7  183 235 
 ZAR  HZ EP   1   1526 13.98                             118    0.47 7  184 306 
 ZAR  HE ES   1   1526 36.09                             118    0.40 7  184 306 
 ZAR  HZ I        1526 38.44        21.0 0.36                           184 306 
 HEL  HZ EP   1   1526 19.21                             112    0.63 6  225 261 
 HEL  HZ I        1526 47.55         9.1 0.34                           225 261 
                                                                                
