 2013  512 1842 29.3 L   6.794 -73.141145.8  RSN  7 0.4 1.7LRSN                1
 GAP=137        0.92       4.8     4.6  6.3 -0.4182E+01  0.3510E+01  0.6577E+01E
 Epicentro: LOS SANTOS - SANTANDER                                             3
 ACTION:UPD 13-06-20 09:49 OP:ep   STATUS:               ID:20130512184229 L   I
 2013-05-12-1840-00M.COL___256                                                 6
 STAT SP IPHASW D HRMM SECON CODA AMPLIT PERI AZIMU VELO AIN AR TRES W  DIS CAZ7
 BAR2 SZ EP       1842 48.85                             171   -0.0410 22.7 192 
 BAR2 SZ ES       1843  3.92                             171   -0.2810 22.7 192 
 BAR2 SZ I        1843  5.15        12.9 0.14            170           22.7 192 
 BRR  HZ EP   1   1842 50.78                             152    0.31 7 72.0 299 
 BRR  HN ES       1843  7.48                             152    0.4810 72.0 299 
 BRR  HZ I        1843 11.11         6.2 0.14            151           72.0 299 
 PAM  SZ EP       1842 51.54                             151    0.0410 77.6  39 
 PAM  SN ES       1843  8.84                             151   -0.0010 77.6  39 
 PAM  SZ I        1843 10.74         8.0 0.52            153           77.6  39 
 RUS  HZ EP       1842 52.81                             144   -0.1610 99.9 176 
 RUS  HN ES       1843 11.61                             144    0.1510 99.9 176 
 RUS  HZ I        1843 12.56         5.6 0.36            146           99.9 176 
 PTB  HZ EP   1   1842 55.71                             132   -0.56 7  148 259 
 PTB  HN ES       1843 16.63                             132   -0.71 9  148 259 
 PTB  HZ I        1843 19.87         8.5 0.40            132            148 259 
 NOR  HZ EP   1   1843  5.18                             118    0.18 6  235 235 
 NOR  HN ES   1   1843 34.00                             118    1.13 6  235 235 
 NOR  HZ I        1843 37.82         7.6 0.54            119            235 235 
 CHI  HZ EP   1   1843  7.06                             117    0.15 6  248 195 
                                                                                
