 2015  412 1348 17.8 L   6.699 -73.077137.2  RSN  7 0.5 2.0LRSN                1
 GAP=150        1.33       5.2     6.6 10.3 -0.2583E+01  0.1639E+02 -0.2151E+01E
 Epicentro: JORDAN - SANTANDER                                                 3
 ACTION:UPD 15-06-03 16:54 OP:cam  STATUS:               ID:20150412134817 L   I
 OLDACT:REG 15-04-12 20:53 OP:mh   STATUS:               ID:20150412134750     3
 2015-04-12-1347-50M.COL___260                                                 6
 STAT SP IPHASW D HRMM SECON CODA AMPLIT PERI AZIMU VELO AIN AR TRES W  DIS CAZ7
 BAR2 EZ EP       1348 36.91                             173    0.6610 16.5 225 
 BAR2 EZ I        1348 53.02         8.3 0.30            173           16.5 225 
 PAM  SZ EP       1348 39.85                             147    0.4610 82.2  30 
 PAM  SN ES       1348 56.18                             147   -0.0810 82.2  30 
 PAM  SZ I        1348 58.60        19.0 0.46            149           82.2  30 
 BRR  HZ EP       1348 38.82                             147    0.0510 83.4 303 
 BRR  HN ES       1348 55.38                             147    0.2310 83.4 303 
 BRR  HZ I        1348 59.48        20.7 0.13            148           83.4 303 
 RUS  HZ EP       1348 39.69                             145   -0.1710 89.1 180 
 RUS  HN ES       1348 56.43                             145   -0.6610 89.1 180 
 RUS  HZ I        1349  0.27         9.8 0.32            146           89.1 180 
 SPBC HZ EP       1348 44.70                             128   -0.59 9  160 224 
 SPBC HE ES       1349  7.49                             128    0.73 9  160 224 
 SPBC HZ I        1349 10.96        16.0 0.12            129            160 224 
 OCA  HZ EP   1   1348 45.74                             125   -0.88 7  172 351 
 OCA  HE ES   4   1349  7.00                             125   -2.12 0  172 351 
 OCA  HZ I        1349 12.53        16.7 0.20            127            172 351 
 ZAR  HZ EP       1348 51.43                             119    0.55 8  215 294 
 ZAR  HN ES       1349 15.86                             119   -0.84 8  215 294 
 ZAR  HZ I        1349 20.68        11.8 0.48            120            215 294 
                                                                                
