 2011 1012 1401 26.4 L   6.554 -73.483111.4  RSN  7 0.4 2.2LRSN                1
 GAP=117        0.73       3.2     4.9  5.9  0.2273E+01  0.6626E+01  0.2077E+00E
 Epicentro: EL CARMEN DE CHUCURI - SANTANDER                                   3
 ACTION:UPD 12-07-13 16:03 OP:ep   STATUS:               ID:20111012140126 L   I
 2011-10-12-1357-41S.COL___169                                                 6
 STAT SP IPHASW D HRMM SECON CODA AMPLIT PERI AZIMU VELO AIN AR TRES W  DIS CAZ7
 BAR2 SZ IP       14 1 42.41                             162    0.1910 33.5  83 
 BAR2 SZ I        14 1 42.59        53.8 0.24                          33.5  83 
 BAR2 SZ ES   1   14 1 54.50                             162   -0.07 7 33.5  83 
 BRR  HZ IP     C 14 1 43.19                             147   -0.4110 66.2 337 
 BRR  HE ES   1   14 1 56.96                             147   -0.06 7 66.2 337 
 BRR  HZ I        14 2  2.85        25.3 0.12                          66.2 337 
 RUS  HZ EP       14 1 46.26                             140    0.5610 85.5 149 
 RUS  HN ES   1   14 2  0.65                             140   -0.11 7 85.5 149 
 PAM  SZ EP       14 1 48.93                             129    0.0010  123  45 
 PAM  SN ES   1   14 2  6.56                             129    0.04 7  123  45 
 ZAR  HZ EP   2   14 1 54.69                             116    0.05 4  184 304 
 ZAR  HE ES   2   14 2 17.49                             116    0.82 4  184 304 
 ZAR  HZ I        14 2 19.47        19.1 0.36                           184 304 
 OCA  SZ EP       14 1 54.95                             116   -0.22 9  187   6 
 OCA  SZ I        14 2 26.49        17.8 0.30                           187   6 
 CHI  HZ EP   1   14 1 58.46                             112   -0.09 6  215 187 
 CHI  HE ES   2   14 2 22.55                             112   -1.09 4  215 187 
                                                                                
