 2010 1012 1033 14.9 L   7.001 -73.179131.2  RSN  8 0.5 2.0LRSN                1
 GAP=158        0.88       4.9     9.6  8.0 -0.1529E+02 -0.1047E+02  0.1556E+01E
 Epicentro: GIRON - SANTANDER                                                  3
 ACTION:UP  11-02-18 11:09 OP:tino STATUS:               ID:20101012103314 L   I
 2010-10-12-1030-25S.COL___124                                                 6
 STAT SP IPHASW D HRMM SECON CODA AMPLIT PERI AZIMU VELO SNR AR TRES W  DIS CAZ7
 BAR2 SZ EP       1033 33.49                             160     0.010   45 181 
 BAR2 SZ I        1033 33.62        32.1 0.10                            45 181 
 BAR2 SZ ES   1   1033 47.62                             160    -0.4 7   45 181 
 BRR  HZ EP       1033 33.79                             154    -0.110   60 281 
 BRR  HN ES   1   1033 49.00                             154     0.4 7   60 281 
 BRR  HZ I        1033 50.07        24.6 0.18                            60 281 
 GUE  SZ EP       1033 36.48                             142    -0.210   96  17 
 GRA  SZ EP   2   1033 37.70                             139     0.5 5  106  23 
 GRA  SZ ES   2   1033 56.09                             139     1.4 5  106  23 
 GRA  SZ I        1033 58.60        10.0 0.28                           106  23 
 OCA  SZ EP   1   1033 39.57                             131    -0.4 7  138 354 
 OCA  SZ ES   1   1033 59.26                             131    -0.3 7  138 354 
 OCA  SZ I        1034  8.94        12.1 0.30                           138 354 
 NOR  SN ES   3   1034 18.84                             114    -0.4 2  246 230 
 CHI  HN ES   3   1034 24.78                             112     0.0 2  269 193 
 PRA  HZ EP       1034 10.72                             103     0.6 6  410 208 
 PRA  HN ES   3   1034 53.99                             103     0.9 1  410 208 
                                                                                
