 2013  312 1414 58.0 L   6.232 -73.640105.5  RSN  4 0.1 1.8LRSN                1
 GAP=169        0.30       2.2     1.8  3.6  0.1360E+01  0.2960E+01  0.1384E+01E
 Epicentro: LA PAZ - SANTANDER                                                 3
 ACTION:UPD 13-04-09 14:01 OP:ep   STATUS:               ID:20130312141458 L   I
 2013-03-12-1410-00M.COL___231                                                 6
 STAT SP IPHASW D HRMM SECON CODA AMPLIT PERI AZIMU VELO AIN AR TRES W  DIS CAZ7
 BAR2 SZ EP   1   1415 14.88                             146    0.06 7 64.5  52 
 BAR2 SZ ES       1415 27.96                             146    0.0010 64.5  52 
 BAR2 SZ I        1415 29.82        26.7 0.29            146           64.5  52 
 RUS  HZ EP   1   1415 15.88                             143    0.15 7 72.2 121 
 RUS  HE ES   1   1415 29.46                             143   -0.11 7 72.2 121 
 PTB  HZ EP       1415 17.00                             134   -0.0310 96.5 291 
 PTB  HZ I        1415 17.22        10.4 0.10            135           96.5 291 
 PTB  HN ES   1   1415 31.92                             134    0.04 7 96.5 291 
 BRR  HZ EP       1415 16.97                             134   -0.0910 97.1 355 
 BRR  HN ES   1   1415 31.99                             134    0.05 7 97.1 355 
 BRR  HN I        1415 33.65        13.8 0.18            134           97.1 355 
                                                                                
