 2014  612 1222 15.6 L   6.807 -73.155139.6  RSN 14 0.5 2.1LRSN                1
 GAP=135        1.03       3.0     3.9  5.8 -0.1338E+01  0.6924E+01  0.6665E+00E
 Epicentro: LOS SANTOS - SANTANDER                                             3
 ACTION:UPD 14-07-01 22:53 OP:nd   STATUS:               ID:20140612122215 L   I
 OLDACT:REG 14-06-12 20:42 OP:fm   STATUS:               ID:20140612121818     3
 2014-06-12-1218-18M.COL___256                                                 6
 STAT SP IPHASW D HRMM SECON CODA AMPLIT PERI AZIMU VELO AIN AR TRES W  DIS CAZ7
 BAR2 SZ EP       1222 34.54                             170    0.0510 24.0 187 
 BAR2 SZ ES   1   1222 49.34                             170    0.10 7 24.0 187 
 BAR2 SZ I        1222 50.44        58.7 0.12            170           24.0 187 
 BRR  HZ EP       1222 36.48                             152    0.4810 69.9 298 
 BRR  HN ES       1222 52.65                             152    0.7310 69.9 298 
 BRR  HZ I        1222 58.41        30.9 0.14            149           69.9 298 
 PAM  SZ EP       1222 37.41                             150    0.2510 77.4  40 
 PAM  SN ES   1   1222 53.66                             150   -0.32 7 77.4  40 
 PAM  SZ I        1222 56.44        18.7 0.50            154           77.4  40 
 RUS  HZ EP       1222 38.85                             142    0.0510  101 176 
 RUS  HN ES       1222 56.82                             142   -0.0910  101 176 
 RUS  HZ I        1222 58.69        14.0 0.36            146            101 176 
 PTB  HZ EP       1222 41.47                             131   -0.51 9  147 258 
 PTB  HN ES       1223  1.99                             131   -0.58 9  147 258 
 PTB  HZ I        1223  5.72        18.2 0.26            131            147 258 
 OCA  HN ES   1   1223  4.71                             128   -0.28 7  159 353 
 OCA  HZ I        1223  7.89        13.9 0.20            130            159 353 
 SPBC HZ EP       1222 43.63                             128    0.01 9  163 219 
 SPBC HN ES   1   1223  4.44                             128   -1.05 7  163 219 
 SPBC HZ I        1223  9.97        14.9 0.26            130            163 219 
 ZAR  HZ EP       1222 47.60                             121    0.09 9  203 292 
 ZAR  HN ES       1223 12.97                             121    0.56 9  203 292 
 ZAR  HZ I        1223 19.42        18.7 0.28            122            203 292 
 NOR  HZ EP       1222 50.66                             117   -0.27 8  234 234 
 NOR  HE ES       1223 18.55                             117    0.06 8  234 234 
 NOR  HZ I        1223 21.27         9.8 0.22            119            234 234 
 SML  HZ EP       1222 51.18                             116   -0.57 8  243 335 
 SML  HN ES       1223 19.30                             116   -0.66 8  243 335 
 SML  HZ I        1223 26.56        16.6 0.26            118            243 335 
 HEL  HZ EP   1   1222 56.26                             114    0.85 6  271 256 
 HEL  HN ES       1223 26.07                             114   -0.40 8  271 256 
 HEL  HZ I        1223 33.99         6.1 0.30            115            271 256 
 GUY2CHN ES   1   1223 32.90                             111    0.26 5  301 235 
 GUY2CHZ I        1223 39.79         5.1 0.28                           301 235 
 CBOC HZ EP       1223  3.14                             109    0.97 7  333 252 
 CBOC HN ES   4   1223 36.47                             109   -2.04 0  333 252 
 CBOC HZ I        1223 43.48         2.7 0.10            110            333 252 
 TOL  SZ EP   4   1223  5.13                             108    1.54 0  343 224 
 TOL  SE ES   4   1223 43.20                             108    2.17 0  343 224 
 PRA  HZ EP   1   1223  9.15                             105    0.22 4  392 209 
 PRA  HN ES       1223 50.80                             105    0.27 6  392 209 
 PRA  HZ I        1223 55.71         2.3 0.28            108            392 209 
                                                                                
