 2013  512 1734 20.0 L   6.722 -73.199144.0  RSN  4 0.2 1.5LRSN                1
 GAP=225        0.50       5.6     5.2  5.6  0.1333E+02  0.3813E+01  0.1030E+02E
 Epicentro: VILLANUEVA - SANTANDER                                             3
 ACTION:UPD 13-06-20 09:49 OP:ep   STATUS:               ID:20130512173420 L   I
 2013-05-12-1730-00M.COL___256                                                 6
 STAT SP IPHASW D HRMM SECON CODA AMPLIT PERI AZIMU VELO AIN AR TRES W  DIS CAZ7
 BAR2 SZ EP   2   1734 39.06                             174   -0.25 5 14.4 173 
 BAR2 SZ ES   2   1734 53.92                             174   -0.42 5 14.4 173 
 BRR  HZ EP   1   1734 40.73                             152   -0.25 7 71.0 307 
 BRR  HN ES       1734 57.52                             152    0.2010 71.0 307 
 BRR  HZ I        1734 59.18         6.9 0.16            151           71.0 307 
 RUS  HZ EP   1   1734 43.43                             146    0.38 7 92.6 172 
 RUS  HN ES   2   1735  0.91                             146   -0.09 5 92.6 172 
 PTB  HZ EP       1734 46.12                             133   -0.09 9  141 262 
 PTB  HN ES   1   1735  6.60                             133   -0.02 7  141 262 
 PTB  HZ I        1735  9.19         4.6 0.18            133            141 262 
                                                                                
