 2011  612 1323  8.1 L   6.745 -73.127147.8  RSN  7 0.2 2.1LRSN                1
 GAP=158        0.51       2.8     4.5  4.9 -0.5995E+01  0.2891E+01 -0.3416E+01E
 Epicentro: JORDAN - SANTANDER                                                 3
 ACTION:UP  11-07-14 19:04 OP:ep   STATUS:               ID:20110612132308 L   I
 2011-06-12-1321-23S.COL___132                                                 6
 STAT SP IPHASW D HRMM SECON CODA AMPLIT PERI AZIMU VELO SNR AR TRES W  DIS CAZ7
 BAR2 SZ EP   1   1323 27.86                             173     0.0 7   18 200 
 BAR2 SZ ES   1   1323 42.89                             173    -0.4 7   18 200 
 BAR2 SZ I        1323 43.82        34.9 0.27                            18 200 
 BRR  HZ EP   1   1323 29.80                             151     0.1 7   76 302 
 BRR  HE ES   1   1323 46.95                             151     0.3 7   76 302 
 BRR  HZ I        1323 51.84        24.6 0.12                            76 302 
 RUS  HN ES   1   1323 50.21                             146     0.2 7   94 177 
 RUS  HZ I        1323 51.65        21.2 0.33                            94 177 
 BRI  SZ EP   1   1323 32.70                             140     0.1 7  113  19 
 BRI  SZ ES   1   1323 51.55                             140    -0.1 7  113  19 
 BRI  SZ I        1323 53.58        12.2 0.36                           113  19 
 GRA  SZ EP   1   1323 33.95                             136     0.0 7  131  16 
 GRA  SZ ES   1   1323 54.27                             136     0.1 7  131  16 
 GRA  SZ I        1323 55.99        13.1 0.31                           131  16 
 OCA  SZ EP   1   1323 37.01                             129    -0.2 7  167 353 
 OCA  SZ ES   2   1323 59.68                             129    -0.1 5  167 353 
 OCA  SZ I        1324  2.61        13.0 0.24                           167 353 
 NOR  SN ES   1   1324 11.41                             119    -0.2 6  233 236 
                                                                                
