 2017  812 1406 23.8 L   6.790 -73.155143.9  RSN 11 0.3 2.2LRSN                1
 GAP=100        0.90       3.1     3.4  5.0 -0.1609E+01  0.1389E+01  0.1630E+01E
 Epicentro: LOS SANTOS - SANTANDER                                             3
 ACTION:UPD 17-09-04 20:19 OP:rebc STATUS:               ID:20170812140623 L   I
 OLDACT:UP  17-08-12 22:26 OP:dani STATUS:               ID:20170812135640     3
 OLDACT:UP  17-08-12 22:25 OP:dani STATUS:               ID:20170812135640     3
 OLDACT:REG 17-08-12 20:57 OP:dani STATUS:               ID:20170812135640     3
 2017-08-12-1358-00M.COL___416                                                 6
 STAT SP IPHASW D HRMM SECON CODA AMPLIT PERI AZIMU VELO AIN AR TRES W  DIS CAZ7
 BAR2 EZ EP     C 14 6 42.95                             171   -0.2110 22.0 188 
 BAR2 EZ ES       14 6 58.08                             171   -0.2010 22.0 188 
 BAR2 EZ I        14 7  0.78        41.5 0.46            168           22.0 188 
 BRR  HZ EP       14 6 44.80                             153    0.0910 70.8 300 
 BRR  HN ES       14 7  1.82                             153    0.7910 70.8 300 
 BRR  HZ I        14 7  2.32        25.2 0.42            152           70.8 300 
 PAM  EZ EP       14 6 45.94                             151    0.0410 78.9  40 
 PAM  EE ES       14 7  3.08                             151   -0.0610 78.9  40 
 PAM  EZ I        14 7  6.00        24.6 0.46            154           78.9  40 
 RUS  HZ EP       14 6 47.10                             144   -0.1710 99.5 175 
 RUS  HN ES       14 7  5.62                             144    0.0210 99.5 175 
 RUS  HZ I        14 7  6.84        20.8 0.36            143           99.5 175 
 TAM  HZ EP     C 14 6 51.40                             131    0.02 9  156 104 
 SPBC HN ES       14 7 13.77                             129   -0.22 9  162 219 
 ZAR  HZ EP       14 6 56.18                             122    0.13 9  204 293 
 ZAR  HE ES       14 7 20.65                             122   -0.57 9  204 293 
 ZAR  HZ I        14 7 26.08        17.1 0.40            122            204 293 
 NOR  HZ EP       14 6 59.13                             119   -0.11 8  233 235 
 NOR  HE ES       14 7 26.91                             119    0.01 8  233 235 
 NOR  HZ I        14 7 32.63         8.8 0.14            118            233 235 
 CHI  HZ EP       14 7  1.27                             117    0.04 8  247 195 
 CHI  HN ES       14 7 30.80                             117    0.37 8  247 195 
 CHI  HZ I        14 7 36.80         7.2 0.32            117            247 195 
 ROSC BZ EP   9   14 7  3.76                             117    2.12 0  251 211 
 ROSC BN ES       14 7 34.17                             117    0.89 8  251 211 
 ROSC BZ I        14 7 37.79        19.4 0.42            117            251 211 
 GUY2CHZ EP   9   14 7 10.70                             112    3.57 0  300 235 
 GUY2CHE ES       14 7 45.31                             111    0.80 7  300 235 
 GUY2CHZ I        14 7 53.21         7.3 0.23                           300 235 
                                                                                
