 2011  212 1634 43.5 L   6.792 -73.123137.7  RSN  5 0.2 1.4LRSN                1
 GAP=226        0.44       3.9     5.2  4.8 -0.4324E+01  0.1025E+02  0.1388E+01E
 Epicentro: LOS SANTOS - SANTANDER                                             3
 ACTION:UP  11-03-28 15:07 OP:jfem STATUS:               ID:20110212163443 L   I
 2011-02-12-1632-58S.COL___136                                                 6
 STAT SP IPHASW D HRMM SECON CODA AMPLIT PERI AZIMU VELO SNR AR TRES W  DIS CAZ7
 BTL  SZ EP   1   1635  2.30                             171     0.2 7   21 311 
 BAR2 SZ EP   1   1635  2.11                             170     0.0 7   23 197 
 BAR2 SZ ES   1   1635 16.74                             170     0.1 7   23 197 
 BAR2 SZ I        1635 18.82        10.2 0.13                            23 197 
 RUS  HZ EP   1   1635  6.21                             142    -0.1 7  100 177 
 RUS  HZ I        1635  7.18         4.8 0.08                           100 177 
 RUS  HN ES   1   1635 24.02                             142    -0.2 7  100 177 
 NOR  SZ EP   1   1635 18.88                             117     0.0 6  236 235 
 NOR  SN ES   1   1635 46.43                             117    -0.1 6  236 235 
 NOR  SZ I        1635 49.80         0.9 0.19                           236 235 
 CHI  HZ EP   1   1635 20.61                             115    -0.1 6  248 196 
 CHI  HN ES   1   1635 50.15                             115     0.4 6  248 196 
 CHI  HZ I        1635 55.69         2.2 0.18                           248 196 
                                                                                
