 2014  712 1000 26.6 L   6.736 -73.153146.6  RSN  4 0.3 1.2LRSN                1
 GAP=199        0.73       7.6     6.0  8.9  0.6838E+01  0.1294E+02 -0.3566E+02E
 Epicentro: LOS SANTOS - SANTANDER                                             3
 ACTION:UPD 15-03-16 20:43 OP:nd   STATUS:               ID:20140712100026 L   I
 OLDACT:REG 14-07-12 20:35 OP:cam  STATUS:               ID:20140712100000     3
 2014-07-12-1000-00M.COL___282                                                 6
 STAT SP IPHASW D HRMM SECON CODA AMPLIT PERI AZIMU VELO AIN AR TRES W  DIS CAZ7
 BAR2 SZ EP   1   10 0 46.95                             174    0.74 7 16.2 192 
 BAR2 SZ ES       10 1  1.47                             174   -0.0410 16.2 192 
 BAR2 SZ I        10 1  2.99         3.5 0.26            149           16.2 192 
 RUS  HN ES       10 1  7.91                             146   -0.2410 93.6 175 
 PTB  HZ EP   1   10 0 53.38                             133   -0.08 7  146 262 
 PTB  HE ES       10 1 14.46                             133    0.05 9  146 262 
 PTB  HZ I        10 1 16.13         1.5 0.16            117            146 262 
 SML  HZ EP   1   10 1  3.52                             117   -0.42 6  250 336 
 SML  HZ I        10 1 36.43         1.8 0.10             99            250 336 
                                                                                
