 2014  912 1500 22.0 L   6.762 -73.157134.3  RSN 15 0.5 2.2LRSN                1
 GAP= 72        1.51       4.6     4.6  7.2 -0.2872E+01  0.7504E+01  0.3428E+01E
 Epicentro: LOS SANTOS - SANTANDER                                             3
 ACTION:UPD 14-10-03 23:04 OP:nd   STATUS:               ID:20140912150022 L   I
 OLDACT:REG 14-09-12 20:26 OP:stll STATUS:               ID:20140912145819     3
 2014-09-12-1458-19M.COL___293                                                 6
 STAT SP IPHASW D HRMM SECON CODA AMPLIT PERI AZIMU VELO AIN AR TRES W  DIS CAZ7
 BAR2 SZ IP     D 15 0 40.46                             172    0.3010 19.0 188 
 BAR2 SZ ES       15 0 53.87                             172   -0.4610 19.0 188 
 BAR2 SZ I        15 0 55.98        97.3 0.28            175           19.0 188 
 BRR  HZ IP     C 15 0 42.33                             150    0.3510 72.2 302 
 BRR  HZ I        15 0 42.61        50.0 0.24            146           72.2 302 
 BRR  HN ES       15 0 58.91                             150    1.3510 72.2 302 
 PAM  SZ EP       15 0 43.48                             147    0.2110 81.5  38 
 PAM  SN ES       15 0 59.54                             147   -0.3210 81.5  38 
 PAM  SZ I        15 1  1.90        17.9 0.68            144           81.5  38 
 RUS  HZ EP       15 0 44.49                             142    0.1610 96.5 175 
 RUS  HE ES       15 1  1.95                             142    0.2010 96.5 175 
 RUS  HZ I        15 1  3.64        23.5 0.26            143           96.5 175 
 PTB  HZ EP       15 0 47.13                             130   -0.73 9  146 260 
 PTB  HZ I        15 0 48.79        20.8 0.46            128            146 260 
 PTB  HN ES       15 1  7.29                             130   -0.75 9  146 260 
 TAM  HZ EP       15 0 48.86                             128    0.05 9  155 103 
 TAM  HZ I        15 0 49.10        22.0 0.36            126            155 103 
 SPBC HZ EP       15 0 49.18                             127   -0.06 9  159 220 
 SPBC HE ES       15 1 10.07                             127   -0.42 9  159 220 
 SPBC HZ I        15 1 13.33        31.5 0.20            126            159 220 
 OCA  HZ EP       15 0 49.04                             126   -0.79 9  164 354 
 OCA  HZ I        15 1 12.41        21.0 0.22            123            164 354 
 ZAR  HZ EP       15 0 53.32                             120   -0.44 9  204 293 
 ZAR  HE ES       15 1 18.90                             120    0.35 9  204 293 
 ZAR  HZ I        15 1 20.63        20.0 0.38            117            204 293 
 NOR  HZ EP       15 0 56.55                             116   -0.15 8  231 235 
 NOR  HN ES       15 1 23.97                             116    0.20 8  231 235 
 NOR  HZ I        15 1 30.14        17.2 0.14            115            231 235 
 CHI  HZ EP       15 0 58.62                             115    0.03 8  244 195 
 CHI  HN ES       15 1 26.70                             115   -0.44 8  244 195 
 HEL  HZ EP       15 1  2.09                             113    0.70 8  270 257 
 HEL  HN ES       15 1 31.66                             113   -0.46 8  270 257 
 HEL  HZ I        15 1 41.74         6.2 0.28            111            270 257 
 GUY2CHZ EP       15 1  6.07                             110    1.37 7  298 235 
 GUY2CHE ES       15 1 38.06                             110    0.05 7  298 235 
 GUY2CHZ I        15 1 45.73         7.8 0.24                           298 235 
 DBB  SZ EP       15 1  8.81                             107   -0.11 7  339 275 
 MON  HZ EP   9   15 1  8.87                             106   -1.89 0  355 309 
 MON  HN ES       15 1 44.69                                   -2.22 6  355 309 
 MON  HZ I        15 1 47.72         4.2 0.26            105            355 309 
                                                                                
