 2017  212 1242  1.7 L   6.847 -73.294121.5  RSN  4 0.1 1.1LRSN                1
 GAP=214        0.35       3.1     4.1  3.2  0.8980E+01 -0.4913E+00  0.6901E+00E
 Epicentro: ZAPATOCA - SANTANDER                                               3
 ACTION:UPD 17-05-24 15:35 OP:jn   STATUS:               ID:20170212124201 L   I
 OLDACT:REG 17-02-12 21:01 OP:edw  STATUS:               ID:20170212123745     3
 2017-02-12-1238-00M.COL___346                                                 6
 STAT SP IPHASW D HRMM SECON CODA AMPLIT PERI AZIMU VELO AIN AR TRES W  DIS CAZ7
 BAR2 EZ EP     C 1242 18.76                             165    0.0810 30.7 156 
 BAR2 EZ ES       1242 31.75                             165   -0.1310 30.7 156 
 BAR2 EZ I        1242 32.95         5.7 0.26            164           30.7 156 
 BRR  HZ EP       1242 19.24                             154   -0.1010 54.4 302 
 BRR  HN ES       1242 33.17                             154    0.1210 54.4 302 
 RUS  HZ EP       1242 23.82                             136   -0.0010  108 167 
 RUS  HN ES       1242 41.11                             136    0.0710  108 167 
 RUS  HZ I        1242 42.40         1.5 0.26            136            108 167 
 PTB  HN ES   2   1242 43.76                             129   -0.12 5  133 255 
                                                                                
