 2012  412 1745 22.7 L   6.591 -73.195152.6  RSN  5 0.4 1.9LRSN                1
 GAP=154        0.70      11.0     8.4  8.0  0.3210E+02  0.2125E+02  0.1865E+02E
 Epicentro: PINCHOTE - SANTANDER                                               3
 ACTION:UPD 12-07-05 11:52 OP:tino STATUS:               ID:20120412174522 L   I
 2012-04-12-1740-00M.COL___181                                                 6
 STAT SP IPHASW D HRMM SECON CODA AMPLIT PERI AZIMU VELO AIN AR TRES W  DIS CAZ7
 BAR2 SZ EP   1   1745 43.20                             179     0.3 7    1  85 
 BAR2 SZ ES   1   1745 58.45                             179    -0.3 7    1  85 
 BRR  HZ EP       1745 45.13                             151     0.010   81 315 
 BRR  HZ I        1745 45.36        13.6 0.16                            81 315 
 BRR  HE ES   1   1746  2.66                             151     0.0 7   81 315 
 PTB  HZ EP   2   1745 49.67                             135     0.1 5  140 268 
 PTB  HN ES   2   1746 11.13                             135     0.7 5  140 268 
 PTB  HZ I        1746 18.84         6.0 0.50                           140 268 
 ZAR  HZ EP   2   1745 56.54                             123     0.4 4  209 299 
 ZAR  HE ES   2   1746 21.42                             123    -0.7 4  209 299 
 ZAR  HZ I        1746 26.87         8.0 0.38                           209 299 
 NOR  SZ EP   2   1745 56.20                             122    -0.8 4  217 239 
                                                                                
