 2016  612 1415  3.4 L   6.820 -73.139145.6  RSN 12 0.4 2.0LRSN                1
 GAP=184        1.03       3.6     4.8  5.8 -0.7742E+00  0.7231E+01  0.4613E+01E
 Epicentro: LOS SANTOS - SANTANDER                                             3
 ACTION:UPD 16-07-21 22:18 OP:rebc STATUS:               ID:20160612141503 L   I
 OLDACT:UP  16-06-13 00:34 OP:edw  STATUS:               ID:20160612140742d    3
 OLDACT:DUP 16-06-13 00:25 OP:edw  STATUS:               ID:20160612140742d    3
 OLDACT:REG 16-06-12 20:38 OP:edw  STATUS:               ID:20160612140741     3
 2016-06-12-1407-41M.COL___325                                                 6
 STAT SP IPHASW D HRMM SECON CODA AMPLIT PERI AZIMU VELO AIN AR TRES W  DIS CAZ7
 BAR2 EZ EP       1415 23.29                             170    0.1910 25.7 191 
 BAR2 EZ ES       1415 38.40                             170   -0.0410 25.7 191 
 BAR2 EZ I        1415 39.47        27.0 0.24                          25.7 191 
 BRR  HZ EP       1415 25.01                             153    0.4610 70.8 297 
 BRR  HN ES       1415 41.53                             153    0.5110 70.8 297 
 BRR  HZ I        1415 46.35        10.9 0.18                          70.8 297 
 PAM  EZ EP   4   1415 42.42                             151   16.91 0 75.2  40 
 PAM  EN ES   4   1416  1.74                             151   19.01 0 75.2  40 
 PAM  EZ I        1416  8.75        12.5 0.24                          75.2  40 
 RUS  HZ EP       1415 27.68                             143    0.3410  103 177 
 RUS  HE ES       1415 46.27                             143    0.2910  103 177 
 RUS  HZ I        1415 47.00        13.9 0.26                           103 177 
 PTB  HZ EP       1415 29.64                             132   -0.86 9  149 258 
 PTB  HN ES       1415 51.16                             132   -0.45 9  149 258 
 PTB  HZ I        1415 53.96        13.6 0.12                           149 258 
 TAM  HZ EP   4   1415 31.78                             130    0.68 0  155 106 
 OCA  HN ES       1415 52.84                             130   -0.61 9  158 353 
 SPBC HZ EP       1415 32.06                             129   -0.08 9  165 219 
 SPBC HE ES       1415 53.87                             129   -0.65 9  165 219 
 SPBC HZ I        1416  0.64        16.9 0.22                           165 219 
 NOR  HZ EP       1415 39.33                             118   -0.03 8  237 234 
 NOR  HE ES       1416  7.55                             118    0.17 8  237 234 
 NOR  HZ I        1416 12.89         9.7 0.16                           237 234 
 CHI  HZ EP       1415 41.30                             117   -0.09 8  251 195 
 CHI  HN ES       1416 10.44                             117   -0.54 8  251 195 
 CHI  HZ I        1416 14.76         7.7 0.76                           251 195 
 HEL  HZ EP       1415 44.37                             115    0.59 8  273 255 
 HEL  HE ES       1416 15.66                             115    0.41 8  273 255 
 HEL  HZ I        1416 21.32         7.9 0.28                           273 255 
 GUY2CHZ EP       1415 47.59                             112    0.34 7  303 235 
 GUY2CHN ES       1416 21.75                             112    0.32 7  303 235 
 GUY2CHZ I        1416 29.39         5.4 0.28                           303 235 
 ANIL HZ EP       1415 53.22                             108   -0.26 6  359 224 
 ANIL HN ES   4   1416 35.85                             108    3.34 0  359 224 
 URI  HN ES   4   1416 24.54                             101   -48.3 0  554  13 
                                                                                
