 2012  912 1448 22.6 L   6.689 -73.184150.4  RSN  4 0.3 1.5LRSN                1
 GAP=224        0.66       7.4     7.1  9.6  0.2187E+02  0.3703E+01 -0.1285E+02E
 Epicentro: VILLANUEVA - SANTANDER                                             3
 ACTION:UPD 12-10-22 14:18 OP:ep   STATUS:               ID:20120912144822 L   I
 2012-09-12-1440-00M.COL___227                                                 6
 STAT SP IPHASW D HRMM SECON CODA AMPLIT PERI AZIMU VELO AIN AR TRES W  DIS CAZ7
 BAR2 SZ EP   1   1448 42.47                             176   -0.10 7 10.7 179 
 BAR2 SZ ES   1   1448 57.68                             176   -0.50 7 10.7 179 
 BAR2 SZ I        1448 59.17         8.2 0.17                          10.7 179 
 BRR  HZ EP   1   1448 44.39                             152    0.00 7 74.4 308 
 BRR  HN ES   1   1449  1.86                             152    0.44 7 74.4 308 
 BRR  HN I        1449  2.20        11.0 0.18                          74.4 308 
 RUS  HN ES   1   1449  4.59                             148    0.35 7 88.8 173 
 RUS  HZ I        1449  5.86         3.2 0.66                          88.8 173 
 PTB  HE ES   1   1449 10.07                             134   -0.22 7  142 263 
 PTB  HE I        1449 11.76         2.0 0.40                           142 263 
                                                                                
