 2012  812 1145  6.4 L   6.794 -73.157143.3  RSN  7 0.2 1.4LRSN                1
 GAP=135        0.47       3.0     2.7  4.1  0.4872E+00  0.2301E+01  0.1143E+01E
 Epicentro: LOS SANTOS - SANTANDER                                             3
 ACTION:UPD 12-09-10 11:56 OP:ep   STATUS:               ID:20120812114506 L   I
 2012-08-12-1140-00M.COL___219                                                 6
 STAT SP IPHASW D HRMM SECON CODA AMPLIT PERI AZIMU VELO AIN AR TRES W  DIS CAZ7
 BAR2 SZ EP   1   1145 25.69                             171   -0.04 7 22.5 187 
 BAR2 SZ I        1145 26.26        11.2 0.17                          22.5 187 
 BAR2 SZ ES   1   1145 40.63                             171   -0.16 7 22.5 187 
 GIR2 SZ EP   1   1145 25.70                             167   -0.10 7 31.7 353 
 GIR2 SZ ES   1   1145 40.69                             167   -0.24 7 31.7 353 
 BRR  HZ EP   1   1145 27.45                             152    0.20 7 70.4 299 
 BRR  HE ES   1   1145 43.87                             152    0.37 7 70.4 299 
 PAM  SZ EP   1   1145 28.64                             150    0.19 7 78.7  40 
 PAM  SZ I        1145 28.85         4.0 0.20                          78.7  40 
 PAM  SN ES   1   1145 45.52                             150   -0.11 7 78.7  40 
 RUS  HZ EP   1   1145 29.72                             143   -0.16 7  100 175 
 RUS  HN ES   1   1145 48.55                             143    0.36 7  100 175 
 RUS  HZ I        1145 49.26         3.0 0.24                           100 175 
 PTB  HZ EP   1   1145 32.87                             132   -0.19 7  146 259 
 PTB  HN ES   1   1145 53.56                             132   -0.28 7  146 259 
 PTB  HZ I        1145 56.02         3.5 0.38                           146 259 
 ZAR  HN ES   1   1146  3.84                             122    0.13 6  203 292 
                                                                                
