 2016  412 1716 25.1 L   6.824 -73.173143.6  RSN  6 0.3 1.6LRSN                1
 GAP=132        0.50       2.9     3.6  4.9 -0.5361E+01  0.6441E+01 -0.2773E+01E
 Epicentro: ZAPATOCA - SANTANDER                                               3
 ACTION:UPD 16-05-05 14:20 OP:rebc STATUS:               ID:20160412171625 L   I
 OLDACT:REG 16-04-12 22:06 OP:ar   STATUS:               ID:20160412170743     3
 2016-04-12-1707-43M.COL___306                                                 6
 STAT SP IPHASW D HRMM SECON CODA AMPLIT PERI AZIMU VELO AIN AR TRES W  DIS CAZ7
 BAR2 EZ EP       1716 44.39                             169   -0.1210 25.6 182 
 BAR2 EZ ES       1716 59.62                             169   -0.0410 25.6 182 
 BAR2 EZ I        1717  1.19        10.7 0.18            171           25.6 182 
 PAM  EZ EP       1716 47.25                             150    0.1710 77.4  43 
 PAM  EN ES       1717  4.19                             150   -0.0410 77.4  43 
 PAM  EZ I        1717  6.62        12.3 0.52            152           77.4  43 
 RUS  HZ EP   2   1716 48.39                             142   -0.45 5  103 174 
 RUS  HN ES       1717  7.40                             142    0.0310  103 174 
 RUS  HZ I        1717  8.35         5.6 0.34            148            103 174 
 PTB  HZ EP   2   1716 51.22                             132   -0.44 5  145 258 
 PTB  HN ES   2   1717 11.79                             132   -0.59 5  145 258 
 PTB  HZ I        1717 14.79         3.2 0.22            131            145 258 
 SPBC HZ EP   2   1716 53.85                             128    0.41 5  163 218 
 SPBC HN ES       1717 15.74                             128    0.19 9  163 218 
 SPBC HZ I        1717 16.64         7.7 0.10            130            163 218 
 ZAR  HN ES   2   1717 22.37                             122    0.48 4  200 292 
 ZAR  HZ I        1717 30.42         3.3 0.09            122            200 292 
                                                                                
