 2016 1112 1109 10.3 L   6.792 -73.152145.1  RSN 13 0.5 2.6LRSN                1
 GAP=100        1.04       4.1     3.1  5.6 -0.7306E+00  0.2136E+01  0.8591E+01E
 Epicentro: LOS SANTOS - SANTANDER                                             3
 OLDACT:UP  16-11-12 22:17 OP:dnl  STATUS:               ID:20161112110746     3
 OLDACT:UP  16-11-12 22:15 OP:dnl  STATUS:               ID:20161112110746     3
 OLDACT:UP  16-11-12 22:14 OP:dnl  STATUS:               ID:20161112110746     3
 OLDACT:REG 16-11-12 20:46 OP:dnl  STATUS:               ID:20161112110746     3
 ACTION:UPD 17-10-26 21:07 OP:lp   STATUS:               ID:20161112110910 L   I
 OLDACT:UP  16-11-12 22:58 OP:dnl  STATUS:               ID:20161112110747d    3
 OLDACT:UP  16-11-12 22:45 OP:dnl  STATUS:               ID:20161112110747d    3
 OLDACT:UP  16-11-12 22:44 OP:dnl  STATUS:               ID:20161112110747d    3
 OLDACT:UP  16-11-12 22:44 OP:dnl  STATUS:               ID:20161112110747d    3
 OLDACT:UP  16-11-12 22:43 OP:dnl  STATUS:               ID:20161112110747d    3
 OLDACT:UP  16-11-12 22:42 OP:dnl  STATUS:               ID:20161112110747d    3
 OLDACT:DUP 16-11-12 22:21 OP:dnl  STATUS:               ID:20161112110747d    3
 OLDACT:UP  16-11-12 22:18 OP:dnl  STATUS:               ID:20161112110746     3
 2016-11-12-1108-00M.COL___331                                                 6
 STAT SP IPHASW D HRMM SECON CODA AMPLIT PERI AZIMU VELO AIN AR TRES W  DIS CAZ7
 BAR2 EZ EP       11 9 29.89                             171    0.0410 22.4 189 
 BAR2 EZ ES       11 9 44.71                             171   -0.3710 22.4 189 
 BAR2 EZ I        11 9 46.42       108.0 0.40            168           22.4 189 
 BRR  HZ IP     C 11 9 31.81                             152    0.4310 71.0 299 
 BRR  HN ES       11 9 48.40                             152    0.5910 71.0 299 
 BRR  HZ I        11 9 51.30        34.0 0.20            151           71.0 299 
 PAM  EZ IP     C 11 9 32.61                             150    0.0810 78.5  40 
 PAM  EN ES       11 9 49.69                             150   -0.1610 78.5  40 
 PAM  EZ I        11 9 52.15        64.3 0.54            149           78.5  40 
 PTB  HZ EP       11 9 36.53                             132   -0.62 9  147 259 
 PTB  HN ES       11 9 57.59                             132   -0.49 9  147 259 
 PTB  HZ I        11 9 59.69        55.3 0.46            129            147 259 
 TAM  HZ EP       11 9 38.11                             130    0.13 9  156 105 
 TAM  HZ I        11 9 58.75        32.8 0.34            127            156 105 
 TAM  HE ES       11 9 59.63                             130    0.07 9  156 105 
 ZAR  HZ EP       11 9 42.44                             122   -0.25 9  204 292 
 ZAR  HE ES       1110  7.70                             122   -0.23 9  204 292 
 ZAR  HZ I        1110 14.55        42.6 0.28            120            204 292 
 NOR  HZ EP       11 9 45.88                             118   -0.01 8  234 235 
 NOR  HE ES       1110 13.94                             118    0.30 8  234 235 
 NOR  HZ I        1110 19.44        46.4 0.54            115            234 235 
 CHI  HZ EP       11 9 48.12                             117    0.25 8  248 195 
 CHI  HN ES       1110 17.84                             117    0.69 8  248 195 
 CHI  HZ I        1110 24.41        23.9 0.30            114            248 195 
 ROSC BZ EP   9   11 9 49.70                             117    1.42 0  252 211 
 ROSC BE ES       1110 19.04                             116   -0.27 8  252 211 
 ROSC BZ I        1110 26.01        50.1 0.40            113            252 211 
 PTGC HZ EP       11 9 52.95                             111   -1.13 7  308 158 
 PTGC HE ES   4   1110 25.46                             111   -2.75 0  308 158 
 PTGC HZ I        1110 28.31        22.1 0.38            109            308 158 
 ELA  HZ EP   4   11 9 59.14                             110    2.13 0  328 230 
 ELA  HN ES   4   1110 34.86                             110    1.42 0  328 230 
 ELA  HZ I        1110 41.57        24.8 0.32            108            328 230 
 CBOC HZ EP       11 9 57.82                             110    0.72 7  333 252 
 CBOC HN ES   4   1110 32.58                             110   -1.00 0  333 252 
 CBOC HZ I        1110 43.64        10.9 0.38            107            333 252 
 ORTC HZ EP       1110  4.81                             106    0.73 6  394 216 
 ORTC HE ES       1110 45.27                             106   -0.75 6  394 216 
 ORTC HZ I        1110 54.05        18.3 0.58            104            394 216 
                                                                                
