 2011  812 1130 49.1 L   6.821 -73.125144.4  RSN 12 0.4 2.5LRSN                1
 GAP=138        0.78       3.4     5.2  5.3 -0.5903E+01  0.1110E+02  0.1087E+01E
 Epicentro: LOS SANTOS - SANTANDER                                             3
 ACTION:UPD 12-07-13 15:51 OP:ep   STATUS:               ID:20110812113049 L   I
 2011-08-12-1127-47S.COL___149                                                 6
 STAT SP IPHASW D HRMM SECON CODA AMPLIT PERI AZIMU VELO AIN AR TRES W  DIS CAZ7
 BAR2 SZ IP       1131  8.54                             169   -0.0810 26.0 194 
 BAR2 SZ I        1131  8.88        70.9 0.36                          26.0 194 
 BAR2 SZ ES   1   1131 23.15                             169   -0.69 7 26.0 194 
 BRR  HZ IP     C 1131 10.29                             152    0.1410 72.2 296 
 BRR  HN ES   1   1131 27.00                             152    0.42 7 72.2 296 
 BRR  HZ I        1131 30.52        80.1 0.18                          72.2 296 
 PAM  SZ EP       1131 11.29                             152    0.3210 74.2  39 
 PAM  SE ES   1   1131 28.27                             152    0.23 7 74.2  39 
 RUS  HZ EP       1131 12.62                             143   -0.2510  103 177 
 RUS  HE ES   1   1131 31.68                             143    0.27 7  103 177 
 RUS  HZ I        1131 32.95        35.0 0.30                           103 177 
 OCA  SZ EP       1131 16.83                             130   -0.29 9  158 352 
 OCA  SZ ES   3   1131 37.75                             130   -1.22 2  158 352 
 OCA  SZ I        1131 47.29        28.7 0.23                           158 352 
 NOR  SZ EP       1131 24.76                             118   -0.33 8  238 234 
 NOR  SE ES   1   1131 52.57                             118   -0.59 6  238 234 
 CHI  HZ EP   3   1131 27.15                             116    0.13 2  251 196 
 CHI  HE ES   1   1131 56.62                             116    0.01 6  251 196 
 CHI  HZ I        1132  3.94        16.2 0.42                           251 196 
 RREF HZ EP       1131 35.59                             110    0.04 7  325 229 
 DBB  SZ EP       1131 36.77                             109    0.01 7  342 274 
 TOL  SZ EP       1131 38.49                             109    0.82 6  347 225 
 ANIL HN ES   1   1132 19.43                             108    1.11 5  361 225 
 ANIL HZ I        1132 28.62        26.7 0.28                           361 225 
 PRA  HZ EP       1131 42.54                             106   -0.39 6  395 210 
 PRA  HE ES   2   1132 24.72                             106   -0.21 3  395 210 
                                                                                
