 2012 1112 1015 52.0 L   6.767 -73.150146.5  RSN  9 0.4 2.1LRSN                1
 GAP=138        0.96       2.8     4.8  5.2 -0.2393E+00  0.4759E+01  0.1031E+01E
 Epicentro: LOS SANTOS - SANTANDER                                             3
 ACTION:UPD 12-12-05 15:32 OP:}ep  STATUS:               ID:20121112101552 L   I
 2012-11-12-1010-00M.COL___230                                                 6
 STAT SP IPHASW D HRMM SECON CODA AMPLIT PERI AZIMU VELO AIN AR TRES W  DIS CAZ7
 BAR2 SZ EP       1016 11.66                             172    0.0110 19.6 191 
 BAR2 SZ ES       1016 26.66                             172   -0.3110 19.6 191 
 BAR2 SZ I        1016 27.89        23.9 0.14                          19.6 191 
 GIR2 SZ EP       1016 11.80                             166   -0.0610 34.8 352 
 GIR2 SZ ES       1016 27.14                             166   -0.2010 34.8 352 
 BRR  HZ EP       1016 13.64                             152    0.3310 72.6 301 
 BRR  HN ES       1016 30.73                             152    0.8110 72.6 301 
 BRR  HN I        1016 31.26        37.7 0.26                          72.6 301 
 PAM  SZ IP     D 1016 14.65                             150    0.1710 80.5  38 
 PAM  SZ I        1016 14.83         8.6 0.24                          80.5  38 
 PAM  SN ES       1016 31.77                             150   -0.2410 80.5  38 
 RUS  HZ EP       1016 15.60                             145    0.0410 97.0 176 
 RUS  HN ES       1016 34.21                             145    0.2710 97.0 176 
 RUS  HN I        1016 35.79        18.3 0.24                          97.0 176 
 PTB  HZ EP       1016 18.61                             132   -0.31 9  147 260 
 PTB  HN ES       1016 39.34                             132   -0.58 9  147 260 
 PTB  HN I        1016 45.15        18.7 0.28                           147 260 
 OCA  HN ES       1016 42.79                             129   -0.30 9  164 353 
 OCA  HN I        1016 44.94        45.7 0.24                           164 353 
 CHI  HZ EP       1016 29.61                             118    0.27 8  245 195 
 CHI  HN ES       1016 58.47                             118    0.00 8  245 195 
 CHI  HN I        1017  1.31         5.7 0.34                           245 195 
 SML  HZ EP       1016 28.40                             117   -0.61 8  247 336 
 SML  HN ES       1016 58.55                             117    0.68 8  247 336 
                                                                                
