 2012  512 1752 52.7 L   6.807 -73.110150.5  RSN 14 0.4 3.2LRSN 3.3WRSN        1
 SPEC AVERAGE  MO 14.1 ST 25.0 OM 21.0 f0 4.94 R  0.31 AL 1.71 WI 26.5 MW  3.3 3
 GAP=141        0.91       3.0     4.5  5.8 -0.2670E+01  0.6276E+01  0.2088E+01E
 Epicentro: LOS SANTOS - SANTANDER                                             3
 SPEC ZAR HH Z MO 14.2 ST 44.3 OM  2.4 f0 5.85 R0.2513 AL 1.27 WI 24.3 MW  3.4 3
 SPEC ZAR HH Z T175350 K 0.020 GD  255 VS 4.20 DE 3.20 Q0230.0 QA 0.60 VS 4.20 3
 SPEC RREFHH Z MO 14.2 ST 22.5 OM  1.5 f0 4.60 R0.3196 AL 1.87 WI 35.9 MW  3.4 3
 SPEC RREFHH Z T175339 K 0.020 GD  358 VP 7.60 DE 3.20 Q0230.0 QA 0.60 VS 4.20 3
 SPEC PTB HH Z MO 13.9 ST 32.3 OM  2.2 f0 6.52 R0.2255 AL 2.16 WI 26.2 MW  3.2 3
 SPEC PTB HH Z T175339 K 0.020 GD  213 VS 4.20 DE 3.20 Q0230.0 QA 0.60 VS 4.20 3
 SPEC RUS HH Z MO 14.2 ST 36.1 OM  1.8 f0 5.37 R0.2737 AL 1.71 WI 17.7 MW  3.4 3
 SPEC RUS HH Z T175316 K 0.020 GD  181 VP 7.60 DE 3.20 Q0230.0 QA 0.60 VS 4.20 3
 SPEC HEL HH Z MO 14.0 ST  9.6 OM  2.1 f0 4.13 R0.3559 AL 1.56 WI 26.0 MW  3.3 3
 SPEC HEL HH Z T1754 5 K 0.020 GD  314 VS 4.20 DE 3.20 Q0230.0 QA 0.60 VS 4.20 3
 SPEC CHI HH Z MO 14.1 ST  5.1 OM  2.2 f0 3.17 R0.4637 AL 1.67 WI 28.9 MW  3.3 3
 SPEC CHI HH Z T175357 K 0.020 GD  291 VS 4.20 DE 3.20 Q0230.0 QA 0.60 VS 4.20 3
 ACTION:UP  12-07-05 12:04 OP:pat  STATUS:               ID:20120512175252 L   I
 2012-05-12-1750-00M.COL___195                                                 6
 STAT SP IPHASW D HRMM SECON CODA AMPLIT PERI AZIMU VELO SNR AR TRES W  DIS CAZ7
 BAR2 SZ IP       1753 13.02                             170     0.110   25 199 
 BAR2 SZ ES   1   1753 28.32                             170    -0.4 7   25 199 
 BAR2 SZ I        1753 29.80       469.7 0.23                            25 199 
 PAM  SZ IP       1753 15.76                             153     0.510   74  38 
 PAM  SN ES   1   1753 33.04                             153     0.2 7   74  38 
 BRR  HZ IP     C 1753 14.88                             152     0.410   74 297 
 BRR  HN ES   1   1753 32.35                             152     0.8 7   74 297 
 BRR  HZ I        1753 34.84       401.0 0.20                            74 297 
 RUS  HZ IP     D 1753 16.84                             145    -0.110  101 178 
 RUS  HZ I        1753 17.73        79.4 0.23                           101 178 
 RUS  HN ES   1   1753 35.40                             145    -0.4 7  101 178 
 PTB  HZ EP       1753 19.70                             132    -0.7 9  152 259 
 PTB  HE ES   1   1753 41.73                             132    -0.3 7  152 259 
 PTB  HZ I        1753 48.30       118.0 0.32                           152 259 
 OCA  HZ EP       1753 21.02                             131    -0.3 9  160 352 
 OCA  HN ES   1   1753 43.22                             131    -0.5 7  160 352 
 OCA  HZ I        1753 47.88       290.6 0.20                           160 352 
 ZAR  HZ EP   1   1753 25.58                             123    -0.2 6  207 292 
 ZAR  HN ES   2   1753 51.37                             123    -0.2 4  207 292 
 ZAR  HZ I        1753 57.99       136.3 0.34                           207 292 
 CHI  HZ EP       1753 31.02                             118     0.2 8  250 196 
 CHI  HN ES   1   1754  0.45                             118    -0.1 6  250 196 
 CHI  HZ I        1754  3.90        79.8 0.53                           250 196 
 HEL  HZ EP   1   1753 34.27                             115     0.7 6  276 256 
 HEL  HN ES   1   1754  5.57                             115     0.1 6  276 256 
 HEL  HZ I        1754 12.62        40.5 0.44                           276 256 
 VIL  SN ES   1   1754 10.56                             113    -0.1 5  305 192 
 RREF HZ EP   1   1753 39.92                             111     0.5 5  325 230 
 RREF HN ES   1   1754 15.72                             111    -0.2 5  325 230 
 RREF HZ I        1754 25.53       145.2 0.31                           325 230 
 COD  HZ EP   2   1753 41.01                             110    -0.2 3  348 354 
 COD  HN ES   1   1754 18.55                             110    -0.5 5  348 354 
 ANIL HN ES   1   1754 22.78                             109     0.4 5  361 225 
 PRA  HZ EP       1753 46.35                             107    -0.3 6  395 210 
 PRA  HN ES   2   1754 29.21                             107     0.4 3  395 210 
                                                                                
