 2011  912 1111 14.9 L   6.782 -73.152142.9  RSN  5 0.3 1.5LRSN                1
 GAP=137        0.45       5.0     6.2  5.9 -0.7743E+01  0.7241E+01 -0.1218E+02E
 Epicentro: LOS SANTOS - SANTANDER                                             3
 ACTION:UPD 12-07-13 15:57 OP:ep   STATUS:               ID:20110912111114 L   I
 2011-09-12-1109-27S.COL___168                                                 6
 STAT SP IPHASW D HRMM SECON CODA AMPLIT PERI AZIMU VELO AIN AR TRES W  DIS CAZ7
 BAR2 SZ EP       1111 34.03                             171   -0.1410 21.2 189 
 BAR2 SZ ES   1   1111 48.87                             171   -0.31 7 21.2 189 
 BAR2 SZ I        1111 51.68         9.9 0.28                          21.2 189 
 GIR2 SZ EP   3   1111 34.10                             166   -0.21 2 33.2 352 
 GIR2 SZ ES   3   1111 49.44                             166    0.01 2 33.2 352 
 BRR  HZ EP       1111 35.86                             152    0.0710 71.6 300 
 BRR  HE ES   3   1111 52.71                             152    0.65 2 71.6 300 
 BRR  HZ I        1111 58.74         5.2 0.22                          71.6 300 
 PAM  SZ EP       1111 37.00                             149    0.0410 79.4  39 
 PAM  SE ES   2   1111 54.33                             149    0.18 5 79.4  39 
 RUS  HE ES   2   1111 56.98                             144    0.53 5 98.6 176 
 RUS  HZ I        1111 57.85         5.6 0.20                          98.6 176 
                                                                                
