 2016  412 1753 46.8 L   7.068 -73.478106.8  RSN 22 0.5 2.8LRSN                1
 GAP= 79        1.12       3.1     3.6  6.4 -0.3040E+01  0.9787E+01 -0.1457E+01E
 Epicentro: SAN VICENTE DE CHUCURI - SANTANDER                                 3
 ACTION:UPD 16-05-05 14:20 OP:rebc STATUS:               ID:20160412175346 L   I
 OLDACT:UP  16-04-13 00:57 OP:ar   STATUS:               ID:20160412174748d    3
 OLDACT:UP  16-04-13 00:46 OP:ar   STATUS:               ID:20160412174748d    3
 OLDACT:DUP 16-04-13 00:35 OP:ar   STATUS:               ID:20160412174748d    3
 OLDACT:REG 16-04-12 22:07 OP:ar   STATUS:               ID:20160412174746     3
 2016-04-12-1747-46M.COL___315                                                 6
 STAT SP IPHASW D HRMM SECON CODA AMPLIT PERI AZIMU VELO AIN AR TRES W  DIS CAZ7
 BAR2 EZ IP     D 1754  3.65                             147    0.0810 61.9 148 
 BAR2 EZ ES       1754 16.76                             147    0.0810 61.9 148 
 BAR2 EZ I        1754 18.02       532.8 0.20            150           61.9 148 
 PAM  EZ IP     C 1754  6.26                             136    0.1510 91.1  71 
 PAM  EN ES       1754 21.31                             136    0.1210 91.1  71 
 PAM  EZ I        1754 23.77        88.2 0.18            138           91.1  71 
 PTB  HZ EP   9   1754  7.11                             127   -1.26 0  123 242 
 PTB  HE ES       1754 23.52                                   -0.4410  123 242 
 PTB  HZ I        1754 32.97        69.7 0.18            122            123 242 
 OCA  HZ EP       1754  9.07                             125   -0.2510  131   8 
 OCA  HN ES       1754 27.18                             125    0.2810  131   8 
 OCA  HZ I        1754 35.02       280.3 0.16            122            131   8 
 RUS  HZ IP     D 1754  9.82                             124   -0.60 9  137 161 
 RUS  HN ES       1754 28.54                             124   -0.32 9  137 161 
 RUS  HZ I        1754 31.87        41.2 0.30            123            137 161 
 ZAR  HZ EP       1754 12.07                             119   -0.04 9  159 287 
 ZAR  HN ES   4   1754 34.11                             119    2.24 0  159 287 
 ZAR  HZ I        1754 35.14       134.1 0.22            115            159 287 
 SPBC HZ IP     D 1754 12.50                             117   -0.83 9  170 203 
 SPBC HN ES   4   1754 32.27                             117   -1.78 0  170 203 
 SPBC HZ I        1754 38.46        98.5 0.42            115            170 203 
 TAM  HZ EP   4   1754 21.41                             113    4.90 0  199 110 
 TAM  HN ES       1754 39.78                             113    0.07 9  199 110 
 TAM  HZ I        1754 44.70        36.2 0.24            113            199 110 
 NOR  HZ EP       1754 18.70                             109   -0.95 8  227 223 
 NOR  HN ES       1754 46.05                             109    0.75 8  227 223 
 NOR  HZ I        1754 51.62        50.0 0.18            107            227 223 
 URE  HZ EP   1   1754 19.91                             108   -1.13 6  239 289 
 URE  HZ I        1754 52.26        68.3 0.26            105            239 289 
 ROSC BZ EP   4   1754 29.29                             106    4.95 0  263 201 
 ROSC BN ES   4   1754 57.12                             106    3.47 0  263 201 
 ROSC BZ I        1755  2.10        39.2 0.55            104            263 201 
 CHI  HZ EP       1754 25.99                             105    0.72 8  271 186 
 CHI  HN ES   4   1754 58.14                             105    2.84 0  271 186 
 CHI  HZ I        1755  2.89        24.8 0.36            104            271 186 
 GUY2CHZ EP   1   1754 28.90                             104    1.11 5  292 226 
 GUY2CHN ES       1754 59.65                             104   -0.14 7  292 226 
 GUY2CHZ I        1755 11.62        28.8 0.60                           292 226 
 CBOC HZ EP       1754 30.52                             103    0.92 7  310 245 
 CBOC HN ES   4   1754 55.49                             103   -7.52 0  310 245 
 CBOC HZ I        1755  2.88        18.1 0.28            100            310 245 
 SOCV BZ EP       1754 30.90                             102    0.45 7  319  65 
 SOCV BN ES   4   1755  3.74                             102   -0.78 0  319  65 
 VIL  SZ EP       1754 31.81                             102    0.18 7  328 184 
 VIL  SE ES   4   1755 11.20                             102    4.58 0  328 184 
 PTGC HZ EP   4   1754 32.94                             100   -1.25 0  350 155 
 PTGC HN ES   4   1755  9.48                             100   -1.70 0  350 155 
 PTGC HZ I        1755 17.00        25.2 0.36             99            350 155 
 ANIL HN ES   4   1755 14.98                             100    2.00 0  356 217 
 SDV  BZ EP       1754 37.01                              99   -0.07 6  372  57 
 SDV  BN ES   4   1755 14.62                              99   -1.70 0  372  57 
 SDV  BZ I        1755 20.65         7.5 0.35             98            372  57 
 PAL  HZ EP   2   1754 39.74                              98    0.47 3  392 233 
 PAL  HN ES   4   1755 18.53                              98   -1.68 0  392 233 
 PAL  HZ I        1755 34.82         8.8 0.40             96            392 233 
 ORTC HZ EP       1754 40.92                              98    0.66 6  400 209 
 ORTC HN ES   4   1755 25.10                              98    3.12 0  400 209 
 ORTC HZ I        1755 32.96        14.1 0.52             95            400 209 
 CRJC HZ EP       1754 45.00                              96   -0.34 5  442   8 
 CRJC HN ES   4   1755 32.43                              96    1.41 0  442   8 
 CRJC HZ I        1755 35.93        40.8 0.36             93            442   8 
 MACC HZ EP   4   1754 56.78                              93   -1.10 0  546 184 
 MACC HN ES   4   1755 50.71                              93   -2.63 0  546 184 
 MACC HZ I        1755 54.72         9.4 0.56             90            546 184 
                                                                                
