 2015  912 1022 45.1 L   6.769 -73.179142.0  RSN  5 0.2 1.3LRSN                1
 GAP=239        0.58       3.5     3.8  4.3  0.2180E+01  0.3621E+01  0.6238E+00E
 Epicentro: LOS SANTOS - SANTANDER                                             3
 ACTION:UPD 15-10-28 16:25 OP:cam  STATUS:               ID:20150912102245 L   I
 OLDACT:DUP 15-09-12 23:01 OP:stll STATUS:               ID:20150912101749d    3
 OLDACT:REG 15-09-12 21:01 OP:stll STATUS:               ID:20150912101748     3
 2015-09-12-1017-48M.COL___323                                                 6
 STAT SP IPHASW D HRMM SECON CODA AMPLIT PERI AZIMU VELO AIN AR TRES W  DIS CAZ7
 BAR2 EZ EP       1023  3.95                             172   -0.2910 19.5 181 
 BAR2 EZ ES       1023 19.21                             172    0.0710 19.5 181 
 BAR2 EZ I        1023 20.39         4.0 0.28            171           19.5 181 
 BRR  HZ EP       1023  5.79                             152   -0.0010 69.8 302 
 BRR  HN ES       1023 22.09                             152    0.1810 69.8 302 
 BRR  HZ I        1023 26.80         4.5 0.30            151           69.8 302 
 PTB  HZ EP       1023 11.10                             132   -0.31 9  143 260 
 PTB  HN ES       1023 31.79                             132   -0.11 9  143 260 
 PTB  HZ I        1023 33.47         2.3 0.40            132            143 260 
 SPBC HZ EP       1023 13.03                             129    0.16 9  158 219 
 SPBC HN ES       1023 34.61                             129    0.11 9  158 219 
 SPBC HZ I        1023 39.39         3.5 0.64            130            158 219 
 ZAR  HZ EP       1023 17.56                             122    0.44 9  202 293 
 ZAR  HN ES       1023 41.87                             122   -0.20 9  202 293 
 ZAR  HZ I        1023 46.94         2.5 0.30            123            202 293 
                                                                                
