 2017 1212 1439 20.7 L   6.819 -73.164143.7  RSN 10 0.4 2.0LRSN                1
 GAP=143        0.91       3.5     4.4  6.2 -0.7088E+01  0.1242E+02 -0.3771E+01E
 Epicentro: LOS SANTOS - SANTANDER                                             3
 ACTION:UPD 18-01-04 13:19 OP:rebc STATUS:               ID:20171212143920 L   I
 OLDACT:REG 17-12-12 21:12 OP:osc  STATUS:               ID:20171212143744     3
 2017-12-12-1438-00M.COL___461                                                 6
 STAT SP IPHASW D HRMM SECON CODA AMPLIT PERI AZIMU VELO AIN AR TRES W  DIS CAZ7
 BAR2 EZ EP       1439 40.00                             170   -0.1410 25.2 185 
 BAR2 EZ ES       1439 55.14                             170   -0.1510 25.2 185 
 BAR2 EZ I        1439 56.54        33.0 0.14            170           25.2 185 
 PAM  EZ EP       1439 42.96                             151    0.2610 77.1  42 
 PAM  EN ES       1439 59.97                             151    0.1310 77.1  42 
 PAM  EZ I        1440  2.69        11.5 0.34            154           77.1  42 
 PTB  HZ EP       1439 46.58                             132   -0.80 9  146 258 
 PTB  HN ES       1440  7.69                             132   -0.48 9  146 258 
 PTB  HZ I        1440 10.75         9.8 0.12            133            146 258 
 OCA  HE ES   2   1440 11.82                             130    1.39 5  158 354 
 SPBC HZ EP       1439 49.08                             128   -0.02 9  164 218 
 SPBC HN ES       1440 11.40                             128    0.16 9  164 218 
 SPBC HZ I        1440 17.99        20.0 0.20            131            164 218 
 ZAR  HZ EP       1439 52.77                             122    0.02 9  201 292 
 ZAR  HN ES       1440 18.11                             122    0.37 9  201 292 
 ZAR  HZ I        1440 23.09        11.0 0.27            124            201 292 
 DRL03HN ES       1440 33.69                             113   -0.44 7  287 353 
 GUY2CHZ EP       1440  4.53                             112    0.35 7  301 234 
 GUY2CHE ES       1440 38.66                             112    0.57 7  301 234 
 GUY2CHZ I        1440 47.84         6.8 0.70                           301 234 
 ELA  HN ES       1440 44.16                             110    0.23 7  329 229 
 SJC  HZ EP       1440 15.86                             105   -0.01 6  406 327 
 SJC  HE ES   4   1440 57.72                             105   -1.17 0  406 327 
 SJC  HZ I        1441  0.95         2.7 0.28            107            406 327 
                                                                                
