 2010 1012 1024 14.7 L   6.774 -73.120146.6  RSN  9 0.5 2.3LRSN                1
 GAP=138        1.08       4.1     6.8 10.2 -0.3559E+01 -0.4315E+01  0.1474E+02E
 Epicentro: LOS SANTOS - SANTANDER                                             3
 ACTION:UP  11-02-18 11:09 OP:tino STATUS:               ID:20101012102414 L   I
 2010-10-12-1020-35S.COL___124                                                 6
 STAT SP IPHASW D HRMM SECON CODA AMPLIT PERI AZIMU VELO SNR AR TRES W  DIS CAZ7
 BAR2 SZ EP       1024 34.22                             171    -0.110   21 199 
 BAR2 SZ ES   3   1024 49.40                             171    -0.3 2   21 199 
 BAR2 SZ I        1024 51.01        65.1 0.17                            21 199 
 BRR  HZ EP       1024 36.16                             152     0.010   75 299 
 BRR  HE ES   1   1024 53.31                             152     0.4 7   75 299 
 BRR  HZ I        1024 58.31        31.2 0.25                            75 299 
 GUE  SZ EP   1   1024 39.00                             139    -0.6 7  119  10 
 GRA  SZ EP       1024 41.02                             137     0.910  128  16 
 GRA  SZ ES   2   1025  0.43                             137     0.4 5  128  16 
 GRA  SZ I        1025  5.61        14.8 0.10                           128  16 
 OCA  SZ EP       1024 42.77                             129    -0.6 9  164 352 
 OCA  SZ ES   1   1025  5.32                             129    -0.4 7  164 352 
 OCA  SZ I        1025  9.54        15.5 0.32                           164 352 
 YOP  SZ EP       1024 44.87                             127     0.5 9  175 154 
 YOP  SN ES   1   1025  6.85                             127    -0.8 7  175 154 
 NOR  SZ EP       1024 50.52                             119     0.0 8  236 236 
 NOR  SN ES   1   1025 18.28                             119    -0.2 6  236 236 
 CHI  HZ EP       1024 52.15                             117    -0.1 8  247 196 
 CHI  HZ I        1024 52.75         8.0 0.21                           247 196 
 CHI  HE ES   2   1025 22.05                             117     0.6 4  247 196 
 PRA  HZ EP       1025  8.06                             107     0.0 6  391 210 
 PRA  HN ES   2   1025 50.42                             107     0.7 3  391 210 
 PRA  HZ I        1025 56.62        17.3 0.18                           391 210 
                                                                                
