 2015 1112 1255  0.9 L   6.783 -73.129144.3  RSN  9 0.3 1.9LRSN                1
 GAP=139        0.84       2.4     3.8  4.7 -0.2276E+00  0.6020E+01  0.5496E+00E
 Epicentro: LOS SANTOS - SANTANDER                                             3
 ACTION:UPD 15-12-28 16:10 OP:cam  STATUS:               ID:20151112125500 L   I
 OLDACT:REG 15-11-12 20:27 OP:cara STATUS:               ID:20151112124750     3
 2015-11-12-1247-50M.COL___319                                                 6
 STAT SP IPHASW D HRMM SECON CODA AMPLIT PERI AZIMU VELO AIN AR TRES W  DIS CAZ7
 BAR2 EZ EP       1255 20.23                             171   -0.0810 21.9 196 
 BAR2 EZ ES       1255 35.07                             171   -0.3910 21.9 196 
 BAR2 EZ I        1255 36.58        24.0 0.24            168           21.9 196 
 BRR  HZ EP       1255 22.27                             151    0.2510 73.7 299 
 BRR  HN ES       1255 38.95                             151    0.4410 73.7 299 
 BRR  HZ I        1255 51.30        22.1 0.42            149           73.7 299 
 PAM  EZ EP     D 1255 23.05                             150    0.0810 77.8  38 
 PAM  EN ES       1255 40.15                             150   -0.0410 77.8  38 
 PAM  EZ I        1255 40.76         6.8 0.20            156           77.8  38 
 RUS  HZ EP       1255 24.31                             144   -0.0410 98.6 177 
 RUS  HN ES       1255 42.82                             144    0.1710 98.6 177 
 RUS  HZ I        1255 44.20         4.0 0.20            148           98.6 177 
 SPBC HZ IP     C 1255 29.31                             129    0.07 9  163 220 
 SPBC HN ES       1255 50.89                             129   -0.47 9  163 220 
 SPBC HZ I        1255 55.56         8.6 0.10            131            163 220 
 ZAR  HZ EP       1255 33.80                             122    0.31 8  206 292 
 ZAR  HN ES       1255 58.91                             122   -0.00 8  206 292 
 ZAR  HZ I        1256  2.65         7.2 0.22            123            206 292 
 SML  HZ EP       1255 36.68                             117   -1.02 8  246 335 
 SML  HE ES       1256  6.62                             117    0.20 8  246 335 
 SML  HZ I        1256 12.25        11.2 0.10            119            246 335 
 CHI  HZ EP       1255 38.60                             117    0.24 8  247 196 
 CHI  HN ES       1256  7.89                             117    0.31 8  247 196 
 CHI  HZ I        1256 14.85         3.9 0.50            120            247 196 
 GUY2CHZ EP       1255 44.78                             112    0.31 7  302 235 
 GUY2CHN ES       1256 17.98                             112   -0.49 7  302 235 
 GUY2CHZ I        1256 26.85         4.0 0.42                           302 235 
                                                                                
