 2014 1212 1909 31.2 L   6.776 -73.188144.2  RSN  5 0.4 1.8LRSN                1
 GAP=141        0.99       5.9     5.4  7.7 -0.1352E+02  0.1611E+02 -0.2471E+01E
 Epicentro: LOS SANTOS - SANTANDER                                             3
 ACTION:UPD 15-02-10 17:03 OP:nd   STATUS:               ID:20141212190931 L   I
 OLDACT:REG 14-12-12 20:51 OP:stll STATUS:               ID:20141212190748     3
 2014-12-12-1907-48M.COL___294                                                 6
 STAT SP IPHASW D HRMM SECON CODA AMPLIT PERI AZIMU VELO AIN AR TRES W  DIS CAZ7
 BAR2 EZ ES       1910  5.72                             172    0.0210 20.3 178 
 PAM  SZ EP       19 9 53.98                             149    0.4210 82.5  41 
 PAM  SZ I        19 9 54.21        20.7 0.20            154           82.5  41 
 PAM  SN ES       1910 10.49                             149   -0.5110 82.5  41 
 RUS  HZ EP       19 9 54.60                             144   -0.0310 98.3 173 
 RUS  HN ES       1910 13.11                             144    0.2010 98.3 173 
 RUS  HZ I        1910 14.73         9.2 0.26            146           98.3 173 
 PTB  HZ EP       19 9 58.10                             133    0.53 9  143 260 
 PTB  HN ES       1910 18.36                             133    0.22 9  143 260 
 PTB  HZ I        1910 26.30         6.3 0.36            131            143 260 
 NOR  HZ EP       1910  5.52                             119   -0.74 8  229 234 
 NOR  HN ES       1910 33.21                             119   -0.39 8  229 234 
 NOR  HZ I        1910 40.97         6.3 0.22            119            229 234 
                                                                                
