 2010 1212 1128 24.1 L   6.792 -73.247106.5  RSN  5 0.2 1.5LRSN                1
 GAP=181        0.54       3.7    16.7  7.2 -0.7625E+01 -0.1484E+02  0.4881E+01E
 Epicentro: ZAPATOCA - SANTANDER                                               3
 ACTION:UP  11-01-14 15:24 OP:pat  STATUS:               ID:20101212112824 L   I
 2010-12-12-1120-00M.COL___136                                                 6
 STAT SP IPHASW D HRMM SECON CODA AMPLIT PERI AZIMU VELO SNR AR TRES W  DIS CAZ7
 BTL  SZ EP       1128 38.75                             172    -0.110   14 351 
 BTL  SZ ES   2   1128 50.27                             172    -0.1 5   14 351 
 BAR2 SZ EP       1128 39.23                             167     0.210   23 162 
 BAR2 SZ ES   2   1128 51.15                             167     0.4 5   23 162 
 BAR2 SZ I        1128 52.26        27.1 0.11                            23 162 
 GIR2 SZ EP       1128 39.13                             162    -0.110   32  11 
 RUS  HZ EP       1128 44.42                             133     0.110  101 170 
 RUS  HN ES   2   1128 59.46                             133    -0.6 5  101 170 
 RUS  HZ I        1129  1.49         2.7 0.37                           101 170 
 GRA  SZ ES   2   1129  4.19                             125     0.0 5  130  22 
 GRA  SZ I        1129  8.63         6.6 0.43                           130  22 
                                                                                
