 2012 1012 1240 13.1 L   7.372 -73.322118.8  RSN  6 0.2 1.7LRSN                1
 GAP=178        0.51       5.0     2.9  4.5  0.3507E+01  0.2966E+01 -0.2819E+01E
 Epicentro: EL PLAYON - SANTANDER                                              3
 ACTION:UPD 12-11-22 17:03 OP:ep   STATUS:               ID:20121012124013 L   I
 2012-10-12-1240-00M.COL___231                                                 6
 STAT SP IPHASW D HRMM SECON CODA AMPLIT PERI AZIMU VELO AIN AR TRES W  DIS CAZ7
 GIR2 SZ EP   1   1240 29.40                             162   -0.37 7 35.4 156 
 GIR2 SZ ES   1   1240 42.54                             162   -0.19 7 35.4 156 
 BRR  HZ EP   1   1240 29.96                             155   -0.34 7 52.0 236 
 BRR  HN ES   1   1240 43.96                             155    0.27 7 52.0 236 
 PAM  SZ EP   1   1240 32.04                             148    0.05 7 68.8  93 
 PAM  SZ I        1240 32.74         4.4 0.29                          68.8  93 
 PAM  SE ES   1   1240 46.94                             148    0.24 7 68.8  93 
 PAM  SN I        1240 49.44        14.9 0.52                          68.8  93 
 BAR2 SZ EP   1   1240 32.80                             141   -0.16 7 87.6 170 
 BAR2 SZ ES   1   1240 48.47                             141    0.05 7 87.6 170 
 BAR2 SZ I        1240 50.26        22.5 0.30                          87.6 170 
 RUS  HZ EP   1   1240 40.79                             122    0.29 7  166 171 
 ZAR  HZ EP   1   1240 40.64                             121    0.31 7  170 275 
 ZAR  HN ES   1   1241  1.49                             121   -0.05 7  170 275 
                                                                                
