 2015 1112 1512 38.4 L   6.965 -73.155135.9  RSN  5 0.2 1.8LRSN                1
 GAP=126        0.66       3.6     3.4  6.0  0.1856E+01  0.3798E+01 -0.2746E+01E
 Epicentro: GIRON - SANTANDER                                                  3
 ACTION:UPD 15-12-28 16:10 OP:cam  STATUS:               ID:20151112151238 L   I
 OLDACT:UP  15-11-23 16:32 OP:cam  STATUS:               ID:20151112151238 L   3
 OLDACT:UP  15-11-19 06:51 OP:CARA STATUS:               ID:20151112151238 L   3
 OLDACT:REG 15-11-12 20:36 OP:cara STATUS:               ID:20151112150749     3
 2015-11-12-1507-49M.COL___322                                                 6
 STAT SP IPHASW D HRMM SECON CODA AMPLIT PERI AZIMU VELO AIN AR TRES W  DIS CAZ7
 BAR2 EZ IP     C 1512 57.40                             162    0.0310 41.3 184 
 BAR2 EZ ES       1513 12.47                             162    0.3010 41.3 184 
 BAR2 EZ I        1513 13.50        23.1 0.18            165           41.3 184 
 BRR  HZ EP       1512 57.76                             153   -0.2810 63.6 284 
 BRR  HE ES       1513 13.43                             153    0.0610 63.6 284 
 PAM  EZ IP       1512 59.22                             153    0.3810 65.1  50 
 PAM  EE ES       1513 14.50                             153   -0.2910 65.1  50 
 PAM  EZ I        1513 18.98         3.4 0.60            154           65.1  50 
 RUS  HE ES       1513 21.36                             137   -0.2010  119 176 
 RUS  HE I        1513 22.83        11.3 0.50            140            119 176 
 ZAR  HN ES       1513 33.71                             121    0.00 9  197 287 
 ZAR  HN I        1513 38.65        15.7 0.40            122            197 287 
                                                                                
