 2013  112 1219 20.0 L   6.841 -73.146143.6  RSN 26 0.6 3.7LRSN 3.9WRSN        1
 SPEC AVERAGE  MO 14.9 ST 96.0 OM  3.2 f0 3.68 R0.4253 AL 2.61 WI 32.7 MW  3.9 3
 SPEC SD       MO  0.3 ST113.6 OM  0.6 f00.876 R0.1122 AL      WI      MW  0.2 3
 GAP=125        1.27       3.0     4.8  5.5 -0.8920E+00  0.2651E+01  0.1794E+01E
 Epicentro: LOS SANTOS - SANTANDER                                             3
 SPEC ZAR HH E MO 15.4 ST419.5 OM  3.6 f0 5.09 R0.2888 AL 3.49 WI 25.3 MW  4.2 3
 SPEC ZAR HH E T122017 K 0.000 GD  247 VS 4.20 DE 3.00 Q0230.0 QA 0.60 VS 4.20 3
 SPEC SJC HH N MO 14.9 ST 93.1 OM  2.9 f0 4.39 R0.3349 AL 2.62 WI 37.6 MW  3.9 3
 SPEC SJC HH N T122053 K 0.000 GD  429 VS 4.20 DE 3.00 Q0230.0 QA 0.60 VS 4.20 3
 SPEC RREFHH Z MO 14.8 ST 38.2 OM  2.1 f0 3.55 R0.4141 AL 2.88 WI 36.3 MW  3.8 3
 SPEC RREFHH Z T1220 6 K 0.000 GD  355 VP 7.60 DE 3.00 Q0230.0 QA 0.60 VS 4.20 3
 SPEC ZAR HH N MO 15.1 ST181.9 OM  3.3 f0 4.85 R0.3031 AL 3.00 WI 33.3 MW  4.0 3
 SPEC ZAR HH N T122015 K 0.000 GD  247 VS 4.20 DE 3.00 Q0230.0 QA 0.60 VS 4.20 3
 SPEC HEL HH N MO 14.7 ST  6.6 OM  2.8 f0 2.19 R0.6712 AL 1.79 WI 53.1 MW  3.7 3
 SPEC HEL HH N T122030 K 0.000 GD  308 VS 4.20 DE 3.00 Q0230.0 QA 0.60 VS 4.20 3
 SPEC HEL HH Z MO 14.6 ST 10.4 OM  2.0 f0 2.60 R0.5654 AL 1.47 WI 31.3 MW  3.7 3
 SPEC HEL HH Z T121959 K 0.000 GD  308 VP 7.60 DE 3.00 Q0230.0 QA 0.60 VS 4.20 3
 SPEC OCA HH Z MO 14.6 ST 25.8 OM  2.1 f0 3.70 R0.3973 AL 1.42 WI 22.4 MW  3.7 3
 SPEC OCA HH Z T121947 K 0.000 GD  212 VP 7.60 DE 3.00 Q0230.0 QA 0.60 VS 4.20 3
 SPEC PTB HH N MO 14.8 ST 50.6 OM  3.1 f0 3.92 R0.3750 AL 1.44 WI 24.2 MW  3.8 3
 SPEC PTB HH N T1220 6 K 0.000 GD  206 VS 4.20 DE 3.00 Q0230.0 QA 0.60 VS 4.20 3
 SPEC ANILHH N MO 15.4 ST 78.3 OM  3.4 f0 2.92 R0.5034 AL 2.41 WI 50.4 MW  4.2 3
 SPEC ANILHH N T122045 K 0.000 GD  388 VS 4.20 DE 3.00 Q0230.0 QA 0.60 VS 4.20 3
 SPEC CHI HH N MO 14.9 ST 35.9 OM  3.1 f0 3.12 R0.4712 AL 3.98 WI 23.9 MW  3.9 3
 SPEC CHI HH N T122027 K 0.000 GD  290 VS 4.20 DE 3.00 Q0230.0 QA 0.60 VS 4.20 3
 SPEC BRR HH E MO 15.1 ST116.1 OM  3.5 f0 4.15 R0.3542 AL 4.17 WI 21.8 MW  4.0 3
 SPEC BRR HH E T121957 K 0.000 GD  159 VS 4.20 DE 3.00 Q0230.0 QA 0.60 VS 4.20 3
 ACTION:UPD 13-02-15 09:13 OP:ep   STATUS:               ID:20130112121920 L   I
 2013-01-12-1218-40M.COL___175                                                 6
 STAT SP IPHASW D HRMM SECON CODA AMPLIT PERI AZIMU VELO AIN AR TRES W  DIS CAZ7
 BAR2 SZ IP       1219 39.72                             169    0.2710 27.8 188 
 BAR2 SZ ES       1219 54.13                             169   -0.5110 27.8 188 
 BAR2 SZ I        1219 56.13       890.6 0.20            166           27.8 188 
 BRR  HZ IP     C 1219 41.54                             153    0.7710 69.1 295 
 BRR  HE ES       1219 57.75                             153    0.7610 69.1 295 
 BRR  HN I        1220  1.72      1211.4 0.58            149           69.1 295 
 RUS  HZ IP     C 1219 43.63                             142   -0.2210  105 176 
 RUS  HE ES       1220  1.87                             142   -0.6110  105 176 
 PTB  HZ EP       1219 46.17                             131   -0.68 9  149 257 
 PTB  HN ES       1220  7.50                             131   -0.31 9  149 257 
 PTB  HN I        1220 12.79       565.8 0.32            130            149 257 
 OCA  HZ EP       1219 47.89                             130    0.20 9  156 353 
 OCA  HN ES       1220  9.36                             130    0.05 9  156 353 
 OCA  HN I        1220 12.50      1339.2 0.26            132            156 353 
 ZAR  HZ EP       1219 52.25                             122    0.15 9  202 291 
 ZAR  HN ES       1220 17.22                             122    0.06 9  202 291 
 ZAR  HE I        1220 23.90       897.5 0.20            122            202 291 
 CTAU SZ EP   4   1219 54.75                             122    1.54 0  207 209 
 CTAU SZ ES       1220 18.91                             122   -0.23 8  207 209 
 CTAB SZ EP       1219 57.24                             118    1.23 8  234 210 
 CTAB SZ ES       1220 24.56                             118    0.43 8  234 210 
 CHI  HZ EP       1219 57.80                             116   -0.23 8  253 195 
 CHI  HN ES       1220 27.39                             116   -0.33 8  253 195 
 CHI  HN I        1220 33.31       247.7 0.48            117            253 195 
 ROSC BZ EP       1219 59.63                             116    1.23 8  257 210 
 ROSC BN ES       1220 29.40                             116    1.02 8  257 210 
 ROSC BZ I        1220 36.38       208.2 0.30            116            257 210 
 HEL  HZ EP       1219 59.82                             114   -0.38 8  273 255 
 HEL  HN ES       1220 30.85                             114   -0.72 8  273 255 
 URE  HZ EP       1219 59.72                             113   -1.02 7  282 291 
 VIL  SZ EP       1220  3.03                             111   -0.77 7  308 191 
 VIL  SN ES       1220 37.49                             111   -0.50 7  308 191 
 RREF HZ EP       1220  6.35                             110   -0.01 7  325 229 
 RREF HN ES       1220 41.95                             110   -0.59 7  325 229 
 RREF HZ I        1220 53.73       132.7 0.34            111            325 229 
 TOL  SZ EP       1220  9.02                             109    0.51 6  347 224 
 SDV  BZ EP       1220  9.26                             108   -0.34 6  358  51 
 ANIL HZ EP       1220 11.04                             108    0.97 6  361 224 
 ANIL HE ES       1220 49.15                             108    0.01 6  361 224 
 ANIL HN I        1220 58.64       227.4 0.60            108            361 224 
 SJA  SZ EP       1220 15.70                             105    0.72 6  405 193 
 SJC  HE EP       1220 13.68                             105   -1.33 6  405 327 
 PAL  HZ EP       1220 15.72                             105    0.39 6  408 239 
 PAL  HZ I        1220 18.34       210.4 0.12            106            408 239 
 YOT  HZ EP       1220 22.63                             103   -0.68 5  475 228 
 SMAR HZ EP       1220 25.18                             102   -0.08 4  493 346 
 MARA HZ EP       1220 31.10                             101   -0.29 4  541 215 
 PCON HZ EP       1220 40.24                              99   -0.50 3  616 216 
 FLO2 HZ EP       1220 42.92                              98   -0.63 2  645 206 
 SOTA HZ EP       1220 45.29                              98    0.90 2  647 217 
                                                                                
