 2016  612 1657  1.6 L   6.804 -73.124147.5  RSN  8 0.4 1.8LRSN                1
 GAP=139        0.97       4.3     5.3  6.2 -0.6730E+01  0.8655E+01  0.7449E+01E
 Epicentro: LOS SANTOS - SANTANDER                                             3
 ACTION:UPD 16-07-21 22:18 OP:rebc STATUS:               ID:20160612165701 L   I
 OLDACT:REG 16-06-12 21:11 OP:edw  STATUS:               ID:20160612164742     3
 2016-06-12-1647-42M.COL___322                                                 6
 STAT SP IPHASW D HRMM SECON CODA AMPLIT PERI AZIMU VELO AIN AR TRES W  DIS CAZ7
 BAR2 EZ EP     C 1657 21.19                             170   -0.2610 24.3 195 
 BAR2 EZ ES       1657 36.78                             170   -0.1610 24.3 195 
 BAR2 EZ I        1657 38.78        12.6 0.16                          24.3 195 
 BRR  HZ EP       1657 22.97                             152   -0.0710 73.1 297 
 BRR  HN ES       1657 39.85                             152    0.0910 73.1 297 
 BRR  HZ I        1657 43.21        14.2 0.28                          73.1 297 
 PAM  EZ EP       1657 24.27                             152    0.3810 75.6  38 
 PAM  EN ES       1657 41.41                             152    0.1310 75.6  38 
 PAM  EZ I        1657 43.42         5.7 0.50                          75.6  38 
 RUS  HZ EP       1657 25.08                             144   -0.4610  101 177 
 RUS  HN ES       1657 44.30                             144    0.0910  101 177 
 RUS  HZ I        1657 45.67         6.0 0.52                           101 177 
 PTB  HZ EP   4   1657 27.70                             132   -1.22 0  150 259 
 PTB  HN ES   4   1657 48.67                             132   -1.56 0  150 259 
 PTB  HZ I        1657 50.77         7.8 0.14                           150 259 
 NOR  HZ EP       1657 36.97                             119   -0.69 8  237 235 
 NOR  HE ES       1658  5.21                             119   -0.57 8  237 235 
 NOR  HZ I        1658 13.02         5.9 0.16                           237 235 
 CHI  HZ EP       1657 39.43                             117   -0.07 8  250 196 
 CHI  HE ES       1658  9.65                             117    0.58 8  250 196 
 CHI  HZ I        1658 11.08         4.7 0.34                           250 196 
 GUY2CHZ EP       1657 46.24                             112    0.71 7  303 235 
 GUY2CHE ES       1658 20.59                             112    0.79 7  303 235 
                                                                                
