 2013  612 1758 28.8 L   6.811 -73.160147.2  RSN  5 0.2 1.9LRSN                1
 GAP=182        0.39       3.6     2.7  4.8  0.5161E+00  0.1605E+01 -0.6579E+01E
 Epicentro: LOS SANTOS - SANTANDER                                             3
 ACTION:UPD 14-01-08 09:54 OP:ep   STATUS:               ID:20130612175828 L   I
 OLDACT:UP  13-06-12 17:09 OP:cam  STATUS:               ID:20130612175750     3
 OLDACT:REG 13-06-12 16:58 OP:cam  STATUS:               ID:20130612175750     3
 2013-06-12-1757-50M.COL___223                                                 6
 STAT SP IPHASW D HRMM SECON CODA AMPLIT PERI AZIMU VELO AIN AR TRES W  DIS CAZ7
 BAR2 SZ EP       1758 48.62                             170   -0.0010 24.3 186 
 BAR2 SZ ES   1   1759  4.14                             170    0.06 7 24.3 186 
 BAR2 SZ I        1759  6.46        14.0 0.30            171           24.3 186 
 GIR2 SZ EP       1758 48.72                             168    0.1110 29.9 353 
 RUS  HZ EP   1   1758 52.94                             144    0.15 7  102 175 
 RUS  HN ES       1759 11.36                             144   -0.1310  102 175 
 PTB  HZ EP   1   1758 55.49                             133   -0.28 7  146 258 
 PTB  HN ES       1759 16.78                             133   -0.02 9  146 258 
 PTB  HZ I        1759 22.46        10.5 0.42            133            146 258 
 NOR  HE ES   2   1759 32.80                             119    0.36 4  234 234 
                                                                                
