 2014 1212 1151 36.1 L   6.866 -73.337125.8  RSN  6 0.5 1.8LRSN                1
 GAP=150        1.24       4.7     5.9 12.2  0.3366E+01  0.2040E+02 -0.6253E+01E
 Epicentro: BETULIA - SANTANDER                                                3
 ACTION:UPD 15-02-10 17:03 OP:nd   STATUS:               ID:20141212115136 L   I
 OLDACT:REG 14-12-12 20:24 OP:stll STATUS:               ID:20141212114745     3
 2014-12-12-1147-45M.COL___284                                                 6
 STAT SP IPHASW D HRMM SECON CODA AMPLIT PERI AZIMU VELO AIN AR TRES W  DIS CAZ7
 BAR2 EZ EP       1151 53.97                             164    0.2610 34.8 151 
 BAR2 EZ I        1151 54.18        33.0 0.10            164           34.8 151 
 BAR2 EZ ES       1152  7.55                             164    0.1410 34.8 151 
 RUS  HZ EP       1151 58.74                             136   -0.1310  111 165 
 RUS  HN ES       1152 16.74                             136    0.1510  111 165 
 RUS  HZ I        1152 20.23         3.1 0.30            137            111 165 
 PTB  HZ EP       1151 59.57                             131   -0.2110  129 254 
 PTB  HN ES       1152 17.26                             131   -0.9510  129 254 
 PTB  HZ I        1152 21.15        11.2 0.46            131            129 254 
 OCA  HN ES       1152 22.05                             126   -0.37 9  152   1 
 OCA  HZ I        1152 23.15         9.8 0.32            129            152   1 
 SPBC HN ES       1152 23.35                             125    0.17 9  157 211 
 SPBC HZ I        1152 29.62         7.9 0.42            125            157 211 
 ZAR  HN ES       1152 28.53                             121    1.04 9  182 292 
 ZAR  HZ I        1152 32.34         6.3 0.36            121            182 292 
                                                                                
