 2011  812 1417  9.9 L   6.793 -73.099148.0  RSN 17 0.4 3.2LRSN                1
 GAP=143        0.65       2.6     4.1  4.1 -0.2768E+01  0.5865E+01  0.2341E+01E
 Epicentro: LOS SANTOS - SANTANDER                                             3
 ACTION:UPD 12-07-13 15:51 OP:ep   STATUS:               ID:20110812141709 L   I
 2011-08-12-1415-21S.COL___150                                                 6
 STAT SP IPHASW D HRMM SECON CODA AMPLIT PERI AZIMU VELO AIN AR TRES W  DIS CAZ7
 BAR2 SZ IP       1417 29.79                             170   -0.0410 24.0 202 
 BAR2 SZ ES   1   1417 45.18                             170   -0.18 7 24.0 202 
 BAR2 SZ I        1417 46.20       244.9 0.24                          24.0 202 
 PAM  SZ EP       1417 32.62                             152    0.4010 74.9  36 
 PAM  SN ES   1   1417 49.65                             152    0.03 7 74.9  36 
 BRR  HZ IP     C 1417 31.56                             151   -0.0310 76.1 297 
 BRR  HZ I        1417 32.99       183.6 0.14                          76.1 297 
 BRR  HN ES   1   1417 48.74                             151    0.25 7 76.1 297 
 RUS  HZ IP     C 1417 33.74                             144   -0.0710 99.6 179 
 RUS  HN ES   1   1417 52.12                             144   -0.33 7 99.6 179 
 OCA  SZ EP   1   1417 38.56                             130    0.02 7  162 351 
 OCA  SZ ES   1   1418  0.59                             130   -0.27 7  162 351 
 OCA  SZ I        1418  5.44       192.0 0.30                           162 351 
 NOR  SZ EP       1417 45.83                             118   -0.35 8  238 235 
 NOR  EZ EP       1417 46.51                             118            238 235 
 NOR  SN ES   1   1418 14.38                             118   -0.08 6  238 235 
 CHI  HZ EP       1417 48.12                             117    0.31 8  249 196 
 CHI  HE ES   2   1418 17.16                             117   -0.20 4  249 196 
 CHI  HZ I        1418 23.63        65.2 0.56                           249 196 
 ROSC BN ES   3   1418 17.10                             117   -1.27 2  255 212 
 ROSC BZ I        1418 24.85       112.3 0.50                           255 212 
 VIL  SZ EP   2   1417 53.74                             112    0.27 4  304 193 
 VIL  SZ I        1418 31.65        48.9 0.42                           304 193 
 RREF HZ EP       1417 56.56                             111    0.02 7  325 230 
 RREF HN ES   2   1418 32.86                             111   -0.05 3  325 230 
 RREF HZ I        1418 43.95        82.2 0.40                           325 230 
 DBB  SZ EP       1417 57.84                             109   -0.24 7  345 274 
 TOL  SZ EP       1417 59.18                             109    0.57 6  347 225 
 COD  HZ EP   2   1417 57.51                             109   -1.02 3  350 354 
 COD  HZ I        1418 45.78        55.7 0.60                           350 354 
 ANIL HZ EP       1418  1.04                             108    0.88 6  360 225 
 ANIL HN ES   2   1418 39.90                             108    0.55 3  360 225 
 ANIL HZ I        1418 44.48       147.5 0.32                           360 225 
 PRA  HZ EP       1418  3.23                             107   -0.50 6  394 210 
 PRA  HN ES   1   1418 45.75                             107    0.04 4  394 210 
 SJA  SZ EP   1   1418  3.82                             106   -0.77 4  400 194 
 SJA  SZ I        1418 59.68        71.5 0.36                           400 194 
 SJC  HZ EP   3   1418  3.61                             106   -2.35 1  413 326 
                                                                                
