 2017  212 1138  7.9 L   6.735 -73.173150.9  RSN  4 0.2 1.1LRSN                1
 GAP=229        0.54       4.4     4.3  4.8  0.7531E+01  0.4132E+01 -0.1820E+01E
 Epicentro: VILLANUEVA - SANTANDER                                             3
 ACTION:UPD 17-05-24 15:35 OP:jn   STATUS:               ID:20170212113807 L   I
 OLDACT:DUP 17-02-12 23:07 OP:edw  STATUS:               ID:20170212112743d    3
 2017-02-12-1128-00M.COL___334                                                 6
 STAT SP IPHASW D HRMM SECON CODA AMPLIT PERI AZIMU VELO AIN AR TRES W  DIS CAZ7
 BAR2 EZ EP       1138 27.85                             174   -0.2210 15.9 184 
 BAR2 EZ ES       1138 43.55                             174   -0.2210 15.9 184 
 BAR2 EZ I        1138 46.72         3.7 0.48            173           15.9 184 
 BRR  HZ EP       1138 29.96                             153    0.2410 72.4 305 
 BRR  HN ES       1138 46.83                             153    0.1310 72.4 305 
 RUS  HN ES       1138 50.51                             147    0.2210 93.7 174 
 PTB  HZ EP       1138 34.87                             134   -0.09 9  144 261 
 PTB  HN ES       1138 55.96                             134   -0.08 9  144 261 
 PTB  HZ I        1138 58.36         1.3 0.28            135            144 261 
                                                                                
