 2011 1012 1310 58.6 L   6.788 -73.117151.2  RSN  5 0.4 1.7LRSN                1
 GAP=141        0.94       5.7     9.4  9.6  0.1147E+01 -0.1948E+01 -0.6240E+01E
 Epicentro: LOS SANTOS - SANTANDER                                             3
 ACTION:UPD 12-07-13 16:03 OP:ep   STATUS:               ID:20111012131058 L   I
 2011-10-12-1309-49S.COL___168                                                 6
 STAT SP IPHASW D HRMM SECON CODA AMPLIT PERI AZIMU VELO AIN AR TRES W  DIS CAZ7
 BAR2 SZ EP       1311 18.04                             171   -0.7910 22.8 199 
 BAR2 SZ I        1311 18.93        11.1 0.42                          22.8 199 
 BRR  HZ EP       1311 20.84                             152    0.3510 74.7 298 
 BRR  HZ I        1311 22.33         7.6 0.12                          74.7 298 
 BRR  HE ES   1   1311 37.55                             152   -0.05 7 74.7 298 
 PAM  SZ EP       1311 21.70                             152    0.3910 76.5  37 
 PAM  SN ES   1   1311 38.98                             152   -0.06 7 76.5  37 
 RUS  HZ EP       1311 22.71                             145   -0.0310 99.0 178 
 RUS  HN ES   1   1311 41.96                             145    0.36 7 99.0 178 
 OCA  SZ EP       1311 27.40                             130   -0.06 9  162 352 
 OCA  SZ I        1311 53.97         5.2 0.23                           162 352 
                                                                                
