 2010  612 1816 45.9 L   6.167 -73.086156.9  RSN  5 0.5 1.7LRSN                1
 GAP=169        0.82       9.4    50.8 11.3 -0.3194E+03 -0.2072E+03  0.1088E+01E
 Epicentro: ENCINO - SANTANDER                                                 3
 ACTION:UP  10-08-24 10:10 OP:vdl  STATUS:               ID:20100612181645 L   I
 2010-06-12-1813-48S.COL___117                                                 6
 STAT SP IPHASW D HRMM SECON CODA AMPLIT PERI AZIMU VELO SNR AR TRES W  DIS CAZ7
 RUS  HZ EP   1   1817  6.77                             169    -0.6 7   30 179 
 RUS  HE ES   2   1817 25.02                             169     0.9 5   30 179 
 RUS  HZ I        1817 29.69         9.7 0.43                            30 179 
 BAR2 SZ EP   1   1817  7.91                             162     0.3 7   48 347 
 BAR2 SZ ES   2   1817 23.88                             162    -0.6 5   48 347 
 BRI  SZ EP   1   1817 16.16                             129    -0.3 7  174  11 
 BRI  SZ ES   2   1817 40.34                             129     0.1 4  174  11 
 GUE  SZ EP   1   1817 18.30                             128     0.7 7  185   6 
 GUE  SZ ES   2   1817 42.16                             128    -0.2 4  185   6 
 GRA  SZ EP   1   1817 18.15                             126     0.0 7  193   9 
 GRA  SZ ES   2   1817 42.99                             126    -0.3 4  193   9 
                                                                                
