 2013 1212 1153  9.0 L   6.127 -73.767105.3  RSN  5 0.3 1.5LRSN                1
 GAP=134        0.91       4.1     3.2  8.6 -0.1424E+01  0.6834E+01  0.6055E+01E
 Epicentro: LANDAZURI - SANTANDER                                              3
 ACTION:UPD 14-01-13 10:17 OP:ep   STATUS:               ID:20131212115309 L   I
 OLDACT:UP  13-12-12 16:19 OP:cam  STATUS:               ID:20131212115000     3
 OLDACT:UP  13-12-12 16:19 OP:cam  STATUS:               ID:20131212115000     3
 OLDACT:REG 13-12-12 14:41 OP:cma  STATUS:               ID:20131212115000     3
 2013-12-12-1150-00M.COL___285                                                 6
 STAT SP IPHASW D HRMM SECON CODA AMPLIT PERI AZIMU VELO AIN AR TRES W  DIS CAZ7
 RUS  HZ EP       1153 26.99                             140   -0.2810 80.0 109 
 RUS  HN ES       1153 41.53                             140   -0.0210 80.0 109 
 RUS  HZ I        1153 42.63         5.3 0.20            144           80.0 109 
 BAR2 SZ EP       1153 27.19                             139    0.0710 82.6  51 
 BAR2 SZ ES       1153 41.32                             139    0.0310 82.6  51 
 BAR2 SZ I        1153 42.55        23.0 0.60            144           82.6  51 
 PTB  HZ EP       1153 26.75                             136   -0.5810 88.9 301 
 PTB  HN ES       1153 41.20                             136   -0.4610 88.9 301 
 PTB  HZ I        1153 43.30         4.2 0.18            140           88.9 301 
 BRR  HZ EP       1153 29.15                             130    0.1010  109   3 
 BRR  HN ES       1153 45.23                             130    0.5110  109   3 
 NOR  HZ EP       1153 32.17                             123    0.25 9  137 243 
 NOR  HE ES       1153 50.30                             123    0.47 9  137 243 
 NOR  HZ I        1153 54.01         4.1 0.28            125            137 243 
                                                                                
