 2013  412 1556  4.9 L   6.794 -73.172147.9  RSN  8 0.5 2.0LRSN                1
 GAP=134        1.02       4.3     6.2  7.0 -0.1059E+01  0.8649E+01  0.6153E+01E
 Epicentro: LOS SANTOS - SANTANDER                                             3
 ACTION:UPD 13-05-22 14:37 OP:EP   STATUS:               ID:20130412155604 L   I
 2013-04-12-1550-00M.COL___245                                                 6
 STAT SP IPHASW D HRMM SECON CODA AMPLIT PERI AZIMU VELO AIN AR TRES W  DIS CAZ7
 BAR2 SZ EP       1556 24.67                             171   -0.0710 22.3 183 
 BAR2 SZ ES       1556 40.60                             171    0.3610 22.3 183 
 BAR2 SZ I        1556 42.52        34.7 0.28            167           22.3 183 
 BRR  HZ EP       1556 26.48                             154    0.3410 69.0 300 
 BRR  HE ES   1   1556 43.71                             154    0.99 7 69.0 300 
 BRR  HZ I        1556 46.98        28.9 0.34            153           69.0 300 
 PAM  SZ EP       1556 27.60                             150    0.1410 79.7  41 
 PAM  SN ES   1   1556 44.45                             150   -0.62 7 79.7  41 
 PAM  SZ I        1556 47.17        14.5 0.49            158           79.7  41 
 RUS  HZ EP       1556 28.78                             144   -0.0310  100 174 
 RUS  HN ES   1   1556 46.86                             144   -0.61 7  100 174 
 RUS  HZ I        1556 48.75        18.9 0.30            144            100 174 
 PTB  HZ EP       1556 31.61                             133   -0.14 9  145 259 
 PTB  HN ES   1   1556 51.77                             133   -0.95 7  145 259 
 PTB  HZ I        1556 58.14        10.9 0.40            133            145 259 
 SML  HE ES   1   1557  9.53                             118   -0.64 6  243 336 
 CHI  HZ EP       1556 42.85                             118    0.31 8  247 195 
 CHI  HN ES   1   1557 11.55                             118   -0.37 6  247 195 
 CHI  HZ I        1557 21.86         4.1 0.40            119            247 195 
 PRA  HZ EP   1   1556 58.16                             107   -0.08 4  390 209 
 PRA  HN ES   1   1557 40.69                             107    0.83 4  390 209 
 PRA  HZ I        1557 46.06         5.0 0.32            108            390 209 
 SJC  HZ EP   4   1556 58.81                             106   -1.58 0  408 327 
 SJC  HN ES   4   1557 40.92                             106   -2.77 0  408 327 
                                                                                
