 2010  912 1338 27.9 L   7.006 -72.790172.0  RSN  6 0.3 1.7LRSN                1
 GAP=196        0.56       3.4     8.0  7.1 -0.4485E+01 -0.1586E+02  0.7351E+01E
 Epicentro: SANTA BARBARA - SANTANDER                                          3
 ACTION:UP  11-02-18 11:02 OP:tino STATUS:               ID:20100912133827 L   I
 2010-09-12-1334-14S.COL___120                                                 6
 STAT SP IPHASW D HRMM SECON CODA AMPLIT PERI AZIMU VELO SNR AR TRES W  DIS CAZ7
 GIR2 SZ EP   2   1338 51.11                                     0.0 5   45 280 
 GUE  SZ EP   2   1338 53.77                                     0.2 5   92 351 
 GUE  SZ ES   2   1339 12.82                                    -0.7 5   92 351 
 GRA  SZ EP   2   1338 53.74                             150     0.1 5   97 359 
 GRA  SZ ES   1   1339 13.79                             150     0.1 8   97 359 
 GRA  SZ I        1339 14.92         8.0 0.23                            97 359 
 BRR  HZ EP   1   1338 53.36                             149    -0.4 8  103 276 
 BRR  HZ I        1339  9.43         6.6 0.52                           103 276 
 BRR  HE ES   1   1339 13.98                             149     0.1 8  103 276 
 RUS  HZ IP     D 1338 56.07                             143    -0.110  127 195 
 RUS  HZ I        1338 56.53         4.2 0.28                           127 195 
 RUS  HE ES   1   1339 18.42                             143     0.2 7  127 195 
 OCA  SZ EP   2   1338 57.56                             138     0.2 5  148 337 
 OCA  SZ ES   2   1339 20.69                             138     0.4 5  148 337 
 OCA  SZ I        1339 24.57         5.4 0.51                           148 337 
                                                                                
