 2013  812 1153  1.4 L   6.758 -73.184143.7  RSN  5 0.4 1.4LRSN                1
 GAP=134        0.76       5.2     4.6  7.0  0.7160E+00  0.1072E+02 -0.1109E+01E
 Epicentro: VILLANUEVA - SANTANDER                                             3
 ACTION:UPD 14-01-14 09:01 OP:ep   STATUS:               ID:20130812115301 L   I
 OLDACT:REG 13-08-12 16:05 OP:jn   STATUS:               ID:20130812114959     3
 2013-08-12-1149-59M.COL___270                                                 6
 STAT SP IPHASW D HRMM SECON CODA AMPLIT PERI AZIMU VELO AIN AR TRES W  DIS CAZ7
 BAR2 SZ ES       1153 35.85                             172    0.1410 18.3 180 
 BAR2 SZ I        1153 36.86         7.2 0.62            174           18.3 180 
 PAM  SZ EP   1   1153 23.72                             148   -0.04 7 83.7  40 
 PAM  SE ES   1   1153 40.95                             148   -0.27 7 83.7  40 
 RUS  HZ EP       1153 24.74                             144    0.1310 96.3 173 
 RUS  HN ES   1   1153 42.91                             144    0.17 7 96.3 173 
 RUS  HZ I        1153 44.02         2.7 0.58            147           96.3 173 
 PTB  HZ EP       1153 27.57                             133   -0.15 9  143 260 
 PTB  HN ES   1   1153 47.53                             133   -0.74 7  143 260 
 PTB  HZ I        1153 49.29         3.2 0.14            132            143 260 
 ZAR  HE ES   1   1153 59.26                             122    0.75 6  202 294 
 ZAR  HZ I        1154  5.69         2.9 0.26            122            202 294 
                                                                                
