 2013  612 1031 33.0 L   7.405 -73.185135.2  RSN  7 0.3 2.2LRSN                1
 GAP=189        0.59       3.0     5.0  4.3 -0.3517E+01  0.4211E+01 -0.8247E+00E
 Epicentro: EL PLAYON - SANTANDER                                              3
 ACTION:UPD 14-01-08 09:54 OP:ep   STATUS:               ID:20130612103133 L   I
 OLDACT:REG 13-06-12 14:19 OP:cam  STATUS:               ID:20130612102959     3
 2013-06-12-1029-59M.COL___261                                                 6
 STAT SP IPHASW D HRMM SECON CODA AMPLIT PERI AZIMU VELO AIN AR TRES W  DIS CAZ7
 GIR2 SZ EP     C 1031 51.48                             164   -0.0610 36.1 181 
 GIR2 SZ ES   1   1032  5.72                             164   -0.30 7 36.1 181 
 GIR2 SZ I        1032  6.16        32.3 0.06            165           36.1 181 
 BRR  HZ IP     D 1031 52.84                             152    0.1110 66.8 241 
 BRR  HN ES       1032  8.19                             152    0.0510 66.8 241 
 BRR  HZ I        1032  8.50        26.6 0.14            142           66.8 241 
 BAR2 SZ EP       1031 54.71                             145    0.1610 89.9 180 
 BAR2 SZ ES   1   1032 11.28                             145   -0.11 7 89.9 180 
 BAR2 SZ I        1032 12.39        27.3 0.13            140           89.9 180 
 OCA  HZ EP   1   1031 54.81                             143    0.12 7 93.4 351 
 OCA  HN ES   1   1032 11.99                             143    0.36 7 93.4 351 
 OCA  HZ I        1032 13.05        21.4 0.16            130           93.4 351 
 PTB  HZ EP       1032  0.86                             125   -0.39 9  170 236 
 PTB  HN ES   2   1032 23.44                             125    0.14 5  170 236 
 PTB  HZ I        1032 25.92        14.9 0.18            116            170 236 
 SML  HZ EP   1   1032  1.94                             123   -0.57 7  183 328 
 SML  HZ I        1032 25.01        30.4 0.10            112            183 328 
 NOR  HZ EP   1   1032 13.26                             112    0.56 6  276 223 
 NOR  HN ES   1   1032 43.84                             112    0.15 6  276 223 
 NOR  HZ I        1032 51.99         6.7 0.14            104            276 223 
                                                                                
