 2013  512 1708 34.8 L   6.810 -73.158145.8  RSN  6 0.4 1.8LRSN                1
 GAP=134        0.88       6.8     5.2  7.3 -0.1254E+02  0.2199E+01  0.9163E+01E
 Epicentro: LOS SANTOS - SANTANDER                                             3
 ACTION:UPD 13-06-20 09:49 OP:ep   STATUS:               ID:20130512170834 L   I
 2013-05-12-1700-00M.COL___256                                                 6
 STAT SP IPHASW D HRMM SECON CODA AMPLIT PERI AZIMU VELO AIN AR TRES W  DIS CAZ7
 BAR2 SZ EP   1   17 8 54.72                             170    0.27 7 24.2 186 
 BAR2 SZ ES   1   17 9  9.66                             170   -0.12 7 24.2 186 
 BAR2 SZ I        17 9 14.69        19.4 0.64            170           24.2 186 
 GIR2 SZ EP   1   17 8 54.24                             168   -0.20 7 30.0 353 
 GIR2 SZ ES   1   17 9  9.21                             168   -0.55 7 30.0 353 
 BRR  HZ EP       17 8 56.08                             153    0.2310 69.4 298 
 BRR  HN ES   1   17 9 13.31                             153    1.04 7 69.4 298 
 BRR  HZ I        17 9 16.30         9.5 0.12            155           69.4 298 
 PAM  SZ EP       17 8 57.05                             151    0.0310 77.4  41 
 PAM  SE ES       17 9 14.19                             151   -0.1610 77.4  41 
 PAM  SZ I        17 9 15.76        12.7 0.64            156           77.4  41 
 RUS  HZ EP   1   17 8 59.00                             143    0.36 7  102 175 
 RUS  HN ES   2   17 9 17.33                             143    0.09 5  102 175 
 RUS  HZ I        17 9 18.98         5.1 0.30            146            102 175 
 PTB  HZ EP   1   17 9  1.06                             132   -0.60 7  147 258 
 PTB  HN ES       17 9 22.31                             132   -0.31 9  147 258 
 PTB  HZ I        17 9 25.25         7.7 0.14            135            147 258 
                                                                                
