 2013  412 1009 48.5 L   6.774 -73.191140.4  RSN  5 0.4 1.3LRSN                1
 GAP=173        1.06       6.4     6.7  7.6  0.1209E+02  0.9526E+01  0.8427E+01E
 Epicentro: VILLANUEVA - SANTANDER                                             3
 ACTION:UPD 13-05-22 14:37 OP:EP   STATUS:               ID:20130412100948 L   I
 2013-04-12-1007-38M.COL___212                                                 6
 STAT SP IPHASW D HRMM SECON CODA AMPLIT PERI AZIMU VELO AIN AR TRES W  DIS CAZ7
 BAR2 SZ EP       1010  7.43                             171   -0.0210 20.1 177 
 BAR2 SZ ES       1010 21.81                             171   -0.4010 20.1 177 
 BAR2 SZ I        1010 23.42        10.7 0.40            171           20.1 177 
 GIR2 SZ EP       1010  7.50                             166   -0.1410 33.7 360 
 GIR2 SZ ES       1010 22.10                             166   -0.4410 33.7 360 
 GIR2 SZ I        1010 24.91         4.5 0.35            167           33.7 360 
 BRR  HZ EP       1010  9.36                             152    0.4210 68.3 303 
 BRR  HN ES       1010 25.62                             152    0.7610 68.3 303 
 BRR  HZ I        1010 27.39         6.0 0.16            152           68.3 303 
 RUS  HZ EP       1010 11.76                             143    0.1810 98.2 173 
 RUS  HN ES       1010 29.89                             143    0.3310 98.2 173 
 RUS  HZ I        1010 31.04         1.6 0.26            145           98.2 173 
 PTB  HZ EP       1010 14.04                             132   -0.52 9  142 260 
 PTB  HN ES       1010 34.62                             132   -0.25 9  142 260 
 PTB  HZ I        1010 39.00         2.6 0.16            132            142 260 
                                                                                
