 2017  912 1112 26.7 L   6.818 -73.153144.5  RSN 17 0.5 2.5LRSN                1
 GAP=104        0.99       3.3     2.9  5.5  0.5779E+00  0.3373E+01  0.4834E+01E
 Epicentro: LOS SANTOS - SANTANDER                                             3
 ACTION:UPD 17-10-05 19:11 OP:rebc STATUS:               ID:20170912111226 L   I
 OLDACT:UP  17-09-12 21:19 OP:dnl  STATUS:               ID:20170912110740     3
 OLDACT:UP  17-09-12 21:18 OP:dnl  STATUS:               ID:20170912110740     3
 OLDACT:REG 17-09-12 20:13 OP:dnl  STATUS:               ID:20170912110740     3
 2017-09-12-1108-00M.COL___442                                                 6
 STAT SP IPHASW D HRMM SECON CODA AMPLIT PERI AZIMU VELO AIN AR TRES W  DIS CAZ7
 BAR2 EZ IP     C 1112 45.96                             170   -0.2110 25.2 187 
 BAR2 EZ ES       1113  0.84                             170   -0.5510 25.2 187 
 BAR2 EZ I        1113  3.14       101.2 0.24            167           25.2 187 
 BRR  HZ IP     C 1112 47.78                             153    0.2110 69.5 297 
 BRR  HE ES       1113  4.71                             153    0.8310 69.5 297 
 BRR  HZ I        1113  8.50        54.1 0.46            152           69.5 297 
 PAM  EZ EP       1112 48.84                             151    0.1710 76.4  41 
 PAM  EN ES       1113  5.67                             151   -0.1810 76.4  41 
 PAM  EZ I        1113  7.24        72.2 0.40            156           76.4  41 
 RUS  HZ EP       1112 50.02                             143   -0.4110  103 176 
 RUS  HE ES       1113  8.52                             143   -0.4510  103 176 
 RUS  HZ I        1113 11.89        29.1 0.32            143            103 176 
 TAM  HZ IP     D 1112 54.36                             130    0.00 9  156 106 
 TAM  HE ES       1113 16.10                             130    0.14 9  156 106 
 TAM  HZ I        1113 16.46        25.4 0.22            133            156 106 
 SPBC HZ EP       1112 54.93                             128   -0.22 9  164 218 
 SPBC HN ES       1113 17.08                             128   -0.30 9  164 218 
 SPBC HZ I        1113 22.72        49.2 0.20            128            164 218 
 YPLC HZ EP       1112 56.46                             126   -0.11 9  179 151 
 YPLC HE ES       1113 20.59                             126    0.69 9  179 151 
 YPLC HZ I        1113 23.04        35.9 0.24            128            179 151 
 ZAR  HZ EP   4   1112 59.74                             122    0.88 0  203 292 
 ZAR  HN ES       1113 24.42                             122    0.44 9  203 292 
 ZAR  HZ I        1113 30.65        66.4 0.34            123            203 292 
 NOR  HZ EP       1113  2.00                             118   -0.36 8  235 234 
 NOR  HE ES       1113 30.09                             118   -0.12 8  235 234 
 NOR  HZ I        1113 33.84        39.8 0.38            118            235 234 
 CHI  HZ EP   2   1113  4.76                             117    0.29 4  250 195 
 CHI  HE ES       1113 34.58                             117    0.62 8  250 195 
 CHI  HZ I        1113 39.53         8.7 0.32            117            250 195 
 HEL  HZ EP   2   1113  6.61                             114   -0.16 4  272 255 
 HEL  HN ES   4   1113 39.99                             114    1.94 0  272 255 
 HEL  HZ I        1113 44.48        21.4 0.50            115            272 255 
 URE  HZ EP   4   1113 10.07                             113    2.58 0  282 292 
 URE  HE ES   4   1113 37.79                             113   -1.55 0  282 292 
 URE  HZ I        1113 43.54        21.1 0.14            114            282 292 
 GUY2CHZ EP   4   1113 11.37                             112    1.11 0  302 234 
 GUY2CHE ES   4   1113 47.47                             112    3.20 0  302 234 
 GUY2CHZ I        1113 52.39        25.1 0.36                           302 234 
 DBB  EZ EP   2   1113 14.65                             109    0.69 3  338 274 
 DBB  EN ES       1113 49.97                             109   -0.90 7  338 274 
 DBB  EZ I        1113 53.21        11.3 0.32            110            338 274 
 PRA  HZ EP   2   1113 20.46                             106    0.17 3  393 209 
 PRA  HN ES   4   1114  1.36                             106   -0.76 0  393 209 
 PRA  HZ I        1114  8.65        11.8 0.30            107            393 209 
 ORTC HZ EP   2   1113 20.73                             106    0.07 3  397 216 
 ORTC HE ES       1114  3.79                             106    1.00 6  397 216 
 ORTC HZ I        1114  9.20         6.9 0.56            107            397 216 
 SJC  HZ EP   4   1113 20.42                             105   -1.50 0  407 327 
 SJC  HN ES   4   1113 59.61                             105   -5.42 0  407 327 
 SJC  HZ I        1114  5.47         5.8 0.60            107            407 327 
                                                                                
