 2011 1012 1735 46.2 L   6.775 -73.107141.4  RSN  5 0.3 1.8LRSN                1
 GAP=143        0.65       4.8     6.2  7.2 -0.1882E+01 -0.3960E+01  0.7308E+01E
 Epicentro: LOS SANTOS - SANTANDER                                             3
 ACTION:UPD 12-07-13 16:03 OP:ep   STATUS:               ID:20111012173546 L   I
 2011-10-12-1720-00M.COL___171                                                 6
 STAT SP IPHASW D HRMM SECON CODA AMPLIT PERI AZIMU VELO AIN AR TRES W  DIS CAZ7
 BAR2 SZ EP       1736  5.05                             171   -0.2410 21.8 203 
 BAR2 SZ ES   2   1736 19.62                             171   -0.55 5 21.8 203 
 GIR2 SZ EP       1736  5.17                             165   -0.3010 35.0 344 
 BRR  HZ EP       1736  7.15                             150   -0.0410 76.3 299 
 BRR  HZ I        1736  7.26        11.6 0.14                          76.3 299 
 BRR  HE ES   1   1736 23.92                             150    0.36 7 76.3 299 
 PAM  SZ EP       1736  8.27                             150    0.3310 77.0  36 
 PAM  SE ES   1   1736 24.84                             150   -0.05 7 77.0  36 
 RUS  HZ EP       1736  9.41                             144    0.0910 97.6 178 
 RUS  HE ES   2   1736 27.84                             144    0.50 5 97.6 178 
                                                                                
