 2010 1012 1714 23.1 L   6.834 -73.068138.7  RSN  6 0.4 1.7LRSN                1
 GAP=191        0.83       7.5    11.8  9.9 -0.4410E+02  0.5241E+01 -0.1418E+02E
 Epicentro: LOS SANTOS - SANTANDER                                             3
 ACTION:UP  11-02-18 11:09 OP:tino STATUS:               ID:20101012171423 L   I
 2010-10-12-1712-52S.COL___124                                                 6
 STAT SP IPHASW D HRMM SECON CODA AMPLIT PERI AZIMU VELO SNR AR TRES W  DIS CAZ7
 BTL  SZ EP       1714 42.48                             170     0.610   24 293 
 BAR2 SZ EP       1714 42.02                             167     0.010   30 205 
 BAR2 SZ ES   1   1714 56.61                             167    -0.2 7   30 205 
 BAR2 SZ I        1714 59.14         9.3 0.29                            30 205 
 BRR  HZ EP       1714 43.64                             149    -0.210   77 293 
 BRR  HZ I        1714 50.60        17.4 0.29                            77 293 
 BRR  HE ES   2   1715  0.39                             149     0.3 5   77 293 
 GUE  SZ EP       1714 46.58                             139    -0.210  111   8 
 GRA  SZ ES   1   1715  5.79                             137    -0.2 7  120  14 
 GRA  SZ I        1715  7.68         6.7 0.31                           120  14 
 NOR  SN ES   3   1715 26.69                             116    -1.1 2  244 235 
                                                                                
