 2015 1012 1733 20.2 L   7.476 -73.190129.2  RSN  6 0.5 2.0LRSN                1
 GAP=115        1.36       5.3     6.5 10.1  0.7350E+01  0.2182E+02 -0.4986E+01E
 Epicentro: EL PLAYON - SANTANDER                                              3
 ACTION:UPD 15-12-22 20:39 OP:cam  STATUS:               ID:20151012173320 L   I
 OLDACT:REG 15-10-12 21:40 OP:stll STATUS:               ID:20151012172749     3
 2015-10-12-1727-49M.COL___334                                                 6
 STAT SP IPHASW D HRMM SECON CODA AMPLIT PERI AZIMU VELO AIN AR TRES W  DIS CAZ7
 PAM  EZ EP       1733 39.83                             155    0.4210 56.2 106 
 PAM  EZ I        1733 40.31        14.9 0.18            159           56.2 106 
 PAM  EN ES       1733 55.02                             155    0.6010 56.2 106 
 BRR  HZ EP       1733 39.73                             150    0.2210 70.6 235 
 BRR  HN ES       1733 54.79                             150    0.1910 70.6 235 
 BRR  HZ I        1733 56.79        14.9 0.16            150           70.6 235 
 OCA  HN ES       1733 56.73                             144   -0.0410 85.5 350 
 OCA  HZ I        1734  0.11        25.3 0.40            145           85.5 350 
 BAR2 EZ EP       1733 41.50                             141   -0.2510 97.7 179 
 BAR2 EZ ES       1733 57.56                             141   -1.0310 97.7 179 
 BAR2 EZ I        1733 59.14        20.8 0.14            143           97.7 179 
 SML  HZ EP       1733 48.54                             123   -0.06 9  176 327 
 SML  HE ES       1734  9.87                             123   -0.91 9  176 327 
 SML  HZ I        1734 11.98        13.9 0.10            124            176 327 
 ZAR  HZ EP       1733 49.59                             121    0.11 9  184 271 
 ZAR  HN ES       1734 13.08                             121    0.74 9  184 271 
 ZAR  HZ I        1734 16.36        11.4 0.26            123            184 271 
                                                                                
