 2012  712 1147 12.1 L   6.777 -73.171141.6  RSN  6 0.4 1.8LRSN                1
 GAP=134        1.07       6.6     6.7  9.1  0.7676E+01  0.1753E+02  0.2283E+01E
 Epicentro: LOS SANTOS - SANTANDER                                             3
 ACTION:UPD 12-08-14 11:44 OP:ep   STATUS:               ID:20120712114712 L   I
 2012-07-12-1140-00M.COL___194                                                 6
 STAT SP IPHASW D HRMM SECON CODA AMPLIT PERI AZIMU VELO AIN AR TRES W  DIS CAZ7
 BAR2 SZ EP       1147 31.21                             171     0.010   20 183 
 BAR2 SZ ES   1   1147 45.88                             171    -0.2 7   20 183 
 BAR2 SZ I        1147 47.78         7.3 0.25            171             20 183 
 BRR  HZ EP   1   1147 33.00                             152     0.2 7   70 301 
 BRR  HZ I        1147 33.41        20.4 0.11            149             70 301 
 BRR  HN ES   1   1147 49.55                             152     0.7 7   70 301 
 PAM  SZ EP       1147 34.09                             149     0.010   81  40 
 PAM  SN ES   1   1147 50.90                             149    -0.4 7   81  40 
 RUS  HZ EP       1147 35.86                             144     0.610   98 174 
 RUS  HE ES   1   1147 53.07                             144    -0.3 7   98 174 
 PTB  HZ EP       1147 37.71                             132    -0.7 9  144 260 
 ZAR  HZ EP   1   1147 44.52                             122     0.4 6  202 293 
 ZAR  HN ES   1   1148  8.88                             122    -0.2 6  202 293 
 ZAR  HZ I        1148 15.09         6.6 0.23            121            202 293 
