 2012  912 1658  3.7 L   6.780 -73.121142.2  RSN  6 0.3 1.7LRSN                1
 GAP=191        0.64       5.1     5.1  6.5  0.1159E+02  0.5032E+01  0.2472E+01E
 Epicentro: LOS SANTOS - SANTANDER                                             3
 ACTION:UPD 12-10-22 14:18 OP:ep   STATUS:               ID:20120912165803 L   I
 2012-09-12-1650-00M.COL___227                                                 6
 STAT SP IPHASW D HRMM SECON CODA AMPLIT PERI AZIMU VELO AIN AR TRES W  DIS CAZ7
 BAR2 SZ EP   1   1658 22.68                             171   -0.14 7 21.8 198 
 BAR2 SZ ES   1   1658 37.64                             171   -0.13 7 21.8 198 
 BAR2 SZ I        1658 38.88        12.1 0.21                          21.8 198 
 GIR2 SZ EP   1   1658 22.92                             166   -0.06 7 34.0 346 
 GIR2 SZ ES   1   1658 37.66                             166   -0.39 7 34.0 346 
 BRR  HZ EP   1   1658 24.79                             151    0.17 7 74.7 299 
 BRR  HZ I        1658 25.80        11.5 0.24                          74.7 299 
 BRR  HN ES   1   1658 41.56                             151    0.59 7 74.7 299 
 RUS  HZ EP   1   1658 26.86                             144   -0.02 7 98.2 178 
 RUS  HN ES   1   1658 45.33                             144    0.33 7 98.2 178 
 RUS  HZ I        1658 46.78         6.8 0.46                          98.2 178 
 PTB  HE ES   1   1658 51.01                             131   -0.51 7  150 260 
 PTB  HN I        1658 52.97         8.0 0.36                           150 260 
 ZAR  HN ES   1   1659  1.77                             121    0.14 6  207 292 
 ZAR  HZ I        1659  9.74         4.4 0.10                           207 292 
                                                                                
