 2017  912 1246  2.2 L   6.756 -73.179143.2  RSN  4 0.2 1.4LRSN                1
 GAP=230        0.47       5.7     6.0  4.8  0.2839E+02  0.3421E+01 -0.7572E+00E
 Epicentro: LOS SANTOS - SANTANDER                                             3
 ACTION:UPD 17-10-05 19:11 OP:rebc STATUS:               ID:20170912124602 L   I
 OLDACT:REG 17-09-12 20:17 OP:dnl  STATUS:               ID:20170912123743     3
 2017-09-12-1238-00M.COL___445                                                 6
 STAT SP IPHASW D HRMM SECON CODA AMPLIT PERI AZIMU VELO AIN AR TRES W  DIS CAZ7
 BAR2 EZ EP       1246 21.14                             172   -0.2610 18.1 181 
 BAR2 EZ ES       1246 36.42                             172    0.0210 18.1 181 
 BAR2 EZ I        1246 37.50         4.4 0.54            166           18.1 181 
 BRR  HZ EP   2   1246 23.15                             152    0.14 5 70.5 303 
 BRR  HN ES   2   1246 39.58                             152    0.32 5 70.5 303 
 RUS  HZ EP       1246 25.57                             144    0.2310 96.0 174 
 RUS  HN ES       1246 43.35                             144   -0.0710 96.0 174 
 RUS  HZ I        1246 44.90         2.3 0.38            143           96.0 174 
 ZAR  HZ EP   4   1246 36.06                             122    1.77 0  203 294 
 ZAR  HN ES       1246 59.30                             122   -0.05 9  203 294 
 ZAR  HZ I        1247  4.30         3.9 0.18            121            203 294 
                                                                                
