 2015  712 1512  8.0 L   6.050 -73.707111.9  RSN 10 0.3 1.8LRSN                1
 GAP= 96        0.76       2.8     3.1  6.5 -0.3869E+01  0.8576E+01  0.3659E+00E
 Epicentro: VELEZ - SANTANDER                                                  3
 ACTION:UPD 15-09-08 21:48 OP:cam  STATUS:               ID:20150712151208 L   I
 OLDACT:REG 15-07-12 21:07 OP:spq  STATUS:               ID:20150712150749     3
 2015-07-12-1507-49M.COL___325                                                 6
 STAT SP IPHASW D HRMM SECON CODA AMPLIT PERI AZIMU VELO AIN AR TRES W  DIS CAZ7
 RUS  HZ EP       1512 26.12                             146   -0.1810 71.3 104 
 RUS  HE ES   1   1512 40.78                             146    0.20 7 71.3 104 
 RUS  HZ I        1512 44.50         7.7 0.68            145           71.3 104 
 BAR2 EZ EP       1512 26.65                             141   -0.1810 83.4  44 
 BAR2 EZ ES   1   1512 41.56                             141    0.03 7 83.4  44 
 BAR2 EZ I        1512 42.62        12.5 0.22            140           83.4  44 
 NOR  HZ EP       1512 31.42                             125   -0.22 9  139 247 
 NOR  HN ES       1512 49.66                             125   -0.43 9  139 247 
 NOR  HZ I        1512 51.27        17.7 0.42            125            139 247 
 CHI  HZ EP       1512 33.61                             121   -0.31 9  157 181 
 CHI  HN ES   1   1512 54.52                             121    0.37 7  157 181 
 CHI  HZ I        1512 57.05         3.6 0.30            121            157 181 
 HEL  HZ EP       1512 38.93                             114    0.20 9  202 274 
 HEL  HE ES   4   1513  1.19                             114   -1.52 0  202 274 
 HEL  HZ I        1513  5.13         5.1 0.76            114            202 274 
 GUY2CHZ EP       1512 39.19                             114   -0.00 9  205 244 
 GUY2CHE ES       1513  3.70                             114    0.17 9  205 244 
 GUY2CHZ I        1513  8.15         5.7 0.54                           205 244 
 TOL  SZ EP       1512 43.38                             110    0.27 8  241 228 
 TOL  SE ES   1   1513 10.65                             110    0.15 6  241 228 
 TOL  SZ I        1513 14.69         5.5 0.78            110            241 228 
 OCA  HN ES       1513 11.49                             109    0.47 8  246  10 
 OCA  HZ I        1513 21.12        14.1 0.38            109            246  10 
 PRA  HZ EP       1512 47.72                             106   -0.64 7  290 207 
 PRA  HN ES       1513 20.69                             106    0.84 7  290 207 
 PRA  HZ I        1513 25.50         4.7 0.28            106            290 207 
 ORTC HZ EP       1512 48.66                             105    0.03 7  292 216 
 ORTC HN ES   4   1513 22.48                             105    2.16 0  292 216 
 ORTC HZ I        1513 26.73         2.9 0.64            105            292 216 
                                                                                
