 2016  612 1149 22.1 L   6.795 -73.161144.2  RSN  8 0.3 1.5LRSN                1
 GAP=135        0.70       2.4     3.2  4.2 -0.2746E+01  0.2836E+01  0.5376E-01E
 Epicentro: LOS SANTOS - SANTANDER                                             3
 ACTION:UPD 16-07-21 22:18 OP:rebc STATUS:               ID:20160612114922 L   I
 OLDACT:REG 16-06-12 22:42 OP:edw  STATUS:               ID:20160612114746d    3
 2016-06-12-1147-45M.COL___328                                                 6
 STAT SP IPHASW D HRMM SECON CODA AMPLIT PERI AZIMU VELO AIN AR TRES W  DIS CAZ7
 BAR2 EZ EP       1149 41.56                             171    0.0310 22.6 186 
 BAR2 EZ ES       1149 56.20                             171   -0.4910 22.6 186 
 BAR2 EZ I        1149 57.56         7.9 0.28                          22.6 186 
 BRR  HZ EP       1149 43.28                             153    0.2610 70.0 300 
 BRR  HN ES       1149 59.92                             153    0.5910 70.0 300 
 PAM  EZ EP       1149 44.38                             150    0.1410 78.8  40 
 PAM  EN ES       1150  1.50                             150   -0.0110 78.8  40 
 PAM  EZ I        1150  2.60         4.5 0.17                          78.8  40 
 RUS  HZ EP       1149 45.74                             144    0.0710  100 175 
 RUS  HN ES       1150  4.07                             144    0.0110  100 175 
 RUS  HZ I        1150  4.72         2.9 0.44                           100 175 
 PTB  HZ EP       1149 48.69                             132   -0.10 9  146 259 
 PTB  HN ES       1150  9.48                             132   -0.12 9  146 259 
 PTB  HZ I        1150 10.88         3.5 0.09                           146 259 
 TAM  HZ EP   4   1149 49.44                             130   -0.35 0  157 105 
 TAM  HN ES   4   1150 14.69                             130    3.30 0  157 105 
 OCA  HZ EP       1149 50.19                             129   -0.13 9  161 354 
 OCA  HE ES       1150 12.01                             129   -0.33 9  161 354 
 OCA  HZ I        1150 17.01         9.3 0.14                           161 354 
 SPBC HZ EP       1149 50.63                             129    0.29 9  162 219 
 SPBC HE ES       1150 12.54                             129    0.17 9  162 219 
 NOR  HZ EP       1149 57.32                             118   -0.24 8  233 234 
 NOR  HE ES       1150 24.88                             118   -0.34 8  233 234 
 NOR  HZ I        1150 27.53         2.5 0.13                           233 234 
                                                                                
