 2013  112 1044 23.6 L   6.791 -73.156142.3  RSN  6 0.4 1.6LRSN                1
 GAP=236        0.88       5.1     5.7  6.9  0.1479E+02  0.9229E+01  0.3722E+01E
 Epicentro: LOS SANTOS - SANTANDER                                             3
 ACTION:UPD 13-02-15 09:13 OP:ep   STATUS:               ID:20130112104423 L   I
 2013-01-12-1038-43M.COL___183                                                 6
 STAT SP IPHASW D HRMM SECON CODA AMPLIT PERI AZIMU VELO AIN AR TRES W  DIS CAZ7
 BAR2 SZ EP       1044 42.76                             171   -0.0510 22.2 187 
 BAR2 SZ ES       1044 57.94                             171    0.1710 22.2 187 
 BAR2 SZ I        1045  0.59         7.7 0.28            179           22.2 187 
 BRR  HZ EP       1044 44.88                             152    0.5210 70.7 300 
 BRR  HN I        1045  2.59        11.4 0.32            146           70.7 300 
 RUS  HZ EP       1044 46.82                             143   -0.1410 99.7 175 
 RUS  HN ES       1045  4.86                             143   -0.3110 99.7 175 
 RUS  HN I        1045  5.80         3.5 0.44            146           99.7 175 
 PTB  HZ EP       1044 49.76                             132   -0.42 9  146 259 
 PTB  HN ES       1045 10.60                             132   -0.30 9  146 259 
 PTB  HN I        1045 16.50         8.5 0.28            129            146 259 
 ZAR  HN ES       1045 20.99                             122    0.15 9  203 293 
 ZAR  HN I        1045 26.15         2.5 0.42            118            203 293 
 CHI  HZ EP       1045  0.79                             116   -0.20 8  247 195 
 CHI  HN ES       1045 30.90                             116    0.76 8  247 195 
 CHI  HN I        1045 34.12         2.7 0.24            116            247 195 
                                                                                
