 2013  812 1258 46.2 L   6.821 -73.155148.4  RSN 17 0.5 2.8LRSN 3.2WRSN        1
 SPEC AVERAGE  MO 13.9 ST 32.5 OM  2.1 f0 6.91 R0.3504 AL 0.00 WI 22.4 MW  3.2 3
 SPEC SD       MO  0.2 ST 35.0 OM  0.5 f0 3.01 R0.2230 AL      WI      MW  0.1 3
 GAP=134        1.15       3.2     4.8  5.4 -0.2180E+01  0.7263E+01  0.3692E+01E
 Epicentro: LOS SANTOS - SANTANDER                                             3
 SPEC ZAR HH Z MO 13.7 ST 21.8 OM  1.9 f0 7.22 R0.2152 AL 0.00 WI 25.8 MW  3.1 3
 SPEC ZAR HH Z T125943 K 0.000 GD  250 VS 4.20 DE 3.20 Q0300.0 QA 0.60 VS 4.20 3
 SPEC SPBCHH N MO 13.9 ST102.0 OM  2.2 f0 10.0 R0.1554 AL 0.00 WI 17.6 MW  3.2 3
 SPEC SPBCHH N T125936 K 0.000 GD  221 VS 4.20 DE 3.20 Q0300.0 QA 0.60 VS 4.20 3
 SPEC HEL HH Z MO 14.0 ST  2.3 OM  1.3 f0 5.01 R0.5613 AL 0.00 WI 31.9 MW  3.3 3
 SPEC HEL HH Z T125926 K 0.000 GD  309 VP 7.60 DE 3.20 Q0300.0 QA 0.60 VS 4.20 3
 SPEC NOR HH N MO 13.8 ST 80.9 OM  2.0 f0 10.0 R0.1554 AL 0.00 WI 23.5 MW  3.2 3
 SPEC NOR HH N T125949 K 0.000 GD  277 VS 4.20 DE 3.20 Q0300.0 QA 0.60 VS 4.20 3
 SPEC PTB HH Z MO 13.5 ST 27.6 OM  1.8 f0 8.96 R0.1734 AL 0.00 WI 11.1 MW  3.0 3
 SPEC PTB HH Z T125933 K 0.000 GD  208 VS 4.20 DE 3.20 Q0300.0 QA 0.60 VS 4.20 3
 SPEC OCA HH Z MO 13.7 ST  6.6 OM  2.0 f0 4.70 R0.3306 AL 0.00 WI 20.1 MW  3.1 3
 SPEC OCA HH Z T125936 K 0.000 GD  216 VS 4.20 DE 3.20 Q0300.0 QA 0.60 VS 4.20 3
 SPEC PAM SH N MO 14.0 ST0.962 OM  2.4 f0 1.99 R0.7809 AL 0.00 WI 16.7 MW  3.3 3
 SPEC PAM SH N T125925 K 0.000 GD  166 VS 4.20 DE 3.20 Q0300.0 QA 0.60 VS 4.20 3
 SPEC CBOCHH Z MO 13.8 ST 13.4 OM  1.1 f0 10.0 R0.2812 AL 0.00 WI 31.8 MW  3.2 3
 SPEC CBOCHH Z T125933 K 0.000 GD  364 VP 7.60 DE 3.20 Q0300.0 QA 0.60 VS 4.20 3
 SPEC CHI HH N MO 14.4 ST  3.3 OM  2.5 f0 2.30 R0.6757 AL 0.00 WI 16.4 MW  3.5 3
 SPEC CHI HH N T125953 K 0.000 GD  291 VS 4.20 DE 3.20 Q0300.0 QA 0.60 VS 4.20 3
 SPEC BRR HH N MO 13.9 ST 66.4 OM  2.3 f0 8.87 R0.1752 AL 0.00 WI 29.3 MW  3.2 3
 SPEC BRR HH N T125922 K 0.000 GD  163 VS 4.20 DE 3.20 Q0300.0 QA 0.60 VS 4.20 3
 ACTION:UPD 14-01-14 09:01 OP:ep   STATUS:               ID:20130812125846 L   I
 OLDACT:UP  13-08-12 19:30 OP:jn   STATUS:               ID:20130812125650     3
 OLDACT:REG 13-08-12 17:56 OP:jn   STATUS:               ID:20130812125650     3
 2013-08-12-1256-50M.COL___221                                                 6
 STAT SP IPHASW D HRMM SECON CODA AMPLIT PERI AZIMU VELO AIN AR TRES W  DIS CAZ7
 BAR2 SZ IP     C 1259  6.35                             170    0.1210 25.5 187 
 BAR2 SZ ES       1259 21.49                             170   -0.3410 25.5 187 
 BAR2 SZ I        1259 23.05       129.9 0.20            164           25.5 187 
 GIR2 SZ EP       1259  6.43                             168    0.2710 28.8 352 
 GIR2 SZ ES       1259 21.64                             168   -0.0610 28.8 352 
 GIR2 SZ I        1259 23.12       106.5 0.50            162           28.8 352 
 BRR  HZ IP     C 1259  8.15                             154    0.5810 69.2 297 
 BRR  HE ES       1259 25.38                             154    1.1810 69.2 297 
 BRR  HZ I        1259 28.42       104.7 0.20            143           69.2 297 
 PAM  SZ EP       1259  9.31                             152    0.6410 76.3  41 
 PAM  SE ES       1259 25.92                             152   -0.2510 76.3  41 
 PAM  SZ I        1259 29.22        72.9 0.74            151           76.3  41 
 RUS  HZ EP       1259 10.22                             144   -0.2110  103 176 
 PTB  HZ EP       1259 12.88                             133   -0.50 9  147 258 
 PTB  HN ES       1259 33.76                             133   -0.78 9  147 258 
 PTB  HZ I        1259 39.17        82.7 0.32            123            147 258 
 OCA  HZ EP   1   1259 13.08                             131   -1.45 7  158 353 
 OCA  HN ES       1259 36.26                             131   -0.33 9  158 353 
 OCA  HZ I        1259 44.81        74.4 0.30            124            158 353 
 SPBC HZ EP       1259 15.02                             129   -0.04 9  164 218 
 SPBC HE ES   1   1259 37.26                             129   -0.27 7  164 218 
 SPBC HZ I        1259 41.77       103.1 0.24            121            164 218 
 ZAR  HZ EP       1259 18.80                             123    0.13 9  202 292 
 ZAR  HN ES   1   1259 44.17                             123    0.20 6  202 292 
 ZAR  HZ I        1259 50.58        61.0 0.26            115            202 292 
 NOR  HZ EP       1259 22.46                             119    0.28 8  235 234 
 NOR  HN ES   1   1259 50.01                             119   -0.21 6  235 234 
 NOR  HZ I        1259 59.96        40.4 0.16            112            235 234 
 SML  HZ EP       1259 22.60                             118   -0.14 8  241 335 
 SML  HN ES       1259 50.71                             118   -0.50 8  241 335 
 CHI  HZ EP       1259 24.50                             117    0.20 8  251 195 
 CHI  HN ES       1259 53.93                             117   -0.06 8  251 195 
 CHI  HZ I        1259 59.00        44.5 0.44            112            251 195 
 HEL  HZ EP   1   1259 27.20                             115    0.66 6  272 255 
 HEL  HZ I        13 0  4.45        40.6 0.32            109            272 255 
 URE  HE ES   4   1259 56.33                             114   -2.88 0  282 292 
 VIL  SN ES   1   13 0  3.70                             112   -0.46 5  305 191 
 VIL  SZ I        13 0 14.12        67.2 0.44            107            305 191 
 CBOC HZ EP       1259 33.98                             110    0.74 7  333 252 
 CBOC HZ I        13 0 16.26        12.0 0.38            105            333 252 
 DBB  SZ EP   1   1259 33.79                             110    0.10 5  338 274 
 PRA  HZ EP       1259 39.84                             107   -0.19 6  394 209 
 PRA  HN ES   1   13 0 21.88                             107   -0.11 4  394 209 
 PRA  HZ I        13 0 28.84        44.6 0.24            102            394 209 
                                                                                
