 2012  812 1505 36.0 L   6.807 -73.172144.7  RSN  4 0.2 1.3LRSN                1
 GAP=235        0.40       5.7     4.2  5.8  0.9153E+01 -0.6255E+00 -0.7275E+01E
 Epicentro: LOS SANTOS - SANTANDER                                             3
 ACTION:UPD 12-09-10 11:56 OP:ep   STATUS:               ID:20120812150536 L   I
 2012-08-12-1500-00M.COL___218                                                 6
 STAT SP IPHASW D HRMM SECON CODA AMPLIT PERI AZIMU VELO AIN AR TRES W  DIS CAZ7
 BAR2 SZ EP   1   15 5 55.19                             170   -0.27 7 23.7 183 
 BAR2 SZ I        15 5 55.66         4.2 0.20                          23.7 183 
 BAR2 SZ ES   1   15 6 10.72                             170    0.05 7 23.7 183 
 BRR  HZ EP   2   15 5 57.12                             153    0.30 5 68.3 299 
 BRR  HZ I        15 5 58.67         9.0 0.26                          68.3 299 
 RUS  HZ EP   1   15 5 59.78                             143    0.12 7  102 174 
 RUS  HN ES   1   15 6 18.16                             143    0.00 7  102 174 
 RUS  HZ I        15 6 20.94         1.8 0.44                           102 174 
 PTB  HN ES   1   15 6 23.32                             132   -0.04 7  145 258 
                                                                                
