 2013  112 1002 51.9 L   6.702 -73.216139.0  RSN  4 0.3 1.3LRSN                1
 GAP=221        0.79       5.9     6.6  7.0  0.2208E+02  0.1900E+01  0.8106E+01E
 Epicentro: VILLANUEVA - SANTANDER                                             3
 ACTION:UPD 13-02-15 09:13 OP:ep   STATUS:               ID:20130112100251 L   I
 2013-01-12-0958-50M.COL___183                                                 6
 STAT SP IPHASW D HRMM SECON CODA AMPLIT PERI AZIMU VELO AIN AR TRES W  DIS CAZ7
 BRR  HZ EP       10 3 12.06                             151   -0.2510 70.8 309 
 BRR  HN ES       10 3 28.62                             151    0.4010 70.8 309 
 BRR  HN I        10 3 33.49         5.9 0.24            155           70.8 309 
 RUS  HZ EP       10 3 14.18                             145   -0.1210 90.7 171 
 RUS  HN ES       10 3 31.60                             145   -0.1610 90.7 171 
 RUS  HN I        10 3 35.39         2.0 0.54            150           90.7 171 
 PTB  HZ EP       10 3 17.29                             132   -0.19 9  138 263 
 PTB  HN ES       10 3 37.28                             132   -0.14 9  138 263 
 PTB  HN I        10 3 39.92         4.1 0.36            137            138 263 
 CHI  HZ EP       10 3 28.56                             117    0.67 8  236 194 
                                                                                
