 2012  812 1018 49.1 L   6.774 -73.135148.7  RSN  6 0.4 1.3LRSN                1
 GAP=139        0.85       5.9     5.9  7.4 -0.4087E+01  0.4767E+01  0.5025E+01E
 Epicentro: LOS SANTOS - SANTANDER                                             3
 ACTION:UPD 12-09-10 11:56 OP:ep   STATUS:               ID:20120812101849 L   I
 2012-08-12-1016-59S.COL___217                                                 6
 STAT SP IPHASW D HRMM SECON CODA AMPLIT PERI AZIMU VELO AIN AR TRES W  DIS CAZ7
 BAR2 SZ EP   1   1019  8.99                             172   -0.05 7 20.8 195 
 BAR2 SZ ES   1   1019 24.40                             172   -0.19 7 20.8 195 
 BAR2 SZ I        1019 25.60        10.0 0.20                          20.8 195 
 GIR2 SZ EP   1   1019  9.89                             166    0.68 7 34.3 349 
 GIR2 SZ ES   1   1019 24.96                             166    0.06 7 34.3 349 
 BRR  HZ EP   1   1019 10.98                             152    0.27 7 73.6 300 
 BRR  HN ES   1   1019 28.17                             152    0.61 7 73.6 300 
 PAM  SZ EP   1   1019 11.80                             151    0.07 7 78.9  38 
 PAM  SE ES   1   1019 28.60                             151   -0.77 7 78.9  38 
 PAM  SZ I        1019 30.93         3.1 0.18                          78.9  38 
 RUS  HZ EP   1   1019 12.89                             145   -0.05 7 97.6 177 
 RUS  HN ES   1   1019 31.79                             145    0.26 7 97.6 177 
 RUS  HZ I        1019 32.78         2.2 0.34                          97.6 177 
 PTB  HZ EP   1   1019 15.83                             132   -0.54 7  148 260 
 PTB  HN ES   1   1019 37.15                             132   -0.48 7  148 260 
                                                                                
