 2010  512 1658 11.3 L   6.788 -73.052143.6  RSN  8 0.3 2.5LRSN                1
 GAP=167        0.61       3.3     7.9  6.2 -0.1030E+02 -0.1419E+01  0.1778E+01E
 Epicentro: LOS SANTOS - SANTANDER                                             3
 ACTION:UP  10-08-24 10:04 OP:vdl  STATUS:               ID:20100512165811 L   I
 2010-05-12-1655-07S.COL___104                                                 6
 STAT SP IPHASW D HRMM SECON CODA AMPLIT PERI AZIMU VELO AIN AR TRES W  DIS CAZ7
 BAR2 SZ EP   1   1658 30.39                             169    -0.3 7   26 214 
 BAR2 SZ ES   2   1658 45.26                             169    -0.6 5   26 214 
 BRR  HZ EP   1   1658 33.02                             149     0.2 7   81 296 
 BRR  HZ I        1658 34.98        97.3 0.11                            81 296 
 BRR  HN ES   2   1658 50.00                             149     0.4 5   81 296 
 RUS  HZ EP   1   1658 34.64                             144    -0.1 7   99 182 
 RUS  HN ES   2   1658 53.26                             144     0.3 5   99 182 
 RUS  HZ I        1658 54.52        19.1 0.44                            99 182 
 BRI  SZ EP   1   1658 35.24                             141     0.4 7  107  15 
 BRI  SZ ES   2   1658 53.63                             141     0.5 5  107  15 
 GUE  SZ EP   1   1658 35.46                             139    -0.3 7  116   7 
 GUE  SZ ES   2   1658 54.84                             139     0.0 5  116   7 
 GRA  SZ EP   1   1658 36.32                             137     0.1 7  124  13 
 GRA  SZ ES   2   1658 55.82                             137     0.2 5  124  13 
 OCA  SZ EP   1   1658 39.51                             129    -0.2 7  163 350 
 OCA  SZ ES   2   1659  1.11                             129    -0.8 5  163 350 
 OCA  SZ I        1659  4.05        36.7 0.31                           163 350 
 PRA  HZ EP   1   1659  5.27                             106     0.1 4  396 211 
 PRA  HN ES   2   1659 47.41                             106     0.2 3  396 211 
 PRA  HZ I        1659 53.53         9.5 0.47                           396 211 
                                                                                
