 2016 1112 1445 54.3 L   6.801 -73.146144.0  RSN  9 0.3 2.1LRSN                1
 GAP=150        0.75       3.0     3.1  4.8 -0.2271E+00  0.4438E+01  0.4121E+01E
 Epicentro: LOS SANTOS - SANTANDER                                             3
 ACTION:UPD 17-10-26 21:07 OP:lp   STATUS:               ID:20161112144554 L   I
 OLDACT:DUP 16-11-13 00:12 OP:dnl  STATUS:               ID:20161112143745d    3
 OLDACT:REG 16-11-12 21:16 OP:dnl  STATUS:               ID:20161112143744     3
 2016-11-12-1438-00M.COL___343                                                 6
 STAT SP IPHASW D HRMM SECON CODA AMPLIT PERI AZIMU VELO AIN AR TRES W  DIS CAZ7
 BAR2 EZ IP     D 1446 13.71                             170   -0.0310 23.4 190 
 BAR2 EZ ES       1446 28.94                             170    0.0610 23.4 190 
 BAR2 EZ I        1446 30.77        19.7 0.12            168           23.4 190 
 BRR  HZ IP     D 1446 15.42                             152    0.1510 71.1 298 
 BRR  HE ES       1446 31.96                             152    0.3510 71.1 298 
 BRR  HZ I        1446 37.76        25.2 0.14            150           71.1 298 
 PAM  EZ EP     D 1446 16.32                             151   -0.0210 77.4  40 
 PAM  EN ES       1446 33.37                             151   -0.1510 77.4  40 
 PAM  EZ I        1446 35.80        18.4 0.42            155           77.4  40 
 PTB  HZ EP       1446 20.31                             132   -0.83 9  148 259 
 PTB  HE ES       1446 42.08                             132    0.02 9  148 259 
 PTB  HZ I        1446 43.82        27.2 0.40            131            148 259 
 ZAR  HZ EP       1446 26.53                             122   -0.11 9  204 292 
 ZAR  HE ES       1446 51.65                             122   -0.20 9  204 292 
 ZAR  HZ I        1446 57.96        25.9 0.38            122            204 292 
 NOR  HZ EP   2   1446 30.24                             118    0.29 4  235 234 
 NOR  HN ES       1446 57.74                             118    0.01 8  235 234 
 NOR  HZ I        1447  5.24         7.3 0.24            119            235 234 
 CHI  HZ EP       1446 32.43                             117    0.51 8  249 195 
 CHI  HN ES       1447  1.48                             117    0.22 8  249 195 
 CHI  HZ I        1447  4.71         3.8 0.34            118            249 195 
 URE  HZ EP   2   1446 35.79                             113    0.50 4  284 292 
 URE  HN ES       1447  7.64                             113    0.39 7  284 292 
 URE  HZ I        1447 16.03         9.4 0.22            114            284 292 
 PRA  HZ EP   2   1446 48.28                             106    0.50 3  392 210 
 PRA  HN ES       1447 28.77                             106   -0.71 6  392 210 
 PRA  HZ I        1447 39.51         3.6 0.18            107            392 210 
                                                                                
