 2017  812 1448 52.8 L   6.848 -73.172142.0  RSN  5 0.3 1.6LRSN                1
 GAP=302        0.77       6.1     6.8  6.2 -0.1013E+02  0.1866E+02  0.4583E+01E
 Epicentro: ZAPATOCA - SANTANDER                                               3
 ACTION:UPD 17-09-04 20:19 OP:rebc STATUS:               ID:20170812144852 L   I
 OLDACT:UP  17-08-12 22:56 OP:dani STATUS:               ID:20170812144742     3
 OLDACT:REG 17-08-12 21:00 OP:dani STATUS:               ID:20170812144742     3
 2017-08-12-1448-00M.COL___416                                                 6
 STAT SP IPHASW D HRMM SECON CODA AMPLIT PERI AZIMU VELO AIN AR TRES W  DIS CAZ7
 BAR2 EZ EP       1449 12.22                             168    0.1210 28.3 182 
 BAR2 EZ ES       1449 27.16                             168    0.0110 28.3 182 
 BAR2 EZ I        1449 28.49        10.0 0.54            165           28.3 182 
 RUS  HZ EP       1449 16.13                             141   -0.4710  106 175 
 RUS  HN ES       1449 35.42                             141    0.2610  106 175 
 RUS  HZ I        1449 35.92         4.1 0.26            141            106 175 
 NOR  HZ EP       1449 29.00                             118    0.59 8  235 233 
 NOR  HE ES       1449 55.72                             118   -0.45 8  235 233 
 NOR  HZ I        1450  0.89         3.2 0.18            117            235 233 
 CHI  HZ EP       1449 30.50                             116   -0.28 8  253 194 
 CHI  HN ES       1450  0.33                             116   -0.07 8  253 194 
 CHI  HZ I        1450  2.06         2.2 0.24            116            253 194 
 PRA  HZ EP       1449 46.72                             106    0.14 6  395 209 
 PRA  HN ES       1450 28.98                             106    0.46 6  395 209 
 PRA  HZ I        1450 36.09         2.4 0.44            106            395 209 
                                                                                
