 2013  912 1612 52.3 L   6.791 -73.133151.9  RSN  9 0.3 2.1LRSN                1
 GAP=139        0.88       2.7     3.8  4.9  0.3289E+00  0.3919E+01 -0.2938E-01E
 Epicentro: LOS SANTOS - SANTANDER                                             3
 ACTION:UPD 13-10-22 09:22 OP:ep   STATUS:               ID:20130912161252 L   I
 OLDACT:REG 13-09-12 15:12 OP:cam  STATUS:               ID:20130912160959     3
 2013-09-12-1609-59M.COL___269                                                 6
 STAT SP IPHASW D HRMM SECON CODA AMPLIT PERI AZIMU VELO AIN AR TRES W  DIS CAZ7
 BAR2 SZ EP       1613 12.60                             171   -0.0710 22.6 194 
 BAR2 SZ ES       1613 28.44                             171   -0.1110 22.6 194 
 BAR2 SZ I        1613 30.47        21.9 0.40            169           22.6 194 
 BRR  HZ EP       1613 14.56                             153    0.3410 72.9 299 
 BRR  HE ES       1613 31.88                             153    0.5710 72.9 299 
 BRR  HZ I        1613 34.79        18.6 0.16            151           72.9 299 
 PAM  SZ EP       1613 15.47                             152    0.2910 77.3  38 
 PAM  SN ES       1613 32.78                             152   -0.2410 77.3  38 
 PAM  SZ I        1613 34.69         9.6 0.20            156           77.3  38 
 RUS  HZ EP       1613 16.50                             145   -0.1010 99.5 177 
 RUS  HN ES       1613 35.42                             145   -0.1210 99.5 177 
 RUS  HZ I        1613 38.02        10.3 0.42            147           99.5 177 
 PTB  HZ EP       1613 19.21                             133   -0.69 9  149 259 
 PTB  HN ES       1613 40.85                             133   -0.56 9  149 259 
 PTB  HZ I        1613 46.34        23.5 0.44            133            149 259 
 SPBC HZ EP       1613 21.54                             130    0.24 9  163 220 
 SPBC HN ES       1613 44.11                             130    0.20 9  163 220 
 SPBC HZ I        1613 48.57        18.5 0.22            131            163 220 
 ZAR  HZ EP       1613 25.00                             123   -0.34 8  206 292 
 ZAR  HN ES       1613 51.57                             123    0.48 8  206 292 
 ZAR  HZ I        1613 57.42        19.5 0.34            124            206 292 
 SML  HZ EP       1613 29.59                             119    0.14 8  245 335 
 SML  HE ES       1613 58.02                             119   -0.40 8  245 335 
 SML  HZ I        1614  2.80        18.1 0.10            120            245 335 
 CHI  HZ EP       1613 30.73                             118    0.43 8  248 196 
 CHI  HN ES       1613 59.86                             118   -0.06 8  248 196 
 CHI  HZ I        1614  5.82         6.8 0.30            120            248 196 
                                                                                
