 2015  112 1036 58.5 L   6.803 -73.092138.8  RSN  4 0.2 1.5LRSN                1
 GAP=246        0.54       3.5    10.4 16.5  0.1901E+02 -0.1435E+03 -0.3518E+02E
 Epicentro: LOS SANTOS - SANTANDER                                             3
 ACTION:UPD 15-03-02 15:39 OP:nd   STATUS:               ID:20150112103658 L   I
 OLDACT:DUP 15-01-12 22:47 OP:mh   STATUS:               ID:20150112102749d    3
 2015-01-12-1027-48M.COL___256                                                 6
 STAT SP IPHASW D HRMM SECON CODA AMPLIT PERI AZIMU VELO AIN AR TRES W  DIS CAZ7
 PTB  HZ EP   1   1037 24.98                             129   -0.48 7  154 259 
 PTB  HN ES       1037 46.32                             129   -0.1610  154 259 
 SPBC HZ EP       1037 27.18                             126    0.3210  167 221 
 SPBC HN ES       1037 48.97                             126   -0.0210  167 221 
 SPBC HZ I        1037 55.13         4.5 0.14            145            167 221 
 ZAR  HZ EP   1   1037 30.89                             120   -0.18 7  209 291 
 ZAR  HN ES       1037 56.73                             120    0.26 9  209 291 
 ZAR  HZ I        1038  4.91         2.3 0.32            135            209 291 
 SML  HZ EP   1   1037 35.01                             115    0.02 6  246 334 
 SML  HN ES   1   1038  3.46                             115    0.00 6  246 334 
 SML  HZ I        1038 13.27         2.8 0.22            127            246 334 
                                                                                
