 2017  212 1100 30.5 L   6.828 -73.337122.0  RSN 12 0.3 1.9LRSN                1
 GAP=104        0.95       3.9     2.8  5.0  0.6833E+00  0.2896E+01  0.2204E+01E
 Epicentro: ZAPATOCA - SANTANDER                                               3
 ACTION:UPD 17-05-24 15:35 OP:jn   STATUS:               ID:20170212110030 L   I
 OLDACT:UP  17-02-12 22:50 OP:edw  STATUS:               ID:20170212105740     3
 OLDACT:UP  17-02-12 22:49 OP:edw  STATUS:               ID:20170212105740     3
 OLDACT:REG 17-02-12 19:59 OP:edw  STATUS:               ID:20170212105740     3
 2017-02-12-1058-00M.COL___343                                                 6
 STAT SP IPHASW D HRMM SECON CODA AMPLIT PERI AZIMU VELO AIN AR TRES W  DIS CAZ7
 BAR2 EZ IP     C 11 0 47.67                             165    0.1810 31.2 147 
 BAR2 EZ ES       11 1  0.37                             165   -0.3810 31.2 147 
 BRR  HZ IP     D 11 0 48.24                             155    0.2510 51.7 307 
 BRR  HN ES       11 1  1.98                             155    0.3410 51.7 307 
 BRR  HZ I        11 1  3.00        51.4 0.12            152           51.7 307 
 PAM  EZ EP       11 0 50.75                             141   -0.4210 90.3  51 
 PAM  EN ES       11 1  7.26                             141   -0.0410 90.3  51 
 PAM  EZ I        11 1  9.58        16.0 0.26            133           90.3  51 
 RUS  HZ EP       11 0 52.42                             136   -0.1110  107 165 
 RUS  HN ES       11 1  9.97                             136    0.2510  107 165 
 RUS  HZ I        11 1 11.99        13.6 0.38            129            107 165 
 PTB  HZ IP   9   11 0 52.94                             130   -0.78 0  128 256 
 PTB  HN ES       11 1 10.19                             130   -0.8710  128 256 
 PTB  HZ I        11 1 14.72        21.3 0.78            125            128 256 
 TAM  HZ IP     C 11 0 58.61                             120    0.03 9  176 104 
 TAM  HZ I        11 1 19.89         8.7 0.20            114            176 104 
 TAM  HN ES       11 1 20.25                             120   -0.24 9  176 104 
 ZAR  HZ EP       11 0 59.48                             119    0.20 9  183 294 
 ZAR  HN ES   4   11 1 22.73                             119    0.99 0  183 294 
 ZAR  HZ I        11 1 26.09        15.1 0.44            114            183 294 
 CHI  HZ EP   4   11 1  7.80                             111    1.00 0  247 190 
 CHI  HN ES   4   11 1 32.81                             111   -2.32 0  247 190 
 CHI  HZ I        11 1 39.47         2.1 0.64            108            247 190 
 URE  HZ EP   9   11 1  7.04                             110   -1.09 0  263 293 
 URE  HN ES       11 1 35.76                             110   -0.64 8  263 293 
 URE  HZ I        11 1 38.92         9.4 0.10            107            263 293 
 CBOC HZ EP   4   11 1 15.59                             106    1.29 0  315 250 
 CBOC HN ES       11 1 48.83                             106    0.36 7  315 250 
 CBOC HZ I        11 1 52.36         2.0 0.20            104            315 250 
 DBB  EZ EP       11 1 15.00                             106    0.39 7  318 274 
 DBB  EN ES       11 1 48.24                             106   -0.78 7  318 274 
 DBB  EZ I        11 1 53.42         2.6 0.12            103            318 274 
 PRA  HZ EP   4   11 1 23.52                             102    1.09 0  385 207 
 PRA  HE ES       11 2  2.79                             102   -0.16 6  385 207 
 PRA  HZ I        11 2  8.44         1.9 0.22            101            385 207 
 SJC  HZ EP   4   11 1 21.83                             102   -1.89 0  395 329 
 SJC  HN ES   4   11 2  1.08                             102   -4.16 0  395 329 
                                                                                
