 2011  212 1327 11.9 L   6.820 -73.190140.9  RSN  6 0.2 1.8LRSN                1
 GAP=154        0.59       3.4     6.8  6.0 -0.1373E+02  0.1341E+02 -0.3166E+01E
 Epicentro: ZAPATOCA - SANTANDER                                               3
 ACTION:UP  11-03-28 15:07 OP:jfem STATUS:               ID:20110212132711 L   I
 2011-02-12-1324-15S.COL___136                                                 6
 STAT SP IPHASW D HRMM SECON CODA AMPLIT PERI AZIMU VELO SNR AR TRES W  DIS CAZ7
 BTL  SZ EP       1327 31.22                             174     0.510   14 322 
 BAR2 SZ EP   1   1327 30.83                             169    -0.1 7   25 178 
 BAR2 SZ ES   1   1327 45.86                             169     0.0 7   25 178 
 BAR2 SZ I        1327 47.52        20.3 0.18                            25 178 
 RUS  HZ EP   1   1327 35.13                             142    -0.2 7  103 173 
 RUS  HN ES   1   1327 53.58                             142    -0.1 7  103 173 
 RUS  HZ I        1327 55.05         7.4 0.36                           103 173 
 GRA  SZ EP       1327 36.65                             136     0.010  125  20 
 GRA  SZ ES   1   1327 55.58                             136    -0.4 7  125  20 
 GRA  SZ I        1327 58.26        10.7 0.27                           125  20 
 NOR  SZ EP   2   1327 46.96                             118    -0.1 4  232 233 
 NOR  SN ES   1   1328 14.26                             118    -0.2 6  232 233 
 CHI  HZ EP   1   1327 49.30                             116    -0.1 6  250 194 
 CHI  HN ES   1   1328 18.78                             116     0.1 6  250 194 
 CHI  HZ I        1328 25.83         3.6 0.61                           250 194 
                                                                                
