 2014  212 1330 57.5 L   6.786 -73.179136.8  RSN 15 0.4 2.5LRSN                1
 GAP= 70        0.73       2.7     3.4  4.4 -0.2873E+01  0.4741E+01 -0.5938E+00E
 Epicentro: LOS SANTOS - SANTANDER                                             3
 ACTION:UPD 14-03-10 08:09 OP:ep   STATUS:               ID:20140212133057 L   I
 OLDACT:UP  14-02-12 18:12 OP:mh   STATUS:               ID:20140212133000     3
 OLDACT:REG 14-02-12 15:01 OP:mh   STATUS:               ID:20140212133000     3
 2014-02-12-1330-00M.COL___199                                                 6
 STAT SP IPHASW D HRMM SECON CODA AMPLIT PERI AZIMU VELO AIN AR TRES W  DIS CAZ7
 BAR2 SZ IP     C 1331 16.20                             171    0.2110 21.5 181 
 BAR2 SZ ES       1331 30.23                             171   -0.2010 21.5 181 
 BAR2 SZ I        1331 32.23        91.6 0.21            175           21.5 181 
 PAM  SZ EP     C 1331 19.25                             148    0.2810 80.9  41 
 PAM  SN ES   1   1331 35.92                             148    0.18 7 80.9  41 
 PAM  SZ I        1331 38.23        61.6 0.38            122           80.9  41 
 RUS  HZ EP       1331 20.06                             142   -0.2010 99.4 174 
 RUS  HN ES       1331 37.77                             142   -0.2710 99.4 174 
 RUS  HZ I        1331 39.41        45.9 0.10            131           99.4 174 
 PTB  HZ EP   1   1331 22.87                             131   -0.49 7  144 259 
 PTB  HZ I        1331 47.23        25.4 0.18            110            144 259 
 TAM  HZ EP       1331 24.50                             128   -0.26 9  158 104 
 TAM  HZ I        1331 46.57        27.3 0.10            110            158 104 
 SPBC HZ EP       1331 25.09                             128    0.13 9  160 218 
 SPBC HN ES       1331 46.83                             128    0.43 9  160 218 
 SPBC HZ I        1331 48.22        48.8 0.21            111            160 218 
 OCA  HZ EP   1   1331 25.89                             127    0.68 7  161 355 
 OCA  HZ I        1331 49.71        47.9 0.20            105            161 355 
 ZAR  HN ES   1   1331 53.88                             121    0.20 6  201 293 
 NOR  HZ EP   1   1331 31.93                             117   -0.34 6  231 234 
 NOR  HZ I        1332  7.47        19.7 0.10            103            231 234 
 SML  HZ EP   1   1331 32.67                             115   -0.93 6  244 336 
 SML  HZ I        1332  9.90        36.3 0.10            100            244 336 
 CHI  HZ EP   1   1331 34.39                             115   -0.03 6  246 194 
 CHI  HN ES   1   1332  3.39                             115    0.15 6  246 194 
 CHI  HZ I        1332  7.82         8.4 0.24            102            246 194 
 CBOC HZ EP   2   1331 43.94                             108    0.37 3  330 252 
 CBOC HE ES   1   1332 18.77                             108   -0.75 5  330 252 
 CBOC HZ I        1332 30.43       136.7 0.03             98            330 252 
 PRA  HZ EP   1   1331 50.03                             105   -0.30 4  389 209 
 PRA  HN ES       1332 31.76                             105    0.21 6  389 209 
 PRA  HZ I        1332 38.16         8.0 0.23             97            389 209 
 ORTC HZ EP       1331 51.07                             105    0.37 6  392 216 
 ORTC HN ES   1   1332 32.70                             105    0.49 4  392 216 
 ORTC HZ I        1332 39.14        11.1 0.31             97            392 216 
 SJC  HZ EP   4   1331 49.83                             104   -2.84 0  409 327 
 SJC  HN ES   4   1332 31.72                             104   -4.00 0  409 327 
 SJC  HZ I        1332 37.00         4.7 0.26             96            409 327 
                                                                                
