 2017  312 1116 53.3 L   6.832 -73.155146.0  RSN 26 0.5 3.0LRSN 3.6WRSN        1
 SPEC AVERAGE  MO 14.4 ST0.200 OM  2.4 f0 1.06 R2.0861 AL 0.00 WI 30.0 MW  3.6 3
 SPEC SD       MO  0.3 ST0.391 OM  0.4 f00.887 R0.7433 AL      WI      MW  0.2 3
 GAP= 70        1.15       3.3     3.1  5.0 -0.6913E+00  0.3947E+01  0.1288E+01E
 Epicentro: LOS SANTOS - SANTANDER                                             3
 SPEC BRR HH Z MO 14.1 ST0.722 OM  2.2 f0 2.07 R0.9295 AL-0.00 WI 30.0 MW  3.4 3
 SPEC BRR HH Z T111729 K 0.000 GD  161 VS 5.20 DE 3.50 Q0750.0 QA 1.50 VS 5.20 3
 SPEC RUS HH Z MO 14.3 ST0.286 OM  2.3 f0 1.36 R1.4147 AL-0.00 WI 30.0 MW  3.5 3
 SPEC RUS HH Z T111734 K 0.000 GD  179 VS 5.20 DE 3.50 Q0750.0 QA 1.50 VS 5.20 3
 SPEC CHI HH Z MO 14.2 ST0.156 OM  2.0 f0 1.19 R1.6168 AL-0.00 WI 30.0 MW  3.4 3
 SPEC CHI HH Z T111759 K 0.000 GD  291 VS 5.20 DE 3.50 Q0750.0 QA 1.50 VS 5.20 3
 SPEC ROSCBH Z MO 14.5 ST0.150 OM  2.3 f00.929 R2.0710 AL-0.00 WI 30.0 MW  3.6 3
 SPEC ROSCBH Z T1118 2 K 0.000 GD  293 VS 5.20 DE 3.50 Q0750.0 QA 1.50 VS 5.20 3
 SPEC HEL HH Z MO 14.5 ST0.099 OM  2.3 f00.797 R2.4141 AL-0.00 WI 30.0 MW  3.6 3
 SPEC HEL HH Z T1118 4 K 0.000 GD  308 VS 5.20 DE 3.50 Q0750.0 QA 1.50 VS 5.20 3
 SPECGUY2CHH Z MO 14.6 ST  0.1 OM  2.3 f00.746 R  2.58 AL-0.00 WI 30.0 MW  3.7 3
 SPECGUY2CHH Z T111813 K       GD335.4 VS 5.20 DE 3.50 Q0750.0 QA 1.50 VS 5.20 3
 SPEC VIL EH Z MO 14.2 ST0.152 OM  2.0 f0 1.12 R1.7179 AL-0.00 WI 30.0 MW  3.4 3
 SPEC VIL EH Z T111811 K 0.000 GD  339 VS 5.20 DE 3.50 Q0750.0 QA 1.50 VS 5.20 3
 SPEC PTGCHH Z MO 14.2 ST0.171 OM  2.0 f0 1.16 R1.6586 AL-0.00 WI 30.0 MW  3.4 3
 SPEC PTGCHH Z T1118 8 K 0.000 GD  344 VS 5.20 DE 3.50 Q0750.0 QA 1.50 VS 5.20 3
 SPEC ELA HH Z MO 14.6 ST0.095 OM  2.3 f00.746 R2.5791 AL-0.00 WI 30.0 MW  3.7 3
 SPEC ELA HH Z T111817 K 0.000 GD  361 VS 5.20 DE 3.50 Q0750.0 QA 1.50 VS 5.20 3
 SPEC CBOCHH Z MO 14.6 ST0.079 OM  2.3 f00.699 R2.7525 AL-0.00 WI 30.0 MW  3.7 3
 SPEC CBOCHH Z T111815 K 0.000 GD  364 VS 5.20 DE 3.50 Q0750.0 QA 1.50 VS 5.20 3
 SPEC ANILHH Z MO 15.0 ST0.086 OM  2.7 f00.519 R3.7071 AL-0.00 WI 30.0 MW  3.9 3
 SPEC ANILHH Z T111822 K 0.000 GD  387 VS 5.20 DE 3.50 Q0750.0 QA 1.50 VS 5.20 3
 OLDACT:REG 17-03-12 21:40 OP:lv   STATUS:               ID:20170312110743     3
 ACTION:UPD 17-05-25 18:39 OP:jn   STATUS:               ID:20170312111653 L   I
 OLDACT:UP  17-03-12 22:45 OP:lv   STATUS:               ID:20170312110743     3
 2017-03-12-1108-00M.COL___391                                                 6
 STAT SP IPHASW D HRMM SECON CODA AMPLIT PERI AZIMU VELO AIN AR TRES W  DIS CAZ7
 BAR2 EZ IP     D 1117 12.91                             170   -0.1510 26.6 187 
 BAR2 EZ ES       1117 28.18                             170   -0.2710 26.6 187 
 BAR2 EZ I        1117 29.51       253.1 0.20            164           26.6 187 
 BRR  HZ EP       1117 14.70                             153    0.3310 68.7 296 
 BRR  HN ES       1117 31.38                             153    0.6010 68.7 296 
 BRR  HZ I        1117 35.07       247.1 0.28            149           68.7 296 
 PAM  EZ EP       1117 15.91                             151    0.4510 75.4  42 
 PAM  EN ES       1117 32.96                             151    0.2510 75.4  42 
 PAM  EZ I        1117 35.69       138.6 0.53            155           75.4  42 
 RUS  HZ EP       1117 16.84                             143   -0.5310  104 176 
 RUS  HN ES       1117 35.67                             143   -0.4410  104 176 
 RUS  HZ I        1117 37.66        87.1 0.32            139            104 176 
 PTB  HZ EP       1117 19.44                             132   -0.86 9  148 257 
 PTB  HN ES       1117 40.41                             132   -0.92 9  148 257 
 PTB  HZ I        1117 47.92       128.3 0.36            127            148 257 
 TAM  HZ IP     C 1117 21.39                             130    0.18 9  157 106 
 TAM  HN ES       1117 43.36                             130    0.42 9  157 106 
 TAM  HZ I        1117 43.76        62.7 0.30            131            157 106 
 SPBC HZ EP       1117 21.86                             129   -0.19 9  165 218 
 SPBC HN ES       1117 44.08                             129   -0.37 9  165 218 
 SPBC HZ I        1117 50.24       170.3 0.22            124            165 218 
 ZAR  HZ EP       1117 25.45                             123   -0.12 9  202 291 
 ZAR  HN ES       1117 51.40                             123    0.69 9  202 291 
 ZAR  HZ I        1117 55.77       113.5 0.37            120            202 291 
 CHI  HZ EP       1117 31.30                             117   -0.09 8  252 195 
 CHI  HN ES       1118  0.81                             117   -0.25 8  252 195 
 CHI  HZ I        1118  6.78        35.5 0.37            114            252 195 
 ROSC BZ EP       1117 32.77                             116    1.03 8  255 210 
 ROSC BZ I        1118  9.82        86.1 0.43            114            255 210 
 HEL  HZ EP       1117 33.57                             115    0.02 8  272 255 
 HEL  HN ES       1118  5.62                             115    0.70 8  272 255 
 HEL  HZ I        1118 11.92        70.6 0.41            112            272 255 
 URE  HZ EP   4   1117 32.82                             114   -1.35 0  282 291 
 URE  HN ES   4   1118  4.75                             114   -1.27 0  282 291 
 URE  HZ I        1118 15.52        75.4 0.24            111            282 291 
 GUY2CHZ EP       1117 37.99                             112    0.90 7  302 234 
 GUY2CHN ES   4   1118 14.75                             112    3.53 0  302 234 
 GUY2CHZ  IAML    1118 21.15        47.6 0.57                           302 234 
 LL1C HN ES   4   1118 13.55                             112    3.33 0  303 352 
 VIL  EZ EP       1117 36.70                             112   -0.43 7  307 191 
 VIL  EN ES   4   1118 13.38                             112    2.09 0  307 191 
 VIL  EZ I        1118 20.44        53.7 0.44            110            307 191 
 PTGC HZ EP   4   1117 36.19                             111   -1.42 0  312 159 
 PTGC HN ES   4   1118  9.70                             111   -2.45 0  312 159 
 PTGC HZ I        1118 10.96        50.1 0.14            110            312 159 
 RECRCHZ EP   4   1117 40.48                             111    1.37 0  319 230 
 RECRCHN ES   4   1118 17.53                             111    2.71 0  319 230 
 NIZA HZ EP   4   1117 40.22                             111    1.40 0  323 233 
 NIZA HN ES   4   1118 18.13                             111    3.82 0  323 233 
 ELA  HZ EP   9   1117 42.46                             110    2.09 0  331 229 
 ELA  HN ES       1118 18.73                                   -0.42 7  331 229 
 ELA  HZ I        1118 32.23        43.7 0.42            108            331 229 
 CBOC HZ EP       1117 40.54                             110    0.26 7  334 251 
 CBOC HN ES       1118 17.14                             110    0.25 7  334 251 
 CBOC HZ I        1118 30.43        23.5 0.30            108            334 251 
 DBB  EZ EP       1117 40.42                             109   -0.26 7  338 274 
 DBB  EN ES   4   1118 16.12                             109   -1.49 0  338 274 
 DBB  EZ I        1118 22.88       130.6 0.04            107            338 274 
 ANIL HZ EP   4   1117 44.97                             108    1.61 0  359 224 
 ANIL HN ES   4   1118 23.82                             108    1.44 0  359 224 
 ANIL HZ I        1118 30.11       108.6 0.21            106            359 224 
 APAC HZ EP       1117 46.78                             106   -0.52 6  396 288 
 APAC HN ES   4   1118 26.76                             106   -2.63 0  396 288 
 APAC HZ I        1118 36.28        30.4 0.83            105            396 288 
 ORTC HZ EP       1117 47.30                             106   -0.23 6  398 216 
 ORTC HN ES       1118 30.77                             106    0.98 6  398 216 
 ORTC HZ I        1118 33.61        20.7 0.24            104            398 216 
 SJC  HZ EP   4   1117 46.82                             106   -1.68 0  406 327 
 SJC  HN ES   4   1118 28.09                             106   -3.43 0  406 327 
 VALLCHZ EP       1117 48.30                             106   -0.27 6  407 358 
 VALLCHN ES       1118 30.69                             106   -0.97 6  407 358 
 CRJC HZ EP   4   1117 51.54                             103   -3.89 0  464   4 
 CRJC HN ES   4   1118 41.79                             103   -2.08 0  464   4 
 CRJC HZ I        1118 43.77        17.7 0.10            103            464   4 
 SMAR HZ EP   4   1117 59.05                             102    0.27 0  493 346 
 SMAR HN ES   4   1118 45.46                             102   -4.37 0  493 346 
 SMAR HZ I        1118 49.48        11.3 0.18            101            493 346 
 URI  HZ EP   4   1117 53.11                             101   -12.9 0  554  13 
 URI  HN ES   4   1118 59.65                             101   -2.96 0  554  13 
 GARC HZ EP   4   1118  7.84                             100   -1.07 0  575 207 
 GARC HN ES   4   1119  3.83                             100   -4.03 0  575 207 
 GARC HZ I        1119  9.04        14.0 0.20             99            575 207 
 FLO2 HZ EP       1118 16.18                              99   -0.61 2  643 206 
 FLO2 HN ES   4   1119 20.82                              99   -1.06 0  643 206 
                                                                                
