 2014  812 1939 43.3 L   6.795 -73.150152.0  RSN  7 0.4 1.6LRSN                1
 GAP=136        1.02       4.7     5.7  7.5 -0.6511E+01  0.5186E+01 -0.3710E+01E
 Epicentro: LOS SANTOS - SANTANDER                                             3
 ACTION:UPD 14-09-15 21:49 OP:nd   STATUS:               ID:20140812193943 L   I
 OLDACT:REG 14-08-13 01:07 OP:spq  STATUS:               ID:20140812192816     3
 2014-08-12-1928-16M.COL___269                                                 6
 STAT SP IPHASW D HRMM SECON CODA AMPLIT PERI AZIMU VELO AIN AR TRES W  DIS CAZ7
 BAR2 SZ EP       1940  3.79                             171    0.1410 22.7 189 
 BAR2 SZ ES   1   1940 19.24                             171   -0.29 7 22.7 189 
 BAR2 SZ I        1940 19.77         4.9 0.26            170           22.7 189 
 BRR  HZ EP       1940  5.49                             154    0.3910 71.1 299 
 BRR  HN ES       1940 22.89                             154    0.7710 71.1 299 
 BRR  HZ I        1940 23.26         8.1 0.40            152           71.1 299 
 PAM  SZ EP       1940  6.43                             152    0.2210 78.2  40 
 PAM  SN ES   1   1940 23.41                             152   -0.68 7 78.2  40 
 PAM  SZ I        1940 26.16         8.1 0.30            155           78.2  40 
 RUS  HE ES   1   1940 26.52                             145   -0.07 7  100 176 
 RUS  HZ I        1940 28.48         2.2 0.21            147            100 176 
 PTB  HZ EP       1940 10.09                             134   -0.63 9  147 259 
 PTB  HN ES       1940 31.65                             134   -0.46 9  147 259 
 PTB  HZ I        1940 39.07         6.4 0.39            133            147 259 
 SPBC HZ EP       1940 12.57                             131    0.37 9  162 219 
 SPBC HN ES       1940 34.62                             131   -0.13 9  162 219 
 SPBC HZ I        1940 38.03         4.5 0.18            131            162 219 
 SML  HZ EP   1   1940 20.14                             119   -0.17 6  244 335 
 SML  HE ES   1   1940 48.80                             119   -0.38 6  244 335 
 SML  HZ I        1940 50.62         4.8 0.10            120            244 335 
                                                                                
