 2016 1212 1519  9.4 L   6.850 -73.169130.0  RSN  5 0.5 1.5LRSN                1
 GAP=131        1.10       7.0     6.3  9.9 -0.4420E+01  0.1397E+02 -0.2071E+02E
 Epicentro: LOS SANTOS - SANTANDER                                             3
 ACTION:UPD 17-01-11 20:14 OP:rebc STATUS:               ID:20161212151909 L   I
 OLDACT:REG 16-12-12 20:52 OP:ar   STATUS:               ID:20161212150859     3
 2016-12-12-1509-10M.COL___364                                                 6
 STAT SP IPHASW D HRMM SECON CODA AMPLIT PERI AZIMU VELO AIN AR TRES W  DIS CAZ7
 BAR2 EZ EP       1519 27.17                             167   -0.0710 28.5 183 
 BAR2 EZ ES       1519 41.26                             167    0.0810 28.5 183 
 BAR2 EZ I        1519 44.27        12.3 0.38            167           28.5 183 
 BRR  HZ EP       1519 29.35                             151    0.8010 66.4 295 
 PAM  EZ EP       1519 30.11                             149    0.3310 75.0  44 
 PAM  EE ES   2   1519 44.58                             149   -1.12 5 75.0  44 
 PAM  EZ I        1519 45.16         6.1 0.18            154           75.0  44 
 RUS  HZ EP       1519 31.64                             139   -0.4210  106 175 
 RUS  HN ES       1519 49.82                             139    0.0610  106 175 
 RUS  HZ I        1519 50.72         3.9 0.30            142            106 175 
 PTB  HZ EP       1519 34.42                             128   -0.55 9  146 257 
 PTB  HN ES       1519 54.88                             128   -0.06 9  146 257 
 PTB  HZ I        1519 59.25         4.2 0.12            129            146 257 
                                                                                
