 2017  512 1609  4.4 L   6.805 -73.166149.0  RSN  4 0.3 1.2LRSN                1
 GAP=134        0.68       3.8     3.3  7.4 -0.1391E+00  0.7492E+01 -0.1254E+00E
 Epicentro: LOS SANTOS - SANTANDER                                             3
 ACTION:UPD 17-06-16 13:35 OP:jn   STATUS:               ID:20170512160904 L   I
 OLDACT:REG 17-05-12 20:39 OP:lv   STATUS:               ID:20170512160738     3
 2017-05-12-1608-00M.COL___368                                                 6
 STAT SP IPHASW D HRMM SECON CODA AMPLIT PERI AZIMU VELO AIN AR TRES W  DIS CAZ7
 PAM  EZ EP       16 9 27.13                             151    0.1410 78.4  41 
 PAM  EN ES       16 9 44.45                             151   -0.1910 78.4  41 
 PAM  EZ I        16 9 47.24         3.2 0.24            152           78.4  41 
 RUS  HZ EP       16 9 28.53                             144    0.0410  101 175 
 RUS  HN ES       16 9 47.51                             144    0.2110  101 175 
 RUS  HZ I        16 9 49.16         2.2 0.27            146            101 175 
 PTB  HZ EP       16 9 31.08                             133   -0.33 9  146 258 
 PTB  HN ES       16 9 52.21                             133   -0.29 9  146 258 
 ZAR  HE ES       1610  2.54                             123    0.47 9  202 292 
                                                                                
