 2013  412 1309 22.8 L   6.731 -73.201145.3  RSN  5 0.4 1.5LRSN                1
 GAP=171        0.84       6.5     7.3  7.3  0.1583E+02  0.2059E+01  0.5071E+01E
 Epicentro: VILLANUEVA - SANTANDER                                             3
 ACTION:UPD 13-05-22 14:37 OP:EP   STATUS:               ID:20130412130922 L   I
 2013-04-12-1307-50M.COL___215                                                 6
 STAT SP IPHASW D HRMM SECON CODA AMPLIT PERI AZIMU VELO AIN AR TRES W  DIS CAZ7
 BAR2 SZ EP       13 9 42.23                             174   -0.0510 15.5 173 
 BAR2 SZ ES       13 9 56.98                             174   -0.4710 15.5 173 
 BAR2 SZ I        13 9 58.66        19.5 0.20            174           15.5 173 
 GIR2 SZ EP   1   13 9 42.36                             164   -0.31 7 38.4   1 
 GIR2 SZ ES   1   13 9 58.06                             164   -0.08 7 38.4   1 
 GIR2 SZ I        13 9 59.05         6.0 0.57            165           38.4   1 
 BRR  HZ EP       13 9 44.13                             153    0.2610 70.1 306 
 BRR  HN ES   1   1310  0.93                             153    0.64 7 70.1 306 
 BRR  HZ I        1310  5.48         8.8 0.20            152           70.1 306 
 RUS  HZ EP       13 9 46.06                             146    0.0110 93.7 172 
 RUS  HN ES   1   1310  4.74                             146    0.57 7 93.7 172 
 RUS  HZ I        1310  5.92         2.3 0.30            148           93.7 172 
 PTB  HN ES   1   1310  9.17                             133   -0.44 7  140 261 
                                                                                
