 2014  812 1531  0.8 L   6.888 -73.116150.0  RSN 11 0.4 2.0LRSN                1
 GAP=136        0.91       4.3     4.9  6.7  0.2545E+01  0.7492E+01 -0.4006E+01E
 Epicentro: PIEDECUESTA - SANTANDER                                            3
 ACTION:UPD 14-09-15 21:49 OP:nd   STATUS:               ID:20140812153100 L   I
 OLDACT:UP  14-08-13 00:18 OP:spq  STATUS:               ID:20140812152819     3
 OLDACT:REG 14-08-12 22:10 OP:spq  STATUS:               ID:20140812152819     3
 2014-08-12-1528-19M.COL___266                                                 6
 STAT SP IPHASW D HRMM SECON CODA AMPLIT PERI AZIMU VELO AIN AR TRES W  DIS CAZ7
 BAR2 SZ EP       1531 21.40                             167    0.2710 33.6 193 
 BAR2 SZ ES   1   1531 36.40                             167   -0.62 7 33.6 193 
 BAR2 SZ I        1531 37.13        30.8 0.18            170           33.6 193 
 PAM  SN ES   1   1531 40.38                             154    0.23 7 67.8  43 
 PAM  SZ I        1531 42.44        26.9 0.30            154           67.8  43 
 BRR  HZ EP       1531 22.51                             154    0.2110 70.2 290 
 BRR  HN ES       1531 39.57                             154    0.4610 70.2 290 
 BRR  HZ I        1531 42.98        17.7 0.10            152           70.2 290 
 RUS  HZ EP   1   1531 25.88                             142    0.26 7  110 178 
 RUS  HE ES   1   1531 44.70                             142   -0.31 7  110 178 
 RUS  HZ I        1531 46.20         5.0 0.30            146            110 178 
 PTB  HZ EP       1531 27.88                             132   -0.67 9  153 255 
 PTB  HE ES       1531 49.93                             132   -0.31 9  153 255 
 PTB  HZ I        1531 50.43        16.0 0.24            133            153 255 
 SPBC HE ES   1   1531 53.97                             128    0.27 7  173 218 
 SPBC HZ I        1531 57.43         7.3 0.32            130            173 218 
 ZAR  HZ EP   1   1531 34.28                             123    0.84 6  204 289 
 ZAR  HE ES       1531 58.99                             123    0.06 9  204 289 
 ZAR  HZ I        1532  4.25        13.9 0.32            123            204 289 
 SML  HZ EP   1   1531 36.35                             119   -0.47 6  236 334 
 SML  HE ES   1   1532  4.40                             119   -0.56 6  236 334 
 SML  HZ I        1532 11.78        10.1 0.10            119            236 334 
 URE  HZ EP   1   1531 42.02                             114    0.03 6  283 290 
 URE  HN ES   4   1532 11.62                             114   -2.53 0  283 290 
 URE  HZ I        1532 14.82         8.6 0.12            115            283 290 
 GUY2CHZ EP   4   1531 48.15                             113    2.65 0  310 234 
 GUY2CHN ES   4   1532 22.41                             113    2.00 0  310 234 
 GUY2CHZ I        1532 27.69         3.1 0.68                           310 234 
 SJC  HZ EP   4   1531 54.62                             107   -1.10 0  403 326 
 SJC  HE ES   4   1532 34.24                             107   -4.35 0  403 326 
 SJC  HZ I        1532 44.93         1.8 0.60            107            403 326 
                                                                                
