 2016  612 1413  0.9 L   6.794 -73.073143.4  RSN 11 0.5 2.0LRSN                1
 GAP=146        1.16       3.6     5.2  6.2 -0.6576E+01  0.1059E+02  0.2887E+01E
 Epicentro: LOS SANTOS - SANTANDER                                             3
 ACTION:UPD 16-07-21 22:18 OP:rebc STATUS:               ID:20160612141300 L   I
 OLDACT:REG 16-06-12 20:38 OP:edw  STATUS:               ID:20160612140741     3
 2016-06-12-1407-41M.COL___325                                                 6
 STAT SP IPHASW D HRMM SECON CODA AMPLIT PERI AZIMU VELO AIN AR TRES W  DIS CAZ7
 BAR2 EZ EP     C 1413 20.32                             170    0.0410 25.4 208 
 BAR2 EZ ES       1413 35.00                             170   -0.4010 25.4 208 
 BAR2 EZ I        1413 36.98        14.0 0.20                          25.4 208 
 PAM  EZ EP       1413 22.78                             152    0.1810 73.1  34 
 PAM  EN ES       1413 40.05                             152    0.5210 73.1  34 
 PAM  EZ I        1413 42.43        37.0 0.56                          73.1  34 
 BRR  HZ EP       1413 22.33                             150    0.1010 78.6 296 
 BRR  HN ES       1413 39.39                             150    0.5210 78.6 296 
 BRR  HZ I        1413 42.54        16.9 0.28                          78.6 296 
 RUS  HZ EP       1413 24.60                             144    0.2510 99.7 181 
 RUS  HE ES       1413 42.58                             144   -0.0610 99.7 181 
 RUS  HZ I        1413 44.19         6.3 0.26                          99.7 181 
 TAM  HZ EP   4   1413 26.26                             132   -1.39 0  147 106 
 PTB  HZ EP   4   1413 27.29                             130   -1.09 0  156 260 
 PTB  HN ES   4   1413 48.79                             130   -1.04 0  156 260 
 OCA  HZ EP       1413 28.79                             129   -0.40 9  162 350 
 OCA  HN ES       1413 50.47                             129   -0.79 9  162 350 
 OCA  HZ I        1413 54.42        28.5 0.20                           162 350 
 SPBC HZ EP       1413 29.29                             128   -0.37 9  168 221 
 SPBC HE ES       1413 51.97                             128   -0.12 9  168 221 
 SPBC HZ I        1413 57.19        20.6 0.38                           168 221 
 NOR  HZ EP       1413 36.46                             117   -0.69 8  241 236 
 NOR  HE ES       1414  4.57                             117   -0.87 8  241 236 
 NOR  HZ I        1414 12.74         7.1 0.56                           241 236 
 CHI  HZ EP       1413 38.13                             116   -0.50 8  250 197 
 CHI  HN ES       1414  8.34                             116    0.27 8  250 197 
 CHI  HZ I        1414 11.60         3.6 0.50                           250 197 
 HEL  HZ EP       1413 42.56                             114    0.73 7  280 256 
 HEL  HE ES       1414 14.29                             114    0.52 7  280 256 
 GUY2CHZ EP       1413 46.04                             111    0.94 7  307 236 
 GUY2CHN ES       1414 19.87                             111    0.30 7  307 236 
 GUY2CHZ I        1414 27.45         2.8 0.26                           307 236 
 ANIL HZ EP       1413 52.03                             108    0.82 6  363 225 
 ANIL HN ES       1414 29.82                             108   -0.64 6  363 225 
 URI  HZ EP   4   1413 24.15                             100   -49.6 0  556  12 
 URI  HN ES   4   1413 53.17                             100   -77.3 0  556  12 
                                                                                
