 2012 1112 1913 17.2 L   6.784 -73.096147.1  RSN  6 0.2 1.7LRSN                1
 GAP=144        0.54       2.3     4.2  3.8 -0.1848E+01  0.1276E+00  0.2261E+01E
 Epicentro: LOS SANTOS - SANTANDER                                             3
 ACTION:UPD 12-12-05 15:33 OP:}ep  STATUS:               ID:20121112191317 L   I
 2012-11-12-1910-00M.COL___230                                                 6
 STAT SP IPHASW D HRMM SECON CODA AMPLIT PERI AZIMU VELO AIN AR TRES W  DIS CAZ7
 BAR2 SZ EP       1913 37.01                             171   -0.0110 23.3 204 
 BAR2 SZ ES       1913 52.13                             171   -0.3210 23.3 204 
 BAR2 SZ I        1913 53.56        19.1 0.26                          23.3 204 
 GIR2 SZ EP       1913 37.07                             166   -0.0810 34.3 342 
 PAM  SZ EP       1913 39.67                             152    0.1910 75.4  35 
 PAM  SZ I        1913 40.13         5.9 0.22                          75.4  35 
 PAM  SN ES       1913 56.77                             152   -0.0510 75.4  35 
 BRR  HZ EP       1913 38.88                             151    0.0310 76.9 298 
 BRR  HN ES       1913 55.84                             151    0.1310 76.9 298 
 BRR  HN I        1913 59.82        22.3 0.20                          76.9 298 
 RUS  HZ EP       1913 40.77                             145   -0.2110 98.6 179 
 RUS  HN ES       1913 59.89                             145    0.4010 98.6 179 
 RUS  HZ I        1914  2.43         3.6 0.38                          98.6 179 
 CHI  HZ EP       1913 54.99                             117    0.00 8  248 197 
 CHI  HZ I        1913 55.60         2.7 0.38                           248 197 
 CHI  HN ES       1914 24.32                             117   -0.11 8  248 197 
                                                                                
