 2012 1112 1309 13.3 L   6.797 -73.188141.2  RSN  5 0.1 1.4LRSN                1
 GAP=131        0.43       2.3     3.0  3.3 -0.5393E+00  0.1081E+01  0.8718E+00E
 Epicentro: ZAPATOCA - SANTANDER                                               3
 ACTION:UPD 12-12-05 15:32 OP:}ep  STATUS:               ID:20121112130913 L   I
 2012-11-12-1308-21M.COL___213                                                 6
 STAT SP IPHASW D HRMM SECON CODA AMPLIT PERI AZIMU VELO AIN AR TRES W  DIS CAZ7
 BAR2 SZ EP       13 9 32.19                             170   -0.2210 22.7 178 
 BAR2 SZ ES       13 9 47.09                             170   -0.1910 22.7 178 
 BAR2 SZ I        13 9 50.02         9.2 0.40                          22.7 178 
 BRR  HN ES       13 9 49.74                             153    0.0310 67.3 301 
 PAM  SZ EP       13 9 35.26                             149   -0.0110 80.6  42 
 PAM  SZ I        13 9 35.51         2.4 0.22                          80.6  42 
 PAM  SN ES       13 9 52.51                             149    0.1310 80.6  42 
 RUS  HZ EP       13 9 36.62                             143   -0.0310  101 173 
 RUS  HN ES       13 9 55.02                             143    0.1810  101 173 
 PTB  HZ EP       13 9 39.63                             132    0.12 9  143 259 
                                                                                
