 2010  312 1840 20.4 L   6.750 -73.074138.8  RSN  7 0.2 2.2LRSN                1
 GAP=190        0.49       2.2     5.3  4.4 -0.6308E+00 -0.3300E+01  0.7806E+00E
 Epicentro: LOS SANTOS - SANTANDER                                             3
 ACTION:UP  10-08-24 09:53 OP:vdl  STATUS:               ID:20100312184020 L   I
 2010-03-12-1838-17S.COL___093                                                 6
 STAT SP IPHASW D HRMM SECON CODA AMPLIT PERI AZIMU VELO SNR AR TRES W  DIS CAZ7
 BAR2 SZ EP   1   1840 39.57                             171     0.4 7   21 215 
 BAR2 SZ ES   1   1840 53.55                             171    -0.2 7   21 215 
 BRR  HZ IP       1840 41.40                             148     0.010   81 299 
 BRR  HZ I        1840 41.64        67.1 0.13                            81 299 
 BRR  HN ES       1840 57.90                             148     0.110   81 299 
 RUS  HZ EP   1   1840 42.89                             144    -0.2 7   95 181 
 RUS  HN ES   2   1841  0.85                             144     0.1 5   95 181 
 RUS  HZ I        1841  2.89        15.4 0.26                            95 181 
 OCA  SZ EP       1840 48.88                             127     0.1 9  167 351 
 OCA  SZ ES   1   1841 10.72                             127    -0.3 7  167 351 
 OCA  SZ I        1841 14.71        36.0 0.20                           167 351 
 CHI  HN ES   1   1841 26.18                             116    -0.1 6  246 197 
 CHI  HZ I        1841 29.40         3.3 0.85                           246 197 
 RREF HN ES   2   1841 42.05                             109    -0.5 3  324 231 
 PRA  HN ES   1   1841 55.19                             105     0.1 4  391 211 
                                                                                
