 2015  912 1307 28.7 L   6.801 -73.144145.8  RSN 11 0.3 1.9LRSN                1
 GAP= 71        0.89       2.6     3.1  4.6 -0.3037E+00  0.2043E+01  0.4471E+00E
 Epicentro: LOS SANTOS - SANTANDER                                             3
 ACTION:UPD 15-10-28 16:25 OP:cam  STATUS:               ID:20150912130728 L   I
 OLDACT:REG 15-09-12 21:52 OP:stll STATUS:               ID:20150912125750     3
 2015-09-12-1257-50M.COL___335                                                 6
 STAT SP IPHASW D HRMM SECON CODA AMPLIT PERI AZIMU VELO AIN AR TRES W  DIS CAZ7
 BAR2 EZ EP     D 13 7 48.60                             170    0.2410 23.4 191 
 BAR2 EZ ES       13 8  3.83                             170    0.1510 23.4 191 
 BAR2 EZ I        13 8  5.09        14.4 0.22            167           23.4 191 
 BRR  HZ EP       13 7 50.41                             152    0.5210 71.4 298 
 BRR  HE ES       13 8  6.91                             152    0.5210 71.4 298 
 BRR  HZ I        13 8  9.83        14.5 0.36            150           71.4 298 
 PAM  EZ EP       13 7 51.50                             151    0.5710 77.2  39 
 PAM  EZ I        13 7 51.71        12.8 0.18            156           77.2  39 
 PAM  EN ES       13 8  7.62                             151   -0.6310 77.2  39 
 RUS  HZ EP       13 7 51.97                             144   -0.5110  101 176 
 RUS  HE ES       13 8 10.91                             144   -0.1010  101 176 
 RUS  HZ I        13 8 13.20         6.1 0.20            144            101 176 
 PTB  HZ EP       13 7 55.34                             132   -0.38 9  148 259 
 PTB  HE ES       13 8 16.62                             132   -0.15 9  148 259 
 PTB  HZ I        13 8 21.35         8.3 0.30            131            148 259 
 TAM  HZ EP       13 7 56.52                             131    0.13 9  155 105 
 SPBC HZ EP       13 7 56.92                             129   -0.33 9  163 219 
 SPBC HN ES       13 8 19.21                             129   -0.28 9  163 219 
 SPBC HZ I        13 8 25.79        14.5 0.22            128            163 219 
 ZAR  HZ EP       13 8  0.97                             122   -0.22 9  204 292 
 ZAR  HN ES       13 8 26.51                             122   -0.01 9  204 292 
 ZAR  HZ I        13 8 31.43         8.3 0.22            122            204 292 
 NOR  HZ EP       13 8  4.66                             118    0.18 8  235 234 
 NOR  HN ES       13 8 32.51                             118    0.14 8  235 234 
 NOR  HZ I        13 8 40.40         7.6 0.16            118            235 234 
 SML  HZ EP       13 8  5.39                             117    0.03 8  244 335 
 SML  HE ES       13 8 33.53                             117   -0.40 8  244 335 
 SML  HZ I        13 8 36.87        14.2 0.26            119            244 335 
 CHI  HZ EP       13 8  6.69                             117    0.25 8  249 195 
 CHI  HN ES       13 8 36.06                             117    0.21 8  249 195 
 CHI  HZ I        13 8 42.09         4.7 0.42            117            249 195 
                                                                                
