 2011  912 1133 38.4 L   6.818 -73.145143.6  RSN  5 0.2 1.6LRSN                1
 GAP=136        0.46       3.4     5.1  4.5 -0.3093E+01  0.3055E+01 -0.4350E+01E
 Epicentro: LOS SANTOS - SANTANDER                                             3
 ACTION:UPD 12-07-13 15:57 OP:ep   STATUS:               ID:20110912113338 L   I
 2011-09-12-1129-11S.COL___168                                                 6
 STAT SP IPHASW D HRMM SECON CODA AMPLIT PERI AZIMU VELO AIN AR TRES W  DIS CAZ7
 BAR2 SZ EP       1133 57.69                             169   -0.1310 25.3 189 
 BAR2 SZ ES       1134 12.85                             169   -0.1110 25.3 189 
 GIR2 SZ EP       1133 57.54                             168   -0.2310 29.3 349 
 BRR  HZ EP       1133 59.28                             152    0.0110 70.3 297 
 BRR  HN ES   2   1134 16.00                             152    0.45 5 70.3 297 
 BRR  HZ I        1134 17.71         7.9 0.28                          70.3 297 
 PAM  SZ EP       1134  0.46                             151    0.1710 75.8  40 
 PAM  SE ES   1   1134 17.40                             151    0.03 7 75.8  40 
 RUS  HZ EP   2   1134  2.48                             143    0.39 5  103 176 
 RUS  HE ES   1   1134 20.69                             143    0.12 7  103 176 
 RUS  HZ I        1134 22.17         5.8 0.28                           103 176 
                                                                                
