 2013  212 1517 17.3 L   6.788 -73.140149.3  RSN 11 0.5 2.6LRSN                1
 GAP= 72        1.20       4.8     3.8  6.6  0.6563E+00  0.4818E+01  0.4048E+01E
 Epicentro: LOS SANTOS - SANTANDER                                             3
 ACTION:UPD 13-03-12 09:32 OP:ep   STATUS:               ID:20130212151717 L   I
 2013-02-12-1510-00M.COL___240                                                 6
 STAT SP IPHASW D HRMM SECON CODA AMPLIT PERI AZIMU VELO AIN AR TRES W  DIS CAZ7
 BAR2 SZ IP     C 1517 37.29                             171   -0.0810 22.2 192 
 BAR2 SZ ES       1517 52.67                             171   -0.3310 22.2 192 
 BAR2 SZ I        1517 54.01        57.5 0.28            172           22.2 192 
 BRR  HZ IP       1517 39.30                             153    0.3610 72.4 299 
 BRR  HN ES       1517 56.83                             153    1.0510 72.4 299 
 BRR  HN I        1517 59.95       110.9 0.18            151           72.4 299 
 PAM  SZ EP       1517 40.16                             151    0.1910 78.0  39 
 PAM  SN ES       1517 57.51                             151   -0.1110 78.0  39 
 RUS  HZ IP     D 1517 41.13                             145   -0.2110 99.2 176 
 RUS  HN ES   1   1517 59.08                             145   -0.99 7 99.2 176 
 RUS  HN I        1518  0.54        33.1 0.38            148           99.2 176 
 PTB  HZ EP       1517 44.08                             133   -0.55 9  148 259 
 PTB  HN ES       1518  5.62                             133   -0.30 9  148 259 
 PTB  HN I        1518 10.56        66.4 0.36            133            148 259 
 TAM  HZ IP     D 1517 45.42                             132    0.21 9  154 105 
 TAM  HN ES       1518  7.23                             132    0.28 9  154 105 
 TAM  HN I        1518  7.88        52.1 0.38            135            154 105 
 ZAR  HZ EP       1517 49.83                             123   -0.29 9  205 292 
 ZAR  HN ES   1   1518 15.93                             123    0.23 6  205 292 
 ZAR  HN I        1518 20.86        44.1 0.50            123            205 292 
 NOR  HZ IP       1517 53.45                             119    0.20 8  234 235 
 NOR  HN ES       1518 21.51                             119    0.25 8  234 235 
 NOR  HZ I        1518 24.96        18.2 0.20            120            234 235 
 SML  HZ EP   1   1517 53.93                             118   -0.39 6  245 335 
 SML  HN ES   1   1518 21.69                             118   -1.48 6  245 335 
 SML  HN I        1518 28.91        65.7 0.28            118            245 335 
 CHI  HZ EP       1517 55.27                             118    0.16 8  248 195 
 HEL  HZ EP   1   1517 58.95                             115    1.19 6  272 256 
                                                                                
