 2013 1112 1716  3.0 L   6.754 -73.185143.8  RSN  5 0.3 1.5LRSN                1
 GAP=229        0.87       5.0     5.4  6.4  0.5932E+01  0.4979E+01  0.3447E+01E
 Epicentro: VILLANUEVA - SANTANDER                                             3
 ACTION:UPD 14-01-09 16:27 OP:ep   STATUS:               ID:20131112171603 L   I
 OLDACT:REG 13-11-12 15:42 OP:stll STATUS:               ID:20131112170817     3
 2013-11-12-1708-17M.COL___216                                                 6
 STAT SP IPHASW D HRMM SECON CODA AMPLIT PERI AZIMU VELO AIN AR TRES W  DIS CAZ7
 BAR2 SZ EP       1716 22.13                             173   -0.2010 17.9 179 
 BAR2 SZ ES       1716 37.18                             173   -0.1910 17.9 179 
 BAR2 SZ I        1716 40.21         8.4 0.36            165           17.9 179 
 BRR  HZ EP       1716 24.25                             152    0.3410 70.1 304 
 BRR  HN ES       1716 40.48                             152    0.2910 70.1 304 
 RUS  HZ EP       1716 25.80                             145   -0.4610 95.9 173 
 RUS  HZ I        1716 26.69         1.7 0.22            143           95.9 173 
 RUS  HN ES       1716 44.59                             145    0.2210 95.9 173 
 PTB  HZ EP       1716 29.23                             133   -0.14 9  143 260 
 PTB  HN ES       1716 49.40                             133   -0.52 9  143 260 
 PTB  HZ I        1716 56.00         4.5 0.20            131            143 260 
 SPBC HZ EP       1716 31.22                             130    0.47 9  157 219 
 SPBC HE ES       1716 52.59                             130    0.22 9  157 219 
 SPBC HZ I        1717  0.32         6.7 0.28            128            157 219 
                                                                                
