 2017  812 1902 33.2 L   6.783 -73.406111.5  RSN  5 0.2 1.4LRSN                1
 GAP=136        0.59       2.9     3.0  4.7  0.3679E+01  0.5681E+01  0.1998E+01E
 Epicentro: SAN VICENTE DE CHUCURI - SANTANDER                                 3
 ACTION:UPD 17-09-04 20:19 OP:rebc STATUS:               ID:20170812190233 L   I
 OLDACT:UP  17-08-13 01:51 OP:dani STATUS:               ID:20170812185751d    3
 OLDACT:DUP 17-08-13 01:49 OP:dani STATUS:               ID:20170812185751d    3
 2017-08-12-1858-00M.COL___416                                                 6
 STAT SP IPHASW D HRMM SECON CODA AMPLIT PERI AZIMU VELO AIN AR TRES W  DIS CAZ7
 BAR2 EZ EP       19 2 48.78                             163   -0.2110 32.5 130 
 BAR2 EZ ES       19 3  1.31                             163   -0.0210 32.5 130 
 BAR2 EZ I        19 3  2.67        11.2 0.15            165           32.5 130 
 BRR  HZ EP       19 2 48.97                             154   -0.4210 49.3 317 
 BRR  HN ES       19 3  2.11                             154    0.0810 49.3 317 
 BRR  HZ I        19 3  2.95        16.9 0.36            154           49.3 317 
 PAM  EN ES       19 3  9.74                             136    0.1410 99.4  52 
 RUS  HZ EP       19 2 54.07                             134   -0.0310  105 160 
 RUS  HN ES       19 3 10.60                             134    0.1710  105 160 
 RUS  HZ I        19 3 11.89         1.5 0.25            135            105 160 
 ZAR  HZ EP       19 3  1.21                             117    0.37 9  179 296 
 ZAR  HE ES       19 3 22.42                             117    0.01 9  179 296 
 ZAR  HZ I        19 3 26.56         3.7 0.31            118            179 296 
                                                                                
