 2014  112 1758  5.2 L   6.784 -73.130140.6  RSN  7 0.4 1.8LRSN                1
 GAP=139        0.97       4.2     5.1  6.1 -0.5960E+01  0.8570E+01  0.7237E+01E
 Epicentro: LOS SANTOS - SANTANDER                                             3
 ACTION:UPD 14-03-13 09:54 OP:ep   STATUS:               ID:20140112175805 L   I
 OLDACT:DUP 14-01-12 19:49 OP:stll STATUS:               ID:20140112174820d    3
 2014-01-12-1748-19M.COL___246                                                 6
 STAT SP IPHASW D HRMM SECON CODA AMPLIT PERI AZIMU VELO AIN AR TRES W  DIS CAZ7
 BAR2 SZ EP       1758 24.13                             171   -0.0710 22.0 195 
 BAR2 SZ ES       1758 39.00                             171   -0.0010 22.0 195 
 BAR2 SZ I        1758 41.96        26.3 0.24            168           22.0 195 
 BRR  HZ EP       1758 26.15                             151    0.2010 73.6 299 
 BRR  HN ES       1758 42.57                             151    0.4510 73.6 299 
 BRR  HZ I        1758 45.51        10.9 0.16            153           73.6 299 
 PAM  SZ EP       1758 27.05                             150    0.1510 77.7  38 
 PAM  SZ I        1758 27.37        23.0 0.20            154           77.7  38 
 PAM  SN ES       1758 43.36                             150   -0.4610 77.7  38 
 RUS  HZ EP       1758 28.24                             143   -0.0910 98.7 177 
 RUS  HN ES       1758 46.45                             143    0.1010 98.7 177 
 NOR  HZ EP       1758 40.02                             117   -0.68 8  235 235 
 NOR  HN ES       1759  7.42                             117   -0.95 8  235 235 
 CHI  HZ EP       1758 42.67                             116    0.17 8  247 196 
 CHI  HN ES       1759 11.94                             116    0.36 8  247 196 
 CHI  HZ I        1759 21.62         2.4 0.36            117            247 196 
 GUY2CHZ EP       1758 49.37                             111    0.73 7  302 235 
 GUY2CHN ES       1759 22.65                             111    0.14 7  302 235 
 GUY2CHZ I        1759 34.42         2.9 0.44                           302 235 
                                                                                
