 2010  412 1133 52.8 L   6.731 -73.061143.3  RSN  4 0.1 1.7LRSN                1
 GAP=258        0.37       4.6     5.5  4.5  0.6814E+01  0.1019E+01  0.3927E+01E
 Epicentro: JORDAN - SANTANDER                                                 3
 ACTION:UPD 10-08-24 09:58 OP:vdl  STATUS:               ID:20100412113352 L   I
 2010-04-12-1132-18S.COL___099                                                 6
 STAT SP IPHASW D HRMM SECON CODA AMPLIT PERI AZIMU VELO AIN AR TRES W  DIS CAZ7
 BAR2 SZ EP   1   1134 12.18                             171     0.1 7   21 221 
 BAR2 SZ ES   1   1134 26.99                             171    -0.1 7   21 221 
 BRR  HZ EP       1134 14.32                             148    -0.110   83 300 
 BRR  HN ES       1134 31.30                             148     0.110   83 300 
 BRR  HZ I        1134 32.43         8.7 0.17                            83 300 
 CHI  HN ES   3   1134 59.22                             117     0.5 2  244 198 
 CHI  HZ I        1135  6.99         3.1 0.18                           244 198 
 RREF HN ES   2   1135 15.08                             110    -0.1 3  324 231 
 RREF HZ I        1135 19.64         1.9 0.36                           324 231 
                                                                                
