 2016 1012 1436 25.2 L   6.801 -73.142146.7  RSN 18 0.3 2.5LRSN                1
 GAP=101        0.82       3.0     2.3  4.2 -0.8681E+00  0.1947E+01  0.2929E+01E
 Epicentro: LOS SANTOS - SANTANDER                                             3
 ACTION:UPD 16-11-09 19:18 OP:rebc STATUS:               ID:20161012143625 L   I
 OLDACT:UP  16-10-12 22:51 OP:edw  STATUS:               ID:20161012142748     3
 OLDACT:UP  16-10-12 22:50 OP:edw  STATUS:               ID:20161012142748     3
 OLDACT:REG 16-10-12 20:01 OP:edw  STATUS:               ID:20161012142748     3
 2016-10-12-1428-00M.COL___372                                                 6
 STAT SP IPHASW D HRMM SECON CODA AMPLIT PERI AZIMU VELO AIN AR TRES W  DIS CAZ7
 BAR2 EZ IP     D 1436 44.68                             171   -0.2910 23.5 191 
 BAR2 EZ ES       1437  0.39                             171    0.0210 23.5 191 
 BAR2 EZ I        1437  0.90        71.3 0.38            167           23.5 191 
 BRR  HZ EP       1436 46.54                             153    0.0510 71.5 298 
 BRR  HN ES       1437  3.60                             153    0.5210 71.5 298 
 BRR  HZ I        1437  7.66        45.7 0.28            150           71.5 298 
 PAM  EZ EP       1436 47.53                             151    0.0110 77.1  39 
 PAM  EN ES       1437  4.80                             151   -0.1110 77.1  39 
 PAM  EZ I        1437  7.95        25.8 0.48            156           77.1  39 
 RUS  HZ EP       1436 48.64                             144   -0.4310  101 176 
 RUS  HN ES       1437  7.56                             144   -0.1110  101 176 
 RUS  HZ I        1437  8.45        22.8 0.66            143            101 176 
 PTB  HZ EP   9   1436 51.68                             132   -0.63 0  148 259 
 PTB  HN ES       1437 12.14                             132   -0.66 9  148 259 
 PTB  HZ I        1437 18.87        27.5 0.46            130            148 259 
 TAM  HZ EP       1436 53.09                             131    0.14 9  155 105 
 TAM  HN ES       1437 14.91                             131    0.34 9  155 105 
 SPBC HZ EP       1436 53.75                             129   -0.08 9  163 219 
 SPBC HN ES       1437 16.41                             129    0.28 9  163 219 
 SPBC HZ I        1437 20.54        48.0 0.20            128            163 219 
 ZAR  HZ EP   4   1436 59.14                             122    1.37 0  204 292 
 ZAR  HN ES       1437 22.52                             122   -0.63 9  204 292 
 ZAR  HZ I        1437 27.88        34.8 0.38            122            204 292 
 NOR  HZ EP       1437  0.82                             119   -0.23 8  235 234 
 NOR  HN ES       1437 28.75                             119   -0.24 8  235 234 
 NOR  HZ I        1437 38.02        18.6 0.42            118            235 234 
 CHI  HZ EP       1437  2.80                             117   -0.20 8  249 195 
 CHI  HN ES       1437 32.39                             117   -0.07 8  249 195 
 CHI  HZ I        1437 35.98        18.9 0.50            117            249 195 
 ROSC BZ EP   4   1437  5.09                             117    1.66 0  253 211 
 ROSC BN ES   4   1437 35.74                             117    2.52 0  253 211 
 ROSC BZ I        1437 39.57        31.5 0.40            116            253 211 
 HEL  HZ EP   4   1437  6.96                             115    1.43 0  272 256 
 HEL  HN ES       1437 37.15                             115    0.18 8  272 256 
 HEL  HZ I        1437 42.76        12.9 0.30            114            272 256 
 URE  HN ES   4   1437 36.20                             114   -2.28 0  284 292 
 GUY2CHZ EP   4   1437  9.99                             112    1.07 0  302 235 
 GUY2CHN ES   4   1437 46.91                             112    3.91 0  302 235 
 GUY2CHZ I        1437 50.93        17.1 0.34                           302 235 
 LL6C HZ EP   4   1436 50.86                             110   -20.1 0  325 358 
 LL6C HN ES   4   1437 26.40                             110   -20.2 0  325 358 
 ELA  HZ EP   4   1437 13.76                             110    1.60 0  329 229 
 ELA  HN ES   4   1437 53.34                             110    4.58 0  329 229 
 ELA  HZ I        1437 57.38        12.1 0.56            110            329 229 
 CBOC HZ EP       1437 12.59                             110    0.36 7  334 252 
 CBOC HN ES       1437 49.82                             110    0.94 7  334 252 
 CBOC HZ I        1437 56.45         3.7 0.16            110            334 252 
 ANIL HZ EP   4   1437 19.71                             108    4.60 0  358 225 
 ANIL HN ES   4   1437 58.14                             108    4.13 0  358 225 
 ANIL HZ I        1438  4.71        37.7 0.38            108            358 225 
 PRA  HZ EP   4   1437 16.53                             107   -2.28 0  392 210 
 PRA  HN ES   4   1437 58.37                             107   -2.24 0  392 210 
 PRA  HZ I        1438  5.04        17.7 0.35            107            392 210 
 PAL  HZ EP       1437 20.39                             106   -0.07 6  406 239 
 PAL  HN ES       1438  3.67                             106    0.13 6  406 239 
 PAL  HZ I        1438  7.52         4.3 0.22            106            406 239 
                                                                                
