 2012  912 1149 49.1 L   6.737 -73.187155.1  RSN  6 0.3 1.8LRSN                1
 GAP=174        0.56       5.5     4.8  6.4  0.1442E+02 -0.4174E+01 -0.7377E+01E
 Epicentro: VILLANUEVA - SANTANDER                                             3
 ACTION:UPD 12-10-22 14:18 OP:ep   STATUS:               ID:20120912114949 L   I
 2012-09-12-1150-00M.COL___227                                                 6
 STAT SP IPHASW D HRMM SECON CODA AMPLIT PERI AZIMU VELO AIN AR TRES W  DIS CAZ7
 BAR2 SZ EP       1150  9.48                             174   -0.2210 16.0 178 
 BAR2 SZ ES   1   1150 25.40                             174   -0.39 7 16.0 178 
 BAR2 SZ I        1150 26.38        17.0 0.42                          16.0 178 
 GIR2 SZ EP   1   1150 10.01                             166   -0.02 7 37.8 359 
 BRR  HZ EP   1   1150 11.46                             154    0.24 7 71.0 305 
 BRR  HN ES   1   1150 28.92                             154    0.43 7 71.0 305 
 RUS  HZ EP   1   1150 13.45                             147    0.14 7 94.1 173 
 RUS  HN ES   1   1150 32.46                             147    0.25 7 94.1 173 
 RUS  HZ I        1150 34.63         5.4 0.24                          94.1 173 
 PTB  HN ES   1   1150 37.42                             135   -0.14 7  142 261 
 PTB  HN I        1150 41.51        10.2 0.12                           142 261 
 ZAR  HN ES   1   1150 47.49                             125   -0.18 6  203 294 
 ZAR  HZ I        1150 54.27         6.2 0.31                           203 294 
                                                                                
