 2014 1012 1808 58.0 L   6.826 -73.140145.6  RSN 18 0.5 2.4LRSN                1
 GAP=136        1.12       2.8     4.4  6.0 -0.1991E+01  0.7088E+01  0.1352E+01E
 Epicentro: LOS SANTOS - SANTANDER                                             3
 ACTION:UPD 14-11-29 23:49 OP:nd   STATUS:               ID:20141012180858 L   I
 OLDACT:REG 14-10-12 21:18 OP:fm   STATUS:               ID:20141012180750     3
 2014-10-12-1807-50M.COL___284                                                 6
 STAT SP IPHASW D HRMM SECON CODA AMPLIT PERI AZIMU VELO AIN AR TRES W  DIS CAZ7
 BAR2 SZ EP     D 18 9 17.78                             169    0.1210 26.2 190 
 BAR2 SZ ES   1   18 9 33.18                             169    0.18 7 26.2 190 
 BAR2 SZ I        18 9 34.09        52.7 0.44            166           26.2 190 
 BRR  HZ EP     C 18 9 19.51                             153    0.4310 70.5 296 
 BRR  HE ES       18 9 36.62                             153    1.0910 70.5 296 
 BRR  HZ I        18 9 40.66        46.2 0.12            149           70.5 296 
 PAM  SZ EP     C 18 9 20.41                             152    0.3810 74.8  41 
 PAM  SN ES       18 9 37.21                             152   -0.0110 74.8  41 
 PAM  SZ I        18 9 38.07        29.8 0.18            157           74.8  41 
 RUS  HZ EP       18 9 21.85                             143   -0.0810  103 177 
 RUS  HN ES       18 9 40.33                             143   -0.2710  103 177 
 RUS  HZ I        18 9 42.28        24.8 0.30            144            103 177 
 PTB  HZ EP       18 9 24.42                             132   -0.63 9  149 258 
 PTB  HN ES       18 9 45.33                             132   -0.83 9  149 258 
 PTB  HZ I        18 9 50.73        29.1 0.24            130            149 258 
 OCA  HZ EP       18 9 25.77                             130   -0.26 9  158 353 
 OCA  HN ES       18 9 47.02                             130   -0.88 9  158 353 
 OCA  HZ I        18 9 52.56        22.6 0.16            132            158 353 
 SPBC HZ EP       18 9 26.93                             129    0.21 9  166 219 
 SPBC HN ES       18 9 48.77                             129   -0.37 9  166 219 
 SPBC HZ I        18 9 55.09        28.3 0.14            128            166 219 
 ZAR  HZ EP       18 9 30.43                             122    0.05 9  204 291 
 ZAR  HN ES       18 9 55.55                             122   -0.09 9  204 291 
 ZAR  HZ I        1810  1.26        41.3 0.48            122            204 291 
 SML  HZ EP       18 9 33.93                             118   -0.43 8  241 335 
 SML  HN ES       1810  3.22                             118    0.50 8  241 335 
 SML  HZ I        1810  6.90        33.4 0.10            119            241 335 
 CHI  HZ EP   1   18 9 36.07                             117    0.08 6  252 195 
 CHI  HN ES       1810  5.20                             117   -0.44 8  252 195 
 CHI  HZ I        1810 10.74         4.8 0.52            118            252 195 
 ROSC BZ EP   4   18 9 38.12                             116    1.72 0  256 211 
 ROSC BN ES   4   1810  7.86                             116    1.50 0  256 211 
 ROSC BZ I        1810 12.80        19.3 0.60            117            256 211 
 URE  HZ EP   4   18 9 41.50                             114    2.50 0  283 291 
 URE  HN ES   4   1810  8.00                             114   -2.99 0  283 291 
 URE  HZ I        1810 19.10        19.3 0.14            114            283 291 
 GUY2CHZ EP       18 9 42.45                             112    0.61 7  303 234 
 GUY2CHN ES       1810 16.12                             112    0.08 7  303 234 
 GUY2CHZ I        1810 26.06         8.0 0.66                           303 234 
 PTGC HZ EP   4   18 9 39.04                             111   -3.07 0  311 159 
 TOL  SZ EP   4   18 9 48.85                             109    2.33 0  346 224 
 TOL  SE ES   1   1810 24.67                             109    0.29 5  346 224 
 TOL  SZ I        1810 33.28        21.3 0.56            109            346 224 
 ANIL HN ES   4   1810 30.42                             108    3.28 0  360 224 
 ANIL HZ I        1810 35.72         2.5 0.28            109            360 224 
 PRA  HN ES   1   1810 34.40                             106    0.57 4  395 209 
 PRA  HZ I        1810 37.79         9.9 0.64            107            395 209 
 ORTC HZ EP   1   18 9 52.90                             106    0.68 4  398 216 
 ORTC HN ES       1810 35.01                             106    0.49 6  398 216 
 ORTC HZ I        1810 42.27         7.2 0.48            107            398 216 
 SJC  HZ EP   4   18 9 51.74                             106   -1.57 0  407 327 
 SJC  HN ES   4   1810 32.55                             106   -3.91 0  407 327 
 SJC  HZ I        1810 36.58         3.3 0.38            107            407 327 
                                                                                
