 2012  812 1910 59.1 L   6.728 -73.196156.0  RSN  4 0.4 1.0LRSN                1
 GAP=172        0.74       7.6     8.0  9.2  0.2630E+02  0.8538E+01  0.1113E+02E
 Epicentro: VILLANUEVA - SANTANDER                                             3
 ACTION:UPD 12-09-10 11:56 OP:ep   STATUS:               ID:20120812191059 L   I
 2012-08-12-1910-00M.COL___218                                                 6
 STAT SP IPHASW D HRMM SECON CODA AMPLIT PERI AZIMU VELO AIN AR TRES W  DIS CAZ7
 GIR2 SZ ES   2   1911 35.76                             165   -0.88 5 38.7   0 
 BRR  HZ EP   1   1911 21.12                             154   -0.20 7 70.7 306 
 BRR  HZ I        1911 21.38         4.2 0.10                          70.7 306 
 BRR  HN ES   1   1911 39.33                             154    0.67 7 70.7 306 
 RUS  HZ EP   1   1911 23.52                             148    0.16 7 93.3 172 
 RUS  HZ I        1911 24.23         0.8 0.19                          93.3 172 
 RUS  HN ES   1   1911 42.35                             148    0.05 7 93.3 172 
 PTB  HZ EP   1   1911 26.28                             136   -0.03 7  141 262 
 PTB  HN ES   1   1911 47.26                             136   -0.28 7  141 262 
                                                                                
