 2013  112 1401 14.6 L   6.766 -73.202144.4  RSN  5 0.2 1.9LRSN                1
 GAP=228        0.58       3.2     4.0  4.2  0.5044E+01  0.2863E+01  0.4027E+01E
 Epicentro: VILLANUEVA - SANTANDER                                             3
 ACTION:UPD 13-02-15 09:13 OP:ep   STATUS:               ID:20130112140114 L   I
 2013-01-12-1358-41M.COL___196                                                 6
 STAT SP IPHASW D HRMM SECON CODA AMPLIT PERI AZIMU VELO AIN AR TRES W  DIS CAZ7
 BAR2 SZ EP       14 1 33.87                             172   -0.1510 19.3 173 
 BAR2 SZ I        14 1 33.98        14.5 0.40            172           19.3 173 
 BAR2 SZ ES       14 1 48.97                             172   -0.1810 19.3 173 
 BRR  HZ EP       14 1 35.79                             153    0.3510 67.8 304 
 BRR  HN ES       14 1 51.84                             153    0.1610 67.8 304 
 BRR  HN I        14 1 53.53        15.4 0.24            154           67.8 304 
 RUS  HZ EP       14 1 37.73                             144   -0.2910 97.4 172 
 RUS  HN ES       14 1 56.48                             144    0.2110 97.4 172 
 RUS  HN I        14 1 57.97        13.5 0.30            145           97.4 172 
 PTB  HZ EP       14 1 40.74                             133   -0.13 9  141 260 
 PTB  HN ES       14 2  1.16                             133   -0.18 9  141 260 
 CHI  HZ EP       14 1 51.87                             117    0.19 8  243 194 
 CHI  HN ES       14 2 20.70                             117    0.11 8  243 194 
                                                                                
