 2013  312 1619  0.1 L   5.856 -73.941 18.2  RSN  4 0.4 1.8LRSN                1
 GAP=194        0.97       4.7     2.6  4.8  0.4484E+01  0.3967E+01 -0.9154E+00E
 Epicentro: LA BELLEZA - SANTANDER                                             3
 ACTION:UPD 13-04-09 14:01 OP:ep   STATUS:               ID:20130312161900 L   I
 2013-03-12-1610-00M.COL___231                                                 6
 STAT SP IPHASW D HRMM SECON CODA AMPLIT PERI AZIMU VELO AIN AR TRES W  DIS CAZ7
 PTB  HZ EP       1619 15.13                              99   -0.1410 94.7 323 
 PTB  HE ES       1619 27.06                              99   -0.0110 94.7 323 
 PTB  HE I        1619 27.63        35.5 0.22             98           94.7 323 
 RUS  HZ EP       1619 16.18                              99    0.3510 95.1  88 
 RUS  HE ES       1619 27.58                              99   -0.4810 95.1  88 
 RUS  HE I        1619 29.20        12.3 0.42             99           95.1  88 
 BRR  HZ EP       1619 22.45                              56    0.69 9  141  10 
 BRR  HE ES       1619 38.40                              56   -0.22 9  141  10 
 BRR  HE I        1619 40.11        30.5 0.18             56            141  10 
 HEL  HZ EP       1619 27.34                              56    0.26 9  180 282 
 HEL  HN ES       1619 47.64                              56   -0.45 9  180 282 
                                                                                
