 2012  712 1232 12.3 L   6.788 -73.167139.3  RSN  5 0.1 1.4LRSN                1
 GAP=134        0.42       2.6     3.3  4.0  0.9275E+00  0.8000E-01  0.1798E+00E
 Epicentro: LOS SANTOS - SANTANDER                                             3
 ACTION:UPD 12-08-14 11:44 OP:ep   STATUS:               ID:20120712123212 L   I
 2012-07-12-1230-00M.COL___194                                                 6
 STAT SP IPHASW D HRMM SECON CODA AMPLIT PERI AZIMU VELO AIN AR TRES W  DIS CAZ7
 BAR2 SZ EP       1232 30.87                             171    -0.210   22 184 
 BAR2 SZ ES   1   1232 45.73         5.0 0.46            171     0.0 7   22 184 
 BAR2 SZ I        1232 49.44         5.0 0.46            166             22 184 
 BRR  HZ EP       1232 32.59                             152    -0.110   70 300 
 BRR  HE ES   1   1232 48.72                             152     0.2 7   70 300 
 BRR  HZ I        1232 53.35        11.2 0.35            147             70 300 
 PAM  SZ EP       1232 34.09                             149     0.110   80  40 
 PAM  SE ES   1   1232 50.81                             149    -0.1 7   80  40 
 RUS  HZ EP       1232 35.43                             143     0.110   99 175 
 RUS  HN ES   1   1232 53.30                             143     0.0 7   99 175 
 RUS  HZ I        1232 56.07         3.9 0.36            145             99 175 
 ZAR  HN ES   2   1233  8.87                             121    -0.1 4  202 293 
 ZAR  HZ I        1233 16.54         2.4 0.23            121            202 293 
