 2015  212 1010 31.6 L   6.832 -73.210137.7  RSN  7 0.5 1.5LRSN                1
 GAP=127        1.20       3.6     7.0  7.8 -0.1776E+01  0.1272E+02 -0.3063E+01E
 Epicentro: ZAPATOCA - SANTANDER                                               3
 ACTION:UPD 15-04-30 21:25 OP:nd   STATUS:               ID:20150212101031 L   I
 OLDACT:UP  15-02-12 21:36 OP:stll STATUS:               ID:20150212100745     3
 OLDACT:REG 15-02-12 20:41 OP:stll STATUS:               ID:20150212100745     3
 2015-02-12-1007-45M.COL___290                                                 6
 STAT SP IPHASW D HRMM SECON CODA AMPLIT PERI AZIMU VELO AIN AR TRES W  DIS CAZ7
 BAR2 EZ IP     C 1010 50.59                             168    0.2310 26.6 174 
 BAR2 EZ I        1010 50.70         8.5 0.40            169           26.6 174 
 BAR2 EZ ES       1011  4.72                             168   -0.2610 26.6 174 
 BRR  HZ IP     C 1010 52.41                             154    0.9410 63.3 299 
 BRR  HZ I        1010 52.66         8.6 0.26            147           63.3 299 
 BRR  HN ES       1011  7.54                             154    0.6010 63.3 299 
 PAM  SZ EP       1010 53.43                             148    0.3010 79.6  45 
 PAM  SZ I        1010 53.69         9.4 0.20            151           79.6  45 
 PAM  SN ES       1011  9.61                             148   -0.2910 79.6  45 
 RUS  HZ EP       1010 55.12                             141    0.2110  105 172 
 RUS  HN ES       1011 12.98                             141   -0.1010  105 172 
 RUS  HZ I        1011 14.80         3.0 0.36            143            105 172 
 OCA  HN ES       1011 19.67                             128   -0.54 9  156 356 
 OCA  HZ I        1011 26.24         2.4 0.46            127            156 356 
 SPBC HZ EP       1010 59.33                             127   -0.04 9  162 216 
 SPBC HN ES       1011 20.23                             127   -0.78 9  162 216 
 SPBC HZ I        1011 26.95         4.1 0.26            126            162 216 
 SML  HZ EP       1011  6.62                             116   -0.53 8  238 336 
 SML  HN ES       1011 34.62                             116   -0.23 8  238 336 
 SML  HZ I        1011 46.41         2.6 0.22            115            238 336 
                                                                                
