 2016  612 1811 52.0 L   6.799 -73.072146.9  RSN 12 0.6 2.1LRSN                1
 GAP=146        1.28       4.0     6.6  6.9 -0.1049E+02  0.1126E+02  0.5092E+01E
 Epicentro: LOS SANTOS - SANTANDER                                             3
 ACTION:UPD 16-07-21 22:18 OP:rebc STATUS:               ID:20160612181152 L   I
 OLDACT:UP  16-06-13 01:27 OP:edw  STATUS:               ID:20160612180745     3
 OLDACT:REG 16-06-12 21:16 OP:edw  STATUS:               ID:20160612180745     3
 2016-06-12-1807-45M.COL___322                                                 6
 STAT SP IPHASW D HRMM SECON CODA AMPLIT PERI AZIMU VELO AIN AR TRES W  DIS CAZ7
 BAR2 EZ EP       1812 11.87                             170    0.0310 25.9 208 
 BAR2 EZ ES       1812 26.98                             170   -0.3310 25.9 208 
 BAR2 EZ I        1812 28.47        37.9 0.22                          25.9 208 
 PAM  EZ EP       1812 14.71                             152    0.6310 72.6  35 
 PAM  EN ES       1812 31.92                             152    0.6310 72.6  35 
 PAM  EZ I        1812 32.64        11.6 0.22                          72.6  35 
 BRR  HZ EP     C 1812 13.72                             150    0.0110 78.5 296 
 BRR  HN ES       1812 30.67                             150    0.0310 78.5 296 
 BRR  HZ I        1812 34.72        24.1 0.28                          78.5 296 
 RUS  HZ EP       1812 15.86                             144   -0.0010  100 181 
 RUS  HN ES       1812 34.24                             144   -0.2210  100 181 
 RUS  HZ I        1812 36.07         9.3 0.40                           100 181 
 PTB  HZ EP   4   1812 18.75                             131   -1.06 0  156 259 
 PTB  HN ES   4   1812 39.60                             131   -1.88 0  156 259 
 PTB  HZ I        1812 46.87        13.1 0.44                           156 259 
 OCA  HZ EP       1812 19.57                             130   -0.97 9  162 350 
 OCA  HE ES       1812 42.52                             130   -0.26 9  162 350 
 OCA  HZ I        1812 47.42        27.5 0.36                           162 350 
 SPBC HN ES       1812 43.65                             128   -0.13 9  168 221 
 NOR  HZ EP       1812 27.91                             118   -0.61 8  241 236 
 NOR  HN ES       1812 56.37                             118   -0.63 8  241 236 
 NOR  HZ I        1813  5.24         6.6 0.38                           241 236 
 CHI  HZ EP       1812 30.26                             117    0.25 8  251 197 
 CHI  HN ES       1812 59.35                             117   -0.30 8  251 197 
 CHI  HZ I        1813  3.19         8.0 0.50                           251 197 
 PTGC HE ES   4   1814  5.78                             112   56.20 0  306 160 
 GUY2CHZ EP       1812 37.11                             112    0.68 7  308 236 
 GUY2CHE ES       1813 13.01                             112    1.95 7  308 236 
 GUY2CHZ I        1813 18.11         8.7 0.34                           308 236 
 ANIL HE ES   4   1813 23.92                             108    2.00 0  363 225 
 PRA  HZ EP       1812 46.06                             106    0.02 6  396 211 
 PRA  HN ES       1813 27.68                             106   -0.50 6  396 211 
 PRA  HZ I        1813 34.11         8.5 0.36                           396 211 
 ORTC HZ EP       1812 46.52                             106   -0.01 6  400 217 
 ORTC HE ES       1813 29.15                             106    0.09 6  400 217 
 ORTC HZ I        1813 33.27         4.3 0.26                           400 217 
 SJC  HZ EP   4   1812 46.29                             106   -1.86 0  414 326 
 SJC  HE ES   4   1813 30.42                             106   -1.51 0  414 326 
 CRJC HZ EP   4   1812 52.26                             103   -2.25 0  467   3 
 CRJC HN ES   4   1813 41.24                             103   -2.01 0  467   3 
                                                                                
