 2011  812 1743 55.2 L   6.743 -73.104142.1  RSN  8 0.3 2.1LRSN                1
 GAP=144        0.48       2.6     3.4  4.1 -0.2100E+01  0.2655E+01  0.1039E+01E
 Epicentro: JORDAN - SANTANDER                                                 3
 ACTION:UPD 12-07-13 15:51 OP:ep   STATUS:               ID:20110812174355 L   I
 2011-08-12-1741-09S.COL___149                                                 6
 STAT SP IPHASW D HRMM SECON CODA AMPLIT PERI AZIMU VELO AIN AR TRES W  DIS CAZ7
 BAR2 SZ IP       1744 14.27                             172    0.0110 18.8 207 
 BAR2 SZ ES   1   1744 28.93                             172   -0.23 7 18.8 207 
 BAR2 SZ I        1744 30.61        36.4 0.20                          18.8 207 
 BRR  HZ IP     C 1744 16.12                             150   -0.2110 78.3 301 
 BRR  HZ I        1744 16.40        48.8 0.26                          78.3 301 
 BRR  HN ES   1   1744 33.00                             150    0.15 7 78.3 301 
 PAM  SZ EP       1744 17.18                             149    0.0610 79.7  34 
 PAM  SN ES   2   1744 33.91                             149   -0.35 5 79.7  34 
 RUS  HZ EP       1744 18.31                             145    0.2310 94.0 179 
 RUS  HN ES   1   1744 36.13                             145    0.17 7 94.0 179 
 RUS  HZ I        1744 37.69        11.2 0.22                          94.0 179 
 OCA  SZ ES   2   1744 46.65                             127    0.43 5  167 352 
 OCA  SZ I        1744 49.70        19.1 0.23                           167 352 
 NOR  SZ EP       1744 30.56                             118   -0.13 8  235 236 
 NOR  SN ES   1   1744 58.36                             118   -0.05 6  235 236 
 CHI  HE ES   3   1744 59.42                             117   -1.54 2  244 197 
 CHI  HZ I        1745  9.51         5.5 0.38                           244 197 
 RREF HN ES   2   1745 17.05                             110    0.15 3  321 231 
 RREF HZ I        1745 26.13         6.8 0.32                           321 231 
                                                                                
