 2016  712 1418  1.6 L   6.099 -73.680114.0  RSN 10 0.5 1.9LRSN                1
 GAP= 85        1.18       3.5     3.8  7.2  0.3833E+00  0.9610E+01  0.3645E+01E
 Epicentro: CHIPATA - SANTANDER                                                3
 ACTION:UPD 17-03-29 16:50 OP:lp   STATUS:               ID:20160712141801 L   I
 OLDACT:UP  16-07-13 00:09 OP:dani STATUS:               ID:20160712140759     3
 OLDACT:REG 16-07-12 22:03 OP:dani STATUS:               ID:20160712140759     3
 2016-07-12-1407-59S.COL___319                                                 6
 STAT SP IPHASW D HRMM SECON CODA AMPLIT PERI AZIMU VELO AIN AR TRES W  DIS CAZ7
 SPBC HZ EP       1418 19.05                             148   -0.1610 65.8 221 
 SPBC HN ES       1418 32.77                             148   -0.1610 65.8 221 
 SPBC HZ I        1418 35.18        34.8 0.28            148           65.8 221 
 RUS  HZ EP     C 1418 19.83                             147   -0.2210 69.9 109 
 RUS  HE ES       1418 34.61                             147    0.1810 69.9 109 
 RUS  HZ I        1418 35.82        13.7 0.26            149           69.9 109 
 BAR2 EZ EP       1418 20.55                             144    0.3210 77.5  45 
 BAR2 EZ ES       1418 34.86                             144    0.1210 77.5  45 
 BAR2 EZ I        1418 36.47       104.5 0.24            147           77.5  45 
 PTB  HZ EP     D 1418 20.55                             136   -1.0410 98.7 300 
 PTB  HE ES       1418 37.96                             136    0.7910 98.7 300 
 PTB  HZ I        1418 38.61        19.2 0.22            137           98.7 300 
 NOR  HZ EP       1418 25.63                             124   -0.28 9  144 246 
 NOR  HN ES       1418 44.59                             124   -0.27 9  144 246 
 NOR  HZ I        1418 47.01        14.7 0.17            125            144 246 
 CHI  HZ EP       1418 28.15                             121   -0.11 9  163 182 
 CHI  HN ES       1418 48.67                             121   -0.36 9  163 182 
 CHI  HZ I        1418 51.53         3.7 0.40            122            163 182 
 ZAR  HZ EP       1418 32.20                             115    0.24 9  202 320 
 ZAR  HN ES       1418 55.25                             115   -0.37 9  202 320 
 ZAR  HZ I        1418 58.14        20.3 0.34            116            202 320 
 GUY2CHZ EP       1418 34.34                             114    0.84 8  210 243 
 GUY2CHE ES   4   1418 59.66                             114    1.30 0  210 243 
 GUY2CHZ I        1419  3.74         6.9 0.51                           210 243 
 CBOC HZ EP   4   1418 37.55                             109   -1.17 0  259 264 
 CBOC HN ES       1419  7.69                             109    0.03 8  259 264 
 CBOC HZ I        1419  9.36         3.2 0.44            110            259 264 
 PRA  HZ EP       1418 42.80                             106    0.02 7  296 207 
 PRA  HN ES       1419 15.89                             106    1.00 7  296 207 
 PRA  HZ I        1419 20.77         3.4 0.08            107            296 207 
                                                                                
