 2011 1112 1824 35.0 L   6.759 -73.078142.4  RSN 14 0.3 2.8LRSN                1
 GAP=147        0.62       2.3     2.7  3.5 -0.1506E+01  0.2869E+01  0.1351E+01E
 Epicentro: LOS SANTOS - SANTANDER                                             3
 ACTION:UPD 12-07-13 16:09 OP:ep   STATUS:               ID:20111112182435 L   I
 2011-11-12-1820-00M.COL___181                                                 6
 STAT SP IPHASW D HRMM SECON CODA AMPLIT PERI AZIMU VELO AIN AR TRES W  DIS CAZ7
 BAR2 SZ IP       1824 54.19                             171    0.0310 21.7 212 
 BAR2 SZ ES       1825  9.57                             171    0.4410 21.7 212 
 BAR2 SZ I        1825 11.72       183.0 0.40                          21.7 212 
 BTL  SZ EP       1824 54.35                             169    0.0610 27.4 310 
 GIR2 SZ EP       1824 54.34                             164   -0.0910 37.6 340 
 PAM  SZ IP     C 1824 57.10                             150    0.3210 76.6  33 
 PAM  SN ES       1825 13.63                             150   -0.1710 76.6  33 
 BRR  HZ IP     D 1824 56.15                             149   -0.1310 79.9 299 
 BRR  HZ I        1824 56.55       123.5 0.08                          79.9 299 
 BRR  HN ES       1825 12.79                             149   -0.1110 79.9 299 
 RUS  HZ EP       1824 58.10                             144    0.0510 95.8 180 
 RUS  HN ES       1825 15.78                             144   -0.2710 95.8 180 
 RUS  HZ I        1825 17.73        84.6 0.27                          95.8 180 
 BRI  SZ EP       1824 58.78                             140    0.0910  110  16 
 ZAR  HZ EP   1   1825  8.04                             120   -0.06 6  213 293 
 ZAR  HN ES   1   1825 33.50                             120   -0.44 6  213 293 
 ZAR  HZ I        1825 41.20        61.6 0.34                           213 293 
 NOR  SZ EP   1   1825 10.28                             117   -0.61 6  238 236 
 NOR  SE ES   1   1825 38.27                             117   -0.63 6  238 236 
 CHI  HZ EP       1825 12.25                             117    0.02 8  246 197 
 CHI  HN ES   1   1825 41.09                             117   -0.21 6  246 197 
 CHI  HZ I        1825 47.56        24.3 0.36                           246 197 
 HEL  HZ EP   1   1825 15.91                             114    0.21 6  278 257 
 HEL  HN ES   1   1825 48.09                             114    0.62 6  278 257 
 HEL  HZ I        1825 53.17        36.0 0.26                           278 257 
 GUY  SZ EP   1   1825 19.56                             111    0.46 5  307 237 
 GUY  SN ES   1   1825 54.10                             111    0.59 5  307 237 
 GUY  SZ I        1826  1.56        53.4 0.62                           307 237 
 RREF HZ EP   1   1825 20.80                             110   -0.49 5  325 231 
 RREF HN ES   1   1825 57.72                             110    0.31 5  325 231 
 RREF HZ I        1826  3.74        38.4 0.27                           325 231 
 PRA  HZ EP   1   1825 28.09                             106   -0.26 4  392 211 
 PRA  HN ES   1   1826 10.19                             106    0.20 4  392 211 
                                                                                
