 2014  412 1902  0.2 L   6.565 -73.529110.0  RSN 10 0.4 1.8LRSN                1
 GAP=107        0.92       2.8     3.7  6.4 -0.4092E+01  0.5908E+01  0.9923E+00E
 Epicentro: EL CARMEN DE CHUCURI - SANTANDER                                   3
 ACTION:UPD 14-05-13 23:07 OP:nd   STATUS:               ID:20140412190200 L   I
 OLDACT:UP  14-04-12 22:05 OP:cam  STATUS:               ID:20140412185814     3
 OLDACT:UP  14-04-12 22:05 OP:cam  STATUS:               ID:20140412185814     3
 OLDACT:REG 14-04-12 20:04 OP:cam  STATUS:               ID:20140412185814     3
 2014-04-12-1858-14M.COL___272                                                 6
 STAT SP IPHASW D HRMM SECON CODA AMPLIT PERI AZIMU VELO AIN AR TRES W  DIS CAZ7
 BRR  HZ EP       19 2 17.17                             148    0.0410 63.3 341 
 BRR  HE ES       19 2 30.55                             148    0.2610 63.3 341 
 RUS  HZ EP       19 2 19.68                             138   -0.0410 89.2 146 
 RUS  HE ES       19 2 35.11                             138    0.1910 89.2 146 
 RUS  HZ I        19 2 37.09         8.5 0.32            112           89.2 146 
 PTB  HZ EP   4   19 2 19.19                             134   -1.02 0  103 268 
 PTB  HN ES   4   19 2 33.91                             134   -1.87 0  103 268 
 PTB  HZ I        19 2 36.00        15.7 0.16            108            103 268 
 SPBC HN ES       19 2 37.82                             129   -0.5610  117 211 
 SPBC HZ I        19 2 40.23        23.5 0.16            105            117 211 
 PAM  SZ EP       19 2 22.69                             128   -0.2710  125  47 
 PAM  SN ES       19 2 40.76                             128    0.0810  125  47 
 PAM  SZ I        19 2 42.07         8.4 0.28            104            125  47 
 NOR  HZ EP       19 2 28.26                             116   -0.34 9  185 233 
 NOR  HN ES       19 2 50.20                             116   -0.52 9  185 233 
 NOR  HZ I        19 2 54.35         8.9 0.18             98            185 233 
 CHI  HZ EP   1   19 2 32.44                             112    0.03 6  215 186 
 CHI  HN ES       19 2 57.72                             112    0.22 8  215 186 
 CHI  HZ I        19 3  9.05         2.4 0.50             96            215 186 
 GUY2CHZ EP   1   19 2 37.66                             108    1.00 6  252 234 
 GUY2CHN ES       19 3  5.98                             108    0.92 8  252 234 
 GUY2CHZ I        19 3 14.86         2.8 0.58                           252 234 
 SML  HZ EP       19 2 36.13                             108   -0.26 8  254 346 
 SML  HN ES   4   19 3  6.13                             108    1.55 0  254 346 
 SML  HZ I        19 3 16.44        16.0 0.10             95            254 346 
 RREF HZ EP   4   19 2 40.88                             107    1.56 0  273 228 
 PRA  HZ EP   1   19 2 47.70                             101    0.05 5  349 206 
 PRA  HZ I        19 3 33.24         4.0 0.22             93            349 206 
                                                                                
