 2012 1112 1242 48.1 L   6.801 -73.152144.7  RSN  8 0.5 2.0LRSN 2.6WRSN        1
 SPEC AVERAGE  MO 13.0 ST  2.8 OM  1.8 f0 5.73 R0.2605 AL 2.79 WI 17.2 MW  2.6 3
 SPEC SD       MO  0.2 ST  1.2 OM  0.7 f00.659 R0.0333 AL      WI      MW  0.1 3
 GAP=136        1.29       5.1     5.6  7.3  0.2888E+01  0.1052E+02 -0.5036E+01E
 Epicentro: LOS SANTOS - SANTANDER                                             3
 SPEC PTB HH N MO 13.1 ST  1.7 OM  1.4 f0 4.65 R0.3161 AL 1.81 WI 25.7 MW  2.7 3
 SPEC PTB HH N T124334 K 0.000 GD  206 VS 4.20 DE 3.00 Q0230.0 QA 0.60 VS 4.20 3
 SPEC RUS HH N MO 12.7 ST  1.7 OM  1.1 f0 6.16 R0.2386 AL 3.00 WI 11.7 MW  2.4 3
 SPEC RUS HH N T124329 K 0.000 GD  176 VS 4.20 DE 3.00 Q0230.0 QA 0.60 VS 4.20 3
 SPEC PAM SH Z MO 13.2 ST  3.8 OM  0.8 f0 5.75 R0.2557 AL 2.57 WI 15.2 MW  2.7 3
 SPEC PAM SH Z T124310 K 0.000 GD  164 VP 7.60 DE 3.00 Q0230.0 QA 0.60 VS 4.20 3
 SPEC BRR HH N MO 13.1 ST  4.2 OM  1.5 f0 6.35 R0.2315 AL 3.77 WI 16.1 MW  2.7 3
 SPEC BRR HH N T124326 K 0.000 GD  160 VS 4.20 DE 3.00 Q0230.0 QA 0.60 VS 4.20 3
 ACTION:UPD 12-12-05 15:32 OP:}ep  STATUS:               ID:20121112124248 L   I
 2012-11-12-1240-00M.COL___230                                                 6
 STAT SP IPHASW D HRMM SECON CODA AMPLIT PERI AZIMU VELO AIN AR TRES W  DIS CAZ7
 BAR2 SZ IP     D 1243  7.64                             171    0.0110 23.3 188 
 BAR2 SZ ES       1243 22.30                             171   -0.5510 23.3 188 
 BAR2 SZ I        1243 23.48        22.8 0.32                          23.3 188 
 GIR2 SZ EP       1243  7.64                             167   -0.0310 31.1 352 
 GIR2 SZ ES       1243 23.51                             167    0.6010 31.1 352 
 BRR  HZ IP     C 1243  9.44                             153    0.3110 70.5 299 
 BRR  HZ I        1243  9.68        21.1 0.28                          70.5 299 
 BRR  HN ES       1243 26.33                             153    0.8310 70.5 299 
 PAM  SZ EP       1243 10.32                             150    0.0610 77.8  40 
 PAM  SZ I        1243 10.76        17.8 0.20                          77.8  40 
 PAM  SN ES       1243 27.36                             150   -0.1610 77.8  40 
 RUS  HZ EP       1243 12.17                             144    0.3810  101 176 
 RUS  HN ES       1243 29.75                             144   -0.4910  101 176 
 RUS  HN I        1243 31.32        11.5 0.18                           101 176 
 PTB  HZ EP       1243 15.28                             132    0.33 9  147 259 
 PTB  HN ES       1243 35.04                             132   -0.82 9  147 259 
 PTB  HN I        1243 40.53        13.6 0.34                           147 259 
 ZAR  HZ EP       1243 21.03                             122    0.60 9  203 292 
 ZAR  HN ES       1243 45.66                             122    0.03 9  203 292 
 ZAR  HN I        1243 51.56        18.3 0.12                           203 292 
 SML  HZ EP       1243 24.02                             117   -0.63 8  243 335 
 SML  HE ES       1243 52.21                             117   -0.93 8  243 335 
                                                                                
