 2016 1012 1902 38.4 L   6.824 -73.110150.0  RSN 16 0.5 2.4LRSN                1
 GAP=140        1.14       4.4     4.4  5.7 -0.2178E+01  0.7319E+01  0.2380E+01E
 Epicentro: LOS SANTOS - SANTANDER                                             3
 ACTION:UPD 16-11-09 19:19 OP:rebc STATUS:               ID:20161012190238 L   I
 OLDACT:UP  16-10-13 00:19 OP:edw  STATUS:               ID:20161012185744     3
 OLDACT:UP  16-10-13 00:18 OP:edw  STATUS:               ID:20161012185744     3
 OLDACT:REG 16-10-12 20:19 OP:edw  STATUS:               ID:20161012185744     3
 2016-10-12-1858-00M.COL___363                                                 6
 STAT SP IPHASW D HRMM SECON CODA AMPLIT PERI AZIMU VELO AIN AR TRES W  DIS CAZ7
 BAR2 EZ IP     D 19 2 58.42                             169   -0.1510 26.8 197 
 BAR2 EZ ES       19 3 14.04                             169   -0.3010 26.8 197 
 BAR2 EZ I        19 3 14.60       111.9 0.26            166           26.8 197 
 PAM  EZ EP     C 19 3  1.21                             152    0.4510 72.8  38 
 PAM  EN ES       19 3 18.43                             152    0.1810 72.8  38 
 PAM  EZ I        19 3 20.72        42.8 0.36            156           72.8  38 
 BRR  HZ IP     C 19 3  0.23                             152    0.1410 73.6 295 
 BRR  HN ES       19 3 17.44                             152    0.3910 73.6 295 
 BRR  HZ I        19 3 18.38        36.6 0.14            149           73.6 295 
 RUS  HZ EP       19 3  2.35                             144   -0.3510  103 178 
 RUS  HN ES       19 3 21.36                             144   -0.3310  103 178 
 RUS  HZ I        19 3 22.21        25.9 0.40            143            103 178 
 PTB  HZ EP   9   19 3  5.68                             132   -0.39 0  152 258 
 PTB  HN ES       19 3 26.28                             132   -1.02 9  152 258 
 PTB  HZ I        19 3 28.12        26.2 0.24            129            152 258 
 SPBC HZ EP       19 3  7.67                             129    0.06 9  168 219 
 SPBC HN ES       19 3 30.50                             129    0.07 9  168 219 
 SPBC HZ I        19 3 34.03        65.7 0.38            127            168 219 
 ZAR  HZ EP       19 3 11.01                             122   -0.35 8  207 291 
 ZAR  HN ES       19 3 36.51                             122   -0.59 8  207 291 
 ZAR  HZ I        19 3 42.74        24.6 0.24            121            207 291 
 NOR  HZ EP       19 3 14.26                             118   -0.58 8  239 235 
 NOR  HN ES   4   19 3 42.59                             118   -0.71 0  239 235 
 NOR  HZ I        19 3 46.96        19.0 0.16            117            239 235 
 CHI  HZ EP       19 3 16.71                             117    0.03 8  252 196 
 CHI  HN ES   4   19 3 45.48                             117   -1.09 0  252 196 
 CHI  HZ I        19 3 49.28        17.3 0.58            117            252 196 
 ROSC BZ EP   4   19 3 19.01                             117    1.84 0  257 211 
 ROSC BN ES   4   19 3 49.35                             117    1.89 0  257 211 
 ROSC BZ I        19 3 56.16        41.5 0.35            116            257 211 
 HEL  HZ EP       19 3 19.94                             115    0.66 7  277 255 
 HEL  HN ES       19 3 51.14                             115   -0.07 7  277 255 
 HEL  HZ I        19 3 56.41        12.9 0.32            114            277 255 
 URE  HZ EP   4   19 3 23.80                             114    3.87 0  287 291 
 URE  HN ES   4   19 3 49.82                             114   -2.55 0  287 291 
 URE  HZ I        19 4  0.88        15.3 0.18            113            287 291 
 GUY2CHZ EP       19 3 23.60                             112    0.91 7  306 235 
 GUY2CHN ES   4   19 4  0.99                             112    3.71 0  306 235 
 GUY2CHZ I        19 4  1.54        10.0 0.26                           306 235 
 VIL  HZ EP   4   19 3 12.84                             112   -9.51 0  307 192 
 VIL  EN ES   4   19 3 55.91                             112   -0.75 0  307 192 
 ELA  HZ EP   4   19 3 28.08                             110    2.16 0  334 230 
 ELA  HN ES   4   19 4  6.77                             110    3.74 0  334 230 
 ELA  HZ I        19 4  9.86        13.8 0.36            110            334 230 
 CBOC HZ EP       19 3 26.77                             110    0.80 7  338 252 
 CBOC HN ES       19 4  3.12                             110    0.01 7  338 252 
 CBOC HZ I        19 4  9.34         3.3 0.24            109            338 252 
 SJC  HZ EP   4   19 3 26.50                             106   -7.55 0  409 326 
 SJC  HN ES   4   19 4 14.94                             106   -2.56 0  409 326 
 CRJC HN ES   4   19 4 27.13                             104   -2.08 0  465   3 
 URI  HZ EP   4   19 3 48.86                             101   -2.18 0  553  13 
 URI  HN ES       19 4 45.69                             101   -2.05 4  553  13 
                                                                                
