 2013  212 1249 12.7 L   6.788 -73.156149.2  RSN  7 0.3 2.2LRSN                1
 GAP=136        0.87       4.2     3.9  5.8  0.1965E+01  0.3970E+01  0.4308E+01E
 Epicentro: LOS SANTOS - SANTANDER                                             3
 ACTION:UPD 13-03-12 09:32 OP:ep   STATUS:               ID:20130212124912 L   I
 2013-02-12-1248-49M.COL___181                                                 6
 STAT SP IPHASW D HRMM SECON CODA AMPLIT PERI AZIMU VELO AIN AR TRES W  DIS CAZ7
 BAR2 SZ EP       1249 32.60                             171   -0.1110 21.9 188 
 BAR2 SZ ES       1249 48.29                             171   -0.0310 21.9 188 
 BAR2 SZ I        1249 49.15        29.7 0.22            171           21.9 188 
 BRR  HZ EP       1249 34.51                             153    0.3110 70.8 300 
 BRR  HN ES       1249 51.66                             153    0.7010 70.8 300 
 BRR  HN I        1249 52.22        42.0 0.30            153           70.8 300 
 PAM  SZ IP     C 1249 35.55                             151    0.1710 79.1  40 
 PAM  SN ES       1249 52.67                             151   -0.4010 79.1  40 
 PAM  SN I        1249 54.81        21.2 0.54            153           79.1  40 
 RUS  HZ EP       1249 36.55                             145   -0.1510 99.4 175 
 RUS  HN ES       1249 55.40                             145   -0.0210 99.4 175 
 PTB  HZ EP       1249 39.47                             133   -0.35 9  146 259 
 PTB  HN ES       1250  0.66                             133   -0.32 9  146 259 
 PTB  HN I        1250  5.33        22.1 0.38            133            146 259 
 ZAR  HN ES       1250 10.47                             123   -0.28 9  203 293 
 CHI  HZ EP       1249 50.94                             118    0.52 8  247 195 
                                                                                
