 2013  612 1736 49.4 L   6.795 -73.129145.5  RSN 10 0.5 2.5LRSN                1
 GAP=118        1.11       5.1     4.6  6.5  0.7823E-01  0.4140E+01  0.6911E+01E
 Epicentro: LOS SANTOS - SANTANDER                                             3
 ACTION:UPD 14-01-08 09:54 OP:ep   STATUS:               ID:20130612173649 L   I
 OLDACT:REG 13-06-12 15:08 OP:cam  STATUS:               ID:20130612172959     3
 2013-06-12-1729-59M.COL___261                                                 6
 STAT SP IPHASW D HRMM SECON CODA AMPLIT PERI AZIMU VELO AIN AR TRES W  DIS CAZ7
 BAR2 SZ EP     C 1737  8.87                             170   -0.1710 23.2 195 
 BAR2 SZ ES       1737 23.98                             170   -0.3410 23.2 195 
 BAR2 SZ I        1737 25.58        72.6 0.19            166           23.2 195 
 GIR2 SZ EP       1737  8.90                             167   -0.2110 32.1 347 
 BRR  HZ IP     D 1737 10.77                             152    0.1010 73.1 298 
 BRR  HN ES       1737 27.84                             152    0.6110 73.1 298 
 BRR  HZ I        1737 30.97        47.2 0.46            150           73.1 298 
 RUS  HZ EP     D 1737 12.84                             144   -0.2910100.0 177 
 RUS  HN ES       1737 31.98                             144    0.3810100.0 177 
 RUS  HZ I        1737 32.62        29.4 0.24            143          100.0 177 
 PTB  HZ EP       1737 15.62                             132   -0.93 9  149 259 
 PTB  HN ES   1   1737 36.93                             132   -0.76 7  149 259 
 PTB  HZ I        1737 38.67        33.3 0.18            130            149 259 
 TAM  HZ EP       1737 17.25                             131    0.33 9  153 105 
 NOR  HZ EP       1737 25.05                             118   -0.24 8  236 235 
 NOR  HN ES       1737 53.62                             118    0.37 8  236 235 
 NOR  HZ I        1738  2.19        24.8 0.44            118            236 235 
 CHI  HZ EP   1   1737 27.12                             117   -0.01 6  249 196 
 CHI  HN ES       1737 56.67                             117    0.15 8  249 196 
 CHI  HZ I        1737 59.88        22.4 0.54            117            249 196 
 HEL  HZ EP       1737 31.08                             115    1.25 8  274 256 
 HEL  HN ES       1738  1.43                             115    0.10 8  274 256 
 HEL  HZ I        1738  6.98        17.8 0.28            114            274 256 
 PRA  HZ EP       1737 42.85                             106   -0.17 6  392 210 
 PRA  HN ES   1   1738 24.47                             106   -0.33 4  392 210 
 PRA  HZ I        1738 30.82        18.4 0.28            107            392 210 
                                                                                
