 2011  212 1050  7.2 L   6.767 -73.151143.5  RSN 10 0.4 2.0LRSN                1
 GAP=135        0.91       3.7     7.9  6.8 -0.1315E+02  0.1063E+02 -0.1000E+00E
 Epicentro: LOS SANTOS - SANTANDER                                             3
 ACTION:UP  11-03-28 15:07 OP:jfem STATUS:               ID:20110212105007 L   I
 2011-02-12-1048-24S.COL___136                                                 6
 STAT SP IPHASW D HRMM SECON CODA AMPLIT PERI AZIMU VELO SNR AR TRES W  DIS CAZ7
 BAR2 SZ EP       1050 26.38                             172    -0.110   20 191 
 BAR2 SZ ES   1   1050 41.11                             172    -0.4 7   20 191 
 BAR2 SZ I        1050 43.23        25.3 0.35                            20 191 
 BTL  SZ EP   1   1050 26.64                             171     0.1 7   21 322 
 BTL  SZ ES   1   1050 42.12                             171     0.6 7   21 322 
 GIR2 SZ EP   1   1050 26.52                             166    -0.2 7   35 352 
 RUS  HZ EP   1   1050 30.23                             144    -0.2 7   97 176 
 RUS  HN ES   1   1050 48.43                             144    -0.2 7   97 176 
 RUS  HZ I        1050 50.66         5.8 0.18                            97 176 
 GRA  SZ IP       1050 33.19                             135     0.710  129  17 
 GRA  SZ ES   1   1050 52.60                             135     0.3 7  129  17 
 GRA  SZ I        1050 54.48        19.5 0.34                           129  17 
 OCA  SZ EP   1   1050 34.97                             128    -0.7 7  164 353 
 OCA  SZ ES   1   1050 57.09                             128    -0.8 7  164 353 
 OCA  SZ I        1051  1.79        17.4 0.23                           164 353 
 YOP  SZ EP   2   1050 36.76                             126     0.0 4  176 153 
 YOP  SZ I        1050 54.83         7.9 0.33                           176 153 
 NOR  SZ EP   1   1050 42.79                             118     0.3 6  232 235 
 NOR  SN ES   1   1051 10.21                             118     0.1 6  232 235 
 CHI  HZ EP   1   1050 44.43                             117     0.1 6  245 195 
 CHI  HE ES   1   1051 13.31                             117     0.0 6  245 195 
 CHI  HZ I        1051 17.32         5.6 0.67                           245 195 
 RREF HN ES   2   1051 28.74                             110     0.2 3  319 230 
 RREF HZ I        1051 36.00         9.0 0.33                           319 230 
                                                                                
