 2015 1112 1614 39.4 L   6.842 -73.160143.2  RSN  8 0.5 1.9LRSN                1
 GAP=133        1.14       3.8     5.6  7.9 -0.2654E+01  0.1723E+02 -0.3028E+01E
 Epicentro: LOS SANTOS - SANTANDER                                             3
 ACTION:UPD 15-12-28 16:10 OP:cam  STATUS:               ID:20151112161439 L   I
 OLDACT:DUP 15-11-13 00:24 OP:cara STATUS:               ID:20151112160751d    3
 2015-11-12-1607-50M.COL___319                                                 6
 STAT SP IPHASW D HRMM SECON CODA AMPLIT PERI AZIMU VELO AIN AR TRES W  DIS CAZ7
 BAR2 EZ ES       1615 13.30                             169   -0.7110 27.7 185 
 PAM  EZ EP       1615  1.66                             151    0.4210 74.9  43 
 PAM  EN ES       1615 18.92                             151    0.6810 74.9  43 
 PAM  EZ I        1615 20.70        11.3 0.52            130           74.9  43 
 RUS  HZ EP       1615  2.88                             142   -0.4110  105 175 
 RUS  HE ES       1615 21.65                             142   -0.2510  105 175 
 RUS  HZ I        1615 23.51         8.9 0.26            118            105 175 
 SPBC HZ EP       1615  8.01                             128    0.01 9  166 218 
 SPBC HN ES       1615 30.96                             128    0.69 9  166 218 
 SPBC HZ I        1615 37.37        11.5 0.44            110            166 218 
 ZAR  HN ES       1615 36.62                             122    0.31 9  201 291 
 NOR  HE ES       1615 43.00                             118   -0.05 8  236 233 
 SML  HZ EP       1615 14.98                             117   -0.42 8  239 335 
 SML  HE ES       1615 42.91                             117   -0.53 8  239 335 
 SML  HZ I        1615 47.08         9.6 0.10            104            239 335 
 CHI  HZ EP       1615 17.61                             116    0.17 8  253 195 
 CHI  HN EP       1615 47.49                                            253 195 
 CHI  HZ I        1615 58.00         3.3 0.38            102            253 195 
                                                                                
