 2012  612 1818 36.7 L   6.752 -73.169139.1  RSN  5 0.5 1.5LRSN                1
 GAP=136        1.00       6.7     5.8 10.2 -0.3351E+01  0.1965E+02 -0.1547E+02E
 Epicentro: VILLANUEVA - SANTANDER                                             3
 ACTION:UPD 12-08-06 17:49 OP:ep   STATUS:               ID:20120612181836 L   I
 2012-06-12-1810-00M.COL___200                                                 6
 STAT SP IPHASW D HRMM SECON CODA AMPLIT PERI AZIMU VELO AIN AR TRES W  DIS CAZ7
 BAR2 SZ EP   1   1818 55.19                             172   -0.28 7 17.8 185 
 BAR2 SZ ES   1   1819 10.28                             172    0.21 7 17.8 185 
 BAR2 SZ I        1819 11.98        11.9 0.35            172           17.8 185 
 PAM  SZ EP       1818 58.45                             148   -0.1710 83.1  39 
 PAM  SN ES   1   1819 15.56                             148   -0.12 7 83.1  39 
 RUS  HZ EP   1   1818 59.36                             144   -0.11 7 95.5 174 
 RUS  HN ES   1   1819 17.75                             144    0.54 7 95.5 174 
 RUS  HZ I        1819 18.87         3.5 0.12            147           95.5 174 
 PTB  HZ EP   1   1819  2.31                             131   -0.54 7  144 261 
 PTB  HZ I        1819  4.14         2.5 0.14            131            144 261 
 PTB  HN ES   1   1819 22.46                             131   -0.76 7  144 261 
 ZAR  HZ EP   1   1819  9.95                             121    1.22 6  204 294 
 ZAR  HN ES   1   1819 34.10                             121    0.42 6  204 294 
 ZAR  HZ I        1819 39.02         3.5 0.11            122            204 294 
                                                                                
