 2012  212 1031 26.2 L   6.762 -73.170147.0  RSN 13 0.4 1.9LRSN                1
 GAP=135        0.70       3.5     3.4  5.2 -0.1239E+01  0.4946E+01  0.5297E+01E
 ACTION:UP  12-03-07 16:29 OP:epov STATUS:               ID:20120212103126 L   I
 2012-02-12-1030-00M.COL___188                                                 6
 STAT SP IPHASW D HRMM SECON CODA AMPLIT PERI AZIMU VELO AIN AR TRES W  DIS CAZ7
 BAR2 SZ EP   1   1031 45.87                             172   -0.04 7 18.8 184 
 BAR2 SZ ES   1   1032  1.13                             172   -0.14 7 18.8 184 
 BAR2 SZ I        1032  3.75        16.4 0.28                          18.8 184 
 GIR2 SZ EP   1   1031 46.26                             166    0.12 7 35.1 356 
 BRR  HZ EP   1   1031 48.01                             153    0.53 7 71.1 303 
 BRR  HN ES   1   1032  4.78                             153    0.70 7 71.1 303 
 BRR  HZ I        1032  7.71        13.3 0.16                          71.1 303 
 PAM  SZ EP   1   1031 48.89                             149    0.04 7 82.3  39 
 PAM  SZ I        1031 49.16        10.2 0.18                          82.3  39 
 PAM  SN ES   1   1032  6.03                             149   -0.48 7 82.3  39 
 RUS  HZ EP   1   1031 49.99                             145    0.19 7 96.6 174 
 RUS  HN ES   1   1032  8.15                             145   -0.05 7 96.6 174 
 PTB  HZ EP   1   1031 52.69                             133   -0.29 7  144 260 
 PTB  HN ES   1   1032 13.16                             133   -0.69 7  144 260 
 ZAR  HZ EP   1   1031 58.11                             123   -0.54 6  203 294 
 ZAR  HN ES   1   1032 24.12                             123    0.16 6  203 294 
 ZAR  HZ I        1032 30.57         7.5 0.38                           203 294 
 NOR  SZ EP   1   1032  1.97                             119    0.45 6  230 235 
 NOR  SE ES   1   1032 29.25                             119    0.19 6  230 235 
 CHI  HZ EP   1   1032  3.97                             118    0.51 6  244 195 
 CHI  HZ I        1032 37.31         2.3 0.20                           244 195 
 ROSC BZ EP   1   1032  3.34                             117   -0.52 6  248 211 
 ROSC BZ I        1032 42.20        12.8 0.41                           248 211 
 HEL  HE ES   1   1032 37.11                             115   -0.09 6  269 257 
 HEL  HZ I        1032 45.01         3.1 0.33                           269 257 
 RREF HN ES   1   1032 47.33                             111   -0.15 5  317 230 
 RREF HZ I        1032 58.75         4.1 0.21                           317 230 
 PRA  HZ EP   1   1032 18.93                             107   -0.26 4  387 210 
 PRA  HZ I        1032 23.24         6.4 0.25                           387 210 
 PRA  HN ES   1   1033  0.69                             107    0.17 4  387 210 
                                                                                
