 2010 1012 1144 28.9 L   6.774 -73.104147.1  RSN  7 0.3 1.9LRSN                1
 GAP=181        0.50       3.8     6.2  4.5 -0.1224E+02 -0.4934E+01  0.4670E+01E
 Epicentro: LOS SANTOS - SANTANDER                                             3
 ACTION:UP  11-02-18 11:09 OP:tino STATUS:               ID:20101012114428 L   I
 2010-10-12-1141-19S.COL___124                                                 6
 STAT SP IPHASW D HRMM SECON CODA AMPLIT PERI AZIMU VELO SNR AR TRES W  DIS CAZ7
 BAR2 SZ IP       1144 48.66                             171     0.010   22 204 
 BAR2 SZ ES   1   1145  3.95                             171    -0.2 7   22 204 
 BAR2 SZ I        1145  5.18        18.1 0.13                            22 204 
 BRR  HZ EP       1144 50.55                             150     0.010   77 299 
 BRR  HN ES   1   1145  7.61                             150     0.2 7   77 299 
 GUE  SZ EP       1144 53.94                             139     0.010  118  10 
 GRA  SZ EP   1   1144 54.40                             137     0.0 7  127  15 
 GRA  SZ ES   1   1145 14.33                             137     0.0 7  127  15 
 GRA  SZ I        1145 15.16         9.8 0.34                           127  15 
 NOR  SZ EP   2   1145  4.09                             118    -0.9 4  237 236 
 CHI  HZ EP   2   1145  6.73                             117     0.2 4  247 196 
 CHI  HZ I        1145 39.11         2.5 0.26                           247 196 
 PRA  HZ EP       1145 22.89                             107     0.4 6  392 210 
 PRA  HE ES   3   1146  4.31                             107     0.1 1  392 210 
 PRA  HZ I        1146  7.59         7.7 0.30                           392 210 
                                                                                
