 2016  712 1537 18.8 L   6.820 -73.154148.6  RSN  7 0.3 1.9LRSN                1
 GAP=244        0.74       4.1     4.2  5.9  0.5375E+01  0.3328E+01 -0.9696E+00E
 Epicentro: LOS SANTOS - SANTANDER                                             3
 ACTION:UPD 17-03-29 16:50 OP:lp   STATUS:               ID:20160712153718 L   I
 OLDACT:UP  16-07-13 01:00 OP:dani STATUS:               ID:20160712152759     3
 OLDACT:UP  16-07-13 00:57 OP:dani STATUS:               ID:20160712152759     3
 OLDACT:REG 16-07-12 22:20 OP:dani STATUS:               ID:20160712152759     3
 2016-07-12-1527-59S.COL___325                                                 6
 STAT SP IPHASW D HRMM SECON CODA AMPLIT PERI AZIMU VELO AIN AR TRES W  DIS CAZ7
 BAR2 EZ EP       1537 38.80                             170   -0.0110 25.4 187 
 BAR2 EZ ES       1537 54.46                             170    0.0410 25.4 187 
 BAR2 EZ I        1537 55.12        16.4 0.14            165           25.4 187 
 RUS  HZ EP       1537 43.12                             144    0.1310  103 176 
 RUS  HN ES       1538  1.75                             144   -0.1110  103 176 
 RUS  HZ I        1538  2.71         8.0 0.24            142            103 176 
 PTB  HZ EP       1537 45.44                             133   -0.52 9  147 258 
 PTB  HN ES       1538  6.79                             133   -0.35 9  147 258 
 PTB  HZ I        1538  8.85         9.8 0.44            131            147 258 
 SPBC HZ EP       1537 47.91                             129    0.28 9  164 218 
 SPBC HE ES       1538 10.39                             129    0.28 9  164 218 
 SPBC HZ I        1538 17.08        11.6 0.26            128            164 218 
 ZAR  HE ES       1538 17.03                             123    0.45 9  202 292 
 CHI  HN ES       1538 26.42                             118   -0.13 8  251 195 
 GUY2CHZ EP   9   1538  5.11                             113    2.51 0  302 234 
 GUY2CHE ES       1538 39.78                             111    0.51 7  302 234 
                                                                                
