 2011  912 1400 50.7 L   6.840 -73.075138.0  RSN  4 0.3 1.7LRSN                1
 GAP=167        0.53       5.5     3.7  5.6 -0.1278E+01  0.6552E+01  0.1144E+01E
 Epicentro: LOS SANTOS - SANTANDER                                             3
 ACTION:UPD 12-07-13 15:57 OP:ep   STATUS:               ID:20110912140050 L   I
 2011-09-12-1400-00M.COL___171                                                 6
 STAT SP IPHASW D HRMM SECON CODA AMPLIT PERI AZIMU VELO AIN AR TRES W  DIS CAZ7
 BAR2 SZ EP       14 1  9.30                             167   -0.2210 29.8 203 
 BAR2 SZ ES   1   14 1 24.43                             167    0.21 7 29.8 203 
 BAR2 SZ I        14 1 26.64         9.6 0.24                          29.8 203 
 PAM  SZ EP   1   14 1 11.86                             152    0.30 7 69.1  37 
 PAM  SE ES       14 1 27.76                             152   -0.1010 69.1  37 
 PAM  SZ I        14 1 30.85         4.2 0.31                          69.1  37 
 BRR  HZ EP   1   14 1 11.12                             149   -0.17 7 76.4 293 
 BRR  HZ I        14 1 12.41        22.1 0.09                          76.4 293 
 BRR  HN ES   1   14 1 27.57                             149    0.19 7 76.4 293 
 ZAR  HZ EP   2   14 1 23.82                             120    0.61 4  210 290 
 ZAR  HE ES   1   14 1 48.37                             120   -0.24 6  210 290 
 ZAR  HZ I        14 1 53.64         5.0 0.14                           210 290 
                                                                                
