 2012  512 1606  7.0 L   6.787 -73.135150.0  RSN  8 0.4 2.1LRSN                1
 GAP=139        0.90       4.6     5.5  7.1  0.4377E+01  0.6791E+01  0.6846E+01E
 Epicentro: LOS SANTOS - SANTANDER                                             3
 ACTION:UP  12-07-05 12:04 OP:pat  STATUS:               ID:20120512160607 L   I
 2012-05-12-1600-00M.COL___195                                                 6
 STAT SP IPHASW D HRMM SECON CODA AMPLIT PERI AZIMU VELO SNR AR TRES W  DIS CAZ7
 BAR2 SZ EP       16 6 26.98                             171    -0.210   22 194 
 BAR2 SZ ES   1   16 6 43.11                             171     0.3 7   22 194 
 BAR2 SZ I        16 6 43.76        65.8 0.15                            22 194 
 BRR  HZ EP       16 6 28.90                             153     0.210   73 299 
 BRR  HE ES   1   16 6 46.40                             153     0.7 7   73 299 
 BRR  HZ I        16 6 47.48        25.2 0.21                            73 299 
 PAM  SZ EP   1   16 6 29.61                             152    -0.1 7   78  38 
 PAM  SN ES   2   16 6 47.01                             152    -0.4 5   78  38 
 RUS  HZ EP       16 6 30.92                             145    -0.210   99 177 
 RUS  HZ I        16 6 32.09        11.4 0.18                            99 177 
 RUS  HE ES   1   16 6 49.82                             145     0.0 7   99 177 
 PTB  HZ EP   1   16 6 33.92                             133    -0.5 7  149 259 
 PTB  HE ES   1   16 6 54.90                             133    -0.9 7  149 259 
 PTB  HZ I        16 6 58.14         8.6 0.22                           149 259 
 ZAR  HZ EP   1   16 6 40.33                             123     0.4 6  206 292 
 ZAR  HE ES   1   16 7  5.52                             123    -0.1 6  206 292 
 ZAR  HZ I        16 7 10.43        11.3 0.29                           206 292 
 CHI  HZ EP   1   16 6 44.95                             118     0.1 6  248 196 
 CHI  HN ES   1   16 7 14.47                             118     0.1 6  248 196 
 CHI  HZ I        16 7 18.00         6.5 0.29                           248 196 
 PRA  HZ EP   1   16 7  1.03                             107     0.4 4  391 210 
 PRA  HN ES   1   16 7 43.28                             107     0.9 4  391 210 
                                                                                
