 2011 1212 1457 29.0 L   6.712 -73.133141.7  RSN  5 0.4 1.8LRSN                1
 GAP=168        0.55      10.2     6.3  9.7 -0.1863E+02  0.8977E+00  0.2602E+02E
 Epicentro: JORDAN - SANTANDER                                                 3
 ACTION:UPD 12-07-13 16:15 OP:ep   STATUS:               ID:20111212145728 L   I
 2011-12-12-1450-00M.COL___185                                                 6
 STAT SP IPHASW D HRMM SECON CODA AMPLIT PERI AZIMU VELO AIN AR TRES W  DIS CAZ7
 BAR2 SZ EP   2   1457 48.35                             174    0.34 5 14.3 202 
 BAR2 SZ ES   2   1458  2.99                             174    0.16 5 14.3 202 
 BAR2 SZ I        1458  4.25         6.3 0.26                          14.3 202 
 GIR2 SZ EP   2   1457 48.16                             163   -0.36 5 41.1 351 
 GIR2 SZ ES   2   1458  3.23                             163   -0.50 5 41.1 351 
 BRR  HZ EP   2   1457 50.35                             150    0.24 5 77.4 304 
 BRR  HZ I        1457 52.89        25.3 0.34                          77.4 304 
 BRR  HN ES   1   1458  6.91                             150    0.36 7 77.4 304 
 PAM  SN ES   2   1458  8.35                             148   -0.22 5 84.3  35 
 PTB  HN ES   2   1458 15.88                             131   -0.53 5  148 263 
                                                                                
