 2012  312 1222 20.2 L   6.652 -73.244143.7  RSN  5 0.3 1.5LRSN                1
 GAP=180        0.88      18.1    15.4 12.3  0.2394E+03  0.1183E+03  0.1482E+03E
 ACTION:UP  12-03-31 23:19 OP:EP   STATUS:               ID:20120312122220 L   I
 2012-03-12-1220-00M.COL___193                                                 6
 STAT SP IPHASW D HRMM SECON CODA AMPLIT PERI AZIMU VELO SNR AR TRES W  DIS CAZ7
 BAR2 SZ EP   1   1222 39.19                             174    -0.1 7    9 134 
 BAR2 SZ ES   1   1222 53.86                                    -0.4 7    9 134 
 BAR2 SZ I        1222 55.44         8.8 0.32                             9 134 
 BRR  HZ EP   1   1222 40.94                             155    -0.2 7   72 314 
 BRR  HE ES       1222 57.83                                     0.310   72 314 
 BRR  HZ I        1223  1.84         7.8 0.10                            72 314 
 RUS  HZ EP   1   1222 43.21                             148     0.5 7   86 168 
 RUS  HZ I        1223  3.19         3.0 0.36                            86 168 
 PTB  HZ EP   1   1222 45.54                             136    -0.2 7  135 265 
 PTB  HZ I        1223 10.62         4.0 0.33                           135 265 
 ZAR  HN ES   1   1223 17.02                             126    -0.1 6  201 298 
 ZAR  HZ I        1223 22.29         3.8 0.37                           201 298 
                                                                                
