 2014  312 1142  3.9 L   6.789 -73.163142.5  RSN  5 0.1 1.8LRSN                1
 GAP=141        0.43       2.1     2.5  3.1 -0.1430E+01  0.1715E+01  0.1033E+01E
 Epicentro: LOS SANTOS - SANTANDER                                             3
 ACTION:UPD 14-04-09 23:16 OP:nd   STATUS:               ID:20140312114203 L   I
 OLDACT:REG 14-03-12 16:23 OP:nd   STATUS:               ID:20140312113818     3
 2014-03-12-1138-18M.COL___235                                                 6
 STAT SP IPHASW D HRMM SECON CODA AMPLIT PERI AZIMU VELO AIN AR TRES W  DIS CAZ7
 BAR2 SZ EP       1142 23.26                             171    0.1310 21.9 186 
 BAR2 SZ ES       1142 38.03                             171   -0.0810 21.9 186 
 BAR2 SZ I        1142 39.86        37.9 0.20            168           21.9 186 
 PAM  SZ EP       1142 26.07                             149    0.1510 79.5  40 
 PAM  SN ES       1142 43.09                             149    0.0110 79.5  40 
 PAM  SZ I        1142 45.79         6.6 0.58            153           79.5  40 
 RUS  HZ EP       1142 27.11                             143   -0.1610 99.5 175 
 RUS  HN ES       1142 45.40                             143   -0.0910 99.5 175 
 RUS  HZ I        1142 47.59         7.2 0.28            142           99.5 175 
 PTB  HZ EP       1142 30.18                             132   -0.25 9  146 259 
 PTB  HN ES       1142 51.22                             132    0.11 9  146 259 
 PTB  HZ I        1142 53.65         7.9 0.20            132            146 259 
 CHI  HZ EP       1142 41.23                             117   -0.02 8  247 195 
 CHI  HN ES       1143 10.63                             117    0.26 8  247 195 
 CHI  HZ I        1143 19.33         3.3 0.38            117            247 195 
                                                                                
