 2016 1212 1620 14.7 L   6.823 -73.124142.4  RSN 15 0.5 2.6LRSN                1
 GAP=138        1.36       4.7     5.0  6.8 -0.2662E+01  0.1017E+02  0.7198E+01E
 Epicentro: LOS SANTOS - SANTANDER                                             3
 ACTION:UPD 17-01-11 20:14 OP:rebc STATUS:               ID:20161212162014 L   I
 OLDACT:UP  16-12-13 01:06 OP:ar   STATUS:               ID:20161212160915     3
 OLDACT:UP  16-12-13 01:05 OP:ar   STATUS:               ID:20161212160915     3
 OLDACT:UP  16-12-13 01:05 OP:ar   STATUS:               ID:20161212160915     3
 OLDACT:REG 16-12-12 20:56 OP:ar   STATUS:               ID:20161212160915     3
 2016-12-12-1617-00M.COL___364                                                 6
 STAT SP IPHASW D HRMM SECON CODA AMPLIT PERI AZIMU VELO AIN AR TRES W  DIS CAZ7
 BAR2 EZ IP     C 1620 33.92                             169   -0.1110 26.3 194 
 BAR2 EZ ES       1620 48.50                             169   -0.5710 26.3 194 
 BAR2 EZ I        1620 50.27        68.4 0.38            165           26.3 194 
 BRR  HZ EP       1620 35.91                             152    0.3210 72.2 296 
 BRR  HE ES       1620 52.82                             152    0.9810 72.2 296 
 BRR  HZ I        1620 55.79        40.7 0.14            148           72.2 296 
 PAM  EZ EP       1620 36.54                             151    0.1510 73.9  39 
 PAM  EN ES       1620 53.53                             151    0.2510 73.9  39 
 PAM  EZ I        1620 54.22        49.1 0.24            157           73.9  39 
 RUS  HZ EP       1620 37.96                             142   -0.3810  103 177 
 RUS  HN ES       1620 56.95                             142    0.2110  103 177 
 PTB  HZ EP       1620 40.76                             131   -0.94 9  151 258 
 PTB  HN ES       1621  1.96                             131   -0.77 9  151 258 
 PTB  HZ I        1621  3.92        60.9 0.32            128            151 258 
 ZAR  HZ EP       1620 46.80                             121   -0.31 8  205 291 
 ZAR  HN ES       1621 12.55                             121    0.20 8  205 291 
 ZAR  HZ I        1621 18.66        38.6 0.46            121            205 291 
 NOR  HZ EP       1620 50.60                             117   -0.05 8  238 234 
 NOR  HN ES       1621 18.51                             117   -0.15 8  238 234 
 NOR  HZ I        1621 21.42        36.1 0.20            117            238 234 
 CHI  HZ EP       1620 52.22                             116   -0.37 8  252 196 
 CHI  HN ES       1621 22.33                             116    0.22 8  252 196 
 CHI  HZ I        1621 30.06        10.5 0.28            116            252 196 
 ROSC BZ EP   9   1620 54.24                             116    1.18 0  256 211 
 ROSC BN ES       1621 25.59                             116    1.47 8  256 211 
 ROSC BZ I        1621 32.21        32.5 0.45            115            256 211 
 URE  HZ EP   4   1620 54.45                             113   -1.35 0  285 291 
 URE  HN ES   4   1621 25.09                             113   -2.73 0  285 291 
 URE  HZ I        1621 39.10        18.8 0.18            113            285 291 
 GUY2CHZ EP       1620 59.07                             111    0.48 7  305 235 
 GUY2CHN ES       1621 33.87                             111    1.09 7  305 235 
 GUY2CHZ I        1621 40.72        19.4 0.28                           305 235 
 ELA  HZ EP   9   1621  3.49                             109    1.64 0  333 229 
 ELA  HE ES       1621 41.03                             109    0.80 7  333 229 
 ELA  HZ I        1621 53.96        16.1 0.56            109            333 229 
 CBOC HZ EP       1621  2.27                             109    0.39 7  337 252 
 CBOC HN ES       1621 37.80                             109   -0.84 7  337 252 
 ANIL HZ EP       1621  5.42                             108    0.59 6  361 225 
 ANIL HE ES   4   1621 46.08                             108    2.19 0  361 225 
 ANIL HZ I        1621 48.63        32.0 0.38            108            361 225 
 PRA  HZ EP       1621  8.25                             106   -0.30 6  395 210 
 PRA  HN ES       1621 51.10                             106    0.59 6  395 210 
 PRA  HZ I        1621 56.66        17.3 0.26            106            395 210 
                                                                                
