 2014 1212 1352 11.2 L   7.164 -73.476151.0  RSN  5 0.8 2.0LRSN                1
 GAP=131        1.93      10.4    14.6 16.9  0.1002E+01  0.8129E+02  0.5406E+01E
 Epicentro: SABANA DE TORRES - SANTANDER                                       3
 ACTION:UPD 15-02-10 17:03 OP:nd   STATUS:               ID:20141212135211 L   I
 OLDACT:REG 14-12-12 20:37 OP:stll STATUS:               ID:20141212134745     3
 2014-12-12-1347-45M.COL___287                                                 6
 STAT SP IPHASW D HRMM SECON CODA AMPLIT PERI AZIMU VELO AIN AR TRES W  DIS CAZ7
 BAR2 EZ ES       1352 49.47                             154   -0.9510 71.1 153 
 BAR2 EZ I        1352 51.21         8.3 0.40            155           71.1 153 
 PAM  SZ EP       1352 34.21                             148   -0.3710 88.0  77 
 PAM  SZ I        1352 34.64        19.2 0.38            150           88.0  77 
 PAM  SN ES       1352 53.94                             148    1.1010 88.0  77 
 OCA  HZ EP       1352 35.48                             139   -0.9410  120   8 
 OCA  HN ES       1352 56.21                             139    0.0810  120   8 
 OCA  HZ I        1352 58.07        24.2 0.14            140            120   8 
 PTB  HZ EP       1352 37.85                             137    0.9510  128 238 
 TAM  HZ EP       1352 44.09                             124    0.21 9  203 113 
                                                                                
