 2011  312 1724 33.1 L   6.888 -73.200135.6  RSN  4 0.4 1.4LRSN                1
 GAP=152        0.68       6.6    21.7 16.6 -0.9533E+02  0.1168E+03 -0.1395E+02E
 Epicentro: BETULIA - SANTANDER                                                3
 ACTION:UP  11-06-16 14:33 OP:jfem STATUS:               ID:20110312172434 L   I
 2011-03-12-1720-06S.COL___135                                                 6
 STAT SP IPHASW D HRMM SECON CODA AMPLIT PERI AZIMU VELO SNR AR TRES W  DIS CAZ7
 BAR2 SZ EP   2   1724 52.37                             166     0.6 5   33 177 
 BAR2 SZ ES   3   1725  7.23                             166     0.9 2   33 177 
 BAR2 SZ I        1725  9.12         9.4 0.26                            33 177 
 RUS  HZ EP   2   1724 57.02                             139     0.3 5  111 173 
 RUS  HN ES   2   1725 14.47                             139    -0.6 5  111 173 
 RUS  HZ I        1725 16.23         4.2 0.41                           111 173 
 GRA  SZ EP   2   1724 56.71                             136    -0.2 5  119  22 
 GRA  SZ ES   1   1725 15.28                             136    -0.1 7  119  22 
 GRA  SZ I        1725 17.82         6.5 0.34                           119  22 
 NOR  SN ES   3   1725 35.68                             115    -0.3 2  236 232 
 NOR  SZ I        1725 44.11         0.6 0.24                           236 232 
                                                                                
