 2015  912 1349 43.0 L   6.813 -73.180142.2  RSN  8 0.3 1.8LRSN                1
 GAP=132        0.89       3.4     3.8  5.4 -0.1157E+01  0.4369E+01 -0.1013E+01E
 Epicentro: ZAPATOCA - SANTANDER                                               3
 ACTION:UPD 15-10-28 16:25 OP:cam  STATUS:               ID:20150912134943 L   I
 OLDACT:REG 15-09-12 21:55 OP:stll STATUS:               ID:20150912134746     3
 2015-09-12-1347-46M.COL___335                                                 6
 STAT SP IPHASW D HRMM SECON CODA AMPLIT PERI AZIMU VELO AIN AR TRES W  DIS CAZ7
 BAR2 EZ EP       1350  2.24                             170    0.0510 24.5 181 
 BAR2 EZ ES       1350 17.28                             170    0.0910 24.5 181 
 BAR2 EZ I        1350 18.30        14.2 0.22            168           24.5 181 
 BRR  HZ EP       1350  4.08                             153    0.5810 67.1 299 
 BRR  HN ES       1350 19.92                             153    0.4010 67.1 299 
 PAM  EZ EP       1350  5.20                             150    0.3210 78.8  42 
 PAM  EZ I        1350  5.37        13.0 0.18            153           78.8  42 
 PAM  EE ES       1350 21.42                             150   -0.5610 78.8  42 
 RUS  HZ EP       1350  6.44                             143   -0.0610  102 174 
 RUS  HZ I        1350  7.87         4.4 0.18            143            102 174 
 PTB  HZ EP       1350  8.65                             132   -0.67 9  144 258 
 PTB  HN ES       1350 29.67                             132   -0.22 9  144 258 
 PTB  HZ I        1350 35.11         8.7 0.44            130            144 258 
 SPBC HZ EP       1350 11.45                             128    0.38 9  162 218 
 SPBC HN ES       1350 32.74                             128   -0.26 9  162 218 
 SPBC HZ I        1350 37.93        12.3 0.42            128            162 218 
 ZAR  HZ EP       1350 14.71                             122   -0.04 9  200 292 
 ZAR  HN ES       1350 39.65                             122    0.10 9  200 292 
 ZAR  HZ I        1350 45.02         6.7 0.70            122            200 292 
 SML  HZ EP       1350 19.00                             117   -0.07 8  241 336 
 SML  HE ES       1350 47.01                             117   -0.22 8  241 336 
 SML  HZ I        1350 49.03         8.8 0.24            118            241 336 
                                                                                
