 2012 1212 1926 54.9 L   6.811 -73.144142.7  RSN 15 0.5 3.0LRSN 3.1WRSN        1
 SPEC AVERAGE  MO 13.7 ST  8.9 OM  2.2 f0 4.35 R0.3522 AL 2.77 WI 14.5 MW  3.1 3
 SPEC SD       MO  0.2 ST  9.2 OM  0.3 f00.901 R0.0703 AL      WI      MW  0.1 3
 GAP=136        1.07       2.7     3.9  5.2 -0.1007E+01  0.6009E+01  0.1845E+01E
 Epicentro: LOS SANTOS - SANTANDER                                             3
 SPEC RUS HH N MO 13.3 ST  1.1 OM  1.7 f0 3.33 R0.4414 AL 1.59 WI 13.7 MW  2.8 3
 SPEC RUS HH N T192735 K 0.000 GD  175 VS 4.20 DE 3.20 Q0300.0 QA 0.60 VS 4.20 3
 SPEC PRA HH N MO 13.8 ST  3.6 OM  1.8 f0 3.41 R0.4311 AL 2.26 WI 17.8 MW  3.2 3
 SPEC PRA HH N T192829 K 0.000 GD  418 VS 4.20 DE 3.20 Q0300.0 QA 0.60 VS 4.20 3
 SPEC HEL HH N MO 13.5 ST  2.8 OM  1.6 f0 4.03 R0.3648 AL 1.74 WI 22.5 MW  2.9 3
 SPEC HEL HH N T1928 5 K 0.000 GD  308 VS 4.20 DE 3.20 Q0300.0 QA 0.60 VS 4.20 3
 SPEC NOR HH N MO 14.0 ST 32.1 OM  2.2 f0 5.98 R0.2458 AL 3.74 WI 15.5 MW  3.3 3
 SPEC NOR HH N T192757 K 0.000 GD  275 VS 4.20 DE 3.20 Q0300.0 QA 0.60 VS 4.20 3
 SPEC OCA HH N MO 14.0 ST 15.8 OM  2.3 f0 4.76 R0.3088 AL 3.17 WI 10.5 MW  3.3 3
 SPEC OCA HH N T192743 K 0.000 GD  213 VS 4.20 DE 3.20 Q0300.0 QA 0.60 VS 4.20 3
 SPEC PAM SH N MO 13.6 ST  4.8 OM  2.0 f0 4.43 R0.3318 AL 3.77 WI  9.4 MW  3.0 3
 SPEC PAM SH N T192733 K 0.000 GD  161 VS 4.20 DE 3.20 Q0300.0 QA 0.60 VS 4.20 3
 SPEC CHI HH N MO 13.9 ST  3.5 OM  2.0 f0 3.29 R0.4468 AL 2.50 WI 16.4 MW  3.2 3
 SPEC CHI HH N T1928 1 K 0.000 GD  287 VS 4.20 DE 3.20 Q0300.0 QA 0.60 VS 4.20 3
 SPEC BRR HH N MO 13.6 ST  9.1 OM  2.0 f0 5.50 R0.2673 AL 3.60 WI 12.5 MW  3.0 3
 SPEC BRR HH N T192731 K 0.000 GD  159 VS 4.20 DE 3.20 Q0300.0 QA 0.60 VS 4.20 3
 SPEC BAR2SH Z MO 13.8 ST  6.9 OM  2.2 f0 4.43 R0.3318 AL 2.52 WI 12.6 MW  3.1 3
 SPEC BAR2SH Z T192727 K 0.000 GD  144 VS 4.20 DE 3.20 Q0300.0 QA 0.60 VS 4.20 3
 ACTION:UPD 13-01-04 14:27 OP:ep   STATUS:               ID:20121212192654 L   I
 2012-12-12-1920-00M.COL___242                                                 6
 STAT SP IPHASW D HRMM SECON CODA AMPLIT PERI AZIMU VELO AIN AR TRES W  DIS CAZ7
 BAR2 SZ EP       1927 14.16                             170   -0.0410 24.5 190 
 BAR2 SZ ES       1927 28.95                             170   -0.2910 24.5 190 
 BAR2 SZ I        1927 30.34       201.0 0.24                          24.5 190 
 GIR2 SZ EP       1927 14.22                             167    0.0310 30.1 350 
 BRR  HZ EP       1927 15.85                             152    0.1410 70.8 298 
 BRR  HN ES       1927 32.63                             152    0.7010 70.8 298 
 BRR  HN I        1927 36.89       227.5 0.20                          70.8 298 
 PAM  SZ EP       1927 16.96                             151    0.2210 76.4  40 
 PAM  SN ES       1927 34.05                             151    0.2810 76.4  40 
 PAM  SN I        1927 35.80       101.5 0.42                          76.4  40 
 RUS  HZ EP       1927 18.18                             143   -0.2710  102 176 
 RUS  HE ES       1927 36.76                             143   -0.0510  102 176 
 RUS  HE I        1927 37.75        80.2 0.18                           102 176 
 PTB  HZ EP       1927 20.83                             131   -0.84 9  148 258 
 PTB  HN ES       1927 41.91                             131   -0.63 9  148 258 
 PTB  HN I        1927 47.05        92.2 0.36                           148 258 
 OCA  HZ EP       1927 22.84                             129   -0.04 9  159 353 
 OCA  HN ES       1927 44.08                             129   -0.61 9  159 353 
 OCA  HN I        1927 48.92       261.2 0.24                           159 353 
 ZAR  HZ EP       1927 26.73                             122   -0.40 9  204 292 
 ZAR  HN ES       1927 52.46                             122    0.20 9  204 292 
 ZAR  HN I        1927 57.95        91.2 0.46                           204 292 
 NOR  HZ EP       1927 30.67                             118    0.11 8  236 234 
 NOR  HN ES       1927 58.17                             118   -0.19 8  236 234 
 NOR  HN I        1928  5.65       133.2 0.18                           236 234 
 SML  HZ EP       1927 30.64                             117   -0.62 8  243 335 
 SML  HE ES       1928  0.28                             117    0.67 8  243 335 
 SML  HE I        1928  5.57       123.7 0.10                           243 335 
 CHI  HZ EP       1927 32.42                             116   -0.16 8  250 195 
 CHI  HN ES       1928  2.12                             116    0.17 8  250 195 
 CHI  HN I        1928  7.64        52.9 0.34                           250 195 
 ROSC BZ EP       1927 33.59                             116    0.60 8  254 211 
 HEL  HZ EP       1927 36.13                             114    1.10 8  273 256 
 HEL  HN ES       1928  6.28                             114   -0.03 8  273 256 
 HEL  HN I        1928 13.75        20.1 0.24                           273 256 
 RREF HZ EP       1927 41.66                             110    0.63 7  323 229 
 PRA  HZ EP       1927 47.97                             106   -0.49 6  393 210 
 PRA  HN ES       1928 30.68                             106    0.45 6  393 210 
 PRA  HN I        1928 35.61        37.3 0.74                           393 210 
 SJC  HN ES   4   1928 29.81                             105   -3.64 0  408 327 
                                                                                
