 2010  712 1411  2.6 L   6.805 -73.076143.9  RSN  6 0.3 2.0LRSN                1
 GAP=163        0.69       2.9     6.2  5.9 -0.2878E+01 -0.1220E+02 -0.2179E+01E
 Epicentro: LOS SANTOS - SANTANDER                                             3
 ACTION:UPD 10-12-01 15:17 OP:pat  STATUS:               ID:20100712141102 L   I
 2010-07-12-1405-16S.COL___120                                                 6
 STAT SP IPHASW D HRMM SECON CODA AMPLIT PERI AZIMU VELO AIN AR TRES W  DIS CAZ7
 BAR2 SZ EP       1411 21.92                             169    -0.210   26 207 
 BAR2 SZ ES   1   1411 37.09                             169    -0.2 7   26 207 
 BRR  HZ IP       1411 23.74                             150    -0.210   78 295 
 BRR  HN ES       1411 40.85                             150     0.310   78 295 
 BRR  HZ I        1411 44.55        26.1 0.40                            78 295 
 RUS  HZ EP       1411 26.44                             143     0.210  101 180 
 RUS  HN ES       1411 44.55                             143    -0.110  101 180 
 RUS  HZ I        1411 46.54        19.2 0.06                           101 180 
 BRI  SZ EP       1411 26.37                             142     0.310  105  17 
 BRI  SZ ES   2   1411 45.11                             142     0.7 5  105  17 
 BRI  SZ I        1411 47.92        13.0 0.32                           105  17 
 GUE  SZ EP       1411 26.81                             139    -0.210  115   8 
 GRA  SZ EP       1411 27.57                             137     0.110  123  14 
 GRA  SZ ES       1411 46.56                             137    -0.310  123  14 
                                                                                
