 2011 1112 1837 18.9 L   6.750 -73.149142.7  RSN  7 0.3 2.2LRSN                1
 GAP=138        0.72       3.9     4.0  4.9  0.3343E+01  0.3098E+01  0.1129E+01E
 Epicentro: LOS SANTOS - SANTANDER                                             3
 ACTION:UPD 12-07-13 16:09 OP:ep   STATUS:               ID:20111112183718 L   I
 2011-11-12-1820-00M.COL___181                                                 6
 STAT SP IPHASW D HRMM SECON CODA AMPLIT PERI AZIMU VELO AIN AR TRES W  DIS CAZ7
 BAR2 SZ EP       1837 38.23                             172    0.1610 17.9 192 
 BAR2 SZ ES       1837 52.68                             172   -0.3410 17.9 192 
 BAR2 SZ I        1837 55.58        37.2 0.22                          17.9 192 
 GIR2 SZ EP       1837 38.24                             165   -0.1410 36.6 352 
 GIR2 SZ ES   1   1837 53.44                             165   -0.12 7 36.6 352 
 BRR  HZ EP       1837 40.02                             151    0.1510 73.6 302 
 BRR  HN ES       1837 56.78                             151    0.5610 73.6 302 
 BRR  HZ I        1837 57.99        44.9 0.17                          73.6 302 
 PAM  SZ EP       1837 40.96                             149   -0.1210 81.9  37 
 RUS  HZ EP       1837 42.31                             145    0.3410 95.1 176 
 RUS  HN ES   1   1837 59.73                             145   -0.23 7 95.1 176 
 RUS  HZ I        1838  2.48        19.1 0.15                          95.1 176 
 ZAR  HZ EP   1   1837 50.78                             121   -0.56 6  206 294 
 ZAR  HN ES       1838 16.37                             121   -0.27 8  206 294 
 ZAR  HZ I        1838 21.80        17.7 0.26                           206 294 
 NOR  SZ EP   1   1837 54.30                             118    0.21 6  231 236 
 NOR  SN ES   1   1838 21.37                             118   -0.16 6  231 236 
                                                                                
