 2015  912 1641 40.2 L   6.812 -73.149146.6  RSN 21 0.6 2.7LRSN 3.2WRSN        1
 SPEC AVERAGE  MO 13.9 ST0.146 OM  2.0 f0 1.34 R1.6353 AL 0.00 WI 30.0 MW  3.2 3
 SPEC SD       MO  0.3 ST0.146 OM  0.3 f00.536 R0.5494 AL      WI      MW  0.2 3
 GAP=119        1.26       2.9     4.1  5.3 -0.2697E+01  0.4454E+01  0.1549E+01E
 Epicentro: LOS SANTOS - SANTANDER                                             3
 SPEC BAR2EH Z MO 13.7 ST0.556 OM  1.8 f0 2.65 R0.7260 AL-0.00 WI 30.0 MW  3.1 3
 SPEC BAR2EH Z T164213 K 0.000 GD  148 VS 5.20 DE 3.50 Q0750.0 QA 1.50 Q1 0.00 3
 SPEC PAM EH Z MO 13.7 ST0.187 OM  1.8 f0 1.78 R1.0809 AL-0.00 WI 30.0 MW  3.1 3
 SPEC PAM EH Z T164218 K 0.000 GD  165 VS 5.20 DE 3.50 Q0750.0 QA 1.50 Q1 0.00 3
 SPEC RUS HH Z MO 13.6 ST0.098 OM  1.6 f0 1.63 R1.1804 AL-0.00 WI 30.0 MW  3.0 3
 SPEC RUS HH Z T164221 K 0.000 GD  178 VS 5.20 DE 3.50 Q0750.0 QA 1.50 Q1 0.00 3
 SPEC CHI HH Z MO 14.0 ST0.080 OM  1.8 f0 1.11 R1.7333 AL-0.00 WI 30.0 MW  3.3 3
 SPEC CHI HH Z T164245 K 0.000 GD  289 VS 5.20 DE 3.50 Q0750.0 QA 1.50 Q1 0.00 3
 SPEC HEL HH Z MO 13.6 ST0.071 OM  1.4 f0 1.42 R1.3549 AL-0.00 WI 30.0 MW  3.0 3
 SPEC HEL HH Z T164249 K 0.000 GD  308 VS 5.20 DE 3.50 Q0750.0 QA 1.50 Q1 0.00 3
 SPECGUY2CHH Z MO 14.2 ST0.037 OM  2.0 f00.699 R2.7525 AL-0.00 WI 30.0 MW  3.4 3
 SPECGUY2CHH Z T164256 K 0.000 GD  335 VS 5.20 DE 3.50 Q0750.0 QA 1.50 Q1 0.00 3
 SPEC DBB SH Z MO 14.5 ST0.204 OM  2.2 f0 1.03 R1.8680 AL-0.00 WI 30.0 MW  3.6 3
 SPEC DBB SH Z T1643 2 K 0.000 GD  369 VS 5.20 DE 3.50 Q0750.0 QA 1.50 Q1 0.00 3
 SPEC TOL SH Z MO 14.1 ST0.097 OM  1.8 f0 1.09 R1.7651 AL-0.00 WI 30.0 MW  3.3 3
 SPEC TOL SH Z T1643 5 K 0.000 GD  373 VS 5.20 DE 3.50 Q0750.0 QA 1.50 Q1 0.00 3
 SPEC PRA HH Z MO 14.2 ST0.077 OM  1.9 f00.898 R2.1425 AL-0.00 WI 30.0 MW  3.4 3
 SPEC PRA HH Z T164314 K 0.000 GD  419 VS 5.20 DE 3.50 Q0750.0 QA 1.50 Q1 0.00 3
 SPEC SJC HH Z MO 13.8 ST0.058 OM  1.5 f0 1.10 R1.7491 AL-0.00 WI 30.0 MW  3.2 3
 SPEC SJC HH Z T164313 K 0.000 GD  433 VS 5.20 DE 3.50 Q0750.0 QA 1.50 Q1 0.00 3
 OLDACT:REG 15-09-12 22:06 OP:stll STATUS:               ID:20150912163750     3
 ACTION:UPD 15-10-28 16:25 OP:cam  STATUS:               ID:20150912164140 L   I
 OLDACT:UP  15-09-13 01:40 OP:stll STATUS:               ID:20150912163750     3
 2015-09-12-1637-50M.COL___335                                                 6
 STAT SP IPHASW D HRMM SECON CODA AMPLIT PERI AZIMU VELO AIN AR TRES W  DIS CAZ7
 BAR2 EZ EP       1642  0.18                             170    0.2510 24.6 189 
 BAR2 EZ ES       1642 14.85                             170   -0.4910 24.6 189 
 BAR2 EZ I        1642 17.92        87.5 0.26            166           24.6 189 
 BRR  HZ IP     C 1642  1.96                             153    0.6010 70.2 298 
 BRR  HN ES       1642 18.74                             153    0.8510 70.2 298 
 BRR  HZ I        1642 22.94        64.2 0.28            140           70.2 298 
 PAM  EZ EP     C 1642  2.89                             151    0.4610 76.6  40 
 PAM  EZ I        1642  3.28       176.6 0.20            140           76.6  40 
 PAM  EN ES       1642 20.05                             151    0.2510 76.6  40 
 RUS  HZ EP       1642  4.05                             144   -0.0610  102 176 
 RUS  HN ES       1642 22.60                             144   -0.1710  102 176 
 RUS  HZ I        1642 24.08        21.3 0.36            132            102 176 
 PTB  HZ EP       1642  6.68                             132   -0.52 9  148 258 
 PTB  HN ES       1642 27.39                             132   -0.89 9  148 258 
 PTB  HZ I        1642 34.50        30.8 0.36            118            148 258 
 OCA  HZ EP       1642  8.25                             130   -0.17 9  159 353 
 OCA  HN ES       1642 30.60                             130    0.14 9  159 353 
 OCA  HZ I        1642 38.61        81.1 0.22            116            159 353 
 SPBC HZ EP       1642  8.98                             129    0.17 9  164 219 
 SPBC HE ES       1642 31.07                             129   -0.08 9  164 219 
 SPBC HZ I        1642 35.77        58.3 0.32            116            164 219 
 ZAR  HZ EP       1642 12.63                             123    0.04 9  203 292 
 ZAR  HN ES       1642 38.14                             123    0.27 9  203 292 
 ZAR  HZ I        1642 43.06        42.9 0.30            110            203 292 
 NOR  HZ EP     D 1642 16.37                             119    0.37 8  235 234 
 NOR  HE ES       1642 43.20                             119   -0.75 8  235 234 
 NOR  HZ I        1642 51.62        18.6 0.24            107            235 234 
 SML  HZ EP       1642 16.06                             118   -0.64 8  242 335 
 SML  HE ES       1642 45.03                             118   -0.16 8  242 335 
 SML  HZ I        1642 52.76        34.4 0.24            106            242 335 
 CHI  HZ EP       1642 18.38                             117    0.33 8  250 195 
 CHI  HN ES       1642 47.26                             117   -0.33 8  250 195 
 CHI  HZ I        1642 51.14        26.4 0.62            106            250 195 
 HEL  HZ EP       1642 21.86                             115    1.43 8  272 256 
 HEL  HE ES       1642 51.25                             115   -0.57 8  272 256 
 HEL  HZ I        1642 58.54        16.4 0.38            103            272 256 
 SOCV BZ EP     C 1642 21.70                             112   -1.51 7  301  57 
 GUY2CHZ EP       1642 24.30                             112    0.43 7  302 235 
 GUY2CHN ES       1642 57.58                             112   -0.38 7  302 235 
 GUY2CHZ I        1643  6.53        19.0 0.58                           302 235 
 VIL  SZ EP       1642 23.99                             112    0.22 7  305 191 
 VIL  SZ I        1643  0.79        44.1 0.38            101            305 191 
 DBB  SZ EP       1642 27.43                             110   -0.20 7  339 274 
 DBB  SZ I        1643  7.96        45.3 0.30             99            339 274 
 TOL  SZ EP       1642 29.62                             109    1.08 7  344 224 
 TOL  SN ES       1643  6.54                             109    0.27 7  344 224 
 TOL  SZ I        1643 13.79        15.2 0.30             99            344 224 
 PRA  HZ EP       1642 33.82                             107   -0.02 6  393 209 
 PRA  HN ES       1643 15.57                             107   -0.12 6  393 209 
 PRA  HZ I        1643 22.24        22.4 0.72             96            393 209 
 ORTC HZ EP       1642 34.39                             106    0.17 6  396 216 
 ORTC HN ES       1643 16.70                             106    0.32 6  396 216 
 ORTC HZ I        1643 21.56        13.2 0.22             96            396 216 
 SJC  HZ EP       1642 34.26                             106   -1.35 6  408 327 
 SJC  HN ES   4   1643 15.38                             106   -3.47 0  408 327 
 SJC  HZ I        1643 29.71         7.2 0.72             95            408 327 
 CRJC HZ EP   4   1642 40.60                             103   -1.94 0  466   4 
 CRJC HZ I        1643 29.87        12.4 0.50                           466   4 
                                                                                
