 2014  912 1754  0.9 L   6.058 -73.702111.9  RSN 22 0.5 2.6LRSN                1
 GAP= 75        1.59       2.8     3.3  7.0 -0.2819E+01  0.3425E+01  0.7299E+00E
 Epicentro: VELEZ - SANTANDER                                                  3
      58.0      68.0    -102.0  5.0  5.0 27.0  0.0  0.1           RSN FPFIT    F
 ACTION:UPD 14-10-03 23:04 OP:nd   STATUS:               ID:20140912175400 L   I
 OLDACT:DUP 14-09-13 00:12 OP:stll STATUS:               ID:20140912174821d    3
 2014-09-12-1748-20M.COL___290                                                 6
 STAT SP IPHASW D HRMM SECON CODA AMPLIT PERI AZIMU VELO AIN AR TRES W  DIS CAZ7
 SPBC HZ IP     D 1754 18.17                             149    0.2410 60.8 222 
 SPBC HN ES       1754 31.68                             149    0.4510 60.8 222 
 SPBC HZ I        1754 33.34       155.9 0.22            149           60.8 222 
 RUS  HZ IP     D 1754 19.37                             146    0.2110 70.9 105 
 RUS  HN ES       1754 33.38                             146   -0.0510 70.9 105 
 RUS  HZ I        1754 35.05        83.5 0.28            147           70.9 105 
 BAR2 SZ IP     D 1754 20.19                             141    0.5510 82.4  44 
 BAR2 SZ ES       1754 34.40                             141    0.1210 82.4  44 
 PTB  HZ IP     C 1754 19.94                             135   -0.7510 99.0 303 
 PTB  HN ES       1754 35.18                             135   -0.9610 99.0 303 
 PTB  HZ I        1754 39.24        83.5 0.40            136           99.0 303 
 BRR  HZ IP     C 1754 22.40                             130    0.2110  116 359 
 BRR  HZ I        1754 22.67        69.8 0.14            131            116 359 
 BRR  HN ES       1754 39.52                             130    0.7210  116 359 
 NOR  HZ EP       1754 24.58                             124   -0.05 9  140 247 
 NOR  HN ES       1754 43.10                             124   -0.05 9  140 247 
 NOR  HZ I        1754 46.32        72.4 0.16            125            140 247 
 CHI  HZ EP     D 1754 26.84                             121   -0.07 9  158 181 
 CHI  HE ES       1754 46.97                             121   -0.24 9  158 181 
 CHI  HZ I        1754 50.84        35.1 0.26            122            158 181 
 PAM  SZ EP     C 1754 29.44                             117    0.11 9  180  38 
 PAM  SE ES       1754 51.60                             117    0.09 9  180  38 
 PAM  SZ I        1754 55.12        35.0 0.48            119            180  38 
 HEL  HZ EP       1754 32.11                             114    0.42 9  203 274 
 HEL  HN ES       1754 55.30                             114   -0.41 9  203 274 
 HEL  HZ I        1754 59.41        19.4 0.22            115            203 274 
 ZAR  HZ EP       1754 31.01                             114   -0.32 9  204 321 
 ZAR  HN ES       1754 55.00                             114   -0.08 9  204 321 
 ZAR  HZ I        1754 57.11        90.5 0.26            114            204 321 
 GUY2CHZ EP       1754 32.24                             114    0.05 8  206 243 
 GUY2CHE ES       1754 56.42                             114   -0.19 8  206 243 
 GUY2CHZ I        1755  4.08        22.3 0.46                           206 243 
 VIL  SZ EP       1754 32.70                             112   -0.08 8  215 180 
 VIL  SN ES       1754 57.60                             112   -0.06 8  215 180 
 VIL  SZ I        1755  1.38        71.6 0.30            113            215 180 
 TAM  HZ EP       1754 33.05                             112    0.35 8  216  79 
 TAM  HN ES       1754 55.76                             112   -1.76 8  216  79 
 TAM  HZ I        1754 57.28        30.6 0.22            113            216  79 
 TOL  SZ EP       1754 36.89                             109    0.77 8  242 228 
 TOL  SN ES       1755  3.83                             109    0.22 8  242 228 
 OCA  HZ EP       1754 36.22                             109    0.04 8  245  10 
 OCA  HN ES       1755  4.00                             109    0.28 8  245  10 
 OCA  HZ I        1755 10.78        56.3 0.18            110            245  10 
 ANIL HN ES       1755  6.51                             108    0.16 8  256 227 
 PRA  HZ EP       1754 41.15                             105   -0.23 7  291 207 
 PRA  HN ES       1755 13.04                             105    0.08 7  291 207 
 PRA  HZ I        1755 19.96        30.1 0.26            106            291 207 
 ORTC HZ EP       1754 41.55                             105   -0.09 7  293 216 
 ORTC HN ES       1755 13.22                             105   -0.22 7  293 216 
 ORTC HZ I        1755 19.29        27.1 0.60            106            293 216 
 DBB  SZ EP       1754 41.81                             105   -0.36 7  297 291 
 SML  HZ EP       1754 43.18                             104    0.05 7  306 352 
 SML  HN ES       1755 16.94                             104    0.85 7  306 352 
 SML  HZ I        1755 18.90        56.0 0.24            105            306 352 
 MON  HZ EP   9   1754 49.36                             101   -1.48 0  371 324 
 MON  HN ES       1755 26.49                                   -1.83 6  371 324 
 MON  HZ I        1755 31.77        11.3 0.28            101            371 324 
 SOCV BZ EP   9   1754 55.57                              99    1.28 0  399  52 
 SOCV BN ES       1755 33.07                                   -4.16 6  399  52 
                                                                                
