 2011  412 1546 13.3 L   6.727 -73.069138.5  RSN  5 0.3 2.2LRSN                1
 GAP=189        0.65       6.0     6.6  6.6 -0.2268E+02 -0.5807E+00  0.1881E+01E
 Epicentro: JORDAN - SANTANDER                                                 3
 ACTION:UP  11-06-22 15:30 OP:REBC STATUS:               ID:20110412154613 L   I
 2011-04-12-1540-00M.COL___139                                                 6
 STAT SP IPHASW D HRMM SECON CODA AMPLIT PERI AZIMU VELO SNR AR TRES W  DIS CAZ7
 BAR2 SZ EP   1   1546 32.53                             172     0.5 7   19 220 
 BAR2 SZ ES   1   1546 46.21                             172    -0.4 7   19 220 
 BAR2 SZ I        1546 48.87        45.4 0.23                            19 220 
 PAM  SZ EP   1   1546 35.04                             149     0.2 7   79  31 
 PAM  SE ES   2   1546 51.85                             149     0.2 5   79  31 
 PAM  SZ I        1546 54.84        14.3 0.32                            79  31 
 BRR  HZ IP     C 1546 34.39                             147     0.010   83 301 
 BRR  HZ I        1546 34.85        51.9 0.08                            83 301 
 BRR  HN ES   1   1546 51.12                             147     0.3 7   83 301 
 GRA  SZ EP   1   1546 38.23                             134    -0.2 7  131  13 
 GRA  SZ ES   1   1546 57.73                             134    -0.3 7  131  13 
 GRA  SZ I        1546 59.13        24.3 0.41                           131  13 
 NOR  SZ EP   2   1546 48.56                             116    -0.4 4  237 237 
 NOR  SE ES   2   1547 16.33                             116    -0.3 4  237 237 
                                                                                
