 2013  612 1555  8.9 L   5.987 -73.759104.8  RSN  4 0.3 1.4LRSN                1
 GAP=211        0.67       5.9     4.1  9.9  0.8774E+01  0.9096E+01  0.1807E+02E
 Epicentro: GUAVATA - SANTANDER                                                3
 ACTION:UPD 14-01-08 09:54 OP:ep   STATUS:               ID:20130612155508 L   I
 OLDACT:UP  13-06-12 16:33 OP:cam  STATUS:               ID:20130612154959     3
 OLDACT:UP  13-06-12 16:32 OP:cam  STATUS:               ID:20130612154959     3
 OLDACT:REG 13-06-12 14:48 OP:cam  STATUS:               ID:20130612154959     3
 2013-06-12-1549-59M.COL___261                                                 6
 STAT SP IPHASW D HRMM SECON CODA AMPLIT PERI AZIMU VELO AIN AR TRES W  DIS CAZ7
 RUS  HZ EP       1555 26.86                             142    0.0810 75.5  98 
 RUS  HZ I        1555 27.16         5.6 0.26            146           75.5  98 
 RUS  HN ES   2   1555 40.97                             142    0.20 5 75.5  98 
 BAR2 SZ EP       1555 27.64                             135   -0.1610 92.5  44 
 BAR2 SZ ES   1   1555 42.40                             135   -0.18 7 92.5  44 
 BAR2 SZ I        1555 43.91        10.8 0.18            140           92.5  44 
 PTB  HZ EP       1555 27.69                             133   -0.3310 98.4 308 
 PTB  HN ES   1   1555 43.21                             133    0.25 7 98.4 308 
 PTB  HZ I        1555 45.03         5.2 0.10            137           98.4 308 
 BRR  HZ EP   1   1555 31.11                             126    0.71 7  124   2 
 BRR  HN ES   1   1555 47.11                             126   -0.10 7  124   2 
                                                                                
