 2011  912 1231 56.9 L   6.597 -73.307144.9  RSN  4 0.3 1.6LRSN                1
 GAP=138        0.61       9.4    12.9  7.8  0.1030E+03  0.2881E+02  0.1629E+02E
 Epicentro: GALAN - SANTANDER                                                  3
 ACTION:UPD 12-07-13 15:57 OP:ep   STATUS:               ID:20110912123156 L   I
 2011-09-12-1227-41S.COL___168                                                 6
 STAT SP IPHASW D HRMM SECON CODA AMPLIT PERI AZIMU VELO AIN AR TRES W  DIS CAZ7
 BAR2 SZ EP   2   1232 15.91                             175   -0.36 5 13.8  92 
 BAR2 SZ ES   1   1232 30.95                             175   -0.43 7 13.8  92 
 BAR2 SZ I        1232 32.88        13.8 0.20                          13.8  92 
 BRR  HZ EP   1   1232 18.07                             152    0.07 7 72.0 322 
 BRR  HE ES   1   1232 34.88                             152    0.42 7 72.0 322 
 BRR  HZ I        1232 39.28        11.2 0.45                          72.0 322 
 RUS  HZ EP   1   1232 19.47                             149    0.18 7 81.7 162 
 RUS  HN ES   1   1232 36.86                             149    0.10 7 81.7 162 
 RUS  HZ I        1232 40.06         2.5 0.43                          81.7 162 
 ZAR  HN ES   2   1232 52.87                             123   -0.56 4  198 300 
                                                                                
