 2016 1012 1247 57.2 L   6.789 -73.183145.3  RSN  5 0.3 1.1LRSN                1
 GAP=132        0.83       4.4     4.2  6.1 -0.1733E+01  0.3048E+01  0.1205E+01E
 Epicentro: LOS SANTOS - SANTANDER                                             3
 ACTION:UPD 16-11-09 19:18 OP:rebc STATUS:               ID:20161012124757 L   I
 OLDACT:REG 16-10-12 19:56 OP:edw  STATUS:               ID:20161012124748     3
 2016-10-12-1248-00M.COL___366                                                 6
 STAT SP IPHASW D HRMM SECON CODA AMPLIT PERI AZIMU VELO AIN AR TRES W  DIS CAZ7
 BAR2 EZ EP       1248 16.96                             171    0.2210 21.7 180 
 BAR2 EZ ES       1248 31.83                             171   -0.1610 21.7 180 
 BRR  HZ EP       1248 18.32                             153    0.1910 68.2 301 
 BRR  HN ES       1248 35.03                             153    0.5710 68.2 301 
 PAM  EZ EP       1248 19.46                             150   -0.1210 81.0  41 
 PAM  EN ES       1248 36.71                             150   -0.3410 81.0  41 
 PAM  EZ I        1248 38.43         3.8 0.46            151           81.0  41 
 RUS  HZ EP       1248 21.18                             144    0.3410 99.7 174 
 RUS  HN ES       1248 39.22                             144   -0.0610 99.7 174 
 RUS  HZ I        1248 41.20         1.3 0.24            144           99.7 174 
 PTB  HZ EP       1248 23.37                             133   -0.36 9  143 259 
 PTB  HN ES       1248 44.06                             133   -0.38 9  143 259 
 PTB  HZ I        1248 45.42         1.4 0.16            134            143 259 
                                                                                
