 2013  412 1810  0.8 L   7.479 -73.215133.9  RSN  6 0.4 1.4LRSN                1
 GAP=138        0.94       6.2     5.8 10.5 -0.2883E+01  0.1969E+02 -0.1968E+02E
 Epicentro: EL PLAYON - SANTANDER                                              3
 ACTION:UPD 13-05-22 14:37 OP:EP   STATUS:               ID:20130412181000 L   I
 2013-04-12-1808-48M.COL___218                                                 6
 STAT SP IPHASW D HRMM SECON CODA AMPLIT PERI AZIMU VELO AIN AR TRES W  DIS CAZ7
 GIR2 SZ EP   1   1810 19.39                             161   -0.10 7 44.3 177 
 GIR2 SZ ES   1   1810 33.55                             161   -0.54 7 44.3 177 
 GIR2 SZ I        1810 35.03         6.6 0.42            162           44.3 177 
 PAM  SZ EP       1810 20.71                             155    0.0310 58.9 105 
 PAM  SN ES       1810 36.47                             155    0.2710 58.9 105 
 PAM  SZ I        1810 37.39         4.1 0.28            156           58.9 105 
 BRR  HZ EP       1810 20.84                             151    0.3410 68.6 233 
 BRR  HN ES   1   1810 36.61                             151    0.73 7 68.6 233 
 BAR2 SZ ES   1   1810 39.30                             142   -0.74 7 98.1 178 
 PTB  HE ES   1   1810 51.22                             124   -0.11 7  172 233 
 SML  HE ES   1   1810 51.11                             124   -0.52 7  174 327 
                                                                                
