 2013  812 1853 46.8 L   6.827 -73.206144.0  RSN  4 0.2 1.3LRSN                1
 GAP=128        0.49       2.8     3.2  6.4  0.2818E+00  0.6342E+01  0.1855E+00E
 Epicentro: ZAPATOCA - SANTANDER                                               3
 ACTION:UPD 14-01-14 09:01 OP:ep   STATUS:               ID:20130812185346 L   I
 OLDACT:REG 13-08-12 17:39 OP:jn   STATUS:               ID:20130812184959     3
 2013-08-12-1849-59M.COL___271                                                 6
 STAT SP IPHASW D HRMM SECON CODA AMPLIT PERI AZIMU VELO AIN AR TRES W  DIS CAZ7
 PAM  SE ES   1   1854 26.30                             150    0.06 8 79.6  45 
 PAM  SZ I        1854 28.82         4.1 0.52            158           79.6  45 
 RUS  HZ EP       1854 10.42                             142   -0.2110  104 173 
 RUS  HN ES   1   1854 29.36                             142    0.13 7  104 173 
 RUS  HZ I        1854 33.11         1.1 0.38            148            104 173 
 PTB  HZ EP       1854 13.37                             133    0.29 9  142 257 
 PTB  HN ES       1854 33.47                             133   -0.12 9  142 257 
 PTB  HZ I        1854 40.41         5.2 0.28            137            142 257 
 SML  HN ES   1   1854 50.63                             118   -0.12 6  238 336 
                                                                                
