 2013 1212 1414 28.0 L   5.725 -73.874108.9  RSN  7 0.1 1.5LRSN                1
 GAP= 95        0.36       1.5     1.4  2.7 -0.5773E+00  0.2523E+00 -0.5108E+00E
 Epicentro: ALBANIA - SANTANDER                                                3
 ACTION:UPD 14-01-13 10:17 OP:ep   STATUS:               ID:20131212141428 L   I
 OLDACT:REG 13-12-12 14:48 OP:cma  STATUS:               ID:20131212141000     3
 2013-12-12-1410-00M.COL___285                                                 6
 STAT SP IPHASW D HRMM SECON CODA AMPLIT PERI AZIMU VELO AIN AR TRES W  DIS CAZ7
 SPBC HZ EP       1414 42.88                             167   -0.1410 23.4 250 
 SPBC HN ES       1414 54.62                             167   -0.1010 23.4 250 
 RUS  HZ EP       1414 47.56                             138    0.1310 89.5  78 
 RUS  HN ES       1415  2.64                             138    0.0810 89.5  78 
 RUS  HZ I        1415  4.40         1.9 0.22            139           89.5  78 
 PTB  HZ EP   1   1414 48.51                             131   -0.13 7  111 324 
 PTB  HN ES   4   1415  3.05                             131   -1.66 0  111 324 
 PTB  HZ I        1415  6.07         8.0 0.14            133            111 324 
 NOR  HZ EP       1414 48.83                             131    0.0610  112 261 
 NOR  HN ES       1415  5.15                             131    0.1910  112 261 
 NOR  HZ I        1415  6.24        17.3 0.42            132            112 261 
 CHI  HZ EP       1414 50.29                             128    0.0510  122 173 
 CHI  HN ES       1415  7.47                             128   -0.1010  122 173 
 CHI  HZ I        1415 12.29         4.7 0.30            130            122 173 
 BAR2 SZ ES       1415  7.27                             128    0.0310  123  39 
 BRR  HZ EP       1414 52.76                             121   -0.13 9  154   7 
 BRR  HN ES   4   1415 13.17                             121    0.89 0  154   7 
 BRR  HZ I        1415 16.28        10.3 0.22            122            154   7 
                                                                                
