 2017 1012 1014 18.3 L   6.785 -73.136132.4  RSN  6 0.4 1.4LRSN                1
 GAP=219        1.06       6.4     6.0  7.7  0.2532E+02  0.3835E+01 -0.2655E+01E
 Epicentro: LOS SANTOS - SANTANDER                                             3
 ACTION:UPD 17-11-07 19:31 OP:rebc STATUS:               ID:20171012101418 L   I
 OLDACT:REG 17-10-12 19:58 OP:lv   STATUS:               ID:20171012100747     3
 2017-10-12-1008-00M.COL___420                                                 6
 STAT SP IPHASW D HRMM SECON CODA AMPLIT PERI AZIMU VELO AIN AR TRES W  DIS CAZ7
 BAR2 EZ EP       1014 36.59                             170    0.3310 21.9 194 
 BAR2 EZ ES       1014 49.79                             170   -0.5010 21.9 194 
 BAR2 EZ I        1014 52.39         7.2 0.20            170           21.9 194 
 RUS  HZ EP       1014 40.74                             141    0.1510 98.8 177 
 RUS  HN ES       1014 58.60                             141    0.6010 98.8 177 
 RUS  HZ I        1015  0.41         3.7 0.54            143           98.8 177 
 PTB  HZ EP       1014 43.48                             129   -0.77 9  149 260 
 PTB  HN ES       1015  4.30                             129   -0.22 9  149 260 
 PTB  HZ I        1015  6.81         1.4 0.10            130            149 260 
 YPLC HZ EP       1014 47.02                             124    0.10 9  175 151 
 YPLC HN ES       1015  8.99                             124   -0.28 9  175 151 
 YPLC HZ I        1015 13.46         4.2 0.24            126            175 151 
 ZAR  HZ EP       1014 49.94                             119   -0.12 8  206 292 
 ZAR  HN ES       1015 15.53                             119    0.68 8  206 292 
 ZAR  HZ I        1015 20.64         4.8 0.40            120            206 292 
 CHI  HN ES       1015 23.89                             114    0.04 8  247 196 
                                                                                
