 2015 1012 1517 12.8 L   6.771 -73.128140.7  RSN  6 0.1 1.9LRSN                1
 GAP=140        0.34       1.4     2.2  2.3 -0.1024E+01  0.2055E+00  0.9313E+00E
 Epicentro: LOS SANTOS - SANTANDER                                             3
 ACTION:UPD 15-12-22 20:39 OP:cam  STATUS:               ID:20151012151712 L   I
 OLDACT:REG 15-10-12 21:34 OP:stll STATUS:               ID:20151012150750     3
 2015-10-12-1507-50M.COL___331                                                 6
 STAT SP IPHASW D HRMM SECON CODA AMPLIT PERI AZIMU VELO AIN AR TRES W  DIS CAZ7
 BAR2 EZ EP       1517 31.73                             171   -0.0610 20.7 197 
 BAR2 EZ ES       1517 46.61                             171    0.0210 20.7 197 
 BAR2 EZ I        1517 49.43        19.2 0.26            168           20.7 197 
 BRR  HZ EP       1517 33.53                             150   -0.0910 74.5 300 
 BRR  HN ES       1517 49.97                             150    0.1310 74.5 300 
 BRR  HZ I        1517 50.99        15.4 0.16            150           74.5 300 
 PAM  EZ EP       1517 34.75                             149    0.1710 78.6  37 
 PAM  EZ I        1517 34.88        31.3 0.18            154           78.6  37 
 PAM  EN ES       1517 51.46                             149   -0.0910 78.6  37 
 RUS  HZ EP       1517 35.79                             144   -0.0510 97.3 177 
 RUS  HZ I        1517 36.27         7.1 0.32            143           97.3 177 
 RUS  HN ES       1517 53.77                             144   -0.0210 97.3 177 
 SPBC HZ EP       1517 40.72                             128   -0.10 9  162 220 
 SPBC HN ES       1518  2.57                             128   -0.10 9  162 220 
 SPBC HZ I        1518  8.89        11.8 0.22            128            162 220 
 CHI  HZ EP       1517 50.04                             116    0.07 8  246 196 
 CHI  HN ES       1518 19.14                             116    0.20 8  246 196 
 CHI  HZ I        1518 23.01         4.5 0.78            117            246 196 
                                                                                
