 2012  712 1140 15.3 L   6.815 -73.167140.8  RSN  5 0.3 1.3LRSN                1
 GAP=237        0.74       7.3     6.4  7.1  0.2984E+02  0.4977E+01  0.2006E+01E
 Epicentro: LOS SANTOS - SANTANDER                                             3
 ACTION:UPD 12-08-14 11:44 OP:ep   STATUS:               ID:20120712114015 L   I
 2012-07-12-1140-00M.COL___194                                                 6
 STAT SP IPHASW D HRMM SECON CODA AMPLIT PERI AZIMU VELO AIN AR TRES W  DIS CAZ7
 BAR2 SZ EP       1140 34.33                             170     0.010   25 184 
 BAR2 SZ ES   1   1140 49.60                             170     0.4 7   25 184 
 BAR2 SZ I        1140 51.34         5.8 0.22            177             25 184 
 BRR  HZ EP   1   1140 36.11                             153     0.3 7   68 298 
 BRR  HN ES   1   1140 51.12                             153    -0.6 7   68 298 
 BRR  HZ I        1141  1.27         8.9 0.28            154             68 298 
 RUS  HZ EP       1140 38.59                             142    -0.110  102 175 
 RUS  HN ES   1   1140 57.05                             142     0.1 7  102 175 
 RUS  HZ I        1140 58.88         2.9 0.22            152            102 175 
 PTB  HZ EP       1140 41.58                             131    -0.1 9  146 258 
 PTB  HN ES   1   1141  2.25                             131     0.0 7  146 258 
 PTB  HZ I        1141  4.42         1.5 0.36            137            146 258 
 ZAR  HE ES   1   1141 12.41                             122     0.4 6  201 292 
