 2014  512 1504 37.2 L   6.830 -73.160144.5  RSN  8 0.4 1.9LRSN                1
 GAP=133        1.00       3.2     4.3  7.4 -0.2306E+01  0.1014E+02 -0.1983E+00E
 Epicentro: LOS SANTOS - SANTANDER                                             3
 ACTION:UPD 15-03-16 16:57 OP:nd   STATUS:               ID:20140512150437 L   I
 OLDACT:REG 14-05-12 21:34 OP:carl STATUS:               ID:20140512145807     3
 2014-05-12-1458-07M.COL___239                                                 6
 STAT SP IPHASW D HRMM SECON CODA AMPLIT PERI AZIMU VELO AIN AR TRES W  DIS CAZ7
 PAM  SZ EP       15 4 59.51                             151    0.2710 75.9  42 
 PAM  SN ES       15 5 16.91                             151    0.5210 75.9  42 
 PAM  SZ I        15 5 18.83         7.9 0.20            156           75.9  42 
 RUS  HZ EP       15 5  0.65                             143   -0.4710  104 175 
 RUS  HN ES       15 5 19.31                             143   -0.4310  104 175 
 PTB  HZ EP       15 5  3.62                             132   -0.41 9  147 257 
 PTB  HN ES       15 5 24.61                             132   -0.32 9  147 257 
 PTB  HZ I        15 5 30.59         9.2 0.40            133            147 257 
 SPBC HZ EP       15 5  5.68                             128   -0.12 9  165 218 
 SPBC HE ES       15 5 28.18                             128    0.11 9  165 218 
 SPBC HZ I        15 5 32.73         9.6 0.28            130            165 218 
 ZAR  HE ES       15 5 34.76                             122    0.40 9  201 291 
 ZAR  HZ I        15 5 41.15         7.2 0.48            124            201 291 
 NOR  HZ EP       15 5 12.85                             118   -0.12 8  235 234 
 NOR  HE ES       15 5 41.19                             118    0.35 8  235 234 
 NOR  HZ I        15 5 44.35         4.7 0.28            120            235 234 
 SML  HZ EP       15 5 13.62                             117    0.22 8  240 335 
 SML  HN ES       15 5 41.03                             117   -0.58 8  240 335 
 PRA  HZ EP       15 5 31.28                             106    0.32 6  394 209 
 PRA  HN ES       15 6 14.11                             106    1.24 6  394 209 
 PRA  HZ I        15 6 20.94         2.9 0.56            108            394 209 
                                                                                
