 2015  912 1136  5.8 L   6.753 -73.121143.2  RSN  6 0.4 1.5LRSN                1
 GAP=236        1.09       6.4     6.6  7.8  0.1213E+02  0.5817E+01  0.4680E+01E
 Epicentro: LOS SANTOS - SANTANDER                                             3
 ACTION:UPD 15-10-28 16:25 OP:cam  STATUS:               ID:20150912113605 L   I
 OLDACT:DUP 15-09-12 23:50 OP:stll STATUS:               ID:20150912112750d    3
 OLDACT:REG 15-09-12 21:41 OP:stll STATUS:               ID:20150912112749     3
 2015-09-12-1127-49M.COL___323                                                 6
 STAT SP IPHASW D HRMM SECON CODA AMPLIT PERI AZIMU VELO AIN AR TRES W  DIS CAZ7
 BAR2 EZ EP       1136 25.00                             172   -0.0910 19.0 201 
 BAR2 EZ ES       1136 39.91                             172   -0.1910 19.0 201 
 BAR2 EZ I        1136 42.98         5.6 0.18            169           19.0 201 
 BRR  HZ EP       1136 27.04                             150    0.0310 76.1 301 
 BRR  HN ES       1136 43.79                             150    0.2710 76.1 301 
 BRR  HZ I        1136 47.82         9.6 0.34            148           76.1 301 
 RUS  HZ EP       1136 29.08                             145    0.1210 95.2 177 
 RUS  HZ I        1136 29.53         2.2 0.24            147           95.2 177 
 PTB  HZ EP       1136 31.90                             131   -0.87 9  150 261 
 PTB  HE ES       1136 54.00                             131    0.23 9  150 261 
 PTB  HZ I        1136 58.76         4.6 0.32            131            150 261 
 SPBC HZ EP       1136 33.88                             129   -0.06 9  161 221 
 SPBC HN ES       1136 56.05                             129    0.20 9  161 221 
 SPBC HZ I        1136 59.60         6.4 0.12            130            161 221 
 ZAR  HZ EP       1136 39.58                             121    0.98 8  209 293 
 ZAR  HN ES       1137  3.55                             121   -0.59 8  209 293 
 ZAR  HZ I        1137 11.40         3.3 0.42            122            209 293 
                                                                                
