 2011 1012 1236 42.2 L   6.321 -73.792 25.3  RSN  5 0.3 1.6LRSN                1
 GAP=145        0.65       2.5     2.8  6.4  0.1415E+01  0.3713E+01 -0.1315E+01E
 Epicentro: LANDAZURI - SANTANDER                                              3
 ACTION:UPD 12-07-13 16:03 OP:ep   STATUS:               ID:20111012123642 L   I
 2011-10-12-1234-32S.COL___167                                                 6
 STAT SP IPHASW D HRMM SECON CODA AMPLIT PERI AZIMU VELO AIN AR TRES W  DIS CAZ7
 BAR2 SZ IP       1236 54.65                              92   -0.0510 73.7  66 
 BAR2 SZ ES   2   1237  4.07                              92   -0.36 5 73.7  66 
 BAR2 SZ I        1237  7.69        14.9 0.30                          73.7  66 
 BRR  HZ EP       1236 56.28                              91   -0.0910 87.3   6 
 BRR  HN ES   1   1237  7.54                              91    0.12 7 87.3   6 
 BRR  HZ I        1237  8.60        22.2 0.10                          87.3   6 
 RUS  HZ EP       1236 57.67                              91    0.1410 91.6 121 
 RUS  HN ES   1   1237  9.31                              91   -0.17 7 91.6 121 
 PAM  SZ EP       1237  7.45                              61    0.59 9  165  47 
 PAM  SN ES   1   1237 25.73                              61   -0.36 7  165  47 
 HEL  HZ EP       1237  9.93                              61   -0.26 9  193 266 
 HEL  HZ I        1237 33.47         5.0 0.56                           193 266 
                                                                                
