 2011  312 1816 15.3 L   7.234 -73.594 97.7  RSN  5 0.5 1.8LRSN                1
 GAP=158        1.09       4.2    16.4 17.4 -0.1211E+02  0.1496E+03 -0.7167E+00E
 Epicentro: SABANA DE TORRES - SANTANDER                                       3
 ACTION:UP  11-06-16 14:33 OP:jfem STATUS:               ID:20110312181615 L   I
 2011-03-12-1814-27S.COL___135                                                 6
 STAT SP IPHASW D HRMM SECON CODA AMPLIT PERI AZIMU VELO SNR AR TRES W  DIS CAZ7
 BAR2 SZ EP       1816 32.86                             135     0.010   84 147 
 BAR2 SZ ES   1   1816 47.06                             135     0.4 7   84 147 
 BAR2 SZ I        1816 48.16        32.4 0.17                            84 147 
 GRA  SZ EP       1816 36.08                             126     0.710  113  50 
 GRA  SZ ES   1   1816 51.02                             126    -0.1 7  113  50 
 GRA  SZ I        1816 52.72        16.8 0.26                           113  50 
 OCA  SZ EP   1   1816 35.29                             126    -0.3 7  115  15 
 OCA  SZ ES   1   1816 51.00                             126    -0.5 7  115  15 
 OCA  SZ I        1816 55.37        13.5 0.31                           115  15 
 RUS  HZ EP       1816 40.47                             117    -0.1 9  159 159 
 RUS  HN ES   1   1816 59.75                             117    -0.7 7  159 159 
 RUS  HZ I        1817  3.17         3.6 0.29                           159 159 
 NOR  SN ES   3   1817 15.79                             108     1.4 2  232 218 
                                                                                
