 2011  512 1217  3.3 L   7.214 -73.337 27.4  RSN  9 0.3 1.7LRSN                1
 GAP=107        0.74       2.1     2.6  3.6 -0.1659E+01 -0.1939E+01 -0.2310E+01E
 Epicentro: LEBRIJA - SANTANDER                                                3
 ACTION:UP  11-06-29 08:52 OP:tino STATUS:               ID:20110512121703 L   I
 2011-05-12-1216-15S.COL___129                                                 6
 STAT SP IPHASW D HRMM SECON CODA AMPLIT PERI AZIMU VELO SNR AR TRES W  DIS CAZ7
 GIR2 SZ EP       1217  9.54                             138     0.510   22 133 
 BTL  SZ IP       1217 10.60                             125     0.110   34 167 
 BRR  HZ EP       1217 11.08                             115    -0.310   43 254 
 BRR  HN ES   1   1217 17.73                             115     0.1 7   43 254 
 BRR  HZ I        1217 18.53        40.9 0.13                            43 254 
 BAR2 SZ IP       1217 15.16                             101    -0.210   71 166 
 BAR2 SZ ES   1   1217 24.34                             101    -0.5 7   71 166 
 BAR2 SZ I        1217 25.43        21.7 0.18                            71 166 
 PAM  SZ EP       1217 15.86                             101     0.010   72  79 
 PAM  SN ES   3   1217 24.79                             101    -0.8 2   72  79 
 BRI  SZ EP       1217 16.88                              97     0.010   82  47 
 BRI  SZ ES   1   1217 27.09                              97    -0.3 7   82  47 
 GRA  SZ EP       1217 18.42                              61    -0.210   95  38 
 GRA  SZ ES   1   1217 30.79                              61     0.2 7   95  38 
 GRA  SZ I        1217 31.70        27.6 0.43                            95  38 
 OCA  SZ EP   3   1217 20.84                              61    -0.1 2  113   1 
 OCA  SZ ES   2   1217 34.74                              61     0.0 5  113   1 
 OCA  SZ I        1217 38.66        17.9 0.30                           113   1 
 RUS  HZ EP       1217 26.21                              61     0.4 9  149 169 
 RUS  HN ES   2   1217 43.10                              61    -0.2 5  149 169 
 RUS  HZ I        1217 46.24         7.8 0.25                           149 169 
                                                                                
