 2011  712 1237 29.7 L   6.768 -73.108149.7  RSN 12 0.3 2.4LRSN                1
 GAP=129        0.59       3.0     3.6  4.0 -0.3388E+01  0.2423E+01  0.8082E+00E
 Epicentro: LOS SANTOS - SANTANDER                                             3
 ACTION:UPD 12-07-25 14:00 OP:epov STATUS:               ID:20110712123729 L   I
 2011-07-12-1235-54S.COL___142                                                 6
 STAT SP IPHASW D HRMM SECON CODA AMPLIT PERI AZIMU VELO AIN AR TRES W  DIS CAZ7
 BAR2 SZ IP     C 1237 49.75                             172   -0.0310 21.0 203 
 BAR2 SZ ES   1   1238  4.90                             172   -0.53 7 21.0 203 
 BAR2 SZ I        1238  7.67        68.4 0.28                          21.0 203 
 BRR  HZ EP       1237 51.60                             151    0.0010 76.5 299 
 BRR  HN ES   1   1238  8.84                             151    0.17 7 76.5 299 
 BRR  HZ I        1238 11.00        39.5 0.13                          76.5 299 
 RUS  HZ EP   1   1237 53.26                             146   -0.34 7 96.8 178 
 RUS  HN ES   1   1238 12.52                             146    0.30 7 96.8 178 
 RUS  HZ I        1238 13.71        24.9 0.25                          96.8 178 
 BRI  SZ EP   1   1237 54.27                             142    0.13 7  110  18 
 BRI  SZ ES   1   1238 13.58                             142    0.39 7  110  18 
 BRI  SZ I        1238 18.18        21.0 0.42                           110  18 
 OCA  SZ EP   1   1237 58.67                             130   -0.05 7  164 352 
 OCA  SZ I        1238 24.98        18.9 0.30                           164 352 
 NOR  SZ EP   1   1238  5.69                             119   -0.13 6  236 236 
 NOR  SN ES   1   1238 33.54                             119   -0.44 6  236 236 
 CHI  HZ EP   1   1238  7.93                             118    0.54 6  246 196 
 CHI  HZ I        1238 42.78         9.9 0.28                           246 196 
 HEL  HZ EP   1   1238 10.64                             115    0.16 6  275 257 
 HEL  HN ES   1   1238 42.30                             115    0.02 6  275 257 
 HEL  HZ I        1238 50.04        26.1 0.32                           275 257 
 DBB  SZ EP   1   1238 17.81                             110   -0.05 5  344 275 
 SDV  BZ EP   1   1238 19.00                             109   -0.81 5  360  49 
 PRA  HZ EP   1   1238 23.59                             107    0.33 4  391 210 
 PRA  HZ I        1239 11.75        28.9 0.58                           391 210 
 SJA  SZ EP   1   1238 24.59                             107    0.48 4  398 194 
                                                                                
