 2010 1212 1537 15.0 L   6.797 -73.156142.6  RSN  7 0.3 1.7LRSN                1
 GAP=157        0.70       4.1    10.7  8.7 -0.2356E+02  0.2548E+02 -0.8867E+01E
 Epicentro: LOS SANTOS - SANTANDER                                             3
 ACTION:UP  11-01-14 15:24 OP:pat  STATUS:               ID:20101212153715 L   I
 2010-12-12-1534-49S.COL___136                                                 6
 STAT SP IPHASW D HRMM SECON CODA AMPLIT PERI AZIMU VELO SNR AR TRES W  DIS CAZ7
 BAR2 SZ EP       1537 34.46                             170     0.310   23 188 
 BAR2 SZ ES   2   1537 49.70                             170     0.5 5   23 188 
 BAR2 SZ I        1537 51.21        23.4 0.43                            23 188 
 GIR2 SZ ES   3   1537 49.64                             167     0.3 2   31 353 
 RUS  HZ EP       1537 38.34                             143     0.010  100 175 
 RUS  HN ES   2   1537 56.31                             143    -0.3 5  100 175 
 RUS  HZ I        1537 58.28         6.4 0.27                           100 175 
 GRA  SZ EP       1537 40.26                             136     0.310  126  18 
 GRA  SZ ES   1   1537 58.93                             136    -0.6 7  126  18 
 GRA  SZ I        1538  2.73         6.7 0.24                           126  18 
 OCA  SZ EP       1537 42.93                             129    -0.1 9  160 354 
 OCA  SZ I        1538  8.17         5.8 0.12                           160 354 
 NOR  SN ES   2   1538 17.86                             118    -0.2 4  234 234 
 CHI  HZ EP   3   1537 52.49                             116     0.1 2  248 195 
 CHI  HN ES   2   1538 20.98                             116    -0.7 4  248 195 
 CHI  HZ I        1538 30.50         3.1 0.72                           248 195 
                                                                                
