 2017  112 1823 37.8 L   6.777 -73.110144.2  RSN  9 0.4 1.7LRSN                1
 GAP=142        0.89       3.3     3.6  5.1 -0.4893E+00  0.5812E+01  0.3773E+01E
 Epicentro: LOS SANTOS - SANTANDER                                             3
 ACTION:UPD 17-05-22 15:58 OP:jn   STATUS:               ID:20170112182337 L   I
 OLDACT:REG 17-01-12 20:48 OP:cara STATUS:               ID:20170112181744     3
 2017-01-12-1818-00M.COL___336                                                 6
 STAT SP IPHASW D HRMM SECON CODA AMPLIT PERI AZIMU VELO AIN AR TRES W  DIS CAZ7
 BAR2 EZ IP       1823 57.31                             171    0.1010 21.9 201 
 BAR2 EZ ES       1824 11.94                             171   -0.4210 21.9 201 
 BAR2 EZ I        1824 14.74        13.2 0.30            168           21.9 201 
 BRR  HZ EP       1823 59.42                             151    0.3710 75.9 299 
 BRR  HN ES       1824 15.97                             151    0.3410 75.9 299 
 PAM  EZ EP       1824  0.06                             151    0.2410 77.0  36 
 PAM  EN ES       1824 16.69                             151   -0.3210 77.0  36 
 PAM  EZ I        1824 18.56         3.8 0.32            156           77.0  36 
 RUS  HZ EP       1824  1.22                             144    0.0210 97.8 178 
 RUS  HN ES       1824 19.84                             144    0.3910 97.8 178 
 RUS  HZ I        1824 22.88         3.8 0.24            145           97.8 178 
 PTB  HZ EP       1824  4.31                             131   -0.64 9  151 260 
 PTB  HN ES       1824 25.68                             131   -0.46 9  151 260 
 PTB  HZ I        1824 32.42        12.0 0.40            132            151 260 
 ZAR  HZ EP       1824 10.59                             121   -0.03 8  209 292 
 ZAR  HE ES       1824 36.71                             121    0.48 8  209 292 
 ZAR  HZ I        1824 41.60         8.9 0.36            123            209 292 
 NOR  HZ EP       1824 13.40                             118   -0.23 8  236 236 
 NOR  HN ES       1824 41.22                             118   -0.36 8  236 236 
 NOR  HZ I        1824 44.98         6.3 0.20            119            236 236 
 CHI  HZ EP       1824 14.83                             117   -0.43 8  247 196 
 CHI  HN ES       1824 44.91                             117    0.44 8  247 196 
 CHI  HZ I        1824 50.20         2.4 0.38            119            247 196 
 GUY2CHZ EP       1824 21.77                             112    0.23 7  303 236 
 GUY2CHN ES       1824 55.98                             112    0.33 7  303 236 
 GUY2CHZ  IAML    1825  4.13         5.6 0.74                           303 236 
                                                                                
