 2011 1212 1516 56.5 L   6.754 -73.086144.0  RSN 11 0.4 2.3LRSN                1
 GAP=146        0.52       3.4     4.1  4.6 -0.4766E+01  0.3467E+01  0.1861E+01E
 Epicentro: LOS SANTOS - SANTANDER                                             3
 ACTION:UPD 12-07-13 16:15 OP:ep   STATUS:               ID:20111212151656 L   I
 2011-12-12-1510-00M.COL___185                                                 6
 STAT SP IPHASW D HRMM SECON CODA AMPLIT PERI AZIMU VELO AIN AR TRES W  DIS CAZ7
 BAR2 SZ IP     C 1517 15.79                             171   -0.0810 20.8 211 
 BAR2 SZ I        1517 16.16        58.2 0.09                          20.8 211 
 BAR2 SZ ES   2   1517 30.62                             171   -0.35 5 20.8 211 
 GIR2 SZ EP       1517 15.93                             165   -0.2210 37.8 342 
 GIR2 SZ ES   2   1517 32.15                             165    0.66 5 37.8 342 
 PAM  SZ EP   2   1517 18.60                             151    0.07 5 77.5  33 
 PAM  SE ES   2   1517 36.00                             151    0.28 5 77.5  33 
 BRR  HZ EP       1517 17.71                             150   -0.2310 79.4 299 
 BRR  HE ES   1   1517 34.92                             150    0.25 7 79.4 299 
 BRR  HZ I        1517 37.58        54.5 0.14                          79.4 299 
 RUS  HZ EP   2   1517 19.68                             145   -0.01 5 95.3 180 
 RUS  HN ES   2   1517 38.18                             145    0.39 5 95.3 180 
 RUS  HZ I        1517 39.46        11.9 0.33                          95.3 180 
 PTB  HZ EP   2   1517 23.04                             131   -0.80 5  153 261 
 PTB  HN ES   2   1517 44.81                             131   -0.35 5  153 261 
 OCA  SZ EP   1   1517 25.37                             128    0.14 7  166 351 
 OCA  SZ ES   2   1517 47.81                             128    0.16 5  166 351 
 OCA  SZ I        1517 53.62        21.9 0.28                           166 351 
 NOR  SZ EP   2   1517 32.26                             118   -0.14 4  237 236 
 NOR  SE ES   2   1518  0.66                             118    0.26 4  237 236 
 HEL  HZ EP   2   1517 37.88                             114    0.68 4  277 257 
 HEL  HZ I        1518 15.33         8.4 0.38                           277 257 
 GUY  SZ EP   2   1517 41.32                             112    0.74 4  306 237 
 GUY  SE ES   2   1518 14.97                             112    0.00 4  306 237 
 GUY  SZ I        1518 22.19        16.6 0.43                           306 237 
 RREF HZ EP   2   1517 43.31                             111    0.54 3  324 231 
 RREF HN ES   2   1518 18.96                             111    0.10 3  324 231 
 RREF HZ I        1518 28.28        15.4 0.27                           324 231 
                                                                                
