 2012  412 1910 58.7 L   6.776 -73.136150.1  RSN  7 0.3 2.4LRSN                1
 GAP=156        0.78       6.0     4.6  6.6 -0.1049E+02  0.5286E+01 -0.1430E+01E
 Epicentro: LOS SANTOS - SANTANDER                                             3
 ACTION:UPD 12-07-05 11:52 OP:tino STATUS:               ID:20120412191058 L   I
 2012-04-12-1910-00M.COL___181                                                 6
 STAT SP IPHASW D HRMM SECON CODA AMPLIT PERI AZIMU VELO AIN AR TRES W  DIS CAZ7
 BAR2 SZ EP       1911 18.69                             172    -0.110   21 194 
 BAR2 SZ ES   1   1911 34.62                             172     0.1 7   21 194 
 BAR2 SZ I        1911 36.76        40.0 0.29                            21 194 
 BRR  HZ EP       1911 20.63                             152     0.210   73 300 
 BRR  HE ES   1   1911 37.92                             152     0.5 7   73 300 
 BRR  HZ I        1911 40.89        52.4 0.13                            73 300 
 PAM  SZ EP       1911 21.50                             151     0.010   79  38 
 PAM  SE ES   1   1911 38.92                             151    -0.3 7   79  38 
 PTB  HN ES   1   1911 46.55                             133    -0.9 7  148 260 
 PTB  HZ I        1911 52.69        33.3 0.17                           148 260 
 OCA  SZ EP   1   1911 27.42                             130    -0.2 7  163 353 
 ZAR  HZ EP   1   1911 31.53                             123    -0.1 6  206 293 
 ZAR  HE ES   1   1911 57.46                             123     0.1 6  206 293 
 ZAR  HZ I        1912  2.57        21.2 0.25                           206 293 
 NOR  SZ EP   1   1911 34.98                             119     0.4 6  234 235 
 NOR  SE ES   1   1912  2.75                             119     0.1 6  234 235 
                                                                                
