 2017 1112 1915  2.6 L   6.797 -73.084144.0  RSN  5 0.3 1.3LRSN                1
 GAP=145        1.04       5.4     7.4  7.9 -0.2242E+01 -0.1426E+02  0.1126E+01E
 Epicentro: LOS SANTOS - SANTANDER                                             3
 ACTION:UPD 17-12-12 19:54 OP:rebc STATUS:               ID:20171112191502 L   I
 OLDACT:REG 17-11-12 22:01 OP:mg   STATUS:               ID:20171112190743     3
 2017-11-12-1908-00M.COL___447                                                 6
 STAT SP IPHASW D HRMM SECON CODA AMPLIT PERI AZIMU VELO AIN AR TRES W  DIS CAZ7
 BAR2 EZ EP       1915 21.44                             170   -0.6210 25.2 206 
 BAR2 EZ ES       1915 37.23                             170   -0.0110 25.2 206 
 PAM  EZ EP       1915 24.79                             151    0.3910 73.5  35 
 PAM  EN ES       1915 41.24                             151   -0.1610 73.5  35 
 PAM  EZ I        1915 43.72         3.5 0.52            153           73.5  35 
 BRR  HZ EP       1915 23.72                             150   -0.2110 77.4 296 
 BRR  HN ES       1915 40.79                             150    0.2310 77.4 296 
 BRR  HZ I        1915 42.37         8.4 0.38            152           77.4 296 
 RUS  HZ EP       1915 26.44                             143    0.2910  100 180 
 RUS  HN ES       1915 44.59                             143    0.0910  100 180 
 RUS  HZ I        1915 46.39         2.7 0.30            145            100 180 
 PTB  HZ EP   9   1915 28.87                             130   -1.18 0  154 259 
 PTB  HN ES       1915 49.43                                   -0.84 9  154 259 
 PTB  HZ I        1915 52.31         1.4 0.20            132            154 259 
                                                                                
