 2016  712 2332  8.2 L   6.798 -73.090143.7  RSN 14 0.4 2.3LRSN                1
 GAP=123        0.93       3.4     3.1  4.6 -0.3848E+01  0.2742E+01  0.4476E+00E
 Epicentro: LOS SANTOS - SANTANDER                                             3
 ACTION:UPD 17-03-29 16:50 OP:lp   STATUS:               ID:20160712233208 L   I
 OLDACT:UP  16-07-13 05:14 OP:drio STATUS:               ID:20160712232759     3
 OLDACT:UP  16-07-13 05:13 OP:drio STATUS:               ID:20160712232759     3
 OLDACT:REG 16-07-13 03:47 OP:drio STATUS:               ID:20160712232759     3
 2016-07-12-2327-59S.COL___331                                                 6
 STAT SP IPHASW D HRMM SECON CODA AMPLIT PERI AZIMU VELO AIN AR TRES W  DIS CAZ7
 BAR2 EZ EP       2332 27.68                             170    0.0410 24.9 204 
 BAR2 EZ ES       2332 42.24                             170   -0.5510 24.9 204 
 BAR2 EZ I        2332 43.76        66.6 0.20            167           24.9 204 
 PAM  EZ EP       2332 30.51                             151    0.5010 73.8  36 
 PAM  HE ES       2332 47.62                             151    0.6210 73.8  36 
 PAM  EZ I        2332 49.77        91.2 0.58            155           73.8  36 
 BRR  HZ EP       2332 29.56                             150    0.0810 76.8 297 
 BRR  HE ES       2332 46.49                             150    0.4310 76.8 297 
 BRR  HZ I        2332 50.63        42.8 0.12            147           76.8 297 
 RUS  HZ EP       2332 31.80                             144    0.0610  100 180 
 RUS  HE ES       2332 49.88                             144   -0.2010  100 180 
 RUS  HZ I        2332 50.94        14.3 0.26            145            100 180 
 PTB  HZ EP   4   2332 34.29                             130   -1.29 0  154 259 
 PTB  HN ES   4   2332 55.10                             130   -1.81 0  154 259 
 PTB  HZ I        2332 57.59        37.7 0.14            129            154 259 
 SPBC HZ EP       2332 36.68                             128   -0.24 9  167 221 
 SPBC HN ES       2332 59.09                             128   -0.22 9  167 221 
 SPBC HZ I        2333  8.58        17.1 0.14            128            167 221 
 ZAR  HZ EP       2332 41.29                             121    0.15 8  210 292 
 ZAR  HN ES       2333  6.58                             121   -0.23 8  210 292 
 ZAR  HZ I        2333 14.47        28.8 0.44            121            210 292 
 NOR  HZ EP       2332 44.35                             118   -0.01 8  240 235 
 NOR  HE ES       2333 12.15                             118   -0.40 8  240 235 
 NOR  HZ I        2333 18.03        12.5 0.18            118            240 235 
 HEL  HZ EP       2332 49.28                             114    0.29 7  278 256 
 HEL  HE ES       2333 20.71                             114   -0.08 7  278 256 
 HEL  HZ I        2333 26.63        10.6 0.32            114            278 256 
 SOCV BZ EP       2332 50.46                             112   -0.15 7  296  56 
 SOCV BE ES       2333 22.80                             112   -0.87 7  296  56 
 GUY2CHZ EP   4   2332 53.54                             112    1.25 0  306 235 
 GUY2CHE ES   4   2333 28.90                             112    2.23 0  306 235 
 GUY2CHZ I        2333 35.20         8.1 0.74                           306 235 
 CBOC HZ EP       2332 56.00                             109    0.28 7  339 252 
 CBOC HN ES       2333 31.96                             109   -0.81 7  339 252 
 CBOC HZ I        2333 47.04         4.3 0.26            109            339 252 
 PRA  HZ EP       2333  2.11                             106    0.10 6  395 210 
 PRA  HN ES       2333 44.91                             106    0.95 6  395 210 
 PRA  HZ I        2333 48.27         7.7 0.28            107            395 210 
 SJC  HZ EP   4   2333  1.61                             105   -2.53 0  413 326 
 SJC  HE ES   4   2333 43.94                             105   -3.82 0  413 326 
 SJC  HZ I        2333 47.69         8.0 0.46            106            413 326 
                                                                                
