 2010  612 2341 56.7 L   6.770 -72.997140.5  RSN  6 0.3 1.9LRSN                1
 GAP=176        0.49       4.0    13.5  6.4 -0.4101E+02  0.2014E+01 -0.2987E+01E
 Epicentro: CEPITA - SANTANDER                                                 3
 ACTION:UP  10-08-24 10:10 OP:vdl  STATUS:               ID:20100612234156 L   I
 2010-06-12-2338-50S.COL___117                                                 6
 STAT SP IPHASW D HRMM SECON CODA AMPLIT PERI AZIMU VELO SNR AR TRES W  DIS CAZ7
 BAR2 SZ EP       2342 15.66                             168    -0.210   29 226 
 BAR2 SZ ES   2   2342 30.29                             168    -0.4 5   29 226 
 RUS  HZ EP       2342 19.84                             143     0.110   98 186 
 RUS  HN ES   2   2342 37.98                             143     0.3 5   98 186 
 RUS  HZ I        2342 40.08        10.0 0.29                            98 186 
 GUE  SZ EP       2342 21.05                             138     0.010  117   4 
 GRA  SZ EP       2342 21.44                             136     0.010  125  10 
 GRA  SZ ES   2   2342 40.79                             136     0.1 5  125  10 
 CHI  HZ EP   2   2342 33.69                             116    -0.6 4  250 199 
 CHI  HE ES   3   2343  3.07                             116    -0.6 2  250 199 
 CHI  HZ I        2343 12.63         3.7 0.41                           250 199 
 ROSC BZ EP   3   2342 35.18                             115     0.0 2  259 215 
 ROSC BN ES   2   2343  5.82                             115     0.6 4  259 215 
 ROSC BZ I        2343  9.09         8.2 0.42                           259 215 
                                                                                
