 2012  512 2335 46.5 L   6.749 -73.187148.7  RSN  4 0.2 1.6LRSN                1
 GAP=229        0.63       6.3     6.2  6.5  0.1828E+02  0.2603E+01 -0.2142E+01E
 Epicentro: VILLANUEVA - SANTANDER                                             3
 ACTION:UP  12-07-05 12:04 OP:pat  STATUS:               ID:20120512233546 L   I
 2012-05-12-2330-00M.COL___195                                                 6
 STAT SP IPHASW D HRMM SECON CODA AMPLIT PERI AZIMU VELO SNR AR TRES W  DIS CAZ7
 BAR2 SZ EP   1   2336  6.26                             173    -0.2 7   17 178 
 BAR2 SZ ES   1   2336 21.53                             173    -0.4 7   17 178 
 BAR2 SZ I        2336 22.76        13.9 0.22                            17 178 
 BRR  HZ EP       2336  8.15                             153     0.210   70 304 
 BRR  HE ES   1   2336 24.88                             153     0.2 7   70 304 
 BRR  HZ I        2336 27.81        10.7 0.32                            70 304 
 RUS  HZ EP   1   2336 10.12                             146    -0.1 7   95 173 
 RUS  HN ES   1   2336 29.05                             146     0.4 7   95 173 
 RUS  HZ I        2336 30.90         2.5 0.28                            95 173 
 PTB  HZ EP   1   2336 13.13                             134    -0.1 7  142 261 
 PTB  HN ES   1   2336 33.98                             134    -0.1 7  142 261 
 PTB  HZ I        2336 39.90         6.4 0.41                           142 261 
                                                                                
