 2012  112 2026 25.9 L   6.771 -73.177140.0  RSN  9 0.4 1.9LRSN                1
 GAP=134        0.98       4.7     5.9  8.0 -0.4490E+01  0.1485E+01  0.1121E+02E
 Epicentro: LOS SANTOS - SANTANDER                                             3
 ACTION:UP  12-02-03 08:16 OP:REBC STATUS:               ID:20120112202625 L   I
 2012-01-12-2020-00M.COL___187                                                 6
 STAT SP IPHASW D HRMM SECON CODA AMPLIT PERI AZIMU VELO SNR AR TRES W  DIS CAZ7
 BAR2 SZ EP       2026 44.75                             172     0.010   20 182 
 BAR2 SZ ES   2   2026 59.25                             172    -0.3 5   20 182 
 BAR2 SZ I        2027  1.00        18.8 0.36                            20 182 
 GIR2 SZ EP   2   2026 44.92                             166    -0.1 5   34 357 
 GIR2 SZ ES   2   2026 59.44                             166    -0.4 5   34 357 
 BRR  HZ EP       2026 46.49                             152     0.110   70 302 
 BRR  HE ES   1   2027  3.05                             152     0.7 7   70 302 
 BRR  HZ I        2027  4.29        36.1 0.40                            70 302 
 PAM  SZ EP       2026 47.63                             148    -0.210   82  40 
 PAM  SN ES   1   2027  4.56                             148    -0.3 7   82  40 
 RUS  HZ EP       2026 48.83                             143    -0.110   98 174 
 RUS  HZ I        2026 49.91         7.4 0.14                            98 174 
 RUS  HN ES   2   2027  7.29                             143     0.5 5   98 174 
 PTB  HZ EP       2026 51.33                             132    -0.7 9  144 260 
 PTB  HN ES   1   2027 12.13                             132    -0.3 7  144 260 
 PTB  HZ I        2027 19.57         8.4 0.46                           144 260 
 OCA  SZ EP   1   2026 54.69                             128     0.6 7  163 354 
 OCA  SZ ES   2   2027 16.90                             128     0.9 5  163 354 
 ZAR  HN ES   3   2027 22.39                             121    -0.3 2  202 293 
 ZAR  HZ I        2027 27.94         8.0 0.22                           202 293 
 CHI  HZ EP       2027  3.00                             116     0.1 8  245 195 
 CHI  HN ES   1   2027 32.45                             116     0.8 6  245 195 
 CHI  HZ I        2027 35.41         4.1 0.26                           245 195 
                                                                                
