 2012  412 2241  4.6 L   6.606 -74.158 24.4  RSN  6 0.4 1.6LRSN                1
 GAP=162        1.11       9.9     5.4  5.2 -0.4368E+02 -0.1468E+02  0.2533E+02E
 Epicentro: PUERTO PARRA - SANTANDER                                           3
 ACTION:UPD 12-07-05 11:53 OP:tino STATUS:               ID:20120412224104 L   I
 2012-04-12-2240-00M.COL___181                                                 6
 STAT SP IPHASW D HRMM SECON CODA AMPLIT PERI AZIMU VELO AIN AR TRES W  DIS CAZ7
 PTB  HZ IP     C 2241 11.32                             123     0.110   34 257 
 PTB  HN ES   1   2241 16.85                             123     0.4 7   34 257 
 PTB  HZ I        2241 17.25        69.2 0.16                            34 257 
 BRR  HZ EP       2241 16.49                             106    -0.310   74  42 
 BRR  HZ I        2241 17.04        35.1 0.10                            74  42 
 BRR  HN ES   1   2241 26.22                             106    -0.2 7   74  42 
 BAR2 SZ EP       2241 21.33                              56    -0.510  108  91 
 BAR2 SZ I        2241 34.87        17.3 0.38                           108  91 
 ZAR  HE ES   3   2241 38.66                              56     0.1 2  125 322 
 ZAR  HZ I        2241 40.77         4.5 0.22                           125 322 
 HEL  HZ EP       2241 28.46                              56     0.1 9  158 253 
 HEL  HE ES   1   2241 46.32                              56    -0.5 7  158 253 
 HEL  HZ I        2241 47.85         8.5 0.16                           158 253 
 PAM  SZ EP       2241 31.59                              56     0.4 9  180  63 
 PAM  SN ES   1   2241 52.94                              56     1.0 7  180  63 
                                                                                
