 2014  812 2234  9.0 L   6.176 -73.677107.9  RSN 20 0.5 2.6LRSN                1
 GAP= 66        1.22       2.2     3.2  5.9 -0.1215E+01  0.7129E+01  0.6556E+00E
 Epicentro: LA PAZ - SANTANDER                                                 3
 ACTION:UPD 14-09-15 21:49 OP:nd   STATUS:               ID:20140812223409 L   I
 OLDACT:REG 14-08-13 02:58 OP:carl STATUS:               ID:20140812222819     3
 2014-08-12-2228-19M.COL___266                                                 6
 STAT SP IPHASW D HRMM SECON CODA AMPLIT PERI AZIMU VELO AIN AR TRES W  DIS CAZ7
 BAR2 SZ IP     D 2234 26.67                             144    0.0810 71.5  50 
 BAR2 SZ ES       2234 40.25                             144   -0.0510 71.5  50 
 SPBC HZ IP     C 2234 26.45                             143   -0.0110 72.6 217 
 SPBC HN ES       2234 40.89                             143    0.8310 72.6 217 
 SPBC HZ I        2234 42.73       108.0 0.26            144           72.6 217 
 RUS  HZ IP     C 2234 26.71                             144   -0.3410 72.8 115 
 RUS  HN ES       2234 41.00                             144   -0.1110 72.8 115 
 PTB  HZ IP     D 2234 27.30                             135   -0.8510 95.1 295 
 PTB  HN ES       2234 42.04                             135   -1.0310 95.1 295 
 PTB  HZ I        2234 45.72        68.6 0.14            135           95.1 295 
 BRR  HZ IP     D 2234 28.77                             133   -0.0610  103 358 
 BRR  HN ES       2234 44.90                             133    0.6310  103 358 
 BRR  HZ I        2234 48.97        46.2 0.14            134            103 358 
 ROSC BZ EP   4   2234 37.49                             119    2.09 0  164 206 
 ROSC BN ES   4   2234 58.59                             119    2.61 0  164 206 
 CHI  HZ EP       2234 35.74                             118   -0.45 9  171 182 
 CHI  HN ES       2234 57.15                             118   -0.24 9  171 182 
 CHI  HZ I        2234 59.37        34.0 0.38            119            171 182 
 ZAR  HZ EP       2234 38.12                             114   -0.24 9  196 318 
 ZAR  HN ES       2235  1.93                             114    0.68 9  196 318 
 ZAR  HZ I        2235  3.39        73.3 0.38            115            196 318 
 HEL  HZ EP       2234 40.22                             113    0.34 9  205 271 
 HEL  HN ES       2235  3.15                             113   -0.80 9  205 271 
 HEL  HZ I        2235  7.61        18.5 0.20            114            205 271 
 GUY2CHZ EP       2234 41.67                             112    0.57 8  215 241 
 GUY2CHN ES       2235  6.00                             112   -0.12 8  215 241 
 GUY2CHZ I        2235 14.05        25.9 0.68                           215 241 
 VIL  SN ES       2235  7.82                             110   -0.30 8  228 180 
 OCA  HZ EP       2234 43.54                             109    0.91 8  232  10 
 OCA  HN ES       2235  9.50                             109    0.65 8  232  10 
 OCA  HZ I        2235 14.76        28.2 0.38            111            232  10 
 RREF HZ EP       2234 43.43                             110    0.07 8  233 233 
 RREF HN ES       2235 10.00                             110   -0.15 8  233 233 
 RREF HZ I        2235 15.55        22.6 0.22            111            233 233 
 TOL  SZ EP       2234 45.37                             107    0.01 8  253 226 
 TOL  SN ES       2235 14.61                             107    0.90 8  253 226 
 TOL  SZ I        2235 18.48        33.9 0.48            109            253 226 
 ANIL HN ES       2235 16.94                             106    0.45 8  267 226 
 URE  HZ EP   4   2234 45.89                             106   -0.93 0  269 310 
 URE  HN ES   4   2235 14.38                             106   -1.93 0  269 310 
 URE  HZ I        2235 17.17        36.7 0.20            107            269 310 
 SML  HZ EP       2234 48.99                             104   -0.69 7  294 352 
 SML  HN ES       2235 21.00                             104   -0.39 7  294 352 
 SML  HZ I        2235 23.14        36.1 0.10            106            294 352 
 DBB  SZ EP       2234 49.85                             104   -0.12 7  295 289 
 DBB  SZ ES       2235 22.11                             104    0.19 7  295 289 
 DBB  SZ I        2235 24.85        57.2 0.42            105            295 289 
 PRA  HZ EP       2234 50.79                             103   -0.12 7  303 206 
 PRA  HE ES       2235 24.15                             103    0.57 7  303 206 
 PRA  HZ I        2235 29.24        28.9 0.36            105            303 206 
 ORTC HZ EP       2234 50.52                             103   -0.58 7  305 215 
 ORTC HN ES       2235 24.28                             103    0.36 7  305 215 
 ORTC HZ I        2235 30.32        12.3 0.68            105            305 215 
 MON  HZ EP   4   2234 55.90                             100   -1.93 0  362 323 
 MON  HN ES   4   2235 34.02                             100   -1.88 0  362 323 
 MON  HZ I        2235 36.29         9.5 0.34            101            362 323 
 MACC HZ EP   4   2235  5.69                              97   -2.32 0  446 182 
 MACC HN ES   4   2235 49.31                              97   -4.71 0  446 182 
                                                                                
