 2012 1012 2055 21.6 L   6.777 -73.101143.8  RSN  4 0.1 1.7LRSN                1
 GAP=143        0.34       2.4     3.5  3.7 -0.1896E+00 -0.8854E+00  0.3203E+00E
 Epicentro: LOS SANTOS - SANTANDER                                             3
 ACTION:UPD 12-11-22 17:03 OP:ep   STATUS:               ID:20121012205521 L   I
 2012-10-12-2050-00M.COL___231                                                 6
 STAT SP IPHASW D HRMM SECON CODA AMPLIT PERI AZIMU VELO AIN AR TRES W  DIS CAZ7
 BAR2 SZ EP   1   2055 40.85                             171   -0.11 7 22.3 204 
 BAR2 SZ ES   1   2055 55.91                             171   -0.17 7 22.3 204 
 BAR2 SZ I        2055 57.10        11.1 0.20                          22.3 204 
 PAM  SZ EP   1   2055 43.67                             151    0.13 7 76.4  35 
 PAM  SN ES   1   2056  0.65                             151   -0.01 7 76.4  35 
 PAM  SN I        2056  1.76         8.7 0.44                          76.4  35 
 BRR  HZ EP   1   2055 42.80                             150   -0.05 7 76.8 298 
 BRR  HN ES   1   2055 59.55                             150    0.11 7 76.8 298 
 BRR  HN I        2056  0.12        18.0 0.28                          76.8 298 
 RUS  HZ EP   1   2055 44.89                             144   -0.06 7 97.8 179 
 RUS  HN ES   1   2056  3.33                             144    0.16 7 97.8 179 
 RUS  HN I        2056  4.16         4.6 0.24                          97.8 179 
                                                                                
