 2014  212 2215 17.1 L   6.805 -73.174144.5  RSN 10 0.4 2.1LRSN                1
 GAP=133        1.02       3.0     4.0  5.6 -0.7123E+00  0.5161E+01  0.1106E+01E
 Epicentro: LOS SANTOS - SANTANDER                                             3
 ACTION:UPD 14-03-10 08:09 OP:ep   STATUS:               ID:20140212221517 L   I
 OLDACT:REG 14-02-12 22:16 OP:nd   STATUS:               ID:20140212221000     3
 2014-02-12-2210-00M.COL___199                                                 6
 STAT SP IPHASW D HRMM SECON CODA AMPLIT PERI AZIMU VELO AIN AR TRES W  DIS CAZ7
 BAR2 SZ EP       2215 36.70                             170    0.0910 23.5 182 
 BAR2 SZ ES       2215 51.71                             170   -0.0910 23.5 182 
 BAR2 SZ I        2215 53.26        51.5 0.32            168           23.5 182 
 BRR  HZ EP       2215 38.54                             153    0.5710 68.2 299 
 BRR  HN ES       2215 55.03                             153    0.8010 68.2 299 
 BRR  HZ I        2215 56.16        21.6 0.12            152           68.2 299 
 PAM  SZ EP       2215 39.62                             150    0.3110 79.0  42 
 PAM  SN ES       2215 56.12                             150   -0.4910 79.0  42 
 PAM  SZ I        2215 58.86        17.5 0.54            155           79.0  42 
 RUS  HZ EP       2215 40.67                             143   -0.1410  101 174 
 RUS  HN ES       2215 59.10                             143   -0.1810  101 174 
 RUS  HZ I        2216  0.50         5.9 0.68            144            101 174 
 PTB  HZ EP       2215 43.54                             132   -0.18 9  145 258 
 PTB  HN ES       2216  4.10                             132   -0.36 9  145 258 
 PTB  HZ I        2216 11.73        13.0 0.16            132            145 258 
 SPBC HZ EP       2215 45.49                             129    0.11 9  162 218 
 SPBC HN ES       2216  7.18                             129   -0.24 9  162 218 
 SPBC HZ I        2216 12.40        16.5 0.40            129            162 218 
 ZAR  HN ES       2216 14.47                             123    0.31 9  201 292 
 NOR  HZ EP       2215 52.80                             118    0.26 8  232 234 
 NOR  HN ES       2216 19.38                             118   -0.78 8  232 234 
 NOR  HZ I        2216 30.07         8.3 0.44            119            232 234 
 SML  HZ EP       2215 52.91                             117   -0.58 8  242 336 
 SML  HN ES       2216 21.45                             117   -0.40 8  242 336 
 SML  HZ I        2216 23.77        13.3 0.36            119            242 336 
 CHI  HZ EP       2215 54.85                             117    0.13 8  248 194 
 CHI  HN ES       2216 24.61                             117    0.56 8  248 194 
 CHI  HZ I        2216 27.77         7.6 0.60            118            248 194 
                                                                                
