 2014  712 2319 45.3 L   6.727 -73.189140.6  RSN  9 0.3 1.5LRSN                1
 GAP=196        0.72       2.7     4.0  5.3  0.3491E+00  0.3365E+01 -0.7935E+00E
 Epicentro: VILLANUEVA - SANTANDER                                             3
 ACTION:UPD 15-03-16 20:43 OP:nd   STATUS:               ID:20140712231945 L   I
 OLDACT:UP  14-07-13 06:48 OP:spq  STATUS:               ID:20140712231817     3
 OLDACT:REG 14-07-13 02:55 OP:spq  STATUS:               ID:20140712231817     3
 2014-07-12-2318-17M.COL___262                                                 6
 STAT SP IPHASW D HRMM SECON CODA AMPLIT PERI AZIMU VELO AIN AR TRES W  DIS CAZ7
 BAR2 SZ EP       2320  4.10                             174   -0.0410 14.9 177 
 BAR2 SZ ES   1   2320 19.26                             174    0.41 7 14.9 177 
 BAR2 SZ I        2320 20.68         9.0 0.20            171           14.9 177 
 BRR  HZ EP       2320  6.13                             152    0.2510 71.4 306 
 BRR  HN ES       2320 22.04                             152    0.0910 71.4 306 
 BRR  HZ I        2320 32.34         7.2 0.36            149           71.4 306 
 RUS  HZ EP   1   2320  8.18                             145    0.21 7 93.0 173 
 RUS  HN ES   1   2320 24.93                             145   -0.75 7 93.0 173 
 RUS  HZ I        2320 27.95         1.7 0.18            150           93.0 173 
 PTB  HZ EP       2320 10.93                             132   -0.33 9  142 262 
 PTB  HN ES       2320 31.17                             132   -0.37 9  142 262 
 PTB  HZ I        2320 34.65         2.5 0.16            132            142 262 
 SPBC HZ EP       2320 12.83                             130    0.34 9  154 219 
 SPBC HN ES       2320 33.92                             130    0.19 9  154 219 
 SPBC HZ I        2320 37.74         4.2 0.24            132            154 219 
 ZAR  HN ES   1   2320 42.16                             121   -0.05 6  203 295 
 ZAR  HZ I        2320 50.22         2.5 0.12            123            203 295 
 SML  HZ EP   1   2320 21.63                             116   -0.58 6  249 337 
 SML  HN ES       2320 51.15                             116    0.14 8  249 337 
 SML  HZ I        2320 54.79         6.5 0.10            118            249 337 
 GUY2CHN ES   1   2321  0.82                             112    0.07 5  293 236 
 GUY2CHZ I        2321 10.53         1.4 0.56                           293 236 
 RREF HN ES   1   2321  5.39                             110    0.19 5  313 230 
 RREF HZ I        2321 15.54         1.8 0.48            113            313 230 
                                                                                
