 2011  112 2301 39.4 L   7.382 -73.266122.0  RSN 10 0.4 2.0LRSN                1
 GAP=124        0.77       4.1     8.4 11.3 -0.2136E+01  0.5656E+02  0.1271E+01E
 Epicentro: EL PLAYON - SANTANDER                                              3
 ACTION:UP  11-02-08 08:40 OP:pat  STATUS:               ID:20110112230139 L   I
 2011-01-12-2300-37S.COL___136                                                 6
 STAT SP IPHASW D HRMM SECON CODA AMPLIT PERI AZIMU VELO SNR AR TRES W  DIS CAZ7
 GIR2 SZ EP   2   23 1 56.81                             163     0.5 5   34 166 
 BTL  SZ EP       23 1 56.68                             156    -0.510   51 180 
 GRA  SZ EP   1   23 1 58.51                             147     0.0 7   76  43 
 GRA  SZ I        23 1 59.59        38.3 0.26                            76  43 
 GRA  SZ ES   2   23 2 14.09                             147     0.6 5   76  43 
 BAR2 SZ EP   1   23 1 59.63                             142     0.1 7   88 174 
 BAR2 SZ ES   1   23 2 15.54                             142     0.3 7   88 174 
 BAR2 SZ I        23 2 17.30        27.1 0.17                            88 174 
 OCA  SZ EP   2   23 2  0.05                             140     0.1 5   95 356 
 OCA  SZ ES   2   23 2 15.79                             140    -0.2 5   95 356 
 OCA  SZ I        23 2 18.83        27.5 0.11                            95 356 
 RUS  HZ EP   2   23 2  6.97                             123     0.0 5  166 173 
 RUS  HE ES   2   23 2 27.61                             123    -0.9 5  166 173 
 NOR  SZ EP   2   23 2 18.13                             110     0.5 4  268 222 
 NOR  SN ES   2   23 2 48.15                             110     0.7 4  268 222 
 HEL  HZ EP   2   23 2 20.16                             109     0.5 4  283 242 
 HEL  HZ I        23 3  0.78         5.3 0.20                           283 242 
 MON  HE ES   2   23 2 54.43                             107    -0.7 4  305 300 
 MON  HZ I        23 3  5.78         3.1 0.58                           305 300 
 DBB  SZ EP   2   23 2 24.88                             106     0.3 3  328 263 
                                                                                
