 2013  312 2235  6.0 L   6.790 -73.154147.8  RSN  6 0.4 1.9LRSN                1
 GAP=136        0.99       5.1     4.8  6.7 -0.6088E+01  0.7025E+01  0.4398E+01E
 Epicentro: LOS SANTOS - SANTANDER                                             3
 ACTION:UPD 13-04-09 14:02 OP:ep   STATUS:               ID:20130312223506 L   I
 2013-03-12-2228-49M.COL___204                                                 6
 STAT SP IPHASW D HRMM SECON CODA AMPLIT PERI AZIMU VELO AIN AR TRES W  DIS CAZ7
 BAR2 SZ EP       2235 25.61                             171   -0.2110 22.1 188 
 BAR2 SZ ES       2235 40.97                             171   -0.3310 22.1 188 
 BAR2 SZ I        2235 42.67        17.5 0.44            168           22.1 188 
 BRR  HZ EP       2235 27.30                             153   -0.0210 70.9 300 
 BRR  HN ES       2235 44.79                             153    0.8110 70.9 300 
 BRR  HN I        2235 45.62        20.6 0.22            153           70.9 300 
 PAM  SZ EP       2235 28.66                             151    0.1810 78.8  40 
 PAM  SN ES       2235 45.83                             151   -0.2210 78.8  40 
 RUS  HZ EP       2235 29.94                             144    0.1010 99.5 175 
 RUS  HN ES       2235 48.66                             144    0.1910 99.5 175 
 RUS  HZ I        2235 51.06         5.9 0.48            144           99.5 175 
 PTB  HZ EP       2235 32.63                             133   -0.37 9  147 259 
 PTB  HN ES       2235 53.39                             133   -0.69 9  147 259 
 PTB  HZ I        2235 56.04         6.9 0.36            132            147 259 
 NOR  HZ EP       2235 41.97                             119    0.31 8  233 235 
 NOR  HN ES       2236  9.84                             119    0.33 8  233 235 
 NOR  HN I        2236 16.01        12.5 0.18            119            233 235 
                                                                                
