 2011  112 2202 48.8 L   6.773 -73.190130.4  RSN  7 0.2 1.8LRSN                1
 GAP=174        0.47       3.3     7.6  7.3 -0.3610E+01  0.1503E+02 -0.2277E+01E
 Epicentro: VILLANUEVA - SANTANDER                                             3
 ACTION:UP  11-02-08 08:40 OP:pat  STATUS:               ID:20110112220248 L   I
 2011-01-12-2200-00M.COL___137                                                 6
 STAT SP IPHASW D HRMM SECON CODA AMPLIT PERI AZIMU VELO SNR AR TRES W  DIS CAZ7
 BTL  SZ EP       22 3  6.69                             172     0.210   18 332 
 BAR2 SZ EP   1   22 3  6.27                             171    -0.2 7   20 178 
 BAR2 SZ I        22 3  7.26        14.7 0.58                            20 178 
 BAR2 SZ ES   2   22 3 20.21                             171    -0.1 5   20 178 
 GIR2 SZ EP   2   22 3  6.72                             165     0.0 5   34 359 
 RUS  HZ EP   1   22 3 11.06                             141     0.2 7   98 173 
 RUS  HZ I        22 3 11.44         5.8 0.15                            98 173 
 RUS  HN ES   2   22 3 27.97                             141    -0.1 5   98 173 
 OCA  SZ EP   2   22 3 16.27                             125     0.1 5  163 355 
 OCA  SZ ES   2   22 3 37.23                             125    -0.3 5  163 355 
 OCA  SZ I        22 3 42.31        17.4 0.46                           163 355 
 NOR  SE ES   2   22 3 49.83                             116     0.0 4  229 234 
 CHI  HZ EP   2   22 3 24.68                             114    -0.5 4  245 194 
 CHI  HZ I        22 3 52.42         4.5 0.72                           245 194 
                                                                                
