 2012  112 2036 52.9 L   6.708 -73.254137.9  RSN 15 0.4 2.9LRSN                1
 GAP=107        0.91       4.4     6.4  8.1  0.3848E+00  0.1932E+02  0.1135E+02E
 Epicentro: BARICHARA - SANTANDER                                              3
 ACTION:UP  12-02-03 08:16 OP:REBC STATUS:               ID:20120112203652 L   I
 2012-01-12-2030-00M.COL___187                                                 6
 STAT SP IPHASW D HRMM SECON CODA AMPLIT PERI AZIMU VELO SNR AR TRES W  DIS CAZ7
 BAR2 SZ IP       2037 11.31                             174    -0.110   15 148 
 BAR2 SZ ES   1   2037 25.64                             174    -0.2 7   15 148 
 BAR2 SZ I        2037 29.22       155.8 0.52                            15 148 
 GIR2 SZ IP       2037 11.76                             163    -0.210   42   9 
 BRR  HZ IP     D 2037 13.31                             153     0.410   67 311 
 BRR  HN ES   2   2037 29.30                             153     0.7 5   67 311 
 BRR  HZ I        2037 30.39       240.8 0.16                            67 311 
 RUS  HZ EP       2037 15.19                             145     0.010   92 168 
 RUS  HZ I        2037 35.55       104.3 0.46                            92 168 
 PAM  SZ IP       2037 14.97                             145    -0.310   93  41 
 PTB  HZ EP       2037 17.41                             133    -0.510  134 262 
 PTB  HZ I        2037 40.19        52.8 0.30                           134 262 
 OCA  SZ ES   2   2037 44.80                             126     1.0 5  169 358 
 OCA  SZ I        2037 50.18       166.4 0.27                           169 358 
 YOP  SZ EP   2   2037 22.56                             125     0.5 4  176 148 
 YOP  SZ I        2037 46.80       125.5 0.28                           176 148 
 ZAR  HZ EP       2037 24.21                             122     0.1 9  197 296 
 ZAR  HZ I        2037 54.55        79.3 0.32                           197 296 
 NOR  SZ EP       2037 26.18                             119    -0.3 8  219 235 
 CHI  HZ EP       2037 28.98                             117     0.3 8  236 193 
 CHI  HZ I        2037 31.52        32.4 0.44                           236 193 
 CHI  HN ES   1   2037 57.33                             117     0.6 6  236 193 
 HEL  HN ES   3   2038  0.73                             115    -0.2 2  258 257 
 HEL  HZ I        2038  9.52        31.8 0.30                           258 257 
 GUY  SN ES   3   2038  6.77                             112    -0.4 2  288 235 
 GUY  SZ I        2038 15.69        42.0 0.32                           288 235 
 TOL  SZ EP   2   2037 39.56                             109     0.6 3  328 224 
 PRA  HZ EP       2037 44.34                             106     0.0 6  377 209 
                                                                                
