 2013  712 2340 48.4 L   6.342 -73.727101.4  RSN  6 0.4 1.5LRSN                1
 GAP= 82        0.98       3.9     3.5  9.0 -0.2804E+00  0.5342E+01  0.5669E+01E
 Epicentro: SANTA HELENA DEL OPON - SANTANDER                                  3
 ACTION:UPD 13-08-12 10:37 OP:ep   STATUS:               ID:20130712234048 L   I
 OLDACT:REG 13-07-12 21:26 OP:jn   STATUS:               ID:20130712233959     3
 2013-07-12-2339-59M.COL___266                                                 6
 STAT SP IPHASW D HRMM SECON CODA AMPLIT PERI AZIMU VELO AIN AR TRES W  DIS CAZ7
 BAR2 SZ EP       2341  5.11                             144    0.2010 66.3  65 
 BAR2 SZ ES       2341 18.00                             144    0.1710 66.3  65 
 BAR2 SZ I        2341 19.79        17.3 0.40            145           66.3  65 
 PTB  HZ EP       2341  5.51                             137   -0.4310 83.6 285 
 PTB  HN ES       2341 19.11                             137   -0.5410 83.6 285 
 PTB  HZ I        2341 19.75        11.8 0.14            141           83.6 285 
 BRR  HZ EP       2341  6.03                             136    0.0310 84.6   1 
 BRR  HE ES       2341 20.14                             136    0.3710 84.6   1 
 BRR  HZ I        2341 22.77         7.6 0.46            139           84.6   1 
 SPBC HZ EP       2341  6.62                             136    0.4310 85.3 207 
 SPBC HN ES   1   2341 20.74                             136    0.64 7 85.3 207 
 RUS  HZ EP       2341  6.68                             136   -0.1910 86.9 125 
 RUS  HN ES       2341 20.78                             136   -0.5410 86.9 125 
 RUS  HZ I        2341 24.18         2.4 0.18            139           86.9 125 
 NOR  HE ES   1   2341 32.01                             118    0.24 7  153 236 
                                                                                
