 2011  712 2239 29.8 L   6.678 -73.118137.3  RSN  4 0.3 1.6LRSN                1
 GAP=209        0.57      10.3    14.7  7.7  0.1271E+03 -0.5422E+02 -0.3131E+02E
 Epicentro: JORDAN - SANTANDER                                                 3
 ACTION:UPD 14-02-10 21:07 OP:vdl  STATUS:               ID:20110712223929 L   I
 2011-07-12-2236-58S.COL___143                                                 6
 STAT SP IPHASW D HRMM SECON CODA AMPLIT PERI AZIMU VELO AIN AR TRES W  DIS CAZ7
 BAR2 SZ EP   1   2239 48.25                             175   -0.02 7 11.9 217 
 BAR2 SZ ES   1   2240  2.35                             175   -0.29 7 11.9 217 
 BAR2 SZ I        2240  4.30        13.2 0.21                          11.9 217 
 BTL  SZ EP       2239 48.92                             166    0.2610 31.3 328 
 BRR  HZ EP   1   2239 50.21                             148   -0.48 7 81.0 306 
 BRR  HZ I        2239 50.79        14.4 0.04                          81.0 306 
 BRR  HN ES       2240  7.07                             148    0.1210 81.0 306 
 RUS  HZ EP   2   2239 51.91                             146    0.11 5 87.0 177 
 RUS  HE ES   2   2240  9.05                             146    0.13 5 87.0 177 
 RUS  HZ I        2240 11.91         3.1 0.16                          87.0 177 
                                                                                
