 2017  312 2355  5.2 L   6.802 -73.147146.0  RSN 11 0.5 2.2LRSN                1
 GAP=136        1.09       3.8     4.0  5.8 -0.1462E+01  0.6481E+01  0.2670E+01E
 Epicentro: LOS SANTOS - SANTANDER                                             3
 ACTION:UPD 17-05-25 18:39 OP:jn   STATUS:               ID:20170312235505 L   I
 OLDACT:UP  17-03-13 06:16 OP:dani STATUS:               ID:20170312234744d    3
 OLDACT:DUP 17-03-13 06:08 OP:dani STATUS:               ID:20170312234744d    3
 2017-03-12-2348-00M.COL___403                                                 6
 STAT SP IPHASW D HRMM SECON CODA AMPLIT PERI AZIMU VELO AIN AR TRES W  DIS CAZ7
 BAR2 EZ EP     D 2355 24.78                             170   -0.0510 23.5 189 
 BAR2 EZ ES       2355 40.15                             170   -0.0110 23.5 189 
 BAR2 EZ I        2355 42.59        44.5 0.30            167           23.5 189 
 BRR  HZ EP       2355 26.63                             153    0.3010 70.9 298 
 BRR  HN ES       2355 43.71                             153    0.8810 70.9 298 
 BRR  HZ I        2355 44.45        21.2 0.30            152           70.9 298 
 PAM  EZ EP       2355 27.70                             151    0.2910 77.4  40 
 PAM  EE ES       2355 44.36                             151   -0.3910 77.4  40 
 PAM  EZ I        2355 48.02        15.6 0.50            158           77.4  40 
 RUS  HZ EP     D 2355 28.73                             144   -0.2310  101 176 
 RUS  HN ES       2355 47.40                             144   -0.1110  101 176 
 RUS  HZ I        2355 49.01        10.9 0.54            144            101 176 
 PTB  HZ EP       2355 31.51                             132   -0.63 9  148 259 
 PTB  HE ES       2355 52.59                             132   -0.59 9  148 259 
 PTB  HZ I        2355 58.95        16.5 0.44            132            148 259 
 SPBC HZ EP       2355 33.70                             129    0.01 9  163 219 
 SPBC HN ES       2355 56.46                             129    0.53 9  163 219 
 SPBC HZ I        2356  3.65        23.8 0.22            129            163 219 
 ZAR  HZ EP       2355 37.39                             123   -0.21 9  204 292 
 ZAR  HN ES       2356  2.52                             123   -0.38 9  204 292 
 ZAR  HZ I        2356  7.93        16.8 0.36            124            204 292 
 NOR  HZ EP       2355 40.56                             119   -0.35 8  235 234 
 NOR  HN ES       2356  8.18                             119   -0.60 8  235 234 
 NOR  HZ I        2356 18.10         9.1 0.40            119            235 234 
 CHI  HZ EP       2355 42.89                             117   -0.00 8  249 195 
 CHI  HN ES       2356 12.59                             117    0.27 8  249 195 
 CHI  HZ I        2356 18.60         7.6 0.33            118            249 195 
 ROSC BZ EP   9   2355 44.81                             117    1.50 0  253 211 
 ROSC BE ES       2356 14.67                             116    0.11 8  253 211 
 ROSC BZ I        2356 19.45        26.1 0.40            118            253 211 
 HEL  HZ EP       2355 46.47                             115    1.09 8  272 256 
 HEL  HN ES       2356 17.09                             115    0.35 8  272 256 
 HEL  HZ I        2356 22.99         6.9 0.42            116            272 256 
                                                                                
