 2016  612 2006 27.0 L   6.791 -73.140144.3  RSN 11 0.5 1.8LRSN                1
 GAP=138        1.05       3.4     4.6  6.3 -0.5010E+01  0.7111E+01  0.3375E+01E
 Epicentro: LOS SANTOS - SANTANDER                                             3
 ACTION:UPD 16-07-21 22:18 OP:rebc STATUS:               ID:20160612200627 L   I
 OLDACT:DUP 16-06-13 04:52 OP:ak   STATUS:               ID:20160612195744d    3
 OLDACT:REG 16-06-13 03:18 OP:ak   STATUS:               ID:20160612195743     3
 2016-06-12-1957-43M.COL___328                                                 6
 STAT SP IPHASW D HRMM SECON CODA AMPLIT PERI AZIMU VELO AIN AR TRES W  DIS CAZ7
 BAR2 EZ EP       20 6 46.36                             171   -0.0410 22.4 192 
 BAR2 EZ ES       20 7  1.86                             171    0.3010 22.4 192 
 BAR2 EZ I        20 7  3.01         8.8 0.16                          22.4 192 
 BRR  HZ IP     C 20 6 48.38                             152    0.3610 72.3 299 
 BRR  HN ES       20 7  5.12                             152    0.6810 72.3 299 
 BRR  HZ I        20 7  8.51        12.7 0.26                          72.3 299 
 PAM  EZ EP       20 6 49.32                             151    0.2710 77.8  39 
 PAM  EN ES       20 7  5.83                             151   -0.4510 77.8  39 
 PAM  EZ I        20 7  8.59         6.5 0.18                          77.8  39 
 RUS  HZ EP       20 6 50.49                             144   -0.0010 99.5 176 
 RUS  HN ES       20 7  8.70                             144   -0.1510 99.5 176 
 RUS  HZ I        20 7 10.01         5.7 0.28                          99.5 176 
 PTB  HZ EP       20 6 52.91                             132   -0.94 9  148 259 
 PTB  HN ES       20 7 14.28                             132   -0.54 9  148 259 
 PTB  HZ I        20 7 16.50        10.8 0.30                           148 259 
 OCA  HZ EP   2   20 6 56.23                             129    0.96 5  161 353 
 OCA  HN ES       20 7 17.03                             129   -0.31 9  161 353 
 OCA  HZ I        20 7 24.39        15.7 0.26                           161 353 
 SPBC HZ EP       20 6 54.93                             129   -0.38 9  163 219 
 SPBC HN ES       20 7 17.14                             129   -0.28 9  163 219 
 SPBC HZ I        20 7 21.24        16.1 0.05                           163 219 
 NOR  HZ EP       20 7  2.99                             118    0.39 8  235 235 
 NOR  HN ES       20 7 30.54                             118    0.14 8  235 235 
 NOR  HZ I        20 7 34.84         5.6 0.16                           235 235 
 CHI  HZ EP   2   20 7  3.70                             117   -0.79 4  248 195 
 CHI  HN ES       20 7 34.42                             117    0.66 8  248 195 
 HEL  HZ EP   2   20 7  7.40                             115    0.26 4  272 256 
 HEL  HN ES   4   20 7 40.85                             115    2.37 0  272 256 
 HEL  HZ I        20 7 47.17         4.8 0.28                           272 256 
 GUY2CHZ EP   2   20 7 11.18                             112    0.68 4  301 235 
 GUY2CHN ES       20 7 44.78                             112    0.33 7  301 235 
 GUY2CHZ I        20 7 53.89         3.7 0.46                           301 235 
 PRA  HN ES   4   20 8  3.77                             106    1.75 0  391 210 
                                                                                
