 2014  812 2242  6.7 L   6.805 -73.137144.6  RSN  6 0.5 1.7LRSN                1
 GAP=202        1.31       7.1     8.5 10.4  0.3102E+02  0.5098E+01 -0.1330E+02E
 Epicentro: LOS SANTOS - SANTANDER                                             3
 ACTION:UPD 14-09-15 21:49 OP:nd   STATUS:               ID:20140812224206 L   I
 OLDACT:REG 14-08-13 02:59 OP:carl STATUS:               ID:20140812223818     3
 2014-08-12-2238-18M.COL___266                                                 6
 STAT SP IPHASW D HRMM SECON CODA AMPLIT PERI AZIMU VELO AIN AR TRES W  DIS CAZ7
 BAR2 SZ EP       2242 26.04                             170   -0.1710 24.0 192 
 BAR2 SZ ES       2242 40.77                             170   -0.6510 24.0 192 
 BAR2 SZ I        2242 41.96        11.2 0.30            169           24.0 192 
 BRR  HZ EP       2242 28.27                             152    0.5110 71.8 298 
 BRR  HN ES       2242 45.02                             152    0.8310 71.8 298 
 BRR  HZ I        2242 49.28         9.2 0.22            150           71.8 298 
 RUS  HZ EP       2242 30.83                             143    0.4610  101 177 
 RUS  HN ES       2242 48.87                             143    0.0310  101 177 
 RUS  HZ I        2242 50.59         7.4 0.22            146            101 177 
 PTB  HZ EP       2242 33.19                             132   -0.48 9  149 259 
 PTB  HN ES       2242 54.22                             132   -0.49 9  149 259 
 PTB  HZ I        2242 57.02         6.9 0.10            131            149 259 
 ZAR  HN ES       2243  4.82                             122    0.37 9  205 292 
 ZAR  HZ I        2243 10.60         4.9 0.28            123            205 292 
 SML  HN ES       2243 11.07                             117   -0.70 8  244 335 
                                                                                
