 2010  712 2105 41.0 L   6.788 -73.121147.2  RSN  8 0.2 1.7LRSN                1
 GAP=158        0.40       2.5     4.6  4.8 -0.5666E+01  0.1213E+01  0.3682E+01E
 Epicentro: LOS SANTOS - SANTANDER                                             3
 ACTION:UPD 10-12-01 15:17 OP:pat  STATUS:               ID:20100712210541 L   I
 2010-07-12-2102-04S.COL___120                                                 6
 STAT SP IPHASW D HRMM SECON CODA AMPLIT PERI AZIMU VELO AIN AR TRES W  DIS CAZ7
 BAR2 SZ EP   2   21 6  0.73                             171     0.0 5   23 198 
 BAR2 SZ I        21 6 18.66        13.7 0.17                            23 198 
 BRR  HZ EP   1   21 6  2.33                             152    -0.1 7   74 298 
 BRR  HE ES   2   21 6 19.06                             152    -0.1 5   74 298 
 BRR  HZ I        21 6 22.29        14.6 0.12                            74 298 
 RUS  HZ EP       21 6  4.53                             144    -0.210   99 178 
 RUS  HN ES   2   21 6 23.52                             144     0.2 5   99 178 
 RUS  HZ I        21 6 24.57         5.0 0.27                            99 178 
 BRI  SZ EP       21 6  4.97                             141     0.010  109  19 
 BRI  SZ ES   1   21 6 23.87                             141     0.1 7  109  19 
 BRI  SZ I        21 6 25.97         5.4 0.11                           109  19 
 GUE  SZ EP   1   21 6  6.09                             139     0.2 7  117  11 
 GRA  SZ EP   2   21 6  6.31                             137    -0.1 5  126  16 
 GRA  SZ ES   1   21 6 26.20                             137     0.0 7  126  16 
 GRA  SZ I        21 6 27.28         6.4 0.33                           126  16 
 RREF HZ EP   2   21 6 27.35                             111     0.0 3  323 230 
 RREF HN ES   2   21 7  3.45                             111     0.0 3  323 230 
 RREF HZ I        21 7 12.18         4.9 0.41                           323 230 
 PRA  HZ EP   1   21 6 35.01                             107     0.5 4  392 210 
                                                                                
