 2015  912 2010 48.9 L   6.849 -73.359122.1  RSN 10 0.5 1.9LRSN                1
 GAP= 92        1.21       3.3     4.0  7.1 -0.2167E+01  0.9294E+01 -0.3806E+01E
 Epicentro: SAN VICENTE DE CHUCURI - SANTANDER                                 3
 ACTION:UPD 15-10-28 16:25 OP:cam  STATUS:               ID:20150912201048 L   I
 OLDACT:UP  15-09-13 06:51 OP:ak   STATUS:               ID:20150912200749     3
 OLDACT:REG 15-09-13 03:42 OP:ak   STATUS:               ID:20150912200749     3
 2015-09-12-2007-49M.COL___334                                                 6
 STAT SP IPHASW D HRMM SECON CODA AMPLIT PERI AZIMU VELO AIN AR TRES W  DIS CAZ7
 BAR2 EZ EP       2011  6.37                             163    0.3210 34.5 145 
 BAR2 EZ ES       2011 19.29                             163   -0.1210 34.5 145 
 BAR2 EZ I        2011 20.86        58.5 0.24            167           34.5 145 
 BRR  HZ EP       2011  6.73                             157    0.4510 48.3 306 
 BRR  HN ES       2011 20.36                             157    0.5510 48.3 306 
 BRR  HZ I        2011 21.33        17.5 0.06            155           48.3 306 
 PAM  EZ EP       2011  9.72                             141    0.0610 90.8  53 
 PAM  EE ES       2011 25.93                             141    0.1010 90.8  53 
 PAM  EZ I        2011 28.05        11.2 0.28            145           90.8  53 
 RUS  HZ EP       2011 11.26                             135    0.0310  110 164 
 RUS  HE ES       2011 28.64                             135    0.0210  110 164 
 RUS  HZ I        2011 30.04         8.8 0.28            139            110 164 
 PTB  HZ EP       2011 11.68                             131   -0.3310  126 254 
 PTB  HN ES       2011 29.15                             131   -0.8510  126 254 
 PTB  HZ I        2011 35.27        10.2 0.22            132            126 254 
 OCA  HZ EP       2011 14.60                             125   -0.26 9  154   2 
 OCA  HN ES       2011 34.29                             125   -0.80 9  154   2 
 OCA  HZ I        2011 35.58        32.6 0.43            127            154   2 
 ZAR  HZ EP       2011 17.95                             120    0.56 9  180 293 
 ZAR  HE ES       2011 40.64                             120    1.04 9  180 293 
 ZAR  HZ I        2011 44.73         9.1 0.32            121            180 293 
 NOR  HN ES       2011 46.53                             115   -0.73 8  219 230 
 SML  HZ EP       2011 22.85                             113    0.08 8  230 340 
 SML  HN ES       2011 48.64                             113   -0.53 8  230 340 
 SML  HZ I        2011 54.93        14.7 0.10            115            230 340 
 GUY2CHZ EP   2   2011 30.24                             109    0.49 4  286 231 
 GUY2CHE ES       2012  1.74                             109    0.15 7  286 231 
 GUY2CHZ I        2012  8.67         2.2 0.49                           286 231 
                                                                                
