 2017  612 2244 32.2 L   6.773 -73.123154.7  RSN  6 0.3 2.0LRSN                1
 GAP=256        0.67       3.3     7.1  6.4  0.6321E+01 -0.2265E+02  0.8795E+00E
 Epicentro: LOS SANTOS - SANTANDER                                             3
 ACTION:UPD 17-09-14 16:51 OP:jn   STATUS:               ID:20170612224432 L   I
 OLDACT:REG 17-06-13 04:35 OP:osc  STATUS:               ID:20170612223739     3
 2017-06-12-2238-00M.COL___360                                                 6
 STAT SP IPHASW D HRMM SECON CODA AMPLIT PERI AZIMU VELO AIN AR TRES W  DIS CAZ7
 BRR  HZ EP       2244 54.54                             153    0.0510 74.8 300 
 BRR  HE ES       2245 11.83                             153   -0.0710 74.8 300 
 BRR  HZ I        2245 15.04        24.8 0.26            143           74.8 300 
 PTB  HZ EP   9   2244 59.13                             134   -0.92 0  150 260 
 PTB  HN ES       2245 20.83                                   -0.04 9  150 260 
 PTB  HZ I        2245 26.38        10.3 0.16            126            150 260 
 SPBC HZ EP       2245  1.40                             131    0.10 9  162 220 
 SPBC HN ES       2245 24.48                             131    0.45 9  162 220 
 SPBC HZ I        2245 28.94        20.2 0.18            125            162 220 
 ZAR  HZ EP       2245  5.48                             124   -0.08 8  207 293 
 ZAR  HN ES       2245 31.47                             124   -0.14 8  207 293 
 ZAR  HZ I        2245 37.89         9.7 0.18            119            207 293 
 CHI  HZ EP       2245 10.37                             119    0.23 8  246 196 
 CHI  HN ES       2245 39.09                             119   -0.67 8  246 196 
 CHI  HZ I        2245 42.76         4.1 0.34            116            246 196 
 HEL  HN ES   4   2245 47.63                             116    2.72 0  274 257 
 HEL  HZ I        2245 53.22         6.1 0.34            112            274 257 
                                                                                
