 2011  312 2257 49.2 L   6.281 -73.580109.3  RSN  5 0.3 1.5LRSN                1
 GAP=144        0.56       5.8     3.7  7.1  0.3178E+00  0.1350E+02  0.1240E+02E
 Epicentro: SANTA HELENA DEL OPON - SANTANDER                                  3
 ACTION:UP  11-06-16 14:33 OP:jfem STATUS:               ID:20110312225749 L   I
 2011-03-12-2254-42S.COL___134                                                 6
 STAT SP IPHASW D HRMM SECON CODA AMPLIT PERI AZIMU VELO SNR AR TRES W  DIS CAZ7
 BAR2 SZ EP   1   2258  5.52                             151    -0.3 7   56  52 
 BAR2 SZ I        2258  5.97        13.4 0.09                            56  52 
 BAR2 SZ ES   1   2258 19.02                             151     0.2 7   56  52 
 RUS  HZ EP   1   2258  7.00                             145    -0.1 7   70 128 
 RUS  HN ES   1   2258 21.09                             145     0.0 7   70 128 
 RUS  HZ I        2258 23.08         3.6 0.20                            70 128 
 NOR  SZ EP   1   2258 15.15                             119     0.0 7  163 241 
 NOR  SN ES   2   2258 35.04                             119    -0.3 5  163 241 
 YOP  SZ EP   1   2258 15.60                             119     0.3 7  164 129 
 YOP  SZ I        2258 41.76         8.3 0.54                           164 129 
 HEL  HZ EP   2   2258 21.08                             112    -0.2 4  216 267 
 HEL  HN ES   2   2258 47.06                             112     0.7 4  216 267 
 HEL  HZ I        2258 50.17         2.3 0.27                           216 267 
                                                                                
