 2016  412 2055  5.2 L   6.819 -73.195142.9  RSN  9 0.3 2.2LRSN                1
 GAP=130        0.85       3.6     4.1  5.5 -0.4996E+01  0.8265E+01 -0.8732E-01E
 Epicentro: ZAPATOCA - SANTANDER                                               3
 ACTION:UPD 16-05-05 14:20 OP:rebc STATUS:               ID:20160412205505 L   I
 OLDACT:UP  16-04-13 02:49 OP:drio STATUS:               ID:20160412204740     3
 OLDACT:REG 16-04-13 02:35 OP:drio STATUS:               ID:20160412204740     3
 2016-04-12-2047-40M.COL___324                                                 6
 STAT SP IPHASW D HRMM SECON CODA AMPLIT PERI AZIMU VELO AIN AR TRES W  DIS CAZ7
 BAR2 EZ EP       2055 24.40                             170   -0.0910 25.1 177 
 BAR2 EZ ES       2055 38.94                             170   -0.6210 25.1 177 
 BAR2 EZ I        2055 42.06        27.8 0.16            169           25.1 177 
 PAM  EZ EP       2055 27.47                             150    0.2710 79.4  43 
 PAM  EN ES       2055 44.79                             150    0.4010 79.4  43 
 PAM  EZ I        2055 46.70        29.7 0.48            155           79.4  43 
 RUS  HZ EP       2055 28.45                             142   -0.3810  103 173 
 RUS  HE ES       2055 47.35                             142    0.0710  103 173 
 RUS  HZ I        2055 48.21        20.2 0.22            147            103 173 
 PTB  HZ EP       2055 30.97                             132   -0.49 9  143 258 
 PTB  HE ES       2055 51.95                             132   -0.02 9  143 258 
 PTB  HZ I        2055 53.97        17.8 0.12            131            143 258 
 SPBC HZ EP       2055 33.56                             129    0.27 9  161 217 
 SPBC HE ES       2055 55.78                             129    0.56 9  161 217 
 SPBC HZ I        2056  1.60        39.5 0.24            130            161 217 
 ZAR  HZ EP       2055 36.97                             122    0.14 9  198 292 
 ZAR  HN ES   4   2055 59.83                             122   -1.70 0  198 292 
 ZAR  HZ I        2056 12.70        20.8 0.48            122            198 292 
 NOR  HZ EP       2055 40.29                             118   -0.11 8  232 233 
 NOR  HN ES       2056  7.96                             118    0.09 8  232 233 
 NOR  HZ I        2056 16.41        18.6 0.14            119            232 233 
 CHI  HZ EP       2055 42.51                             116   -0.27 8  249 194 
 CHI  HE ES       2056 12.41                             116    0.29 8  249 194 
 CHI  HZ I        2056 16.04        10.6 0.62            119            249 194 
 GUY2CHZ EP   4   2055 50.55                             112    2.26 0  298 234 
 GUY2CHE ES   4   2056 24.86                             112    2.94 0  298 234 
 GUY2CHZ I        2056 29.71         8.7 0.60                           298 234 
                                                                                
