 2013  112 2354 15.4 L   6.273 -73.692105.5  RSN  4 0.4 1.0LRSN                1
 GAP=123        0.98       4.6     5.6 11.4  0.7825E+01  0.3947E+01  0.1931E+02E
 Epicentro: SANTA HELENA DEL OPON - SANTANDER                                  3
 ACTION:UPD 13-02-15 09:13 OP:ep   STATUS:               ID:20130112235415 L   I
 2013-01-12-2350-00M.COL___241                                                 6
 STAT SP IPHASW D HRMM SECON CODA AMPLIT PERI AZIMU VELO AIN AR TRES W  DIS CAZ7
 RUS  HZ EP   1   2354 33.32                             140   -0.33 7 79.5 122 
 RUS  HN ES   1   2354 47.38                             140   -0.53 7 79.5 122 
 RUS  HN I        2354 49.72         2.2 0.43            135           79.5 122 
 PTB  HZ EP       2354 33.58                             136   -0.2210 89.5 289 
 PTB  HN ES       2354 47.95                             136   -0.2410 89.5 289 
 PTB  HZ I        2354 50.55         2.4 0.14            132           89.5 289 
 BRR  HZ EP       2354 33.86                             135   -0.1510 92.3 359 
 BRR  HZ I        2354 43.95         4.3 0.44            127           92.3 359 
 BRR  HE ES       2354 49.17                             135    0.6110 92.3 359 
 CHI  HZ EP   1   2354 43.76                             115    0.19 7  182 181 
 CHI  HZ I        2354 44.15         0.9 0.24            113            182 181 
 CHI  HN ES   1   2355  6.48                             115    0.90 7  182 181 
                                                                                
