 2010  612 2326 44.5 L   6.815 -73.144149.1  RSN 16 0.6 3.5LRSN                1
 GAP=126        1.14       4.4     7.4  8.2 -0.1487E+02  0.1826E+02  0.4389E+01E
 Epicentro: LOS SANTOS - SANTANDER                                             3
 ACTION:UP  10-08-24 10:10 OP:vdl  STATUS:               ID:20100612232644 L   I
 2010-06-12-2324-03S.COL___117                                                 6
 STAT SP IPHASW D HRMM SECON CODA AMPLIT PERI AZIMU VELO SNR AR TRES W  DIS CAZ7
 BAR2 SZ IP       2327  4.31                             170    -0.310   25 190 
 GIR2 SZ IP       2327  5.44                             168     0.910   30 349 
 GIR2 SZ ES   1   2327 20.30                             168     0.1 7   30 349 
 RUS  HZ IP     C 2327  8.12                             144    -0.610  102 176 
 RUS  HE ES   2   2327 26.86                             144    -0.7 5  102 176 
 RUS  HZ I        2327 28.69       584.1 0.47                           102 176 
 BRI  SZ IP       2327  8.95                             143     0.310  107  21 
 BRI  SZ ES   2   2327 26.79                             143    -0.6 5  107  21 
 GUE  SZ EP       2327  9.17                             141    -0.310  115  12 
 GRA  SZ IP       2327 10.25                             138     0.310  124  18 
 GRA  SZ ES   1   2327 29.69                             138    -0.1 7  124  18 
 OCA  SZ EP       2327 12.81                             131    -0.1 9  159 353 
 OCA  SZ ES   3   2327 35.13                             131     0.0 2  159 353 
 OCA  SZ I        2327 39.81       332.4 0.37                           159 353 
 CHI  HZ EP       2327 22.42                             118    -0.2 8  250 195 
 CHI  HN ES   1   2327 52.05                             118    -0.2 6  250 195 
 CHI  HZ I        2328  0.07       178.7 0.80                           250 195 
 ROSC BZ IP       2327 23.95                             117     1.0 8  254 211 
 ROSC BE ES   2   2327 52.73                             117    -0.3 4  254 211 
 ROSC BZ I        2328  1.99       270.6 0.41                           254 211 
 HEL  HZ EP   1   2327 24.56                             115    -0.4 6  273 255 
 HEL  HE ES   2   2327 56.66                             115     0.1 4  273 255 
 HEL  HZ I        2328  4.06       217.4 0.52                           273 255 
 CVER SZ EP       2327 25.66                             115     0.4 8  274 202 
 GUY  HZ EP       2327 28.74                             113     0.3 7  302 235 
 GUY  HE ES   2   2328  3.52                             113     0.8 4  302 235 
 DBB  SZ EP       2327 32.41                             110     0.3 7  340 274 
 TOL  SZ EP       2327 32.45                             110    -0.6 7  345 224 
 MON  HZ EP   2   2327 31.62                             109    -1.9 3  352 308 
 MON  HN ES   2   2328 10.64                             109    -1.1 3  352 308 
 MON  HZ I        2328 14.92        70.4 0.61                           352 308 
 SDV  BZ IP       2327 33.88                             109    -0.7 6  359  50 
 SDV  BZ I        2328 15.55       108.7 0.42                           359  50 
                                                                                
