 2010  612 2031 15.1 L   6.799 -73.142138.0  RSN 10 0.5 2.0LRSN                1
 GAP=156        0.67       7.2    20.9  8.6 -0.1229E+03  0.4521E+02 -0.1016E+02E
 Epicentro: LOS SANTOS - SANTANDER                                             3
 ACTION:UP  10-08-24 10:10 OP:vdl  STATUS:               ID:20100612203115 L   I
 2010-06-12-2028-59S.COL___117                                                 6
 STAT SP IPHASW D HRMM SECON CODA AMPLIT PERI AZIMU VELO SNR AR TRES W  DIS CAZ7
 BAR2 SZ EP   1   2031 33.80                             170     0.0 8   23 191 
 BAR2 SZ ES   2   2031 47.99                             170    -0.4 5   23 191 
 GIR2 SZ EP   2   2031 34.88                             166     1.0 5   31 350 
 RUS  HZ EP   3   2031 38.32                             142     0.2 3  100 176 
 RUS  HN ES   3   2031 55.77                             142    -0.2 3  100 176 
 RUS  HZ I        2031 57.65        13.2 0.17                           100 176 
 BRI  SZ EP       2031 38.30                             140     0.010  108  21 
 BRI  SZ ES   2   2031 57.18                             140     0.9 5  108  21 
 GUE  SZ EP       2031 38.76                             138    -0.310  117  12 
 GRA  SZ EP   1   2031 39.53                             135    -0.1 7  126  17 
 GRA  SZ ES   1   2031 58.81                             135     0.0 7  126  17 
 OCA  SZ ES   3   2032  3.27                             128    -1.2 2  160 353 
 OCA  SZ I        2032  8.94        13.4 0.18                           160 353 
 CHI  HZ EP   2   2031 52.29                             115    -0.1 4  249 195 
 CHI  HN ES   3   2032 21.07                             115    -0.4 2  249 195 
 CHI  HZ I        2032 25.01         6.5 0.29                           249 195 
 ROSC BZ EP   3   2031 53.43                             115     0.6 2  253 211 
 ROSC BN ES   3   2032 22.77                             115     0.5 2  253 211 
 HEL  HZ EP   3   2031 55.54                             113     0.6 2  272 256 
 HEL  HZ I        2032 33.06         6.3 0.66                           272 256 
                                                                                
