 2016  512 2302 41.6 L   6.816 -73.151139.0  RSN  7 0.6 1.7LRSN                1
 GAP=135        1.54       6.3     6.5  9.9 -0.9153E+00  0.1726E+02  0.1431E+01E
 Epicentro: LOS SANTOS - SANTANDER                                             3
 ACTION:UPD 16-08-18 17:45 OP:cam  STATUS:               ID:20160512230241 L   I
 OLDACT:REG 16-05-13 02:50 OP:ar   STATUS:               ID:20160512225745     3
 2016-05-12-2257-45M.COL___310                                                 6
 STAT SP IPHASW D HRMM SECON CODA AMPLIT PERI AZIMU VELO AIN AR TRES W  DIS CAZ7
 BAR2 EZ EP       23 3  0.18                             169   -0.3210 25.0 188 
 BAR2 EZ ES       23 3 14.79                             169   -0.4210 25.0 188 
 BAR2 EZ I        23 3 17.00        10.5 0.24            168           25.0 188 
 BRR  HZ EP       23 3  1.94                             152   -0.0510 69.8 297 
 BRR  HE ES       23 3 18.80                             152    0.9510 69.8 297 
 BRR  HZ I        23 3 22.67        10.0 0.42            151           69.8 297 
 PAM  EZ EP       23 3  3.04                             150   -0.0510 76.4  41 
 PAM  EE ES       23 3 19.81                             150    0.0010 76.4  41 
 PAM  EZ I        23 3 21.87         9.8 0.50            156           76.4  41 
 RUS  HZ EP       23 3  4.36                             142   -0.5210  102 176 
 RUS  HN ES       23 3 23.42                             142    0.4210  102 176 
 RUS  HZ I        23 3 25.10         2.6 0.44            145            102 176 
 PTB  HZ EP       23 3  7.09                             131   -0.96 9  148 258 
 PTB  HN ES       23 3 27.86                             131   -0.78 9  148 258 
 PTB  HZ I        23 3 33.53         7.9 0.28            131            148 258 
 SPBC HZ EP       23 3 10.72                             127    0.98 9  164 218 
 SPBC HN ES       23 3 31.94                             127    0.30 9  164 218 
 SPBC HZ I        23 3 39.05        13.3 0.24            129            164 218 
 ZAR  HZ EP       23 3 14.50                             121    0.97 9  203 292 
 ZAR  HE ES       23 3 38.04                             121   -0.36 9  203 292 
 ZAR  HZ I        23 3 44.41         7.6 0.66            123            203 292 
                                                                                
