 2017  412 2337 19.2 L   6.744 -73.144142.7  RSN  7 0.4 1.6LRSN                1
 GAP=139        1.07       5.0     4.7  6.9  0.2218E+01  0.9086E+01  0.1832E+01E
 Epicentro: LOS SANTOS - SANTANDER                                             3
 ACTION:UPD 17-05-30 21:11 OP:jn   STATUS:               ID:20170412233719 L   I
 OLDACT:REG 17-04-13 03:26 OP:ar   STATUS:               ID:20170412232740     3
 2017-04-12-2328-00M.COL___353                                                 6
 STAT SP IPHASW D HRMM SECON CODA AMPLIT PERI AZIMU VELO AIN AR TRES W  DIS CAZ7
 BAR2 EZ EP       2337 38.10                             173   -0.2410 17.3 194 
 BAR2 EZ ES       2337 53.52                             173    0.2510 17.3 194 
 BAR2 EZ I        2337 54.54        10.3 0.26            174           17.3 194 
 BRR  HZ EP       2337 40.18                             151   -0.0210 74.5 303 
 BRR  HN ES       2337 57.03                             151    0.4510 74.5 303 
 BRR  HZ I        2338  0.88         8.8 0.36            149           74.5 303 
 PAM  EZ EP       2337 41.21                             149   -0.1610 82.2  37 
 PAM  EN ES       2337 58.39                             149   -0.2910 82.2  37 
 PAM  EZ I        2338  0.77         4.4 0.52            150           82.2  37 
 RUS  HZ EP       2337 41.98                             145   -0.2110 94.3 176 
 RUS  HN ES       2338  0.39                             145    0.2610 94.3 176 
 RUS  HZ I        2338  0.99         5.8 0.22            149           94.3 176 
 PTB  HZ EP       2337 45.42                             131   -0.40 9  147 261 
 PTB  HN ES       2338  5.72                             131   -0.87 9  147 261 
 PTB  HZ I        2338  8.42         3.6 0.28            132            147 261 
 SPBC HZ EP       2337 47.51                             129    0.51 9  158 220 
 ZAR  HZ EP       2337 52.50                             121    0.80 8  207 294 
 ZAR  HE ES       2338 17.15                             121    0.09 8  207 294 
 ZAR  HZ I        2338 24.57         4.6 0.24            122            207 294 
                                                                                
