 2013 1012 2137 34.9 L   6.779 -73.157143.3  RSN  9 0.4 1.7LRSN                1
 GAP=136        0.97       3.9     3.9  6.0 -0.2218E+01  0.1160E+01  0.3743E+00E
 Epicentro: LOS SANTOS - SANTANDER                                             3
 ACTION:UPD 13-11-25 09:21 OP:ep   STATUS:               ID:20131012213734 L   I
 OLDACT:DUP 13-10-13 02:21 OP:stll STATUS:               ID:20131012212850d    3
 2013-10-12-2128-49M.COL___236                                                 6
 STAT SP IPHASW D HRMM SECON CODA AMPLIT PERI AZIMU VELO AIN AR TRES W  DIS CAZ7
 BAR2 SZ ES       2138  8.85                             171   -0.3610 20.9 188 
 BAR2 SZ I        2138 11.70        15.7 0.24            172           20.9 188 
 BRR  HZ EP       2137 56.05                             152    0.2910 71.2 301 
 BRR  HN ES       2138 12.90                             152    0.8510 71.2 301 
 PAM  SZ IP     C 2137 57.09                             150    0.1010 80.0  39 
 PAM  SZ I        2137 57.29        12.7 0.24            151           80.0  39 
 PAM  SN ES       2138 14.07                             150   -0.1710 80.0  39 
 RUS  HZ EP       2137 58.38                             144    0.1510 98.4 175 
 RUS  HN ES       2138 16.16                             144   -0.2810 98.4 175 
 RUS  HZ I        2138 17.72         4.6 0.40            145           98.4 175 
 PTB  HZ EP       2138  1.16                             132   -0.32 9  146 260 
 PTB  HN ES       2138 21.83                             132   -0.41 9  146 260 
 PTB  HZ I        2138 24.07         5.1 0.10            132            146 260 
 CAPV BZ EP       2138  2.18                             131   -0.13 9  152  38 
 SPBC HE ES       2138 25.26                             129    0.43 9  161 219 
 ZAR  HN ES       2138 31.83                             122   -0.45 9  204 293 
 ZAR  HZ I        2138 37.85         6.3 0.32            122            204 293 
 CHI  HZ EP       2138 12.35                             117    0.19 8  246 195 
 CHI  HZ I        2138 12.79         1.6 0.34            118            246 195 
                                                                                
