 2016 1112 2333  3.3 L   6.765 -73.146142.0  RSN  6 0.5 1.4LRSN                1
 GAP=154        1.13       8.3     5.3  8.4 -0.7409E+01  0.7954E+01  0.1603E+02E
 Epicentro: LOS SANTOS - SANTANDER                                             3
 ACTION:UPD 17-10-26 21:07 OP:lp   STATUS:               ID:20161112233303 L   I
 OLDACT:UP  16-11-13 08:09 OP:cog  STATUS:               ID:20161112232746d    3
 OLDACT:DUP 16-11-13 08:04 OP:cog  STATUS:               ID:20161112232746d    3
 OLDACT:UP  16-11-13 08:02 OP:cog  STATUS:               ID:20161112232745d    3
 OLDACT:DUP 16-11-13 05:51 OP:cog  STATUS:               ID:20161112232745d    3
 2016-11-12-2328-00M.COL___340                                                 6
 STAT SP IPHASW D HRMM SECON CODA AMPLIT PERI AZIMU VELO AIN AR TRES W  DIS CAZ7
 BAR2 HZ EP       2333 22.30                             172   -0.1410 19.5 192 
 BAR2 HZ ES       2333 37.48                             172    0.1410 19.5 192 
 BAR2 HZ I        2333 39.45         5.9 0.46            167           19.5 192 
 BRR  HZ EP       2333 24.31                             151    0.1210 73.1 301 
 BRR  HN ES     C 2333 41.33                             151    0.8810 73.1 301 
 BRR  HZ I        2333 42.53         6.2 0.36            155           73.1 301 
 PAM  EZ EP       2333 25.22                             149   -0.1210 80.5  38 
 PAM  EN ES       2333 42.20                             149   -0.3010 80.5  38 
 PAM  EZ I        2333 44.49         2.6 0.58            154           80.5  38 
 PTB  HZ EP       2333 29.60                             131   -0.33 9  147 260 
 PTB  HN ES       2333 49.97                             131   -0.70 9  147 260 
 PTB  HZ I        2333 52.70         2.2 0.16            132            147 260 
 ZAR  HE ES       2334  0.87                             122   -0.06 8  206 293 
 PRA  HZ EP       2333 57.32                             106    1.00 6  389 210 
 PRA  HN ES   4   2334 40.08                             106    2.42 0  389 210 
 PRA  HZ I        2334 46.37         1.4 0.26            107            389 210 
                                                                                
