 2017 1112 2357 36.2 L   6.640 -73.540110.1  RSN  4 0.2 1.1LRSN                1
 GAP=118        0.60       5.2     3.3  6.0  0.4569E+01  0.5712E+01  0.1484E+02E
 Epicentro: EL CARMEN - SANTANDER                                              3
 ACTION:UPD 17-12-12 19:54 OP:rebc STATUS:               ID:20171112235736 L   I
 OLDACT:UP  17-11-13 05:38 OP:dani STATUS:               ID:20171112234744     3
 OLDACT:REG 17-11-13 03:50 OP:dani STATUS:               ID:20171112234744     3
 2017-11-12-2348-00M.COL___462                                                 6
 STAT SP IPHASW D HRMM SECON CODA AMPLIT PERI AZIMU VELO AIN AR TRES W  DIS CAZ7
 BAR2 EZ ES       2358  4.46                             159   -0.1810 40.0  98 
 BRR  HZ EP       2357 52.33                             151   -0.2910 55.0 340 
 BRR  HN ES       2358  5.70                             151    0.3010 55.0 340 
 BRR  HZ I        2358  8.93         6.1 0.46            149           55.0 340 
 RUS  HZ EP       2357 56.60                             136    0.2210 96.9 149 
 PTB  HZ EP       2357 56.17                             134    0.0210  102 264 
 PTB  HN ES       2358 11.61                             134   -0.0710  102 264 
 PTB  HZ I        2358 12.44         1.5 0.16            135            102 264 
                                                                                
