 2012 1212 2239 21.1 L   6.126 -74.030 91.1  RSN  7 0.5 1.3LRSN                1
 GAP= 86        0.95       3.1     4.0  9.7  0.1124E+01 -0.3091E+01  0.3325E+01E
 Epicentro: CIMITARRA - SANTANDER                                              3
 ACTION:UPD 13-01-04 14:27 OP:ep   STATUS:               ID:20121212223921 L   I
 2012-12-12-2237-49M.COL___188                                                 6
 STAT SP IPHASW D HRMM SECON CODA AMPLIT PERI AZIMU VELO AIN AR TRES W  DIS CAZ7
 PTB  HZ EP       2239 35.98                             141   -0.2910 65.7 314 
 PTB  HN ES   1   2239 48.10                             141   -0.01 7 65.7 314 
 PTB  HZ I        2239 49.11         4.8 0.10                          65.7 314 
 RUS  HZ EP   1   2239 40.35                             127   -0.34 7  108 104 
 RUS  HE ES   1   2239 55.34                             127   -0.65 7  108 104 
 RUS  HZ I        2239 56.76         2.8 0.52                           108 104 
 NOR  HZ EP       2239 40.98                             125    0.4810  112 236 
 NOR  HN ES   1   2239 55.22                             125   -0.43 7  112 236 
 NOR  HZ I        2239 55.92        11.7 0.18                           112 236 
 BRR  HZ EP       2239 40.78                             124    0.1310  114  18 
 BRR  HN ES   1   2239 56.96                             124    1.04 7  114  18 
 CHI  HZ EP       2239 46.98                             114   -0.12 9  169 169 
 CHI  HN ES   1   2240  8.03                             114    0.63 7  169 169 
 CHI  HZ I        2240 13.59         1.6 0.22                           169 169 
 ZAR  HZ EP   1   2239 47.12                             112   -0.36 7  177 329 
 ZAR  HN ES   1   2240  7.94                             112   -0.13 7  177 329 
 ZAR  HZ I        2240 12.39         3.0 0.20                           177 329 
 SML  HZ EP   2   2240  1.99                             103    0.46 4  296 359 
 SML  HN ES   2   2240 32.26                             103   -0.82 4  296 359 
                                                                                
