 2012  512 2055 13.8 L   6.762 -73.203138.9  RSN  5 0.5 1.6LRSN                1
 GAP=228        1.12      11.1    10.0 12.0  0.7419E+02  0.2379E+02  0.3910E+01E
 Epicentro: VILLANUEVA - SANTANDER                                             3
 ACTION:UP  12-07-05 12:04 OP:pat  STATUS:               ID:20120512205513 L   I
 2012-05-12-2050-00M.COL___195                                                 6
 STAT SP IPHASW D HRMM SECON CODA AMPLIT PERI AZIMU VELO SNR AR TRES W  DIS CAZ7
 BAR2 SZ EP   1   2055 33.28                             172     0.8 9   19 173 
 BAR2 SZ ES   1   2055 46.35                             172    -0.8 9   19 173 
 BAR2 SZ I        2055 47.56         9.5 0.22                            19 173 
 BRR  HZ EP   1   2055 33.81                             152    -0.2 9   68 304 
 BRR  HZ I        2055 35.36        12.8 0.43                            68 304 
 BRR  HE ES   1   2055 49.98                             152     0.2 9   68 304 
 RUS  HZ EP   1   2055 36.45                             143    -0.2 9   97 172 
 RUS  HN ES   1   2055 54.84                             143     0.4 9   97 172 
 PTB  HZ EP   1   2055 38.84                             132    -0.7 8  141 260 
 PTB  HN ES   1   2055 59.70                             132     0.0 8  141 260 
 PTB  HZ I        2056  1.56         2.8 0.10                           141 260 
 ZAR  HE ES       2056 10.19                             121     0.210  200 294 
 ZAR  HZ I        2056 15.12         6.0 0.20                           200 294 
                                                                                
