 2013  812 2124 57.1 L   6.812 -73.157149.0  RSN  6 0.3 1.6LRSN                1
 GAP=134        0.73       4.1     3.5  7.0 -0.9649E+00  0.5122E+01  0.1054E+02E
 Epicentro: LOS SANTOS - SANTANDER                                             3
 ACTION:UPD 14-01-14 09:01 OP:ep   STATUS:               ID:20130812212457 L   I
 OLDACT:REG 13-08-12 21:51 OP:carl STATUS:               ID:20130812211959     3
 2013-08-12-2119-59M.COL___270                                                 6
 STAT SP IPHASW D HRMM SECON CODA AMPLIT PERI AZIMU VELO AIN AR TRES W  DIS CAZ7
 BRR  HN ES   1   2125 35.74                             154    0.58 7 69.4 298 
 PAM  SZ EP       2125 19.91                             151    0.2910 77.2  41 
 PAM  SE ES       2125 36.95                             151   -0.2510 77.2  41 
 PAM  SZ I        2125 39.11         4.7 0.52            152           77.2  41 
 RUS  HZ EP   1   2125 21.47                             144    0.23 7  102 175 
 RUS  HN ES   1   2125 39.76                             144   -0.33 7  102 175 
 RUS  HZ I        2125 40.58         2.6 0.22            144            102 175 
 PTB  HZ EP       2125 23.82                             133   -0.39 9  147 258 
 PTB  HE ES       2125 45.59                             133    0.21 9  147 258 
 PTB  HE I        2125 47.14         5.1 0.40            131            147 258 
 ZAR  HN ES       2125 54.58                             123   -0.31 9  202 292 
 ZAR  HN I        2126  2.31         5.9 0.18            121            202 292 
 PRA  HZ EP   1   2125 51.21                             107    0.45 4  393 209 
 PRA  HN ES       2126 32.61                             107   -0.03 6  393 209 
 PRA  HZ I        2126 39.19         2.5 0.34            106            393 209 
                                                                                
