 2017 1112 2211 46.8 L   6.765 -73.122148.4  RSN  5 0.2 1.4LRSN                1
 GAP=141        0.67       3.3     4.6  5.6 -0.4582E+01 -0.1635E+00  0.1207E+01E
 Epicentro: LOS SANTOS - SANTANDER                                             3
 ACTION:UPD 17-12-12 19:54 OP:rebc STATUS:               ID:20171112221146 L   I
 OLDACT:REG 17-11-13 03:45 OP:dani STATUS:               ID:20171112220739     3
 2017-11-12-2208-00M.COL___462                                                 6
 STAT SP IPHASW D HRMM SECON CODA AMPLIT PERI AZIMU VELO AIN AR TRES W  DIS CAZ7
 BAR2 EZ ES       2212 22.37                             172    0.1710 20.2 199 
 BRR  HZ EP       2212  8.37                             152   -0.1010 75.4 300 
 BRR  HN ES       2212 25.62                             152    0.2510 75.4 300 
 BRR  HZ I        2212 28.01         7.6 0.24            152           75.4 300 
 PAM  EZ EP       2212  9.56                             151    0.1810 78.9  36 
 PAM  EN ES       2212 26.60                             151   -0.4010 78.9  36 
 PAM  EZ I        2212 29.09         6.5 0.76            152           78.9  36 
 RUS  HZ EP       2212 10.69                             145    0.1610 96.5 177 
 RUS  HN ES       2212 29.12                             145    0.0910 96.5 177 
 RUS  HZ I        2212 30.26         2.2 0.52            148           96.5 177 
 SPBC HN ES       2212 37.26                             130   -0.40 9  162 221 
                                                                                
