 2013 1112 2057 47.4 L   6.795 -73.153148.5  RSN  7 0.4 1.6LRSN                1
 GAP=200        0.84       5.0     5.9  6.9  0.1171E+02  0.6500E+01 -0.5488E+00E
 Epicentro: LOS SANTOS - SANTANDER                                             3
 ACTION:UPD 14-01-09 16:27 OP:ep   STATUS:               ID:20131112205747 L   I
 OLDACT:REG 13-11-12 22:03 OP:jn   STATUS:               ID:20131112205000     3
 2013-11-12-2050-00M.COL___276                                                 6
 STAT SP IPHASW D HRMM SECON CODA AMPLIT PERI AZIMU VELO AIN AR TRES W  DIS CAZ7
 BAR2 SZ ES       2058 22.68                             171   -0.2210 22.6 188 
 BAR2 SZ I        2058 23.94        13.3 0.22            166           22.6 188 
 BRR  HZ EP       2058  9.27                             153    0.4510 70.8 299 
 BRR  HN ES       2058 25.92                             153    0.3910 70.8 299 
 BRR  HZ I        2058 34.08        14.8 0.44            148           70.8 299 
 RUS  HZ EP       2058 11.46                             145    0.0810  100 176 
 RUS  HN ES       2058 30.01                             145   -0.0810  100 176 
 RUS  HZ I        2058 31.21         4.2 0.22            147            100 176 
 PTB  HZ EP       2058 14.11                             133   -0.40 9  147 259 
 PTB  HN ES       2058 35.19                             133   -0.47 9  147 259 
 PTB  HZ I        2058 40.04         3.4 0.40            130            147 259 
 SPBC HN ES   1   2058 38.70                             130    0.36 7  162 219 
 SPBC HZ I        2058 45.56         5.2 0.28            129            162 219 
 ZAR  HE ES   2   2058 45.85                             123    0.48 4  204 292 
 ZAR  HZ I        2058 53.30         3.1 0.14            122            204 292 
 SML  HN ES   2   2058 52.09                             118   -0.81 4  244 336 
                                                                                
