 2015  912 2119 48.9 L   6.796 -73.144144.3  RSN 10 0.5 1.9LRSN                1
 GAP=151        1.06       3.0     4.7  6.5 -0.3946E+01  0.9013E+01  0.1660E+01E
 Epicentro: LOS SANTOS - SANTANDER                                             3
 ACTION:UPD 15-10-28 16:25 OP:cam  STATUS:               ID:20150912211948 L   I
 OLDACT:REG 15-09-13 03:46 OP:ak   STATUS:               ID:20150912211750     3
 2015-09-12-2117-50M.COL___329                                                 6
 STAT SP IPHASW D HRMM SECON CODA AMPLIT PERI AZIMU VELO AIN AR TRES W  DIS CAZ7
 BAR2 EZ EP       2120  8.43                             171    0.0410 22.9 191 
 BAR2 EZ ES       2120 23.54                             171   -0.0210 22.9 191 
 BAR2 EZ I        2120 26.10        13.4 0.22            169           22.9 191 
 PAM  EZ EP       2120 11.16                             150    0.1410 77.6  39 
 PAM  EN ES       2120 28.29                             150    0.0510 77.6  39 
 PAM  EZ I        2120 30.51         6.8 0.17            156           77.6  39 
 PTB  HZ EP       2120 15.15                             132   -0.65 9  148 259 
 PTB  HN ES       2120 35.91                             132   -0.84 9  148 259 
 PTB  HZ I        2120 43.58        11.5 0.38            133            148 259 
 OCA  HZ EP       2120 17.03                             129   -0.15 9  161 353 
 OCA  HE ES       2120 39.86                             129    0.65 9  161 353 
 OCA  HZ I        2120 42.50        14.9 0.20            133            161 353 
 SPBC HZ EP       2120 17.27                             129   -0.04 9  163 219 
 SPBC HN ES       2120 39.59                             129    0.16 9  163 219 
 SPBC HZ I        2120 47.05         9.5 0.23            131            163 219 
 ZAR  HZ EP   1   2120 21.36                             122    0.03 6  204 292 
 ZAR  HE ES       2120 47.42                             122    0.83 9  204 292 
 ZAR  HZ I        2120 52.48         7.5 0.38            124            204 292 
 SML  HZ EP   1   2120 24.72                             117   -0.82 6  244 335 
 SML  HN ES       2120 53.49                             117   -0.59 8  244 335 
 SML  HZ I        2120 56.62         9.7 0.06            120            244 335 
 CHI  HZ EP       2120 26.62                             117    0.10 8  248 195 
 CHI  HN ES       2120 55.47                             117   -0.36 8  248 195 
 CHI  HZ I        2121  4.21         3.0 0.41            120            248 195 
 GUY2CHZ EP       2120 33.29                             112    0.82 7  301 235 
 GUY2CHN ES       2121  6.69                             112    0.27 7  301 235 
 GUY2CHZ I        2121 17.18         3.6 0.48                           301 235 
 ORTC HZ EP   1   2120 42.86                             106    0.08 4  395 216 
 ORTC HN ES       2121 25.44                             106    0.66 6  395 216 
                                                                                
