 2012  312 2235 19.3 L   6.791 -73.121148.2  RSN  7 0.4 1.9LRSN                1
 GAP=140        0.87       5.2     4.7  8.3 -0.2803E+01  0.8666E+01  0.3674E+01E
 ACTION:UP  12-03-31 23:19 OP:EP   STATUS:               ID:20120312223519 L   I
 2012-03-12-2230-00M.COL___196                                                 6
 STAT SP IPHASW D HRMM SECON CODA AMPLIT PERI AZIMU VELO SNR AR TRES W  DIS CAZ7
 BAR2 SZ EP   1   2235 38.80                             171    -0.4 7   23 197 
 BAR2 SZ I        2236  5.39        11.5 0.34                            23 197 
 BRR  HZ EP       2235 41.26                             152     0.410   74 298 
 BRR  HZ I        2235 43.28        27.8 0.19                            74 298 
 BRR  HE ES   1   2235 58.26                             152     0.6 7   74 298 
 PAM  SZ EP       2235 41.92                             151     0.210   76  37 
 PAM  SE ES   1   2235 58.72                             151    -0.5 7   76  37 
 RUS  HZ EP   1   2235 43.60                             145     0.4 7   99 178 
 RUS  HN ES   1   2236  1.71                             145    -0.1 7   99 178 
 RUS  HZ I        2236  3.22         6.1 0.20                            99 178 
 PTB  HZ EP   1   2235 46.16                             132    -0.5 7  150 259 
 PTB  HN ES   1   2236  7.78                             132    -0.3 7  150 259 
 PTB  HZ I        2236 14.60         7.3 0.41                           150 259 
 ZAR  HZ EP   1   2235 51.83                             122    -0.4 6  207 292 
 ZAR  HE ES   1   2236 17.72                             122    -0.2 6  207 292 
 ZAR  HZ I        2236 23.64        13.5 0.46                           207 292 
 NOR  SZ EP   1   2235 55.45                             119     0.1 6  236 235 
 NOR  SE ES   1   2236 23.63                             119     0.2 6  236 235 
                                                                                
