 2011 1212 2359 18.8 L   7.258 -74.032 14.0  RSN  8 0.4 1.7LRSN                1
 GAP=161        0.67       3.5     2.5  3.5 -0.4784E+01  0.1929E+01  0.4577E+00E
 Epicentro: PUERTO WILCHES - SANTANDER                                         3
 ACTION:UPD 12-07-13 16:15 OP:ep   STATUS:               ID:20111212235918 L   I
 2011-12-12-2356-41S.COL___153                                                 6
 STAT SP IPHASW D HRMM SECON CODA AMPLIT PERI AZIMU VELO AIN AR TRES W  DIS CAZ7
 BRR  HZ IP     D 2359 25.64                             106    0.0710 39.1 115 
 BRR  HN ES   2   2359 30.43                             106   -0.39 5 39.1 115 
 BRR  HZ I        2359 31.64        51.5 0.14                          39.1 115 
 PTB  HZ EP   1   2359 33.69                              96    0.17 7 92.2 211 
 PTB  HN ES   1   2359 44.63                              96   -0.33 7 92.2 211 
 GIR2 SZ EP       2359 34.14                              96    0.1210 94.7 102 
 OCA  SZ EP   1   2359 39.66                              94   -0.31 7  134  36 
 OCA  SZ I        2359 57.74        13.4 0.16                           134  36 
 PAM  SZ EP   1   2359 42.28                              56    0.01 7  147  86 
 PAM  SZ I        2359 42.98        10.0 0.15                           147  86 
 PAM  SN ES   2   2359 59.99                              56   -0.54 5  147  86 
 RUS  HZ EP   1   2359 47.68                              56    0.86 7  184 145 
 RUS  HN ES   1   24 0  8.51                              56   -0.13 7  184 145 
 RUS  HZ I        24 0 10.33        10.8 0.25                           184 145 
 HEL  HN ES       24 0 12.80                              56    0.11 9  203 235 
 NOR  SE ES   2   24 0 12.54                              56   -0.75 4  209 206 
                                                                                
