 2010 1112 2337 16.7 L   6.831 -73.074140.3  RSN  8 0.3 1.8LRSN                1
 GAP=166        0.59       2.8     6.1  4.5 -0.2574E+01 -0.4476E+01  0.9206E+00E
 Epicentro: LOS SANTOS - SANTANDER                                             3
 ACTION:UP  10-12-17 16:52 OP:REBC STATUS:               ID:20101112233716 L   I
 2010-11-12-2335-44S.COL___128                                                 6
 STAT SP IPHASW D HRMM SECON CODA AMPLIT PERI AZIMU VELO SNR AR TRES W  DIS CAZ7
 BTL  SZ EP       2337 35.81                             170     0.110   24 294 
 BTL  SZ ES   1   2337 50.90                             170     0.4 7   24 294 
 BAR2 SZ EP       2337 35.89                             168     0.010   29 205 
 BAR2 SZ ES   1   2337 50.25                             168    -0.5 7   29 205 
 BAR2 SZ I        2337 54.19        15.7 0.57                            29 205 
 BRR  HZ EP       2337 37.41                             150    -0.210   77 293 
 BRR  HN ES   1   2337 54.15                             150     0.2 7   77 293 
 BRR  HZ I        2337 54.19        14.4 0.35                            77 293 
 RUS  HZ EP       2337 40.41                             142     0.210  104 181 
 RUS  HN ES   1   2337 58.44                             142    -0.1 7  104 181 
 RUS  HZ I        2338  0.58         5.2 0.31                           104 181 
 GRA  SZ EP       2337 41.22                             137     0.210  120  14 
 GRA  SZ I        2337 42.49         8.6 0.26                           120  14 
 GRA  SZ ES   1   2337 59.75                             137    -0.2 7  120  14 
 OCA  SZ EP   2   2337 44.16                             129    -0.3 5  158 350 
 OCA  SZ ES   3   2338  5.38                             129    -0.6 2  158 350 
 OCA  SZ I        2338  9.64         9.2 0.60                           158 350 
 CHI  HZ EP   1   2337 54.71                             115     0.0 6  254 197 
 CHI  HE ES   3   2338 23.46                             115    -0.9 2  254 197 
 CHI  HZ I        2338 27.59         3.6 0.62                           254 197 
 RREF HZ EP   2   2338  3.49                             109    -0.1 3  330 230 
 RREF HN ES   3   2338 40.40                             109     0.2 2  330 230 
 RREF HZ I        2338 47.03         3.8 0.12                           330 230 
                                                                                
