 2010  512 2107  1.7 L   6.776 -73.013147.8  RSN 13 0.5 2.7LRSN                1
 GAP=136        1.01       3.8     6.8  6.5 -0.1041E+02  0.2932E+01  0.2835E+01E
 Epicentro: CEPITA - SANTANDER                                                 3
 ACTION:UP  10-08-24 10:04 OP:vdl  STATUS:               ID:20100512210701 L   I
 2010-05-12-2104-42S.COL___105                                                 6
 STAT SP IPHASW D HRMM SECON CODA AMPLIT PERI AZIMU VELO AIN AR TRES W  DIS CAZ7
 BAR2 SZ IP       21 7 21.68                             169     0.010   28 223 
 BAR2 SZ ES   1   21 7 36.77                             169    -0.4 7   28 223 
 BRR  HZ IP     D 21 7 24.33                             149     0.410   86 295 
 BRR  HE ES   1   21 7 41.46                             149     0.2 7   86 295 
 BRR  HZ I        21 7 44.18       152.4 0.14                            86 295 
 RUS  HZ IP     D 21 7 25.57                             145     0.110   98 185 
 RUS  HN ES   1   21 7 43.89                             145    -0.1 7   98 185 
 RUS  HZ I        21 7 47.19        38.8 0.28                            98 185 
 BRI  SZ IP       21 7 26.24                             142     0.610  107  13 
 BRI  SZ ES   1   21 7 45.16                             142     0.9 7  107  13 
 GUE  SZ IP       21 7 26.65                             140     0.010  117   5 
 GUE  SZ ES   2   21 7 45.89                             140    -0.2 5  117   5 
 GRA  SZ IP       21 7 26.49                             138    -0.510  125  11 
 GRA  SZ ES   1   21 7 46.15                             138    -0.6 7  125  11 
 OCA  SZ EP   1   21 7 30.24                             129    -0.4 7  165 348 
 OCA  SZ ES   1   21 7 52.27                             129    -0.9 7  165 348 
 OCA  SZ I        21 7 56.80        76.9 0.25                           165 348 
 CHI  HZ EP   1   21 7 39.75                             117     0.1 6  250 199 
 CHI  HE ES   2   21 8  8.57                             117    -0.7 4  250 199 
 CHI  HZ I        21 8 12.56        30.7 0.60                           250 199 
 HEL  HZ EP   1   21 7 43.18                             114    -0.3 6  286 257 
 HEL  HN ES   2   21 8 16.68                             114     0.6 4  286 257 
 HEL  HZ I        21 8 20.81        17.4 0.23                           286 257 
 RREF BZ EP   1   21 7 49.04                             111     0.0 5  331 231 
 RREF BN ES   2   21 8 26.75                             111     0.8 3  331 231 
 RREF BZ I        21 8 34.16        47.5 0.22                           331 231 
 SDV  BZ EP   1   21 7 51.04                             109     0.3 5  351  48 
 SDV  BZ I        21 8 30.42         9.5 0.42                           351  48 
 DBB  SZ EP   1   21 7 50.41                             109    -0.5 5  354 275 
 PRA  HZ EP   1   21 7 55.39                             107    -0.5 4  397 212 
 PRA  HN ES   2   21 8 37.68                             107    -0.5 3  397 212 
 PRA  HZ I        21 8 45.08        21.5 0.25                           397 212 
                                                                                
