 2015  112 2054 29.1 L   6.793 -73.130153.8  RSN  9 0.4 1.8LRSN                1
 GAP=139        0.96       3.3     4.7  7.1 -0.2115E+01  0.1961E+01  0.3246E-01E
 Epicentro: LOS SANTOS - SANTANDER                                             3
 ACTION:UPD 15-03-02 15:39 OP:nd   STATUS:               ID:20150112205429 L   I
 OLDACT:DUP 15-01-13 05:11 OP:fm   STATUS:               ID:20150112204750d    3
 2015-01-12-2047-49M.COL___259                                                 6
 STAT SP IPHASW D HRMM SECON CODA AMPLIT PERI AZIMU VELO AIN AR TRES W  DIS CAZ7
 BRR  HZ EP       2054 51.49                             153    0.3010 73.1 298 
 BRR  HN ES       2055  8.99                             153    0.5410 73.1 298 
 BRR  HZ I        2055 10.93         9.0 0.44            152           73.1 298 
 PAM  SZ EP       2054 52.28                             152    0.1710 76.9  38 
 RUS  HZ EP       2054 53.51                             146   -0.0410 99.7 177 
 RUS  HE ES       2055 12.68                             146    0.0210 99.7 177 
 RUS  HZ I        2055 15.93         5.1 0.14            149           99.7 177 
 PTB  HZ EP       2054 56.52                             133   -0.32 9  149 259 
 PTB  HE ES       2055 17.91                             133   -0.59 9  149 259 
 PTB  HZ I        2055 21.06         9.1 0.12            134            149 259 
 OCA  HN ES       2055 20.06                             131   -0.68 9  161 353 
 OCA  HZ I        2055 23.97         7.2 0.14            132            161 353 
 SPBC HZ EP       2054 58.18                             131   -0.06 9  164 220 
 NOR  HZ EP       2055  5.68                             120    0.31 8  236 235 
 NOR  HE ES       2055 33.24                             120   -0.46 8  236 235 
 NOR  HZ I        2055 35.96         6.0 0.26            121            236 235 
 SML  HZ EP       2055  6.18                             119   -0.12 8  245 335 
 SML  HN ES       2055 35.65                             119    0.30 8  245 335 
 SML  HZ I        2055 42.45        10.3 0.10            120            245 335 
 HEL  HN ES       2055 42.38                             116    0.69 8  274 256 
 HEL  HZ I        2055 48.10         3.2 0.48            117            274 256 
                                                                                
