 2013  412 2203 42.8 L   6.796 -73.146147.1  RSN 13 0.5 2.4LRSN                1
 GAP= 71        1.04       3.5     3.9  5.9 -0.9356E+00  0.4957E+01  0.4464E+01E
 Epicentro: LOS SANTOS - SANTANDER                                             3
 ACTION:UPD 13-05-22 14:37 OP:EP   STATUS:               ID:20130412220342 L   I
 2013-04-12-2159-50M.COL___215                                                 6
 STAT SP IPHASW D HRMM SECON CODA AMPLIT PERI AZIMU VELO AIN AR TRES W  DIS CAZ7
 BAR2 SZ EP       22 4  2.53                             171   -0.0810 22.9 190 
 BAR2 SZ ES   1   22 4 17.05                             171   -0.98 7 22.9 190 
 BAR2 SZ I        22 4 19.28        78.9 0.26            171           22.9 190 
 GIR2 SZ EP       22 4  2.81                             167    0.1410 31.7 350 
 GIR2 SZ ES   1   22 4 18.45                             167    0.31 7 31.7 350 
 GIR2 SZ I        22 4 22.24        23.9 0.48            166           31.7 350 
 BRR  HZ IP     C 22 4  4.50                             153    0.3710 71.4 299 
 BRR  HN ES   1   22 4 22.00                             153    1.25 7 71.4 299 
 BRR  HZ I        22 4 24.32        37.3 0.22            151           71.4 299 
 PAM  SZ EP       22 4  5.39                             151    0.1810 77.7  39 
 PAM  SN ES   1   22 4 22.78                             151    0.12 7 77.7  39 
 PAM  SZ I        22 4 24.73        21.8 0.48            148           77.7  39 
 RUS  HZ EP       22 4  6.45                             144   -0.2310  100 176 
 RUS  HE ES   1   22 4 25.06                             144   -0.21 7  100 176 
 RUS  HZ I        22 4 26.39        25.3 0.40            142            100 176 
 PTB  HZ EP       22 4  9.34                             132   -0.56 9  148 259 
 PTB  HN ES   1   22 4 30.41                             132   -0.60 7  148 259 
 PTB  HZ I        22 4 36.41        30.5 0.30            130            148 259 
 TAM  HZ EP       22 4 10.73                             131    0.13 9  155 105 
 TAM  HZ I        22 4 31.63        16.0 0.26            128            155 105 
 TAM  HN ES   1   22 4 32.52                             131    0.26 7  155 105 
 OCA  HN ES   1   22 4 33.03                             130   -0.45 7  161 353 
 OCA  HZ I        22 4 37.64        37.3 0.36            127            161 353 
 NOR  HZ EP       22 4 18.46                             119   -0.15 8  234 235 
 NOR  HN ES   1   22 4 46.86                             119    0.35 6  234 235 
 NOR  HZ I        22 4 53.69        26.9 0.26            117            234 235 
 SML  HZ EP       22 4 19.57                             118   -0.01 8  244 335 
 SML  HN ES   1   22 4 46.91                             118   -1.33 6  244 335 
 SML  HZ I        22 4 56.31        40.5 0.26            115            244 335 
 CHI  HZ EP       22 4 20.66                             117    0.11 8  248 195 
 CHI  HN ES   1   22 4 49.63                             117   -0.34 6  248 195 
 CHI  HZ I        22 4 55.69        13.4 0.44            115            248 195 
 HEL  HZ EP       22 4 23.90                             115    0.80 8  272 256 
 HEL  HN ES   1   22 4 55.11                             115    0.61 6  272 256 
 HEL  HZ I        22 5  3.20        13.2 0.30            113            272 256 
 URE  HZ EP   4   22 4 22.47                             114   -1.51 0  284 292 
 URE  HN ES   4   22 4 52.93                             114   -3.15 0  284 292 
 PRA  HZ EP       22 4 36.10                             107   -0.25 6  392 210 
 PRA  HN ES   1   22 5 18.19                             107    0.10 4  392 210 
 PRA  HZ I        22 5 23.22        16.5 0.56            105            392 210 
                                                                                
