 2015  912 2131 48.1 L   6.805 -73.153140.0  RSN  8 0.4 1.8LRSN                1
 GAP=135        0.95       3.3     4.1  6.5 -0.2339E+01  0.1054E+02 -0.3802E+01E
 Epicentro: LOS SANTOS - SANTANDER                                             3
 ACTION:UPD 15-10-28 16:25 OP:cam  STATUS:               ID:20150912213148 L   I
 OLDACT:UP  15-09-13 09:13 OP:ak   STATUS:               ID:20150912212750     3
 OLDACT:UP  15-09-13 09:12 OP:ak   STATUS:               ID:20150912212750     3
 OLDACT:REG 15-09-13 03:47 OP:ak   STATUS:               ID:20150912212750     3
 2015-09-12-2127-50M.COL___329                                                 6
 STAT SP IPHASW D HRMM SECON CODA AMPLIT PERI AZIMU VELO AIN AR TRES W  DIS CAZ7
 BAR2 EZ EP       2132  6.67                             170   -0.3910 23.7 188 
 BAR2 EZ ES       2132 21.40                             170   -0.4410 23.7 188 
 BAR2 EZ I        2132 24.57        14.3 0.10            171           23.7 188 
 PAM  EZ IP     C 2132 10.14                             150    0.4110 77.5  40 
 PAM  EN ES       2132 27.08                             150    0.5010 77.5  40 
 PAM  EZ I        2132 29.49         4.8 0.58            152           77.5  40 
 RUS  HZ EP       2132 10.99                             142   -0.3610  101 176 
 RUS  HE ES       2132 29.54                             142    0.0710  101 176 
 PTB  HZ EP   2   2132 13.91                             131   -0.64 5  147 259 
 PTB  HN ES       2132 34.82                             131   -0.35 9  147 259 
 PTB  HZ I        2132 37.07         5.5 0.24            132            147 259 
 SPBC HZ EP       2132 16.12                             128   -0.05 9  163 219 
 SPBC HN ES       2132 38.65                             128    0.60 9  163 219 
 SPBC HZ I        2132 45.03        10.0 0.10            130            163 219 
 ZAR  HZ EP   2   2132 21.07                             121    0.98 4  203 292 
 ZAR  HN ES       2132 45.44                             121    0.42 9  203 292 
 ZAR  HZ I        2132 51.02         6.7 0.14            122            203 292 
 SML  HZ EP       2132 23.86                             116   -0.47 8  243 335 
 SML  HE ES       2132 52.28                             116   -0.30 8  243 335 
 SML  HZ I        2133  0.18         7.0 0.08            118            243 335 
 GUY2CHZ EP   1   2132 31.75                             111    0.33 5  301 235 
 GUY2CHE ES       2133  5.37                             111    0.17 7  301 235 
 GUY2CHZ I        2133 13.96         3.5 0.51                           301 235 
                                                                                
