 2011  712 2203  5.8 L   6.760 -73.135144.6  RSN  8 0.4 1.7LRSN                1
 GAP=140        0.68       4.5     6.3  7.3 -0.3327E+01 -0.3487E+01  0.2226E+01E
 Epicentro: LOS SANTOS - SANTANDER                                             3
 ACTION:UPD 12-07-25 14:00 OP:epov STATUS:               ID:20110712220305 L   I
 2011-07-12-2158-06S.COL___142                                                 6
 STAT SP IPHASW D HRMM SECON CODA AMPLIT PERI AZIMU VELO AIN AR TRES W  DIS CAZ7
 BAR2 SZ EP   1   22 3 24.60                             172   -0.58 7 19.3 196 
 BAR2 SZ ES   2   22 3 39.87                             172   -0.45 5 19.3 196 
 BAR2 SZ I        22 3 42.89        15.8 0.31                          19.3 196 
 BTL  SZ EP       22 3 25.76                             170    0.5110 22.9 320 
 GIR2 SZ EP   2   22 3 25.58                             165    0.15 5 35.9 350 
 BRR  HZ EP   2   22 3 26.74                             151   -0.24 5 74.5 301 
 BRR  HN ES   1   22 3 43.57                             151    0.05 7 74.5 301 
 BRR  HZ I        22 3 53.72        13.4 0.27                          74.5 301 
 PAM  SZ EP   1   22 3 28.18                             150    0.16 7 80.1  37 
 PAM  SN ES   2   22 3 45.23                             150   -0.15 5 80.1  37 
 RUS  HZ EP       22 3 29.27                             145    0.1910 96.1 177 
 RUS  HE ES   1   22 3 47.18                             145   -0.08 7 96.1 177 
 RUS  HZ I        22 3 49.44         5.2 0.39                          96.1 177 
 BRI  SZ EP   2   22 3 29.08                             140   -0.76 5  112  19 
 NOR  SZ EP   2   22 3 40.67                             118   -0.59 4  233 236 
 NOR  SE ES   2   22 4  9.02                             118    0.07 4  233 236 
                                                                                
