 2015  512 2106 25.7 L   6.855 -72.966146.9  RSN  5 0.4 1.9LRSN                1
 GAP=258        0.96       5.8     7.4  6.7  0.3034E+01  0.9390E+01  0.6997E+01E
 Epicentro: CEPITA - SANTANDER                                                 3
 ACTION:UPD 15-09-10 22:03 OP:cam  STATUS:               ID:20150512210625 L   I
 OLDACT:REG 15-05-13 02:48 OP:ar   STATUS:               ID:20150512205749     3
 2015-05-12-2057-49M.COL___279                                                 6
 STAT SP IPHASW D HRMM SECON CODA AMPLIT PERI AZIMU VELO AIN AR TRES W  DIS CAZ7
 BAR2 EZ EP     C 21 6 46.03                             165    0.1910 37.6 219 
 BAR2 EZ ES       21 7  1.89                             165    0.3410 37.6 219 
 BAR2 EZ I        21 7  3.51        13.8 0.30            164           37.6 219 
 BRR  HZ EP     D 21 6 47.92                             148   -0.0110 87.0 289 
 BRR  HN ES       21 7  5.05                             148   -0.2210 87.0 289 
 BRR  HZ I        21 7  5.47                             150           87.0 289 
 RUS  HZ EP       21 6 50.13                             142    0.0810  107 187 
 RUS  HN ES       21 7  9.00                             142   -0.0410  107 187 
 RUS  HZ I        21 7 11.82         5.6 0.20            142            107 187 
 SPBC HZ EP   1   21 6 55.01                             126   -0.98 7  181 223 
 SPBC HZ IP       21 6 55.58                             126   -0.41 9  181 223 
 SPBC HN ES       21 7 19.30                             126   -0.31 9  181 223 
 SPBC HZ I        21 7 21.43        13.9 0.29            127            181 223 
 GUY2CHZ EP       21 7 12.61                             111    1.00 7  321 236 
 GUY2CHN ES       21 7 47.82                             111    0.41 7  321 236 
 GUY2CHZ I        21 7 52.20         6.3 0.42                           321 236 
                                                                                
