 2014  212 2110 49.7 L   6.823 -73.172141.7  RSN 21 0.5 2.8LRSN                1
 GAP= 69        1.10       2.6     3.0  5.4 -0.1081E+01  0.4573E+01 -0.1379E-01E
 Epicentro: LOS SANTOS - SANTANDER                                             3
 ACTION:UPD 14-03-10 08:09 OP:ep   STATUS:               ID:20140212211049 L   I
 OLDACT:REG 14-02-12 22:14 OP:nd   STATUS:               ID:20140212211000     3
 2014-02-12-2110-00M.COL___199                                                 6
 STAT SP IPHASW D HRMM SECON CODA AMPLIT PERI AZIMU VELO AIN AR TRES W  DIS CAZ7
 BAR2 SZ EP       2111  8.80                             169   -0.1410 25.5 183 
 BAR2 SZ ES       2111 23.57                             169   -0.3410 25.5 183 
 BAR2 SZ I        2111 25.40       234.1 0.24            170           25.5 183 
 BRR  HZ EP     C 2111 10.98                             153    0.7310 67.4 298 
 BRR  HN ES   2   2111 26.57                             153    0.33 5 67.4 298 
 BRR  HZ I        2111 31.33        95.1 0.44            151           67.4 298 
 PAM  SZ EP     D 2111 12.12                             150    0.5910 77.3  42 
 PAM  SN ES       2111 28.85                             150    0.3310 77.3  42 
 PAM  SZ I        2111 31.35        74.5 0.48            151           77.3  42 
 RUS  HZ EP       2111 13.08                             142   -0.2310  103 175 
 RUS  HN ES       2111 31.81                             142    0.1210  103 175 
 RUS  HZ I        2111 32.97        66.2 0.26            143            103 175 
 PTB  HZ EP       2111 15.43                             132   -0.75 9  145 258 
 PTB  HN ES       2111 36.65                             132   -0.14 9  145 258 
 PTB  HZ I        2111 43.71        65.7 0.56            131            145 258 
 OCA  HZ EP       2111 17.29                             129   -0.18 9  157 354 
 OCA  HN ES       2111 38.82                             129   -0.28 9  157 354 
 OCA  HZ I        2111 47.65        65.1 0.24            129            157 354 
 TAM  HZ EP     D 2111 17.52                             129    0.09 9  159 106 
 TAM  HN ES       2111 39.07                             129    0.04 9  159 106 
 TAM  HZ I        2111 39.90        36.8 0.34            131            159 106 
 SPBC HZ EP       2111 18.01                             128    0.05 9  163 218 
 SPBC HN ES       2111 39.93                             128   -0.03 9  163 218 
 SPBC HZ I        2111 44.48        92.7 0.44            128            163 218 
 ZAR  HN ES       2111 46.95                             122    0.59 9  200 292 
 NOR  HZ EP       2111 25.64                             118    0.49 8  234 234 
 NOR  HN ES       2111 52.10                             118   -0.67 8  234 234 
 NOR  HZ I        2111 59.03        45.0 0.26            118            234 234 
 SML  HZ EP       2111 26.06                             117    0.30 8  240 336 
 SML  HN ES       2111 52.79                             117   -1.07 8  240 336 
 SML  HZ I        2112  3.66        46.8 0.10            117            240 336 
 CHI  HZ EP       2111 27.31                             116   -0.10 8  250 194 
 CHI  HN ES       2111 56.34                             116   -0.45 8  250 194 
 CHI  HZ I        2112  2.08        40.7 0.34            117            250 194 
 ROSC BZ EP   4   2111 28.88                             116    1.15 0  253 210 
 ROSC BN ES   4   2111 59.49                             116    2.14 0  253 210 
 ROSC BZ I        2112  4.07       112.0 0.40            116            253 210 
 HEL  HZ EP       2111 30.24                             114    0.72 8  270 255 
 HEL  HN ES       2112  1.61                             114    1.07 8  270 255 
 HEL  HZ I        2112  7.29        38.9 0.28            114            270 255 
 GUY2CHZ EP   4   2111 33.43                             112    0.36 0  300 234 
 GUY2CHN ES   4   2112 10.31                             112    3.44 0  300 234 
 GUY2CHZ I        2112 15.46        36.1 0.34                           300 234 
 PTGC HZ EP   4   2111 32.27                             110   -1.55 0  312 158 
 PTGC HN ES   4   2112  5.15                             110   -3.04 0  312 158 
 PTGC HZ I        2112 22.82        24.1 0.50            111            312 158 
 CBOC HZ EP       2111 36.67                             109    0.40 7  332 252 
 CBOC HN ES       2112 11.78                             109   -0.78 7  332 252 
 CBOC HZ I        2112 17.58         9.0 0.40            109            332 252 
 DBB  SZ EP   4   2111 36.70                             109   -0.01 0  336 274 
 DBB  SZ ES   4   2112 12.97                             109   -0.37 0  336 274 
 DBB  SZ I        2112 14.92        37.7 0.36            109            336 274 
 COD  HZ EP       2111 37.03                             108   -0.61 6  345 355 
 COD  HN ES   2   2112 14.62                             108   -0.38 3  345 355 
 COD  HZ I        2112 21.26         9.8 0.46            109            345 355 
 PRA  HZ EP       2111 42.99                             106   -0.23 6  393 209 
 PRA  HN ES       2112 24.76                             106   -0.18 6  393 209 
 PRA  HZ I        2112 29.47        32.7 0.38            106            393 209 
 SJC  HZ EP   4   2111 43.35                             105   -1.39 0  406 327 
 SJC  HN ES   4   2112 23.68                             105   -3.96 0  406 327 
 SJC  HZ I        2112 39.07         9.6 0.46            105            406 327 
                                                                                
