 2017  812 2244 23.1 L   6.814 -73.127140.9  RSN 23 0.7 2.3LRSN                1
 GAP=102        1.30       3.8     3.4  6.2  0.7264E+00  0.6357E+01  0.5833E+01E
 Epicentro: LOS SANTOS - SANTANDER                                             3
 ACTION:UPD 17-09-04 20:19 OP:rebc STATUS:               ID:20170812224423 L   I
 OLDACT:UP  17-08-13 07:24 OP:osc  STATUS:               ID:20170812223739     3
 OLDACT:UP  17-08-13 07:23 OP:osc  STATUS:               ID:20170812223739     3
 OLDACT:REG 17-08-13 04:25 OP:osc  STATUS:               ID:20170812223739     3
 2017-08-12-2238-00M.COL___419                                                 6
 STAT SP IPHASW D HRMM SECON CODA AMPLIT PERI AZIMU VELO AIN AR TRES W  DIS CAZ7
 BAR2 EZ IP     D 2244 41.83                             169   -0.3710 25.3 194 
 BAR2 EZ ES       2244 56.78                             169   -0.3010 25.3 194 
 BAR2 EZ I        2244 57.52        46.6 0.30            167           25.3 194 
 BRR  HZ EP       2244 43.82                             151    0.0210 72.3 297 
 BRR  HE ES       2245  0.71                             151    0.7710 72.3 297 
 BRR  HZ I        2245  4.84        46.9 0.12            150           72.3 297 
 PAM  EZ IP     C 2244 44.72                             151    0.0610 74.8  39 
 PAM  EE ES       2245  1.73                             151    0.2710 74.8  39 
 PAM  EZ I        2245  3.73        75.6 0.50            156           74.8  39 
 RUS  HZ EP       2244 45.94                             143   -0.5610  102 177 
 RUS  HN ES       2245  4.66                             143   -0.0710  102 177 
 RUS  HZ I        2245  5.88        24.1 0.30            143            102 177 
 TAM  HZ IP     D 2244 50.27                             130    0.01 9  153 106 
 TAM  HE ES       2245 10.90                             130   -0.53 9  153 106 
 SPBC HZ EP       2244 50.82                             128   -0.67 9  166 219 
 SPBC HE ES       2245 13.13                             128   -0.49 9  166 219 
 SPBC HZ I        2245 18.49        19.6 0.11            128            166 219 
 YPLC HZ EP       2244 52.31                             126   -0.29 9  177 152 
 YPLC HE ES       2245 16.72                             126    1.13 9  177 152 
 ZAR  HZ EP       2244 55.08                             121   -0.31 8  205 292 
 ZAR  HE ES       2245 21.31                             121    0.75 8  205 292 
 ZAR  HZ I        2245 28.92        18.6 0.09            122            205 292 
 TABC EZ EP       2244 59.41                             118    0.57 8  232 211 
 TABC EZ ES   2   2245 25.57                             118   -1.13 4  232 211 
 TABC EZ I        2245 31.20        17.5 0.50            119            232 211 
 NOR  HZ EP       2244 58.54                             117   -0.31 8  237 234 
 NOR  HE ES       2245 26.85                             117    0.13 8  237 234 
 NOR  HZ I        2245 27.78         9.7 0.16            118            237 234 
 CHI  HZ EP       2245  0.29                             116   -0.48 8  251 196 
 CHI  HE ES       2245 30.62                             116    0.47 8  251 196 
 CHI  HZ I        2245 32.64         7.7 0.28            117            251 196 
 ROSC BZ EP       2245  2.14                             116    0.90 8  255 211 
 ROSC BE ES   4   2245 34.12                             116    3.14 0  255 211 
 ROSC BZ I        2245 38.49        20.0 0.50            116            255 211 
 HEL  HZ EP   2   2245  5.12                             114    1.77 4  274 256 
 HEL  HE ES   2   2245 33.22                             114   -1.52 4  274 256 
 HEL  HZ I        2245 38.98         8.5 0.32            114            274 256 
 URE  HE ES   2   2245 34.61                             113   -1.47 4  285 291 
 GUY2CHZ EP   4   2245  8.34                             111    1.54 0  304 235 
 GUY2CHE ES       2245 41.12                             111    0.25 7  304 235 
 GUY2CHZ I        2245 49.48         8.0 0.56                           304 235 
 PTGC HZ EP   9   2245  3.86                             111   -2.98 0  309 159 
 PTGC HE ES       2245 38.60                             111    0.64 7  309 159 
 ELA  HZ EP   9   2245 12.46                             109    2.40 0  332 229 
 ELA  HE ES       2245 49.75                             110    0.67 7  332 229 
 CBOC HZ EP       2245 10.82                             109    0.70 7  336 252 
 CBOC HE ES       2245 46.46                             109   -0.32 7  336 252 
 CBOC HZ I        2245 50.21         2.5 0.19            110            336 252 
 DBB  EZ EP   4   2245  8.21                             109   -2.41 0  341 274 
 DBB  EE ES       2245 46.76                             109   -0.92 7  341 274 
 DBB  EZ I        2245 50.87         4.9 0.28            109            341 274 
 ANIL HE ES   2   2245 54.94                             108    2.97 3  360 225 
 PRA  HZ EP       2245 16.71                             106   -0.04 6  394 210 
 PRA  HE ES       2245 58.01                             106   -0.58 6  394 210 
 PRA  HZ I        2246  8.32         6.4 0.32            107            394 210 
 ORTC HZ EP       2245 17.59                             106    0.42 6  398 216 
 ORTC HE ES   4   2246  1.59                             106    2.27 0  398 216 
 ORTC HZ I        2246  4.97         6.3 0.46            107            398 216 
 SJC  HZ EP   4   2245 16.53                             105   -1.97 0  409 327 
 SJC  HE ES   4   2245 58.06                             105   -3.64 0  409 327 
 SJC  HZ I        2246  1.65        10.6 0.54            106            409 327 
                                                                                
