 2017  512 2008 42.0 L   6.787 -73.149151.3  RSN  6 0.4 1.6LRSN                1
 GAP=137        1.13       4.9     5.2  9.8  0.1506E+01  0.8487E+01  0.9969E+01E
 Epicentro: LOS SANTOS - SANTANDER                                             3
 ACTION:UPD 17-06-16 13:35 OP:jn   STATUS:               ID:20170512200842 L   I
 OLDACT:UP  17-05-13 05:53 OP:ar   STATUS:               ID:20170512195738     3
 OLDACT:REG 17-05-13 05:07 OP:ar   STATUS:               ID:20170512195738     3
 2017-05-12-1958-00M.COL___368                                                 6
 STAT SP IPHASW D HRMM SECON CODA AMPLIT PERI AZIMU VELO AIN AR TRES W  DIS CAZ7
 BRR  HZ EP       20 9  3.98                             153    0.2210 71.6 300 
 BRR  HN ES       20 9 21.37                             153    0.6310 71.6 300 
 PAM  EZ EP       20 9  4.80                             151   -0.0710 78.7  39 
 PAM  EE ES       20 9 22.31                             151   -0.4110 78.7  39 
 PAM  EZ I        20 9 24.28         8.1 0.42            154           78.7  39 
 RUS  HZ EP       20 9  6.81                             145    0.6310 99.1 176 
 RUS  HN ES       20 9 24.86                             145   -0.1910 99.1 176 
 RUS  HZ I        20 9 25.46         2.9 0.36            147           99.1 176 
 PTB  HZ EP       20 9  8.65                             133   -0.71 9  147 259 
 PTB  HN ES       20 9 30.16                             133   -0.54 9  147 259 
 PTB  HZ I        20 9 37.20         6.9 0.42            134            147 259 
 ZAR  HZ EP   4   20 9 17.25                             123    2.43 0  204 293 
 ZAR  HE ES       20 9 40.68                             123    0.25 9  204 293 
 ZAR  HZ I        20 9 43.01         5.7 0.12            124            204 293 
 CHI  HN ES       20 9 49.50                             118    0.15 8  247 195 
                                                                                
