 2016 1112 2354  8.8 L   6.810 -73.141149.8  RSN 16 0.5 2.4LRSN                1
 GAP= 66        1.03       3.7     3.1  5.5 -0.7523E+00  0.2169E+01  0.7365E+01E
 Epicentro: LOS SANTOS - SANTANDER                                             3
 ACTION:UPD 17-10-26 21:07 OP:lp   STATUS:               ID:20161112235408 L   I
 OLDACT:UP  16-11-13 08:23 OP:cog  STATUS:               ID:20161112234745     3
 OLDACT:UP  16-11-13 08:22 OP:cog  STATUS:               ID:20161112234745     3
 OLDACT:REG 16-11-13 03:36 OP:cog  STATUS:               ID:20161112234745     3
 2016-11-12-2348-00M.COL___340                                                 6
 STAT SP IPHASW D HRMM SECON CODA AMPLIT PERI AZIMU VELO AIN AR TRES W  DIS CAZ7
 BAR2 EZ EP       2354 28.83                             170   -0.0810 24.5 191 
 BAR2 EZ ES       2354 44.15                             170   -0.4710 24.5 191 
 BAR2 EZ I        2354 45.48        61.9 0.24            166           24.5 191 
 BRR  HZ EP       2354 30.68                             153    0.3210 71.2 298 
 BRR  HN ES       2354 47.81                             153    0.6110 71.2 298 
 BRR  HZ I        2354 51.83        29.2 0.32            152           71.2 298 
 PAM  EZ EP     C 2354 31.64                             152    0.2910 76.2  40 
 PAM  EE ES       2354 48.72                             152   -0.2410 76.2  40 
 PAM  EZ I        2354 51.05        37.6 0.54            158           76.2  40 
 PTB  HZ EP     D 2354 35.58                             133   -0.56 9  149 258 
 PTB  HN ES       2354 56.78                             133   -0.71 9  149 258 
 PTB  HZ I        2355  3.28        21.2 0.36            132            149 258 
 TAM  HZ EP       2354 37.26                             131    0.51 9  155 105 
 TAM  HE ES       2354 58.65                             131    0.08 9  155 105 
 TAM  HZ I        2355  0.52        13.0 0.32            135            155 105 
 ZAR  HZ EP       2354 42.03                             123    0.54 9  204 292 
 ZAR  HE ES       2355  6.93                             123   -0.09 9  204 292 
 ZAR  HZ I        2355 12.26        27.2 0.36            124            204 292 
 NOR  HZ EP     D 2354 45.03                             119    0.18 8  236 234 
 NOR  HE ES       2355 13.71                             119    0.71 8  236 234 
 NOR  HZ I        2355 22.17        12.7 0.44            119            236 234 
 CHI  HZ EP       2354 47.01                             118    0.19 8  250 195 
 CHI  HE ES       2355 16.17                             118   -0.34 8  250 195 
 CHI  HZ I        2355 19.86        15.7 0.58            118            250 195 
 ROSC BZ EP   3   2354 49.10                             117    1.85 2  254 211 
 ROSC BE ES       2355 17.68                             117    0.42 8  254 211 
 ROSC BZ I        2355 23.30        33.1 0.38            118            254 211 
 URE  HZ EP   4   2354 40.66                             114   -9.39 0  284 292 
 PTGC HZ EP       2354 52.03                             112   -0.87 7  309 159 
 PTGC HE ES   4   2355 25.15                             112   -2.17 0  309 159 
 PTGC HZ I        2355 28.25        10.5 0.33            114            309 159 
 LL6C HZ EP   9   2354 34.08                             111   -20.4 0  324 357 
 LL6C HN ES   2   2355  9.63                                   -0.14 3  324 357 
 LL6C HZ I        2355 15.80         8.9 0.46            113            324 357 
 CBOC HZ EP   4   2354 57.21                             110    1.26 0  334 252 
 CBOC HN ES   3   2355 31.43                             110   -1.33 2  334 252 
 CBOC HZ I        2355 41.12         2.7 0.33            111            334 252 
 PRA  HZ EP       2355  2.55                             107   -0.03 6  393 210 
 PRA  HE ES       2355 44.14                             107   -0.40 6  393 210 
 PRA  HZ I        2355 50.91        14.9 0.72            108            393 210 
 ORTC HZ EP       2355  3.06                             107    0.09 6  397 216 
 ORTC HN ES   3   2355 46.64                             107    1.39 1  397 216 
 ORTC HZ I        2355 50.23         7.4 0.24            108            397 216 
 SJC  HZ EP       2355  3.05                             106   -1.35 6  409 327 
 SJC  HN ES   4   2355 44.17                             106   -3.62 0  409 327 
 SJC  HZ I        2355 50.93         4.2 0.60            108            409 327 
 CRJC HZ EP   9   2355  9.18                             104   -2.07 0  467   3 
 CRJC HE ES       2355 57.80                             104   -0.12 5  467   3 
 CRJC HZ I        2356 11.55         8.4 0.40            106            467   3 
                                                                                
