 2013  412 2332 10.4 L   6.808 -73.135146.1  RSN  7 0.4 1.7LRSN                1
 GAP=137        0.68       3.4     4.8  7.6  0.5196E+00  0.1353E+01 -0.4628E+01E
 Epicentro: LOS SANTOS - SANTANDER                                             3
 ACTION:UPD 13-05-22 14:37 OP:EP   STATUS:               ID:20130412233210 L   I
 2013-04-12-2329-50M.COL___218                                                 6
 STAT SP IPHASW D HRMM SECON CODA AMPLIT PERI AZIMU VELO AIN AR TRES W  DIS CAZ7
 BAR2 SZ ES   2   2332 44.78                             170   -0.63 5 24.4 192 
 BAR2 SZ I        2332 46.03        13.1 0.22            170           24.4 192 
 BRR  HE ES   1   2332 48.68                             152    0.55 7 71.8 297 
 PAM  SZ EP   1   2332 33.06                             151    0.54 7 75.9  39 
 PAM  SN ES   1   2332 49.82                             151    0.01 7 75.9  39 
 PAM  SN I        2332 51.06        18.2 0.46            153           75.9  39 
 RUS  HZ EP   1   2332 34.10                             144   -0.10 7  101 177 
 RUS  HE ES   1   2332 52.69                             144   -0.11 7  101 177 
 RUS  HZ I        2332 54.00         2.8 0.24            145            101 177 
 PTB  HN ES   1   2332 58.53                             132   -0.09 7  149 259 
 PTB  HZ I        2333  2.97         4.4 0.32            131            149 259 
 OCA  HN ES   1   2333  0.17                             130   -0.50 7  160 353 
 OCA  HZ I        2333  4.07         9.4 0.18            130            160 353 
 SML  HZ EP   2   2332 46.61                             118   -0.35 4  243 335 
 SML  HN ES   1   2333 15.48                             118   -0.04 6  243 335 
                                                                                
