 2013  712 2305 18.2 L   6.802 -73.138153.0  RSN 11 0.3 2.2LRSN                1
 GAP=137        0.80       2.7     3.3  4.8 -0.1096E+01  0.3753E+01 -0.3349E+00E
 Epicentro: LOS SANTOS - SANTANDER                                             3
 ACTION:UPD 13-08-12 10:37 OP:ep   STATUS:               ID:20130712230518 L   I
 OLDACT:REG 13-07-12 21:24 OP:jn   STATUS:               ID:20130712225959     3
 2013-07-12-2259-59M.COL___266                                                 6
 STAT SP IPHASW D HRMM SECON CODA AMPLIT PERI AZIMU VELO AIN AR TRES W  DIS CAZ7
 BAR2 SZ IP     D 23 5 38.66                             171   -0.0310 23.7 192 
 BAR2 SZ ES       23 5 54.67                             171   -0.0210 23.7 192 
 BAR2 SZ I        23 5 55.37        20.9 0.22            170           23.7 192 
 GIR2 SZ EP       23 5 38.78                             168    0.0610 31.2 349 
 BRR  HZ EP     C 23 5 40.53                             153    0.3710 71.9 298 
 BRR  HN ES       23 5 57.95                             153    0.6610 71.9 298 
 BRR  HZ I        23 6  2.87        17.5 0.14            151           71.9 298 
 PAM  SZ EP       23 5 41.44                             152    0.3110 76.6  39 
 PAM  SE ES       23 5 58.72                             152   -0.3110 76.6  39 
 PAM  SZ I        23 6  0.85        27.0 0.54            156           76.6  39 
 RUS  HZ EP     C 23 5 42.53                             145   -0.1410  101 177 
 RUS  HE ES       23 6  1.60                             145   -0.1610  101 177 
 RUS  HZ I        23 6  2.69         9.1 0.38            148            101 177 
 PTB  HZ EP       23 5 45.50                             133   -0.33 9  149 259 
 PTB  HN ES       23 6  6.91                             133   -0.49 9  149 259 
 PTB  HZ I        23 6 12.63        26.2 0.40            133            149 259 
 SPBC HZ EP       23 5 47.60                             130    0.28 9  164 219 
 SPBC HN ES       23 6  9.82                             130   -0.22 9  164 219 
 ZAR  HE ES       23 6 16.97                             124    0.04 9  205 292 
 ZAR  HZ I        23 6 23.22        24.6 0.50            124            205 292 
 NOR  HZ EP       23 5 54.44                             120    0.00 8  236 235 
 NOR  HN ES       23 6 23.05                             120    0.34 8  236 235 
 NOR  HZ I        23 6 28.47        10.4 0.22            121            236 235 
 SML  HZ EP   1   23 5 55.30                             119    0.06 6  244 335 
 SML  HN ES       23 6 23.60                             119   -0.55 8  244 335 
 GUY2CHZ EP   4   23 6  3.80                             114    1.56 0  302 235 
 GUY2CHN ES   4   23 6 39.60                             114    3.01 0  302 235 
 GUY2CHZ I        23 6 45.51        12.6 0.78                           302 235 
                                                                                
