 2012  512 2256 11.5 L   6.708 -73.222152.5  RSN  4 0.3 1.3LRSN                1
 GAP=212        0.67       6.9     7.0  8.8  0.2346E+02 -0.8960E+01 -0.8407E+01E
 Epicentro: VILLANUEVA - SANTANDER                                             3
 ACTION:UP  12-07-05 12:04 OP:pat  STATUS:               ID:20120512225611 L   I
 2012-05-12-2250-00M.COL___195                                                 6
 STAT SP IPHASW D HRMM SECON CODA AMPLIT PERI AZIMU VELO SNR AR TRES W  DIS CAZ7
 BAR2 SZ EP   1   2256 31.29                             175    -0.5 7   14 161 
 BRR  HZ EP       2256 33.41                             154     0.110   70 309 
 BRR  HN ES   1   2256 50.48                             154     0.1 7   70 309 
 BRR  HZ I        2256 52.29         6.1 0.10                            70 309 
 RUS  HZ EP   1   2256 35.76                             148     0.4 7   92 170 
 RUS  HN ES   1   2256 53.83                             148    -0.1 7   92 170 
 RUS  HZ I        2256 54.67         2.1 0.30                            92 170 
 PTB  HZ EP   1   2256 38.06                             136    -0.1 7  138 262 
 PTB  HN ES   1   2256 58.92                             136     0.0 7  138 262 
 PTB  HZ I        2257  2.30         1.8 0.12                           138 262 
                                                                                
