 2017  812 2347 19.6 L   6.763 -73.103139.7  RSN  5 0.3 1.3LRSN                1
 GAP=144        0.81       4.1     5.5  6.5  0.1328E+01  0.1001E+00  0.2164E+00E
 Epicentro: LOS SANTOS - SANTANDER                                             3
 ACTION:UPD 17-09-04 20:19 OP:rebc STATUS:               ID:20170812234719 L   I
 OLDACT:DUP 17-08-13 07:48 OP:osc  STATUS:               ID:20170812233742d    3
 2017-08-12-2338-00M.COL___419                                                 6
 STAT SP IPHASW D HRMM SECON CODA AMPLIT PERI AZIMU VELO AIN AR TRES W  DIS CAZ7
 BAR2 EZ EP       2347 38.28                             171   -0.2210 20.7 205 
 BAR2 EZ ES       2347 52.75                             171   -0.4610 20.7 205 
 BRR  HZ EP       2347 40.27                             149   -0.2510 77.3 300 
 BRR  HE ES       2347 57.30                             149    0.5110 77.3 300 
 PAM  EZ EP       2347 41.33                             149    0.0710 77.9  35 
 PAM  EN ES       2347 58.15                             149    0.0410 77.9  35 
 PAM  EZ I        2348  0.51         9.3 0.30            149           77.9  35 
 RUS  HZ EP       2347 42.82                             144    0.3310 96.2 179 
 RUS  HN ES       2348  0.41                             144    0.1010 96.2 179 
 RUS  HZ I        2348  1.55         1.8 0.22            145           96.2 179 
 ZAR  HN ES   2   2348 17.13                             120   -0.69 4  210 293 
                                                                                
