 2016  312 2128 15.1 L   6.806 -73.147141.4  RSN  9 0.4 1.8LRSN                1
 GAP=136        0.97       3.8     4.0  6.7 -0.2726E+01  0.9077E+01  0.3224E+01E
 Epicentro: LOS SANTOS - SANTANDER                                             3
 ACTION:UPD 16-05-13 21:23 OP:cam  STATUS:               ID:20160312212815 L   I
 OLDACT:DUP 16-03-13 04:59 OP:ak   STATUS:               ID:20160312211751d    3
 2016-03-12-2117-50M.COL___293                                                 6
 STAT SP IPHASW D HRMM SECON CODA AMPLIT PERI AZIMU VELO AIN AR TRES W  DIS CAZ7
 BAR2 EZ EP       2128 34.33                             170    0.1010 23.9 189 
 BAR2 EZ ES       2128 49.14                             170   -0.0010 23.9 189 
 BAR2 EZ I        2128 50.36        20.6 0.09            169           23.9 189 
 PAM  EZ EP       2128 37.11                             150    0.2710 77.0  40 
 PAM  EN ES       2128 53.86                             150    0.0710 77.0  40 
 PAM  EZ I        2128 54.75         9.2 0.32            152           77.0  40 
 RUS  HZ EP       2128 38.19                             143   -0.2910  101 176 
 RUS  HE ES       2128 56.56                             143   -0.1510  101 176 
 RUS  HZ I        2128 57.75         4.9 0.20            143            101 176 
 PTB  HZ EP       2128 40.97                             131   -0.75 9  148 259 
 PTB  HN ES       2129  1.64                             131   -0.84 9  148 259 
 PTB  HZ I        2129  3.98         8.6 0.16            130            148 259 
 SPBC HZ EP   2   2128 42.38                             128   -0.93 5  164 219 
 SPBC HN ES       2129  5.79                             128    0.48 9  164 219 
 ZAR  HZ EP   2   2128 47.90                             121    0.67 4  204 292 
 ZAR  HN ES       2129 12.95                             121    0.66 9  204 292 
 ZAR  HZ I        2129 18.64         8.9 0.28            121            204 292 
 NOR  HZ EP   2   2128 50.38                             117   -0.23 4  235 234 
 NOR  HN ES       2129 18.51                             117    0.20 8  235 234 
 NOR  HZ I        2129 20.33         7.9 0.18            117            235 234 
 CHI  HZ EP       2128 52.77                             116    0.14 8  249 195 
 CHI  HN ES       2129 22.35                             116    0.45 8  249 195 
 CHI  HZ I        2129 28.39         3.5 0.38            116            249 195 
 GUY2CHZ EP   2   2128 58.49                             111   -0.05 4  301 235 
 GUY2CHE ES       2129 32.68                             111    0.26 7  301 235 
 GUY2CHZ I        2129 41.03         5.4 0.34                           301 235 
                                                                                
