 2017 1112 2000 34.1 L   6.754 -73.173143.5  RSN  6 0.4 1.4LRSN                1
 GAP=135        0.91       5.1     4.9  7.3  0.7012E+01  0.4225E+01 -0.3497E+01E
 Epicentro: LOS SANTOS - SANTANDER                                             3
 ACTION:UPD 17-12-12 19:54 OP:rebc STATUS:               ID:20171112200034 L   I
 OLDACT:UP  17-11-13 03:59 OP:dani STATUS:               ID:20171112195742     3
 OLDACT:REG 17-11-13 03:30 OP:dani STATUS:               ID:20171112195742     3
 2017-11-12-1958-00M.COL___453                                                 6
 STAT SP IPHASW D HRMM SECON CODA AMPLIT PERI AZIMU VELO AIN AR TRES W  DIS CAZ7
 BAR2 EZ ES       20 1  8.27                             173   -0.0710 17.9 183 
 PAM  EZ EP       20 0 56.41                             149    0.0110 83.3  39 
 PAM  EZ I        20 1 15.76         6.2 0.38            131           83.3  39 
 RUS  HZ EP       20 0 57.00                             145   -0.2510 95.7 174 
 RUS  HN ES       20 1 15.68                             145    0.3510 95.7 174 
 RUS  HZ I        20 1 16.88         4.5 0.32            138           95.7 174 
 PTB  HZ EP       20 1  0.18                             132   -0.31 9  144 261 
 PTB  HN ES       20 1 20.55                             132   -0.56 9  144 261 
 PTB  HZ I        20 1 23.19         2.7 0.16            128            144 261 
 ZAR  HE ES       20 1 32.16                             122    0.75 9  203 294 
 CHI  HZ EP   1   20 1 11.15                             117    0.14 6  243 195 
 CHI  HN ES   1   20 1 40.20                             117    0.36 6  243 195 
 CHI  HZ I        20 1 47.75         1.7 0.55            110            243 195 
                                                                                
