 2016 1112 2331 39.7 L   6.792 -73.116149.0  RSN  8 0.5 1.8LRSN                1
 GAP=159        1.05       5.8     4.8  7.2 -0.6412E+01  0.3859E+01  0.1946E+02E
 Epicentro: LOS SANTOS - SANTANDER                                             3
 ACTION:UPD 17-10-26 21:07 OP:lp   STATUS:               ID:20161112233139 L   I
 OLDACT:UP  16-11-13 08:09 OP:cog  STATUS:               ID:20161112232745d    3
 OLDACT:UP  16-11-13 08:04 OP:cog  STATUS:               ID:20161112232745d    3
 OLDACT:UP  16-11-13 08:02 OP:cog  STATUS:               ID:20161112232745d    3
 OLDACT:DUP 16-11-13 05:51 OP:cog  STATUS:               ID:20161112232745d    3
 2016-11-12-2328-00M.COL___340                                                 6
 STAT SP IPHASW D HRMM SECON CODA AMPLIT PERI AZIMU VELO AIN AR TRES W  DIS CAZ7
 BAR2 EZ EP       2331 59.89                             171    0.1410 23.3 198 
 BAR2 EZ ES       2332 14.87                             171   -0.4910 23.3 198 
 BAR2 EZ I        2332 16.30        17.4 0.16            169           23.3 198 
 BRR  HZ EP       2332  1.92                             152    0.5110 74.5 298 
 BRR  HN ES       2332 19.11                             152    0.7810 74.5 298 
 BRR  HZ I        2332 23.47         8.7 0.23            152           74.5 298 
 PAM  EZ EP       2332  1.93                             152   -0.2810 76.0  37 
 PAM  EN ES       2332 19.72                             152   -0.0310 76.0  37 
 PAM  EZ I        2332 22.55         5.4 0.52            156           76.0  37 
 PTB  HZ EP       2332  6.81                             132   -0.42 9  151 259 
 PTB  HN ES       2332 27.94                             132   -0.75 9  151 259 
 PTB  HZ I        2332 29.82         5.6 0.12            133            151 259 
 ZAR  HZ EP   3   2332 10.79                             122   -1.94 2  207 292 
 ZAR  HE ES       2332 38.42                             122   -0.05 8  207 292 
 ZAR  HZ I        2332 43.97         9.3 0.52            124            207 292 
 NOR  HZ EP       2332 15.71                             119   -0.17 8  237 235 
 NOR  HN ES       2332 44.39                             119    0.32 8  237 235 
 NOR  HZ I        2332 49.32         6.6 0.35            120            237 235 
 CHI  HZ EP       2332 18.02                             118    0.41 8  249 196 
 CHI  HN ES   4   2332 45.43                             118   -1.73 0  249 196 
 CHI  HZ I        2332 54.39         2.6 0.25            119            249 196 
 PRA  HZ EP       2332 33.63                             107    0.17 6  393 210 
 PRA  HE ES       2333 15.63                             107    0.26 6  393 210 
                                                                                
