 2017 1012 2149 47.1 L   6.772 -73.112142.8  RSN  8 0.3 1.4LRSN                1
 GAP=142        0.67       2.8     2.8  4.5 -0.1116E+01  0.4453E+01  0.2814E+01E
 Epicentro: LOS SANTOS - SANTANDER                                             3
 ACTION:UPD 17-11-07 19:31 OP:rebc STATUS:               ID:20171012214947 L   I
 OLDACT:REG 17-10-13 04:11 OP:osc  STATUS:               ID:20171012214523     3
 2017-10-12-2148-00M.COL___426                                                 6
 STAT SP IPHASW D HRMM SECON CODA AMPLIT PERI AZIMU VELO AIN AR TRES W  DIS CAZ7
 BAR2 EZ EP       2150  6.27                             171   -0.1010 21.4 201 
 BAR2 EZ ES       2150 21.10                             171   -0.2710 21.4 201 
 BAR2 EZ I        2150 21.83         6.3 0.22            168           21.4 201 
 PAM  EZ EP       2150  9.17                             150    0.1310 77.5  36 
 PAM  EN ES       2150 25.97                             150   -0.1610 77.5  36 
 PAM  EZ I        2150 28.35         8.3 0.36            153           77.5  36 
 RUS  HZ EP       2150 10.77                             144    0.4110 97.3 178 
 RUS  HN ES       2150 28.84                             144    0.3610 97.3 178 
 RUS  HZ I        2150 30.23         3.5 0.42            142           97.3 178 
 PTB  HZ EP   3   2150 13.24                             131   -0.91 2  151 260 
 PTB  HE ES       2150 35.21                             131   -0.01 9  151 260 
 PTB  HZ I        2150 36.33         3.6 0.20            131            151 260 
 ZAR  HZ ES       2150 45.70                             121    0.30 8  209 293 
 NOR  HZ EP       2150 22.32                             118   -0.51 8  236 236 
 NOR  HE ES       2150 50.48                             118   -0.20 8  236 236 
 NOR  HZ I        2150 57.30         2.6 0.24            118            236 236 
 CHI  HZ EP       2150 24.43                             117   -0.03 8  247 196 
 CHI  HN ES       2150 53.28                             117   -0.29 8  247 196 
 CHI  HZ I        2151  1.79         1.6 0.42            116            247 196 
 GUY2CHZ EP       2150 30.66                             112   -0.09 7  303 236 
 GUY2CHN ES       2151  5.12                             112    0.34 7  303 236 
 GUY2CHZ I        2151 11.12         1.1 0.32                           303 236 
                                                                                
