 2014  912 2042 42.2 L   7.000 -73.308129.4  RSN  4 0.2 1.6LRSN                1
 GAP=173        0.42      10.7     7.1  6.2 -0.7106E+02 -0.1442E+02  0.3338E+02E
 Epicentro: BETULIA - SANTANDER                                                3
 ACTION:UPD 14-10-03 23:04 OP:nd   STATUS:               ID:20140912204242 L   I
 OLDACT:REG 14-09-13 03:57 OP:fm   STATUS:               ID:20140912203820     3
 2014-09-12-2038-20M.COL___293                                                 6
 STAT SP IPHASW D HRMM SECON CODA AMPLIT PERI AZIMU VELO AIN AR TRES W  DIS CAZ7
 PAM  SZ EP       2043  2.65                             148   -0.0010 76.9  61 
 PAM  SN ES   1   2043 18.64                             148    0.02 7 76.9  61 
 PAM  SZ I        2043 22.04         7.4 0.68            154           76.9  61 
 PTB  HN ES   1   2043 26.04                             130   -0.01 7  137 248 
 PTB  HZ I        2043 29.51         4.9 0.32            135            137 248 
 NOR  HZ EP   1   2043 16.60                             115   -0.41 6  235 227 
 NOR  HN ES       2043 44.10                             115   -0.09 8  235 227 
 NOR  HZ I        2043 48.29         4.1 0.16            119            235 227 
 GUY2CHZ EP       2043 25.26                             109    0.24 7  301 229 
 GUY2CHN ES       2043 58.60                             109    0.16 7  301 229 
 GUY2CHZ I        2044  4.76         1.6 0.28                           301 229 
                                                                                
