 2016  912 2216  5.8 L   6.789 -73.125150.0  RSN  5 0.3 1.6LRSN                1
 GAP=140        0.87       4.6     5.0  6.9  0.5013E+01  0.3789E+01 -0.2587E+00E
 Epicentro: LOS SANTOS - SANTANDER                                             3
 ACTION:UPD 17-08-17 21:09 OP:lp   STATUS:               ID:20160912221605 L   I
 OLDACT:DUP 16-09-13 03:51 OP:dani STATUS:               ID:20160912220743d    3
 OLDACT:REG 16-09-13 02:45 OP:dani STATUS:               ID:20160912220742     3
 2016-09-12-2208-00M.COL___311                                                 6
 STAT SP IPHASW D HRMM SECON CODA AMPLIT PERI AZIMU VELO AIN AR TRES W  DIS CAZ7
 BAR2 EZ EP       2216 25.74                             171   -0.1910 22.7 196 
 BAR2 EZ ES       2216 41.64                             171    0.0110 22.7 196 
 BAR2 EZ I        2216 44.20         5.7 0.15            171           22.7 196 
 BRR  HZ EP       2216 27.73                             152    0.1710 73.7 299 
 BRR  HN ES       2216 45.12                             152    0.6010 73.7 299 
 BRR  HZ I        2216 48.09        11.7 0.39            154           73.7 299 
 PAM  EZ EP       2216 28.59                             152    0.1410 76.9  38 
 PAM  EE ES       2216 45.80                             152   -0.3010 76.9  38 
 PAM  EZ I        2216 48.11        11.0 0.59            155           76.9  38 
 RUS  HZ EP       2216 30.13                             145    0.2510 99.2 177 
 RUS  HN ES       2216 48.42                             145   -0.2410 99.2 177 
 RUS  HZ I        2216 51.36         2.7 0.23            147           99.2 177 
 ZAR  HE ES       2217  3.90                             123   -0.62 8  207 292 
                                                                                
