 2010  412 2300 17.4 L   6.790 -73.042151.5  RSN  5 0.3 2.1LRSN                1
 GAP=222        0.58       5.0     8.1  5.8 -0.1029E+02 -0.1677E+01 -0.3186E+01E
 Epicentro: LOS SANTOS - SANTANDER                                             3
 ACTION:UPD 10-08-24 09:58 OP:vdl  STATUS:               ID:20100412230017 L   I
 2010-04-12-2258-46S.COL___097                                                 6
 STAT SP IPHASW D HRMM SECON CODA AMPLIT PERI AZIMU VELO AIN AR TRES W  DIS CAZ7
 BAR2 SZ IP       23 0 37.78                             169     0.010   27 216 
 BAR2 SZ ES   1   23 0 53.52                             169    -0.2 7   27 216 
 BRR  HZ IP     D 23 0 40.15                             150     0.410   82 295 
 BRR  HZ I        23 0 40.44        22.3 0.09                            82 295 
 BRR  HE ES   1   23 0 57.14                             150    -0.1 7   82 295 
 OCA  SZ EP       23 0 46.21                             130    -0.2 9  163 349 
 RREF BZ EP   2   23 1  4.33                             111    -0.4 3  330 231 
 RREF BE ES   2   23 1 40.97                             111    -0.6 3  330 231 
 RREF BZ I        23 1 50.34         5.1 0.36                           330 231 
 PRA  HZ EP   3   23 1 11.77                             107     0.1 1  397 211 
 PRA  HN ES   2   23 1 54.55                             107     0.5 3  397 211 
 PRA  HZ I        23 1 57.72         3.6 0.45                           397 211 
                                                                                
