 2015  212 2127 40.0 L   6.846 -73.167148.8  RSN  9 0.4 2.3LRSN                1
 GAP=140        1.06       4.2     5.2  7.0 -0.5993E+01  0.7479E+01  0.7897E+01E
 Epicentro: ZAPATOCA - SANTANDER                                               3
 ACTION:UPD 15-04-30 21:25 OP:nd   STATUS:               ID:20150212212740 L   I
 OLDACT:UP  15-02-13 09:16 OP:cam  STATUS:               ID:20150212211747     3
 OLDACT:REG 15-02-13 08:22 OP:cam  STATUS:               ID:20150212211747     3
 2015-02-12-2117-47M.COL___275                                                 6
 STAT SP IPHASW D HRMM SECON CODA AMPLIT PERI AZIMU VELO AIN AR TRES W  DIS CAZ7
 BAR2 EZ EP       2127 59.84                             169   -0.2910 28.1 184 
 BAR2 EZ ES       2128 15.53                             169   -0.2810 28.1 184 
 BAR2 EZ I        2128 16.47        32.9 0.52            168           28.1 184 
 BRR  HZ EP       2128  1.62                             155    0.3510 66.8 296 
 BRR  HE ES       2128 18.39                             155    0.5510 66.8 296 
 BRR  HZ I        2128 19.86        37.8 0.22            149           66.8 296 
 PAM  SZ EP       2128  2.86                             152    0.4210 75.1  43 
 PAM  SN ES       2128 19.98                             152    0.0610 75.1  43 
 PAM  SZ I        2128 22.31        34.0 0.50            154           75.1  43 
 PTB  HZ EP       2128  6.59                             133   -0.55 9  147 257 
 PTB  HN ES       2128 27.97                             133   -0.32 9  147 257 
 PTB  HZ I        2128 34.90        24.2 0.32            130            147 257 
 NOR  HZ EP       2128 16.82                             119    0.76 8  236 233 
 NOR  HE ES       2128 44.25                             119    0.10 8  236 233 
 NOR  HZ I        2128 52.01        13.2 0.34            118            236 233 
 SML  HN ES       2128 43.79                             119   -0.68 8  238 335 
 SML  HZ I        2128 53.49        20.7 0.10            117            238 335 
 CHI  HZ EP       2128 18.05                             117   -0.31 8  253 194 
 CHI  HN ES       2128 47.84                             117   -0.42 8  253 194 
 CHI  HZ I        2128 52.44         6.2 0.30            117            253 194 
 GUY2CHZ EP   4   2128 25.67                             113    1.77 0  302 234 
 GUY2CHE ES   4   2128 59.62                             113    1.50 0  302 234 
 GUY2CHZ I        2129  8.35        11.3 0.70                           302 234 
 TOL  SZ EP   4   2128 30.25                             110    1.61 0  345 224 
 TOL  SN ES       2129  7.20                             110    0.65 6  345 224 
 TOL  SN I        2129 14.83        22.4 0.42            109            345 224 
                                                                                
