 2013  912 2030 53.1 L   6.818 -73.139146.0  RSN 16 0.5 2.4LRSN                1
 GAP=136        0.88       2.6     4.6  5.2 -0.1886E+01  0.4912E+01  0.1815E+01E
 Epicentro: LOS SANTOS - SANTANDER                                             3
 ACTION:UPD 13-10-22 09:22 OP:ep   STATUS:               ID:20130912203053 L   I
 OLDACT:UP  13-09-12 22:38 OP:mh   STATUS:               ID:20130912202959     3
 OLDACT:UP  13-09-12 22:38 OP:mh   STATUS:               ID:20130912202959     3
 OLDACT:REG 13-09-12 21:15 OP:mh   STATUS:               ID:20130912202959     3
 2013-09-12-2029-59M.COL___269                                                 6
 STAT SP IPHASW D HRMM SECON CODA AMPLIT PERI AZIMU VELO AIN AR TRES W  DIS CAZ7
 BAR2 SZ EP   1   2031 12.80                             170    0.03 7 25.4 191 
 BAR2 SZ ES   1   2031 27.94                             170   -0.19 7 25.4 191 
 BAR2 SZ I        2031 29.46        66.5 0.16            170           25.4 191 
 BRR  HZ EP   1   2031 14.72                             153    0.49 7 70.9 297 
 BRR  HN ES       2031 31.54                             153    0.8110 70.9 297 
 BRR  HZ I        2031 32.23        64.8 0.12            150           70.9 297 
 PAM  SZ EP   1   2031 15.76                             152    0.57 7 75.4  40 
 PAM  SN ES   1   2031 32.59                             152    0.14 7 75.4  40 
 PAM  SZ I        2031 34.96        79.3 0.50            152           75.4  40 
 RUS  HZ EP       2031 16.82                             143   -0.1610  102 177 
 RUS  HN ES   1   2031 35.35                             143   -0.28 7  102 177 
 RUS  HZ I        2031 36.48        29.3 0.30            145            102 177 
 PTB  HZ EP   1   2031 19.39                             132   -0.76 7  149 258 
 PTB  HN ES   2   2031 40.44                             132   -0.83 5  149 258 
 PTB  HZ I        2031 41.77        23.9 0.18            130            149 258 
 OCA  HZ EP   1   2031 20.94                             130   -0.28 7  158 353 
 OCA  HN ES       2031 42.76                             130   -0.42 9  158 353 
 OCA  HZ I        2031 47.46        27.4 0.52            129            158 353 
 SPBC HZ EP   1   2031 22.61                             129    0.84 7  165 219 
 SPBC HN ES   1   2031 43.91                             129   -0.24 7  165 219 
 SPBC HZ I        2031 46.18        48.2 0.28            128            165 219 
 ZAR  HZ EP   1   2031 25.65                             123    0.13 6  204 292 
 ZAR  HN ES   1   2031 50.95                             123    0.12 6  204 292 
 ZAR  HZ I        2031 56.77        20.1 0.30            121            204 292 
 NOR  HZ EP   1   2031 29.06                             119    0.07 6  236 234 
 NOR  HN ES   1   2031 56.64                             119   -0.37 6  236 234 
 NOR  HZ I        2031 59.17        14.8 0.16            118            236 234 
 SML  HZ EP   1   2031 29.13                             118   -0.42 6  242 335 
 SML  HE ES   1   2031 57.53                             118   -0.47 6  242 335 
 SML  HZ I        2032  1.12        59.9 0.10            117            242 335 
 CHI  HZ EP   1   2031 31.06                             117    0.06 6  251 195 
 CHI  HN ES   1   2032  0.30                             117   -0.29 6  251 195 
 CHI  HZ I        2032  3.84        17.1 0.46            117            251 195 
 ROSC BZ EP   4   2031 33.27                             117    1.85 0  255 211 
 ROSC BN ES   1   2032  1.04                             117   -0.29 6  255 211 
 GUY2CHZ EP   1   2031 37.88                             112    1.00 5  303 235 
 GUY2CHN ES   4   2032 12.10                             112    1.05 0  303 235 
 GUY2CHZ I        2032 19.08        11.7 0.34                           303 235 
 RREF HZ EP   1   2031 40.01                             111    0.59 5  324 229 
 RREF HN ES   4   2032 17.83                             111    2.25 0  324 229 
 RREF HZ I        2032 24.75        16.2 0.40            111            324 229 
 COD  HZ EP   1   2031 40.52                             109   -0.72 5  346 354 
 COD  HN ES   4   2032 17.36                             109   -1.45 0  346 354 
 COD  HZ I        2032 27.32         4.2 0.24            109            346 354 
 PRA  HZ EP   1   2031 46.78                             107   -0.05 4  394 210 
 PRA  HN ES       2032 28.56                             107   -0.21 6  394 210 
                                                                                
