 2011  712 2320 17.3 L   6.777 -73.122144.7  RSN  7 0.3 2.1LRSN                1
 GAP=158        0.53       3.2     4.7  5.4 -0.1946E+01  0.4307E+01  0.5797E+00E
 Epicentro: LOS SANTOS - SANTANDER                                             3
 ACTION:UPD 12-07-25 14:00 OP:epov STATUS:               ID:20110712232017 L   I
 2011-07-12-2317-18S.COL___143                                                 6
 STAT SP IPHASW D HRMM SECON CODA AMPLIT PERI AZIMU VELO AIN AR TRES W  DIS CAZ7
 BAR2 SZ EP   1   2320 36.51                             171   -0.22 7 21.5 198 
 BAR2 SZ ES   2   2320 51.18                             171   -0.74 5 21.5 198 
 BAR2 SZ I        2320 55.14        23.9 0.23                          21.5 198 
 BRR  HZ EP   1   2320 38.63                             151    0.12 7 74.8 299 
 BRR  HN ES   1   2320 55.44                             151    0.36 7 74.8 299 
 BRR  HZ I        2321  1.00        23.7 0.11                          74.8 299 
 RUS  HZ EP   1   2320 40.85                             144    0.13 7 97.8 178 
 RUS  HE ES   1   2320 59.27                             144    0.26 7 97.8 178 
 RUS  HZ I        2321  1.05        15.9 0.41                          97.8 178 
 BRI  SZ EP   2   2320 41.00                             141   -0.17 5  110  19 
 OCA  SZ EP   2   2320 46.24                             129    0.47 5  163 352 
 OCA  SZ ES   2   2321  7.52                             129   -0.48 5  163 352 
 OCA  SZ I        2321 14.41        12.6 0.29                           163 352 
 NOR  SZ EP   1   2320 53.02                             118    0.01 6  235 235 
 NOR  SN ES   1   2321 20.72                             118   -0.17 6  235 235 
 RREF HZ EP   2   2321  2.82                             111   -0.59 3  322 230 
 RREF HN ES   2   2321 39.30                             111   -0.09 3  322 230 
 RREF HZ I        2321 49.94         7.3 0.27                           322 230 
                                                                                
