 2011 1212 2254 35.3 L   6.776 -73.175148.0  RSN 10 0.5 2.0LRSN                1
 GAP=134        0.78       4.8     5.9  7.6 -0.7670E+01  0.1481E+02  0.6445E+01E
 Epicentro: LOS SANTOS - SANTANDER                                             3
 ACTION:UPD 12-07-13 16:15 OP:ep   STATUS:               ID:20111212225435 L   I
 2011-12-12-2250-00M.COL___182                                                 6
 STAT SP IPHASW D HRMM SECON CODA AMPLIT PERI AZIMU VELO AIN AR TRES W  DIS CAZ7
 BAR2 SZ EP   1   2254 55.34                             172    0.16 7 20.3 182 
 BAR2 SZ ES   2   2255 10.15                             172   -0.50 5 20.3 182 
 BAR2 SZ I        2255 12.19        51.3 0.20                          20.3 182 
 GIR2 SZ EP   1   2254 55.56                             166    0.22 7 33.6 357 
 BRR  HZ EP   1   2254 57.02                             153    0.37 7 69.7 302 
 BRR  HN ES   2   2255 14.13                             153    0.87 5 69.7 302 
 BRR  HZ I        2255 16.60        24.9 0.21                          69.7 302 
 PAM  SZ EP   1   2254 58.18                             150    0.14 7 81.5  40 
 PAM  SZ I        2254 58.52        11.0 0.16                          81.5  40 
 PAM  SN ES   1   2255 15.59                             150   -0.15 7 81.5  40 
 RUS  HZ EP   1   2254 59.24                             145    0.10 7 98.2 174 
 RUS  HN ES   2   2255 17.21                             145   -0.49 5 98.2 174 
 RUS  HZ I        2255 19.28         8.9 0.29                          98.2 174 
 PTB  HZ EP   1   2255  1.32                             133   -0.84 7  144 260 
 PTB  HN ES   2   2255 22.31                             133   -0.77 5  144 260 
 NOR  SZ EP   1   2255 10.63                             119   -0.12 6  230 235 
 NOR  SN ES   2   2255 38.63                             119    0.26 4  230 235 
 CHI  HZ EP   1   2255 12.49                             118   -0.30 6  245 195 
 CHI  HN ES   2   2255 42.77                             118    0.77 4  245 195 
 CHI  HZ I        2255 50.98         6.4 0.38                           245 195 
 HEL  HZ EP   1   2255 15.95                             115    0.70 6  268 256 
 COD  HN ES   2   2256  1.11                             109   -0.98 3  351 355 
                                                                                
