 2011  812 2311 41.2 L   6.773 -73.151145.9  RSN  4 0.1 1.6LRSN                1
 GAP=235        0.35       5.0     5.1  5.5  0.3554E+01  0.4046E+01  0.7533E+01E
 Epicentro: LOS SANTOS - SANTANDER                                             3
 ACTION:UPD 12-07-13 15:51 OP:ep   STATUS:               ID:20110812231141 L   I
 2011-08-12-2309-09S.COL___150                                                 6
 STAT SP IPHASW D HRMM SECON CODA AMPLIT PERI AZIMU VELO AIN AR TRES W  DIS CAZ7
 BAR2 SZ EP   1   2312  0.68                             172   -0.10 7 20.3 190 
 BAR2 SZ ES   1   2312 15.96                             172   -0.10 7 20.3 190 
 BAR2 SZ I        2312 18.23         8.9 0.40                          20.3 190 
 BRR  HN ES   2   2312 19.15                             152    0.19 5 72.2 301 
 BRR  HZ I        2312 21.95        10.8 0.35                          72.2 301 
 RUS  HZ EP   2   2312  4.91                             145    0.16 5 97.6 176 
 RUS  HZ I        2312 23.22         5.8 0.38                          97.6 176 
 RUS  HN ES   2   2312 23.28                             145    0.16 5 97.6 176 
 NOR  SN ES   2   2312 44.31                             119   -0.08 4  232 235 
                                                                                
