 2012  612 2336 40.6 L   6.809 -73.163147.1  RSN  8 0.3 2.0LRSN                1
 GAP=134        0.60       2.7     3.4  5.3 -0.6397E+00  0.6825E+01  0.1761E+01E
 Epicentro: LOS SANTOS - SANTANDER                                             3
 ACTION:UP  12-08-06 17:49 OP:ep   STATUS:               ID:20120612233640 L   I
 2012-06-12-2330-00M.COL___201                                                 6
 STAT SP IPHASW D HRMM SECON CODA AMPLIT PERI AZIMU VELO AIN AR TRES W  DIS CAZ7
 BAR2 SZ EP   1   2337  0.45                             170    0.01 7 24.0 185 
 BAR2 SZ ES   1   2337 16.32                             170    0.44 7 24.0 185 
 BAR2 SZ I        2337 18.01        22.4 0.24            170           24.0 185 
 PAM  SZ EP   1   2337  3.27                             151    0.25 7 77.9  41 
 PAM  SN ES   1   2337 20.31                             151   -0.17 7 77.9  41 
 PAM  SZ I        2337 23.10        10.3 0.24            155           77.9  41 
 RUS  HZ EP   1   2337  4.67                             144    0.08 7  102 175 
 RUS  HN ES   1   2337 23.30                             144    0.02 7  102 175 
 RUS  HZ I        2337 24.48        14.9 0.25            146            102 175 
 PTB  HZ EP   1   2337  7.44                             133   -0.11 7  146 258 
 PTB  HN ES   1   2337 28.20                             133   -0.35 7  146 258 
 PTB  HZ I        2337 30.96        14.7 0.12            133            146 258 
 OCA  HN ES   1   2337 30.55                             130   -0.46 7  159 354 
 ZAR  HZ EP   1   2337 12.83                             123   -0.11 6  202 292 
 ZAR  HN ES   1   2337 38.48                             123    0.34 6  202 292 
 ZAR  HZ I        2337 45.85        14.7 0.21            124            202 292 
 NOR  SZ EP   1   2337 16.86                             119    0.53 6  234 234 
 NOR  SE ES   1   2337 44.28                             119    0.11 6  234 234 
 CHI  HZ EP   1   2337 18.50                             117    0.05 6  249 195 
 CHI  HE ES   1   2337 47.22                             117   -0.73 6  249 195 
 CHI  HZ I        2337 54.24         5.6 0.25            119            249 195 
                                                                                
