 2016  612 2000 44.3 L   6.785 -73.166148.4  RSN 11 0.3 1.9LRSN                1
 GAP=135        0.72       2.3     3.2  4.3 -0.2447E+01  0.3108E+01  0.1844E+01E
 Epicentro: LOS SANTOS - SANTANDER                                             3
 ACTION:UPD 16-07-21 22:18 OP:rebc STATUS:               ID:20160612200044 L   I
 OLDACT:REG 16-06-13 03:18 OP:ak   STATUS:               ID:20160612195743     3
 2016-06-12-1957-43M.COL___328                                                 6
 STAT SP IPHASW D HRMM SECON CODA AMPLIT PERI AZIMU VELO AIN AR TRES W  DIS CAZ7
 BAR2 EZ EP       20 1  4.39                             171    0.1410 21.4 185 
 BAR2 EZ ES       20 1 19.63                             171   -0.1410 21.4 185 
 BAR2 EZ I        20 1 20.97        28.0 0.28                          21.4 185 
 BRR  HZ IP     C 20 1  6.17                             153    0.4610 70.1 301 
 BRR  HN ES       20 1 22.88                             153    0.5010 70.1 301 
 BRR  HZ I        20 1 25.83        13.0 0.12                          70.1 301 
 PAM  EZ EP       20 1  7.27                             150    0.2710 80.1  40 
 PAM  EN ES       20 1 24.49                             150   -0.1810 80.1  40 
 PAM  EZ I        20 1 27.88         5.5 0.56                          80.1  40 
 RUS  HZ EP       20 1  8.36                             145    0.1210 99.1 175 
 RUS  HN ES       20 1 26.63                             145   -0.2510 99.1 175 
 RUS  HZ I        20 1 28.45         8.0 0.26                          99.1 175 
 PTB  HZ EP       20 1 11.02                             133   -0.28 9  145 259 
 PTB  HN ES       20 1 32.06                             133   -0.26 9  145 259 
 PTB  HZ I        20 1 34.83         6.3 0.08                           145 259 
 SPBC HZ EP   2   20 1 13.09                             130    0.31 5  160 219 
 SPBC HN ES       20 1 34.71                             130   -0.26 9  160 219 
 SPBC HZ I        20 1 40.21        18.1 0.24                           160 219 
 OCA  HZ EP   2   20 1 12.99                             130    0.00 5  162 354 
 OCA  HN ES       20 1 34.92                             130   -0.41 9  162 354 
 OCA  HZ I        20 1 37.71        16.9 0.31                           162 354 
 NOR  HZ EP       20 1 19.55                             119   -0.37 8  232 234 
 NOR  HE ES       20 1 48.14                             119    0.46 8  232 234 
 NOR  HZ I        20 1 56.19         6.1 0.14                           232 234 
 CHI  HZ EP   2   20 1 21.71                             118   -0.23 4  246 195 
 CHI  HN ES       20 1 51.61                             118    0.33 8  246 195 
 CHI  HZ I        20 1 55.34         5.0 0.68                           246 195 
 GUY2CHZ EP   2   20 1 26.98                             113   -0.77 4  298 235 
 GUY2CHN ES       20 2  1.47                             113   -0.15 7  298 235 
 GUY2CHZ I        20 2 10.62         4.7 0.36                           298 235 
 PRA  HZ EP   2   20 1 38.01                             107    0.36 3  389 209 
 PRA  HN ES       20 2 19.10                             107   -0.13 6  389 209 
 PRA  HZ I        20 2 26.57         6.1 0.45                           389 209 
                                                                                
