 2014  112 2331 15.8 L   6.373 -73.695 93.5  RSN 12 0.4 1.7LRSN                1
 GAP= 61        1.00       2.6     2.8  6.4  0.2367E+00  0.2897E+01 -0.2922E+01E
 Epicentro: SANTA HELENA DEL OPON - SANTANDER                                  3
 ACTION:UPD 14-03-13 09:54 OP:ep   STATUS:               ID:20140112233115 L   I
 OLDACT:REG 14-01-12 22:15 OP:mh   STATUS:               ID:20140112233000     3
 2014-01-12-2330-00M.COL___285                                                 6
 STAT SP IPHASW D HRMM SECON CODA AMPLIT PERI AZIMU VELO AIN AR TRES W  DIS CAZ7
 BAR2 SZ ES   1   2331 43.76                             144    0.52 7 61.6  67 
 BAR2 SZ I        2331 46.04        40.0 0.33            145           61.6  67 
 BRR  HZ EP   1   2331 32.20                             136   -0.22 7 81.2 359 
 BRR  HN ES   2   2331 45.54                             136    0.14 5 81.2 359 
 BRR  HZ I        2331 54.75         8.0 0.15            135           81.2 359 
 RUS  HZ EP       2331 33.13                             135   -0.3910 86.1 128 
 RUS  HN ES       2331 47.12                             135   -0.2510 86.1 128 
 RUS  HZ I        2331 49.67         3.6 0.11            139           86.1 128 
 PTB  HZ EP       2331 33.29                             134    0.4110 86.2 282 
 PTB  HN ES       2331 45.79                             134   -0.4410 86.2 282 
 PTB  HZ I        2331 47.99        83.2 0.04            136           86.2 282 
 SPBC HZ EP   1   2331 32.83                             133   -0.50 7 90.0 208 
 SPBC HN ES       2331 46.67                             133   -0.3510 90.0 208 
 PAM  SZ EP       2331 40.78                             117    0.48 9  153  46 
 PAM  SN ES   4   2331 57.92                             117   -1.51 0  153  46 
 PAM  SZ I        2332  3.99         3.6 0.30            118            153  46 
 NOR  HZ EP   1   2331 40.63                             116    0.39 7  158 236 
 NOR  HN ES       2332  0.03                             116    0.70 9  158 236 
 NOR  HZ I        2332  2.82         8.0 0.20            119            158 236 
 ZAR  HZ EP       2331 42.41                             113   -0.08 9  178 314 
 ZAR  HN ES       2332  3.32                             113   -0.01 9  178 314 
 ZAR  HZ I        2332  8.61         8.2 0.49            114            178 314 
 CHI  HZ EP       2331 44.19                             111   -0.46 9  193 181 
 CHI  HN ES       2332  7.91                             111    0.73 9  193 181 
 CHI  HZ I        2332 11.20         3.4 0.27            114            193 181 
 HEL  HZ EP       2331 45.51                             110   -0.36 9  204 264 
 HEL  HN ES       2332  9.65                             110    0.30 9  204 264 
 HEL  HZ I        2332 13.72         5.3 0.29            112            204 264 
 OCA  HE ES   2   2332 10.99                             109    0.78 4  210  11 
 OCA  HZ I        2332 16.75         7.2 0.24            110            210  11 
 SML  HZ EP       2331 52.79                             105   -0.60 8  272 351 
 SML  HN ES   2   2332 22.96                             105    0.22 4  272 351 
 SML  HZ I        2332 28.25         7.8 0.05            104            272 351 
                                                                                
