 2015 1212 2310 57.2 L   5.772 -73.861109.3  RSN  6 0.4 1.7LRSN                1
 GAP=270        1.08       5.1     7.8  8.4 -0.8541E+01  0.1260E+02 -0.7811E+01E
 Epicentro: ALBANIA - SANTANDER                                                3
 ACTION:UPD 16-02-04 15:04 OP:cam  STATUS:               ID:20151212231057 L   I
 OLDACT:UP  15-12-13 07:37 OP:ak   STATUS:               ID:20151212230746     3
 OLDACT:REG 15-12-13 06:15 OP:ak   STATUS:               ID:20151212230746     3
 2015-12-12-2307-46M.COL___349                                                 6
 STAT SP IPHASW D HRMM SECON CODA AMPLIT PERI AZIMU VELO AIN AR TRES W  DIS CAZ7
 SPBC HZ EP       2311 12.57                             165    0.2610 26.9 240 
 SPBC HN ES       2311 24.27                             165    0.1410 26.9 240 
 SPBC HZ I        2311 26.03        26.0 0.12            166           26.9 240 
 PTB  HZ EP       2311 16.94                             132   -0.5610  107 322 
 PTB  HN ES       2311 33.80                             132    0.4310  107 322 
 PTB  HZ I        2311 36.42         9.0 0.14            132            107 322 
 NOR  HZ EP       2311 17.85                             130   -0.3110  114 258 
 NOR  HN ES       2311 33.69                             130   -0.8410  114 258 
 NOR  HZ I        2311 36.19        10.4 0.16            132            114 258 
 GUY2CHZ EP       2311 25.65                             117    0.48 9  177 250 
 GUY2CHE ES       2311 47.53                             117    0.51 9  177 250 
 GUY2CHZ I        2311 51.04         3.1 0.22                           177 250 
 HEL  HE ES   2   2311 49.72                             115    0.40 4  190 284 
 ZAR  HZ EP   2   2311 29.44                             111    0.12 4  220 330 
 ZAR  HN ES       2311 54.33                             111   -0.07 8  220 330 
 ZAR  HZ I        2311 57.91         4.5 0.09            113            220 330 
                                                                                
