 2010  912 2044 29.3 L   6.804 -73.062146.0  RSN  7 0.2 1.9LRSN                1
 GAP=168        0.44       3.1     7.2  5.4  0.3538E+01 -0.1392E+02 -0.5374E+01E
 Epicentro: LOS SANTOS - SANTANDER                                             3
 ACTION:UP  11-02-18 11:02 OP:tino STATUS:               ID:20100912204429 L   I
 2010-09-12-2042-39S.COL___120                                                 6
 STAT SP IPHASW D HRMM SECON CODA AMPLIT PERI AZIMU VELO SNR AR TRES W  DIS CAZ7
 BAR2 SZ EP   1   2044 48.95                             169    -0.1 7   27 210 
 BAR2 SZ ES   2   2045  4.15                             169    -0.3 5   27 210 
 BAR2 SZ I        2045  7.45        16.8 0.83                            27 210 
 GIR2 SZ EP   1   2044 49.45                             166     0.4 7   34 334 
 GIR2 SZ ES   2   2045  4.70                             166     0.2 5   34 334 
 BRR  HZ IP     C 2044 50.84                             150    -0.110   79 295 
 BRR  HZ I        2044 51.13        32.5 0.14                            79 295 
 BRR  HE ES   2   2045  7.97                             150     0.2 5   79 295 
 RUS  HZ EP   1   2044 53.12                             144     0.1 7  101 181 
 RUS  HE ES   2   2045 11.36                             144    -0.3 5  101 181 
 RUS  HZ I        2045 13.00         5.0 0.17                           101 181 
 GUE  SZ EP   1   2044 53.87                             140     0.0 7  114   8 
 GRA  SZ EP   1   2044 54.30                             138     0.0 7  123  13 
 OCA  SZ EP   1   2044 57.58                             129    -0.1 7  161 350 
 OCA  SZ ES   2   2045 19.50                             129    -0.4 5  161 350 
 OCA  SZ I        2045 24.28        15.6 0.47                           161 350 
                                                                                
