 2017 1012 2125  5.1 L   6.762 -73.144142.9  RSN  8 0.3 1.6LRSN                1
 GAP=138        0.81       3.1     3.4  5.4 -0.1205E+01  0.7268E+01  0.1783E+01E
 Epicentro: LOS SANTOS - SANTANDER                                             3
 ACTION:UPD 17-11-07 19:31 OP:rebc STATUS:               ID:20171012212505 L   I
 OLDACT:DUP 17-10-13 04:35 OP:osc  STATUS:               ID:20171012211256d    3
 2017-10-12-2118-00M.COL___426                                                 6
 STAT SP IPHASW D HRMM SECON CODA AMPLIT PERI AZIMU VELO AIN AR TRES W  DIS CAZ7
 BAR2 EZ EP       2125 24.43                             172    0.1010 19.2 193 
 BAR2 EZ ES       2125 39.44                             172    0.1310 19.2 193 
 BAR2 EZ I        2125 40.48        14.2 0.17            171           19.2 193 
 PAM  EZ EP       2125 27.32                             149    0.0910 80.6  38 
 PAM  EN ES       2125 44.41                             149   -0.0610 80.6  38 
 PAM  EZ I        2125 45.87         5.5 0.42            152           80.6  38 
 RUS  HZ EP       2125 28.44                             144    0.1610 96.3 176 
 RUS  HN ES       2125 46.04                             144   -0.3110 96.3 176 
 RUS  HZ I        2125 47.90         4.0 0.18            146           96.3 176 
 PTB  HZ EP       2125 31.09                             131   -0.71 9  147 260 
 PTB  HE ES       2125 52.45                             131   -0.16 9  147 260 
 PTB  HZ I        2125 56.01         3.5 0.12            131            147 260 
 ZAR  HZ EP       2125 37.89                             121    0.32 8  206 293 
 ZAR  HN ES       2126  3.17                             121    0.29 8  206 293 
 ZAR  HZ I        2126  9.11         5.3 0.26            122            206 293 
 NOR  HZ EP       2125 39.76                             118   -0.68 8  232 235 
 NOR  HE ES       2126  8.37                             118    0.39 8  232 235 
 NOR  HZ I        2126 12.44         4.3 0.42            119            232 235 
 CHI  HZ EP       2125 42.57                             117    0.35 8  245 195 
 CHI  HN ES       2126 11.47                             117    0.31 8  245 195 
 CHI  HZ I        2126 14.16         1.4 0.34            118            245 195 
 GUY2CHN ES       2126 22.01                             112   -0.04 7  299 235 
                                                                                
