 2014  512 2112 28.8 L   6.790 -73.183143.7  RSN  5 0.1 1.3LRSN                1
 GAP=132        0.34       2.1     2.0  4.3 -0.3296E+00  0.2933E+01 -0.2086E+01E
 Epicentro: LOS SANTOS - SANTANDER                                             3
 ACTION:UPD 15-03-16 16:57 OP:nd   STATUS:               ID:20140512211228 L   I
 OLDACT:UP  14-05-13 03:45 OP:mh   STATUS:               ID:20140512211000     3
 OLDACT:UP  14-05-13 03:45 OP:mh   STATUS:               ID:20140512211000     3
 OLDACT:REG 14-05-13 02:37 OP:mh   STATUS:               ID:20140512211000     3
 2014-05-12-2110-00M.COL___273                                                 6
 STAT SP IPHASW D HRMM SECON CODA AMPLIT PERI AZIMU VELO AIN AR TRES W  DIS CAZ7
 PAM  SZ EP       2112 51.08                             149    0.0710 81.0  41 
 PAM  SN ES   1   2113  8.32                             149   -0.02 7 81.0  41 
 PAM  SZ I        2113 10.61         2.8 0.42            154           81.0  41 
 RUS  HZ EP   1   2112 52.12                             144   -0.17 7 99.8 174 
 RUS  HN ES       2113 10.60                             144   -0.0110 99.8 174 
 RUS  HZ I        2113 13.35         1.4 0.16            152           99.8 174 
 PTB  HZ EP       2112 55.29                             132    0.09 9  143 259 
 PTB  HN ES   1   2113 15.89                             132    0.09 7  143 259 
 PTB  HZ I        2113 23.50         2.9 0.52            134            143 259 
 ZAR  HN ES   1   2113 25.50                             122   -0.18 6  201 293 
 SML  HZ EP   4   2113  8.54                             117    3.30 0  243 336 
 SML  HN ES   4   2113 31.84                             117   -1.82 0  243 336 
 SML  HZ I        2113 41.72         2.9 0.11            120            243 336 
                                                                                
