 2017  312 2248 30.3 L   6.797 -73.138145.3  RSN  6 0.5 1.4LRSN                1
 GAP=138        1.21       6.5     6.3  9.1 -0.3659E+01  0.8856E+01  0.1757E+01E
 Epicentro: LOS SANTOS - SANTANDER                                             3
 ACTION:UPD 17-05-25 18:39 OP:jn   STATUS:               ID:20170312224830 L   I
 OLDACT:UP  17-03-13 05:27 OP:dani STATUS:               ID:20170312223741     3
 OLDACT:REG 17-03-13 03:55 OP:dani STATUS:               ID:20170312223741     3
 2017-03-12-2238-00M.COL___403                                                 6
 STAT SP IPHASW D HRMM SECON CODA AMPLIT PERI AZIMU VELO AIN AR TRES W  DIS CAZ7
 BAR2 EZ ES       2249  4.93                             171   -0.2010 23.2 192 
 BRR  HZ EP       2248 51.70                             152    0.2610 72.0 298 
 BRR  HE ES       2249  8.90                             152    0.9710 72.0 298 
 BRR  HZ I        2249 11.08        10.9 0.40            150           72.0 298 
 PAM  EZ EP       2248 52.74                             151    0.3010 77.1  39 
 PAM  EN ES       2249  9.08                             151   -0.6410 77.1  39 
 PAM  EZ I        2249 14.17         4.2 0.22            151           77.1  39 
 RUS  HZ EP       2248 53.80                             144   -0.1710  100 176 
 RUS  HN ES       2249 12.66                             144    0.2210  100 176 
 RUS  HZ I        2249 13.69         2.9 0.20            148            100 176 
 PTB  HZ EP       2248 57.04                             132   -0.25 9  148 259 
 PTB  HN ES       2249 17.82                             132   -0.52 9  148 259 
 PTB  HZ I        2249 20.75         2.1 0.32            133            148 259 
 ZAR  HZ EP   4   2249  5.07                             122    2.28 0  205 292 
 ZAR  HN ES   3   2249 26.23                             122   -1.92 2  205 292 
 ZAR  HZ I        2249 34.11         3.0 0.23            123            205 292 
                                                                                
