 2016 1012 2359 10.0 L   6.811 -73.174154.7  RSN  4 0.4 1.3LRSN                1
 GAP=235        1.06       6.8     8.0  9.6  0.1626E+02 -0.6726E+01  0.1719E+01E
 Epicentro: LOS SANTOS - SANTANDER                                             3
 ACTION:UPD 16-11-09 19:19 OP:rebc STATUS:               ID:20161012235910 L   I
 OLDACT:UP  16-10-13 08:32 OP:dani STATUS:               ID:20161012234745     3
 OLDACT:REG 16-10-13 07:34 OP:dani STATUS:               ID:20161012234745     3
 2016-10-12-2348-00M.COL___369                                                 6
 STAT SP IPHASW D HRMM SECON CODA AMPLIT PERI AZIMU VELO AIN AR TRES W  DIS CAZ7
 BRR  HZ EP       2359 31.54                             155   -0.4210 67.9 299 
 BRR  HN ES       2359 49.58                             155    0.5010 67.9 299 
 RUS  HZ EP       2359 34.86                             145    0.1010  102 174 
 RUS  HE ES       2359 53.74                             145   -0.3210  102 174 
 RUS  HZ I        2359 54.81         1.6 0.30            144            102 174 
 PTB  HZ EP       2359 37.80                             135    0.32 9  145 258 
 PTB  HN ES       2359 58.20                             135   -0.70 9  145 258 
 PTB  HZ I        24 0  0.92         1.8 0.14            133            145 258 
 SPBC HZ EP       2359 39.18                             131    0.06 9  162 218 
 SPBC HE ES       24 0  2.33                             131    0.51 9  162 218 
 SPBC HZ I        24 0  4.53         4.4 0.16            130            162 218 
                                                                                
