 2011  912 2022 21.6 L   6.483 -73.859 92.8  RSN 24 0.5 4.1LRSN                1
 GAP= 57        0.97       2.2     2.5  7.1 -0.1672E+01  0.4106E+01  0.2851E+01E
 Epicentro: CIMITARRA - SANTANDER                                              3
 Evento sentido                                                                2
 Reportado como sentido en                                                     3
 BUCARAMANGA (SANTANDER)                                                       3
 ACTION:UPD 12-07-13 15:57 OP:ep   STATUS:               ID:20110912202221 L   I
 2011-09-12-2019-21S.COL___169                                                 6
 STAT SP IPHASW D HRMM SECON CODA AMPLIT PERI AZIMU VELO AIN AR TRES W  DIS CAZ7
 BRR  HZ IP     D 2022 37.15                             139   -0.2010 70.9  13 
 BRR  HE ES   1   2022 49.49                             139   -0.13 7 70.9  13 
 BRR  HZ I        2022 51.04      2922.5 0.06                          70.9  13 
 SAN  SZ IP       2022 40.48                             132    1.0110 92.3  70 
 GIR2 SZ EP       2022 40.03                             129    0.0410 98.8  48 
 GIR2 SZ ES   1   2022 54.27                             129   -0.06 7 98.8  48 
 RUS  HZ IP     D 2022 41.05                             127   -0.2810  108 127 
 RUS  HN ES   1   2022 55.78                             127   -0.94 7  108 127 
 RUS  HZ I        2022 58.84      1353.9 0.22                           108 127 
 NOR  SZ EP   1   2022 44.63                             117   -0.67 7  151 228 
 NOR  SE ES   1   2023  3.35                             117   -0.42 7  151 228 
 ZAR  HZ EP       2022 45.67                             116   -0.22 9  157 315 
 ZAR  HE ES       2023  5.07                             116    0.25 9  157 315 
 ZAR  HZ I        2023  8.18      4845.6 0.30                           157 315 
 PAM  SZ EP       2022 46.64                             116   -0.13 9  159  53 
 PAM  SE ES   1   2023  5.88                             116   -0.50 7  159  53 
 BRI  SZ EP   1   2022 48.65                             113   -0.04 7  180  41 
 BRI  SZ ES   1   2023 10.49                             113    0.69 7  180  41 
 GUE  SZ EP   1   2022 48.66                             112   -0.35 7  181  35 
 HEL  HZ EP       2022 49.35                             112   -0.44 9  188 260 
 HEL  HN ES   1   2023 11.95                             112    0.18 7  188 260 
 HEL  HZ I        2023 14.12      2172.8 0.25                           188 260 
 ROSC BZ EP   1   2022 50.59                             112    0.64 7  189 196 
 ROSC BN ES   1   2023 12.40                             112    0.35 7  189 196 
 ROSC BZ I        2023 20.05      1158.8 0.22                           189 196 
 YOP  SZ EP   2   2022 52.06                             110    0.89 4  202 128 
 OCA  SZ EP       2022 51.25                             110   -0.07 9  203  17 
 OCA  SZ ES   1   2023 15.28                             110    0.78 6  203  17 
 OCA  SZ I        2023 18.47      1261.7 0.32                           203  17 
 CHI  HZ EP   1   2022 51.80                             110   -0.11 6  205 176 
 CHI  HE ES   1   2023 16.34                             110    0.80 6  205 176 
 CHI  HZ I        2023 24.32       421.4 0.73                           205 176 
 GUY  SZ EP   1   2022 53.79                             108    0.17 6  219 231 
 GUY  SE ES   1   2023 17.81                             108   -0.77 6  219 231 
 GUY  SZ I        2023 25.13      3759.7 0.47                           219 231 
 RREF HZ EP   1   2022 56.08                             107   -0.20 6  240 223 
 RREF HE ES   1   2023 24.11                             107    0.79 6  240 223 
 RREF HZ I        2023 30.35      1926.9 0.38                           240 223 
 VIL  SZ EP   1   2022 58.61                             105    0.29 6  263 176 
 VIL  SZ I        2023 38.69       500.7 0.44                           263 176 
 TOL  SZ EP       2022 59.13                             105    0.29 8  265 218 
 DBB  SZ EP       2022 59.30                             105    0.59 8  267 283 
 ANIL HZ EP   1   2023  0.40                             104   -0.04 6  279 218 
 ANIL HN ES   1   2023 31.00                             104    0.27 6  279 218 
 ANIL HZ I        2023 39.50      2345.5 0.33                           279 218 
 PRA  HZ EP       2023  5.57                             102   -0.31 7  327 200 
 COD  HZ EP       2023 12.21                             100   -0.64 6  385   7 
 COD  HN ES   1   2023 51.95                             100   -0.86 4  385   7 
 COD  HZ I        2024  1.29       480.7 0.21                           385   7 
 HORQ SZ EP   1   2023 19.91                              98   -1.49 4  452 223 
 GUA  SZ EP   1   2023 21.77                              98    0.14 4  456 163 
 GUA  SZ ES   1   2024  8.06                              98   -0.38 4  456 163 
 GUA  SZ I        2024 11.40       149.1 0.44                           456 163 
                                                                                
