 2012  812 2145 11.0 L   6.796 -73.169145.5  RSN  5 0.3 1.1LRSN                1
 GAP=134        0.47       4.7     9.2  6.0 -0.2159E+02 -0.8332E+01  0.5411E+01E
 Epicentro: LOS SANTOS - SANTANDER                                             3
 ACTION:UPD 12-09-10 11:56 OP:ep   STATUS:               ID:20120812214511 L   I
 2012-08-12-2140-00M.COL___218                                                 6
 STAT SP IPHASW D HRMM SECON CODA AMPLIT PERI AZIMU VELO AIN AR TRES W  DIS CAZ7
 BAR2 SZ EP       2145 30.55                             171    0.0110 22.6 184 
 BAR2 SZ ES   2   2145 45.44                             171   -0.38 5 22.6 184 
 GIR2 SZ EP   3   2145 30.46                             167   -0.14 2 31.4 355 
 GIR2 SZ ES   2   2145 46.08                             167    0.16 5 31.4 355 
 PAM  SZ EP       2145 33.47                             150    0.2110 79.4  41 
 PAM  SN ES   2   2145 50.31                             150   -0.35 5 79.4  41 
 PAM  SZ I        2145 51.60         3.2 0.16                          79.4  41 
 RUS  HZ EP       2145 34.47                             144   -0.1910  100 175 
 RUS  HN ES   2   2145 53.65                             144    0.49 5  100 175 
 RUS  HZ I        2145 55.09         1.8 0.26                           100 175 
 PTB  HN ES   3   2145 58.52                             132    0.03 2  145 259 
                                                                                
