 2014 1212 2154 11.1 L   6.802 -73.166145.6  RSN  7 0.5 1.8LRSN                1
 GAP=134        1.16       4.5     5.1  8.4 -0.1761E+01  0.1866E+02 -0.4365E+01E
 Epicentro: LOS SANTOS - SANTANDER                                             3
 ACTION:UPD 15-02-10 17:03 OP:nd   STATUS:               ID:20141212215411 L   I
 OLDACT:REG 14-12-13 10:11 OP:carl STATUS:               ID:20141212214750     3
 2014-12-12-2147-50M.COL___294                                                 6
 STAT SP IPHASW D HRMM SECON CODA AMPLIT PERI AZIMU VELO AIN AR TRES W  DIS CAZ7
 BAR2 EZ EP       2154 30.48                             170   -0.2310 23.3 185 
 BAR2 EZ ES       2154 46.30                             170    0.2910 23.3 185 
 BAR2 EZ I        2154 49.00        11.9 0.22            170           23.3 185 
 PAM  SZ EP       2154 33.62                             150    0.2410 78.7  41 
 PAM  SN ES       2154 50.69                             150   -0.0610 78.7  41 
 PAM  SZ I        2154 52.97         8.1 0.58            155           78.7  41 
 RUS  HZ EP       2154 34.85                             144   -0.0210  101 175 
 RUS  HN ES       2154 53.36                             144   -0.0410  101 175 
 RUS  HZ I        2154 54.16         8.3 0.24            146            101 175 
 PTB  HZ EP       2154 37.10                             132   -0.76 9  146 259 
 PTB  HN ES       2154 58.58                             132   -0.16 9  146 259 
 PTB  HZ I        2155  0.95         8.9 0.12            133            146 259 
 ZAR  HZ EP       2154 44.42                             123    1.10 9  202 292 
 ZAR  HN ES       2155  9.00                             123    0.56 9  202 292 
 ZAR  HZ I        2155 14.30        10.7 0.62            124            202 292 
 NOR  HZ EP       2154 46.86                             119    0.22 8  233 234 
 NOR  HN ES       2155 14.06                             119   -0.30 8  233 234 
 NOR  HZ I        2155 22.63         5.7 0.22            120            233 234 
 SML  HN ES       2155 15.21                             117   -0.85 8  243 336 
                                                                                
