 2016  212 2255  5.7 L   6.807 -73.156139.7  RSN 11 0.2 2.5LRSN                1
 GAP=135        0.54       1.7     2.7  3.1 -0.2197E+01  0.3367E+01 -0.3789E+00E
 Epicentro: LOS SANTOS - SANTANDER                                             3
 ACTION:UPD 16-03-04 21:25 OP:rebc STATUS:               ID:20160212225505 L   I
 OLDACT:REG 16-02-13 06:07 OP:cara STATUS:               ID:20160212224749     3
 2016-02-12-2247-49M.COL___313                                                 6
 STAT SP IPHASW D HRMM SECON CODA AMPLIT PERI AZIMU VELO AIN AR TRES W  DIS CAZ7
 BAR2 EZ IP     C 2255 24.68                             170    0.0610 23.9 187 
 BAR2 EZ ES       2255 39.32                             170   -0.0610 23.9 187 
 BAR2 EZ I        2255 40.41        74.4 0.36            168           23.9 187 
 PAM  EZ EP       2255 27.42                             149    0.1310 77.5  41 
 PAM  EN ES       2255 44.56                             149    0.4310 77.5  41 
 PAM  EZ I        2255 46.50        65.9 0.48            154           77.5  41 
 RUS  HZ EP       2255 28.62                             142   -0.3110  101 175 
 RUS  HN ES       2255 46.99                             142   -0.0610  101 175 
 RUS  HZ I        2255 48.80        31.4 0.44            146            101 175 
 PTB  HZ EP   9   2255 31.29                             131   -0.81 0  147 258 
 PTB  HN ES       2255 51.70                                   -0.17 9  147 258 
 PTB  HZ I        2255 58.01        28.9 0.34            130            147 258 
 OCA  HZ EP       2255 33.02                             128   -0.45 9  159 354 
 OCA  HN ES       2255 54.96                             128   -0.16 9  159 354 
 OCA  HZ I        2256  0.05        83.2 0.20            130            159 354 
 SPBC HZ EP       2255 33.71                             128   -0.02 9  163 219 
 SPBC HN ES       2255 55.57                             128   -0.03 9  163 219 
 SPBC HZ I        2256  1.29        41.2 0.18            129            163 219 
 ZAR  HZ EP       2255 37.72                             121    0.10 9  203 292 
 ZAR  HE ES   4   2256  3.28                             121    0.76 0  203 292 
 ZAR  HZ I        2256  9.06        29.5 0.22            121            203 292 
 NOR  HZ EP       2255 41.25                             117    0.21 8  234 234 
 NOR  HN ES       2256  8.46                             117   -0.14 8  234 234 
 NOR  HZ I        2256 15.61        17.5 0.16            118            234 234 
 CHI  HZ EP       2255 43.15                             116    0.03 8  249 195 
 CHI  HN ES       2256 12.19                             116   -0.12 8  249 195 
 CHI  HZ I        2256 15.36        11.7 0.34            118            249 195 
 CHI  HZ IPn    C 2256 24.09                                            249 195 
 GUY2CHZ EP       2255 49.41                             111    0.43 7  301 235 
 GUY2CHN ES       2256 22.81                             111    0.07 7  301 235 
 GUY2CHZ I        2256 29.94        14.0 0.28                           301 235 
 ANIL HZ EP   4   2255 56.25                             107    1.00 0  357 224 
 ANIL HE ES       2256 34.01                             107    0.11 6  357 224 
 ANIL HZ I        2256 38.67        21.6 0.44            109            357 224 
                                                                                
