 2017 1012 2349  4.6 L   6.764 -73.118146.5  RSN  8 0.2 1.7LRSN                1
 GAP=142        0.57       2.4     2.8  4.9  0.4883E-02  0.6934E+01  0.1854E+01E
 Epicentro: LOS SANTOS - SANTANDER                                             3
 ACTION:UPD 17-11-07 19:31 OP:rebc STATUS:               ID:20171012234904 L   I
 OLDACT:REG 17-10-13 04:29 OP:osc  STATUS:               ID:20171012234246     3
 2017-10-12-2348-00M.COL___417                                                 6
 STAT SP IPHASW D HRMM SECON CODA AMPLIT PERI AZIMU VELO AIN AR TRES W  DIS CAZ7
 BAR2 EZ EP       2349 24.56                             172    0.2510 20.3 201 
 BAR2 EZ I        2349 41.20        11.0 0.26            175           20.3 201 
 PAM  EE ES       2349 44.54                             150    0.0910 78.6  36 
 RUS  HZ EP       2349 28.13                             145   -0.0510 96.5 178 
 RUS  HN ES       2349 46.36                             145   -0.1710 96.5 178 
 RUS  HZ I        2349 47.71         9.9 0.24            147           96.5 178 
 PTB  HZ EP       2349 31.63                             132   -0.25 9  150 261 
 PTB  HE ES       2349 52.77                             132   -0.36 9  150 261 
 PTB  HZ I        2349 54.49         4.3 0.22            132            150 261 
 ZAR  HZ EP       2349 37.70                             122    0.11 8  208 293 
 ZAR  HE ES       2350  3.42                             122    0.14 8  208 293 
 ZAR  HZ I        2350 10.05         5.3 0.16            121            208 293 
 NOR  HZ EP       2349 40.17                             119   -0.28 8  235 236 
 NOR  HN ES       2350  8.81                             119    0.44 8  235 236 
 NOR  HZ I        2350 14.81         2.9 0.34            119            235 236 
 CHI  HE ES       2350 11.43                             118    0.18 8  246 196 
 GUY2CHZ EP       2349 48.16                             112   -0.16 7  301 236 
 GUY2CHE ES       2350 22.56                             112    0.17 7  301 236 
 GUY2CHZ I        2350 30.64         1.7 0.46                           301 236 
                                                                                
