 2010 1112 2017 57.8 L   6.765 -73.127145.8  RSN 11 0.4 2.1LRSN                1
 GAP=161        0.98       4.1     7.3  6.9 -0.1222E+02  0.5187E+01  0.2802E-01E
 Epicentro: LOS SANTOS - SANTANDER                                             3
 ACTION:UP  10-12-17 16:52 OP:REBC STATUS:               ID:20101112201757 L   I
 2010-11-12-2016-12S.COL___128                                                 6
 STAT SP IPHASW D HRMM SECON CODA AMPLIT PERI AZIMU VELO SNR AR TRES W  DIS CAZ7
 BAR2 SZ EP       2018 17.16                             172    -0.310   20 198 
 BAR2 SZ ES   1   2018 32.16                             172    -0.5 7   20 198 
 BAR2 SZ I        2018 34.78        36.2 0.21                            20 198 
 BTL  SZ EP       2018 18.45                             171     1.010   23 318 
 BRR  HZ IP     C 2018 19.10                             151    -0.110   75 300 
 BRR  HE ES   1   2018 36.05                             151     0.2 7   75 300 
 BRR  HZ I        2018 39.07        22.5 0.22                            75 300 
 RUS  HZ EP       2018 21.08                             145    -0.210   97 177 
 RUS  HN ES   1   2018 40.04                             145     0.4 7   97 177 
 RUS  HZ I        2018 41.59        22.1 0.46                            97 177 
 GUE  SZ EP       2018 22.47                             139    -0.410  120  11 
 GRA  SZ EP       2018 23.62                             136     0.310  129  16 
 GRA  SZ ES   2   2018 42.73                             136    -0.5 5  129  16 
 GRA  SZ I        2018 43.80         9.2 0.28                           129  16 
 OCA  SZ EP       2018 26.55                             129     0.0 9  164 353 
 OCA  SZ I        2018 52.67        16.3 0.60                           164 353 
 NOR  SZ EP       2018 33.08                             119    -0.4 8  234 236 
 NOR  SE ES   1   2019  1.32                             119     0.0 6  234 236 
 CHI  HZ EP       2018 35.23                             118     0.0 8  245 196 
 CHI  HE ES   2   2019  4.17                             118    -0.2 4  245 196 
 CHI  HZ I        2019  7.76         6.2 0.42                           245 196 
 RREF HZ EP   2   2018 44.11                             111     0.2 3  321 230 
 RREF HN ES   2   2019 19.85                             111     0.1 3  321 230 
 RREF HZ I        2019 29.21        10.2 0.47                           321 230 
 PRA  HZ EP   1   2018 51.11                             107     0.0 4  390 210 
 PRA  HN ES   2   2019 32.44                             107    -0.2 3  390 210 
                                                                                
