 2014  612 2309 14.1 L   6.820 -73.121146.2  RSN 22 0.6 2.7LRSN                1
 GAP= 72        1.24       2.6     3.3  5.2 -0.1307E+01  0.4395E+01  0.2621E+01E
 Epicentro: LOS SANTOS - SANTANDER                                             3
 ACTION:UPD 14-07-01 22:53 OP:nd   STATUS:               ID:20140612230914 L   I
 OLDACT:DUP 14-06-13 08:31 OP:stll STATUS:               ID:20140612230821d    3
 2014-06-12-2308-19M.COL___259                                                 6
 STAT SP IPHASW D HRMM SECON CODA AMPLIT PERI AZIMU VELO AIN AR TRES W  DIS CAZ7
 BAR2 SZ EP       23 9 33.98                             169    0.1810 26.1 195 
 BAR2 SZ ES       23 9 49.14                             169   -0.0610 26.1 195 
 BAR2 SZ I        23 9 51.71       131.4 0.32            167           26.1 195 
 BRR  HZ IP     C 23 9 35.86                             152    0.5210 72.6 296 
 BRR  HE ES       23 9 52.33                             152    0.4010 72.6 296 
 PAM  SZ IP     C 23 9 36.76                             152    0.6410 73.9  39 
 PAM  SZ I        23 9 37.04       109.8 0.22            156           73.9  39 
 PAM  SN ES       23 9 53.72                             152    0.4010 73.9  39 
 RUS  HZ EP       23 9 37.93                             143   -0.0810  103 178 
 RUS  HE ES       23 9 56.45                             143   -0.2310  103 178 
 RUS  HZ I        23 9 57.84        30.2 0.30            144            103 178 
 PTB  HZ EP       23 9 40.60                             131   -0.75 9  151 258 
 PTB  HE ES       2310  2.16                             131   -0.47 9  151 258 
 PTB  HZ I        2310  9.23        70.4 0.34            131            151 258 
 TAM  HZ EP       23 9 42.14                             131    0.55 9  153 106 
 TAM  HZ I        23 9 42.32        22.3 0.20            134            153 106 
 TAM  HN ES       2310  2.75                             131   -0.30 9  153 106 
 OCA  HZ EP       23 9 42.02                             130   -0.21 9  158 352 
 OCA  HE ES       2310  4.19                             130   -0.01 9  158 352 
 OCA  HZ I        2310 10.60        45.2 0.18            132            158 352 
 SPBC HZ EP       23 9 42.88                             128   -0.04 9  167 219 
 SPBC HE ES       2310  4.94                             128   -0.49 9  167 219 
 SPBC HZ I        2310 12.23        58.6 0.14            129            167 219 
 ZAR  HZ EP       23 9 46.51                             122   -0.20 8  206 291 
 ZAR  HE ES       2310 11.93                             122   -0.24 8  206 291 
 ZAR  HZ I        2310 15.87        53.3 0.84            123            206 291 
 NOR  HZ EP       23 9 49.71                             118   -0.48 8  238 234 
 NOR  HN ES       2310 17.91                             118   -0.46 8  238 234 
 NOR  HZ I        2310 21.78        37.1 0.20            119            238 234 
 SML  HZ EP       23 9 50.10                             118   -0.52 8  243 334 
 SML  HE ES       2310 18.71                             118   -0.42 8  243 334 
 SML  HZ I        2310 23.64        47.8 0.26            119            243 334 
 CHI  HZ EP       23 9 52.07                             117   -0.03 8  252 196 
 CHI  HZ I        23 9 54.06        13.3 0.46            118            252 196 
 CHI  HN ES       2310 20.87                             117   -0.89 8  252 196 
 ROSC BZ EP       23 9 53.79                             116    1.22 8  256 211 
 ROSC BE ES       2310 23.24                             116    0.64 8  256 211 
 ROSC BZ I        2310 31.78        34.5 0.40            117            256 211 
 HEL  HZ EP       23 9 55.63                             115    0.98 8  275 255 
 HEL  HN ES       2310 26.45                             115    0.14 8  275 255 
 HEL  HZ I        2310 33.15        23.9 0.34            115            275 255 
 GUY2CHZ EP       23 9 58.61                             112    0.52 7  305 235 
 GUY2CHE ES       2310 32.69                             112    0.26 7  305 235 
 GUY2CHZ I        2310 39.29        19.7 0.38                           305 235 
 VIL  SZ EP       23 9 56.81                             112   -1.00 7  306 192 
 VIL  SE ES       2310 31.24                             112   -0.69 7  306 192 
 VIL  SZ I        2310 47.64        20.6 0.34            113            306 192 
 RREF HZ EP       2310  0.91                             111    0.28 7  325 229 
 RREF HN ES       2310 37.21                             111    0.27 7  325 229 
 RREF HZ I        2310 45.89        25.9 0.26            111            325 229 
 TOL  SZ EP       2310  3.19                             109    0.45 6  347 225 
 TOL  SE ES       2310 41.61                             109    0.91 6  347 225 
 ANIL HZ EP       2310  5.28                             108    0.99 6  361 225 
 ANIL HN ES       2310 44.15                             108    0.69 6  361 225 
 ANIL HZ I        2310 50.26        38.7 0.32            109            361 225 
 PRA  HZ EP       2310  7.34                             106   -0.64 6  395 210 
 PRA  HZ I        2310  9.72        11.4 0.18            107            395 210 
 PRA  HE ES       2310 48.97                             106   -1.07 6  395 210 
 ORTC HZ EP       2310  8.43                             106    0.03 6  399 216 
 ORTC HN ES       2310 50.99                             106    0.21 6  399 216 
 ORTC HZ I        2310 57.92        11.3 0.44            107            399 216 
 SJC  HZ EP       2310  7.89                             106   -1.70 6  409 326 
 SJC  HN ES   4   2310 48.14                             106   -4.77 0  409 326 
                                                                                
