 2013  812 2019 43.1 L   5.757 -73.937102.9  RSN 11 0.5 2.1LRSN                1
 GAP= 89        1.11       3.0     3.5  7.4 -0.2949E+01 -0.2044E+01 -0.2607E+01E
 Epicentro: ALBANIA - SANTANDER                                                3
 ACTION:UPD 14-01-14 09:01 OP:ep   STATUS:               ID:20130812201943 L   I
 OLDACT:REG 13-08-12 22:06 OP:carl STATUS:               ID:20130812201750     3
 2013-08-12-2017-50M.COL___218                                                 6
 STAT SP IPHASW D HRMM SECON CODA AMPLIT PERI AZIMU VELO AIN AR TRES W  DIS CAZ7
 SPBC HZ IP     D 2019 57.46                             169    0.1910 19.0 232 
 SPBC HN ES   1   2020  9.28                             169    0.95 7 19.0 232 
 SPBC HZ I        2020 10.13       102.4 0.22            168           19.0 232 
 RUS  HZ EP       2020  2.33                             134   -0.1810 95.7  81 
 RUS  HN ES   1   2020 17.63                             134   -0.02 7 95.7  81 
 PTB  HZ EP       2020  1.78                             131   -0.8110  104 326 
 PTB  HN ES   1   2020 17.28                             131   -0.52 7  104 326 
 PTB  HZ I        2020 19.55        12.8 0.26            134            104 326 
 NOR  HZ IP     D 2020  3.40                             130    0.6110  105 258 
 NOR  HN ES       2020 18.02                             130   -0.1410  105 258 
 NOR  HZ I        2020 20.60        41.0 0.18            132            105 258 
 BAR2 SZ EP       2020  4.73                             125   -0.1510  125  42 
 BAR2 SZ ES   1   2020 21.50                             125   -0.36 7  125  42 
 BAR2 SZ I        2020 23.51        38.9 0.30            128            125  42 
 CHI  HZ EP       2020  4.80                             125   -0.5310  127 170 
 CHI  HE ES   1   2020 22.06                             125   -0.62 7  127 170 
 CHI  HZ I        2020 27.54         6.8 0.36            127            127 170 
 BRR  HZ EP   1   2020  7.29                             119   -0.04 7  151   9 
 BRR  HN ES       2020 26.54                             119    0.31 9  151   9 
 BRR  HN I        2020 29.28        48.8 0.16            122            151   9 
 GIR2 SZ EP   1   2020  9.54                             116    0.26 7  168  29 
 GIR2 SZ ES   1   2020 29.02                             116   -0.68 7  168  29 
 GIR2 SZ I        2020 32.33        11.0 0.62            119            168  29 
 ZAR  HZ EP   1   2020 14.46                             109   -0.22 6  217 332 
 ZAR  HE ES       2020 39.22                             109   -0.09 8  217 332 
 ZAR  HZ I        2020 40.64        10.9 0.28            112            217 332 
 PAM  SZ EP       2020 16.73                             109    0.88 8  222  38 
 PAM  SE ES       2020 42.04                             109    0.65 8  222  38 
 ORTC HZ EP   1   2020 18.90                             106    0.29 6  251 215 
 ORTC HN ES   1   2020 46.88                             106    0.57 6  251 215 
 ORTC HZ I        2020 51.20         5.2 0.36            108            251 215 
                                                                                
