 2012  912 2048 22.1 L   6.775 -73.146147.4  RSN  7 0.4 2.3LRSN                1
 GAP=138        0.59       4.0     4.9  5.6 -0.2257E+01  0.8720E+01 -0.1143E+01E
 Epicentro: LOS SANTOS - SANTANDER                                             3
 ACTION:UPD 12-10-22 14:18 OP:ep   STATUS:               ID:20120912204822 L   I
 2012-09-12-2040-00M.COL___227                                                 6
 STAT SP IPHASW D HRMM SECON CODA AMPLIT PERI AZIMU VELO AIN AR TRES W  DIS CAZ7
 BAR2 SZ EP   2   2048 42.08                             172    0.16 5 20.6 191 
 BAR2 SZ ES   1   2048 57.04                             172   -0.30 7 20.6 191 
 BAR2 SZ I        2048 59.86        36.6 0.38                          20.6 191 
 GIR2 SZ EP   3   2048 42.05                             166   -0.03 2 34.0 351 
 BRR  HZ EP       2048 43.80                             152    0.2610 72.5 300 
 BRR  HN ES   2   2049  1.07                             152    0.84 5 72.5 300 
 BRR  HN I        2049  4.51        61.8 0.18                          72.5 300 
 PAM  SZ EP       2048 44.62                             151   -0.0410 79.6  38 
 PAM  SZ I        2048 44.89        18.9 0.20                          79.6  38 
 PAM  SN ES   1   2049  1.98                             151   -0.24 7 79.6  38 
 RUS  HZ EP       2048 45.75                             145   -0.1110 97.8 176 
 RUS  HN ES   1   2049  4.60                             145    0.25 7 97.8 176 
 PTB  HN EP       2048 49.06                             132   -0.13 9  147 260 
 PTB  HE ES   3   2049  8.83                             132   -1.46 2  147 260 
 PTB  HN I        2049 15.57        22.6 0.22                           147 260 
 ZAR  HN ES   3   2049 20.23                             122   -0.04 2  205 293 
                                                                                
