 2014  212 2130 45.1 L   6.785 -73.156140.1  RSN  8 0.5 1.8LRSN                1
 GAP=136        1.23       3.8     5.7  7.1 -0.2224E+01  0.7473E+01  0.7699E+00E
 Epicentro: LOS SANTOS - SANTANDER                                             3
 ACTION:UPD 14-03-10 08:09 OP:ep   STATUS:               ID:20140212213045 L   I
 OLDACT:REG 14-02-12 22:14 OP:nd   STATUS:               ID:20140212213000     3
 2014-02-12-2130-00M.COL___199                                                 6
 STAT SP IPHASW D HRMM SECON CODA AMPLIT PERI AZIMU VELO AIN AR TRES W  DIS CAZ7
 BAR2 SZ EP       2131  3.92                             171   -0.1310 21.5 188 
 BAR2 SZ ES       2131 18.11                             171   -0.6910 21.5 188 
 BAR2 SZ I        2131 20.09        34.9 0.22            171           21.5 188 
 BRR  HZ EP       2131  6.11                             152    0.4410 71.0 300 
 BRR  HN ES       2131 22.86                             152    1.1810 71.0 300 
 BRR  HZ I        2131 26.10        11.1 0.50            149           71.0 300 
 PAM  SZ EP       2131  6.99                             149    0.1110 79.4  39 
 PAM  SN ES       2131 23.84                             149    0.0010 79.4  39 
 PAM  SZ I        2131 28.18         6.1 0.38            151           79.4  39 
 RUS  HZ EP       2131  7.94                             143   -0.2810 99.0 175 
 RUS  HN ES       2131 26.29                             143    0.0710 99.0 175 
 RUS  HZ I        2131 27.93         8.7 0.26            145           99.0 175 
 PTB  HZ EP       2131 11.05                             131   -0.47 9  146 259 
 PTB  HN ES       2131 31.66                             131   -0.43 9  146 259 
 PTB  HZ I        2131 34.73        11.1 0.42            130            146 259 
 SPBC HZ EP       2131 13.20                             128    0.19 9  161 219 
 SPBC HN ES       2131 34.64                             128   -0.11 9  161 219 
 SPBC HZ I        2131 41.66         9.0 0.18            129            161 219 
 SML  HZ EP       2131 21.92                             116    0.35 8  245 336 
 SML  HN ES       2131 49.08                             116   -0.91 8  245 336 
 SML  HZ I        2132  0.82        11.1 0.10            116            245 336 
 CHI  HZ EP       2131 22.75                             116    0.43 8  247 195 
 CHI  HN ES       2131 51.44                             116    0.13 8  247 195 
 CHI  HZ I        2131 58.99         1.7 0.56            117            247 195 
                                                                                
