 2011  512 2121 40.7 L   6.794 -73.114145.1  RSN 20 0.5 3.4LRSN                1
 GAP=128        0.97       3.8     5.4  5.7 -0.1014E+02  0.6409E+01  0.3137E+01E
 Epicentro: LOS SANTOS - SANTANDER                                             3
 SPEC SD       MO  0.7 ST0.395 OM  0.8 f00.136 R0.0889 AL      WI      MW  0.4 3
 SPEC NOR SH Z MO 12.8 ST0.038 OM  0.2 f0 1.62 R0.9074 AL-5.05 WI 38.2 MW  2.5 3
 SPEC NOR SH Z T212159 K 0.020 GD  278 VP 7.60 DE 3.20 Q0230.0 QA 0.60 VS 4.20 3
 SPEC BRR HH Z MO 13.6 ST0.245 OM  1.2 f0 1.67 R0.8802 AL-9.09 WI 51.8 MW  3.0 3
 SPEC BRR HH Z T212124 K 0.020 GD  163 VP 7.60 DE 3.20 Q0230.0 QA 0.60 VS 4.20 3
 SPEC GIR2SH Z MO 14.4 ST0.960 OM  2.1 f0 1.36 R1.0809 AL-9.09 WI 46.9 MW  3.6 3
 SPEC GIR2SH Z T212125 K 0.020 GD  148 VP 7.60 DE 3.20 Q0230.0 QA 0.60 VS 4.20 3
 ACTION:UP  11-06-29 08:52 OP:tino STATUS:               ID:20110512212140 L   I
 2011-05-12-2120-07S.COL___141                                                 6
 STAT SP IPHASW D HRMM SECON CODA AMPLIT PERI AZIMU VELO SNR AR TRES W  DIS CAZ7
 BTL  SZ IP       2122  0.48                             171     0.310   22 309 
 BAR2 SZ IP       2122  0.23                             170     0.010   24 199 
 BAR2 SZ ES   1   2122 15.07                             170    -0.4 7   24 199 
 BAR2 SZ I        2122 16.61       634.4 0.19                            24 199 
 GIR2 SZ EP       2122  0.30                             167     0.010   33 344 
 BRR  HZ IP     C 2122  2.03                             151     0.110   75 298 
 BRR  HN ES   1   2122 19.02                             151     0.5 7   75 298 
 BRR  HZ I        2122 23.20       343.6 0.16                            75 298 
 PAM  SZ IP       2122  2.98                             151     0.310   76  37 
 PAM  SN ES   1   2122 19.83                             151    -0.1 7   76  37 
 RUS  HZ IP     C 2122  4.18                             144    -0.110  100 178 
 RUS  HN ES   1   2122 22.49                             144    -0.2 7  100 178 
 RUS  HZ I        2122 24.33       220.0 0.21                           100 178 
 BRI  SZ IP       2122  4.73                             141     0.310  108  19 
 BRI  SZ I        2122 25.09       237.2 0.29                           108  19 
 GRA  SZ IP       2122  6.01                             137     0.210  125  16 
 GRA  SZ ES   1   2122 24.63                             137    -0.8 7  125  16 
 GRA  SZ I        2122 26.66       253.9 0.42                           125  16 
 OCA  SZ EP   1   2122  8.78                             129    -0.2 7  161 352 
 OCA  SZ I        2122 33.82       349.1 0.20                           161 352 
 NOR  SZ EP   1   2122 16.17                             118    -0.4 6  237 235 
 NOR  SN ES   1   2122 43.88                             118    -0.8 6  237 235 
 ROSC BZ EP   1   2122 20.17                             116     1.3 6  254 212 
 ROSC BZ I        2122 57.05       247.1 0.45                           254 212 
 HEL  HZ EP   1   2122 20.75                             114    -0.4 6  275 256 
 HEL  HN ES   2   2122 52.94                             114     0.1 4  275 256 
 HEL  HZ I        2123  0.96       119.5 0.20                           275 256 
 VIL  SZ EP   1   2122 23.97                             112    -0.1 5  303 192 
 VIL  SE ES   1   2122 58.58                             112     0.7 5  303 192 
 VIL  SZ I        2123  2.36        97.5 0.36                           303 192 
 GUY  SZ EP   1   2122 25.01                             112     0.2 5  306 236 
 GUY  SZ I        2123  6.66       152.6 0.27                           306 236 
 RREF HZ EP   1   2122 26.63                             110    -0.4 5  324 230 
 RREF HN ES   1   2123  3.29                             110     0.1 5  324 230 
 RREF HZ I        2123 14.32       171.0 0.36                           324 230 
 DBB  SZ EP   1   2122 28.23                             109    -0.3 5  343 274 
 TOL  SZ EP   1   2122 29.58                             109     0.5 5  346 225 
 SDV  BZ EP   1   2122 29.68                             108    -0.7 5  358  50 
 SDV  BZ I        2122 30.60        79.5 0.15                           358  50 
 PRA  HZ EP       2122 33.63                             106    -0.7 6  393 210 
 PRA  HN ES   1   2123 16.51                             106     0.4 4  393 210 
 SJA  SZ EP   1   2122 34.27                             106    -0.9 4  400 193 
 SJA  SZ I        2123 28.49       172.1 0.42                           400 193 
                                                                                
