 2014  912 2259 24.7 L   6.848 -73.121147.5  RSN  9 0.5 1.7LRSN                1
 GAP=204        1.29       5.9     8.0  8.7  0.2124E+02 -0.8935E+00 -0.7520E+01E
 Epicentro: LOS SANTOS - SANTANDER                                             3
 ACTION:UPD 14-10-03 23:04 OP:nd   STATUS:               ID:20140912225924 L   I
 OLDACT:REG 14-09-13 04:08 OP:fm   STATUS:               ID:20140912225819     3
 2014-09-12-2258-19M.COL___293                                                 6
 STAT SP IPHASW D HRMM SECON CODA AMPLIT PERI AZIMU VELO AIN AR TRES W  DIS CAZ7
 BAR2 SZ EP       2259 45.08                             169    0.3910 29.1 194 
 BAR2 SZ ES   1   23 0  0.13                             169   -0.13 7 29.1 194 
 BAR2 SZ I        23 0  0.97        17.0 0.28            167           29.1 194 
 BRR  HZ EP       2259 46.65                             153    0.5810 71.3 294 
 BRR  HN ES       23 0  3.49                             153    0.7810 71.3 294 
 BRR  HZ I        23 0  4.51         9.6 0.12            151           71.3 294 
 RUS  HZ EP       2259 48.63                             143   -0.3910  106 178 
 RUS  HN ES       23 0  7.62                             143   -0.3510  106 178 
 RUS  HZ I        23 0  9.65         4.0 0.14            143            106 178 
 PTB  HZ EP       2259 51.87                             132   -0.31 9  152 257 
 PTB  HN ES       23 0 12.75                             132   -0.84 9  152 257 
 PTB  HZ I        23 0 15.15         9.2 0.46            130            152 257 
 ZAR  HN ES       23 0 22.97                             123    0.18 9  205 290 
 ZAR  HZ I        23 0 25.08         6.1 0.28            122            205 290 
 SML  HZ EP       23 0  0.54                             118   -0.52 8  240 334 
 SML  HN ES       23 0 28.78                             118   -0.62 8  240 334 
 SML  HZ I        23 0 31.61         5.6 0.36            118            240 334 
 CHI  HZ EP   1   23 0  3.69                             117    0.54 6  254 195 
 CHI  HN ES   4   23 0 31.67                             117   -1.45 0  254 195 
 CHI  HZ I        23 0 36.42         3.2 0.34            117            254 195 
 GUY2CHZ EP       23 0  9.88                             112    0.87 7  306 234 
 GUY2CHN ES   4   23 0 45.14                             112    1.59 0  306 234 
 GUY2CHZ I        23 0 49.71         2.4 0.28                           306 234 
 MON  HN ES   4   23 0 49.96                             109   -1.88 0  353 307 
 MON  HZ I        23 0 57.89         1.2 0.32            109            353 307 
                                                                                
