 2015  912 2045 23.3 L   6.813 -73.141146.9  RSN 16 0.5 2.2LRSN                1
 GAP=136        1.11       2.7     4.0  5.3 -0.2116E+01  0.6104E+01  0.1431E+01E
 Epicentro: LOS SANTOS - SANTANDER                                             3
 ACTION:UPD 15-10-28 16:25 OP:cam  STATUS:               ID:20150912204523 L   I
 OLDACT:REG 15-09-13 03:44 OP:ak   STATUS:               ID:20150912203749     3
 2015-09-12-2037-49M.COL___332                                                 6
 STAT SP IPHASW D HRMM SECON CODA AMPLIT PERI AZIMU VELO AIN AR TRES W  DIS CAZ7
 BAR2 EZ EP       2045 43.17                             170    0.1010 24.9 191 
 BAR2 EZ ES       2045 58.51                             170   -0.0110 24.9 191 
 BAR2 EZ I        2045 59.93        49.4 0.27            167           24.9 191 
 BRR  HZ EP       2045 44.99                             153    0.4610 71.0 297 
 BRR  HE ES       2046  1.69                             153    0.5710 71.0 297 
 BRR  HZ I        2046  6.18        28.6 0.30            148           71.0 297 
 PAM  EZ EP       2045 46.00                             151    0.4810 75.9  40 
 PAM  EE ES       2046  3.49                             151    0.6110 75.9  40 
 PAM  EZ I        2046  5.48        25.1 0.50            152           75.9  40 
 RUS  HZ EP       2045 47.09                             144   -0.1510  102 176 
 RUS  HN ES       2046  5.56                             144   -0.3710  102 176 
 RUS  HZ I        2046  6.86        13.2 0.26            141            102 176 
 PTB  HZ EP       2045 50.01                             132   -0.40 9  149 258 
 PTB  HN ES       2046 10.95                             132   -0.62 9  149 258 
 PTB  HZ I        2046 14.74        13.7 0.21            128            149 258 
 OCA  HZ EP       2045 50.98                             130   -0.56 9  159 353 
 OCA  HN ES       2046 13.17                             130   -0.42 9  159 353 
 OCA  HZ I        2046 18.11        38.5 0.40            128            159 353 
 SPBC HZ EP       2045 52.15                             129    0.15 9  165 219 
 SPBC HN ES       2046 14.09                             129   -0.32 9  165 219 
 SPBC HZ I        2046 21.21        26.2 0.38            125            165 219 
 ZAR  HZ EP       2045 56.77                             123    0.98 9  204 292 
 ZAR  HN ES       2046 20.99                             123   -0.16 9  204 292 
 ZAR  HZ I        2046 28.24         8.2 0.24            119            204 292 
 NOR  HZ EP       2045 59.33                             119    0.12 8  236 234 
 NOR  HE ES       2046 27.21                             119   -0.02 8  236 234 
 NOR  HZ I        2046 32.63        11.0 0.09            115            236 234 
 SML  HZ EP       2045 59.17                             118   -0.68 8  243 335 
 SML  HN ES       2046 27.65                             118   -0.72 8  243 335 
 SML  HZ I        2046 34.01        18.7 0.14            115            243 335 
 CHI  HZ EP       2046  0.79                             117   -0.41 8  250 195 
 CHI  HN ES       2046 30.09                             117   -0.70 8  250 195 
 CHI  HZ I        2046 40.19         7.2 0.64            114            250 195 
 HEL  HZ EP   1   2046  4.26                             115    0.62 6  273 256 
 HEL  HN ES       2046 34.98                             115   -0.15 8  273 256 
 HEL  HZ I        2046 42.94         6.9 0.28            112            273 256 
 GUY2CHZ EP       2046  7.59                             112    0.51 7  302 235 
 GUY2CHN ES       2046 41.86                             112    0.61 7  302 235 
 GUY2CHZ I        2046 51.03         7.6 0.46                           302 235 
 ELA  HZ EP   4   2046 11.88                             110    1.55 0  330 229 
 ELA  HZ I        2046 55.89         7.7 0.65            108            330 229 
 TOL  SZ EP   1   2046 12.11                             109    0.37 5  345 225 
 TOL  SE ES       2046 50.42                             109    0.88 7  345 225 
 TOL  SZ I        2046 55.38         7.3 0.31            107            345 225 
 PRA  HZ EP       2046 17.10                             107    0.09 6  394 210 
 PRA  HN ES       2046 58.65                             107   -0.28 6  394 210 
 PRA  HZ I        2047  4.78        10.5 0.30            105            394 210 
 SJC  HZ EP   4   2046 17.20                             106   -1.56 0  408 327 
 SJC  HN ES   4   2046 57.09                             106   -4.96 0  408 327 
                                                                                
