 2017 1012 2328 34.3 L   6.804 -73.168141.8  RSN 11 0.4 1.8LRSN                1
 GAP=110        0.79       2.7     2.8  4.7  0.5353E+00  0.4615E+01  0.3155E+01E
 Epicentro: LOS SANTOS - SANTANDER                                             3
 ACTION:UPD 17-11-07 19:31 OP:rebc STATUS:               ID:20171012232834 L   I
 OLDACT:REG 17-10-13 04:26 OP:osc  STATUS:               ID:20171012232603     3
 2017-10-12-2328-00M.COL___417                                                 6
 STAT SP IPHASW D HRMM SECON CODA AMPLIT PERI AZIMU VELO AIN AR TRES W  DIS CAZ7
 BAR2 EZ EP       2328 53.51                             170    0.0110 23.5 184 
 BAR2 EZ ES       2329  8.17                             170   -0.2710 23.5 184 
 BAR2 EZ I        2329  9.59        20.2 0.20            168           23.5 184 
 PAM  EZ EP       2328 56.38                             150    0.1710 78.6  41 
 PAM  EN ES       2329 13.56                             150    0.2910 78.6  41 
 RUS  HZ EP       2328 57.32                             143   -0.4310  101 175 
 RUS  HN ES       2329 16.25                             143    0.2410  101 175 
 RUS  HZ I        2329 17.07         7.0 0.30            142            101 175 
 PTB  HZ EP       2329  0.06                             132   -0.71 9  145 258 
 PTB  HN ES       2329 21.11                             132   -0.29 9  145 258 
 PTB  HZ I        2329 23.00         5.5 0.16            131            145 258 
 YPLC HZ EP       2329  3.76                             125   -0.24 9  178 151 
 YPLC HN ES       2329 27.33                             125    0.19 9  178 151 
 YPLC HZ I        2329 34.06         3.8 0.36            126            178 151 
 ZAR  HZ EP       2329  6.37                             122    0.10 9  202 292 
 ZAR  HE ES       2329 31.39                             122    0.20 9  202 292 
 ZAR  HZ I        2329 36.50         5.5 0.15            123            202 292 
 NOR  HZ EP       2329  9.50                             118   -0.16 8  233 234 
 NOR  HE ES       2329 37.49                             118    0.28 8  233 234 
 NOR  HZ I        2329 42.75         4.1 0.20            118            233 234 
 CHI  HZ EP       2329 11.66                             116   -0.14 8  248 195 
 CHI  HN ES       2329 40.93                             116   -0.09 8  248 195 
 CHI  HZ I        2329 45.93         4.2 0.40            116            248 195 
 GUY2CHZ EP       2329 18.51                             112    0.94 7  299 234 
 GUY2CHE ES       2329 51.52                             112    0.23 7  299 234 
 GUY2CHZ I        2329 59.53         2.9 0.32                           299 234 
 PTGC HZ EP   4   2329 16.54                             111   -1.63 0  310 158 
 PTGC HN ES   4   2329 50.31                             111   -2.05 0  310 158 
 PRA  HZ EP       2329 27.49                             106   -0.14 6  391 209 
 PRA  HE ES       2330  9.57                             106    0.37 6  391 209 
 PRA  HZ I        2330 13.53         3.2 0.40            106            391 209 
 ORTC HN ES   2   2330 10.60                             106    0.74 3  394 216 
                                                                                
