 2010 1112 2236 41.2 L   6.769 -73.086138.0  RSN  6 0.3 1.7LRSN                1
 GAP=166        0.61       5.5    10.6  5.8  0.3575E+02 -0.2041E+02 -0.6658E+01E
 Epicentro: LOS SANTOS - SANTANDER                                             3
 ACTION:UP  10-12-17 16:52 OP:REBC STATUS:               ID:20101112223641 L   I
 2010-11-12-2234-34S.COL___128                                                 6
 STAT SP IPHASW D HRMM SECON CODA AMPLIT PERI AZIMU VELO SNR AR TRES W  DIS CAZ7
 BAR2 SZ EP       2236 59.69                             171    -0.210   22 209 
 BAR2 SZ ES   1   2237 14.18                             171    -0.2 7   22 209 
 BAR2 SZ I        2237 15.58        15.5 0.32                            22 209 
 BTL  SZ EP       2237  0.21                             169     0.310   26 309 
 BTL  SZ ES   1   2237 14.95                             169     0.4 7   26 309 
 GIR2 SZ EP   3   2237  0.46                             165     0.4 2   36 341 
 GIR2 SZ ES   3   2237 13.85                             165    -1.0 2   36 341 
 BRR  HZ EP       2237  1.72                             149    -0.210   79 298 
 BRR  HZ I        2237  2.23        14.8 0.05                            79 298 
 BRR  HE ES   1   2237 18.24                             149     0.1 7   79 298 
 RUS  HZ EP       2237  3.79                             144    -0.110   97 180 
 RUS  HN ES   1   2237 21.84                             144     0.2 7   97 180 
 RUS  HZ I        2237 24.14         6.7 0.29                            97 180 
 GRA  SZ EP   2   2237  5.79                             135    -0.1 5  127  14 
 GRA  SZ I        2237 27.68         4.6 0.45                           127  14 
                                                                                
