 2015  612 2312 44.2 L   6.764 -73.112148.2  RSN  4 0.2 1.7LRSN                1
 GAP=143        0.49       2.5     3.4  4.9 -0.2605E+01 -0.9131E+00  0.1695E+01E
 Epicentro: LOS SANTOS - SANTANDER                                             3
 ACTION:UPD 15-09-10 22:11 OP:cam  STATUS:               ID:20150612231244 L   I
 OLDACT:REG 15-06-13 03:19 OP:ar   STATUS:               ID:20150612230750     3
 2015-06-12-2307-50M.COL___315                                                 6
 STAT SP IPHASW D HRMM SECON CODA AMPLIT PERI AZIMU VELO AIN AR TRES W  DIS CAZ7
 BRR  HZ EP       2313  5.71                             151   -0.1810 76.4 300 
 BRR  HN ES       2313 23.04                             151    0.2110 76.4 300 
 BRR  HZ I        2313 23.89        12.5 0.30            152           76.4 300 
 PAM  SZ EP       2313  6.84                             151    0.1310 78.3  36 
 PAM  SN ES       2313 24.09                             151   -0.1910 78.3  36 
 PAM  SZ I        2313 25.77         6.1 0.60            153           78.3  36 
 RUS  HZ EP       2313  8.02                             145    0.1410 96.4 178 
 RUS  HE ES       2313 26.42                             145    0.0510 96.4 178 
 RUS  HZ I        2313 27.36         4.7 0.40            146           96.4 178 
 SPBC HN ES       2313 34.95                             130   -0.18 9  163 221 
 SPBC HZ I        2313 37.42        10.2 0.24            131            163 221 
                                                                                
