 2013 1012 2128 26.2 L   6.814 -73.095147.2  RSN  5 0.3 1.3LRSN                1
 GAP=142        0.80       4.3     6.1  6.7 -0.2489E+01  0.4279E+01  0.1105E+02E
 Epicentro: LOS SANTOS - SANTANDER                                             3
 ACTION:UPD 13-11-25 09:21 OP:ep   STATUS:               ID:20131012212826 L   I
 OLDACT:DUP 13-10-13 02:06 OP:stll STATUS:               ID:20131012211851d    3
 2013-10-12-2118-49M.COL___236                                                 6
 STAT SP IPHASW D HRMM SECON CODA AMPLIT PERI AZIMU VELO AIN AR TRES W  DIS CAZ7
 PAM  SZ EP       2128 48.83                             153    0.5610 72.8  37 
 PAM  SN ES       2129  5.14                             153   -0.3710 72.8  37 
 PAM  SZ I        2129  8.00         3.1 0.20             47           72.8  37 
 BRR  HZ EP       2128 47.31                             151   -0.4110 75.5 296 
 BRR  HN ES       2129  4.77                             151    0.2410 75.5 296 
 RUS  HZ EP       2128 50.19                             144    0.0310  102 179 
 RUS  HN ES       2129  8.92                             144    0.0610  102 179 
 RUS  HZ I        2129 10.14         2.7 0.22             47            102 179 
 SPBC HZ EP       2128 55.21                             128   -0.02 9  168 220 
 CHI  HZ EP       2129  4.11                             117   -0.16 8  252 196 
 CHI  HZ I        2129 39.15         1.6 0.58             37            252 196 
                                                                                
