 2012  112 2127  4.0 L   6.783 -73.158138.2  RSN  6 0.3 1.4LRSN                1
 GAP=136        0.70       5.2     5.1  7.4 -0.6501E+01  0.1093E+02  0.8717E+01E
 Epicentro: LOS SANTOS - SANTANDER                                             3
 ACTION:UP  12-02-03 08:16 OP:REBC STATUS:               ID:20120112212704 L   I
 2012-01-12-2120-00M.COL___187                                                 6
 STAT SP IPHASW D HRMM SECON CODA AMPLIT PERI AZIMU VELO SNR AR TRES W  DIS CAZ7
 BAR2 SZ EP   3   2127 22.76                             171     0.1 2   21 187 
 BAR2 SZ ES   2   2127 37.35                             171     0.2 5   21 187 
 GIR2 SZ ES   3   2127 37.54                             166     0.1 2   33 353 
 BRR  HZ EP       2127 24.53                             151     0.310   71 300 
 BRR  HZ I        2127 38.64        19.3 0.40                            71 300 
 BRR  HE ES   2   2127 40.84                             151     0.7 5   71 300 
 PAM  SZ EP       2127 25.58                             149     0.110   80  39 
 PAM  SN ES       2127 41.98                             149    -0.410   80  39 
 RUS  HZ EP       2127 27.08                             142     0.310   99 175 
 RUS  HZ I        2127 27.94         1.9 0.16                            99 175 
 RUS  HN ES   2   2127 44.37                             142    -0.3 5   99 175 
 PTB  HZ EP       2127 29.81                             130    -0.3 9  146 259 
 PTB  HN ES   2   2127 50.21                             130    -0.4 5  146 259 
 PTB  HZ I        2127 53.79         2.2 0.16                           146 259 
                                                                                
