 2015  712 2223  3.6 L   6.806 -73.117143.5  RSN 12 0.4 2.1LRSN                1
 GAP=140        0.88       2.4     4.1  5.3 -0.1658E+01  0.1177E+02  0.6165E+00E
 Epicentro: LOS SANTOS - SANTANDER                                             3
 ACTION:UPD 15-09-08 21:48 OP:cam  STATUS:               ID:20150712222303 L   I
 OLDACT:UP  15-07-13 05:34 OP:mh   STATUS:               ID:20150712221748     3
 OLDACT:UP  15-07-13 05:32 OP:mh   STATUS:               ID:20150712221748     3
 OLDACT:UP  15-07-13 05:18 OP:mh   STATUS:               ID:20150712221748     3
 OLDACT:REG 15-07-13 04:15 OP:mh   STATUS:               ID:20150712221748     3
 2015-07-12-2217-48M.COL___337                                                 6
 STAT SP IPHASW D HRMM SECON CODA AMPLIT PERI AZIMU VELO AIN AR TRES W  DIS CAZ7
 BAR2 EZ EP   1   2223 23.07                             170    0.04 7 24.7 197 
 BAR2 EZ ES       2223 38.01                             170   -0.1410 24.7 197 
 BAR2 EZ I        2223 39.98        18.4 0.25            169           24.7 197 
 PAM  EZ EP   1   2223 25.86                             151    0.39 7 74.9  38 
 PAM  EN ES       2223 43.11                             151    0.6210 74.9  38 
 PAM  EZ I        2223 44.56        21.2 0.48            154           74.9  38 
 RUS  HZ EP       2223 26.94                             143   -0.2710  101 178 
 RUS  HN ES       2223 45.34                             143   -0.2610  101 178 
 RUS  HZ I        2223 47.02         6.2 0.32            147            101 178 
 OCA  HZ EP   1   2223 31.54                             129   -0.21 7  160 352 
 OCA  HN ES       2223 53.28                             129   -0.39 9  160 352 
 OCA  HZ I        2224  1.16        21.5 0.26            130            160 352 
 ZAR  HZ EP       2223 35.67                             121   -0.55 8  207 292 
 ZAR  HN ES       2224  1.30                             121   -0.32 8  207 292 
 ZAR  HZ I        2224  7.45        15.0 0.47            122            207 292 
 NOR  HZ EP       2223 39.14                             118   -0.42 8  238 235 
 NOR  HN ES       2224  7.32                             118   -0.26 8  238 235 
 NOR  HZ I        2224 13.89         9.2 0.28            119            238 235 
 SML  HZ EP       2223 40.10                             117   -0.12 8  244 335 
 SML  HN ES       2224  9.08                             117    0.33 8  244 335 
 SML  HZ I        2224 16.87        16.7 0.10            118            244 335 
 ROSC BN ES   4   2224 14.85                             116    3.14 0  255 212 
 HEL  HZ EP   1   2223 45.05                             114    0.95 6  275 256 
 HEL  HE ES       2224 16.31                             114    0.66 8  275 256 
 HEL  HZ I        2224 21.26         6.5 0.36            115            275 256 
 GUY2CHZ EP   1   2223 48.23                             112    0.75 5  304 235 
 GUY2CHN ES   4   2224 25.86                             112    4.18 0  304 235 
 GUY2CHZ I        2224 29.48        11.2 0.74                           304 235 
 TOL  SZ EP       2223 52.66                             109    0.54 6  346 225 
 TOL  SN ES       2224 30.19                             109    0.26 6  346 225 
 TOL  SZ I        2224 34.17         6.5 0.22            110            346 225 
 ANIL HE ES   4   2224 35.26                             108    2.56 0  360 225 
 PRA  HZ EP       2223 56.89                             106   -0.45 6  394 210 
 PRA  HN ES       2224 39.40                             106    0.18 6  394 210 
 PRA  HZ I        2224 44.18         7.4 0.60            108            394 210 
 ORTC HZ EP       2223 57.45                             106   -0.32 6  398 216 
 ORTC HN ES       2224 40.43                             106    0.44 6  398 216 
                                                                                
