 2013  412 2224 12.5 L   5.832 -73.854110.0  RSN  5 0.5 1.5LRSN                1
 GAP= 89        1.00       5.2     6.0 16.2  0.1305E+01  0.3669E+02  0.1301E+02E
 Epicentro: SUCRE - SANTANDER                                                  3
 ACTION:UPD 13-05-22 14:37 OP:EP   STATUS:               ID:20130412222412 L   I
 2013-04-12-2219-50M.COL___215                                                 6
 STAT SP IPHASW D HRMM SECON CODA AMPLIT PERI AZIMU VELO AIN AR TRES W  DIS CAZ7
 RUS  HZ EP   1   2224 32.07                             139    0.33 8 85.6  85 
 RUS  HN ES   1   2224 45.97                             139   -0.74 8 85.6  85 
 RUS  HZ I        2224 48.22         2.8 0.18            146           85.6  85 
 PTB  HZ EP       2224 31.99                             133   -0.5410  103 320 
 PTB  HN ES   2   2224 48.91                             133    0.79 5  103 320 
 PTB  HZ I        2224 50.19         6.8 0.32            140            103 320 
 BAR2 SZ ES   1   2224 50.77                             131    0.61 7  112  41 
 BAR2 SZ I        2224 51.49        20.3 0.24            139            112  41 
 NOR  HE ES   2   2224 50.44                             130    0.03 5  116 255 
 NOR  HN I        2224 52.25        21.2 0.18            135            116 255 
 CHI  HZ EP   1   2224 36.41                             125    0.45 7  134 174 
 CHI  HN ES   1   2224 54.24                             125    0.01 7  134 174 
 CHI  HZ I        2224 59.17         2.0 0.40            130            134 174 
                                                                                
