 2017 1112 2119 52.6 L   6.491 -73.708 95.4  RSN  5 0.4 1.1LRSN                1
 GAP=165        0.63       3.9     2.5  6.1  0.1531E+01  0.4804E+01  0.4629E+01E
 Epicentro: SANTA HELENA DEL OPON - SANTANDER                                  3
 ACTION:UPD 17-12-12 19:54 OP:rebc STATUS:               ID:20171112211952 L   I
 OLDACT:UP  17-11-13 04:10 OP:dani STATUS:               ID:20171112211742d    3
 OLDACT:UP  17-11-13 04:08 OP:dani STATUS:               ID:20171112211742d    3
 OLDACT:DUP 17-11-13 04:06 OP:dani STATUS:               ID:20171112211742d    3
 2017-11-12-2118-00M.COL___453                                                 6
 STAT SP IPHASW D HRMM SECON CODA AMPLIT PERI AZIMU VELO AIN AR TRES W  DIS CAZ7
 BAR2 EZ ES       2120 20.00                             146   -0.0610 59.2  79 
 PTB  HZ EP       2120  9.54                             136   -0.0110 83.0 274 
 PTB  HN ES       2120 22.85                             136    0.0410 83.0 274 
 PTB  HZ I        2120 24.01         2.8 0.12            136           83.0 274 
 RUS  HZ EP       2120 11.08                             132   -0.2510 95.7 134 
 RUS  HN ES       2120 26.11                             132    0.1310 95.7 134 
 RUS  HZ I        2120 26.70         2.4 0.30            133           95.7 134 
 SPBC HN ES       2120 25.98                             130    0.0610  101 204 
 NOR  HZ EP       2120 18.10                             116    0.24 9  164 231 
 NOR  HN ES   3   2120 35.31                             116   -2.29 2  164 231 
 NOR  HZ E        2120 39.24                                            164 231 
 NOR  HZ I        2120 39.45         2.8 0.16            116            164 231 
                                                                                
