 2017  212 2010 47.7 L   6.801 -73.111144.0  RSN  5 0.3 1.5LRSN                1
 GAP=141        0.61       3.4     3.0  5.8 -0.6537E+00  0.5018E+01 -0.1197E+01E
 Epicentro: LOS SANTOS - SANTANDER                                             3
 ACTION:UPD 17-05-24 15:35 OP:jn   STATUS:               ID:20170212201047 L   I
 OLDACT:UP  17-02-13 03:11 OP:and  STATUS:               ID:20170212200233d    3
 OLDACT:UP  17-02-13 03:10 OP:and  STATUS:               ID:20170212200233d    3
 OLDACT:UP  17-02-13 03:10 OP:and  STATUS:               ID:20170212200233d    3
 OLDACT:DUP 17-02-13 03:07 OP:and  STATUS:               ID:20170212200233d    3
 OLDACT:UP  17-02-13 03:06 OP:and  STATUS:               ID:20170212200232d    3
 OLDACT:UP  17-02-13 03:06 OP:and  STATUS:               ID:20170212200232d    3
 OLDACT:DUP 17-02-13 03:03 OP:and  STATUS:               ID:20170212200232d    3
 2017-02-12-2008-00M.COL___352                                                 6
 STAT SP IPHASW D HRMM SECON CODA AMPLIT PERI AZIMU VELO AIN AR TRES W  DIS CAZ7
 BRR  HZ EP       2011  8.83                             151   -0.0410 74.5 297 
 BRR  HE ES       2011 25.75                             151    0.3910 74.5 297 
 PAM  EZ IP     D 2011  9.69                             151    0.0910 74.9  37 
 PAM  EN ES       2011 26.42                             151   -0.2410 74.9  37 
 PAM  EZ I        2011 28.83         7.0 0.56            151           74.9  37 
 RUS  HN ES       2011 29.80                             144    0.1210  101 178 
 RUS  HZ I        2011 30.16         4.0 0.34            146            101 178 
 PTB  HZ EP       2011 14.73                             131   -0.16 9  152 259 
 PTB  HN ES       2011 35.78                             131   -0.30 9  152 259 
 PTB  HZ I        2011 36.72         2.4 0.16            131            152 259 
 ZAR  HZ EP   3   2011 21.84                             122    1.43 2  208 292 
 ZAR  HN ES       2011 45.93                             122    0.02 8  208 292 
 ZAR  HZ I        2011 51.49         3.5 0.28            122            208 292 
                                                                                
