 2011  612 2128 51.0 L   6.789 -73.093151.2  RSN  5 0.4 1.6LRSN                1
 GAP=165        1.02       5.6     9.0 12.1 -0.2129E+02 -0.5234E+01  0.5589E+01E
 Epicentro: LOS SANTOS - SANTANDER                                             3
 ACTION:UP  11-07-14 19:04 OP:ep   STATUS:               ID:20110612212851 L   I
 2011-06-12-2124-56S.COL___131                                                 6
 STAT SP IPHASW D HRMM SECON CODA AMPLIT PERI AZIMU VELO SNR AR TRES W  DIS CAZ7
 BAR2 SZ EP   1   2129 10.93                             171    -0.4 7   24 205 
 BRR  HZ EP       2129 13.19                             151     0.110   77 297 
 BRR  HN ES   1   2129 30.70                             151     0.4 7   77 297 
 BRR  HZ I        2129 51.96        15.2 0.31                            77 297 
 RUS  HZ EP   1   2129 16.06                             145     0.9 7   99 179 
 RUS  HN ES   1   2129 33.71                             145    -0.3 7   99 179 
 RUS  HZ I        2129 35.40         3.4 0.30                            99 179 
 GRA  SZ EP       2129 16.47                             138    -0.210  125  15 
 GRA  SZ ES       2129 36.63                             138    -0.110  125  15 
 GRA  SZ I        2129 38.76         3.5 0.40                           125  15 
 NOR  SN ES   1   2129 55.41                             119    -0.5 6  239 236 
                                                                                
