 2014  612 2210 37.8 L   6.759 -73.155148.2  RSN  5 0.4 1.5LRSN                1
 GAP=137        1.07       5.8     5.6  7.8 -0.3015E+01  0.5154E+01  0.1643E+01E
 Epicentro: LOS SANTOS - SANTANDER                                             3
 ACTION:UPD 14-07-01 22:53 OP:nd   STATUS:               ID:20140612221037 L   I
 OLDACT:REG 14-06-13 05:38 OP:stll STATUS:               ID:20140612220819     3
 2014-06-12-2208-19M.COL___259                                                 6
 STAT SP IPHASW D HRMM SECON CODA AMPLIT PERI AZIMU VELO AIN AR TRES W  DIS CAZ7
 BAR2 SZ EP       2210 57.54                             172   -0.1110 18.6 189 
 BAR2 SZ ES       2211 12.96                             172   -0.1610 18.6 189 
 BAR2 SZ I        2211 14.51         5.4 0.16            172           18.6 189 
 BRR  HZ EP       2210 59.45                             152    0.1510 72.6 302 
 BRR  HE ES       2211 16.91                             152    0.8410 72.6 302 
 BRR  HZ I        2211 18.62         6.9 0.32            152           72.6 302 
 PAM  SZ EP       2211  0.36                             150   -0.1810 81.6  38 
 PAM  SN ES       2211 17.92                             150   -0.3410 81.6  38 
 PAM  SZ I        2211 20.03        10.0 0.64            153           81.6  38 
 RUS  HZ EP       2211  1.94                             146    0.4510 96.1 175 
 RUS  HN ES       2211 19.99                             146    0.0310 96.1 175 
 RUS  HZ I        2211 22.60         2.7 0.34            147           96.1 175 
 PTB  HZ EP       2211  4.77                             133   -0.04 9  146 261 
 PTB  HN ES       2211 25.14                             133   -0.73 9  146 261 
 PTB  HZ I        2211 30.64         3.8 0.26            134            146 261 
                                                                                
