 2013 1012 2054 56.8 L   6.822 -73.146135.2  RSN 16 0.5 2.3LRSN 2.8WRSN        1
 SPEC AVERAGE  MO 13.3 ST 19.8 OM  1.6 f0 9.32 R0.3016 AL 0.00 WI 20.0 MW  2.8 3
 SPEC SD       MO  0.1 ST 27.5 OM  0.3 f0 5.31 R0.1798 AL      WI      MW  0.1 3
 GAP= 70        1.27       3.2     3.9  6.2 -0.3726E+01  0.4892E+01  0.3534E+01E
 Epicentro: LOS SANTOS - SANTANDER                                             3
 SPEC BAR2SH Z MO 13.4 ST 89.9 OM  1.6 f0 17.8 R0.1081 AL-0.00 WI 20.0 MW  2.9 3
 SPEC BAR2SH Z T205527 K 0.050 GD  137 VS 5.20 DE 3.20 Q0750.0 QA 1.50 VS 5.20 3
 SPEC BRR HH Z MO 13.2 ST 29.8 OM  1.3 f0 15.0 R0.1283 AL-0.00 WI 20.0 MW  2.7 3
 SPEC BRR HH Z T205531 K 0.050 GD  152 VS 5.20 DE 3.20 Q0750.0 QA 1.50 VS 5.20 3
 SPEC PAM SH Z MO 13.4 ST  1.0 OM  1.5 f0 4.19 R0.4592 AL-0.00 WI 20.0 MW  2.9 3
 SPEC PAM SH Z T205533 K 0.050 GD  154 VS 5.20 DE 3.20 Q0750.0 QA 1.50 VS 5.20 3
 SPEC RUS HH Z MO 13.1 ST0.682 OM  1.2 f0 4.43 R0.4343 AL-0.00 WI 20.0 MW  2.7 3
 SPEC RUS HH Z T205536 K 0.050 GD  169 VS 5.20 DE 3.20 Q0750.0 QA 1.50 VS 5.20 3
 SPEC PTB HH Z MO 13.2 ST 21.3 OM  1.2 f0 13.2 R0.1458 AL-0.00 WI 20.0 MW  2.7 3
 SPEC PTB HH Z T205541 K 0.050 GD  200 VS 5.20 DE 3.20 Q0750.0 QA 1.50 VS 5.20 3
 SPEC OCA HH Z MO 13.5 ST  2.0 OM  1.5 f0 4.68 R0.4111 AL-0.00 WI 20.0 MW  2.9 3
 SPEC OCA HH Z T205543 K 0.050 GD  207 VS 5.20 DE 3.20 Q0750.0 QA 1.50 VS 5.20 3
 SPEC ZAR HH Z MO 13.3 ST 29.6 OM  1.2 f0 13.8 R0.1394 AL-0.00 WI 20.0 MW  2.8 3
 SPEC ZAR HH Z T205551 K 0.050 GD  243 VS 5.20 DE 3.20 Q0750.0 QA 1.50 VS 5.20 3
 SPEC NOR HH Z MO 13.1 ST  3.7 OM  1.0 f0 7.79 R0.2470 AL-0.00 WI 20.0 MW  2.7 3
 SPEC NOR HH Z T205558 K 0.050 GD  271 VS 5.20 DE 3.20 Q0750.0 QA 1.50 VS 5.20 3
 SPEC HEL HH Z MO 13.4 ST0.379 OM  1.2 f0 3.00 R0.6413 AL-0.00 WI 20.0 MW  2.8 3
 SPEC HEL HH Z T2056 7 K 0.050 GD  304 VS 5.20 DE 3.20 Q0750.0 QA 1.50 VS 5.20 3
 SPECGUY2CHH Z MO 13.6 ST  0.1 OM  1.4 f0 1.65 R  1.17 AL-0.00 WI 20.0 MW  3.0 3
 SPECGUY2CHH Z T205612 K 0.050 GD331.8 VS 5.20 DE 3.20 Q0750.0 QA 1.50 VS 5.20 3
 OLDACT:REG 13-10-13 00:44 OP:stll STATUS:               ID:20131012204848     3
 ACTION:UPD 13-11-25 09:21 OP:ep   STATUS:               ID:20131012205456 L   I
 OLDACT:UP  13-10-13 01:49 OP:stll STATUS:               ID:20131012204848     3
 2013-10-12-2048-48M.COL___236                                                 6
 STAT SP IPHASW D HRMM SECON CODA AMPLIT PERI AZIMU VELO AIN AR TRES W  DIS CAZ7
 BAR2 SZ IP     C 2055 15.47                             169    0.2810 25.7 189 
 BAR2 SZ ES       2055 28.72                             169   -0.8410 25.7 189 
 BAR2 SZ I        2055 31.19        68.9 0.30            166           25.7 189 
 BRR  HZ EP       2055 17.21                             151    0.4910 70.0 297 
 BRR  HN ES       2055 33.07                             151    0.7910 70.0 297 
 BRR  SZ I        2055 37.15        35.4 0.46            147           70.0 297 
 PAM  SZ IP     C 2055 18.33                             149    0.5710 75.6  41 
 PAM  SN ES       2055 34.88                             149    0.7510 75.6  41 
 PAM  SZ I        2055 36.79        55.5 0.54            139           75.6  41 
 RUS  HZ EP       2055 19.57                             141   -0.1210  103 176 
 RUS  HN ES       2055 37.84                             141    0.2810  103 176 
 RUS  SZ I        2055 39.33        16.4 0.22            132            103 176 
 CAPV BZ ES       2055 42.83                             130   -0.90 9  147  38 
 PTB  HZ EP       2055 22.36                             129   -0.58 9  148 258 
 PTB  HE ES       2055 42.51                             129   -0.84 9  148 258 
 PTB  SZ I        2055 44.22        21.8 0.24            122            148 258 
 TAM  HZ IP     D 2055 23.87                             128    0.17 9  156 106 
 TAM  SZ I        2055 51.89        19.9 0.20            117            156 106 
 OCA  HZ EP       2055 23.38                             128   -0.67 9  158 353 
 OCA  HE ES       2055 45.23                             128   -0.09 9  158 353 
 OCA  SZ I        2055 48.19        21.5 0.20            118            158 353 
 SPBC HE ES       2055 46.41                             126   -0.01 9  165 218 
 ZAR  HZ EP       2055 28.68                             120    0.23 9  203 292 
 ZAR  HE ES       2055 52.74                             120   -0.42 9  203 292 
 ZAR  SZ I        2055 58.69        12.7 0.26            113            203 292 
 NOR  HZ IP     D 2055 31.92                             116   -0.14 8  236 234 
 NOR  HN ES       2055 59.87                             116    0.28 8  236 234 
 NOR  SZ I        2056  1.50        13.4 0.22            109            236 234 
 CHI  HZ EP       2055 33.97                             115   -0.20 8  251 195 
 CHI  HN ES       2056  2.88                             115   -0.46 8  251 195 
 CHI  SZ I        2056 10.47         7.3 0.70            107            251 195 
 ROSC BN ES       2056  4.17                             114    0.12 8  255 211 
 HEL  HZ EP       2055 37.37                             113    0.84 8  273 255 
 HEL  SZ I        2056 14.97        11.4 0.40            106            273 255 
 GUY2CHZ EP       2055 40.50                             110    0.43 7  303 234 
 GUY2CHE ES       2056 14.34                             110    0.50 7  303 234 
 GUY2CSZ I        2056 22.94        12.2 0.72                           303 234 
 PRA  HZ EP       2055 49.56                             105   -0.63 6  394 209 
 PRA  HN ES       2056 31.78                             105   -0.08 6  394 209 
 PRA  SZ I        2056 35.76        12.9 0.66             98            394 209 
                                                                                
