 2011  512 2234 24.9 L   6.813 -73.113142.7  RSN  5 0.1 1.6LRSN                1
 GAP=162        0.40       2.8     5.3  6.5 -0.3376E+01 -0.1492E+02  0.4492E+01E
 Epicentro: LOS SANTOS - SANTANDER                                             3
 ACTION:UP  11-06-29 08:52 OP:tino STATUS:               ID:20110512223424 L   I
 2011-05-12-2231-00S.COL___141                                                 6
 STAT SP IPHASW D HRMM SECON CODA AMPLIT PERI AZIMU VELO SNR AR TRES W  DIS CAZ7
 BTL  SZ EP       2234 44.25                             171     0.210   21 304 
 BAR2 SZ EP   1   2234 44.08                             169    -0.1 7   26 198 
 BRR  HZ EP   1   2234 45.87                             151     0.0 7   74 296 
 BRR  HZ I        2234 46.03        13.2 0.11                            74 296 
 BRR  HN ES   1   2235  2.12                             151    -0.1 7   74 296 
 RUS  HZ EP   1   2234 48.20                             143    -0.2 7  102 178 
 RUS  HN ES   2   2235  6.95                             143     0.2 5  102 178 
 RUS  HZ I        2235  8.11         3.2 0.28                           102 178 
 GRA  SZ EP   1   2234 49.73                             137     0.1 7  123  16 
 GRA  SZ ES   1   2235  8.84                             137    -0.1 7  123  16 
 GRA  SZ I        2235 10.38         7.9 0.36                           123  16 
                                                                                
