 2017 1212 2315 20.4 L   6.744 -73.152138.0  RSN  5 0.2 1.6LRSN                1
 GAP=154        0.41       4.2     2.3  4.7 -0.4269E+01  0.3464E+01  0.1562E+01E
 Epicentro: LOS SANTOS - SANTANDER                                             3
 ACTION:UPD 18-01-04 13:19 OP:rebc STATUS:               ID:20171212231520 L   I
 OLDACT:REG 17-12-13 03:50 OP:mg   STATUS:               ID:20171212230749     3
 2017-12-12-2308-00M.COL___454                                                 6
 STAT SP IPHASW D HRMM SECON CODA AMPLIT PERI AZIMU VELO AIN AR TRES W  DIS CAZ7
 BAR2 EZ EP   2   2315 39.40                             173    0.43 5 17.1 191 
 BAR2 EZ ES   2   2315 53.65                             173    0.18 5 17.1 191 
 BAR2 EZ I        2315 55.60        14.2 0.16            173           17.1 191 
 PAM  EZ EP       2315 42.05                             148   -0.0810 82.7  37 
 PAM  EN ES       2315 59.08                             148    0.0010 82.7  37 
 PAM  EZ I        2315 59.72         4.4 0.18            150           82.7  37 
 PTB  HZ EP       2315 46.35                             131   -0.22 9  146 261 
 PTB  HN ES       2316  6.95                             131   -0.04 9  146 261 
 PTB  HZ I        2316 10.35         3.7 0.11            131            146 261 
 ZAR  HZ EP   2   2315 53.04                             120    0.51 4  206 294 
 ZAR  HE ES       2316 17.64                             120    0.05 8  206 294 
 ZAR  HZ I        2316 23.83         5.8 0.20            121            206 294 
 GUY2CHZ EP   3   2316  3.23                             111    0.05 2  297 236 
 GUY2CHN ES   3   2316 37.29                             111    0.74 2  297 236 
 GUY2CHZ I        2316 45.77         2.1 0.41                           297 236 
                                                                                
