 2010  112 2344  0.8 L   6.782 -73.008149.5  RSN  7 0.3 2.2LRSN                1
 GAP=197        0.55       2.5     7.8  7.4 -0.6924E+01  0.2611E+02 -0.2317E+01E
 Epicentro: CEPITA - SANTANDER                                                 3
 ACTION:UP  10-08-24 09:43 OP:vdl  STATUS:               ID:20100112234400 L   I
 2010-01-12-2340-00S.COL___095                                                 6
 STAT SP IPHASW D HRMM SECON CODA AMPLIT PERI AZIMU VELO SNR AR TRES W  DIS CAZ7
 RUS  BZ EP   1   2344 25.02                             145     0.2 8   99 185 
 RUS  BN ES   1   2344 43.62                             145     0.1 8   99 185 
 RUS  BZ I        2344 45.19        14.8 0.26                            99 185 
 OCA  SZ EP       2344 29.75                             130    -0.110  165 348 
 OCA  SZ ES   1   2344 52.42                             130    -0.1 7  165 348 
 CHI  HZ EP   1   2344 39.46                             118     0.5 6  251 199 
 CHI  HE ES   1   2345  8.19                             118    -0.6 6  251 199 
 CHI  HZ I        2345 12.37         8.6 0.31                           251 199 
 HEL  HZ EP   2   2344 43.19                             114     0.4 4  286 257 
 RREF BN ES   1   2345 25.43                             111     0.1 6  332 231 
 RREF BZ I        2345 30.69        13.8 0.22                           332 231 
 TOL  SZ EP   2   2344 50.57                             109     0.2 4  353 227 
 PRA  HZ EP   1   2344 54.64                             107    -0.5 5  398 212 
 PRA  HN ES   1   2345 37.58                             107     0.0 5  398 212 
                                                                                
