 2012  412 2037  1.9 L   7.477 -73.227124.9  RSN  4 0.3 1.8LRSN                1
 GAP=232        0.53      12.4     6.1  6.9 -0.4376E+01 -0.3315E+01 -0.3468E+01E
 Epicentro: EL PLAYON - SANTANDER                                              3
 ACTION:UPD 12-07-05 11:52 OP:tino STATUS:               ID:20120412203701 L   I
 2012-04-12-2030-00M.COL___180                                                 6
 STAT SP IPHASW D HRMM SECON CODA AMPLIT PERI AZIMU VELO AIN AR TRES W  DIS CAZ7
 PAM  SN ES   3   2037 35.54                             153    -0.1 2   60 105 
 BRR  HZ EP       2037 20.60                             150     0.010   67 233 
 BRR  HZ I        2037 22.92        15.4 0.48                            67 233 
 BRR  HE ES   1   2037 35.25                             150     0.1 7   67 233 
 BAR2 SZ EP       2037 23.20                             140     0.110   98 177 
 BAR2 SZ ES   3   2037 38.58                             140    -1.0 2   98 177 
 PTB  HZ EP       2037 29.24                             123    -0.3 9  171 233 
 PTB  HN ES   2   2037 51.51                             123     0.4 4  171 233 
                                                                                
