 2014  612 2338 16.2 L   6.758 -73.128137.9  RSN 16 0.6 2.1LRSN                1
 GAP= 74        1.25       3.8     4.2  6.2 -0.5148E+01  0.4218E+01  0.7948E+01E
 Epicentro: LOS SANTOS - SANTANDER                                             3
 ACTION:UPD 14-07-01 22:53 OP:nd   STATUS:               ID:20140612233816 L   I
 OLDACT:REG 14-06-13 05:42 OP:stll STATUS:               ID:20140612233818     3
 2014-06-12-2338-18M.COL___259                                                 6
 STAT SP IPHASW D HRMM SECON CODA AMPLIT PERI AZIMU VELO AIN AR TRES W  DIS CAZ7
 BAR2 SZ EP       2338 34.73                             172   -0.0610 19.3 198 
 BAR2 SZ ES       2338 49.29                             172   -0.0110 19.3 198 
 BAR2 SZ I        2338 52.89        23.8 0.24            170           19.3 198 
 BRR  HZ EP       2338 36.79                             150    0.0610 75.2 301 
 BRR  HN ES       2338 53.73                             150    0.9710 75.2 301 
 BRR  HZ I        2338 57.01        15.6 0.42            150           75.2 301 
 PAM  SZ IP     C 2338 37.81                             148    0.0810 79.9  36 
 PAM  SN ES       2338 54.71                             148    0.1810 79.9  36 
 PAM  SZ I        2338 57.06        18.6 0.52            153           79.9  36 
 RUS  HZ EP       2338 38.79                             143   -0.0310 95.8 177 
 RUS  HN ES       2338 56.61                             143    0.1410 95.8 177 
 RUS  HZ I        2339  0.29        16.1 0.30            146           95.8 177 
 PTB  HZ EP       2338 41.85                             130   -0.78 9  149 261 
 PTB  HN ES       2339  2.48                             130   -0.77 9  149 261 
 PTB  HZ I        2339 10.19        28.7 0.46            131            149 261 
 TAM  HZ EP       2338 43.09                             129    0.12 9  152 103 
 TAM  HZ I        2338 43.39         8.4 0.18            134            152 103 
 SPBC HZ EP       2338 43.63                             128   -0.24 9  161 221 
 SPBC HN ES       2339  5.51                             128    0.05 9  161 221 
 SPBC HZ I        2339  9.87        27.0 0.22            129            161 221 
 OCA  HN ES       2339  5.51                             127   -0.84 9  165 353 
 OCA  HZ I        2339 10.65        22.7 0.24            130            165 353 
 NOR  HZ EP       2338 51.42                             117    0.06 8  234 236 
 NOR  HE ES       2339 18.00                             117   -0.79 8  234 236 
 NOR  HZ I        2339 22.52        14.4 0.24            119            234 236 
 CHI  HZ EP       2338 52.91                             116   -0.12 8  245 196 
 CHI  HE ES       2339 21.03                             116   -0.73 8  245 196 
 CHI  HZ I        2339 27.90         5.7 0.32            118            245 196 
 HEL  HE ES       2339 27.21                             113   -0.02 8  273 257 
 HEL  HZ I        2339 33.75        10.1 0.32            115            273 257 
 GUY2CHZ EP       2339  0.82                             111    1.50 7  300 236 
 GUY2CHE ES       2339 34.10                             111    1.13 7  300 236 
 GUY2CHZ I        2339 41.31         8.6 0.54                           300 236 
 RREF HZ EP       2339  2.76                             109    0.93 7  320 230 
 RREF HN ES       2339 37.52                             109    0.10 7  320 230 
 RREF HZ I        2339 45.79        11.0 0.24            111            320 230 
 TOL  SZ EP       2339  4.41                             108    0.49 7  342 225 
 TOL  SE ES       2339 41.25                             108    0.11 7  342 225 
 PRA  HZ EP       2339  8.50                             105   -0.59 6  389 210 
 PRA  HN ES       2339 49.85                             105   -0.49 6  389 210 
 PRA  HZ I        2339 58.36         4.7 0.44            107            389 210 
 ORTC HZ EP       2339  9.76                             105    0.22 6  393 217 
 ORTC HN ES       2339 51.13                             105   -0.03 6  393 217 
                                                                                
