 2015  912 2318 39.2 L   6.805 -73.161149.4  RSN  7 0.4 1.6LRSN                1
 GAP=145        1.06       6.3     5.0  7.1 -0.5424E+01  0.1046E+02 -0.1492E+02E
 Epicentro: LOS SANTOS - SANTANDER                                             3
 ACTION:UPD 15-10-28 16:25 OP:cam  STATUS:               ID:20150912231839 L   I
 OLDACT:UP  15-09-13 09:34 OP:ak   STATUS:               ID:20150912231748     3
 OLDACT:UP  15-09-13 09:32 OP:ak   STATUS:               ID:20150912231748     3
 OLDACT:REG 15-09-13 03:54 OP:ak   STATUS:               ID:20150912231748     3
 2015-09-12-2317-48M.COL___326                                                 6
 STAT SP IPHASW D HRMM SECON CODA AMPLIT PERI AZIMU VELO AIN AR TRES W  DIS CAZ7
 BAR2 EZ EP   1   2318 59.30                             171    0.07 7 23.7 186 
 BAR2 EZ ES       2319 14.38                             171   -0.5010 23.7 186 
 BAR2 EZ I        2319 15.25         4.5 0.22            173           23.7 186 
 BRR  HZ EP       2319  1.21                             154    0.6110 69.4 299 
 BRR  HN ES       2319 18.05                             154    0.7310 69.4 299 
 BRR  HZ I        2319 22.18         5.4 0.11            151           69.4 299 
 PAM  EZ EP       2319  2.25                             151    0.4510 78.0  41 
 PAM  EN ES       2319 19.00                             151   -0.4510 78.0  41 
 PAM  EZ I        2319 21.22         8.0 0.48            153           78.0  41 
 PTB  HZ EP       2319  6.26                             133   -0.02 9  146 258 
 PTB  HN ES       2319 26.97                             133   -0.47 9  146 258 
 PTB  HZ I        2319 29.45         3.7 0.24            134            146 258 
 ZAR  HZ EP   1   2319 11.64                             123   -0.02 6  202 292 
 ZAR  HN ES       2319 36.99                             123   -0.01 9  202 292 
 ZAR  HZ I        2319 42.76         4.6 0.14            124            202 292 
 SML  HZ EP       2319 15.78                             118   -0.07 8  242 336 
 SML  HE ES       2319 44.27                             118   -0.20 8  242 336 
 SML  HZ I        2319 46.77         5.2 0.10            119            242 336 
 SJC  HZ EP       2319 33.88                             106   -0.79 6  408 327 
 SJC  HN ES   4   2320 14.75                             106   -3.22 0  408 327 
                                                                                
