 2017  612 2112 43.7 L   6.834 -73.169148.0  RSN  6 0.3 2.0LRSN                1
 GAP=258        0.69       3.2     5.8  5.9  0.1798E+01 -0.1304E+02  0.3504E+01E
 Epicentro: ZAPATOCA - SANTANDER                                               3
 ACTION:UPD 17-09-14 16:51 OP:jn   STATUS:               ID:20170612211243 L   I
 OLDACT:UP  17-06-13 05:20 OP:osc  STATUS:               ID:20170612210729     3
 OLDACT:REG 17-06-13 04:21 OP:osc  STATUS:               ID:20170612210729     3
 2017-06-12-2108-00M.COL___368                                                 6
 STAT SP IPHASW D HRMM SECON CODA AMPLIT PERI AZIMU VELO AIN AR TRES W  DIS CAZ7
 BRR  HZ EP       2113  5.02                             154    0.1410 67.2 297 
 BRR  HN ES       2113 21.31                             154   -0.0810 67.2 297 
 BRR  HZ I        2113 21.85        22.9 0.16            151           67.2 297 
 PTB  HZ EP   9   2113  9.66                             133   -1.04 0  146 257 
 PTB  HN ES       2113 31.09                             133    0.37 9  146 257 
 PTB  HZ I        2113 32.70         6.4 0.07            130            146 257 
 SPBC HZ EP       2113 12.07                             129   -0.44 9  165 217 
 SPBC HE ES       2113 35.29                             129    0.32 9  165 217 
 SPBC HZ I        2113 39.16         9.1 0.04            127            165 217 
 ZAR  HZ EP       2113 16.07                             124    0.16 9  200 291 
 ZAR  HN ES       2113 40.91                             124   -0.12 9  200 291 
 ZAR  HZ I        2113 46.46        10.5 0.44            122            200 291 
 NOR  HZ EP       2113 19.66                             119    0.08 8  235 233 
 NOR  HE ES       2113 47.28                             119   -0.29 8  235 233 
 NOR  HZ I        2113 50.26         7.5 0.26            118            235 233 
 CHI  HZ EP       2113 22.37                             117    0.52 8  252 194 
 CHI  HN ES       2113 51.34                             117   -0.27 8  252 194 
 CHI  HZ I        2113 56.78         5.9 0.30            116            252 194 
                                                                                
