 2016 1212 2107 42.6 L   6.777 -73.148149.2  RSN  6 0.4 1.6LRSN                1
 GAP=137        0.98       5.0     4.4  6.6  0.2340E+01  0.7187E+01 -0.1487E+01E
 Epicentro: LOS SANTOS - SANTANDER                                             3
 ACTION:UPD 17-01-11 20:14 OP:rebc STATUS:               ID:20161212210742 L   I
 OLDACT:REG 16-12-13 03:50 OP:dnl  STATUS:               ID:20161212205747     3
 2016-12-12-2058-00M.COL___390                                                 6
 STAT SP IPHASW D HRMM SECON CODA AMPLIT PERI AZIMU VELO AIN AR TRES W  DIS CAZ7
 BAR2 EZ EP       21 8  2.58                             172   -0.0310 20.8 191 
 BAR2 EZ ES       21 8 17.49                             172   -0.7210 20.8 191 
 BAR2 EZ I        21 8 24.90         8.0 0.40            172           20.8 191 
 BRR  HZ EP       21 8  4.61                             153    0.4110 72.2 300 
 BRR  HE ES       21 8 21.57                             153    0.5410 72.2 300 
 BRR  HZ I        21 8 27.46        11.2 0.30            153           72.2 300 
 PAM  EZ EP       21 8  5.33                             151    0.0010 79.5  39 
 PAM  EN ES       21 8 22.97                             151   -0.0710 79.5  39 
 PAM  EZ I        21 8 23.80         4.9 0.14            156           79.5  39 
 RUS  HZ EP       21 8  6.88                             145    0.3510 98.0 176 
 RUS  HN ES       21 8 25.31                             145    0.1310 98.0 176 
 RUS  HZ I        21 8 26.66         4.0 0.48            150           98.0 176 
 PTB  HZ EP       21 8  9.70                             133   -0.11 9  147 260 
 PTB  HE ES       21 8 30.98                             133   -0.03 9  147 260 
 PTB  HZ I        21 8 33.69         8.2 0.32            135            147 260 
 ZAR  HZ EP       21 8 14.59                             123   -0.78 9  205 293 
 ZAR  HE ES       21 8 40.99                             123    0.08 9  205 293 
 ZAR  HZ I        21 8 46.90         6.5 0.50            126            205 293 
                                                                                
