 2011  312 2106 57.0 L   6.564 -73.294 26.8  RSN  6 0.4 2.3LRSN                1
 GAP= 99        0.85       2.7     5.6  3.9 -0.5682E+01  0.1514E+02 -0.4230E+01E
 Epicentro: PALMAR - SANTANDER                                                 3
 ACTION:UP  11-06-16 14:33 OP:jfem STATUS:               ID:20110312210657 L   I
 2011-03-12-2103-19S.COL___134                                                 6
 STAT SP IPHASW D HRMM SECON CODA AMPLIT PERI AZIMU VELO SNR AR TRES W  DIS CAZ7
 BAR2 SZ EP       21 7  2.16                             153     0.110   13  76 
 BAR2 SZ ES       21 7  5.97                             153    -0.110   13  76 
 BAR2 SZ I        21 7  8.12       433.4 0.40                            13  76 
 RUS  HZ IP     C 21 7 10.47                              97     0.110   78 163 
 RUS  HN ES   1   21 7 20.69                              97    -0.1 7   78 163 
 RUS  HZ I        21 7 21.61        70.0 0.15                            78 163 
 GRA  SZ EP   1   21 7 19.54                              61    -0.4 7  156  20 
 GRA  SZ ES   1   21 7 37.80                              61    -0.1 7  156  20 
 GRA  SZ I        21 7 42.38        57.2 0.37                           156  20 
 OCA  SZ EP   1   21 7 24.51                              61     0.9 7  185 359 
 OCA  SZ ES   1   21 7 44.48                              61     0.0 7  185 359 
 OCA  SZ I        21 7 51.14        32.8 0.15                           185 359 
 NOR  SZ EP   1   21 7 25.88                              61    -0.3 6  207 238 
 NOR  SN ES   1   21 7 49.42                              61     0.4 6  207 238 
 HEL  HZ EP   1   21 7 31.39                              61    -0.7 6  251 261 
 HEL  HZ I        21 8  6.70         7.7 0.49                           251 261 
                                                                                
