 2012  712 2209  1.0 L   7.415 -73.036 32.0  RSN  4 0.2 1.3LRSN                1
 GAP=122        0.54       3.2     8.2  8.0  0.8296E+01  0.6084E+02  0.9682E+01E
 Epicentro: SURATA - SANTANDER                                                 3
 ACTION:UPD 12-08-14 11:44 OP:ep   STATUS:               ID:20120712220901 L   I
 2012-07-12-2207-49M.COL___217                                                 6
 STAT SP IPHASW D HRMM SECON CODA AMPLIT PERI AZIMU VELO AIN AR TRES W  DIS CAZ7
 PAM  SZ EP       22 9  9.47                             127     0.110   38 103 
 PAM  SN ES   1   22 9 15.76                             127    -0.2 7   38 103 
 OCA  HN ES   2   22 9 27.95                              61    -0.1 5   96 341 
 RUS  HZ EP   1   22 9 26.09                              61     0.4 7  168 182 
 RUS  HN ES   1   22 9 44.61                              61    -0.2 7  168 182 
 RUS  HZ I        22 9 50.05         3.2 0.21             47            168 182 
 PTB  HN ES   2   22 9 47.24                              61    -0.1 4  184 238 
 PTB  HZ I        22 9 49.58         3.3 0.23             47            184 238 
