 2012  812 2224 40.0 L   6.789 -73.157139.9  RSN  6 0.2 1.8LRSN                1
 GAP=136        0.47       3.6     3.9  6.6 -0.2629E+01 -0.1341E+00  0.6521E+01E
 Epicentro: LOS SANTOS - SANTANDER                                             3
 ACTION:UPD 12-09-10 11:56 OP:ep   STATUS:               ID:20120812222440 L   I
 2012-08-12-2220-00M.COL___219                                                 6
 STAT SP IPHASW D HRMM SECON CODA AMPLIT PERI AZIMU VELO AIN AR TRES W  DIS CAZ7
 BAR2 SZ EP       2224 58.90                             171    0.0010 22.0 187 
 BAR2 SZ I        2224 59.40        11.5 0.18                          22.0 187 
 GIR2 SZ EP   2   2224 58.72                             166   -0.29 5 32.3 353 
 BRR  HZ EP       2225  0.64                             151    0.1410 70.7 300 
 BRR  HZ I        2225  0.79        13.1 0.32                          70.7 300 
 BRR  HN ES   2   2225 16.81                             151    0.33 5 70.7 300 
 PAM  SZ EP       2225  1.82                             149    0.1210 79.1  40 
 PAM  SZ I        2225  1.92        12.7 0.18                          79.1  40 
 PAM  SN ES   1   2225 18.39                             149   -0.24 7 79.1  40 
 RUS  HZ EP       2225  3.01                             143   -0.0910 99.5 175 
 RUS  HN ES   2   2225 21.43                             143    0.31 5 99.5 175 
 PTB  HN ES   2   2225 26.40                             131   -0.54 5  146 259 
                                                                                
