 2011 1012 2223 55.7 L   6.743 -73.119144.3  RSN  5 0.4 1.7LRSN                1
 GAP=143        0.83       5.7     6.3  9.0  0.7063E+01  0.7720E+01 -0.2593E+01E
 Epicentro: JORDAN - SANTANDER                                                 3
 ACTION:UPD 12-07-13 16:03 OP:ep   STATUS:               ID:20111012222355 L   I
 2011-10-12-2222-07S.COL___168                                                 6
 STAT SP IPHASW D HRMM SECON CODA AMPLIT PERI AZIMU VELO AIN AR TRES W  DIS CAZ7
 BAR2 SZ ES   1   2224 29.67                             173   -0.47 7 18.1 203 
 BAR2 SZ I        2224 31.30        10.0 0.13                          18.1 203 
 BRR  HZ EP   1   2224 17.30                             150    0.29 7 76.9 302 
 BRR  HN ES   1   2224 34.27                             150    0.63 7 76.9 302 
 BRR  HZ I        2224 37.96        17.3 0.20                          76.9 302 
 PAM  SZ EP   1   2224 18.23                             149    0.29 7 80.6  35 
 PAM  SN ES   1   2224 35.03                             149   -0.27 7 80.6  35 
 PAM  SZ I        2224 37.73         7.6 0.51                          80.6  35 
 RUS  HZ EP   1   2224 18.48                             145   -0.35 7 94.1 178 
 RUS  HN ES   1   2224 37.20                             145    0.31 7 94.1 178 
 ZAR  HN ES   1   2224 53.62                             121   -0.60 6  209 293 
                                                                                
