 2015  412 2334  3.9 L   6.833 -73.134145.6  RSN 16 0.4 2.3LRSN                1
 GAP=136        0.96       2.4     3.3  4.5 -0.1817E+01  0.5401E+01  0.5857E+00E
 Epicentro: LOS SANTOS - SANTANDER                                             3
 ACTION:UPD 15-06-03 16:54 OP:cam  STATUS:               ID:20150412233403 L   I
 OLDACT:REG 15-04-13 05:35 OP:fm   STATUS:               ID:20150412232748     3
 2015-04-12-2327-48M.COL___266                                                 6
 STAT SP IPHASW D HRMM SECON CODA AMPLIT PERI AZIMU VELO AIN AR TRES W  DIS CAZ7
 BAR2 EZ EP       2334 23.58                             169   -0.0410 27.1 191 
 BAR2 EZ ES       2334 39.18                             169    0.2010 27.1 191 
 BAR2 EZ I        2334 40.35        24.3 0.30            168           27.1 191 
 BRR  HZ EP     C 2334 25.56                             153    0.5310 70.7 295 
 BRR  HN ES       2334 41.89                             153    0.4010 70.7 295 
 BRR  HZ I        2334 45.25        19.2 0.18            151           70.7 295 
 PAM  SZ EP       2334 26.38                             152    0.4710 73.8  41 
 PAM  SN ES       2334 43.39                             152    0.3310 73.8  41 
 PAM  SZ I        2334 45.79        21.2 0.20            156           73.8  41 
 RUS  HZ EP       2334 27.52                             143   -0.4010  104 177 
 RUS  HE ES       2334 45.78                             143   -0.8510  104 177 
 RUS  HZ I        2334 47.26        11.3 0.40            146            104 177 
 PTB  HZ EP       2334 30.63                             132   -0.43 9  150 258 
 PTB  HE ES       2334 51.65                             132   -0.58 9  150 258 
 PTB  HZ I        2334 57.49        25.4 0.20            132            150 258 
 OCA  HZ EP       2334 32.11                             130    0.21 9  157 353 
 OCA  HE ES       2334 53.12                             130   -0.60 9  157 353 
 OCA  HZ I        2334 59.61        37.1 0.16            132            157 353 
 SPBC HZ EP       2334 32.56                             128   -0.20 9  167 219 
 SPBC HE ES       2334 55.59                             128    0.34 9  167 219 
 SPBC HZ I        2335  1.78        40.4 0.36            130            167 219 
 ZAR  HZ EP       2334 35.96                             122   -0.39 9  204 291 
 ZAR  HN ES       2335  1.76                             122    0.13 9  204 291 
 ZAR  HZ I        2335  8.06        22.4 0.26            123            204 291 
 NOR  HZ EP       2334 39.80                             118   -0.19 8  238 234 
 NOR  HE ES       2335  7.70                             118   -0.41 8  238 234 
 NOR  HZ I        2335 11.40        17.4 0.72            120            238 234 
 SML  HZ EP       2334 40.58                             118    0.33 8  241 335 
 SML  HN ES       2335  8.21                             118   -0.36 8  241 335 
 SML  HZ I        2335 13.28        22.8 0.24            119            241 335 
 ROSC BZ EP       2334 42.82                             116    0.37 8  257 211 
 ROSC BE ES       2335 12.79                             116    0.29 8  257 211 
 ROSC BZ I        2335 17.98        17.3 0.40            118            257 211 
 HEL  HZ EP       2334 44.57                             114    0.20 8  274 255 
 HEL  HN ES       2335 16.21                             114    0.29 8  274 255 
 HEL  HZ I        2335 22.33         8.5 0.34            116            274 255 
 GUY2CHZ EP       2334 47.89                             112    0.01 7  304 234 
 GUY2CHN ES       2335 22.86                             112    0.69 7  304 234 
 GUY2CHZ I        2335 30.43        14.6 0.76                           304 234 
 RREF HN EP       2334 50.63                             111    0.19 7  325 229 
 RREF HN ES       2335 27.26                             111    0.53 7  325 229 
 RREF HN I        2335 33.35        16.3 0.30            112            325 229 
 DBB  SZ EP       2334 50.72                             109   -0.80 7  341 274 
 DBB  SZ ES       2335 28.58                             109   -0.05 7  341 274 
 DBB  SZ I        2335 30.20        21.2 0.44            111            341 274 
 ORTC HZ EP       2334 58.35                             106    0.08 6  399 216 
 ORTC HN ES       2335 40.72                             106    0.06 6  399 216 
 ORTC HZ I        2335 46.57         5.1 0.44            108            399 216 
                                                                                
