 2016  912 2329  4.0 L   6.534 -73.512110.6  RSN  9 0.4 1.6LRSN                1
 GAP= 66        1.01       4.5     4.7  6.4 -0.7473E+01  0.6971E+01 -0.2129E+01E
 Epicentro: EL CARMEN - SANTANDER                                              3
 ACTION:UPD 17-08-17 21:09 OP:lp   STATUS:               ID:20160912232904 L   I
 OLDACT:UP  16-09-13 04:17 OP:dani STATUS:               ID:20160912232735     3
 OLDACT:REG 16-09-13 02:53 OP:dani STATUS:               ID:20160912232735     3
 2016-09-12-2328-00M.COL___318                                                 6
 STAT SP IPHASW D HRMM SECON CODA AMPLIT PERI AZIMU VELO AIN AR TRES W  DIS CAZ7
 BAR2 EZ EP       2329 19.67                             160   -0.2110 37.1  80 
 BAR2 EZ ES       2329 32.72                             160    0.4510 37.1  80 
 BAR2 EZ I        2329 33.57        44.7 0.38            143           37.1  80 
 BRR  HZ EP       2329 20.73                             146   -0.4510 67.1 341 
 BRR  HE ES       2329 34.59                             146   -0.0110 67.1 341 
 BRR  HZ I        2329 41.43         9.4 0.42            123           67.1 341 
 RUS  HZ EP   2   2329 22.91                             140   -0.30 5 85.3 146 
 RUS  HE ES   2   2329 39.06                             140    0.85 5 85.3 146 
 RUS  HZ I        2329 40.04         2.8 0.31            121           85.3 146 
 PTB  HZ IP   9 D 2329 22.73                             133   -1.43 0  104 270 
 PTB  HE ES       2329 37.98                             133   -0.4810  104 270 
 PTB  HZ I        2329 44.35         6.9 0.12            113            104 270 
 SPBC HN ES       2329 41.49                             130   -0.3810  116 212 
 SPBC HZ I        2329 47.18        10.7 0.13            111            116 212 
 PAM  EZ EP       2329 26.48                             127   -0.3710  127  45 
 PAM  EZ I        2329 46.38         2.7 0.23            107            127  45 
 ZAR  HZ EP       2329 32.55                             116    0.51 9  183 306 
 ZAR  HN ES   4   2329 54.80                             116    0.88 0  183 306 
 ZAR  HZ I        2329 58.13         6.1 0.32            101            183 306 
 NOR  HE ES       2329 54.34                             116   -0.07 9  185 235 
 HEL  HZ EP       2329 38.06                             111    0.68 8  226 260 
 HEL  HZ I        2330  8.90         4.5 0.31             98            226 260 
                                                                                
