 2014  112 2056 35.1 L   6.797 -73.118151.3  RSN  4 0.4 1.1LRSN                1
 GAP=140        0.85       7.7     6.1  9.5 -0.8549E+01 -0.1129E+02  0.1999E+02E
 Epicentro: LOS SANTOS - SANTANDER                                             3
 ACTION:UPD 14-03-13 09:54 OP:ep   STATUS:               ID:20140112205635 L   I
 OLDACT:UP  14-01-13 00:15 OP:mh   STATUS:               ID:20140112205000     3
 OLDACT:UP  14-01-13 00:15 OP:mh   STATUS:               ID:20140112205000     3
 OLDACT:REG 14-01-12 22:08 OP:mh   STATUS:               ID:20140112205000     3
 2014-01-12-2050-00M.COL___285                                                 6
 STAT SP IPHASW D HRMM SECON CODA AMPLIT PERI AZIMU VELO AIN AR TRES W  DIS CAZ7
 BRR  HZ EP       2056 57.65                             152    0.6810 74.0 298 
 BRR  HZ I        2057  2.26         5.5 0.51            152           74.0 298 
 BRR  HN ES       2057 14.03                             152   -0.0210 74.0 298 
 PAM  SZ EP       2056 57.61                             152   -0.1710 75.8  38 
 PAM  SN ES   2   2057 15.23                             152   -0.26 5 75.8  38 
 PAM  SZ I        2057 17.63         2.0 0.45            155           75.8  38 
 RUS  HZ EP   1   2056 58.81                             145   -0.52 7  100 178 
 RUS  HN ES   2   2057 18.78                             145    0.53 5  100 178 
 RUS  HZ I        2057 20.84         0.9 0.22            146            100 178 
 PTB  HZ EP       2057  2.62                             132   -0.13 9  151 259 
 PTB  HN ES   1   2057 24.01                             132   -0.33 7  151 259 
 PTB  HZ I        2057 28.84         2.2 0.26            133            151 259 
                                                                                
