 2010  812 2100 19.2 L   6.800 -73.062142.0  RSN  7 0.4 1.8LRSN                1
 GAP=168        0.88       4.2    10.1  8.6 -0.3107E+01 -0.1694E+02 -0.3291E+01E
 Epicentro: LOS SANTOS - SANTANDER                                             3
 ACTION:UP  10-09-07 10:54 OP:vdl  STATUS:               ID:20100812210019 L   I
 2010-08-12-2055-24S.COL___125                                                 6
 STAT SP IPHASW D HRMM SECON CODA AMPLIT PERI AZIMU VELO SNR AR TRES W  DIS CAZ7
 BAR2 SZ IP     D 21 0 38.45                             168     0.010   27 210 
 BAR2 SZ I        21 0 38.62        16.3 0.20                            27 210 
 BAR2 SZ ES   2   21 0 52.98                             168    -0.5 5   27 210 
 GIR2 SZ EP   1   21 0 38.53                             165     0.0 7   34 335 
 BRR  HZ EP   1   21 0 40.28                             148    -0.2 7   80 295 
 BRR  HN ES   1   21 0 57.19                             148     0.2 7   80 295 
 BRR  HZ I        21 1  0.78        28.2 0.32                            80 295 
 RUS  HZ EP       21 0 42.51                             143    -0.110  100 181 
 RUS  HZ I        21 0 43.68         5.6 0.12                           100 181 
 RUS  HN ES       21 1  0.90                             143     0.110  100 181 
 GUE  SZ EP   1   21 0 42.52                             139    -0.9 7  115   8 
 GRA  SZ EP   1   21 0 44.38                             137     0.5 7  123  13 
 GRA  SZ ES   1   21 1  3.57                             137     0.4 7  123  13 
 GRA  SZ I        21 1  5.87         8.6 0.47                           123  13 
 PRA  HZ EP   1   21 1 13.48                             105     0.4 4  397 211 
 PRA  HZ I        21 2  0.75         2.1 0.14                           397 211 
                                                                                
