 2016 1212 2259 16.3 L   6.774 -73.158142.0  RSN 10 0.5 1.8LRSN                1
 GAP=136        1.12       4.2     4.8  6.6  0.1723E+01  0.8558E+01  0.5054E+01E
 Epicentro: LOS SANTOS - SANTANDER                                             3
 ACTION:UPD 17-01-11 20:14 OP:rebc STATUS:               ID:20161212225916 L   I
 OLDACT:REG 16-12-13 03:57 OP:dnl  STATUS:               ID:20161212225743     3
 2016-12-12-2258-00M.COL___387                                                 6
 STAT SP IPHASW D HRMM SECON CODA AMPLIT PERI AZIMU VELO AIN AR TRES W  DIS CAZ7
 BAR2 EZ EP       2259 35.21                             171   -0.2010 20.2 188 
 BAR2 EZ ES       2259 50.43                             171    0.1110 20.2 188 
 BAR2 EZ I        2259 51.82        20.8 0.26            170           20.2 188 
 BRR  HZ EP       2259 37.16                             152    0.1110 71.5 301 
 BRR  HN ES       2259 54.10                             152    0.8610 71.5 301 
 BRR  HZ I        2259 57.87        12.2 0.46            149           71.5 301 
 PAM  EZ EP       2259 38.14                             149   -0.1610 80.5  39 
 PAM  EN ES       2259 55.31                             149   -0.1610 80.5  39 
 PAM  EZ I        2259 57.40         8.2 0.56            152           80.5  39 
 RUS  HZ EP       2259 39.20                             144   -0.2710 97.8 175 
 RUS  HN ES       2259 57.52                             144   -0.0310 97.8 175 
 RUS  HZ I        2259 58.91         3.9 0.20            146           97.8 175 
 PTB  HZ EP       2259 41.98                             131   -0.80 9  146 260 
 PTB  HN ES       23 0  2.86                             131   -0.58 9  146 260 
 PTB  HZ I        23 0 10.24         7.0 0.44            131            146 260 
 ZAR  HZ EP       2259 49.10                             122    0.62 9  204 293 
 ZAR  HN IS       23 0 13.19                             122   -0.40 9  204 293 
 ZAR  HZ I        23 0 18.45         6.7 0.32            121            204 293 
 CHI  HZ EP       2259 53.67                             117    0.23 8  245 195 
 CHI  HN ES       23 0 22.75                             117    0.34 8  245 195 
 CHI  HZ I        23 0 26.26         4.2 0.56            118            245 195 
 GUY2CHZ EP       23 0  0.27                             112    0.86 7  298 235 
 GUY2CHE ES   4   23 0 36.51                             112    3.47 0  298 235 
 GUY2CHZ I        23 0 42.63         3.1 0.62                           298 235 
 PRA  HZ EP   9   23 0  6.21                             106   -3.10 0  389 210 
 PRA  HN ES       23 0 47.21                                   -0.35 6  389 210 
 PRA  HZ I        23 0 54.36         4.8 0.34            107            389 210 
 SJC  HZ EP   4   23 0  9.38                             105   -2.55 0  411 327 
 SJC  HN ES   4   23 0 52.50                             105   -2.83 0  411 327 
 SJC  HZ I        23 1  3.55         1.7 0.64            106            411 327 
                                                                                
