 2015  212 2045 17.3 L   6.957 -73.193124.0  RSN  5 0.3 1.9LRSN                1
 GAP=182        0.70       4.7     5.9  6.0 -0.1939E+02  0.1986E+02 -0.6513E+01E
 Epicentro: BETULIA - SANTANDER                                                3
 ACTION:UPD 15-04-30 21:25 OP:nd   STATUS:               ID:20150212204517 L   I
 OLDACT:DUP 15-02-13 08:54 OP:cam  STATUS:               ID:20150212203745d    3
 2015-02-12-2037-44M.COL___263                                                 6
 STAT SP IPHASW D HRMM SECON CODA AMPLIT PERI AZIMU VELO AIN AR TRES W  DIS CAZ7
 BAR2 EZ EP       2045 34.60                             161   -0.2410 40.3 178 
 BAR2 EZ ES       2045 48.82                             161    0.2910 40.3 178 
 BAR2 EZ I        2045 50.11        26.5 0.42            163           40.3 178 
 PAM  SZ EP       2045 36.53                             149   -0.1510 69.0  52 
 PAM  SN ES       2045 51.82                             149    0.0010 69.0  52 
 PAM  SZ I        2045 54.02         9.2 0.32            154           69.0  52 
 RUS  HZ EP       2045 40.33                             134   -0.1210  118 174 
 RUS  HN ES       2045 58.57                             134    0.0510  118 174 
 RUS  HN I        2046  0.00        10.3 0.22            138            118 174 
 SPBC HZ EP       2045 45.89                             122    0.58 9  174 214 
 SPBC HN ES       2046  6.70                             122   -0.48 9  174 214 
 SPBC HZ I        2046  8.47         8.5 0.16            124            174 214 
 NOR  HZ EP       2045 52.70                             113    0.14 8  241 230 
 NOR  HN ES       2046 20.06                             113   -0.02 8  241 230 
 NOR  HN I        2046 25.30        13.1 0.44            115            241 230 
                                                                                
