 2014 1112 2136 44.7 L   6.776 -73.154147.4  RSN  8 0.2 1.8LRSN                1
 GAP=137        0.64       2.9     3.1  4.2 -0.3258E+01  0.1771E+01  0.2880E+01E
 Epicentro: LOS SANTOS - SANTANDER                                             3
 ACTION:UPD 14-12-19 15:42 OP:nd   STATUS:               ID:20141112213644 L   I
 OLDACT:REG 14-11-13 08:05 OP:carl STATUS:               ID:20141112212747     3
 2014-11-12-2127-47M.COL___294                                                 6
 STAT SP IPHASW D HRMM SECON CODA AMPLIT PERI AZIMU VELO AIN AR TRES W  DIS CAZ7
 BAR2 SZ EP       2137  4.33                             172   -0.1010 20.6 189 
 BAR2 SZ ES       2137 19.85                             172    0.0010 20.6 189 
 BAR2 SZ I        2137 21.12        16.7 0.16            171           20.6 189 
 BRR  HZ EP       2137  6.22                             153    0.2110 71.7 301 
 BRR  HN ES       2137 23.16                             153    0.5010 71.7 301 
 PAM  SZ EP       2137  7.17                             150   -0.0310 80.0  39 
 PAM  SN ES       2137 24.43                             150   -0.3510 80.0  39 
 PAM  SZ I        2137 26.93         4.8 0.54            153           80.0  39 
 RUS  HZ EP       2137  8.48                             145    0.1010 98.0 175 
 RUS  HN ES       2137 26.97                             145    0.0810 98.0 175 
 RUS  HZ I        2137 28.23         6.7 0.34            147           98.0 175 
 PTB  HN ES       2137 32.34                             133   -0.33 9  146 260 
 PTB  HZ I        2137 39.71         9.1 0.48            132            146 260 
 SPBC HZ EP       2137 13.07                             130    0.04 9  161 219 
 SPBC HN ES       2137 35.16                             130   -0.00 9  161 219 
 SPBC HZ I        2137 37.59        17.3 0.12            131            161 219 
 NOR  HZ EP       2137 20.23                             119   -0.00 8  232 235 
 NOR  HN ES       2137 47.54                             119   -0.45 8  232 235 
 NOR  HZ I        2137 52.44         6.2 0.22            120            232 235 
 PRA  HN ES       2138 19.83                             107    0.38 6  389 210 
                                                                                
