 2013  912 2124 51.1 L   6.791 -73.137143.5  RSN 11 0.4 2.1LRSN                1
 GAP=138        0.77       3.1     3.9  5.0  0.9949E-01  0.4669E+01  0.1304E+01E
 Epicentro: LOS SANTOS - SANTANDER                                             3
 ACTION:UPD 13-10-22 09:22 OP:ep   STATUS:               ID:20130912212451 L   I
 OLDACT:REG 13-09-12 21:16 OP:mh   STATUS:               ID:20130912211959     3
 2013-09-12-2119-59M.COL___269                                                 6
 STAT SP IPHASW D HRMM SECON CODA AMPLIT PERI AZIMU VELO AIN AR TRES W  DIS CAZ7
 BAR2 SZ EP   1   2125 10.59                             171    0.16 7 22.6 193 
 BAR2 SZ ES   1   2125 25.54                             171    0.03 7 22.6 193 
 BAR2 SZ I        2125 26.61        38.2 0.18            167           22.6 193 
 BRR  HZ EP   1   2125 12.56                             152    0.49 7 72.5 299 
 BRR  HN ES       2125 28.90                             152    0.4710 72.5 299 
 BRR  HZ I        2125 33.29        24.2 0.12            149           72.5 299 
 PAM  SZ EP       2125 13.46                             150    0.3810 77.5  39 
 PAM  SN ES       2125 29.99                             150   -0.2310 77.5  39 
 PAM  SZ I        2125 32.07        13.5 0.38            155           77.5  39 
 RUS  HZ EP   1   2125 14.65                             144    0.11 7 99.5 177 
 RUS  HN ES   1   2125 32.10                             144   -0.73 7 99.5 177 
 RUS  HZ I        2125 34.25         9.7 0.46            144           99.5 177 
 PTB  HZ EP   1   2125 17.47                             131   -0.47 7  149 259 
 PTB  HN ES   1   2125 38.47                             131   -0.42 7  149 259 
 PTB  HZ I        2125 42.50        11.9 0.18            130            149 259 
 ZAR  HZ EP   1   2125 23.38                             122   -0.14 6  205 292 
 ZAR  HN ES   1   2125 49.05                             122    0.24 6  205 292 
 ZAR  HZ I        2125 55.25        15.1 0.48            121            205 292 
 SML  HZ EP       2125 27.45                             117   -0.28 8  245 335 
 SML  HN ES   1   2125 55.60                             117   -0.71 6  245 335 
 SML  HZ I        2125 59.70        21.6 0.10            118            245 335 
 CHI  HZ EP   1   2125 28.66                             117    0.07 6  248 195 
 CHI  HN ES   2   2125 58.38                             117    0.54 4  248 195 
 CHI  HZ I        2126  4.14         5.5 0.28            117            248 195 
 GUY2CHZ EP   4   2125 35.43                             112    0.81 0  301 235 
 GUY2CHN ES   4   2126  9.67                             112    1.10 0  301 235 
 GUY2CHZ I        2126 15.82         7.5 0.32                           301 235 
 PRA  HZ EP   1   2125 44.65                             106    0.16 4  392 210 
 PRA  HN ES   1   2126 26.31                             106    0.17 4  392 210 
 PRA  HZ I        2126 33.39         7.3 0.28            107            392 210 
 SJC  HZ EP   4   2125 45.25                             105   -1.49 0  411 327 
 SJC  HN ES   4   2126 24.00                             105   -6.14 0  411 327 
 SJC  HZ I        2126 30.63         2.9 0.46            106            411 327 
                                                                                
