 2016  412 2037  4.0 L   6.813 -73.156143.1  RSN 12 0.4 2.5LRSN                1
 GAP=135        0.87       3.1     3.3  5.1 -0.1605E+01  0.6527E+01  0.2168E+01E
 Epicentro: LOS SANTOS - SANTANDER                                             3
 ACTION:UPD 16-05-05 14:20 OP:rebc STATUS:               ID:20160412203704 L   I
 OLDACT:UP  16-04-13 02:45 OP:drio STATUS:               ID:20160412202744     3
 OLDACT:REG 16-04-13 02:35 OP:drio STATUS:               ID:20160412202744     3
 2016-04-12-2027-44M.COL___312                                                 6
 STAT SP IPHASW D HRMM SECON CODA AMPLIT PERI AZIMU VELO AIN AR TRES W  DIS CAZ7
 BAR2 EZ EP       2037 23.39                             170    0.0510 24.5 187 
 BAR2 EZ ES       2037 38.10                             170   -0.3110 24.5 187 
 BAR2 EZ I        2037 40.05        69.3 0.22            168           24.5 187 
 PAM  EZ EP       2037 26.19                             150    0.2710 77.0  41 
 PAM  EE ES       2037 43.29                             150    0.2910 77.0  41 
 PAM  EZ I        2037 45.52        57.9 0.50            155           77.0  41 
 RUS  HZ EP       2037 27.29                             143   -0.3110  102 175 
 RUS  HE ES       2037 46.28                             143    0.2810  102 175 
 RUS  HZ I        2037 48.54        17.4 0.70            144            102 175 
 PTB  HZ EP       2037 30.12                             131   -0.56 9  147 258 
 PTB  HN ES       2037 51.04                             131   -0.45 9  147 258 
 PTB  HZ I        2037 53.18        26.1 0.18            132            147 258 
 SPBC HZ EP       2037 32.42                             128    0.08 9  164 218 
 SPBC HN ES       2037 54.63                             128    0.20 9  164 218 
 SPBC HZ I        2037 58.79        55.3 0.60            129            164 218 
 ZAR  HZ EP       2037 36.12                             122    0.00 9  203 292 
 ZAR  HE ES       2038  1.25                             122    0.09 9  203 292 
 ZAR  HZ I        2038  6.58        31.8 0.32            123            203 292 
 NOR  HZ EP       2037 39.49                             118   -0.08 8  235 234 
 NOR  HE ES       2038  7.01                             118   -0.30 8  235 234 
 NOR  HZ I        2038 12.79        17.3 0.20            119            235 234 
 CHI  HZ EP       2037 41.09                             116   -0.58 8  250 195 
 CHI  HE ES       2038 10.79                             116   -0.26 8  250 195 
 CHI  HZ I        2038 14.37        21.8 0.60            118            250 195 
 ROSC BZ EP   4   2037 43.44                             116    1.39 0  253 211 
 ROSC BE ES   4   2038 14.44                             116    2.72 0  253 211 
 ROSC BZ I        2038 17.85        49.1 0.40            117            253 211 
 HEL  HZ EP   4   2037 45.53                             114    1.53 0  271 255 
 HEL  HN ES       2038 15.58                             114    0.38 8  271 255 
 HEL  HZ I        2038 21.45        16.3 0.30            115            271 255 
 GUY2CHZ EP       2037 47.97                             112    0.49 7  301 234 
 GUY2CHE ES       2038 21.82                             112    0.43 7  301 234 
 GUY2CHZ I        2038 29.65        17.8 0.36                           301 234 
 ORTC HZ EP       2037 57.82                             106   -0.07 6  396 216 
 ORTC HN ES       2038 41.20                             106    1.28 6  396 216 
 ORTC HZ I        2038 44.77        10.4 0.22            107            396 216 
                                                                                
