 2015  112 2214 46.3 L   6.734 -73.159141.6  RSN  5 0.5 1.1LRSN                1
 GAP=138        1.19       5.2     6.2 10.7 -0.4462E+01  0.7859E+01  0.1123E+02E
 Epicentro: LOS SANTOS - SANTANDER                                             3
 ACTION:UPD 15-03-02 15:39 OP:nd   STATUS:               ID:20150112221446 L   I
 OLDACT:REG 15-01-13 03:24 OP:fm   STATUS:               ID:20150112220746     3
 2015-01-12-2207-46M.COL___259                                                 6
 STAT SP IPHASW D HRMM SECON CODA AMPLIT PERI AZIMU VELO AIN AR TRES W  DIS CAZ7
 BRR  HZ EP       2215  7.71                             151    0.5410 73.7 304 
 BRR  HN ES       2215 23.42                             151   -0.0110 73.7 304 
 BRR  HZ I        2215 29.41         3.1 0.26            152           73.7 304 
 PAM  SZ EP       2215  8.67                             148    0.1510 84.0  37 
 PAM  SN ES       2215 25.35                             148   -0.4710 84.0  37 
 PAM  SZ I        2215 28.38         2.3 0.72            153           84.0  37 
 RUS  HZ EP   1   2215  9.99                             145    0.83 7 93.5 175 
 RUS  HN ES       2215 27.11                             145    0.1510 93.5 175 
 RUS  HZ I        2215 29.80         1.4 0.28            150           93.5 175 
 PTB  HZ EP       2215 11.86                             132   -0.85 9  145 262 
 PTB  HN ES       2215 33.55                             132    0.27 9  145 262 
 PTB  HZ I        2215 37.65         1.8 0.36            135            145 262 
 CHI  HN ES       2215 51.08                             117   -0.50 8  241 195 
                                                                                
