 2013  512 2032 32.5 L   6.766 -73.134144.9  RSN  6 0.5 1.7LRSN                1
 GAP=140        0.97       7.1     6.3 10.7 -0.1372E+02 -0.2809E+01  0.3712E+02E
 Epicentro: LOS SANTOS - SANTANDER                                             3
 ACTION:UPD 13-06-20 09:49 OP:ep   STATUS:               ID:20130512203232 L   I
 2013-05-12-2030-00M.COL___256                                                 6
 STAT SP IPHASW D HRMM SECON CODA AMPLIT PERI AZIMU VELO AIN AR TRES W  DIS CAZ7
 BRR  HZ EP   1   2032 54.37                             151    0.62 7 74.1 301 
 BRR  HN ES       2033 10.70                             151    0.3910 74.1 301 
 BRR  HN I        2033 11.78        13.7 0.28            152           74.1 301 
 PAM  SZ EP   1   2032 55.01                             150    0.23 7 79.5  37 
 PAM  SN ES   1   2033 11.57                             150   -0.57 7 79.5  37 
 PAM  SN I        2033 13.83         6.7 0.48            157           79.5  37 
 RUS  HZ EP   1   2032 56.17                             145    0.24 7 96.8 177 
 RUS  HN ES   2   2033 13.90                             145   -0.27 5 96.8 177 
 RUS  HN I        2033 16.39         3.4 0.24            144           96.8 177 
 PTB  HZ EP   1   2032 59.01                             132   -0.47 7  148 260 
 PTB  HN ES   1   2033 19.66                             132   -0.84 7  148 260 
 PTB  HN I        2033 25.76         8.7 0.28            132            148 260 
 NOR  HZ EP   1   2033  7.43                             118   -0.66 6  234 235 
 NOR  HN ES   1   2033 36.50                             118    0.67 6  234 235 
 NOR  HN I        2033 42.49         5.1 0.18            119            234 235 
 CHI  HN ES   2   2033 39.06                             117    0.14 4  245 196 
 CHI  HN I        2033 43.31         3.3 0.24            118            245 196 
                                                                                
