 2017  512 2353 16.5 L   6.848 -73.371104.0  RSN  5 0.3 1.4LRSN                1
 GAP=110        0.92       4.6     4.2  8.7  0.6346E+01  0.5270E+00 -0.2878E+01E
 Epicentro: SAN VICENTE DE CHUCURI - SANTANDER                                 3
 ACTION:UPD 17-06-16 13:35 OP:jn   STATUS:               ID:20170512235317 L   I
 OLDACT:UP  17-05-15 20:14 OP:nlst STATUS:               ID:20170512235317 L   3
 OLDACT:REG 17-05-13 05:34 OP:ar   STATUS:               ID:20170512234741     3
 2017-05-12-2348-00M.COL___330                                                 6
 STAT SP IPHASW D HRMM SECON CODA AMPLIT PERI AZIMU VELO AIN AR TRES W  DIS CAZ7
 BRR  HZ IP     D 2353 31.38                             153   -0.3710 47.4 307 
 BRR  HN ES   1   2353 43.84                             153    0.17 7 47.4 307 
 PAM  EZ EP   1   2353 36.01                             134    0.38 7 91.9  54 
 PAM  EN ES   1   2353 50.42                             134   -0.15 7 91.9  54 
 PAM  EZ I        2353 52.43         4.3 0.20            134           91.9  54 
 RUS  HZ EP   1   2353 37.57                             129    0.29 7  110 163 
 RUS  HN ES       2353 53.47                             129   -0.0510  110 163 
 RUS  HZ I        2353 55.86         3.8 0.36            129            110 163 
 PTB  HZ EP   9   2353 36.52                             125   -1.53 0  125 254 
 PTB  HN ES       2353 52.50                                   -0.8610  125 254 
 PTB  HZ I        2353 54.00        10.6 0.42            125            125 254 
 ZAR  HZ EP   1   2353 43.48                             115   -0.30 7  179 294 
 ZAR  HE ES       2354  5.31                             115    0.22 9  179 294 
 ZAR  HZ I        2354  6.90         3.6 0.20            114            179 294 
                                                                                
