 2015  512 2259 34.2 L   6.837 -73.154139.5  RSN 17 0.5 2.3LRSN                1
 GAP= 69        1.24       2.9     3.3  5.7 -0.1389E+01  0.4103E+01  0.1734E+01E
 Epicentro: LOS SANTOS - SANTANDER                                             3
 ACTION:UPD 15-09-10 22:03 OP:cam  STATUS:               ID:20150512225935dL   I
 OLDACT:REG 15-05-13 03:05 OP:ar   STATUS:               ID:20150512225748     3
 2015-05-12-2257-48M.COL___276                                                 6
 STAT SP IPHASW D HRMM SECON CODA AMPLIT PERI AZIMU VELO AIN AR TRES W  DIS CAZ7
 BAR2 EZ EP       2259 53.38                             168    0.1810 27.2 187 
 BAR2 EZ ES       23 0  7.73                             168   -0.2610 27.2 187 
 BAR2 EZ I        23 0  8.95        46.2 0.34            168           27.2 187 
 BRR  HZ IP     C 2259 55.17                             152    0.6110 68.5 296 
 BRR  HE ES       23 0 11.10                             152    0.6910 68.5 296 
 BRR  HZ I        23 0 16.29        28.2 0.44            150           68.5 296 
 PAM  SZ IP     C 2259 56.30                             151    0.6710 74.9  42 
 PAM  SN ES       23 0 12.59                             151    0.2710 74.9  42 
 PAM  SZ I        23 0 15.32        51.5 0.50            154           74.9  42 
 RUS  HZ EP       2259 57.50                             141   -0.1910  105 176 
 RUS  HE ES       23 0 15.75                             141   -0.2310  105 176 
 OCA  HZ EP       23 0  1.54                             129   -0.13 9  156 353 
 OCA  HN ES       23 0 22.64                             129   -0.43 9  156 353 
 OCA  HZ I        23 0 26.31        52.6 0.36            131            156 353 
 TAM  HZ EP       23 0  1.71                             129    0.10 9  157 106 
 TAM  HZ I        23 0  2.21        32.0 0.36            133            157 106 
 TAM  HN ES       23 0 22.88                             129   -0.08 9  157 106 
 SPBC HZ EP       23 0  2.45                             127   -0.07 9  166 218 
 SPBC HN ES       23 0 23.93                             127   -0.65 9  166 218 
 SPBC HZ I        23 0 31.40        17.4 0.10            128            166 218 
 ZAR  HZ EP       23 0  6.40                             121    0.36 9  202 291 
 ZAR  HN ES       23 0 31.71                             121    0.87 9  202 291 
 ZAR  HZ I        23 0 36.97        24.9 0.24            122            202 291 
 NOR  HZ EP       23 0 10.20                             117    0.41 8  236 234 
 NOR  HE ES       23 0 37.28                             117   -0.24 8  236 234 
 NOR  HZ I        23 0 43.11        15.6 0.16            118            236 234 
 SML  HZ EP       23 0  9.38                             117   -0.69 8  240 335 
 SML  HN ES       23 0 36.87                             117   -1.15 8  240 335 
 SML  HZ I        23 0 43.76        18.8 0.28            118            240 335 
 CHI  HZ EP       23 0 11.61                             115   -0.39 8  252 195 
 CHI  HN ES       23 0 41.09                             115   -0.37 8  252 195 
 HEL  HN ES       23 0 43.94                             113   -1.35 8  272 255 
 HEL  HZ I        23 0 51.53         8.1 0.56            114            272 255 
 SOCV BZ EP       23 0 16.18                             111   -0.65 7  300  58 
 GUY2CHZ EP       23 0 18.44                             111    0.69 7  303 234 
 GUY2CHN ES       23 0 51.47                             111   -0.22 7  303 234 
 GUY2CHZ I        23 0 59.75         7.4 0.60                           303 234 
 RREF HZ EP       23 0 20.92                             110    0.58 7  324 229 
 RREF HN ES       23 0 56.91                             110    0.60 7  324 229 
 RREF HZ I        23 1  2.30         2.9 0.24            111            324 229 
 MON  HZ EP   9   23 0 20.07                             108   -2.56 0  350 308 
 MON  HE ES       23 0 57.33                                   -0.48 6  350 308 
 MON  HZ I        23 1  0.07         5.9 0.18            109            350 308 
 ORTC HZ EP       23 0 28.72                             105    0.45 6  398 216 
 ORTC HN ES       23 1 10.70                             105    0.28 6  398 216 
 ORTC HZ I        23 1 22.91         3.1 0.46            106            398 216 
                                                                                
