 2013  312 2252  2.6 L   6.797 -73.115146.0  RSN  8 0.6 2.0LRSN                1
 GAP=141        1.38       8.2     9.3  9.8 -0.2260E+02 -0.7351E+01  0.1340E+02E
 Epicentro: LOS SANTOS - SANTANDER                                             3
 ACTION:UPD 13-04-09 14:02 OP:ep   STATUS:               ID:20130312225202 L   I
 2013-03-12-2248-49M.COL___204                                                 6
 STAT SP IPHASW D HRMM SECON CODA AMPLIT PERI AZIMU VELO AIN AR TRES W  DIS CAZ7
 BAR2 SZ ES       2252 36.95                             170   -0.6510 23.9 198 
 BAR2 SZ I        2252 38.24        14.3 0.26            149           23.9 198 
 BRR  HN ES       2252 41.62                             151    1.0210 74.4 297 
 BRR  HN I        2252 45.19        22.8 0.16            130           74.4 297 
 PAM  SZ EP       2252 25.22                             151    0.5010 75.5  37 
 PAM  SZ I        2252 25.43        14.3 0.22            151           75.5  37 
 PAM  SN ES       2252 41.88                             151   -0.1010 75.5  37 
 RUS  HZ EP       2252 26.23                             144   -0.1010  100 178 
 CAPV BZ EP       2252 30.01                             132    0.17 9  147  37 
 PTB  HZ EP       2252 29.50                             131   -0.38 9  151 259 
 OCA  HN ES   1   2252 52.04                             129   -1.10 7  161 352 
 OCA  HN I        2252 55.89        36.2 0.36            118            161 352 
 NOR  HZ EP   2   2252 38.85                             118    0.23 4  237 235 
 NOR  HN I        2253 11.23         5.8 0.12            106            237 235 
                                                                                
