 2016  812 2344  3.8 L   6.803 -73.159146.9  RSN  6 0.4 1.5LRSN                1
 GAP=236        1.01       6.1     5.7  8.0  0.1344E+02  0.1084E+02  0.4052E+01E
 Epicentro: LOS SANTOS - SANTANDER                                             3
 ACTION:UPD 16-10-29 15:34 OP:rebc STATUS:               ID:20160812234403 L   I
 OLDACT:REG 16-08-13 03:05 OP:drio STATUS:               ID:20160812233759     3
 2016-08-12-2337-59S.COL___349                                                 6
 STAT SP IPHASW D HRMM SECON CODA AMPLIT PERI AZIMU VELO AIN AR TRES W  DIS CAZ7
 BAR2 EZ EP       2344 23.39                             171   -0.1310 23.4 186 
 BAR2 EZ ES       2344 38.37                             171   -0.5710 23.4 186 
 BRR  HZ EP       2344 25.30                             153    0.3510 69.8 299 
 BRR  HN ES       2344 42.05                             153    0.5710 69.8 299 
 RUS  HZ EP       2344 27.99                             144    0.3410  101 175 
 RUS  HE ES       2344 46.33                             144    0.0410  101 175 
 RUS  HZ I        2344 47.23         4.6 0.24                           101 175 
 PTB  HZ EP       2344 30.04                             132   -0.65 9  146 259 
 PTB  HE ES       2344 51.72                             132    0.02 9  146 259 
 PTB  HZ I        2344 54.12         5.3 0.14                           146 259 
 ZAR  HE ES       2345  1.06                             123   -0.31 9  203 292 
 NOR  HE ES       2345  7.55                             119    0.27 8  234 234 
                                                                                
