 2012 1012 2012 25.1 L   6.795 -73.131141.1  RSN  5 0.2 2.0LRSN                1
 GAP=139        0.46       3.1     3.2  4.8  0.1416E+01  0.8099E+00 -0.1494E+01E
 Epicentro: LOS SANTOS - SANTANDER                                             3
 ACTION:UPD 12-11-22 17:03 OP:ep   STATUS:               ID:20121012201225 L   I
 2012-10-12-2010-00M.COL___231                                                 6
 STAT SP IPHASW D HRMM SECON CODA AMPLIT PERI AZIMU VELO AIN AR TRES W  DIS CAZ7
 BAR2 SZ ES   1   2012 58.75                             170   -0.34 7 23.1 194 
 BAR2 SZ I        2012 59.91        23.5 0.22                          23.1 194 
 BRR  HZ EP   1   2012 45.80                             151   -0.09 7 72.9 298 
 BRR  HN ES   1   2013  2.45                             151    0.37 7 72.9 298 
 BRR  HN I        2013  3.43        39.4 0.16                          72.9 298 
 PAM  SZ EP       2012 46.90                             150    0.0710 76.8  38 
 PAM  SN ES   1   2013  3.70                             150   -0.05 7 76.8  38 
 PAM  SN I        2013  5.05        13.0 0.48                          76.8  38 
 RUS  HZ EP   1   2012 48.39                             143    0.00 7 99.9 177 
 RUS  HN ES   1   2013  6.67                             143    0.14 7 99.9 177 
 RUS  HN I        2013  8.09         7.7 0.24                          99.9 177 
 ZAR  HN ES   1   2013 22.49                             121   -0.20 6  206 292 
 ZAR  HN I        2013 28.94         8.2 0.16                           206 292 
                                                                                
