 2017  312 2144 47.3 L   6.724 -73.232146.6  RSN  4 0.5 1.2LRSN                1
 GAP=221        0.99       7.9     8.4  8.8  0.3920E+02 -0.1159E+01 -0.9750E+01E
 Epicentro: VILLANUEVA - SANTANDER                                             3
 ACTION:UPD 17-05-25 18:39 OP:jn   STATUS:               ID:20170312214447 L   I
 OLDACT:UP  17-03-13 04:44 OP:dani STATUS:               ID:20170312213740     3
 OLDACT:UP  17-03-13 04:43 OP:dani STATUS:               ID:20170312213740     3
 OLDACT:UP  17-03-13 04:43 OP:dani STATUS:               ID:20170312213740     3
 OLDACT:REG 17-03-13 03:51 OP:dani STATUS:               ID:20170312213740     3
 2017-03-12-2138-00M.COL___403                                                 6
 STAT SP IPHASW D HRMM SECON CODA AMPLIT PERI AZIMU VELO AIN AR TRES W  DIS CAZ7
 BRR  HZ EP       2145  7.81                             154   -0.5210 67.9 309 
 BRR  HN ES       2145 24.95                             154    0.1910 67.9 309 
 BRR  HZ I        2145 31.26         4.4 0.40            153           67.9 309 
 RUS  HZ EP       2145 11.05                             146    0.4410 93.4 170 
 RUS  HN ES       2145 28.64                             146   -0.1710 93.4 170 
 RUS  HZ I        2145 30.31         1.6 0.30            154           93.4 170 
 PTB  HZ EP       2145 12.86                             134   -0.49 9  137 261 
 PTB  HN ES       2145 33.82                             134    0.13 9  137 261 
 PTB  HZ I        2145 35.47         1.4 0.32            139            137 261 
 ZAR  HZ EP       2145 19.83                             123    0.60 9  199 295 
 ZAR  HE ES   3   2145 42.80                             123   -1.35 2  199 295 
 ZAR  HZ I        2145 50.09         2.5 0.26            126            199 295 
                                                                                
