 2013  212 2305 11.3 L   6.851 -73.042148.6  RSN  5 0.2 1.4LRSN                1
 GAP=147        0.53       3.4     5.3  5.8  0.1347E+01  0.1323E+02  0.6960E+01E
 Epicentro: LOS SANTOS - SANTANDER                                             3
 ACTION:UPD 13-03-12 09:32 OP:ep   STATUS:               ID:20130212230511 L   I
 2013-02-12-2300-00M.COL___238                                                 6
 STAT SP IPHASW D HRMM SECON CODA AMPLIT PERI AZIMU VELO AIN AR TRES W  DIS CAZ7
 PAM  SN ES       23 5 50.14                             155   -0.1110 66.0  35 
 BRR  HZ EP   1   23 5 33.65                             150    0.44 7 79.2 291 
 BRR  HN ES   1   23 5 50.35                             150    0.04 7 79.2 291 
 BRR  HZ I        23 5 53.96        14.2 0.66             47           79.2 291 
 RUS  HZ EP   1   23 5 35.76                             143    0.04 7  106 182 
 RUS  HN ES       23 5 54.78                             143    0.0110  106 182 
 RUS  HN I        23 5 57.19         2.3 0.44             47            106 182 
 PTB  HZ EP   1   23 5 39.16                             130   -0.46 7  160 258 
 CHI  HZ EP   1   23 5 50.13                             117    0.05 6  257 197 
 CHI  HZ I        23 6 31.04         1.1 0.55             37            257 197 
                                                                                
