 2013  612 2044 10.4 L   6.729 -73.160136.0  RSN  6 0.5 1.6LRSN                1
 GAP=180        1.24       8.0     7.5  8.9  0.3083E+02  0.8621E+01 -0.9568E+01E
 Epicentro: VILLANUEVA - SANTANDER                                             3
 ACTION:UPD 14-01-08 09:54 OP:ep   STATUS:               ID:20130612204410 L   I
 OLDACT:REG 13-06-12 22:03 OP:nd   STATUS:               ID:20130612203959     3
 2013-06-12-2039-59M.COL___261                                                 6
 STAT SP IPHASW D HRMM SECON CODA AMPLIT PERI AZIMU VELO AIN AR TRES W  DIS CAZ7
 BAR2 SZ EP       2044 29.18                             173    0.4810 15.3 189 
 BAR2 SZ ES       2044 42.98                             173   -0.0010 15.3 189 
 BAR2 SZ I        2044 44.50        14.4 0.20            173           15.3 189 
 GIR2 SZ EP       2044 28.30                             163   -0.8410 38.9 355 
 GIR2 SZ I        2044 44.56         5.5 0.18            154           38.9 355 
 BRR  HZ IP     C 2044 30.18                             150   -0.4810 74.0 304 
 BRR  HN ES       2044 46.95                             150    0.4810 74.0 304 
 BRR  HZ I        2044 59.10        20.2 0.36            148           74.0 304 
 RUS  HZ EP       2044 32.80                             144    0.1810 92.9 175 
 RUS  HN ES       2044 50.05                             144    0.0910 92.9 175 
 RUS  HZ I        2044 52.48         3.3 0.28            155           92.9 175 
 PTB  HZ EP       2044 36.06                             130   -0.25 9  145 262 
 PTB  HN ES       2044 56.03                             130   -0.49 9  145 262 
 PTB  HZ I        2045  1.46         4.5 0.24            136            145 262 
 ZAR  HZ EP       2044 43.33                             120    0.94 8  206 294 
 ZAR  HN ES       2045  7.43                             120    0.08 8  206 294 
 ZAR  HZ I        2045 11.97         7.2 0.12            122            206 294 
                                                                                
