 2012  912 2102 15.0 L   6.772 -73.138145.3  RSN  8 0.4 2.2LRSN                1
 GAP= 72        0.63       3.6     4.2  5.1 -0.1555E+01 -0.4437E+01  0.4522E+01E
 Epicentro: LOS SANTOS - SANTANDER                                             3
 ACTION:UPD 12-10-22 14:18 OP:ep   STATUS:               ID:20120912210215 L   I
 2012-09-12-2100-00M.COL___227                                                 6
 STAT SP IPHASW D HRMM SECON CODA AMPLIT PERI AZIMU VELO AIN AR TRES W  DIS CAZ7
 BAR2 SZ EP       21 2 34.48                             172   -0.0510 20.5 194 
 BAR2 SZ ES   1   21 2 49.69                             172   -0.06 7 20.5 194 
 BAR2 SZ I        21 2 52.65        33.1 0.18                          20.5 194 
 GIR2 SZ EP       21 2 34.52                             166   -0.2010 34.5 350 
 BRR  HZ EP       21 2 36.32                             151    0.0810 73.5 300 
 BRR  HZ I        21 2 38.24        19.5 0.34                          73.5 300 
 BRR  HN ES   1   21 2 53.44                             151    0.64 7 73.5 300 
 PAM  SZ EP       21 2 37.27                             150   -0.0210 79.3  38 
 PAM  SN ES   1   21 2 54.57                             150   -0.09 7 79.3  38 
 RUS  HZ EP       21 2 38.38                             145   -0.1110 97.4 176 
 RUS  HN ES   1   21 2 56.59                             145   -0.21 7 97.4 176 
 PTB  HN ES   2   21 3  2.13                             132   -0.86 5  148 260 
 TAM  HZ EP       21 2 42.61                             131    0.11 9  153 104 
 TAM  HZ I        21 2 42.78        22.4 0.36                           153 104 
 CHI  HZ EP       21 2 52.67                             117    0.29 8  246 196 
 CHI  HN ES   3   21 3 23.10                             117    1.57 2  246 196 
 CHI  HN I        21 3 29.47         9.5 0.46                           246 196 
                                                                                
