 2017  712 2032 43.1 L   6.866 -73.136153.6  RSN 26 0.6 2.8LRSN                1
 GAP= 65        1.15       2.9     2.8  5.1 -0.4094E+00  0.1793E+01 -0.9675E+00E
 Epicentro: LOS SANTOS - SANTANDER                                             3
 ACTION:UPD 17-08-30 15:32 OP:rebc STATUS:               ID:20170712203243 L   I
 OLDACT:UP  17-07-13 06:31 OP:osc  STATUS:               ID:20170712202742     3
 OLDACT:REG 17-07-13 03:51 OP:osc  STATUS:               ID:20170712202742     3
 2017-07-12-2028-00M.COL___371                                                 6
 STAT SP IPHASW D HRMM SECON CODA AMPLIT PERI AZIMU VELO AIN AR TRES W  DIS CAZ7
 BAR2 EZ IP     D 2033  3.73                             169   -0.0910 30.7 190 
 BAR2 EZ ES       2033 19.31                             169   -0.6910 30.7 190 
 BAR2 EZ I        2033 19.84       214.3 0.36            168           30.7 190 
 BRR  HZ IP     C 2033  5.50                             154    0.5310 69.0 293 
 BRR  HE ES       2033 22.73                             154    0.6910 69.0 293 
 BRR  HZ I        2033 26.63       130.7 0.42            152           69.0 293 
 PAM  EZ EP       2033  6.59                             154    0.7910 71.2  43 
 PAM  EE ES       2033 23.81                             154    0.3010 71.2  43 
 PAM  EZ I        2033 25.99       224.0 0.50            155           71.2  43 
 PTB  HZ EP   9   2033 10.76                             133   -0.18 0  150 256 
 PTB  HE ES       2033 31.56                                   -0.92 9  150 256 
 PTB  HZ I        2033 33.48        22.2 0.17            132            150 256 
 TAM  HZ IP     D 2033 12.16                             132    0.67 9  156 108 
 TAM  HE ES       2033 33.01                             132   -0.64 9  156 108 
 TAM  HZ I        2033 36.27        25.9 0.30            134            156 108 
 SPBC HZ EP       2033 12.64                             130   -0.15 9  170 218 
 SPBC HE ES       2033 35.37                             130   -0.59 9  170 218 
 SPBC HZ I        2033 39.45        94.7 0.26            129            170 218 
 YPLC HZ IP     D 2033 14.15                             127    0.11 9  183 153 
 YPLC HE ES       2033 38.31                             127    0.13 9  183 153 
 YPLC HZ I        2033 39.13        58.8 0.28            128            183 153 
 ZAR  HZ EP       2033 16.34                             124    0.45 9  202 290 
 ZAR  HE ES       2033 41.34                             124   -0.13 9  202 290 
 ZAR  HZ I        2033 48.57        84.2 0.38            123            202 290 
 TABC EZ EP   4   2033 21.37                             120    1.34 0  237 210 
 TABC EZ ES       2033 48.56                             120   -0.29 8  237 210 
 TABC EZ I        2033 54.44        51.5 0.34            120            237 210 
 NOR  HZ EP       2033 19.96                             120    0.13 8  240 233 
 NOR  HE ES       2033 48.05                             120   -0.44 8  240 233 
 NOR  HZ I        2033 54.82        23.6 0.30            119            240 233 
 ROSC BZ EP   4   2033 24.07                             118    1.69 0  260 210 
 ROSC BE ES   4   2033 50.64                             118   -2.39 0  260 210 
 ROSC BZ I        2034  0.10        57.5 0.40            117            260 210 
 HEL  HZ EP   4   2033 26.56                             116    2.53 0  275 254 
 HEL  HE ES       2033 56.39                             116    0.43 8  275 254 
 HEL  HZ I        2034  2.80        19.7 0.32            115            275 254 
 URE  HZ EP       2033 24.22                             115   -0.14 7  282 290 
 URE  HE ES       2033 56.36                             115   -0.20 7  282 290 
 URE  HZ I        2034  5.63        36.5 0.20            114            282 290 
 GUY2CHZ EP   9   2033 29.15                             113    1.51 0  306 234 
 GUY2CHE ES       2034  4.61                                    0.71 7  306 234 
 GUY2CHZ I        2034 10.06        25.3 0.32                           306 234 
 PTGC HZ EP       2033 26.97                             113   -1.06 7  315 159 
 PTGC HN ES   4   2034  0.42                             113   -2.67 0  315 159 
 PTGC HZ I        2034  5.37        38.8 0.40            113            315 159 
 LL6C HZ EP       2033 28.39                             112    0.08 7  318 357 
 LL6C HN ES       2034  2.92                             112   -0.66 7  318 357 
 LL6C HZ I        2034  9.69        20.9 0.44            112            318 357 
 CBOC HZ EP   2   2033 32.26                             111    1.55 3  337 251 
 CBOC HE ES       2034  8.21                             111    0.35 7  337 251 
 DBB  EE ES   2   2034  8.10                             111   -0.20 3  340 273 
 ARGC HZ EP   9   2033 34.88                             110    2.58 0  353 340 
 ARGC HE ES       2034 14.04                                    0.77 6  353 340 
 ARGC HZ I        2034 21.30        16.4 0.38            110            353 340 
 APAC HE ES   2   2034 20.68                             107    0.90 3  397 287 
 APAC HZ I        2034 26.16        13.3 0.56            107            397 287 
 ORTC HZ EP       2033 37.35                             107   -0.70 6  402 216 
 ORTC HE ES       2034 21.26                             107    0.35 6  402 216 
 ORTC HZ I        2034 26.92        19.1 0.40            107            402 216 
 SJC  HZ EP       2033 37.98                             107   -0.29 6  404 326 
 SJC  HE ES   4   2034 19.23                             107   -2.08 0  404 326 
 SJC  HZ I        2034 23.51        13.1 0.60            107            404 326 
 CRJC HZ EP       2033 44.13                             105   -0.82 5  460   3 
 CRJC HE ES       2034 32.49                             105   -0.71 5  460   3 
 CRJC HZ I        2034 38.91        22.6 0.36            105            460   3 
 SMAR HE ES   2   2034 37.31                             104   -1.96 2  490 346 
 MACC HZ EP   4   2033 50.78                             102   -2.10 0  528 189 
 MACC HE ES   4   2034 41.82                             102   -5.49 0  528 189 
 MACC HZ I        2034 48.46         6.3 0.30            102            528 189 
 URI  HZ EP   2   2033 54.46                             102   -0.94 2  549  13 
 URI  HE ES       2034 52.29                             102    0.49 4  549  13 
                                                                                
