 2012  812 2030 56.5 L   6.783 -73.092146.0  RSN  6 0.5 1.5LRSN                1
 GAP=144        0.54       5.3     5.3  7.4 -0.3509E+01  0.1092E+02  0.1277E+02E
 Epicentro: LOS SANTOS - SANTANDER                                             3
 ACTION:UPD 12-09-10 11:56 OP:ep   STATUS:               ID:20120812203056 L   I
 2012-08-12-2030-00M.COL___218                                                 6
 STAT SP IPHASW D HRMM SECON CODA AMPLIT PERI AZIMU VELO AIN AR TRES W  DIS CAZ7
 BAR2 SZ EP       2031 16.06                             170   -0.0710 23.3 205 
 BAR2 SZ ES   3   2031 31.40                             170   -0.06 2 23.3 205 
 BAR2 SZ I        2031 33.94         9.8 0.40                          23.3 205 
 GIR2 SZ EP   3   2031 16.20                             166   -0.06 2 34.6 341 
 GIR2 SZ ES   3   2031 30.47                             166   -1.23 2 34.6 341 
 PAM  SZ EP   3   2031 19.14                             152    0.55 2 75.3  35 
 PAM  SE ES       2031 35.83                             152   -0.0110 75.3  35 
 PAM  SZ I        2031 42.88         3.5 0.50                          75.3  35 
 BRR  HZ EP       2031 17.93                             151   -0.0710 77.3 298 
 BRR  HZ I        2031 19.41         9.5 0.12                          77.3 298 
 BRR  HN ES   1   2031 35.21                             151    0.42 7 77.3 298 
 RUS  HZ EP   3   2031 19.60                             145   -0.49 2 98.5 179 
 RUS  HN ES   2   2031 38.94                             145    0.42 5 98.5 179 
 RUS  HZ I        2031 41.22         2.0 0.42                          98.5 179 
 PTB  HZ EP   3   2031 23.01                             131   -0.94 2  153 260 
 PTB  HE ES   3   2031 44.08                             131   -1.31 2  153 260 
 PTB  HE I        2031 49.83         7.3 0.34                           153 260 
                                                                                
