 2016 1112 2159 20.4 L   6.771 -73.195138.9  RSN  5 0.4 1.5LRSN                1
 GAP=135        0.98       7.8     4.5  7.8 -0.7701E+01  0.8209E+01 -0.4087E+00E
 Epicentro: ZAPATOCA - SANTANDER                                               3
 ACTION:UPD 17-10-26 21:07 OP:lp   STATUS:               ID:20161112215920 L   I
 OLDACT:REG 16-11-13 03:09 OP:cog  STATUS:               ID:20161112214746     3
 2016-11-12-2148-00M.COL___343                                                 6
 STAT SP IPHASW D HRMM SECON CODA AMPLIT PERI AZIMU VELO AIN AR TRES W  DIS CAZ7
 BAR2 EZ EP       2159 39.16                             171    0.0710 19.8 176 
 BAR2 EZ ES       2159 53.79                             171    0.0910 19.8 176 
 BAR2 EZ I        2159 58.06         5.5 0.42            170           19.8 176 
 BRR  HZ EP       2159 40.91                             152    0.3210 68.2 303 
 BRR  HE ES       2159 55.64                             152   -0.7310 68.2 303 
 BRR  HZ I        2159 59.31         5.3 0.26            155           68.2 303 
 PAM  EZ EP       2159 42.01                             148   -0.2110 83.4  41 
 PAM  EN ES       2159 59.58                             148    0.3010 83.4  41 
 PAM  EZ I        22 0  1.83         3.7 0.39            154           83.4  41 
 PTB  HZ EP       2159 45.73                             132   -0.49 9  142 260 
 PTB  HN ES       22 0  6.77                             132    0.38 9  142 260 
 PTB  HN I        22 0 11.92         8.2 0.34            135            142 260 
 ZAR  HZ EP   4   2159 57.28                             121    5.32 0  200 294 
 ZAR  HE ES       22 0 16.96                             121    0.34 9  200 294 
                                                                                
