 2015 1112 2341 46.4 L   6.067 -73.824  0.1  RSN  4 0.5 1.2LRSN                1
 GAP=160        0.75       2.6     4.2  5.8 -0.4327E+01 -0.8163E+01  0.3312E+00E
 Epicentro: EL PENON - SANTANDER                                               3
 ACTION:UPD 15-12-28 16:10 OP:cam  STATUS:               ID:20151112234146 L   I
 OLDACT:REG 15-11-13 03:08 OP:ar   STATUS:               ID:20151112233750     3
 2015-11-12-2337-50M.COL___319                                                 6
 STAT SP IPHASW D HRMM SECON CODA AMPLIT PERI AZIMU VELO AIN AR TRES W  DIS CAZ7
 RUS  HZ EP       2342  0.63                              47   -0.1610 84.3 103 
 RUS  HE ES       2342 11.70                              47   -0.3510 84.3 103 
 RUS  HZ I        2342 13.04        13.8 0.28             47           84.3 103 
 CHI  HZ EP       2342 12.02                              47   -0.05 9  159 176 
 CHI  HN ES       2342 32.43                              47    0.30 9  159 176 
 CHI  HZ I        2342 42.31         1.5 0.52             47            159 176 
 PAM  EZ EP       2342 16.72                              37    0.39 9  188  41 
 PAM  EN ES       2342 39.84                              37    0.12 9  188  41 
 PAM  EZ I        2342 41.19         4.3 0.20             47            188  41 
 GUY2CHZ EP   3   2342 15.17                              37   -1.98 2  194 241 
 GUY2CHN ES   4   2342 36.67                              37   -4.50 0  194 241 
 GUY2CHZ I        2342 39.41         1.7 0.28                           194 241 
                                                                                
