 2017 1012 2132 44.4 L   6.817 -73.143146.0  RSN  9 0.4 2.0LRSN                1
 GAP=136        0.77       3.0     3.2  4.9 -0.9092E+00  0.6076E+01  0.2275E+01E
 Epicentro: LOS SANTOS - SANTANDER                                             3
 ACTION:UPD 17-11-07 19:31 OP:rebc STATUS:               ID:20171012213244 L   I
 OLDACT:UP  17-10-13 05:35 OP:osc  STATUS:               ID:20171012212309     3
 OLDACT:REG 17-10-13 04:10 OP:osc  STATUS:               ID:20171012212309     3
 2017-10-12-2128-00M.COL___426                                                 6
 STAT SP IPHASW D HRMM SECON CODA AMPLIT PERI AZIMU VELO AIN AR TRES W  DIS CAZ7
 BAR2 EZ EP       2133  4.13                             170    0.0010 25.2 190 
 BAR2 EZ ES       2133 19.47                             170   -0.0210 25.2 190 
 BAR2 EZ I        2133 21.36        24.2 0.26            169           25.2 190 
 PAM  EZ EP       2133  6.95                             151    0.3810 75.8  40 
 PAM  EN ES       2133 23.90                             151    0.0510 75.8  40 
 PAM  EZ I        2133 26.00        19.5 0.52            156           75.8  40 
 RUS  HZ EP       2133  7.97                             143   -0.3610  102 176 
 RUS  HE ES       2133 27.03                             143    0.0510  102 176 
 RUS  HZ I        2133 28.49        14.0 0.30            145            102 176 
 PTB  HZ EP       2133 10.78                             132   -0.69 9  148 258 
 PTB  HE ES       2133 32.59                             132    0.02 9  148 258 
 PTB  HZ I        2133 36.89         8.2 0.26            132            148 258 
 ZAR  HZ EP       2133 16.58                             122   -0.27 9  204 292 
 ZAR  HE ES       2133 42.31                             122    0.18 9  204 292 
 ZAR  HZ I        2133 50.29         9.5 0.22            123            204 292 
 NOR  HZ EP       2133 20.48                             118    0.17 8  236 234 
 NOR  HE ES       2133 47.98                             118   -0.32 8  236 234 
 NOR  HZ I        2133 53.02        11.0 0.32            119            236 234 
 CHI  HZ EP       2133 22.33                             117   -0.01 8  250 195 
 CHI  HE ES       2133 51.86                             117   -0.05 8  250 195 
 CHI  HZ I        2133 56.07         3.7 0.38            119            250 195 
 GUY2CHZ EP   3   2133 29.50                             112    1.31 2  302 235 
 GUY2CHE ES       2134  3.18                             112    0.85 7  302 235 
 GUY2CHZ I        2134  8.57         4.7 0.30                           302 235 
 PRA  HZ EP       2133 38.66                             106    0.50 6  394 209 
 PRA  HE ES   3   2134 21.55                             106    1.48 1  394 209 
 PRA  HZ I        2134 26.29         5.1 0.34            108            394 209 
                                                                                
