 2015  412 2039 23.9 L   6.845 -73.202142.6  RSN  6 0.3 1.4LRSN                1
 GAP=127        0.80       4.3     4.1  6.0 -0.2161E+01  0.4072E+01 -0.1083E+01E
 Epicentro: ZAPATOCA - SANTANDER                                               3
 ACTION:UPD 15-06-03 16:54 OP:cam  STATUS:               ID:20150412203923 L   I
 OLDACT:REG 15-04-13 05:31 OP:fm   STATUS:               ID:20150412203749     3
 2015-04-12-2037-49M.COL___263                                                 6
 STAT SP IPHASW D HRMM SECON CODA AMPLIT PERI AZIMU VELO AIN AR TRES W  DIS CAZ7
 BAR2 EZ EP       2039 43.01                             168   -0.2410 28.1 176 
 BAR2 EZ ES       2039 58.22                             168   -0.1310 28.1 176 
 BAR2 EZ I        2039 59.64         7.8 0.20            172           28.1 176 
 BRR  HZ EP       2039 44.83                             155    0.5610 63.4 297 
 BRR  HN ES       2040  0.28                             155    0.1210 63.4 297 
 BRR  HZ I        2040  3.39         3.8 0.38            149           63.4 297 
 PAM  SZ EP       2039 45.86                             150    0.0610 77.9  45 
 PAM  SN ES       2040  3.01                             150    0.1210 77.9  45 
 PAM  SZ I        2040  5.19         4.5 0.52            151           77.9  45 
 RUS  HZ EP   1   2039 47.27                             142   -0.48 7  106 173 
 PTB  HZ EP       2039 50.48                             132    0.33 9  143 256 
 PTB  HN ES       2040 10.43                             132   -0.20 9  143 256 
 PTB  HZ I        2040 17.99         1.8 0.50            131            143 256 
 SML  HE ES       2040 26.86                             117   -0.54 8  237 336 
 SML  HZ I        2040 37.28         4.6 0.10            117            237 336 
                                                                                
