 2013  212 2106 50.4 L   6.809 -73.117150.0  RSN  6 0.4 2.0LRSN                1
 GAP=140        0.96       5.6     5.7  6.7 -0.3628E+01  0.3883E+01  0.1044E+02E
 Epicentro: LOS SANTOS - SANTANDER                                             3
 ACTION:UPD 13-03-12 09:32 OP:ep   STATUS:               ID:20130212210650 L   I
 2013-02-12-2100-00M.COL___240                                                 6
 STAT SP IPHASW D HRMM SECON CODA AMPLIT PERI AZIMU VELO AIN AR TRES W  DIS CAZ7
 BAR2 SZ ES       21 7 26.71                             170    0.3910 25.0 197 
 BAR2 SZ I        21 7 27.19        39.9 0.21            170           25.0 197 
 BRR  HZ EP       21 7 12.62                             153    0.4710 73.6 297 
 BRR  HE ES       21 7 29.40                             153    0.2910 73.6 297 
 BRR  HE I        21 7 30.46        24.1 0.18            153           73.6 297 
 PAM  SZ EP       21 7 12.99                             153    0.0810 74.6  38 
 PAM  SN ES       21 7 29.93                             153   -0.5410 74.6  38 
 PAM  SN I        21 7 32.16        11.5 0.43            154           74.6  38 
 RUS  HZ EP       21 7 14.73                             144    0.1010  101 178 
 RUS  HE ES   1   21 7 33.24                             144   -0.29 7  101 178 
 RUS  HE I        21 7 34.53        16.8 0.34            146            101 178 
 PTB  HZ EP       21 7 17.54                             132   -0.48 9  151 259 
 PTB  HE ES   1   21 7 38.89                             132   -0.67 7  151 259 
 PTB  HZ I        21 7 41.78         4.8 0.16            133            151 259 
 CHI  HZ EP       21 7 28.71                             118    0.17 8  250 196 
                                                                                
