 2010  512 2151 17.1 L   6.705 -73.067145.4  RSN  5 0.3 1.8LRSN                1
 GAP=166        0.65       4.8     7.1  7.3 -0.7052E+01 -0.5042E+01  0.1518E+00E
 Epicentro: ARATOCA - SANTANDER                                                3
 ACTION:UP  10-08-24 10:04 OP:vdl  STATUS:               ID:20100512215117 L   I
 2010-05-12-2148-15S.COL___104                                                 6
 STAT SP IPHASW D HRMM SECON CODA AMPLIT PERI AZIMU VELO AIN AR TRES W  DIS CAZ7
 BAR2 SZ EP       2151 36.21                             173    -0.410   18 226 
 BAR2 SZ ES   2   2151 51.59                             173    -0.2 5   18 226 
 BRR  HZ EP       2151 38.87                             148    -0.110   84 302 
 BRR  HE ES   1   2151 56.19                             148     0.1 7   84 302 
 BRR  HZ I        2151 58.09        19.0 0.15                            84 302 
 RUS  HZ EP   2   2151 40.11                             147     0.0 5   90 181 
 RUS  HN ES   2   2151 58.59                             147     0.6 5   90 181 
 RUS  HZ I        2152  0.58         5.6 0.43                            90 181 
 BRI  SZ EP       2151 41.81                             139     0.310  116  15 
 BRI  SZ ES   1   2152  0.49                             139    -0.1 7  116  15 
 HEL  HZ EP   2   2151 58.33                             114     0.4 4  278 258 
 HEL  HZ I        2152 34.85         4.6 0.29                           278 258 
                                                                                
