 2016  312 2229  3.2 L   6.704 -73.134122.0  RSN  4 0.2 1.4LRSN                1
 GAP=142        0.57       2.8     2.7  6.4 -0.6291E+00  0.7441E+01 -0.3770E+01E
 Epicentro: JORDAN - SANTANDER                                                 3
 ACTION:UPD 16-05-13 21:23 OP:cam  STATUS:               ID:20160312222903 L   I
 OLDACT:DUP 16-03-13 05:14 OP:ak   STATUS:               ID:20160312221750d    3
 2016-03-12-2217-49M.COL___295                                                 6
 STAT SP IPHASW D HRMM SECON CODA AMPLIT PERI AZIMU VELO AIN AR TRES W  DIS CAZ7
 PAM  EZ EP       2229 23.31                             143   -0.1410 85.1  34 
 PAM  EN ES       2229 39.36                             143    0.0710 85.1  34 
 PAM  EZ I        2229 44.44         3.6 0.48            148           85.1  34 
 RUS  HZ EP       2229 23.56                             142   -0.2510 89.9 176 
 RUS  HN ES       2229 40.11                             142    0.1910 89.9 176 
 RUS  HZ I        2229 43.67         4.2 0.24            149           89.9 176 
 PTB  HN ES       2229 47.75                             126   -0.08 9  147 263 
 ZAR  HZ EP       2229 35.19                             116    0.43 8  209 295 
 ZAR  HN ES       2229 59.27                             116   -0.14 8  209 295 
 ZAR  HZ I        2230  5.31         5.7 0.30            121            209 295 
                                                                                
