 2017  312 2148 38.4 L   6.563 -73.558153.0  RSN  4 0.5 1.2LRSN                1
 GAP=160        0.70       5.5     5.1  6.9  0.1386E+02  0.5918E+00  0.3456E+01E
 Epicentro: EL CARMEN - SANTANDER                                              3
 ACTION:UPD 17-05-25 18:39 OP:jn   STATUS:               ID:20170312214838 L   I
 OLDACT:UP  17-03-13 04:48 OP:dani STATUS:               ID:20170312213741d    3
 OLDACT:UP  17-03-13 04:48 OP:dani STATUS:               ID:20170312213741d    3
 OLDACT:UP  17-03-13 04:47 OP:dani STATUS:               ID:20170312213741d    3
 OLDACT:DUP 17-03-13 04:45 OP:dani STATUS:               ID:20170312213741d    3
 OLDACT:UP  17-03-13 04:44 OP:dani STATUS:               ID:20170312213740     3
 OLDACT:UP  17-03-13 04:43 OP:dani STATUS:               ID:20170312213740     3
 OLDACT:UP  17-03-13 04:43 OP:dani STATUS:               ID:20170312213740     3
 OLDACT:REG 17-03-13 03:51 OP:dani STATUS:               ID:20170312213740     3
 2017-03-12-2138-00M.COL___403                                                 6
 STAT SP IPHASW D HRMM SECON CODA AMPLIT PERI AZIMU VELO AIN AR TRES W  DIS CAZ7
 BRR  HZ EP       2148 59.83                             156   -0.0410 62.5 344 
 BRR  HN ES       2149 16.81                             156    0.1810 62.5 344 
 BRR  HZ I        2149 25.19         5.4 0.53            152           62.5 344 
 RUS  HZ EP       2149  2.36                             148    0.1610 90.9 145 
 RUS  HN ES       2149 20.52                             148   -0.2610 90.9 145 
 RUS  HZ I        2149 22.20         1.3 0.35            153           90.9 145 
 PTB  HZ EP       2149  2.19                             145    0.1010 99.4 269 
 PTB  HE ES       2149 20.55                             145   -0.0310 99.4 269 
 ZAR  HE ES   3   2149 29.68                             128   -2.48 2  177 306 
                                                                                
