 2017  712 2114 16.1 L   7.041 -73.719 94.0  RSN  8 0.4 1.8LRSN                1
 GAP= 74        1.12       3.9     3.0  7.1 -0.3933E+00  0.6113E+01  0.1969E+01E
 Epicentro: BARRANCABERMEJA - SANTANDER                                        3
 ACTION:UPD 17-08-30 15:32 OP:rebc STATUS:               ID:20170712211416 L   I
 OLDACT:UP  17-07-13 07:43 OP:osc  STATUS:               ID:20170712210741d    3
 OLDACT:DUP 17-07-13 07:20 OP:osc  STATUS:               ID:20170712210741d    3
 2017-07-12-2108-00M.COL___371                                                 6
 STAT SP IPHASW D HRMM SECON CODA AMPLIT PERI AZIMU VELO AIN AR TRES W  DIS CAZ7
 BRR  HZ IP     C 2114 28.58                             175   -0.2410 7.40   6 
 BRR  HE ES       2114 38.94                             175    0.1810 7.40   6 
 BRR  HZ I        2114 40.87        32.4 0.42            179           7.40   6 
 BAR2 EZ EP       2114 32.97                             138    0.2010 77.3 130 
 BAR2 EZ ES       2114 46.38                             138    0.5910 77.3 130 
 BAR2 EZ I        2114 47.51        29.4 0.22            138           77.3 130 
 PTB  HZ EP       2114 33.58                             130   -0.7810 98.6 236 
 PTB  HE ES       2114 47.89                             130   -0.7410 98.6 236 
 PTB  HZ I        2114 53.02         5.9 0.10            130           98.6 236 
 PAM  EZ EP       2114 36.85                             125    0.0310  117  74 
 PAM  EE ES       2114 52.53                             125   -0.4810  117  74 
 PAM  EZ I        2114 56.72        11.4 0.22            128            117  74 
 ZAR  HZ EP       2114 38.39                             121    0.32 9  135 292 
 ZAR  HE ES       2114 55.79                             121    0.57 9  135 292 
 ZAR  HZ I        2114 57.94        15.8 0.18            122            135 292 
 SPBC HZ EP   2   2114 40.45                             116   -0.23 5  158 194 
 SPBC HE ES       2114 59.78                             116   -0.09 9  158 194 
 SPBC HZ I        2115  5.52         7.5 0.13            116            158 194 
 NOR  HZ EP       2114 46.52                             110    0.35 8  207 218 
 NOR  HE ES       2115 10.14                             110    0.50 8  207 218 
 NOR  HZ I        2115 15.05         6.1 0.42            109            207 218 
 URE  HE ES       2115 11.12                             109   -0.10 8  215 292 
                                                                                
