 2016  912 2000 29.9 L   6.801 -73.126152.0  RSN  8 0.4 1.7LRSN                1
 GAP=139        1.00       4.3     4.2  7.5 -0.2713E+01  0.5318E+01  0.4950E+01E
 Epicentro: LOS SANTOS - SANTANDER                                             3
 ACTION:UPD 17-08-17 21:09 OP:lp   STATUS:               ID:20160912200029 L   I
 OLDACT:UP  16-09-13 03:01 OP:dani STATUS:               ID:20160912195739     3
 OLDACT:REG 16-09-13 02:33 OP:dani STATUS:               ID:20160912195739     3
 2016-09-12-1958-00M.COL___309                                                 6
 STAT SP IPHASW D HRMM SECON CODA AMPLIT PERI AZIMU VELO AIN AR TRES W  DIS CAZ7
 BAR2 EZ EP       20 0 50.00                             171   -0.2710 23.9 195 
 BAR2 HE ES   2   20 1  5.69                             171   -0.48 5 23.9 195 
 BAR2 EZ I        20 1  6.69         9.4 0.32            169           23.9 195 
 BRR  HZ EP       20 0 52.22                             153    0.4110 73.1 298 
 BRR  HN ES       20 1  9.45                             153    0.5410 73.1 298 
 PAM  EZ EP       20 0 52.93                             152    0.2610 75.9  38 
 PAM  EE ES       20 1 10.34                             152   -0.1210 75.9  38 
 PAM  EZ I        20 1 12.27         6.7 0.22            156           75.9  38 
 RUS  HZ EP       20 0 54.22                             145   -0.0210  101 177 
 RUS  HE ES       20 1 13.05                             145   -0.2010  101 177 
 RUS  HZ I        20 1 15.75         2.5 0.35            147            101 177 
 PTB  HZ EP       20 0 56.91                             133   -0.64 9  150 259 
 PTB  HE ES       20 1 18.45                             133   -0.69 9  150 259 
 PTB  HZ I        20 1 23.97         7.0 0.22            133            150 259 
 SPBC HZ EP       20 0 59.09                             130    0.09 9  165 220 
 SPBC HE ES       20 1 22.13                             130    0.42 9  165 220 
 SPBC HZ I        20 1 26.96        13.6 0.16            131            165 220 
 ZAR  HE ES       20 1 28.54                             123   -0.19 8  206 292 
 ZAR  HZ I        20 1 34.53         4.9 0.21            124            206 292 
 NOR  HE ES       20 1 35.07                             120    0.59 8  237 235 
 CHI  HN ES   4   20 1 39.25                             118    1.51 0  249 196 
                                                                                
