 2010  612 2308 39.9 L   6.779 -73.100145.1  RSN  5 0.1 1.5LRSN                1
 GAP=164        0.31       2.1     9.0  4.7 -0.5847E+01  0.7193E+01 -0.3199E+01E
 Epicentro: LOS SANTOS - SANTANDER                                             3
 ACTION:UP  10-08-24 10:10 OP:vdl  STATUS:               ID:20100612230839 L   I
 2010-06-12-2307-17S.COL___117                                                 6
 STAT SP IPHASW D HRMM SECON CODA AMPLIT PERI AZIMU VELO SNR AR TRES W  DIS CAZ7
 BAR2 SZ EP       23 8 59.48                             171     0.010   23 204 
 BAR2 SZ ES   3   23 9 14.49                             171    -0.2 2   23 204 
 RUS  HZ EP   2   23 9  3.59                             144     0.2 5   98 179 
 RUS  HZ I        23 9  4.34         2.5 0.34                            98 179 
 RUS  HE ES   2   23 9 21.59                             144    -0.1 5   98 179 
 GUE  SZ EP       23 9  4.56                             139    -0.110  118   9 
 GUE  SZ ES   2   23 9 24.24                             139     0.3 5  118   9 
 GRA  SZ EP       23 9  5.13                             137     0.010  127  15 
 GRA  SZ ES   2   23 9 24.85                             137     0.0 5  127  15 
 OCA  SZ EP       23 9  8.49                             129     0.1 9  163 351 
 OCA  SZ ES   2   23 9 30.56                             129    -0.1 5  163 351 
 OCA  SZ I        23 9 35.91         7.8 0.48                           163 351 
                                                                                
