 2013 1112 2012 15.2 L   6.781 -73.154141.9  RSN  7 0.3 1.9LRSN                1
 GAP=136        0.75       3.1     3.2  5.1 -0.5155E+00  0.3370E+01  0.1375E+01E
 Epicentro: LOS SANTOS - SANTANDER                                             3
 ACTION:UPD 14-01-09 16:27 OP:ep   STATUS:               ID:20131112201215 L   I
 OLDACT:REG 13-11-12 22:02 OP:jn   STATUS:               ID:20131112201000     3
 2013-11-12-2010-00M.COL___276                                                 6
 STAT SP IPHASW D HRMM SECON CODA AMPLIT PERI AZIMU VELO AIN AR TRES W  DIS CAZ7
 BAR2 SZ EP       2012 34.35                             171    0.0110 21.1 189 
 BAR2 SZ ES       2012 49.01                             171   -0.2510 21.1 189 
 BAR2 SZ I        2012 51.52        34.3 0.20            170           21.1 189 
 BRR  HZ EP       2012 36.21                             152    0.2410 71.5 300 
 BRR  HN ES       2012 52.65                             152    0.5010 71.5 300 
 BRR  HZ I        2012 53.66        19.0 0.30            151           71.5 300 
 PAM  SZ EP       2012 37.34                             149    0.1810 79.6  39 
 PAM  SN ES       2012 53.98                             149   -0.3010 79.6  39 
 PAM  SZ I        2012 56.58        12.4 0.46            153           79.6  39 
 RUS  HZ EP       2012 38.40                             144   -0.0510 98.5 175 
 RUS  HN ES       2012 56.69                             144    0.1310 98.5 175 
 RUS  HZ I        2012 58.78         8.4 0.30            145           98.5 175 
 PTB  HZ EP       2012 41.29                             131   -0.47 9  146 260 
 PTB  HN ES       2013  2.00                             131   -0.46 9  146 260 
 PTB  HZ I        2013  4.10         9.9 0.14            132            146 260 
 SPBC HZ EP       2012 43.34                             129    0.13 9  161 219 
 SPBC HN ES       2013  5.28                             129    0.23 9  161 219 
 SPBC HZ I        2013 12.23         9.3 0.34            129            161 219 
 ZAR  HE ES       2013 12.60                             121    0.07 9  204 293 
 ZAR  HZ I        2013 19.17         9.4 0.26            122            204 293 
                                                                                
