 2015 1112 2001 43.5 L   6.854 -73.284126.4  RSN  6 0.4 2.0LRSN                1
 GAP=109        0.99       4.3     4.4  6.5 -0.2936E+01  0.1206E+02 -0.3715E+01E
 Epicentro: ZAPATOCA - SANTANDER                                               3
 ACTION:UPD 15-12-28 16:10 OP:cam  STATUS:               ID:20151112200143 L   I
 OLDACT:REG 15-11-13 02:57 OP:ar   STATUS:               ID:20151112195750     3
 2015-11-12-1957-50M.COL___319                                                 6
 STAT SP IPHASW D HRMM SECON CODA AMPLIT PERI AZIMU VELO AIN AR TRES W  DIS CAZ7
 BAR2 EZ EP       20 2  1.08                             165    0.1010 31.0 159 
 BAR2 EZ ES       20 2 14.12                             165   -0.5210 31.0 159 
 BAR2 EZ I        20 2 15.36        52.4 0.32            170           31.0 159 
 BRR  HZ EP       20 2  1.70                             155    0.0810 55.0 301 
 BRR  HN ES       20 2 15.68                             155   -0.1010 55.0 301 
 BRR  HZ I        20 2 15.75        25.1 0.44            152           55.0 301 
 PAM  EZ EP       20 2  4.24                             145    0.1310 83.9  50 
 PAM  EN ES       20 2 20.67                             145    0.4610 83.9  50 
 PAM  EZ I        20 2 22.57         9.7 0.30            145           83.9  50 
 ZAR  HZ EP       20 2 12.38                             120   -0.60 9  188 292 
 ZAR  HN ES       20 2 36.76                             120    0.76 9  188 292 
 ZAR  HZ I        20 2 42.91         8.5 0.22            120            188 292 
 NOR  HZ EP       20 2 17.67                             115    0.46 8  226 231 
 NOR  HN ES       20 2 43.44                             115   -0.08 8  226 231 
 NOR  HZ I        20 2 44.40         5.2 0.26            116            226 231 
 SML  HZ EP       20 2 17.34                             114   -0.46 8  232 338 
 SML  HN ES       20 2 44.24                             114   -0.33 8  232 338 
 SML  HZ I        20 2 48.35        17.7 0.32            114            232 338 
                                                                                
