 2017  212 2312 36.7 L   6.763 -73.116142.0  RSN  8 0.4 1.7LRSN                1
 GAP=142        0.69       3.3     3.9  5.3  0.2176E-01  0.5610E+01  0.1574E+01E
 Epicentro: LOS SANTOS - SANTANDER                                             3
 ACTION:UPD 17-05-24 15:35 OP:jn   STATUS:               ID:20170212231236 L   I
 OLDACT:UP  17-02-13 04:29 OP:and  STATUS:               ID:20170212230660d    3
 OLDACT:UP  17-02-13 04:28 OP:and  STATUS:               ID:20170212230660d    3
 OLDACT:UP  17-02-13 04:28 OP:and  STATUS:               ID:20170212230660d    3
 OLDACT:UP  17-02-13 04:24 OP:and  STATUS:               ID:20170212230660d    3
 OLDACT:UP  17-02-13 04:23 OP:and  STATUS:               ID:20170212230660d    3
 OLDACT:UP  17-02-13 04:23 OP:and  STATUS:               ID:20170212230660d    3
 OLDACT:UP  17-02-13 04:23 OP:and  STATUS:               ID:20170212230660d    3
 OLDACT:DUP 17-02-13 04:20 OP:and  STATUS:               ID:20170212230660d    3
 2017-02-12-2308-00M.COL___352                                                 6
 STAT SP IPHASW D HRMM SECON CODA AMPLIT PERI AZIMU VELO AIN AR TRES W  DIS CAZ7
 BAR2 EZ ES   2   2313 10.15                             172   -0.55 5 20.2 201 
 BAR2 EZ I        2313 11.46        13.8 0.14            171           20.2 201 
 BRR  HZ EP       2312 57.33                             150   -0.3710 76.0 300 
 BRR  HN ES       2313 14.51                             150    0.4110 76.0 300 
 BRR  HZ I        2313 18.74         8.8 0.12            150           76.0 300 
 PAM  EZ EP       2312 58.41                             150   -0.1510 78.7  36 
 PAM  EN ES       2313 15.78                             150    0.1410 78.7  36 
 PAM  EZ I        2313 17.81         7.1 0.54            153           78.7  36 
 RUS  HZ EP       2312 59.80                             144    0.0610 96.3 178 
 RUS  HN ES       2313 17.78                             144    0.0410 96.3 178 
 RUS  HZ I        2313 18.93        14.2 0.30            147           96.3 178 
 PTB  HZ EP   2   2313  4.12                             131    0.56 5  150 261 
 PTB  HN ES   2   2313 23.54                             131   -0.99 5  150 261 
 PTB  HZ I        2313 24.55         3.5 0.13            132            150 261 
 ZAR  HZ EP       2313  9.49                             121    0.14 8  209 293 
 ZAR  HN ES   2   2313 34.43                             121   -0.40 4  209 293 
 ZAR  HZ I        2313 36.43         3.3 0.14            122            209 293 
 NOR  HZ EP   2   2313 12.03                             118   -0.18 4  235 236 
 NOR  HN ES   2   2313 40.45                             118    0.51 4  235 236 
 NOR  HZ I        2313 44.01         3.0 0.28            119            235 236 
 CHI  HZ EP   2   2313 13.48                             117   -0.34 4  246 196 
 CHI  HN ES   3   2313 44.41                             117    1.61 2  246 196 
                                                                                
