 2012  712 2356 12.1 L   6.708 -73.208155.1  RSN  5 0.3 1.3LRSN                1
 GAP=219        0.80       8.3     7.5  7.7  0.3820E+02  0.8018E+01 -0.4452E+01E
 Epicentro: VILLANUEVA - SANTANDER                                             3
 ACTION:UPD 12-08-14 11:44 OP:ep   STATUS:               ID:20120712235612 L   I
 2012-07-12-2350-00M.COL___197                                                 6
 STAT SP IPHASW D HRMM SECON CODA AMPLIT PERI AZIMU VELO AIN AR TRES W  DIS CAZ7
 BAR2 SZ EP   1   2356 32.36                             175    -0.4 7   13 167 
 BAR2 SZ I        2356 32.65         4.8 0.21            166             13 167 
 BAR2 SZ ES   1   2356 48.36                             175    -0.4 7   13 167 
 BRR  HZ EP   1   2356 34.31                             154     0.0 7   71 308 
 BRR  HZ I        2356 34.62         4.9 0.15            151             71 308 
 BRR  HN ES   1   2356 51.88                             154     0.3 7   71 308 
 RUS  HZ EP   1   2356 36.23                             148     0.1 7   91 171 
 RUS  HZ I        2356 37.08         1.7 0.30            143             91 171 
 RUS  HN ES   1   2356 55.44                             148     0.5 7   91 171 
 PTB  HZ EP   1   2356 39.27                             136     0.1 7  139 262 
 PTB  HN ES   1   2356 59.66                             136    -0.5 7  139 262 
 PTB  HZ I        2357  6.26         2.8 0.35            131            139 262 
 ZAR  HZ EP   1   2356 44.84                             125    -0.1 6  202 296 
 ZAR  HE ES   1   2357 10.99                             125     0.4 6  202 296 
