 2012 1012 2035 26.2 L   6.777 -73.130143.1  RSN  5 0.3 2.0LRSN                1
 GAP=140        0.58       3.9     4.1  6.0  0.2300E+01  0.1171E+01 -0.2496E+01E
 Epicentro: LOS SANTOS - SANTANDER                                             3
 ACTION:UPD 12-11-22 17:03 OP:ep   STATUS:               ID:20121012203526 L   I
 2012-10-12-2030-00M.COL___231                                                 6
 STAT SP IPHASW D HRMM SECON CODA AMPLIT PERI AZIMU VELO AIN AR TRES W  DIS CAZ7
 BAR2 SZ ES   1   2035 59.96                             171   -0.55 7 21.3 196 
 BAR2 SZ I        2036  1.78        22.1 0.18                          21.3 196 
 BRR  HZ EP   1   2035 47.22                             151   -0.01 7 73.9 300 
 BRR  HN ES   1   2036  3.81                             151    0.19 7 73.9 300 
 BRR  HN I        2036  4.97        40.4 0.20                          73.9 300 
 PAM  SZ EP       2035 48.19                             150   -0.0110 78.3  37 
 PAM  SE ES   1   2036  5.50                             150    0.16 7 78.3  37 
 RUS  HZ EP   1   2035 49.32                             144   -0.20 7 98.0 177 
 RUS  HN ES   1   2036  8.11                             144    0.42 7 98.0 177 
 RUS  HN I        2036  9.79        11.0 0.40                          98.0 177 
 ZAR  HE ES   1   2036 24.13                             121    0.00 6  207 293 
                                                                                
