 2014  112 2038 16.1 L   6.924 -73.392119.6  RSN 11 0.4 2.1LRSN                1
 GAP= 89        1.01       3.2     4.0  8.1 -0.2153E+01  0.1619E+02 -0.4033E+01E
 Epicentro: SAN VICENTE DE CHUCURI - SANTANDER                                 3
 ACTION:UPD 14-03-13 09:54 OP:ep   STATUS:               ID:20140112203816 L   I
 OLDACT:REG 14-01-13 02:23 OP:mh   STATUS:               ID:20140112203648     3
 2014-01-12-2036-48M.COL___243                                                 6
 STAT SP IPHASW D HRMM SECON CODA AMPLIT PERI AZIMU VELO AIN AR TRES W  DIS CAZ7
 BRR  HZ EP     C 2038 32.99                             160    0.1310 40.8 300 
 BRR  HZ I        2038 47.33        18.6 0.09            156           40.8 300 
 BAR2 SZ EP       2038 33.40                             159    0.0710 43.3 148 
 BAR2 SZ ES   1   2038 45.92                             159   -0.81 7 43.3 148 
 BAR2 SZ I        2038 47.09        29.9 0.16            166           43.3 148 
 BAR2 SZ I        2038 47.13        31.0 0.19                          43.3 148 
 PAM  SZ EP       2038 36.72                             141    0.2110 89.2  59 
 PAM  SN ES       2038 52.85                             141    0.4510 89.2  59 
 PAM  SZ I        2038 55.73        14.4 0.23            145           89.2  59 
 RUS  HZ EP       2038 38.84                             132   -0.1710  119 163 
 RUS  HN ES       2038 56.99                             132    0.1410  119 163 
 RUS  HZ I        2038 58.55         2.2 0.09            139            119 163 
 PTB  HZ IP       2038 38.00                             130   -0.9310  125 250 
 PTB  HN ES   1   2038 56.87                             130    0.16 7  125 250 
 PTB  HZ  AMP     2038 59.30       595.3 0.12                           125 250 
 OCA  HZ EP       2038 40.65                             126   -0.44 9  146   3 
 OCA  HN ES   1   2039  0.43                             126   -0.12 7  146   3 
 OCA  HZ I        2039  7.07        10.3 0.19            127            146   3 
 ZAR  HZ EP       2038 44.38                             120    0.61 9  174 291 
 ZAR  HN ES   1   2039  5.99                             120    0.67 7  174 291 
 ZAR  HZ I        2039  8.84        12.8 0.33            122            174 291 
 SML  HZ EP   1   2038 48.42                             114   -0.43 6  221 340 
 SML  HN ES   1   2039 14.02                             114   -0.35 6  221 340 
 SML  HZ I        2039 21.19        37.4 0.04            115            221 340 
 NOR  HZ EP       2038 49.60                             114    0.51 8  222 227 
 NOR  HN ES   1   2039 15.04                             114    0.25 6  222 227 
 NOR  HZ I        2039 19.17        12.2 0.18            117            222 227 
 HEL  HZ EP   4   2038 53.96                             111    1.35 0  250 251 
 HEL  HN ES   1   2039 20.62                             111   -0.45 6  250 251 
 HEL  HZ I        2039 26.29         5.1 0.24            113            250 251 
 GUY2CHZ EP   1   2038 57.39                             108    0.24 5  288 229 
 GUY2CHN ES   4   2039 30.78                             108    1.63 0  288 229 
                                                                                
