 2011  512 2127 14.1 L   6.793 -73.115143.8  RSN  8 0.3 2.0LRSN                1
 GAP=141        0.75       4.0     6.9  6.4 -0.6057E+01 -0.2279E+00 -0.4467E+01E
 Epicentro: LOS SANTOS - SANTANDER                                             3
 ACTION:UP  11-06-29 08:52 OP:tino STATUS:               ID:20110512212714 L   I
 2011-05-12-2120-00M.COL___142                                                 6
 STAT SP IPHASW D HRMM SECON CODA AMPLIT PERI AZIMU VELO SNR AR TRES W  DIS CAZ7
 BTL  SZ EP   1   2127 33.68                             171     0.3 7   22 309 
 BAR2 SZ EP       2127 33.46                             170     0.010   23 199 
 BAR2 SZ ES   1   2127 48.04                             170    -0.5 7   23 199 
 BAR2 SZ I        2127 49.57        28.3 0.32                            23 199 
 BRR  HZ EP       2127 35.24                             151     0.010   75 298 
 BRR  HN ES   1   2127 51.95                             151     0.3 7   75 298 
 BRR  HZ I        2127 55.88        33.1 0.14                            75 298 
 PAM  SZ EP   1   2127 36.25                             151     0.3 7   76  37 
 PAM  SE ES   1   2127 53.01                             151    -0.1 7   76  37 
 PAM  SZ I        2127 55.30         9.5 0.30                            76  37 
 RUS  HZ EP   1   2127 37.59                             144     0.0 7  100 178 
 RUS  HN ES   1   2127 55.91                             144     0.0 7  100 178 
 RUS  HZ I        2127 58.11        15.1 0.38                           100 178 
 BRI  SZ EP   1   2127 37.83                             141     0.1 7  108  19 
 GRA  SZ EP   1   2127 39.12                             137     0.0 7  126  16 
 GRA  SZ ES   1   2127 58.82                             137     0.2 7  126  16 
 GRA  SZ I        2127 59.79        16.8 0.28                           126  16 
 OCA  SZ EP   1   2127 41.49                             129    -0.8 7  161 352 
 OCA  SZ I        2128  6.35        16.1 0.19                           161 352 
                                                                                
