 2010  612 2126  2.4 L   6.973 -73.024149.1  RSN  8 0.4 2.0LRSN                1
 GAP=132        0.77       6.7    18.4  9.5 -0.5658E+02 -0.1648E+02  0.1342E+02E
 Epicentro: PIEDECUESTA - SANTANDER                                            3
 ACTION:UP  10-08-24 10:10 OP:vdl  STATUS:               ID:20100612212602 L   I
 2010-06-12-2123-31S.COL___117                                                 6
 STAT SP IPHASW D HRMM SECON CODA AMPLIT PERI AZIMU VELO SNR AR TRES W  DIS CAZ7
 GIR2 SZ EP       2126 22.92                             172     0.710   22 302 
 GIR2 SZ ES   2   2126 37.87                             172     0.1 5   22 302 
 BAR2 SZ EP   2   2126 22.42                             162    -0.6 5   46 203 
 GUE  SZ EP       2126 25.55                             146    -0.310   95   7 
 GUE  SZ ES   2   2126 43.70                             146    -0.5 5   95   7 
 GRA  SZ IP       2126 26.40                             144     0.210  104  14 
 GRA  SZ ES   1   2126 44.71                             144    -0.1 7  104  14 
 RUS  HZ EP   3   2126 28.03                             139     0.1 2  120 183 
 RUS  HZ I        2126 46.79         6.0 0.81                           120 183 
 RUS  HN ES   3   2126 47.20                             139    -0.6 2  120 183 
 OCA  SZ EP   1   2126 29.24                             134    -0.2 7  144 347 
 OCA  SZ ES   2   2126 50.13                             134    -0.4 5  144 347 
 OCA  SZ I        2126 53.35        23.7 0.22                           144 347 
 CHI  HZ EP   3   2126 42.65                             115     0.0 2  271 197 
 CHI  HN ES   3   2127 13.38                             115    -0.7 2  271 197 
 CHI  HZ I        2127 18.61         3.9 0.43                           271 197 
 SDV  BZ EP   3   2126 49.74                             110    -0.2 2  338  51 
 SDV  BZ I        2126 51.24         6.7 0.20                           338  51 
                                                                                
