 2017  912 2023  3.0 L   6.754 -73.087141.7  RSN  7 0.4 1.6LRSN                1
 GAP=240        1.09       5.3     6.7  7.4  0.9707E+01  0.1527E+02  0.2787E+01E
 Epicentro: LOS SANTOS - SANTANDER                                             3
 ACTION:UPD 17-10-05 19:11 OP:rebc STATUS:               ID:20170912202303 L   I
 OLDACT:REG 17-09-13 02:41 OP:dhb  STATUS:               ID:20170912201742     3
 2017-09-12-2018-00M.COL___455                                                 6
 STAT SP IPHASW D HRMM SECON CODA AMPLIT PERI AZIMU VELO AIN AR TRES W  DIS CAZ7
 BAR2 EZ EP       2023 21.61                             171   -0.5210 20.8 210 
 BAR2 EZ ES       2023 37.08                             171    0.0610 20.8 210 
 BAR2 EZ I        2023 39.51         7.8 0.13            169           20.8 210 
 BRR  HZ EP       2023 24.21                             149   -0.0310 79.3 299 
 BRR  HE ES       2023 40.57                             149   -0.2010 79.3 299 
 RUS  HZ EP       2023 26.24                             144    0.2310 95.3 180 
 RUS  HN ES       2023 44.32                             144    0.3910 95.3 180 
 RUS  HZ I        2023 45.88         3.8 0.16            146           95.3 180 
 SPBC HZ EP       2023 30.33                             128   -0.93 9  164 222 
 SPBC HN ES       2023 53.49                             128    0.21 9  164 222 
 SPBC HZ I        2023 57.08         7.1 0.18            129            164 222 
 ZAR  HZ EP       2023 36.94                             120    0.89 8  212 293 
 ZAR  HN ES       2024  1.87                             120    0.07 8  212 293 
 ZAR  HZ I        2024  7.35         4.8 0.11            121            212 293 
 NOR  HZ EP       2023 39.08                             117    0.28 8  237 236 
 NOR  HN ES       2024  6.40                             117   -0.30 8  237 236 
 NOR  HZ I        2024  8.22         2.9 0.11            118            237 236 
 GUY2CHZ EP   4   2023 48.82                             111    2.08 0  304 236 
 GUY2CHN ES   4   2024 21.56                             111    0.73 0  304 236 
 GUY2CHZ I        2024 28.96         1.6 0.28                           304 236 
                                                                                
