 2014 1012 2019 36.6 L   7.332 -73.446220.6  RSN  4 0.6 2.4LRSN                1
 GAP=136        1.53      10.6     9.1 15.1 -0.9990E+01  0.1982E+02  0.1679E+02E
 Epicentro: SABANA DE TORRES - SANTANDER                                       3
 ACTION:UPD 14-11-29 23:49 OP:nd   STATUS:               ID:20141012201936 L   I
 OLDACT:UP  14-10-13 06:35 OP:cam  STATUS:               ID:20141012201820d    3
 OLDACT:UP  14-10-13 06:34 OP:cam  STATUS:               ID:20141012201820d    3
 OLDACT:DUP 14-10-13 06:32 OP:cam  STATUS:               ID:20141012201820d    3
 OLDACT:REG 14-10-13 03:47 OP:cam  STATUS:               ID:20141012201819     3
 2014-10-12-2018-19M.COL___287                                                 6
 STAT SP IPHASW D HRMM SECON CODA AMPLIT PERI AZIMU VELO AIN AR TRES W  DIS CAZ7
 PAM  SZ EP       2020  7.69                             159    0.3610 82.4  89 
 PAM  SE ES       2020 31.75                             159    0.4310 82.4  89 
 PAM  SZ I        2020 35.99        15.6 0.24            165           82.4  89 
 OCA  HZ EP       2020  8.46                             154    0.7110  101   8 
 OCA  HN ES       2020 31.33                             154   -0.7410  101   8 
 OCA  HZ I        2020 35.42        36.2 0.24            160            101   8 
 PTB  HZ EP       2020  9.11                             146   -0.91 9  142 232 
 PTB  HE ES       2020 36.57                             146    0.46 9  142 232 
 PTB  HZ I        2020 45.46         8.2 0.46            147            142 232 
 TAM  HN ES       2020 44.80                             135   -0.51 8  208 118 
 TAM  HN I        2020 45.75        40.6 0.32            140            208 118 
                                                                                
