 2013  712 2025 32.8 L   6.804 -73.142147.6  RSN 13 0.4 2.2LRSN                1
 GAP=137        0.99       3.8     4.5  6.3 -0.3285E+01  0.6197E+01  0.2786E+01E
 Epicentro: LOS SANTOS - SANTANDER                                             3
 ACTION:UPD 13-08-12 10:37 OP:ep   STATUS:               ID:20130712202532 L   I
 OLDACT:REG 13-07-12 21:19 OP:jn   STATUS:               ID:20130712201959     3
 2013-07-12-2019-59M.COL___264                                                 6
 STAT SP IPHASW D HRMM SECON CODA AMPLIT PERI AZIMU VELO AIN AR TRES W  DIS CAZ7
 BAR2 SZ EP   1   2025 52.26                             170   -0.35 7 23.8 191 
 BAR2 SZ ES       2026  8.15                             170    0.0510 23.8 191 
 BAR2 SZ I        2026  8.48        16.1 0.32            171           23.8 191 
 GIR2 SZ EP       2025 52.63                             168   -0.0010 30.9 350 
 BRR  HZ EP     C 2025 54.37                             153    0.2710 71.3 298 
 BRR  HN ES       2026 11.22                             153    0.4710 71.3 298 
 BRR  HZ I        2026 11.87        36.9 0.30            151           71.3 298 
 PAM  SZ EP       2025 55.53                             151    0.4010 76.8  40 
 PAM  SN ES       2026 12.43                             151   -0.1510 76.8  40 
 PAM  SZ I        2026 14.43        33.5 0.54            151           76.8  40 
 RUS  HZ EP   1   2025 56.70                             144   -0.01 7  101 176 
 RUS  HN ES   1   2026 15.01                             144   -0.39 7  101 176 
 RUS  HZ I        2026 17.64         7.1 0.50            145            101 176 
 PTB  HZ EP       2025 59.18                             132   -0.73 9  148 259 
 PTB  HN ES       2026 20.41                             132   -0.68 9  148 259 
 PTB  HZ I        2026 23.03        25.0 0.14            131            148 259 
 OCA  HE ES   1   2026 22.78                             130   -0.55 7  160 353 
 OCA  HZ I        2026 28.47        28.8 0.42            129            160 353 
 SPBC HZ EP       2026  1.78                             129    0.34 9  164 219 
 SPBC HE ES   1   2026 24.53                             129    0.71 7  164 219 
 ZAR  HE ES   1   2026 31.72                             123    0.97 6  204 292 
 ZAR  HZ I        2026 36.17        20.3 0.34            122            204 292 
 NOR  HZ EP   1   2026  8.79                             119    0.14 6  235 234 
 NOR  HE ES   1   2026 36.29                             119   -0.35 6  235 234 
 SML  HN ES   1   2026 37.70                             118   -0.38 6  243 335 
 GUY2CHZ EP   4   2026 18.77                             113    2.26 0  302 235 
 GUY2CHZ I        2026 56.94         6.2 0.42                           302 235 
 PRA  HZ EP   1   2026 26.73                             107    0.33 4  393 210 
 PRA  HN ES   4   2027  7.83                             107   -0.41 0  393 210 
 PRA  HZ I        2027 16.44         8.0 0.36            107            393 210 
                                                                                
