 2016  912 2119 19.9 L   6.772 -73.134145.6  RSN  7 0.4 1.5LRSN                1
 GAP=139        0.98       4.2     4.2  6.6 -0.7656E+00  0.7058E+01 -0.2083E+01E
 Epicentro: LOS SANTOS - SANTANDER                                             3
 ACTION:UPD 17-08-17 21:09 OP:lp   STATUS:               ID:20160912211919 L   I
 OLDACT:REG 16-09-13 02:40 OP:dani STATUS:               ID:20160912211735     3
 2016-09-12-2118-00M.COL___312                                                 6
 STAT SP IPHASW D HRMM SECON CODA AMPLIT PERI AZIMU VELO AIN AR TRES W  DIS CAZ7
 BAR2 EZ EP       2119 39.42                             172   -0.0410 20.5 195 
 BAR2 EZ ES       2119 54.87                             172    0.1510 20.5 195 
 BAR2 EZ I        2119 56.73         6.1 0.46            173           20.5 195 
 BRR  HZ EP       2119 41.45                             152    0.2610 73.8 300 
 BRR  HE ES       2119 58.14                             152    0.3510 73.8 300 
 BRR  HZ I        2120  1.85         8.2 0.24            150           73.8 300 
 PAM  EZ EP       2119 42.27                             150    0.0710 79.0  37 
 PAM  EN ES       2119 59.21                             150   -0.3810 79.0  37 
 PAM  EZ I        2120  1.92         3.6 0.58            152           79.0  37 
 RUS  HZ EP       2119 43.45                             145    0.0410 97.4 177 
 RUS  HE ES       2120  1.74                             145   -0.0010 97.4 177 
 RUS  HZ I        2120  2.86         3.7 0.38            149           97.4 177 
 PTB  HZ EP       2119 46.41                             132   -0.51 9  148 260 
 PTB  HN ES       2120  7.04                             132   -0.95 9  148 260 
 PTB  HZ I        2120  9.38         4.2 0.21            133            148 260 
 SPBC HE ES       2120 10.77                             129    0.43 9  162 220 
 ZAR  HZ EP       2119 52.83                             122    0.25 8  206 293 
 ZAR  HN ES       2120 18.45                             122    0.38 8  206 293 
 ZAR  HZ I        2120 26.43         3.5 0.28            123            206 293 
                                                                                
