 2017  112 2114 58.7 L   6.778 -73.160144.9  RSN  8 0.5 1.8LRSN                1
 GAP=136        1.07       5.5     5.3  8.0 -0.8374E+01  0.3944E+01  0.1038E+02E
 Epicentro: LOS SANTOS - SANTANDER                                             3
 ACTION:UPD 17-05-22 15:58 OP:jn   STATUS:               ID:20170112211458 L   I
 OLDACT:UP  17-01-13 08:16 OP:dnl  STATUS:               ID:20170112210745     3
 OLDACT:UP  17-01-13 08:16 OP:dnl  STATUS:               ID:20170112210745     3
 OLDACT:REG 17-01-13 07:54 OP:dnl  STATUS:               ID:20170112210745     3
 2017-01-12-2108-00M.COL___332                                                 6
 STAT SP IPHASW D HRMM SECON CODA AMPLIT PERI AZIMU VELO AIN AR TRES W  DIS CAZ7
 BAR2 EZ EP   2   2115 17.17                             172   -0.96 5 20.7 187 
 BAR2 EZ ES       2115 32.77                             172   -0.5410 20.7 187 
 BAR2 EZ I        2115 35.76        18.6 0.32            169           20.7 187 
 BRR  HZ EP   2   2115 19.96                             152    0.26 5 71.0 301 
 BRR  HN ES       2115 36.96                             152    0.8510 71.0 301 
 BRR  HZ I        2115 40.93         9.4 0.16            151           71.0 301 
 PAM  EZ EP       2115 20.94                             150   -0.0110 80.3  39 
 PAM  EN ES       2115 38.28                             150   -0.0610 80.3  39 
 PAM  EZ I        2115 40.15        14.2 0.48            153           80.3  39 
 RUS  HZ EP   2   2115 22.05                             144   -0.10 5 98.3 175 
 RUS  HN ES       2115 40.81                             144    0.3310 98.3 175 
 RUS  HZ I        2115 41.84         9.9 0.30            144           98.3 175 
 PTB  HZ EP   2   2115 24.99                             132   -0.37 5  146 260 
 PTB  HN ES       2115 45.44                             132   -0.76 9  146 260 
 PTB  HZ I        2115 48.90         5.1 0.24            131            146 260 
 NOR  HE ES       2116  1.93                             119    0.29 8  232 235 
 NOR  HZ I        2116  9.77         5.2 0.22            118            232 235 
 CHI  HZ EP       2115 36.28                             117    0.28 8  246 195 
 CHI  HE ES   4   2116  6.97                             117    1.84 0  246 195 
 CHI  HZ I        2116 11.51         3.5 0.30            117            246 195 
 GUY2CHZ EP   9   2115 43.75                             112    1.84 0  298 235 
 GUY2CHE ES   2   2116 17.57                             112    0.08 4  298 235 
 GUY2CHZ  IAML    2116 24.15         3.7 0.32                           298 235 
                                                                                
