 2013  112 2224 28.1 L   6.799 -73.133145.9  RSN  7 0.3 2.2LRSN                1
 GAP=239        0.67       3.4     4.4  5.2  0.6457E+01  0.3259E+01  0.3643E+01E
 Epicentro: LOS SANTOS - SANTANDER                                             3
 ACTION:UPD 13-02-15 09:13 OP:ep   STATUS:               ID:20130112222428 L   I
 2013-01-12-2220-00M.COL___241                                                 6
 STAT SP IPHASW D HRMM SECON CODA AMPLIT PERI AZIMU VELO AIN AR TRES W  DIS CAZ7
 BAR2 SZ EP       2224 47.76                             171   -0.0110 23.5 193 
 BAR2 SZ I        2224 48.20        54.2 0.09            164           23.5 193 
 BRR  HZ IP     C 2224 49.58                             152    0.2310 72.5 298 
 BRR  HN ES       2225  6.16                             152    0.2410 72.5 298 
 BRR  HZ I        2225  9.48        28.4 0.38            148           72.5 298 
 RUS  HZ EP       2224 51.85                             144   -0.0210  100 177 
 RUS  HE ES       2225 10.22                             144   -0.1710  100 177 
 RUS  HE I        2225 11.62        23.1 0.17            144            100 177 
 PTB  HZ EP       2224 54.60                             132   -0.61 9  149 259 
 PTB  HE ES   1   2225 16.14                             132   -0.21 7  149 259 
 PTB  HZ I        2225 22.92        14.7 0.25            129            149 259 
 ZAR  HZ EP   1   2225  0.65                             122   -0.05 6  205 292 
 ZAR  HE ES   1   2225 25.93                             122   -0.20 6  205 292 
 ZAR  HZ I        2225 31.41        20.8 0.39            122            205 292 
 NOR  HZ EP       2225  4.21                             118    0.25 8  236 235 
 NOR  HE ES   1   2225 32.42                             118    0.49 6  236 235 
 NOR  HZ I        2225 37.93        11.0 0.24            118            236 235 
 CHI  HZ EP       2225  6.22                             117    0.37 8  249 195 
 CHI  HN ES       2225 35.11                             117   -0.17 8  249 195 
 CHI  HZ I        2225 39.31         4.3 0.42            118            249 195 
                                                                                
