 2011  112 2033 46.4 L   6.318 -73.580107.6  RSN  7 0.1 1.9LRSN                1
 GAP=147        0.34       2.0     2.9  4.9 -0.5757E+00  0.3290E+01  0.1909E+01E
 Epicentro: SANTA HELENA DEL OPON - SANTANDER                                  3
 ACTION:UP  11-02-08 08:40 OP:pat  STATUS:               ID:20110112203346 L   I
 2011-01-12-2031-37S.COL___136                                                 6
 STAT SP IPHASW D HRMM SECON CODA AMPLIT PERI AZIMU VELO SNR AR TRES W  DIS CAZ7
 BAR2 SZ EP   1   2034  2.62                             152    -0.1 7   53  55 
 BAR2 SZ ES   2   2034 15.54                             152     0.0 5   53  55 
 BAR2 SZ I        2034 17.16        50.9 0.21                            53  55 
 RUS  HZ EP   1   2034  4.17                             144    -0.2 7   72 130 
 RUS  HZ I        2034  4.78         8.9 0.28                            72 130 
 RUS  HN ES   2   2034 18.29                             144    -0.1 5   72 130 
 BTL  SZ EP       2034  4.30                             142     0.110   75  27 
 GIR2 SZ EP   1   2034  5.59                             135     0.0 7   94  27 
 NOR  SN ES   2   2034 32.60                             118    -0.2 5  165 240 
 YOP  SZ EP   1   2034 12.67                             118     0.0 7  167 130 
 YOP  SN ES   2   2034 33.17                             118    -0.1 5  167 130 
 YOP  SZ I        2034 36.44        17.4 0.30                           167 130 
 CHI  HZ EP   1   2034 15.32                             115     0.0 7  187 185 
 CHI  HE ES   2   2034 38.25                             115     0.4 4  187 185 
 CHI  HZ I        2034 42.27         5.3 0.29                           187 185 
                                                                                
