 2016 1112 2329  8.5 L   6.335 -73.641102.4  RSN  4 0.5 1.2LRSN                1
 GAP=223        1.25      10.4     5.9 11.7  0.8899E+01  0.2747E+02  0.1358E+02E
 Epicentro: SANTA HELENA DEL OPON - SANTANDER                                  3
 ACTION:UPD 17-10-26 21:07 OP:lp   STATUS:               ID:20161112232908 L   I
 OLDACT:REG 16-11-13 03:33 OP:cog  STATUS:               ID:20161112232744     3
 2016-11-12-2328-00M.COL___340                                                 6
 STAT SP IPHASW D HRMM SECON CODA AMPLIT PERI AZIMU VELO AIN AR TRES W  DIS CAZ7
 BAR2 HZ EP       2329 23.92                             148   -0.7210 58.2  61 
 BAR2 HZ ES       2329 37.91                             148    0.7110 58.2  61 
 BAR2 HZ I        2329 40.53         8.4 0.20            147           58.2  61 
 BRR  HZ EP       2329 26.08                             137   -0.2810 85.7 355 
 BRR  HN ES       2329 40.00                             137   -0.2710 85.7 355 
 BRR  HZ I        2329 48.65         7.3 0.36            136           85.7 355 
 PTB  HZ EP       2329 27.56                             134    0.5610 92.9 284 
 PTB  HN ES       2329 40.96                             134   -0.4510 92.9 284 
 PTB  HZ I        2329 43.13         1.8 0.16            138           92.9 284 
 ZAR  HZ EP       2329 36.75                             113    0.25 9  186 314 
 ZAR  HE ES       2329 58.65                             113    0.33 9  186 314 
 ZAR  HZ I        2329 59.16         1.8 0.17            117            186 314 
                                                                                
