 2011 1012 2123 30.0 L   6.813 -73.134149.1  RSN  3 0.1 1.4LRSN                1
 GAP=137        0.31       2.4     3.4  4.2 -0.1803E+00 -0.8406E+00  0.1465E+01E
 Epicentro: LOS SANTOS - SANTANDER                                             3
 ACTION:UPD 12-07-13 16:03 OP:ep   STATUS:               ID:20111012212330 L   I
 2011-10-12-2122-12S.COL___168                                                 6
 STAT SP IPHASW D HRMM SECON CODA AMPLIT PERI AZIMU VELO AIN AR TRES W  DIS CAZ7
 BRR  HZ EP   1   2123 51.48                             153   -0.06 7 71.7 297 
 BRR  HZ I        2123 51.93        16.9 0.14                          71.7 297 
 BRR  HN ES   1   2124  8.37                             153    0.03 7 71.7 297 
 PAM  SZ EP   1   2123 52.40                             152   -0.06 7 75.4  39 
 PAM  SN ES   1   2124 10.01                             152    0.03 7 75.4  39 
 PAM  SZ I        2124 11.93         2.6 0.31                          75.4  39 
 RUS  HZ EP   1   2123 54.29                             144    0.12 7  102 177 
 RUS  HN ES   1   2124 12.97                             144   -0.06 7  102 177 
 RUS  HZ I        2124 13.61         2.4 0.23                           102 177 
                                                                                
