 2013  112 2247 29.2 L   6.794 -73.111147.7  RSN  4 0.1 1.5LRSN                1
 GAP=241        0.40       5.0     7.8  4.1  0.3096E+02  0.4604E+01  0.6587E+01E
 Epicentro: LOS SANTOS - SANTANDER                                             3
 ACTION:UPD 13-02-15 09:13 OP:ep   STATUS:               ID:20130112224729 L   I
 2013-01-12-2240-00M.COL___241                                                 6
 STAT SP IPHASW D HRMM SECON CODA AMPLIT PERI AZIMU VELO AIN AR TRES W  DIS CAZ7
 BRR  HZ EP       2247 50.86                             152    0.0810 74.9 298 
 BRR  HE ES       2248  7.64                             152    0.0410 74.9 298 
 BRR  HZ I        2248 10.84         6.1 0.29            149           74.9 298 
 RUS  HZ EP       2247 52.97                             144   -0.1210 99.7 178 
 RUS  HE ES   1   2248 11.71                             144   -0.01 7 99.7 178 
 RUS  HE I        2248 12.70         8.3 0.17            144           99.7 178 
 PTB  HZ EP       2247 56.51                             132   -0.15 9  151 259 
 CHI  HZ EP       2248  7.29                             117    0.23 8  249 196 
 CHI  HZ I        2248  8.63         0.9 0.26            118            249 196 
                                                                                
