 2016  612 2303 45.1 L   6.796 -73.160152.0  RSN  7 0.5 1.4LRSN                1
 GAP=135        1.02       4.4     5.3  7.5 -0.5883E+01  0.1147E+01  0.7294E+01E
 Epicentro: LOS SANTOS - SANTANDER                                             3
 ACTION:UPD 16-07-21 22:18 OP:rebc STATUS:               ID:20160612230345 L   I
 OLDACT:DUP 16-06-13 05:47 OP:ak   STATUS:               ID:20160612225747d    3
 OLDACT:REG 16-06-13 04:43 OP:ak   STATUS:               ID:20160612225746     3
 2016-06-12-2257-46M.COL___328                                                 6
 STAT SP IPHASW D HRMM SECON CODA AMPLIT PERI AZIMU VELO AIN AR TRES W  DIS CAZ7
 BAR2 EZ EP   2   23 4  5.14                             171   -0.30 5 22.7 186 
 BAR2 EZ ES       23 4 21.05                             171   -0.2710 22.7 186 
 BAR2 EZ I        23 4 23.20         8.4 0.26                          22.7 186 
 BRR  HZ EP       23 4  6.89                             154    0.0610 70.0 299 
 BRR  HN ES       23 4 24.39                             154    0.5910 70.0 299 
 PAM  EZ EP       23 4  8.33                             151    0.3010 78.7  40 
 PAM  EN ES       23 4 25.56                             151   -0.3810 78.7  40 
 PAM  EZ I        23 4 27.55         4.4 0.44                          78.7  40 
 RUS  HZ EP       23 4  9.49                             145    0.0710  100 175 
 RUS  HN ES       23 4 28.49                             145    0.0810  100 175 
 RUS  HZ I        23 4 29.29         3.1 0.32                           100 175 
 PTB  HZ EP   2   23 4 11.41                             133   -0.99 5  146 259 
 PTB  HE ES       23 4 33.73                             133    0.01 9  146 259 
 PTB  HZ I        23 4 35.81         1.4 0.21                           146 259 
 SPBC HZ EP   2   23 4 13.48                             130   -0.45 5  162 219 
 SPBC HN ES       23 4 35.64                             130   -0.80 9  162 219 
 SPBC HZ I        23 4 39.85         3.5 0.18                           162 219 
 CHI  HZ EP   2   23 4 23.26                             118    0.23 4  248 195 
 CHI  HN ES       23 4 53.51                             118    0.87 8  248 195 
                                                                                
