 2015 1012 2355 14.8 L   6.781 -73.101147.6  RSN  6 0.3 1.2LRSN                1
 GAP=143        0.62       3.5     3.9  5.6  0.2145E+01  0.2689E+01 -0.2048E+01E
 Epicentro: LOS SANTOS - SANTANDER                                             3
 ACTION:UPD 15-12-22 20:39 OP:cam  STATUS:               ID:20151012235514 L   I
 OLDACT:REG 15-10-13 03:34 OP:spq  STATUS:               ID:20151012234749     3
 2015-10-12-2347-49M.COL___331                                                 6
 STAT SP IPHASW D HRMM SECON CODA AMPLIT PERI AZIMU VELO AIN AR TRES W  DIS CAZ7
 BAR2 EZ ES   1   2355 49.48                             171   -0.63 7 22.7 203 
 BAR2 EZ I        2355 52.11         5.2 0.28            169           22.7 203 
 PAM  EZ EP     D 2355 37.22                             152    0.0910 76.1  36 
 PAM  EN ES       2355 54.58                             152    0.0310 76.1  36 
 PAM  EZ I        2355 56.84         3.2 0.66            154           76.1  36 
 BRR  HZ EP       2355 36.39                             151   -0.0610 76.5 298 
 BRR  HN ES       2355 53.71                             151    0.3710 76.5 298 
 BRR  HZ I        2355 56.64         2.8 0.26            149           76.5 298 
 RUS  HZ EP   1   2355 38.62                             145    0.05 7 98.2 179 
 RUS  HE ES   1   2355 57.22                             145    0.12 7 98.2 179 
 RUS  HZ I        2355 58.06         1.2 0.38            147           98.2 179 
 ZAR  HN ES   1   2356 13.61                             122   -0.14 6  209 292 
 ZAR  HZ I        2356 20.66         2.0 0.22            122            209 292 
 SML  HN ES   1   2356 20.62                             117   -0.33 6  248 334 
                                                                                
