 2015  912 2240  8.0 L   6.816 -73.157138.6  RSN 12 0.5 2.0LRSN                1
 GAP=134        1.22       3.3     4.4  6.4 -0.3666E+01  0.1017E+02 -0.1859E+01E
 Epicentro: LOS SANTOS - SANTANDER                                             3
 ACTION:UPD 15-10-28 16:25 OP:cam  STATUS:               ID:20150912224008 L   I
 OLDACT:REG 15-09-13 03:51 OP:ak   STATUS:               ID:20150912223749     3
 2015-09-12-2237-49M.COL___329                                                 6
 STAT SP IPHASW D HRMM SECON CODA AMPLIT PERI AZIMU VELO AIN AR TRES W  DIS CAZ7
 BAR2 EZ IP     C 2240 26.68                             169   -0.1010 24.9 186 
 BAR2 EZ ES       2240 41.18                             169   -0.2610 24.9 186 
 BAR2 EZ I        2240 42.44        24.9 0.16            170           24.9 186 
 BRR  HZ EP       2240 28.54                             152    0.3010 69.2 298 
 BRR  HN ES       2240 44.84                             152    0.8010 69.2 298 
 BRR  HZ I        2240 49.50        17.3 0.12            151           69.2 298 
 PAM  EZ EP       2240 29.72                             150    0.3210 76.8  41 
 PAM  EN ES       2240 46.48                             150    0.3710 76.8  41 
 PAM  EZ I        2240 49.18        18.5 0.44            153           76.8  41 
 RUS  HZ EP       2240 31.29                             142    0.1210  102 175 
 RUS  HN ES       2240 49.07                             142   -0.1910  102 175 
 RUS  HZ I        2240 49.88         7.8 0.24            145            102 175 
 PTB  HZ EP       2240 33.52                             130   -0.76 9  147 258 
 PTB  HN ES       2240 54.04                             130   -0.76 9  147 258 
 PTB  HZ I        2240 57.11        14.6 0.19            132            147 258 
 OCA  HZ EP       2240 35.47                             128   -0.08 9  158 354 
 OCA  HN ES       2240 56.12                             128   -0.94 9  158 354 
 SPBC HZ EP   1   2240 35.38                             127   -0.61 7  164 218 
 SPBC HN ES       2240 58.01                             127    0.17 9  164 218 
 ZAR  HZ EP       2240 40.36                             121    0.59 9  202 292 
 ZAR  HE ES       2241  5.45                             121    0.89 9  202 292 
 ZAR  HZ I        2241  8.98         9.3 0.13            122            202 292 
 NOR  HZ EP       2240 43.06                             117   -0.24 8  235 234 
 NOR  HN ES       2241 10.75                             117   -0.10 8  235 234 
 NOR  HZ I        2241 12.56         8.2 0.16            119            235 234 
 SML  HZ EP       2240 43.98                             116    0.01 8  242 335 
 SML  HN ES       2241 11.47                             116   -0.58 8  242 335 
 HEL  HZ EP   1   2240 48.40                             113    0.66 6  271 255 
 HEL  HE ES       2241 18.40                             113   -0.36 8  271 255 
 HEL  HZ I        2241 25.65         7.7 0.28            115            271 255 
 GUY2CHZ EP       2240 52.13                             111    0.87 7  301 234 
 GUY2CHN ES       2241 25.02                             111   -0.00 7  301 234 
 GUY2CHZ I        2241 32.04         4.8 0.28                           301 234 
 SJC  HZ EP   4   2241  1.56                             105   -1.49 0  407 327 
 SJC  HN ES   4   2241 43.31                             105   -2.70 0  407 327 
                                                                                
