 2016  912 2043 53.4 L   6.810 -73.123149.5  RSN 11 0.4 2.2LRSN                1
 GAP=139        0.83       3.2     3.7  4.8 -0.1246E+01  0.4812E+01  0.1885E+01E
 Epicentro: LOS SANTOS - SANTANDER                                             3
 ACTION:UPD 17-08-17 21:09 OP:lp   STATUS:               ID:20160912204353 L   I
 OLDACT:UP  16-09-13 03:10 OP:dani STATUS:               ID:20160912203733     3
 OLDACT:UP  16-09-13 03:10 OP:dani STATUS:               ID:20160912203733     3
 OLDACT:UP  16-09-13 03:08 OP:dani STATUS:               ID:20160912203733     3
 OLDACT:REG 16-09-13 02:35 OP:dani STATUS:               ID:20160912203733     3
 2016-09-12-2038-00M.COL___312                                                 6
 STAT SP IPHASW D HRMM SECON CODA AMPLIT PERI AZIMU VELO AIN AR TRES W  DIS CAZ7
 BAR2 EZ EP       2044 13.68                             170    0.1210 24.9 195 
 BAR2 EZ ES       2044 28.62                             170   -0.6310 24.9 195 
 BAR2 EZ I        2044 30.17        40.4 0.52            167           24.9 195 
 BRR  HZ EP       2044 15.32                             152    0.2210 73.0 297 
 BRR  HE ES       2044 32.42                             152    0.4310 73.0 297 
 BRR  HZ I        2044 33.14        29.8 0.15            147           73.0 297 
 PAM  EZ EP     C 2044 16.19                             152    0.2710 74.9  39 
 PAM  EE ES       2044 33.36                             152   -0.0910 74.9  39 
 PAM  EZ I        2044 35.33        39.9 0.46            152           74.9  39 
 RUS  HZ EP       2044 17.73                             144    0.1010  102 178 
 RUS  HE ES       2044 36.48                             144   -0.0210  102 178 
 RUS  HZ I        2044 38.09        11.2 0.33            141            102 178 
 PTB  HZ EP       2044 21.10                             132    0.13 9  150 259 
 PTB  HZ I        2044 45.04        15.2 0.17            127            150 259 
 SPBC HZ EP       2044 22.32                             129   -0.15 9  166 219 
 SPBC HN ES       2044 45.54                             129    0.44 9  166 219 
 SPBC HZ I        2044 47.71        20.0 0.30            125            166 219 
 ZAR  HZ EP       2044 26.41                             123    0.07 8  206 292 
 ZAR  HE ES       2044 51.39                             123   -0.61 8  206 292 
 ZAR  HZ I        2044 56.80        23.7 0.30            119            206 292 
 NOR  HZ EP       2044 29.60                             119   -0.08 8  237 235 
 NOR  HE ES       2044 58.02                             119    0.07 8  237 235 
 NOR  HZ I        2045  3.74        10.0 0.17            115            237 235 
 CHI  HZ EP       2044 30.79                             118   -0.75 8  250 196 
 CHI  HN ES   2   2045  1.99                             118    0.74 4  250 196 
 CHI  HZ I        2045  9.34         7.1 0.23            114            250 196 
 ROSC BZ EP   4   2044 34.19                             117    2.17 0  255 211 
 GUY2CHZ EP   9   2044 39.43                             113    1.90 0  304 235 
 GUY2CHN ES       2045 13.89                             113    0.07 7  304 235 
 GUY2CHZ I        2045 20.52         5.7 0.56                           304 235 
 LL6C HZ EP   4   2044 36.97                             111   -2.23 0  324 357 
 SJC  HZ EP   4   2044 47.72                             106   -1.47 0  410 327 
 SJC  HN ES   4   2045 28.90                             106   -3.77 0  410 327 
 SJC  HZ I        2045 33.02         5.5 0.54            104            410 327 
                                                                                
