 2011 1112 2122 12.6 L   6.767 -73.096147.3  RSN  6 0.3 1.8LRSN                1
 GAP=145        0.52       3.4     4.9  5.0 -0.2980E+01 -0.1528E+01  0.4410E+01E
 Epicentro: LOS SANTOS - SANTANDER                                             3
 ACTION:UPD 12-07-13 16:09 OP:ep   STATUS:               ID:20111112212212 L   I
 2011-11-12-2119-47S.COL___179                                                 6
 STAT SP IPHASW D HRMM SECON CODA AMPLIT PERI AZIMU VELO AIN AR TRES W  DIS CAZ7
 BAR2 SZ EP       2122 32.35                             171   -0.0710 21.6 206 
 BAR2 SZ ES   1   2122 47.42                             171   -0.43 7 21.6 206 
 BAR2 SZ I        2122 49.99        18.3 0.28                          21.6 206 
 PAM  SZ EP       2122 35.04                             151    0.0510 77.0  35 
 PAM  SN ES   1   2122 52.59                             151    0.16 7 77.0  35 
 BRR  HZ EP       2122 34.19                             150   -0.1510 77.8 299 
 BRR  HE ES   1   2122 51.57                             150    0.31 7 77.8 299 
 BRR  HZ I        2123  3.90        20.6 0.36                          77.8 299 
 RUS  HZ EP       2122 36.36                             145    0.0910 96.7 179 
 RUS  HN ES   2   2122 54.68                             145   -0.01 5 96.7 179 
 RUS  HZ I        2122 56.06         7.2 0.20                          96.7 179 
 NOR  SE ES   3   2123 16.47                             118   -0.39 2  237 236 
 CHI  HZ EP   2   2122 49.82                             118   -0.38 4  247 197 
 CHI  HE ES   2   2123 20.32                             118    0.81 4  247 197 
 CHI  HZ I        2123 24.93         3.6 0.78                           247 197 
                                                                                
