 2010  812 2245 38.1 L   6.781 -73.092140.3  RSN  9 0.5 2.0LRSN                1
 GAP=165        1.26       4.9    10.1  8.7 -0.1866E+02  0.1014E+01  0.9258E+01E
 Epicentro: LOS SANTOS - SANTANDER                                             3
 ACTION:UP  10-09-07 10:54 OP:vdl  STATUS:               ID:20100812224538 L   I
 2010-08-12-2242-00S.COL___126                                                 6
 STAT SP IPHASW D HRMM SECON CODA AMPLIT PERI AZIMU VELO SNR AR TRES W  DIS CAZ7
 BAR2 SZ EP   1   2245 57.08                             170     0.0 7   23 206 
 BAR2 SZ ES       2246 11.43                             170    -0.410   23 206 
 BAR2 SZ I        2246 14.10        15.9 0.34                            23 206 
 BRR  HZ EP   1   2245 59.10                             150     0.1 7   77 298 
 BRR  HZ I        2246  1.24        24.4 0.04                            77 298 
 BRR  HE ES       2246 15.80                             150     0.410   77 298 
 RUS  HZ EP   1   2246  1.32                             143     0.2 7   98 179 
 RUS  HN ES   2   2246 19.19                             143     0.1 5   98 179 
 RUS  HZ I        2246 20.79        11.6 0.28                            98 179 
 GUE  SZ ES   1   2246 20.31                             138    -1.0 7  117   9 
 GUE  SZ I        2246 22.72        10.8 0.22                           117   9 
 GRA  SZ EP   1   2246  3.06                             136     0.2 7  126  15 
 GRA  SZ ES       2246 22.97                             136     0.710  126  15 
 GRA  SZ I        2246 23.48        21.6 0.34                           126  15 
 OCA  SZ EP   1   2246  5.73                             128    -0.5 7  163 351 
 OCA  SZ ES       2246 28.00                             128    -0.2 9  163 351 
 OCA  SZ I        2246 32.12        22.2 0.31                           163 351 
 CHI  HZ EP   1   2246 15.31                             116    -0.1 6  248 197 
 CHI  HZ I        2246 17.45         3.8 0.20                           248 197 
 CHI  HN ES   2   2246 45.42                             116     0.8 4  248 197 
 RREF HZ EP   1   2246 25.27                             109     0.9 5  325 230 
 RREF HE ES   1   2246 59.64                             109    -0.8 5  325 230 
 RREF HZ I        2247  9.83         5.5 0.39                           325 230 
 PRA  HZ EP   1   2246 31.07                             105    -0.5 4  393 210 
 PRA  HZ I        2247 20.50         4.2 0.69                           393 210 
                                                                                
