 2012  512 2038 15.5 L   6.735 -73.143148.1  RSN  4 0.2 1.5LRSN                1
 GAP=233        0.55       7.8     8.8  6.4  0.5637E+02 -0.2934E+01 -0.5980E+01E
 Epicentro: JORDAN - SANTANDER                                                 3
 ACTION:UP  12-07-05 12:04 OP:pat  STATUS:               ID:20120512203815 L   I
 2012-05-12-2030-00M.COL___195                                                 6
 STAT SP IPHASW D HRMM SECON CODA AMPLIT PERI AZIMU VELO SNR AR TRES W  DIS CAZ7
 BAR2 SZ EP       2038 35.19                             173    -0.110   16 196 
 BAR2 SZ ES   1   2038 50.38                             173    -0.3 7   16 196 
 BAR2 SZ I        2038 51.12         5.7 0.20                            16 196 
 BRR  HZ EP   1   2038 37.30                             152     0.2 7   75 303 
 BRR  HN ES   1   2038 54.19                             152     0.2 7   75 303 
 BRR  HZ I        2038 55.79         6.1 0.37                            75 303 
 RUS  HZ EP   1   2038 38.87                             146    -0.1 7   93 176 
 RUS  HN ES   1   2038 57.45                             146     0.2 7   93 176 
 RUS  HZ I        2038 58.78         2.6 0.38                            93 176 
 ZAR  HN ES   1   2039 13.84                             122    -0.2 6  207 294 
 ZAR  HZ I        2039 19.58         4.3 0.25                           207 294 
                                                                                
