 2015 1112 2245 10.2 L   6.900 -73.143151.8  RSN  6 0.3 1.9LRSN                1
 GAP=131        0.66       2.5     3.8  7.0  0.1016E+00  0.9475E+01  0.5320E+01E
 Epicentro: PIEDECUESTA - SANTANDER                                            3
 ACTION:UPD 15-12-28 16:10 OP:cam  STATUS:               ID:20151112224510 L   I
 OLDACT:DUP 15-11-13 04:46 OP:ar   STATUS:               ID:20151112223751d    3
 2015-11-12-2237-50M.COL___319                                                 6
 STAT SP IPHASW D HRMM SECON CODA AMPLIT PERI AZIMU VELO AIN AR TRES W  DIS CAZ7
 PAM  EZ EP       2245 32.87                             154    0.2710 69.0  45 
 PAM  EN ES       2245 50.06                             154   -0.0110 69.0  45 
 PAM  EZ I        2245 51.85        11.7 0.44            160           69.0  45 
 RUS  HZ EP   2   2245 35.37                             142    0.03 5  112 177 
 RUS  HN ES   2   2245 54.79                             142   -0.17 5  112 177 
 RUS  HZ I        2245 55.52         4.1 0.34            145            112 177 
 SPBC HZ EP       2245 40.33                             129    0.33 9  172 217 
 SPBC HE ES       2246  3.15                             129   -0.10 9  172 217 
 SPBC HZ I        2246  9.27        13.3 0.10            130            172 217 
 ZAR  HE ES       2246  8.37                             124    0.35 9  200 289 
 ZAR  HZ I        2246 13.46        10.5 0.40            125            200 289 
 SML  HE ES       2246 13.56                             120   -0.59 8  234 334 
 SML  HZ I        2246 18.40         7.6 0.10            122            234 334 
 CHI  HZ EP       2245 49.17                             117   -0.23 8  259 195 
 CHI  HN ES       2246 19.72                             117   -0.25 8  259 195 
 CHI  HZ I        2246 23.05         2.9 0.38            119            259 195 
                                                                                
