 2010 1112 2232 44.0 L   6.772 -73.139146.5  RSN  5 0.2 1.9LRSN                1
 GAP=160        0.49       4.0     8.5  8.6  0.1053E+02 -0.4758E+02 -0.8709E+01E
 Epicentro: LOS SANTOS - SANTANDER                                             3
 ACTION:UP  10-12-17 16:52 OP:REBC STATUS:               ID:20101112223244 L   I
 2010-11-12-2230-27S.COL___129                                                 6
 STAT SP IPHASW D HRMM SECON CODA AMPLIT PERI AZIMU VELO SNR AR TRES W  DIS CAZ7
 BTL  SZ EP       2233  3.76                             171     0.110   21 319 
 GIR2 SZ EP   2   2233  4.51                             166     0.7 5   34 350 
 GIR2 SZ ES   3   2233 19.51                             166     0.2 2   34 350 
 BRR  HZ EP       2233  5.28                             152     0.010   73 300 
 BRR  HE ES   1   2233 21.88                             152    -0.1 7   73 300 
 BRR  HZ I        2233 23.43        14.6 0.15                            73 300 
 RUS  HZ EP       2233  7.57                             145     0.010   97 176 
 RUS  HN ES   2   2233 25.71                             145    -0.3 5   97 176 
 GRA  SZ EP       2233  9.33                             136    -0.210  128  17 
                                                                                
