 2011 1112 2242  0.5 L   6.783 -73.161143.3  RSN  7 0.3 1.9LRSN                1
 GAP=135        0.63       3.1     4.1  5.0  0.8408E+00  0.4943E+01  0.4864E+01E
 Epicentro: LOS SANTOS - SANTANDER                                             3
 ACTION:UPD 12-07-13 16:09 OP:ep   STATUS:               ID:20111112224200 L   I
 2011-11-12-2239-31S.COL___179                                                 6
 STAT SP IPHASW D HRMM SECON CODA AMPLIT PERI AZIMU VELO AIN AR TRES W  DIS CAZ7
 BAR2 SZ EP       2242 19.67                             171   -0.0910 21.2 186 
 BAR2 SZ ES   1   2242 34.28                             171   -0.53 7 21.2 186 
 BAR2 SZ I        2242 36.35        21.5 0.18                          21.2 186 
 BRR  HZ EP       2242 21.56                             152    0.2410 70.7 301 
 BRR  HN ES   1   2242 38.11                             152    0.53 7 70.7 301 
 BRR  HZ I        2242 41.23        16.7 0.16                          70.7 301 
 PAM  SZ EP       2242 22.67                             149    0.0910 79.9  40 
 PAM  SN ES   1   2242 39.60                             149   -0.22 7 79.9  40 
 RUS  HZ EP       2242 23.81                             144   -0.0410 98.8 175 
 RUS  HN ES   1   2242 42.39                             144    0.30 7 98.8 175 
 RUS  HZ I        2242 43.89         7.1 0.42                          98.8 175 
 ZAR  HN ES   1   2242 57.43                             122   -0.35 6  203 293 
 ZAR  HZ I        2243  2.96        11.2 0.56                           203 293 
 NOR  SZ EP       2242 35.47                             118   -0.32 8  232 235 
 CHI  HZ EP       2242 37.91                             117    0.13 8  246 195 
 CHI  HN ES   1   2243  6.92                             117    0.03 6  246 195 
 CHI  HZ I        2243 10.99         5.7 0.50                           246 195 
                                                                                
