 2015 1013 0002 48.2 L   6.783 -73.200134.5  RSN  4 0.3 1.2LRSN                1
 GAP=131        0.90       4.6     6.7  7.5  0.1014E+00 -0.3559E+01  0.7599E+00E
 Epicentro: ZAPATOCA - SANTANDER                                               3
 ACTION:UPD 15-12-22 20:39 OP:cam  STATUS:               ID:20151013000248 L   I
 OLDACT:REG 15-10-13 13:33 OP:cara STATUS:               ID:20151013000006     3
 2015-10-13-0000-06M.COL___338                                                 6
 STAT SP IPHASW D HRMM SECON CODA AMPLIT PERI AZIMU VELO AIN AR TRES W  DIS CAZ7
 BAR2 EZ ES        0 3 21.13                             171    0.4910 21.2 175 
 BAR2 EZ I         0 3 21.66         4.4 0.28            170           21.2 175 
 BRR  HZ EP        0 3  8.34                             152    0.4610 67.0 302 
 BRR  HN ES        0 3 22.82                             152   -0.4210 67.0 302 
 PAM  EZ EP        0 3  9.66                             147    0.1010 82.7  42 
 PAM  EN ES        0 3 26.04                             147   -0.1910 82.7  42 
 PAM  EZ I         0 3 28.80         3.4 0.44            146           82.7  42 
 RUS  HZ EP        0 3 10.42                             142   -0.3410 99.4 173 
 RUS  HN ES        0 3 28.26                             142   -0.1010 99.4 173 
 RUS  HZ I         0 3 29.76         2.9 0.30            143           99.4 173 
                                                                                
