 2015  313 0409 55.5 L   6.791 -73.194136.5  RSN  4 0.1 1.3LRSN                1
 GAP=143        0.32       1.8     1.8  3.6 -0.1278E+01  0.1964E+01 -0.5267E+00E
 Epicentro: ZAPATOCA - SANTANDER                                               3
 ACTION:UPD 15-04-30 16:25 OP:nd   STATUS:               ID:20150313040955 L   I
 OLDACT:REG 15-03-13 13:15 OP:cam  STATUS:               ID:20150313040748     3
 2015-03-13-0407-48M.COL___278                                                 6
 STAT SP IPHASW D HRMM SECON CODA AMPLIT PERI AZIMU VELO AIN AR TRES W  DIS CAZ7
 PAM  SZ EP        410 16.97                             148   -0.0310 81.6  42 
 PAM  SN ES        410 33.81                             148    0.0310 81.6  42 
 PAM  SN I         410 34.91         4.7 0.48            151           81.6  42 
 RUS  HZ EP        410 18.42                             142    0.1210  100 173 
 RUS  HN ES        410 36.01                             142   -0.0910  100 173 
 RUS  HZ I         410 37.31         1.7 0.52            145            100 173 
 PTB  HZ EP        410 21.12                             131   -0.10 9  142 259 
 PTB  HN ES        410 41.32                             131    0.04 9  142 259 
 PTB  HN I         410 44.32         5.7 0.30            132            142 259 
 SPBC HE ES   1    410 44.32                             128    0.05 7  159 218 
                                                                                
