 2011  713 0645 32.6 L   7.344 -73.177137.0  RSN  6 0.2 1.6LRSN                1
 GAP=131        0.46       2.2     4.8  4.0 -0.1008E+01 -0.1308E+01  0.7740E+00E
 Epicentro: RIONEGRO - SANTANDER                                               3
 ACTION:UPD 12-07-25 14:00 OP:epov STATUS:               ID:20110713064532 L   I
 2011-07-13-0643-34S.COL___142                                                 6
 STAT SP IPHASW D HRMM SECON CODA AMPLIT PERI AZIMU VELO AIN AR TRES W  DIS CAZ7
 GIR2 SZ EP   1    645 51.08                             167   -0.14 7 29.3 184 
 GIR2 SZ ES   1    646  5.35                             167   -0.36 7 29.3 184 
 BRI  SZ EP   1    645 52.58                             155    0.15 7 58.8  45 
 BRI  SZ I         645 53.11         8.4 0.30                          58.8  45 
 BRI  SZ ES   1    646  7.97                             155    0.11 7 58.8  45 
 BRR  HZ EP   1    645 52.39                             153   -0.08 7 64.6 246 
 BRR  HE ES   1    646  8.17                             153    0.23 7 64.6 246 
 BRR  HZ I         646  9.75        11.1 0.10                          64.6 246 
 BAR2 SZ EP   1    645 53.90                             147   -0.04 7 83.1 180 
 BAR2 SZ ES   1    646 10.43                             147   -0.13 7 83.1 180 
 BAR2 SZ I         646 11.27        13.3 0.24                          83.1 180 
 OCA  SZ EP   1    645 54.72                             142   -0.32 7  100 351 
 OCA  SZ ES   1    646 12.74                             142    0.23 7  100 351 
 OCA  SZ I         646 18.62         4.7 0.17                           100 351 
 RUS  HZ EP   1    646  0.97                             128    0.18 7  161 176 
 RUS  HN ES   1    646 22.99                             128    0.25 7  161 176 
                                                                                
