 2013  713 0754 13.6 L   7.466 -73.227127.2  RSN  5 0.5 1.5LRSN                1
 GAP=207        1.25       5.7     9.5 11.3  0.2664E+02 -0.2262E+02 -0.1443E+02E
 Epicentro: EL PLAYON - SANTANDER                                              3
 ACTION:UPD 13-08-12 10:37 OP:ep   STATUS:               ID:20130713075413 L   I
 OLDACT:REG 13-07-13 09:40 OP:nd   STATUS:               ID:20130713074959     3
 2013-07-13-0749-59M.COL___266                                                 6
 STAT SP IPHASW D HRMM SECON CODA AMPLIT PERI AZIMU VELO AIN AR TRES W  DIS CAZ7
 BRR  HZ EP        754 33.02                             151    0.5210 66.6 233 
 BRR  HN ES        754 47.82                             151    0.5910 66.6 233 
 BRR  HZ I         754 48.96         8.8 0.10            148           66.6 233 
 BAR2 SZ EP        754 34.76                             141   -0.1710 96.8 177 
 BAR2 SZ ES        754 50.87                             141   -0.6810 96.8 177 
 BAR2 SZ I         754 52.48         8.3 0.12            139           96.8 177 
 PTB  HZ EP        754 41.76                             123    0.40 9  170 233 
 PTB  HN ES        755  2.34                             123   -0.66 9  170 233 
 PTB  HZ I         755  6.42         3.2 0.12            122            170 233 
 SML  HZ EP   2    754 42.07                             122    0.29 4  174 328 
 SML  HN ES        755  3.43                             122   -0.32 9  174 328 
 SML  HZ I         755  4.87         9.7 0.10            123            174 328 
 RUS  HZ EP        754 42.00                             123   -0.45 9  175 175 
 RUS  HN ES        755  5.59                             123    0.64 9  175 175 
 RUS  HZ I         755 11.07         0.6 0.60            122            175 175 
                                                                                
