 2017  213 0023 30.4 L   6.782 -73.435109.0  RSN  5 0.4 1.1LRSN                1
 GAP=167        0.95       6.9     5.9  9.9  0.2032E+02  0.2129E+02 -0.1454E+02E
 Epicentro: SAN VICENTE DE CHUCURI - SANTANDER                                 3
 ACTION:UPD 17-05-24 15:35 OP:jn   STATUS:               ID:20170213002330 L   I
 OLDACT:UP  17-02-13 13:44 OP:edw  STATUS:               ID:20170213001741     3
 OLDACT:REG 17-02-13 11:24 OP:edw  STATUS:               ID:20170213001741     3
 2017-02-13-0018-00M.COL___352                                                 6
 STAT SP IPHASW D HRMM SECON CODA AMPLIT PERI AZIMU VELO AIN AR TRES W  DIS CAZ7
 BAR2 EZ ES        023 58.05                             161   -0.1310 35.0 127 
 BAR2 EZ I         024  0.24         5.4 0.14            165           35.0 127 
 BRR  HZ EP        023 46.04                             155   -0.1610 47.2 320 
 RUS  HZ EP   2    023 51.44                             133    0.25 5  106 158 
 RUS  HN ES        024  7.74                             133    0.3210  106 158 
 PTB  HZ EP        023 50.69                             129   -0.8010  116 257 
 PTB  HN ES        024  8.01                             129    0.0610  116 257 
 PTB  HZ I         024 12.42         1.6 0.16            131            116 257 
 ZAR  HZ EP        023 58.01                             117    0.42 9  176 297 
 ZAR  HN ES        024 19.17                             117    0.36 9  176 297 
                                                                                
