 2012  213 0228 44.1 L   6.732 -73.155141.4  RSN  5 0.3 1.5LRSN                1
 GAP=138        0.56       5.7     5.6  7.4 -0.1493E+02  0.2181E+02 -0.2696E+01E
 ACTION:UP  12-03-07 16:30 OP:epov STATUS:               ID:20120213022844 L   I
 2012-02-13-0220-00M.COL___188                                                 6
 STAT SP IPHASW D HRMM SECON CODA AMPLIT PERI AZIMU VELO AIN AR TRES W  DIS CAZ7
 BAR2 SZ ES   2    229 17.68                             173   -0.17 5 15.8 191 
 BRR  HZ EP   1    229  5.44                             151    0.51 7 74.2 304 
 BRR  HZ I         229  5.54         6.5 0.21                          74.2 304 
 BRR  HE ES   2    229 21.59                             151    0.39 5 74.2 304 
 PAM  SZ EP   2    229  6.33                             148    0.09 5 83.9  37 
 PAM  SN ES        229 23.37                             148   -0.1610 83.9  37 
 RUS  HE ES   2    229 24.90                             145    0.25 5 93.2 175 
 PTB  HZ EP        229 10.25                             131   -0.23 9  145 262 
 PTB  HN ES   2    229 30.80                             131   -0.28 5  145 262 
                                                                                
