 2016 1213 0050 26.6 L   6.806 -73.168147.5  RSN 10 0.4 1.7LRSN                1
 GAP=133        1.00       3.4     4.1  5.9  0.2762E+00  0.6295E+01  0.4703E+01E
 Epicentro: LOS SANTOS - SANTANDER                                             3
 ACTION:UPD 17-01-11 20:14 OP:rebc STATUS:               ID:20161213005026 L   I
 OLDACT:UP  16-12-13 13:49 OP:e    STATUS:               ID:20161213004440     3
 OLDACT:UP  16-12-13 13:49 OP:e    STATUS:               ID:20161213004440     3
 OLDACT:UP  16-12-13 13:47 OP:e    STATUS:               ID:20161213004440     3
 OLDACT:UP  16-12-13 13:45 OP:e    STATUS:               ID:20161213004440     3
 OLDACT:REG 16-12-13 12:35 OP:and  STATUS:               ID:20161213004440     3
 2016-12-13-0048-00M.COL___378                                                 6
 STAT SP IPHASW D HRMM SECON CODA AMPLIT PERI AZIMU VELO AIN AR TRES W  DIS CAZ7
 BAR2 EZ EP        050 46.28                             170   -0.1510 23.7 184 
 BAR2 EZ ES        051  1.46                             170   -0.4510 23.7 184 
 BAR2 EZ I         051  2.94        10.8 0.16            169           23.7 184 
 BRR  HZ EP        050 47.97                             154    0.1810 68.7 299 
 BRR  HN ES        051  5.26                             154    0.9410 68.7 299 
 BRR  HZ I         051  9.47         7.2 0.17            152           68.7 299 
 PAM  EZ EP        050 49.22                             151    0.1610 78.5  41 
 PAM  EN ES        051  6.45                             151   -0.1310 78.5  41 
 PAM  EZ I         051  8.70         7.4 0.33            155           78.5  41 
 RUS  HZ EP        050 50.34                             144   -0.2310  101 175 
 RUS  HN ES        051  9.28                             144    0.0110  101 175 
 RUS  HZ I         051 10.73         5.4 0.20            145            101 175 
 PTB  HZ EP        050 53.40                             133   -0.09 9  145 258 
 PTB  HN ES        051 14.14                             133   -0.33 9  145 258 
 PTB  HZ I         051 17.02         4.4 0.14            132            145 258 
 ZAR  HN ES        051 24.25                             123    0.17 9  202 292 
 ZAR  HZ I         051 29.61         5.3 0.25            123            202 292 
 NOR  HZ EP   2    051  3.05                             119    0.81 4  233 234 
 NOR  HN ES        051 29.23                             119   -0.82 8  233 234 
 NOR  HZ I         051 35.73         2.5 0.20            120            233 234 
 CHI  HZ EP        051  4.62                             117    0.24 8  249 195 
 CHI  HN ES        051 34.17                             117    0.31 8  249 195 
 CHI  HZ I         051 37.62         3.2 0.52            119            249 195 
 PRA  HZ EP        051 20.47                             107    0.38 6  391 209 
 PRA  HN ES        052  2.21                             107    0.39 6  391 209 
 PRA  HZ I         052  8.87         2.2 0.21            108            391 209 
 SJC  HZ EP   4    051 20.34                             106   -1.65 0  407 327 
 SJC  HE ES        052  4.27                             106   -0.93 6  407 327 
                                                                                
