 2017  113 0912 10.5 L   6.771 -73.169136.8  RSN 16 0.3 2.2LRSN                1
 GAP= 98        0.74       2.6     2.1  3.9  0.6368E-01  0.2235E+01  0.2938E+01E
 Epicentro: LOS SANTOS - SANTANDER                                             3
 ACTION:UPD 17-05-22 15:59 OP:jn   STATUS:               ID:20170113091210 L   I
 OLDACT:REG 17-01-13 13:04 OP:and  STATUS:               ID:20170113090742     3
 2017-01-13-0908-00M.COL___325                                                 6
 STAT SP IPHASW D HRMM SECON CODA AMPLIT PERI AZIMU VELO AIN AR TRES W  DIS CAZ7
 BAR2 EZ EP        912 29.05                             171    0.0910 19.9 184 
 BAR2 EZ ES        912 43.75                             171    0.3710 19.9 184 
 BAR2 EZ I         912 45.08        69.0 0.24            168           19.9 184 
 BRR  HZ EP        912 31.03                             151    0.4010 70.5 302 
 BRR  HN ES        912 46.76                             151    0.4210 70.5 302 
 BRR  HZ I         912 52.30        35.9 0.12            146           70.5 302 
 PAM  EZ EP     C  912 31.89                             148   -0.1210 81.5  40 
 PAM  EN ES        912 48.53                             148   -0.2710 81.5  40 
 PAM  EZ I         912 51.17        17.7 0.18            147           81.5  40 
 RUS  HZ EP        912 33.15                             143    0.0110 97.6 174 
 RUS  HE ES        912 50.70                             143   -0.1110 97.6 174 
 RUS  HZ I         912 52.30        21.5 0.22            139           97.6 174 
 PTB  HZ EP        912 36.09                             131   -0.35 9  145 260 
 PTB  HN ES        912 56.17                             131   -0.51 9  145 260 
 PTB  HZ I         913  0.01        21.2 0.28            125            145 260 
 TAM  HZ EP        912 37.49                             128   -0.14 9  157 104 
 TAM  HN ES        912 58.59                             128   -0.21 9  157 104 
 TAM  HZ I         912 59.96        13.0 0.32            126            157 104 
 ZAR  HZ EP        912 42.12                             120   -0.11 9  203 293 
 ZAR  HN ES        913  6.91                             120   -0.09 9  203 293 
 ZAR  HZ I         913 13.95        29.6 0.34            116            203 293 
 CHI  HZ EP        912 47.39                             116    0.10 8  245 195 
 CHI  HN ES        913 16.06                             116    0.07 8  245 195 
 CHI  HZ I         913 19.74         5.4 0.28            112            245 195 
 ROSC BZ EP   4    912 49.21                             115    1.53 0  249 211 
 ROSC BN ES   4    913 18.43                             115    1.74 0  249 211 
 ROSC BZ I         913 23.84        12.8 0.35            111            249 211 
 URE  HZ EP   4    912 48.27                             112   -2.72 0  283 293 
 URE  HN ES   4    913 17.29                             112   -5.30 0  283 293 
 URE  HZ I         913 32.61        11.1 0.14            108            283 293 
 GUY2CHZ EP        912 53.99                             111    0.75 7  297 235 
 GUY2CHN ES        913 26.38                             111   -0.21 7  297 235 
 GUY2CHZ I         913 34.35         5.6 0.28                           297 235 
 PTGC HZ EP   4    912 52.39                             110   -1.33 0  307 158 
 PTGC HN ES   4    913 23.31                             110   -4.14 0  307 158 
 PTGC HZ I         913 36.82         7.4 0.42            107            307 158 
 CBOC HZ EP   4    912 57.15                             108    0.51 0  330 252 
 CBOC HN ES        913 32.20                             108   -0.44 7  330 252 
 CBOC HZ I         913 36.88         3.1 0.30            105            330 252 
 ORTC HZ EP        913  4.15                             105    0.53 6  391 216 
 ORTC HE ES        913 44.86                             105   -0.22 6  391 216 
 ORTC HZ I         913 52.39         4.1 0.36            102            391 216 
 PAL  HZ EP        913  5.25                             105    0.35 6  402 239 
 PAL  HZ I         913 52.28         3.3 0.44            101            402 239 
 SJC  HZ EP   4    913  3.38                             104   -2.53 0  410 327 
 SJC  HE ES   4    913 36.55                             104   -12.6 0  410 327 
 SJC  HZ I         913 49.32         7.9 0.62            101            410 327 
                                                                                
