 2011  513 0127 16.7 L   6.772 -73.086147.3  RSN 20 0.5 2.5LRSN                1
 GAP=146        0.84       4.2     5.1  4.5 -0.1301E+02  0.3044E+01  0.4071E+01E
 Epicentro: LOS SANTOS - SANTANDER                                             3
 ACTION:UP  11-06-29 08:52 OP:tino STATUS:               ID:20110513012716 L   I
 2011-05-13-0124-35S.COL___141                                                 6
 STAT SP IPHASW D HRMM SECON CODA AMPLIT PERI AZIMU VELO SNR AR TRES W  DIS CAZ7
 BAR2 SZ IP        127 36.42                             171     0.010   23 208 
 BAR2 SZ ES   1    127 51.44                             171    -0.5 7   23 208 
 BAR2 SZ I         127 53.18        60.0 0.38                            23 208 
 BTL  SZ IP        127 36.68                             169     0.110   26 309 
 BTL  SZ ES   1    127 51.58                             169    -0.5 7   26 309 
 GIR2 SZ EP        127 36.53                             165    -0.110   36 341 
 GIR2 SZ ES   1    127 51.82                             165    -0.4 7   36 341 
 PAM  SZ EP        127 39.20                             151     0.210   76  34 
 PAM  SN ES   1    127 56.59                             151     0.2 7   76  34 
 BRR  HZ IP     C  127 38.39                             150     0.010   78 298 
 BRR  HN ES   1    127 55.88                             150     0.5 7   78 298 
 BRR  HZ I         127 57.57        56.8 0.06                            78 298 
 RUS  HZ EP        127 40.30                             145     0.010   97 180 
 RUS  HZ I         128  0.78        33.0 0.37                            97 180 
 BRI  SZ EP        127 41.00                             141     0.210  109  17 
 BRI  SZ ES   1    127 59.65                             141     0.1 7  109  17 
 BRI  SZ I         128  2.64        23.4 0.13                           109  17 
 GUE  SZ EP   1    127 41.74                             139     0.1 7  118   9 
 GRA  SZ IP        127 42.25                             136     0.110  127  14 
 GRA  SZ ES   1    128  1.92                             136    -0.1 7  127  14 
 GRA  SZ I         128  3.04        33.0 0.34                           127  14 
 OCA  SZ EP        127 45.22                             129    -0.3 9  164 351 
 OCA  SZ I         128 13.16        23.9 0.25                           164 351 
 NOR  SZ EP        127 52.40                             118    -0.5 8  238 236 
 NOR  SN ES   1    128 20.54                             118    -0.6 6  238 236 
 ROSC BZ EP   4    127 56.73                             117     1.8 0  254 213 
 ROSC BN ES   4    128 27.82                             117     3.0 0  254 213 
 HEL  HZ EP        127 58.02                             114     0.4 7  278 257 
 HEL  HN ES   2    128 29.27                             114    -0.2 4  278 257 
 HEL  HZ I         128 34.91        17.5 0.62                           278 257 
 GUY  SZ EP   3    128  1.46                             112     0.4 2  307 236 
 GUY  SN ES   3    128 35.17                             112    -0.4 2  307 236 
 RREF HZ EP   1    128  3.29                             111     0.1 5  325 231 
 RREF HN ES   1    128 40.29                             111     0.8 5  325 231 
 RREF HZ I         128 46.10        21.9 0.27                           325 231 
 TOL  SZ EP        128  6.10                             109     0.8 6  346 226 
 DBB  SZ EP   1    128  4.96                             109     0.0 5  346 275 
 MON  HZ EP   3    128  3.51                             108    -3.0 2  361 308 
 PRA  HZ EP        128 10.10                             106    -0.2 6  393 211 
 PRA  HN ES   3    128 52.22                             106     0.1 1  393 211 
 PRA  HZ I         128 56.29        25.8 0.10                           393 211 
 SJA  SZ EP   2    128 10.10                             106    -1.0 3  399 194 
 SJA  SZ I         128 59.62        16.8 0.17                           399 194 
 SJC  HZ EP   3    128 10.17                             105    -2.8 1  415 326 
 SJC  HZ I         128 56.01         5.3 0.41                           415 326 
                                                                                
