 2016 1213 0655  9.3 L   6.787 -73.140143.1  RSN  5 0.3 1.2LRSN                1
 GAP=138        0.81       4.3     4.2  6.0 -0.1674E+01  0.3162E+01  0.1167E+01E
 Epicentro: LOS SANTOS - SANTANDER                                             3
 ACTION:UPD 17-01-11 20:14 OP:rebc STATUS:               ID:20161213065509 L   I
 OLDACT:REG 16-12-13 13:01 OP:y    STATUS:               ID:20161213064746     3
 2016-12-13-0648-00M.COL___357                                                 6
 STAT SP IPHASW D HRMM SECON CODA AMPLIT PERI AZIMU VELO AIN AR TRES W  DIS CAZ7
 BAR2 EZ EP        655 28.40                             171   -0.1910 22.0 192 
 BAR2 EZ ES        655 43.00                             171   -0.6310 22.0 192 
 BAR2 EZ I         655 44.59         3.4 0.24            170           22.0 192 
 BRR  HZ EP        655 30.13                             152   -0.1110 72.4 299 
 BRR  HN ES        655 47.01                             152    0.4410 72.4 299 
 BRR  HZ I         655 50.88         3.0 0.13            151           72.4 299 
 PAM  EZ EP        655 31.22                             150   -0.0710 78.2  39 
 PAM  EN ES        655 48.59                             150    0.1610 78.2  39 
 RUS  HZ EP        655 32.75                             144    0.0610 99.1 176 
 RUS  HN ES        655 51.34                             144    0.4210 99.1 176 
 RUS  HZ I         655 52.73         2.3 0.30            146           99.1 176 
 PTB  HZ EP        655 36.18                             131    0.09 9  148 259 
 PTB  HE ES        655 56.80                             131   -0.17 9  148 259 
 PTB  HZ I         656  0.41         1.9 0.12            132            148 259 
                                                                                
