 2013  613 0321  2.5 L   6.755 -73.149150.2  RSN  8 0.4 2.1LRSN                1
 GAP=182        0.87       3.6     5.1  6.5  0.1431E+01 -0.3217E+00 -0.6486E+01E
 Epicentro: LOS SANTOS - SANTANDER                                             3
 ACTION:UPD 14-01-08 09:54 OP:ep   STATUS:               ID:20130613032102 L   I
 OLDACT:REG 13-06-13 07:38 OP:cam  STATUS:               ID:20130613031959     3
 2013-06-13-0319-59M.COL___260                                                 6
 STAT SP IPHASW D HRMM SECON CODA AMPLIT PERI AZIMU VELO AIN AR TRES W  DIS CAZ7
 BAR2 SZ EP        321 22.61                             173    0.0210 18.4 192 
 BAR2 SZ ES   1    321 37.67                             173   -0.58 7 18.4 192 
 BAR2 SZ I         321 38.73        22.3 0.20            177           18.4 192 
 GIR2 SZ EP        321 22.85                             166   -0.0010 36.1 352 
 BRR  HZ EP        321 24.70                             153    0.4310 73.4 302 
 BRR  HN ES        321 41.93                             153    0.7010 73.4 302 
 BRR  HZ I         321 42.76        13.0 0.16            152           73.4 302 
 RUS  HZ EP        321 26.44                             146    0.0710 95.7 176 
 RUS  HE ES        321 44.92                             146   -0.0510 95.7 176 
 RUS  HZ I         321 45.86        12.3 0.32            150           95.7 176 
 PTB  HZ EP        321 29.54                             133   -0.20 9  147 261 
 PTB  HN ES        321 50.33                             133   -0.64 9  147 261 
 PTB  HZ I         321 50.79        12.0 0.54            135            147 261 
 OCA  HZ EP   1    321 31.68                             130    0.05 7  165 353 
 OCA  HN ES   1    321 54.19                             130   -0.14 7  165 353 
 OCA  HZ I         321 57.90        14.4 0.32            129            165 353 
 NOR  HN ES   1    322  6.42                             120    0.43 6  232 235 
 SML  HZ EP        321 39.64                             118   -0.22 8  248 336 
 SML  HE ES   1    322  8.75                             118   -0.24 6  248 336 
 SML  HZ I         322 15.19        18.8 0.10            118            248 336 
                                                                                
