 2012  813 0451 43.3 L   5.951 -74.060 92.1  RSN  7 0.4 1.7LRSN                1
 GAP=151        0.84       3.5     2.5  9.4 -0.1367E+01  0.1798E+01 -0.4746E+01E
 Epicentro: LA BELLEZA - SANTANDER                                             3
 ACTION:UPD 12-09-10 11:56 OP:ep   STATUS:               ID:20120813045143 L   I
 2012-08-13-0450-00M.COL___218                                                 6
 STAT SP IPHASW D HRMM SECON CODA AMPLIT PERI AZIMU VELO AIN AR TRES W  DIS CAZ7
 PTB  HZ EP   1    451 58.77                             136   -0.87 7 78.4 326 
 PTB  HN ES   1    452 12.58                             136    0.22 7 78.4 326 
 NOR  SZ EP   1    452  1.59                             129    0.00 7 99.3 244 
 NOR  SN ES        452 15.64                             129   -0.1910 99.3 244 
 NOR  SZ I         452 16.36        27.0 0.13                          99.3 244 
 RUS  HZ EP   1    452  3.52                             127    0.47 7  108  93 
 RUS  HZ I         452  3.88         3.9 0.09                           108  93 
 RUS  HN ES        452 18.21                             127   -0.2210  108  93 
 BAR2 SZ EP   1    452  3.70                             123   -0.21 7  120  54 
 BAR2 SZ ES   1    452 20.49                             123    0.53 7  120  54 
 BAR2 SZ I         452 21.50        22.0 0.29                           120  54 
 BRR  HZ EP   1    452  4.88                             120   -0.11 7  133  17 
 BRR  HN ES        452 21.99                             120    0.1010  133  17 
 BRR  HZ I         452 24.59         8.9 0.10                           133  17 
 HEL  HZ EP   1    452  9.23                             115    0.34 7  165 279 
 HEL  HN ES   1    452 29.57                             115    0.74 7  165 279 
 HEL  HZ I         452 32.70         3.1 0.30                           165 279 
 ZAR  HE ES        452 33.25                             111   -0.26 9  192 333 
 ZAR  HZ I         452 35.01         5.7 0.11                           192 333 
                                                                                
