 2014  113 0839 17.3 L   6.828 -73.195143.8  RSN 13 0.5 2.3LRSN                1
 GAP= 68        1.09       3.1     3.4  6.3 -0.6771E+00  0.6024E+01 -0.1331E+01E
 Epicentro: ZAPATOCA - SANTANDER                                               3
 ACTION:UPD 14-03-13 09:54 OP:ep   STATUS:               ID:20140113083917 L   I
 OLDACT:UP  14-01-13 13:24 OP:cam  STATUS:               ID:20140113083739     3
 OLDACT:UP  14-01-13 13:23 OP:cam  STATUS:               ID:20140113083739     3
 OLDACT:REG 14-01-13 12:34 OP:cam  STATUS:               ID:20140113083739     3
 2014-01-13-0837-39M.COL___242                                                 6
 STAT SP IPHASW D HRMM SECON CODA AMPLIT PERI AZIMU VELO AIN AR TRES W  DIS CAZ7
 BAR2 SZ IP     C  839 36.79                             169    0.0110 26.1 177 
 BAR2 SZ ES        839 51.57                             169   -0.3810 26.1 177 
 BAR2 SZ I         839 54.51        78.8 0.26            171           26.1 177 
 PAM  SZ EP        839 39.50                             150    0.0910 78.7  44 
 PAM  SN ES        839 56.87                             150    0.2310 78.7  44 
 PAM  SZ I         839 59.94        21.7 0.46            154           78.7  44 
 RUS  HZ EP     D  839 40.73                             142   -0.4210  104 173 
 RUS  HE ES        839 59.72                             142   -0.0010  104 173 
 RUS  HZ I         840  0.79        15.6 0.28            147            104 173 
 PTB  HZ EP   1    839 43.54                             133   -0.17 7  143 257 
 PTB  HN ES        840  4.25                             133   -0.04 9  143 257 
 PTB  HZ I         840  7.07        24.7 0.16            133            143 257 
 OCA  HZ EP   1    839 45.07                             130   -0.08 7  157 355 
 OCA  HN ES        840  7.64                             130    0.80 9  157 355 
 OCA  HZ I         840 15.12        19.9 0.24            132            157 355 
 TAM  HZ EP     C  839 45.22                             129   -0.20 9  161 106 
 TAM  HN ES        840  7.05                             129   -0.28 9  161 106 
 SPBC HZ EP        839 45.75                             129    0.16 9  162 217 
 SPBC HN ES        840  8.13                             129    0.50 9  162 217 
 SPBC HZ I         840 14.67        25.4 0.22            131            162 217 
 ZAR  HZ EP   1    839 49.38                             123    0.37 6  198 292 
 ZAR  HE ES   4    840 15.20                             123    1.48 0  198 292 
 ZAR  HZ I         840 19.90        17.8 0.24            124            198 292 
 NOR  HZ EP   1    839 52.93                             118    0.27 6  232 233 
 NOR  HN ES        840 20.69                             118    0.46 8  232 233 
 NOR  HZ I         840 30.31        11.1 0.16            120            232 233 
 SML  HZ EP   1    839 53.18                             118   -0.12 6  239 336 
 SML  HN ES        840 21.25                             118   -0.11 8  239 336 
 SML  HZ I         840 28.58        22.3 0.22            119            239 336 
 CHI  HZ EP        839 55.12                             117    0.03 8  250 194 
 ROSC BZ EP   4    839 57.21                             116    1.88 0  253 210 
 ROSC BN ES   4    840 27.54                             116    2.57 0  253 210 
 HEL  HZ EP   2    839 59.06                             115    2.12 4  268 255 
 URE  HZ EP   1    839 57.35                             114   -0.26 6  278 292 
 URE  HN ES        840 27.41                             114   -1.62 7  278 292 
 GUY2CHZ EP   4    840  0.95                             112    0.40 0  299 234 
 GUY2CHE ES   4    840 39.10                             112    4.84 0  299 234 
 VIL  SZ EP   4    840  0.33                             111   -0.55 0  305 190 
 PTGC HZ EP   4    840  0.00                             111   -1.65 0  314 158 
 PTGC HN ES   4    840 33.75                             111   -2.47 0  314 158 
 RREF HZ EP   4    840  5.80                             111    2.65 0  320 228 
 CBOC HZ EP   4    840  4.47                             110    0.79 0  329 251 
 COD  HZ EP   4    840  4.68                             109   -0.54 0  345 355 
 COD  HN ES   4    840 42.54                             109   -0.04 0  345 355 
 SJC  HZ EP   4    840 11.07                             106   -1.11 0  404 327 
 SJC  HN ES   4    840 51.73                             106   -3.23 0  404 327 
                                                                                
