 2012  213 0201 44.0 L   7.451 -73.185129.6  RSN 15 0.4 2.2LRSN                1
 GAP=109        0.54       2.4     3.5  4.7 -0.1231E+01  0.5215E+01  0.1732E+00E
 ACTION:UP  12-03-07 16:30 OP:epov STATUS:               ID:20120213020144 L   I
 2012-02-13-0200-00M.COL___188                                                 6
 STAT SP IPHASW D HRMM SECON CODA AMPLIT PERI AZIMU VELO AIN AR TRES W  DIS CAZ7
 GIR2 SZ EP        2 2  2.01                             161   -0.0510 41.2 181 
 GIR2 SZ ES   2    2 2 15.96                             161   -0.22 5 41.2 181 
 PAM  SZ EP        2 2  3.45                             156    0.2710 55.0 103 
 PAM  SN ES   2    2 2 18.64                             156    0.46 5 55.0 103 
 BRR  HZ EP   1    2 2  3.16                             150   -0.12 7 69.5 237 
 BRR  HN ES   2    2 2 18.65                             150    0.29 5 69.5 237 
 BRR  HZ I         2 2 19.53        26.8 0.13                          69.5 237 
 OCA  SZ EP        2 2  4.96                             144    0.2010 88.4 350 
 OCA  SZ ES   2    2 2 21.20                             144    0.21 5 88.4 350 
 BAR2 SZ EP        2 2  5.12                             142   -0.2510 95.0 180 
 BAR2 SZ ES   2    2 2 21.41                             142   -0.66 5 95.0 180 
 BAR2 SZ I         2 2 22.73        43.2 0.42                          95.0 180 
 PTB  HZ EP   2    2 2 11.69                             123   -0.46 4  173 234 
 RUS  HZ EP   2    2 2 12.31                             124   -0.45 4  173 176 
 RUS  HN ES   2    2 2 35.16                             124   -0.06 4  173 176 
 RUS  HZ I         2 2 37.97         8.1 0.36                           173 176 
 PTB  HE ES   2    2 2 33.71                             123   -0.44 4  173 234 
 ZAR  HZ EP   2    2 2 13.09                             121   -0.27 4  185 272 
 ZAR  HN ES   2    2 2 36.51                             121    0.21 4  185 272 
 ZAR  HZ I         2 2 41.09        15.9 0.20                           185 272 
 COD  HZ EP   2    2 2 22.86                             111   -0.53 4  276 354 
 COD  HE ES   2    2 2 53.44                             111   -0.72 4  276 354 
 COD  HZ I         2 2 56.29        21.1 0.59                           276 354 
 NOR  SZ EP   2    2 2 23.70                             111   -0.18 4  280 222 
 NOR  SN ES   2    2 2 55.72                             111    0.70 4  280 222 
 HEL  HZ EP   2    2 2 26.73                             109    0.80 4  294 242 
 HEL  HZ I         2 3  6.72         5.3 0.31                           294 242 
 CHI  HZ EP   2    2 2 29.51                             108    0.80 3  318 191 
 CHI  HE ES   2    2 3  3.82                             108    0.19 3  318 191 
 CHI  HZ I         2 3 13.42         4.0 0.32                           318 191 
 DBB  SZ EP   2    2 2 30.37                             106   -0.23 3  337 262 
 RREF HZ EP   2    2 2 35.96                             105    0.88 3  370 220 
 RREF HE ES   2    2 3 14.44                             105   -0.52 3  370 220 
 RREF HZ I         2 3 23.52         9.3 0.34                           370 220 
 PRA  HZ EP   2    2 2 44.83                             101    0.46 2  454 205 
 PRA  HN ES   2    2 3 31.92                             101    0.42 2  454 205 
                                                                                
