 2015  613 0526 24.6 L   6.807 -73.167144.4  RSN  6 0.6 1.6LRSN                1
 GAP=181        1.43       5.2     8.7  9.7  0.7647E+01  0.1094E+02 -0.6618E+01E
 Epicentro: LOS SANTOS - SANTANDER                                             3
 ACTION:UPD 15-09-10 22:12 OP:cam  STATUS:               ID:20150613052624 L   I
 OLDACT:DUP 15-06-13 16:15 OP:stll STATUS:               ID:20150613051751d    3
 2015-06-13-0517-49M.COL___312                                                 6
 STAT SP IPHASW D HRMM SECON CODA AMPLIT PERI AZIMU VELO AIN AR TRES W  DIS CAZ7
 BAR2 EZ EP        526 44.09                             170    0.0510 23.8 184 
 BAR2 EZ ES        526 58.96                             170   -0.2810 23.8 184 
 BAR2 EZ I         527  0.59         9.5 0.22            166           23.8 184 
 BRR  HZ EP        526 45.90                             153    0.4710 68.8 299 
 BRR  HN ES        527  2.56                             153    0.8510 68.8 299 
 BRR  HZ I         527  6.21         6.6 0.14            149           68.8 299 
 RUS  HZ EP        526 47.44                             143   -0.8110  102 175 
 RUS  HN ES        527  6.86                             143    0.1310  102 175 
 RUS  HZ I         527  8.57         5.3 0.54            144            102 175 
 OCA  HZ EP        526 53.49                             130    0.82 9  159 354 
 OCA  HN ES        527 13.78                             130   -0.82 9  159 354 
 SPBC HZ EP        526 53.06                             129    0.18 9  162 218 
 SPBC HN ES        527 14.94                             129   -0.02 9  162 218 
 SPBC HZ I         527 21.27         8.5 0.22            128            162 218 
 ZAR  HZ EP        526 56.82                             122    0.15 9  202 292 
 ZAR  HN ES        527 20.82                             122   -0.89 9  202 292 
 ZAR  HZ I         527 27.47         4.3 0.40            122            202 292 
                                                                                
