 2011  513 0631  0.9 L   6.817 -73.112124.0  RSN  4 0.3 1.1LRSN                1
 GAP=162        0.62       4.8    10.5 13.2  0.9826E+01 -0.5531E+02 -0.2300E+02E
 Epicentro: LOS SANTOS - SANTANDER                                             3
 ACTION:UP  11-06-29 08:52 OP:tino STATUS:               ID:20110513063100 L   I
 2011-05-13-0628-04S.COL___141                                                 6
 STAT SP IPHASW D HRMM SECON CODA AMPLIT PERI AZIMU VELO SNR AR TRES W  DIS CAZ7
 BTL  SZ EP        631 18.21                             171     0.410   21 303 
 BTL  SZ ES   3    631 30.52                             171    -0.5 2   21 303 
 BRR  HZ EP        631 19.70                             149    -0.210   74 296 
 BRR  HZ I         631 22.98         3.5 0.21                            74 296 
 BRR  HN ES   3    631 34.84                             149     0.2 2   74 296 
 RUS  HZ EP        631 22.48                             140    -0.210  102 178 
 RUS  HN ES   2    631 39.91                             140     0.2 5  102 178 
 GRA  SZ EP        631 23.89                             133    -0.110  123  16 
 GRA  SZ I         631 24.33         1.5 0.83                           123  16 
                                                                                
