 2017  213 0700 52.4 L   7.038 -73.420133.1  RSN  8 0.4 1.6LRSN                1
 GAP= 99        1.09       5.1     4.0  6.6  0.3151E+01  0.5512E+01 -0.3705E+01E
 Epicentro: SAN VICENTE DE CHUCURI - SANTANDER                                 3
 ACTION:UPD 17-05-24 15:35 OP:jn   STATUS:               ID:20170213070052 L   I
 OLDACT:UP  17-02-13 18:38 OP:edw  STATUS:               ID:20170213065742     3
 OLDACT:UP  17-02-13 18:38 OP:edw  STATUS:               ID:20170213065742     3
 OLDACT:REG 17-02-13 12:03 OP:edw  STATUS:               ID:20170213065742     3
 2017-02-13-0658-00M.COL___346                                                 6
 STAT SP IPHASW D HRMM SECON CODA AMPLIT PERI AZIMU VELO AIN AR TRES W  DIS CAZ7
 BRR  HZ IP     C  7 1 10.58                             165    0.1410 33.2 283 
 BRR  HN ES        7 1 24.46                             165   -0.0310 33.2 283 
 BRR  HZ I         7 1 25.09        18.9 0.12            165           33.2 283 
 BAR2 EZ EP     C  7 1 12.02                             155    0.3110 55.8 152 
 BAR2 EZ ES        7 1 26.65                             155   -0.1010 55.8 152 
 BAR2 EZ I         7 1 29.88         7.7 0.42            157           55.8 152 
 PAM  EZ IP     D  7 1 14.44                             145    0.5410 86.2  67 
 PAM  EN ES        7 1 30.37                             145   -0.2710 86.2  67 
 PAM  EZ I         7 1 32.50         4.1 0.38            147           86.2  67 
 PTB  HZ IP   9 C  7 1 16.14                             133   -0.36 0  127 244 
 PTB  HN ES        7 1 34.14                             133   -0.7810  127 244 
 PTB  HZ I         7 1 35.72         5.6 0.28            134            127 244 
 RUS  HZ EP        7 1 17.82                             132    0.2510  132 164 
 RUS  HN ES        7 1 36.72                             132   -0.4710  132 164 
 RUS  HZ I         7 1 39.05         7.4 0.30            134            132 164 
 ZAR  HZ EP        7 1 20.15                             125   -0.06 9  167 288 
 ZAR  HN ES        7 1 41.88                             125   -0.01 9  167 288 
 ZAR  HZ I         7 1 46.40         8.7 0.46            126            167 288 
 CBOC HZ EP   4    7 1 38.05                             108    1.39 0  315 246 
 CBOC HN ES        7 2 11.54                             108    0.38 7  315 246 
 SJC  HZ EP        7 1 41.69                             105   -1.37 6  371 329 
 SJC  HN ES   4    7 2 19.16                             105   -3.40 0  371 329 
                                                                                
