 2010  713 0637 35.1 L   6.782 -73.149147.9  RSN 10 0.4 1.8LRSN                1
 GAP=158        0.94       4.5     8.7  7.6 -0.1105E+02  0.6334E+01 -0.2862E+01E
 Epicentro: LOS SANTOS - SANTANDER                                             3
 ACTION:UPD 10-12-01 15:17 OP:pat  STATUS:               ID:20100713063735 L   I
 2010-07-13-0635-17S.COL___120                                                 6
 STAT SP IPHASW D HRMM SECON CODA AMPLIT PERI AZIMU VELO AIN AR TRES W  DIS CAZ7
 BAR2 SZ EP   1    637 54.52                             172    -0.5 7   21 190 
 BAR2 SZ ES   1    638 10.34                             172    -0.1 7   21 190 
 BAR2 SZ I         638 12.35        15.2 0.32                            21 190 
 GIR2 SZ EP   2    637 54.60                             166    -0.5 5   33 351 
 BRR  HZ IP     C  637 56.32                             153    -0.210   72 300 
 BRR  HE ES   1    638 12.95                             153    -0.3 7   72 300 
 BRR  HZ I         638 16.02        12.4 0.16                            72 300 
 RUS  HZ EP   1    637 58.54                             145    -0.4 7   99 176 
 RUS  HN ES   1    638 17.61                             145     0.1 7   99 176 
 RUS  HZ I         638 18.45         6.3 0.33                            99 176 
 GUE  SZ EP   2    638  0.16                             139     0.0 5  119  12 
 GRA  SZ IP        638  1.31                             136     0.610  128  17 
 GRA  SZ ES   1    638 21.44                             136     0.7 7  128  17 
 GRA  SZ I         638 22.23         6.8 0.29                           128  17 
 OCA  SZ EP   1    638  3.66                             129    -0.1 7  162 353 
 OCA  SZ ES   2    638 25.92                             129    -0.2 5  162 353 
 OCA  SZ I         638 33.10         7.5 0.17                           162 353 
 HEL  HZ EP   2    638 16.32                             115     1.0 4  271 256 
 HEL  HZ I         638 52.96         4.0 0.47                           271 256 
 RREF HE ES   2    638 57.90                             111     0.8 3  320 230 
 RREF HZ I         639  1.77         3.6 0.26                           320 230 
 PRA  HZ EP   1    638 28.50                             107     0.0 4  390 210 
 PRA  HE ES   2    639 10.73                             107     0.6 3  390 210 
 PRA  HZ I         639 15.23         4.5 0.62                           390 210 
                                                                                
