 2014 1113 0431  5.0 L   6.430 -73.827 39.1  RSN  7 0.6 1.5LRSN                1
 GAP= 90        1.57       3.9     3.3 15.4 -0.2135E+01  0.2864E+01 -0.1907E+01E
 Epicentro: CIMITARRA - SANTANDER                                              3
 ACTION:UPD 14-12-19 15:42 OP:nd   STATUS:               ID:20141113043104 L   I
 OLDACT:UP  14-11-14 10:06 OP:CF   STATUS:               ID:20141113043104 L   3
 OLDACT:ARG 14-11-13 12:06 OP:stll STATUS:               ID:20141113042748     3
 2014-11-13-0427-48M.COL___289                                                 6
 STAT SP IPHASW D HRMM SECON CODA AMPLIT PERI AZIMU VELO AIN AR TRES W  DIS CAZ7
 PTB  HZ IP     D  431 16.60                             104   -0.3310 70.7 280 
 PTB  HN ES        431 26.52                             104    0.2710 70.7 280 
 PTB  HZ I         431 26.97        53.3 0.16            100           70.7 280 
 BAR2 SZ IP     C  431 17.31                             103   -0.2510 73.5  76 
 BAR2 SZ ES        431 26.46                             103   -0.9010 73.5  76 
 BAR2 SZ I         431 27.43        13.4 0.46             99           73.5  76 
 BRR  HZ IP     C  431 17.62                             102    0.0610 76.0  10 
 BRR  HN ES        431 27.64                             102    0.2710 76.0  10 
 BRR  HZ I         431 29.14        17.1 0.62             98           76.0  10 
 SPBC HZ IP     D  431 20.17                              99    0.7610 90.1 198 
 SPBC HN ES        431 31.30                              99    0.6410 90.1 198 
 SPBC HZ I         431 32.60        18.6 0.34             61           90.1 198 
 RUS  HZ EP     D  431 21.46                              97    0.1510  102 126 
 RUS  HN ES        431 33.41                              97   -0.6210  102 126 
 RUS  HZ I         431 35.70         8.9 0.20             61            102 126 
 PAM  SZ EP        431 29.08                              81    0.50 9  160  51 
 PAM  SN ES        431 47.53                              81    0.56 9  160  51 
 PAM  SZ I         431 50.25         5.9 0.18             61            160  51 
 HEL  HZ IP     C  431 32.41                              81    0.28 9  190 262 
 HEL  HZ I         431 32.53         2.0 0.16             61            190 262 
 HEL  HN ES        431 51.79                              81   -1.51 9  190 262 
                                                                                
