 2016  713 0443 56.7 L   6.821 -73.130150.4  RSN 24 0.5 2.6LRSN                1
 GAP= 53        1.18       3.4     3.1  4.8 -0.1878E+01  0.2545E+01 -0.3779E-01E
 Epicentro: LOS SANTOS - SANTANDER                                             3
 ACTION:UPD 17-03-29 16:50 OP:lp   STATUS:               ID:20160713044356 L   I
 OLDACT:UP  16-07-13 15:59 OP:dani STATUS:               ID:20160713043759     3
 OLDACT:UP  16-07-13 15:51 OP:dani STATUS:               ID:20160713043759     3
 OLDACT:UP  16-07-13 15:50 OP:dani STATUS:               ID:20160713043759     3
 OLDACT:UP  16-07-13 15:50 OP:dani STATUS:               ID:20160713043759     3
 OLDACT:REG 16-07-13 13:06 OP:dani STATUS:               ID:20160713043759     3
 2016-07-13-0437-59S.COL___328                                                 6
 STAT SP IPHASW D HRMM SECON CODA AMPLIT PERI AZIMU VELO AIN AR TRES W  DIS CAZ7
 BAR2 EZ EP     C  444 17.02                             170    0.0910 25.9 193 
 BAR2 EZ ES        444 32.24                             170   -0.4910 25.9 193 
 BAR2 EZ I         444 34.68       110.2 0.20            168           25.9 193 
 BRR  HZ EP        444 18.85                             153    0.4810 71.7 296 
 BRR  HN ES        444 36.08                             153    0.8010 71.7 296 
 BRR  HZ I         444 38.52        41.9 0.20            148           71.7 296 
 PAM  EZ EP        444 19.89                             152    0.6510 74.5  40 
 PAM  EE ES        444 36.71                             152   -0.1210 74.5  40 
 PAM  EZ I         444 39.43        38.1 0.56            153           74.5  40 
 RUS  HZ EP        444 20.91                             144   -0.1510  103 177 
 RUS  HE ES        444 39.32                             144   -0.7510  103 177 
 RUS  HZ I         444 40.83        39.0 0.22            143            103 177 
 PTB  HZ EP        444 23.61                             133   -0.62 9  150 258 
 PTB  HN ES        444 45.06                             133   -0.66 9  150 258 
 PTB  HZ I         444 46.74        50.0 0.46            129            150 258 
 TAM  HZ EP        444 25.20                             132    0.56 9  154 106 
 TAM  HN ES        444 46.94                             132    0.49 9  154 106 
 TAM  HZ I         444 48.22        20.1 0.46            132            154 106 
 SPBC HZ EP        444 25.95                             130    0.13 9  166 219 
 SPBC HE ES        444 48.51                             130   -0.03 9  166 219 
 SPBC HZ I         444 51.97        73.5 0.30            127            166 219 
 ZAR  HZ EP        444 29.89                             123    0.37 9  205 291 
 ZAR  HN ES        444 55.37                             123    0.24 9  205 291 
 ZAR  HZ I         445  0.54        34.9 0.40            120            205 291 
 NOR  HZ EP        444 32.94                             119   -0.05 8  237 234 
 NOR  HE ES        445  1.09                             119   -0.21 8  237 234 
 NOR  HZ I         445  6.45        43.6 0.32            116            237 234 
 CHI  HZ EP        444 35.07                             118    0.13 8  251 195 
 CHI  HN ES        445  4.38                             118   -0.39 8  251 195 
 CHI  HZ I         445 10.04        16.4 0.28            116            251 195 
 ROSC BZ EP   9    444 36.80                             117    1.42 0  256 211 
 ROSC BN ES        445  7.49                             117    0.51 8  256 211 
 ROSC BZ I         445 14.84        51.6 0.35            115            256 211 
 HEL  HZ EP   4    444 38.37                             115    0.98 0  274 255 
 HEL  HE ES   4    445  8.23                             115   -0.91 0  274 255 
 HEL  HZ I         445 17.58        20.7 0.28            113            274 255 
 URE  HZ EP        444 37.55                             114   -0.52 7  285 291 
 URE  HZ I         445 16.66        24.5 0.15            112            285 291 
 SOCV BZ EP        444 39.63                             113   -0.02 7  299  57 
 SOCV BN ES   4    445 10.11                             113   -3.05 0  299  57 
 GUY2CHZ EP        444 41.70                             113    0.87 7  304 235 
 GUY2CHN ES   4    445 18.51                             113    3.26 0  304 235 
 GUY2CHZ I         445 23.42        35.2 0.30                           304 235 
 PTGC HZ EP        444 39.98                             112   -0.95 7  310 159 
 PTGC HE ES   4    445 12.93                             112   -2.51 0  310 159 
 PTGC HZ I         445 15.44        10.9 0.20            111            310 159 
 LL6C HZ EP        444 42.15                             111   -0.19 7  323 357 
 CBOC HZ EP        444 44.75                             111    0.68 7  336 252 
 CBOC HN ES        445 20.71                             111   -0.32 7  336 252 
 CBOC HZ I         445 30.29         7.7 0.70            108            336 252 
 ANIL HZ EP   4    444 48.28                             109    1.27 0  360 224 
 ANIL HE ES        445 26.98                             109    0.73 6  360 224 
 ANIL HZ I         445 34.91        43.6 0.38            107            360 224 
 PRA  HZ EP        444 50.52                             107   -0.19 6  395 210 
 PRA  HN ES   4    445 32.00                             107   -0.84 0  395 210 
 PRA  HZ I         445 39.46        25.3 0.74            106            395 210 
 SJC  HZ EP        444 51.04                             106   -1.25 6  408 327 
 SJC  HN ES   4 D  445 32.80                             106   -2.86 0  408 327 
 SJC  HZ I         445 36.36         4.3 0.28            105            408 327 
 PAL  HZ EP        444 52.68                             106    0.36 6  408 239 
 PAL  HE ES        445 36.10                             106    0.39 6  408 239 
 PAL  HZ I         445 41.63         9.5 0.46            105            408 239 
 CRJC HZ EP        444 57.49                             104   -1.55 5  465   3 
 CRJC HE ES   4    445 45.83                             104   -1.84 0  465   3 
 CRJC HZ I         445 46.75         5.6 0.24            103            465   3 
 YOT  HZ EP        445  0.33                             104    0.13 5  475 229 
                                                                                
