 2012  413 0642  6.7 L   6.786 -73.125143.1  RSN 15 0.4 2.7LRSN                1
 GAP=116        0.90       3.1     3.6  5.7 -0.1700E+01  0.4875E+01  0.4246E+01E
 Epicentro: LOS SANTOS - SANTANDER                                             3
 ACTION:UP  12-07-05 11:53 OP:tino STATUS:               ID:20120413064206 L   I
 2012-04-13-0640-00M.COL___181                                                 6
 STAT SP IPHASW D HRMM SECON CODA AMPLIT PERI AZIMU VELO AIN AR TRES W  DIS CAZ7
 BAR2 SZ IP        642 26.25                             171     0.210   22 197 
 BAR2 SZ ES   1    642 40.53                             171    -0.6 7   22 197 
 BAR2 SZ I         642 42.60       126.7 0.27                            22 197 
 BRR  HZ IP     C  642 28.08                             151     0.310   74 299 
 BRR  HE ES   1    642 45.00                             151     0.8 7   74 299 
 BRR  HZ I         642 49.19       100.3 0.11                            74 299 
 PAM  SZ EP        642 29.11                             150     0.410   77  37 
 PAM  SN ES   1    642 46.02                             150     0.3 7   77  37 
 PTB  HZ EP   1    642 32.88                             131    -0.8 7  150 260 
 PTB  HN ES   1    642 53.98                             131    -0.7 7  150 260 
 PTB  HZ I         643  1.44        46.3 0.50                           150 260 
 OCA  SZ EP   1    642 34.91                             129    -0.1 7  162 352 
 OCA  SZ ES   1    642 56.76                             129    -0.3 7  162 352 
 YOP  SZ EP   1    642 36.39                             126     0.0 7  177 154 
 YOP  SN ES   1    642 58.66                             126    -0.8 7  177 154 
 ZAR  HZ EP   1    642 38.97                             121    -0.3 6  207 292 
 ZAR  HN ES   1    643  4.12                             121    -0.6 6  207 292 
 ZAR  HZ I         643 10.04        68.9 0.61                           207 292 
 NOR  SZ EP   1    642 42.63                             118     0.2 6  236 235 
 NOR  SE ES   1    643 10.58                             118     0.3 6  236 235 
 CHI  HZ EP   1    642 43.79                             117    -0.4 6  248 196 
 CHI  HN ES   1    643 13.88                             117     0.5 6  248 196 
 CHI  HZ I         643 21.17        26.7 0.66                           248 196 
 HEL  HZ EP   1    642 47.17                             114     0.1 6  274 256 
 HEL  HN ES   1    643 18.39                             114    -0.1 6  274 256 
 HEL  HZ I         643 25.41        25.6 0.56                           274 256 
 GUY  SZ EP   1    642 50.84                             112     0.2 5  305 236 
 GUY  SN ES   1    643 25.09                             112     0.3 5  305 236 
 GUY  SZ I         643 31.97        39.9 0.48                           305 236 
 RREF HZ EP        642 53.13                             110     0.3 7  323 230 
 RREF HN ES        643 28.83                             110     0.0 7  323 230 
 RREF HZ I         643 40.34        33.8 0.36                           323 230 
 DBB  SZ EP   1    642 54.37                             109     0.0 5  342 274 
 COD  HZ EP   1    642 54.96                             108    -0.3 5  350 354 
 COD  HN ES   2    643 32.49                             108    -0.5 3  350 354 
 COD  HZ I         643 42.91        13.7 0.84                           350 354 
 PRA  HZ EP        642 59.95                             106    -0.2 6  392 210 
 PRA  HE ES   1    643 42.21                             106     0.4 4  392 210 
                                                                                
