 2017  313 0621  4.1 L   6.763 -73.143148.4  RSN  6 0.3 1.2LRSN                1
 GAP=139        0.69       3.1     3.1  6.7 -0.7025E+00  0.1668E+01  0.8159E+00E
 Epicentro: LOS SANTOS - SANTANDER                                             3
 ACTION:UPD 17-05-25 18:39 OP:jn   STATUS:               ID:20170313062104 L   I
 OLDACT:UP  17-03-13 17:13 OP:cog  STATUS:               ID:20170313061745     3
 OLDACT:REG 17-03-13 14:25 OP:cog  STATUS:               ID:20170313061745     3
 2017-03-13-0618-00M.COL___381                                                 6
 STAT SP IPHASW D HRMM SECON CODA AMPLIT PERI AZIMU VELO AIN AR TRES W  DIS CAZ7
 BRR  HZ EP        621 25.76                             152    0.1010 73.5 301 
 BRR  HN ES        621 42.82                             152    0.3410 73.5 301 
 BRR  HZ I         621 58.87         5.4 0.66            153           73.5 301 
 PAM  EZ EP        621 26.63                             150   -0.1510 80.4  38 
 PAM  EN ES        621 44.16                             150   -0.3010 80.4  38 
 PAM  EZ I         621 45.26         1.8 0.18            155           80.4  38 
 RUS  HZ EP        621 28.11                             145    0.2910 96.5 176 
 RUS  HN ES        621 46.52                             145    0.1910 96.5 176 
 RUS  HZ I         621 47.51         1.2 0.34            155           96.5 176 
 PTB  HZ EP   4    621 28.68                             133   -2.56 0  147 260 
 PTB  HN ES        621 52.34                             133   -0.07 9  147 260 
 PTB  HZ I         621 53.73         2.7 0.52            138            147 260 
 SPBC HN ES        621 54.21                             130   -0.48 9  160 220 
 ZAR  HE ES        622  2.49                             123   -0.00 8  206 293 
                                                                                
