 2016  813 0602 41.5 L   5.934 -74.142 13.8  RSN  5 0.5 0.8LRSN                1
 GAP=114        1.26       2.8     3.7  7.9  0.1602E+01  0.1610E+02 -0.2471E+01E
 Epicentro: LA BELLEZA - SANTANDER                                             3
 ACTION:UPD 16-10-29 15:35 OP:rebc STATUS:               ID:20160813055760 L   I
 OLDACT:UP  16-08-13 16:40 OP:dani STATUS:               ID:20160813055760 L   3
 OLDACT:UPD 16-08-13 16:15 OP:dani STATUS:               ID:20160813055760 L   3
 2016-08-13-0557-59S.COL___346                                                 6
 STAT SP IPHASW D HRMM SECON CODA AMPLIT PERI AZIMU VELO AIN AR TRES W  DIS CAZ7
 SPBC HZ EP        6 2 47.31                             110    0.0510 32.1 166 
 SPBC HE ES        6 2 51.97                             110    0.1810 32.1 166 
 SPBC HZ I         6 2 54.42         4.0 0.10                          32.1 166 
 PTB  HZ EP        6 2 53.42                              98   -0.1810 75.5 333 
 PTB  HE ES        6 3  2.44                              98   -0.6410 75.5 333 
 PTB  HZ I         6 3  2.74         5.3 0.23                          75.5 333 
 RUS  HZ EP        6 3  0.61                              95    0.2110  117  92 
 RUS  HE ES        6 3 14.28                              95   -0.9010  117  92 
 RUS  HZ I         6 3 15.53         2.2 0.22                           117  92 
 BRR  HZ EP        6 3  3.73                              94    0.69 9  138  20 
 BRR  HN ES        6 3 20.47                              94    0.60 9  138  20 
 BRR  HZ I         6 3 22.78         2.6 0.24                           138  20 
 HEL  HZ EP        6 3  6.26                              56    0.42 9  156 281 
 HEL  HN ES        6 3 24.55                              56   -0.31 9  156 281 
 HEL  HZ I         6 3 30.83         1.3 0.34                           156 281 
                                                                                
