 2014  113 0911  7.2 L   6.827 -73.162141.2  RSN  7 0.4 1.8LRSN                1
 GAP=133        0.94       3.7     4.4  7.5 -0.1364E+01  0.1036E+02 -0.9470E+01E
 Epicentro: LOS SANTOS - SANTANDER                                             3
 ACTION:UPD 14-03-13 09:54 OP:ep   STATUS:               ID:20140113091107 L   I
 OLDACT:UP  14-01-13 12:06 OP:cam  STATUS:               ID:20140113091000     3
 OLDACT:REG 14-01-13 08:00 OP:cam  STATUS:               ID:20140113091000     3
 2014-01-13-0910-00M.COL___285                                                 6
 STAT SP IPHASW D HRMM SECON CODA AMPLIT PERI AZIMU VELO AIN AR TRES W  DIS CAZ7
 BAR2 SZ EP   1    911 26.37                             169    0.04 7 26.1 185 
 BAR2 SZ ES        911 40.91                             169   -0.3510 26.1 185 
 PAM  SZ EP        911 29.19                             150    0.3410 76.3  42 
 PAM  SN ES        911 46.08                             150    0.3310 76.3  42 
 PAM  SZ I         911 48.59        11.2 0.52            152           76.3  42 
 RUS  HZ EP   1    911 30.82                             142    0.10 7  104 175 
 RUS  HN ES        911 49.00                             142   -0.0810  104 175 
 RUS  HZ I         911 50.65         3.8 0.24            146            104 175 
 PTB  HZ EP   1    911 33.24                             131   -0.44 7  147 258 
 PTB  HN ES        911 54.13                             131   -0.22 9  147 258 
 PTB  HZ I         911 56.12         8.1 0.28            132            147 258 
 OCA  HZ EP   1    911 35.12                             129    0.28 7  157 354 
 OCA  HN ES        911 56.12                             129   -0.29 9  157 354 
 OCA  HZ I         911 59.34         6.9 0.26            130            157 354 
 ZAR  HN ES        912  4.86                             122    0.96 9  201 292 
 ZAR  HZ I         912  9.59         6.2 0.24            123            201 292 
 SML  HZ EP        911 42.79                             117   -0.39 8  240 335 
 SML  HE ES   1    912 10.54                             117   -0.71 6  240 335 
 SML  HZ I         912 14.18         7.9 0.10            118            240 335 
                                                                                
