 2012  813 0433 23.2 L   6.831 -73.145147.8  RSN 12 0.5 2.5LRSN                1
 GAP=105        1.03       4.4     3.6  7.3  0.9861E+00  0.7904E+01  0.1286E+02E
 Epicentro: LOS SANTOS - SANTANDER                                             3
 ACTION:UPD 12-09-10 11:56 OP:ep   STATUS:               ID:20120813043323 L   I
 2012-08-13-0430-00M.COL___218                                                 6
 STAT SP IPHASW D HRMM SECON CODA AMPLIT PERI AZIMU VELO AIN AR TRES W  DIS CAZ7
 BAR2 SZ IP        433 42.81                             169   -0.2910 26.7 189 
 BAR2 SZ ES   1    433 58.70                             169    0.04 7 26.7 189 
 BAR2 SZ I         433 59.58       112.0 0.27                          26.7 189 
 BRR  HZ EP        433 44.71                             153    0.2610 69.7 296 
 BRR  HE ES   1    434  1.93                             153    0.88 7 69.7 296 
 BRR  HZ I         434  5.06        90.3 0.16                          69.7 296 
 PAM  SZ EP   1    433 45.62                             152    0.19 7 74.7  41 
 PAM  SE ES        434  2.85                             152    0.0410 74.7  41 
 PAM  SZ I         434  4.73        23.5 0.31                          74.7  41 
 RUS  HZ EP   1    433 46.69                             143   -0.66 7  104 176 
 RUS  HN ES   2    434  5.42                             143   -0.80 5  104 176 
 RUS  HZ I         434  6.65        30.6 0.39                           104 176 
 PTB  HZ EP   1    433 49.51                             132   -0.86 7  149 258 
 PTB  HN ES        434 10.78                             132   -0.80 9  149 258 
 PTB  HZ I         434 15.56        26.5 0.24                           149 258 
 TAM  HN ES        434 12.75                             131   -0.09 9  156 106 
 YOP  SZ EP   1    433 53.28                             126   -0.36 7  182 154 
 YOP  SE ES   1    434 18.29                             126    0.87 7  182 154 
 YOP  SZ I         434 20.52        25.4 0.34                           182 154 
 ZAR  HZ EP   1    433 55.44                             123   -0.18 6  203 291 
 ZAR  HE ES   2    434 20.95                             123    0.01 4  203 291 
 ZAR  HZ I         434 27.94        62.8 0.27                           203 291 
 NOR  SZ EP   1    433 58.73                             119   -0.50 6  237 234 
 NOR  SN ES   1    434 27.82                             119    0.46 6  237 234 
 NOR  SZ I         434 34.87        23.2 0.41                           237 234 
 CHI  HZ EP   1    434  1.90                             117    0.57 6  252 195 
 CHI  HN ES        434 31.20                             117    0.10 8  252 195 
 CHI  HZ I         434 36.08        15.8 0.27                           252 195 
 HEL  HZ EP   1    434  4.65                             115    1.07 6  273 255 
 HEL  HN ES   1    434 35.85                             115    0.74 6  273 255 
 HEL  HZ I         434 40.20        14.9 0.33                           273 255 
 PRA  HZ EP   1    434 17.54                             107    0.44 4  395 209 
 PRA  HE ES        434 59.38                             107    0.20 6  395 209 
 PRA  HZ I         435  2.48        17.3 0.66                           395 209 
                                                                                
