 2015  213 0655 15.3 L   6.786 -73.156138.0  RSN 12 0.4 1.7LRSN                1
 GAP=136        0.92       2.3     3.6  5.0 -0.9893E+00  0.5877E+01  0.5806E+00E
 Epicentro: LOS SANTOS - SANTANDER                                             3
 ACTION:UPD 15-04-30 21:25 OP:nd   STATUS:               ID:20150213065515 L   I
 OLDACT:DUP 15-02-13 18:47 OP:fm   STATUS:               ID:20150213064747d    3
 2015-02-13-0647-46M.COL___290                                                 6
 STAT SP IPHASW D HRMM SECON CODA AMPLIT PERI AZIMU VELO AIN AR TRES W  DIS CAZ7
 BAR2 EZ EP        655 34.41                             171    0.4510 21.6 188 
 BAR2 EZ ES        655 48.49                             171   -0.0210 21.6 188 
 BAR2 EZ I         655 49.93         9.5 0.28            170           21.6 188 
 BRR  HZ EP     C  655 36.26                             151    0.6710 71.0 300 
 BRR  HE ES        655 51.71                             151    0.2810 71.0 300 
 BRR  HZ I         655 58.24         6.9 0.14            150           71.0 300 
 PAM  SZ EP        655 37.12                             148    0.3110 79.4  39 
 PAM  SE ES        655 53.38                             148   -0.2210 79.4  39 
 PAM  SZ I         655 56.50         7.7 0.52            152           79.4  39 
 RUS  HZ EP        655 38.21                             142    0.0310 99.1 175 
 RUS  HE ES        655 55.54                             142   -0.4910 99.1 175 
 RUS  HZ I         655 58.45         3.2 0.44            145           99.1 175 
 PTB  HZ EP        655 41.51                             130    0.01 9  146 259 
 PTB  HN ES        656  1.36                             130   -0.59 9  146 259 
 PTB  HZ I         656  5.17         9.3 0.12            131            146 259 
 SPBC HZ EP        655 43.41                             127    0.39 9  161 219 
 SPBC HE ES        656  4.76                             127    0.12 9  161 219 
 SPBC HZ I         656  8.63         5.9 0.26            129            161 219 
 OCA  HE ES        656  4.31                             127   -0.57 9  162 354 
 OCA  HZ I         656  5.64         6.8 0.38            129            162 354 
 ZAR  HZ EP        655 47.47                             120    0.27 9  204 293 
 ZAR  HN ES        656 12.45                             120    0.37 9  204 293 
 ZAR  HZ I         656 17.92        14.1 0.88            122            204 293 
 SML  HZ EP        655 51.04                             115   -0.56 8  245 336 
 SML  HE ES        656 19.71                             115   -0.21 8  245 336 
 SML  HZ I         656 29.81         6.7 0.10            117            245 336 
 CHI  HZ EP   1    655 51.89                             115   -0.48 6  247 195 
 CHI  HN ES        656 21.36                             115    0.07 8  247 195 
 CHI  HZ I         656 31.45         1.7 0.38            118            247 195 
 GUY2CHZ EP        655 58.25                             111   -0.09 7  299 235 
 GUY2CHE ES        656 31.89                             111   -0.03 7  299 235 
 GUY2CHZ I         656 41.00         1.6 0.32                           299 235 
 TOL  SE ES        656 39.64                             108   -0.61 7  342 225 
                                                                                
