 2014  213 0946  6.4 L   6.798 -73.149147.1  RSN  9 0.4 1.7LRSN                1
 GAP=196        0.92       2.7     5.2  6.0 -0.1176E+01  0.4185E+01  0.1312E+01E
 Epicentro: LOS SANTOS - SANTANDER                                             3
 ACTION:UPD 14-03-10 08:10 OP:ep   STATUS:               ID:20140213094606 L   I
 OLDACT:DUP 14-02-13 10:12 OP:carl STATUS:               ID:20140213094002d    3
 2014-02-13-0940-00M.COL___199                                                 6
 STAT SP IPHASW D HRMM SECON CODA AMPLIT PERI AZIMU VELO AIN AR TRES W  DIS CAZ7
 BAR2 SZ EP        946 26.17                             171   -0.0510 23.0 189 
 BAR2 SZ ES        946 41.54                             171   -0.1110 23.0 189 
 BAR2 SZ I         946 45.35        11.0 0.38            168           23.0 189 
 PTB  HZ EP        946 32.76                             132   -0.71 9  147 259 
 PTB  HN ES        946 54.32                             132   -0.24 9  147 259 
 PTB  HZ I         947  0.18         6.9 0.42            132            147 259 
 OCA  HN ES        946 57.21                             130    0.16 9  160 353 
 SPBC HZ EP        946 35.18                             129    0.18 9  163 219 
 SPBC HE ES        946 57.43                             129    0.16 9  163 219 
 SPBC HZ I         947  4.55         5.5 0.24            130            163 219 
 ZAR  HZ EP        946 38.50                             123   -0.44 9  204 292 
 ZAR  HE ES        947  4.09                             123   -0.21 9  204 292 
 ZAR  HZ I         947 11.15         4.3 0.40            124            204 292 
 NOR  HZ EP        946 42.32                             119    0.13 8  234 234 
 NOR  HE ES        947 10.72                             119    0.64 8  234 234 
 NOR  HZ I         947 13.96         4.2 0.18            120            234 234 
 SML  HZ EP        946 42.64                             118   -0.51 8  244 335 
 SML  HN ES        947 12.77                             118    0.99 8  244 335 
 SML  HZ I         947 18.52         4.5 0.26            120            244 335 
 CHI  HZ EP        946 44.51                             117    0.34 8  248 195 
 CHI  HN ES        947 13.43                             117   -0.17 8  248 195 
 CHI  HZ I         947 19.64         1.6 0.36            120            248 195 
 PRA  HZ EP        947  0.10                             107    0.15 6  392 210 
 PRA  HN ES        947 41.92                             107    0.22 6  392 210 
 PRA  HZ I         947 47.33         1.4 0.30            109            392 210 
                                                                                
