 2010  913 0705 29.2 L   6.766 -73.054141.0  RSN 12 0.5 2.4LRSN                1
 GAP=169        1.23       4.2     8.2  7.9 -0.1536E+02  0.1431E+02  0.3905E+01E
 Epicentro: LOS SANTOS - SANTANDER                                             3
 ACTION:UP  11-02-18 11:02 OP:tino STATUS:               ID:20100913070529 L   I
 2010-09-13-0703-55S.COL___120                                                 6
 STAT SP IPHASW D HRMM SECON CODA AMPLIT PERI AZIMU VELO SNR AR TRES W  DIS CAZ7
 BAR2 SZ IP        7 5 48.26                             170     0.010   24 217 
 BAR2 SZ ES   1    7 6  3.23                             170     0.1 7   24 217 
 BAR2 SZ I         7 6  4.60       120.5 0.11                            24 217 
 BRR  HZ IP     D  7 5 50.19                             148    -0.310   82 297 
 BRR  HN ES   1    7 6  6.88                             148    -0.2 7   82 297 
 BRR  HZ I         7 6  9.02        71.2 0.18                            82 297 
 RUS  HZ EP        7 5 52.12                             144     0.010   97 182 
 RUS  HN ES   1    7 6 10.15                             144     0.1 7   97 182 
 RUS  HZ I         7 6 11.66        22.6 0.48                            97 182 
 GUE  SZ EP        7 5 53.29                             138    -0.310  119   7 
 GRA  SZ IP     D  7 5 55.16                             136     1.110  127  13 
 GRA  SZ I         7 5 56.39        29.9 0.50                           127  13 
 GRA  SZ ES   1    7 6 13.69                             136     0.2 7  127  13 
 OCA  SZ EP        7 5 56.77                             128    -0.8 9  165 350 
 OCA  SZ ES   1    7 6 19.52                             128    -0.3 7  165 350 
 OCA  SZ I         7 6 22.03        53.2 0.32                           165 350 
 CHI  HZ EP        7 6  6.34                             116    -0.2 8  248 198 
 CHI  HN ES   1    7 6 35.39                             116    -0.3 6  248 198 
 CHI  HZ I         7 6 38.90        14.5 0.43                           248 198 
 ROSC BZ EP        7 6  8.16                             115     0.9 8  255 213 
 ROSC BE ES   1    7 6 36.41                             115    -0.6 6  255 213 
 HEL  HZ EP        7 6 10.02                             113    -0.1 7  281 257 
 HEL  HZ I         7 6 47.36        13.9 0.48                           281 257 
 GUY  SZ EP        7 6 13.36                             111     0.1 7  308 237 
 GUY  SN ES   1    7 6 49.11                             111     1.4 5  308 237 
 RREF HZ EP        7 6 15.81                             110     0.1 7  327 231 
 RREF HN ES   1    7 6 51.97                             110    -0.1 5  327 231 
 PRA  HZ EP        7 6 22.15                             106    -0.6 6  394 211 
 PRA  HN ES   1    7 7  3.81                             106    -0.7 4  394 211 
                                                                                
