 2016 1013 0247 42.7 L   6.803 -73.149142.8  RSN 19 0.4 2.0LRSN                1
 GAP= 71        1.00       2.7     3.2  4.7 -0.1520E+01  0.2868E+01  0.1856E+01E
 Epicentro: LOS SANTOS - SANTANDER                                             3
 ACTION:UPD 16-11-09 19:19 OP:rebc STATUS:               ID:20161013024742 L   I
 OLDACT:UP  16-10-13 15:47 OP:ar   STATUS:               ID:20161013023743     3
 OLDACT:UP  16-10-13 15:44 OP:ar   STATUS:               ID:20161013023743     3
 OLDACT:REG 16-10-13 12:38 OP:y    STATUS:               ID:20161013023743     3
 2016-10-13-0238-00M.COL___363                                                 6
 STAT SP IPHASW D HRMM SECON CODA AMPLIT PERI AZIMU VELO AIN AR TRES W  DIS CAZ7
 BAR2 EZ EP        248  1.68                             170   -0.2910 23.6 189 
 BAR2 EZ ES        248 16.43                             170   -0.5710 23.6 189 
 BAR2 EZ I         248 18.44        25.0 0.16            168           23.6 189 
 BRR  HZ EP        248  3.78                             152    0.2910 70.7 298 
 BRR  HN ES        248 20.52                             152    0.8110 70.7 298 
 BRR  HZ I         248 25.05        15.2 0.16            153           70.7 298 
 PAM  EZ EP        248  4.82                             150    0.2310 77.4  40 
 PAM  EN ES        248 21.80                             150    0.1310 77.4  40 
 PAM  EZ I         248 24.00        27.3 0.52            143           77.4  40 
 RUS  HZ EP        248  6.29                             143    0.1110  101 176 
 RUS  HN ES        248 24.89                             143    0.3910  101 176 
 RUS  HZ I         248 25.59        12.7 0.26            139            101 176 
 PTB  HZ EP        248  8.61                             131   -0.78 9  147 259 
 PTB  HE ES        248 29.64                             131   -0.57 9  147 259 
 PTB  HZ I         248 32.45        10.5 0.14            130            147 259 
 TAM  HZ EP        248 10.28                             130    0.10 9  156 105 
 TAM  HZ I         248 45.95         9.7 0.43            123            156 105 
 OCA  HZ EP        248 10.23                             129   -0.51 9  160 353 
 OCA  HN ES        248 32.68                             129    0.07 9  160 353 
 OCA  HZ I         248 35.23        19.9 0.20            125            160 353 
 SPBC HZ EP        248 10.73                             128   -0.24 9  163 219 
 SPBC HN ES        248 33.01                             128   -0.01 9  163 219 
 SPBC HZ I         248 37.72        22.1 0.26            126            163 219 
 ZAR  HZ EP        248 14.58                             122   -0.32 9  204 292 
 ZAR  HN ES        248 39.72                             122   -0.29 9  204 292 
 ZAR  HZ I         248 45.24         9.5 0.50            119            204 292 
 NOR  HZ EP        248 18.17                             118   -0.07 8  235 234 
 NOR  HN ES        248 46.14                             118    0.18 8  235 234 
 NOR  HZ I         248 48.45         8.2 0.16            115            235 234 
 CHI  HZ EP        248 20.31                             116    0.05 8  249 195 
 CHI  HE ES        248 49.35                             116   -0.20 8  249 195 
 CHI  HZ I         248 53.14         7.2 0.58            113            249 195 
 ROSC BZ EP   9    248 22.57                             116    1.90 0  253 211 
 ROSC BN ES        248 52.48                             116    0.30 8  253 211 
 ROSC BZ I         248 55.76        11.4 0.45            113            253 211 
 HEL  HZ EP        248 23.71                             114    0.98 8  272 256 
 HEL  HN ES        248 54.12                             114    0.17 8  272 256 
 HEL  HZ I         249  0.01         6.2 0.28            112            272 256 
 GUY2CHZ EP        248 27.06                             112    0.91 7  301 235 
 GUY2CHE ES   4    249  1.92                             112    1.87 0  301 235 
 GUY2CHZ I         249  8.20         5.5 0.32                           301 235 
 PTGC HZ EP   4    248 25.05                             111   -1.42 0  309 159 
 PTGC HE ES   4    248 58.35                             111   -2.27 0  309 159 
 PTGC HZ I         249  1.12         6.4 0.38            107            309 159 
 CBOC HZ EP        248 29.40                             109   -0.06 7  333 252 
 CBOC HN ES   2    249  6.72                             109    0.79 3  333 252 
 CBOC HZ I         249 10.04         1.7 0.18            107            333 252 
 PRA  HZ EP        248 35.80                             106   -0.33 6  392 209 
 PRA  HE ES        249 17.72                             106   -0.08 6  392 209 
 PRA  HZ I         249 22.10         4.4 0.22            103            392 209 
 SJC  HZ EP   4    248 36.01                             105   -2.09 0  409 327 
 SJC  HN ES   4    249 17.23                             105   -4.09 0  409 327 
 SJC  HZ I         249 25.03         2.2 0.44            102            409 327 
 SOL  EN E      C  249 53.07                                            475 263 
                                                                                
