 2011 1213 0808 42.9 L   6.820 -73.198146.4  RSN  6 0.3 1.7LRSN                1
 GAP=129        0.60       4.4     4.7  6.4 -0.6727E+01  0.9050E+01 -0.8695E+01E
 Epicentro: ZAPATOCA - SANTANDER                                               3
 ACTION:UPD 12-07-13 16:15 OP:ep   STATUS:               ID:20111213080842 L   I
 2011-12-13-0806-44S.COL___148                                                 6
 STAT SP IPHASW D HRMM SECON CODA AMPLIT PERI AZIMU VELO AIN AR TRES W  DIS CAZ7
 BAR2 SZ EP   1    8 9  2.79                             170    0.12 7 25.3 176 
 BAR2 SZ ES   1    8 9 18.21                             170    0.14 7 25.3 176 
 BAR2 SZ I         8 9 19.82        11.0 0.66                          25.3 176 
 GIR2 SZ EP   1    8 9  3.32                             168    0.72 7 28.6   1 
 PAM  SZ EP   1    8 9  5.27                             150   -0.07 7 79.5  44 
 PAM  SN ES   1    8 9 22.60                             150   -0.22 7 79.5  44 
 RUS  HZ EP   1    8 9  6.72                             143   -0.22 7  103 173 
 RUS  HE ES   1    8 9 25.54                             143   -0.13 7  103 173 
 PTB  HZ EP   1    8 9  9.58                             133    0.10 7  143 257 
 PTB  HN ES   1    8 9 29.99                             133   -0.20 7  143 257 
 OCA  SZ EP   1    8 9 10.70                             130   -0.32 7  157 355 
 OCA  SZ I         8 9 37.52         7.2 0.24                           157 355 
                                                                                
