 2013  313 0814 34.2 L   6.639 -73.255149.9  RSN  5 0.4 1.6LRSN                1
 GAP=167        0.83       9.7     9.1  8.9  0.4953E+02  0.2556E+02  0.1921E+02E
 Epicentro: BARICHARA - SANTANDER                                              3
 ACTION:UPD 13-04-09 14:02 OP:ep   STATUS:               ID:20130313081434 L   I
 2013-03-13-0810-00M.COL___231                                                 6
 STAT SP IPHASW D HRMM SECON CODA AMPLIT PERI AZIMU VELO AIN AR TRES W  DIS CAZ7
 BAR2 SZ EP   1    814 54.02                             176   -0.09 7 9.55 123 
 BAR2 SZ ES   1    815  9.14                             176   -0.52 7 9.55 123 
 BAR2 SZ I         815 10.51        14.6 0.44            171           9.55 123 
 BRR  HZ EP        814 55.87                             153    0.0310 72.3 316 
 BRR  HN ES   1    815 13.05                             153    0.32 7 72.3 316 
 BRR  HZ I         815 17.43         3.5 0.38            151           72.3 316 
 RUS  HZ EP   1    814 58.01                             149    0.73 7 84.7 167 
 RUS  HE ES   2    815 15.42                             149    0.12 5 84.7 167 
 RUS  HN I         815 17.43         4.2 0.26            150           84.7 167 
 PTB  HZ EP        814 59.71                             136   -0.5210  133 265 
 PTB  HN ES   2    815 20.88                             136    0.33 5  133 265 
 PTB  HN I         815 27.16         6.5 0.50            134            133 265 
 ZAR  HN ES   2    815 32.34                             124    0.53 4  201 298 
 ZAR  HN I         815 34.41         4.2 0.18            125            201 298 
                                                                                
