 2010  613 0438 20.9 L   6.743 -73.058144.8  RSN  7 0.3 1.4LRSN                1
 GAP=167        0.66       3.6    14.9  6.1 -0.3131E+02  0.2389E+01 -0.2234E+01E
 Epicentro: JORDAN - SANTANDER                                                 3
 ACTION:UP  10-08-24 10:10 OP:vdl  STATUS:               ID:20100613043820 L   I
 2010-06-13-0436-36S.COL___114                                                 6
 STAT SP IPHASW D HRMM SECON CODA AMPLIT PERI AZIMU VELO SNR AR TRES W  DIS CAZ7
 BAR2 SZ EP   1    438 40.48                             171     0.1 7   22 220 
 BAR2 SZ ES   1    438 55.39                             171    -0.2 7   22 220 
 RUS  HZ EP        438 44.36                             145     0.310   94 182 
 RUS  HN ES   1    439  1.99                             145    -0.2 7   94 182 
 RUS  HZ I         439  4.31         3.2 0.45                            94 182 
 BRI  SZ EP        438 44.93                             140     0.010  111  15 
 BRI  SZ ES   1    439  4.06                             140     0.4 7  111  15 
 GRA  SZ IP        438 46.23                             136    -0.110  129  13 
 GRA  SZ ES   1    439  5.95                             136    -0.3 7  129  13 
 OCA  SZ EP   2    438 48.99                             128    -0.9 5  168 350 
 OCA  SZ ES   2    439 13.08                             128     0.6 5  168 350 
 OCA  SZ I         439 15.62         4.0 0.32                           168 350 
 CHI  HZ EP   2    438 58.43                             117     0.2 4  245 198 
 CHI  HZ I         439 31.44         1.8 0.43                           245 198 
 HEL  HZ EP   3    439  1.94                             114     0.0 2  280 258 
 HEL  HZ I         439 38.75         1.3 0.33                           280 258 
                                                                                
