 2017 1013 0715 46.3 L   6.850 -73.164144.2  RSN  4 0.4 1.5LRSN                1
 GAP=244        0.88       9.2     6.8  8.3  0.3347E+02  0.3051E+01 -0.2931E+02E
 Epicentro: ZAPATOCA - SANTANDER                                               3
 *URI                                                                          3
 ACTION:UPD 17-11-07 19:31 OP:rebc STATUS:               ID:20171013071546 L   I
 OLDACT:DUP 17-10-13 19:12 OP:leo  STATUS:               ID:20171013070642d    3
 OLDACT:UP  17-10-13 19:07 OP:leo  STATUS:               ID:20171013070640d    3
 OLDACT:UP  17-10-13 19:06 OP:leo  STATUS:               ID:20171013070640d    3
 OLDACT:DUP 17-10-13 19:00 OP:leo  STATUS:               ID:20171013070640d    3
 2017-10-13-0707-00M.COL___426                                                 6
 STAT SP IPHASW D HRMM SECON CODA AMPLIT PERI AZIMU VELO AIN AR TRES W  DIS CAZ7
 BAR2 EZ EP        716  5.79                             168   -0.1010 28.6 184 
 BAR2 EZ ES        716 20.93                             168   -0.2210 28.6 184 
 BAR2 EZ I         716 22.56         6.7 0.28            170           28.6 184 
 RUS  HZ EP        716 10.26                             142   -0.0910  106 175 
 RUS  HN ES        716 29.62                             142    0.5410  106 175 
 RUS  HZ I         716 30.57         3.1 0.34            146            106 175 
 PTB  HZ EP        716 12.65                             132   -0.44 9  147 257 
 PTB  HN ES        716 33.70                             132   -0.27 9  147 257 
 PTB  HZ I         716 36.87         2.7 0.66            132            147 257 
 ZAR  HZ EP        716 18.76                             122    0.49 9  200 291 
 ZAR  HN ES   2    716 43.89                             122    0.71 4  200 291 
 ZAR  HZ I         716 49.18         5.1 0.32            123            200 291 
                                                                                
