 2013  513 0227 58.5 L   6.766 -73.141141.9  RSN 12 0.5 2.1LRSN                1
 GAP=139        1.16       4.5     5.8  6.5 -0.5383E+01  0.1122E+02  0.5047E+01E
 Epicentro: LOS SANTOS - SANTANDER                                             3
 ACTION:UPD 13-06-20 09:49 OP:ep   STATUS:               ID:20130513022758 L   I
 OLDACT:UP  13-05-20 05:58 OP:CAM  STATUS:               ID:20130513022758 L   3
 2013-05-13-0220-00M.COL___256                                                 6
 STAT SP IPHASW D HRMM SECON CODA AMPLIT PERI AZIMU VELO AIN AR TRES W  DIS CAZ7
 BAR2 SZ EP        228 17.65                             172    0.0910 19.8 193 
 BAR2 SZ ES        228 32.24                             172   -0.2210 19.8 193 
 BAR2 SZ I         228 33.74        37.0 0.16            175           19.8 193 
 GIR2 SZ EP        228 17.79                             165    0.0010 35.1 350 
 GIR2 SZ ES   1    228 33.13                             165    0.27 7 35.1 350 
 GIR2 SZ I         228 34.73        17.8 0.38            154           35.1 350 
 BRR  HZ EP        228 19.78                             151    0.4510 73.5 301 
 BRR  HN ES   1    228 36.11                             151    0.50 7 73.5 301 
 BRR  HZ I         228 40.96        32.5 0.12            140           73.5 301 
 PAM  SZ IP     D  228 20.52                             149    0.0910 80.0  38 
 PAM  SN ES   1    228 37.50                             149   -0.06 7 80.0  38 
 PAM  SZ I         228 39.88        26.3 0.68            139           80.0  38 
 RUS  HZ EP        228 21.64                             144    0.0710 96.8 176 
 RUS  HE ES   1    228 39.90                             144    0.32 7 96.8 176 
 RUS  HZ I         228 41.32        13.8 0.28            142           96.8 176 
 PTB  HZ EP        228 24.47                             131   -0.64 9  148 260 
 PTB  HN ES   1    228 45.16                             131   -0.73 7  148 260 
 PTB  HZ I         228 48.16        17.1 0.32            123            148 260 
 OCA  HZ EP   4    228 25.91                             128   -0.93 0  164 353 
 OCA  HN ES   4    228 47.82                             128   -1.15 0  164 353 
 OCA  HZ I         228 52.10        17.1 0.30            118            164 353 
 NOR  HZ EP        228 34.23                             118    0.44 8  233 235 
 NOR  HN ES   1    229  1.62                             118    0.28 6  233 235 
 NOR  HZ I         229  4.15         8.3 0.16            112            233 235 
 CHI  HZ EP        228 35.35                             117   -0.22 8  245 196 
 CHI  HN ES        229  3.59                             117   -0.93 8  245 196 
 CHI  HZ I         229 11.29         2.4 0.26            111            245 196 
 SML  HZ EP        228 34.11                             116   -1.16 8  247 336 
 SML  HZ I         229  9.90        13.9 0.24            108            247 336 
 HEL  HZ EP        228 39.71                             114    1.27 8  272 257 
 HEL  HN ES   1    229  9.44                             114   -0.19 6  272 257 
 HEL  HZ I         229 16.67         5.1 0.44            108            272 257 
 PRA  HZ EP        228 52.18                             106    0.67 6  389 210 
 PRA  HN ES   1    229 32.97                             106    0.09 4  389 210 
 PRA  HZ I         229 38.32         4.0 0.28            101            389 210 
                                                                                
