 2013 1113 0702 31.4 L   6.326 -73.639105.6  RSN  5 0.5 1.3LRSN                1
 GAP= 85        1.12       4.5     4.7 10.2 -0.5947E+00  0.1276E+02 -0.8306E+00E
 Epicentro: SANTA HELENA DEL OPON - SANTANDER                                  3
 ACTION:UPD 14-01-09 16:27 OP:ep   STATUS:               ID:20131113070231 L   I
 OLDACT:REG 13-11-13 08:22 OP:nd   STATUS:               ID:20131113070000     3
 2013-11-13-0700-00M.COL___276                                                 6
 STAT SP IPHASW D HRMM SECON CODA AMPLIT PERI AZIMU VELO AIN AR TRES W  DIS CAZ7
 BAR2 SZ IP     C  7 2 47.96                             149    0.1110 58.5  60 
 BAR2 SZ ES        7 3  1.06                             149    0.3710 58.5  60 
 BAR2 SZ I         7 3  2.29        11.0 0.26            154           58.5  60 
 RUS  HZ EP   2    7 2 48.59                             141   -0.99 5 78.0 128 
 RUS  HN ES        7 3  3.33                             141   -0.4310 78.0 128 
 RUS  HZ I         7 3  6.12         3.8 0.28            153           78.0 128 
 BRR  HZ EP        7 2 49.55                             137   -0.0410 86.8 355 
 BRR  HN ES        7 3  3.86                             137    0.0710 86.8 355 
 BRR  HZ I         7 3 19.02         2.9 0.38            140           86.8 355 
 SPBC HZ EP        7 2 50.81                             137    0.9410 88.6 213 
 SPBC HN ES        7 3  4.22                             137   -0.0710 88.6 213 
 SPBC HZ I         7 3  8.80         4.3 0.18            147           88.6 213 
 PTB  HZ EP        7 2 49.69                             135   -0.4910 93.5 285 
 PTB  HN ES        7 3  4.63                             135   -0.2110 93.5 285 
 PTB  HZ I         7 3  7.05         4.6 0.28            140           93.5 285 
                                                                                
