 2015  813 0555 56.3 L   6.713 -73.103135.4  RSN  4 0.3 1.4LRSN                1
 GAP=270        0.84       5.5     6.9  7.4  0.6489E+01  0.1643E+02 -0.4462E+01E
 Epicentro: JORDAN - SANTANDER                                                 3
 ACTION:UPD 15-09-15 23:01 OP:cam  STATUS:               ID:20150813055556 L   I
 OLDACT:DUP 15-08-13 17:16 OP:mh   STATUS:               ID:20150813054749d    3
 2015-08-13-0547-48M.COL___337                                                 6
 STAT SP IPHASW D HRMM SECON CODA AMPLIT PERI AZIMU VELO AIN AR TRES W  DIS CAZ7
 BAR2 EZ EP        556 15.00                             173    0.4210 16.0 213 
 BAR2 EZ ES        556 28.43                             173   -0.3810 16.0 213 
 BAR2 EZ I         556 31.22         4.0 0.48            168           16.0 213 
 BRR  HZ EP        556 17.04                             147    0.1110 80.2 303 
 BRR  HN ES        556 33.12                             147    0.1210 80.2 303 
 BRR  HZ I         556 33.89         6.1 0.32            146           80.2 303 
 SPBC HN ES        556 45.01                             127    0.06 9  159 222 
 SPBC HZ I         556 48.26         2.9 0.18            127            159 222 
 ZAR  HZ EP        556 28.33                             119   -0.66 8  212 294 
 ZAR  HN ES        556 54.66                             119    0.21 8  212 294 
 ZAR  HZ I         556 58.60         3.5 0.48            119            212 294 
                                                                                
