 2017  813 0725  6.0 L   6.758 -73.053144.1  RSN 10 0.4 1.5LRSN                1
 GAP=244        0.99       4.0     5.4  6.9  0.5144E+01  0.9994E+01  0.4204E+01E
 Epicentro: LOS SANTOS - SANTANDER                                             3
 ACTION:UPD 17-09-04 20:19 OP:rebc STATUS:               ID:20170813072506 L   I
 OLDACT:DUP 17-08-13 16:59 OP:dhb  STATUS:               ID:20170813071741d    3
 OLDACT:REG 17-08-13 12:22 OP:dhb  STATUS:               ID:20170813071740     3
 2017-08-13-0718-00M.COL___404                                                 6
 STAT SP IPHASW D HRMM SECON CODA AMPLIT PERI AZIMU VELO AIN AR TRES W  DIS CAZ7
 BRR  HZ IP     C  725 27.26                             149   -0.3710 82.4 298 
 BRR  HN ES        725 44.44                             149   -0.0710 82.4 298 
 BRR  HZ I         725 47.93         4.2 0.17            145           82.4 298 
 RUS  HZ EP        725 29.26                             145    0.0210 95.8 182 
 RUS  HN ES        725 47.76                             145    0.3910 95.8 182 
 SPBC HZ IP     C  725 34.39                             128   -0.28 9  166 223 
 SPBC HE ES        725 56.59                             128   -0.45 9  166 223 
 SPBC HZ I         726  3.10         3.4 0.12            127            166 223 
 ZAR  HZ EP        725 39.57                             120    0.07 8  215 292 
 ZAR  HE ES        726  6.28                             120    0.65 8  215 292 
 ZAR  HZ I         726  9.79         5.6 0.30            120            215 292 
 NOR  HZ EP        725 41.40                             117   -0.86 8  241 237 
 NOR  HN ES        726  9.74                             117   -0.80 8  241 237 
 CHI  HN ES        726 13.19                             117    0.55 8  247 198 
 HEL  HZ EP        725 47.83                             114    0.72 7  281 257 
 HEL  HN ES   1    726 19.64                             114    0.46 6  281 257 
 HEL  HZ I         726 24.28         2.1 0.47            114            281 257 
 GUY2CHZ EP        725 50.26                             112    0.07 7  307 237 
 GUY2CHN ES        726 24.55                             112   -0.10 7  307 237 
 GUY2CHZ I         726 31.99         1.7 0.29                           307 237 
 CBOC HE ES        726 31.41                             109    0.32 7  342 253 
 CBOC HZ I         726 42.36         0.6 0.55            109            342 253 
 PRA  HZ EP        725 59.84                             106    0.24 6  393 211 
 PRA  HE ES        726 41.67                             106    0.26 6  393 211 
 PRA  HZ I         726 48.41         1.0 0.49            107            393 211 
                                                                                
