 2017  613 0607  6.5 L   6.752 -73.162147.0  RSN  4 0.4 1.4LRSN                1
 GAP=277        0.85       5.2     9.1  8.6  0.5080E+01 -0.1555E+02  0.4186E+01E
 Epicentro: LOS SANTOS - SANTANDER                                             3
 ACTION:UPD 17-09-14 16:51 OP:jn   STATUS:               ID:20170613060706 L   I
 OLDACT:UP  17-07-05 17:00 OP:nlst STATUS:               ID:20170613060706 L   3
 OLDACT:UP  17-06-13 15:44 OP:dani STATUS:               ID:20170613055739d    3
 OLDACT:UP  17-06-13 15:44 OP:dani STATUS:               ID:20170613055739d    3
 OLDACT:UP  17-06-13 15:44 OP:dani STATUS:               ID:20170613055739d    3
 OLDACT:UP  17-06-13 15:43 OP:dani STATUS:               ID:20170613055739d    3
 OLDACT:DUP 17-06-13 15:41 OP:dani STATUS:               ID:20170613055739d    3
 2017-06-13-0558-00M.COL___356                                                 6
 STAT SP IPHASW D HRMM SECON CODA AMPLIT PERI AZIMU VELO AIN AR TRES W  DIS CAZ7
 BRR  HZ EP        6 7 27.79                             152   -0.0410 72.4 303 
 BRR  HN ES        6 7 44.48                             152    0.0010 72.4 303 
 BRR  HZ I         6 7 47.72         3.4 0.30            146           72.4 303 
 PTB  HZ EP   1    6 7 32.47                             133   -0.83 7  145 261 
 PTB  HE ES   1    6 7 53.77                             133   -0.45 7  145 261 
 PTB  HZ I         6 7 56.04         2.8 0.21            129            145 261 
 SPBC HZ EP        6 7 35.06                             130    0.48 9  158 220 
 SPBC HN ES        6 7 56.52                             130    0.02 9  158 220 
 SPBC HZ I         6 8  0.34         3.1 0.11            129            158 220 
 ZAR  HZ EP        6 7 38.94                             122   -0.11 9  204 294 
 ZAR  HN ES        6 8  4.89                             122    0.44 9  204 294 
 ZAR  HZ I         6 8 12.92         2.3 0.17            121            204 294 
                                                                                
