 2017  313 0713 38.8 L   6.227 -73.856100.8  RSN  4 0.3 1.1LRSN                1
 GAP=124        0.47       2.8     2.5  6.0 -0.9697E+00  0.1178E+01 -0.8757E-01E
 Epicentro: LANDAZURI - SANTANDER                                              3
 ACTION:UPD 17-05-25 18:39 OP:jn   STATUS:               ID:20170313071338 L   I
 OLDACT:DUP 17-03-13 17:22 OP:cog  STATUS:               ID:20170313070648d    3
 2017-03-13-0707-00M.COL___378                                                 6
 STAT SP IPHASW D HRMM SECON CODA AMPLIT PERI AZIMU VELO AIN AR TRES W  DIS CAZ7
 SPBC HZ EP        713 55.37                             143    0.1510 67.9 201 
 SPBC HE ES        714  7.95                             143   -0.0710 67.9 201 
 SPBC HZ I         714 10.08         3.5 0.14            148           67.9 201 
 PTB  HZ EP        713 55.50                             140   -0.1410 74.9 298 
 PTB  HN ES        714  8.78                             140    0.0210 74.9 298 
 PTB  HZ I         714 12.31         3.7 0.12            143           74.9 298 
 BAR2 EZ ES        714 10.84                             137    0.1110 84.7  62 
 BAR2 EZ I         714 11.67         9.1 0.32            143           84.7  62 
 RUS  HZ EP   3    713 57.97                             134    0.16 2 93.2 113 
 RUS  HN ES   3    714 11.35                             134   -1.29 2 93.2 113 
 RUS  HZ I         714 12.62         1.8 0.16            141           93.2 113 
                                                                                
