 2015  213 0737 33.6 L   6.814 -73.130148.7  RSN 25 0.4 2.6LRSN                1
 GAP= 71        0.83       2.0     2.3  3.7 -0.9193E+00  0.1203E+01  0.5710E+00E
 Epicentro: LOS SANTOS - SANTANDER                                             3
 ACTION:UPD 15-04-30 21:25 OP:nd   STATUS:               ID:20150213073733 L   I
 OLDACT:REG 15-02-13 12:49 OP:fm   STATUS:               ID:20150213072746     3
 2015-02-13-0727-46M.COL___290                                                 6
 STAT SP IPHASW D HRMM SECON CODA AMPLIT PERI AZIMU VELO AIN AR TRES W  DIS CAZ7
 BAR2 EZ EP        737 53.53                             170   -0.1010 25.2 193 
 BAR2 EZ ES   1    738  9.30                             170    0.05 7 25.2 193 
 BAR2 EZ I         738 10.00       119.3 0.14            168           25.2 193 
 BRR  HZ IP     C  737 55.45                             153    0.3310 72.0 297 
 BRR  HN ES        738 12.47                             153    0.5710 72.0 297 
 BRR  HZ I         738 16.47        59.6 0.34            152           72.0 297 
 PAM  SZ EP        737 56.35                             152    0.3410 75.1  39 
 PAM  SN ES        738 13.58                             152    0.1010 75.1  39 
 PAM  SZ I         738 15.65        77.9 0.54            147           75.1  39 
 RUS  HZ EP        737 57.47                             144   -0.2810  102 177 
 RUS  HE ES   1    738 16.19                             144   -0.40 7  102 177 
 RUS  HZ I         738 17.10        47.9 0.24            139            102 177 
 PTB  HZ EP        738  0.44                             132   -0.56 9  150 258 
 PTB  HE ES        738 22.32                             132   -0.04 9  150 258 
 PTB  HZ I         738 26.09        52.4 0.20            130            150 258 
 TAM  HZ IP     D  738  1.79                             131    0.38 9  154 106 
 TAM  HZ I         738 23.48        19.9 0.68            125            154 106 
 TAM  HN ES   1    738 23.52                             131    0.43 7  154 106 
 OCA  HZ EP   1    738  1.66                             131   -0.37 7  159 352 
 OCA  HN ES        738 23.60                             131   -0.59 9  159 352 
 OCA  HZ I         738 27.70        83.4 0.20            126            159 352 
 SPBC HZ EP        738  2.45                             129   -0.10 9  165 219 
 SPBC HE ES        738 24.88                             129   -0.25 9  165 219 
 SPBC HZ I         738 30.66        75.8 0.14            126            165 219 
 ZAR  HZ EP        738  6.27                             123   -0.08 9  205 292 
 ZAR  HN ES        738 31.91                             123    0.02 9  205 292 
 ZAR  HZ I         738 37.56        41.5 0.30            120            205 292 
 NOR  HZ EP        738  9.82                             119    0.06 8  237 234 
 NOR  HN ES        738 37.96                             119    0.01 8  237 234 
 NOR  HZ I         738 44.36        34.2 0.24            115            237 234 
 SML  HZ EP        738 10.00                             118   -0.33 8  243 335 
 SML  HN ES   1    738 38.88                             118   -0.09 6  243 335 
 SML  HZ I         738 40.88        53.7 0.08            115            243 335 
 CHI  HZ EP        738 11.75                             117    0.07 8  251 195 
 CHI  HN ES        738 40.68                             117   -0.70 8  251 195 
 CHI  HZ I         738 45.57        17.6 0.76            114            251 195 
 ROSC BZ EP        738 13.00                             117    0.87 8  255 211 
 ROSC BE ES   4    738 43.56                             117    1.38 0  255 211 
 ROSC BZ I         738 45.81        44.6 0.35            113            255 211 
 GUY2CHZ EP   1    738 17.68                             113    0.06 5  303 235 
 GUY2CHE ES   1    738 51.86                             113   -0.08 5  303 235 
 GUY2CHZ I         739  1.91        21.7 0.46                           303 235 
 PTGC HZ EP   4    738 16.54                             112   -1.15 0  310 159 
 PTGC HN ES   4    738 49.83                             112   -2.24 0  310 159 
 PTGC HZ I         738 54.80        19.4 0.30            108            310 159 
 RREF HZ EP        738 20.81                             111    0.66 7  324 229 
 RREF HN ES        738 56.59                             111    0.15 7  324 229 
 RREF HZ I         739  5.08        26.1 0.26            108            324 229 
 CBOC HZ EP        738 21.38                             110    0.49 7  336 252 
 CBOC HE ES        738 58.02                             110    0.25 7  336 252 
 CBOC HZ I         739  3.72         8.1 0.53            107            336 252 
 DBB  SZ EP   1    738 21.22                             110   -0.17 5  341 274 
 DBB  SZ ES   1    738 57.60                             110   -1.06 5  341 274 
 DBB  SZ I         739  1.76        50.8 0.32            107            341 274 
 TOL  SZ EP   4    738 23.27                             110    1.02 0  346 225 
 TOL  SN ES   4    739  2.42                             110    2.23 0  346 225 
 TOL  SZ I         739  7.79        18.0 0.72            107            346 225 
 ARGC HZ EP        738 23.75                             109    0.47 6  358 340 
 ARGC HE ES        739  2.46                             109    0.44 6  358 340 
 ARGC HZ I         739  7.09        11.1 0.22            106            358 340 
 SDV  BZ EP        738 23.09                             109   -0.41 6  358  50 
 SDV  BE ES   1    739  1.53                             109   -0.88 5  358  50 
 SDV  BZ I         739  2.90         7.2 0.30            105            358  50 
 ANIL HN ES   4    739  4.57                             109    1.63 0  360 225 
 ANIL HZ I         739 11.38         4.2 0.24            106            360 225 
 PRA  HZ EP        738 27.03                             107   -0.46 6  394 210 
 ORTC HZ EP        738 28.09                             107    0.19 6  398 216 
 SMAR HZ EP   1    738 39.34                             103   -0.09 3  496 346 
 SMAR HN ES   4    739 27.09                             103   -3.68 0  496 346 
 URI  HZ EP   4    738 44.05                             101   -2.40 0  555  13 
                                                                                
