 2017 1213 0946 48.9 L   6.394 -73.516110.1  RSN 13 0.6 1.9LRSN                1
 GAP= 60        1.32       3.3     3.0  7.2 -0.9177E+00  0.1559E+01 -0.7761E+00E
 Epicentro: CONTRATACION - SANTANDER                                           3
 ACTION:UPD 18-01-04 13:20 OP:rebc STATUS:               ID:20171213094648 L   I
 OLDACT:UP  17-12-13 19:21 OP:leo  STATUS:               ID:20171213093747d    3
 OLDACT:DUP 17-12-13 19:07 OP:leo  STATUS:               ID:20171213093747d    3
 2017-12-13-0938-00M.COL___434                                                 6
 STAT SP IPHASW D HRMM SECON CODA AMPLIT PERI AZIMU VELO AIN AR TRES W  DIS CAZ7
 BAR2 EZ EP     C  947  5.39                             157    0.4310 42.9  59 
 BAR2 EZ ES        947 17.72                             157    0.2110 42.9  59 
 SPBC HZ EP        947  8.50                             134   -0.4410  103 217 
 SPBC HN ES        947 24.63                             134    0.0410  103 217 
 SPBC HZ I         947 29.63        20.7 0.24            134            103 217 
 PTB  HZ EP        947  8.25                             133   -0.8210  105 279 
 PTB  HN ES        947 23.81                             133   -1.0210  105 279 
 PTB  HZ I         947 28.52        10.6 0.28            132            105 279 
 PAM  EZ EP        947 12.94                             125    0.10 9  138  41 
 PAM  EZ I         947 34.95         8.9 0.38            124            138  41 
 YPLC HZ EP        947 15.35                             119    0.03 9  167 131 
 YPLC HN ES        947 36.53                             119    0.57 9  167 131 
 YPLC HZ I         947 38.60         9.1 0.36            119            167 131 
 TAM  HZ EP        947 17.01                             115   -0.84 9  191  89 
 TAM  HN ES        947 40.76                             115    0.30 9  191  89 
 TAM  HZ I         947 42.43         8.1 0.30            115            191  89 
 ZAR  HZ EP        947 18.26                             115    0.37 9  192 309 
 ZAR  HE ES        947 40.35                             115   -0.19 9  192 309 
 ZAR  HZ I         947 47.66        13.8 0.24            114            192 309 
 OCA  HZ EP        947 18.93                             113   -0.65 9  205   6 
 OCA  HN ES        947 43.83                             113    0.29 9  205   6 
 GUY2CHE EP        947 24.74                             109    0.54 8  242 238 
 GUY2CHN ES        947 52.61                             109    0.85 8  242 238 
 GUY2CHZ I         948  1.11         6.3 0.38                           242 238 
 CBOC HZ EP        947 29.06                             106    0.56 7  282 258 
 CBOC HN ES        948  0.43                             106    1.01 7  282 258 
 CBOC HZ I         948  4.70         2.4 0.50            106            282 258 
 PTGC HZ EP   2    947 27.53                             105   -1.30 4  287 148 
 PTGC HN ES   2    947 57.76                             105   -2.24 4  287 148 
 DRL03HZ EP        947 34.20                             102    0.11 7  332   1 
 DRL03HN ES        948  9.66                             102    0.29 7  332   1 
 PRA  HZ EP        947 34.35                             102    0.02 7  333 207 
 PRA  HE ES        948  9.95                             102    0.16 7  333 207 
 PRA  HZ I         948 14.90         7.0 0.24            102            333 207 
                                                                                
