 2011  313 0228 35.4 L   6.807 -73.212141.6  RSN 14 0.5 3.0LRSN                1
 GAP=100        1.05       3.4     5.3  8.2 -0.2115E+01  0.1613E+02  0.2744E+00E
 Epicentro: ZAPATOCA - SANTANDER                                               3
 ACTION:UP  11-06-16 14:33 OP:jfem STATUS:               ID:20110313022834 L   I
 2011-03-13-0226-31S.COL___134                                                 6
 STAT SP IPHASW D HRMM SECON CODA AMPLIT PERI AZIMU VELO SNR AR TRES W  DIS CAZ7
 BAR2 SZ EP   1    228 54.34                             169    -0.2 8   24 172 
 BAR2 SZ ES   1    229  9.74                             169     0.3 8   24 172 
 BAR2 SZ I         229 12.19       213.1 0.36                            24 172 
 RUS  HZ EP   1    228 58.30                             142    -0.6 8  102 172 
 RUS  HN ES   1    229 17.06                             142    -0.1 8  102 172 
 RUS  HZ I         229 19.29       103.0 0.34                           102 172 
 GUE  SZ EP   1    229  0.51                                     0.7 8  117  16 
 GRA  SZ IP        229  1.15                                     0.710  127  21 
 GRA  SZ I         229 25.36        80.2 0.40                           127  21 
 OCA  SZ EP   1    229  2.55                             130    -0.7 7  159 356 
 OCA  SZ ES        229 24.67                             130    -0.310  159 356 
 OCA  SZ I         229 29.24       121.9 0.31                           159 356 
 YOP  SZ EP   1    229  5.11                             125    -0.5 7  183 151 
 YOP  SN ES   1    229 29.24                             125     0.1 7  183 151 
 YOP  SZ I         229 31.27        84.1 0.34                           183 151 
 NOR  SZ EP   1    229 10.22                             118    -0.1 6  229 233 
 NOR  SE ES   1    229 37.52                             118     0.0 6  229 233 
 CHI  HZ EP   1    229 12.68                             116    -0.1 6  248 193 
 CHI  HE ES   1    229 41.47                             116    -0.4 6  248 193 
 CHI  HZ I         229 45.35        58.7 0.35                           248 193 
 HEL  HZ EP   1    229 14.63                             115     0.0 6  265 255 
 HEL  HN ES   1    229 45.33                             115     0.1 6  265 255 
 HEL  HZ I         229 54.55        74.9 0.39                           265 255 
 GUY  SZ EP   3    229 17.58                             112    -0.6 2  296 234 
 GUY  SZ I         230  0.73       104.3 0.32                           296 234 
 DBB  SZ EP   1    229 21.77                             109    -0.1 5  332 274 
 DBB  SZ ES   1    229 57.46                             109    -0.6 5  332 274 
 TOL  SZ EP        229 24.20                             109     1.2 7  339 224 
 MON  HZ EP   4    229 21.30                             108    -2.2 0  346 309 
 SDV  BZ EP   3    229 23.94                             108    -2.0 2  366  51 
 PRA  HZ EP   1    229 27.96                             106    -0.5 5  389 209 
 PRA  HE ES   1    230 10.05                             106     0.2 5  389 209 
                                                                                
