 2012  213 0948 17.3 L   7.032 -72.965  4.0  RSN  8 0.5 1.9LRSN                1
 GAP=145        0.90       3.3     3.2  6.9 -0.2544E+01  0.5366E+01  0.2009E+01E
 ACTION:UP  12-03-07 16:30 OP:epov STATUS:               ID:20120213094817 L   I
 2012-02-13-0940-00M.COL___188                                                 6
 STAT SP IPHASW D HRMM SECON CODA AMPLIT PERI AZIMU VELO AIN AR TRES W  DIS CAZ7
 GIR2 SZ IP        948 21.43                              47   -0.5510 25.8 282 
 GIR2 SZ ES   2    948 24.69                              47   -0.91 5 25.8 282 
 PAM  SZ IP        948 25.22                              47   -0.0110 44.9  41 
 PAM  SE ES   2    948 31.10                              47   -0.29 5 44.9  41 
 BAR2 SZ EP   1    948 26.07                              47   -0.32 7 54.2 206 
 BAR2 SZ ES   2    948 32.72                              47   -0.74 5 54.2 206 
 BAR2 SZ I         948 33.54        78.3 0.22                          54.2 206 
 BRR  HZ IP     D  948 31.24                              47    0.7510 83.0 276 
 BRR  HZ I         948 31.52        57.8 0.12                          83.0 276 
 BRR  HE ES   2    948 40.47                              47   -0.29 5 83.0 276 
 RUS  HZ EP   1    948 38.02                              47    0.39 7  127 186 
 RUS  HZ I         948 38.48        17.1 0.13                           127 186 
 RUS  HN ES   2    948 53.12                              47   -0.34 5  127 186 
 PTB  HZ EP   1    948 44.90                              47    0.65 7  174 252 
 PTB  HN ES   2    949  5.50                              47    0.26 4  174 252 
 ZAR  HZ EP   2    948 49.68                              37    0.19 4  215 284 
 ZAR  HN ES   2    949 14.58                              37    0.00 4  215 284 
 ZAR  HZ I         949 19.82         5.9 0.60                           215 284 
 NOR  SN ES   2    949 26.29                              37    0.30 4  266 232 
                                                                                
