 2011 1213 0051 10.6 L   6.801 -73.095139.2  RSN  4 0.4 1.5LRSN                1
 GAP=143        0.75       7.9     5.6  9.5 -0.1978E+02  0.1437E+01  0.1104E+02E
 Epicentro: LOS SANTOS - SANTANDER                                             3
 ACTION:UPD 12-07-13 16:15 OP:ep   STATUS:               ID:20111213005110 L   I
 2011-12-13-0050-00M.COL___186                                                 6
 STAT SP IPHASW D HRMM SECON CODA AMPLIT PERI AZIMU VELO AIN AR TRES W  DIS CAZ7
 PAM  SZ EP        051 32.23                             151    0.3610 73.8  36 
 PAM  SN ES   1    051 47.90                             151   -0.59 7 73.8  36 
 BRR  HZ EP   1    051 31.14                             149   -0.17 7 76.2 296 
 BRR  HE ES   1    051 47.97                             149    0.48 7 76.2 296 
 BRR  HZ I         051 51.87         6.0 0.23                          76.2 296 
 RUS  HN ES   2    051 51.82                             142    0.14 5  100 179 
 PTB  HZ EP   1    051 37.27                             129   -0.26 7  153 259 
 PTB  HN ES   1    051 58.32                             129   -0.24 7  153 259 
                                                                                
