 2013  513 0048 49.6 L   6.764 -73.186145.7  RSN  5 0.5 1.6LRSN                1
 GAP=133        1.24       8.1     6.9 10.7 -0.6790E+01  0.4267E+01  0.2674E+01E
 Epicentro: VILLANUEVA - SANTANDER                                             3
 ACTION:UPD 13-06-20 09:49 OP:ep   STATUS:               ID:20130513004849 L   I
 2013-05-13-0040-00M.COL___256                                                 6
 STAT SP IPHASW D HRMM SECON CODA AMPLIT PERI AZIMU VELO AIN AR TRES W  DIS CAZ7
 BAR2 SZ EP        049  9.25                             172    0.1410 19.0 179 
 BAR2 SZ ES   1    049 24.03                             172   -0.33 7 19.0 179 
 BAR2 SZ I         049 25.30         8.5 0.18            172           19.0 179 
 BRR  HZ EP        049 11.38                             153    0.7710 69.5 303 
 BRR  HN ES   1    049 27.92                             153    0.89 7 69.5 303 
 PAM  SZ EP        049 12.15                             149    0.0110 83.3  40 
 PAM  SN ES   1    049 28.94                             149   -0.81 7 83.3  40 
 PAM  SZ I         049 31.12         7.0 0.46            152           83.3  40 
 RUS  HZ EP        049 13.06                             145    0.0010 97.0 173 
 RUS  HN ES   1    049 31.82                             145    0.44 7 97.0 173 
 RUS  HZ I         049 33.08         5.1 0.32            146           97.0 173 
 PTB  HZ EP        049 15.47                             133   -0.60 9  143 260 
 PTB  HN ES        049 36.19                             133   -0.56 9  143 260 
 PTB  HZ I         049 40.71         5.4 0.16            134            143 260 
                                                                                
