 2012  613 0540 41.6 L   7.336 -74.118 16.9  RSN  6 0.3 1.4LRSN                1
 GAP=119        0.60       2.3     5.7 10.7  0.5340E+01 -0.5835E+02 -0.1066E+02E
 Epicentro: PUERTO WILCHES - SANTANDER                                         3
 ACTION:UPD 12-08-06 17:49 OP:ep   STATUS:               ID:20120613054041 L   I
 2012-06-13-0540-00M.COL___201                                                 6
 STAT SP IPHASW D HRMM SECON CODA AMPLIT PERI AZIMU VELO AIN AR TRES W  DIS CAZ7
 ZAR  HZ EP   1    540 54.85                              99   -0.20 7 83.5 282 
 ZAR  HN ES   1    541  6.02                              99    0.50 7 83.5 282 
 ZAR  HZ I         541  9.28        16.7 0.12                          83.5 282 
 PTB  HZ EP   1    540 56.41                              98   -0.46 7 95.7 203 
 PTB  HN ES   1    541  8.80                              98    0.04 7 95.7 203 
 PTB  HZ I         541 10.66         5.6 0.20                          95.7 203 
 BAR2 SZ EP   1    541  2.66                              56    0.08 7  132 128 
 BAR2 SZ ES   1    541 19.39                              56    0.48 7  132 128 
 BAR2 SZ I         541 20.64        13.0 0.37                           132 128 
 OCA  HZ EP   1    541  2.15                              56   -0.46 7  133  41 
 OCA  HN ES   1    541 19.06                              56    0.08 7  133  41 
 OCA  HZ I         541 21.96         8.4 0.43                           133  41 
 PAM  SZ EP   2    541  6.06                              56    0.12 5  157  90 
 PAM  SN ES   1    541 24.96                              56    0.05 7  157  90 
 RUS  HZ EP   2    541 10.85                              56   -0.07 4  196 144 
 RUS  HE ES   1    541 33.60                              56   -0.16 6  196 144 
 RUS  HZ I         541 34.44         2.2 0.21                           196 144 
                                                                                
