 2017  913 0301 52.4 L   6.774 -73.122146.3  RSN  7 0.3 1.5LRSN                1
 GAP=238        0.67       3.7     5.4  5.0  0.2509E+01  0.3104E+01  0.4559E+01E
 Epicentro: LOS SANTOS - SANTANDER                                             3
 ACTION:UPD 17-10-05 19:11 OP:rebc STATUS:               ID:20170913030152 L   I
 OLDACT:UP  17-09-13 16:15 OP:mg   STATUS:               ID:20170913025738     3
 OLDACT:REG 17-09-13 12:47 OP:mg   STATUS:               ID:20170913025738     3
 2017-09-13-0258-00M.COL___458                                                 6
 STAT SP IPHASW D HRMM SECON CODA AMPLIT PERI AZIMU VELO AIN AR TRES W  DIS CAZ7
 BAR2 EZ EP        3 2 11.96                             171   -0.1110 21.2 198 
 BAR2 EZ ES   1    3 2 26.77                             171   -0.63 7 21.2 198 
 BAR2 EZ I         3 2 29.72         6.5 0.29            168           21.2 198 
 BRR  HZ EP        3 2 13.61                             151   -0.2210 74.9 299 
 BRR  HN ES        3 2 30.95                             151    0.4110 74.9 299 
 BRR  HZ I         3 2 32.69         4.2 0.12            151           74.9 299 
 RUS  HZ EP        3 2 16.12                             145    0.1210 97.6 177 
 RUS  HN ES        3 2 34.70                             145    0.3010 97.6 177 
 RUS  HZ I         3 2 35.65         7.9 0.22            144           97.6 177 
 SPBC HZ EP        3 2 21.13                             129    0.23 9  163 220 
 SPBC HN ES        3 2 42.77                             129   -0.35 9  163 220 
 SPBC HZ I         3 2 45.69         5.5 0.18            129            163 220 
 NOR  HZ EP   1    3 2 28.18                             119   -0.04 6  235 235 
 NOR  HN ES   2    3 2 55.86                             119   -0.30 4  235 235 
 NOR  HZ I         3 2 58.38         2.3 0.18            119            235 235 
 CHI  HZ EP   1    3 2 29.64                             117   -0.28 6  247 196 
 CHI  HN ES   2    3 2 59.68                             117    0.51 4  247 196 
 CHI  HZ I         3 3  2.81         1.9 0.36            118            247 196 
 PRA  HZ EP   1    3 2 45.88                             107    0.07 4  391 210 
 PRA  HN ES   3    3 3 28.48                             107    1.02 1  391 210 
 PRA  HZ I         3 3 31.87         1.3 0.22            107            391 210 
                                                                                
