 2017  913 0524 43.6 L   6.756 -73.112143.2  RSN 12 0.4 1.7LRSN                1
 GAP=116        0.89       3.1     3.9  5.2 -0.1531E+01  0.1302E+01  0.6413E+01E
 Epicentro: LOS SANTOS - SANTANDER                                             3
 ACTION:UPD 17-10-05 19:11 OP:rebc STATUS:               ID:20170913052443 L   I
 OLDACT:UP  17-09-13 19:06 OP:mg   STATUS:               ID:20170913051740     3
 OLDACT:UP  17-09-13 18:54 OP:mg   STATUS:               ID:20170913051740     3
 OLDACT:REG 17-09-13 13:16 OP:mg   STATUS:               ID:20170913051740     3
 2017-09-13-0518-00M.COL___424                                                 6
 STAT SP IPHASW D HRMM SECON CODA AMPLIT PERI AZIMU VELO AIN AR TRES W  DIS CAZ7
 BAR2 EZ EP        525  2.29                             172   -0.5610 19.7 203 
 BAR2 EZ ES   1    525 18.02                             172    0.15 7 19.7 203 
 BAR2 EZ I         525 20.53        14.3 0.29            168           19.7 203 
 BRR  HZ EP        525  4.52                             150   -0.2910 76.9 300 
 BRR  HN ES        525 21.51                             150    0.1610 76.9 300 
 BRR  HZ I         525 22.09         9.1 0.32            150           76.9 300 
 PAM  EZ EP        525  5.67                             150    0.0310 79.0  35 
 PAM  EN ES        525 23.04                             150    0.2010 79.0  35 
 PAM  EZ I         525 25.91         4.8 0.24            155           79.0  35 
 RUS  HZ EP        525  6.94                             145    0.2110 95.5 178 
 RUS  HN ES        525 24.68                             145   -0.1010 95.5 178 
 RUS  HZ I         525 26.59         9.5 0.32            145           95.5 178 
 SPBC HZ EP        525 11.70                             129   -0.07 9  162 221 
 SPBC HN ES        525 33.71                             129   -0.04 9  162 221 
 SPBC HZ I         525 39.95         7.8 0.18            129            162 221 
 YPLC HZ EP   1    525 12.95                             127    0.34 7  171 152 
 YPLC HN ES   4    525 37.33                             127    2.09 0  171 152 
 YPLC HZ I         525 38.27         6.9 0.28            129            171 152 
 ZAR  HZ EP   1    525 17.26                             121    0.83 6  209 293 
 ZAR  HN ES   3    525 40.56                             121   -1.49 2  209 293 
 ZAR  HZ I         525 46.02         2.9 0.17            123            209 293 
 NOR  HZ EP        525 19.15                             118   -0.06 8  235 236 
 NOR  HE ES        525 46.28                             118   -0.71 8  235 236 
 NOR  HZ I         525 54.54         3.5 0.18            119            235 236 
 CHI  HZ EP        525 20.87                             117    0.12 8  245 196 
 CHI  HE ES        525 50.56                             117    0.83 8  245 196 
 CHI  HZ I         525 54.85         1.8 0.30            118            245 196 
 GUY2CHZ EP   4    525 28.58                             112    1.46 0  301 236 
 GUY2CHN ES   4    526  4.49                             112    3.42 0  301 236 
 GUY2CHZ I         526 13.23         2.6 0.47                           301 236 
 PTGC HZ EP        525 26.13                             112   -0.53 7  303 159 
 PTGC HN ES        525 59.78                             112   -0.48 7  303 159 
 PTGC HZ I         526  0.69         3.2 0.29            113            303 159 
 PRA  HZ EP        525 37.24                             106    0.49 6  390 210 
 PRA  HN ES        526 18.74                             106    0.53 6  390 210 
 PRA  HZ I         526 25.06         2.1 0.44            107            390 210 
                                                                                
