 2016  813 0132 57.1 L   6.725 -73.183161.7  RSN  4 0.3 1.5LRSN                1
 GAP=227        0.78       6.8     6.7  7.7  0.3034E+02 -0.2712E+01 -0.4971E+01E
 Epicentro: VILLANUEVA - SANTANDER                                             3
 ACTION:UPD 16-10-29 15:35 OP:rebc STATUS:               ID:20160813013257 L   I
 OLDACT:DUP 16-08-13 14:30 OP:dani STATUS:               ID:20160813012760d    3
 OLDACT:REG 16-08-13 12:15 OP:dani STATUS:               ID:20160813012759     3
 2016-08-13-0127-59S.COL___349                                                 6
 STAT SP IPHASW D HRMM SECON CODA AMPLIT PERI AZIMU VELO AIN AR TRES W  DIS CAZ7
 BRR  HZ EP        133 19.52                             155   -0.5110 72.1 306 
 BRR  HN ES        133 38.24                             155    0.3210 72.1 306 
 BRR  HZ I         133 44.19         5.6 0.27                          72.1 306 
 RUS  HZ EP        133 22.23                             149    0.3010 92.7 173 
 RUS  HN ES        133 41.10                             149   -0.2010 92.7 173 
 PTB  HZ EP     D  133 25.21                             137    0.27 9  142 262 
 PTB  HN ES        133 46.55                             137   -0.10 9  142 262 
 ZAR  HN ES        133 56.61                             126   -0.08 9  204 295 
                                                                                
