 2016 1113 0818  1.7 L   6.654 -74.146 10.9  RSN  5 0.5 1.4LRSN                1
 GAP=156        1.26       4.3     2.6  8.1 -0.1148E+01 -0.8753E+01 -0.5189E+01E
 Epicentro: PUERTO PARRA - SANTANDER                                           3
 ACTION:UPD 17-10-26 21:07 OP:lp   STATUS:               ID:20161113081801 L   I
 OLDACT:UP  16-11-13 21:55 OP:and  STATUS:               ID:20161113080742     3
 OLDACT:REG 16-11-13 13:23 OP:and  STATUS:               ID:20161113080742     3
 2016-11-13-0808-00M.COL___340                                                 6
 STAT SP IPHASW D HRMM SECON CODA AMPLIT PERI AZIMU VELO AIN AR TRES W  DIS CAZ7
 PTB  HZ IP     D  818  8.05                             102    0.0510 36.6 250 
 PTB  HN ES        818 13.33                             102    0.4410 36.6 250 
 PTB  HZ I         818 13.70        27.9 0.13             47           36.6 250 
 BRR  HZ IP     D  818 13.09                              96    0.2110 69.3  44 
 BRR  HN ES        818 22.36                              96    0.7910 69.3  44 
 BRR  HZ I         818 22.94        10.7 0.10             47           69.3  44 
 BAR2 EZ IP     D  818 18.47                              94   -0.3110  107  94 
 BAR2 EZ ES        818 31.43                              94   -0.6510  107  94 
 ZAR  HZ EP        818 20.44                              93   -0.3410  122 320 
 ZAR  HN ES        818 35.01                              93   -0.6410  122 320 
 ZAR  HZ I         818 35.83         6.2 0.09             47            122 320 
 PAM  EZ EP        818 29.77                              56    0.68 9  177  65 
 PAM  EN ES        818 50.23                              56   -0.20 9  177  65 
 PAM  EZ I         818 53.33         6.6 0.18             47            177  65 
                                                                                
