 2013  813 0008  3.9 L   6.826 -73.152144.5  RSN 15 0.5 2.7LRSN                1
 GAP=134        1.26       3.1     4.2  5.8 -0.3562E+01  0.7831E+01  0.9754E+00E
 Epicentro: LOS SANTOS - SANTANDER                                             3
 ACTION:UPD 14-01-14 09:01 OP:ep   STATUS:               ID:20130813000803 L   I
 OLDACT:DUP 13-08-13 08:48 OP:stll STATUS:               ID:20130813000001d    3
 2013-08-13-0000-00M.COL___218                                                 6
 STAT SP IPHASW D HRMM SECON CODA AMPLIT PERI AZIMU VELO AIN AR TRES W  DIS CAZ7
 BAR2 SZ IP     D  0 8 23.56                             169    0.0710 26.1 187 
 BAR2 SZ ES        0 8 38.42                             169   -0.3110 26.1 187 
 BAR2 SZ I         0 8 39.78        60.5 0.22            169           26.1 187 
 GIR2 SZ EP        0 8 23.48                             168    0.0910 28.3 351 
 GIR2 SZ ES        0 8 38.69                             168    0.1310 28.3 351 
 GIR2 SZ I         0 8 40.07        32.1 0.28            165           28.3 351 
 BRR  HZ IP     C  0 8 25.33                             153    0.4810 69.2 297 
 BRR  HN ES        0 8 41.90                             153    0.7510 69.2 297 
 BRR  HN I         0 8 43.18       180.4 0.22            150           69.2 297 
 PAM  SZ EP        0 8 26.51                             151    0.5810 75.6  41 
 PAM  SN ES        0 8 43.31                             151    0.2410 75.6  41 
 PAM  SN I         0 8 44.76        53.1 0.34            154           75.6  41 
 RUS  HZ EP        0 8 27.58                             143   -0.2110  104 176 
 RUS  HN ES        0 8 46.64                             143    0.2510  104 176 
 RUS  HN I         0 8 47.93        71.5 0.36            146            104 176 
 CAPV BZ ES        0 8 52.01                             132   -0.22 9  147  39 
 PTB  HZ EP        0 8 30.06                             132   -0.74 9  148 258 
 PTB  HN ES        0 8 51.04                             132   -0.71 9  148 258 
 PTB  HN I         0 8 56.49        72.3 0.48            131            148 258 
 OCA  HZ EP        0 8 31.61                             130   -0.27 9  157 353 
 OCA  HN ES        0 8 53.46                             130   -0.21 9  157 353 
 OCA  HN I         0 9  1.61        71.7 0.18            130            157 353 
 SPBC HZ EP        0 8 32.50                             128   -0.03 9  165 218 
 SPBC HN ES        0 8 54.24                             128   -0.58 9  165 218 
 SPBC HN I         0 8 58.39        81.3 0.10            129            165 218 
 ZAR  HZ EP        0 8 35.98                             122   -0.15 9  202 291 
 ZAR  HN ES        0 9  1.06                             122   -0.17 9  202 291 
 ZAR  HN I         0 9  6.89        61.0 0.14            122            202 291 
 NOR  HZ EP        0 8 39.73                             118    0.00 8  236 234 
 NOR  HN ES        0 9  6.99                             118   -0.64 8  236 234 
 NOR  HN I         0 9 17.66        65.9 0.18            119            236 234 
 SML  HZ EP        0 8 39.62                             118   -0.56 8  241 335 
 SML  HN ES        0 9  7.91                             118   -0.54 8  241 335 
 SML  HN I         0 9 16.08        72.5 0.10            118            241 335 
 CHI  HZ EP        0 8 41.69                             117   -0.18 8  251 195 
 CHI  HN ES        0 9 10.77                             117   -0.67 8  251 195 
 CHI  HN I         0 9 13.47        33.7 0.42            118            251 195 
 HEL  HZ EP        0 8 45.23                             114    1.13 8  272 255 
 HEL  HN ES        0 9 16.03                             114    0.61 8  272 255 
 HEL  HN I         0 9 20.99        16.6 0.48            115            272 255 
 GUY2CHZ EP        0 8 48.49                             112    0.86 7  302 234 
 GUY2CHN ES        0 9 23.15                             112    1.46 7  302 234 
 GUY2CHN I         0 9 29.26        15.9 0.42                           302 234 
                                                                                
