 2010  213 0444 41.4 L   6.760 -72.845146.2  RSN  5 0.3 1.5LRSN                1
 GAP=220        0.48       4.3    18.8  6.0 -0.3746E+02 -0.2512E+02  0.9574E+01E
 Epicentro: SAN ANDRES - SANTANDER                                             3
 ACTION:UP  10-08-24 09:48 OP:vdl  STATUS:               ID:20100213044441 L   I
 2010-02-13-0440-33S.COL___094                                                 6
 STAT SP IPHASW D HRMM SECON CODA AMPLIT PERI AZIMU VELO SNR AR TRES W  DIS CAZ7
 BAR2 SZ EP   1    445  1.86                             164     0.2 7   42 244 
 BAR2 SZ ES   2    445 17.04                             164    -0.4 5   42 244 
 GIR2 SZ EP   1    445  1.95                             160     0.0 7   52 312 
 GIR2 SZ ES   2    445 18.01                             160     0.1 5   52 312 
 OCA  SZ EP   1    445 10.49                             128    -0.4 7  172 342 
 OCA  SZ ES   2    445 34.23                             128     0.4 4  172 342 
 CHI  HZ EP   1    445 20.09                             117     0.2 6  255 203 
 CHI  HZ I         445 54.55         1.1 0.67                           255 203 
 PRA  HZ EP   1    445 36.36                             106    -0.2 4  406 214 
 PRA  HZ I         445 37.45         1.3 0.16                           406 214 
 PRA  HN ES   2    446 19.55                             106    -0.1 3  406 214 
                                                                                
