 2017  713 0859 22.0 L   6.746 -73.153141.4  RSN  6 0.5 1.2LRSN                1
 GAP=138        1.12       6.1     5.1  9.3 -0.2542E+00  0.1165E+02 -0.1208E+02E
 Epicentro: LOS SANTOS - SANTANDER                                             3
 ACTION:UPD 17-08-30 15:32 OP:rebc STATUS:               ID:20170713085922 L   I
 OLDACT:REG 17-07-13 12:54 OP:dnl  STATUS:               ID:20170713085509     3
 2017-07-13-0858-00M.COL___371                                                 6
 STAT SP IPHASW D HRMM SECON CODA AMPLIT PERI AZIMU VELO AIN AR TRES W  DIS CAZ7
 BAR2 EZ EP        859 41.07                             173    0.0610 17.3 191 
 BAR2 EZ ES        859 55.22                             173   -0.6010 17.3 191 
 BAR2 EZ I         859 57.76         4.6 0.70            175           17.3 191 
 BRR  HZ EP        859 42.97                             151    0.1410 73.5 303 
 BRR  HN ES        859 59.87                             151    0.8110 73.5 303 
 BRR  HZ I         9 0  5.83         5.1 0.50            149           73.5 303 
 PAM  EZ EP        859 43.85                             148   -0.2410 82.6  37 
 PAM  EN ES        9 0  1.17                             148   -0.1410 82.6  37 
 PAM  EZ I         9 0  3.20         2.6 0.66            150           82.6  37 
 RUS  HN ES        9 0  3.26                             145    0.4910 94.7 175 
 PTB  HZ EP   2    859 47.99                             131   -0.47 5  146 261 
 PTB  HN ES        9 0  8.44                             131   -0.64 9  146 261 
 PTB  HZ I         9 0 10.34         1.1 0.30            133            146 261 
 ZAR  HZ EP   2    859 55.27                             121    0.93 4  206 294 
 ZAR  HN ES        9 0 19.51                             121   -0.04 8  206 294 
 ZAR  HZ I         9 0 25.13         1.7 0.32            123            206 294 
                                                                                
