 2011  613 0410 45.2 L   6.764 -73.139149.2  RSN  7 0.3 1.3LRSN                1
 GAP=157        0.61       5.9    12.5  8.2  0.2572E+02 -0.3976E+02 -0.1295E+02E
 Epicentro: LOS SANTOS - SANTANDER                                             3
 ACTION:UP  11-07-14 19:04 OP:ep   STATUS:               ID:20110613041045 L   I
 2011-06-13-0409-44S.COL___132                                                 6
 STAT SP IPHASW D HRMM SECON CODA AMPLIT PERI AZIMU VELO SNR AR TRES W  DIS CAZ7
 BAR2 SZ EP   2    411  5.20                             172     0.0 5   20 194 
 BAR2 SZ ES   2    411 20.43                             172    -0.4 5   20 194 
 BAR2 SZ I         411 22.96         4.1 0.16                            20 194 
 BTL  SZ EP   1    411  5.66                             171     0.4 7   22 320 
 BTL  SZ ES   2    411 20.84                             171     0.0 5   22 320 
 BRR  HZ EP   1    411  6.97                             152     0.1 7   74 301 
 BRR  HN ES   2    411 23.61                             152    -0.2 5   74 301 
 BRR  HZ I         411 24.96         7.3 0.10                            74 301 
 RUS  HZ EP   1    411  8.68                             146    -0.4 7   97 176 
 RUS  HZ I         411 27.60         2.4 0.43                            97 176 
 RUS  HN ES   2    411 28.14                             146     0.5 5   97 176 
 BRI  SZ EP   2    411  9.97                             141     0.2 5  112  20 
 BRI  SZ I         411 20.72         3.3 0.69                           112  20 
 GRA  SZ EP   2    411 10.69                             137    -0.4 5  129  17 
 GRA  SZ I         411 12.46         2.0 0.21                           129  17 
 OCA  SZ ES   3    411 36.88                             130     0.1 2  164 353 
 OCA  SZ I         411 43.53         2.6 0.63                           164 353 
                                                                                
