 2011  713 0450 25.8 L   6.743 -73.107150.0  RSN  7 0.4 2.0LRSN                1
 GAP=161        0.67       3.4     5.8  5.9 -0.5578E+01  0.5768E+01  0.2104E+01E
 Epicentro: JORDAN - SANTANDER                                                 3
 ACTION:UPD 12-07-25 14:00 OP:epov STATUS:               ID:20110713045025 L   I
 2011-07-13-0440-00M.COL___133                                                 6
 STAT SP IPHASW D HRMM SECON CODA AMPLIT PERI AZIMU VELO AIN AR TRES W  DIS CAZ7
 BAR2 SZ EP   1    450 45.42                             173   -0.40 7 18.6 207 
 BAR2 SZ ES   1    451  1.53                             173    0.06 7 18.6 207 
 BAR2 SZ I         451  3.19        15.3 0.18                          18.6 207 
 BRR  HZ EP   1    450 47.42                             151   -0.34 7 78.0 301 
 BRR  HZ I         450 47.66        45.0 0.15                          78.0 301 
 BRR  HN ES   1    451  5.23                             151    0.31 7 78.0 301 
 RUS  HZ EP   1    450 49.80                             147    0.31 7 94.1 178 
 RUS  HN ES   1    451  8.15                             147    0.16 7 94.1 178 
 RUS  HZ I         451  9.36         9.3 0.25                          94.1 178 
 BRI  SZ EP   1    450 50.07                             141   -0.34 7  113  18 
 BRI  SZ ES   1    451  9.43                             141   -0.19 7  113  18 
 BRI  SZ I         451 11.85         8.9 0.27                           113  18 
 OCA  SZ ES   1    451 18.40                             129    0.52 7  167 352 
 OCA  SZ I         451 23.01        10.8 0.26                           167 352 
 NOR  SZ EP   1    451  1.89                             120    0.15 6  235 236 
 NOR  SN ES   1    451 29.26                             120   -0.54 6  235 236 
 PRA  HZ EP   1    451 19.73                             107    0.68 4  389 211 
                                                                                
