 2013  813 0300 18.3 L   6.806 -73.151146.2  RSN  7 0.3 1.9LRSN                1
 GAP=135        0.91       4.2     4.4  5.8 -0.6591E+01  0.7948E+00  0.1176E+00E
 Epicentro: LOS SANTOS - SANTANDER                                             3
 ACTION:UPD 14-01-14 09:01 OP:ep   STATUS:               ID:20130813030018 L   I
 OLDACT:REG 13-08-13 08:10 OP:stll STATUS:               ID:20130813025849     3
 2013-08-13-0258-49M.COL___217                                                 6
 STAT SP IPHASW D HRMM SECON CODA AMPLIT PERI AZIMU VELO AIN AR TRES W  DIS CAZ7
 BAR2 SZ EP        3 0 37.99                             170    0.0310 23.9 188 
 BAR2 SZ ES        3 0 53.40                             170    0.0810 23.9 188 
 BAR2 SZ I         3 0 54.39        12.3 0.20            171           23.9 188 
 BRR  HZ EP        3 0 39.81                             153    0.4010 70.3 298 
 BRR  HN ES        3 0 56.47                             153    0.5710 70.3 298 
 BRR  HN I         3 1  0.02        19.9 0.20            151           70.3 298 
 PAM  SZ EP        3 0 40.68                             151    0.1610 77.3  40 
 PAM  SN ES        3 0 57.28                             151   -0.6010 77.3  40 
 PAM  SN I         3 0 58.77        15.8 0.50            154           77.3  40 
 RUS  HZ EP        3 0 42.06                             144   -0.0510  101 176 
 RUS  HN ES        3 1  0.70                             144   -0.0110  101 176 
 RUS  HN I         3 1  2.42         6.3 0.30            146            101 176 
 PTB  HZ EP        3 0 44.84                             132   -0.38 9  147 259 
 PTB  HN ES        3 1  5.58                             132   -0.67 9  147 259 
 PTB  HN I         3 1 11.07        21.2 0.28            133            147 259 
 CAPV BZ EP        3 0 45.80                             132    0.12 9  149  38 
 SPBC HZ EP        3 0 46.83                             129    0.02 9  163 219 
 SPBC HN ES        3 1  9.34                             129    0.26 9  163 219 
                                                                                
