 2010  713 0122 46.8 L   6.781 -73.110151.5  RSN  6 0.2 1.7LRSN                1
 GAP=160        0.42       2.9     4.5  4.3  0.1889E+01  0.4678E+00 -0.4046E+01E
 Epicentro: LOS SANTOS - SANTANDER                                             3
 ACTION:UPD 10-12-01 15:17 OP:pat  STATUS:               ID:20100713012246 L   I
 2010-07-13-0118-45S.COL___120                                                 6
 STAT SP IPHASW D HRMM SECON CODA AMPLIT PERI AZIMU VELO AIN AR TRES W  DIS CAZ7
 BAR2 SZ EP   1    123  7.00                             171    -0.1 7   22 201 
 BAR2 SZ ES   1    123 23.14                             171     0.2 7   22 201 
 BAR2 SZ I         123 25.03         9.0 0.51                            22 201 
 BRR  HZ EP        123  8.90                             152     0.010   76 299 
 BRR  HZ I         123  9.23        15.1 0.12                            76 299 
 BRR  HE ES   1    123 26.05                             152     0.0 7   76 299 
 RUS  HZ EP   2    123 10.74                             146    -0.3 5   98 178 
 RUS  HE ES   1    123 29.82                             146     0.0 7   98 178 
 RUS  HZ I         123 32.40         4.0 0.47                            98 178 
 BRI  SZ EP   2    123 11.32                             142     0.0 5  109  18 
 BRI  SZ I         123 32.15         3.4 0.37                           109  18 
 OCA  SZ EP   1    123 16.05                             130     0.2 7  163 352 
 OCA  SZ ES   2    123 38.06                             130    -0.4 5  163 352 
 OCA  SZ I         123 42.37         6.6 0.28                           163 352 
 HEL  HZ EP   2    123 28.04                             116     0.3 4  275 256 
 HEL  HE ES   2    123 59.29                             116    -0.3 4  275 256 
 HEL  HZ I         124  4.78         3.8 0.62                           275 256 
                                                                                
