 2013  813 0416  7.5 L   6.795 -73.183154.3  RSN  5 0.4 1.4LRSN                1
 GAP=197        0.94       5.3     6.9  9.4  0.1958E+02 -0.7191E+01 -0.1096E+02E
 Epicentro: LOS SANTOS - SANTANDER                                             3
 ACTION:UPD 14-01-14 09:01 OP:ep   STATUS:               ID:20130813041607 L   I
 OLDACT:REG 13-08-13 08:14 OP:stll STATUS:               ID:20130813040848     3
 2013-08-13-0408-48M.COL___218                                                 6
 STAT SP IPHASW D HRMM SECON CODA AMPLIT PERI AZIMU VELO AIN AR TRES W  DIS CAZ7
 BRR  HZ IP     C  416 29.66                             155    0.2810 67.9 301 
 BRR  HZ I         416 29.82         6.4 0.12            151           67.9 301 
 BRR  HN ES        416 46.86                             155    0.4010 67.9 301 
 RUS  HZ EP        416 32.43                             146    0.3710  100 174 
 RUS  HN ES        416 50.81                             146   -0.4210  100 174 
 RUS  HZ I         416 51.57         2.4 0.26            145            100 174 
 PTB  HZ EP        416 34.61                             135   -0.18 9  144 259 
 PTB  HN ES        416 55.75                             135   -0.34 9  144 259 
 ZAR  HN ES        417  5.88                             125    0.29 9  200 293 
 ZAR  HZ I         417 12.82         2.2 0.20            123            200 293 
 SML  HN ES        417 12.70                             119   -0.62 8  243 336 
                                                                                
