 2010 1113 0945 39.6 L   6.264 -73.667111.0  RSN  9 0.3 2.3LRSN                1
 GAP=117        0.62       2.6     3.9  5.3 -0.3004E+01  0.7783E+01 -0.3265E+01E
 Epicentro: SANTA HELENA DEL OPON - SANTANDER                                  3
 ACTION:UP  10-12-17 16:52 OP:REBC STATUS:               ID:20101113094539 L   I
 2010-11-13-0944-43S.COL___130                                                 6
 STAT SP IPHASW D HRMM SECON CODA AMPLIT PERI AZIMU VELO SNR AR TRES W  DIS CAZ7
 BAR2 SZ IP        945 57.32                             148     0.310   65  56 
 BAR2 SZ ES   1    946 10.64                             148     0.0 7   65  56 
 BAR2 SZ I         946 12.01        86.9 0.30                            65  56 
 RUS  HZ IP        945 58.27                             143     0.110   77 122 
 RUS  HE ES   1    946 12.48                             143    -0.2 7   77 122 
 RUS  HZ I         946 14.46        31.1 0.29                            77 122 
 BRR  HZ IP     D  945 58.83                             137     0.010   93 357 
 BRR  HE ES   1    946 13.70                             137    -0.2 7   93 357 
 BRR  HZ I         946 15.72        44.3 0.03                            93 357 
 GIR2 SZ EP        946  0.13                             134     0.210  104  30 
 NOR  SZ EP        946  4.85                             121     0.1 9  154 240 
 NOR  SE ES   2    946 23.87                             121    -0.4 5  154 240 
 CHI  HZ EP   2    946  7.32                             117    -0.7 4  181 182 
 CHI  HN ES   2    946 30.50                             117     0.3 4  181 182 
 GUE  SZ EP        946  8.57                             115    -0.5 9  192  25 
 GRA  SZ EP        946 10.04                             114    -0.1 9  203  28 
 GRA  SZ ES   2    946 33.78                             114    -0.2 4  203  28 
 GRA  SZ I         946 37.94        17.0 0.47                           203  28 
 OCA  SZ EP        946 12.41                             111     0.2 8  222  10 
 OCA  SZ ES   2    946 38.16                             111     0.5 4  222  10 
 OCA  SZ I         946 43.19        15.8 0.17                           222  10 
                                                                                
