 2017  813 0907 42.1 L   6.890 -73.031125.7  RSN  5 0.4 1.1LRSN                1
 GAP=255        1.05       6.0     7.9  7.6  0.2609E+02  0.8803E+01 -0.7469E+00E
 Epicentro: PIEDECUESTA - SANTANDER                                            3
 ACTION:UPD 17-09-04 20:19 OP:rebc STATUS:               ID:20170813090742 L   I
 OLDACT:UP  17-08-13 18:17 OP:dhb  STATUS:               ID:20170813085742d    3
 OLDACT:DUP 17-08-13 18:12 OP:dhb  STATUS:               ID:20170813085742d    3
 OLDACT:DUP 17-08-13 18:06 OP:dhb  STATUS:               ID:20170813085741d    3
 OLDACT:REG 17-08-13 12:29 OP:dhb  STATUS:               ID:20170813085740     3
 2017-08-13-0858-00M.COL___404                                                 6
 STAT SP IPHASW D HRMM SECON CODA AMPLIT PERI AZIMU VELO AIN AR TRES W  DIS CAZ7
 BAR2 EZ EP        9 7 59.79                             163    0.0310 36.9 207 
 BAR2 EZ ES        9 8 12.88                             163   -0.6210 36.9 207 
 BAR2 EZ I         9 8 16.64         4.3 0.06            161           36.9 207 
 BRR  HZ IP     C  9 8  1.97                             146    0.3110 79.0 288 
 BRR  HN ES        9 8 17.55                             146    0.6610 79.0 288 
 BRR  HZ I         9 8 19.44         3.6 0.19            145           79.0 288 
 RUS  HZ EP        9 8  4.44                             136   -0.3310  110 183 
 RUS  HN ES        9 8 22.67                             136    0.2410  110 183 
 RUS  HZ I         9 8 23.62         1.8 0.23            138            110 183 
 SPBC HZ EP        9 8 11.04                             121    0.25 9  179 220 
 SPBC HE ES        9 8 33.20                             121    0.06 9  179 220 
 SPBC HZ I         9 8 35.80         1.8 0.12            122            179 220 
 ZAR  HZ EP        9 8 14.25                             116   -0.02 8  212 288 
 ZAR  HE ES        9 8 38.59                             116   -0.75 8  212 288 
 ZAR  HZ I         9 8 43.62         1.1 0.14            118            212 288 
                                                                                
