 2010 1113 0014 37.9 L   6.822 -72.984147.9  RSN  4 0.1 1.8LRSN                1
 GAP=255        0.48       3.9     5.9  4.9  0.1200E+02  0.5951E+00  0.1404E+01E
 Epicentro: CEPITA - SANTANDER                                                 3
 ACTION:UP  10-12-17 16:52 OP:REBC STATUS:               ID:20101113001437 L   I
 2010-11-13-0013-58S.COL___128                                                 6
 STAT SP IPHASW D HRMM SECON CODA AMPLIT PERI AZIMU VELO SNR AR TRES W  DIS CAZ7
 BAR2 SZ ES   1    015 13.81                             167     0.1 7   34 221 
 BAR2 SZ I         015 15.09        12.3 0.61                            34 221 
 BRR  HZ EP        015  0.00                             148    -0.210   86 291 
 BRR  HZ I         015  0.23        11.7 0.26                            86 291 
 BRR  HN ES        015 17.60                             148     0.110   86 291 
 RUS  HZ EP        015  2.20                             143     0.210  103 186 
 RUS  HN ES        015 20.72                             143    -0.110  103 186 
 RUS  HZ I         015 22.40         5.9 1.36                           103 186 
 RREF HN ES   1    016  3.31                             110     0.0 5  337 231 
 RREF HZ I         016  9.48         3.1 0.33                           337 231 
                                                                                
