 2016  413 0232 54.0 L   6.778 -73.174130.8  RSN  4 0.0 1.1LRSN                1
 GAP=275        0.32       3.4     2.5  4.7 -0.1366E+01  0.4713E+01  0.1115E+01E
 Epicentro: LOS SANTOS - SANTANDER                                             3
 ACTION:UPD 16-05-05 14:20 OP:rebc STATUS:               ID:20160413023254 L   I
 OLDACT:DUP 16-04-13 15:51 OP:mh   STATUS:               ID:20160413022743d    3
 OLDACT:REG 16-04-13 13:12 OP:mh   STATUS:               ID:20160413022742     3
 2016-04-13-0227-42M.COL___309                                                 6
 STAT SP IPHASW D HRMM SECON CODA AMPLIT PERI AZIMU VELO AIN AR TRES W  DIS CAZ7
 BAR2 EZ EP        233 11.79                             171   -0.0110 20.6 183 
 BAR2 EZ ES        233 25.65                             171   -0.0110 20.6 183 
 BAR2 EZ I         233 28.75         3.1 0.19            168           20.6 183 
 RUS  HN ES   2    233 33.52                             141    0.08 5 98.4 174 
 RUS  HZ I         233 35.18         1.3 0.41            142           98.4 174 
 PTB  HE ES        233 39.36                             129    0.03 9  144 260 
 PTB  HZ I         233 41.44         1.9 0.12            131            144 260 
 SPBC HN ES        233 42.07                             126   -0.04 9  159 219 
 SPBC HZ I         233 45.78         3.0 0.10            128            159 219 
                                                                                
