 2012 1113 0253 43.7 L   6.863 -73.152142.8  RSN  8 0.4 1.6LRSN                1
 GAP=132        0.70       3.8     4.1  6.3  0.3531E+00  0.5358E+01  0.5000E+01E
 Epicentro: LOS SANTOS - SANTANDER                                             3
 ACTION:UPD 12-12-05 15:33 OP:}ep  STATUS:               ID:20121113025343 L   I
 2012-11-13-0250-00M.COL___230                                                 6
 STAT SP IPHASW D HRMM SECON CODA AMPLIT PERI AZIMU VELO AIN AR TRES W  DIS CAZ7
 BAR2 SZ EP   1    254  3.40                             167    0.29 7 30.1 186 
 BAR2 SZ ES   1    254 18.16                             167   -0.11 7 30.1 186 
 BAR2 SZ I         254 18.77        11.9 0.22                          30.1 186 
 BRR  HZ EP   1    254  4.31                             153    0.01 7 67.5 294 
 BRR  HN ES   1    254 21.07                             153    0.69 7 67.5 294 
 BRR  HZ I         254 25.22         5.3 0.12                          67.5 294 
 PAM  SZ EP   1    254  5.29                             152    0.00 7 72.6  43 
 PAM  SN ES   1    254 21.98                             152   -0.18 7 72.6  43 
 PAM  SZ I         254 24.12         7.9 0.46                          72.6  43 
 RUS  HZ EP   1    254  7.61                             141   -0.05 7  108 176 
 RUS  HN ES   1    254 26.31                             141   -0.06 7  108 176 
 RUS  HZ I         254 27.53         3.8 0.26                           108 176 
 PTB  HZ EP   2    254  9.54                             131   -0.94 5  149 256 
 PTB  HN ES   1    254 30.84                             131   -0.54 7  149 256 
 PTB  HZ I         254 33.66         7.0 0.16                           149 256 
 OCA  HN ES   2    254 32.05                             130   -0.43 5  153 353 
 ZAR  HN ES   1    254 40.64                             122    0.14 6  201 290 
 PRA  HZ EP   1    254 38.69                             106    0.92 4  398 209 
 PRA  HE ES   1    255 19.92                             106   -0.04 4  398 209 
                                                                                
