 2017 1213 0501 12.8 L   6.784 -73.217137.7  RSN  5 0.4 1.4LRSN                1
 GAP=127        0.95       5.5     4.7  8.3 -0.7674E+01  0.1718E+02 -0.9587E+01E
 Epicentro: ZAPATOCA - SANTANDER                                               3
 ACTION:UPD 18-01-04 13:19 OP:rebc STATUS:               ID:20171213050112 L   I
 OLDACT:UP  17-12-13 15:54 OP:edw  STATUS:               ID:20171213045648d    3
 OLDACT:DUP 17-12-13 15:50 OP:edw  STATUS:               ID:20171213045648d    3
 OLDACT:REG 17-12-13 13:00 OP:edw  STATUS:               ID:20171213045646     3
 2017-12-13-0457-00M.COL___449                                                 6
 STAT SP IPHASW D HRMM SECON CODA AMPLIT PERI AZIMU VELO AIN AR TRES W  DIS CAZ7
 BAR2 EZ EP        5 1 30.65                             171   -0.7310 21.6 170 
 BAR2 EZ ES        5 1 46.18                             171    0.2810 21.6 170 
 PAM  EZ EP        5 1 34.54                             147    0.0010 83.9  43 
 PAM  EE ES        5 1 51.74                             147    0.2210 83.9  43 
 PAM  EZ I         5 1 53.24         2.7 0.30            149           83.9  43 
 PTB  HZ EP        5 1 38.50                             132    0.17 9  140 259 
 PTB  HN ES        5 1 58.16                             132   -0.12 9  140 259 
 PTB  HZ I         5 2  2.91         1.8 0.18            133            140 259 
 OCA  HZ EP   4    5 1 38.25                             127   -2.30 0  161 356 
 OCA  HN ES        5 2  1.99                             127   -0.23 9  161 356 
 OCA  HZ I         5 2  7.07         5.5 0.30            128            161 356 
 ZAR  HZ EP        5 1 44.70                             121    0.70 9  197 293 
 ZAR  HN ES        5 2  8.19                             121   -0.18 9  197 293 
 ZAR  HZ I         5 2  9.29         3.8 0.24            123            197 293 
                                                                                
