 2014  113 0125 34.6 L   6.810 -73.133142.1  RSN 15 0.4 2.2LRSN                1
 GAP=138        0.98       2.7     3.6  5.3 -0.2064E+01  0.5319E+01 -0.2650E+00E
 Epicentro: LOS SANTOS - SANTANDER                                             3
 ACTION:UPD 14-03-13 09:54 OP:ep   STATUS:               ID:20140113012534 L   I
 OLDACT:REG 14-01-13 07:41 OP:cam  STATUS:               ID:20140113012000     3
 2014-01-13-0120-00M.COL___285                                                 6
 STAT SP IPHASW D HRMM SECON CODA AMPLIT PERI AZIMU VELO AIN AR TRES W  DIS CAZ7
 BAR2 SZ EP     C  125 53.91                             170    0.0610 24.7 193 
 BAR2 SZ ES        126  8.63                             170   -0.2110 24.7 193 
 BAR2 SZ I         126 10.13        42.0 0.40            166           24.7 193 
 BRR  HZ EP     C  125 55.81                             152    0.3910 71.9 297 
 BRR  HN ES        126 12.00                             152    0.3610 71.9 297 
 BRR  HZ I         126 16.79        27.0 0.10            145           71.9 297 
 PAM  SZ EP        125 56.91                             151    0.5610 75.6  39 
 PAM  SN ES        126 13.69                             151    0.4110 75.6  39 
 PAM  SZ I         126 15.73        49.2 0.52            149           75.6  39 
 RUS  HZ EP        125 57.92                             143   -0.1810  102 177 
 RUS  HN ES        126 16.12                             143   -0.2910  102 177 
 RUS  HZ I         126 17.80        16.9 0.40            138            102 177 
 PTB  HZ EP   1    126  0.86                             131   -0.59 7  149 259 
 PTB  HN ES        126 21.79                             131   -0.58 9  149 259 
 PTB  HZ I         126 24.83        17.1 0.16            124            149 259 
 OCA  HZ EP        126  2.30                             129   -0.26 9  159 353 
 OCA  HN ES        126 23.73                             129   -0.62 9  159 353 
 OCA  HZ I         126 27.96        21.4 0.16            124            159 353 
 SPBC HZ EP   1    126  2.96                             128   -0.06 7  165 219 
 SPBC HN ES        126 25.23                             128    0.06 9  165 219 
 SPBC HZ I         126 30.34        20.4 0.24            122            165 219 
 ZAR  HZ EP        126  7.27                             121    0.34 9  205 292 
 ZAR  HN ES        126 32.81                             121    0.68 9  205 292 
 ZAR  HE I         126 39.89        64.1 0.46            116            205 292 
 NOR  HZ EP   1    126 10.58                             117    0.23 6  237 234 
 NOR  HN ES        126 37.62                             117   -0.59 8  237 234 
 NOR  HZ I         126 45.21         9.7 0.16            112            237 234 
 SML  HZ EP        126 10.35                             117   -0.65 8  243 335 
 SML  HN ES   2    126 38.66                             117   -0.71 4  243 335 
 SML  HZ I         126 46.19        20.0 0.24            112            243 335 
 CHI  HZ EP   1    126 12.25                             116   -0.04 6  250 195 
 CHI  HE ES        126 41.75                             116    0.09 8  250 195 
 CHI  HZ I         126 45.69         4.5 0.48            111            250 195 
 HEL  HN ES   1    126 46.22                             114    0.01 6  274 256 
 HEL  HZ I         126 50.78         5.2 0.28            109            274 256 
 GUY2CHZ EP   2    126 19.34                             111    1.06 4  303 235 
 GUY2CHN ES        126 52.97                             111    0.64 7  303 235 
 GUY2CHZ I         127  1.43         5.2 0.52                           303 235 
 RREF HZ EP   4    126 22.09                             110    1.26 0  324 229 
 RREF HZ I         127  5.99         5.1 0.26            106            324 229 
 SJC  HZ EP   4    126 28.77                             105   -1.28 0  409 327 
 SJC  HN ES   4    127  9.84                             105   -3.44 0  409 327 
 SJC  HZ I         127 13.62         6.7 0.54            101            409 327 
                                                                                
