 2011  313 0952 29.2 L   6.918 -73.222121.9  RSN  5 0.3 1.1LRSN                1
 GAP=149        0.68       3.7     8.1  8.5 -0.1866E+02  0.3261E+02 -0.1161E+02E
 Epicentro: BETULIA - SANTANDER                                                3
 ACTION:UP  11-06-16 14:33 OP:jfem STATUS:               ID:20110313095229 L   I
 2011-03-13-0951-13S.COL___134                                                 6
 STAT SP IPHASW D HRMM SECON CODA AMPLIT PERI AZIMU VELO SNR AR TRES W  DIS CAZ7
 BAR2 SZ EP   1    952 46.83                             162     0.5 8   36 173 
 BAR2 SZ ES   1    952 59.53                             162    -0.2 8   36 173 
 BAR2 SZ I         953  3.15         6.7 0.24                            36 173 
 RUS  HZ EP   1    952 51.39                             134    -0.5 8  114 172 
 RUS  HN ES   1    953  9.82                             134     0.3 8  114 172 
 RUS  HZ I         953 10.88         2.1 0.28                           114 172 
 GRA  SZ EP   1    952 51.51                             133    -0.1 7  116  23 
 GRA  SZ ES        953  9.00                             133     0.010  116  23 
 OCA  SZ EP   1    952 54.52                             126     0.1 7  146 356 
 OCA  SZ I         953 20.13         3.2 0.15                           146 356 
 NOR  SN ES   1    953 30.77                             113    -0.1 6  236 231 
 NOR  SZ I         953 36.04         0.4 0.17                           236 231 
                                                                                
