 2016 1113 0451 33.0 L   6.831 -73.129152.9  RSN 11 0.4 1.7LRSN                1
 GAP=119        0.90       3.5     3.7  4.9 -0.1731E+01  0.1885E+01  0.5044E+01E
 Epicentro: LOS SANTOS - SANTANDER                                             3
 ACTION:UPD 17-10-26 21:07 OP:lp   STATUS:               ID:20161113045133 L   I
 OLDACT:UP  16-11-13 16:57 OP:and  STATUS:               ID:20161113044746     3
 OLDACT:REG 16-11-13 13:03 OP:and  STATUS:               ID:20161113044746     3
 2016-11-13-0448-00M.COL___340                                                 6
 STAT SP IPHASW D HRMM SECON CODA AMPLIT PERI AZIMU VELO AIN AR TRES W  DIS CAZ7
 BAR2 EZ EP        451 53.38                             170   -0.1910 27.0 193 
 BAR2 EZ ES        452  9.18                             170   -0.4310 27.0 193 
 BAR2 EZ I         452  9.99        10.0 0.17            167           27.0 193 
 BRR  HZ EP        451 55.18                             154    0.2510 71.3 295 
 BRR  HN ES        452 12.28                             154    0.2410 71.3 295 
 BRR  HZ I         452 16.34         6.9 0.19            152           71.3 295 
 PAM  EZ IP     C  451 56.40                             153    0.6310 73.6  40 
 PAM  EN ES        452 13.48                             153   -0.0510 73.6  40 
 PAM  EZ I         452 16.64         7.6 0.32            158           73.6  40 
 PTB  HZ EP        452  0.51                             133   -0.27 9  150 258 
 PTB  HE ES        452 22.08                             133   -0.37 9  150 258 
 PTB  HZ I         452 24.85         4.4 0.19            132            150 258 
 ZAR  HZ EP        452  5.93                             124   -0.04 9  204 291 
 ZAR  HN ES        452 31.86                             124    0.18 9  204 291 
 ZAR  HZ I         452 40.36         4.2 0.18            124            204 291 
 NOR  HZ EP        452 10.10                             119    0.58 8  238 234 
 NOR  HE ES        452 37.80                             119   -0.21 8  238 234 
 NOR  HZ I         452 45.31         4.0 0.14            120            238 234 
 CHI  HZ EP        452 11.65                             118    0.14 8  252 195 
 CHI  HN ES        452 42.03                             118    0.49 8  252 195 
 CHI  HZ I         452 47.11         2.1 0.34            119            252 195 
 ROSC BZ EP   9    452 13.83                             118    1.90 0  257 211 
 ROSC BE ES        452 44.41                                    0.21 8  257 211 
 ROSC BZ I         452 51.56         4.3 0.40            118            257 211 
 PTGC HZ EP        452 16.60                             113   -0.87 7  311 159 
 PTGC HN ES   4    452 49.71                             113   -2.44 0  311 159 
 PRA  HZ EP        452 27.45                             107    0.23 6  396 210 
 PRA  HN ES        453  9.54                             107    0.02 6  396 210 
 PRA  HZ I         453 13.47         1.9 0.24            108            396 210 
 SJC  HZ EP        452 27.64                             107   -0.95 6  407 326 
 SJC  HE ES   4    453  8.82                             107   -3.13 0  407 326 
                                                                                
