 2011 1213 0517 50.0 L   6.841 -73.373122.5  RSN  6 0.6 1.8LRSN                1
 GAP= 92        1.16       5.5     6.4 10.1 -0.3947E+01  0.1008E+02 -0.5350E+01E
 Epicentro: SAN VICENTE DE CHUCURI - SANTANDER                                 3
 ACTION:UPD 12-07-13 16:15 OP:ep   STATUS:               ID:20111213051750 L   I
 2011-12-13-0510-00M.COL___186                                                 6
 STAT SP IPHASW D HRMM SECON CODA AMPLIT PERI AZIMU VELO AIN AR TRES W  DIS CAZ7
 BAR2 SZ EP        518  7.57                             163    0.3810 34.7 143 
 BAR2 SZ ES   1    518 20.76                             163    0.17 7 34.7 143 
 BAR2 SZ I         518 21.89        75.7 0.34                          34.7 143 
 BRR  HZ IP     D  518  7.90                             157    0.5310 47.6 308 
 BRR  HE ES   1    518 21.80                             157    0.89 7 47.6 308 
 BRR  HZ I         518 22.73        14.6 0.10                          47.6 308 
 PAM  SZ EP   1    518 10.62                             141   -0.30 7 92.6  53 
 PAM  SE ES   1    518 26.69                             141   -0.54 7 92.6  53 
 RUS  HZ EP   1    518 12.57                             136    0.25 7  110 163 
 RUS  HN ES   1    518 29.18                             136   -0.53 7  110 163 
 RUS  HZ I         518 31.30         3.2 0.10                           110 163 
 PTB  HZ EP        518 12.78                             131   -0.1810  124 255 
 PTB  HN ES   1    518 29.87                             131   -0.99 7  124 255 
 OCA  SZ EP   1    518 16.50                             125    0.43 7  155   2 
 OCA  SZ ES   1    518 35.56                             125   -0.83 7  155   2 
 OCA  SZ I         518 40.63        10.6 0.13                           155   2 
                                                                                
