 2010  313 0045 20.2 L   6.815 -73.050149.3  RSN  5 0.2 1.8LRSN                1
 GAP=193        0.41       4.0     7.4  7.1  0.3559E+01 -0.1743E+01 -0.2541E+01E
 Epicentro: LOS SANTOS - SANTANDER                                             3
 ACTION:UP  10-08-24 09:53 OP:vdl  STATUS:               ID:20100313004520 L   I
 2010-03-13-0043-48S.COL___095                                                 6
 STAT SP IPHASW D HRMM SECON CODA AMPLIT PERI AZIMU VELO SNR AR TRES W  DIS CAZ7
 BRR  HZ EP        045 42.19                             150    -0.110   80 294 
 BRR  HZ I         045 48.22        10.0 0.31                            80 294 
 BRR  HE ES   2    045 59.71                             150     0.2 5   80 294 
 RUS  HZ EP   2    045 44.78                             144     0.3 5  102 182 
 RUS  HN ES   2    046  3.12                             144    -0.2 5  102 182 
 OCA  SZ EP   2    045 48.78                             130     0.0 5  160 349 
 OCA  SZ I         046 14.22         8.8 0.22                           160 349 
 RREF BN ES   2    046 44.39                             111    -0.1 3  331 230 
 RREF BZ I         046 52.11         2.3 0.33                           331 230 
 PRA  HZ EP   2    046 14.86                             107     0.2 3  399 211 
 PRA  HZ I         047  0.43         2.5 0.41                           399 211 
                                                                                
