 2012  113 0539 16.6 L   6.801 -73.154146.6  RSN  8 0.3 1.6LRSN                1
 GAP=135        0.64       5.0     5.7  7.1  0.6509E+01  0.1152E+02  0.1362E+02E
 Epicentro: LOS SANTOS - SANTANDER                                             3
 ACTION:UP  12-02-03 08:17 OP:REBC STATUS:               ID:20120113053916 L   I
 2012-01-13-0538-59S.COL___187                                                 6
 STAT SP IPHASW D HRMM SECON CODA AMPLIT PERI AZIMU VELO SNR AR TRES W  DIS CAZ7
 BAR2 SZ EP        539 36.21                             171    -0.110   23 188 
 BAR2 SZ ES   2    539 51.21                             171    -0.5 5   23 188 
 BAR2 SZ I         539 52.87         7.3 0.22                            23 188 
 GIR2 SZ EP   2    539 36.21                             167    -0.2 5   31 352 
 GIR2 SZ ES   2    539 51.99                             167     0.2 5   31 352 
 BRR  HZ IP        539 37.97                             153     0.210   70 299 
 BRR  HZ I         539 38.24        18.1 0.19                            70 299 
 BRR  HE ES   2    539 54.97                             153     0.6 5   70 299 
 PAM  SN ES   2    539 56.16                             151    -0.2 5   78  40 
 RUS  HZ EP   1    539 40.76                             144     0.3 7  101 176 
 RUS  HE ES   2    539 59.12                             144     0.1 5  101 176 
 RUS  HZ I         540  1.18         3.9 0.28                           101 176 
 PTB  HZ EP   1    539 42.92                             132    -0.6 7  147 259 
 PTB  HE ES   2    540  4.45                             132    -0.1 5  147 259 
 ZAR  HN ES   2    540 14.50                             123     0.2 4  203 292 
 ZAR  HZ I         540 19.96         5.0 0.18                           203 292 
 CHI  HZ EP   1    539 54.64                             117     0.3 6  249 195 
 CHI  HN ES   2    540 23.78                             117     0.0 4  249 195 
 CHI  HZ I         540 33.27         1.3 0.54                           249 195 
                                                                                
