 2017 1113 0803 45.9 L   6.826 -73.135152.2  RSN 26 0.9 2.3LRSN                1
 GAP= 66        1.77       3.6     4.1  7.2  0.5631E+00  0.6513E+01 -0.1888E+00E
 Epicentro: LOS SANTOS - SANTANDER                                             3
 ACTION:UPD 17-12-12 19:55 OP:rebc STATUS:               ID:20171113080345 L   I
 OLDACT:UP  17-11-13 18:12 OP:osc  STATUS:               ID:20171113075740     3
 OLDACT:REG 17-11-13 13:37 OP:leo  STATUS:               ID:20171113075740     3
 2017-11-13-0758-00M.COL___435                                                 6
 STAT SP IPHASW D HRMM SECON CODA AMPLIT PERI AZIMU VELO AIN AR TRES W  DIS CAZ7
 BAR2 EZ EP        8 4  6.25                             170   -0.1210 26.4 191 
 BAR2 EZ ES        8 4 21.97                             170   -0.3610 26.4 191 
 BAR2 EZ I         8 4 24.09        40.5 0.28            167           26.4 191 
 BRR  HZ EP        8 4  8.03                             154    0.3010 70.9 296 
 BRR  HE ES        8 4 25.43                             154    0.6710 70.9 296 
 BRR  HZ I         8 4 29.11        29.4 0.14            153           70.9 296 
 PAM  EZ EP        8 4  9.06                             153    0.4210 74.5  40 
 PAM  EN ES        8 4 26.25                             153   -0.1210 74.5  40 
 PAM  EZ I         8 4 27.35        26.2 0.16            155           74.5  40 
 RUS  HZ EP        8 4 10.18                             144   -0.3010  103 177 
 RUS  HN ES        8 4 29.37                             144   -0.2910  103 177 
 RUS  HZ I         8 4 32.12        13.8 0.16            143            103 177 
 PTB  HZ EP        8 4 12.90                             133   -0.65 9  149 258 
 PTB  HN ES        8 4 34.36                             133   -0.76 9  149 258 
 PTB  HZ I         8 4 36.78        35.3 0.18            132            149 258 
 TAM  HZ EP        8 4 14.34                             132    0.27 9  155 106 
 TAM  HZ I         8 4 35.02        21.4 0.36            132            155 106 
 TAM  HE ES        8 4 36.33                             132    0.30 9  155 106 
 SPBC HZ EP        8 4 15.19                             130    0.02 9  166 219 
 SPBC HN ES        8 4 38.42                             130    0.41 9  166 219 
 SPBC HZ I         8 4 44.92        42.7 0.16            128            166 219 
 YPLC HZ EP        8 4 16.48                             128    0.12 9  179 152 
 YPLC HE ES        8 4 40.66                             128    0.54 9  179 152 
 YPLC HZ I         8 4 44.14        23.1 0.30            127            179 152 
 ZAR  HZ EP        8 4 18.70                             124   -0.07 9  204 291 
 ZAR  HE ES        8 4 44.78                             124    0.37 9  204 291 
 ZAR  HZ I         8 4 50.78        36.0 0.26            123            204 291 
 TABC EZ EP        8 4 23.90                             120    1.54 8  233 211 
 TABC EZ ES        8 4 49.06                             120   -1.74 8  233 211 
 TABC EZ I         8 5  1.04        20.7 0.70            119            233 211 
 NOR  HZ EP        8 4 22.16                             120   -0.12 8  237 234 
 NOR  HE ES        8 4 51.08                             120    0.42 8  237 234 
 NOR  HZ I         8 4 54.18        24.6 0.22            118            237 234 
 CHI  HZ EP        8 4 24.29                             118   -0.00 8  252 195 
 CHI  HE ES        8 4 55.88                             118    1.64 8  252 195 
 CHI  HZ I         8 5  1.72         7.0 0.32            117            252 195 
 ROSC BZ EP   4    8 4 26.07                             118    1.36 0  256 211 
 ROSC BN ES   4    8 4 57.58                             118    2.61 0  256 211 
 ROSC BZ I         8 5  4.24        20.7 0.45            117            256 211 
 URE  HZ EP        8 4 26.23                             115   -1.06 7  284 291 
 URE  HE ES        8 4 57.61                             115   -1.96 7  284 291 
 URE  HZ I         8 5 12.43        15.0 0.18            114            284 291 
 GUY2CHZ EP        8 4 31.22                             113    1.12 7  304 234 
 GUY2CHE ES        8 5  4.62                             113    0.04 7  304 234 
 GUY2CHZ I         8 5 13.22        16.0 0.30                           304 234 
 PTGC HZ EP        8 4 29.14                             113   -1.17 7  311 159 
 PTGC HN ES        8 5  2.55                             113   -2.39 7  311 159 
 PTGC HZ I         8 5  5.08        10.2 0.22            112            311 159 
 DRL02HN ES        8 5  8.62                             112    1.45 7  322 357 
 LL6C HZ EP        8 4 31.57                             112    0.01 7  322 357 
 DRL02HZ EP        8 4 31.71                             112    0.15 7  322 357 
 LL6C HE ES        8 5  6.60                             112   -0.58 7  322 357 
 CBOC HZ EP        8 4 33.85                             111    0.54 7  336 252 
 CBOC HN ES        8 5 10.90                             111    0.61 7  336 252 
 CBOC HZ I         8 5 30.98         5.0 0.42            110            336 252 
 DBB  EZ EP        8 4 33.65                             111   -0.10 7  340 274 
 DBB  EN ES        8 5 10.21                             111   -0.86 7  340 274 
 DBB  EZ I         8 5 14.38         7.9 0.36            110            340 274 
 ARGC HE ES        8 5 14.82                             109    0.56 6  357 340 
 PRA  HZ EP        8 4 39.81                             107   -0.19 6  395 210 
 PRA  HE ES        8 5 22.09                             107   -0.11 6  395 210 
 PRA  HZ I         8 5 31.06         8.8 0.32            107            395 210 
 ORTC HZ EP        8 4 40.72                             107    0.33 6  398 216 
 ORTC HN ES        8 5 24.14                             107    1.24 6  398 216 
 ORTC HZ I         8 5 28.18         3.6 0.54            107            398 216 
 APAC HN ES        8 5 23.97                             107    1.17 6  398 288 
 SJC  HZ EP   4    8 4 39.97                             107   -1.50 0  407 327 
 SJC  HE ES   4    8 5 21.74                             107   -3.08 0  407 327 
 SJC  HZ I         8 5 26.61         4.8 0.38            107            407 327 
 PAL  HE ES   4    8 5 27.94                             107    2.96 0  408 239 
 SMAR HZ EP        8 4 49.37                             103   -2.27 4  494 346 
 SMAR HE ES   4    8 5 39.40                             103   -3.53 0  494 346 
                                                                                
