 2016  313 0134 30.0 L   6.812 -73.174152.8  RSN  5 0.2 1.3LRSN                1
 GAP=144        0.66       3.4     4.0  5.4 -0.4127E+01  0.5160E+01  0.9515E+00E
 Epicentro: LOS SANTOS - SANTANDER                                             3
 ACTION:UPD 16-05-13 21:23 OP:cam  STATUS:               ID:20160313013430 L   I
 OLDACT:REG 16-03-13 12:59 OP:cara STATUS:               ID:20160313012749     3
 2016-03-13-0127-49M.COL___295                                                 6
 STAT SP IPHASW D HRMM SECON CODA AMPLIT PERI AZIMU VELO AIN AR TRES W  DIS CAZ7
 BAR2 EZ EP        134 50.04                             171   -0.4710 24.4 182 
 BAR2 EZ ES        135  6.81                             171    0.3110 24.4 182 
 BAR2 EZ I         135  8.54         5.4 0.20            170           24.4 182 
 PAM  EZ EP        134 53.15                             152    0.1110 78.4  42 
 PAM  EE ES        135 10.91                             152   -0.1010 78.4  42 
 PAM  EZ I         135 12.88         2.7 0.20            156           78.4  42 
 RUS  HZ EP        134 54.66                             145    0.0810  102 174 
 RUS  HE ES        135 13.70                             145   -0.0410  102 174 
 RUS  HZ I         135 16.53         1.7 0.22            147            102 174 
 PTB  HZ EP        134 57.68                             134    0.37 9  145 258 
 PTB  HN ES        135 18.40                             134   -0.21 9  145 258 
 PTB  HZ I         135 26.05         6.0 0.40            134            145 258 
 CHI  HZ EP   4    135  8.92                             118    0.75 0  249 194 
 CHI  HZ I         135  9.69         1.0 0.56            120            249 194 
 CHI  HE ES        135 37.88                             118   -0.05 8  249 194 
                                                                                
