 2015  113 0028  0.9 L   6.813 -73.147143.8  RSN 13 0.4 2.3LRSN                1
 GAP= 71        1.07       2.8     3.3  5.4  0.3056E+00  0.2720E+01  0.2287E+00E
 Epicentro: LOS SANTOS - SANTANDER                                             3
 ACTION:UPD 15-03-02 15:39 OP:nd   STATUS:               ID:20150113002800 L   I
 OLDACT:DUP 15-01-13 13:00 OP:carl STATUS:               ID:20150113001746d    3
 2015-01-13-0017-45M.COL___256                                                 6
 STAT SP IPHASW D HRMM SECON CODA AMPLIT PERI AZIMU VELO AIN AR TRES W  DIS CAZ7
 BAR2 EZ IP     C  028 20.22                             170   -0.0610 24.7 189 
 BAR2 EZ ES        028 35.36                             170   -0.0610 24.7 189 
 BAR2 EZ I         028 35.97        44.7 0.16            169           24.7 189 
 BRR  HZ IP     C  028 22.12                             152    0.3710 70.4 298 
 BRR  HN ES        028 38.89                             152    0.8510 70.4 298 
 BRR  HZ I         028 39.98        36.9 0.18            150           70.4 298 
 PAM  SZ IP     C  028 23.08                             151    0.2810 76.4  40 
 PAM  SN ES        028 39.91                             151   -0.0110 76.4  40 
 PAM  SZ I         028 42.09        21.2 0.40            153           76.4  40 
 RUS  HZ EP        028 24.20                             143   -0.3210  102 176 
 RUS  HN ES        028 42.75                             143   -0.2210  102 176 
 RUS  HZ I         028 44.30        24.2 0.46            144            102 176 
 PTB  HZ EP        028 27.14                             132   -0.54 9  148 258 
 PTB  HN ES        028 47.69                             132   -0.90 9  148 258 
 PTB  HZ I         028 52.41        31.3 0.14            130            148 258 
 TAM  HZ EP        028 28.62                             130    0.20 9  156 105 
 TAM  HN ES        028 50.00                             130    0.07 9  156 105 
 TAM  HZ I         028 50.58        19.4 0.22            132            156 105 
 OCA  HZ EP        028 28.75                             129   -0.13 9  159 353 
 OCA  HN ES        028 50.12                             129   -0.62 9  159 353 
 OCA  HZ I         028 52.15        22.6 0.52            130            159 353 
 SPBC HZ EP        028 29.03                             128   -0.27 9  164 219 
 SPBC HN ES        028 51.52                             128    0.04 9  164 219 
 SPBC HZ I         028 54.47        32.2 0.28            128            164 219 
 ZAR  HZ EP        028 33.32                             122    0.21 9  203 292 
 ZAR  HN ES        028 59.05                             122    0.79 9  203 292 
 NOR  HZ EP        028 36.90                             118    0.35 8  235 234 
 NOR  HN ES   4    029  3.63                             118   -0.75 0  235 234 
 NOR  HZ I         029 10.04        16.1 0.22            118            235 234 
 SML  HZ EP        028 36.96                             117   -0.27 8  242 335 
 SML  HE ES        029  5.32                             117   -0.28 8  242 335 
 SML  HZ I         029 14.80        26.7 0.10            117            242 335 
 CHI  HZ EP        028 39.29                             117    0.70 8  250 195 
 CHI  HE ES        029  7.93                             117   -0.09 8  250 195 
 CHI  HZ I         029 10.88         5.0 0.32            117            250 195 
 ROSC BZ EP   4    028 40.09                             116    1.10 0  254 211 
 ROSC BN ES   4    029 10.92                             116    2.19 0  254 211 
 HEL  HZ EP   4    028 40.61                             114   -0.38 0  272 256 
 HEL  HN ES   4    029 12.95                             114    0.65 0  272 256 
 HEL  HZ I         029 19.55        14.0 0.34            114            272 256 
 RREF HZ EP   4    028 48.60                             110    1.59 0  323 229 
 RREF HN ES   4    029 22.92                             110   -0.08 0  323 229 
                                                                                
