 2013 1213 0738 27.2 L   6.802 -73.145146.8  RSN 13 0.4 2.1LRSN                1
 GAP= 71        1.03       2.9     3.8  5.7 -0.1261E+01  0.2019E+01  0.3103E+01E
 Epicentro: LOS SANTOS - SANTANDER                                             3
 ACTION:UPD 14-01-13 10:17 OP:ep   STATUS:               ID:20131213073827 L   I
 OLDACT:REG 13-12-13 08:23 OP:jn   STATUS:               ID:20131213073745     3
 2013-12-13-0737-45M.COL___244                                                 6
 STAT SP IPHASW D HRMM SECON CODA AMPLIT PERI AZIMU VELO AIN AR TRES W  DIS CAZ7
 BAR2 SZ EP     D  738 46.98                             170    0.0610 23.6 190 
 BAR2 SZ ES        739  1.91                             170   -0.4210 23.6 190 
 BAR2 SZ I         739  3.17        62.4 0.12            171           23.6 190 
 BRR  HZ EP     C  738 48.87                             153    0.4510 71.2 298 
 BRR  HN ES        739  6.04                             153    1.0410 71.2 298 
 BRR  HZ I         739  8.92        15.4 0.34            151           71.2 298 
 PAM  SZ EP        738 49.79                             151    0.3210 77.1  40 
 PAM  SN ES        739  6.66                             151   -0.2110 77.1  40 
 PAM  SZ I         739 11.54        11.9 0.52            146           77.1  40 
 RUS  HZ EP        738 50.86                             144   -0.1710  101 176 
 RUS  HN ES        739  9.54                             144   -0.1010  101 176 
 RUS  HZ I         739 10.56        12.2 0.24            141            101 176 
 PTB  HZ EP        738 53.52                             132   -0.70 9  148 259 
 PTB  HN ES        739 14.92                             132   -0.42 9  148 259 
 PTB  HZ I         739 16.78        15.9 0.26            130            148 259 
 TAM  HZ EP        738 55.21                             131    0.30 9  155 105 
 TAM  HZ I         739 15.77        12.4 0.34            126            155 105 
 OCA  HN ES        739 17.31                             130   -0.35 9  160 353 
 OCA  HZ I         739 21.99        12.5 0.32            126            160 353 
 SPBC HZ EP        738 55.88                             129    0.12 9  163 219 
 SPBC HN ES        739 18.26                             129    0.19 9  163 219 
 SPBC HZ I         739 23.01        15.1 0.32            127            163 219 
 ZAR  HN ES   1    739 25.14                             123    0.11 6  204 292 
 ZAR  HZ I         739 34.86        12.9 0.14            120            204 292 
 NOR  HZ EP        739  3.16                             119    0.19 8  235 234 
 NOR  HN ES        739 31.12                             119    0.21 8  235 234 
 NOR  HZ I         739 36.54        13.3 0.56            116            235 234 
 SML  HN ES        739 31.86                             118   -0.56 8  244 335 
 CHI  HZ EP        739  5.00                             117    0.06 8  249 195 
 CHI  HN ES        739 33.91                             117   -0.50 8  249 195 
 CHI  HZ I         739 40.20         4.8 0.30            114            249 195 
 ROSC BZ EP   2    739  6.02                             117    0.66 4  253 211 
                                                                                
