 2012  913 0817 28.3 L   6.754 -73.138140.9  RSN  7 0.2 1.9LRSN                1
 GAP=140        0.53       4.1     3.3  5.0 -0.2216E+00 -0.9720E-01 -0.7455E+00E
 Epicentro: LOS SANTOS - SANTANDER                                             3
 ACTION:UPD 12-10-22 14:18 OP:ep   STATUS:               ID:20120913081728 L   I
 2012-09-13-0810-00M.COL___227                                                 6
 STAT SP IPHASW D HRMM SECON CODA AMPLIT PERI AZIMU VELO AIN AR TRES W  DIS CAZ7
 BAR2 SZ EP        817 47.38                             172    0.0910 18.5 195 
 BAR2 SZ ES        818  2.03                             172   -0.0410 18.5 195 
 BAR2 SZ I         818  4.75        22.6 0.34                          18.5 195 
 GIR2 SZ EP   1    817 47.39                             165   -0.19 7 36.4 350 
 BRR  HZ EP   1    817 49.39                             150    0.24 7 74.5 302 
 BRR  HZ I         817 51.65        15.7 0.13                          74.5 302 
 BRR  HN ES        818  5.67                             150    0.2810 74.5 302 
 PAM  SZ EP   1    817 50.30                             149    0.05 7 80.9  37 
 PAM  SZ I         817 50.74        26.2 0.26                          80.9  37 
 PAM  SE ES   1    818  7.02                             149   -0.32 7 80.9  37 
 RUS  HZ EP   2    817 51.20                             144   -0.04 5 95.4 176 
 RUS  HE ES   2    818  9.38                             144    0.28 5 95.4 176 
 RUS  HZ I         818 11.22         6.9 0.25                          95.4 176 
 PTB  HE ES   1    818 15.07                             131   -0.55 7  148 261 
 ZAR  HN ES   2    818 26.06                             121    0.02 4  207 293 
 ZAR  HZ I         818 31.67         7.2 0.34                           207 293 
                                                                                
