 2010  513 0955 41.4 L   6.775 -73.045143.1  RSN  9 0.5 1.9LRSN                1
 GAP=168        1.17       4.7     7.8  8.1 -0.1279E+02  0.8881E+01 -0.7998E+00E
 Epicentro: LOS SANTOS - SANTANDER                                             3
 ACTION:UP  10-08-24 10:04 OP:vdl  STATUS:               ID:20100513095541 L   I
 2010-05-13-0952-25S.COL___104                                                 6
 STAT SP IPHASW D HRMM SECON CODA AMPLIT PERI AZIMU VELO AIN AR TRES W  DIS CAZ7
 BAR2 SZ IP        956  0.80                             169     0.110   25 217 
 BAR2 SZ ES   1    956 15.58                             169    -0.2 7   25 217 
 BRR  HZ IP     C  956  3.41                             149     0.510   82 297 
 BRR  HZ I         956  3.78        44.1 0.11                            82 297 
 BRR  HN ES   1    956 20.57                             149     0.9 7   82 297 
 RUS  HZ EP        956  4.69                             144     0.010   98 183 
 RUS  HN ES   1    956 22.22                             144    -0.6 7   98 183 
 RUS  HZ I         956 24.09         5.6 0.31                            98 183 
 BRI  SZ IP        956  5.40                             141     0.510  108  15 
 BRI  SZ ES   1    956 23.72                             141     0.4 7  108  15 
 GUE  SZ EP        956  5.76                             139    -0.110  117   6 
 GRA  SZ IP        956  6.68                             136     0.310  126  12 
 GRA  SZ ES   1    956 25.36                             136    -0.5 7  126  12 
 OCA  SZ EP        956  9.35                             128    -0.5 9  165 349 
 OCA  SZ ES   1    956 31.10                             128    -1.0 7  165 349 
 OCA  SZ I         956 38.13        10.9 0.32                           165 349 
 HEL  HZ EP        956 22.29                             113    -0.3 7  282 257 
 HEL  HN ES   1    956 54.37                             113    -0.4 6  282 257 
 HEL  HZ I         956 59.98         4.8 0.36                           282 257 
 PRA  HZ EP        956 35.27                             106     0.1 6  395 211 
 PRA  HZ I         957 20.64         2.2 0.19                           395 211 
                                                                                
