 2013  913 0923 50.0 L   6.827 -73.159146.4  RSN 12 0.5 2.0LRSN 2.5WRSN        1
 SPEC AVERAGE  MO 12.9 ST 10.4 OM  1.2 f0 8.53 R0.3324 AL 0.00 WI 20.0 MW  2.5 3
 SPEC SD       MO  0.3 ST 23.8 OM  0.4 f0 5.95 R0.3524 AL      WI      MW  0.2 3
 GAP=134        1.12       2.7     4.5  5.7 -0.1601E+01  0.3643E+01 -0.1819E+01E
 Epicentro: LOS SANTOS - SANTANDER                                             3
 SPEC BAR2SH Z MO 12.9 ST  1.0 OM  1.3 f0 4.93 R0.3152 AL-0.00 WI 20.0 MW  2.5 3
 SPEC BAR2SH Z T 92423 K 0.000 GD  148 VS 4.20 DE 3.20 Q0300.0 QA 0.60 VS 4.20 3
 SPEC BRR HH Z MO 12.8 ST  2.0 OM  1.2 f0 6.46 R0.2406 AL-0.00 WI 20.0 MW  2.5 3
 SPEC BRR HH Z T 92427 K 0.000 GD  161 VS 4.20 DE 3.20 Q0300.0 QA 0.60 VS 4.20 3
 SPEC PAM SH Z MO 13.1 ST0.246 OM  1.5 f0 2.53 R0.6142 AL-0.00 WI 20.0 MW  2.7 3
 SPEC PAM SH Z T 92428 K 0.000 GD  164 VS 4.20 DE 3.20 Q0300.0 QA 0.60 VS 4.20 3
 SPEC RUS HH Z MO 13.5 ST0.055 OM  1.9 f0 1.10 R1.4127 AL-0.00 WI 20.0 MW  3.0 3
 SPEC RUS HH Z T 92431 K 0.000 GD  179 VS 4.20 DE 3.20 Q0300.0 QA 0.60 VS 4.20 3
 SPEC PTB HH Z MO 12.9 ST  7.2 OM  1.2 f0 9.11 R0.1706 AL-0.00 WI 20.0 MW  2.6 3
 SPEC PTB HH Z T 92435 K 0.000 GD  207 VS 4.20 DE 3.20 Q0300.0 QA 0.60 VS 4.20 3
 SPEC OCA HH Z MO 13.0 ST  1.7 OM  1.3 f0 5.17 R0.3006 AL-0.00 WI 20.0 MW  2.6 3
 SPEC OCA HH Z T 92437 K 0.000 GD  214 VS 4.20 DE 3.20 Q0300.0 QA 0.60 VS 4.20 3
 SPEC SPBCHH Z MO 12.7 ST  3.9 OM  1.0 f0 8.48 R0.1833 AL-0.00 WI 20.0 MW  2.4 3
 SPEC SPBCHH Z T 92439 K 0.000 GD  220 VS 4.20 DE 3.20 Q0300.0 QA 0.60 VS 4.20 3
 SPEC ZAR HH Z MO 13.0 ST  5.3 OM  1.2 f0 7.74 R0.2008 AL-0.00 WI 20.0 MW  2.6 3
 SPEC ZAR HH Z T 92446 K 0.000 GD  249 VS 4.20 DE 3.20 Q0300.0 QA 0.60 VS 4.20 3
 SPEC NOR HH Z MO 12.8 ST  2.5 OM  1.0 f0 6.77 R0.2295 AL-0.00 WI 20.0 MW  2.5 3
 SPEC NOR HH Z T 92452 K 0.000 GD  276 VS 4.20 DE 3.20 Q0300.0 QA 0.60 VS 4.20 3
 SPEC SML HH Z MO 12.7 ST 88.7 OM  0.9 f0 23.9 R0.0650 AL-0.00 WI 20.0 MW  2.4 3
 SPEC SML HH Z T 92452 K 0.000 GD  281 VS 4.20 DE 3.20 Q0300.0 QA 0.60 VS 4.20 3
 SPEC CHI HH Z MO 12.6 ST  3.8 OM  0.7 f0 9.62 R0.1615 AL-0.00 WI 20.0 MW  2.3 3
 SPEC CHI HH Z T 92456 K 0.000 GD  290 VS 4.20 DE 3.20 Q0300.0 QA 0.60 VS 4.20 3
 SPEC COD HH Z MO 12.2 ST  7.8 OM  0.2 f0 16.5 R0.0942 AL-0.00 WI 20.0 MW  2.1 3
 SPEC COD HH Z T 92514 K 0.000 GD  374 VS 4.20 DE 3.20 Q0300.0 QA 0.60 VS 4.20 3
 OLDACT:DUP 13-09-13 12:03 OP:carl STATUS:               ID:20130913091902d    3
 ACTION:UPD 13-10-22 09:22 OP:ep   STATUS:               ID:20130913092350 L   I
 OLDACT:UP  13-09-13 12:04 OP:carl STATUS:               ID:20130913091902d    3
 2013-09-13-0919-59M.COL___269                                                 6
 STAT SP IPHASW D HRMM SECON CODA AMPLIT PERI AZIMU VELO AIN AR TRES W  DIS CAZ7
 BAR2 SZ EP        924  9.70                             169   -0.0910 26.0 186 
 BAR2 SZ ES        924 24.64                             169   -0.5710 26.0 186 
 BAR2 SZ I         924 25.55        27.6 0.34            172           26.0 186 
 BRR  HZ EP        924 11.50                             154    0.4010 68.5 297 
 BRR  HN ES        924 28.51                             154    0.9710 68.5 297 
 BRR  SZ I         924 32.08        26.2 0.12            149           68.5 297 
 BRR  HZ I         924 32.10        27.1 0.12                          68.5 297 
 PAM  SZ EP        924 12.59                             151    0.3510 76.1  42 
 PAM  SN ES   1    924 29.67                             151    0.11 7 76.1  42 
 PAM  SZ I         924 31.39        27.4 0.50            149           76.1  42 
 RUS  HZ EP        924 13.94                             143   -0.1210  104 175 
 RUS  HN ES        924 32.93                             143    0.1210  104 175 
 RUS  SZ I         924 34.57         8.7 0.24            145            104 175 
 PTB  HZ EP        924 16.28                             132   -0.69 9  147 258 
 PTB  HN ES        924 37.19                             132   -0.80 9  147 258 
 PTB  SZ I         924 39.45        11.7 0.30            130            147 258 
 OCA  HZ EP        924 18.40                             130    0.30 9  157 354 
 OCA  HN ES        924 39.42                             130   -0.58 9  157 354 
 OCA  SZ I         924 42.63        16.1 0.16            127            157 354 
 SPBC HZ EP        924 18.73                             129    0.02 9  165 218 
 SPBC HN ES        924 41.05                             129   -0.03 9  165 218 
 SPBC SZ I         924 46.76        10.8 0.20            128            165 218 
 ZAR  HZ EP        924 23.11                             123    0.85 9  202 292 
 ZAR  HN ES        924 47.63                             123    0.22 9  202 292 
 ZAR  SZ I         924 55.28        12.6 0.16            120            202 292 
 NOR  HZ EP        924 25.95                             119    0.10 8  235 234 
 NOR  HN ES        924 54.03                             119    0.23 8  235 234 
 NOR  SZ I         924 59.51         7.7 0.16            117            235 234 
 SML  HZ EP        924 25.79                             118   -0.55 8  240 335 
 SML  HN ES        924 54.28                             118   -0.38 8  240 335 
 SML  SZ I         924 58.06        19.8 0.08            116            240 335 
 CHI  HZ EP        924 27.67                             117   -0.36 8  251 195 
 CHI  HN ES        924 58.00                             117    0.33 8  251 195 
 CHI  HZ I         925  2.13         3.4 0.26            117            251 195 
 CHI  SZ I         925 18.03         6.1 2.86                           251 195 
 COD  HZ EP        924 38.02                             109   -0.06 7  345 355 
 COD  HN ES        925 15.72                             109    0.17 7  345 355 
 COD  SZ I         925 54.70         3.6 3.06            108            345 355 
                                                                                
