 2017 1113 0958 54.2 L   6.674 -73.210154.2  RSN  5 0.5 1.0LRSN                1
 GAP=211        1.29       9.9     9.1  9.4  0.5508E+02  0.1357E+02 -0.5319E+01E
 Epicentro: VILLANUEVA - SANTANDER                                             3
 ACTION:UPD 17-12-12 19:55 OP:rebc STATUS:               ID:20171113095854 L   I
 OLDACT:REG 17-11-13 20:03 OP:lv   STATUS:               ID:20171113095740     3
 2017-11-13-0958-00M.COL___438                                                 6
 STAT SP IPHASW D HRMM SECON CODA AMPLIT PERI AZIMU VELO AIN AR TRES W  DIS CAZ7
 BAR2 EZ EP        959 14.37                             176   -0.2710 9.58 161 
 BAR2 EZ ES        959 29.87                             176   -0.7310 9.58 161 
 BAR2 EZ I         959 30.94         4.8 0.20            171           9.58 161 
 BRR  HZ EP        959 17.34                             153    0.9810 73.3 311 
 BRR  HN ES        959 34.07                             153    0.4110 73.3 311 
 RUS  HZ EP        959 18.14                             149    0.2210 87.6 171 
 RUS  HN ES        959 36.57                             149    0.1510 87.6 171 
 RUS  HZ I         959 38.09         0.7 0.12            148           87.6 171 
 PTB  HZ EP        959 20.86                             136   -0.20 9  139 264 
 PTB  HN ES        959 42.17                             136    0.14 9  139 264 
 PTB  HZ I         959 46.59         0.6 0.12            133            139 264 
 ZAR  HZ EP        959 26.30                             124   -0.82 9  203 297 
 ZAR  HE ES        959 52.66                             124   -0.14 9  203 297 
 ZAR  HZ I         959 58.53         1.2 0.52            123            203 297 
                                                                                
