 2011  613 0820 29.6 L   6.780 -73.105148.2  RSN  5 0.1 1.4LRSN                1
 GAP=163        0.34       2.0     4.3  4.1  0.1607E+00 -0.4841E+01 -0.1885E+01E
 Epicentro: LOS SANTOS - SANTANDER                                             3
 ACTION:UP  11-07-14 19:04 OP:ep   STATUS:               ID:20110613082029 L   I
 2011-06-13-0815-36S.COL___132                                                 6
 STAT SP IPHASW D HRMM SECON CODA AMPLIT PERI AZIMU VELO SNR AR TRES W  DIS CAZ7
 BAR2 SZ EP   1    820 49.39                             171    -0.1 8   22 202 
 BAR2 SZ I         821  7.19         4.0 0.09                            22 202 
 BRR  HZ EP   1    820 51.44                             151     0.1 8   76 298 
 BRR  HN ES   1    821  8.21                             151     0.0 8   76 298 
 BRR  HZ I         821 12.38         8.9 0.10                            76 298 
 RUS  HZ EP   1    820 53.55                             145     0.1 8   98 179 
 RUS  HN ES   1    821 11.96                             145    -0.1 8   98 179 
 GRA  SZ EP   1    820 55.15                             137     0.0 8  127  15 
 GRA  SZ ES   1    821 15.12                             137     0.1 8  127  15 
 GRA  SZ I         821 16.48         2.8 0.40                           127  15 
 OCA  SZ EP        820 58.27                             130    -0.110  163 352 
 OCA  SZ I         821 24.92         2.7 0.44                           163 352 
                                                                                
