 2014  213 0350 44.1 L   6.803 -73.131145.7  RSN 10 0.4 1.8LRSN                1
 GAP=138        0.95       2.6     4.0  5.3 -0.4192E-01  0.4863E+01  0.3300E+00E
 Epicentro: LOS SANTOS - SANTANDER                                             3
 ACTION:UPD 14-03-10 08:09 OP:ep   STATUS:               ID:20140213035044 L   I
 OLDACT:REG 14-02-13 08:33 OP:carl STATUS:               ID:20140213035000     3
 2014-02-13-0350-00M.COL___199                                                 6
 STAT SP IPHASW D HRMM SECON CODA AMPLIT PERI AZIMU VELO AIN AR TRES W  DIS CAZ7
 BAR2 SZ EP        351  3.90                             170    0.1410 24.0 194 
 BAR2 SZ ES        351 18.62                             170   -0.4610 24.0 194 
 BAR2 SZ I         351 19.60        18.7 0.28            168           24.0 194 
 BRR  HZ EP        351  5.80                             152    0.4610 72.4 298 
 BRR  HN ES        351 22.72                             152    0.8410 72.4 298 
 BRR  HZ I         351 23.16        13.5 0.10            150           72.4 298 
 PAM  SZ EP        351  6.74                             151    0.4810 76.1  39 
 PAM  SN ES        351 23.25                             151   -0.2810 76.1  39 
 PAM  SZ I         351 26.01         8.9 0.20            154           76.1  39 
 RUS  HZ EP        351  7.90                             144    0.0110  101 177 
 RUS  HE ES        351 26.32                             144   -0.1010  101 177 
 RUS  HZ I         351 27.33         4.1 0.40            143            101 177 
 PTB  HZ EP        351 10.94                             132   -0.30 9  149 259 
 PTB  HE ES        351 32.40                             132    0.02 9  149 259 
 PTB  HZ I         351 34.51        10.8 0.16            130            149 259 
 OCA  HE ES        351 34.37                             130   -0.12 9  160 353 
 OCA  HZ I         351 37.14        10.6 0.34            130            160 353 
 SPBC HZ EP        351 13.02                             129    0.28 9  164 219 
 SPBC HE ES        351 34.99                             129   -0.07 9  164 219 
 SPBC HZ I         351 40.92         7.8 0.70            128            164 219 
 ZAR  HZ EP        351 16.63                             122   -0.08 8  205 292 
 ZAR  HE ES        351 41.93                             122   -0.19 8  205 292 
 ZAR  HZ I         351 48.74         9.7 0.26            122            205 292 
 SML  HZ EP        351 20.30                             117   -0.49 8  244 335 
 SML  HE ES        351 48.90                             117   -0.49 8  244 335 
 SML  HZ I         351 52.37         8.0 0.10            118            244 335 
 CHI  HZ EP        351 22.34                             117    0.44 8  249 195 
 CHI  HE ES        351 50.76                             117   -0.61 8  249 195 
 CHI  HZ I         352  1.66         1.7 0.46            117            249 195 
                                                                                
