 2015 1013 0524 28.7 L   6.772 -73.163148.3  RSN  4 0.2 1.2LRSN                1
 GAP=233        0.50       3.0     4.7  5.1  0.2866E+01 -0.3318E+01  0.1024E+01E
 Epicentro: LOS SANTOS - SANTANDER                                             3
 ACTION:UPD 15-12-22 20:39 OP:cam  STATUS:               ID:20151013052428 L   I
 OLDACT:DUP 15-10-13 21:12 OP:stll STATUS:               ID:20151013051749d    3
 2015-10-13-0517-48M.COL___334                                                 6
 STAT SP IPHASW D HRMM SECON CODA AMPLIT PERI AZIMU VELO AIN AR TRES W  DIS CAZ7
 BAR2 EZ EP        524 48.28                             172   -0.2510 20.0 186 
 BRR  HZ EP        524 50.04                             153   -0.0310 71.1 301 
 BRR  HN ES        525  6.88                             153    0.1010 71.1 301 
 BRR  HZ I         525  9.87         3.1 0.46            152           71.1 301 
 RUS  HZ EP        524 52.47                             145    0.0210 97.6 175 
 RUS  HZ I         524 53.41         2.2 0.26            147           97.6 175 
 RUS  HE ES        525 11.11                             145    0.1110 97.6 175 
 SPBC HZ EP        524 57.29                             130    0.28 9  160 219 
 SPBC HZ I         524 57.94         2.7 0.10            131            160 219 
 SPBC HN ES        525 18.91                             130   -0.22 9  160 219 
                                                                                
