 2016  113 0244 35.4 L   7.166 -73.406114.6  RSN  7 0.3 1.4LRSN                1
 GAP= 83        0.82       2.6     3.4  5.3 -0.9554E+00  0.2710E+01 -0.1731E+01E
 Epicentro: LEBRIJA - SANTANDER                                                3
 ACTION:UPD 16-03-09 23:24 OP:cam  STATUS:               ID:20160113024435 L   I
 OLDACT:REG 16-01-13 11:59 OP:drio STATUS:               ID:20160113023740     3
 2016-01-13-0237-40M.COL___328                                                 6
 STAT SP IPHASW D HRMM SECON CODA AMPLIT PERI AZIMU VELO AIN AR TRES W  DIS CAZ7
 BRR  HZ EP     C  244 51.47                             162    0.1510 34.4 259 
 BRR  HN ES        245  4.15                             162    0.4410 34.4 259 
 BRR  HZ I         245  4.73         5.3 0.18            160           34.4 259 
 BAR2 EZ EP     C  244 53.72                             147    0.2810 68.1 159 
 BAR2 EZ ES        245  7.29                             147   -0.2010 68.1 159 
 PAM  EZ EP        244 54.54                             143   -0.1110 80.3  76 
 PAM  EN ES        245  9.83                             143    0.1910 80.3  76 
 PAM  EZ I         245 10.60         5.5 0.16            145           80.3  76 
 OCA  HZ EP        244 57.11                             131   -0.3310  119   5 
 OCA  HN ES        245 14.17                             131   -0.4310  119   5 
 PTB  HZ EP        244 58.62                             126   -0.18 9  135 239 
 PTB  HN ES        245 16.81                             126   -0.22 9  135 239 
 PTB  HZ I         245 21.24         2.6 0.24            126            135 239 
 RUS  HZ EP        245  0.81                             125    0.38 9  145 166 
 RUS  HN ES        245 19.54                             125   -0.40 9  145 166 
 RUS  HZ I         245 22.12         2.4 0.16            126            145 166 
 SML  HZ EP        245  5.50                             116    0.45 9  195 338 
 SML  HE ES   4    245 26.56                             116   -1.59 0  195 338 
 SML  HZ I         245 31.67         9.4 0.10            116            195 338 
                                                                                
