 2017  813 0511 34.7 L   6.794 -73.046143.3  RSN  8 0.5 1.5LRSN                1
 GAP=247        1.16       5.5     6.0  7.6  0.6037E+01  0.1238E+02  0.3469E+00E
 Epicentro: LOS SANTOS - SANTANDER                                             3
 ACTION:UPD 17-09-04 20:19 OP:rebc STATUS:               ID:20170813051134 L   I
 OLDACT:REG 17-08-13 12:03 OP:dhb  STATUS:               ID:20170813050742     3
 2017-08-13-0508-00M.COL___410                                                 6
 STAT SP IPHASW D HRMM SECON CODA AMPLIT PERI AZIMU VELO AIN AR TRES W  DIS CAZ7
 BAR2 EZ EP        511 54.06                             169   -0.0810 26.9 214 
 BAR2 EZ ES        512  8.99                             169   -0.2810 26.9 214 
 BAR2 EZ I         512 10.42        11.2 0.24            165           26.9 214 
 BRR  HZ EP        511 56.40                             149    0.1810 81.3 295 
 BRR  HE ES        512 13.64                             149    0.6710 81.3 295 
 BRR  HZ I         512 14.36         8.1 0.21            146           81.3 295 
 RUS  HZ EP        511 58.18                             144    0.0010 99.8 182 
 RUS  HN ES        512 16.67                             144    0.2010 99.8 182 
 RUS  HZ I         512 18.08         4.1 0.30            144           99.8 182 
 SPBC HZ EP        512  3.21                             127   -0.47 9  170 222 
 SPBC HE ES        512 25.90                             127   -0.36 9  170 222 
 SPBC HZ I         512 29.13         2.1 0.07            126            170 222 
 ZAR  HZ EP        512  7.74                             120   -0.36 8  214 291 
 ZAR  HE ES        512 33.40                             120   -0.73 8  214 291 
 ZAR  HZ I         512 40.59         4.1 0.32            120            214 291 
 NOR  HZ EP        512 12.05                             117    0.80 8  243 236 
 NOR  HE ES        512 39.36                             117   -0.38 8  243 236 
 NOR  HZ I         512 43.05         2.2 0.16            116            243 236 
 HEL  HN ES        512 49.05                             113    0.88 7  283 256 
 HEL  HZ I         512 54.55         1.1 0.29            113            283 256 
 GUY2CHZ EP   9    512 20.89                             111    1.68 0  310 236 
 GUY2CHE ES        512 54.80                                   -0.78 7  310 236 
 GUY2CHZ I         513  1.05         1.1 0.40                           310 236 
                                                                                
