 2010  513 0528 45.6 L   6.777 -73.014146.4  RSN  7 0.3 1.8LRSN                1
 GAP=172        0.88       4.0     8.9  7.3 -0.7545E+01 -0.1353E+02 -0.4305E+01E
 Epicentro: CEPITA - SANTANDER                                                 3
 ACTION:UP  10-08-24 10:04 OP:vdl  STATUS:               ID:20100513052845 L   I
 2010-05-13-0527-04S.COL___104                                                 6
 STAT SP IPHASW D HRMM SECON CODA AMPLIT PERI AZIMU VELO AIN AR TRES W  DIS CAZ7
 BAR2 SZ EP        529  5.34                             169    -0.110   28 223 
 BAR2 SZ ES   1    529 20.32                             169    -0.5 7   28 223 
 BRR  HZ EP        529  7.96                             148     0.310   85 295 
 BRR  HZ I         529  8.21        26.6 0.15                            85 295 
 BRR  HN ES   1    529 25.20                             148     0.3 7   85 295 
 RUS  HZ EP        529  9.11                             145    -0.110   98 184 
 RUS  HN ES   1    529 27.84                             145     0.2 7   98 184 
 RUS  HZ I         529 29.12         3.9 0.24                            98 184 
 BRI  SZ EP        529  9.87                             142     0.510  107  13 
 BRI  SZ ES   1    529 27.85                             142    -0.1 7  107  13 
 GUE  SZ EP        529 10.29                             140    -0.110  117   5 
 GRA  SZ EP        529 10.94                             137     0.110  125  11 
 GRA  SZ ES   1    529 30.78                             137     0.3 7  125  11 
 OCA  SZ EP        529 13.73                             129    -0.7 9  165 348 
 OCA  SZ ES   2    529 36.29                             129    -0.6 5  165 348 
 OCA  SZ I         529 41.55        10.2 0.22                           165 348 
                                                                                
