 2013  913 0740  3.9 L   6.788 -73.134150.5  RSN 11 0.4 1.8LRSN                1
 GAP=139        0.93       2.5     4.1  5.1 -0.8415E+00  0.3412E+01  0.1923E+00E
 Epicentro: LOS SANTOS - SANTANDER                                             3
 ACTION:UPD 13-10-22 09:22 OP:ep   STATUS:               ID:20130913074003 L   I
 OLDACT:REG 13-09-13 07:36 OP:carl STATUS:               ID:20130913073959     3
 2013-09-13-0739-59M.COL___269                                                 6
 STAT SP IPHASW D HRMM SECON CODA AMPLIT PERI AZIMU VELO AIN AR TRES W  DIS CAZ7
 BAR2 SZ EP        740 24.13                             171    0.0110 22.3 194 
 BAR2 SZ ES        740 39.29                             171   -0.5610 22.3 194 
 BAR2 SZ I         740 41.03        10.9 0.42            169           22.3 194 
 BRR  HZ EP        740 26.10                             153    0.4010 73.0 299 
 BRR  HN ES        740 43.66                             153    0.9910 73.0 299 
 BRR  HZ I         740 50.19        10.3 0.30            151           73.0 299 
 PAM  SZ EP        740 26.81                             152    0.1410 77.6  38 
 PAM  SN ES   1    740 44.48                             152    0.08 7 77.6  38 
 PAM  SZ I         740 46.04         5.0 0.54            157           77.6  38 
 RUS  HZ EP        740 27.98                             145   -0.0810 99.2 177 
 RUS  HN ES   1    740 46.60                             145   -0.27 7 99.2 177 
 RUS  HZ I         740 48.00         6.3 0.26            147           99.2 177 
 PTB  HZ EP        740 31.15                             133   -0.24 9  149 259 
 PTB  HN ES   1    740 52.35                             133   -0.45 7  149 259 
 PTB  HZ I         740 57.39         8.0 0.24            133            149 259 
 OCA  HZ EP        740 32.64                             130   -0.11 9  162 353 
 OCA  HE ES        740 55.25                             130    0.02 9  162 353 
 OCA  HZ I         741  0.08         7.3 0.28            133            162 353 
 SPBC HZ EP        740 33.22                             130    0.44 9  163 220 
 SPBC HN ES        740 55.27                             130   -0.01 9  163 220 
 SPBC HZ I         741  2.19        15.7 0.24            131            163 220 
 ZAR  HZ EP        740 36.82                             123   -0.05 8  206 292 
 ZAR  HE ES        741  2.49                             123   -0.06 8  206 292 
 ZAR  HZ I         741  7.33         7.3 0.44            124            206 292 
 NOR  HZ EP        740 40.11                             119    0.13 8  235 235 
 NOR  HE ES   1    741  7.97                             119   -0.12 6  235 235 
 NOR  HZ I         741 15.25         7.3 0.16            121            235 235 
 SML  HZ EP        740 40.98                             118   -0.04 8  245 335 
 SML  HE ES        741  9.04                             118   -0.90 8  245 335 
 CHI  HZ EP        740 42.07                             118    0.27 8  248 196 
 CHI  HN ES        741 11.03                             118   -0.31 8  248 196 
 CHI  HZ I         741 17.30         2.9 0.34            121            248 196 
                                                                                
