 2015 1013 0321 23.0 L   6.779 -73.170140.7  RSN 11 0.4 1.6LRSN                1
 GAP=134        0.90       2.5     3.8  5.0 -0.2279E+01  0.5312E+01  0.2268E+01E
 Epicentro: LOS SANTOS - SANTANDER                                             3
 ACTION:UPD 15-12-22 20:39 OP:cam  STATUS:               ID:20151013032123 L   I
 OLDACT:UP  15-10-13 19:41 OP:ak   STATUS:               ID:20151013031748     3
 OLDACT:REG 15-10-13 14:14 OP:cara STATUS:               ID:20151013031748     3
 2015-10-13-0317-48M.COL___334                                                 6
 STAT SP IPHASW D HRMM SECON CODA AMPLIT PERI AZIMU VELO AIN AR TRES W  DIS CAZ7
 BAR2 EZ EP        321 41.49                             171   -0.5110 20.6 184 
 BAR2 EZ ES        321 56.33                             171   -0.4710 20.6 184 
 BAR2 EZ I         321 59.99         7.2 0.17            170           20.6 184 
 BRR  HZ EP        321 42.76                             152   -0.8110 70.0 301 
 BRR  HN ES        321 59.94                             152    0.3510 70.0 301 
 BRR  HZ I         322  4.22         5.3 0.26            151           70.0 301 
 PAM  EZ EP        321 45.13                             149    0.1910 80.9  40 
 PAM  EN ES        322  2.42                             149    0.4010 80.9  40 
 PAM  EZ I         322  4.52         5.8 0.20            154           80.9  40 
 RUS  HZ EP        321 46.33                             143    0.1910 98.4 174 
 RUS  HE ES        322  4.03                             143   -0.1210 98.4 174 
 RUS  HZ I         322  6.11         3.9 0.42            146           98.4 174 
 SPBC HZ EP        321 51.14                             128    0.33 9  160 219 
 SPBC HN ES        322 12.86                             128    0.39 9  160 219 
 SPBC HZ I         322 20.40         8.1 0.32            130            160 219 
 OCA  HZ EP        321 51.13                             128   -0.03 9  162 354 
 OCA  HN ES        322 13.35                             128    0.26 9  162 354 
 OCA  HZ I         322 17.58        13.0 0.30            131            162 354 
 ZAR  HZ EP   4    321 51.51                             121   -3.48 0  202 293 
 ZAR  HN ES        322 19.60                             121   -0.31 9  202 293 
 ZAR  HZ I         322 25.92         6.8 0.40            123            202 293 
 NOR  HZ EP        321 58.45                             118    0.36 8  231 235 
 NOR  HE ES        322 25.67                             118    0.24 8  231 235 
 NOR  HZ I         322 30.72         3.7 0.27            119            231 235 
 CHI  HZ EP        321 59.84                             116   -0.29 8  246 195 
 CHI  HN ES        322 29.19                             116    0.13 8  246 195 
 CHI  HZ I         322 33.54         2.4 0.34            119            246 195 
 ROSC BZ EP   4    321 56.69                             116   -3.82 0  249 211 
 ROSC BN ES   4    322 32.87                             116    3.14 0  249 211 
 GUY2CHZ EP   1    322  5.37                             112   -0.64 5  298 235 
 GUY2CHN ES        322 39.60                             112    0.08 7  298 235 
 GUY2CHZ I         322 48.80         2.7 0.30                           298 235 
 ORTC HZ EP   1    322 16.93                             106    0.56 4  392 216 
 ORTC HE ES        322 57.80                             106   -0.18 6  392 216 
 ORTC HZ I         323  5.21         1.0 0.34            108            392 216 
 SJC  HZ EP   4    322 16.26                             105   -2.24 0  410 327 
 SJC  HN ES   4    322 58.01                             105   -3.75 0  410 327 
                                                                                
