 2011 1213 0111 26.8 L   6.718 -73.185142.4  RSN  4 0.3 1.3LRSN                1
 GAP=174        0.61       6.1     5.8  8.2  0.7873E+01 -0.5494E+01  0.5030E+01E
 Epicentro: VILLANUEVA - SANTANDER                                             3
 ACTION:UPD 12-07-13 16:15 OP:ep   STATUS:               ID:20111213011127 L   I
 2011-12-13-0110-00M.COL___186                                                 6
 STAT SP IPHASW D HRMM SECON CODA AMPLIT PERI AZIMU VELO AIN AR TRES W  DIS CAZ7
 GIR2 SZ EP   1    111 45.87                             163   -0.44 7 39.9 359 
 BRR  HZ EP        111 47.65                             151    0.0210 72.4 306 
 BRR  HZ I         111 54.39         4.7 0.33                          72.4 306 
 BRR  HE ES   1    112  4.18                             151    0.28 7 72.4 306 
 RUS  HZ EP   1    111 49.58                             146    0.00 7 92.0 173 
 RUS  HE ES   2    112  7.45                             146    0.08 5 92.0 173 
 PTB  HZ EP        111 53.23                             132    0.29 9  142 262 
 PTB  HN ES   1    112 12.93                             132   -0.42 7  142 262 
 PTB  HZ I         112 13.56         2.7 0.52                           142 262 
                                                                                
