 2011  513 0319 57.4 L   6.774 -73.092145.6  RSN  4 0.2 1.4LRSN                1
 GAP=230        0.43       7.8    12.6  5.6  0.7620E+02 -0.1319E+02 -0.3211E+01E
 Epicentro: LOS SANTOS - SANTANDER                                             3
 ACTION:UP  11-06-29 08:52 OP:tino STATUS:               ID:20110513031957 L   I
 2011-05-13-0316-38S.COL___141                                                 6
 STAT SP IPHASW D HRMM SECON CODA AMPLIT PERI AZIMU VELO SNR AR TRES W  DIS CAZ7
 BAR2 SZ EP   2    320 16.92                             170    -0.1 5   22 206 
 BAR2 SZ I         320 36.75         6.5 0.94                            22 206 
 BTL  SZ EP   2    320 17.40                             170     0.4 5   25 309 
 BTL  SZ ES   1    320 32.27                             170    -0.1 7   25 309 
 BRR  HZ EP        320 18.75                             150    -0.210   78 298 
 BRR  HN ES   1    320 35.85                             150     0.2 7   78 298 
 BRR  HZ I         320 37.83         4.3 0.26                            78 298 
 RUS  HZ EP   2    320 21.15                             144     0.2 5   98 179 
 RUS  HN ES   2    320 39.18                             144    -0.1 5   98 179 
                                                                                
