 2010  813 0840  6.9 L   6.800 -73.072138.8  RSN 12 0.5 2.0LRSN                1
 GAP=167        1.07       3.8     8.2  7.8 -0.1222E+02  0.6294E+01  0.5951E+01E
 Epicentro: LOS SANTOS - SANTANDER                                             3
 ACTION:UP  10-09-07 10:54 OP:vdl  STATUS:               ID:20100813084006 L   I
 2010-08-13-0837-36S.COL___126                                                 6
 STAT SP IPHASW D HRMM SECON CODA AMPLIT PERI AZIMU VELO SNR AR TRES W  DIS CAZ7
 BAR2 SZ EP        840 25.66                             169    -0.110   26 208 
 BAR2 SZ ES   2    840 39.83                             169    -0.6 5   26 208 
 BAR2 SZ I         840 42.57        18.6 0.53                            26 208 
 BRR  HZ EP        840 27.39                             149    -0.310   79 296 
 BRR  HN ES   1    840 44.16                             149     0.2 7   79 296 
 BRR  HZ I         840 49.30        24.1 0.25                            79 296 
 RUS  HZ EP        840 29.70                             142    -0.210  100 181 
 RUS  HN ES   1    840 48.27                             142     0.4 7  100 181 
 RUS  HZ I         840 50.78        11.7 0.31                           100 181 
 GUE  SZ EP        840 30.39                             138    -0.410  115   8 
 GRA  SZ EP        840 31.96                             136     0.610  124  14 
 GRA  SZ ES   1    840 50.18                             136    -0.2 7  124  14 
 OCA  SZ EP        840 34.45                             128    -0.3 9  161 350 
 OCA  SZ ES   1    840 56.94                             128     0.4 7  161 350 
 OCA  SZ I         841  2.59        10.2 0.25                           161 350 
 CHI  HZ EP        840 44.25                             115    -0.2 8  251 197 
 CHI  HN ES   2    841 13.43                             115    -0.3 4  251 197 
 CHI  HZ I         841 16.08         4.8 0.80                           251 197 
 ROSC BZ IP        840 46.10                             115     1.0 8  257 213 
 ROSC BE ES   2    841 15.36                             115     0.5 4  257 213 
 ROSC BZ I         841 20.57         7.5 0.44                           257 213 
 HEL  HZ EP   2    840 47.20                             112    -0.4 4  280 256 
 HEL  HZ I         841 25.15         6.8 0.43                           280 256 
 GUY  SZ EP   3    840 51.29                             110     0.3 2  308 236 
 GUY  SE ES   2    841 24.56                             110    -0.8 4  308 236 
 RREF HZ EP        840 54.23                             109     0.8 7  328 230 
 RREF HE ES   2    841 29.37                             109    -0.4 3  328 230 
 RREF HZ I         841 37.97         6.1 0.15                           328 230 
 PRA  HZ EP        841  0.03                             105    -0.6 6  396 211 
 PRA  HN ES   2    841 41.83                             105    -0.7 3  396 211 
 PRA  HZ I         841 46.70         6.3 0.47                           396 211 
                                                                                
