 2015  713 0837 26.1 L   6.807 -73.153138.9  RSN  4 0.1 1.3LRSN                1
 GAP=182        0.39       2.1     3.3  4.6  0.2501E+01  0.5967E+01 -0.9031E+00E
 Epicentro: LOS SANTOS - SANTANDER                                             3
 ACTION:UPD 15-09-08 21:48 OP:cam  STATUS:               ID:20150713083726 L   I
 OLDACT:DUP 15-07-13 14:11 OP:spq  STATUS:               ID:20150713082742d    3
 2015-07-13-0827-41M.COL___334                                                 6
 STAT SP IPHASW D HRMM SECON CODA AMPLIT PERI AZIMU VELO AIN AR TRES W  DIS CAZ7
 BAR2 EZ EP        837 44.99                             170    0.0810 23.9 188 
 BAR2 EZ ES   1    837 59.59                             170    0.01 7 23.9 188 
 BAR2 EZ I         838  0.74         5.2 0.26            175           23.9 188 
 RUS  HZ EP   1    837 48.96                             142   -0.28 7  101 176 
 RUS  HE ES   1    838  7.36                             142    0.08 7  101 176 
 RUS  HZ I         838  8.36         1.8 0.24            148            101 176 
 OCA  HN ES        838 15.38                             128   -0.03 9  159 353 
 OCA  HZ I         838 22.91         4.9 0.30            128            159 353 
 ZAR  HZ EP        837 58.17                             121    0.18 9  203 292 
 ZAR  HE ES        838 22.76                             121   -0.11 9  203 292 
 ZAR  HZ I         838 28.02         2.4 0.44            122            203 292 
                                                                                
