 2014 1013 0126  0.3 L   6.849 -73.140143.7  RSN  9 0.4 2.2LRSN                1
 GAP=135        1.01       3.4     4.4  7.5 -0.2244E+01  0.1063E+02 -0.1401E+01E
 Epicentro: LOS SANTOS - SANTANDER                                             3
 ACTION:UPD 14-11-29 23:49 OP:nd   STATUS:               ID:20141013012600 L   I
 OLDACT:UP  14-10-13 14:06 OP:mh   STATUS:               ID:20141013011740     3
 OLDACT:UP  14-10-13 14:01 OP:mh   STATUS:               ID:20141013011740     3
 OLDACT:UP  14-10-13 14:01 OP:mh   STATUS:               ID:20141013011740     3
 OLDACT:REG 14-10-13 12:42 OP:mh   STATUS:               ID:20141013011740     3
 2014-10-13-0117-40M.COL___284                                                 6
 STAT SP IPHASW D HRMM SECON CODA AMPLIT PERI AZIMU VELO AIN AR TRES W  DIS CAZ7
 BRR  HZ EP     C  126 21.53                             153    0.4510 69.3 294 
 BRR  HN ES   1    126 37.65                             153    0.33 7 69.3 294 
 BRR  HZ I         126 42.44        20.1 0.12            152           69.3 294 
 PAM  SZ EP     C  126 22.52                             152    0.5310 72.9  42 
 PAM  SN ES        126 39.16                             152    0.2210 72.9  42 
 PAM  SZ I         126 41.57        35.5 0.50            154           72.9  42 
 RUS  HZ EP   1    126 24.07                             142   -0.13 7  106 177 
 RUS  HN ES        126 42.54                             142   -0.3410  106 177 
 RUS  HZ I         126 43.84        19.5 0.28            148            106 177 
 PTB  HZ EP        126 26.69                             131   -0.53 9  149 257 
 PTB  HN ES        126 48.05                             131   -0.19 9  149 257 
 PTB  HZ I         126 51.04        14.1 0.14            133            149 257 
 OCA  HZ EP   1    126 28.57                             130    0.65 7  155 353 
 OCA  HN ES        126 48.62                             130   -0.87 9  155 353 
 OCA  HZ I         126 53.24        14.9 0.18            132            155 353 
 SPBC HZ EP   2    126 28.72                             128   -0.32 5  168 218 
 SPBC HN ES   4    126 50.16                             128   -1.33 0  168 218 
 SPBC HZ I         126 53.10        20.7 0.14            132            168 218 
 ZAR  HN ES        126 58.01                             122    0.50 9  203 291 
 SML  HZ EP        126 35.85                             117   -0.42 8  239 335 
 SML  HN ES        127  4.18                             117   -0.17 8  239 335 
 SML  HZ I         127 14.23        18.0 0.22            120            239 335 
 GUY2CHZ EP   1    126 44.34                             112    0.16 5  305 234 
 GUY2CHN ES        127 18.66                             112    0.22 7  305 234 
 GUY2CHZ I         127 23.76         5.2 0.44                           305 234 
                                                                                
