 2017  313 0921 21.4 L   6.771 -73.099146.0  RSN  8 0.4 1.8LRSN                1
 GAP=124        0.96       3.9     4.3  6.0 -0.3169E+00 -0.6266E+00  0.6930E+01E
 Epicentro: LOS SANTOS - SANTANDER                                             3
 ACTION:UPD 17-05-25 18:39 OP:jn   STATUS:               ID:20170313092121 L   I
 OLDACT:UP  17-03-13 18:13 OP:cog  STATUS:               ID:20170313091738     3
 OLDACT:REG 17-03-13 14:39 OP:cog  STATUS:               ID:20170313091738     3
 2017-03-13-0918-00M.COL___378                                                 6
 STAT SP IPHASW D HRMM SECON CODA AMPLIT PERI AZIMU VELO AIN AR TRES W  DIS CAZ7
 BAR2 EZ EP        921 41.16                             171    0.1610 21.8 205 
 BAR2 EZ ES        921 56.15                             171   -0.1610 21.8 205 
 BAR2 EZ I         921 57.39        16.1 0.50            172           21.8 205 
 PAM  EZ EP        921 44.12                             151    0.5510 76.8  35 
 PAM  EE ES        922  0.34                             151   -0.5510 76.8  35 
 PAM  EZ I         922  3.73         5.4 0.36            153           76.8  35 
 BRR  HZ EP        921 42.97                             150    0.0810 77.3 299 
 BRR  HN ES        921 59.84                             150    0.1610 77.3 299 
 BRR  HZ I         922  3.86        21.4 0.14            150           77.3 299 
 RUS  HZ EP        921 45.33                             145    0.4310 97.1 179 
 RUS  HN ES        922  3.35                             145    0.1010 97.1 179 
 RUS  HZ I         922  5.08         8.0 0.28            147           97.1 179 
 PTB  HZ EP        921 47.91                             131   -0.85 9  152 260 
 PTB  HE ES        922 10.26                             131    0.13 9  152 260 
 PTB  HZ I         922 14.14        10.6 0.20            132            152 260 
 SPBC HZ EP        921 50.33                             129    0.37 9  164 221 
 SPBC HN ES        922 12.07                             129   -0.20 9  164 221 
 PTGC HZ EP        922  4.70                             112    0.01 7  304 159 
 PTGC HN ES        922 37.96                             112   -0.51 7  304 159 
 GUY2CHZ EP   4    922  7.19                             112    1.93 0  304 236 
 GUY2CHN ES   4    922 40.56                             112    1.07 0  304 236 
 SJC  HZ EP   3    922 15.88                             105   -1.70 1  415 327 
 SJC  HN ES   4    922 58.24                             105   -3.19 0  415 327 
                                                                                
