 2017 1213 0454 44.4 L   6.835 -73.117151.6  RSN 18 0.5 2.1LRSN                1
 GAP= 67        1.21       3.4     3.4  6.3 -0.9561E+00  0.5462E+01  0.1513E+01E
 Epicentro: LOS SANTOS - SANTANDER                                             3
 ACTION:UPD 18-01-04 13:19 OP:rebc STATUS:               ID:20171213045444 L   I
 OLDACT:UP  17-12-13 15:38 OP:edw  STATUS:               ID:20171213044744     3
 OLDACT:REG 17-12-13 12:56 OP:edw  STATUS:               ID:20171213044744     3
 2017-12-13-0448-00M.COL___449                                                 6
 STAT SP IPHASW D HRMM SECON CODA AMPLIT PERI AZIMU VELO AIN AR TRES W  DIS CAZ7
 BAR2 EZ EP     C  455  4.75                             169   -0.1110 27.7 195 
 BAR2 EZ ES        455 20.83                             169    0.0410 27.7 195 
 BAR2 EZ I         455 22.37        22.7 0.28            167           27.7 195 
 PAM  EZ EP        455  7.47                             153    0.4810 72.4  40 
 PAM  EE ES        455 24.81                             153    0.2210 72.4  40 
 PAM  EZ I         455 26.28         9.2 0.24            157           72.4  40 
 PTB  HZ EP        455 11.45                             132   -0.77 9  152 258 
 PTB  HN ES        455 33.51                             132   -0.39 9  152 258 
 PTB  HZ I         455 36.05         7.6 0.16            133            152 258 
 TAM  HZ EP        455 12.20                             132   -0.20 9  153 107 
 TAM  HN ES        455 34.84                             132    0.63 9  153 107 
 OCA  HZ EP        455 12.44                             132   -0.45 9  157 352 
 OCA  HE ES        455 35.60                             132    0.51 9  157 352 
 OCA  HZ I         455 39.12        28.1 0.16            134            157 352 
 SPBC HZ EP        455 13.92                             129    0.07 9  168 219 
 SPBC HN ES        455 35.88                             129   -0.91 9  168 219 
 SPBC HZ I         455 41.68        15.1 0.28            130            168 219 
 YPLC HZ EP        455 15.00                             128    0.16 9  179 153 
 YPLC HN ES        455 37.93                             128   -0.63 9  179 153 
 YPLC HZ I         455 40.01        14.6 0.24            129            179 153 
 ZAR  HZ EP        455 17.15                             123   -0.27 8  206 291 
 ZAR  HN ES        455 43.16                             123    0.02 8  206 291 
 ZAR  HZ I         455 48.78        22.4 0.32            124            206 291 
 ROSC BZ EP        455 24.41                             117    1.01 8  258 211 
 ROSC BN ES   4    455 57.74                             117    3.94 0  258 211 
 ROSC BZ I         456  1.12         7.4 0.40            118            258 211 
 DRL03HZ EP   4    455 27.03                             114    1.08 0  286 352 
 DRL03HN ES   4    456  1.11                             114    2.78 0  286 352 
 GUY2CHZ EP   4    455 31.02                             113    2.17 0  306 235 
 GUY2CHN ES        456  4.47                             113    0.98 7  306 235 
 GUY2CHZ I         456 10.71         4.9 0.30                           306 235 
 VIL  EN ES   4    455 58.74                             113   -4.33 0  308 192 
 PTGC HZ EP   4    455 27.69                             112   -1.14 0  311 159 
 PTGC HN ES   4    456  0.59                             112   -2.87 0  311 159 
 PTGC HZ I         456  5.07         6.5 0.34            114            311 159 
 LL6C HZ EP        455 29.03                             112   -0.94 7  321 357 
 LL6C HN ES   4    456  4.24                             112   -1.25 0  321 357 
 DRL02HZ EP        455 29.54                             112   -0.43 7  321 357 
 ELA  HZ EP   4    455 33.74                             111    1.65 0  334 229 
 ELA  HE ES   4    456 14.40                             111    5.14 0  334 229 
 ELA  HZ I         456 17.02         3.9 0.28            112            334 229 
 CBOC HZ EP        455 32.86                             111    0.79 7  338 252 
 CBOC HN ES        456  9.78                             111    0.56 7  338 252 
 CBOC HZ I         456 10.43         1.9 0.22            112            338 252 
 PRA  HZ EP        455 38.70                             107   -0.03 6  397 210 
 PRA  HE ES        456 20.93                             107   -0.14 6  397 210 
 PRA  HZ I         456 24.54         4.2 0.40            108            397 210 
 SJC  HZ EP   4    455 38.93                             107   -1.09 0  408 326 
 SJC  HN ES   4    456 18.89                             107   -4.48 0  408 326 
 SJC  HZ I         456 22.68         2.6 0.28            108            408 326 
 PAL  HZ EP        455 40.94                             107    0.61 6  410 239 
 PAL  HN ES   4    456 20.22                             107   -3.72 0  410 239 
 PAL  HZ I         456 27.93         2.5 0.30            107            410 239 
                                                                                
