 2012  813 0238 26.4 L   6.784 -73.168142.3  RSN  8 0.5 1.6LRSN                1
 GAP=134        0.93       4.9     5.0  9.8 -0.6445E+00  0.4294E+01 -0.4921E+01E
 Epicentro: LOS SANTOS - SANTANDER                                             3
 ACTION:UPD 12-09-10 11:56 OP:ep   STATUS:               ID:20120813023826 L   I
 2012-08-13-0237-45M.COL___204                                                 6
 STAT SP IPHASW D HRMM SECON CODA AMPLIT PERI AZIMU VELO AIN AR TRES W  DIS CAZ7
 BAR2 SZ EP   2    238 45.91                             171    0.32 5 21.2 184 
 BAR2 SZ ES   1    239  0.13                             171   -0.42 8 21.2 184 
 GIR2 SZ EP   1    238 45.67                             166   -0.05 8 32.7 355 
 BRR  HZ EP   1    238 47.44                             152    0.32 8 69.9 301 
 BRR  HN ES   1    239  4.20                             152    0.93 8 69.9 301 
 BRR  HZ I         239  8.91        12.2 0.15                          69.9 301 
 PAM  SZ EP   1    238 48.50                             149    0.05 8 80.4  40 
 PAM  SN ES   1    239  5.61                             149   -0.03 8 80.4  40 
 PAM  SZ I         239  7.64         9.3 0.38                          80.4  40 
 RUS  HZ EP   1    238 49.75                             143    0.03 8 99.0 175 
 RUS  HN ES   1    239  8.16                             143    0.27 8 99.0 175 
 RUS  HZ I         239  9.49         3.5 0.32                          99.0 175 
 PTB  HN ES        239 12.74                             132   -0.7310  145 259 
 OCA  HN ES   1    239 16.04                             128   -0.55 7  162 354 
 ZAR  HN ES   1    239 23.95                             122    0.47 7  202 293 
                                                                                
