 2010  913 0247  7.5 L   6.777 -73.085149.5  RSN 23 0.5 3.9LRSN                1
 GAP=131        1.14       3.9     7.1  6.2 -0.1259E+02  0.7547E+01  0.4361E+01E
 Epicentro: LOS SANTOS - SANTANDER                                             3
 ACTION:UP  11-02-18 11:02 OP:tino STATUS:               ID:20100913024707 L   I
 2010-09-13-0246-24S.COL___120                                                 6
 STAT SP IPHASW D HRMM SECON CODA AMPLIT PERI AZIMU VELO SNR AR TRES W  DIS CAZ7
 BAR2 SZ IP        247 27.40                             171    -0.110   23 208 
 BAR2 SZ ES   1    247 42.55                             171    -0.6 7   23 208 
 BAR2 SZ I         247 44.64      1953.0 0.57                            23 208 
 BTL  SZ EP        247 27.70                             170     0.110   26 308 
 GIR2 SZ IP        247 27.51                             166    -0.210   36 340 
 GIR2 SZ ES   1    247 43.00                             166    -0.5 7   36 340 
 URB  SZ EP   1    247 29.00                             158     0.5 7   58 332 
 BRR  HZ IP     C  247 29.33                             151    -0.110   78 298 
 BRR  HZ I         247 29.63      2586.4 0.07                            78 298 
 BRR  HN ES   1    247 46.66                             151     0.1 7   78 298 
 RUS  HZ IP     C  247 31.23                             145    -0.110   98 180 
 RUS  HN ES   1    247 49.98                             145    -0.1 7   98 180 
 RUS  HZ I         247 51.84       821.7 0.40                            98 180 
 GUE  SZ EP        247 32.44                             140    -0.210  118   9 
 GRA  SZ IP        247 34.23                             137     1.110  126  14 
 GRA  SZ ES   1    247 53.86                             137     0.8 7  126  14 
 GRA  SZ I         247 55.21      1252.4 0.32                           126  14 
 OCA  SZ EP        247 35.87                             130    -0.5 9  164 351 
 OCA  SZ ES   1    247 58.49                             130    -0.5 7  164 351 
 OCA  SZ I         248  3.77      1020.4 0.34                           164 351 
 CHI  HZ EP        247 45.13                             118    -0.2 8  248 197 
 CHI  HN ES   1    248 14.94                             118     0.1 6  248 197 
 CHI  HZ I         248 24.47       260.3 0.66                           248 197 
 ROSC BZ IP     C  247 46.97                             117     1.0 8  254 213 
 ROSC BN ES   2    248 16.25                             117     0.3 4  254 213 
 ROSC BZ I         248 23.24       534.7 0.61                           254 213 
 CVER SZ EP   3    247 48.39                             115     0.4 2  272 204 
 CVER SZ I         248 27.90       417.0 0.40                           272 204 
 HEL  HZ EP   1    247 48.01                             115    -0.5 6  278 257 
 HEL  HN ES   3    248 19.66                             115    -0.9 2  278 257 
 HEL  HZ I         248 26.49       381.0 0.45                           278 257 
 GUY  SZ EP   1    247 51.64                             113    -0.1 5  305 236 
 GUY  SN ES   1    248 27.52                             113     1.3 5  305 236 
 GUY  SZ I         248 31.85      1164.8 0.35                           305 236 
 RREF HZ EP        247 53.67                             111    -0.5 7  325 230 
 RREF HN ES   2    248 30.00                             111    -0.6 3  325 230 
 RREF HZ I         248 36.89       420.5 0.40                           325 230 
 TOL  SZ EP   1    247 55.78                             110    -0.4 5  346 226 
 DBB  SZ EP   1    247 55.11                             110    -0.8 5  346 275 
 SDV  BZ EP   1    247 56.76                             109    -0.5 5  357  49 
 SDV  BZ I         247 58.08       169.4 0.29                           357  49 
 SDV  BE ES   3    248 35.09                             109    -1.0 2  357  49 
 ANIL HZ EP        247 58.19                             109     0.4 6  360 226 
 ANIL HN ES   2    248 37.77                             109     0.8 3  360 226 
 ANIL HZ I         248 46.68       827.7 0.24                           360 226 
 PRA  HZ EP        248  0.66                             107    -0.6 6  393 211 
 PRA  HN ES   2    248 42.93                             107    -0.3 3  393 211 
 PRA  HZ I         248 53.23       194.7 0.27                           393 211 
 HORQ SZ EP   2    248 18.06                             102    -0.3 2  535 227 
 PCON HZ EP        248 27.84                             100    -0.3 3  614 217 
 PCON HZ I         248 29.20        19.4 0.32                           614 217 
 SOTA HZ EP        248 31.55                              99    -0.2 2  645 217 
                                                                                
