 2017  513 0200  4.5 L   6.990 -73.097139.5  RSN  5 0.0 1.5LRSN                1
 GAP=288        0.31       4.7     2.8  5.6  0.7120E+01 -0.5913E+01 -0.1792E+02E
 Epicentro: PIEDECUESTA - SANTANDER                                            3
 ACTION:UPD 17-06-16 13:35 OP:jn   STATUS:               ID:20170513020004 L   I
 OLDACT:UP  17-05-13 15:22 OP:osc  STATUS:               ID:20170513015751     3
 OLDACT:UP  17-05-13 15:21 OP:osc  STATUS:               ID:20170513015751     3
 OLDACT:REG 17-05-13 12:30 OP:osc  STATUS:               ID:20170513015751     3
 2017-05-13-0158-00M.COL___336                                                 6
 STAT SP IPHASW D HRMM SECON CODA AMPLIT PERI AZIMU VELO AIN AR TRES W  DIS CAZ7
 PAM  EZ EP   4    2 0 22.23                             156   -2.76 0 58.5  49 
 PAM  EN ES   4    2 0 43.51                             156    2.53 0 58.5  49 
 PAM  EZ I         2 0 47.93         3.4 0.44            157           58.5  49 
 RUS  HZ EP        2 0 29.26                             137   -0.0110  121 179 
 RUS  HN ES        2 0 48.61                             137    0.0110  121 179 
 RUS  HZ I         2 0 49.94         4.1 0.40            150            121 179 
 PTB  HZ EP        2 0 32.01                             128    0.07 9  158 252 
 PTB  HN ES        2 0 53.32                             128   -0.04 9  158 252 
 PTB  HZ I         2 1  0.26         4.0 0.36            135            158 252 
 SPBC HZ EP        2 0 34.42                             124   -0.06 9  183 216 
 SPBC HE ES        2 0 57.92                             124    0.04 9  183 216 
 SPBC HZ I         2 1  2.47         7.1 0.20            134            183 216 
 YPLC HN ES   4    2 1  0.02                             123    0.33 0  193 156 
 ZAR  HZ EP   9    2 0 37.89                             121    1.55 0  202 286 
 ZAR  HN ES   4    2 1  3.99                                    1.25 0  202 286 
 ZAR  HZ I         2 1  8.09         3.5 0.48            126            202 286 
 ROSC BE ES   4    2 0 43.69                             113   -32.2 0  274 210 
                                                                                
