 2016  913 0632 52.7 L   6.790 -73.134146.1  RSN  6 0.6 1.2LRSN                1
 GAP=156        1.52       8.8     7.3 11.1 -0.1968E+02  0.2351E+02 -0.8431E+01E
 Epicentro: LOS SANTOS - SANTANDER                                             3
 ACTION:UPD 17-08-17 21:09 OP:lp   STATUS:               ID:20160913063252 L   I
 OLDACT:UP  16-09-13 19:38 OP:ar   STATUS:               ID:20160913062735d    3
 OLDACT:UP  16-09-13 19:34 OP:ar   STATUS:               ID:20160913062735d    3
 OLDACT:DUP 16-09-13 19:29 OP:ar   STATUS:               ID:20160913062735d    3
 2016-09-13-0628-00M.COL___318                                                 6
 STAT SP IPHASW D HRMM SECON CODA AMPLIT PERI AZIMU VELO AIN AR TRES W  DIS CAZ7
 BAR2 HZ EP        633 12.17                             171   -0.1710 22.5 194 
 BAR2 HZ ES        633 27.11                             171   -0.5610 22.5 194 
 BAR2 HZ I         633 28.21         3.8 0.68            172           22.5 194 
 BRR  HZ EP        633 13.90                             152   -0.0710 72.9 299 
 BRR  HZ I         633 28.99         3.7 0.60            147           72.9 299 
 BRR  HE ES        633 31.42                             152    0.8610 72.9 299 
 PAM  EZ EP        633 15.10                             151    0.1610 77.4  38 
 PAM  HN ES        633 32.26                             151   -0.0310 77.4  38 
 PTB  HZ EP        633 19.12                             132   -0.66 9  149 259 
 PTB  HN ES        633 39.86                             132   -1.05 9  149 259 
 PTB  HZ I         633 41.96         1.2 0.20            127            149 259 
 SPBC HN ES        633 44.54                             129    1.09 9  163 220 
 SPBC HZ I         633 45.98         1.9 0.16            126            163 220 
 ZAR  HZ EP        633 25.81                             122    0.49 8  206 292 
 ZAR  HN ES        633 50.81                             122    0.03 8  206 292 
 ZAR  HZ I         633 56.38         1.2 0.14            118            206 292 
                                                                                
