 2014 1113 0859 47.1 L   6.457 -73.335 31.0  RSN  5 0.3 1.3LRSN                1
 GAP=118        0.70       2.0     2.5  2.8 -0.6996E+00  0.4161E+01 -0.2164E+01E
 Epicentro: SIMACOTA - SANTANDER                                               3
 ACTION:UPD 14-12-19 15:42 OP:nd   STATUS:               ID:20141113085947 L   I
 OLDACT:ARG 14-11-13 12:06 OP:stll STATUS:               ID:20141113085738     3
 2014-11-13-0857-38M.COL___289                                                 6
 STAT SP IPHASW D HRMM SECON CODA AMPLIT PERI AZIMU VELO AIN AR TRES W  DIS CAZ7
 BAR2 SZ EP        859 53.60                             142    0.1310 22.5  48 
 BAR2 SZ ES        859 58.21                             142   -0.2110 22.5  48 
 BAR2 SZ I         859 59.79        31.4 0.22            143           22.5  48 
 RUS  HZ EP        859 59.39                             108    0.1110 68.3 156 
 RUS  HN ES        9 0  8.75                             108   -0.0310 68.3 156 
 RUS  HZ I         9 0  9.59         8.2 0.24            108           68.3 156 
 BRR  HZ EP        9 0  0.63                              61    0.0910 83.1 330 
 BRR  HN ES        9 0 11.31                              61    0.3010 83.1 330 
 BRR  HZ I         9 0 13.18         6.9 0.10             61           83.1 330 
 PAM  SZ EP        9 0  5.95                              61    0.1810  120  36 
 PAM  SN ES        9 0 19.99                              61   -0.3310  120  36 
 PAM  SZ I         9 0 21.32         6.5 0.14             61            120  36 
 PTB  HZ EP        9 0  5.99                              61    0.2710  124 274 
 PTB  HN ES        9 0 19.70                              61   -0.5310  124 274 
 PTB  HZ I         9 0 22.68         5.7 0.12             61            124 274 
                                                                                
