 2017 1013 0753 33.4 L   6.789 -73.190141.9  RSN  4 0.4 1.2LRSN                1
 GAP=240        0.89       9.0     6.7  8.5  0.3942E+02  0.7037E+01 -0.1140E+02E
 Epicentro: ZAPATOCA - SANTANDER                                               3
 ACTION:UPD 17-11-07 19:31 OP:rebc STATUS:               ID:20171013075333 L   I
 OLDACT:UP  17-10-13 19:32 OP:leo  STATUS:               ID:20171013074116     3
 OLDACT:REG 17-10-13 14:16 OP:leo  STATUS:               ID:20171013074116     3
 2017-10-13-0748-00M.COL___417                                                 6
 STAT SP IPHASW D HRMM SECON CODA AMPLIT PERI AZIMU VELO AIN AR TRES W  DIS CAZ7
 BAR2 EZ EP        753 52.28                             171   -0.2810 21.8 178 
 BAR2 EZ ES        754  7.33                             171   -0.1610 21.8 178 
 BAR2 EZ I         754 10.30         4.6 0.24            177           21.8 178 
 RUS  HZ EP        753 56.80                             143    0.0610 99.8 173 
 RUS  HE ES        754 15.38                             143    0.4510 99.8 173 
 RUS  HZ I         754 16.55         3.2 0.32            150           99.8 173 
 PTB  HZ EP        753 59.51                             132   -0.11 9  143 259 
 PTB  HN ES        754 19.59                             132   -0.47 9  143 259 
 PTB  HZ I         754 21.41         1.3 0.18            134            143 259 
 ZAR  HZ EP   4    754  6.64                             122    1.44 0  200 293 
 ZAR  HN ES        754 30.59                             122    0.60 9  200 293 
 ZAR  HZ I         754 38.91         1.6 0.32            123            200 293 
                                                                                
