 2012  113 0021 17.1 L   7.502 -73.056154.9  RSN  6 0.3 1.6LRSN                1
 GAP=134        0.56       4.8     5.4  5.5 -0.6194E+01  0.7844E+01 -0.4286E+01E
 Epicentro: SURATA - SANTANDER                                                 3
 ACTION:UP  12-02-03 08:16 OP:REBC STATUS:               ID:20120113002117 L   I
 2012-01-13-0020-00M.COL___187                                                 6
 STAT SP IPHASW D HRMM SECON CODA AMPLIT PERI AZIMU VELO SNR AR TRES W  DIS CAZ7
 PAM  SZ EP        021 38.73                             164     0.010   43 114 
 PAM  SN ES   1    021 55.65                             164     0.0 7   43 114 
 GIR2 SZ EP   2    021 38.51                             162     0.1 5   49 198 
 GIR2 SZ ES   1    021 54.80                             162    -0.3 7   49 198 
 BRR  HZ EP   2    021 40.22                             150     0.2 5   85 239 
 BRR  HZ I         021 42.61         9.7 0.40                            85 239 
 BRR  HE ES   2    021 58.73                             150     0.8 5   85 239 
 OCA  SZ EP        021 40.44                             149     0.110   87 340 
 OCA  SZ ES   2    021 58.33                             149    -0.2 5   87 340 
 OCA  SZ I         022  0.03        12.3 0.39                            87 340 
 RUS  HZ EP   2    021 48.41                             129     0.2 4  178 181 
 RUS  HZ I         021 48.82         1.9 0.30                           178 181 
 PTB  HZ EP   1    021 48.41                             127    -0.2 7  188 236 
 PTB  HN ES   2    022 12.61                             127    -0.5 4  188 236 
 PTB  HZ I         022 19.00         1.8 0.18                           188 236 
                                                                                
