 2014 1213 0636  6.3 L   6.143 -73.355140.9  RSN 11 0.4 2.1LRSN                1
 GAP=104        0.99       2.8     3.4  5.3 -0.2449E+01  0.4049E+01 -0.1610E+01E
 Epicentro: SUAITA - SANTANDER                                                 3
 ACTION:UPD 15-02-10 17:03 OP:nd   STATUS:               ID:20141213063606 L   I
 OLDACT:REG 14-12-13 14:27 OP:stll STATUS:               ID:20141213062738     3
 2014-12-13-0627-38M.COL___294                                                 6
 STAT SP IPHASW D HRMM SECON CODA AMPLIT PERI AZIMU VELO AIN AR TRES W  DIS CAZ7
 RUS  HZ EP        636 26.13                             163   -0.0810 40.9 133 
 RUS  HN ES        636 41.68                             163   -0.0610 40.9 133 
 RUS  HZ I         636 43.56         9.2 0.14            167           40.9 133 
 BAR2 EZ EP        636 26.31                             158   -0.0210 53.2  21 
 BAR2 EZ ES        636 41.95                             158   -0.0110 53.2  21 
 BAR2 EZ I         636 43.12        35.7 0.34            158           53.2  21 
 SPBC HZ EP        636 28.83                             144    0.1510 96.2 236 
 SPBC HN ES        636 46.07                             144   -0.0710 96.2 236 
 SPBC HZ I         636 51.11        38.4 0.24            145           96.2 236 
 BRR  HZ EP        636 30.07                             139    0.1910  114 340 
 BRR  HN ES        636 48.65                             139    0.3610  114 340 
 BRR  HZ I         636 50.07        18.0 0.12            139            114 340 
 PTB  HZ EP        636 30.64                             135   -0.5910  130 290 
 PTB  HN ES        636 50.96                             135    0.2810  130 290 
 PTB  HZ I         636 52.08        22.9 0.36            135            130 290 
 PAM  SZ EP        636 34.01                             131    0.23 9  151  29 
 PAM  SZ I         636 34.75        11.3 0.12            132            151  29 
 PAM  SN ES        636 55.28                             131    0.05 9  151  29 
 CHI  HZ EP        636 35.76                             126    0.01 9  172 194 
 CHI  HN ES        636 58.34                             126   -0.39 9  172 194 
 NOR  HZ EP        636 36.34                             125    0.37 9  180 249 
 NOR  HN ES        636 59.67                             125    0.55 9  180 249 
 ZAR  HZ EP        636 41.06                             119    0.61 8  223 312 
 ZAR  HN ES        637  6.98                             119   -0.12 8  223 312 
 ZAR  HZ I         637 13.23        18.2 0.34            119            223 312 
 OCA  HZ EP        636 40.99                             118   -0.56 8  232   1 
 OCA  HN ES        637  8.55                             118   -0.51 8  232   1 
 OCA  HZ I         637 17.22         7.6 0.32            119            232   1 
 HEL  HZ EP        636 43.36                             117    0.57 8  241 271 
 HEL  HN ES        637 10.06                             117   -1.20 8  241 271 
                                                                                
