 2015  213 0600 26.0 L   6.771 -73.156150.8  RSN 13 0.5 1.8LRSN                1
 GAP=137        1.33       3.7     5.2  6.8 -0.2767E+01  0.9975E+01  0.4396E+01E
 Epicentro: LOS SANTOS - SANTANDER                                             3
 ACTION:UPD 15-04-30 21:25 OP:nd   STATUS:               ID:20150213060026 L   I
 OLDACT:REG 15-02-13 12:45 OP:fm   STATUS:               ID:20150213055741     3
 2015-02-13-0557-41M.COL___296                                                 6
 STAT SP IPHASW D HRMM SECON CODA AMPLIT PERI AZIMU VELO AIN AR TRES W  DIS CAZ7
 BAR2 EZ EP     C  6 0 46.86                             172    0.6510 20.0 188 
 BAR2 EZ ES        6 1  2.15                             172    0.2010 20.0 188 
 BAR2 EZ I         6 1  3.51        19.9 0.18            170           20.0 188 
 BRR  HZ IP     C  6 0 48.68                             153    0.9210 71.8 301 
 BRR  HN ES        6 1  5.28                             153    0.5710 71.8 301 
 BRR  HZ I         6 1  6.66         7.2 0.28            150           71.8 301 
 PAM  SZ EP     C  6 0 49.64                             151    0.6710 80.6  39 
 PAM  SE ES        6 1  6.24                             151   -0.6310 80.6  39 
 PAM  SZ I         6 1  9.05         9.3 0.50            154           80.6  39 
 RUS  HZ EP        6 0 50.16                             146    0.1010 97.5 175 
 RUS  HE ES        6 1  8.00                             146   -0.8110 97.5 175 
 RUS  HZ I         6 1 10.69        11.2 0.32            147           97.5 175 
 PTB  HZ EP        6 0 52.31                             133   -0.95 9  146 260 
 PTB  HN ES        6 1 14.07                             133   -0.43 9  146 260 
 PTB  HZ I         6 1 22.07         4.1 0.14            132            146 260 
 SPBC HZ EP        6 0 54.84                             131    0.22 9  160 219 
 SPBC HE ES        6 1 16.56                             131   -0.37 9  160 219 
 SPBC HZ I         6 1 20.49        14.3 0.28            130            160 219 
 ZAR  HN ES        6 1 25.06                             123    0.65 9  204 293 
 ZAR  HZ I         6 1 31.34         5.3 0.10            123            204 293 
 CHI  HZ EP        6 1  3.67                             118    0.02 8  245 195 
 CHI  HN ES        6 1 33.37                             118    0.38 8  245 195 
 CHI  HZ I         6 1 39.86         2.8 0.24            119            245 195 
 SML  HZ EP        6 1  2.37                             118   -0.83 8  246 336 
 SML  HE ES        6 1 31.39                             118   -0.81 8  246 336 
 SML  HZ I         6 1 39.94         9.0 0.10            119            246 336 
 GUY2CHZ EP        6 1  9.61                             113    0.05 7  298 235 
 GUY2CHN ES        6 1 43.72                             113    0.20 7  298 235 
 GUY2CHZ I         6 1 54.35         2.6 0.66                           298 235 
 RREF HZ EP        6 1 11.74                             112   -0.32 7  319 230 
 RREF HN ES        6 1 47.66                             112   -0.31 7  319 230 
 RREF HZ I         6 1 53.92         2.9 0.26            112            319 230 
 TOL  SN ES        6 1 51.94                             110    0.27 7  340 225 
 TOL  SZ I         6 2  1.21         2.4 0.46            111            340 225 
 PRA  HZ EP        6 1 19.52                             107    0.18 6  389 210 
 PRA  HE ES        6 2  0.85                             107   -0.07 6  389 210 
 PRA  HZ I         6 2  8.87         2.5 0.38            108            389 210 
                                                                                
