 2011  513 0839 21.9 L   7.385 -73.396109.8  RSN  5 0.2 1.4LRSN                1
 GAP=181        0.53       3.9     4.5  5.4 -0.8771E+01 -0.7832E+00  0.1860E+01E
 Epicentro: SABANA DE TORRES - SANTANDER                                       3
 ACTION:UP  11-06-29 08:53 OP:tino STATUS:               ID:20110513083921 L   I
 2011-05-13-0838-12S.COL___141                                                 6
 STAT SP IPHASW D HRMM SECON CODA AMPLIT PERI AZIMU VELO SNR AR TRES W  DIS CAZ7
 BRR  HZ EP   1    839 37.50                             155    -0.3 7   46 229 
 BRR  HE ES   1    839 50.31                             155     0.1 7   46 229 
 BRR  HZ I         839 51.99         7.4 0.14                            46 229 
 PAM  SZ EP   1    839 40.50                             143     0.1 7   77  94 
 PAM  SN ES   1    839 54.65                             143    -0.2 7   77  94 
 PAM  SZ I         839 56.89         2.5 0.23                            77  94 
 GRA  SZ EP   1    839 40.92                             139     0.3 7   86  50 
 GRA  SZ I         839 42.33         8.5 0.35                            86  50 
 GRA  SZ ES   1    839 55.23                             139     0.0 7   86  50 
 BAR2 SZ EP   1    839 40.92                             138    -0.2 7   91 165 
 BAR2 SZ ES   1    839 56.38                             138     0.2 7   91 165 
 BAR2 SZ I         839 57.01        10.4 0.13                            91 165 
 RUS  HZ EP   1    839 49.16                             119     0.1 7  169 168 
                                                                                
