 2011  513 0657 41.9 L   6.798 -73.144146.9  RSN  7 0.3 1.4LRSN                1
 GAP=137        0.88       6.2    11.1  7.7  0.1550E+02 -0.3043E+02 -0.4139E+01E
 Epicentro: LOS SANTOS - SANTANDER                                             3
 ACTION:UP  11-06-29 08:52 OP:tino STATUS:               ID:20110513065741 L   I
 2011-05-13-0652-51S.COL___141                                                 6
 STAT SP IPHASW D HRMM SECON CODA AMPLIT PERI AZIMU VELO SNR AR TRES W  DIS CAZ7
 BTL  SZ EP        658  1.93                             172     0.310   19 314 
 BTL  SZ ES   1    658 16.93                             172    -0.1 7   19 314 
 BAR2 SZ EP        658  1.43                             171    -0.310   23 191 
 BAR2 SZ I         658 19.08         7.3 0.48                            23 191 
 GIR2 SZ EP        658  1.32                             167    -0.410   32 350 
 GIR2 SZ ES   1    658 16.95                             167    -0.3 7   32 350 
 BRR  HZ EP        658  3.38                             153     0.110   71 299 
 BRR  HN ES   1    658 20.11                             153     0.3 7   71 299 
 BRR  HZ I         658 24.25         6.5 0.12                            71 299 
 PAM  SZ EP        658  4.83                             151     0.510   77  39 
 RUS  HZ EP        658  5.75                             144     0.010  100 176 
 RUS  HN ES   2    658 24.54                             144     0.2 5  100 176 
 RUS  HZ I         658 25.40         2.1 0.27                           100 176 
 OCA  SZ EP        658 10.06                             130    -0.3 9  160 353 
 OCA  SZ I         658 36.96         3.0 0.47                           160 353 
                                                                                
