 2011  713 0539 59.8 L   6.787 -73.097152.0  RSN  5 0.2 1.1LRSN                1
 GAP=164        0.40       2.6     5.4  5.3  0.6604E+00 -0.4427E+01  0.9131E+00E
 Epicentro: LOS SANTOS - SANTANDER                                             3
 ACTION:UPD 12-07-25 14:00 OP:epov STATUS:               ID:20110713053959 L   I
 2011-07-13-0538-40S.COL___143                                                 6
 STAT SP IPHASW D HRMM SECON CODA AMPLIT PERI AZIMU VELO AIN AR TRES W  DIS CAZ7
 BAR2 SZ EP   1    540 20.01                             171   -0.17 7 23.5 204 
 BAR2 SZ ES   2    540 35.66                             171   -0.42 5 23.5 204 
 BAR2 SZ I         540 36.24         3.2 0.38                          23.5 204 
 BTL  SZ EP   1    540 20.28                             171    0.09 7 23.9 308 
 BRR  HZ EP   1    540 21.82                             152   -0.11 7 76.7 298 
 BRR  HN ES   1    540 39.31                             152    0.12 7 76.7 298 
 BRR  HZ I         540 39.78         3.0 0.11                          76.7 298 
 RUS  HZ EP   1    540 23.98                             146   -0.06 7 98.9 179 
 RUS  HN ES   1    540 43.19                             146    0.23 7 98.9 179 
 RUS  HZ I         540 44.52         1.7 0.27                          98.9 179 
 GRA  SZ ES   1    540 45.79                             139    0.08 7  126  15 
 GRA  SZ I         540 47.18         1.9 0.22                           126  15 
                                                                                
