 2015  713 0813  9.4 L   6.870 -73.101146.1  RSN  4 0.1 1.3LRSN                1
 GAP=188        0.30       1.6     2.4  3.3  0.9407E+00  0.1262E+01 -0.1417E+01E
 Epicentro: LOS SANTOS - SANTANDER                                             3
 ACTION:UPD 15-09-08 21:48 OP:cam  STATUS:               ID:20150713081309 L   I
 OLDACT:DUP 15-07-13 13:23 OP:spq  STATUS:               ID:20150713080744d    3
 OLDACT:UP  15-07-13 13:19 OP:spq  STATUS:               ID:20150713080743     3
 OLDACT:REG 15-07-13 13:12 OP:spq  STATUS:               ID:20150713080743     3
 2015-07-13-0807-43M.COL___334                                                 6
 STAT SP IPHASW D HRMM SECON CODA AMPLIT PERI AZIMU VELO AIN AR TRES W  DIS CAZ7
 BAR2 EZ EP   1    813 29.41                             167    0.10 8 32.0 196 
 BAR2 EZ ES   1    813 44.84                             167    0.02 8 32.0 196 
 BAR2 EZ I         813 47.75         2.7 0.16            168           32.0 196 
 RUS  HZ EP   1    813 33.61                             142   -0.17 8  108 179 
 RUS  HN ES   1    813 52.78                             142    0.02 8  108 179 
 RUS  HZ I         813 54.13         1.5 0.30            147            108 179 
 OCA  HZ EP        813 37.20                             131    0.0710  153 351 
 OCA  HN ES        813 58.66                             131   -0.0610  153 351 
 OCA  HZ I         814  2.76         5.0 0.40            134            153 351 
 ZAR  HZ EP   1    813 42.13                             122    0.04 7  206 290 
 ZAR  HN ES        814  7.55                             122   -0.01 9  206 290 
 ZAR  HZ I         814 12.67         3.4 0.46            124            206 290 
                                                                                
