 2015 1213 0615 30.0 L   6.820 -73.151140.9  RSN 10 0.4 1.7LRSN                1
 GAP=135        0.97       2.8     3.9  5.6 -0.1710E+01  0.6003E+01 -0.2384E+01E
 Epicentro: LOS SANTOS - SANTANDER                                             3
 ACTION:UPD 16-02-04 15:04 OP:cam  STATUS:               ID:20151213061530 L   I
 OLDACT:UP  15-12-13 15:08 OP:mh   STATUS:               ID:20151213060748     3
 OLDACT:UP  15-12-13 15:08 OP:mh   STATUS:               ID:20151213060748     3
 OLDACT:REG 15-12-13 12:13 OP:mh   STATUS:               ID:20151213060748     3
 2015-12-13-0607-48M.COL___346                                                 6
 STAT SP IPHASW D HRMM SECON CODA AMPLIT PERI AZIMU VELO AIN AR TRES W  DIS CAZ7
 BAR2 EZ EP   1    615 49.29                             169    0.22 7 25.4 188 
 BAR2 EZ ES        616  3.33                             169   -0.6310 25.4 188 
 BAR2 EZ I         616  4.97         8.7 0.46            170           25.4 188 
 BRR  HZ EP   1    615 51.13                             152    0.61 7 69.7 297 
 BRR  HN ES        616  6.97                             152    0.4410 69.7 297 
 BRR  HZ I         616 10.66         8.1 0.42            150           69.7 297 
 PAM  EZ EP        615 52.24                             150    0.6410 76.1  41 
 PAM  EE ES        616  8.50                             150    0.0410 76.1  41 
 PAM  EZ I         616 11.09         6.0 0.42            154           76.1  41 
 RUS  HZ EP        615 53.55                             142    0.1310  103 176 
 RUS  HE ES        616 11.45                             142   -0.2510  103 176 
 PTB  HZ EP   1    615 56.05                             131   -0.50 7  148 258 
 PTB  HN ES        616 17.21                             131   -0.05 9  148 258 
 PTB  HZ I         616 22.12         4.3 0.22            131            148 258 
 OCA  HZ EP        615 57.37                             129   -0.34 9  158 353 
 OCA  HN ES        616 19.66                             129    0.33 9  158 353 
 OCA  HZ I         616 23.68        11.6 0.30            130            158 353 
 SPBC HZ EP        615 58.29                             128    0.05 9  165 218 
 SPBC HN ES        616 20.13                             128   -0.15 9  165 218 
 SPBC HZ I         616 27.02         5.8 0.24            129            165 218 
 ZAR  HZ EP        616  1.99                             121    0.02 9  203 292 
 ZAR  HN ES        616 27.19                             121    0.26 9  203 292 
 ZAR  HZ I         616 32.43         4.3 0.50            122            203 292 
 SML  HZ EP        616  5.45                             117   -0.65 8  241 335 
 SML  HN ES        616 33.57                             117   -0.70 8  241 335 
 SML  HZ I         616 38.72         5.8 0.26            118            241 335 
 GUY2CHZ EP   4    616 15.26                             111    1.80 0  302 234 
 GUY2CHN ES        616 47.78                             111    0.41 7  302 234 
 GUY2CHZ I         616 55.77         1.7 0.40                           302 234 
                                                                                
