 2013  213 0744 17.8 L   6.770 -73.108148.5  RSN  5 0.4 1.6LRSN                1
 GAP=143        0.96       4.3     7.2  7.9  0.6714E+01  0.6572E+01 -0.5449E+01E
 Epicentro: LOS SANTOS - SANTANDER                                             3
 ACTION:UPD 13-03-12 09:32 OP:ep   STATUS:               ID:20130213074417 L   I
 2013-02-13-0740-00M.COL___239                                                 6
 STAT SP IPHASW D HRMM SECON CODA AMPLIT PERI AZIMU VELO AIN AR TRES W  DIS CAZ7
 BRR  HN ES        744 56.28                             151   -0.2610 76.4 299 
 PAM  SZ EP        744 40.53                             151    0.1810 77.5  36 
 PAM  SN ES        744 57.72                             151   -0.1910 77.5  36 
 PAM  SN I         744 58.47         4.3 0.48            152           77.5  36 
 RUS  HZ EP        744 41.74                             145    0.1310 97.1 178 
 RUS  HN ES        745  0.29                             145    0.1410 97.1 178 
 RUS  HN I         745  1.25         3.6 0.22            146           97.1 178 
 PTB  HZ EP   2    744 45.20                             132   -0.14 5  151 260 
 SML  HZ EP        744 54.33                             117   -0.80 8  248 335 
 SML  HN ES        745 25.07                             117    0.85 8  248 335 
 SML  HN I         745 25.41         7.1 0.10            118            248 335 
                                                                                
