 2010  713 0518 57.5 L   6.764 -73.083141.8  RSN  7 0.3 1.5LRSN                1
 GAP=163        0.78       4.8     9.1  7.9 -0.3611E+01 -0.1806E+02 -0.7483E+01E
 Epicentro: LOS SANTOS - SANTANDER                                             3
 ACTION:UPD 10-12-01 15:17 OP:pat  STATUS:               ID:20100713051857 L   I
 2010-07-13-0518-12S.COL___120                                                 6
 STAT SP IPHASW D HRMM SECON CODA AMPLIT PERI AZIMU VELO AIN AR TRES W  DIS CAZ7
 BAR2 SZ EP        519 16.60                             171     0.010   22 210 
 BAR2 SZ I         519 17.06         9.2 0.08                            22 210 
 BAR2 SZ ES   1    519 31.31                             171    -0.2 7   22 210 
 BRR  HZ IP     C  519 18.49                             149    -0.210   79 299 
 BRR  HZ I         519 18.74        13.1 0.21                            79 299 
 BRR  HE ES   1    519 35.53                             149     0.3 7   79 299 
 RUS  HZ EP   1    519 20.66                             144     0.1 7   96 180 
 RUS  HN ES   2    519 38.71                             144     0.2 5   96 180 
 RUS  HZ I         519 40.40         2.9 0.22                            96 180 
 BRI  SZ EP   2    519 20.41                             140    -0.7 5  110  17 
 BRI  SZ I         519 45.62         4.1 0.43                           110  17 
 GUE  SZ EP   2    519 22.60                             138     0.5 5  119   8 
 GRA  SZ EP   1    519 23.16                             136     0.6 7  128  14 
 GRA  SZ ES   1    519 42.02                             136    -0.1 7  128  14 
 GRA  SZ I         519 45.75         3.0 0.48                           128  14 
 OCA  SZ EP   1    519 25.63                             128    -0.3 7  165 351 
 OCA  SZ I         519 50.16         3.9 0.48                           165 351 
                                                                                
