 2016  313 0950 29.2 L   6.814 -73.182143.3  RSN 12 0.4 1.8LRSN                1
 GAP=131        0.83       2.9     3.2  4.7 -0.1675E+01  0.4836E+01  0.1459E+01E
 Epicentro: ZAPATOCA - SANTANDER                                               3
 ACTION:UPD 16-05-13 21:23 OP:cam  STATUS:               ID:20160313095029 L   I
 OLDACT:UP  16-03-14 19:27 OP:Ak   STATUS:               ID:20160313095029 L   3
 OLDACT:UP  16-03-13 20:14 OP:cara STATUS:               ID:20160313094747     3
 OLDACT:UP  16-03-13 20:11 OP:cara STATUS:               ID:20160313094747     3
 OLDACT:REG 16-03-13 14:33 OP:cara STATUS:               ID:20160313094747     3
 2016-03-13-0947-47M.COL___291                                                 6
 STAT SP IPHASW D HRMM SECON CODA AMPLIT PERI AZIMU VELO AIN AR TRES W  DIS CAZ7
 BAR2 EZ EP        950 48.48                             170   -0.0410 24.5 180 
 BAR2 EZ ES        951  3.63                             170    0.0110 24.5 180 
 BAR2 EZ I         951  4.91        18.3 0.28            169           24.5 180 
 PAM  EZ EP        950 51.25                             150    0.0510 78.9  43 
 PAM  EE ES        951  8.52                             150    0.1210 78.9  43 
 PAM  EZ I         951 10.52         5.2 0.48            154           78.9  43 
 RUS  HZ EP        950 52.47                             143   -0.3410  102 174 
 RUS  HE ES        951 11.26                             143    0.0110  102 174 
 RUS  HZ I         951 12.45         5.4 0.20            146            102 174 
 PTB  HZ EP        950 55.12                             132   -0.47 9  144 258 
 PTB  HN ES        951 15.93                             132   -0.28 9  144 258 
 PTB  HZ I         951 22.96         4.5 0.16            131            144 258 
 SPBC HZ EP        950 57.45                             129    0.11 9  162 218 
 SPBC HN ES        951 19.84                             129    0.51 9  162 218 
 SPBC HZ I         951 24.24        10.9 0.18            129            162 218 
 ZAR  HZ EP        951  0.54                             122   -0.46 9  200 292 
 ZAR  HN ES        951 26.41                             122    0.58 9  200 292 
 ZAR  HZ I         951 31.60         6.9 0.30            122            200 292 
 NOR  HZ EP        951  4.70                             118    0.21 8  232 234 
 NOR  HN ES        951 31.49                             118   -0.56 8  232 234 
 NOR  HZ I         951 41.96         3.9 0.44            119            232 234 
 CHI  HZ EP        951  6.68                             117   -0.09 8  249 194 
 CHI  HE ES        951 36.05                             117   -0.06 8  249 194 
 CHI  HZ I         951 39.35         3.9 0.64            118            249 194 
 ROSC BZ EP   9    951  8.59                             116    1.53 0  252 210 
 ROSC BE ES        951 38.27                             116    0.11 8  252 210 
 ROSC BZ I         951 43.02         9.9 0.45            117            252 210 
 GUY2CHZ EP        951 13.21                             112    0.83 7  299 234 
 GUY2CHN ES        951 45.79                             112   -0.31 7  299 234 
 GUY2CHZ I         951 54.65         3.5 0.36                           299 234 
 MON  HZ EP   9    951 15.66                             108   -1.92 0  350 309 
 MON  HN ES        951 53.88                             109    0.45 6  350 309 
 MON  HZ I         952  9.30         1.7 0.38            109            350 309 
 ORTC HZ EP        951 22.93                             106    0.07 6  394 216 
 ORTC HE ES        952  5.54                             106    0.79 6  394 216 
                                                                                
