 2012  413 0847 43.7 L   6.779 -73.162153.2  RSN  5 0.3 1.8LRSN                1
 GAP=147        0.64      10.5     5.5  8.9 -0.1978E+02  0.1151E+02 -0.6517E+01E
 Epicentro: LOS SANTOS - SANTANDER                                             3
 ACTION:UPD 12-07-05 11:53 OP:tino STATUS:               ID:20120413084743 L   I
 2012-04-13-0840-00M.COL___181                                                 6
 STAT SP IPHASW D HRMM SECON CODA AMPLIT PERI AZIMU VELO AIN AR TRES W  DIS CAZ7
 BAR2 SZ EP   2    848  3.88                             172    -0.3 5   21 186 
 BAR2 SZ I         848  7.14        12.5 0.73                            21 186 
 BAR2 SZ ES   2    848 20.47                             172     0.3 5   21 186 
 BRR  HZ EP   2    848  5.63                             154     0.0 5   71 301 
 BRR  HE ES   2    848 23.22                             154     0.5 5   71 301 
 BRR  HZ I         848 25.19        18.7 0.17                            71 301 
 PAM  SZ EP   1    848  7.28                             151     0.4 7   80  39 
 PAM  SN ES   1    848 24.51                             151    -0.5 7   80  39 
 PTB  HE ES   2    848 32.05                             134    -0.4 5  146 260 
 ZAR  HZ EP   2    848 16.51                             124    -0.1 4  203 293 
 ZAR  HN ES   2    848 42.30                             124     0.1 4  203 293 
 ZAR  HZ I         848 48.06         2.8 0.36                           203 293 
                                                                                
