 2011  213 0102 37.8 L   6.775 -73.050146.0  RSN 10 0.4 2.1LRSN                1
 GAP=170        0.64       3.6     7.4  6.4 -0.1204E+02  0.1513E+02 -0.5725E+00E
 Epicentro: LOS SANTOS - SANTANDER                                             3
 ACTION:UP  11-03-28 15:08 OP:jfem STATUS:               ID:20110213010237 L   I
 2011-02-13-0059-43S.COL___136                                                 6
 STAT SP IPHASW D HRMM SECON CODA AMPLIT PERI AZIMU VELO SNR AR TRES W  DIS CAZ7
 BAR2 SZ EP   1    1 2 57.46                             170    -0.1 7   25 216 
 BAR2 SZ ES   2    1 3 12.73                             170    -0.1 5   25 216 
 BAR2 SZ I         1 3 13.58        31.4 0.59                            25 216 
 BTL  SZ EP   1    1 2 57.78                             168     0.2 7   29 303 
 BTL  SZ ES   2    1 3 13.33                             168     0.3 5   29 303 
 GIR2 SZ EP   1    1 2 57.56                             165    -0.1 7   37 335 
 RUS  HZ EP   1    1 3  1.45                             145     0.1 7   98 182 
 RUS  HN ES   2    1 3 19.55                             145    -0.2 5   98 182 
 RUS  HZ I         1 3 20.98        13.1 0.44                            98 182 
 GRA  SZ EP   1    1 3  3.24                             137     0.2 7  126  13 
 GRA  SZ ES   2    1 3 22.44                             137    -0.3 5  126  13 
 GRA  SZ I         1 3 25.83        22.3 0.34                           126  13 
 OCA  SZ EP   1    1 3  6.23                             129    -0.3 7  165 350 
 OCA  SZ ES   2    1 3 29.52                             129     0.6 5  165 350 
 OCA  SZ I         1 3 33.90        22.9 0.37                           165 350 
 NOR  SZ EP   1    1 3 13.83                             118    -0.5 6  242 237 
 NOR  SN ES   2    1 3 42.00                             118    -0.8 4  242 237 
 CHI  HZ EP   1    1 3 15.53                             117     0.0 6  249 198 
 CHI  HZ I         1 3 18.06         5.3 0.75                           249 198 
 CHI  HN ES   2    1 3 45.78                             117     0.8 4  249 198 
 HEL  HZ EP   1    1 3 19.59                             114     0.5 6  282 257 
 HEL  HZ I         1 3 56.66         7.8 0.47                           282 257 
 RREF HN ES   2    1 4  1.86                             110     0.6 3  328 231 
 RREF HZ I         1 4  7.60         9.0 0.41                           328 231 
                                                                                
