 2014  513 0712 44.5 L   6.823 -73.172146.1  RSN  8 0.4 1.6LRSN                1
 GAP=132        0.92       2.7     4.2  7.8 -0.1011E+01  0.9359E+01 -0.1443E+01E
 Epicentro: LOS SANTOS - SANTANDER                                             3
 ACTION:UPD 15-03-16 16:57 OP:nd   STATUS:               ID:20140513071244 L   I
 OLDACT:UP  14-05-13 21:36 OP:nlst STATUS:               ID:20140513071244 L   3
 OLDACT:DUP 14-05-13 19:36 OP:stll STATUS:               ID:20140513070810d    3
 2014-05-13-0708-09M.COL___248                                                 6
 STAT SP IPHASW D HRMM SECON CODA AMPLIT PERI AZIMU VELO AIN AR TRES W  DIS CAZ7
 PAM  SZ EP        713  6.78                             151    0.0210 77.3  42 
 PAM  SZ I         713  7.15        11.9 0.22            154           77.3  42 
 PAM  SN ES        713 24.13                             151    0.0210 77.3  42 
 RUS  HZ EP        713  8.32                             143   -0.1810  103 175 
 RUS  HN ES        713 27.02                             143   -0.1910  103 175 
 PTB  HZ EP        713 10.99                             132   -0.31 9  145 258 
 PTB  HN ES        713 31.82                             132   -0.37 9  145 258 
 PTB  HZ I         713 35.26         4.1 0.18            131            145 258 
 OCA  HN ES   1    713 35.00                             130    0.53 7  157 354 
 OCA  HZ I         713 38.12         3.6 0.22            131            157 354 
 SPBC HZ EP        713 13.97                             129    0.91 9  163 218 
 SPBC HE ES        713 35.82                             129    0.49 9  163 218 
 SPBC HZ I         713 37.71         5.0 0.36            129            163 218 
 ZAR  HN ES        713 41.72                             123    0.09 9  200 292 
 ZAR  HZ I         713 50.35         3.7 0.10            122            200 292 
 SML  HZ EP        713 20.42                             118   -0.35 8  240 336 
 SML  HN ES        713 48.92                             118   -0.13 8  240 336 
 SML  HZ I         713 51.47         4.5 0.10            118            240 336 
 CHI  HN ES        713 51.61                             117   -0.38 8  250 194 
 CHI  HZ I         713 57.36         1.2 0.38            118            250 194 
                                                                                
