 2017  813 0741 18.2 L   6.826 -73.114144.9  RSN  8 0.4 1.2LRSN                1
 GAP=243        0.82       3.6     5.0  7.2  0.5055E+01  0.4967E+01  0.1981E+01E
 Epicentro: LOS SANTOS - SANTANDER                                             3
 ACTION:UPD 17-09-04 20:19 OP:rebc STATUS:               ID:20170813074118 L   I
 OLDACT:REG 17-08-13 12:24 OP:dhb  STATUS:               ID:20170813073740     3
 2017-08-13-0738-00M.COL___404                                                 6
 STAT SP IPHASW D HRMM SECON CODA AMPLIT PERI AZIMU VELO AIN AR TRES W  DIS CAZ7
 BAR2 EZ IP     D  741 37.77                             169   -0.0510 27.0 196 
 BAR2 EZ I         741 54.37         3.1 0.21            173           27.0 196 
 BRR  HZ IP     D  741 39.56                             152    0.1810 73.0 295 
 BRR  HN ES        741 56.21                             152    0.3210 73.0 295 
 BRR  HZ I         742  0.76         3.7 0.28            154           73.0 295 
 RUS  HZ EP        741 41.96                             143   -0.1210  103 178 
 RUS  HN ES        742  0.77                             143    0.0710  103 178 
 RUS  HZ I         742  2.77         2.4 0.19            146            103 178 
 SPBC HZ EP        741 46.97                             128   -0.11 9  168 219 
 SPBC HN ES        742  8.97                             128   -0.62 9  168 219 
 SPBC HZ I         742 11.32         1.8 0.07            132            168 219 
 ZAR  HZ EP        741 51.19                             122    0.36 8  206 291 
 ZAR  HE ES        742 15.67                             122   -0.61 8  206 291 
 ZAR  HZ I         742 20.66         1.6 0.27            124            206 291 
 NOR  HN ES        742 22.78                             118    0.18 8  239 234 
 NOR  HZ I         742 24.34         1.4 0.17            120            239 234 
 CHI  HN ES        742 26.10                             117    0.14 8  252 196 
 CHI  HZ I         742 28.49         0.5 0.17            118            252 196 
 GUY2CHN ES   2    742 37.99                             112    1.31 4  306 235 
 GUY2CHZ I         742 43.09         1.0 0.09                           306 235 
                                                                                
