 2013  113 0726 13.5 L   5.888 -73.878106.0  RSN  5 0.4 1.5LRSN                1
 GAP=145        1.04       3.6     4.8 11.8  0.2953E+01  0.1169E+02  0.1307E+02E
 Epicentro: SUCRE - SANTANDER                                                  3
 ACTION:UPD 13-02-15 09:13 OP:ep   STATUS:               ID:20130113072613 L   I
 2013-01-13-0720-00M.COL___241                                                 6
 STAT SP IPHASW D HRMM SECON CODA AMPLIT PERI AZIMU VELO AIN AR TRES W  DIS CAZ7
 RUS  HZ EP        726 32.24                             138   -0.2310 88.0  90 
 RUS  HE ES        726 47.34                             138    0.0310 88.0  90 
 RUS  HE I         726 51.53         1.3 0.64            140           88.0  90 
 PTB  HZ EP        726 32.39                             134   -0.1410 96.4 318 
 PTB  HN ES        726 47.08                             134   -0.3210 96.4 318 
 BAR2 SZ EP        726 33.62                             130   -0.4010  110  45 
 BAR2 SZ ES        726 49.79                             130   -0.2610  110  45 
 BAR2 SZ I         726 52.03        30.9 0.36            134            110  45 
 BRR  HN ES        726 55.08                             123    0.98 9  136   8 
 BRR  HN I         726 56.38        14.0 0.18            128            136   8 
 CHI  HZ EP        726 37.51                             123    0.27 9  140 173 
 CHI  HN ES        726 56.00                             123    0.20 9  140 173 
 CHI  HN I         726 57.85         2.7 0.30            127            140 173 
                                                                                
