 2011  713 0256 25.2 L   6.818 -73.075150.0  RSN  4 0.2 1.3LRSN                1
 GAP=205        0.39       4.7     8.7  4.6  0.2848E+02 -0.3096E+01  0.2286E+01E
 Epicentro: LOS SANTOS - SANTANDER                                             3
 ACTION:UPD 12-07-25 14:00 OP:epov STATUS:               ID:20110713025625 L   I
 2011-07-13-0255-18S.COL___143                                                 6
 STAT SP IPHASW D HRMM SECON CODA AMPLIT PERI AZIMU VELO AIN AR TRES W  DIS CAZ7
 BAR2 SZ EP   1    256 45.35                             169   -0.10 7 27.7 205 
 BAR2 SZ ES   2    257  0.80                             169   -0.43 5 27.7 205 
 BAR2 SZ I         257  1.82         3.8 0.13                          27.7 205 
 GIR2 SZ ES   1    257  1.31                             168    0.16 7 31.6 336 
 BRR  HZ EP   1    256 47.17                             151    0.00 7 77.3 294 
 BRR  HN ES   1    257  4.30                             151    0.01 7 77.3 294 
 BRR  HZ I         257  7.68         7.4 0.32                          77.3 294 
 RUS  HZ EP   1    256 49.47                             144   -0.04 7  102 180 
 RUS  HN ES   1    257  8.62                             144    0.16 7  102 180 
 RUS  HZ I         257  9.09         2.1 0.26                           102 180 
                                                                                
