 2010  713 0147 29.8 L   6.760 -73.092146.4  RSN  7 0.4 1.6LRSN                1
 GAP=165        0.68       4.6     9.6  8.8  0.1093E+02 -0.1873E+02 -0.5999E+01E
 Epicentro: LOS SANTOS - SANTANDER                                             3
 ACTION:UPD 10-12-01 15:17 OP:pat  STATUS:               ID:20100713014729 L   I
 2010-07-13-0143-32S.COL___120                                                 6
 STAT SP IPHASW D HRMM SECON CODA AMPLIT PERI AZIMU VELO AIN AR TRES W  DIS CAZ7
 BAR2 SZ EP   2    147 50.26                             172     0.8 5   21 209 
 BAR2 SZ I         147 51.59         7.3 0.63                            21 209 
 BRR  HZ IP     D  147 51.35                             150    -0.110   79 299 
 BRR  HN ES   1    148  8.29                             150     0.0 7   79 299 
 BRR  HZ I         148 12.76         9.7 0.14                            79 299 
 RUS  HZ EP   1    147 53.23                             145     0.0 7   96 179 
 RUS  HN ES   1    148 11.38                             145    -0.2 7   96 179 
 RUS  HZ I         148 12.99         3.2 0.45                            96 179 
 GUE  SZ EP   2    147 54.38                             139    -0.4 5  120   9 
 GRA  SZ ES   2    148 15.58                             136     0.4 5  128  14 
 GRA  SZ I         148 16.76         5.9 0.31                           128  14 
 OCA  SZ EP   2    147 58.30                             129    -0.3 5  165 351 
 OCA  SZ I         148 12.85         8.5 0.25                           165 351 
 PRA  HZ EP   2    148 23.77                             107     0.6 3  391 211 
 PRA  HZ I         149  9.98         1.4 0.32                           391 211 
                                                                                
