 2016  113 0616 18.2 L   6.771 -73.151143.2  RSN  8 0.4 1.5LRSN                1
 GAP=137        1.03       4.0     5.0  6.2 -0.4917E+01  0.3401E+01  0.8023E+01E
 Epicentro: LOS SANTOS - SANTANDER                                             3
 ACTION:UPD 16-03-09 23:24 OP:cam  STATUS:               ID:20160113061618 L   I
 OLDACT:DUP 16-01-13 14:27 OP:drio STATUS:               ID:20160113060744d    3
 2016-01-13-0607-43M.COL___328                                                 6
 STAT SP IPHASW D HRMM SECON CODA AMPLIT PERI AZIMU VELO AIN AR TRES W  DIS CAZ7
 BAR2 EZ EP        616 37.17                             172   -0.2710 20.1 190 
 BAR2 EZ ES        616 52.06                             172   -0.4010 20.1 190 
 BAR2 EZ I         616 53.89         7.0 0.32            169           20.1 190 
 BRR  HZ EP        616 39.13                             152    0.0110 72.2 301 
 BRR  HN ES        616 56.08                             152    0.6410 72.2 301 
 BRR  HE ES        616 56.39                             151           72.2 301 
 BRR  HZ I         617  0.15         6.3 0.46            150           72.2 301 
 PAM  EZ EP        616 40.35                             149    0.0510 80.3  38 
 PAM  EE ES        616 57.43                             149   -0.1210 80.3  38 
 PAM  EZ I         616 59.53         4.5 0.52            154           80.3  38 
 RUS  HZ EP        616 41.28                             144   -0.1810 97.4 176 
 RUS  HE ES        617  0.22                             144    0.6210 97.4 176 
 RUS  HZ I         617  0.87         2.3 0.28            146           97.4 176 
 PTB  HZ EP        616 44.56                             132   -0.27 9  147 260 
 PTB  HN ES        617  5.06                             132   -0.56 9  147 260 
 PTB  HZ I         617 12.22         2.8 0.18            131            147 260 
 SPBC HZ EP        616 46.61                             129    0.40 9  160 220 
 SPBC HE ES        617  8.28                             129    0.21 9  160 220 
 SPBC HZ I         617 13.00         5.2 0.32            129            160 220 
 CHI  HZ EP        616 55.67                             117    0.28 8  245 195 
 CHI  HN ES        617 23.49                             117   -0.91 8  245 195 
 CHI  HZ I         617 28.35         2.1 0.62            119            245 195 
 PRA  HZ EP        617 11.56                             106    0.30 6  389 210 
 PRA  HN ES        617 53.15                             106    0.50 6  389 210 
 PRA  HZ I         617 57.60         1.7 0.52            108            389 210 
                                                                                
