 2010  313 0531 27.1 L   6.818 -73.057152.9  RSN  5 0.1 1.2LRSN                1
 GAP=248        0.27       4.6    10.6  3.8  0.3020E+02  0.6428E+01  0.6560E+00E
 Epicentro: LOS SANTOS - SANTANDER                                             3
 ACTION:UP  10-08-24 09:53 OP:vdl  STATUS:               ID:20100313053127 L   I
 2010-03-13-0520-00S.COL___094                                                 6
 STAT SP IPHASW D HRMM SECON CODA AMPLIT PERI AZIMU VELO SNR AR TRES W  DIS CAZ7
 BAR2 SZ EP   2    531 47.77                             169     0.0 5   29 209 
 BAR2 SZ ES   2    532  3.81                             169     0.0 5   29 209 
 BRR  HZ EP   2    531 49.47                             151     0.0 5   79 294 
 BRR  HN ES   3    532  6.88                             151    -0.1 2   79 294 
 RUS  HZ EP   1    531 51.70                             145     0.0 7  102 182 
 RUS  HE ES   1    532 10.88                             145     0.0 7  102 182 
 RUS  HZ I         532 12.27         1.5 0.41                           102 182 
 CHI  HZ EP   2    532  5.58                             118    -0.1 4  253 197 
 PRA  HZ EP   2    532 21.89                             107     0.2 3  399 211 
 PRA  HZ I         532 26.72         0.8 0.39                           399 211 
                                                                                
