 2013  913 0023 37.5 L   6.706 -73.180150.1  RSN  4 0.2 1.5LRSN                1
 GAP=226        0.48       3.8     3.6  3.8  0.6664E+01  0.1504E+01  0.3909E+00E
 Epicentro: VILLANUEVA - SANTANDER                                             3
 ACTION:UPD 13-10-22 09:22 OP:ep   STATUS:               ID:20130913002337 L   I
 OLDACT:DUP 13-09-13 08:24 OP:carl STATUS:               ID:20130913001901d    3
 2013-09-13-0019-59M.COL___269                                                 6
 STAT SP IPHASW D HRMM SECON CODA AMPLIT PERI AZIMU VELO AIN AR TRES W  DIS CAZ7
 BAR2 SZ EP        023 57.69                             175    0.1510 12.6 181 
 BAR2 SZ ES        024 13.16                             175    0.0310 12.6 181 
 BAR2 SZ I         024 14.36         7.8 0.26            170           12.6 181 
 BRR  HZ EP        023 59.41                             152    0.1110 73.6 307 
 BRR  HN ES        024 16.12                             152   -0.1510 73.6 307 
 RUS  HZ EP        024  1.10                             148    0.0510 90.6 173 
 RUS  HN ES        024 19.28                             148   -0.1010 90.6 173 
 RUS  HZ I         024 21.56         4.0 0.56            146           90.6 173 
 PTB  HZ EP        024  4.08                             134   -0.31 9  142 263 
 PTB  HN ES        024 25.54                             134    0.21 9  142 263 
 PTB  HZ I         024 29.44         3.8 0.12            133            142 263 
                                                                                
