 2015  913 0253  6.3 L   6.049 -73.743110.1  RSN  6 0.4 1.6LRSN                1
 GAP=134        1.05       3.1     4.8  7.7  0.5201E+00  0.1251E+01 -0.5437E+00E
 Epicentro: BOLIVAR - SANTANDER                                                3
 ACTION:UPD 15-10-28 16:25 OP:cam  STATUS:               ID:20150913025306 L   I
 OLDACT:REG 15-09-13 12:25 OP:drio STATUS:               ID:20150913024749     3
 2015-09-13-0247-49M.COL___326                                                 6
 STAT SP IPHASW D HRMM SECON CODA AMPLIT PERI AZIMU VELO AIN AR TRES W  DIS CAZ7
 SPBC HZ EP        253 23.26                             151    0.3710 57.1 220 
 SPBC HN ES        253 36.31                             151    0.4410 57.1 220 
 SPBC HZ I         253 36.88        20.5 0.10            149           57.1 220 
 BAR2 EZ EP        253 25.47                             139    0.3110 86.3  46 
 BAR2 EZ ES        253 39.26                             139   -0.6410 86.3  46 
 BAR2 EZ I         253 40.90        20.8 0.14            141           86.3  46 
 PTB  HZ EP        253 25.36                             136   -0.2810 95.8 305 
 PTB  HN ES        253 40.49                             136   -0.2610 95.8 305 
 PTB  HZ I         253 43.35         3.9 0.28            135           95.8 305 
 BRR  HZ EP        253 27.66                             129    0.1410  117   2 
 BRR  HN ES        253 44.71                             129    0.6010  117   2 
 CHI  HZ EP        253 32.01                             121   -0.05 9  157 180 
 CHI  HN ES        253 51.74                             121   -0.45 9  157 180 
 CHI  HZ I         253 56.96         2.1 0.38            121            157 180 
 ZAR  HZ EP        253 36.66                             114    0.27 9  202 322 
 ZAR  HE ES        253 59.33                             114   -0.57 9  202 322 
 ZAR  HZ I         254  5.27         3.9 0.18            113            202 322 
                                                                                
