 2012  813 0425 49.8 L   6.778 -73.130143.9  RSN  8 0.4 1.9LRSN                1
 GAP=139        0.91       3.7     4.1  7.3 -0.1443E+01  0.9768E+01 -0.3461E+01E
 Epicentro: LOS SANTOS - SANTANDER                                             3
 ACTION:UPD 12-09-10 11:56 OP:ep   STATUS:               ID:20120813042550dL   I
 2012-08-13-0420-00M.COL___218                                                 6
 STAT SP IPHASW D HRMM SECON CODA AMPLIT PERI AZIMU VELO AIN AR TRES W  DIS CAZ7
 BAR2 SZ EP   1    426  9.08                             171   -0.05 7 21.3 196 
 BAR2 SZ ES   1    426 23.84                             171   -0.39 7 21.3 196 
 BAR2 SZ I         426 25.28        34.3 0.18                          21.3 196 
 BRR  HZ EP   1    426 10.99                             151    0.13 7 73.9 300 
 BRR  HZ I         426 11.55        21.6 0.10                          73.9 300 
 BRR  HN ES   1    426 27.97                             151    0.65 7 73.9 300 
 PAM  SZ EP   1    426 12.10                             150    0.27 7 78.3  37 
 PAM  SN ES   1    426 29.32                             150    0.28 7 78.3  37 
 PAM  SZ I         426 31.51         6.2 0.28                          78.3  37 
 RUS  HZ EP   1    426 12.99                             144   -0.16 7 98.0 177 
 RUS  HN ES        426 31.60                             144    0.2210 98.0 177 
 RUS  HZ I         426 32.62         7.2 0.20                          98.0 177 
 PTB  HZ EP   1    426 16.00                             131   -0.69 7  149 260 
 PTB  HE ES        426 37.14                             131   -0.55 9  149 260 
 OCA  HZ EP   1    426 18.00                             129   -0.18 7  163 353 
 OCA  HN ES        426 39.88                             129   -0.46 9  163 353 
 OCA  HZ I         426 42.76        12.9 0.25                           163 353 
 ZAR  HN ES        426 48.31                             122    0.55 8  207 293 
 HEL  HZ EP   1    426 30.89                             114    0.89 6  273 256 
 HEL  HN ES        427  1.31                             114   -0.07 8  273 256 
 HEL  HZ I         427  8.89         3.8 0.27                           273 256 
                                                                                
