 2011  213 0738 10.1 L   6.841 -73.190140.3  RSN  4 0.3 1.5LRSN                1
 GAP=153        0.59       5.4    22.7  8.0 -0.6267E+02 -0.4306E+02  0.9845E+00E
 Epicentro: ZAPATOCA - SANTANDER                                               3
 ACTION:UP  11-03-28 15:08 OP:jfem STATUS:               ID:20110213073810 L   I
 2011-02-13-0737-24S.COL___136                                                 6
 STAT SP IPHASW D HRMM SECON CODA AMPLIT PERI AZIMU VELO SNR AR TRES W  DIS CAZ7
 BTL  SZ EP   1    738 28.58                             175    -0.3 7   12 315 
 BTL  SZ ES   2    738 43.63                             175     0.1 5   12 315 
 BAR2 SZ EP   1    738 29.43                             168     0.3 7   28 179 
 BAR2 SZ ES   2    738 44.13                             168     0.1 5   28 179 
 BAR2 SZ I         738 44.88        11.2 0.44                            28 179 
 RUS  HZ EP   1    738 33.97                             141     0.3 7  106 174 
 RUS  HN ES   2    738 51.52                             141    -0.6 5  106 174 
 RUS  HZ I         738 52.67         2.7 0.32                           106 174 
 GRA  SZ EP   1    738 34.44                             136    -0.2 7  123  20 
 GRA  SZ I         738 35.74         5.6 0.26                           123  20 
 GRA  SZ ES   2    738 53.97                             136     0.2 5  123  20 
                                                                                
