 2014  113 0131 24.3 L   6.806 -73.163150.0  RSN  7 0.4 1.4LRSN                1
 GAP=134        0.92       3.9     5.1  6.8 -0.3040E+00  0.5243E+00  0.3732E+01E
 Epicentro: LOS SANTOS - SANTANDER                                             3
 ACTION:UPD 14-03-13 09:54 OP:ep   STATUS:               ID:20140113013124 L   I
 OLDACT:REG 14-01-13 07:41 OP:cam  STATUS:               ID:20140113013000     3
 2014-01-13-0130-00M.COL___285                                                 6
 STAT SP IPHASW D HRMM SECON CODA AMPLIT PERI AZIMU VELO AIN AR TRES W  DIS CAZ7
 BAR2 SZ ES   1    132  0.52                             171    0.36 7 23.7 185 
 BRR  HZ EP   1    131 46.04                             154    0.24 7 69.2 299 
 BRR  HN ES        132  3.15                             154    0.5810 69.2 299 
 BRR  HZ I         132  4.12         4.2 0.16            152           69.2 299 
 PAM  SZ EP        131 47.10                             151    0.0910 78.1  41 
 PAM  SN ES   1    132  4.35                             151   -0.38 7 78.1  41 
 PAM  SZ I         132  4.72         3.1 0.30            153           78.1  41 
 RUS  HZ EP        131 48.21                             145   -0.3210  101 175 
 RUS  HE ES        132  7.15                             145   -0.2710  101 175 
 RUS  HZ I         132  7.94         2.3 0.34            146            101 175 
 PTB  HZ EP   1    131 50.84                             133   -0.62 7  146 258 
 PTB  HN ES        132 12.15                             133   -0.50 9  146 258 
 PTB  HZ I         132 16.03         3.2 0.14            133            146 258 
 SML  HZ EP   2    132  1.58                             119    0.56 4  242 336 
 SML  HE ES   2    132 29.35                             119   -0.31 4  242 336 
 SML  HZ I         132 31.28         3.3 0.10            119            242 336 
 CHI  HZ EP   1    132  2.52                             118    0.27 6  249 195 
 CHI  HN ES        132 32.51                             118    0.66 8  249 195 
                                                                                
