 2017 1113 0644 14.6 L   6.775 -73.137146.0  RSN  7 0.4 1.3LRSN                1
 GAP=139        0.98       4.1     4.2  6.2 -0.5865E+00  0.6715E+01  0.1950E+00E
 Epicentro: LOS SANTOS - SANTANDER                                             3
 ACTION:UPD 17-12-12 19:55 OP:rebc STATUS:               ID:20171113064414 L   I
 OLDACT:REG 17-11-13 13:34 OP:leo  STATUS:               ID:20171113063737     3
 2017-11-13-0638-00M.COL___450                                                 6
 STAT SP IPHASW D HRMM SECON CODA AMPLIT PERI AZIMU VELO AIN AR TRES W  DIS CAZ7
 BAR2 EZ EP        644 34.03                             172   -0.1610 20.8 194 
 BAR2 EZ ES        644 49.61                             172    0.1210 20.8 194 
 BAR2 EZ I         644 51.87         3.0 0.40            172           20.8 194 
 BRR  HZ EP        644 35.86                             152   -0.0210 73.4 300 
 BRR  HN ES        644 52.96                             152    0.4710 73.4 300 
 BRR  HZ I         644 56.78         4.7 0.14            151           73.4 300 
 PAM  EZ EP        644 36.92                             150    0.0010 79.0  38 
 PAM  EN ES        644 53.96                             150   -0.3810 79.0  38 
 PAM  EZ I         644 54.56         3.1 0.20            153           79.0  38 
 RUS  HZ EP        644 38.42                             145    0.2710 97.7 176 
 RUS  HN ES        644 56.66                             145    0.1210 97.7 176 
 RUS  HZ I         644 58.10         4.3 0.24            148           97.7 176 
 PTB  HZ EP        644 40.96                             132   -0.64 9  148 260 
 PTB  HN ES        645  1.83                             132   -0.85 9  148 260 
 PTB  HZ I         645  4.57         1.9 0.14            133            148 260 
 SPBC HZ EP        644 43.06                             129    0.11 9  162 220 
 SPBC HN ES        645  5.22                             129    0.14 9  162 220 
 ZAR  HZ EP        644 47.74                             122    0.50 8  206 293 
 ZAR  HN ES        645 13.13                             122    0.42 8  206 293 
 ZAR  HZ I         645 18.33         3.3 0.46            123            206 293 
                                                                                
