 2015  613 0427 36.0 L   6.848 -73.079140.5  RSN  5 0.4 1.7LRSN                1
 GAP=190        1.03       5.0     7.7  8.2  0.1564E+02  0.3915E+01 -0.1036E+02E
 Epicentro: LOS SANTOS - SANTANDER                                             3
 ACTION:UPD 15-09-10 22:12 OP:cam  STATUS:               ID:20150613042736 L   I
 OLDACT:DUP 15-06-13 16:03 OP:stll STATUS:               ID:20150613041749d    3
 2015-06-13-0417-48M.COL___315                                                 6
 STAT SP IPHASW D HRMM SECON CODA AMPLIT PERI AZIMU VELO AIN AR TRES W  DIS CAZ7
 BAR2 EZ EP        427 55.33                             167    0.1810 30.5 202 
 BAR2 EZ ES        428  9.59                             167   -0.5110 30.5 202 
 BAR2 EZ I         428 12.53        12.3 0.18            169           30.5 202 
 BRR  HZ EP        427 57.15                             150    0.3210 75.6 292 
 BRR  HZ I         427 57.34        10.3 0.24            150           75.6 292 
 BRR  HN ES        428 13.43                             150    0.3510 75.6 292 
 RUS  HZ EP   1    427 59.79                             141    0.19 7  106 180 
 RUS  HN ES        428 18.00                             141   -0.0110  106 180 
 RUS  HZ I         428 18.74         5.4 0.22            144            106 180 
 OCA  HZ EP   1    428  2.32                             129   -1.18 7  156 350 
 OCA  HN ES        428 25.30                             129    0.35 9  156 350 
 OCA  HZ I         428 28.48         9.8 0.20            130            156 350 
 ZAR  HZ EP        428  8.84                             120    0.22 8  209 290 
 ZAR  HN ES        428 33.61                             120   -0.46 8  209 290 
 ZAR  HZ I         428 38.15         5.2 0.26            122            209 290 
                                                                                
