 2010  413 0245 45.7 L   7.086 -73.347115.4  RSN  4 0.2 1.5LRSN                1
 GAP=160        0.54       3.1     4.2  4.8 -0.2341E+01  0.1480E+01 -0.2850E+01E
 Epicentro: LEBRIJA - SANTANDER                                                3
 ACTION:UPD 10-08-24 09:58 OP:vdl  STATUS:               ID:20100413024547 L   I
 2010-04-13-0240-16S.COL___097                                                 6
 STAT SP IPHASW D HRMM SECON CODA AMPLIT PERI AZIMU VELO AIN AR TRES W  DIS CAZ7
 BRR  HZ IP     C  246  1.96                             161     0.110   40 273 
 BRR  HN ES        246 14.79                             161     0.210   40 273 
 BAR2 SZ EP        246  3.08                             146     0.010   58 162 
 BAR2 SZ ES   1    246 16.51                             146    -0.2 7   58 162 
 OCA  SZ IP        246  8.62                             128     0.110  128   1 
 OCA  SZ ES   1    246 26.12                             128    -0.3 7  128   1 
 HEL  HZ EP   2    246 23.67                             107     0.5 4  261 248 
 HEL  HZ I         246 25.54         2.2 0.33                           261 248 
 HEL  HN ES   1    246 51.99                             107    -0.5 6  261 248 
                                                                                
