 2011 1113 0516 46.3 L   5.924 -74.054 77.7  RSN  5 0.4 1.5LRSN                1
 GAP=154        0.78       4.7     2.8 13.6 -0.5319E+01  0.8815E+01 -0.1664E+02E
 Epicentro: LA BELLEZA - SANTANDER                                             3
 ACTION:UPD 12-07-13 16:09 OP:ep   STATUS:               ID:20111113051646 L   I
 2011-11-13-0513-40S.COL___179                                                 6
 STAT SP IPHASW D HRMM SECON CODA AMPLIT PERI AZIMU VELO AIN AR TRES W  DIS CAZ7
 NOR  SZ EP   1    517  3.33                             123   -0.10 8 98.7 246 
 NOR  SN ES   1    517 16.51                             123   -0.30 8 98.7 246 
 RUS  HZ EP        517  5.35                             121    0.4210  108  92 
 RUS  HE ES   1    517 19.44                             121   -0.03 7  108  92 
 BAR2 SZ ES   1    517 21.23                             117   -0.33 7  122  53 
 BAR2 SZ I         517 24.41         7.3 0.48                           122  53 
 BRR  HZ EP        517  7.11                             114   -0.3210  136  16 
 BRR  HE ES   1    517 24.23                             114    0.31 7  136  16 
 BRR  HN I         517 25.43        13.6 0.21                           136  16 
 HEL  HZ EP   1    517 10.91                             109   -0.39 7  166 280 
 HEL  HN ES   1    517 31.52                             109    0.70 7  166 280 
 HEL  HZ I         517 35.92         2.3 0.38                           166 280 
                                                                                
