 2011  413 0455 22.6 L   6.780 -73.130144.1  RSN  7 0.4 1.9LRSN                1
 GAP=158        0.72       8.0     7.5  8.2 -0.4095E+02  0.1980E+02 -0.1046E+02E
 Epicentro: LOS SANTOS - SANTANDER                                             3
 ACTION:UP  11-06-22 15:30 OP:REBC STATUS:               ID:20110413045522 L   I
 2011-04-13-0451-13S.COL___139                                                 6
 STAT SP IPHASW D HRMM SECON CODA AMPLIT PERI AZIMU VELO SNR AR TRES W  DIS CAZ7
 BTL  SZ EP   1    455 42.41                             171     0.4 7   22 315 
 BAR2 SZ EP   1    455 41.60                             171    -0.4 7   22 196 
 BAR2 SZ I         455 42.28        20.8 0.07                            22 196 
 BAR2 SZ ES   1    455 57.05                             171    -0.1 7   22 196 
 BRR  HZ EP        455 43.83                             151     0.110   74 299 
 BRR  HZ I         455 44.23        28.6 0.09                            74 299 
 BRR  HN ES   2    456  0.92                             151     0.7 5   74 299 
 PAM  SZ EP   1    455 44.84                             150     0.2 7   78  38 
 PAM  SN ES   2    456  1.78                             150    -0.1 5   78  38 
 GRA  SZ EP   2    455 47.71                             136    -0.1 5  127  16 
 GRA  SZ ES   2    456  6.67                             136    -0.8 5  127  16 
 GRA  SZ I         456  8.45         7.0 0.35                           127  16 
 NOR  SN ES   1    456 25.92                             118    -0.1 6  235 235 
 HEL  HZ EP   2    456  3.22                             114     0.4 4  273 256 
 HEL  HN ES   2    456 33.40                             114    -0.9 4  273 256 
                                                                                
