 2017  413 0242  3.0 L   6.743 -73.127148.6  RSN  4 0.2 1.2LRSN                1
 GAP=226        0.64       8.7     3.7  7.2 -0.1628E+02 -0.2640E+01  0.2879E+02E
 Epicentro: LOS SANTOS - SANTANDER                                             3
 ACTION:UPD 17-05-30 21:11 OP:jn   STATUS:               ID:20170413024203 L   I
 OLDACT:REG 17-04-13 12:37 OP:cog  STATUS:               ID:20170413023737     3
 2017-04-13-0238-00M.COL___368                                                 6
 STAT SP IPHASW D HRMM SECON CODA AMPLIT PERI AZIMU VELO AIN AR TRES W  DIS CAZ7
 BRR  HZ EP        242 25.03                             151    0.3010 76.1 302 
 BRR  HN ES        242 41.97                             151    0.2910 76.1 302 
 BRR  HZ I         242 45.08         3.0 0.10            157           76.1 302 
 PAM  EZ EP        242 25.87                             150    0.1310 81.1  36 
 PAM  EN ES        242 43.16                             150   -0.3110 81.1  36 
 PAM  EZ I         242 44.96         2.8 0.54            158           81.1  36 
 PTB  HZ EP        242 30.05                             132   -0.23 9  149 261 
 PTB  HE ES        242 51.47                             132   -0.09 9  149 261 
 PTB  HZ I         242 56.57         2.3 0.20            136            149 261 
 ZAR  HN ES        243  1.68                             122   -0.19 8  208 294 
                                                                                
