 2013  213 0606 36.8 L   6.790 -72.978146.4  RSN  4 0.4 1.5LRSN                1
 GAP=215        0.97       5.3    15.4  9.6  0.5533E+02 -0.3648E+02 -0.6311E+01E
 Epicentro: CEPITA - SANTANDER                                                 3
 ACTION:UPD 13-03-12 09:32 OP:ep   STATUS:               ID:20130213060636 L   I
 2013-02-13-0600-00M.COL___239                                                 6
 STAT SP IPHASW D HRMM SECON CODA AMPLIT PERI AZIMU VELO AIN AR TRES W  DIS CAZ7
 BRR  HZ EP        6 6 58.83                             147   -0.2210 88.3 293 
 BRR  HN ES        6 7 15.96                             147   -0.4610 88.3 293 
 BRR  HN I         6 7 16.30         7.6 0.18            144           88.3 293 
 RUS  HZ EP        6 7  0.42                             144   -0.1310 99.9 187 
 RUS  HN ES        6 7 19.40                             144    0.3110 99.9 187 
 RUS  HN I         6 7 20.43         4.7 0.32            141           99.9 187 
 SML  HN ES        6 7 44.54                             117    0.71 8  253 332 
 CHI  HZ EP        6 7 14.60                             117   -0.40 8  253 199 
 CHI  HN ES        6 7 45.32                             117    0.51 8  253 199 
 CHI  HN I         6 7 48.98         1.6 0.32            115            253 199 
                                                                                
