 2016  213 0648 50.5 L   6.260 -74.183 15.5  RSN 14 0.6 2.1LRSN                1
 GAP= 66        1.49       2.8     2.8  5.0  0.2165E-01  0.6454E+01  0.7582E+00E
 Epicentro: CIMITARRA - SANTANDER                                              3
 ACTION:UPD 16-03-04 21:25 OP:rebc STATUS:               ID:20160213064850 L   I
 OLDACT:REG 16-02-13 14:11 OP:ak   STATUS:               ID:20160213063743     3
 2016-02-13-0637-43M.COL___307                                                 6
 STAT SP IPHASW D HRMM SECON CODA AMPLIT PERI AZIMU VELO AIN AR TRES W  DIS CAZ7
 PTB  HZ IP     D  648 57.91                             107    0.0210 43.2 316 
 PTB  HN ES        649  4.00                             107    0.3310 43.2 316 
 PTB  HZ I         649  4.60       367.3 0.09             47           43.2 316 
 SPBC HZ EP     C  649  2.20                             100    0.5110 68.4 170 
 SPBC HE ES        649 11.16                             100    0.7310 68.4 170 
 SPBC HZ I         649 11.62        91.9 0.10             47           68.4 170 
 NOR  HZ EP        649  6.75                              96   -0.8710  108 225 
 NOR  HN ES   4    649 17.97                              96   -3.02 0  108 225 
 NOR  HZ I         649 20.63        24.3 0.15             47            108 225 
 BAR2 EZ IP     D  649  9.24                              96    0.1510  117  72 
 BAR2 EZ ES        649 23.27                              96   -0.3310  117  72 
 BAR2 EZ I         649 24.54       108.7 0.36             47            117  72 
 RUS  HZ EP     D  649 11.22                              96    0.1010  128 108 
 RUS  HN ES        649 26.37                              96   -0.8510  128 108 
 RUS  HZ I         649 28.66        45.7 0.32             47            128 108 
 HEL  HZ EP     D  649 12.72                              56   -1.12 9  149 267 
 HEL  HN ES   4    649 29.53                              56   -2.52 0  149 267 
 HEL  HZ I         649 30.48        53.5 0.38             47            149 267 
 ZAR  HZ EP   4    649 12.48                              56   -1.70 0  155 331 
 ZAR  HN ES   4    649 29.24                              56   -3.42 0  155 331 
 ZAR  HZ I         649 34.32        19.4 0.24             47            155 331 
 GUY2CHZ EP        649 17.31                              56    0.24 9  174 229 
 GUY2CHN ES        649 36.88                              56   -0.93 9  174 229 
 GUY2CHZ I         649 40.87         9.0 0.56                           174 229 
 CHI  HZ EP   4    649 20.17                              56    1.52 0  187 164 
 PAM  EZ EP   1    649 21.20                              56    0.50 6  203  54 
 PAM  EE ES   4    649 43.72                              56   -0.54 0  203  54 
 PAM  EZ I         649 48.23        21.7 0.16             37            203  54 
 ELA  HZ EP        649 21.51                              56    0.46 8  205 221 
 ELA  HN ES        649 44.89                              56   -0.01 8  205 221 
 ELA  HZ I         649 46.86        12.4 0.38             37            205 221 
 CBOC HZ EP        649 21.15                              56    0.29 8  207 258 
 CBOC HN ES        649 45.53                              56    0.98 8  207 258 
 CBOC HZ I         649 47.39         3.6 0.16             37            207 258 
 URE  HZ EP        649 22.47                              56   -0.09 8  222 318 
 URE  HN ES        649 46.89                              56   -0.69 8  222 318 
 URE  HZ I         649 55.13         9.1 0.36             37            222 318 
 ANIL HZ EP   4    649 27.06                              56    2.22 0  238 215 
 ANIL HN ES        649 51.80                              56    0.17 8  238 215 
 ANIL HZ I         649 54.44        22.8 0.32             37            238 215 
 OCA  HN ES        649 52.48                              56    0.96 8  239  24 
 OCA  HZ I         650  8.98        17.7 0.50             37            239  24 
                                                                                
