 2015 1113 0133 50.6 L   6.781 -73.169135.3  RSN  7 0.5 1.7LRSN                1
 GAP=135        1.09       4.2     5.2  7.2  0.2549E+00  0.9853E+01 -0.6241E+01E
 Epicentro: LOS SANTOS - SANTANDER                                             3
 ACTION:UPD 15-12-28 16:10 OP:cam  STATUS:               ID:20151113013350 L   I
 OLDACT:UP  15-11-13 18:19 OP:dnl  STATUS:               ID:20151113012749     3
 OLDACT:REG 15-11-13 12:47 OP:dnl  STATUS:               ID:20151113012749     3
 2015-11-13-0127-49M.COL___319                                                 6
 STAT SP IPHASW D HRMM SECON CODA AMPLIT PERI AZIMU VELO AIN AR TRES W  DIS CAZ7
 BAR2 EZ EP        134  8.90                             171   -0.0410 21.0 184 
 BAR2 EZ ES        134 22.76                             171   -0.4810 21.0 184 
 BAR2 EZ I         134 26.07        10.1 0.28            170           21.0 184 
 BRR  HZ EP        134 10.95                             151    0.3810 70.0 301 
 BRR  HN ES        134 26.37                             151    0.2310 70.0 301 
 BRR  HZ I         134 37.03         7.9 0.46            149           70.0 301 
 PAM  EZ EP        134 12.04                             147    0.1010 80.6  40 
 PAM  EN ES        134 28.90                             147    0.3310 80.6  40 
 PAM  EZ I         134 30.96        14.2 0.50            154           80.6  40 
 RUS  HZ EP        134 13.56                             142    0.3510 98.7 174 
 RUS  HN ES        134 30.72                             142   -0.1210 98.7 174 
 SPBC HN ES        134 38.91                             127   -0.49 9  160 219 
 SPBC HZ I         134 45.05         5.7 0.18            131            160 219 
 OCA  HN ES   4    134 38.19                             127   -1.72 0  162 354 
 ZAR  HZ EP        134 22.71                             120    0.47 9  203 293 
 ZAR  HN ES        134 47.19                             120    0.29 9  203 293 
 ZAR  HZ I         134 53.52         6.3 0.22            123            203 293 
 SML  HZ EP        134 25.64                             115   -1.13 8  245 336 
 SML  HE ES   2    134 53.83                             115   -1.14 4  245 336 
                                                                                
