 2011  113 0628 40.8 L   6.562 -73.574105.0  RSN 12 0.5 2.4LRSN                1
 GAP= 89        1.01       4.6     4.3  8.6 -0.3943E+01  0.1761E+02 -0.4421E+01E
 Epicentro: EL CARMEN DE CHUCURI - SANTANDER                                   3
 ACTION:UP  11-02-08 08:40 OP:pat  STATUS:               ID:20110113062840 L   I
 2011-01-13-0626-43S.COL___136                                                 6
 STAT SP IPHASW D HRMM SECON CODA AMPLIT PERI AZIMU VELO SNR AR TRES W  DIS CAZ7
 BAR2 SZ EP        628 56.37                             156     0.010   43  86 
 BAR2 SZ ES   1    629  8.65                             156     0.2 7   43  86 
 BAR2 SZ I         629  9.91       419.0 0.53                            43  86 
 RUS  HZ EP   1    628 59.53                             136    -0.5 7   92 144 
 RUS  HE ES   1    629 15.06                             136     0.0 7   92 144 
 RUS  HZ I         629 16.48        48.4 0.30                            92 144 
 GRA  SZ EP        629  7.72                             117     0.4 9  169  30 
 GRA  SZ I         629 30.74        29.7 0.28                           169  30 
 NOR  SZ EP   1    629  8.13                             115    -0.3 7  181 233 
 NOR  SN ES   1    629 30.14                             115     0.1 7  181 233 
 YOP  SZ EP   1    629  8.51                             114    -0.4 7  185 136 
 YOP  SN ES   1    629 30.69                             114    -0.2 7  185 136 
 YOP  SZ I         629 32.53        37.7 0.16                           185 136 
 OCA  SZ EP   1    629  8.76                             114    -0.5 7  188   9 
 OCA  SZ I         629 39.44        39.9 0.23                           188   9 
 ROSC BZ EP   1    629 12.88                             111     1.0 6  208 203 
 ROSC BZ I         629 41.19        17.5 0.42                           208 203 
 CHI  HZ EP   1    629 12.40                             111    -0.3 6  214 185 
 CHI  HZ I         629 39.94         7.3 0.22                           214 185 
 HEL  HZ EP   1    629 13.97                             110     0.7 6  220 259 
 HEL  HN ES   1    629 38.05                             110    -0.5 6  220 259 
 HEL  HZ I         629 46.72        22.7 0.18                           220 259 
 RREF HZ EP   1    629 18.84                             105    -0.4 6  269 227 
 RREF HN ES   1    629 49.21                             105     0.0 6  269 227 
 RREF HZ I         629 55.80        14.9 0.19                           269 227 
 DBB  SZ EP   1    629 21.54                             103    -0.2 5  296 280 
 SJA  SZ EP   1    629 31.15                              99     1.0 5  366 187 
                                                                                
