 2016  113 0546 22.1 L   6.830 -73.152144.3  RSN 20 0.5 2.3LRSN                1
 GAP= 65        1.21       3.0     3.2  5.6 -0.1224E+01  0.4558E+01  0.2344E+01E
 Epicentro: LOS SANTOS - SANTANDER                                             3
 ACTION:UPD 16-03-09 23:24 OP:cam  STATUS:               ID:20160113054622 L   I
 OLDACT:UP  16-02-23 20:51 OP:AR   STATUS:               ID:20160113054622 L   3
 OLDACT:UP  16-01-13 14:13 OP:drio STATUS:               ID:20160113053738d    3
 OLDACT:UP  16-01-13 14:13 OP:drio STATUS:               ID:20160113053738d    3
 OLDACT:UP  16-01-13 14:12 OP:drio STATUS:               ID:20160113053738d    3
 OLDACT:DUP 16-01-13 14:00 OP:drio STATUS:               ID:20160113053738d    3
 2016-01-13-0537-37M.COL___328                                                 6
 STAT SP IPHASW D HRMM SECON CODA AMPLIT PERI AZIMU VELO AIN AR TRES W  DIS CAZ7
 BAR2 EZ IP     C  546 41.65                             169    0.0510 26.5 187 
 BAR2 EZ ES        546 56.07                             169   -0.7610 26.5 187 
 BAR2 EZ I         546 58.48        32.5 0.28            167           26.5 187 
 BRR  HZ IP     C  546 43.39                             153    0.4510 69.0 296 
 BRR  HE ES        547  0.31                             153    1.0910 69.0 296 
 BRR  HZ I         547  4.58        37.7 0.12            150           69.0 296 
 PAM  EZ EP     C  546 44.29                             151    0.2810 75.3  42 
 PAM  EN ES        547  1.40                             151    0.2810 75.3  42 
 PAM  EZ I         547  2.06        31.2 0.22            156           75.3  42 
 RUS  HZ EP        546 45.74                             142   -0.1910  104 176 
 RUS  HE ES        547  4.35                             142   -0.1910  104 176 
 RUS  HZ I         547  5.72        29.2 0.22            143            104 176 
 PTB  HZ EP        546 48.23                             132   -0.69 9  148 258 
 PTB  HN ES        547  9.15                             132   -0.71 9  148 258 
 PTB  HZ I         547 16.40        22.1 0.56            130            148 258 
 OCA  HZ EP        546 49.58                             130   -0.37 9  157 353 
 OCA  HN ES        547 11.19                             130   -0.51 9  157 353 
 OCA  HZ I         547 16.06        49.8 0.14            131            157 353 
 TAM  HZ EP        546 50.08                             130    0.30 9  157 106 
 TAM  HN ES        547 11.85                             130    0.45 9  157 106 
 TAM  HZ I         547 12.28         9.8 0.30            134            157 106 
 SPBC HZ EP        546 50.65                             128   -0.02 9  165 218 
 SPBC HE ES        547 12.77                             128   -0.20 9  165 218 
 SPBC HZ I         547 16.19        33.4 0.22            128            165 218 
 ZAR  HZ EP   4    546 55.76                             122    1.53 0  202 291 
 ZAR  HE ES        547 19.86                             122    0.55 9  202 291 
 ZAR  HZ I         547 26.58        31.1 0.44            122            202 291 
 NOR  HZ EP        546 58.04                             118    0.17 8  236 234 
 NOR  HE ES        547 25.98                             118    0.19 8  236 234 
 NOR  HZ I         547 31.47        16.2 0.26            118            236 234 
 SML  HZ EP        546 57.78                             117   -0.48 8  240 335 
 SML  HN ES        547 25.64                             117   -0.84 8  240 335 
 SML  HZ I         547 30.07        21.2 0.10            118            240 335 
 CHI  HZ EP        546 59.86                             116   -0.16 8  252 195 
 CHI  HE ES   4    547 28.70                             116   -0.92 0  252 195 
 CHI  HZ I         547 33.13         5.8 0.64            117            252 195 
 ROSC BZ EP   4    547  1.93                             116    1.54 0  255 211 
 ROSC BN ES   4    547 32.92                             116    2.65 0  255 211 
 ROSC BZ I         547 35.62        14.1 0.35            116            255 211 
 HEL  HZ EP   4    547  3.37                             114    1.14 0  272 255 
 HEL  HE ES        547 34.01                             114    0.46 8  272 255 
 HEL  HZ I         547 40.10        11.6 0.46            114            272 255 
 SOCV BZ EP   4    547  3.52                             112   -1.40 0  300  57 
 SOCV BE ES   4    547 35.63                             112   -2.70 0  300  57 
 GUY2CHZ EP        547  6.69                             112    0.92 7  303 234 
 GUY2CHE ES        547 40.18                             112    0.33 7  303 234 
 GUY2CHZ I         547 48.22         9.2 0.52                           303 234 
 PTGC HZ EP   9    547  5.19                             111   -1.06 0  312 159 
 PTGC HN ES        547 38.82                             111   -0.83 7  312 159 
 ELA  HZ EP   4    547 11.27                             110    2.22 0  331 229 
 ELA  HN ES   4    547 44.69                             110   -1.00 0  331 229 
 ELA  HZ I         548  3.82         5.2 0.38            110            331 229 
 CBOC HZ EP        547  9.87                             110    0.90 7  334 252 
 CBOC HE ES        547 45.47                             110   -0.08 7  334 252 
 CBOC HZ I         547 56.96         4.2 0.60            110            334 252 
 PRA  HZ EP        547 15.10                             106   -0.74 6  395 209 
 PRA  HN ES        547 57.13                             106   -0.65 6  395 209 
 PRA  HZ I         548  3.68         8.7 0.40            107            395 209 
 ORTC HZ EP        547 16.27                             106    0.06 6  398 216 
 ORTC HN ES        547 58.41                             106   -0.03 6  398 216 
 ORTC HZ I         548  5.92         5.7 0.72            106            398 216 
                                                                                
