 2016 1213 0741 53.4 L   6.822 -73.190144.1  RSN  5 0.3 1.4LRSN                1
 GAP=130        0.55       3.5     3.3  5.0 -0.1527E+01  0.6175E+01  0.1159E+01E
 Epicentro: ZAPATOCA - SANTANDER                                               3
 ACTION:UPD 17-01-11 20:14 OP:rebc STATUS:               ID:20161213074153 L   I
 OLDACT:UP  16-12-13 18:36 OP:e    STATUS:               ID:20161213073747     3
 OLDACT:UP  16-12-13 18:36 OP:e    STATUS:               ID:20161213073747     3
 OLDACT:UP  16-12-13 18:35 OP:e    STATUS:               ID:20161213073747     3
 OLDACT:UP  16-12-13 18:34 OP:e    STATUS:               ID:20161213073747     3
 OLDACT:REG 16-12-13 13:04 OP:y    STATUS:               ID:20161213073747     3
 2016-12-13-0738-00M.COL___357                                                 6
 STAT SP IPHASW D HRMM SECON CODA AMPLIT PERI AZIMU VELO AIN AR TRES W  DIS CAZ7
 BAR2 EZ EP        742 12.86                             170   -0.0410 25.4 178 
 BAR2 EZ ES        742 27.89                             170   -0.2010 25.4 178 
 BAR2 EZ I         742 30.29         6.5 0.25            169           25.4 178 
 BRR  HZ EP   2    742 14.68                             154    0.58 5 65.8 299 
 BRR  HN ES   3    742 31.36                             154    1.14 2 65.8 299 
 BRR  HZ I         742 32.78         3.7 0.10            152           65.8 299 
 PAM  EN ES        742 32.81                             150   -0.0010 78.8  43 
 RUS  HZ EP        742 17.41                             143    0.1910  103 173 
 RUS  HN ES        742 35.82                             143    0.0410  103 173 
 RUS  HZ I         742 37.45         5.6 0.18            145            103 173 
 PTB  HZ EP        742 19.58                             132   -0.29 9  143 258 
 PTB  HN ES        742 40.57                             132    0.07 9  143 258 
 PTB  HZ I         742 46.15         3.1 0.16            133            143 258 
                                                                                
