 2012  313 0330 28.0 L   7.091 -72.998159.1  RSN  8 0.3 1.9LRSN                1
 GAP=134        0.71       3.6     4.7  6.6 -0.2249E+01  0.1042E+02  0.6945E+00E
 ACTION:UP  12-03-31 23:19 OP:EP   STATUS:               ID:20120313033028 L   I
 2012-03-13-0330-00M.COL___196                                                 6
 STAT SP IPHASW D HRMM SECON CODA AMPLIT PERI AZIMU VELO SNR AR TRES W  DIS CAZ7
 PAM  SZ EP   1    330 49.88                             164    -0.2 7   43  50 
 PAM  SN ES   1    331  7.07                             164    -0.2 7   43  50 
 PAM  SZ I         331  9.41         8.5 0.16                            43  50 
 BAR2 SZ EP   1    330 50.52                             159     0.2 7   59 200 
 BAR2 SZ I         330 50.85        25.5 0.13                            59 200 
 BAR2 SZ ES   1    331  8.10                             159     0.4 7   59 200 
 BRR  HZ EP        330 51.27                             152     0.310   79 271 
 BRR  HZ I         330 51.62        32.3 0.23                            79 271 
 OCA  SZ EP   1    330 54.79                             138    -0.1 7  132 344 
 OCA  SZ ES   1    331 15.72                             138    -0.2 7  132 344 
 RUS  HZ EP   1    330 55.67                             138     0.2 7  133 184 
 RUS  HZ I         330 56.27        22.7 0.12                           133 184 
 RUS  HN ES   1    331 16.69                             138    -0.2 7  133 184 
 PTB  HZ EP   1    330 57.84                             130    -0.4 7  172 249 
 PTB  HN ES   1    331 21.73                             130    -0.2 7  172 249 
 PTB  HZ I         331 25.53        11.0 0.19                           172 249 
 ZAR  HN ES   1    331 28.83                             124     0.4 6  210 282 
 ZAR  HZ I         331 30.31        18.5 0.11                           210 282 
 NOR  SZ EP   1    331  8.13                             118     0.2 6  267 231 
 NOR  SN ES   1    331 38.50                             118    -0.6 6  267 231 
 NOR  SZ I         331 48.20         0.4 0.28                           267 231 
                                                                                
