 2017 1113 0653 33.4 L   6.783 -73.131145.4  RSN  7 0.4 1.8LRSN                1
 GAP=139        0.96       4.0     4.1  6.1 -0.5386E+00  0.6477E+01  0.2545E+00E
 Epicentro: LOS SANTOS - SANTANDER                                             3
 ACTION:UPD 17-12-12 19:55 OP:rebc STATUS:               ID:20171113065333 L   I
 OLDACT:REG 17-11-13 13:34 OP:leo  STATUS:               ID:20171113064738     3
 2017-11-13-0648-00M.COL___450                                                 6
 STAT SP IPHASW D HRMM SECON CODA AMPLIT PERI AZIMU VELO AIN AR TRES W  DIS CAZ7
 BAR2 EZ EP        653 52.83                             171   -0.1210 21.9 195 
 BAR2 EZ ES        654  8.16                             171   -0.0410 21.9 195 
 BAR2 EZ I         654  8.83        21.3 0.36            172           21.9 195 
 BRR  HZ EP        653 54.78                             152    0.1410 73.5 299 
 BRR  HN ES        654 11.73                             152    0.5310 73.5 299 
 BRR  HZ I         654 14.91        16.1 0.30            150           73.5 299 
 PAM  EZ EP        653 55.70                             151    0.1010 77.8  38 
 PAM  EN ES        654 12.62                             151   -0.2910 77.8  38 
 PAM  EZ I         654 14.80        14.3 0.56            152           77.8  38 
 RUS  HZ EP        653 56.82                             144   -0.1510 98.6 177 
 RUS  HN ES        654 15.51                             144    0.1510 98.6 177 
 RUS  HZ I         654 16.50         4.7 0.32            147           98.6 177 
 PTB  HZ EP        654  0.10                             132   -0.35 9  149 260 
 PTB  HN ES        654 20.57                             132   -0.97 9  149 260 
 PTB  HZ I         654 22.92         5.7 0.14            132            149 260 
 SPBC HZ EP        654  1.86                             129    0.03 9  163 220 
 SPBC HN ES        654 24.49                             129    0.49 9  163 220 
 SPBC HZ I         654 25.43         6.0 0.10            131            163 220 
 ZAR  HZ EP        654  6.48                             122    0.44 8  206 292 
 ZAR  HN ES        654 31.63                             122    0.13 8  206 292 
 ZAR  HZ I         654 37.49         9.5 0.34            123            206 292 
                                                                                
