 2017 1213 0647 52.3 L   6.812 -73.137144.7  RSN 25 0.6 2.4LRSN                1
 GAP= 66        1.43       2.8     3.7  6.6 -0.4171E+00  0.6063E+01 -0.2459E+00E
 Epicentro: LOS SANTOS - SANTANDER                                             3
 ACTION:UPD 18-01-04 13:19 OP:rebc STATUS:               ID:20171213064752 L   I
 OLDACT:UP  17-12-13 18:37 OP:edw  STATUS:               ID:20171213064738     3
 OLDACT:REG 17-12-13 13:19 OP:edw  STATUS:               ID:20171213064738     3
 2017-12-13-0648-00M.COL___443                                                 6
 STAT SP IPHASW D HRMM SECON CODA AMPLIT PERI AZIMU VELO AIN AR TRES W  DIS CAZ7
 BAR2 EZ EP     D  648 11.89                             170    0.0710 24.8 192 
 BAR2 EZ ES        648 27.19                             170    0.1410 24.8 192 
 BAR2 EZ I         648 29.70        53.4 0.24            168           24.8 192 
 PAM  EZ EP        648 14.79                             151    0.5010 75.8  40 
 PAM  EN ES        648 31.99                             151    0.5310 75.8  40 
 PAM  EZ I         648 34.31        33.8 0.60            155           75.8  40 
 PTB  HZ EP        648 18.42                             131   -0.86 9  149 258 
 PTB  HN ES        648 39.48                             131   -0.85 9  149 258 
 PTB  HZ I         648 40.71        27.5 0.16            131            149 258 
 TAM  HZ IP     C  648 20.31                             130    0.49 9  155 106 
 TAM  HN ES        648 39.96                             130   -1.34 9  155 106 
 TAM  HZ I         648 41.27        17.5 0.36            133            155 106 
 OCA  HZ EP        648 20.24                             130   -0.16 9  159 353 
 OCA  HE ES        648 42.84                             130    0.50 9  159 353 
 OCA  HZ I         648 47.49        48.8 0.18            131            159 353 
 SPBC HZ EP        648 20.87                             128    0.01 9  165 219 
 SPBC HN ES        648 43.62                             128    0.48 9  165 219 
 SPBC HZ I         648 49.81        50.0 0.38            128            165 219 
 YPLC HZ EP        648 22.37                             126    0.30 9  177 152 
 YPLC HN ES        648 44.65                             126   -0.65 9  177 152 
 YPLC HZ I         648 47.32        44.8 0.28            128            177 152 
 ZAR  HZ EP        648 24.09                             122   -0.61 9  204 292 
 ZAR  HN ES        648 49.83                             122   -0.16 9  204 292 
 ZAR  HZ I         648 55.38        30.4 0.40            122            204 292 
 ROSC BZ EP   4    648 32.05                             116    1.53 0  254 211 
 ROSC BN ES   4    649  2.18                             116    1.83 0  254 211 
 ROSC BZ I         649  8.16        20.4 0.35            117            254 211 
 CVER HZ EP        648 33.51                             114    0.75 8  274 202 
 CVER HN ES        649  5.11                             114    0.77 8  274 202 
 CVER HZ I         649  9.04        13.0 0.34            115            274 202 
 URE  HZ EP        648 31.68                             113   -1.67 7  284 292 
 URE  HN ES        649  5.68                             113    0.30 7  284 292 
 DRL03HZ EP        648 33.81                             113    0.10 7  288 353 
 DRL03HN ES   4    649  7.13                             113    1.10 0  288 353 
 GUY2CHZ EP   4    648 36.84                             112    0.82 0  303 235 
 GUY2CHN ES   4    649 12.24                             112    2.11 0  303 235 
 GUY2CHZ I         649 17.14        14.2 0.54                           303 235 
 VIL  EZ EP        648 35.31                             112   -0.51 7  305 192 
 VIL  EE ES        649 10.74                             112    0.96 7  305 192 
 VIL  EZ I         649 19.17        14.3 0.44            112            305 192 
 PTGC HZ EP   9    648 35.19                             111   -1.00 0  310 159 
 PTGC HN ES        649  8.69                             112   -0.75 7  310 159 
 PTGC HZ I         649  9.85        16.3 0.26            112            310 159 
 LL6C HN ES        649 12.76                             110   -0.54 7  324 357 
 DRL02HZ EP        648 37.71                             110   -0.09 7  324 357 
 DRL02HN ES        649 14.20                             110    0.90 7  324 357 
 LL6C HZ EP        648 37.81                             110    0.01 7  324 357 
 CBOC HZ EP        648 39.74                             110    0.43 7  335 252 
 CBOC HE ES        649 15.72                             110   -0.26 7  335 252 
 CBOC HZ I         649 33.01         5.9 0.60            110            335 252 
 DBB  EZ EP   9    648 36.24                             109   -3.58 0  340 274 
 DBB  EN ES        649 13.97                             110    0.66 7  340 274 
 ARGC HZ EP        648 41.58                             108   -0.22 6  358 340 
 ARGC HN ES        649 21.50                             108    1.08 6  358 340 
 ARGC HZ I         649 32.24         3.5 0.32            109            358 340 
 PRA  HZ EP        648 45.85                             106   -0.11 6  394 210 
 PRA  HN ES        649 27.40                             106   -0.42 6  394 210 
 PRA  HZ I         649 34.20         9.9 0.46            107            394 210 
 ORTC HZ EP        648 46.57                             106    0.21 6  397 216 
 ORTC HN ES        649 29.36                             106    0.83 6  397 216 
 ORTC HZ I         649 35.89         6.0 0.26            107            397 216 
 PAL  HZ EP        648 47.56                             106   -0.03 6  407 239 
 PAL  HN ES   4    649 29.38                             106   -1.34 0  407 239 
 PAL  HZ I         649 33.58         4.9 0.50            106            407 239 
 SJC  HZ EP   9    648 45.89                             105   -1.86 0  409 327 
 SJC  HN ES        649 27.04                             106   -2.11 6  409 327 
 SJC  HZ I         649 34.69         4.4 0.36            106            409 327 
 CRJC HZ EP   9    648 52.12                             103   -2.48 0  466   3 
 CRJC HE ES        649 40.39                             104   -0.33 5  466   3 
 CRJC HZ I         649 50.43         6.8 0.46            104            466   3 
                                                                                
