 2017  413 0900 26.7 L   6.635 -73.642105.9  RSN  5 0.4 1.3LRSN                1
 GAP=120        0.55       3.0     3.4  4.5  0.4079E+01  0.3541E+01  0.2589E+01E
 Epicentro: EL CARMEN - SANTANDER                                              3
 ACTION:UPD 17-05-30 21:11 OP:jn   STATUS:               ID:20170413090026 L   I
 OLDACT:UP  17-04-13 15:03 OP:cog  STATUS:               ID:20170413085740     3
 OLDACT:REG 17-04-13 13:03 OP:cog  STATUS:               ID:20170413085740     3
 2017-04-13-0858-00M.COL___368                                                 6
 STAT SP IPHASW D HRMM SECON CODA AMPLIT PERI AZIMU VELO AIN AR TRES W  DIS CAZ7
 BAR2 EZ EP        9 0 42.67                             152   -0.0810 51.0  95 
 BAR2 EZ ES        9 0 55.13                             152   -0.1410 51.0  95 
 BAR2 EZ I         9 0 55.69        18.4 0.12            154           51.0  95 
 BRR  HZ EP        9 0 42.46                             151   -0.0410 52.8 352 
 BRR  HN ES        9 0 55.03                             151    0.2110 52.8 352 
 PTB  HZ EP        9 0 45.15                             136   -0.1310 90.7 263 
 PTB  HN ES   3    9 0 59.24                             136   -0.53 2 90.7 263 
 PTB  HZ I         9 1  0.58         5.1 0.16            136           90.7 263 
 RUS  HZ EP        9 0 47.19                             133    0.2010  103 143 
 RUS  HN ES        9 1  2.82                             133    0.0110  103 143 
 RUS  HZ I         9 1  3.72         1.7 0.38            133            103 143 
 PAM  EZ EP        9 0 49.70                             125    0.1310  130  53 
 PAM  EN ES   3    9 1  5.53                             125   -1.88 2  130  53 
 PAM  EZ I         9 1  6.48         3.2 0.14            127            130  53 
 ZAR  HE ES   4    9 1 15.70                             118    3.04 0  164 305 
                                                                                
