 2016 1113 0956 11.3 L   6.783 -73.152146.7  RSN 10 0.4 2.1LRSN                1
 GAP= 99        0.94       4.1     2.9  5.7  0.1063E-01  0.1762E+01  0.7735E+01E
 Epicentro: LOS SANTOS - SANTANDER                                             3
 ACTION:UPD 17-10-26 21:07 OP:lp   STATUS:               ID:20161113095611 L   I
 OLDACT:UP  16-11-14 00:28 OP:and  STATUS:               ID:20161113094742     3
 OLDACT:UP  16-11-14 00:28 OP:and  STATUS:               ID:20161113094742     3
 OLDACT:REG 16-11-13 13:29 OP:and  STATUS:               ID:20161113094742     3
 2016-11-13-0948-00M.COL___334                                                 6
 STAT SP IPHASW D HRMM SECON CODA AMPLIT PERI AZIMU VELO AIN AR TRES W  DIS CAZ7
 BAR2 EZ EP        956 31.02                             171    0.0410 21.4 189 
 BAR2 EZ ES        956 45.83                             171   -0.5210 21.4 189 
 BAR2 EZ I         956 48.72        41.9 0.32            166           21.4 189 
 BRR  HZ EP     C  956 32.83                             153    0.2910 71.5 300 
 BRR  HN ES        956 49.47                             153    0.3510 71.5 300 
 BRR  HZ I         956 53.83        24.0 0.28            155           71.5 300 
 PAM  EZ EP        956 33.85                             150    0.1510 79.3  39 
 PAM  EN ES        956 51.14                             150   -0.0510 79.3  39 
 PAM  EZ I         956 54.08        17.5 0.32            157           79.3  39 
 PTB  HZ EP        956 37.59                             132   -0.63 9  147 259 
 PTB  HN ES        956 58.87                             132   -0.37 9  147 259 
 PTB  HZ I         957  1.80        12.5 0.24            134            147 259 
 TAM  HZ IP     C  956 39.44                             131    0.40 9  155 104 
 TAM  HN ES        957  0.76                             131    0.06 9  155 104 
 TAM  HZ I         957  4.71         8.9 0.44            134            155 104 
 ZAR  HZ EP        956 43.43                             122   -0.35 9  204 293 
 ZAR  HN ES        957  9.34                             122    0.20 9  204 293 
 ZAR  HZ I         957 14.05        10.6 0.26            126            204 293 
 NOR  HZ EP        956 47.19                             119    0.31 8  233 235 
 NOR  HN ES        957 14.96                             119    0.31 8  233 235 
 NOR  HZ I         957 22.71         8.5 0.22            120            233 235 
 CHI  HZ EP   4    956 44.65                             117   -4.16 0  247 195 
 CHI  HN ES        957 18.62                             117    0.54 8  247 195 
 CHI  HZ I         957 28.47         5.4 0.34            118            247 195 
 ROSC BZ EP   4    956 50.98                             117    1.75 0  251 211 
 ROSC BN ES   4    957 22.00                             117    3.17 0  251 211 
 ROSC BZ I         957 25.60        12.3 0.45            118            251 211 
 PTGC HZ EP        956 54.15                             112   -0.85 7  307 158 
 PTGC HN ES   4    957 27.50                             112   -1.61 0  307 158 
 PTGC HZ I         957 32.45         9.4 0.32            113            307 158 
                                                                                
