 2011 1013 0600 49.8 L   6.757 -73.153146.0  RSN  7 0.4 1.6LRSN                1
 GAP=182        0.69       4.8     4.9  7.9  0.2474E+01  0.8812E+01  0.1219E+01E
 Epicentro: LOS SANTOS - SANTANDER                                             3
 ACTION:UPD 12-07-13 16:03 OP:ep   STATUS:               ID:20111013060049 L   I
 2011-10-13-0600-00M.COL___171                                                 6
 STAT SP IPHASW D HRMM SECON CODA AMPLIT PERI AZIMU VELO AIN AR TRES W  DIS CAZ7
 BAR2 SZ EP        6 1  9.10                             172   -0.2610 18.5 190 
 BAR2 SZ I         6 1 27.37        16.8 0.43                          18.5 190 
 BRR  HZ EP        6 1 11.07                             152    0.0110 72.9 302 
 BRR  HE ES   1    6 1 27.88                             152    0.23 7 72.9 302 
 BRR  HZ I         6 1 32.21        11.0 0.10                          72.9 302 
 RUS  HZ EP   1    6 1 13.10                             145   -0.12 7 95.9 175 
 RUS  HN ES   1    6 1 31.67                             145    0.16 7 95.9 175 
 RUS  HZ I         6 1 33.23         8.1 0.26                          95.9 175 
 OCA  SZ EP   2    6 1 18.41                             129   -0.14 5  165 354 
 ZAR  HE ES   2    6 1 48.13                             122    0.36 4  205 293 
 NOR  SZ EP   1    6 1 25.65                             119    0.49 6  231 235 
 NOR  SN ES   1    6 1 52.94                             119    0.18 6  231 235 
 NOR  SZ I         6 2  0.23         0.5 0.57                           231 235 
 HEL  HZ EP   2    6 1 30.66                             115    0.86 4  270 257 
 HEL  HE ES   1    6 2  0.01                             115   -0.99 6  270 257 
 HEL  HZ I         6 2  8.09         4.4 0.39                           270 257 
                                                                                
