 2011  613 0418 38.2 L   6.800 -72.927131.5  RSN  5 0.4 1.2LRSN                1
 GAP=205        0.80       7.4    15.1 12.2  0.4627E+02 -0.7566E+02 -0.1132E+02E
 Epicentro: CEPITA - SANTANDER                                                 3
 ACTION:UP  11-07-14 19:04 OP:ep   STATUS:               ID:20110613041838 L   I
 2011-06-13-0414-49S.COL___132                                                 6
 STAT SP IPHASW D HRMM SECON CODA AMPLIT PERI AZIMU VELO SNR AR TRES W  DIS CAZ7
 BTL  SZ EP   1    418 57.34                             162     0.8 7   40 289 
 BTL  SZ ES   2    419 10.53                             162    -0.4 5   40 289 
 GIR2 SZ EP   1    418 56.58                             161     0.0 7   43 316 
 GIR2 SZ ES   2    419 10.61                             161    -0.3 5   43 316 
 BRR  HZ EP   1    418 58.82                             143    -0.5 7   93 291 
 BRR  HZ I         418 58.98         6.6 0.20                            93 291 
 BRR  HE ES   1    419 15.96                             143     0.2 7   93 291 
 RUS  HZ EP   2    419  0.21                             140    -0.4 5  102 190 
 RUS  HN ES   2    419 18.25                             140     0.1 5  102 190 
 RUS  HZ I         419 21.12         1.6 0.20                           102 190 
 OCA  SZ ES   2    419 27.34                             125    -0.1 5  165 345 
 OCA  SZ I         419 27.39         1.7 0.53                           165 345 
                                                                                
