 2011  113 0113 56.1 L   6.803 -73.349123.8  RSN  6 0.2 1.6LRSN                1
 GAP=135        0.48       3.3     9.4 10.5 -0.1470E+02  0.7202E+02 -0.1159E+02E
 Epicentro: ZAPATOCA - SANTANDER                                               3
 ACTION:UP  11-02-08 08:40 OP:pat  STATUS:               ID:20110113011356 L   I
 2011-01-13-0110-51S.COL___136                                                 6
 STAT SP IPHASW D HRMM SECON CODA AMPLIT PERI AZIMU VELO SNR AR TRES W  DIS CAZ7
 BTL  SZ EP        114 12.76                             172    -0.210   16  35 
 BAR2 SZ EP   2    114 13.37                             165     0.1 5   30 142 
 RUS  HZ EP        114 18.06                             137    -0.110  105 164 
 RUS  HN ES   2    114 35.51                             137     0.2 5  105 164 
 GRA  SZ EP   1    114 20.39                             129     0.1 7  134  27 
 GRA  SZ ES   2    114 39.51                             129     0.4 5  134  27 
 OCA  SZ EP   1    114 22.56                             124    -0.1 7  159   1 
 OCA  SZ I         114 51.56         4.5 0.11                           159   1 
 RREF HZ EP        114 39.78                             107     0.3 7  305 227 
 RREF HZ I         114 41.15         2.5 0.30                           305 227 
                                                                                
