 2011  613 0107 56.7 L   6.789 -73.123143.4  RSN  7 0.3 1.4LRSN                1
 GAP=158        0.57       3.7     6.8  9.8 -0.7153E+01 -0.1575E+02  0.1573E+01E
 Epicentro: LOS SANTOS - SANTANDER                                             3
 ACTION:UP  11-07-14 19:04 OP:ep   STATUS:               ID:20110613010756 L   I
 2011-06-13-0106-27S.COL___132                                                 6
 STAT SP IPHASW D HRMM SECON CODA AMPLIT PERI AZIMU VELO SNR AR TRES W  DIS CAZ7
 BAR2 SZ EP   1    1 8 15.83                             170    -0.2 7   23 197 
 BAR2 SZ I         1 8 31.69         7.1 0.35                            23 197 
 BRR  HZ EP   1    1 8 17.74                             151     0.0 7   74 298 
 BRR  HE ES   2    1 8 34.61                             151     0.5 5   74 298 
 BRR  HZ I         1 8 35.87         6.8 0.37                            74 298 
 RUS  HZ EP   1    1 8 20.10                             144     0.0 7   99 177 
 RUS  HE ES   2    1 8 38.19                             144    -0.2 5   99 177 
 RUS  HZ I         1 8 40.02         3.0 0.26                            99 177 
 BRI  SZ EP   1    1 8 20.50                             141     0.2 7  109  19 
 BRI  SZ I         1 8 41.94         3.2 0.41                           109  19 
 GRA  SZ EP   1    1 8 21.89                             136     0.2 7  126  16 
 GRA  SZ ES   2    1 8 41.30                             136     0.0 5  126  16 
 GRA  SZ I         1 8 44.13         3.2 0.39                           126  16 
 OCA  SZ ES   2    1 8 46.16                             129    -0.8 5  162 352 
 OCA  SZ I         1 8 48.05         3.5 0.21                           162 352 
 NOR  SN ES   2    1 9  0.15                             118    -0.1 4  236 235 
                                                                                
