 2017  713 0719 20.0 L   6.822 -73.143154.2  RSN  6 0.5 1.2LRSN                1
 GAP=149        1.19       6.8     6.0  8.7 -0.1171E+02  0.1085E+02  0.5973E+01E
 Epicentro: LOS SANTOS - SANTANDER                                             3
 ACTION:UPD 17-08-30 15:32 OP:rebc STATUS:               ID:20170713071920 L   I
 OLDACT:REG 17-07-13 12:52 OP:dnl  STATUS:               ID:20170713071740     3
 2017-07-13-0718-00M.COL___371                                                 6
 STAT SP IPHASW D HRMM SECON CODA AMPLIT PERI AZIMU VELO AIN AR TRES W  DIS CAZ7
 BAR2 EZ EP   2    719 40.39                             170   -0.29 5 25.8 190 
 BAR2 EZ ES        719 56.24                             170   -0.5910 25.8 190 
 BAR2 EZ I         719 57.08         2.6 0.20            172           25.8 190 
 BRR  HZ IP     C  719 42.30                             154    0.2910 70.3 297 
 BRR  HN ES        719 59.79                             154    0.6110 70.3 297 
 BRR  HZ I         720  0.30         2.9 0.24            150           70.3 297 
 PAM  EZ EP        719 43.77                             153    0.7810 75.3  41 
 PAM  EN ES        720  0.52                             153   -0.4110 75.3  41 
 PAM  EZ I         720  1.16         1.7 0.34            152           75.3  41 
 PTB  HZ EP        719 46.98                             134   -0.74 9  149 258 
 PTB  HN ES        720  9.39                             134    0.03 9  149 258 
 PTB  HZ I         720 10.48         1.6 0.46            132            149 258 
 SPBC HZ EP        719 49.35                             130    0.01 9  165 219 
 SPBC HE ES        720 12.66                             130    0.42 9  165 219 
 ZAR  HZ EP   2    719 52.34                             124   -0.59 4  203 291 
 ZAR  HN ES        720 18.30                             124   -0.32 9  203 291 
 ZAR  HZ I         720 25.49         3.1 0.26            122            203 291 
                                                                                
