 2012 1213 0453 27.1 L   6.699 -73.226151.4  RSN  5 0.2 1.8LRSN                1
 GAP=208        0.68       5.3     4.7  5.5  0.1525E+02  0.4173E+01  0.7971E+00E
 Epicentro: VILLANUEVA - SANTANDER                                             3
 ACTION:UPD 13-01-04 14:27 OP:ep   STATUS:               ID:20121213045327 L   I
 2012-12-13-0450-00M.COL___242                                                 6
 STAT SP IPHASW D HRMM SECON CODA AMPLIT PERI AZIMU VELO AIN AR TRES W  DIS CAZ7
 BAR2 SZ EP        453 47.03                             175   -0.2410 12.8 158 
 BAR2 SZ ES        454  2.56                             175   -0.4310 12.8 158 
 BAR2 SZ I         454  3.82        12.2 0.24                          12.8 158 
 BRR  HZ EP        453 48.94                             154    0.1110 70.1 310 
 BRR  HN ES        454  6.15                             154    0.3910 70.1 310 
 BRR  HN I         454  6.69        14.8 0.16                          70.1 310 
 RUS  HZ EP        453 50.82                             148    0.0610 90.6 170 
 RUS  HN ES        454  9.50                             148    0.3110 90.6 170 
 RUS  HN I         454 10.92         7.6 0.34                          90.6 170 
 PTB  HZ EP        453 53.62                             135   -0.02 9  137 263 
 PTB  HN ES        454 14.13                             135   -0.18 9  137 263 
 PTB  HN I         454 16.02         7.6 0.58                           137 263 
 ZAR  HN ES        454 24.86                             124   -0.04 9  200 296 
 ZAR  HN I         454 32.08         5.6 0.24                           200 296 
                                                                                
