 2016  913 0217 18.9 L   6.169 -73.701113.3  RSN  4 0.2 1.0LRSN                1
 GAP=115        0.44       3.7     2.2  5.6  0.2760E+00 -0.1275E+01  0.5996E+01E
 Epicentro: LA PAZ - SANTANDER                                                 3
 ACTION:UPD 17-08-17 21:09 OP:lp   STATUS:               ID:20160913021718 L   I
 OLDACT:UP  16-09-13 19:31 OP:and  STATUS:               ID:20160913020743     3
 OLDACT:UP  16-09-13 19:29 OP:and  STATUS:               ID:20160913020743     3
 OLDACT:REG 16-09-13 12:01 OP:and  STATUS:               ID:20160913020743     3
 2016-09-13-0208-00M.COL___318                                                 6
 STAT SP IPHASW D HRMM SECON CODA AMPLIT PERI AZIMU VELO AIN AR TRES W  DIS CAZ7
 SPBC HZ EP   2    217 36.72                             146   -0.02 5 70.4 216 
 SPBC HN ES   2    217 51.03                             146    0.39 5 70.4 216 
 SPBC HZ I         217 54.42         2.9 0.15            146           70.4 216 
 BAR2 EZ EP        217 37.27                             145    0.0710 74.1  51 
 BAR2 EZ ES        217 51.54                             145    0.0710 74.1  51 
 BAR2 EZ I         217 52.31         5.5 0.11            152           74.1  51 
 RUS  HZ EP        217 37.47                             144   -0.1510 74.9 114 
 RUS  HN ES   2    217 52.01                             144   -0.20 5 74.9 114 
 RUS  HZ I         217 53.49         1.0 0.25            149           74.9 114 
 PTB  HZ EP   2    217 38.79                             138    0.44 5 93.1 296 
 PTB  HE ES        217 53.37                             138   -0.1510 93.1 296 
 PTB  HZ I         217 56.14         2.3 0.09            141           93.1 296 
                                                                                
