 2012 1013 0534 27.7 L   6.827 -73.123145.1  RSN  6 0.3 1.5LRSN                1
 GAP=138        0.66       3.9     4.9  6.1  0.4102E+01  0.3539E+01  0.1192E+00E
 Epicentro: LOS SANTOS - SANTANDER                                             3
 ACTION:UPD 12-11-22 17:03 OP:ep   STATUS:               ID:20121013053427 L   I
 2012-10-13-0530-00M.COL___231                                                 6
 STAT SP IPHASW D HRMM SECON CODA AMPLIT PERI AZIMU VELO AIN AR TRES W  DIS CAZ7
 BAR2 SZ EP   1    534 47.27                             169   -0.08 8 26.8 194 
 BAR2 SZ I         534 47.65         7.0 0.36                          26.8 194 
 BAR2 SZ ES   1    535  3.16                             169    0.51 8 26.8 194 
 GIR2 SZ EP   1    534 47.12                             168   -0.14 8 28.9 344 
 GIR2 SZ ES   1    535  1.81                             168   -0.68 8 28.9 344 
 BRR  HZ EP   1    534 48.89                             152    0.04 8 72.0 295 
 BRR  HZ I         534 49.08         6.6 0.16                          72.0 295 
 BRR  HN ES   1    535  5.75                             152    0.43 8 72.0 295 
 PAM  SZ EP   1    534 49.98                             152    0.34 8 73.5  40 
 PAM  SZ I         534 50.19         7.7 0.20                          73.5  40 
 PAM  SN ES   1    535  6.73                             152    0.00 8 73.5  40 
 PAM  SN I         535  7.70         4.4 0.16                          73.5  40 
 RUS  HZ EP   1    534 51.56                             143   -0.06 7  103 178 
 RUS  HE ES        535 10.13                             143   -0.1310  103 178 
 RUS  HE I         535 11.52         3.1 0.20                           103 178 
 ZAR  HN ES   1    535 25.43                             122   -0.19 6  205 291 
 ZAR  HN I         535 29.93         6.9 0.08                           205 291 
                                                                                
