 2012  913 0537 45.6 L   6.729 -73.158152.9  RSN  4 0.1 1.7LRSN                1
 GAP=196        0.33       6.3     4.7  4.2  0.1084E+02 -0.2676E+01 -0.3705E+01E
 Epicentro: VILLANUEVA - SANTANDER                                             3
 ACTION:UPD 12-10-22 14:18 OP:ep   STATUS:               ID:20120913053745 L   I
 2012-09-13-0530-00M.COL___227                                                 6
 STAT SP IPHASW D HRMM SECON CODA AMPLIT PERI AZIMU VELO AIN AR TRES W  DIS CAZ7
 BAR2 SZ EP   2    538  5.80                             174   -0.20 5 15.4 190 
 BAR2 SZ ES   1    538 21.92                             174    0.04 7 15.4 190 
 BAR2 SZ I         538 23.03         7.8 0.25                          15.4 190 
 GIR2 SZ EP   2    538  6.36                             165   -0.02 5 38.9 354 
 BRR  HZ EP        538  7.82                             153    0.0910 74.1 304 
 BRR  HZ I         538  8.12        11.5 0.21                          74.1 304 
 BRR  HE ES        538 24.90                             153   -0.0510 74.1 304 
 PTB  HN ES   2    538 34.27                             134   -0.01 5  145 262 
                                                                                
