 2011  213 0939 50.3 L   6.324 -72.804  0.2  RSN  9 0.6 2.2LRSN                1
 GAP=158        1.09       2.6     6.0  7.6  0.2972E+01  0.1366E+02  0.2128E+01E
 Epicentro: ONZAGA - SANTANDER                                                 3
 ACTION:UP  11-03-28 15:08 OP:jfem STATUS:               ID:20110213093950 L   I
 2011-02-13-0935-37S.COL___136                                                 6
 STAT SP IPHASW D HRMM SECON CODA AMPLIT PERI AZIMU VELO SNR AR TRES W  DIS CAZ7
 BAR2 SZ IP        939 59.63                              47     0.110   51 305 
 BAR2 SZ ES   2    940  6.71                              47     0.0 5   51 305 
 BAR2 SZ I         940  8.52       113.5 0.24                            51 305 
 RUS  HZ IP     C  940  0.03                              47    -0.610   57 213 
 RUS  HN ES   1    940  7.75                              47    -0.8 7   57 213 
 RUS  HZ I         940  8.99        87.3 0.27                            57 213 
 BTL  SZ EP   1    940  4.60                              47     0.2 7   83 322 
 BTL  SZ ES   2    940 15.64                              47     0.3 5   83 322 
 GIR2 SZ EP   1    940  5.98                              47     0.1 7   94 333 
 GIR2 SZ ES   2    940 18.19                              47     0.2 5   94 333 
 YOP  SZ EP   1    940  9.37                              47     0.3 7  115 158 
 YOP  SN ES   2    940 24.07                              47     0.4 5  115 158 
 YOP  SZ I         940 26.99        50.5 0.50                           115 158 
 GRA  SZ EP   1    940 17.00                              47    -0.8 7  173   0 
 GRA  SZ ES   2    940 38.33                              47    -0.9 4  173   0 
 CHI  HZ EP   1    940 24.42                              37     1.0 6  214 209 
 CHI  HE ES   2    940 50.14                              37     0.9 4  214 209 
 CHI  HZ I         940 56.69        12.8 0.44                           214 209 
 OCA  SZ EP   1    940 23.58                              37    -0.2 6  219 345 
 OCA  SZ ES   2    940 50.26                              37     0.3 4  219 345 
 OCA  SZ I         940 55.86        61.3 0.61                           219 345 
 NOR  SZ EP   1    940 27.74                              37     1.0 6  244 250 
 NOR  SN ES   2    940 55.01                              37    -0.2 4  244 250 
                                                                                
