 2016  413 0402  8.6 L   6.920 -73.323121.3  RSN  4 0.3 1.1LRSN                1
 GAP=265        0.71       6.6     5.0  8.1 -0.2459E+01  0.1435E+02 -0.4147E+01E
 Epicentro: BETULIA - SANTANDER                                                3
 ACTION:UPD 16-05-05 14:20 OP:rebc STATUS:               ID:20160413040208 L   I
 OLDACT:UP  16-04-13 16:22 OP:mh   STATUS:               ID:20160413035747     3
 OLDACT:REG 16-04-13 13:15 OP:mh   STATUS:               ID:20160413035747     3
 2016-04-13-0357-47M.COL___309                                                 6
 STAT SP IPHASW D HRMM SECON CODA AMPLIT PERI AZIMU VELO AIN AR TRES W  DIS CAZ7
 BAR2 EZ EP        4 2 26.29                             161    0.4810 39.5 157 
 BAR2 EZ ES        4 2 39.07                             161   -0.1710 39.5 157 
 BAR2 EZ I         4 2 40.59         7.0 0.31            161           39.5 157 
 RUS  HZ EP   1    4 2 31.23                             133   -0.17 7  117 167 
 RUS  HN ES   1    4 2 48.99                             133   -0.20 7  117 167 
 PTB  HZ EP   1    4 2 31.65                             129   -0.53 7  132 251 
 PTB  HN ES   1    4 2 50.63                             129    0.05 7  132 251 
 PTB  HZ I         4 2 53.27         1.5 0.07            129            132 251 
 SPBC HE ES        4 2 56.33                             123    0.17 9  163 211 
 SPBC HZ I         4 2 59.16         0.8 0.40            123            163 211 
                                                                                
