 2015  713 0622  3.7 L   6.833 -73.111143.8  RSN 18 0.5 2.1LRSN                1
 GAP=139        0.92       2.4     3.8  5.6 -0.1855E+01  0.9541E+01  0.1108E+01E
 Epicentro: LOS SANTOS - SANTANDER                                             3
 ACTION:UPD 15-09-08 21:48 OP:cam  STATUS:               ID:20150713062203 L   I
 OLDACT:REG 15-07-13 13:06 OP:spq  STATUS:               ID:20150713061747     3
 2015-07-13-0617-47M.COL___337                                                 6
 STAT SP IPHASW D HRMM SECON CODA AMPLIT PERI AZIMU VELO AIN AR TRES W  DIS CAZ7
 BAR2 EZ EP     C  622 23.13                             169   -0.0810 27.8 197 
 BAR2 EZ ES   1    622 38.30                             169   -0.11 7 27.8 197 
 BAR2 EZ I         622 41.04        30.0 0.26            167           27.8 197 
 PAM  EZ EP        622 25.90                             152    0.4910 72.1  39 
 PAM  EN ES   1    622 43.27                             152    0.93 7 72.1  39 
 PAM  EZ I         622 45.53        16.8 0.58            158           72.1  39 
 RUS  HZ EP        622 27.26                             142   -0.2610  104 178 
 RUS  HE ES        622 45.98                             142   -0.1210  104 178 
 RUS  HZ I         622 48.61        16.8 0.40            145            104 178 
 OCA  HZ EP        622 31.23                             130   -0.35 9  157 352 
 OCA  HN ES        622 52.75                             130   -0.57 9  157 352 
 OCA  HZ I         622 58.78        26.8 0.32            133            157 352 
 ZAR  HZ EP        622 36.48                             122    0.22 8  206 291 
 ZAR  HE ES        623  1.55                             122   -0.10 8  206 291 
 ZAR  HZ I         623  7.79        14.6 0.25            123            206 291 
 NOR  HZ EP   1    622 39.59                             117   -0.30 6  240 234 
 NOR  HE ES        623  7.70                             117   -0.42 8  240 234 
 NOR  HZ I         623 11.01        12.8 0.14            119            240 234 
 SML  HZ EP        622 39.89                             117   -0.16 8  242 334 
 SML  HE ES   1    623  8.00                             117   -0.39 6  242 334 
 SML  HZ I         623 12.86        13.7 0.22            120            242 334 
 CHI  HZ EP        622 41.44                             116   -0.36 8  253 196 
 CHI  HN ES   1    623 10.81                             116   -0.69 6  253 196 
 CHI  HZ I         623 20.24         6.0 0.44            119            253 196 
 ROSC BZ EP        622 42.80                             116    0.52 8  258 211 
 ROSC BE ES        623 12.43                             116    0.06 8  258 211 
 ROSC BZ I         623 18.94        12.5 0.40            118            258 211 
 HEL  HZ EP        622 45.10                             114    0.76 7  277 255 
 HEL  HE ES   1    623 15.97                             114   -0.06 6  277 255 
 HEL  HZ I         623 21.59         7.3 0.30            116            277 255 
 GUY2CHZ EP        622 48.09                             111    0.27 7  306 235 
 GUY2CHN ES        623 22.92                             111    0.69 7  306 235 
 GUY2CHZ I         623 31.87         7.4 0.50                           306 235 
 PTGC HZ EP   4    622 46.12                             111   -1.59 0  311 160 
 PTGC HE ES   4    623 19.23                             111   -2.80 0  311 160 
 PTGC HZ I         623 21.51         9.0 0.38            114            311 160 
 CBOC HZ EP        622 51.49                             109    0.39 7  338 252 
 CBOC HN ES        623 28.17                             109    0.11 7  338 252 
 CBOC HZ I         623 32.58         2.4 0.50            111            338 252 
 TOL  SZ EP        622 53.31                             109    0.81 6  349 225 
 TOL  SN ES        623 30.43                             109   -0.12 6  349 225 
 TOL  SZ I         623 37.98         5.7 0.74            111            349 225 
 MON  HE ES   4    623 29.42                             108   -1.55 0  354 308 
 MON  HZ I         623 33.05         2.3 0.23            110            354 308 
 PRA  HZ EP        622 56.84                             106   -0.92 6  397 210 
 PRA  HE ES        623 39.59                             106   -0.32 6  397 210 
 PRA  HZ I         623 47.39         4.7 0.36            108            397 210 
 ORTC HZ EP        622 57.58                             106   -0.59 6  401 216 
 ORTC HN ES        623 41.09                             106    0.43 6  401 216 
 ORTC HZ I         623 46.79         4.1 0.46            108            401 216 
 SJC  HN ES   4    623 38.74                             105   -3.57 0  408 326 
 SJC  HZ I         623 46.38         2.5 0.70            108            408 326 
                                                                                
