 2017  313 0157 15.8 L   6.779 -73.178149.9  RSN  6 0.3 1.3LRSN                1
 GAP=133        0.89       4.9     4.5  7.1  0.4956E+01  0.1003E+02  0.4970E+01E
 Epicentro: LOS SANTOS - SANTANDER                                             3
 ACTION:UPD 17-05-25 18:39 OP:jn   STATUS:               ID:20170313015715 L   I
 OLDACT:REG 17-03-13 13:31 OP:cog  STATUS:               ID:20170313014741     3
 2017-03-13-0148-00M.COL___403                                                 6
 STAT SP IPHASW D HRMM SECON CODA AMPLIT PERI AZIMU VELO AIN AR TRES W  DIS CAZ7
 BAR2 EZ EP        157 35.77                             172   -0.0810 20.7 181 
 BAR2 EZ ES        157 51.28                             172   -0.2410 20.7 181 
 BAR2 EZ I         157 55.09         7.0 0.50            172           20.7 181 
 BRR  HZ EP        157 37.54                             154    0.2710 69.3 302 
 BRR  HE ES        157 54.68                             154    0.6510 69.3 302 
 BRR  HZ I         158  5.52         5.2 0.38            154           69.3 302 
 PAM  EN ES        157 56.30                             150   -0.2310 81.4  40 
 RUS  HZ EP        157 40.17                             145    0.3710 98.6 174 
 RUS  HN ES        157 58.33                             145   -0.2110 98.6 174 
 RUS  HZ I         158  0.44         1.4 0.24            151           98.6 174 
 PTB  HZ EP        157 42.56                             134   -0.18 9  144 259 
 PTB  HN ES        158  3.83                             134    0.06 9  144 259 
 PTB  HZ I         158  8.68         2.4 0.50            137            144 259 
 ZAR  HZ EP   4    157 48.83                             124    0.58 0  202 293 
 ZAR  HN ES        158 12.98                             124   -0.60 9  202 293 
                                                                                
