 2010  613 0442 21.4 L   6.818 -73.385140.6  RSN  5 0.4 1.4LRSN                1
 GAP=201        0.93       4.3    18.8  9.9 -0.2868E+02  0.7483E+02 -0.1259E+02E
 Epicentro: SAN VICENTE DE CHUCURI - SANTANDER                                 3
 ACTION:UP  10-08-24 10:10 OP:vdl  STATUS:               ID:20100613044221 L   I
 2010-06-13-0441-02S.COL___114                                                 6
 STAT SP IPHASW D HRMM SECON CODA AMPLIT PERI AZIMU VELO SNR AR TRES W  DIS CAZ7
 BAR2 SZ IP        442 41.05                             166     0.410   33 138 
 BAR2 SZ ES   1    442 55.61                             166     0.0 7   33 138 
 RUS  HZ EP        442 45.06                             141    -0.110  108 162 
 RUS  HN ES   1    443  3.34                             141    -0.3 7  108 162 
 RUS  HZ I         443  4.62         2.6 0.31                           108 162 
 BRI  SZ EP        442 45.76                             137     0.210  119  33 
 BRI  SZ ES   1    443  4.88                             137     0.4 7  119  33 
 GRA  SZ EP        442 47.02                             134     0.110  134  29 
 GRA  SZ ES   1    443  6.09                             134    -0.7 7  134  29 
 OCA  SZ EP   1    442 48.17                             129    -0.8 7  157   3 
 OCA  SZ ES   1    443 10.80                             129     0.3 7  157   3 
 OCA  SZ I         443 17.69         5.3 0.29                           157   3 
                                                                                
