 2012 1113 0807 26.5 L   6.781 -73.148153.3  RSN  6 0.4 1.0LRSN                1
 GAP=137        0.73       5.7     5.6  7.5  0.1185E+01  0.1067E+02  0.9073E+01E
 Epicentro: LOS SANTOS - SANTANDER                                             3
 ACTION:UPD 12-12-05 15:33 OP:}ep  STATUS:               ID:20121113080726 L   I
 2012-11-13-0800-00M.COL___230                                                 6
 STAT SP IPHASW D HRMM SECON CODA AMPLIT PERI AZIMU VELO AIN AR TRES W  DIS CAZ7
 BAR2 SZ EP   1    8 7 46.88                             172   -0.08 7 21.2 190 
 BAR2 SZ ES   1    8 8  3.19                             172    0.24 7 21.2 190 
 BAR2 SZ I         8 8  4.90         3.6 0.21                          21.2 190 
 GIR2 SZ ES   2    8 8  3.26                             167    0.09 5 33.3 351 
 BRR  HZ EP   1    8 7 48.81                             153    0.33 7 72.0 300 
 BRR  HN ES   1    8 8  6.15                             153    0.50 7 72.0 300 
 BRR  HZ I         8 8  8.57         2.1 0.19                          72.0 300 
 PAM  SE ES   1    8 8  7.07                             152   -0.55 7 79.1  39 
 PAM  SZ I         8 8  7.79         1.6 0.18                          79.1  39 
 RUS  HZ EP   1    8 7 51.24                             146    0.42 7 98.5 176 
 RUS  HN ES   1    8 8  9.63                             146   -0.19 7 98.5 176 
 RUS  HZ I         8 8 10.56         0.9 0.35                          98.5 176 
 PTB  HZ EP   1    8 7 53.71                             134   -0.30 7  147 260 
 PTB  HN ES   1    8 8 14.97                             134   -0.51 7  147 260 
 PTB  HZ I         8 8 16.48         1.6 0.28                           147 260 
                                                                                
