 2014  713 0350 36.0 L   6.778 -73.179149.7  RSN  6 0.4 1.1LRSN                1
 GAP=232        0.96       5.5     5.6  7.7  0.1235E+02  0.5698E+01 -0.9982E+00E
 Epicentro: LOS SANTOS - SANTANDER                                             3
 ACTION:UPD 15-03-16 20:43 OP:nd   STATUS:               ID:20140713035036 L   I
 OLDACT:REG 14-07-13 13:48 OP:stll STATUS:               ID:20140713034813     3
 2014-07-13-0348-13M.COL___253                                                 6
 STAT SP IPHASW D HRMM SECON CODA AMPLIT PERI AZIMU VELO AIN AR TRES W  DIS CAZ7
 BAR2 SZ EP        350 55.83                             172   -0.2210 20.6 181 
 BAR2 SZ ES        351 11.65                             172   -0.0410 20.6 181 
 BAR2 SZ I         351 12.49         3.9 0.38            171           20.6 181 
 BRR  HZ EP        350 57.81                             154    0.3510 69.2 302 
 BRR  HN ES        351 14.56                             154    0.3610 69.2 302 
 RUS  HZ EP        351  0.17                             145    0.1810 98.5 174 
 RUS  HN ES        351 18.29                             145   -0.4210 98.5 174 
 RUS  HZ I         351 19.50         1.2 0.28            145           98.5 174 
 PTB  HZ EP        351  2.64                             134   -0.28 9  144 259 
 PTB  HN ES        351 23.41                             134   -0.52 9  144 259 
 PTB  HZ I         351 25.62         1.9 0.18            134            144 259 
 SPBC HN ES        351 27.29                             131    0.72 9  159 218 
 ZAR  HN ES        351 33.59                             124   -0.16 9  202 293 
                                                                                
