 2017  213 0033 49.3 L   6.790 -73.138144.7  RSN  9 0.3 1.8LRSN                1
 GAP=138        0.73       2.7     3.2  4.1 -0.4935E+00  0.3223E+01  0.2254E+01E
 Epicentro: LOS SANTOS - SANTANDER                                             3
 ACTION:UPD 17-05-24 15:35 OP:jn   STATUS:               ID:20170213003349 L   I
 OLDACT:UP  17-02-13 13:51 OP:edw  STATUS:               ID:20170213002749     3
 OLDACT:UP  17-02-13 13:49 OP:edw  STATUS:               ID:20170213002749     3
 OLDACT:REG 17-02-13 11:25 OP:edw  STATUS:               ID:20170213002749     3
 2017-02-13-0028-00M.COL___352                                                 6
 STAT SP IPHASW D HRMM SECON CODA AMPLIT PERI AZIMU VELO AIN AR TRES W  DIS CAZ7
 BAR2 EZ EP        034  8.54                             171   -0.2810 22.4 193 
 BAR2 EZ ES        034 24.11                             171    0.1010 22.4 193 
 BAR2 EZ I         034 25.41        11.8 0.44            169           22.4 193 
 BRR  HZ IP     D  034 10.54                             152    0.1010 72.4 299 
 BRR  HN ES        034 27.22                             152    0.3210 72.4 299 
 BRR  HZ I         034 30.68        12.4 0.38            150           72.4 299 
 PAM  EZ EP        034 11.41                             151   -0.0510 77.8  39 
 PAM  EN ES        034 28.63                             151   -0.0910 77.8  39 
 PAM  EZ I         034 30.44         4.2 0.18            154           77.8  39 
 RUS  HZ EP        034 12.70                             144   -0.2010 99.4 176 
 RUS  HN ES        034 31.30                             144    0.0310 99.4 176 
 RUS  HZ I         034 34.60         7.2 0.44            146           99.4 176 
 PTB  HZ EP   9    034 15.32                             132   -0.95 0  148 259 
 PTB  HN ES        034 36.60                             132    0.27 9  148 259 
 PTB  HZ I         034 41.18         9.6 0.26            131            148 259 
 ZAR  HZ EP        034 22.40                             122    0.57 8  205 292 
 ZAR  HN ES        034 46.45                             122   -0.73 8  205 292 
 ZAR  HZ I         034 53.49        10.0 0.36            123            205 292 
 NOR  HZ EP        034 25.00                             118   -0.00 8  235 235 
 NOR  HN ES        034 52.91                             118    0.09 8  235 235 
 NOR  HZ I         034 56.27         5.9 0.18            119            235 235 
 CHI  HE ES        034 56.29                             117    0.13 8  248 195 
 PRA  HZ EP        034 43.29                             106    0.54 6  391 210 
 PRA  HE ES        035 24.03                             106   -0.38 6  391 210 
 PRA  HZ I         035 29.74         1.9 0.22            108            391 210 
                                                                                
