 2015  113 0345 49.9 L   6.669 -73.179145.7  RSN  5 0.3 1.2LRSN                1
 GAP=223        0.77       5.8     5.4  5.6  0.1900E+02  0.5415E+01 -0.1807E+01E
 Epicentro: VILLANUEVA - SANTANDER                                             3
 ACTION:UPD 15-03-02 15:39 OP:nd   STATUS:               ID:20150113034549 L   I
 OLDACT:REG 15-01-13 12:45 OP:carl STATUS:               ID:20150113033748     3
 2015-01-13-0337-48M.COL___256                                                 6
 STAT SP IPHASW D HRMM SECON CODA AMPLIT PERI AZIMU VELO AIN AR TRES W  DIS CAZ7
 BAR2 EZ EP        346  9.41                             176    0.0910 8.53 182 
 BAR2 EZ ES        346 24.01                             176   -0.4510 8.53 182 
 BRR  HZ EP        346 11.11                             151   -0.2210 76.2 309 
 BRR  HE ES        346 28.57                             151    0.5210 76.2 309 
 RUS  HZ EP        346 12.90                             148    0.2210 86.5 173 
 RUS  HN ES        346 30.52                             148    0.0710 86.5 173 
 RUS  HZ I         346 32.77         1.5 0.44            144           86.5 173 
 PTB  HZ EP        346 16.05                             133   -0.29 9  142 264 
 PTB  HN ES        346 37.08                             133    0.12 9  142 264 
 PTB  HZ I         346 44.07         1.6 0.38            129            142 264 
 ZAR  HZ EP        346 22.85                             122    0.25 8  207 296 
 ZAR  HN ES        346 47.78                             122   -0.33 8  207 296 
 ZAR  HZ I         346 53.66         2.8 0.58            120            207 296 
                                                                                
