 2014  313 0254 12.7 L   6.796 -73.161150.5  RSN  5 0.2 1.4LRSN                1
 GAP=135        0.51       2.9     2.7  5.8  0.3850E+00  0.3119E+01 -0.7012E+01E
 Epicentro: LOS SANTOS - SANTANDER                                             3
 OLDACT:REG 14-03-13 07:21 OP:fm   STATUS:               ID:20140313024806     3
 ACTION:UPD 14-04-09 23:16 OP:nd   STATUS:               ID:20140313025412 L   I
 OLDACT:UP  14-03-13 11:14 OP:fm   STATUS:               ID:20140313024806     3
 2014-03-13-0248-06M.COL___242                                                 6
 STAT SP IPHASW D HRMM SECON CODA AMPLIT PERI AZIMU VELO AIN AR TRES W  DIS CAZ7
 PAM  SZ EP   1    254 35.52                             151    0.05 8 78.8  40 
 PAM  SN ES   1    254 53.29                             151    0.03 8 78.8  40 
 PAM  SZ I         254 55.33         2.3 0.58            152           78.8  40 
 RUS  HZ EP   1    254 37.23                             145    0.37 7  100 175 
 RUS  HE ES        254 55.61                             145   -0.1310  100 175 
 RUS  SZ I         254 59.29         2.3 2.08            147            100 175 
 PTB  HZ EP   1    254 39.72                             133   -0.14 7  146 259 
 PTB  HN ES        255  0.91                             133   -0.17 9  146 259 
 ZAR  HE ES        255 11.09                             124    0.38 9  203 292 
 SML  HZ EP        254 49.32                             118   -0.21 8  243 336 
 SML  HN ES   2    255 17.99                             118   -0.29 4  243 336 
 SML  SZ I         255 20.07         5.4 0.30            121            243 336 
                                                                                
