 2017  113 0643 33.5 L   6.801 -73.123140.0  RSN 11 0.5 1.5LRSN                1
 GAP=101        1.18       4.4     3.5  6.5  0.1071E+00  0.4528E+01  0.3511E+01E
 Epicentro: LOS SANTOS - SANTANDER                                             3
 ACTION:UPD 17-05-22 15:58 OP:jn   STATUS:               ID:20170113064333 L   I
 OLDACT:UP  17-01-13 16:28 OP:and  STATUS:               ID:20170113063745     3
 OLDACT:UP  17-01-13 16:28 OP:and  STATUS:               ID:20170113063745     3
 OLDACT:UP  17-01-13 16:28 OP:and  STATUS:               ID:20170113063745     3
 OLDACT:UP  17-01-13 16:27 OP:and  STATUS:               ID:20170113063745     3
 OLDACT:REG 17-01-13 12:51 OP:and  STATUS:               ID:20170113063745     3
 2017-01-13-0638-00M.COL___332                                                 6
 STAT SP IPHASW D HRMM SECON CODA AMPLIT PERI AZIMU VELO AIN AR TRES W  DIS CAZ7
 BAR2 EZ EP     C  643 52.20                             170   -0.2610 24.0 196 
 BAR2 EZ ES        644  6.83                             170   -0.4110 24.0 196 
 BAR2 EZ I         644  9.32         8.6 0.24            167           24.0 196 
 BRR  HZ EP        643 53.96                             151   -0.2010 73.4 298 
 BRR  HN ES        644 11.14                             151    0.8610 73.4 298 
 BRR  HZ I         644 12.82         6.2 0.12            144           73.4 298 
 PAM  EZ EP        643 55.15                             150    0.1410 75.7  38 
 PAM  EN ES        644 11.89                             150    0.1110 75.7  38 
 PAM  EZ I         644 12.76         4.6 0.32            148           75.7  38 
 RUS  HZ EP        643 55.99                             143   -0.7010  101 177 
 RUS  HN ES        644 14.89                             143    0.1210  101 177 
 RUS  HZ I         644 16.41         1.5 0.28            138            101 177 
 PTB  HZ EP        643 59.29                             130   -0.95 9  150 259 
 PTB  HN ES        644 20.60                             130   -0.49 9  150 259 
 PTB  HZ I         644 22.77         6.0 0.12            123            150 259 
 TAM  HZ IP     D  644  0.49                             130   -0.02 9  153 105 
 TAM  HN ES        644 21.88                             130    0.32 9  153 105 
 ZAR  HZ EP        644  5.86                             121    0.03 8  206 292 
 ZAR  HN ES        644 31.31                             121    0.28 8  206 292 
 ZAR  HZ I         644 37.06         4.1 0.35            115            206 292 
 NOR  HZ EP        644  8.94                             117   -0.20 8  237 235 
 NOR  HN ES        644 37.44                             117    0.51 8  237 235 
 NOR  HZ I         644 38.13         3.8 0.24            112            237 235 
 CHI  HZ EP   3    644 12.69                             116    1.72 2  249 196 
 CHI  HN ES        644 41.06                             116    0.86 8  249 196 
 CHI  HZ I         644 46.65         1.0 0.25            111            249 196 
 GUY2CHZ EP   9    644 18.84                             111    1.75 0  303 235 
 GUY2CHN ES        644 52.57                             111   -0.27 7  303 235 
 GUY2CHZ I         644 59.49         2.1 0.44                           303 235 
 CBOC HZ EP        644 21.17                             109    0.70 7  336 252 
 CBOC HZ I         644 59.93         0.9 0.21            104            336 252 
                                                                                
