 2016 1113 0305 43.5 L   6.884 -73.356111.4  RSN  6 0.3 1.7LRSN                1
 GAP=113        0.85       4.7     3.5  6.5 -0.2647E+01  0.8965E+01 -0.1755E+01E
 Epicentro: SAN VICENTE DE CHUCURI - SANTANDER                                 3
 ACTION:UPD 17-10-26 21:07 OP:lp   STATUS:               ID:20161113030543 L   I
 OLDACT:UP  16-11-13 16:02 OP:and  STATUS:               ID:20161113025743     3
 OLDACT:REG 16-11-13 12:48 OP:and  STATUS:               ID:20161113025743     3
 2016-11-13-0258-00M.COL___340                                                 6
 STAT SP IPHASW D HRMM SECON CODA AMPLIT PERI AZIMU VELO AIN AR TRES W  DIS CAZ7
 BAR2 EZ IP     C  3 5 59.45                             160   -0.0910 37.5 149 
 BAR2 EZ ES        3 6 11.90                             160   -0.1210 37.5 149 
 BAR2 EZ I         3 6 12.87        43.2 0.22            160           37.5 149 
 BRR  HZ IP     C  3 5 59.09                             156   -0.5110 46.4 302 
 BRR  HN ES        3 6 12.13                             156    0.0110 46.4 302 
 BRR  HZ I         3 6 12.76        11.0 0.12            156           46.4 302 
 PAM  EZ EP        3 6  3.47                             139    0.4010 88.3  55 
 PAM  EN ES        3 6 18.44                             139    0.1410 88.3  55 
 PAM  EZ I         3 6 21.85         6.4 0.22            139           88.3  55 
 PTB  HZ IP   4 C  3 6  3.95                             127   -1.98 0  128 253 
 PTB  HN ES   4    3 6 19.95                             127   -3.44 0  128 253 
 PTB  HZ I         3 6 25.10         8.9 0.10            127            128 253 
 ZAR  HZ EP        3 6 10.76                             117   -0.49 9  179 292 
 ZAR  HN ES        3 6 33.27                             117    0.40 9  179 292 
 ZAR  HZ I         3 6 34.74        10.0 0.24            117            179 292 
 NOR  HN ES        3 6 41.89                             111    0.37 8  222 229 
 NOR  HZ I         3 6 45.03         3.5 0.16            111            222 229 
 SJC  HN ES   4    3 7 12.54                             100   -3.96 0  389 329 
                                                                                
