 2013 1213 0936  4.1 L   6.669 -73.208150.1  RSN  5 0.3 1.4LRSN                1
 GAP=211        0.66       5.4     4.7  5.5  0.1383E+02  0.3736E+01 -0.1830E+01E
 Epicentro: BARICHARA - SANTANDER                                              3
 ACTION:UPD 14-01-13 10:17 OP:ep   STATUS:               ID:20131213093604 L   I
 OLDACT:REG 13-12-13 08:10 OP:jn   STATUS:               ID:20131213093000     3
 2013-12-13-0930-00M.COL___285                                                 6
 STAT SP IPHASW D HRMM SECON CODA AMPLIT PERI AZIMU VELO AIN AR TRES W  DIS CAZ7
 BAR2 SZ EP        936 23.87                             176   -0.2010 8.95 162 
 BAR2 SZ ES        936 39.36                             176   -0.2810 8.95 162 
 BAR2 SZ I         936 42.87         7.8 0.46            169           8.95 162 
 BRR  HZ EP        936 25.76                             152   -0.1210 73.8 311 
 BRR  HN ES   1    936 43.44                             152    0.58 7 73.8 311 
 RUS  HZ EP        936 27.52                             149    0.1410 87.0 171 
 RUS  HN ES        936 45.76                             149    0.2310 87.0 171 
 RUS  HZ I         936 51.11         1.3 0.26            147           87.0 171 
 PTB  HZ EP        936 30.76                             135    0.11 9  139 264 
 PTB  HN ES        936 51.05                             135   -0.31 9  139 264 
 PTB  HZ I         936 57.80         5.1 0.58            133            139 264 
 ZAR  HN ES   1    937  2.52                             123    0.19 6  204 297 
 ZAR  HZ I         937  8.34         4.3 0.50            125            204 297 
                                                                                
