 2012  413 0935 33.5 L   6.689 -73.130129.9  RSN  4 0.3 1.4LRSN                1
 GAP=230        0.64      10.4     5.2  9.7 -0.2680E+02  0.9861E+01  0.2963E+02E
 Epicentro: JORDAN - SANTANDER                                                 3
 ACTION:UPD 12-07-05 11:53 OP:tino STATUS:               ID:20120413093534dL   I
 2012-04-13-0930-00M.COL___181                                                 6
 STAT SP IPHASW D HRMM SECON CODA AMPLIT PERI AZIMU VELO AIN AR TRES W  DIS CAZ7
 BRR  HZ EP   2    935 53.51                             147     0.0 5   79 306 
 BRR  HN ES   2    936  9.65                             147     0.6 5   79 306 
 BRR  HZ I         936 10.93        10.4 0.19                            79 306 
 PAM  SZ EP   2    935 54.91                             145     0.2 5   86  33 
 PAM  SN ES   1    936 10.94                             145    -0.2 7   86  33 
 PTB  HZ EP   1    935 58.95                             128    -0.3 7  148 264 
 PTB  HN ES   1    936 19.30                             128     0.0 7  148 264 
 PTB  HZ I         936 26.92         1.5 0.09                           148 264 
 ZAR  HZ EP   1    936  6.12                             118     0.4 6  211 295 
 ZAR  HN ES   1    936 30.38                             118    -0.4 6  211 295 
 ZAR  HZ I         936 37.12         3.7 0.31                           211 295 
                                                                                
