 2015  413 0603 40.8 L   6.826 -73.136146.0  RSN 13 0.6 2.6LRSN                1
 GAP=136        1.29       3.5     4.8  6.6 -0.4106E+01  0.9910E+01  0.6904E+00E
 Epicentro: LOS SANTOS - SANTANDER                                             3
 ACTION:UPD 15-06-03 16:54 OP:cam  STATUS:               ID:20150413060340 L   I
 OLDACT:REG 15-04-13 13:12 OP:carl STATUS:               ID:20150413055747     3
 2015-04-13-0557-47M.COL___266                                                 6
 STAT SP IPHASW D HRMM SECON CODA AMPLIT PERI AZIMU VELO AIN AR TRES W  DIS CAZ7
 BAR2 EZ IP     C  6 4  0.52                             169   -0.0210 26.3 191 
 BAR2 EZ ES        6 4 15.84                             169   -0.0810 26.3 191 
 BAR2 EZ I         6 4 16.83       122.6 0.18            168           26.3 191 
 BRR  HN ES        6 4 19.41                             153    0.9410 70.8 296 
 BRR  HZ I         6 4 21.11        43.8 0.14            149           70.8 296 
 PAM  SZ EP        6 4  3.36                             152    0.4710 74.5  40 
 PAM  SN ES        6 4 20.47                             152    0.3610 74.5  40 
 PAM  SZ I         6 4 22.48        63.8 0.52            155           74.5  40 
 RUS  HZ EP        6 4  4.38                             143   -0.4110  103 177 
 RUS  HN ES        6 4 23.28                             143   -0.2110  103 177 
 RUS  HZ I         6 4 24.13        49.4 0.20            145            103 177 
 PTB  HZ EP        6 4  7.21                             132   -0.74 9  149 258 
 PTB  HN ES        6 4 28.27                             132   -0.84 9  149 258 
 PTB  HZ I         6 4 32.39        34.8 0.12            131            149 258 
 OCA  HZ EP        6 4  8.87                             130   -0.02 9  158 353 
 OCA  HN ES        6 4 30.37                             130   -0.42 9  158 353 
 OCA  HZ I         6 4 33.63        79.0 0.22            131            158 353 
 SPBC HZ EP        6 4  9.37                             129   -0.24 9  166 219 
 SPBC HN ES        6 4 32.05                             129   -0.01 9  166 219 
 SPBC HZ I         6 4 34.03        71.2 0.22            129            166 219 
 ZAR  HN ES        6 4 38.66                             122    0.08 9  204 291 
 ZAR  HZ I         6 4 46.96        33.2 0.46            122            204 291 
 NOR  HZ EP        6 4 16.34                             118   -0.49 8  237 234 
 NOR  HN ES        6 4 44.85                             118   -0.07 8  237 234 
 NOR  HZ I         6 4 51.16        29.7 0.16            119            237 234 
 SML  HZ EP        6 4 16.74                             118   -0.49 8  242 335 
 SML  HN ES        6 4 45.14                             118   -0.48 8  242 335 
 SML  HZ I         6 4 47.59        27.7 0.10            118            242 335 
 HEL  HZ EP        6 4 22.52                             115    1.29 8  274 255 
 HEL  HN ES        6 4 53.51                             115    0.76 8  274 255 
 HEL  HZ I         6 5  0.90        17.4 0.28            115            274 255 
 GUY2CHZ EP        6 4 25.97                             112    1.25 7  304 234 
 GUY2CHN ES        6 4 58.71                             112   -0.25 7  304 234 
 GUY2CHZ I         6 5 11.11        13.7 0.46                           304 234 
 ORTC HZ EP        6 4 35.31                             106    0.23 6  398 216 
 ORTC HN ES        6 5 17.62                             106    0.21 6  398 216 
 ORTC HZ I         6 5 25.22         9.0 0.44            107            398 216 
                                                                                
