 2016 1213 0926 18.2 L   7.126 -73.474  0.1  RSN 15 0.4 2.0LRSN                1
 GAP=147        0.92       3.1     1.8  4.4  0.3569E+00  0.8030E+00  0.3573E+01E
 Epicentro: SAN VICENTE DE CHUCURI - SANTANDER                                 3
 ACTION:UPD 17-01-11 20:14 OP:rebc STATUS:               ID:20161213092618 L   I
 OLDACT:UP  16-12-13 23:24 OP:edw  STATUS:               ID:20161213091740     3
 OLDACT:UP  16-12-13 23:20 OP:edw  STATUS:               ID:20161213091740     3
 OLDACT:UP  16-12-13 23:19 OP:edw  STATUS:               ID:20161213091740     3
 OLDACT:REG 16-12-13 13:11 OP:y    STATUS:               ID:20161213091740     3
 2016-12-13-0918-00M.COL___357                                                 6
 STAT SP IPHASW D HRMM SECON CODA AMPLIT PERI AZIMU VELO AIN AR TRES W  DIS CAZ7
 BRR  HZ IP     D  926 23.40                              47    0.0110 26.3 266 
 BRR  HN ES        926 27.11                              47   -0.2910 26.3 266 
 BRR  HZ I         926 27.16       259.5 0.28             47           26.3 266 
 BAR2 EZ IP     D  926 29.88                              47    0.0410 67.3 151 
 BAR2 EZ ES        926 38.45                              47   -0.4310 67.3 151 
 BAR2 EZ I         926 39.28        91.6 0.60             47           67.3 151 
 PAM  EZ EP        926 32.83                              47   -0.5210 88.8  75 
 PAM  EZ I         926 44.95        23.9 0.26             47           88.8  75 
 PAM  EE ES        926 45.61                              47    0.4710 88.8  75 
 PTB  HZ EP   9    926 38.84                              47    0.27 0  126 239 
 PTB  HN ES        926 54.35                              47   -0.3410  126 239 
 RUS  HZ EP        926 41.92                              47    0.33 9  143 162 
 RUS  HN ES   4    926 59.38                              47   -0.41 0  143 162 
 RUS  HZ I         927  2.39        37.8 0.30             47            143 162 
 ZAR  HZ EP        926 43.48                              47    0.12 9  158 285 
 ZAR  HN ES   4    927  1.86                              47   -1.08 0  158 285 
 TAM  HZ EP   4    926 52.83                              37    3.49 0  201 112 
 TAM  HN ES   4    927 17.34                              37    3.74 0  201 112 
 TAM  HZ I         927 18.75        10.1 0.24             37            201 112 
 NOR  HZ EP        926 53.82                              37    0.64 8  232 222 
 NOR  HN ES   2    927 21.14                              37    0.72 4  232 222 
 NOR  HZ I         927 23.78        10.0 0.22             37            232 222 
 URE  HZ EP        926 53.52                              37   -0.34 8  238 287 
 URE  HN ES   4    927 22.91                              37    1.27 0  238 287 
 URE  HZ I         927 25.23        15.4 0.26             37            238 287 
 ROSC BZ EP   4    927  0.60                              37    2.28 0  270 200 
 ROSC BN ES   4    927 28.71                              37   -0.87 0  270 200 
 CHI  HZ EP   4    927  3.36                              37    4.02 0  278 186 
 CHI  HN ES   4    927 35.51                              37    4.11 0  278 186 
 CHI  HZ I         927 47.32         5.9 0.42             37            278 186 
 GUY2CHZ IP   4 D  927  3.19                              36    1.38 0  297 225 
 GUY2CHN ES   2    927 35.75                              36   -0.04 4  297 225 
 GUY2CHZ I         927 41.26         6.8 0.34                           297 225 
 CBOC HZ EP   9    927  6.06                              36    2.54 0  313 244 
 CBOC HN ES        927 41.98                              36    0.61 7  313 244 
 CBOC HZ I         927 48.43         4.3 0.76             36            313 244 
 ELA  HZ EP   4    927  7.67                              36    1.81 0  329 221 
 ELA  HE ES   4    927 46.07                              36    3.07 0  329 221 
 ELA  HZ I         927 48.60         6.4 0.42             36            329 221 
 SJC  HZ EP   4    927  9.70                              36    0.65 0  359 329 
 SJC  HN ES   4    927 50.01                              36    1.34 0  359 329 
 ORTC HZ EP   4    927 16.98                              36    2.16 0  406 209 
 ORTC HN ES   4    928  5.22                              36    6.28 0  406 209 
 ORTC HZ I         928 16.54         3.8 0.42             36            406 209 
 PRA  HZ EP   4    927 18.59                              36    3.51 0  408 203 
 PRA  HE ES   4    928 12.33                              36   12.91 0  408 203 
 PRA  HZ I         928 18.30         4.9 0.30             36            408 203 
                                                                                
