 2016 1213 0354 41.9 L   6.554 -73.539115.1  RSN 16 0.5 1.9LRSN                1
 GAP= 52        0.99       2.9     2.7  5.3 -0.1055E+01  0.4096E+01  0.2655E+01E
 Epicentro: EL CARMEN - SANTANDER                                              3
 ACTION:UPD 17-01-11 20:14 OP:rebc STATUS:               ID:20161213035441 L   I
 OLDACT:UP  16-12-13 15:28 OP:e    STATUS:               ID:20161213034744     3
 OLDACT:UP  16-12-13 15:26 OP:e    STATUS:               ID:20161213034744     3
 OLDACT:UP  16-12-13 15:22 OP:e    STATUS:               ID:20161213034744     3
 OLDACT:REG 16-12-13 12:47 OP:y    STATUS:               ID:20161213034744     3
 2016-12-13-0348-00M.COL___377                                                 6
 STAT SP IPHASW D HRMM SECON CODA AMPLIT PERI AZIMU VELO AIN AR TRES W  DIS CAZ7
 BAR2 EZ IP     C  354 58.71                             160    0.2710 39.7  84 
 BAR2 EZ ES        355 11.44                             160    0.1210 39.7  84 
 BRR  HZ EP        354 59.55                             149    0.1610 64.1 343 
 BRR  HE ES        355 13.57                             149    0.5610 64.1 343 
 BRR  HZ I         355 15.01        18.3 0.22            145           64.1 343 
 RUS  HZ EP        355  1.70                             140   -0.1510 88.8 145 
 RUS  HN ES        355 16.56                             140   -0.8310 88.8 145 
 RUS  HZ I         355 18.95        17.4 0.18            132           88.8 145 
 PTB  HZ IP     D  355  1.48                             135   -0.7410  101 269 
 PTB  HN ES   3    355 16.43                             135   -1.63 2  101 269 
 PTB  HZ I         355 17.86        22.0 0.07            130            101 269 
 PAM  EZ EP        355  5.39                             129    0.2110  127  47 
 PAM  EN ES        355 23.63                             129    0.3010  127  47 
 PAM  EZ I         355 24.75        13.4 0.18            122            127  47 
 ZAR  HZ EP   9    355 11.78                             118    1.95 0  179 306 
 ZAR  HN ES        355 33.90                                    0.35 9  179 306 
 ZAR  HZ I         355 37.54         9.0 0.20            114            179 306 
 NOR  HZ EP        355 10.24                             118   -0.15 9  184 233 
 NOR  HN ES        355 32.16                             118   -0.43 9  184 233 
 NOR  HZ I         355 36.30         9.9 0.23            113            184 233 
 TAM  HZ EP        355 11.42                             116   -0.07 9  194  94 
 TAM  HZ I         355 33.99         7.5 0.19            111            194  94 
 TAM  HN ES        355 34.60                             116    0.05 9  194  94 
 CHI  HZ EP        355 14.68                             114    0.50 8  214 186 
 CHI  HE ES        355 39.58                             114    0.23 8  214 186 
 CHI  HZ I         355 49.41         3.5 0.32            109            214 186 
 GUY2CHZ EP   3    355 19.38                             110    1.02 2  250 234 
 GUY2CHN ES   4    355 49.65                             110    2.87 0  250 234 
 GUY2CHZ I         355 53.48         4.8 0.32                           250 234 
 CBOC HZ EP   4    355 23.59                             107    1.66 0  284 255 
 CBOC HN ES        355 53.31                             107    0.17 7  284 255 
 CBOC HZ I         355 57.60         3.8 0.34            104            284 255 
 PTGC HZ EP   9    355 23.00                             105   -0.98 0  303 149 
 PTGC HE ES        355 55.68                                   -0.12 7  303 149 
 ORTC HZ EP        355 30.22                             103    0.88 6  348 213 
 ORTC HE ES   3    356  8.21                             103    1.89 2  348 213 
 ORTC HZ I         356 14.64         2.7 0.18            101            348 213 
 LL6C HZ EP   9    355 11.38                             102   -18.5 0  353   5 
 LL6C HE ES   3    355 51.32                             108    2.55 2  353   5 
 PAL  HZ EP   3    355 31.42                             102    1.32 2  354 239 
 PAL  HN ES        356  7.73                             102    0.05 6  354 239 
 PAL  HZ I         356 12.06         3.8 0.26            101            354 239 
 SJC  HZ EP        355 36.54                             100   -0.38 6  412 334 
 SJC  HN ES        356 18.85                             100   -0.97 6  412 334 
 SJC  HZ I         356 21.27         1.9 0.22             99            412 334 
                                                                                
