 2010  713 0915 49.3 L   6.756 -73.133145.7  RSN  6 0.4 1.5LRSN                1
 GAP=166        0.85      10.6    16.8 11.3  0.1084E+03 -0.8710E+02 -0.6195E+02E
 Epicentro: LOS SANTOS - SANTANDER                                             3
 ACTION:UPD 10-12-01 15:17 OP:pat  STATUS:               ID:20100713091549 L   I
 2010-07-13-0912-01S.COL___120                                                 6
 STAT SP IPHASW D HRMM SECON CODA AMPLIT PERI AZIMU VELO AIN AR TRES W  DIS CAZ7
 BAR2 SZ EP   1    916  8.49                             172    -0.3 7   19 197 
 BAR2 SZ I         916  8.85         8.2 0.39                            19 197 
 BAR2 SZ ES   1    916 23.67                             172    -0.4 7   19 197 
 GIR2 SZ EP   2    916  8.87                             165    -0.2 5   36 349 
 BRR  HZ IP     C  916 10.51                             151    -0.110   75 301 
 BRR  HE ES   1    916 27.58                             151     0.3 7   75 301 
 BRR  HZ I         916 31.42         7.6 0.24                            75 301 
 RUS  HZ EP   2    916 12.79                             145     0.1 5   96 177 
 RUS  HN ES   2    916 31.74                             145     0.8 5   96 177 
 RUS  HZ I         916 33.03         3.6 0.46                            96 177 
 GUE  SZ EP   2    916 15.29                             138     0.9 5  121  11 
 OCA  SZ EP   2    916 17.86                             129    -0.2 5  165 353 
 OCA  SZ I         916 30.80         4.8 0.45                           165 353 
                                                                                
