 2013  813 0212 16.9 L   6.850 -73.149144.3  RSN 11 0.5 2.3LRSN                1
 GAP= 69        1.21       4.0     4.2  7.3 -0.4305E+01 -0.8242E+00  0.2115E+01E
 Epicentro: LOS SANTOS - SANTANDER                                             3
 ACTION:UPD 14-01-14 09:01 OP:ep   STATUS:               ID:20130813021216 L   I
 OLDACT:REG 13-08-13 08:09 OP:stll STATUS:               ID:20130813020848     3
 2013-08-13-0208-48M.COL___217                                                 6
 STAT SP IPHASW D HRMM SECON CODA AMPLIT PERI AZIMU VELO AIN AR TRES W  DIS CAZ7
 GIR2 SZ EP        212 36.50                             169    0.2210 25.7 349 
 BAR2 SZ EP        212 36.60                             168    0.1010 28.8 187 
 BAR2 SZ ES        212 51.36                             168   -0.4110 28.8 187 
 BAR2 SZ I         212 53.51        17.9 0.70            169           28.8 187 
 BRR  HZ EP        212 38.21                             153    0.4610 68.4 295 
 BRR  HN ES        212 55.04                             153    1.0310 68.4 295 
 BRR  HN I         212 55.61        51.2 0.46            153           68.4 295 
 PAM  SZ EP        212 39.28                             152    0.5410 73.4  43 
 PAM  SN ES        212 56.01                             152    0.2410 73.4  43 
 PAM  SN I         212 57.26        31.1 0.32            154           73.4  43 
 RUS  HZ EP        212 40.85                             142   -0.0910  106 176 
 RUS  HN ES        212 59.46                             142   -0.2210  106 176 
 RUS  HN I         213  1.64        13.8 0.46            144            106 176 
 CAPV BZ EP        212 43.44                             132   -0.38 9  145  39 
 CAPV BZ ES        213  4.09                             132   -0.71 9  145  39 
 PTB  HZ EP        212 43.38                             131   -0.46 9  149 257 
 PTB  HN ES        213  4.01                             131   -0.84 9  149 257 
 PTB  HN I         213  9.79        31.5 0.26            132            149 257 
 OCA  HN ES        213  5.74                             130   -0.44 9  155 353 
 OCA  HN I         213 10.58        34.7 0.18            132            155 353 
 TAM  HZ EP        212 45.01                             130    0.36 9  157 107 
 SPBC HZ EP        212 45.90                             128    0.20 9  167 218 
 SPBC HN ES        213  8.20                             128    0.05 9  167 218 
 SPBC HN I         213 10.03        34.2 0.12            129            167 218 
 ZAR  HN ES        213 14.15                             122    0.08 9  202 291 
                                                                                
