 2017  313 0511  1.6 L   6.784 -73.183149.5  RSN  7 0.4 1.5LRSN                1
 GAP=133        1.15       5.0     4.9  7.8 -0.1264E+01  0.7133E+01  0.3210E+01E
 Epicentro: LOS SANTOS - SANTANDER                                             3
 ACTION:UPD 17-05-25 18:39 OP:jn   STATUS:               ID:20170313051101 L   I
 OLDACT:DUP 17-03-13 16:46 OP:cog  STATUS:               ID:20170313050742d    3
 2017-03-13-0508-00M.COL___381                                                 6
 STAT SP IPHASW D HRMM SECON CODA AMPLIT PERI AZIMU VELO AIN AR TRES W  DIS CAZ7
 BAR2 EZ EP        511 21.53                             172   -0.0710 21.2 180 
 BAR2 EZ ES        511 36.89                             172   -0.3410 21.2 180 
 BAR2 EZ I         511 37.60        11.6 0.26            173           21.2 180 
 BRR  HZ EP        511 23.22                             154    0.2610 68.5 301 
 BRR  HN ES        511 40.56                             154    0.9010 68.5 301 
 BRR  HZ I         511 45.96         8.7 0.46            153           68.5 301 
 PAM  EZ EP        511 24.48                             150    0.0710 81.4  41 
 PAM  EN ES        511 41.91                             150   -0.3210 81.4  41 
 PAM  EZ I         511 42.78         3.6 0.36            152           81.4  41 
 RUS  HZ EP        511 25.61                             145    0.0310 99.2 174 
 RUS  HN ES        511 44.36                             145    0.0410 99.2 174 
 RUS  HZ I         511 45.04         3.4 0.20            148           99.2 174 
 PTB  HZ EP        511 28.16                             134   -0.28 9  143 259 
 PTB  HE ES        511 49.74                             134    0.33 9  143 259 
 PTB  HZ I         511 51.06         5.1 0.40            135            143 259 
 SPBC HZ EP        511 30.55                             131    0.57 9  159 218 
 SPBC HN ES        511 51.65                             131   -0.49 9  159 218 
 ZAR  HE ES        511 58.26                             124   -0.92 9  201 293 
                                                                                
