 2012 1013 0853 47.8 L   7.199 -73.220125.9  RSN 12 0.4 2.6LRSN                1
 GAP=155        0.80       4.5     3.3  5.3  0.4597E+01  0.3923E+01  0.3935E+01E
 Epicentro: LEBRIJA - SANTANDER                                                3
 ACTION:UPD 12-11-22 17:03 OP:ep   STATUS:               ID:20121013085347 L   I
 2012-10-13-0850-00M.COL___231                                                 6
 STAT SP IPHASW D HRMM SECON CODA AMPLIT PERI AZIMU VELO AIN AR TRES W  DIS CAZ7
 GIR2 SZ EP        854  4.59                             174   -0.1310 13.6 167 
 GIR2 SZ ES   1    854 17.90                             174   -0.01 7 13.6 167 
 BRR  HZ EP        854  5.79                             155   -0.1210 55.2 259 
 BRR  HZ I         854  6.17        89.6 0.10                          55.2 259 
 BRR  HN ES   1    854 20.43                             155    0.39 7 55.2 259 
 PAM  SZ EP   1    854  6.93                             153    0.07 7 59.6  75 
 PAM  SZ I         854  7.21       116.6 0.20                          59.6  75 
 PAM  SN ES   1    854 21.73                             153    0.01 7 59.6  75 
 PAM  SN I         854 23.84        75.1 0.16                          59.6  75 
 BAR2 SZ EP        854  6.90                             150   -0.0310 67.2 176 
 BAR2 SZ I         854  7.23       345.4 0.30                          67.2 176 
 BAR2 SZ ES   1    854 21.70                             150   -0.15 7 67.2 176 
 RUS  HZ EP   1    854 12.92                             128   -0.70 7  145 174 
 RUS  HN ES        854 33.45                             128   -0.30 9  145 174 
 RUS  HZ I         854 35.10        22.8 0.22                           145 174 
 RUS  HN I         854 35.31        39.7 0.19                           145 174 
 TAM  HZ EP   1    854 16.51                             121    0.08 7  179 118 
 TAM  HZ I         854 17.07        57.3 0.19                           179 118 
 TAM  HN ES   1    854 39.40                             121    0.65 7  179 118 
 ZAR  HZ EP   1    854 16.41                             120   -0.45 7  184 280 
 ZAR  HZ I         854 17.62        26.9 0.14                           184 280 
 ZAR  HE ES        854 39.70                             120    0.17 9  184 280 
 ZAR  HE I         854 40.49       208.8 0.36                           184 280 
 NOR  SN ES   2    854 54.64                             112    0.71 4  257 225 
 HEL  HZ EP   1    854 27.53                             110   -0.29 6  279 247 
 HEL  HZ I         855  5.79        20.9 0.28                           279 247 
 HEL  HN I         855  6.04        22.0 0.24                           279 247 
 ROSC BZ EP   1    854 30.38                             109    1.46 5  288 205 
 ROSC BN ES   9    855  4.56                             109    3.57 0  288 205 
 ROSC BZ I         855  9.89        13.4 0.35                           288 205 
 RREF HZ EP   9    854 36.91                             105    0.86 0  346 223 
 RREF HN ES   9    855 16.62                                    2.08 0  346 223 
 RREF HZ I         855 22.96        12.9 0.48                           346 223 
 PRA  HZ EP   1    854 44.92                             101    0.01 4  427 206 
 PRA  HZ I         855 37.42         7.2 0.28                           427 206 
                                                                                
