 2012 1213 0705 59.5 L   6.734 -73.197153.6  RSN  4 0.1 1.5LRSN                1
 GAP=238        0.39       5.5     3.8  6.5  0.1648E+02 -0.1084E+02 -0.2220E+02E
 Epicentro: VILLANUEVA - SANTANDER                                             3
 ACTION:UPD 13-01-04 14:27 OP:ep   STATUS:               ID:20121213070559 L   I
 2012-12-13-0700-00M.COL___242                                                 6
 STAT SP IPHASW D HRMM SECON CODA AMPLIT PERI AZIMU VELO AIN AR TRES W  DIS CAZ7
 BAR2 SZ EP        7 6 19.81                             174   -0.1610 15.8 174 
 RUS  HZ EP        7 6 23.69                             147    0.1010 93.9 172 
 RUS  HN ES        7 6 42.43                             147    0.0610 93.9 172 
 RUS  HN I         7 6 43.82         3.2 0.34                          93.9 172 
 PTB  HZ EP        7 6 26.51                             135   -0.02 9  141 261 
 PTB  HN ES        7 6 47.49                             135   -0.11 9  141 261 
 PTB  HN I         7 6 53.25         4.0 0.14                           141 261 
 ZAR  HN ES        7 6 57.93                             124    0.16 9  202 295 
 ZAR  HN I         7 7  3.23         3.4 0.48                           202 295 
                                                                                
