 2015  713 0602 43.1 L   6.825 -73.124145.7  RSN  9 0.4 1.6LRSN                1
 GAP=138        0.79       2.7     4.3  6.0 -0.5383E-01  0.1036E+02  0.4668E+00E
 Epicentro: LOS SANTOS - SANTANDER                                             3
 ACTION:UPD 15-09-08 21:48 OP:cam  STATUS:               ID:20150713060243 L   I
 OLDACT:DUP 15-07-13 17:09 OP:spq  STATUS:               ID:20150713055752d    3
 OLDACT:REG 15-07-13 13:05 OP:spq  STATUS:               ID:20150713055750     3
 2015-07-13-0557-50M.COL___337                                                 6
 STAT SP IPHASW D HRMM SECON CODA AMPLIT PERI AZIMU VELO AIN AR TRES W  DIS CAZ7
 BAR2 EZ EP        6 3  2.69                             169   -0.0910 26.5 194 
 BAR2 EZ ES   1    6 3 18.41                             169    0.27 7 26.5 194 
 BAR2 EZ I         6 3 20.45         8.4 0.24            169           26.5 194 
 PAM  EZ EP     D  6 3  5.72                             152    0.6310 73.7  39 
 PAM  EE ES   1    6 3 22.25                             152    0.01 7 73.7  39 
 PAM  EZ I         6 3 24.86         5.6 0.48            155           73.7  39 
 RUS  HZ EP        6 3  6.72                             143   -0.3110  103 177 
 RUS  HE ES   1    6 3 25.28                             143   -0.41 7  103 177 
 RUS  HZ I         6 3 26.93         2.6 0.46            147            103 177 
 OCA  HZ EP        6 3 10.75                             130   -0.42 9  158 352 
 OCA  HN ES        6 3 33.10                             130    0.03 9  158 352 
 OCA  HZ I         6 3 40.91         9.5 0.48            132            158 352 
 ZAR  HZ EP   1    6 3 16.19                             122    0.53 6  205 291 
 ZAR  HN ES        6 3 40.75                             122   -0.30 8  205 291 
 ZAR  HZ I         6 3 45.97         4.6 0.40            123            205 291 
 SML  HZ EP        6 3 19.06                             118   -0.49 8  242 335 
 SML  HN ES   1    6 3 48.35                             118    0.36 6  242 335 
 SML  HZ I         6 3 51.46         5.1 0.30            119            242 335 
 HEL  HN ES   1    6 3 55.45                             114    0.19 6  275 255 
 HEL  HZ I         6 4  1.14         1.6 0.34            116            275 255 
 GUY2CHZ EP   1    6 3 27.67                             112    0.57 5  305 235 
 GUY2CHE ES   4    6 4  3.74                             112    2.32 0  305 235 
 GUY2CHZ I         6 4  9.04         2.0 0.60                           305 235 
 PRA  HZ EP        6 3 37.27                             106    0.24 6  396 210 
 PRA  HN ES        6 4 19.22                             106    0.12 6  396 210 
 PRA  HZ I         6 4 22.94         2.0 0.56            109            396 210 
                                                                                
