 2017  413 0608 48.4 L   6.756 -73.162145.5  RSN  9 0.5 1.6LRSN                1
 GAP=136        1.32       4.8     5.3  8.2 -0.2451E+01  0.8948E+01  0.8718E+01E
 Epicentro: LOS SANTOS - SANTANDER                                             3
 ACTION:UPD 17-05-30 21:11 OP:jn   STATUS:               ID:20170413060848 L   I
 OLDACT:REG 17-04-13 12:51 OP:cog  STATUS:               ID:20170413060614     3
 2017-04-13-0608-00M.COL___368                                                 6
 STAT SP IPHASW D HRMM SECON CODA AMPLIT PERI AZIMU VELO AIN AR TRES W  DIS CAZ7
 BAR2 EZ EP        6 9  7.68                             173   -0.2010 18.2 187 
 BAR2 EZ ES        6 9 23.37                             173    0.2710 18.2 187 
 BAR2 EZ I         6 9 23.81        12.1 0.18            172           18.2 187 
 BRR  HZ EP        6 9  9.94                             152    0.3910 72.1 303 
 BRR  HN ES        6 9 26.92                             152    0.8510 72.1 303 
 BRR  HZ I         6 9 30.06         7.4 0.68            153           72.1 303 
 PAM  EZ EP        6 9 10.93                             149    0.0610 82.3  38 
 PAM  EE ES        6 9 27.78                             149   -0.6310 82.3  38 
 PAM  EZ I         6 9 30.29         8.6 0.38            152           82.3  38 
 RUS  HZ EP        6 9 11.59                             145   -0.1710 95.8 175 
 RUS  HN ES        6 9 30.04                             145    0.0310 95.8 175 
 RUS  HZ I         6 9 31.39         6.0 0.34            146           95.8 175 
 PTB  HZ EP        6 9 14.58                             132   -0.50 9  145 261 
 PTB  HE ES        6 9 34.56                             132   -1.35 9  145 261 
 PTB  HZ I         6 9 37.03         4.0 0.30            134            145 261 
 SPBC HN ES        6 9 38.61                             130    0.37 9  158 220 
 SPBC HZ I         6 9 40.73         8.2 0.34            131            158 220 
 ZAR  HN ES        6 9 46.57                             122    0.43 9  204 294 
 NOR  HZ EP        6 9 23.95                             119    0.32 8  230 235 
 NOR  HE ES        6 9 50.92                             119   -0.21 8  230 235 
 NOR  HZ I         6 9 53.20         3.5 0.30            120            230 235 
 CHI  HZ EP        6 9 26.07                             118    0.58 8  243 195 
 CHI  HN ES        6 9 54.39                             118   -0.06 8  243 195 
 CHI  HZ I         6 9 57.70         1.8 0.66            119            243 195 
                                                                                
