 2011  613 0221 28.2 L   7.490 -73.347110.3  RSN  4 0.5 1.2LRSN                1
 GAP=190        0.90      11.3    15.3 18.2 -0.1099E+03 -0.1306E+02 -0.2080E+02E
 Epicentro: EL PLAYON - SANTANDER                                              3
 ACTION:UP  11-07-14 19:04 OP:ep   STATUS:               ID:20110613022128 L   I
 2011-06-13-0218-17S.COL___132                                                 6
 STAT SP IPHASW D HRMM SECON CODA AMPLIT PERI AZIMU VELO SNR AR TRES W  DIS CAZ7
 BRR  HZ EP   2    221 44.11                             150    -0.7 5   58 224 
 BRR  HE ES   2    221 58.14                             150     0.4 5   58 224 
 BRR  HZ I         221 58.98         3.5 0.15                            58 224 
 BTL  SZ EP   1    221 45.22                             148    -0.2 7   64 172 
 GRA  SZ EP   1    221 46.62                             143     0.6 7   74  54 
 GRA  SZ ES   2    221 59.38                             143    -0.6 5   74  54 
 GRA  SZ I         222  3.23         3.1 0.22                            74  54 
 BAR2 SZ ES   2    222  4.15                             134     0.1 5  101 170 
 BAR2 SZ I         222  5.07         4.9 0.42                           101 170 
                                                                                
