 2015  213 0258  8.9 L   6.793 -73.175141.3  RSN 16 0.5 2.0LRSN                1
 GAP=133        1.21       2.9     4.2  5.9 -0.2781E+01  0.7788E+01  0.1499E+01E
 Epicentro: LOS SANTOS - SANTANDER                                             3
 ACTION:UPD 15-04-30 21:25 OP:nd   STATUS:               ID:20150213025808 L   I
 OLDACT:REG 15-02-13 15:40 OP:fm   STATUS:               ID:20150213025544     3
 2015-02-13-0255-44M.COL___302                                                 6
 STAT SP IPHASW D HRMM SECON CODA AMPLIT PERI AZIMU VELO AIN AR TRES W  DIS CAZ7
 BAR2 EZ EP        258 28.26                             171    0.3110 22.2 182 
 BAR2 EZ ES        258 42.33                             171   -0.4910 22.2 182 
 BAR2 EZ I         258 44.63        20.6 0.44            168           22.2 182 
 BRR  HZ EP        258 30.07                             153    0.6610 68.8 300 
 BRR  HN ES        258 46.86                             153    1.4410 68.8 300 
 BRR  HZ I         258 50.33        22.1 0.32            149           68.8 300 
 PAM  SZ EP     D  258 31.04                             149    0.2510 80.1  41 
 PAM  SE ES        258 47.57                             149   -0.3010 80.1  41 
 PAM  SZ I         258 50.21        25.2 0.52            154           80.1  41 
 RUS  HZ EP        258 32.45                             143    0.3010  100 174 
 RUS  HE ES        258 50.02                             143   -0.2910  100 174 
 RUS  HZ I         258 51.95        12.8 0.32            144            100 174 
 PTB  HZ EP        258 35.19                             132    0.01 9  144 259 
 PTB  HN ES        258 54.94                             132   -0.75 9  144 259 
 PTB  HZ I         258 58.36        15.9 0.46            130            144 259 
 SPBC HZ EP        258 37.22                             128    0.44 9  161 218 
 SPBC HE ES        258 58.39                             128   -0.16 9  161 218 
 SPBC HZ I         259  5.04        14.7 0.44            128            161 218 
 OCA  HZ EP        258 36.09                             128   -0.80 9  161 354 
 OCA  HN ES        258 58.27                             128   -0.46 9  161 354 
 OCA  HZ I         259  2.33        14.1 0.48            130            161 354 
 ZAR  HZ EP   1    258 40.82                             122    0.06 6  201 293 
 ZAR  HE ES        259  5.67                             122    0.05 9  201 293 
 ZAR  HZ I         259 12.92        19.8 0.32            121            201 293 
 NOR  HE ES        259 11.20                             118   -0.22 8  232 234 
 NOR  HZ I         259 21.00         6.1 0.12            118            232 234 
 SML  HZ EP        258 44.85                             117   -0.34 8  243 336 
 SML  HE ES        259 13.54                             117    0.03 8  243 336 
 SML  HZ I         259 20.62        15.7 0.24            117            243 336 
 CHI  HZ EP        258 45.99                             116   -0.17 8  247 194 
 CHI  HN ES        259 15.13                             116   -0.10 8  247 194 
 CHI  HZ I         259 22.69         3.9 0.32            117            247 194 
 GUY2CHZ EP        258 51.70                             112   -0.23 7  298 235 
 GUY2CHN ES        259 25.53                             112    0.02 7  298 235 
 GUY2CHZ I         259 34.90         3.5 0.56                           298 235 
 RREF HN ES        259 30.62                             110    0.55 7  319 229 
 RREF HZ I         259 40.25         4.7 0.38            111            319 229 
 CBOC HZ EP        258 55.71                             109    0.48 7  330 252 
 CBOC HN ES        259 30.43                             109   -0.95 7  330 252 
 CBOC HZ I         259 45.00         1.4 0.44            110            330 252 
 TOL  SE ES        259 33.78                             109   -0.09 7  341 224 
 TOL  SZ I         259 41.59         4.2 0.60            109            341 224 
 PRA  HZ EP        259  2.64                             106    0.66 6  390 209 
 PRA  HN ES        259 43.13                             106   -0.27 6  390 209 
 PRA  HZ I         259 50.82         4.5 0.42            107            390 209 
                                                                                
