 2015  513 0319 36.0 L   6.829 -73.055139.1  RSN  4 0.0 1.7LRSN                1
 GAP=192        0.28       1.3     3.0  4.1  0.1637E+01  0.3895E+01 -0.8864E+00E
 Epicentro: LOS SANTOS - SANTANDER                                             3
 ACTION:UPD 15-09-10 22:03 OP:cam  STATUS:               ID:20150513031936 L   I
 OLDACT:REG 15-05-13 13:02 OP:mh   STATUS:               ID:20150513031749     3
 2015-05-13-0317-49M.COL___279                                                 6
 STAT SP IPHASW D HRMM SECON CODA AMPLIT PERI AZIMU VELO AIN AR TRES W  DIS CAZ7
 RUS  HZ EP        319 59.39                             141    0.0210  104 182 
 RUS  HN ES        320 17.56                             141   -0.0110  104 182 
 RUS  HZ I         320 18.78         3.2 0.32            147            104 182 
 OCA  HE ES        320 25.23                             128   -0.02 9  159 349 
 OCA  HZ I         320 30.32         8.0 0.12            130            159 349 
 ZAR  HZ EP   1    320  8.87                             120   -0.05 6  212 290 
 ZAR  HN ES   1    320 34.58                             120    0.02 6  212 290 
 ZAR  HZ I         320 40.43         6.4 0.48            121            212 290 
 SML  HZ EP   2    320 12.49                             116    0.02 4  245 333 
 SML  HN ES   2    320 40.96                             116    0.08 4  245 333 
 SML  HZ I         320 47.52         6.5 0.26            118            245 333 
                                                                                
