 2014  713 0931 13.2 L   7.406 -73.216120.6  RSN  5 0.3 1.6LRSN                1
 GAP=182        0.71       2.8     3.8  6.7  0.5272E+00  0.5634E+01  0.2960E+01E
 Epicentro: EL PLAYON - SANTANDER                                              3
 ACTION:UPD 15-03-16 20:43 OP:nd   STATUS:               ID:20140713093113 L   I
 OLDACT:REG 14-07-13 14:09 OP:stll STATUS:               ID:20140713092814     3
 2014-07-13-0928-14M.COL___244                                                 6
 STAT SP IPHASW D HRMM SECON CODA AMPLIT PERI AZIMU VELO AIN AR TRES W  DIS CAZ7
 BAR2 SZ EP        931 33.54                             141    0.1510 90.0 178 
 BAR2 SZ I         931 34.03        15.9 0.24            146           90.0 178 
 BAR2 SZ ES        931 49.20                             141    0.0610 90.0 178 
 OCA  HZ EP        931 33.44                             140   -0.0510 92.8 353 
 OCA  HN ES        931 49.20                             140   -0.1110 92.8 353 
 OCA  HZ I         931 54.41         5.7 0.10            141           92.8 353 
 PTB  HZ EP        931 40.06                             122   -0.17 9  167 235 
 PTB  HN ES        932  0.82                             122   -0.48 9  167 235 
 PTB  HZ I         932  3.46         4.3 0.38            125            167 235 
 RUS  HZ EP        931 41.12                             122    0.18 9  168 175 
 ZAR  HZ EP        931 41.54                             119   -0.18 9  181 273 
 ZAR  HN ES        932  4.56                             119    0.61 9  181 273 
 ZAR  HZ I         932  7.12         3.9 0.12            122            181 273 
                                                                                
