 2015  713 0012 20.0 L   6.803 -73.160140.7  RSN 10 0.6 2.0LRSN                1
 GAP=135        1.29       3.7     5.5  7.6 -0.2717E+01  0.1592E+02 -0.7489E-01E
 Epicentro: LOS SANTOS - SANTANDER                                             3
 ACTION:UPD 15-09-08 21:48 OP:cam  STATUS:               ID:20150713001220 L   I
 OLDACT:DUP 15-07-13 18:43 OP:stll STATUS:               ID:20150713000749d    3
 2015-07-13-0007-48M.COL___337                                                 6
 STAT SP IPHASW D HRMM SECON CODA AMPLIT PERI AZIMU VELO AIN AR TRES W  DIS CAZ7
 BAR2 EZ EP        012 39.11                             170    0.0710 23.4 186 
 BAR2 EZ ES        012 53.98                             170    0.1110 23.4 186 
 BAR2 EZ I         012 56.77        18.7 0.28            164           23.4 186 
 PAM  EZ EP     C  012 41.94                             150    0.2010 78.2  41 
 PAM  EZ I         012 42.17        19.2 0.24            144           78.2  41 
 PAM  EN ES        012 59.13                             150    0.4410 78.2  41 
 RUS  HZ EP        012 43.29                             143   -0.0110  101 175 
 RUS  HN ES        013  0.75                             143   -0.7110  101 175 
 RUS  HZ I         013  2.92         4.9 0.30            133            101 175 
 CPBEREZ EP   1    012 46.00                             131   -0.44 7  146 259 
 CPBEREN ES        013  6.98                             131   -0.06 9  146 259 
 OCA  HZ EP        012 47.62                             128   -0.27 9  160 354 
 OCA  HN ES        013  9.61                             128   -0.02 9  160 354 
 OCA  HZ I         013 15.59        19.1 0.44            122            160 354 
 ZAR  HN ES        013 17.77                             121    0.88 9  202 292 
 SML  HZ EP        012 55.74                             116   -0.52 8  243 336 
 SML  HN ES        013 23.70                             116   -0.83 8  243 336 
 SML  HZ I         013 30.52        13.2 0.24            110            243 336 
 ROSC BZ EP        012 59.37                             116    1.57 8  252 211 
 ROSC BZ I         013 35.29         6.4 0.40            108            252 211 
 GUY2CHZ EP        013  3.08                             111   -0.18 7  300 235 
 GUY2CHE ES        013 36.90                             111   -0.09 7  300 235 
 GUY2CHZ I         013 45.64         3.8 0.30                           300 235 
 PRA  HZ EP        013 13.74                             106    0.44 6  391 209 
 PRA  HN ES        013 53.87                             106   -0.99 6  391 209 
 PRA  HZ I         014  0.53         3.1 0.68            100            391 209 
                                                                                
