 2016  913 0045 45.9 L   6.779 -73.127148.4  RSN 12 0.6 1.9LRSN                1
 GAP=122        1.14       4.2     4.4  6.6 -0.1724E+01  0.7479E+01  0.3568E+01E
 Epicentro: LOS SANTOS - SANTANDER                                             3
 ACTION:UPD 17-08-17 21:09 OP:lp   STATUS:               ID:20160913004545 L   I
 OLDACT:UP  16-09-13 15:55 OP:and  STATUS:               ID:20160913003730     3
 OLDACT:UP  16-09-13 15:27 OP:and  STATUS:               ID:20160913003730     3
 OLDACT:UP  16-09-13 15:24 OP:and  STATUS:               ID:20160913003730     3
 OLDACT:REG 16-09-13 11:35 OP:and  STATUS:               ID:20160913003730     3
 2016-09-13-0038-00M.COL___318                                                 6
 STAT SP IPHASW D HRMM SECON CODA AMPLIT PERI AZIMU VELO AIN AR TRES W  DIS CAZ7
 BAR2 EZ EP     D  046  5.75                             171   -0.0310 21.5 196 
 BAR2 EZ ES        046 20.65                             171   -0.6610 21.5 196 
 BAR2 EZ I         046 23.69        14.2 0.22            170           21.5 196 
 BRR  HZ IP     D  046  7.55                             152    0.0810 74.1 299 
 BRR  HE ES        046 24.89                             152    0.5710 74.1 299 
 PAM  EZ IP        046  8.76                             151    0.3610 78.0  37 
 PAM  EE ES        046 25.95                             151   -0.0210 78.0  37 
 PAM  EZ I         046 28.35        16.7 0.31            153           78.0  37 
 RUS  HZ EP        046  9.70                             145   -0.0110 98.1 177 
 RUS  HN ES        046 28.65                             145    0.3510 98.1 177 
 RUS  HZ I         046 32.03         3.9 0.42            145           98.1 177 
 PTB  HZ EP        046 12.54                             132   -0.65 9  149 260 
 PTB  HE ES        046 34.27                             132   -0.24 9  149 260 
 PTB  HZ I         046 35.57         5.9 0.14            131            149 260 
 SPBC HZ EP        046 14.72                             130    0.20 9  163 220 
 SPBC HN ES        046 36.85                             130   -0.02 9  163 220 
 SPBC HZ I         046 39.98        12.8 0.10            129            163 220 
 ZAR  HZ EP   2    046 21.10                             123    2.33 4  207 293 
 ZAR  HN ES        046 44.24                             123   -0.20 8  207 293 
 ZAR  HZ I         046 54.46         7.8 0.11            122            207 293 
 NOR  HZ EP   2    046 22.76                             119    0.97 4  235 235 
 NOR  HE ES        046 50.54                             119    0.74 8  235 235 
 NOR  HZ I         046 57.27         5.4 0.21            118            235 235 
 CHI  HZ EP   2    046 22.79                             118   -0.74 4  247 196 
 CHI  HE ES   2    046 53.35                             118    0.45 4  247 196 
 CHI  HZ I         046 56.83         5.7 0.29            118            247 196 
 URE  HZ EP        046 26.47                             114   -0.91 7  287 292 
 URE  HN ES   4    046 57.38                             114   -2.37 0  287 292 
 URE  HZ I         047 10.33         6.9 0.16            113            287 292 
 GUY2CHZ EP   4    046 32.00                             113    2.36 0  302 235 
 GUY2CHE ES        047  3.26                             113   -0.51 7  302 235 
 PTGC HZ EP   2    046 29.00                             112   -0.51 4  306 159 
 PTGC HN ES   2    047  2.91                             112   -0.64 4  306 159 
 PTGC HZ I         047  8.12        11.1 0.41            113            306 159 
                                                                                
