 2017  213 0452 15.2 L   6.818 -73.059142.0  RSN  5 0.4 0.9LRSN                1
 GAP=147        1.13       5.9     8.0  8.6 -0.3270E+01 -0.1657E+02  0.1952E+01E
 Epicentro: LOS SANTOS - SANTANDER                                             3
 ACTION:UPD 17-05-24 15:35 OP:jn   STATUS:               ID:20170213045215 L   I
 OLDACT:UP  17-02-13 17:07 OP:edw  STATUS:               ID:20170213044747d    3
 OLDACT:UP  17-02-13 17:06 OP:edw  STATUS:               ID:20170213044747d    3
 OLDACT:UP  17-02-13 17:03 OP:edw  STATUS:               ID:20170213044747d    3
 OLDACT:DUP 17-02-13 16:59 OP:edw  STATUS:               ID:20170213044747d    3
 OLDACT:UP  17-02-13 16:56 OP:edw  STATUS:               ID:20170213044746d    3
 OLDACT:DUP 17-02-13 16:52 OP:edw  STATUS:               ID:20170213044746d    3
 2017-02-13-0448-00M.COL___352                                                 6
 STAT SP IPHASW D HRMM SECON CODA AMPLIT PERI AZIMU VELO AIN AR TRES W  DIS CAZ7
 BAR2 EZ EP        452 34.09                             168   -0.3710 28.4 209 
 BAR2 EZ ES        452 49.59                             168    0.0810 28.4 209 
 BAR2 EZ I         452 51.01         3.1 0.26            171           28.4 209 
 PAM  EZ EP     D  452 37.35                             152    0.8010 70.0  35 
 PAM  EE ES        452 52.79                             152   -0.4410 70.0  35 
 PAM  EZ I         452 56.37         0.9 0.48            153           70.0  35 
 BRR  HZ EP        452 36.40                             149    0.0210 78.9 294 
 BRR  HN ES        452 52.88                             149   -0.0310 78.9 294 
 BRR  HZ I         452 55.84         2.7 0.32            152           78.9 294 
 RUS  HZ EP        452 38.27                             142   -0.4110  102 181 
 RUS  HN ES        452 57.38                             142    0.3610  102 181 
 RUS  HZ I         452 58.31         1.3 0.32            146            102 181 
 PTB  HZ EP   9    452 41.85                             129   -0.90 0  158 259 
 PTB  HN ES        453  2.71                             127   -0.64 9  158 259 
 PTB  HZ I         453  3.71         0.7 0.30            132            158 259 
 ZAR  HN ES   4    453 12.92                             120   -1.09 0  212 291 
 NOR  HN ES   4    453 23.57                             116    3.45 0  244 235 
                                                                                
