 2013  613 0318  5.4 L   6.753 -73.174152.4  RSN  7 0.3 1.9LRSN                1
 GAP=177        0.62       3.1     4.2  4.6  0.3733E+01  0.1141E+01 -0.1336E+01E
 Epicentro: VILLANUEVA - SANTANDER                                             3
 ACTION:UPD 14-01-08 09:54 OP:ep   STATUS:               ID:20130613031805 L   I
 OLDACT:REG 13-06-13 07:38 OP:cam  STATUS:               ID:20130613030959     3
 2013-06-13-0309-59M.COL___260                                                 6
 STAT SP IPHASW D HRMM SECON CODA AMPLIT PERI AZIMU VELO AIN AR TRES W  DIS CAZ7
 BAR2 SZ EP        318 25.58                             173   -0.1510 17.8 183 
 BAR2 SZ ES   1    318 41.43                             173   -0.16 7 17.8 183 
 BAR2 SZ I         318 42.34        16.8 0.18            173           17.8 183 
 GIR2 SZ ES   1    318 41.54                             166   -0.52 7 36.1 357 
 BRR  HZ IP     C  318 27.36                             154    0.0910 71.2 303 
 BRR  HE ES        318 44.70                             154    0.3710 71.2 303 
 BRR  HZ I         318 47.71        17.1 0.26            150           71.2 303 
 RUS  HZ EP        318 29.56                             147    0.0910 95.7 174 
 RUS  HN ES        318 48.53                             147    0.2810 95.7 174 
 RUS  HZ I         318 49.29         4.6 0.36            149           95.7 174 
 PTB  HZ EP        318 32.30                             134   -0.27 9  144 261 
 PTB  HN ES        318 53.55                             134   -0.21 9  144 261 
 PTB  HZ I         318 58.33         9.6 0.40            133            144 261 
 OCA  HZ EP   2    318 34.63                             130   -0.05 5  165 354 
 OCA  HN ES   2    318 57.34                             130   -0.18 5  165 354 
 SML  HZ EP   2    318 42.69                             118   -0.09 4  247 336 
 SML  HN ES   1    319 12.46                             118    0.52 6  247 336 
 SML  HZ I         319 17.65         8.6 0.24            119            247 336 
                                                                                
