 2011  613 0332 33.5 L   6.763 -73.060139.1  RSN  8 0.3 1.8LRSN                1
 GAP=166        0.63       4.7     8.7  6.4 -0.9455E+01 -0.1194E+02 -0.7849E+01E
 Epicentro: LOS SANTOS - SANTANDER                                             3
 ACTION:UP  11-07-14 19:04 OP:ep   STATUS:               ID:20110613033230 L   I
 2011-06-13-0329-18S.COL___132                                                 6
 STAT SP IPHASW D HRMM SECON CODA AMPLIT PERI AZIMU VELO SNR AR TRES W  DIS CAZ7
 BAR2 SZ EP   2    332 52.18                             170    -0.2 5   23 216 
 BAR2 SZ ES   2    333  6.65                             170    -0.4 5   23 216 
 BAR2 SZ I         333  8.52        13.7 0.24                            23 216 
 BTL  SZ EP   1    332 52.62                             168     0.1 8   29 307 
 BTL  SZ ES   2    333  7.72                             168     0.5 5   29 307 
 GIR2 SZ EP   2    332 52.60                             164     0.0 5   38 337 
 GIR2 SZ ES   2    333  6.93                             164    -0.6 5   38 337 
 BRR  HZ EP   1    332 54.49                             148    -0.1 8   82 298 
 BRR  HZ I         332 54.86        13.7 0.13                            82 298 
 BRR  HN ES   2    333 11.43                             148     0.4 5   82 298 
 RUS  HN ES   2    333 14.00                             144    -0.1 5   96 182 
 RUS  HZ I         333 16.09         5.2 0.78                            96 182 
 BRI  SZ EP   1    332 57.16                             140     0.3 8  109  15 
 BRI  SZ I         332 57.85         7.0 0.08                           109  15 
 BRI  SZ ES   2    333 15.52                             140     0.5 5  109  15 
 GRA  SZ IP        332 58.47                             135     0.210  127  13 
 GRA  SZ I         332 59.82        11.5 0.17                           127  13 
 GRA  SZ ES   2    333 17.11                             135    -0.5 5  127  13 
 OCA  SZ EP   1    333  1.38                             127    -0.5 7  166 350 
 OCA  SZ ES   2    333 23.78                             127    -0.2 5  166 350 
 OCA  SZ I         333 26.99        11.3 0.54                           166 350 
                                                                                
