 2015  613 0836 48.8 L   6.838 -73.132144.1  RSN 13 0.5 2.0LRSN                1
 GAP=185        1.15       3.1     5.0  6.0 -0.2004E+01  0.9888E+01 -0.7880E+00E
 Epicentro: LOS SANTOS - SANTANDER                                             3
 ACTION:UPD 15-09-10 22:12 OP:cam  STATUS:               ID:20150613083648 L   I
 OLDACT:REG 15-06-13 13:08 OP:stll STATUS:               ID:20150613082750     3
 2015-06-13-0827-50M.COL___312                                                 6
 STAT SP IPHASW D HRMM SECON CODA AMPLIT PERI AZIMU VELO AIN AR TRES W  DIS CAZ7
 BAR2 EZ IP     D  837  8.43                             169    0.0910 27.8 192 
 BAR2 EZ ES        837 23.44                             169   -0.1410 27.8 192 
 BAR2 EZ I         837 24.50        20.2 0.24            165           27.8 192 
 BRR  HZ IP        837 10.27                             152    0.5210 70.6 295 
 BRR  HE ES        837 26.04                             152   -0.0410 70.6 295 
 RUS  HZ EP        837 12.75                             142    0.0510  105 177 
 RUS  HZ I         837 13.27         5.5 0.12            144            105 177 
 RUS  HN ES        837 30.97                             142   -0.3710  105 177 
 OCA  HZ EP        837 16.86                             130    0.25 9  156 352 
 OCA  HN ES        837 38.87                             130    0.57 9  156 352 
 OCA  HZ I         837 42.80        23.1 0.20            130            156 352 
 SPBC HZ EP        837 17.47                             128   -0.12 9  167 218 
 SPBC HN ES        837 40.09                             128    0.05 9  167 218 
 SPBC HZ I         837 45.60        14.3 0.34            127            167 218 
 ZAR  HZ EP        837 21.15                             122    0.02 9  204 291 
 ZAR  HN ES        837 46.40                             122    0.06 9  204 291 
 ZAR  HZ I         837 53.53         8.4 0.46            121            204 291 
 NOR  HZ EP        837 24.58                             118   -0.26 8  238 234 
 NOR  HN ES        837 52.53                             118   -0.42 8  238 234 
 NOR  HZ I         837 58.54         6.7 0.16            117            238 234 
 SML  HZ EP        837 24.82                             117   -0.17 8  241 335 
 SML  HE ES        837 52.24                             117   -0.98 8  241 335 
 SML  HZ I         837 58.26        18.5 0.10            117            241 335 
 HEL  HZ EP        837 30.76                             114    1.54 8  275 255 
 HEL  HE ES        838  0.51                             114   -0.23 8  275 255 
 HEL  HZ I         838  9.27         6.0 0.40            114            275 255 
 GUY2CHZ EP        837 33.23                             112    0.47 7  305 234 
 GUY2CHE ES        838  7.43                             112    0.39 7  305 234 
 GUY2CHZ I         838 15.08         5.2 0.48                           305 234 
 CBOC HZ EP        837 36.24                             109    0.27 7  336 251 
 CBOC HN ES        838 12.64                             109   -0.12 7  336 251 
 CBOC HZ I         838 24.42         1.4 0.38            109            336 251 
 PRA  HZ EP        837 41.81                             106   -0.98 6  396 209 
 PRA  HN ES        838 24.88                             106   -0.02 6  396 209 
 PRA  HZ I         838 32.97         2.4 0.58            107            396 209 
 SJC  HZ EP        837 42.30                             105   -1.70 6  407 326 
 SJC  HN ES   4    838 23.72                             105   -3.32 0  407 326 
 SJC  HZ I         838 27.88         3.8 0.60            106            407 326 
                                                                                
