 2012 1013 0444 53.9 L   6.827 -73.122145.2  RSN 11 0.4 2.1LRSN                1
 GAP=115        0.77       3.5     3.8  5.4  0.2871E+01  0.7032E+01  0.5192E+01E
 Epicentro: LOS SANTOS - SANTANDER                                             3
 ACTION:UPD 12-11-22 17:03 OP:ep   STATUS:               ID:20121013044453 L   I
 2012-10-13-0440-00M.COL___231                                                 6
 STAT SP IPHASW D HRMM SECON CODA AMPLIT PERI AZIMU VELO AIN AR TRES W  DIS CAZ7
 BAR2 SZ EP   1    445 13.41                             169   -0.07 7 26.8 194 
 BAR2 SZ ES   1    445 28.37                             169   -0.43 7 26.8 194 
 BAR2 SZ I         445 30.06        45.7 0.15                          26.8 194 
 GIR2 SZ EP   1    445 13.36                             168   -0.03 7 29.0 344 
 GIR2 SZ ES   1    445 28.63                             168    0.00 7 29.0 344 
 BRR  HZ EP   1    445 15.15                             152    0.16 7 72.2 295 
 BRR  HZ I         445 15.41        36.2 0.13                          72.2 295 
 BRR  HE ES   1    445 32.08                             152    0.60 7 72.2 295 
 PAM  SZ EP   1    445 16.29                             152    0.52 7 73.4  39 
 PAM  SZ I         445 16.52        25.4 0.18                          73.4  39 
 PAM  SN ES   1    445 32.97                             152    0.10 7 73.4  39 
 RUS  HZ EP   1    445 17.49                             143   -0.26 7  103 178 
 RUS  HZ I         445 18.18        13.4 0.10                           103 178 
 RUS  HN ES   1    445 35.45                             143   -0.93 7  103 178 
 YOP  SZ EP   1    445 24.02                             126    0.02 7  180 154 
 YOP  SN ES   1    445 48.06                             126    0.55 7  180 154 
 ZAR  HZ EP   1    445 26.24                             122   -0.16 6  205 291 
 ZAR  HE ES   1    445 51.64                             122   -0.14 6  205 291 
 NOR  SN ES   1    445 58.40                             118    0.28 6  239 234 
 CHI  HZ EP   1    445 31.80                             117   -0.10 6  252 196 
 CHI  HZ I         445 32.98         5.2 0.21                           252 196 
 CHI  HN ES   1    446  2.10                             117    0.52 6  252 196 
 HEL  HZ EP   1    445 34.41                             114    0.02 6  275 255 
 HEL  HZ I         445 37.85         3.7 0.26                           275 255 
 HEL  HN ES   1    446  6.27                             114    0.25 6  275 255 
 HEL  HN I         446 12.66        13.5 0.54                           275 255 
 URE  HZ EP   1    445 34.14                             113   -0.90 6  285 291 
                                                                                
