 2016 1213 0309 50.1 L   6.801 -73.108143.8  RSN 17 0.6 2.2LRSN                1
 GAP=100        1.12       3.7     3.2  6.1 -0.1143E+01  0.5748E+01  0.7008E+01E
 Epicentro: LOS SANTOS - SANTANDER                                             3
 ACTION:UPD 17-01-11 20:14 OP:rebc STATUS:               ID:20161213030950 L   I
 OLDACT:UP  16-12-13 14:58 OP:e    STATUS:               ID:20161213030744     3
 OLDACT:UP  16-12-13 14:55 OP:e    STATUS:               ID:20161213030744     3
 OLDACT:REG 16-12-13 12:45 OP:y    STATUS:               ID:20161213030744     3
 2016-12-13-0308-00M.COL___377                                                 6
 STAT SP IPHASW D HRMM SECON CODA AMPLIT PERI AZIMU VELO AIN AR TRES W  DIS CAZ7
 BAR2 EZ EP        310  9.20                             170   -0.3110 24.5 200 
 BAR2 EZ I         310 25.22        37.5 0.34            169           24.5 200 
 PAM  EZ EP        310 11.99                             151    0.0510 74.7  37 
 PAM  EN ES        310 28.85                             151   -0.1310 74.7  37 
 PAM  EZ I         310 31.20        36.5 0.54            153           74.7  37 
 BRR  HZ EP        310 11.09                             151   -0.1510 74.9 297 
 BRR  HE ES        310 28.06                             151    0.3310 74.9 297 
 BRR  HZ I         310 34.16        18.6 0.14            149           74.9 297 
 RUS  HZ EP        310 13.18                             143   -0.4610  100 178 
 RUS  HN ES        310 31.37                             143   -0.6410  100 178 
 RUS  HZ I         310 32.81        22.0 0.32            145            100 178 
 TAM  HZ IP     D  310 17.51                             131    0.27 9  151 105 
 TAM  HN ES        310 39.11                             131    0.70 9  151 105 
 PTB  HZ EP   9    310 15.93                             131   -1.35 0  152 259 
 PTB  HN ES        310 36.98                                   -0.16 9  152 259 
 PTB  HZ I         310 39.38        14.0 0.22            130            152 259 
 ZAR  HZ EP        310 23.25                             121    0.44 8  208 292 
 ZAR  HN ES        310 48.09                             121   -0.23 8  208 292 
 ZAR  HZ I         310 53.71        15.6 0.13            121            208 292 
 NOR  HZ EP        310 25.65                             118   -0.43 8  238 235 
 NOR  HE ES        310 54.35                             118    0.20 8  238 235 
 NOR  HZ I         310 55.09        13.4 0.21            118            238 235 
 CHI  HZ EP        310 27.94                             117    0.13 8  250 196 
 CHI  HN ES        310 56.91                             117   -0.33 8  250 196 
 CHI  HZ I         311  4.02         7.1 0.52            118            250 196 
 URE  HZ EP   3    310 30.15                             113   -1.35 2  288 292 
 URE  HN ES   4    311  1.47                             113   -2.32 0  288 292 
 URE  HZ I         311  9.74         7.7 0.20            113            288 292 
 GUY2CHZ EP        310 33.62                             112   -0.38 7  305 235 
 GUY2CHN ES        311  9.28                             112    1.03 7  305 235 
 GUY2CHZ I         311 15.52         7.7 0.30                           305 235 
 PTGC HZ EP   9    310 32.33                             111   -1.37 0  307 159 
 PTGC HN ES        311  5.71                                   -0.63 7  307 159 
 ELA  HN ES        311 14.98                             110    0.98 7  332 230 
 ELA  HZ I         311 20.99         5.4 0.35            110            332 230 
 CBOC HZ EP        310 37.96                             109    0.58 7  338 252 
 CBOC HN ES        311 13.89                             109   -0.38 7  338 252 
 CBOC HZ I         311 25.63         2.3 0.44            110            338 252 
 PRA  HZ EP        310 43.65                             106   -0.15 6  394 210 
 PRA  HN ES        311 25.36                             106   -0.33 6  394 210 
 PRA  HZ I         311 31.20         9.2 0.40            107            394 210 
 ORTC HZ EP        310 44.38                             106    0.14 6  398 217 
 ORTC HN ES        311 27.96                             106    1.48 6  398 217 
 ORTC HZ I         311 30.60         5.1 0.40            107            398 217 
 PAL  HZ EP        310 45.22                             105   -0.39 6  409 239 
 PAL  HN ES        311 27.44                             105   -1.48 6  409 239 
 PAL  HZ I         311 38.20         2.8 0.30            106            409 239 
                                                                                
