 2013  413 0011 33.0 L   6.778 -73.119146.7  RSN  9 0.4 2.1LRSN                1
 GAP= 73        1.12       4.4     4.1  7.1  0.3744E+00 -0.2962E+01 -0.1400E+01E
 Epicentro: LOS SANTOS - SANTANDER                                             3
 ACTION:UPD 13-05-22 14:37 OP:EP   STATUS:               ID:20130413001133 L   I
 2013-04-13-0008-41M.COL___215                                                 6
 STAT SP IPHASW D HRMM SECON CODA AMPLIT PERI AZIMU VELO AIN AR TRES W  DIS CAZ7
 BAR2 SZ EP        011 52.77                             171    0.0710 21.7 199 
 BAR2 SZ ES        012  8.47                             171    0.3910 21.7 199 
 BAR2 SZ I         012  9.22        36.5 0.18            169           21.7 199 
 GIR2 SZ EP   1    011 52.87                             166    0.01 7 34.3 346 
 BRR  HZ EP        011 54.68                             151    0.2310 75.0 299 
 BRR  HN ES        012 11.64                             151    0.4410 75.0 299 
 BRR  HN I         012 11.86        27.8 0.30            150           75.0 299 
 PAM  SZ EP        011 55.57                             151    0.2610 77.5  37 
 PAM  SN ES        012 12.44                             151   -0.2810 77.5  37 
 RUS  HZ EP        011 56.72                             145    0.0810 98.0 178 
 RUS  HZ I         011 57.64         6.7 0.46            144           98.0 178 
 RUS  HN ES        012 15.33                             145    0.2310 98.0 178 
 CAPV BZ EP        012  0.70                             132    0.23 9  149  36 
 PTB  HZ EP        011 59.78                             132   -0.47 9  150 260 
 PTB  HN ES        012 20.77                             132   -0.75 9  150 260 
 PTB  HN I         012 25.85        20.9 0.50            131            150 260 
 TAM  HZ EP        012  1.00                             131    0.58 9  152 104 
 TAM  HN ES        012 20.81                             131   -1.01 9  152 104 
 OCA  HN ES        012 23.75                             129   -0.23 9  163 352 
                                                                                
