 2010 1113 0047 35.1 L   7.028 -73.080125.7  RSN  8 0.5 2.3LRSN                1
 GAP=191        1.05       4.6     8.2  6.8 -0.1918E+01  0.1026E+02  0.2513E+01E
 Epicentro: FLORIDABLANCA - SANTANDER                                          3
 ACTION:UP  10-12-17 16:52 OP:REBC STATUS:               ID:20101113004735 L   I
 2010-11-13-0046-00S.COL___124                                                 6
 STAT SP IPHASW D HRMM SECON CODA AMPLIT PERI AZIMU VELO SNR AR TRES W  DIS CAZ7
 BAR2 SZ IP        047 53.70                             157     0.410   50 193 
 BAR2 SZ ES        048  7.74                             157     0.310   50 193 
 BAR2 SZ I         048  9.71       149.2 0.63                            50 193 
 BRR  HZ EP        047 53.94                             149    -0.210   70 277 
 BRR  HN ES        048  8.93                             149     0.010   70 277 
 BRR  HZ I         048 12.57        56.9 0.00                            70 277 
 RUS  HZ EP   1    047 59.28                             132     0.2 7  126 180 
 RUS  HN ES   1    048 16.79                             132    -1.0 7  126 180 
 RUS  HZ I         048 19.43         7.4 1.27                           126 180 
 OCA  SZ EP        047 59.72                             129     0.1 9  136 349 
 OCA  SZ ES   2    048 17.81                             129    -1.0 5  136 349 
 OCA  SZ I         048 23.66        18.1 0.02                           136 349 
 NOR  SZ EP   1    048 11.53                             112    -0.6 6  256 231 
 NOR  SN ES   2    048 40.26                             112    -0.8 4  256 231 
 NOR  SZ I         048 44.00         2.3 0.07                           256 231 
 HEL  HZ EP   1    048 16.15                             109     0.1 6  286 251 
 HEL  HZ I         048 51.23        10.0 1.08                           286 251 
 RREF HZ EP        048 23.52                             105     0.4 7  344 227 
 RREF HN ES   1    049  1.10                             105     0.6 5  344 227 
 RREF HZ I         049  5.71        10.8 1.21                           344 227 
 PRA  HZ EP   1    048 30.88                             102    -0.2 4  418 209 
 PRA  HN ES        049 14.52                             102    -0.2 5  418 209 
 PRA  HZ I         049 20.04        27.4 0.35                           418 209 
                                                                                
