 2017  113 0759 18.6 L   6.770 -73.163134.0  RSN  7 0.3 1.3LRSN                1
 GAP=136        0.70       3.3     3.0  4.8  0.9538E+00  0.3943E+01 -0.7284E+00E
 Epicentro: LOS SANTOS - SANTANDER                                             3
 ACTION:UPD 17-05-22 15:59 OP:jn   STATUS:               ID:20170113075918 L   I
 OLDACT:DUP 17-01-13 17:27 OP:cara STATUS:               ID:20170113075744d    3
 2017-01-13-0758-00M.COL___326                                                 6
 STAT SP IPHASW D HRMM SECON CODA AMPLIT PERI AZIMU VELO AIN AR TRES W  DIS CAZ7
 BAR2 EZ EP        759 36.56                             171   -0.1410 19.7 186 
 BAR2 EZ ES        759 51.40                             171    0.5510 19.7 186 
 BAR2 EZ I         759 55.92         4.6 0.48            172           19.7 186 
 BRR  HZ EP        759 38.76                             150    0.3110 71.3 302 
 BRR  HN ES        759 53.56                             150   -0.4010 71.3 302 
 BRR  HZ I         8 0  1.97         3.2 0.18            150           71.3 302 
 PAM  EZ EP        759 39.82                             147    0.0410 81.2  39 
 PAM  EE ES        759 56.15                             147   -0.1810 81.2  39 
 PAM  EZ I         759 58.70         6.0 0.58            152           81.2  39 
 RUS  HZ EP        759 40.77                             142   -0.1610 97.4 175 
 RUS  HN ES        759 58.32                             142   -0.0510 97.4 175 
 RUS  HZ I         8 0  0.17         1.8 0.32            149           97.4 175 
 PTB  HZ EP        759 44.17                             130   -0.19 9  145 260 
 PTB  HN ES        8 0  4.34                             130   -0.14 9  145 260 
 PTB  HZ I         8 0  8.12         2.0 0.52            133            145 260 
 ZAR  HZ EP        759 50.50                             120    0.28 9  204 293 
 ZAR  HN ES        8 0 15.07                             120    0.16 9  204 293 
 ZAR  HZ I         8 0 21.58         3.4 0.44            123            204 293 
 GUY2CHZ EP   4    8 0  2.60                             110    1.35 0  298 235 
 GUY2CHN ES   4    8 0 32.76                             110   -1.79 0  298 235 
 GUY2CHZ I         8 0 41.71         1.1 0.30                           298 235 
                                                                                
