 2011 1213 0821 17.5 L   6.796 -73.110142.0  RSN  6 0.2 1.7LRSN                1
 GAP=141        0.49       3.2     4.6  5.0 -0.2921E+01 -0.2639E+00  0.7263E+01E
 Epicentro: LOS SANTOS - SANTANDER                                             3
 ACTION:UPD 12-07-13 16:15 OP:ep   STATUS:               ID:20111213082117 L   I
 2011-12-13-0820-00M.COL___185                                                 6
 STAT SP IPHASW D HRMM SECON CODA AMPLIT PERI AZIMU VELO AIN AR TRES W  DIS CAZ7
 BAR2 SZ EP        821 36.63                             170   -0.1010 23.9 200 
 BAR2 SZ ES   2    821 51.07                             170   -0.63 5 23.9 200 
 BAR2 SZ I         821 52.47        12.8 0.35                          23.9 200 
 BRR  HZ EP        821 38.31                             151   -0.1910 74.9 297 
 BRR  HN ES   1    821 55.16                             151    0.31 7 74.9 297 
 BRR  HZ I         821 56.10        15.6 0.11                          74.9 297 
 PAM  SZ EP        821 39.37                             151    0.1310 75.3  37 
 PAM  SN ES   1    821 56.21                             151    0.06 7 75.3  37 
 RUS  HZ EP        821 40.78                             143   -0.1010 99.9 178 
 RUS  HE ES   2    821 59.59                             143    0.52 5 99.9 178 
 RUS  HZ I         822  1.24         6.0 0.25                          99.9 178 
 CTAU SZ EP   1    821 50.50                             122    0.07 6  204 210 
 CHI  HZ EP   1    821 55.16                             116    0.06 6  249 196 
 CHI  HN ES   2    822 24.57                             116    0.18 4  249 196 
 CHI  HZ I         822 27.84         3.4 0.36                           249 196 
                                                                                
