 2011  313 0301 10.5 L   6.809 -73.416137.6  RSN  4 0.3 1.8LRSN                1
 GAP=204        0.66       3.3    16.4  8.6 -0.4266E+01  0.6849E+02 -0.9804E+01E
 Epicentro: SAN VICENTE DE CHUCURI - SANTANDER                                 3
 ACTION:UP  11-06-16 14:33 OP:jfem STATUS:               ID:20110313030110 L   I
 2011-03-13-0300-14S.COL___134                                                 6
 STAT SP IPHASW D HRMM SECON CODA AMPLIT PERI AZIMU VELO SNR AR TRES W  DIS CAZ7
 BAR2 SZ EP   1    3 1 29.63                             165     0.2 8   35 133 
 BAR2 SZ ES   1    3 1 44.18                             165     0.0 8   35 133 
 BAR2 SZ I         3 1 45.81        20.1 0.17                            35 133 
 RUS  HZ EP   1    3 1 34.05                             140     0.1 8  108 160 
 RUS  HN ES   1    3 1 52.25                             140    -0.1 8  108 160 
 RUS  HZ I         3 1 53.45         5.2 0.29                           108 160 
 GRA  SZ EP   1    3 1 36.37                             132     0.4 8  137  30 
 GRA  SZ ES   1    3 1 55.62                             132    -0.2 8  137  30 
 GRA  SZ I         3 1 58.36         8.1 0.34                           137  30 
 OCA  SZ EP        3 1 37.61                             128    -0.410  158   4 
 OCA  SZ ES   1    3 1 59.74                             128     0.3 7  158   4 
 OCA  SZ I         3 2  2.67        14.0 0.16                           158   4 
                                                                                
