 2015  913 0211 25.6 L   6.774 -73.142142.3  RSN  5 0.4 1.7LRSN                1
 GAP=252        1.01       6.1     6.7  7.4  0.6848E+01  0.1053E+02  0.1650E+01E
 Epicentro: LOS SANTOS - SANTANDER                                             3
 ACTION:UPD 15-10-28 16:25 OP:cam  STATUS:               ID:20150913021125 L   I
 OLDACT:REG 15-09-13 12:23 OP:drio STATUS:               ID:20150913020749     3
 2015-09-13-0207-49M.COL___323                                                 6
 STAT SP IPHASW D HRMM SECON CODA AMPLIT PERI AZIMU VELO AIN AR TRES W  DIS CAZ7
 BAR2 EZ EP        211 44.85                             171    0.0810 20.6 193 
 BAR2 EZ ES        211 59.12                             171   -0.5910 20.6 193 
 BAR2 EZ I         212  2.11         6.1 0.20            166           20.6 193 
 BRR  HZ EP        211 46.74                             151    0.2510 73.0 300 
 BRR  HN ES        212  3.44                             151    0.6710 73.0 300 
 PTB  HZ EP        211 51.83                             131   -0.46 9  148 260 
 PTB  HN ES        212 12.71                             131   -0.39 9  148 260 
 PTB  HZ I         212 16.02         4.9 0.26            130            148 260 
 SPBC HZ EP        211 53.88                             129    0.22 9  161 220 
 SPBC HN ES        212 15.98                             129    0.44 9  161 220 
 SPBC HZ I         212 22.01         8.1 0.22            127            161 220 
 ZAR  HZ EP        211 57.85                             121   -0.14 8  206 293 
 ZAR  HN ES        212 23.08                             121   -0.16 8  206 293 
 ZAR  HZ I         212 28.57         7.4 0.36            122            206 293 
                                                                                
