 2013  113 0601 27.0 L   6.859 -73.123144.0  RSN  6 0.4 2.1LRSN                1
 GAP=186        1.05       4.8     6.4  8.7  0.9267E+01  0.9852E+01 -0.1210E+01E
 Epicentro: LOS SANTOS - SANTANDER                                             3
 ACTION:UPD 13-02-15 09:13 OP:ep   STATUS:               ID:20130113060127 L   I
 2013-01-13-0600-00M.COL___241                                                 6
 STAT SP IPHASW D HRMM SECON CODA AMPLIT PERI AZIMU VELO AIN AR TRES W  DIS CAZ7
 BAR2 SZ ES        6 2  1.60                             168   -0.2610 30.3 192 
 BAR2 SZ I         6 2  4.96        12.1 0.40            169           30.3 192 
 BRR  HZ EP        6 1 48.43                             152    0.4910 70.6 293 
 BRR  HN ES        6 2  4.58                             152    0.3210 70.6 293 
 BRR  HN I         6 2  5.58        21.8 0.26            151           70.6 293 
 RUS  HZ EP        6 1 51.31                             142    0.2410  107 178 
 RUS  HE ES        6 2  9.96                             142    0.1310  107 178 
 PTB  HZ EP        6 1 53.50                             131   -0.69 9  152 257 
 PTB  HN ES        6 2 14.95                             131   -0.44 9  152 257 
 PTB  HN I         6 2 18.53        12.9 0.20            131            152 257 
 OCA  HN ES        6 2 15.74                             130   -0.39 9  154 352 
 OCA  HN I         6 2 19.61        23.1 0.36            131            154 352 
 ZAR  HE ES        6 2 25.09                             122    0.54 9  204 290 
 ZAR  HE I         6 2 29.93        17.1 0.34            122            204 290 
                                                                                
