 2016 1113 0353 49.3 L   6.804 -73.136140.1  RSN 15 0.4 2.2LRSN                1
 GAP=101        0.85       3.3     2.8  6.0 -0.3897E-01  0.5419E+01  0.7153E+01E
 Epicentro: LOS SANTOS - SANTANDER                                             3
 ACTION:UPD 17-10-26 21:07 OP:lp   STATUS:               ID:20161113035349 L   I
 OLDACT:UP  16-11-13 16:21 OP:and  STATUS:               ID:20161113034748     3
 OLDACT:REG 16-11-13 12:50 OP:and  STATUS:               ID:20161113034748     3
 2016-11-13-0348-00M.COL___340                                                 6
 STAT SP IPHASW D HRMM SECON CODA AMPLIT PERI AZIMU VELO AIN AR TRES W  DIS CAZ7
 BAR2 EZ IP     C  354  7.91                             170   -0.3410 24.0 192 
 BAR2 EZ I         354 25.12        55.7 0.27            167           24.0 192 
 BRR  HZ IP        354  9.85                             151   -0.0210 71.9 298 
 BRR  HN ES   2    354 26.48                             151    0.56 5 71.9 298 
 BRR  HZ I         354 27.71        44.9 0.18            152           71.9 298 
 PAM  EZ IP     C  354 10.77                             150   -0.0710 76.3  39 
 PAM  EN ES        354 27.73                             150    0.0810 76.3  39 
 PAM  EZ I         354 32.55        16.0 0.23            157           76.3  39 
 PTB  HZ EP   9    354 14.90                             130   -1.01 0  149 259 
 PTB  HN ES        354 35.53                                   -0.13 9  149 259 
 PTB  HZ I         354 40.15        28.0 0.12            132            149 259 
 TAM  HZ IP     C  354 16.33                             129   -0.10 9  154 105 
 TAM  HN ES        354 37.75                             129    0.14 9  154 105 
 TAM  HZ I         354 38.27        18.4 0.22            135            154 105 
 ZAR  HZ EP        354 21.06                             121   -0.40 9  205 292 
 ZAR  HN ES        354 46.91                             121    0.36 9  205 292 
 ZAR  HZ I         354 54.12        25.0 0.25            124            205 292 
 NOR  HZ EP        354 24.59                             117   -0.23 8  236 235 
 NOR  HN ES        354 51.99                             117   -0.54 8  236 235 
 NOR  HZ I         354 57.77        15.1 0.24            119            236 235 
 CHI  HZ EP        354 27.34                             116    0.58 8  249 195 
 CHI  HN ES        354 55.47                             116   -0.52 8  249 195 
 CHI  HZ I         355  4.99         7.0 0.50            118            249 195 
 ROSC BZ EP        354 27.84                             115    0.63 8  254 211 
 ROSC BN ES   4    354 59.81                             115    3.02 0  254 211 
 ROSC BZ I         355  4.34        11.9 0.35            118            254 211 
 URE  HZ EP        354 29.70                             112   -0.48 7  285 292 
 URE  HN ES   4    355  0.48                             112   -1.60 0  285 292 
 URE  HZ I         355 12.30        17.1 0.18            115            285 292 
 PTGC HZ EP   9    354 31.26                             110   -1.64 0  309 159 
 PTGC HN ES        355  4.75                                   -0.53 7  309 159 
 PTGC HZ I         355 10.61         6.3 0.22            113            309 159 
 ELA  HZ EP   4    354 37.66                             109    1.63 0  330 230 
 ELA  HE ES   4    355 16.13                             109    3.63 0  330 230 
 ELA  HZ I         355 20.34         5.2 0.46            111            330 230 
 CBOC HZ EP        354 36.55                             108    0.44 7  335 252 
 CBOC HN ES   4    355 13.34                             108    0.71 0  335 252 
 CBOC HZ I         355 14.66         2.8 0.18            111            335 252 
 ORTC HZ EP        354 43.35                             105    0.21 6  396 216 
 ORTC HN ES        355 25.94                             105    0.80 6  396 216 
 ORTC HZ I         355 32.75         3.6 0.17            107            396 216 
 SJC  HZ EP   4    354 42.92                             104   -1.77 0  409 327 
 SJC  HN ES   4    355 23.94                             104   -3.97 0  409 327 
 SJC  HZ I         355 28.03         4.8 0.30            108            409 327 
                                                                                
