 2010  613 0113 14.4 L   6.757 -73.023149.0  RSN  5 0.2 1.1LRSN                1
 GAP=171        0.49       5.7    47.9 13.6 -0.1616E+03 -0.5574E+03  0.2001E+02E
 Epicentro: CEPITA - SANTANDER                                                 3
 ACTION:UP  10-08-24 10:10 OP:vdl  STATUS:               ID:20100613011314 L   I
 2010-06-13-0110-26S.COL___114                                                 6
 STAT SP IPHASW D HRMM SECON CODA AMPLIT PERI AZIMU VELO SNR AR TRES W  DIS CAZ7
 BAR2 SZ ES   1    113 50.01                             169    -0.1 8   25 224 
 RUS  HZ EP   1    113 38.04                             146    -0.1 8   96 184 
 RUS  HE ES   2    113 56.89                             146     0.2 5   96 184 
 RUS  HZ I         113 57.96         2.3 0.40                            96 184 
 BRI  SZ EP   1    113 38.64                             142     0.0 8  109  13 
 GUE  SZ EP   1    113 40.00                             139     0.4 8  119   5 
 GRA  SZ EP        113 39.87                             137    -0.210  127  11 
                                                                                
