 2016  813 0128 39.7 L   6.813 -73.090159.0  RSN  5 0.5 1.5LRSN                1
 GAP=244        1.27       7.7    10.1 11.6  0.7120E+01  0.8618E+01  0.4333E+01E
 Epicentro: LOS SANTOS - SANTANDER                                             3
 ACTION:UPD 16-10-29 15:35 OP:rebc STATUS:               ID:20160813012839 L   I
 OLDACT:UP  16-08-13 14:32 OP:dani STATUS:               ID:20160813012759     3
 OLDACT:UP  16-08-13 13:56 OP:dani STATUS:               ID:20160813012759     3
 OLDACT:REG 16-08-13 12:15 OP:dani STATUS:               ID:20160813012759     3
 2016-08-13-0127-59S.COL___349                                                 6
 STAT SP IPHASW D HRMM SECON CODA AMPLIT PERI AZIMU VELO AIN AR TRES W  DIS CAZ7
 BRR  HZ EP        129  1.91                             153   -0.6610 76.0 295 
 BRR  HN ES        129 20.89                             153    0.5010 76.0 295 
 BRR  HZ I         129 23.14         3.4 0.11                          76.0 295 
 RUS  HZ EP        129  5.41                             146    0.5410  102 180 
 RUS  HN ES        129 24.22                             146   -0.2710  102 180 
 RUS  HZ I         129 26.95         4.3 0.34                           102 180 
 PTB  HZ EP        129  7.87                             134   -0.47 9  154 259 
 PTB  HN ES   4    129 28.82                             134   -1.85 0  154 259 
 PTB  HZ I         129 31.70         3.5 0.11                           154 259 
 SPBC HZ EP        129 10.29                             131    0.57 9  168 220 
 SPBC HN ES        129 32.57                             131   -0.55 9  168 220 
 SPBC HZ I         129 35.02         6.5 0.32                           168 220 
 NOR  HE ES        129 46.25                             121    0.42 8  241 235 
                                                                                
