 2017  613 0447 14.4 L   6.813 -73.210158.0  RSN  4 0.3 1.2LRSN                1
 GAP=276        0.73       5.1     7.8  8.8 -0.8640E+00 -0.8172E+01  0.3697E+01E
 Epicentro: ZAPATOCA - SANTANDER                                               3
 ACTION:UPD 17-09-14 16:51 OP:jn   STATUS:               ID:20170613044714 L   I
 OLDACT:UP  17-06-13 15:14 OP:dani STATUS:               ID:20170613043740d    3
 OLDACT:DUP 17-06-13 15:11 OP:dani STATUS:               ID:20170613043740d    3
 2017-06-13-0438-00M.COL___365                                                 6
 STAT SP IPHASW D HRMM SECON CODA AMPLIT PERI AZIMU VELO AIN AR TRES W  DIS CAZ7
 BRR  HZ EP        447 36.65                             157    0.1010 64.3 300 
 BRR  HN ES        447 53.78                             157   -0.0410 64.3 300 
 BRR  HZ I         447 56.42         3.5 0.26            158           64.3 300 
 PTB  HZ EP        447 41.56                             136   -0.28 9  141 258 
 PTB  HN ES        448  2.80                             136   -0.42 9  141 258 
 PTB  HZ I         448  4.55         1.6 0.16            139            141 258 
 SPBC HN ES        448  6.69                             132    0.34 9  160 217 
 ZAR  HN ES        448 12.75                             126    0.37 9  197 293 
                                                                                
