 2017  813 0858 17.5 L   6.787 -73.134143.0  RSN  4 0.3 1.1LRSN                1
 GAP=238        0.80       8.9    10.0  6.3  0.7469E+02  0.2961E+01 -0.5367E+01E
 Epicentro: LOS SANTOS - SANTANDER                                             3
 ACTION:UPD 17-09-04 20:19 OP:rebc STATUS:               ID:20170813085817 L   I
 OLDACT:DUP 17-08-13 18:00 OP:dhb  STATUS:               ID:20170813084740d    3
 OLDACT:REG 17-08-13 12:28 OP:dhb  STATUS:               ID:20170813084738     3
 2017-08-13-0848-00M.COL___404                                                 6
 STAT SP IPHASW D HRMM SECON CODA AMPLIT PERI AZIMU VELO AIN AR TRES W  DIS CAZ7
 BAR2 EZ EP        858 36.49                             171   -0.2410 22.2 194 
 BAR2 EZ ES        858 51.42                             171   -0.3410 22.2 194 
 BAR2 EZ I         858 59.78         2.1 0.34            178           22.2 194 
 BRR  HZ EP        858 38.33                             151   -0.0810 73.0 299 
 BRR  HN ES        858 55.30                             151    0.5510 73.0 299 
 BRR  HZ I         859  1.64         2.6 0.17            154           73.0 299 
 RUS  HZ EP        858 40.92                             144    0.1010 99.1 177 
 RUS  HN ES        858 59.21                             144    0.1610 99.1 177 
 ZAR  HZ EP        858 50.15                             122    0.25 8  206 292 
 ZAR  HE ES        859 14.76                             122   -0.45 8  206 292 
 ZAR  HZ I         859 19.09         1.1 0.27            127            206 292 
                                                                                
