 2010  513 0324 45.6 L   6.824 -72.987148.0  RSN  5 0.4 1.4LRSN                1
 GAP=208        0.58      25.1    21.4 18.7 -0.4865E+03 -0.2736E+03  0.3738E+03E
 Epicentro: CEPITA - SANTANDER                                                 3
 ACTION:UP  10-08-24 10:04 OP:vdl  STATUS:               ID:20100513032445 L   I
 2010-05-13-0321-04S.COL___104                                                 6
 STAT SP IPHASW D HRMM SECON CODA AMPLIT PERI AZIMU VELO AIN AR TRES W  DIS CAZ7
 BAR2 SZ EP   3    325  5.44                             166    -0.4 2   34 220 
 BRR  HZ EP        325  7.94                             150     0.010   86 291 
 BRR  HZ I         325  8.07         4.6 0.21                            86 291 
 BRR  HE ES   2    325 25.33                             150     0.0 5   86 291 
 BRI  SZ ES   2    325 28.15                             145     0.6 5  101  12 
 GUE  SZ EP   2    325  9.87                             143    -0.3 5  111   4 
 GRA  SZ EP   3    325 11.57                             140     1.0 2  119  10 
 GRA  SZ ES   2    325 29.40                             140    -0.6 5  119  10 
                                                                                
