 2014 1213 0803 30.9 L   6.783 -73.176148.3  RSN  6 0.4 1.4LRSN                1
 GAP=134        0.96       4.5     4.4  7.4 -0.2959E+01  0.9406E+01 -0.8296E+00E
 Epicentro: LOS SANTOS - SANTANDER                                             3
 ACTION:UPD 15-02-10 17:03 OP:nd   STATUS:               ID:20141213080330 L   I
 OLDACT:REG 14-12-13 14:32 OP:stll STATUS:               ID:20141213075740     3
 2014-12-13-0757-40M.COL___294                                                 6
 STAT SP IPHASW D HRMM SECON CODA AMPLIT PERI AZIMU VELO AIN AR TRES W  DIS CAZ7
 BAR2 EZ EP        8 3 50.79                             171   -0.0210 21.0 182 
 BAR2 EZ ES        8 4  6.01                             171   -0.3110 21.0 182 
 BAR2 EZ I         8 4  7.66         5.5 0.34            169           21.0 182 
 PAM  SZ EP        8 3 53.66                             150    0.0410 81.0  41 
 PAM  SZ I         8 3 53.77         3.3 0.18            155           81.0  41 
 PAM  SN ES        8 4 11.31                             150   -0.0210 81.0  41 
 RUS  HZ EP        8 3 55.24                             145    0.4410 98.9 174 
 RUS  HN ES        8 4 13.61                             145    0.1810 98.9 174 
 RUS  HZ I         8 4 15.03         3.1 0.40            147           98.9 174 
 PTB  HZ EP        8 3 56.79                             133   -0.98 9  144 259 
 PTB  HN ES        8 4 18.80                             133    0.10 9  144 259 
 PTB  HZ I         8 4 26.24         3.7 0.24            132            144 259 
 SPBC HZ EP        8 3 59.44                             130    0.16 9  160 218 
 SPBC HN ES        8 4 21.33                             130   -0.06 9  160 218 
 SPBC HZ I         8 4 27.15         6.1 0.28            130            160 218 
 ZAR  HN ES        8 4 29.05                             123    0.52 9  202 293 
 ZAR  HZ I         8 4 35.50         2.3 0.42            123            202 293 
                                                                                
