 2011  313 0239 32.4 L   6.810 -73.159147.4  RSN  5 0.3 1.4LRSN                1
 GAP=182        0.55       2.9     6.3  5.3 -0.4528E+01  0.1444E+02 -0.2309E+01E
 Epicentro: LOS SANTOS - SANTANDER                                             3
 ACTION:UP  11-06-16 14:33 OP:jfem STATUS:               ID:20110313023932 L   I
 2011-03-13-0238-39S.COL___133                                                 6
 STAT SP IPHASW D HRMM SECON CODA AMPLIT PERI AZIMU VELO SNR AR TRES W  DIS CAZ7
 BAR2 SZ EP   1    239 52.58                             170     0.3 7   24 187 
 BAR2 SZ ES        240  7.79                             170     0.110   24 187 
 BAR2 SZ I         240  8.72        14.0 0.39                            24 187 
 RUS  HZ EP   1    239 56.24                             144    -0.2 7  102 175 
 RUS  HN ES   1    240 15.06                             144    -0.1 7  102 175 
 RUS  HZ I         240 15.91         4.6 0.60                           102 175 
 OCA  SZ EP   1    240  0.68                             130     0.0 7  159 354 
 OCA  SZ ES   1    240 22.56                             130    -0.2 7  159 354 
 OCA  SZ I         240 32.51         6.3 0.21                           159 354 
 NOR  SZ EP   1    240  8.66                             119     0.5 6  234 234 
 NOR  SN ES   1    240 35.91                             119    -0.2 6  234 234 
 NOR  SZ I         240 40.94         0.4 0.22                           234 234 
 CHI  HZ EP   2    240 10.08                             117    -0.2 4  249 195 
 CHI  HE ES   2    240 39.26                             117    -0.5 4  249 195 
                                                                                
