 2013 1213 0533  2.7 L   6.793 -73.140149.1  RSN  8 0.3 1.5LRSN                1
 GAP=138        0.75       3.0     3.5  5.1 -0.1408E+01  0.3004E+01  0.1201E+01E
 Epicentro: LOS SANTOS - SANTANDER                                             3
 ACTION:UPD 14-01-13 10:17 OP:ep   STATUS:               ID:20131213053302 L   I
 OLDACT:REG 13-12-13 08:02 OP:jn   STATUS:               ID:20131213053000     3
 2013-12-13-0530-00M.COL___285                                                 6
 STAT SP IPHASW D HRMM SECON CODA AMPLIT PERI AZIMU VELO AIN AR TRES W  DIS CAZ7
 BAR2 SZ EP        533 22.48                             171   -0.2010 22.7 192 
 BAR2 SZ ES        533 38.21                             171   -0.0810 22.7 192 
 BAR2 SZ I         533 38.82         8.7 0.28            169           22.7 192 
 BRR  HZ EP        533 24.56                             153    0.3410 72.1 299 
 BRR  HN ES        533 41.42                             153    0.3810 72.1 299 
 BRR  HZ I         533 44.85         4.7 0.22            150           72.1 299 
 PAM  SZ EP        533 25.48                             151    0.2410 77.5  39 
 PAM  SN ES        533 42.71                             151   -0.1410 77.5  39 
 PAM  SZ I         533 44.90         4.3 0.52            155           77.5  39 
 RUS  HZ EP        533 26.54                             145   -0.1510 99.8 176 
 RUS  HN ES        533 45.35                             145   -0.0710 99.8 176 
 RUS  HZ I         533 46.46         2.4 0.38            147           99.8 176 
 PTB  HZ EP        533 29.60                             133   -0.35 9  148 259 
 PTB  HN ES        533 50.65                             133   -0.58 9  148 259 
 PTB  HZ I         533 56.49         3.4 0.24            132            148 259 
 OCA  HN ES   1    533 53.50                             130   -0.15 7  161 353 
 SPBC HZ EP        533 31.56                             130    0.16 9  163 219 
 SPBC HN ES        533 54.30                             130    0.48 9  163 219 
 SPBC HZ I         533 59.46         5.1 0.16            130            163 219 
 ZAR  HE ES   1    534  1.02                             123    0.06 6  205 292 
 ZAR  HZ I         534  6.19         3.9 0.44            123            205 292 
                                                                                
