 2013  913 0350 31.9 L   6.843 -73.308127.8  RSN  6 0.3 1.6LRSN                1
 GAP=210        0.89       4.4     4.7  6.1  0.9253E+01  0.7059E+01  0.1957E+01E
 Epicentro: ZAPATOCA - SANTANDER                                               3
 ACTION:UPD 13-10-22 09:22 OP:ep   STATUS:               ID:20130913035031 L   I
 OLDACT:REG 13-09-13 07:29 OP:carl STATUS:               ID:20130913034959     3
 2013-09-13-0349-59M.COL___269                                                 6
 STAT SP IPHASW D HRMM SECON CODA AMPLIT PERI AZIMU VELO AIN AR TRES W  DIS CAZ7
 BAR2 SZ EP        350 49.98                             166    0.3610 31.0 153 
 BAR2 SZ ES        351  2.94                             166   -0.4710 31.0 153 
 BAR2 SZ I         351  4.20        31.5 0.28            162           31.0 153 
 BRR  HZ EP        350 50.36                             156    0.1910 53.4 303 
 BRR  HN ES        351  4.38                             156   -0.0110 53.4 303 
 BRR  HN I         351  4.85        31.2 0.18            153           53.4 303 
 RUS  HZ EP        350 54.83                             138    0.2610  108 167 
 RUS  HN ES        351 12.35                             138    0.1410  108 167 
 RUS  HZ I         351 13.98         2.1 0.34            136            108 167 
 PTB  HZ EP        350 55.14                             131   -0.8110  131 255 
 PTB  HN ES        351 15.07                             131    0.3910  131 255 
 PTB  HZ I         351 19.64         3.0 0.30            128            131 255 
 SPBC HZ EP        350 58.44                             126   -0.02 9  156 213 
 SPBC HN ES        351 19.04                             126   -0.10 9  156 213 
 SPBC HZ I         351 25.95         3.1 0.14            124            156 213 
 ZAR  HZ EP        351  1.14                             121   -0.19 9  186 293 
 ZAR  HE ES        351 24.46                             121    0.21 9  186 293 
 ZAR  HZ I         351 27.40         4.1 0.54            121            186 293 
                                                                                
