 2013  213 0900 52.5 L   6.796 -73.157142.9  RSN 11 0.4 2.0LRSN                1
 GAP= 71        0.89       3.3     3.3  6.0  0.1053E+01  0.2709E+01  0.2508E+01E
 Epicentro: LOS SANTOS - SANTANDER                                             3
 ACTION:UPD 13-03-12 09:32 OP:ep   STATUS:               ID:20130213090052 L   I
 2013-02-13-0900-00M.COL___239                                                 6
 STAT SP IPHASW D HRMM SECON CODA AMPLIT PERI AZIMU VELO AIN AR TRES W  DIS CAZ7
 BAR2 SZ EP        9 1 11.74                             171    0.0110 22.7 187 
 BAR2 SZ ES   1    9 1 26.36                             171   -0.41 7 22.7 187 
 BAR2 SZ I         9 1 28.10        28.4 0.22            169           22.7 187 
 BRR  HZ IP     C  9 1 13.55                             152    0.3010 70.3 299 
 BRR  HN ES   1    9 1 30.52                             152    1.05 7 70.3 299 
 BRR  HZ I         9 1 34.24        16.9 0.14            150           70.3 299 
 PAM  SZ EP        9 1 14.69                             150    0.2510 78.5  40 
 PAM  SN ES   1    9 1 31.63                             150    0.04 7 78.5  40 
 PAM  SZ I         9 1 32.24        13.9 0.18            154           78.5  40 
 RUS  HZ EP        9 1 15.77                             143   -0.1310  100 175 
 RUS  HN ES   1    9 1 33.63                             143   -0.56 7  100 175 
 RUS  HZ I         9 1 36.23         6.9 0.36            145            100 175 
 PTB  HZ EP        9 1 18.62                             132   -0.46 9  146 259 
 PTB  HN ES   1    9 1 39.48                             132   -0.36 7  146 259 
 PTB  HZ I         9 1 45.37        13.2 0.46            131            146 259 
 TAM  HZ IP     C  9 1 20.12                             130    0.11 9  156 105 
 TAM  HN ES   1    9 1 41.76                             130    0.26 7  156 105 
 TAM  HZ I         9 1 42.28         8.6 0.32            134            156 105 
 OCA  HE ES   1    9 1 42.19                             129   -0.32 7  161 354 
 OCA  HZ I         9 1 45.46        10.1 0.12            130            161 354 
 ZAR  HN ES   1    9 1 49.62                             122   -0.09 6  203 292 
 ZAR  HZ I         9 1 55.44        13.0 0.32            122            203 292 
 SML  HZ EP   1    9 1 28.11                             117   -0.81 6  244 336 
 SML  HN ES   1    9 1 56.83                             117   -0.52 6  244 336 
 SML  HZ I         9 2  2.68        14.8 0.10            118            244 336 
 CHI  HZ EP        9 1 30.19                             117    0.27 8  248 195 
 CHI  HN ES   1    9 1 58.96                             117   -0.17 6  248 195 
 CHI  HZ I         9 2  4.60         3.6 0.24            118            248 195 
 HEL  HZ EP   1    9 1 32.98                             114    0.60 6  271 256 
 HEL  HN ES   1    9 2  4.26                             114    0.74 6  271 256 
 HEL  HZ I         9 2 10.10         5.6 0.28            115            271 256 
                                                                                
