 2014  813 0433 33.1 L   6.781 -73.174150.9  RSN  6 0.5 1.4LRSN                1
 GAP=198        1.20       5.2     7.7  8.7  0.9307E+01  0.6762E+01 -0.2976E+01E
 Epicentro: LOS SANTOS - SANTANDER                                             3
 ACTION:UPD 14-09-15 21:49 OP:nd   STATUS:               ID:20140813043333 L   I
 OLDACT:UP  14-08-13 14:08 OP:cam  STATUS:               ID:20140813043003d    3
 OLDACT:DUP 14-08-13 14:05 OP:cam  STATUS:               ID:20140813043003d    3
 OLDACT:UP  14-08-13 14:03 OP:cam  STATUS:               ID:20140813043001d    3
 OLDACT:DUP 14-08-13 14:01 OP:cam  STATUS:               ID:20140813043001d    3
 2014-08-13-0430-00M.COL___285                                                 6
 STAT SP IPHASW D HRMM SECON CODA AMPLIT PERI AZIMU VELO AIN AR TRES W  DIS CAZ7
 BAR2 SZ EP        433 52.99                             172   -0.2710 20.9 182 
 BAR2 SZ ES        434  8.86                             172   -0.1610 20.9 182 
 BAR2 SZ I         434 10.97         3.3 0.38            167           20.9 182 
 BRR  HZ EP        433 55.07                             154    0.4010 69.5 301 
 BRR  HN ES        434 12.30                             154    0.7710 69.5 301 
 BRR  HN I         434 14.76         6.2 0.20            150           69.5 301 
 RUS  HZ EP        433 57.40                             145    0.2110 98.8 174 
 RUS  HN ES        434 15.59                             145   -0.4310 98.8 174 
 PTB  HZ EP        434  0.47                             134    0.33 9  144 259 
 PTB  HN ES        434 20.43                             134   -0.84 9  144 259 
 PTB  HZ I         434 26.81         2.9 0.54            131            144 259 
 SPBC HZ EP        434  1.49                             131   -0.14 9  160 219 
 SPBC HN ES        434 24.40                             131    0.49 9  160 219 
 SPBC HZ I         434 31.86         2.8 0.24            130            160 219 
 SML  HZ EP   4    434  8.60                             118   -1.44 0  244 336 
 SML  HE ES        434 38.32                             118   -0.57 8  244 336 
 SML  HZ I         434 41.46         3.2 0.10            120            244 336 
                                                                                
