 2012  313 0921 31.6 L   6.762 -73.134141.8  RSN  6 0.4 1.4LRSN                1
 GAP=140        0.91       5.8     5.2  7.7  0.4443E+01  0.8105E+01  0.8571E+00E
 ACTION:UP  12-03-31 23:19 OP:EP   STATUS:               ID:20120313092131 L   I
 2012-03-13-0920-00M.COL___196                                                 6
 STAT SP IPHASW D HRMM SECON CODA AMPLIT PERI AZIMU VELO SNR AR TRES W  DIS CAZ7
 BAR2 SZ EP   1    921 50.63                             172     0.0 7   19 196 
 BAR2 SZ ES   1    922  5.28                             172    -0.3 7   19 196 
 BAR2 SZ I         922  6.76         8.2 0.18                            19 196 
 BRR  HZ EP   1    921 52.49                             151     0.0 7   74 301 
 BRR  HE ES        922  9.17                             151     0.410   74 301 
 PAM  SZ EP   1    921 53.25                             149    -0.3 7   80  37 
 PAM  SZ I         921 53.88         5.4 0.14                            80  37 
 PAM  SN ES   1    922 10.54                             149    -0.1 7   80  37 
 RUS  HZ EP   1    921 55.07                             144     0.4 7   96 177 
 RUS  HN ES   1    922 12.86                             144     0.2 7   96 177 
 RUS  HZ I         922 14.06         4.5 0.34                            96 177 
 PTB  HZ EP   1    921 57.58                             131    -0.7 7  148 261 
 PTB  HN ES   1    922 18.60                             131    -0.5 7  148 261 
 PTB  HZ I         922 21.53         2.0 0.17                           148 261 
 ZAR  HZ EP   1    922  4.79                             121     0.7 6  207 293 
 ZAR  HN ES   1    922 29.43                             121     0.0 6  207 293 
 ZAR  HZ I         922 35.81         2.6 0.16                           207 293 
                                                                                
