 2011 1113 0952 18.7 L   6.803 -73.070141.1  RSN  5 0.2 1.6LRSN                1
 GAP=146        0.45       1.9     3.4  3.6  0.1808E+00 -0.5500E+00 -0.3873E+00E
 Epicentro: LOS SANTOS - SANTANDER                                             3
 ACTION:UPD 12-07-13 16:09 OP:ep   STATUS:               ID:20111113095218 L   I
 2011-11-13-0950-37S.COL___179                                                 6
 STAT SP IPHASW D HRMM SECON CODA AMPLIT PERI AZIMU VELO AIN AR TRES W  DIS CAZ7
 BAR2 SZ EP        952 37.63                             169   -0.2410 26.4 208 
 BAR2 SZ I         952 37.86         7.1 0.12                          26.4 208 
 BAR2 SZ ES   1    952 52.89                             169    0.09 7 26.4 208 
 PAM  SZ EP        952 40.38                             152    0.2410 72.1  35 
 PAM  SN ES        952 56.75                             152   -0.0910 72.1  35 
 BRR  HZ EP        952 39.68                             149   -0.1410 78.5 295 
 BRR  HN ES        952 56.38                             149    0.1110 78.5 295 
 BRR  HN I         953  0.47        26.7 0.17                          78.5 295 
 RUS  HZ EP        952 41.98                             143   -0.0510  101 181 
 RUS  HE ES        953  0.27                             143    0.0610  101 181 
 RUS  HZ I         953  1.57         2.8 0.24                           101 181 
 OCA  SZ EP   1    952 47.04                             128    0.27 7  161 350 
 OCA  SZ ES   1    953  8.49                             128   -0.15 7  161 350 
 OCA  SZ I         953 12.19         3.8 0.28                           161 350 
                                                                                
