 2014  813 0610 13.5 L   6.757 -73.196159.1  RSN  4 0.2 1.1LRSN                1
 GAP=198        0.62       4.2     6.2  6.6 -0.1446E+01 -0.1386E+02 -0.3994E+01E
 Epicentro: VILLANUEVA - SANTANDER                                             3
 ACTION:UPD 14-09-15 21:49 OP:nd   STATUS:               ID:20140813061000 L   I
 OLDACT:UP  14-08-13 14:58 OP:cam  STATUS:               ID:20140813061000 L   3
 OLDACT:UPD 14-08-13 14:37 OP:CF   STATUS:               ID:20140813061000 L   3
 2014-08-13-0610-00M.COL___285                                                 6
 STAT SP IPHASW D HRMM SECON CODA AMPLIT PERI AZIMU VELO AIN AR TRES W  DIS CAZ7
 BAR2 SZ EP        610 34.37                             173   -0.3210 18.3 175 
 BRR  HZ EP        610 36.36                             155    0.3410 68.9 304 
 BRR  HN ES        610 53.73                             155    0.1710 68.9 304 
 BRR  HN I         610 54.99         2.9 0.44            149           68.9 304 
 PTB  HZ EP        610 41.20                             136    0.12 9  141 260 
 PTB  HN ES        611  2.36                             136   -0.20 9  141 260 
 PTB  HZ I         611  8.07         1.0 0.48            132            141 260 
 SML  HZ EP        610 51.22                             120    0.06 8  246 337 
 SML  HN ES        611 20.24                             120   -0.27 8  246 337 
 SML  HZ I         611 24.23         1.2 0.32            119            246 337 
                                                                                
