 2017  713 0757 10.0 L   7.375 -73.314119.0  RSN  5 0.2 1.1LRSN                1
 GAP=179        0.60       4.3     2.4  4.9 -0.8512E+00  0.4346E+01 -0.5344E+01E
 Epicentro: EL PLAYON - SANTANDER                                              3
 ACTION:UPD 17-08-30 15:32 OP:rebc STATUS:               ID:20170713075710 L   I
 OLDACT:REG 17-07-13 12:53 OP:dnl  STATUS:               ID:20170713074741     3
 2017-07-13-0748-00M.COL___371                                                 6
 STAT SP IPHASW D HRMM SECON CODA AMPLIT PERI AZIMU VELO AIN AR TRES W  DIS CAZ7
 BRR  HZ EP        757 26.86                             154   -0.4010 53.0 236 
 BRR  HN ES        757 40.70                             154    0.0110 53.0 236 
 BRR  HZ I         757 41.96         3.0 0.42            153           53.0 236 
 PAM  EZ EP        757 28.78                             149   -0.0610 68.0  93 
 PAM  EN ES        757 43.62                             149    0.1110 68.0  93 
 PAM  EZ I         757 43.84         1.8 0.34            153           68.0  93 
 BAR2 EZ IP     C  757 29.71                             141   -0.1610 87.8 170 
 BAR2 EZ ES        757 45.52                             141    0.1610 87.8 170 
 BAR2 EZ I         757 46.60         6.1 0.34            143           87.8 170 
 PTB  HZ EP        757 35.85                             123    0.02 9  156 234 
 PTB  HN ES        757 55.97                             123    0.02 9  156 234 
 PTB  HZ I         757 59.89         1.1 0.32            124            156 234 
 ZAR  HZ EP        757 37.83                             121    0.51 9  171 274 
 ZAR  HN ES        757 58.47                             121   -0.13 9  171 274 
 ZAR  HZ I         758  2.87         2.0 0.74            121            171 274 
                                                                                
