 2011 1013 0108  1.2 L   6.768 -73.097145.4  RSN  6 0.3 1.8LRSN                1
 GAP=144        0.61       3.2     5.2  5.6 -0.1670E+01  0.1191E+01 -0.2264E+01E
 Epicentro: LOS SANTOS - SANTANDER                                             3
 ACTION:UPD 12-07-13 16:03 OP:ep   STATUS:               ID:20111013010801 L   I
 2011-10-13-0106-29S.COL___168                                                 6
 STAT SP IPHASW D HRMM SECON CODA AMPLIT PERI AZIMU VELO AIN AR TRES W  DIS CAZ7
 BAR2 SZ EP        1 8 20.86                             171    0.1510 21.6 206 
 BAR2 SZ ES   1    1 8 35.56                             171   -0.40 7 21.6 206 
 BAR2 SZ I         1 8 37.59        34.0 0.20                          21.6 206 
 PAM  SZ EP        1 8 23.52                             151    0.2110 77.0  35 
 PAM  SN ES   1    1 8 40.89                             151    0.30 7 77.0  35 
 BRR  HZ EP        1 8 22.71                             150    0.0710 77.6 299 
 BRR  HN ES   1    1 8 39.76                             150    0.36 7 77.6 299 
 BRR  HZ I         1 8 42.94         9.5 0.11                          77.6 299 
 RUS  HZ EP   1    1 8 24.52                             145   -0.08 7 96.8 179 
 RUS  HN ES   1    1 8 42.68                             145   -0.21 7 96.8 179 
 RUS  HZ I         1 8 44.71         6.7 0.45                          96.8 179 
 OCA  SZ EP   1    1 8 29.43                             129   -0.41 7  165 351 
 OCA  SZ ES   1    1 8 51.71                             129   -0.51 7  165 351 
 OCA  SZ I         1 8 58.49         7.4 0.18                           165 351 
 NOR  SE ES   2    1 9  5.22                             118    0.05 4  237 236 
                                                                                
