 2014  413 0426 21.2 L   7.483 -73.571112.9  RSN  7 0.5 1.6LRSN                1
 GAP= 81        1.35       4.2     5.5 15.3  0.4246E+01  0.3216E+02  0.2124E+02E
 Epicentro: SABANA DE TORRES - SANTANDER                                       3
 ACTION:UPD 14-05-13 23:08 OP:nd   STATUS:               ID:20140413042621 L   I
 OLDACT:DUP 14-04-13 18:15 OP:stll STATUS:               ID:20140413041809d    3
 2014-04-13-0418-07M.COL___263                                                 6
 STAT SP IPHASW D HRMM SECON CODA AMPLIT PERI AZIMU VELO AIN AR TRES W  DIS CAZ7
 OCA  HZ EP        426 40.70                             139    0.2710 88.0  18 
 OCA  HN ES        426 54.80                             139   -0.5910 88.0  18 
 OCA  HZ I         426 56.32         6.6 0.24            139           88.0  18 
 PAM  SZ EP        426 42.36                             136    0.6910 97.5  99 
 PAM  SE ES        426 57.96                             136    0.3710 97.5  99 
 ZAR  HN ES        427  4.72                             124    0.88 9  142 270 
 PTB  HZ EP        426 44.75                             124   -0.53 9  143 223 
 SML  HZ EP        426 46.66                             122    0.10 9  156 339 
 SML  HN ES        427  5.72                             122   -0.59 9  156 339 
 SML  HZ I         427  9.45         7.1 0.20            121            156 339 
 RUS  HN ES        427 12.24                             117   -0.54 9  184 163 
 SPBC HN ES        427 16.67                             113   -0.30 8  210 195 
                                                                                
