 2015  813 0334 48.3 L   6.799 -73.094144.1  RSN 19 0.4 2.1LRSN                1
 GAP=114        0.95       2.4     2.9  4.8  0.2935E+00  0.4213E+01  0.8735E+00E
 Epicentro: LOS SANTOS - SANTANDER                                             3
 ACTION:UPD 15-09-15 23:01 OP:cam  STATUS:               ID:20150813033448 L   I
 OLDACT:UP  15-08-13 16:11 OP:mh   STATUS:               ID:20150813032747     3
 OLDACT:UP  15-08-13 16:10 OP:mh   STATUS:               ID:20150813032747     3
 OLDACT:UP  15-08-13 15:44 OP:mh   STATUS:               ID:20150813032747     3
 OLDACT:UP  15-08-13 15:04 OP:mh   STATUS:               ID:20150813032747     3
 OLDACT:UP  15-08-13 15:02 OP:mh   STATUS:               ID:20150813032747     3
 OLDACT:UP  15-08-13 14:59 OP:mh   STATUS:               ID:20150813032747     3
 OLDACT:REG 15-08-13 11:58 OP:mh   STATUS:               ID:20150813032747     3
 2015-08-13-0327-47M.COL___337                                                 6
 STAT SP IPHASW D HRMM SECON CODA AMPLIT PERI AZIMU VELO AIN AR TRES W  DIS CAZ7
 BAR2 EZ EP     C  335  7.83                             170    0.1010 24.9 203 
 BAR2 EZ ES        335 22.71                             170   -0.2010 24.9 203 
 BAR2 EZ I         335 23.66        35.9 0.16            167           24.9 203 
 BRR  HZ EP        335  9.92                             151    0.3810 76.3 297 
 BRR  HN ES        335 26.84                             151    0.7210 76.3 297 
 BRR  HZ I         335 29.84        22.2 0.30            148           76.3 297 
 RUS  HZ EP        335 11.68                             144   -0.1510  100 179 
 RUS  HN ES        335 30.27                             144    0.0610  100 179 
 RUS  HZ I         335 30.63        13.3 0.30            144            100 179 
 TAM  HZ EP   1    335 15.03                             131   -0.28 7  150 106 
 TAM  HN ES        335 36.73                             131    0.34 9  150 106 
 OCA  HZ EP        335 16.62                             129    0.09 9  161 351 
 OCA  HN ES        335 38.27                             129   -0.31 9  161 351 
 SPBC HZ EP        335 16.77                             128   -0.21 9  167 221 
 SPBC HN ES        335 38.89                             128   -0.49 9  167 221 
 ZAR  HZ EP        335 20.88                             121   -0.28 8  209 292 
 ZAR  HN ES        335 46.82                             121    0.01 8  209 292 
 ZAR  HZ I         335 54.59        13.3 0.24            121            209 292 
 NOR  HZ EP   1    335 24.07                             118   -0.33 6  239 235 
 NOR  HZ E         335 24.30                                            239 235 
 NOR  HN ES        335 52.06                             118   -0.52 8  239 235 
 NOR  HZ I         335 58.44        15.1 0.18            117            239 235 
 SML  HZ EP   1    335 24.93                             117   -0.15 6  246 334 
 SML  HN ES        335 53.30                             117   -0.48 8  246 334 
 SML  HZ I         335 58.48        19.1 0.28            117            246 334 
 CHI  HZ EP        335 25.81                             117   -0.22 8  250 196 
 CHI  HN ES        335 54.78                             117   -0.71 8  250 196 
 CHI  HZ I         335 58.13         3.6 0.34            117            250 196 
 HEL  HZ EP   1    335 29.06                             114    0.05 6  278 256 
 HEL  HN ES        336  1.02                             114    0.24 7  278 256 
 HEL  HZ I         336  6.33         7.2 0.56            114            278 256 
 URE  HZ EP   4    335 28.52                             113   -1.33 0  289 292 
 URE  HN ES   4    335 59.87                             113   -2.42 0  289 292 
 URE  HZ I         336  3.87         9.3 0.28            113            289 292 
 GUY2CHZ EP        335 33.01                             112    0.69 7  306 235 
 GUY2CHN ES   4    336  7.97                             112    1.29 0  306 235 
 GUY2CHZ I         336 15.03         6.7 0.62                           306 235 
 PTGC HN ES   4    335 30.32                             111   -35.5 0  307 160 
 CBOC HZ EP        335 35.87                             109    0.14 7  339 252 
 CBOC HN ES        336 13.70                             109    0.94 7  339 252 
 CBOC HZ I         336 19.98         1.9 0.58            109            339 252 
 DBB  SZ ES        336 13.00                             109   -0.82 7  345 274 
 TOL  SZ EP        335 37.65                             109    0.74 6  347 225 
 TOL  SN ES   4    336 17.58                             109    2.72 0  347 225 
 TOL  SZ I         336 23.32         4.3 0.40            109            347 225 
 MON  HZ EP   4    335 36.28                             108   -1.45 0  358 308 
 MON  HN ES   4    336 12.65                             108   -3.66 0  358 308 
 MON  HZ I         336 16.17         3.3 0.76            108            358 308 
 ORTC HZ EP        335 42.66                             106    0.14 6  399 217 
 ORTC HN ES        336 25.75                             106    0.92 6  399 217 
 ORTC HZ I         336 30.31         3.5 0.48            106            399 217 
 SJC  HZ EP   4    335 42.35                             105   -1.80 0  412 326 
 SJC  HN ES   4    336 23.14                             105   -4.60 0  412 326 
 SJC  HZ I         336 28.37         3.4 0.50            106            412 326 
                                                                                
