 2017  313 0134 17.3 L   6.846 -73.141148.2  RSN  4 0.3 1.1LRSN                1
 GAP=145        0.78       4.9     4.8  6.6 -0.7447E+01  0.8627E+01 -0.2576E+01E
 Epicentro: LOS SANTOS - SANTANDER                                             3
 ACTION:UPD 17-05-25 18:39 OP:jn   STATUS:               ID:20170313013417 L   I
 OLDACT:UP  17-03-13 15:55 OP:cog  STATUS:               ID:20170313012744     3
 OLDACT:REG 17-03-13 12:13 OP:cog  STATUS:               ID:20170313012744     3
 2017-03-13-0128-00M.COL___403                                                 6
 STAT SP IPHASW D HRMM SECON CODA AMPLIT PERI AZIMU VELO AIN AR TRES W  DIS CAZ7
 BAR2 EZ EP        134 37.60                             169    0.2510 28.5 189 
 BAR2 EZ ES        134 52.49                             169   -0.4910 28.5 189 
 BAR2 EZ I         134 56.43         5.8 0.80            169           28.5 189 
 PAM  EZ EP        134 39.49                             153   -0.0610 73.2  42 
 PAM  EN ES        134 57.09                             153    0.1910 73.2  42 
 PAM  EZ I         134 58.86         1.7 0.20            156           73.2  42 
 RUS  HZ EP        134 41.29                             143   -0.3910  106 177 
 RUS  HE ES        135  1.08                             143    0.4010  106 177 
 RUS  HZ I         135  3.05         1.2 0.36            145            106 177 
 PTB  HZ EP        134 44.65                             132    0.02 9  149 257 
 PTB  HN ES        135  6.02                             132    0.09 9  149 257 
 PTB  HZ I         135  8.13         1.8 0.16            135            149 257 
                                                                                
