 2011  213 0101 13.4 L   6.792 -73.074142.0  RSN  5 0.1 1.1LRSN                1
 GAP=167        0.34       3.3    17.1  6.3  0.1690E+01 -0.7059E+02 -0.5054E+01E
 Epicentro: LOS SANTOS - SANTANDER                                             3
 ACTION:UP  11-03-28 15:08 OP:jfem STATUS:               ID:20110213010113 L   I
 2011-02-13-0059-43S.COL___136                                                 6
 STAT SP IPHASW D HRMM SECON CODA AMPLIT PERI AZIMU VELO SNR AR TRES W  DIS CAZ7
 BAR2 SZ ES   2    1 1 47.42                             169    -0.1 5   25 209 
 BTL  SZ EP   1    1 1 32.71                             169     0.1 7   26 303 
 BTL  SZ ES   2    1 1 47.67                             169     0.1 5   26 303 
 GIR2 SZ EP   1    1 1 32.52                             166    -0.2 7   34 337 
 RUS  HZ EP   1    1 1 36.62                             143     0.0 7   99 181 
 RUS  HN ES   2    1 1 54.94                             143     0.1 5   99 181 
 RUS  HZ I         1 1 56.01         2.4 0.35                            99 181 
 GRA  SZ EP   1    1 1 38.20                             136     0.0 7  124  14 
 GRA  SZ I         1 1 59.19         1.7 0.33                           124  14 
                                                                                
