 2015 1013 0022 37.2 L   6.799 -73.135140.6  RSN  4 0.2 1.1LRSN                1
 GAP=138        0.67       3.3     4.4  6.0 -0.4574E+01  0.8523E+00  0.4688E+01E
 Epicentro: LOS SANTOS - SANTANDER                                             3
 ACTION:UPD 15-12-22 20:39 OP:cam  STATUS:               ID:20151013002237 L   I
 OLDACT:DUP 15-10-13 15:26 OP:stll STATUS:               ID:20151013001750d    3
 2015-10-13-0017-49M.COL___337                                                 6
 STAT SP IPHASW D HRMM SECON CODA AMPLIT PERI AZIMU VELO AIN AR TRES W  DIS CAZ7
 BRR  HZ EP        022 57.95                             151    0.0610 72.3 298 
 BRR  HN ES        023 14.24                             151    0.2410 72.3 298 
 BRR  HZ I         023 18.40         2.4 0.32            150           72.3 298 
 PAM  EZ EP        022 58.80                             150   -0.0510 76.7  39 
 PAM  EZ I         023  0.52         2.0 0.54            153           76.7  39 
 PAM  EN ES        023 15.43                             150   -0.2910 76.7  39 
 RUS  HZ EP        023  0.84                             143    0.3810  100 177 
 RUS  HN ES        023 18.72                             143    0.1410  100 177 
 RUS  HZ I         023 20.25         1.5 0.38            145            100 177 
 SPBC HZ EP        023  5.21                             128   -0.19 9  164 219 
 SPBC HN ES        023 26.99                             128   -0.39 9  164 219 
 SPBC HZ I         023 31.01         2.9 0.16            129            164 219 
                                                                                
