 2014  113 0151 14.2 L   6.775 -73.111150.0  RSN 12 0.3 1.6LRSN                1
 GAP=142        0.66       2.7     3.3  5.1 -0.7456E+00  0.4208E+01  0.1554E+01E
 Epicentro: LOS SANTOS - SANTANDER                                             3
 ACTION:UPD 14-03-13 09:54 OP:ep   STATUS:               ID:20140113015114 L   I
 OLDACT:REG 14-01-13 07:42 OP:cam  STATUS:               ID:20140113015000     3
 2014-01-13-0150-00M.COL___285                                                 6
 STAT SP IPHASW D HRMM SECON CODA AMPLIT PERI AZIMU VELO AIN AR TRES W  DIS CAZ7
 BAR2 SZ EP   1    151 34.26                             171   -0.08 7 21.7 201 
 BRR  HZ EP     C  151 36.27                             152    0.1710 75.9 299 
 BRR  HE ES        151 53.52                             152    0.3610 75.9 299 
 BRR  HZ I         151 57.95         8.2 0.12            149           75.9 299 
 PAM  SZ EP        151 37.23                             152    0.3410 77.2  36 
 PAM  SN ES        151 54.43                             152   -0.1310 77.2  36 
 PAM  SZ I         151 57.25         4.4 0.16            154           77.2  36 
 RUS  HZ EP        151 38.13                             146   -0.0610 97.6 178 
 RUS  HE ES   1    151 56.68                             146   -0.20 7 97.6 178 
 RUS  HZ I         151 57.70         2.6 0.32            149           97.6 178 
 PTB  HZ EP        151 41.34                             132   -0.49 9  151 260 
 PTB  HN ES   2    152  2.22                             132   -1.15 5  151 260 
 PTB  HZ I         152  6.42         8.3 0.22            132            151 260 
 OCA  HN ES   2    152  5.32                             130   -0.43 5  163 352 
 SPBC HZ EP   2    151 43.26                             130    0.18 5  164 221 
 ZAR  HZ EP   1    151 47.62                             123    0.20 6  209 292 
 ZAR  HE ES   1    152 13.40                             123    0.09 6  209 292 
 ZAR  HZ I         152 18.82         9.2 0.28            123            209 292 
 NOR  HE ES        152 18.94                             119    0.38 8  236 236 
 NOR  HZ I         152 23.57         5.3 0.16            120            236 236 
 CHI  HZ EP   2    151 52.39                             118    0.40 4  247 196 
 CHI  HN ES   2    152 21.14                             118   -0.30 4  247 196 
 CHI  HZ I         152 25.84         0.9 0.42            120            247 196 
 SML  HZ EP   1    151 51.33                             118   -0.21 6  248 335 
 SML  HN ES   1    152 20.38                             118   -0.26 6  248 335 
 SML  HZ I         152 29.53         5.3 0.10            119            248 335 
 GUY2CHZ EP   4    151 59.39                             113    1.18 0  303 236 
 SJC  HZ EP   2    152 10.14                             106   -0.31 3  414 327 
                                                                                
