 2017 1213 0623  4.7 L   6.838 -73.099153.4  RSN  4 0.3 1.4LRSN                1
 GAP=208        0.84       5.2     6.0  9.6 -0.2466E+01  0.2023E+02 -0.7049E+01E
 Epicentro: LOS SANTOS - SANTANDER                                             3
 ACTION:UPD 18-01-04 13:19 OP:rebc STATUS:               ID:20171213062304 L   I
 OLDACT:DUP 17-12-13 18:18 OP:edw  STATUS:               ID:20171213061743d    3
 OLDACT:UP  17-12-13 18:17 OP:edw  STATUS:               ID:20171213061742     3
 OLDACT:UP  17-12-13 18:16 OP:edw  STATUS:               ID:20171213061742     3
 OLDACT:REG 17-12-13 13:17 OP:edw  STATUS:               ID:20171213061742     3
 2017-12-13-0618-00M.COL___451                                                 6
 STAT SP IPHASW D HRMM SECON CODA AMPLIT PERI AZIMU VELO AIN AR TRES W  DIS CAZ7
 BAR2 EZ EP        623 24.90                             169   -0.4610 28.7 199 
 BAR2 EZ ES        623 41.74                             169    0.2610 28.7 199 
 BAR2 EZ I         623 42.17         8.8 0.86            170           28.7 199 
 PTB  HZ EP        623 33.34                             132    0.52 9  154 258 
 PTB  HE ES        623 54.44                             132   -0.32 9  154 258 
 PTB  HZ I         624  0.46         1.1 0.30            133            154 258 
 OCA  HZ EP   4    623 27.62                             132   -5.67 0  157 351 
 OCA  HN ES        623 55.58                             132   -0.01 9  157 351 
 OCA  HZ I         624  1.02         4.5 0.16            132            157 351 
 ZAR  HN ES        624  3.99                             124    0.05 8  207 291 
                                                                                
