 2016 1213 0149 31.0 L   6.765 -73.183154.3  RSN  5 0.3 1.3LRSN                1
 GAP=230        0.74       5.9     5.3  5.9  0.1923E+02  0.3388E+01 -0.3759E+00E
 Epicentro: LOS SANTOS - SANTANDER                                             3
 ACTION:UPD 17-01-11 20:14 OP:rebc STATUS:               ID:20161213014931 L   I
 OLDACT:REG 16-12-13 12:40 OP:y    STATUS:               ID:20161213014748     3
 2016-12-13-0148-00M.COL___380                                                 6
 STAT SP IPHASW D HRMM SECON CODA AMPLIT PERI AZIMU VELO AIN AR TRES W  DIS CAZ7
 BAR2 EZ EP        149 51.40                             173   -0.2310 19.1 180 
 BAR2 EZ ES        150  7.98                             173    0.3010 19.1 180 
 BRR  HZ EP        149 52.96                             154   -0.0810 69.7 303 
 BRR  HE ES        150  9.95                             154   -0.2510 69.7 303 
 RUS  HZ EP        149 55.85                             146    0.4510 97.0 173 
 RUS  HE ES        150 14.20                             146   -0.2010 97.0 173 
 PTB  HZ EP        149 58.00                             135   -0.30 9  143 260 
 PTB  HN ES        150 19.55                             135   -0.02 9  143 260 
 PTB  HZ I         150 21.62         2.4 0.21            133            143 260 
 ZAR  HN ES        150 29.80                             125    0.40 9  202 294 
 ZAR  HZ I         150 34.58         2.0 0.11            123            202 294 
                                                                                
