 2012  113 0223 55.7 L   6.774 -73.133144.0  RSN  7 0.3 1.7LRSN                1
 GAP=139        0.54       4.2     4.5  5.5 -0.4759E+01 -0.7867E+00  0.4082E+01E
 Epicentro: LOS SANTOS - SANTANDER                                             3
 ACTION:UP  12-02-03 08:17 OP:REBC STATUS:               ID:20120113022355 L   I
 2012-01-13-0220-00M.COL___187                                                 6
 STAT SP IPHASW D HRMM SECON CODA AMPLIT PERI AZIMU VELO SNR AR TRES W  DIS CAZ7
 BAR2 SZ ES   2    224 29.78                             171    -0.4 5   21 195 
 BAR2 SZ I         224 31.23         9.2 0.30                            21 195 
 GIR2 SZ EP   1    224 15.11                             166    -0.1 7   34 349 
 GIR2 SZ ES   2    224 30.16                             166    -0.3 5   34 349 
 BRR  HZ EP   1    224 16.80                             152     0.0 7   74 300 
 BRR  HE ES   1    224 33.72                             152     0.5 7   74 300 
 BRR  HZ I         224 38.00        11.8 0.18                            74 300 
 PAM  SZ EP        224 17.77                             150     0.010   79  37 
 PAM  SN ES   2    224 35.21                             150     0.2 5   79  37 
 RUS  HN ES   2    224 37.40                             144     0.1 5   98 177 
 PTB  HZ EP   1    224 22.10                             132    -0.5 7  149 260 
 PTB  HN ES   2    224 43.42                             132    -0.1 5  149 260 
 CHI  HZ EP   2    224 33.41                             117     0.4 4  246 196 
 CHI  HN ES   2    225  2.44                             117     0.3 4  246 196 
                                                                                
