 2012 1113 0219 36.6 L   6.784 -73.161146.7  RSN  8 0.5 1.6LRSN                1
 GAP=135        0.95       5.3     6.3  7.9  0.1550E+01  0.1290E+02  0.1072E+02E
 Epicentro: LOS SANTOS - SANTANDER                                             3
 ACTION:UPD 12-12-05 15:33 OP:}ep  STATUS:               ID:20121113021936 L   I
 2012-11-13-0217-38M.COL___210                                                 6
 STAT SP IPHASW D HRMM SECON CODA AMPLIT PERI AZIMU VELO AIN AR TRES W  DIS CAZ7
 BAR2 SZ ES   1    220 10.87                             171   -0.82 7 21.3 186 
 BAR2 SZ I         220 13.29        13.9 0.16                          21.3 186 
 BRR  HZ EP        219 58.11                             153    0.2810 70.6 300 
 BRR  HN ES   1    220 15.40                             153    1.03 7 70.6 300 
 BRR  HZ I         220 18.01         7.2 0.14                          70.6 300 
 PAM  SZ EP        219 59.04                             150   -0.0410 79.9  40 
 PAM  SN ES   1    220 16.52                             150   -0.08 7 79.9  40 
 PAM  SZ I         220 18.41         4.2 0.53                          79.9  40 
 RUS  HZ EP   1    220  0.48                             144    0.14 7 98.9 175 
 RUS  HN ES   1    220 18.97                             144    0.12 7 98.9 175 
 RUS  HZ I         220 21.43         5.2 0.48                          98.9 175 
 PTB  HZ EP   1    220  2.84                             133   -0.63 7  146 259 
 PTB  HZ I         220 26.23         7.8 0.16                           146 259 
 ZAR  HE ES   1    220 33.64                             123   -0.66 6  203 293 
 ZAR  HZ I         220 41.10         6.2 0.42                           203 293 
 CHI  HZ EP   1    220 14.16                             117    0.03 6  246 195 
 PRA  HZ EP   1    220 30.12                             107    0.23 4  390 209 
 PRA  HN ES   1    221 11.77                             107    0.33 4  390 209 
                                                                                
