 2013  813 0915 57.5 L   6.837 -73.172131.7  RSN  5 0.4 1.5LRSN                1
 GAP=199        1.00       4.9     6.2 12.9  0.1229E+02 -0.1638E+02 -0.3847E+02E
 Epicentro: LOS SANTOS - SANTANDER                                             3
 ACTION:UPD 14-01-14 09:01 OP:ep   STATUS:               ID:20130813091557 L   I
 OLDACT:REG 13-08-13 08:37 OP:stll STATUS:               ID:20130813090838     3
 2013-08-13-0908-38M.COL___218                                                 6
 STAT SP IPHASW D HRMM SECON CODA AMPLIT PERI AZIMU VELO AIN AR TRES W  DIS CAZ7
 RUS  HE EP        916 20.73                             139    0.5310  105 175 
 RUS  HZ ES        916 37.98                             139    0.0410  105 175 
 RUS  HE I         916 41.63         4.4 0.36            148            105 175 
 PTB  HZ EP        916 22.79                             129   -0.34 9  146 257 
 PTB  HN ES        916 43.12                             129   -0.03 9  146 257 
 PTB  HZ I         916 49.87         3.2 0.40            134            146 257 
 SPBC HZ EP   1    916 24.90                             125   -0.17 7  165 217 
 SPBC HN ES        916 46.05                             125   -0.54 9  165 217 
 SPBC HZ I         916 51.94         4.5 0.12            132            165 217 
 ZAR  HZ EP        916 28.96                             120    0.37 9  200 291 
 ZAR  HN ES        916 53.58                             120    0.72 9  200 291 
 ZAR  HZ I         916 59.52         2.9 0.32            125            200 291 
 SML  HZ EP        916 32.57                             115   -0.23 8  239 336 
 SML  HN ES        916 59.78                             115   -0.57 8  239 336 
 SML  HZ I         917  5.10         4.4 0.08            121            239 336 
                                                                                
