 2015  713 0642 55.0 L   7.490 -73.646111.2  RSN 22 0.5 2.4LRSN                1
 GAP= 76        0.90       2.4     2.6  6.3  0.3344E+00  0.5975E+01  0.6197E+01E
 Epicentro: SABANA DE TORRES - SANTANDER                                       3
 ACTION:UPD 15-09-08 21:48 OP:cam  STATUS:               ID:20150713064255 L   I
 OLDACT:UP  15-07-13 16:37 OP:spq  STATUS:               ID:20150713063735     3
 OLDACT:REG 15-07-13 13:07 OP:spq  STATUS:               ID:20150713063735     3
 2015-07-13-0637-35M.COL___337                                                 6
 STAT SP IPHASW D HRMM SECON CODA AMPLIT PERI AZIMU VELO AIN AR TRES W  DIS CAZ7
 OCA  HZ IP     D  643 14.03                             138   -0.1810 90.3  23 
 OCA  HN ES        643 29.01                             138   -0.1910 90.3  23 
 PAM  EZ EP     D  643 16.21                             133    0.2210  106  99 
 PAM  EN ES        643 32.64                             133    0.2810  106  99 
 PAM  EZ I         643 34.54        91.2 0.20            137            106  99 
 BAR2 EZ EP        643 16.19                             132    0.0010  112 153 
 BAR2 EZ ES   1    643 32.31                             132   -0.40 7  112 153 
 BAR2 EZ I         643 34.76        38.2 0.18            131            112 153 
 ZAR  HZ IP     C  643 17.89                             126   -0.1010  134 270 
 ZAR  HE ES        643 36.34                             126    0.4310  134 270 
 ZAR  HZ I         643 39.66        48.0 0.10            125            134 270 
 SML  HZ EP        643 19.26                             122   -0.59 9  152 342 
 SML  HE ES   1    643 39.18                             122   -0.06 7  152 342 
 SML  HZ I         643 40.32       101.2 0.26            124            152 342 
 RUS  HZ EP        643 24.05                             116   -0.17 9  187 161 
 RUS  HN ES   1    643 47.79                             116    0.78 7  187 161 
 RUS  HZ I         643 49.17        21.1 0.20            116            187 161 
 LL2C HZ EP        643 28.86                             111    0.54 8  230   6 
 LL2C HN ES   4    643 55.75                             111    1.45 0  230   6 
 LL2C HZ I         643 58.69        60.0 0.34            113            230   6 
 NOR  HZ EP   1    643 31.76                             108    0.73 6  252 212 
 NOR  HE ES        643 58.31                             108   -0.82 8  252 212 
 NOR  HZ I         644  5.25        16.1 0.40            108            252 212 
 HEL  HZ EP        643 31.25                             108   -0.23 8  253 235 
 HEL  HE ES   4    643 55.98                             108   -3.96 0  253 235 
 HEL  HZ I         644  8.23        11.6 0.20            108            253 235 
 MON  HZ EP   4 D  643 31.17                             107   -1.16 0  264 303 
 MON  HE ES   4    643 59.67                             107   -1.77 0  264 303 
 MON  HZ I         644  2.25         6.1 0.09            108            264 303 
 DBB  SZ ES   1    644  6.82                             106    0.24 5  288 260 
 DBB  SZ I         644 10.43        33.2 0.54            106            288 260 
 ROSC BE ES   4    644 11.88                             105    1.59 0  302 194 
 ROSC BZ I         644 16.70        10.2 0.50            105            302 194 
 GUY2CHZ EP        643 39.46                             104    0.62 7  315 217 
 GUY2CHE ES        644 12.82                             104   -0.22 7  315 217 
 GUY2CHZ I         644 20.36         9.7 0.46                           315 217 
 SJC  HZ EP   4    643 37.37                             104   -1.03 0  315 328 
 SJC  HN ES   4    644  9.45                             104   -2.80 0  315 328 
 SJC  HZ I         644 12.33         4.0 0.26            105            315 328 
 CHI  HZ EP   1    643 39.26                             104    0.27 5  316 182 
 CHI  HE ES   1    644 13.76                             104    0.46 5  316 182 
 CHI  HZ I         644 24.06         8.4 0.62            104            316 182 
 CBOC HZ EP   4    643 39.83                             104    1.02 0  317 236 
 CBOC HE ES        644 12.45                             104   -0.53 7  317 236 
 CBOC HZ I         644 23.62         5.6 0.36            104            317 236 
 TOL  SZ EP   4    643 47.41                             101    2.03 0  371 210 
 TOL  SN ES   1    644 25.31                             101    0.64 5  371 210 
 TOL  SZ I         644 32.61         7.0 0.40            101            371 210 
 ANIL HE ES   4    644 32.34                             100    4.85 0  384 210 
 ANIL HZ I         644 40.16        19.0 0.22            100            384 210 
 PTGC HZ EP        643 47.83                              99   -0.71 6  401 155 
 PTGC HE ES        644 29.46                              99   -0.83 6  401 155 
 PTGC HZ I         644 33.90         9.8 0.32            100            401 155 
 PAL  HZ EP        643 50.15                              99    0.58 6  408 226 
 PAL  HN ES   4    644 31.07                              99   -1.07 0  408 226 
 PAL  HZ I         644 36.11         7.5 0.48             99            408 226 
 ORTC HZ EP        643 53.06                              98    0.47 5  434 204 
 ORTC HE ES   4    644 40.28                              98    2.77 0  434 204 
 ORTC HZ I         644 46.73         6.0 0.70             98            434 204 
 PRA  HZ EP        643 53.29                              98   -0.00 5  440 198 
 PRA  HE ES   4    644 41.94                              98    3.18 0  440 198 
 PRA  HZ I         644 46.56         6.9 0.40             98            440 198 
                                                                                
