 2016  313 0326 56.1 L   6.801 -73.142140.9  RSN  7 0.3 1.4LRSN                1
 GAP=137        0.73       2.8     3.3  5.5 -0.1248E+01  0.7701E+01  0.4987E+00E
 Epicentro: LOS SANTOS - SANTANDER                                             3
 ACTION:UPD 16-05-13 21:23 OP:cam  STATUS:               ID:20160313032656 L   I
 OLDACT:REG 16-03-13 14:02 OP:cara STATUS:               ID:20160313031747     3
 2016-03-13-0317-47M.COL___292                                                 6
 STAT SP IPHASW D HRMM SECON CODA AMPLIT PERI AZIMU VELO AIN AR TRES W  DIS CAZ7
 BAR2 EZ IP        327 15.16                             170    0.0110 23.5 191 
 BAR2 EZ ES        327 29.75                             170   -0.2610 23.5 191 
 BAR2 EZ I         327 30.83         5.1 0.18            171           23.5 191 
 PAM  EZ EP        327 18.18                             150    0.4010 77.0  39 
 PAM  EN ES        327 34.92                             150    0.2410 77.0  39 
 PAM  EZ I         327 35.52         3.6 0.34            151           77.0  39 
 RUS  HZ EP        327 19.26                             143   -0.1310  101 176 
 RUS  HZ I         327 19.87         2.3 0.30            145            101 176 
 RUS  HE ES        327 37.62                             143    0.0810  101 176 
 PTB  HZ EP        327 22.24                             131   -0.48 9  148 259 
 PTB  HN ES        327 43.50                             131    0.02 9  148 259 
 PTB  HZ I         327 45.32         5.5 0.50            130            148 259 
 OCA  HE ES        327 45.37                             128   -0.45 9  160 353 
 OCA  HZ I         327 47.08         5.7 0.58            128            160 353 
 ZAR  HE ES        327 53.81                             121    0.44 9  204 292 
 ZAR  HZ I         327 59.01         2.7 0.58            121            204 292 
 GUY2CHZ EP        327 39.52                             111   -0.02 7  302 235 
 GUY2CHN ES        328 13.66                             111    0.24 7  302 235 
 GUY2CHZ I         328 22.16         1.1 0.56                           302 235 
                                                                                
