 2017 1213 0848 51.3 L   6.808 -73.148144.3  RSN 12 0.5 1.9LRSN                1
 GAP=111        1.25       3.5     4.5  7.5 -0.9555E+00  0.9887E+01  0.9955E+00E
 Epicentro: LOS SANTOS - SANTANDER                                             3
 ACTION:UPD 18-01-04 13:19 OP:rebc STATUS:               ID:20171213084851 L   I
 OLDACT:UP  17-12-13 19:00 OP:edw  STATUS:               ID:20171213084739     3
 OLDACT:UP  17-12-13 18:59 OP:edw  STATUS:               ID:20171213084739     3
 OLDACT:REG 17-12-13 13:31 OP:edw  STATUS:               ID:20171213084739     3
 2017-12-13-0848-00M.COL___443                                                 6
 STAT SP IPHASW D HRMM SECON CODA AMPLIT PERI AZIMU VELO AIN AR TRES W  DIS CAZ7
 BAR2 EZ EP     D  849 10.99                             170    0.1810 24.1 189 
 BAR2 EZ ES        849 26.17                             170    0.1710 24.1 189 
 BAR2 EZ I         849 27.35        24.6 0.20            170           24.1 189 
 PAM  EZ EP        849 13.83                             151    0.4610 76.9  40 
 PAM  EN ES        849 30.14                             151   -0.4110 76.9  40 
 PAM  EZ I         849 33.20         9.8 0.46            153           76.9  40 
 PTB  HZ EP        849 17.68                             132   -0.50 9  148 258 
 PTB  HN ES        849 38.92                             132   -0.20 9  148 258 
 PTB  HZ I         849 40.72         5.8 0.16            131            148 258 
 OCA  HZ EP        849 17.89                             129   -1.56 9  159 353 
 OCA  HE ES        849 41.58                             129    0.20 9  159 353 
 OCA  HZ I         849 46.03        12.6 0.38            130            159 353 
 SPBC HZ EP   3    849 19.69                             129   -0.09 2  164 219 
 SPBC HN ES        849 41.99                             129    0.03 9  164 219 
 SPBC HZ I         849 44.78        17.5 0.38            129            164 219 
 YPLC HZ EP        849 21.18                             126    0.07 9  178 151 
 YPLC HN ES        849 44.70                             126    0.37 9  178 151 
 ZAR  HZ EP        849 23.61                             122   -0.02 9  204 292 
 ZAR  HN ES        849 49.21                             122    0.39 9  204 292 
 ZAR  HZ I         849 54.80         6.7 0.44            122            204 292 
 DRL03HE ES        850  6.02                             113    0.92 7  288 353 
 GUY2CHZ EP   4    849 36.15                             112    1.24 0  301 235 
 GUY2CHE ES   4    850 10.36                             112    1.46 0  301 235 
 GUY2CHZ I         850 18.16         2.6 0.34                           301 235 
 PTGC HZ EP   9    849 33.91                             111   -1.32 0  310 159 
 PTGC HN ES        850  7.42                             112   -0.73 7  310 159 
 CBOC HZ EP        849 39.18                             110    0.98 7  334 252 
 CBOC HN ES        850 14.59                             110   -0.16 7  334 252 
 CBOC HZ I         850 20.89         1.1 0.66            110            334 252 
 PRA  HZ EP        849 44.83                             106   -0.05 6  393 209 
 PRA  HN ES        850 26.31                             106   -0.34 6  393 209 
 PRA  HZ I         850 34.61         2.8 0.30            107            393 209 
                                                                                
