 2011 1213 0202 21.7 L   6.784 -73.144143.9  RSN  8 0.4 1.5LRSN                1
 GAP=137        0.80       4.2     5.4  6.8 -0.4442E+01  0.4211E+01  0.8394E+01E
 Epicentro: LOS SANTOS - SANTANDER                                             3
 ACTION:UPD 12-07-13 16:15 OP:ep   STATUS:               ID:20111213020221 L   I
 2011-12-13-0200-00M.COL___185                                                 6
 STAT SP IPHASW D HRMM SECON CODA AMPLIT PERI AZIMU VELO AIN AR TRES W  DIS CAZ7
 BAR2 SZ ES   1    2 2 56.17                             171    0.00 7 21.6 191 
 GIR2 SZ EP   2    2 2 40.84                             166   -0.36 5 33.1 351 
 BRR  HZ EP   1    2 2 42.85                             152    0.15 7 72.2 300 
 BRR  HZ I         2 2 46.70         5.7 0.12                          72.2 300 
 BRR  HN ES   1    2 2 59.92                             152    0.84 7 72.2 300 
 PAM  SZ EP   1    2 2 43.63                             150   -0.16 7 78.7  39 
 PAM  SN ES   1    2 3  0.78                             150   -0.24 7 78.7  39 
 RUS  HZ EP   1    2 2 45.02                             144   -0.11 7 98.7 176 
 RUS  HN ES   1    2 3  3.43                             144    0.02 7 98.7 176 
 RUS  HZ I         2 3  4.97         3.3 0.41                          98.7 176 
 PTB  HZ EP   1    2 2 48.54                             132    0.04 7  148 260 
 PTB  HN ES   1    2 3  8.40                             132   -1.00 7  148 260 
 PTB  HZ I         2 3 12.35         3.5 0.15                           148 260 
 CTAU SZ EP   1    2 2 55.06                             123    0.67 6  201 210 
 CTAU SZ ES   1    2 3 20.07                             123    0.18 6  201 210 
 CTAU SZ I         2 3 27.65         5.5 0.33                           201 210 
 CHI  HZ EP   1    2 2 59.11                             117    0.00 6  247 195 
 CHI  HN ES   1    2 3 28.09                             117   -0.19 6  247 195 
 CHI  HZ I         2 3 34.23         1.6 0.18                           247 195 
                                                                                
