 2010  813 0521 38.9 L   6.788 -73.115145.5  RSN  7 0.2 1.9LRSN                1
 GAP=162        0.51       2.4    11.2  5.5 -0.1196E+02  0.1146E+02 -0.2259E+01E
 Epicentro: LOS SANTOS - SANTANDER                                             3
 ACTION:UP  10-09-07 10:54 OP:vdl  STATUS:               ID:20100813052138 L   I
 2010-08-13-0519-01S.COL___126                                                 6
 STAT SP IPHASW D HRMM SECON CODA AMPLIT PERI AZIMU VELO SNR AR TRES W  DIS CAZ7
 BAR2 SZ EP   1    521 58.24                             171    -0.3 8   23 199 
 BAR2 SZ ES   2    522 13.60                             171    -0.2 5   23 199 
 BAR2 SZ I         522 14.88        21.2 0.39                            23 199 
 GIR2 SZ EP   1    521 58.69                             167     0.0 8   33 345 
 RUS  HZ EP   1    522  2.75                             145     0.2 8   99 178 
 RUS  HE ES   1    522 20.97                             145     0.0 8   99 178 
 RUS  HZ I         522 22.49         9.3 0.29                            99 178 
 GUE  SZ EP        522  3.49                             140    -0.210  117  10 
 GRA  SZ IP        522  4.37                             138     0.210  126  16 
 GRA  SZ I         522  5.55        13.0 0.29                           126  16 
 GRA  SZ ES   1    522 23.97                             138     0.1 7  126  16 
 OCA  SZ EP   1    522  7.10                             130    -0.3 7  162 352 
 OCA  SZ ES   1    522 29.85                             130     0.3 7  162 352 
 OCA  SZ I         522 35.48        12.2 0.32                           162 352 
 CHI  HZ EP   1    522 16.59                             118     0.0 6  248 196 
 CHI  HZ I         522 19.30         3.9 0.43                           248 196 
 CHI  HE ES   2    522 46.44                             118     0.5 4  248 196 
                                                                                
