 2017 1013 0908 22.7 L   6.801 -73.148138.4  RSN 10 0.5 2.0LRSN                1
 GAP=112        1.10       3.8     4.0  6.5  0.1903E+01  0.9219E+01  0.6119E+01E
 Epicentro: LOS SANTOS - SANTANDER                                             3
 ACTION:UPD 17-11-07 19:31 OP:rebc STATUS:               ID:20171013090822 L   I
 OLDACT:UP  17-10-13 20:10 OP:leo  STATUS:               ID:20171013090720     3
 OLDACT:REG 17-10-13 14:21 OP:leo  STATUS:               ID:20171013090720     3
 2017-10-13-0908-00M.COL___417                                                 6
 STAT SP IPHASW D HRMM SECON CODA AMPLIT PERI AZIMU VELO AIN AR TRES W  DIS CAZ7
 BAR2 EZ EP        9 8 41.22                             170   -0.2010 23.4 189 
 BAR2 EZ ES        9 8 55.80                             170   -0.2410 23.4 189 
 BAR2 EZ I         9 8 57.00        24.4 0.22            169           23.4 189 
 PAM  EZ EP        9 8 44.35                             149    0.2310 77.4  40 
 PAM  EN ES        9 9  1.11                             149    0.2810 77.4  40 
 PAM  EZ I         9 9  3.37        46.9 0.62            152           77.4  40 
 RUS  HZ EP        9 8 45.49                             142   -0.2310  101 176 
 RUS  HN ES        9 9  3.63                             142   -0.0710  101 176 
 RUS  HZ I         9 9  4.72        21.1 0.38            143            101 176 
 PTB  HZ EP        9 8 48.36                             130   -0.68 9  148 259 
 PTB  HN ES        9 9  9.16                             130   -0.44 9  148 259 
 PTB  HZ I         9 9 11.29        11.8 0.30            130            148 259 
 YPLC HZ EP        9 8 51.72                             125   -0.25 9  177 151 
 YPLC HN ES        9 9 15.48                             125    0.66 9  177 151 
 ZAR  HZ EP        9 8 54.43                             121   -0.20 9  204 292 
 ZAR  HN ES        9 9 20.16                             121    0.61 9  204 292 
 ZAR  HZ I         9 9 25.46        13.0 0.38            121            204 292 
 NOR  HZ EP        9 8 57.72                             117   -0.26 8  235 234 
 NOR  HN ES        9 9 26.12                             117    0.60 8  235 234 
 NOR  HZ I         9 9 31.08         6.3 0.16            117            235 234 
 CHI  HZ EP        9 8 59.68                             115   -0.31 8  249 195 
 CHI  HN ES        9 9 28.63                             115   -0.46 8  249 195 
 CHI  HZ I         9 9 32.94         3.2 0.26            116            249 195 
 GUY2CHZ EP        9 9  7.05                             111    1.10 7  301 235 
 GUY2CHN ES   4    9 9 42.23                             111    2.54 0  301 235 
 GUY2CHZ I         9 9 48.90         4.8 0.56                           301 235 
 PRA  HZ EP        9 9 15.65                             105   -0.31 6  392 210 
 PRA  HE ES        9 9 58.62                             105    1.11 6  392 210 
 PRA  HZ I         910  2.00         3.6 0.32            106            392 210 
                                                                                
