 2013  613 0255 59.6 L   6.810 -73.134150.9  RSN 13 0.4 2.3LRSN                1
 GAP=111        0.87       2.5     3.0  4.9 -0.7008E-01  0.1021E+01 -0.4614E+00E
 Epicentro: LOS SANTOS - SANTANDER                                             3
 ACTION:UPD 14-01-08 09:54 OP:ep   STATUS:               ID:20130613025559 L   I
 OLDACT:REG 13-06-13 07:31 OP:cam  STATUS:               ID:20130613024959     3
 2013-06-13-0249-59M.COL___260                                                 6
 STAT SP IPHASW D HRMM SECON CODA AMPLIT PERI AZIMU VELO AIN AR TRES W  DIS CAZ7
 BAR2 SZ IP     C  256 19.69                             170   -0.1710 24.7 193 
 BAR2 SZ ES   1    256 35.77                             170    0.10 7 24.7 193 
 BAR2 SZ I         256 37.83        29.5 0.23            170           24.7 193 
 GIR2 SZ EP   2    256 19.53                             168   -0.31 5 30.4 347 
 BRR  HZ EP        256 21.59                             153    0.2710 71.8 297 
 BRR  HN ES        256 39.14                             153    0.8610 71.8 297 
 BRR  HZ I         256 45.19        29.7 0.18            154           71.8 297 
 RUS  HZ EP        256 23.56                             145   -0.3510  102 177 
 RUS  HN ES        256 42.46                             145   -0.4410  102 177 
 RUS  HZ I         256 43.31        13.5 0.38            143            102 177 
 PTB  HZ EP        256 26.63                             133   -0.48 9  149 259 
 PTB  HN ES        256 48.11                             133   -0.47 9  149 259 
 PTB  HZ I         256 53.46        40.5 0.44            133            149 259 
 TAM  HZ EP        256 27.87                             132    0.29 9  154 106 
 TAM  HZ I         256 48.62        22.3 0.38            129            154 106 
 TAM  HN ES        256 49.63                             132    0.21 9  154 106 
 OCA  HZ EP   2    256 28.42                             131    0.22 5  159 353 
 OCA  HN ES        256 50.44                             131   -0.09 9  159 353 
 OCA  HZ I         256 55.37        23.7 0.48            129            159 353 
 NOR  HZ EP        256 35.84                             119    0.05 8  236 234 
 NOR  HN ES        257  3.94                             119   -0.11 8  236 234 
 NOR  HZ I         257  7.39        23.2 0.70            119            236 234 
 SML  HZ EP        256 36.21                             119   -0.24 8  243 335 
 SML  HN ES   1    257  4.50                             119   -0.71 6  243 335 
 SML  HZ I         257  7.64        41.0 0.10            117            243 335 
 CHI  HZ EP   1    256 38.30                             118    0.58 6  250 195 
 CHI  HN ES   1    257  7.35                             118   -0.12 6  250 195 
 CHI  HZ I         257 13.02        10.9 0.26            117            250 195 
 ROSC BZ EP   4    256 40.20                             118    2.04 0  254 211 
 HEL  HN ES   1    257 12.49                             116    0.55 6  274 256 
 HEL  HZ I         257 18.01        12.5 0.50            115            274 256 
 COD  HZ EP        256 47.98                             110   -0.07 6  347 354 
 COD  HN ES   1    257 26.33                             110    0.48 5  347 354 
 COD  HZ I         257 31.18         5.0 0.44            109            347 354 
 PRA  HZ EP        256 54.08                             107    0.61 6  394 210 
 PRA  HN ES   1    257 35.98                             107    0.47 4  394 210 
 PRA  HZ I         257 41.37        13.2 0.38            106            394 210 
                                                                                
