 2010 1213 0534  5.1 L   6.810 -73.124142.0  RSN 11 0.4 2.4LRSN                1
 GAP=162        0.67       3.0     4.6  7.6 -0.2132E+01  0.1073E+02 -0.1246E+01E
 Epicentro: LOS SANTOS - SANTANDER                                             3
 ACTION:UP  11-01-14 15:24 OP:pat  STATUS:               ID:20101213053405 L   I
 2010-12-13-0530-10S.COL___130                                                 6
 STAT SP IPHASW D HRMM SECON CODA AMPLIT PERI AZIMU VELO SNR AR TRES W  DIS CAZ7
 BAR2 SZ IP        534 24.54                             170     0.310   25 195 
 BAR2 SZ I         534 24.73        50.2 0.16                            25 195 
 RUS  HZ EP        534 28.41                             143    -0.110  102 177 
 RUS  HE ES   1    534 46.65                             143    -0.2 7  102 177 
 RUS  HZ I         534 48.05        27.1 0.34                           102 177 
 OCA  SZ EP        534 32.88                             129    -0.1 9  159 352 
 OCA  SZ ES   2    534 54.51                             129    -0.3 5  159 352 
 OCA  SZ I         535  0.45        49.9 0.20                           159 352 
 YOP  SZ EP   1    534 35.14                             126     0.3 7  179 154 
 YOP  SN ES   2    534 58.46                             126     0.4 4  179 154 
 YOP  SZ I         535  0.16        17.8 0.63                           179 154 
 NOR  SZ EP   2    534 40.62                             117    -0.3 4  237 235 
 NOR  SE ES   2    535  8.57                             117    -0.2 4  237 235 
 CHI  HZ EP        534 42.57                             116    -0.2 8  250 196 
 CHI  HZ I         534 44.90         9.8 0.29                           250 196 
 CHI  HE ES   1    535 12.01                             116    -0.1 6  250 196 
 ROSC BN ES   1    535 12.82                             116    -0.2 6  255 211 
 ROSC BZ I         535 20.45        31.4 0.45                           255 211 
 HEL  HN ES   1    535 17.66                             114     0.8 6  275 256 
 HEL  HZ I         535 25.03        10.9 0.36                           275 256 
 RREF HZ EP   2    534 51.87                             110     0.5 3  324 230 
 RREF HN ES   2    535 26.38                             110    -1.1 3  324 230 
 RREF HZ I         535 34.19        21.3 0.20                           324 230 
 TOL  SZ EP   2    534 54.16                             108     0.7 3  346 225 
 PRA  HZ EP        534 58.43                             106    -0.3 6  394 210 
 PRA  HE ES   2    535 40.65                             106     0.1 3  394 210 
                                                                                
