 2011 1213 0933  2.9 L   6.727 -73.236154.2  RSN  4 0.4 1.8LRSN                1
 GAP=210        0.78       8.8     9.1  7.9  0.4292E+02  0.1555E+02  0.6085E+01E
 Epicentro: VILLANUEVA - SANTANDER                                             3
 ACTION:UPD 12-07-13 16:15 OP:ep   STATUS:               ID:20111213093302 L   I
 2011-12-13-0930-00M.COL___184                                                 6
 STAT SP IPHASW D HRMM SECON CODA AMPLIT PERI AZIMU VELO AIN AR TRES W  DIS CAZ7
 BAR2 SZ EP        933 23.00                             174   -0.4410 16.1 158 
 BAR2 SZ ES   1    933 38.99                             174   -0.46 7 16.1 158 
 BAR2 SZ I         933 45.15         7.8 0.45                          16.1 158 
 BRR  HZ EP   1    933 25.09                             155    0.31 7 67.3 309 
 BRR  HN ES   1    933 42.22                             155    0.40 7 67.3 309 
 BRR  HN I         933 43.20        21.8 0.17                          67.3 309 
 RUS  HZ EP   1    933 27.20                             147    0.15 7 93.8 170 
 RUS  HE ES   1    933 46.34                             147    0.47 7 93.8 170 
 PTB  HZ EP        933 29.69                             136    0.08 9  137 261 
 PTB  HN ES   2    933 49.91                             136   -0.52 5  137 261 
                                                                                
