 2014  313 0409 15.2 L   6.803 -73.124147.7  RSN 16 0.4 1.9LRSN                1
 GAP=139        0.76       2.2     3.1  4.9 -0.1156E+01  0.5618E+01  0.7045E-01E
 Epicentro: LOS SANTOS - SANTANDER                                             3
 2014-03-13-0408-15M.COL___238                                                 6
 OLDACT:REG 14-03-13 07:26 OP:fm   STATUS:               ID:20140313040815     3
 ACTION:UPD 14-04-09 23:16 OP:nd   STATUS:               ID:20140313040915 L   I
 OLDACT:UP  14-03-13 08:46 OP:fm   STATUS:               ID:20140313040815     3
 STAT SP IPHASW D HRMM SECON CODA AMPLIT PERI AZIMU VELO AIN AR TRES W  DIS CAZ7
 BAR2 SZ EP        4 9 34.98                             170   -0.0810 24.2 196 
 BAR2 SZ ES   1    4 9 50.29                             170   -0.28 7 24.2 196 
 BAR2 SZ I         4 9 51.09        16.6 0.34            164           24.2 196 
 PAM  SZ EP        4 9 37.40                             152   -0.1010 75.6  38 
 PAM  SN ES        4 9 55.00                             152    0.1010 75.6  38 
 PAM  SZ I         4 9 56.68        17.3 0.60            148           75.6  38 
 RUS  HZ EP        4 9 39.33                             144    0.1910  101 177 
 RUS  HN ES        4 9 58.01                             144    0.1910  101 177 
 RUS  SZ I         410  0.02         8.4 0.54            135            101 177 
 PTB  HZ EP   2    4 9 41.87                             132   -0.66 5  150 259 
 PTB  HE ES        410  3.28                             132   -0.58 9  150 259 
 PTB  SZ I         410  8.73         6.7 0.16            121            150 259 
 OCA  HE ES   1    410  5.51                             130   -0.32 7  160 352 
 SPBC HZ EP        4 9 44.11                             129    0.11 9  165 220 
 SPBC HE ES   1    410  7.35                             129    0.87 7  165 220 
 SPBC SZ I         410 14.28        13.2 0.28            119            165 220 
 ZAR  HN ES   1    410 13.95                             123    0.41 6  206 292 
 NOR  HZ EP        4 9 51.15                             119   -0.10 8  237 235 
 NOR  HN ES        410 19.12                             119   -0.27 8  237 235 
 NOR  SZ I         410 25.72         5.7 0.64            110            237 235 
 SML  HZ EP        4 9 51.33                             118   -0.66 8  244 335 
 SML  HE ES        410 21.29                             118    0.59 8  244 335 
 SML  SZ I         410 23.12        11.4 0.10            110            244 335 
 CHI  HZ EP        4 9 53.17                             117    0.08 8  250 196 
 CHI  HE ES   1    410 22.27                             117   -0.39 6  250 196 
 CHI  SZ I         410 27.67         4.7 3.14            109            250 196 
 ROSC BE ES   2    410 23.78                             117    0.26 4  254 211 
 HEL  HZ EP   1    4 9 55.77                             115    0.01 6  275 256 
 HEL  HN ES        410 27.87                             115    0.46 8  275 256 
 HEL  SZ I         410 33.83         4.1 1.58            107            275 256 
 URE  HE ES   4    410 26.68                             114   -2.19 0  286 292 
 CBOC HZ EP   2    410  3.30                             110    0.85 3  336 252 
 CBOC SZ I         411  6.68         3.9 2.66            103            336 252 
 DBB  SZ ES   2    410 39.53                             110   -0.79 3  342 274 
 ARGC HN ES   2    410 44.60                             109    0.80 3  360 340 
 ORTC HZ EP   2    410  8.92                             107   -0.45 3  397 216 
 ORTC HN ES   2    410 51.70                             107    0.07 3  397 216 
 ORTC SZ I         410 58.92         3.1 0.46            100            397 216 
                                                                                
