 2017  213 0840 17.4 L   6.630 -73.289139.7  RSN  4 0.2 1.0LRSN                1
 GAP=151        0.67       4.9     4.6  5.5  0.1083E+02  0.5095E+01  0.2936E+01E
 Epicentro: GALAN - SANTANDER                                                  3
 *TAM-RUS                                                                      3
 ACTION:UPD 17-05-24 15:36 OP:jn   STATUS:               ID:20170213084017 L   I
 OLDACT:UP  17-02-13 18:42 OP:dani STATUS:               ID:20170213083745     3
 OLDACT:REG 17-02-13 12:16 OP:edw  STATUS:               ID:20170213083745     3
 2017-02-13-0838-00M.COL___340                                                 6
 STAT SP IPHASW D HRMM SECON CODA AMPLIT PERI AZIMU VELO AIN AR TRES W  DIS CAZ7
 BAR2 EZ EP        840 36.49                             175    0.3610 12.5 109 
 BAR2 EZ ES        840 50.44                             175   -0.2910 12.5 109 
 BAR2 EZ I         840 51.37         3.5 0.44            174           12.5 109 
 BRR  HZ EP        840 37.99                             152    0.1310 70.5 319 
 BRR  HN ES        840 53.81                             152   -0.0010 70.5 319 
 BRR  HZ I         840 54.83         2.6 0.24            152           70.5 319 
 RUS  HZ EP        840 39.07                             147   -0.3710 84.6 164 
 RUS  HN ES        840 56.90                             147    0.2710 84.6 164 
 RUS  HZ I         840 58.44         1.9 0.27            147           84.6 164 
 PTB  HZ EP        840 42.09                             135   -0.1510  129 266 
 PTB  HN ES        841  1.66                             135    0.0510  129 266 
 PTB  HZ I         841  6.61         1.1 0.14            133            129 266 
                                                                                
