 2010  913 0251 32.1 L   6.660 -73.519109.7  RSN  5 0.2 1.2LRSN                1
 GAP=186        0.52       4.4     7.4  5.1  0.1585E+02 -0.5950E+01 -0.7606E+00E
 Epicentro: EL CARMEN DE CHUCURI - SANTANDER                                   3
 ACTION:UP  11-02-18 11:02 OP:tino STATUS:               ID:20100913025132 L   I
 2010-09-13-0250-25S.COL___120                                                 6
 STAT SP IPHASW D HRMM SECON CODA AMPLIT PERI AZIMU VELO SNR AR TRES W  DIS CAZ7
 BAR2 SZ ES   1    252  0.21                             160     0.0 7   38 101 
 BTL  SZ EP        251 48.31                             159     0.310   40  44 
 BRR  HZ EP        251 48.39                             152     0.010   54 337 
 BRR  HZ I         251 48.66         5.8 0.12                            54 337 
 BRR  HN ES   1    252  0.93                             152    -0.1 7   54 337 
 RUS  HZ EP        251 52.15                             136    -0.110   98 150 
 RUS  HZ I         252  8.81         2.8 0.32                            98 150 
 GUE  SZ EP        251 56.38                             123    -0.1 9  145  27 
                                                                                
