 2015  413 0154 19.7 L   6.765 -73.155146.5  RSN  6 0.3 1.6LRSN                1
 GAP=137        0.76       3.9     3.4  5.6  0.1162E+01  0.3624E+01  0.2244E+00E
 Epicentro: LOS SANTOS - SANTANDER                                             3
 ACTION:UPD 15-06-03 16:54 OP:cam  STATUS:               ID:20150413015419 L   I
 OLDACT:REG 15-04-13 13:06 OP:carl STATUS:               ID:20150413014749     3
 2015-04-13-0147-49M.COL___266                                                 6
 STAT SP IPHASW D HRMM SECON CODA AMPLIT PERI AZIMU VELO AIN AR TRES W  DIS CAZ7
 BAR2 EZ EP        154 39.30                             172   -0.0710 19.4 189 
 BAR2 EZ ES        154 54.74                             172    0.0410 19.4 189 
 BAR2 EZ I         154 57.17         7.0 0.24            172           19.4 189 
 BRR  HZ EP        154 41.26                             152    0.2510 72.2 302 
 BRR  HN ES        154 58.17                             152    0.5610 72.2 302 
 BRR  HZ I         155  1.87         6.6 0.14            150           72.2 302 
 PAM  SZ EP        154 42.21                             150   -0.0210 81.0  38 
 PAM  SN ES        154 59.43                             150   -0.3710 81.0  38 
 PAM  SZ I         155  1.39         4.5 0.24            153           81.0  38 
 RUS  HZ EP        154 43.66                             145    0.3810 96.8 175 
 RUS  HN ES        155  1.46                             145   -0.2010 96.8 175 
 PTB  HZ EP        154 46.41                             132   -0.18 9  146 260 
 PTB  HN ES        155  7.26                             132   -0.29 9  146 260 
 PTB  HZ I         155 13.37         4.6 0.20            133            146 260 
 ZAR  HN ES        155 17.41                             122   -0.24 9  205 293 
 ZAR  HZ I         155 23.52         7.2 0.58            123            205 293 
                                                                                
