 2017 1013 0847 47.7 L   6.811 -73.170150.0  RSN 10 0.5 2.4LRSN                1
 GAP=143        1.19       4.8     4.0  7.2 -0.1400E+01  0.3061E+01  0.9085E+01E
 Epicentro: LOS SANTOS - SANTANDER                                             3
 ACTION:UPD 17-11-07 19:31 OP:rebc STATUS:               ID:20171013084747 L   I
 OLDACT:UP  17-10-13 19:50 OP:leo  STATUS:               ID:20171013083741d    3
 OLDACT:DUP 17-10-13 19:47 OP:leo  STATUS:               ID:20171013083741d    3
 2017-10-13-0838-00M.COL___423                                                 6
 STAT SP IPHASW D HRMM SECON CODA AMPLIT PERI AZIMU VELO AIN AR TRES W  DIS CAZ7
 BAR2 EZ IP     D  848  7.74                             170   -0.1010 24.3 183 
 BAR2 EZ ES        848 22.98                             170   -0.5910 24.3 183 
 BAR2 EZ I         848 25.55        50.7 0.24            168           24.3 183 
 PAM  EZ EP        848 10.68                             151    0.2810 78.2  42 
 PAM  EN ES        848 27.98                             151   -0.1410 78.2  42 
 PAM  EZ I         848 29.91        30.1 0.50            156           78.2  42 
 RUS  HZ EP        848 11.70                             144   -0.2610  102 175 
 RUS  HN ES        848 31.10                             144    0.2110  102 175 
 RUS  HZ I         848 31.65        39.9 0.30            144            102 175 
 PTB  HZ EP        848 14.55                             133   -0.24 9  145 258 
 PTB  HN ES        848 35.94                             133    0.01 9  145 258 
 PTB  HZ I         848 36.54        25.8 0.16            133            145 258 
 TAM  HZ EP        848 16.12                             131    0.15 9  158 105 
 TAM  HN ES        848 38.44                             131    0.41 9  158 105 
 YPLC HZ EP        848 18.23                             127    0.21 9  179 151 
 YPLC HN ES        848 42.25                             127    0.57 9  179 151 
 YPLC HZ I         848 43.12        42.1 0.26            128            179 151 
 NOR  HZ EP        848 23.56                             119    0.05 8  233 234 
 NOR  HN ES        848 51.74                             119    0.29 8  233 234 
 NOR  HZ I         848 59.59        20.3 0.20            119            233 234 
 CHI  HZ EP        848 26.01                             118    0.33 8  249 194 
 CHI  HE ES        848 55.92                             118    0.61 8  249 194 
 CHI  HZ I         848 58.58        10.6 0.38            118            249 194 
 ROSC BZ EP   4    848 27.44                             117    1.43 0  252 210 
 ROSC BN ES   4    848 58.72                             117    2.82 0  252 210 
 ROSC BZ I         849  6.00        23.2 0.30            118            252 210 
 PTGC HZ EP   2    848 31.00                             112   -0.98 3  311 158 
 PTGC HN ES        849  4.55                             112   -1.97 7  311 158 
 PTGC HZ I         849  5.69        14.5 0.28            113            311 158 
                                                                                
