 2012  713 0101 33.9 L   6.800 -73.136146.9  RSN 16 0.5 2.7LRSN                1
 GAP= 66        1.01       3.2     3.7  5.8 -0.1168E+01  0.1023E+01  0.3590E+01E
 Epicentro: LOS SANTOS - SANTANDER                                             3
 ACTION:UP  12-08-14 11:44 OP:ep   STATUS:               ID:20120713010133 L   I
 2012-07-13-0100-00M.COL___197                                                 6
 STAT SP IPHASW D HRMM SECON CODA AMPLIT PERI AZIMU VELO AIN AR TRES W  DIS CAZ7
 BAR2 SZ IP        1 1 53.66                             170     0.010   24 192 
 BAR2 SZ ES   1    1 2  8.47                             170    -0.6 7   24 192 
 BAR2 SZ I         1 2  9.84       140.4 0.29            169             24 192 
 BRR  HZ EP        1 1 55.54                             152     0.310   72 298 
 BRR  HZ I         1 1 55.89       142.5 0.12            149             72 298 
 BRR  HN ES        1 2 12.47                             152     0.610   72 298 
 PAM  SZ EP   1    1 1 56.51                             151     0.3 7   77  39 
 PAM  SN ES   1    1 2 13.57                             151     0.0 7   77  39 
 RUS  HZ EP   1    1 1 57.52                             144    -0.3 7  101 177 
 RUS  HZ I         1 1 58.39        34.7 0.24            143            101 177 
 RUS  HN ES   1    1 2 16.61                             144     0.2 7  101 177 
 PTB  HZ EP   1    1 2  0.29                             132    -0.8 7  149 259 
 PTB  HN ES   1    1 2 21.39                             132    -0.9 7  149 259 
 PTB  HZ I         1 2 28.94        84.5 0.25            129            149 259 
 TAM  HZ IP     D  1 2  1.80                             131     0.2 9  154 105 
 OCA  HZ EP   1    1 2  1.99                             130    -0.3 7  160 353 
 OCA  HN ES   1    1 2 24.65                             130     0.2 7  160 353 
 OCA  HZ I         1 2 28.58       109.6 0.13            128            160 353 
 YOP  SZ EP   1    1 2  4.10                             127     0.1 7  178 154 
 YOP  SZ I         1 2  8.18        24.3 0.26            126            178 154 
 ZAR  HZ EP   1    1 2  6.32                             122    -0.2 6  205 292 
 ZAR  HN ES        1 2 32.02                             122     0.0 9  205 292 
 ZAR  HZ I         1 2 37.90        57.4 0.14            120            205 292 
 NOR  SZ EP   1    1 2  9.51                             119    -0.3 6  236 235 
 NOR  SN ES        1 2 37.55                             119    -0.2 8  236 235 
 CHI  HZ EP   1    1 2 11.21                             117    -0.5 6  249 195 
 CHI  HN ES   1    1 2 40.70                             117    -0.5 6  249 195 
 CHI  HZ I         1 2 50.86        21.5 0.31            116            249 195 
 ROSC BZ EP   1    1 2 13.00                             117     0.8 6  253 211 
 ROSC BN ES   1    1 2 41.92                             117    -0.1 6  253 211 
 HEL  HZ EP   1    1 2 14.97                             115     0.7 6  273 256 
 HEL  HN ES   1    1 2 46.36                             115     0.6 6  273 256 
 HEL  HZ I         1 2 52.90         7.8 0.07            113            273 256 
 TOL  SZ EP   1    1 2 23.15                             109     0.8 5  344 225 
 COD  HZ EP   1    1 2 21.84                             109    -0.5 5  348 354 
 COD  HN ES   1    1 2 59.34                             109    -0.8 5  348 354 
 COD  HZ I         1 3  9.01        13.6 0.31            108            348 354 
 PRA  HZ EP   1    1 2 27.49                             107    -0.1 4  393 210 
 PRA  HN ES   1    1 3 10.13                             107     0.8 4  393 210 
 PRA  HZ I         1 3 13.91        26.5 0.35            106            393 210 
