 2015  213 0010 41.2 L   6.737 -73.163132.5  RSN  7 0.5 1.5LRSN                1
 GAP=137        1.03       4.4     4.8  9.0 -0.2790E+01  0.1580E+02 -0.3195E+01E
 Epicentro: LOS SANTOS - SANTANDER                                             3
 ACTION:UPD 15-04-30 21:25 OP:nd   STATUS:               ID:20150213001041 L   I
 OLDACT:REG 15-02-13 12:31 OP:fm   STATUS:               ID:20150213000742     3
 2015-02-13-0007-42M.COL___290                                                 6
 STAT SP IPHASW D HRMM SECON CODA AMPLIT PERI AZIMU VELO AIN AR TRES W  DIS CAZ7
 BRR  HN ES   1    011 17.04                             149    0.50 7 73.2 304 
 PAM  SZ EP        011  2.27                             146   -0.2010 84.1  38 
 PAM  SE ES        011 18.68                             146   -0.3710 84.1  38 
 PAM  SZ I         011 21.39         8.9 0.56            151           84.1  38 
 RUS  HZ EP   1    011  3.94                             143    0.78 7 93.7 175 
 RUS  HE ES        011 20.69                             143    0.4110 93.7 175 
 RUS  HZ I         011 23.02         3.0 0.26            143           93.7 175 
 PTB  HZ EP   1    011  6.26                             129   -0.57 7  145 261 
 PTB  HN ES   1    011 26.57                             129   -0.24 7  145 261 
 PTB  HZ I         011 28.95         3.4 0.26            131            145 261 
 SPBC HE ES        011 28.29                             127   -0.73 9  157 220 
 SPBC HZ I         011 36.10         5.4 0.42            129            157 220 
 ZAR  HZ EP        011 13.12                             119    0.19 9  205 294 
 ZAR  HN ES        011 38.02                             119    0.35 9  205 294 
 GUY2CHZ EP   1    011 23.77                             110    0.18 5  296 236 
                                                                                
