 2011 1013 0033 41.5 L   6.806 -73.115143.7  RSN  4 0.2 1.6LRSN                1
 GAP=140        0.47       3.3     4.8  5.9 -0.1412E+01 -0.3525E+01  0.2448E+01E
 Epicentro: LOS SANTOS - SANTANDER                                             3
 ACTION:UPD 12-07-13 16:03 OP:ep   STATUS:               ID:20111013003341 L   I
 2011-10-13-0030-56S.COL___167                                                 6
 STAT SP IPHASW D HRMM SECON CODA AMPLIT PERI AZIMU VELO AIN AR TRES W  DIS CAZ7
 BAR2 SZ EP        034  0.71                             170   -0.2310 24.8 198 
 BAR2 SZ I         034 16.79        10.0 0.23                          24.8 198 
 BRR  HZ EP   1    034  2.47                             151   -0.14 7 73.9 297 
 BRR  HE ES   1    034 19.19                             151    0.13 7 73.9 297 
 BRR  HZ I         034 20.43        11.7 0.09                          73.9 297 
 PAM  SZ EP        034  3.61                             151    0.2510 74.7  38 
 PAM  SN ES   1    034 20.22                             151   -0.18 7 74.7  38 
 RUS  HZ EP   1    034  5.15                             143    0.04 7  101 178 
 RUS  HN ES   1    034 23.62                             143    0.11 7  101 178 
 RUS  HZ I         034 24.93         3.0 0.46                           101 178 
                                                                                
