 2014  513 0022 39.3 L   7.016 -73.136  8.0  RSN  5 0.5 1.0LRSN                1
 GAP=124        0.95       3.6     4.1  8.6 -0.6789E+01  0.1328E+02 -0.2647E+01E
 Epicentro: FLORIDABLANCA - SANTANDER                                          3
 OLDACT:REG 14-05-13 13:20 OP:spq  STATUS:               ID:20140513001809     3
 ACTION:UPD 15-03-16 16:57 OP:nd   STATUS:               ID:20140513002239 L   I
 OLDACT:UP  14-05-13 21:36 OP:nlst STATUS:               ID:20140513002239 L   3
 OLDACT:UP  14-05-13 15:57 OP:spq  STATUS:               ID:20140513001809     3
 2014-05-13-0018-09M.COL___251                                                 6
 STAT SP IPHASW D HRMM SECON CODA AMPLIT PERI AZIMU VELO AIN AR TRES W  DIS CAZ7
 PAM  SZ EPg  1    022 49.94                              96    0.45 8 60.0  53 
 PAM  SN ESg  1    022 57.02                              96   -0.44 8 60.0  53 
 PAM  SZ I         022 57.89         5.9 0.20             99           60.0  53 
 RUS  HZ EP     C  022 58.83                              92   -0.4110  124 177 
 RUS  HN ES   1    023 15.59                              92    0.78 7  124 177 
 RUS  HZ I         023 17.87         3.7 0.32             94            124 177 
 PTB  HZ EP   1    023  3.75                              92    0.35 7  155 250 
 PTB  HN ES   1    023 21.97                              92   -0.25 7  155 250 
 SPBC HE ES   1    023 28.43                              56   -0.50 7  183 215 
 SML  HN ES   2    023 38.35                              56    0.80 4  223 332 
                                                                                
