 2016  913 0506 38.4 L   6.781 -73.160147.4  RSN  6 0.4 1.6LRSN                1
 GAP=147        0.93       5.0     4.4  6.4 -0.5622E+01  0.6660E+01  0.1674E+01E
 Epicentro: LOS SANTOS - SANTANDER                                             3
 ACTION:UPD 17-08-17 21:09 OP:lp   STATUS:               ID:20160913050638 L   I
 OLDACT:REG 16-09-13 13:00 OP:and  STATUS:               ID:20160913045637     3
 2016-09-13-0457-00M.COL___318                                                 6
 STAT SP IPHASW D HRMM SECON CODA AMPLIT PERI AZIMU VELO AIN AR TRES W  DIS CAZ7
 BAR2 EZ EP        5 6 58.11                             171   -0.0810 21.0 187 
 BAR2 EZ ES        5 7 13.25                             171   -0.3710 21.0 187 
 BAR2 EZ I         5 7 15.82        10.1 0.34            171           21.0 187 
 BRR  HZ EP        5 6 59.91                             153    0.1910 70.9 301 
 BRR  HN ES        5 7 17.07                             153    0.7310 70.9 301 
 BRR  HZ I         5 7 20.99         6.4 0.16            152           70.9 301 
 PAM  EZ EP        5 7  1.01                             150    0.0510 80.0  39 
 PAM  EN ES        5 7 18.38                             150   -0.1710 80.0  39 
 PAM  EZ I         5 7 20.51         5.1 0.66            154           80.0  39 
 PTB  HZ EP        5 7  5.15                             133   -0.18 9  146 260 
 PTB  HN ES        5 7 25.64                             133   -0.70 9  146 260 
 PTB  HZ I         5 7 30.48         3.8 0.10            134            146 260 
 SPBC HZ EP        5 7  6.96                             130    0.17 9  161 219 
 SPBC HE ES        5 7 29.38                             130    0.46 9  161 219 
 SPBC HZ I         5 7 32.84         7.2 0.22            132            161 219 
 ZAR  HZ EP        5 7 10.79                             123   -0.10 9  203 293 
 ZAR  HE ES        5 7 36.18                             123   -0.05 9  203 293 
 ZAR  HZ I         5 7 41.25         3.5 0.26            124            203 293 
                                                                                
