 2015  113 0851 56.2 L   6.742 -73.138150.3  RSN  4 0.3 1.2LRSN                1
 GAP=234        0.86       6.9     6.7  6.9  0.2288E+02  0.3536E+01 -0.7845E-01E
 Epicentro: LOS SANTOS - SANTANDER                                             3
 ACTION:UPD 15-03-02 15:39 OP:nd   STATUS:               ID:20150113085156 L   I
 OLDACT:REG 15-01-13 12:54 OP:carl STATUS:               ID:20150113084749     3
 2015-01-13-0847-49M.COL___249                                                 6
 STAT SP IPHASW D HRMM SECON CODA AMPLIT PERI AZIMU VELO AIN AR TRES W  DIS CAZ7
 BAR2 EZ EP        852 16.20                             173   -0.0610 17.3 197 
 BAR2 EZ ES        852 31.87                             173   -0.0510 17.3 197 
 BAR2 EZ I         852 32.42         4.4 0.20            172           17.3 197 
 BRR  HZ EP        852 18.01                             152   -0.0510 75.2 302 
 BRR  HN ES        852 35.21                             152    0.1010 75.2 302 
 RUS  HZ EP        852 20.55                             147    0.6110 94.1 176 
 RUS  HN ES        852 38.19                             147   -0.2910 94.1 176 
 RUS  HZ I         852 39.70         1.7 0.20            146           94.1 176 
 PTB  HZ EP        852 22.94                             133   -0.57 9  148 261 
 PTB  HE ES        852 45.10                             133    0.28 9  148 261 
 PTB  HZ I         852 45.33         1.7 0.14            133            148 261 
                                                                                
