 2016 1213 0443 40.3 L   6.788 -73.417127.7  RSN  4 0.3 1.4LRSN                1
 GAP=173        0.58       4.2     3.7  5.4  0.7023E+01  0.5169E+00  0.3673E+01E
 Epicentro: SAN VICENTE DE CHUCURI - SANTANDER                                 3
 ACTION:UPD 17-01-11 20:14 OP:rebc STATUS:               ID:20161213044340 L   I
 OLDACT:REG 16-12-13 12:50 OP:y    STATUS:               ID:20161213043745     3
 2016-12-13-0438-00M.COL___369                                                 6
 STAT SP IPHASW D HRMM SECON CODA AMPLIT PERI AZIMU VELO AIN AR TRES W  DIS CAZ7
 BAR2 EZ EP        443 58.26                             164    0.2010 33.7 130 
 BAR2 EZ ES   2    444 11.13                             164   -0.77 5 33.7 130 
 BAR2 EZ I         444 12.05        15.8 0.26            167           33.7 130 
 BRR  HZ EP        443 58.18                             158   -0.0910 48.1 317 
 BRR  HZ I         444  8.20         8.0 0.24            149           48.1 317 
 BRR  HN ES        444 12.44                             158    0.1610 48.1 317 
 RUS  HZ EP        444  2.55                             138   -0.1810  106 160 
 RUS  HE ES        444 20.47                             138    0.2510  106 160 
 PTB  HZ EP     D  444  3.03                             134   -0.1010  118 257 
 PTB  HN ES        444 20.88                             134   -0.0610  118 257 
 PTB  HZ I         444 25.00         1.6 0.18            130            118 257 
                                                                                
