 2016  113 0659 17.2 L   6.770 -73.131141.6  RSN 11 0.4 1.7LRSN                1
 GAP=140        0.89       3.1     3.8  5.4 -0.6794E+00  0.7670E+01  0.3029E+01E
 Epicentro: LOS SANTOS - SANTANDER                                             3
 ACTION:UPD 16-03-09 23:24 OP:cam  STATUS:               ID:20160113065917 L   I
 OLDACT:UP  16-01-13 15:18 OP:drio STATUS:               ID:20160113065748     3
 OLDACT:REG 16-01-13 12:10 OP:drio STATUS:               ID:20160113065748     3
 2016-01-13-0657-48M.COL___328                                                 6
 STAT SP IPHASW D HRMM SECON CODA AMPLIT PERI AZIMU VELO AIN AR TRES W  DIS CAZ7
 BAR2 EZ EP        659 36.07                             171   -0.2310 20.5 196 
 BAR2 EZ ES        659 51.02                             171   -0.1510 20.5 196 
 BAR2 EZ I         659 51.97        16.1 0.14            169           20.5 196 
 BRR  HZ EP        659 38.02                             151   -0.0810 74.2 300 
 BRR  HN ES        659 54.82                             151    0.4410 74.2 300 
 BRR  HZ I         659 58.02        10.5 0.16            152           74.2 300 
 PAM  EZ EP        659 38.95                             150   -0.1510 79.0  37 
 PAM  EN ES        659 56.18                             150    0.0210 79.0  37 
 PAM  EZ I         659 57.67         7.8 0.58            154           79.0  37 
 RUS  HZ EP        659 39.93                             144   -0.4010 97.2 177 
 RUS  HN ES        659 58.83                             144    0.4910 97.2 177 
 RUS  HZ I         659 59.62         4.0 0.24            144           97.2 177 
 PTB  HZ EP   4    659 42.78                             131   -1.17 0  149 260 
 PTB  HN ES   4    7 0  3.14                             131   -1.65 0  149 260 
 PTB  HZ I         7 0  6.12         7.6 0.14            132            149 260 
 SPBC HZ EP        659 44.82                             128   -0.45 9  162 220 
 SPBC HN ES        7 0  7.08                             128   -0.05 9  162 220 
 SPBC HZ I         7 0 12.40         8.6 0.28            129            162 220 
 ZAR  HZ EP        659 49.94                             121    0.25 8  207 293 
 ZAR  HE ES        7 0 14.69                             121   -0.32 8  207 293 
 ZAR  HZ I         7 0 17.13         6.0 0.24            123            207 293 
 CHI  HZ EP        659 55.40                             117    1.00 8  246 196 
 CHI  HN ES        7 0 23.01                             117   -0.38 8  246 196 
 CHI  HZ I         7 0 30.98         1.6 0.46            118            246 196 
 SML  HZ EP   4    659 52.69                             116   -1.33 0  247 335 
 SML  HN ES   4    7 0 20.83                             116   -1.89 0  247 335 
 GUY2CHZ EP   4    7 0  2.54                             112    1.96 0  301 235 
 GUY2CHN ES        7 0 34.19                             112   -0.21 7  301 235 
 GUY2CHZ I         7 0 40.58         2.6 0.32                           301 235 
 CBOC HZ EP        7 0  4.44                             109    0.41 7  334 253 
 CBOC HN ES        7 0 40.67                             109    0.13 7  334 253 
 CBOC HZ I         7 0 41.74         1.1 0.46            110            334 253 
 SJC  HZ EP   4    7 0 10.23                             105   -2.86 0  413 327 
 SJC  HN ES   4    7 0 51.58                             105   -5.07 0  413 327 
 SJC  HZ E         7 0 55.47                                            413 327 
                                                                                
