 2011  613 0745 36.6 L   6.759 -73.082142.4  RSN  4 0.2 1.3LRSN                1
 GAP=166        0.46       4.0     7.0  6.7 -0.1698E+01 -0.5402E+01 -0.7653E+01E
 Epicentro: LOS SANTOS - SANTANDER                                             3
 ACTION:UP  11-07-14 19:04 OP:ep   STATUS:               ID:20110613074536 L   I
 2011-06-13-0741-38S.COL___132                                                 6
 STAT SP IPHASW D HRMM SECON CODA AMPLIT PERI AZIMU VELO SNR AR TRES W  DIS CAZ7
 BAR2 SZ ES   2    746 10.42         7.9 0.28            171    -0.3 5   22 211 
 BAR2 SZ I         746 13.95         7.9 0.28                            22 211 
 BRR  HZ EP        745 57.75                             149    -0.110   80 299 
 BRR  HE ES   2    746 14.83                             149     0.4 5   80 299 
 BRR  HZ I         746 20.11         4.6 0.11                            80 299 
 RUS  HZ EP   2    745 59.90                             145     0.2 5   96 180 
 RUS  HE ES   2    746 17.74                             145     0.1 5   96 180 
 RUS  HZ I         746 19.86         1.9 0.30                            96 180 
 GRA  SZ EP   1    746  1.72                             136     0.0 7  128  14 
 GRA  SZ ES   2    746 21.51                             136     0.2 5  128  14 
 GRA  SZ I         746 22.52         2.5 0.50                           128  14 
                                                                                
