 2015 1013 0032 37.2 L   6.522 -73.513104.1  RSN  8 0.6 1.4LRSN                1
 GAP=106        1.35       4.3     5.2  8.7 -0.8514E+01  0.1411E+02  0.6850E+01E
 Epicentro: EL CARMEN - SANTANDER                                              3
 ACTION:UPD 15-12-22 20:39 OP:cam  STATUS:               ID:20151013003237 L   I
 OLDACT:REG 15-10-13 13:47 OP:cara STATUS:               ID:20151013002746     3
 2015-10-13-0027-46M.COL___337                                                 6
 STAT SP IPHASW D HRMM SECON CODA AMPLIT PERI AZIMU VELO AIN AR TRES W  DIS CAZ7
 BAR2 EZ EP        032 52.70                             159    0.3810 37.4  78 
 BAR2 EZ ES        033  4.67                             159    0.5210 37.4  78 
 BAR2 EZ I         033  6.27        20.6 0.42            161           37.4  78 
 BRR  HZ EP        032 53.52                             144   -0.2810 68.3 341 
 BRR  HZ I         032 53.71         4.2 0.12            148           68.3 341 
 BRR  HN ES        033  7.25                             144    0.4810 68.3 341 
 RUS  HZ EP        032 55.79                             138    0.0810 84.3 146 
 RUS  HE ES        033  9.58                             138   -0.5910 84.3 146 
 RUS  HZ I         033 13.50         2.1 0.40            140           84.3 146 
 SPBC HZ EP        032 57.98                             128    0.1410  114 213 
 SPBC HN ES        033 13.56                             128   -0.4110  114 213 
 SPBC HZ I         033 16.12        10.7 0.28            131            114 213 
 PAM  EZ EP        032 59.23                             125   -0.4310  128  45 
 PAM  EE ES        033 16.90                             125   -0.3010  128  45 
 PAM  EZ I         033 18.76         6.0 0.26            129            128  45 
 NOR  HZ EP   1    033  5.58                             114    0.51 7  184 235 
 NOR  HE ES        033 25.45                             114   -1.38 9  184 235 
 NOR  HZ I         033 30.32         4.5 0.14            117            184 235 
 CHI  HZ EP        033  8.63                             111    0.07 8  211 187 
 CHI  HN ES        033 33.87                             111    0.83 8  211 187 
 GUY2CHZ EP        033 13.30                             107    0.09 8  250 235 
 GUY2CHN ES        033 42.11                             107    0.78 8  250 235 
                                                                                
