 2016  613 0844 25.1 L   6.810 -73.148145.4  RSN 24 0.5 2.6LRSN                1
 GAP= 71        1.00       2.5     2.9  4.5 -0.1592E+01  0.3583E+01  0.1142E+01E
 Epicentro: LOS SANTOS - SANTANDER                                             3
 ACTION:UPD 16-07-21 22:18 OP:rebc STATUS:               ID:20160613084425 L   I
 OLDACT:REG 16-06-13 13:11 OP:dnl  STATUS:               ID:20160613083742     3
 2016-06-13-0837-42M.COL___319                                                 6
 STAT SP IPHASW D HRMM SECON CODA AMPLIT PERI AZIMU VELO AIN AR TRES W  DIS CAZ7
 BAR2 EZ EP        844 44.58                             170   -0.1410 24.4 189 
 BAR2 EZ ES        844 59.88                             170   -0.1310 24.4 189 
 BAR2 EZ I         845  1.32       115.4 0.34                          24.4 189 
 BRR  HZ EP        844 46.40                             153    0.2210 70.4 298 
 BRR  HN ES        845  3.46                             153    0.8510 70.4 298 
 BRR  HZ I         845  6.62        67.9 0.26                          70.4 298 
 PAM  EZ EP        844 47.53                             151    0.2810 76.7  40 
 PAM  EN ES        845  4.50                             151   -0.0110 76.7  40 
 PAM  EZ I         845  6.76        78.2 0.56                          76.7  40 
 RUS  HZ EP        844 48.56                             143   -0.3510  102 176 
 RUS  HN ES        845  7.38                             143   -0.0910  102 176 
 RUS  HZ I         845  8.28        36.6 0.20                           102 176 
 PTB  HZ EP        844 51.38                             132   -0.67 9  148 258 
 PTB  HN ES        845 12.38                             132   -0.68 9  148 258 
 PTB  HZ I         845 19.19        75.2 0.82                           148 258 
 TAM  HZ EP        844 53.02                             130    0.21 9  156 105 
 TAM  HN ES        845 14.81                             130    0.40 9  156 105 
 TAM  HZ I         845 16.13        24.9 0.46                           156 105 
 OCA  HZ EP        844 52.59                             130   -0.69 9  159 353 
 OCA  HN ES        845 14.59                             130   -0.67 9  159 353 
 OCA  HZ I         845 17.89        83.4 0.26                           159 353 
 SPBC HZ EP        844 53.60                             129   -0.05 9  164 219 
 SPBC HN ES        845 15.90                             129   -0.01 9  164 219 
 SPBC HZ I         845 20.01        82.1 0.20                           164 219 
 NOR  HZ EP        845  0.77                             118   -0.10 8  235 234 
 NOR  HE ES        845 28.51                             118   -0.25 8  235 234 
 NOR  HZ I         845 37.95        25.8 0.14                           235 234 
 CHI  HZ EP        845  2.72                             117   -0.18 8  250 195 
 CHI  HN ES        845 32.03                             117   -0.35 8  250 195 
 CHI  HZ I         845 35.62        30.9 0.62                           250 195 
 ROSC BZ EP   4    845  4.41                             116    1.10 0  254 211 
 ROSC BN ES        845 34.04                             116    0.94 8  254 211 
 ROSC BZ I         845 39.29        68.3 0.45                           254 211 
 HEL  HZ EP        845  6.17                             115    0.86 8  272 256 
 HEL  HN ES        845 36.80                             115    0.13 8  272 256 
 HEL  HZ I         845 42.69        21.4 0.28                           272 256 
 URE  HZ EP   4    845  4.99                             114   -1.10 0  283 292 
 URE  HN ES   4    845 35.11                             114   -2.94 0  283 292 
 URE  HZ I         845 48.50        28.8 0.18                           283 292 
 GUY2CHZ EP        845  9.22                             112    0.46 7  302 235 
 GUY2CHE ES   4    845 46.88                             112    4.08 0  302 235 
 GUY2CHZ I         845 50.86        25.7 0.36                           302 235 
 PTGC HZ EP   4    845  7.71                             111   -1.37 0  310 159 
 PTGC HN ES   4    845 41.54                             111   -1.84 0  310 159 
 PTGC HZ I         845 42.99        15.9 0.24                           310 159 
 ELA  HZ EP   2    845 13.04                             110    1.03 3  330 229 
 ELA  HN ES   2    845 48.83                             110    0.24 3  330 229 
 ELA  HZ I         845 57.32        20.1 0.52                           330 229 
 CBOC HZ EP        845 12.37                             110    0.34 7  334 252 
 CBOC HN ES        845 49.14                             110    0.52 7  334 252 
 CBOC HZ I         845 59.50         5.2 0.20                           334 252 
 DBB  SZ EP   2    845 12.44                             109   -0.10 3  339 274 
 DBB  SZ ES   4    845 48.46                             109   -1.07 0  339 274 
 DBB  SZ I         845 50.19        52.3 0.30                           339 274 
 ARGC HZ EP        845 14.67                             108    0.05 6  358 340 
 ARGC HE ES        845 53.98                             108    0.75 6  358 340 
 ARGC HZ I         846  1.99         6.2 0.24                           358 340 
 PRA  HZ EP        845 18.45                             106   -0.27 6  393 209 
 PRA  HE ES        845 59.91                             106   -0.63 6  393 209 
 PRA  HZ I         846  7.05        24.6 0.52                           393 209 
 ORTC HZ EP        845 18.84                             106   -0.27 6  396 216 
 ORTC HN ES        846  1.37                             106    0.14 6  396 216 
 ORTC HZ I         846  6.01        16.7 0.24                           396 216 
 PAL  HZ EP        845 20.06                             106   -0.25 6  406 239 
 PAL  HN ES   4    846  1.46                             106   -1.89 0  406 239 
 PAL  HZ I         846  8.06         5.2 0.36                           406 239 
 SJC  HZ EP   4    845 18.24                             106   -2.29 0  408 327 
 SJC  HN ES   4    845 59.53                             106   -4.23 0  408 327 
 SJC  HZ I         846 14.40         7.4 0.62                           408 327 
 CRJC HZ EP   4    845 24.85                             103   -2.62 0  466   4 
 CRJC HE ES   4    846 12.45                             103   -3.65 0  466   4 
 CRJC HZ I         846 19.94        13.3 0.26                           466   4 
                                                                                
