 2014  513 1006 25.3 L   6.899 -73.426100.6  RSN  5 0.3 1.6LRSN                1
 GAP=157        0.84       3.2     4.2 12.2 -0.1996E+00  0.7394E+01 -0.1957E+02E
 Epicentro: SAN VICENTE DE CHUCURI - SANTANDER                                 3
 ACTION:UPD 15-03-16 16:57 OP:nd   STATUS:               ID:20140513095809 L   I
 OLDACT:UPD 14-05-13 21:36 OP:nlst STATUS:               ID:20140513095809 L   3
 2014-05-13-0958-09M.COL___251                                                 6
 STAT SP IPHASW D HRMM SECON CODA AMPLIT PERI AZIMU VELO AIN AR TRES W  DIS CAZ7
 RUS  HN ES       10 7  3.04                             126   -0.0810  118 161 
 PTB  HZ IP     D 10 6 46.23                             125    0.0310  121 251 
 PTB  HN ES       10 7  2.33                             125   -0.2010  121 251 
 PTB  HZ I        10 7  3.77         5.8 0.32            128            121 251 
 OCA  HN ES       10 7  8.37                             119    0.3810  149   5 
 OCA  HZ I        10 7  9.93         6.9 0.44            120            149   5 
 ZAR  HZ EP       10 6 52.07                             115    0.53 9  171 293 
 ZAR  HN ES       10 7 12.20                             115    0.16 9  171 293 
 ZAR  HZ I        10 7 16.04         4.7 0.30            117            171 293 
 SML  HZ EP       10 6 57.05                             108   -0.25 8  222 341 
 SML  HE ES       10 7 21.59                             108   -0.69 8  222 341 
 SML  HZ I        10 7 30.63         3.8 0.22            110            222 341 
                                                                                
