 2012 1013 0808 13.0 L   6.774 -73.144147.2  RSN 13 0.4 2.7LRSN                1
 GAP= 66        0.74       3.2     3.2  4.9  0.2436E+01  0.4047E+01  0.4463E+01E
 Epicentro: LOS SANTOS - SANTANDER                                             3
 ACTION:UPD 12-11-22 17:03 OP:ep   STATUS:               ID:20121013080813 L   I
 2012-10-13-0806-59S.COL___228                                                 6
 STAT SP IPHASW D HRMM SECON CODA AMPLIT PERI AZIMU VELO AIN AR TRES W  DIS CAZ7
 BAR2 SZ EP   1    8 8 32.62                             172   -0.17 7 20.5 192 
 BAR2 SZ I         8 8 33.07       116.8 0.08                          20.5 192 
 BAR2 SZ ES   1    8 8 47.87                             172   -0.33 7 20.5 192 
 GIR2 SZ EP   1    8 8 32.68                             166   -0.29 7 34.1 351 
 GIR2 SZ ES   1    8 8 48.47                             166   -0.04 7 34.1 351 
 BRR  HZ IP     C  8 8 34.49                             152    0.0510 72.8 300 
 BRR  HN ES   1    8 8 52.12                             152    0.99 7 72.8 300 
 BRR  HN I         8 8 52.95       348.4 0.20                          72.8 300 
 PAM  SZ EP        8 8 35.42                             150   -0.1210 79.5  38 
 PAM  SZ I         8 8 35.65       143.8 0.24                          79.5  38 
 PAM  SN ES   1    8 8 52.89                             150   -0.19 7 79.5  38 
 PAM  SN I         8 8 53.95        99.8 0.24                          79.5  38 
 RUS  HZ EP   1    8 8 36.49                             145   -0.24 7 97.7 176 
 RUS  HZ I         8 8 37.66        16.0 0.17                          97.7 176 
 RUS  HN ES   1    8 8 54.97                             145   -0.24 7 97.7 176 
 RUS  HN I         8 8 55.80       121.6 0.32                          97.7 176 
 TAM  HZ EP   1    8 8 40.75                             131    0.00 7  154 104 
 TAM  HZ I         8 8 40.92        18.0 0.34                           154 104 
 TAM  HN ES   1    8 9  2.52                             131    0.16 7  154 104 
 YOP  SZ EP   1    8 8 43.04                             127    0.11 7  176 153 
 YOP  SN ES   1    8 9  6.80                             127    0.56 7  176 153 
 YOP  SZ I         8 9  8.11        33.0 0.20                           176 153 
 ZAR  HZ EP   1    8 8 46.41                             122    0.69 6  205 293 
 ZAR  HE ES   1    8 9 10.84                             122   -0.36 6  205 293 
 ZAR  HE I         8 9 16.81       225.8 0.32                           205 293 
 CHI  HZ EP   1    8 8 50.47                             118   -0.06 6  246 195 
 CHI  HZ I         8 8 52.70        16.4 0.14                           246 195 
 CHI  HN ES   1    8 9 19.31                             118   -0.46 6  246 195 
 CHI  HN I         8 9 24.55        41.5 0.39                           246 195 
 ROSC BZ EP   9    8 8 52.44                             117    1.45 0  250 211 
 ROSC BN ES   9    8 9 22.74                                    0.70 0  250 211 
 ROSC BZ I         8 9 27.43        40.2 0.60                           250 211 
 RREF HZ EP   9    8 8 59.39                             111    0.34 0  320 230 
 RREF HN ES   9    8 9 37.25                                    1.97 0  320 230 
 RREF HZ I         8 9 41.19        28.4 0.28                           320 230 
 DBB  SZ EP   1    8 9  1.06                             110    0.43 5  340 275 
 DBB  SZ ES   1    8 9 36.96                             110   -0.79 5  340 275 
 PRA  HZ EP   1    8 9  6.16                             107   -0.17 4  390 210 
 PRA  HE ES   1    8 9 48.63                             107    0.73 4  390 210 
 PRA  HZ I         8 9 53.96        23.6 0.68                           390 210 
                                                                                
