 2010 1113 0027  5.3 L   6.813 -73.085141.5  RSN  5 0.3 1.8LRSN                1
 GAP=165        0.85       4.1     7.5  8.0 -0.3857E+00 -0.1308E+02 -0.5173E+01E
 Epicentro: LOS SANTOS - SANTANDER                                             3
 ACTION:UP  10-12-17 16:52 OP:REBC STATUS:               ID:20101113002705 L   I
 2010-11-13-0026-52S.COL___129                                                 6
 STAT SP IPHASW D HRMM SECON CODA AMPLIT PERI AZIMU VELO SNR AR TRES W  DIS CAZ7
 BAR2 SZ EP        027 24.34                             169    -0.210   27 204 
 BAR2 SZ ES   1    027 38.81                             169    -0.7 7   27 204 
 BRR  HZ EP        027 26.09                             150    -0.310   77 295 
 BRR  HZ I         027 26.48        24.4 0.00                            77 295 
 BRR  HN ES        027 43.05                             150     0.310   77 295 
 RUS  HZ EP   1    027 28.93                             143     0.2 7  102 180 
 RUS  HN ES        027 47.33                             143     0.310  102 180 
 RUS  HZ I         027 48.04         3.5 0.19                           102 180 
 GRA  SZ EP        027 30.07                             137     0.110  122  15 
 GRA  SZ ES   1    027 49.15                             137     0.0 7  122  15 
 GRA  SZ I         027 50.67        10.3 0.31                           122  15 
 RREF HN ES   2    028 28.08                             110    -0.3 3  328 230 
 RREF HZ I         028 36.04         2.3 0.06                           328 230 
                                                                                
