 2012 1213 0321  4.4 L   6.809 -73.156149.2  RSN  9 0.4 2.0LRSN                1
 GAP=182        1.02       3.6     5.6  7.7  0.6534E+01  0.5610E+01  0.7385E+01E
 Epicentro: LOS SANTOS - SANTANDER                                             3
 ACTION:UPD 13-01-04 14:27 OP:ep   STATUS:               ID:20121213032104 L   I
 2012-12-13-0320-00M.COL___242                                                 6
 STAT SP IPHASW D HRMM SECON CODA AMPLIT PERI AZIMU VELO AIN AR TRES W  DIS CAZ7
 BAR2 SZ EP        321 24.19                             170   -0.2710 24.2 187 
 BAR2 SZ I         321 41.39        16.2 0.46                          24.2 187 
 BRR  HZ EP        321 26.52                             154    0.6810 69.7 298 
 BRR  HN ES        321 43.00                             154    0.4310 69.7 298 
 BRR  HN I         321 47.94        26.3 0.18                          69.7 298 
 RUS  HZ EP        321 28.67                             144    0.1010  102 175 
 RUS  HN ES        321 47.35                             144   -0.0810  102 175 
 RUS  HN I         321 48.70        12.2 0.44                           102 175 
 PTB  HZ EP        321 31.34                             133   -0.23 9  147 258 
 PTB  HN ES        321 52.45                             133   -0.31 9  147 258 
 PTB  HN I         321 58.07        13.3 0.44                           147 258 
 OCA  HE ES        321 54.58                             131   -0.50 9  159 354 
 OCA  HN I         321 58.72        21.8 0.22                           159 354 
 ZAR  HE ES        322  2.83                             123    0.54 9  203 292 
 ZAR  HE I         322  5.37        17.9 0.14                           203 292 
 CHI  HZ EP        321 42.69                             118    0.32 8  249 195 
 CHI  HN ES        322 11.27                             118   -0.71 8  249 195 
 CHI  HN I         322 16.96         5.9 0.52                           249 195 
 MON  HZ EP   4    321 51.85                             109   -1.51 0  352 308 
 MON  HN ES        322 30.82                             109   -0.73 6  352 308 
 MON  HN I         322 39.46         1.7 0.36                           352 308 
 PRA  HZ EP        321 58.52                             107    0.44 6  392 209 
 PRA  HN ES        322 40.04                             107    0.09 6  392 209 
                                                                                
