 2015  113 0236  0.1 L   6.754 -73.144146.7  RSN  8 0.4 1.5LRSN                1
 GAP=139        1.11       4.1     4.8  7.0 -0.5787E+00  0.5407E+01  0.6568E+01E
 Epicentro: LOS SANTOS - SANTANDER                                             3
 ACTION:UPD 15-03-02 15:39 OP:nd   STATUS:               ID:20150113023600 L   I
 OLDACT:DUP 15-01-13 14:22 OP:carl STATUS:               ID:20150113022749d    3
 2015-01-13-0227-48M.COL___256                                                 6
 STAT SP IPHASW D HRMM SECON CODA AMPLIT PERI AZIMU VELO AIN AR TRES W  DIS CAZ7
 BAR2 EZ EP        236 19.71                             172   -0.0410 18.4 193 
 BAR2 EZ ES        236 34.45                             172   -0.6410 18.4 193 
 BAR2 EZ I         236 36.11         9.8 0.22            170           18.4 193 
 BRR  HZ EP        236 21.81                             152    0.3110 73.9 302 
 BRR  HN ES        236 38.78                             152    0.5810 73.9 302 
 BRR  HZ I         236 43.96         5.2 0.16            153           73.9 302 
 PAM  SZ IP     C  236 22.70                             150    0.0510 81.2  37 
 PAM  SN ES        236 40.19                             150   -0.0510 81.2  37 
 PAM  SZ I         236 41.88         5.3 0.52            154           81.2  37 
 RUS  HZ EP        236 22.83                             145   -0.7610 95.5 176 
 RUS  HN ES        236 42.58                             145    0.6710 95.5 176 
 RUS  HZ I         236 44.00         3.7 0.30            146           95.5 176 
 PTB  HZ EP        236 26.74                             132   -0.33 9  147 261 
 PTB  HN ES        236 47.70                             132   -0.42 9  147 261 
 PTB  HZ I         236 49.12         3.8 0.10            134            147 261 
 SPBC HZ EP        236 28.47                             130    0.16 9  159 220 
 SPBC HN ES        236 50.46                             130    0.14 9  159 220 
 SPBC HZ I         236 56.76         7.4 0.30            131            159 220 
 ZAR  HN ES        236 58.32                             122   -0.02 8  206 293 
 CHI  HZ EP        236 38.01                             118    0.69 8  244 196 
 CHI  HN ES        237  6.12                             118   -0.24 8  244 196 
 CHI  HZ I         237 11.64         1.4 0.30            120            244 196 
                                                                                
