 2014 1213 0241 30.9 L   6.907 -73.171137.8  RSN  7 0.6 1.3LRSN                1
 GAP= 81        1.58       6.2     6.9 11.7 -0.6976E+01  0.1128E+02 -0.8478E+01E
 Epicentro: BETULIA - SANTANDER                                                3
 ACTION:UPD 15-02-10 17:03 OP:nd   STATUS:               ID:20141213024130 L   I
 OLDACT:DUP 14-12-13 15:24 OP:stll STATUS:               ID:20141213023744d    3
 OLDACT:REG 14-12-13 14:12 OP:stll STATUS:               ID:20141213023743     3
 2014-12-13-0237-43M.COL___294                                                 6
 STAT SP IPHASW D HRMM SECON CODA AMPLIT PERI AZIMU VELO AIN AR TRES W  DIS CAZ7
 BAR2 EZ EP        241 49.43                             165   -0.4310 34.8 182 
 BAR2 EZ ES        242  4.94                             165    0.2810 34.8 182 
 BAR2 EZ I         242  6.53         4.1 0.28            165           34.8 182 
 PAM  SZ EP        241 52.05                             152    0.2010 70.7  47 
 PAM  SN ES        242  8.55                             152    0.3410 70.7  47 
 PAM  SZ I         242 10.79         5.0 0.30            155           70.7  47 
 RUS  HZ EP        241 54.50                             139   -0.2910  113 175 
 RUS  HN ES        242 13.21                             139   -0.2310  113 175 
 RUS  HZ I         242 14.42         1.8 0.24            140            113 175 
 PTB  HZ EP        241 58.92                             130    1.70 9  148 254 
 PTB  HN ES        242 17.11                             130   -0.64 9  148 254 
 PTB  HZ I         242 19.52         3.3 0.16            131            148 254 
 TAM  HZ EP        241 58.11                             127   -0.42 9  161 109 
 SPBC HN ES        242 21.87                             126   -0.02 9  171 216 
 SPBC HZ I         242 28.38         3.4 0.22            127            171 216 
 SML  HN ES        242 32.31                             117   -0.67 8  232 335 
                                                                                
