 2013  813 0901 16.3 L   6.790 -73.175145.2  RSN  5 0.4 1.3LRSN                1
 GAP=234        1.03       7.0     6.7 10.1  0.7559E+01  0.1994E+01 -0.1475E+02E
 Epicentro: LOS SANTOS - SANTANDER                                             3
 ACTION:UPD 14-01-14 09:01 OP:ep   STATUS:               ID:20130813090116 L   I
 OLDACT:REG 13-08-13 08:37 OP:stll STATUS:               ID:20130813085850     3
 2013-08-13-0858-50M.COL___218                                                 6
 STAT SP IPHASW D HRMM SECON CODA AMPLIT PERI AZIMU VELO AIN AR TRES W  DIS CAZ7
 BAR2 SZ EP        9 1 35.86                             171    0.0410 21.9 182 
 BAR2 SZ ES   2    9 1 51.30                             171    0.24 5 21.9 182 
 BAR2 SZ I         9 1 51.97         4.3 0.18            171           21.9 182 
 BRR  HZ EP     C  9 1 37.94                             153    0.6910 68.9 301 
 BRR  HN ES   2    9 1 53.48                             153   -0.12 5 68.9 301 
 BRR  HZ I         9 2  0.20         2.8 0.14            151           68.9 301 
 RUS  HZ EP        9 1 39.44                             144   -0.4910 99.8 174 
 RUS  HN ES        9 1 58.16                             144   -0.2110 99.8 174 
 RUS  HZ I         9 1 59.81         2.7 0.54            149           99.8 174 
 PTB  HZ EP        9 1 42.56                             133   -0.35 9  144 259 
 PTB  HN ES        9 2  3.16                             133   -0.51 9  144 259 
 PTB  HZ I         9 2  7.68         2.7 0.12            134            144 259 
 SPBC HZ EP        9 1 44.69                             129    0.21 9  160 218 
 SPBC HN ES        9 2  7.07                             129    0.61 9  160 218 
 SPBC HZ I         9 2 12.00         2.6 0.36            132            160 218 
                                                                                
