 2016 1013 0715 40.4 L   6.806 -73.157150.2  RSN  7 0.3 1.3LRSN                1
 GAP=135        0.90       3.8     3.9  5.7 -0.3584E+00  0.5403E+01  0.2480E+00E
 Epicentro: LOS SANTOS - SANTANDER                                             3
 ACTION:UPD 16-11-09 19:19 OP:rebc STATUS:               ID:20161013071540 L   I
 OLDACT:REG 16-10-13 12:52 OP:y    STATUS:               ID:20161013070641     3
 2016-10-13-0707-00M.COL___354                                                 6
 STAT SP IPHASW D HRMM SECON CODA AMPLIT PERI AZIMU VELO AIN AR TRES W  DIS CAZ7
 BAR2 EZ EP        716  0.25                             171   -0.3010 23.8 187 
 BAR2 EZ ES        716 16.41                             171    0.1210 23.8 187 
 BAR2 EZ I         716 18.09         7.3 0.32            170           23.8 187 
 BRR  HZ EP        716  2.12                             154    0.1910 69.8 299 
 BRR  HN ES        716 19.14                             154    0.4010 69.8 299 
 BRR  HZ I         716 22.45         3.9 0.26            154           69.8 299 
 PAM  EZ EP        716  3.27                             151    0.1910 77.7  41 
 PAM  EN ES        716 20.51                             151   -0.2910 77.7  41 
 PAM  EZ I         716 23.49         2.6 0.31            155           77.7  41 
 RUS  HZ EP        716  4.48                             144   -0.1410  101 175 
 RUS  HN ES        716 23.56                             144    0.0310  101 175 
 RUS  HZ I         716 24.29         2.0 0.27            146            101 175 
 PTB  HZ EP        716  7.51                             133   -0.10 9  147 258 
 PTB  HN ES        716 27.91                             133   -0.95 9  147 258 
 PTB  HZ I         716 29.17         2.2 0.17            135            147 258 
 SPBC HZ EP        716  9.22                             130    0.02 9  163 218 
 SPBC HE ES        716 32.20                             130    0.53 9  163 218 
 SPBC HZ I         716 38.30         3.7 0.23            132            163 218 
 ZAR  HZ EP        716 13.17                             124    0.20 9  203 292 
 ZAR  HE ES        716 38.56                             124    0.16 9  203 292 
 ZAR  HZ I         716 40.90         1.3 0.08            125            203 292 
                                                                                
