 2016  213 0428 57.3 L   6.829 -73.172145.0  RSN  6 0.3 1.1LRSN                1
 GAP=145        0.80       3.8     4.4  5.6 -0.6535E+01  0.5232E+01  0.2768E+01E
 Epicentro: ZAPATOCA - SANTANDER                                               3
 ACTION:UPD 16-03-04 21:25 OP:rebc STATUS:               ID:20160213042857 L   I
 OLDACT:REG 16-02-13 12:49 OP:ak   STATUS:               ID:20160213041736     3
 2016-02-13-0417-36M.COL___310                                                 6
 STAT SP IPHASW D HRMM SECON CODA AMPLIT PERI AZIMU VELO AIN AR TRES W  DIS CAZ7
 BAR2 EZ EP        429 16.95                             169    0.0110 26.2 183 
 BAR2 EZ ES        429 31.75                             169   -0.4810 26.2 183 
 BAR2 EZ I         429 34.60                             168           26.2 183 
 PAM  EZ EP        429 19.66                             151    0.2210 76.9  43 
 PAM  EN ES        429 36.74                             151    0.0510 76.9  43 
 PAM  EZ I         429 37.76         2.3 0.22            153           76.9  43 
 RUS  HZ EP        429 20.87                             143   -0.3910  104 175 
 RUS  HN ES        429 40.43                             143    0.5110  104 175 
 RUS  HZ I         429 41.03         1.5 0.36            143            104 175 
 PTB  HZ EP        429 24.19                             132    0.14 9  146 257 
 PTB  HN ES        429 44.71                             132   -0.17 9  146 257 
 PTB  HZ I         429 46.99         1.7 0.08            133            146 257 
 SPBC HZ EP        429 26.08                             129    0.23 9  164 217 
 SPBC HN ES        429 48.45                             129    0.37 9  164 217 
 CHI  HZ EP        429 34.93                             117   -0.32 8  251 194 
 CHI  HN ES        430  4.50                             117   -0.32 8  251 194 
 CHI  HZ I         430  9.03         0.9 0.62            118            251 194 
                                                                                
