 2010  713 0706 26.4 L   6.866 -73.301120.0  RSN 11 0.5 2.2LRSN                1
 GAP=126        1.12       4.1     7.3  8.1 -0.7446E+01  0.6594E+01 -0.3235E+01E
 Epicentro: BETULIA - SANTANDER                                                3
 ACTION:UPD 10-12-01 15:17 OP:pat  STATUS:               ID:20100713070626 L   I
 2010-07-13-0702-39S.COL___120                                                 6
 STAT SP IPHASW D HRMM SECON CODA AMPLIT PERI AZIMU VELO AIN AR TRES W  DIS CAZ7
 BAR2 SZ IP        7 6 43.21                             164     0.010   33 157 
 BAR2 SZ ES   1    7 6 56.36                             164     0.0 7   33 157 
 BRR  HZ EP        7 6 43.69                             155    -0.110   53 300 
 BRR  HE ES   1    7 6 57.62                             155     0.4 7   53 300 
 BRR  HZ I         7 6 58.44        67.7 0.15                            53 300 
 BRI  SZ EP   1    7 6 48.13                             135     0.1 7  109  31 
 BRI  SZ I         7 7  7.08        17.6 0.50                           109  31 
 RUS  HZ IP     D  7 6 48.26                             135    -0.310  110 167 
 RUS  HE ES   1    7 7  5.66                             135    -0.2 7  110 167 
 RUS  HZ I         7 7  7.65         8.5 0.25                           110 167 
 GUE  SZ EP        7 6 48.18                             133    -0.510  114  21 
 GUE  SZ I         7 6 48.64        39.2 0.12                           114  21 
 GUE  SZ ES   2    7 7  5.89                             133    -0.1 5  114  21 
 GRA  SZ EP        7 6 50.48                             130     1.010  125  26 
 GRA  SZ I         7 6 51.30        20.0 0.18                           125  26 
 GRA  SZ ES   2    7 7  7.96                             130     0.6 5  125  26 
 OCA  SZ EP        7 6 51.43                             125    -0.6 9  152 359 
 OCA  SZ ES   1    7 7 11.63                             125    -0.3 7  152 359 
 OCA  SZ I         7 7 12.69        46.5 0.27                           152 359 
 HEL  HZ EP   2    7 7  3.88                             110     0.1 4  257 253 
 HEL  HE ES   2    7 7 32.61                             110    -0.3 4  257 253 
 HEL  HZ I         7 7 38.35         7.0 0.23                           257 253 
 GUY  SZ EP   2    7 7  8.51                             108     0.6 4  292 232 
 GUY  SZ I         7 7 45.77        16.6 0.66                           292 232 
 RREF HZ EP   2    7 7 11.27                             106     0.6 3  314 226 
 RREF HE ES   2    7 7 44.90                             106    -0.3 3  314 226 
 RREF HZ I         7 7 53.35         4.2 0.24                           314 226 
 PRA  HZ EP   1    7 7 19.77                             102     0.8 4  390 207 
 PRA  HZ I         7 8  7.38         4.8 0.36                           390 207 
                                                                                
