 2014  313 0139 40.7 L   6.815 -73.166148.0  RSN  4 0.3 1.6LRSN                1
 GAP=199        0.55       3.9     4.8 10.3  0.8812E+01 -0.1704E+02 -0.2537E+02E
 Epicentro: LOS SANTOS - SANTANDER                                             3
 ACTION:UPD 14-04-09 23:16 OP:nd   STATUS:               ID:20140313013940 L   I
 OLDACT:REG 14-03-13 07:19 OP:fm   STATUS:               ID:20140313013819     3
 2014-03-13-0138-19M.COL___239                                                 6
 STAT SP IPHASW D HRMM SECON CODA AMPLIT PERI AZIMU VELO AIN AR TRES W  DIS CAZ7
 RUS  HE EP   1    140  5.18                             144    0.35 8  102 175 
 RUS  HN ES   1    140 23.54                             144   -0.09 8  102 175 
 RUS  HE I         140 24.29         5.9 0.48            155            102 175 
 PTB  HZ EP   1    140  7.52                             133   -0.19 7  146 258 
 PTB  HN ES        140 28.56                             133   -0.1910  146 258 
 PTB  HZ I         140 31.48         4.1 0.30            140            146 258 
 ZAR  HE ES   1    140 38.76                             123    0.52 7  201 292 
 SML  HZ EP   1    140 16.98                             118   -0.23 6  241 336 
 SML  HE ES        140 45.65                             118   -0.02 9  241 336 
 SML  HZ I         140 55.57         4.1 0.10            122            241 336 
                                                                                
