 2011  613 0734 11.5 L   6.769 -73.119142.6  RSN 14 0.3 2.8LRSN                1
 GAP=141        0.66       3.1     5.3  5.5 -0.8142E+01  0.7397E+01  0.2054E+01E
 Epicentro: LOS SANTOS - SANTANDER                                             3
 ACTION:UP  11-07-14 19:04 OP:ep   STATUS:               ID:20110613073411 L   I
 2011-06-13-0730-34S.COL___132                                                 6
 STAT SP IPHASW D HRMM SECON CODA AMPLIT PERI AZIMU VELO SNR AR TRES W  DIS CAZ7
 BAR2 SZ IP        734 30.65                             171     0.010   21 200 
 BAR2 SZ ES   2    734 45.36                             171    -0.3 5   21 200 
 BAR2 SZ I         734 46.82       202.6 0.39                            21 200 
 BTL  SZ IP        734 31.29                             171     0.610   23 315 
 BRR  HZ IP     C  734 32.45                             151    -0.110   75 300 
 BRR  HN ES   2    734 49.39                             151     0.4 5   75 300 
 BRR  HZ I         734 55.12       123.9 0.17                            75 300 
 PAM  SZ EP   1    734 33.48                             150     0.1 7   78  36 
 PAM  SN ES   2    734 50.43                             150    -0.1 5   78  36 
 RUS  HZ EP   1    734 34.67                             144     0.0 7   97 178 
 RUS  HN ES   2    734 52.77                             144     0.0 5   97 178 
 RUS  HZ I         734 55.19        95.9 0.20                            97 178 
 BRI  SZ IP        734 35.20                             140     0.010  111  19 
 BRI  SZ ES   2    734 53.77                             140     0.0 5  111  19 
 BRI  SZ I         734 55.89        56.6 0.54                           111  19 
 GRA  SZ IP        734 36.47                             136    -0.210  128  16 
 GRA  SZ ES   2    734 55.80                             136    -0.5 5  128  16 
 GRA  SZ I         734 57.21        87.9 0.28                           128  16 
 OCA  SZ EP   1    734 39.29                             128    -0.6 7  164 352 
 OCA  SZ I         735  4.26        67.9 0.27                           164 352 
 NOR  SZ EP   1    734 46.71                             118    -0.4 6  235 236 
 NOR  SN ES   2    735 14.06                             118    -0.8 4  235 236 
 CHI  HZ EP   1    734 49.09                             117     0.4 6  246 196 
 CHI  HE ES   2    735 17.51                             117    -0.3 4  246 196 
 CHI  HZ I         735 21.69        38.4 0.63                           246 196 
 VIL  SZ EP   1    734 54.52                             112     0.1 5  301 192 
 VIL  SN ES   2    735 27.03                             112    -0.9 4  301 192 
 VIL  SZ I         735 38.42        24.5 0.62                           301 192 
 RREF HZ EP   1    734 58.04                             110     0.6 5  322 230 
 RREF HN ES   2    735 33.58                             110     0.2 3  322 230 
 DBB  SZ EP   1    734 59.16                             109     0.0 5  343 275 
 PRA  HZ EP   1    735  4.89                             106     0.2 4  391 210 
 PRA  HN ES   2    735 46.13                             106    -0.1 3  391 210 
                                                                                
