 2010 1113 0644 44.3 L   6.803 -73.102142.7  RSN 10 0.4 2.1LRSN                1
 GAP=163        0.79       3.7     6.7  5.9 -0.4929E+00 -0.1820E+01  0.1370E+01E
 Epicentro: LOS SANTOS - SANTANDER                                             3
 ACTION:UP  10-12-17 16:52 OP:REBC STATUS:               ID:20101113064444 L   I
 2010-11-13-0642-41S.COL___127                                                 6
 STAT SP IPHASW D HRMM SECON CODA AMPLIT PERI AZIMU VELO SNR AR TRES W  DIS CAZ7
 BAR2 SZ IP        645  3.54                             170    -0.110   25 201 
 BAR2 SZ ES   1    645 18.19                             170    -0.5 7   25 201 
 BAR2 SZ I         645 19.66        21.9 0.41                            25 201 
 BRR  HZ IP     C  645  5.32                             150    -0.110   75 297 
 BRR  HZ I         645  5.59        33.0 0.69                            75 297 
 BRR  HE ES        645 21.92                             150     0.110   75 297 
 RUS  HZ EP        645  7.73                             143     0.010  101 179 
 RUS  HN ES   1    645 26.47                             143     0.4 7  101 179 
 RUS  HZ I         645 27.32         9.3 0.43                           101 179 
 GRA  SZ EP   2    645 10.14                             137     1.0 5  124  15 
 OCA  SZ EP        645 12.30                             129    -0.1 9  161 351 
 OCA  SZ ES   3    645 33.79                             129    -0.6 2  161 351 
 OCA  SZ I         645 42.25         9.8 1.68                           161 351 
 NOR  SZ EP   3    645 19.40                             117    -0.9 2  239 235 
 NOR  SE ES   2    645 48.36                             117    -0.1 4  239 235 
 CHI  HZ EP   2    645 21.89                             116    -0.1 4  250 196 
 CHI  HN ES   2    645 50.91                             116    -0.5 4  250 196 
 CHI  HZ I         645 53.62         6.9 1.17                           250 196 
 ROSC BN ES   2    645 53.17                             116     0.8 4  256 212 
 ROSC BZ I         645 58.29         6.9 0.86                           256 212 
 RREF HZ EP   1    645 31.49                             110     0.7 5  326 230 
 RREF HN ES   2    646  6.72                             110    -0.3 3  326 230 
 RREF HZ I         646 15.84         4.5 1.26                           326 230 
 PRA  HZ EP   1    645 37.22                             106    -0.8 4  395 210 
 PRA  HZ I         646 23.18        10.5 0.57                           395 210 
                                                                                
