 2013  613 0446 56.6 L   6.813 -73.080149.8  RSN  6 0.2 1.7LRSN                1
 GAP=190        0.45       2.7     6.4  3.8  0.1072E+02 -0.5680E+01 -0.4212E+01E
 Epicentro: LOS SANTOS - SANTANDER                                             3
 ACTION:UPD 14-01-08 09:54 OP:ep   STATUS:               ID:20130613044656 L   I
 OLDACT:REG 13-06-13 07:42 OP:cam  STATUS:               ID:20130613043959     3
 2013-06-13-0439-59M.COL___260                                                 6
 STAT SP IPHASW D HRMM SECON CODA AMPLIT PERI AZIMU VELO AIN AR TRES W  DIS CAZ7
 BAR2 SZ EP        447 16.75                             170   -0.0110 26.9 205 
 BAR2 SZ ES   1    447 32.90                             170    0.39 7 26.9 205 
 BAR2 SZ I         447 34.21         8.7 0.16            165           26.9 205 
 GIR2 SZ EP        447 16.66                             167   -0.0810 32.0 337 
 GIR2 SZ I         447 16.87        10.6 0.06            163           32.0 337 
 GIR2 SZ ES   1    447 32.49                             167    0.02 7 32.0 337 
 BRR  HZ IP     D  447 18.50                             151    0.0110 77.1 295 
 BRR  HN ES        447 35.57                             151   -0.0210 77.1 295 
 BRR  HZ I         447 39.46         7.3 0.26            146           77.1 295 
 RUS  HZ EP   2    447 21.36                             144    0.56 5  102 180 
 RUS  HN ES        447 39.45                             144   -0.2510  102 180 
 RUS  HZ I         447 40.69         6.5 0.26            145            102 180 
 OCA  HN ES   1    447 47.43                             131   -0.04 7  160 350 
 SML  HZ EP        447 33.70                             118    0.07 8  246 334 
 SML  HN ES   1    448  2.38                             118   -0.15 6  246 334 
 SML  HZ I         448  7.50         6.6 0.10            118            246 334 
                                                                                
