 2012  313 0306 18.3 L   6.815 -73.152139.6  RSN 10 0.3 2.1LRSN                1
 GAP=135        0.78       3.1     3.9  5.9 -0.1249E+01  0.6384E+01  0.1776E+01E
 ACTION:UP  12-03-31 23:19 OP:EP   STATUS:               ID:20120313030618 L   I
 2012-03-13-0300-00M.COL___196                                                 6
 STAT SP IPHASW D HRMM SECON CODA AMPLIT PERI AZIMU VELO SNR AR TRES W  DIS CAZ7
 BAR2 SZ EP   1    3 6 37.30                             169     0.1 7   25 188 
 BAR2 SZ ES   1    3 6 51.35                             169    -0.6 7   25 188 
 BAR2 SZ I         3 6 57.86        24.9 0.28                            25 188 
 BRR  HZ EP        3 6 39.03                             152     0.310   70 298 
 BRR  HN ES   1    3 6 55.11                             152     0.5 7   70 298 
 BRR  HZ I         3 6 59.43        36.7 0.15                            70 298 
 PAM  SZ EP   1    3 6 39.83                             150     0.0 7   77  41 
 PAM  SN ES   1    3 6 56.27                             150    -0.3 7   77  41 
 PAM  SZ I         3 6 59.00        31.9 0.34                            77  41 
 RUS  HZ EP   1    3 6 41.76                             142     0.2 7  102 176 
 RUS  HN ES   1    3 7  0.26                             142     0.5 7  102 176 
 RUS  HZ I         3 7  2.80        11.1 0.31                           102 176 
 PTB  HZ EP   1    3 6 44.12                             131    -0.6 7  147 258 
 PTB  HN ES   1    3 7  5.28                             131    -0.1 7  147 258 
 PTB  HZ I         3 7  8.42        16.0 0.12                           147 258 
 OCA  SZ EP   1    3 6 45.96                             128     0.0 7  159 353 
 OCA  SZ ES   1    3 7  7.84                             128     0.3 7  159 353 
 ZAR  HZ EP   1    3 6 50.48                             121     0.2 6  203 292 
 ZAR  HN ES   1    3 7 14.71                             121    -0.4 6  203 292 
 ZAR  HZ I         3 7 21.39        24.6 0.31                           203 292 
 NOR  SZ EP   1    3 6 53.53                             117    -0.2 6  235 234 
 NOR  SN ES   1    3 7 21.42                             117     0.1 6  235 234 
 CHI  HZ EP   1    3 6 55.58                             116    -0.3 6  250 195 
 CHI  HN ES   1    3 7 25.09                             116     0.0 6  250 195 
 CHI  HZ I         3 7 33.30         5.8 0.19                           250 195 
 HEL  HN ES   1    3 7 29.51                             113     0.2 6  272 255 
 HEL  HZ I         3 7 35.63         9.0 0.29                           272 255 
                                                                                
