 2017 1013 0926 13.9 L   6.864 -73.188142.5  RSN  8 0.5 2.2LRSN                1
 GAP=115        1.21       4.5     4.8  7.6  0.4318E+01  0.1095E+02  0.8573E+01E
 Epicentro: ZAPATOCA - SANTANDER                                               3
 ACTION:UPD 17-11-07 19:31 OP:rebc STATUS:               ID:20171013092613 L   I
 OLDACT:UP  17-10-13 20:18 OP:leo  STATUS:               ID:20171013091531     3
 OLDACT:REG 17-10-13 14:22 OP:leo  STATUS:               ID:20171013091531     3
 2017-10-13-0918-00M.COL___417                                                 6
 STAT SP IPHASW D HRMM SECON CODA AMPLIT PERI AZIMU VELO AIN AR TRES W  DIS CAZ7
 BAR2 EZ EP        926 33.01                             168   -0.2610 30.0 179 
 BAR2 EZ ES        926 48.03                             168   -0.3710 30.0 179 
 BAR2 EZ I         926 50.15        52.6 0.34            166           30.0 179 
 PAM  EZ EP        926 35.39                             151   -0.2310 75.4  46 
 PAM  EN ES        926 52.99                             151    0.4010 75.4  46 
 PAM  EZ I         926 54.30        37.7 0.50            154           75.4  46 
 RUS  HZ EP        926 37.62                             141   -0.2410  108 174 
 RUS  HE ES        926 57.14                             141    0.5710  108 174 
 RUS  HZ I         926 58.40        10.7 0.24            141            108 174 
 PTB  HZ EP        926 39.56                             132   -0.74 9  145 256 
 PTB  HN ES        927  0.38                             132   -0.54 9  145 256 
 PTB  HZ I         927  2.40        27.3 0.48            132            145 256 
 YPLC HZ IP     D  926 44.07                             124   -0.20 9  185 151 
 YPLC HN ES        927  7.94                             124   -0.04 9  185 151 
 YPLC HZ I         927 11.31         8.6 0.24            125            185 151 
 ZAR  HZ EP        926 46.64                             123    1.25 9  197 291 
 ZAR  HE ES        927 10.22                             123    0.24 9  197 291 
 ZAR  HZ I         927 15.55        43.9 0.36            123            197 291 
 CHI  HZ EP        926 51.75                             116   -0.26 8  254 194 
 CHI  HN ES        927 22.49                             116    0.73 8  254 194 
 CHI  HZ I         927 25.95         5.8 0.68            116            254 194 
 PRA  HZ EP        927  7.53                             106   -0.21 6  396 208 
 PRA  HN ES        927 50.13                             106    0.38 6  396 208 
 PRA  HZ I         927 57.64         6.5 0.34            106            396 208 
                                                                                
