 2013  913 0954 39.5 L   6.790 -73.151143.5  RSN  6 0.2 1.5LRSN                1
 GAP=236        0.54       3.8     3.6  4.8  0.7555E+01  0.7882E+01  0.5622E+01E
 Epicentro: LOS SANTOS - SANTANDER                                             3
 ACTION:UPD 13-10-22 09:22 OP:ep   STATUS:               ID:20130913095439 L   I
 OLDACT:REG 13-09-13 07:38 OP:carl STATUS:               ID:20130913094959     3
 2013-09-13-0949-59M.COL___269                                                 6
 STAT SP IPHASW D HRMM SECON CODA AMPLIT PERI AZIMU VELO AIN AR TRES W  DIS CAZ7
 BAR2 SZ ES        955 13.86                             171   -0.0610 22.1 189 
 BAR2 SZ I         955 15.36         4.7 0.26            174           22.1 189 
 BRR  HN ES        955 16.68                             152   -0.0410 71.3 300 
 BRR  HN I         955 18.16        13.2 0.22            150           71.3 300 
 RUS  HZ EP        955  3.10                             144    0.1510 99.5 176 
 RUS  HN ES        955 21.33                             144    0.0910 99.5 176 
 RUS  HZ I         955 22.85         2.1 0.36            146           99.5 176 
 PTB  HZ EP        955  5.85                             132   -0.36 9  147 259 
 PTB  HN ES        955 26.89                             132   -0.16 9  147 259 
 ZAR  HE ES        955 37.33                             122    0.35 9  204 292 
 ZAR  HE I         955 44.64         5.7 0.16            121            204 292 
 NOR  HE ES        955 42.74                             118    0.09 8  234 235 
                                                                                
