 2016  613 0050 56.1 L   6.776 -73.145144.0  RSN  8 0.4 1.6LRSN                1
 GAP=138        0.97       4.6     4.6  7.4 -0.7339E+01  0.5791E+01  0.4905E+01E
 Epicentro: LOS SANTOS - SANTANDER                                             3
 ACTION:UPD 16-07-21 22:18 OP:rebc STATUS:               ID:20160613005056 L   I
 OLDACT:REG 16-06-13 12:25 OP:dnl  STATUS:               ID:20160613004747     3
 2016-06-13-0047-47M.COL___325                                                 6
 STAT SP IPHASW D HRMM SECON CODA AMPLIT PERI AZIMU VELO AIN AR TRES W  DIS CAZ7
 BAR2 EZ EP   2    051 15.13                             171   -0.34 5 20.7 192 
 BAR2 EZ ES   2    051 29.47                             171   -1.10 5 20.7 192 
 BAR2 EZ I         051 31.91        12.0 0.12                          20.7 192 
 BRR  HZ EP        051 17.33                             152    0.1910 72.6 300 
 BRR  HE ES        051 34.41                             152    0.8610 72.6 300 
 BRR  HZ I         051 34.73         8.1 0.32                          72.6 300 
 PAM  EZ EP        051 18.37                             150    0.1210 79.4  38 
 PAM  EN ES        051 35.22                             150   -0.3110 79.4  38 
 PAM  EZ I         051 36.90         5.3 0.44                          79.4  38 
 RUS  HZ EP        051 19.46                             145   -0.0210 97.9 176 
 RUS  HN ES        051 37.99                             145    0.2710 97.9 176 
 RUS  HZ I         051 38.89         4.2 0.20                          97.9 176 
 PTB  HZ EP        051 22.20                             132   -0.69 9  147 260 
 PTB  HN ES        051 43.26                             132   -0.52 9  147 260 
 PTB  HZ I         051 46.91         4.9 0.10                           147 260 
 SPBC HZ EP   2    051 24.65                             129    0.38 5  161 220 
 SPBC HN ES        051 46.43                             129    0.19 9  161 220 
 SPBC HZ I         051 49.71         4.6 0.46                           161 220 
 NOR  HZ EP   2    051 31.59                             119    0.02 4  233 235 
 NOR  HE ES        051 59.24                             119    0.01 8  233 235 
 NOR  HZ I         052  3.58         3.4 0.19                           233 235 
 GUY2CHZ EP   2    051 39.77                             112    0.31 4  300 235 
 GUY2CHN ES   2    052 13.31                             112    0.03 4  300 235 
 GUY2CHZ I         052 22.08         2.2 0.50                           300 235 
                                                                                
