 2010 1213 0248  9.4 L   6.830 -72.993146.5  RSN  6 0.2 1.5LRSN                1
 GAP=175        0.45       3.7    15.3  8.4 -0.3846E+02  0.1697E+02  0.5494E+01E
 Epicentro: CEPITA - SANTANDER                                                 3
 ACTION:UP  11-01-14 15:24 OP:pat  STATUS:               ID:20101213024809 L   I
 2010-12-13-0244-22S.COL___137                                                 6
 STAT SP IPHASW D HRMM SECON CODA AMPLIT PERI AZIMU VELO SNR AR TRES W  DIS CAZ7
 BTL  SZ EP        248 29.40                             167     0.110   32 288 
 BAR2 SZ EP   2    248 29.13                             166    -0.2 5   34 219 
 BAR2 SZ I         248 45.74        11.9 0.33                            34 219 
 GIR2 SZ EP   2    248 29.35                             166     0.1 5   35 321 
 RUS  HZ EP        248 33.70                             143     0.210  104 185 
 RUS  HE ES   2    248 52.02                             143    -0.2 5  104 185 
 RUS  HZ I         248 53.85         3.1 0.26                           104 185 
 GRA  SZ EP   1    248 34.00                             139    -0.1 7  118  10 
 GRA  SZ I         248 35.32         4.6 0.17                           118  10 
 GRA  SZ ES   1    248 53.30                             139    -0.1 7  118  10 
 CHI  HZ EP   2    248 47.56                             116    -0.5 4  257 199 
 CHI  HN ES   2    249 18.01                             116    -0.1 4  257 199 
 CHI  HZ I         249 23.77         1.8 0.50                           257 199 
                                                                                
