 2013  613 0157 31.3 L   6.787 -73.118153.7  RSN  6 0.5 1.8LRSN                1
 GAP=192        1.03       6.7     6.4  8.5  0.7325E+01  0.2133E+01 -0.7637E+00E
 Epicentro: LOS SANTOS - SANTANDER                                             3
 ACTION:UPD 14-01-08 09:54 OP:ep   STATUS:               ID:20130613015731 L   I
 OLDACT:REG 13-06-13 07:25 OP:cam  STATUS:               ID:20130613014959     3
 2013-06-13-0149-59M.COL___261                                                 6
 STAT SP IPHASW D HRMM SECON CODA AMPLIT PERI AZIMU VELO AIN AR TRES W  DIS CAZ7
 BAR2 SZ EP        157 51.91                             172    0.0810 22.6 198 
 BAR2 SZ ES   1    158  7.61                             172   -0.26 7 22.6 198 
 BAR2 SZ I         158 10.20         8.9 0.13            170           22.6 198 
 GIR2 SZ EP        157 51.88                             167   -0.0510 33.4 346 
 BRR  HZ EP        157 53.82                             153    0.3710 74.6 298 
 BRR  HE ES        158 11.20                             153    0.4410 74.6 298 
 BRR  HZ I         158 14.11         9.2 0.18            153           74.6 298 
 RUS  HZ EP        157 55.78                             146    0.1010 98.9 178 
 RUS  HN ES        158 14.67                             146   -0.0610 98.9 178 
 RUS  HZ I         158 15.48         7.1 0.28            147           98.9 178 
 PTB  HZ EP        157 58.44                             133   -0.68 9  150 260 
 PTB  HN ES        158 20.15                             133   -0.71 9  150 260 
 PTB  HZ I         158 21.93        14.8 0.16            134            150 260 
 NOR  HZ EP   2    158  8.36                             120    0.73 4  236 235 
 NOR  HE ES   1    158 36.93                             120    0.93 6  236 235 
 NOR  HZ I         158 40.15         8.1 0.22            121            236 235 
                                                                                
