 2011  813 0027 23.7 L   6.778 -73.123148.7  RSN  7 0.5 1.8LRSN                1
 GAP=185        0.91       4.3     8.2  8.2 -0.3640E+00  0.1198E+02 -0.3885E+01E
 Epicentro: LOS SANTOS - SANTANDER                                             3
 ACTION:UPD 12-07-13 15:51 OP:ep   STATUS:               ID:20110813002723 L   I
 2011-08-13-0025-24S.COL___150                                                 6
 STAT SP IPHASW D HRMM SECON CODA AMPLIT PERI AZIMU VELO AIN AR TRES W  DIS CAZ7
 BAR2 SZ EP        027 43.79                             171    0.1510 21.5 198 
 BAR2 SZ ES   1    027 58.39                             171   -0.81 7 21.5 198 
 BAR2 SZ I         028  0.46         9.9 0.24                          21.5 198 
 BRR  HZ EP        027 45.62                             151    0.2710 74.6 299 
 BRR  HZ I         027 46.10        19.5 0.12                          74.6 299 
 BRR  HN ES   1    028  3.12                             151    0.88 7 74.6 299 
 RUS  HZ EP   1    027 47.82                             145    0.27 7 98.0 177 
 RUS  HN ES        028  6.17                             145    0.0110 98.0 177 
 RUS  HZ I         028  7.59         6.4 0.17                          98.0 177 
 OCA  SZ EP   1    027 52.28                             130   -0.21 7  163 352 
 OCA  SZ ES   1    028 14.32                             130   -0.63 7  163 352 
 OCA  SZ I         028 20.68         9.1 0.31                           163 352 
 NOR  SE ES   1    028 27.53                             119   -0.19 6  235 235 
 RREF HN ES   2    028 45.37                             111   -0.75 3  322 230 
 RREF HZ I         028 52.39         3.7 0.38                           322 230 
 PRA  HZ EP   1    028 16.89                             107   -0.32 4  391 210 
                                                                                
