 2011  813 0953 29.2 L   6.754 -73.090142.9  RSN  5 0.5 1.5LRSN                1
 GAP=188        0.88       5.5    14.2  9.2  0.3333E+02 -0.3032E+02 -0.1440E+02E
 Epicentro: LOS SANTOS - SANTANDER                                             3
 ACTION:UPD 12-07-13 15:51 OP:ep   STATUS:               ID:20110813095329 L   I
 2011-08-13-0951-28S.COL___149                                                 6
 STAT SP IPHASW D HRMM SECON CODA AMPLIT PERI AZIMU VELO AIN AR TRES W  DIS CAZ7
 BAR2 SZ EP   1    953 48.81                             171    0.34 7 20.6 210 
 BAR2 SZ ES   1    954  3.55                             171    0.08 7 20.6 210 
 BAR2 SZ I         954  6.86         5.8 0.25                          20.6 210 
 BRR  HZ EP   1    953 50.66                             149    0.11 7 79.0 300 
 BRR  HN ES   1    954  7.42                             149    0.26 7 79.0 300 
 BRR  HZ I         954 10.29        10.7 0.19                          79.0 300 
 RUS  HZ EP   1    953 52.91                             144    0.59 7 95.2 180 
 RUS  HN ES   1    954  9.62                             144   -0.71 7 95.2 180 
 RUS  HZ I         954 12.48         2.4 0.26                          95.2 180 
 OCA  SZ EP   1    953 58.04                             127    0.15 7  166 351 
 OCA  SZ ES   1    954 19.51                             127   -0.73 7  166 351 
 OCA  SZ I         954 21.83         3.8 0.54                           166 351 
 RREF HZ EP   2    954 14.46                             110   -0.96 3  323 231 
                                                                                
