 2016  213 0547 53.2 L   6.831 -73.212144.0  RSN  4 0.1 1.2LRSN                1
 GAP=148        0.34       1.9     1.9  3.3 -0.1577E+01  0.1707E+01 -0.1246E+00E
 Epicentro: ZAPATOCA - SANTANDER                                               3
 ACTION:UPD 16-03-04 21:25 OP:rebc STATUS:               ID:20160213054753 L   I
 OLDACT:UP  16-02-13 16:40 OP:ak   STATUS:               ID:20160213053743     3
 OLDACT:UP  16-02-13 16:27 OP:ak   STATUS:               ID:20160213053743     3
 OLDACT:UP  16-02-13 16:11 OP:ak   STATUS:               ID:20160213053743     3
 OLDACT:REG 16-02-13 12:54 OP:ak   STATUS:               ID:20160213053743     3
 2016-02-13-0537-43M.COL___307                                                 6
 STAT SP IPHASW D HRMM SECON CODA AMPLIT PERI AZIMU VELO AIN AR TRES W  DIS CAZ7
 PAM  EZ EP        548 15.36                             150    0.0310 79.8  45 
 PAM  EN ES        548 32.58                             150   -0.0410 79.8  45 
 PAM  EZ I         548 34.88         3.2 0.60            155           79.8  45 
 RUS  HZ EP        548 16.93                             142   -0.1110  105 172 
 RUS  HE ES        548 35.77                             142    0.1110  105 172 
 RUS  HZ I         548 37.87         1.5 0.40            145            105 172 
 PTB  HZ EP        548 19.56                             133    0.17 9  141 257 
 PTB  HN ES        548 39.81                             133   -0.05 9  141 257 
 PTB  HZ I         548 42.70         1.7 0.16            135            141 257 
 SPBC HZ EP        548 21.28                             129   -0.07 9  161 216 
 SPBC HN ES        548 43.29                             129   -0.05 9  161 216 
 SPBC HZ I         548 49.06         4.4 0.38            132            161 216 
                                                                                
