 2017 1213 0618 35.2 L   6.839 -73.160147.9  RSN 25 0.4 2.3LRSN                1
 GAP= 64        1.19       2.5     3.2  5.6 -0.1155E+01  0.4892E+01 -0.8206E+00E
 Epicentro: LOS SANTOS - SANTANDER                                             3
 ACTION:UPD 18-01-04 13:19 OP:rebc STATUS:               ID:20171213061835 L   I
 OLDACT:UP  17-12-13 18:17 OP:edw  STATUS:               ID:20171213061742     3
 OLDACT:UP  17-12-13 18:16 OP:edw  STATUS:               ID:20171213061742     3
 OLDACT:REG 17-12-13 13:17 OP:edw  STATUS:               ID:20171213061742     3
 2017-12-13-0618-00M.COL___451                                                 6
 STAT SP IPHASW D HRMM SECON CODA AMPLIT PERI AZIMU VELO AIN AR TRES W  DIS CAZ7
 BAR2 EZ IP     C  618 55.14                             169   -0.0610 27.4 185 
 BAR2 EZ ES        619 10.48                             169   -0.2910 27.4 185 
 BAR2 EZ I         619 11.75       105.2 0.16            166           27.4 185 
 PAM  EZ EP        618 57.95                             152    0.4110 75.2  43 
 PAM  EN ES        619 15.40                             152    0.4610 75.2  43 
 PAM  EZ I         619 17.40        23.8 0.52            156           75.2  43 
 PTB  HZ EP        619  1.70                             133   -0.60 9  147 257 
 PTB  HN ES        619 23.05                             133   -0.37 9  147 257 
 PTB  HZ I         619 24.87        11.5 0.14            131            147 257 
 OCA  HZ EP        619  3.30                             131    0.02 9  156 354 
 OCA  HN ES        619 25.47                             131    0.30 9  156 354 
 OCA  HZ I         619 29.35        49.0 0.24            132            156 354 
 TAM  HZ IP     C  619  3.42                             130    0.10 9  158 106 
 TAM  HN ES        619 25.23                             130   -0.01 9  158 106 
 TAM  HZ I         619 26.34         9.6 0.44            133            158 106 
 SPBC HZ EP        619  4.27                             129    0.16 9  166 218 
 SPBC HN ES        619 25.76                             129   -0.88 9  166 218 
 SPBC HZ I         619 28.84        49.0 0.28            128            166 218 
 YPLC HZ EP     D  619  5.42                             126   -0.20 9  181 152 
 YPLC HN ES        619 29.21                             126   -0.12 9  181 152 
 YPLC HZ I         619 32.41        14.2 0.34            127            181 152 
 ZAR  HZ EP        619  7.72                             123    0.23 9  201 291 
 ZAR  HN ES        619 33.56                             123    0.90 9  201 291 
 ZAR  HZ I         619 39.06        21.5 0.26            123            201 291 
 ROSC BZ EP   4    619 14.80                             117    1.02 0  256 210 
 ROSC BN ES   4    619 45.57                             117    1.72 0  256 210 
 ROSC BZ I         619 50.30        26.8 0.40            116            256 210 
 CVER HZ EP        619 16.14                             115    0.07 7  276 202 
 CVER HN ES        619 48.61                             115    0.68 7  276 202 
 URE  HZ EP        619 15.49                             114   -0.56 7  281 291 
 URE  HN ES   4    619 46.99                             114   -0.91 0  281 291 
 DRL03HZ EP   4    619 17.00                             114    0.57 0  284 353 
 DRL03HN ES   4    619 49.54                             114    0.97 0  284 353 
 GUY2CHZ EP   4    619 20.10                             113    1.03 0  302 234 
 GUY2CHN ES        619 54.01                             113    0.74 7  302 234 
 GUY2CHZ I         620  2.70         8.6 0.64                           302 234 
 VIL  EZ EP        619 18.88                             112   -0.30 7  307 191 
 VIL  EN ES        619 53.11                             112   -0.36 7  307 191 
 VIL  EZ I         620  3.05        14.7 0.42            112            307 191 
 PTGC HZ EP   9    619 18.09                             112   -1.61 0  313 159 
 PTGC HN ES        619 51.28                             112   -1.50 7  313 159 
 PTGC HZ I         619 54.65         8.0 0.64            112            313 159 
 LL6C HZ EP        619 20.48                             111   -0.04 7  320 358 
 LL6C HE ES        619 56.03                             111    0.19 7  320 358 
 DRL02HZ EP        619 20.46                             111   -0.05 7  321 358 
 DRL02HE ES        619 55.62                             111   -0.22 7  321 358 
 DRL01HZ EP        619 20.31                             111   -0.38 7  322 350 
 DRL01HE ES   4    619 58.08                             111    1.93 0  322 350 
 ELA  HZ EP   4    619 24.28                             111    1.93 0  331 229 
 ELA  HE ES   4    620  3.33                             111    4.22 0  331 229 
 ELA  HZ I         620 14.43         8.7 0.48            110            331 229 
 CBOC HZ EP        619 23.08                             110    0.87 7  333 251 
 CBOC HN ES        619 58.50                             110   -0.35 7  333 251 
 CBOC HZ I         620 14.91         3.4 0.44            110            333 251 
 ANIL HZ EP   4    619 22.88                             109   -2.46 0  359 224 
 ANIL HN ES   4    620  7.36                             109    2.93 0  359 224 
 PRA  HZ EP   9    619 28.72                             107   -0.45 0  395 209 
 PRA  HN ES        620  9.84                             107   -0.95 6  395 209 
 PRA  HZ I         620 17.15        11.4 0.48            107            395 209 
 ORTC HZ EP        619 29.41                             107   -0.11 6  398 216 
 ORTC HN ES        620 12.53                             107    0.67 6  398 216 
 ORTC HZ I         620 18.43         8.9 0.74            107            398 216 
 SJC  HZ EP        619 29.33                             106   -1.00 6  405 327 
 SJC  HN ES   4    620  9.88                             106   -3.43 0  405 327 
 SJC  HZ I         620 14.96         3.8 0.62            107            405 327 
 PAL  HZ EP        619 30.75                             106    0.19 6  407 238 
 PAL  HN ES        620 13.65                             106   -0.07 6  407 238 
 PAL  HZ I         620 24.35         2.8 0.40            106            407 238 
 CRJC HZ EP   9    619 35.38                             104   -1.90 0  463   4 
 CRJC HN ES        620 21.24                             104   -2.54 5  463   4 
 SMAR HZ EP        619 40.31                             103   -0.29 4  492 346 
 SMAR HN ES   4    620 22.97                             103   -8.63 0  492 346 
                                                                                
