 2010 1213 0100 48.6 L   6.798 -73.118140.2  RSN  9 0.4 1.7LRSN                1
 GAP=162        0.80       3.7    14.0  9.7 -0.1884E+02  0.6697E+02 -0.6140E+01E
 Epicentro: LOS SANTOS - SANTANDER                                             3
 ACTION:UP  11-01-14 15:24 OP:pat  STATUS:               ID:20101213010048 L   I
 2010-12-13-0055-36S.COL___134                                                 6
 STAT SP IPHASW D HRMM SECON CODA AMPLIT PERI AZIMU VELO SNR AR TRES W  DIS CAZ7
 BAR2 SZ EP        1 1  7.46                             170    -0.110   24 198 
 BAR2 SZ ES   2    1 1 22.23                             170    -0.1 5   24 198 
 BAR2 SZ I         1 1 24.30        13.0 0.40                            24 198 
 GIR2 SZ EP   2    1 1  8.04                             166     0.4 5   32 345 
 RUS  HZ EP   1    1 1 11.40                             142    -0.4 7  100 178 
 RUS  HN ES   1    1 1 30.09                             142     0.3 7  100 178 
 RUS  HZ I         1 1 33.67         4.7 0.48                           100 178 
 GRA  SZ EP   1    1 1 14.09                             136     0.8 7  125  16 
 GRA  SZ ES   1    1 1 32.08                             136    -0.5 7  125  16 
 GRA  SZ I         1 1 34.29         6.9 0.46                           125  16 
 OCA  SZ EP   1    1 1 16.58                             128     0.1 7  161 352 
 OCA  SZ ES   1    1 1 38.18                             128    -0.1 7  161 352 
 OCA  SZ I         1 1 43.84        12.9 0.30                           161 352 
 CHI  HZ EP   2    1 1 25.41                             116    -0.6 4  249 196 
 CHI  HN ES   2    1 1 55.70                             116     0.4 4  249 196 
 CHI  HZ I         1 2  0.83         2.4 0.39                           249 196 
 HEL  HZ EP   2    1 1 29.12                             113     0.3 4  275 256 
 HEL  HZ I         1 2  6.55         3.6 0.51                           275 256 
 RREF HZ EP   2    1 1 34.81                             109     0.1 3  324 230 
 RREF HZ I         1 2 16.56         3.5 0.14                           324 230 
 PRA  HZ EP   2    1 1 41.27                             105    -0.8 3  393 210 
                                                                                
