 2014  713 0635 42.2 L   6.820 -73.179136.0  RSN 10 0.6 1.9LRSN                1
 GAP=131        1.41       4.4     5.2  7.9 -0.4963E+01  0.1376E+02 -0.5618E+00E
 Epicentro: ZAPATOCA - SANTANDER                                               3
 ACTION:UPD 15-03-16 20:43 OP:nd   STATUS:               ID:20140713063542 L   I
 OLDACT:REG 14-07-13 13:58 OP:stll STATUS:               ID:20140713062816     3
 2014-07-13-0628-16M.COL___247                                                 6
 STAT SP IPHASW D HRMM SECON CODA AMPLIT PERI AZIMU VELO AIN AR TRES W  DIS CAZ7
 BAR2 SZ EP        636  0.79                             169    0.0510 25.1 181 
 BAR2 SZ ES        636 15.55                             169    0.3910 25.1 181 
 BAR2 SZ I         636 17.01        27.6 0.18            170           25.1 181 
 BRR  HZ EP        636  2.63                             152    0.5410 66.9 298 
 BRR  HN ES        636 18.40                             152    0.8310 66.9 298 
 BRR  HZ I         636 20.58        14.3 0.12            149           66.9 298 
 PAM  SZ IP     D  636  3.78                             149    0.3010 78.2  43 
 PAM  SZ I         636  4.00        35.0 0.20            151           78.2  43 
 PAM  SN ES        636 19.69                             149   -0.3510 78.2  43 
 RUS  HZ EP        636  4.85                             141   -0.3810  103 174 
 RUS  HZ I         636  6.08         5.1 0.14            145            103 174 
 RUS  HN ES        636 23.08                             141   -0.0810  103 174 
 PTB  HZ EP        636  7.52                             130   -0.61 9  145 258 
 PTB  HN ES        636 27.79                             130   -0.53 9  145 258 
 PTB  HZ I         636 33.78         8.2 0.20            130            145 258 
 OCA  HZ EP        636  8.80                             128   -0.76 9  158 354 
 OCA  HN ES        636 30.32                             128   -0.55 9  158 354 
 OCA  HZ I         636 35.43         7.1 0.28            128            158 354 
 SPBC HZ EP        636  9.83                             127   -0.12 9  163 217 
 SPBC HZ I         636 10.34        11.0 0.12            128            163 217 
 SPBC HN ES        636 31.67                             127    0.11 9  163 217 
 ZAR  HZ EP        636 14.77                             121    1.15 9  200 292 
 ZAR  HN ES        636 37.90                             121   -0.20 9  200 292 
 ZAR  HZ I         636 45.46         7.1 0.26            121            200 292 
 NOR  HZ EP        636 17.41                             117    0.18 8  233 233 
 NOR  HE ES        636 43.97                             117   -0.55 8  233 233 
 NOR  HZ I         636 46.87         6.2 0.24            117            233 233 
 HEL  HZ EP        636 22.97                             113    1.34 8  269 255 
 HEL  HN ES        636 51.64                             113   -0.71 8  269 255 
 HEL  HZ I         636 59.29         3.4 0.44            114            269 255 
                                                                                
