 2012  413 0817 41.5 L   6.791 -73.116146.0  RSN  8 0.4 2.1LRSN                1
 GAP=161        0.82       5.4     4.9  7.8 -0.8952E+01  0.1015E+02  0.8515E+01E
 Epicentro: LOS SANTOS - SANTANDER                                             3
 ACTION:UPD 12-07-05 11:53 OP:tino STATUS:               ID:20120413081741 L   I
 2012-04-13-0810-00M.COL___181                                                 6
 STAT SP IPHASW D HRMM SECON CODA AMPLIT PERI AZIMU VELO AIN AR TRES W  DIS CAZ7
 BAR2 SZ IP        818  1.18                             171     0.010   23 198 
 BAR2 SZ ES   2    818 15.97                             171    -0.5 5   23 198 
 BAR2 SZ I         818 18.56        26.9 0.27                            23 198 
 BRR  HZ IP     C  818  3.09                             151     0.210   75 298 
 BRR  HZ I         818  4.30        29.0 0.16                            75 298 
 BRR  HE ES   1    818 19.90                             151     0.3 7   75 298 
 PAM  SZ EP   1    818  4.01                             151     0.3 7   76  37 
 PAM  SN ES   1    818 21.18                             151     0.2 7   76  37 
 PTB  HZ EP   1    818  8.17                             131    -0.6 7  151 259 
 PTB  HN ES   2    818 28.83                             131    -1.2 5  151 259 
 PTB  HZ I         818 31.18        11.7 0.18                           151 259 
 OCA  SZ EP   2    818  9.80                             129    -0.2 5  162 352 
 OCA  SZ ES   1    818 31.63                             129    -0.6 7  162 352 
 ZAR  HZ EP   1    818 14.29                             122    -0.1 6  207 292 
 ZAR  HN ES   1    818 40.31                             122     0.4 6  207 292 
 ZAR  HZ I         818 47.20        14.5 0.17                           207 292 
 NOR  SZ EP   1    818 17.41                             118    -0.1 6  237 235 
 NOR  SN ES   1    818 45.71                             118     0.2 6  237 235 
 HEL  HZ EP   2    818 22.26                             115     0.2 4  275 256 
 HEL  HN ES   1    818 54.21                             115     0.5 6  275 256 
 HEL  HZ I         819  0.60         8.7 0.33                           275 256 
                                                                                
