 2016  913 0947 14.1 L   6.846 -73.194135.4  RSN  4 0.3 1.0LRSN                1
 GAP=149        0.72       4.3     4.1  6.2 -0.5573E+01  0.7604E+01 -0.2410E+01E
 Epicentro: ZAPATOCA - SANTANDER                                               3
 ACTION:UPD 17-08-17 21:09 OP:lp   STATUS:               ID:20160913094714 L   I
 OLDACT:REG 16-09-13 15:03 OP:and  STATUS:               ID:20160913093738     3
 2016-09-13-0938-00M.COL___318                                                 6
 STAT SP IPHASW D HRMM SECON CODA AMPLIT PERI AZIMU VELO AIN AR TRES W  DIS CAZ7
 BAR2 EZ EP        947 32.30                             168   -0.2910 28.1 177 
 BAR2 EZ ES        947 47.02                             168   -0.0110 28.1 177 
 BAR2 EZ I         947 48.08         2.7 0.22            160           28.1 177 
 PAM  EZ EP        947 34.99                             149   -0.2210 77.2  45 
 PAM  EE ES        947 51.88                             149    0.2010 77.2  45 
 PAM  EZ I         947 53.96         4.1 0.48            154           77.2  45 
 RUS  HZ EP        947 37.82                             140    0.5510  106 173 
 RUS  HN ES        947 55.13                             140   -0.2210  106 173 
 RUS  HZ I         948  8.13         0.8 0.38            137            106 173 
 PTB  HZ EP        947 39.70                             130   -0.15 9  144 256 
 PTB  HE ES        948  0.07                             130    0.13 9  144 256 
 PTB  HZ I         948  3.43         1.0 0.14            133            144 256 
                                                                                
