 2011  513 0648  2.0 L   7.365 -73.198120.0  RSN  6 0.6 1.5LRSN                1
 GAP=154        1.07      11.4    11.3 11.3 -0.8280E+02  0.3861E+02 -0.2714E+02E
 Epicentro: RIONEGRO - SANTANDER                                               3
 ACTION:UP  11-06-29 08:52 OP:tino STATUS:               ID:20110513064802 L   I
 2011-05-13-0643-57S.COL___141                                                 6
 STAT SP IPHASW D HRMM SECON CODA AMPLIT PERI AZIMU VELO SNR AR TRES W  DIS CAZ7
 GIR2 SZ EP        648 18.65                             165     0.010   32 179 
 GIR2 SZ ES   2    648 29.68                             165    -2.0 5   32 179 
 BTL  SZ EP        648 19.72                             156     0.110   50 189 
 BTL  SZ ES   2    648 33.93                             156     0.7 5   50 189 
 PAM  SZ EP        648 20.14                             154    -0.110   55  93 
 PAM  SN ES   1    648 34.79                             154     0.4 7   55  93 
 BRI  SZ EP   2    648 20.17                             153     0.2 5   59  49 
 BRR  HZ EP        648 19.90                             150    -0.110   64 243 
 BRR  HZ I         648 20.14         8.1 0.12                            64 243 
 BRR  HN ES   2    648 34.78                             150     0.8 5   64 243 
 GRA  SZ EP        648 20.50                             147    -0.310   72  37 
 GRA  SZ ES   1    648 35.57                             147     0.2 7   72  37 
 GRA  SZ I         648 38.74         6.9 0.28                            72  37 
                                                                                
