 2017  813 0709 20.7 L   6.820 -73.089142.6  RSN  7 0.4 1.3LRSN                1
 GAP=245        1.00       4.8     7.2  7.0  0.1580E+02  0.1237E+02  0.3966E+01E
 Epicentro: LOS SANTOS - SANTANDER                                             3
 ACTION:UPD 17-09-04 20:19 OP:rebc STATUS:               ID:20170813070920 L   I
 OLDACT:REG 17-08-13 12:21 OP:dhb  STATUS:               ID:20170813070639     3
 2017-08-13-0707-00M.COL___404                                                 6
 STAT SP IPHASW D HRMM SECON CODA AMPLIT PERI AZIMU VELO AIN AR TRES W  DIS CAZ7
 BAR2 EZ EP        7 9 39.64                             169   -0.4410 27.2 202 
 BAR2 EZ ES        7 9 54.82                             169   -0.3410 27.2 202 
 BAR2 EZ I         7 9 57.09         3.7 0.10            164           27.2 202 
 BRR  HZ IP     C  7 9 42.01                             150    0.1910 75.8 295 
 BRR  HN ES        7 9 58.91                             150    0.6510 75.8 295 
 BRR  HZ I         710  2.96         5.2 0.29            151           75.8 295 
 RUS  HZ EP        7 9 44.82                             142    0.4910  103 180 
 RUS  HN ES        710  2.39                             142   -0.3310  103 180 
 RUS  HZ I         710  7.13         1.6 0.46            142            103 180 
 SPBC HZ EP        7 9 49.50                             127   -0.05 9  169 220 
 SPBC HN ES        710 11.84                             127   -0.18 9  169 220 
 SPBC HZ I         710 15.33         2.7 0.10            127            169 220 
 ZAR  HZ EP        7 9 53.44                             121   -0.06 8  209 291 
 ZAR  HE ES        710 18.65                             121   -0.41 8  209 291 
 CHI  HN ES        710 28.96                             116    0.68 8  252 196 
 CHI  HZ I         710 35.80         1.3 0.40            117            252 196 
 GUY2CHZ EP   2    710  4.05                             111   -0.88 4  308 235 
 GUY2CHN ES   4    710 41.90                             111    2.50 0  308 235 
 GUY2CHZ I         710 48.54         1.1 0.66                           308 235 
                                                                                
