 2017  113 0304  0.4 L   6.836 -73.170143.0  RSN  6 0.5 1.2LRSN                1
 GAP=132        0.74       5.2     4.1  6.7 -0.4824E+01  0.7186E+01 -0.8719E+01E
 Epicentro: ZAPATOCA - SANTANDER                                               3
 ACTION:UPD 17-05-22 15:58 OP:jn   STATUS:               ID:20170113030400 L   I
 OLDACT:UP  17-01-13 14:43 OP:and  STATUS:               ID:20170113025742     3
 OLDACT:UP  17-01-13 14:43 OP:and  STATUS:               ID:20170113025742     3
 OLDACT:UP  17-01-13 14:41 OP:and  STATUS:               ID:20170113025742     3
 OLDACT:REG 17-01-13 12:35 OP:and  STATUS:               ID:20170113025742     3
 2017-01-13-0258-00M.COL___338                                                 6
 STAT SP IPHASW D HRMM SECON CODA AMPLIT PERI AZIMU VELO AIN AR TRES W  DIS CAZ7
 BAR2 EZ ES        3 4 35.05                             169    0.1610 27.0 183 
 BAR2 EZ I         3 4 36.04         4.6 0.25            171           27.0 183 
 BRR  HZ EP   2    3 4 21.55                             153    0.55 5 67.0 297 
 BRR  HN ES   3    3 4 38.30                             153    1.21 2 67.0 297 
 BRR  HZ I         3 4 54.40         5.7 0.30            148           67.0 297 
 PAM  EZ EP        3 4 22.41                             150    0.1810 76.1  43 
 PAM  EN ES   3    3 4 36.82                             150   -2.46 2 76.1  43 
 PAM  EZ I         3 4 40.90         1.9 0.21            152           76.1  43 
 RUS  HZ EP        3 4 24.28                             142    0.1010  105 175 
 RUS  HN ES        3 4 42.50                             142   -0.2410  105 175 
 RUS  HZ I         3 4 44.41         2.3 0.22            156            105 175 
 PTB  HZ EP        3 4 26.74                             132   -0.23 9  146 257 
 PTB  HN ES        3 4 47.60                             132   -0.11 9  146 257 
 PTB  HZ I         3 4 50.31         2.4 0.14            134            146 257 
 NOR  HE ES        3 5  3.79                             118    0.05 8  235 233 
 NOR  HZ I         3 5  6.64         1.5 0.14            124            235 233 
                                                                                
