 2012  513 0711 38.4 L   6.809 -73.170141.8  RSN  7 0.4 1.9LRSN                1
 GAP=133        0.95       5.4     5.7  8.2 -0.1982E+01  0.6157E+01  0.1766E+01E
 Epicentro: LOS SANTOS - SANTANDER                                             3
 ACTION:UP  12-07-05 12:04 OP:pat  STATUS:               ID:20120513071138 L   I
 2012-05-13-0710-00M.COL___195                                                 6
 STAT SP IPHASW D HRMM SECON CODA AMPLIT PERI AZIMU VELO SNR AR TRES W  DIS CAZ7
 BAR2 SZ EP        711 57.58                             170     0.010   24 183 
 BAR2 SZ ES   1    712 12.25                             170    -0.3 7   24 183 
 BAR2 SZ I         712 15.08        16.3 0.48                            24 183 
 BRR  HZ IP     D  711 59.34                             153     0.310   68 299 
 BRR  HZ I         711 59.46        18.0 0.16                            68 299 
 BRR  HN ES   1    712 15.85                             153     0.8 7   68 299 
 PAM  SZ EP        712  0.57                             149     0.310   78  41 
 PAM  SN ES   1    712 17.12                             149    -0.2 7   78  41 
 RUS  HZ EP        712  1.87                             143     0.010  102 175 
 RUS  HN ES   1    712 20.25                             143     0.1 7  102 175 
 RUS  HZ I         712 21.48        11.1 0.38                           102 175 
 PTB  HZ EP        712  4.50                             132    -0.4 9  145 258 
 PTB  HN ES   1    712 24.91                             132    -0.6 7  145 258 
 PTB  HZ I         712 27.39         6.4 0.10                           145 258 
 OCA  HN ES   2    712 27.23                             129    -0.9 5  159 354 
 OCA  HZ I         712 32.13        18.2 0.34                           159 354 
 ZAR  HZ EP   3    712 11.05                             122     0.7 2  201 292 
 ZAR  HN ES   3    712 35.55                             122     0.3 2  201 292 
 ZAR  HZ I         712 41.26         9.6 0.32                           201 292 
                                                                                
