 2016  313 0053 12.8 L   6.887 -73.174136.0  RSN  4 0.3 1.1LRSN                1
 GAP=128        0.67       3.5     3.2  6.8  0.3979E-01  0.9120E+01 -0.9841E+00E
 Epicentro: BETULIA - SANTANDER                                                3
 ACTION:UPD 16-05-13 21:23 OP:cam  STATUS:               ID:20160313005312 L   I
 OLDACT:REG 16-03-13 12:53 OP:cara STATUS:               ID:20160313004750     3
 2016-03-13-0047-50M.COL___295                                                 6
 STAT SP IPHASW D HRMM SECON CODA AMPLIT PERI AZIMU VELO AIN AR TRES W  DIS CAZ7
 PAM  EZ EP        053 33.45                             151   -0.2210 72.5  46 
 PAM  EN ES        053 49.98                             151    0.0210 72.5  46 
 PAM  EZ I         053 54.59         2.5 0.30            156           72.5  46 
 RUS  HZ EP        053 36.23                             139   -0.1210  110 175 
 RUS  HN ES        053 55.04                             139    0.3110  110 175 
 RUS  HZ I         053 56.45         0.9 0.30            147            110 175 
 PTB  HZ EP        053 38.86                             130   -0.03 9  147 255 
 PTB  HN ES        053 58.79                             130   -0.46 9  147 255 
 PTB  HZ I         054  4.60         2.2 0.22            134            147 255 
 ZAR  HZ EP        053 44.20                             121    0.26 9  198 290 
 ZAR  HE ES        054  8.57                             121    0.33 9  198 290 
 ZAR  HZ I         054 15.30         2.0 0.16            125            198 290 
                                                                                
