 2013 1013 0657  5.3 L   6.806 -73.140143.9  RSN 12 0.4 2.7LRSN                1
 GAP=137        0.97       3.3     4.1  5.8 -0.4234E+01  0.4398E+01  0.1346E+01E
 Epicentro: LOS SANTOS - SANTANDER                                             3
 ACTION:UPD 13-11-25 09:21 OP:ep   STATUS:               ID:20131013065705 L   I
 OLDACT:UP  13-10-13 10:51 OP:mh   STATUS:               ID:20131013065638     3
 OLDACT:REG 13-10-13 09:58 OP:mh   STATUS:               ID:20131013065638     3
 2013-10-13-0656-38M.COL___233                                                 6
 STAT SP IPHASW D HRMM SECON CODA AMPLIT PERI AZIMU VELO AIN AR TRES W  DIS CAZ7
 BAR2 SZ EP        657 24.78                             170    0.0410 24.1 191 
 BAR2 SZ ES   1    657 39.64                             170   -0.25 7 24.1 191 
 BAR2 SZ I         657 41.06       190.4 0.38            169           24.1 191 
 BRR  HZ IP     C  657 26.59                             152    0.3110 71.4 298 
 BRR  HN ES        657 43.37                             152    0.7410 71.4 298 
 BRR  HZ I         657 46.68        67.0 0.34            151           71.4 298 
 PAM  SZ EP     D  657 27.55                             151    0.2710 76.5  40 
 PAM  SN ES        657 44.42                             151    0.0010 76.5  40 
 PAM  SZ I         657 46.89       104.0 0.62            155           76.5  40 
 RUS  HZ EP   1    657 28.82                             143   -0.11 7  101 176 
 PTB  HZ EP   1    657 31.71                             132   -0.49 7  148 259 
 PTB  HN ES        657 52.20                             132   -0.97 9  148 259 
 PTB  HZ I         657 55.26        32.6 0.10            131            148 259 
 OCA  HZ EP   1    657 33.07                             129   -0.36 7  160 353 
 SPBC HZ EP        657 33.62                             129   -0.14 9  164 219 
 SPBC HN ES        657 55.86                             129   -0.08 9  164 219 
 SPBC HZ I         657 58.38        53.5 0.24            129            164 219 
 ZAR  HZ EP   1    657 38.34                             122    0.67 6  204 292 
 ZAR  HN ES   2    658  3.11                             122    0.20 4  204 292 
 ZAR  HZ I         658  9.62        78.5 0.37            122            204 292 
 NOR  HZ EP        657 41.20                             118    0.17 8  236 234 
 NOR  HN ES        658  8.93                             118    0.04 8  236 234 
 NOR  HZ I         658 13.86        28.2 0.37            119            236 234 
 SML  HZ EP        657 41.34                             117   -0.46 8  243 335 
 SML  HN ES        658  9.76                             117   -0.50 8  243 335 
 SML  HZ I         658 13.17       102.9 0.04            118            243 335 
 CHI  HZ EP   1    657 43.05                             117    0.05 6  249 195 
 CHI  HN ES   1    658 12.18                             117   -0.21 6  249 195 
 CHI  HZ I         658 19.45        18.3 0.49            118            249 195 
 ROSC BZ EP   4    657 45.08                             116    1.65 0  254 211 
 ROSC BN ES   4    658 15.49                             116    2.33 0  254 211 
 HEL  HZ EP   1    657 46.64                             114    1.12 6  273 256 
 HEL  HN ES        658 17.10                             114    0.23 8  273 256 
 HEL  HZ I         658 23.33        22.9 0.41            115            273 256 
                                                                                
