 2012  413 0556 28.7 L   6.668 -73.134142.9  RSN  4 0.3 1.3LRSN                1
 GAP=179        0.60       9.6     5.5  6.7 -0.2710E+02  0.3479E+01 -0.1636E+01E
 Epicentro: VILLANUEVA - SANTANDER                                             3
 ACTION:UPD 12-07-05 11:53 OP:tino STATUS:               ID:20120413055628 L   I
 2012-04-13-0550-00M.COL___181                                                 6
 STAT SP IPHASW D HRMM SECON CODA AMPLIT PERI AZIMU VELO AIN AR TRES W  DIS CAZ7
 BAR2 SZ ES   1    557  2.79                             176     0.2 7   10 212 
 BRR  HZ EP   1    556 50.32                             149     0.3 7   80 307 
 BRR  HZ I         556 50.68         5.5 0.12                            80 307 
 BRR  HE ES   1    557  6.86                             149     0.1 7   80 307 
 PAM  SZ EP   1    556 51.39                             147     0.1 7   88  33 
 PAM  SE ES   2    557  8.25                             147    -0.7 5   88  33 
 PTB  HZ EP   1    556 55.06                             132    -0.3 7  147 265 
 PTB  HN ES   1    557 15.90                             132    -0.2 7  147 265 
 PTB  HZ I         557 18.68         1.8 0.19                           147 265 
                                                                                
