 2011 1113 0428 43.5 L   6.769 -73.118144.4  RSN  5 0.2 1.5LRSN                1
 GAP=141        0.56       3.5     5.0  4.5  0.1872E+01 -0.1146E+01  0.3358E+01E
 Epicentro: LOS SANTOS - SANTANDER                                             3
 ACTION:UPD 12-07-13 16:09 OP:ep   STATUS:               ID:20111113042843 L   I
 2011-11-13-0427-10S.COL___179                                                 6
 STAT SP IPHASW D HRMM SECON CODA AMPLIT PERI AZIMU VELO AIN AR TRES W  DIS CAZ7
 BAR2 SZ EP        429  2.68                             171   -0.2210 20.7 200 
 BAR2 SZ ES        429 17.74                             171   -0.3110 20.7 200 
 BAR2 SZ I         429 19.59        12.3 0.25                          20.7 200 
 BRR  HZ EP        429  4.82                             151    0.0810 75.5 300 
 BRR  HN ES        429 21.41                             151    0.0910 75.5 300 
 BRR  HZ I         429 23.86         6.2 0.16                          75.5 300 
 PAM  SZ EP   1    429  5.58                             150   -0.03 7 78.3  36 
 PAM  SN ES   1    429 23.14                             150    0.27 7 78.3  36 
 RUS  HZ EP        429  6.75                             145   -0.0910 96.9 178 
 RUS  HN ES   1    429 25.49                             145    0.43 7 96.9 178 
 RUS  HZ I         429 26.78         2.8 0.45                          96.9 178 
 CHI  HZ EP   1    429 21.06                             117    0.23 6  246 196 
 CHI  HZ I         429 53.85         2.0 0.54                           246 196 
                                                                                
