 2012  713 0725 22.7 L   6.784 -73.166147.4  RSN  6 0.4 1.3LRSN                1
 GAP=135        1.02       6.1     5.9  9.3  0.6843E+01  0.7844E+01  0.6027E-01E
 Epicentro: LOS SANTOS - SANTANDER                                             3
 ACTION:UPD 12-08-14 11:44 OP:ep   STATUS:               ID:20120713072522 L   I
 2012-07-13-0720-00M.COL___197                                                 6
 STAT SP IPHASW D HRMM SECON CODA AMPLIT PERI AZIMU VELO AIN AR TRES W  DIS CAZ7
 BAR2 SZ EP   1    725 42.49                             171     0.0 7   21 185 
 BAR2 SZ ES   1    725 57.68                             171    -0.2 7   21 185 
 BAR2 SZ I         725 58.99         2.2 0.14            171             21 185 
 BRR  HZ EP   1    725 44.26                             153     0.3 7   70 301 
 BRR  HZ I         725 44.72         7.3 0.08            151             70 301 
 BRR  HN ES        726  1.10                             153     0.510   70 301 
 PAM  SZ EP   1    725 45.20                             150     0.0 7   80  40 
 PAM  SN ES   1    726  2.31                             150    -0.5 7   80  40 
 PAM  SZ I         726  4.64         3.4 0.26            152             80  40 
 RUS  HZ EP   1    725 46.99                             145     0.5 7   99 175 
 RUS  HN ES        726  5.09                             145     0.010   99 175 
 RUS  HZ I         726  6.66         3.4 0.24            146             99 175 
 PTB  HZ EP   1    725 49.10                             133    -0.5 7  145 259 
 PTB  HN ES   1    726  9.85                             133    -0.7 7  145 259 
 PTB  HZ I         726 14.15         1.9 0.11            132            145 259 
 ZAR  HN ES   1    726 20.38                             123     0.0 6  203 293 
 ZAR  HZ I         726 26.06         3.4 0.16            123            203 293 
