 2012  613 0207 31.1 L   6.825 -73.164145.6  RSN  5 0.3 1.7LRSN                1
 GAP=133        0.59       4.2     3.7  6.6 -0.2444E+00  0.7386E+01 -0.1899E+01E
 Epicentro: LOS SANTOS - SANTANDER                                             3
 ACTION:UPD 12-08-06 17:49 OP:ep   STATUS:               ID:20120613020731 L   I
 2012-06-13-0200-00M.COL___201                                                 6
 STAT SP IPHASW D HRMM SECON CODA AMPLIT PERI AZIMU VELO AIN AR TRES W  DIS CAZ7
 BAR2 SZ EP   1    2 7 50.79                             169    0.07 7 25.8 185 
 BAR2 SZ ES   1    2 8  5.96                             169   -0.10 7 25.8 185 
 BAR2 SZ I         2 8  6.67         9.4 0.29                          25.8 185 
 PAM  SZ EP   1    2 7 53.40                             151    0.19 7 76.6  42 
 PAM  SE ES   1    2 8 10.28                             151   -0.21 7 76.6  42 
 RUS  HZ EP   1    2 7 54.97                             143   -0.03 7  103 175 
 RUS  HE ES   1    2 8 14.02                             143    0.34 7  103 175 
 RUS  HZ I         2 8 15.29         7.6 0.29                           103 175 
 PTB  HZ EP   1    2 7 57.44                             132   -0.45 7  146 258 
 PTB  HN ES   1    2 8 18.53                             132   -0.29 7  146 258 
 PTB  HZ I         2 8 22.99         6.4 0.16                           146 258 
 ZAR  HE ES   1    2 8 28.82                             123    0.55 6  201 292 
 ZAR  HZ I         2 8 35.81         7.7 0.35                           201 292 
                                                                                
