 2013 1213 0811 42.2 L   6.740 -73.128148.3  RSN  5 0.4 1.3LRSN                1
 GAP=235        1.13       6.8     7.3  9.0  0.1086E+02  0.6113E+01 -0.4162E+00E
 Epicentro: JORDAN - SANTANDER                                                 3
 ACTION:UPD 14-01-13 10:17 OP:ep   STATUS:               ID:20131213081142 L   I
 OLDACT:REG 13-12-13 08:07 OP:jn   STATUS:               ID:20131213081000     3
 2013-12-13-0810-00M.COL___285                                                 6
 STAT SP IPHASW D HRMM SECON CODA AMPLIT PERI AZIMU VELO AIN AR TRES W  DIS CAZ7
 BAR2 SZ EP        812  2.12                             173    0.0510 17.5 200 
 BAR2 SZ ES        812 17.13                             173   -0.4210 17.5 200 
 BAR2 SZ I         812 18.61         9.0 0.14            170           17.5 200 
 BRR  HZ EP        812  4.03                             151    0.0810 76.3 302 
 BRR  HE ES        812 21.51                             151    0.6210 76.3 302 
 RUS  HZ EP        812  6.08                             146    0.3010 93.9 177 
 RUS  HN ES        812 23.88                             146   -0.2510 93.9 177 
 RUS  HZ I         812 25.74         1.7 0.24            146           93.9 177 
 PTB  HZ EP        812  8.96                             132   -0.53 9  149 261 
 PTB  HN ES        812 30.19                             132   -0.56 9  149 261 
 PTB  HZ I         812 35.21         2.3 0.24            132            149 261 
 SPBC HN ES        812 33.36                             130    0.67 9  159 221 
                                                                                
