 2016  813 0829 20.5 L   6.808 -73.131147.2  RSN 25 0.5 2.8LRSN                1
 GAP= 72        1.08       2.9     2.8  4.7 -0.1752E+01  0.2577E+01  0.1979E+01E
 Epicentro: LOS SANTOS - SANTANDER                                             3
 ACTION:UPD 16-10-29 15:35 OP:rebc STATUS:               ID:20160813082760 L   I
 OLDACT:UPD 16-08-13 16:15 OP:dani STATUS:               ID:20160813082760 L   3
 2016-08-13-0827-59S.COL___343                                                 6
 STAT SP IPHASW D HRMM SECON CODA AMPLIT PERI AZIMU VELO AIN AR TRES W  DIS CAZ7
 BAR2 EZ EP     D  829 40.21                             170   -0.0810 24.5 193 
 BAR2 EZ ES        829 55.58                             170   -0.1710 24.5 193 
 BAR2 EZ I         829 56.62        76.7 0.40                          24.5 193 
 BRR  HZ EP        829 42.08                             153    0.2610 72.3 297 
 BRR  HE ES        829 59.38                             153    0.8910 72.3 297 
 BRR  HZ I         830  4.52        53.6 0.18                          72.3 297 
 PAM  EZ EP        829 43.08                             152    0.3510 75.7  39 
 PAM  EE ES        830  0.26                             152    0.1610 75.7  39 
 PAM  EZ I         830  2.41       107.0 0.58                          75.7  39 
 RUS  HZ EP        829 44.05                             144   -0.3510  101 177 
 RUS  HN ES        830  3.16                             144    0.0810  101 177 
 RUS  HZ I         830  5.50        63.0 0.52                           101 177 
 PTB  HZ EP        829 46.81                             132   -0.89 9  150 259 
 PTB  HE ES        830  8.72                             132   -0.23 9  150 259 
 PTB  HZ I         830 15.79        94.7 0.42                           150 259 
 TAM  HZ IP     D  829 48.33                             131    0.21 9  154 105 
 TAM  HN ES        830  9.88                             131    0.18 9  154 105 
 OCA  HZ EP        829 48.30                             130   -0.52 9  160 353 
 OCA  HN ES        830 10.89                             130   -0.06 9  160 353 
 OCA  HZ I         830 15.97        90.0 0.24                           160 353 
 SPBC HZ EP        829 49.04                             129   -0.19 9  165 219 
 SPBC HN ES        830 11.61                             129   -0.06 9  165 219 
 SPBC HZ I         830 16.28       117.2 0.18                           165 219 
 ZAR  HZ EP        829 52.80                             123   -0.32 8  205 292 
 ZAR  HN ES        830 17.99                             123   -0.61 8  205 292 
 ZAR  HZ I         830 24.77        65.3 0.48                           205 292 
 NOR  HZ EP        829 56.27                             119   -0.20 8  237 235 
 NOR  HN ES        830 23.90                             119   -0.65 8  237 235 
 NOR  HZ I         830 26.47        41.2 0.28                           237 235 
 CHI  HZ EP        829 58.31                             117   -0.06 8  250 195 
 CHI  HN ES        830 27.47                             117   -0.47 8  250 195 
 CHI  HZ I         830 31.65        28.2 0.40                           250 195 
 ROSC BZ EP   9    830  0.30                             117    1.47 0  254 211 
 ROSC BN ES        830 30.66                                    0.43 8  254 211 
 ROSC BZ I         830 34.68        54.4 0.35                           254 211 
 HEL  HZ EP        830  1.96                             115    1.02 8  274 256 
 HEL  HN ES        830 32.61                             115    0.09 8  274 256 
 HEL  HZ I         830 38.54        36.8 0.30                           274 256 
 URE  HZ EP   4    830  0.23                             114   -1.50 0  285 292 
 URE  HN ES   4    830 30.93                             114   -3.00 0  285 292 
 URE  HZ I         830 45.31        37.1 0.22                           285 292 
 SOCV BZ EP        830  2.79                             113   -0.58 7  299  57 
 SOCV BN ES   4    830 34.26                             113   -2.57 0  299  57 
 GUY2CHZ EP        830  4.52                             113    0.18 7  303 235 
 GUY2CHE ES   4    830 40.93                             113    2.36 0  303 235 
 GUY2CHZ I         830 46.90        43.8 0.72                           303 235 
 PTGC HZ EP   4    830  3.07                             112   -1.33 0  309 159 
 PTGC HN ES   4    830 36.28                             112   -2.39 0  309 159 
 PTGC HZ I         830 41.27        30.2 0.32                           309 159 
 LL6C HZ EP   4    830  4.31                             111   -1.82 0  324 357 
 LL6C HN ES   4    830 37.97                             111   -3.79 0  324 357 
 LL6C HZ I         830 48.29        13.4 0.26                           324 357 
 ELA  HZ EP        830  8.48                             111    0.91 7  331 230 
 ELA  HN ES        830 44.00                             111   -0.32 7  331 230 
 ELA  HZ I         830 52.89        31.3 0.30                           331 230 
 CBOC HZ EP        830  7.97                             110    0.33 7  335 252 
 CBOC HN ES        830 44.72                             110    0.28 7  335 252 
 CBOC HZ I         830 50.77        13.5 0.34                           335 252 
 ANIL HZ EP        830 11.38                             109    0.86 6  359 225 
 ANIL HN ES        830 50.83                             109    1.26 6  359 225 
 ANIL HZ I         830 56.77        71.1 0.36                           359 225 
 PRA  HZ EP        830 14.01                             107   -0.20 6  394 210 
 PRA  HN ES        830 56.16                             107    0.03 6  394 210 
 PRA  HZ I         831  1.96        23.9 0.26                           394 210 
 PAL  HZ EP   4    830 15.84                             106   -0.04 0  408 239 
 PAL  HE ES   4    830 58.05                             106   -1.06 0  408 239 
 PAL  HZ I         831  3.83        13.7 0.20                           408 239 
 SJC  HZ EP   4    830 13.94                             106   -2.15 0  409 327 
 SJC  HN ES   4    830 55.71                             106   -3.77 0  409 327 
 SJC  HZ I         831  0.65         9.8 0.32                           409 327 
 CRJC HZ EP   4    830 20.31                             104   -2.58 0  467   3 
 CRJC HN ES   4    831  6.66                             104   -4.92 0  467   3 
 CRJC HZ I         831 14.69        17.7 0.20                           467   3 
                                                                                
