 2015 1013 0418 32.1 L   6.724 -73.139141.9  RSN  6 0.3 1.2LRSN                1
 GAP=141        0.81       3.4     4.2  5.9  0.2779E+00  0.6925E+01  0.6023E+00E
 Epicentro: JORDAN - SANTANDER                                                 3
 ACTION:UPD 15-12-22 20:39 OP:cam  STATUS:               ID:20151013041832 L   I
 OLDACT:UP  15-10-13 20:06 OP:ak   STATUS:               ID:20151013040744     3
 OLDACT:REG 15-10-13 14:19 OP:cara STATUS:               ID:20151013040744     3
 2015-10-13-0407-44M.COL___334                                                 6
 STAT SP IPHASW D HRMM SECON CODA AMPLIT PERI AZIMU VELO AIN AR TRES W  DIS CAZ7
 BAR2 EZ EP        418 50.91                             174   -0.1910 15.3 198 
 BAR2 EZ ES        419  6.14                             174    0.2010 15.3 198 
 BAR2 EZ I         419  7.83         4.4 0.25            173           15.3 198 
 BRR  HZ EP     C  418 53.65                             150    0.5510 76.2 304 
 BRR  HN ES        419  9.74                             150    0.2410 76.2 304 
 BRR  HZ I         419 13.68         2.2 0.16            152           76.2 304 
 PAM  EZ EP   1    418 53.90                             148   -0.37 7 83.6  35 
 PAM  EN ES        419 11.45                             148   -0.1310 83.6  35 
 PAM  EZ I         419 14.69         3.4 0.52            152           83.6  35 
 RUS  HZ EP        418 55.12                             145    0.2810 92.1 176 
 RUS  HN ES        419 12.21                             145   -0.3910 92.1 176 
 RUS  HZ I         419 15.07         2.8 0.34            148           92.1 176 
 SPBC HZ EP   1    418 59.66                             129   -0.04 7  157 221 
 SPBC HN ES        419 21.30                             129    0.04 9  157 221 
 SPBC HZ I         419 25.25         1.8 0.11            132            157 221 
 ZAR  HZ EP   1    419  4.83                             121    0.15 6  208 294 
 ZAR  HE ES        419 29.51                             121   -0.61 8  208 294 
                                                                                
