 2015 1013 0731 32.7 L   6.106 -73.646114.5  RSN  4 0.1 0.9LRSN                1
 GAP=161        0.43       3.8     3.1  4.0 -0.7488E+01  0.5549E+01 -0.3055E+01E
 Epicentro: CHIPATA - SANTANDER                                                3
 ACTION:UPD 15-12-22 20:39 OP:cam  STATUS:               ID:20151013073132 L   I
 OLDACT:REG 15-10-13 14:36 OP:cara STATUS:               ID:20151013072748     3
 2015-10-13-0727-48M.COL___334                                                 6
 STAT SP IPHASW D HRMM SECON CODA AMPLIT PERI AZIMU VELO AIN AR TRES W  DIS CAZ7
 RUS  HZ EP        731 51.25                             148    0.2410 66.6 111 
 RUS  HE ES        732  5.10                             148   -0.1610 66.6 111 
 RUS  HZ I         732  6.68         1.5 0.44            151           66.6 111 
 SPBC HZ EP        731 50.46                             147   -0.1310 68.9 223 
 SPBC HN ES        732  4.61                             147    0.1010 68.9 223 
 SPBC HZ I         732  7.42         2.6 0.34            147           68.9 223 
 BAR2 EZ EP   1    731 51.08                             145   -0.08 7 74.3  44 
 BAR2 EZ ES        732  5.56                             145    0.0310 74.3  44 
 GUY2CHZ EP        732  5.01                             114   -0.05 8  214 243 
 GUY2CHN ES   4    732 27.42                             114   -2.85 0  214 243 
 GUY2CHZ I         732 36.73         0.9 0.34                           214 243 
                                                                                
