 2017  913 0238 12.7 L   6.794 -73.143142.4  RSN 13 0.4 2.0LRSN                1
 GAP=112        0.84       3.4     4.3  5.3 -0.2117E+01  0.3373E+01  0.4626E+01E
 Epicentro: LOS SANTOS - SANTANDER                                             3
 ACTION:UPD 17-10-05 19:11 OP:rebc STATUS:               ID:20170913023812 L   I
 OLDACT:UP  17-09-13 15:28 OP:mg   STATUS:               ID:20170913023743     3
 OLDACT:UP  17-09-13 15:26 OP:mg   STATUS:               ID:20170913023743     3
 OLDACT:REG 17-09-13 12:42 OP:mg   STATUS:               ID:20170913023743     3
 2017-09-13-0238-00M.COL___458                                                 6
 STAT SP IPHASW D HRMM SECON CODA AMPLIT PERI AZIMU VELO AIN AR TRES W  DIS CAZ7
 BAR2 EZ IP     D  238 31.79                             171   -0.1510 22.8 191 
 BAR2 EZ ES        238 46.44                             171   -0.4810 22.8 191 
 BAR2 EZ I         238 47.88        20.7 0.34            168           22.8 191 
 BRR  HZ EP        238 33.54                             152   -0.0010 71.8 299 
 BRR  HN ES   1    238 50.53                             152    0.75 7 71.8 299 
 BRR  HZ I         238 51.83        11.8 0.15            148           71.8 299 
 PAM  EZ EP   1    238 34.63                             150    0.03 7 77.7  39 
 PAM  EN ES        238 51.60                             150   -0.0610 77.7  39 
 PAM  EZ I         238 54.07        30.2 0.36            152           77.7  39 
 RUS  HZ EP        238 35.83                             143   -0.2710 99.9 176 
 RUS  HN ES        238 54.57                             143    0.2410 99.9 176 
 RUS  HZ I         238 55.56        16.9 0.26            143           99.9 176 
 SPBC HZ EP   1    238 41.49                             128    0.55 7  163 219 
 SPBC HN ES        239  2.71                             128   -0.23 9  163 219 
 SPBC HZ I         239  6.08        17.4 0.12            127            163 219 
 YPLC HZ EP        238 42.06                             126   -0.15 9  176 151 
 YPLC HN ES   1    239  6.25                             126    1.05 7  176 151 
 YPLC HZ I         239  9.02        10.4 0.26            127            176 151 
 ZAR  HZ EP   4    238 47.05                             121    2.05 0  205 292 
 ZAR  HN ES   4    239  8.58                             121   -1.60 0  205 292 
 ZAR  HZ I         239 18.11         6.7 0.21            120            205 292 
 NOR  HZ EP   1    238 47.92                             118   -0.33 6  235 235 
 NOR  HN ES   1    239 16.12                             118    0.17 6  235 235 
 NOR  HZ I         239 20.45         5.4 0.21            117            235 235 
 CHI  HZ EP        238 50.08                             116   -0.10 8  248 195 
 CHI  HN ES   1    239 19.10                             116   -0.30 6  248 195 
 CHI  HZ I         239 22.78         7.2 0.46            116            248 195 
 ROSC BZ EP   3    238 51.72                             116    1.10 2  252 211 
 ROSC BN ES   4    239 22.55                             116    2.37 0  252 211 
 ROSC BZ I         239 25.58        12.3 0.42            115            252 211 
 GUY2CHZ EP   3    238 57.29                             112    1.12 2  301 235 
 GUY2CHN ES   4    239 33.74                             112    3.69 0  301 235 
 GUY2CHZ I         239 38.05         3.6 0.24                           301 235 
 PTGC HZ EP   9    238 54.99                             111   -1.36 0  308 159 
 PTGC HN ES        239 28.43                             111   -0.59 7  308 159 
 PTGC HZ I         239 31.25        10.1 0.41            111            308 159 
 SJC  HZ EP   4    239  6.13                             105   -2.13 0  410 327 
 SJC  HN ES   4    239 46.44                             105   -5.13 0  410 327 
 SJC  HZ I         239 53.93         1.9 0.51            105            410 327 
                                                                                
