 2011  913 0923 36.3 L   6.807 -73.112148.1  RSN 18 0.5 3.1LRSN                1
 GAP=117        0.91       3.6     5.0  5.4 -0.2478E+01  0.9587E+01  0.4330E+01E
 Epicentro: LOS SANTOS - SANTANDER                                             3
 ACTION:UPD 12-07-13 15:57 OP:ep   STATUS:               ID:20110913092336 L   I
 2011-09-13-0922-03S.COL___168                                                 6
 STAT SP IPHASW D HRMM SECON CODA AMPLIT PERI AZIMU VELO AIN AR TRES W  DIS CAZ7
 BAR2 SZ IP        923 56.08                             170   -0.1910 25.0 198 
 BAR2 SZ ES   1    924 11.54                             170   -0.29 7 25.0 198 
 BAR2 SZ I         924 13.77       307.2 0.26                          25.0 198 
 BRR  HZ IP     C  923 57.89                             152    0.0010 74.1 297 
 BRR  HZ I         923 59.40       349.9 0.12                          74.1 297 
 BRR  HN ES   1    924 15.36                             152    0.65 7 74.1 297 
 PAM  SZ EP        923 58.98                             152    0.3710 74.4  38 
 PAM  SN ES   1    924 16.04                             152    0.03 7 74.4  38 
 RUS  HZ IP     D  923 59.97                             144   -0.3810  101 178 
 RUS  HZ I         924  1.09        80.4 0.10                           101 178 
 RUS  HN ES   1    924 18.85                             144   -0.24 7  101 178 
 OCA  SZ EP        924  4.61                             130   -0.17 9  160 352 
 OCA  SZ I         924 32.61        88.0 0.50                           160 352 
 YOP  SZ EP        924  6.96                             127    0.52 9  178 154 
 ZAR  HZ EP   1    924  8.28                             122   -0.96 6  207 292 
 ZAR  HZ I         924 41.24       133.0 0.32                           207 292 
 NOR  SZ EP        924 11.99                             119   -0.57 8  238 235 
 NOR  SN ES   1    924 40.63                             119   -0.20 6  238 235 
 CHI  HZ EP        924 14.05                             117   -0.29 8  250 196 
 CHI  HN ES   1    924 43.68                             117   -0.32 6  250 196 
 CHI  HZ I         924 52.91        55.3 0.52                           250 196 
 ROSC BZ EP        924 15.48                             117    0.63 8  255 212 
 ROSC BN ES   1    924 45.61                             117    0.70 6  255 212 
 ROSC BZ I         924 50.68        79.9 0.40                           255 212 
 HEL  HZ EP   1    924 16.87                             115   -0.20 6  276 256 
 HEL  HZ I         924 53.30        46.9 0.82                           276 256 
 VIL  SZ EP        924 19.47                             112   -0.55 7  305 192 
 VIL  SZ I         924 57.73        32.9 0.40                           305 192 
 GUY  SZ EP        924 21.09                             112    0.39 7  307 235 
 GUY  SZ I         925  5.78        86.1 0.38                           307 235 
 RREF HZ EP        924 23.28                             111    0.33 7  325 230 
 RREF HZ I         925  7.92        54.0 0.66                           325 230 
 DBB  SZ EP        924 24.29                             110   -0.02 7  343 274 
 TOL  SZ EP        924 25.51                             109    0.47 6  347 225 
 ANIL HZ EP        924 27.39                             109    0.81 6  361 225 
 ANIL HZ I         925  9.84        92.7 0.38                           361 225 
 PRA  HZ EP   1    924 29.34                             107   -0.88 4  395 210 
                                                                                
