 2014 1213 0429 10.4 L   6.795 -73.173136.1  RSN 13 0.6 2.0LRSN                1
 GAP= 70        1.43       3.9     4.4  7.1 -0.3085E+01  0.8473E+01 -0.1365E+01E
 Epicentro: LOS SANTOS - SANTANDER                                             3
 ACTION:UPD 15-02-10 17:03 OP:nd   STATUS:               ID:20141213042910 L   I
 OLDACT:REG 14-12-13 14:21 OP:stll STATUS:               ID:20141213042742     3
 2014-12-13-0427-42M.COL___294                                                 6
 STAT SP IPHASW D HRMM SECON CODA AMPLIT PERI AZIMU VELO AIN AR TRES W  DIS CAZ7
 BAR2 EZ EP        429 29.29                             170    0.4410 22.5 183 
 BAR2 EZ ES        429 43.44                             170    0.2010 22.5 183 
 BAR2 EZ I         429 44.84        35.4 0.22            171           22.5 183 
 BRR  HZ IP     C  429 31.07                             152    0.7010 68.8 300 
 BRR  HZ I         429 31.24        16.2 0.28            149           68.8 300 
 BRR  HN ES        429 47.35                             152    1.4010 68.8 300 
 PAM  SZ EP        429 32.06                             148    0.3210 79.7  41 
 PAM  SZ I         429 32.33        28.7 0.18            150           79.7  41 
 PAM  SN ES        429 48.13                             148   -0.2710 79.7  41 
 RUS  HZ EP        429 33.15                             142   -0.0410  100 174 
 RUS  HN ES        429 50.27                             142   -0.7010  100 174 
 RUS  HZ I         429 53.19        10.8 0.30            144            100 174 
 PTB  HZ EP        429 35.74                             130   -0.57 9  145 259 
 PTB  HN ES        429 55.60                             130   -0.92 9  145 259 
 PTB  HZ I         429 59.44        13.2 0.14            130            145 259 
 TAM  HZ EP        429 37.47                             128   -0.13 9  158 105 
 TAM  HZ I         429 37.69        25.9 0.22            131            158 105 
 OCA  HZ EP        429 37.79                             127   -0.20 9  160 354 
 OCA  HN ES        429 58.64                             127   -0.88 9  160 354 
 OCA  HZ I         430  7.09        10.3 0.54            128            160 354 
 SPBC HZ EP        429 38.26                             127    0.31 9  161 218 
 SPBC HN ES        429 59.50                             127    0.06 9  161 218 
 SPBC HZ I         430  1.97        11.9 0.22            128            161 218 
 ZAR  HZ EP        429 42.42                             121    0.46 9  201 293 
 ZAR  HN ES        430  6.92                             121    0.34 9  201 293 
 ZAR  HZ I         430 12.93         9.9 0.30            121            201 293 
 NOR  HZ EP        429 45.52                             117    0.24 8  232 234 
 NOR  HE ES        430 11.76                             117   -0.74 8  232 234 
 NOR  HZ I         430 17.39         5.1 0.14            117            232 234 
 SML  HZ EP        429 46.26                             115   -0.15 8  243 336 
 SML  HE ES        430 13.68                             115   -0.83 8  243 336 
 SML  HZ I         430 17.84        11.6 0.26            116            243 336 
 HEL  HZ EP        429 50.10                             113    0.31 8  269 256 
 HEL  HN ES        430 20.50                             113   -0.02 8  269 256 
 HEL  HZ I         430 28.43         4.1 0.32            114            269 256 
 CBOC HZ EP        429 57.49                             108    0.91 7  331 252 
 CBOC HE ES        430 32.04                             108   -0.56 7  331 252 
 CBOC HZ I         430 38.04         1.4 0.58            109            331 252 
                                                                                
