 2013  813 0753 25.0 L   6.802 -73.118147.5  RSN 16 0.5 2.0LRSN                1
 GAP=140        1.28       3.2     4.7  5.7 -0.2383E+01  0.8012E+01  0.2014E+01E
 Epicentro: LOS SANTOS - SANTANDER                                             3
 ACTION:UPD 14-01-14 09:01 OP:ep   STATUS:               ID:20130813075325 L   I
 OLDACT:DUP 13-08-13 18:45 OP:nd   STATUS:               ID:20130813074846d    3
 2013-08-13-0748-45M.COL___221                                                 6
 STAT SP IPHASW D HRMM SECON CODA AMPLIT PERI AZIMU VELO AIN AR TRES W  DIS CAZ7
 BAR2 SZ IP     C  753 44.78                             170   -0.0410 24.2 197 
 BAR2 SZ ES        754  0.58                             170    0.2810 24.2 197 
 BAR2 SZ I         754  2.54        17.3 0.28            169           24.2 197 
 GIR2 SZ EP        753 44.86                             167    0.0110 31.8 345 
 GIR2 SZ ES        754  0.44                             167    0.0810 31.8 345 
 GIR2 SZ I         754  3.78        14.0 0.40            165           31.8 345 
 BRR  HZ IP     D  753 46.71                             152    0.2610 73.9 297 
 BRR  HN ES        754  4.16                             152    0.9610 73.9 297 
 BRR  HZ I         754  8.59        13.0 0.16            150           73.9 297 
 PAM  SZ EP        753 47.57                             152    0.3310 75.3  38 
 PAM  SN ES        754  4.61                             152   -0.0010 75.3  38 
 PAM  SZ I         754  7.01        18.9 0.50            155           75.3  38 
 RUS  HZ EP        753 48.63                             144   -0.2510  101 178 
 RUS  HN ES        754  7.03                             144   -0.5110  101 178 
 RUS  HZ I         754  9.02         6.6 0.46            147            101 178 
 PTB  HZ EP        753 51.41                             132   -0.94 9  151 259 
 PTB  HN ES        754 13.09                             132   -0.62 9  151 259 
 PTB  HZ I         754 18.70        17.9 0.26            132            151 259 
 OCA  HZ EP        753 54.64                             130    1.21 9  160 352 
 OCA  HN ES        754 14.88                             130   -0.75 9  160 352 
 OCA  HZ I         754 20.82        11.0 0.18            132            160 352 
 SPBC HZ EP        753 53.77                             129   -0.02 9  165 220 
 SPBC HN ES        754 16.58                             129    0.30 9  165 220 
 SPBC HZ I         754 22.96        21.2 0.36            130            165 220 
 ZAR  HZ EP        753 57.38                             122   -0.43 8  207 292 
 ZAR  HN ES        754 23.27                             122   -0.16 8  207 292 
 ZAR  HZ I         754 29.34        16.5 0.52            123            207 292 
 NOR  HZ EP        754  0.97                             119   -0.11 8  237 235 
 NOR  HN ES        754 29.37                             119    0.13 8  237 235 
 NOR  HZ I         754 32.63         9.9 0.22            120            237 235 
 SML  HZ EP        754  1.49                             118   -0.32 8  245 335 
 SML  HN ES        754 29.67                             118   -0.88 8  245 335 
 SML  HZ I         754 33.46        16.8 0.10            119            245 335 
 CHI  HZ EP        754  2.68                             117   -0.19 8  250 196 
 CHI  HN ES        754 31.72                             117   -0.71 8  250 196 
 CHI  HZ I         754 36.25         4.9 0.44            120            250 196 
 HEL  HZ EP        754  6.38                             115    0.78 8  275 256 
 HEL  HN ES        754 37.65                             115    0.35 8  275 256 
 HEL  HZ I         754 43.54         6.1 0.34            116            275 256 
 GUY2CHZ EP        754  9.83                             112    0.88 7  304 235 
 GUY2CHN ES   4    754 46.02                             112    2.76 0  304 235 
 GUY2CHZ I         754 51.63        10.0 0.80                           304 235 
 COD  HZ EP   4    754 12.81                             109   -0.61 0  348 354 
 COD  HN ES   4    754 50.09                             109   -1.13 0  348 354 
 COD  HZ I         754 57.06         1.8 0.56            111            348 354 
 PRA  HZ EP        754 19.21                             107    0.47 6  394 210 
 PRA  HN ES        755  0.99                             107    0.30 6  394 210 
 PRA  HZ I         755  6.57         5.2 0.32            108            394 210 
                                                                                
