 2011 1013 0413 59.7 L   6.312 -73.586102.5  RSN  4 0.2 1.3LRSN                1
 GAP=111        0.39       3.0     2.9  7.7 -0.1617E+01  0.1113E+02 -0.1413E+01E
 Epicentro: SANTA HELENA DEL OPON - SANTANDER                                  3
 ACTION:UPD 12-07-13 16:03 OP:ep   STATUS:               ID:20111013041359 L   I
 2011-10-13-0411-05S.COL___168                                                 6
 STAT SP IPHASW D HRMM SECON CODA AMPLIT PERI AZIMU VELO AIN AR TRES W  DIS CAZ7
 BAR2 SZ EP        414 15.72                             149    0.1910 54.4  55 
 BAR2 SZ I         414 29.94         8.2 0.09                          54.4  55 
 RUS  HZ EP   1    414 17.08                             142   -0.04 7 72.5 130 
 RUS  HN ES   1    414 30.64                             142   -0.11 7 72.5 130 
 RUS  HZ I         414 33.95         4.0 0.18                          72.5 130 
 BRR  HZ EP   3    414 17.06                             135   -0.71 2 89.0 351 
 BRR  HN ES   2    414 31.79                             135   -0.10 5 89.0 351 
 NOR  SZ EP   2    414 25.16                             116   -0.18 5  164 240 
 NOR  SN ES   1    414 45.38                             116    0.01 7  164 240 
                                                                                
