 2011  713 0435 20.3 L   6.786 -72.996142.7  RSN  6 0.3 1.9LRSN                1
 GAP=174        0.60       3.4     4.1  5.2 -0.4452E+01  0.5346E+01 -0.2137E+01E
 Epicentro: CEPITA - SANTANDER                                                 3
 ACTION:UPD 12-07-25 14:00 OP:epov STATUS:               ID:20110713043520 L   I
 2011-07-13-0420-00M.COL___133                                                 6
 STAT SP IPHASW D HRMM SECON CODA AMPLIT PERI AZIMU VELO AIN AR TRES W  DIS CAZ7
 BAR2 SZ EP   1    435 39.56                             168   -0.1110 29.7 224 
 BAR2 SZ ES   1    435 54.94                             168    0.1310 29.7 224 
 BAR2 SZ I         435 56.30        31.6 0.22                          29.7 224 
 BRR  HZ EP   1    435 41.50                             147   -0.5410 86.8 294 
 BRR  HN ES   1    435 58.76                             147   -0.2710 86.8 294 
 RUS  HZ EP   1    435 43.46                             144   -0.1510 99.2 186 
 RUS  HN ES   1    436  1.92                             144    0.1010 99.2 186 
 RUS  HZ I         436  3.46         7.5 0.43                          99.2 186 
 BRI  SZ EP   1    435 43.89                             142    0.2810  105  12 
 GRA  SZ EP   1    435 45.31                             137    0.2810  123  10 
 GRA  SZ I         435 46.48        10.4 0.32                           123  10 
 GRA  SZ ES   1    436  4.40                             137    0.0510  123  10 
 HEL  HZ EP        436  1.83                             113   -0.2410  288 257 
 HEL  HE ES        436 35.20                             113    0.5110  288 257 
 HEL  HZ I         436 35.83         3.8 0.76                           288 257 
                                                                                
