 2012 1113 0608  5.1 L   6.806 -73.176144.3  RSN  5 0.4 0.9LRSN                1
 GAP=132        0.87       6.6     6.4  9.3  0.1958E+01  0.1485E+02  0.1073E+02E
 Epicentro: LOS SANTOS - SANTANDER                                             3
 ACTION:UPD 12-12-05 15:33 OP:}ep  STATUS:               ID:20121113060805 L   I
 2012-11-13-0605-41M.COL___198                                                 6
 STAT SP IPHASW D HRMM SECON CODA AMPLIT PERI AZIMU VELO AIN AR TRES W  DIS CAZ7
 BAR2 SZ EP   1    6 8 24.30                             170   -0.22 7 23.7 182 
 BAR2 SZ ES   1    6 8 39.65                             170   -0.05 7 23.7 182 
 BRR  HZ EP   1    6 8 26.09                             153    0.23 7 67.9 299 
 BRR  HN ES   1    6 8 42.78                             153    0.69 7 67.9 299 
 BRR  HZ I         6 8 46.10         1.6 0.20                          67.9 299 
 PAM  SN ES   1    6 8 44.09                             150   -0.41 7 79.0  42 
 PAM  SZ I         6 8 45.95         1.6 0.48                          79.0  42 
 RUS  HZ EP   1    6 8 28.65                             143   -0.08 7  102 174 
 RUS  HZ I         6 8 29.63         1.0 0.12                           102 174 
 RUS  HN ES   1    6 8 47.50                             143    0.30 7  102 174 
 PTB  HZ EP   1    6 8 32.00                             132    0.38 7  145 258 
 PTB  HN ES   1    6 8 51.44                             132   -0.90 7  145 258 
                                                                                
