 2011  413 0337 45.0 L   6.788 -73.096150.9  RSN 13 0.4 2.6LRSN                1
 GAP=144        0.63       4.4     5.2  4.8 -0.1518E+02 -0.2518E+00  0.5698E+01E
 Epicentro: LOS SANTOS - SANTANDER                                             3
 ACTION:UP  11-06-22 15:30 OP:REBC STATUS:               ID:20110413033745 L   I
 2011-04-13-0335-54S.COL___138                                                 6
 STAT SP IPHASW D HRMM SECON CODA AMPLIT PERI AZIMU VELO SNR AR TRES W  DIS CAZ7
 BAR2 SZ IP        338  5.23                             171     0.010   24 204 
 BAR2 SZ I         338  5.60       157.7 0.10                            24 204 
 BAR2 SZ ES   2    338 20.11                             171    -0.9 5   24 204 
 GIR2 SZ EP   1    338  5.31                             167     0.0 7   34 342 
 GIR2 SZ ES   2    338 21.15                                     0.0 5   34 342 
 PAM  SZ EP   1    338  8.03                             151     0.4 7   75  36 
 PAM  SN ES   1    338 25.25                             151     0.0 7   75  36 
 PAM  SZ I         338 27.87        31.5 0.32                            75  36 
 BRR  HZ EP   1    338  7.02                             152     0.1 7   77 297 
 BRR  HN ES   2    338 24.36                             152     0.2 5   77 297 
 BRR  HZ I         338 27.01       151.1 0.14                            77 297 
 GRA  SZ EP   1    338 11.00                             137     0.4 7  126  15 
 GRA  SZ ES   1    338 30.60                             137    -0.1 7  126  15 
 GRA  SZ I         338 31.90        78.4 0.54                           126  15 
 OCA  SZ EP   1    338 13.66                             130    -0.2 7  162 351 
 NOR  SZ EP   1    338 21.10                             119    -0.3 6  238 235 
 NOR  SN ES   2    338 49.07                             119    -0.7 4  238 235 
 NOR  SZ I         338 56.77         5.9 0.19                           238 235 
 CHI  HZ EP   2    338 22.95                             118     0.0 4  249 196 
 CHI  HN ES   2    338 53.47                             118     0.9 4  249 196 
 CHI  HZ I         338 56.09        23.6 0.46                           249 196 
 HEL  HZ EP   1    338 26.08                             115     0.1 6  277 256 
 HEL  HN ES   3    338 57.87                             115    -0.1 2  277 256 
 HEL  HZ I         339  3.88        14.6 0.28                           277 256 
 GUY  SZ EP   2    338 29.16                                    -0.3 4  307 236 
 GUY  SE ES   2    339  5.13                                     0.9 4  307 236 
 GUY  SZ I         339 11.65        49.0 0.39                           307 236 
 SDV  BZ EP        338 34.54                                    -0.3 6  357  49 
 SDV  BN ES   3    339 12.65                                    -1.0 2  357  49 
 PRA  HZ EP   1    338 38.40                             107    -0.4 4  394 210 
 SJA  SZ EP   2    338 39.65                                     0.0 3  400 194 
                                                                                
