 2016  913 0638  4.9 L   6.805 -73.137150.3  RSN  8 0.4 1.4LRSN                1
 GAP=137        1.10       3.9     4.8  7.0 -0.1270E+01  0.8242E+01  0.5360E+00E
 Epicentro: LOS SANTOS - SANTANDER                                             3
 ACTION:UPD 17-08-17 21:09 OP:lp   STATUS:               ID:20160913063804 L   I
 OLDACT:REG 16-09-13 14:11 OP:and  STATUS:               ID:20160913063735     3
 2016-09-13-0638-00M.COL___318                                                 6
 STAT SP IPHASW D HRMM SECON CODA AMPLIT PERI AZIMU VELO AIN AR TRES W  DIS CAZ7
 BAR2 EZ EP        638 24.90                             170   -0.1910 24.1 192 
 BAR2 EZ ES        638 40.63                             170   -0.2110 24.1 192 
 BAR2 EZ I         638 41.51         6.5 0.36            170           24.1 192 
 BRR  HZ IP     C  638 26.82                             153    0.2510 71.7 298 
 BRR  HN ES        638 44.27                             153    0.8010 71.7 298 
 BRR  HZ I         638 48.13         3.5 0.14            151           71.7 298 
 PAM  EZ EP        638 27.77                             152    0.2410 76.3  39 
 PAM  EN ES        638 45.28                             152    0.0910 76.3  39 
 PAM  EZ I         638 47.70         2.7 0.40            156           76.3  39 
 RUS  HZ EP        638 29.22                             145    0.0910  101 177 
 RUS  HN ES        638 48.07                             145    0.0310  101 177 
 RUS  HZ I         638 49.02         1.9 0.20            148            101 177 
 PTB  HZ EP        638 31.95                             133   -0.38 9  149 259 
 PTB  HN ES        638 52.90                             133   -0.83 9  149 259 
 PTB  HZ I         639  0.18         3.2 0.34            133            149 259 
 OCA  HN ES        638 54.98                             131   -0.86 9  160 353 
 SPBC HZ EP        638 33.91                             130    0.07 9  164 219 
 SPBC HN ES        638 56.43                             130    0.01 9  164 219 
 SPBC HZ I         638 58.84         4.4 0.09            131            164 219 
 ZAR  HZ EP        638 38.03                             123    0.33 9  205 292 
 ZAR  HN ES        639  3.80                             123    0.50 9  205 292 
 ZAR  HZ I         639  9.75         4.6 0.34            124            205 292 
                                                                                
