 2017  113 0655 51.0 L   6.845 -73.029146.6  RSN  4 0.2 1.3LRSN                1
 GAP=150        0.52       4.2     4.2  4.6 -0.3043E+01 -0.2524E+01  0.5708E+01E
 Epicentro: CEPITA - SANTANDER                                                 3
 ACTION:UPD 17-05-22 15:58 OP:jn   STATUS:               ID:20170113065551 L   I
 OLDACT:UP  17-03-28 16:55 OP:nlst STATUS:               ID:20170113065551 L   3
 OLDACT:UP  17-01-13 17:43 OP:e    STATUS:               ID:20170113064746d    3
 OLDACT:UP  17-01-13 17:42 OP:e    STATUS:               ID:20170113064746d    3
 OLDACT:UP  17-01-13 17:42 OP:e    STATUS:               ID:20170113064746d    3
 OLDACT:UP  17-01-13 17:41 OP:e    STATUS:               ID:20170113064746d    3
 OLDACT:UP  17-01-13 17:41 OP:e    STATUS:               ID:20170113064746d    3
 OLDACT:DUP 17-01-13 17:39 OP:e    STATUS:               ID:20170113064746d    3
 2017-01-13-0648-00M.COL___332                                                 6
 STAT SP IPHASW D HRMM SECON CODA AMPLIT PERI AZIMU VELO AIN AR TRES W  DIS CAZ7
 BAR2 EZ EP        656 10.91                             167   -0.0410 32.7 211 
 BAR2 EZ ES        656 26.69                             167    0.1810 32.7 211 
 BAR2 EZ I         656 27.21         3.5 0.42            166           32.7 211 
 PAM  EZ EP        656 12.97                             155    0.3210 65.7  34 
 PAM  EN ES        656 29.32                             155   -0.2210 65.7  34 
 BRR  HZ EP        656 12.73                             150   -0.0710 80.8 291 
 BRR  HE ES        656 29.80                             150   -0.0110 80.8 291 
 BRR  HZ I         656 32.98         3.5 0.28            147           80.8 291 
 RUS  HZ EP        656 15.02                             143   -0.1610  105 183 
 RUS  HN ES   4    656 31.95                             143   -2.10 0  105 183 
                                                                                
