 2012 1113 0310 51.5 L   6.837 -73.143134.7  RSN  8 0.4 1.2LRSN                1
 GAP=184        0.83       4.6     6.1  9.4  0.6268E+01  0.1260E+02 -0.4922E+01E
 Epicentro: LOS SANTOS - SANTANDER                                             3
 ACTION:UPD 12-12-05 15:33 OP:}ep  STATUS:               ID:20121113031051 L   I
 2012-11-13-0310-00M.COL___230                                                 6
 STAT SP IPHASW D HRMM SECON CODA AMPLIT PERI AZIMU VELO AIN AR TRES W  DIS CAZ7
 GIR2 SZ EP   1    311  9.95                             168    0.21 7 27.3 348 
 BAR2 SZ EP   1    311 10.20                             168    0.31 7 27.4 189 
 BAR2 SZ ES   1    311 24.06                             168   -0.17 7 27.4 189 
 BAR2 SZ I         311 27.76         8.6 0.22                          27.4 189 
 BRR  HZ EP        311 11.86                             151    0.5010 69.7 295 
 BRR  HN ES   4    311 28.79                             151    1.93 0 69.7 295 
 BRR  HZ I         311 34.15         2.7 0.18                          69.7 295 
 RUS  HZ EP   1    311 14.29                             140   -0.19 7  105 176 
 RUS  HN ES   1    311 32.53                             140    0.12 7  105 176 
 RUS  HZ I         311 33.94         2.3 0.30                           105 176 
 PTB  HZ EP   1    311 17.16                             129   -0.53 7  149 257 
 PTB  HN ES   1    311 37.63                             129   -0.49 7  149 257 
 PTB  HZ I         311 38.88         1.6 0.10                           149 257 
 OCA  HE ES   1    311 39.05                             128   -0.65 7  156 353 
 ZAR  HN ES   1    311 48.34                             120    0.56 6  203 291 
 CHI  HZ EP   2    311 28.51                             114   -0.53 4  253 195 
                                                                                
