 2017 1013 0715 44.7 L   6.779 -73.154155.8  RSN  4 0.4 1.4LRSN                1
 GAP=243        0.95       9.8     7.4  8.5  0.4775E+02  0.4630E+00 -0.2714E+02E
 Epicentro: LOS SANTOS - SANTANDER                                             3
 ACTION:UPD 17-11-07 19:31 OP:rebc STATUS:               ID:20171013071544 L   I
 OLDACT:UP  17-10-13 19:07 OP:leo  STATUS:               ID:20171013070640d    3
 OLDACT:UP  17-10-13 19:06 OP:leo  STATUS:               ID:20171013070640d    3
 OLDACT:DUP 17-10-13 19:00 OP:leo  STATUS:               ID:20171013070640d    3
 2017-10-13-0707-00M.COL___426                                                 6
 STAT SP IPHASW D HRMM SECON CODA AMPLIT PERI AZIMU VELO AIN AR TRES W  DIS CAZ7
 BAR2 EZ EP        716  5.33                             172   -0.1110 20.9 188 
 BAR2 EZ ES        716 21.49                             172   -0.1710 20.9 188 
 BAR2 EZ I         716 22.56         6.7 0.28            171           20.9 188 
 RUS  HZ EP        716  8.75                             146   -0.5010 98.4 175 
 RUS  HN ES        716 29.03                             146    0.6010 98.4 175 
 RUS  HZ I         716 30.38         1.9 0.36            148           98.4 175 
 PTB  HZ EP        716 12.54                             134    0.21 9  146 260 
 PTB  HN ES        716 33.43                             134   -0.49 9  146 260 
 PTB  HZ I         716 36.83         2.7 0.66            134            146 260 
 ZAR  HZ EP        716 18.05                             124    0.29 9  204 293 
 ZAR  HN ES        716 43.88                             124    0.29 9  204 293 
 ZAR  HZ I         716 49.16         5.1 0.32            125            204 293 
                                                                                
