 2016 1013 0537 26.0 L   6.796 -73.152144.0  RSN 10 0.3 2.2LRSN                1
 GAP= 71        0.76       2.4     2.7  4.2 -0.1052E+01  0.1510E+01  0.1996E+00E
 Epicentro: LOS SANTOS - SANTANDER                                             3
 ACTION:UPD 16-11-09 19:19 OP:rebc STATUS:               ID:20161013053726 L   I
 OLDACT:DUP 16-10-13 18:17 OP:ar   STATUS:               ID:20161013052742d    3
 2016-10-13-0528-00M.COL___357                                                 6
 STAT SP IPHASW D HRMM SECON CODA AMPLIT PERI AZIMU VELO AIN AR TRES W  DIS CAZ7
 BAR2 EZ EP        537 45.44                             171    0.0110 22.8 188 
 BAR2 EZ ES        538  0.09                             171   -0.4810 22.8 188 
 BAR2 EZ I         538  3.24        41.6 0.32            170           22.8 188 
 BRR  HZ EP        537 47.15                             152    0.1910 70.8 299 
 BRR  HN ES        538  3.72                             152    0.4410 70.8 299 
 BRR  HZ I         538  8.14        20.3 0.28            151           70.8 299 
 PAM  EZ EP        537 48.18                             150    0.0810 78.2  40 
 PAM  EN ES        538  5.51                             150    0.1910 78.2  40 
 PAM  EZ I         538  7.54        29.2 0.46            154           78.2  40 
 RUS  HZ EP        537 49.38                             144   -0.1910  100 176 
 RUS  HN ES        538  8.16                             144    0.2210  100 176 
 RUS  HZ I         538  9.23        22.8 0.30            146            100 176 
 PTB  HZ EP        537 52.23                             132   -0.55 9  147 259 
 PTB  HN ES        538 13.25                             132   -0.39 9  147 259 
 PTB  HZ I         538 15.65        11.3 0.12            132            147 259 
 TAM  HZ IP     C  537 53.80                             130    0.18 9  156 105 
 OCA  HZ EP        537 54.19                             129   -0.04 9  161 353 
 OCA  HN ES        538 15.74                             129   -0.49 9  161 353 
 OCA  HZ I         538 20.01        33.8 0.46            131            161 353 
 SPBC HZ EP        537 54.35                             129    0.04 9  162 219 
 SPBC HN ES        538 16.54                             129    0.17 9  162 219 
 SPBC HZ I         538 22.65        28.2 0.24            130            162 219 
 ZAR  HZ EP        537 58.40                             122    0.10 9  204 292 
 ZAR  HN ES        538 24.00                             122    0.52 9  204 292 
 ZAR  HZ I         538 29.88         7.3 0.20            123            204 292 
 NOR  HZ EP        538  1.68                             118    0.12 8  234 234 
 NOR  HN ES        538 29.22                             118   -0.06 8  234 234 
 NOR  HZ I         538 37.28        13.5 0.18            120            234 234 
                                                                                
