 2017  113 0326 19.7 L   6.821 -73.203152.6  RSN  4 0.3 0.9LRSN                1
 GAP=129        0.68       4.2     4.1  6.4  0.1333E+01 -0.3216E+01 -0.7044E+00E
 Epicentro: ZAPATOCA - SANTANDER                                               3
 ACTION:UPD 17-05-22 15:58 OP:jn   STATUS:               ID:20170113032619 L   I
 OLDACT:UP  17-01-13 15:02 OP:and  STATUS:               ID:20170113031746d    3
 OLDACT:DUP 17-01-13 14:59 OP:and  STATUS:               ID:20170113031746d    3
 OLDACT:UP  17-01-13 14:57 OP:and  STATUS:               ID:20170113031745d    3
 OLDACT:UP  17-01-13 14:57 OP:and  STATUS:               ID:20170113031745d    3
 OLDACT:UP  17-01-13 14:55 OP:and  STATUS:               ID:20170113031745d    3
 OLDACT:DUP 17-01-13 14:54 OP:and  STATUS:               ID:20170113031745d    3
 2017-01-13-0318-00M.COL___338                                                 6
 STAT SP IPHASW D HRMM SECON CODA AMPLIT PERI AZIMU VELO AIN AR TRES W  DIS CAZ7
 BRR  HZ EP        326 41.71                             156    0.4210 64.5 299 
 BRR  HN ES        326 58.17                             156    0.0810 64.5 299 
 PAM  EZ EP        326 42.97                             151    0.1410 79.8  44 
 PAM  EN ES   2    327  0.06                             151   -0.78 5 79.8  44 
 RUS  HZ EP        326 44.34                             144   -0.0410  104 173 
 RUS  HN ES        327  3.64                             144    0.0510  104 173 
 PTB  HZ EP        326 46.46                             135   -0.32 9  142 257 
 PTB  HN ES        327  7.67                             135   -0.19 9  142 257 
 PTB  HZ I         327  8.66         0.9 0.17            134            142 257 
                                                                                
