 2015 1113 0053 27.2 L   6.563 -73.479158.0  RSN  4 0.1 1.4LRSN                1
 GAP=124        0.39       3.7     7.2  5.2  0.1842E+02  0.2123E+02  0.9620E+01E
 Epicentro: EL CARMEN - SANTANDER                                              3
 ACTION:UPD 15-12-28 16:10 OP:cam  STATUS:               ID:20151113005328dL   I
 OLDACT:DUP 15-11-19 06:51 OP:CARA STATUS:               ID:20151113005328dL   3
 OLDACT:REG 15-11-13 12:38 OP:dnl  STATUS:               ID:20151113004749     3
 2015-11-13-0047-49M.COL___319                                                 6
 STAT SP IPHASW D HRMM SECON CODA AMPLIT PERI AZIMU VELO AIN AR TRES W  DIS CAZ7
 BAR2 EZ EP   2    053 48.22                             167   -0.32 5 32.9  84 
 BRR  HZ EP        053 49.59                             156    0.1710 65.4 337 
 BRR  HN ES        054  6.65                             156   -0.0810 65.4 337 
 BRR  HZ I         054 11.90         4.2 0.24            157           65.4 337 
 RUS  HZ EP   2    053 51.29                             150    0.02 5 86.1 149 
 RUS  HE ES        054 10.06                             150    0.0410 86.1 149 
 RUS  HZ I         054 11.65         3.5 0.36            156           86.1 149 
 SPBC HZ EP        053 53.00                             141   -0.0610  120 213 
 SPBC HE ES   4    054 19.28                             141    6.07 0  120 213 
                                                                                
