 2013 1013 0338 12.3 L   7.372 -73.067 14.8  RSN  7 0.5 1.6LRSN                1
 GAP=111        1.11       3.2     2.8  5.5  0.1653E+01  0.7886E+01  0.7917E+01E
 Epicentro: MATANZA - SANTANDER                                                3
 ACTION:UPD 13-11-25 09:21 OP:ep   STATUS:               ID:20131013033812 L   I
 OLDACT:UP  13-10-13 10:18 OP:mh   STATUS:               ID:20131013033549     3
 OLDACT:REG 13-10-13 09:57 OP:mh   STATUS:               ID:20131013033549     3
 2013-10-13-0335-49M.COL___233                                                 6
 STAT SP IPHASW D HRMM SECON CODA AMPLIT PERI AZIMU VELO AIN AR TRES W  DIS CAZ7
 PAM  SZ EP        338 19.85                             108    0.0110 40.7  95 
 PAM  SN ES        338 25.96                             108    0.2410 40.7  95 
 PAM  SZ I         338 26.94        30.7 0.11             47           40.7  95 
 BRR  HZ EP   1    338 24.71                              99    0.02 7 77.0 248 
 BRR  HN ES        338 34.53                              99    0.1810 77.0 248 
 BRR  HZ I         338 35.06        50.6 0.08             47           77.0 248 
 OCA  HZ EP        338 28.38                              97    0.0910 99.9 344 
 OCA  HN ES        338 40.57                              97   -0.1810 99.9 344 
 OCA  HZ I         338 44.65         6.0 0.26             47           99.9 344 
 RUS  HZ EP        338 37.28                              56   -0.40 9  164 181 
 RUS  HN ES   1    338 58.00                              56    0.53 7  164 181 
 RUS  HZ I         339  0.17         4.2 0.20             47            164 181 
 PTB  HZ EP        338 37.91                              56   -1.13 9  179 239 
 PTB  HN ES        338 59.65                              56   -0.23 9  179 239 
 PTB  HZ I         339  1.19        10.4 0.23             47            179 239 
 ZAR  HZ EP   1    338 41.31                              56   -0.11 6  198 274 
 ZAR  HN ES        339  5.08                              56    0.95 9  198 274 
 ZAR  HZ I         339  7.98         9.0 0.21             37            198 274 
 SPBC HZ EP   1    338 44.67                              56    0.39 6  220 210 
 SPBC HN ES   4    339 11.76                              56    2.54 0  220 210 
 SPBC HZ I         339 16.15         4.0 0.30             37            220 210 
                                                                                
