 2017 1213 0911 48.9 L   6.715 -73.124148.8  RSN  5 0.4 1.3LRSN                1
 GAP=116        0.90       4.7     3.9  6.8  0.5603E+01  0.6596E+01  0.5083E+01E
 Epicentro: JORDAN - SANTANDER                                                 3
 ACTION:UPD 18-01-04 13:20 OP:rebc STATUS:               ID:20171213091148 L   I
 OLDACT:REG 17-12-13 13:33 OP:edw  STATUS:               ID:20171213090740     3
 2017-12-13-0908-00M.COL___443                                                 6
 STAT SP IPHASW D HRMM SECON CODA AMPLIT PERI AZIMU VELO AIN AR TRES W  DIS CAZ7
 BAR2 EZ EP        912  9.09                             174    0.2910 15.0 205 
 BAR2 EZ ES        912 24.60                             174    0.3210 15.0 205 
 BAR2 EZ I         912 26.95         5.1 0.26            175           15.0 205 
 PAM  EZ EP        912 11.93                             149    0.0910 83.5  34 
 PAM  EE ES        912 29.37                             149   -0.3410 83.5  34 
 PAM  EZ I         912 31.59         2.2 0.42            151           83.5  34 
 PTB  HZ EP        912 16.19                             132   -0.03 9  149 263 
 PTB  HN ES        912 37.16                             132   -0.35 9  149 263 
 PTB  HZ I         912 38.65         2.1 0.14            134            149 263 
 YPLC HZ EP        912 18.51                             129    0.45 9  167 151 
 YPLC HZ ES        912 40.35                             129   -0.42 9  167 151 
 ZAR  HZ EP        912 21.63                             122   -0.55 8  210 294 
 ZAR  HN ES        912 48.58                             122    0.47 8  210 294 
 ZAR  HZ I         912 52.27         3.5 0.80            123            210 294 
                                                                                
