 2016  913 0354 22.6 L   6.799 -73.140151.0  RSN 11 0.3 2.1LRSN                1
 GAP=137        0.75       2.2     3.1  4.1 -0.8674E+00  0.1877E+01  0.5433E+00E
 Epicentro: LOS SANTOS - SANTANDER                                             3
 ACTION:UPD 17-08-17 21:09 OP:lp   STATUS:               ID:20160913035422 L   I
 OLDACT:UP  16-09-13 20:31 OP:and  STATUS:               ID:20160913034733     3
 OLDACT:REG 16-09-13 12:38 OP:and  STATUS:               ID:20160913034733     3
 2016-09-13-0348-00M.COL___318                                                 6
 STAT SP IPHASW D HRMM SECON CODA AMPLIT PERI AZIMU VELO AIN AR TRES W  DIS CAZ7
 BAR2 EZ IP     D  354 42.82                             171   -0.0310 23.4 191 
 BAR2 EZ ES        354 58.54                             171   -0.1110 23.4 191 
 BAR2 EZ I         355  5.81        14.0 0.19            171           23.4 191 
 BRR  HZ IP     D  354 44.62                             153    0.2810 71.8 298 
 BRR  HE ES        355  1.97                             153    0.6710 71.8 298 
 BRR  HZ I         355  5.16        32.4 0.32            154           71.8 298 
 PAM  EZ EP        354 45.56                             152    0.2110 77.0  39 
 PAM  EE ES        355  3.03                             152   -0.0710 77.0  39 
 PAM  EZ I         355  4.99        25.2 0.52            155           77.0  39 
 RUS  HZ EP        354 46.65                             145   -0.2010  100 176 
 RUS  HN ES        355  5.71                             145   -0.0710  100 176 
 RUS  HZ I         355  6.87        11.3 0.28            148            100 176 
 PTB  HZ EP        354 49.58                             133   -0.46 9  148 259 
 PTB  HE ES        355 11.39                             133   -0.06 9  148 259 
 PTB  HZ I         355 11.57        13.3 0.16            135            148 259 
 OCA  HZ EP        354 51.36                             131    0.04 9  160 353 
 OCA  HE ES        355 13.17                             131   -0.57 9  160 353 
 OCA  HZ I         355 18.03        29.1 0.26            134            160 353 
 SPBC HZ EP        354 51.79                             130    0.26 9  164 219 
 SPBC HE ES        355 13.87                             130   -0.23 9  164 219 
 SPBC HZ I         355 17.11        15.9 0.12            133            164 219 
 ZAR  HZ EP        354 55.28                             123   -0.16 9  205 292 
 ZAR  HE ES        355 21.19                             123    0.13 9  205 292 
 ZAR  HZ I         355 27.09        16.7 0.18            126            205 292 
 NOR  HZ EP   2    354 59.46                             119    0.78 4  235 235 
 NOR  HE ES   2    355 25.98                             119   -0.84 4  235 235 
 NOR  HZ I         355 30.86         6.6 0.20            122            235 235 
 CHI  HZ EP        355  0.83                             118    0.24 8  249 195 
 CHI  HN ES        355 30.34                             118    0.10 8  249 195 
 CHI  HZ I         355 34.24         5.5 0.35            121            249 195 
 GUY2CHZ EP   9    355  9.89                             113    3.40 0  302 235 
 GUY2CHN ES        355 43.82                             114   -0.32 7  302 235 
 GUY2CHZ I         355 51.28         3.1 0.40                           302 235 
                                                                                
