 2014  313 0900 32.5 L   6.707 -73.136149.2  RSN  5 0.5 1.3LRSN                1
 GAP=142        1.11       6.2     6.5 10.0 -0.3657E+01  0.2256E+02 -0.9016E+01E
 Epicentro: JORDAN - SANTANDER                                                 3
 OLDACT:REG 14-03-13 12:20 OP:fm   STATUS:               ID:20140313085837     3
 ACTION:UPD 14-04-09 23:16 OP:nd   STATUS:               ID:20140313090032 L   I
 OLDACT:UP  14-03-13 12:46 OP:fm   STATUS:               ID:20140313085837     3
 STAT SP IPHASW D HRMM SECON CODA AMPLIT PERI AZIMU VELO AIN AR TRES W  DIS CAZ7
 BAR2 SZ EP        9 0 52.83                             174    0.4410 13.7 202 
 BAR2 SZ ES   1    9 1  8.61                             174    0.70 7 13.7 202 
 BAR2 SZ I         9 1 18.64        10.7 1.60            176           13.7 202 
 PAM  SZ EP        9 0 55.65                             149    0.1110 84.9  35 
 PAM  SN ES        9 1 12.97                             149   -0.5410 84.9  35 
 PAM  SZ I         9 1 17.49         2.4 0.74            154           84.9  35 
 RUS  HZ EP        9 0 55.51                             147   -0.3810 90.3 176 
 RUS  HN ES        9 1 14.33                             147    0.2010 90.3 176 
 RUS  SZ I         9 1 17.04         3.0 0.94            155           90.3 176 
 PTB  HZ EP   1    9 0 59.32                             133   -0.38 7  147 263 
 PTB  HN ES   1    9 1 19.94                             133   -0.97 7  147 263 
 PTB  SZ I         9 1 21.34         2.2 0.58            139            147 263 
 ZAR  HZ EP   1    9 1  6.30                             122    0.61 6  209 295 
 ZAR  HN ES   1    9 1 32.04                             122    0.46 6  209 295 
 ZAR  SZ I         9 1 36.99         1.8 0.22            128            209 295 
                                                                                
