 2016  813 0741 12.6 L   6.826 -73.118144.3  RSN 24 0.6 2.6LRSN                1
 GAP= 72        1.13       3.6     3.3  4.8 -0.3169E+01  0.2442E+01  0.1932E+01E
 Epicentro: LOS SANTOS - SANTANDER                                             3
 *CBOC-PAL                                                                     3
 ACTION:UPD 16-10-29 15:35 OP:rebc STATUS:               ID:20160813073760 L   I
 OLDACT:UP  16-08-13 17:19 OP:dani STATUS:               ID:20160813073760 L   3
 OLDACT:UP  16-08-13 17:18 OP:dani STATUS:               ID:20160813073760 L   3
 OLDACT:UP  16-08-13 17:16 OP:dani STATUS:               ID:20160813073760 L   3
 OLDACT:UP  16-08-13 17:15 OP:dani STATUS:               ID:20160813073760 L   3
 OLDACT:UP  16-08-13 17:15 OP:dani STATUS:               ID:20160813073760 L   3
 OLDACT:UPD 16-08-13 16:15 OP:dani STATUS:               ID:20160813073760 L   3
 2016-08-13-0737-59S.COL___343                                                 6
 STAT SP IPHASW D HRMM SECON CODA AMPLIT PERI AZIMU VELO AIN AR TRES W  DIS CAZ7
 BAR2 EZ IP     C  741 31.95                             169   -0.1310 26.8 195 
 BAR2 EZ ES        741 46.87                             169   -0.4510 26.8 195 
 BAR2 EZ I         741 48.20       137.3 0.46                          26.8 195 
 BRR  HZ EP        741 33.83                             152    0.2010 72.6 295 
 BRR  HN ES        741 50.58                             152    0.5210 72.6 295 
 BRR  HZ I         741 54.59        53.0 0.34                          72.6 295 
 PAM  EZ EP        741 34.84                             152    0.4710 73.3  39 
 PAM  EE ES        741 51.72                             152    0.3310 73.3  39 
 PAM  EZ I         741 52.42        61.2 0.24                          73.3  39 
 RUS  HZ EP        741 35.92                             143   -0.4410  103 178 
 RUS  HE ES        741 54.17                             143   -0.7510  103 178 
 RUS  HZ I         741 56.10        31.4 0.36                           103 178 
 PTB  HZ EP   9    741 38.52                             131   -1.21 0  151 258 
 PTB  HN ES        741 59.38                             131   -0.34 9  151 258 
 PTB  HZ I         742  3.09        23.0 0.20                           151 258 
 TAM  HZ EP        741 40.30                             131    0.39 9  153 106 
 TAM  HN ES        742  1.78                             131    0.52 9  153 106 
 TAM  HZ I         742  3.10        23.6 0.44                           153 106 
 SPBC HZ EP        741 40.91                             128   -0.42 9  167 219 
 SPBC HN ES        742  3.20                             128   -0.58 9  167 219 
 SPBC HZ I         742 11.76        31.0 0.36                           167 219 
 ZAR  HZ EP   4    741 46.52                             122    1.43 0  206 291 
 ZAR  HN ES        742 10.69                             122    0.23 8  206 291 
 ZAR  HZ I         742 16.83        46.7 0.30                           206 291 
 NOR  HZ EP        741 48.79                             118    0.15 8  239 234 
 NOR  HE ES   2    742 16.12                             118   -0.67 4  239 234 
 NOR  HZ I         742 17.89        22.3 0.35                           239 234 
 CHI  HZ EP        741 50.43                             116   -0.12 8  252 196 
 CHI  HE ES   2    742 19.96                             116   -0.24 4  252 196 
 CHI  HZ I         742 26.18        13.0 0.35                           252 196 
 ROSC BZ EP        741 51.87                             116    0.84 8  257 211 
 ROSC BN ES        742 21.27                             116    0.23 8  257 211 
 ROSC BZ I         742 28.33        55.6 0.45                           257 211 
 HEL  HZ EP        741 52.79                             114   -0.30 7  276 255 
 HEL  HE ES   4    742 23.18                             114   -1.54 0  276 255 
 HEL  HZ I         742 31.00        24.8 0.38                           276 255 
 URE  HE ES   4    742 23.97                             113   -1.91 0  286 291 
 SOCV BZ EP        741 54.90                             112   -0.17 7  297  57 
 SOCV BN ES   4    742 26.99                             112   -1.25 0  297  57 
 GUY2CHZ EP        741 57.35                             112    0.79 7  305 235 
 GUY2CHE ES        742 30.65                             112   -0.23 7  305 235 
 GUY2CHZ I         742 37.23        19.0 0.32                           305 235 
 VIL  EE ES   4    742 29.57                             111   -0.83 0  307 192 
 VIL  EZ I         742 38.54        22.8 0.47                           307 192 
 PTGC HZ EP   4    741 55.17                             111   -1.35 0  310 159 
 PTGC HN ES   4    742 28.09                             111   -2.73 0  310 159 
 PTGC HZ I         742 33.25        18.5 0.32                           310 159 
 ELA  HZ EP   9    742  2.62                             110    2.80 0  333 229 
 ELA  HE ES        742 40.15                             110    0.66 7  333 229 
 ELA  HZ I         742 43.43        20.0 0.62                           333 229 
 CBOC HZ EP        742  0.13                             109    0.29 7  337 252 
 CBOC HN ES   4    742 34.15                             109   -2.57 0  337 252 
 CBOC HZ I         742 45.67         8.0 0.46                           337 252 
 ANIL HE ES        742 43.00                             108    1.04 6  361 225 
 PRA  HZ EP        742  6.16                             106   -0.32 6  396 210 
 PRA  HE ES        742 48.28                             106   -0.27 6  396 210 
 PRA  HZ I         742 53.88        18.0 0.33                           396 210 
 SJC  HZ EP        742  6.87                             105   -1.11 6  409 326 
 SJC  HN ES   4    742 47.50                             105   -3.72 0  409 326 
 SJC  HZ I         742 52.19        20.0 0.43                           409 326 
 PAL  HZ EP        742  8.23                             105    0.09 6  410 239 
 PAL  HE ES   4    742 50.13                             105   -1.37 0  410 239 
 PAL  HZ I         742 56.14         6.9 0.37                           410 239 
 CRJC HZ EP        742 12.78                             103   -1.87 5  465   3 
 CRJC HN ES   4    742 58.79                             103   -4.30 0  465   3 
 CRJC HZ I         743  3.49         8.1 0.29                           465   3 
 MACC HZ EP   4    742 19.35                             101   -2.26 0  524 189 
 MACC HZ I         743 19.01         3.9 0.51                           524 189 
                                                                                
