 2012 1113 0053 29.3 L   6.792 -73.200142.8  RSN  5 0.3 1.2LRSN                1
 GAP=231        0.67       4.9     6.7  7.7  0.1389E+02  0.5323E+01  0.5713E+01E
 Epicentro: ZAPATOCA - SANTANDER                                               3
 ACTION:UPD 12-12-05 15:33 OP:}ep  STATUS:               ID:20121113005329 L   I
 2012-11-13-0050-00M.COL___230                                                 6
 STAT SP IPHASW D HRMM SECON CODA AMPLIT PERI AZIMU VELO AIN AR TRES W  DIS CAZ7
 BAR2 SZ ES   2    054  3.57                             171   -0.01 5 22.2 175 
 BAR2 SZ I         054  4.61         4.3 0.18                          22.2 175 
 BRR  HZ EP        053 50.11                             154    0.2310 66.4 302 
 BRR  HN ES   1    054  6.21                             154    0.29 7 66.4 302 
 BRR  HZ I         054  8.78         4.0 0.42                          66.4 302 
 RUS  HZ EP   1    053 52.61                             143   -0.15 7  100 173 
 RUS  HN ES   1    054 10.71                             143   -0.34 7  100 173 
 RUS  HZ I         054 12.12         1.5 0.24                           100 173 
 PTB  HZ EP   1    053 55.09                             133   -0.41 7  142 259 
 PTB  HN ES   1    054 15.62                             133   -0.30 7  142 259 
 PTB  HZ I         054 18.00         2.1 0.14                           142 259 
 CHI  HE ES   1    054 36.35                             117    0.67 6  246 194 
 CHI  HZ I         054 36.39         1.7 0.44                           246 194 
                                                                                
