 2011  513 0811 59.1 L   6.749 -73.141145.1  RSN  7 0.4 1.1LRSN                1
 GAP=139        0.61       6.8    12.3 11.6  0.4930E+02 -0.8258E+02 -0.1951E+02E
 Epicentro: LOS SANTOS - SANTANDER                                             3
 ACTION:UP  11-06-29 08:52 OP:tino STATUS:               ID:20110513081159 L   I
 2011-05-13-0800-00M.COL___142                                                 6
 STAT SP IPHASW D HRMM SECON CODA AMPLIT PERI AZIMU VELO SNR AR TRES W  DIS CAZ7
 BAR2 SZ EP        812 18.45                             173    -0.110   18 195 
 BAR2 SZ I         812 18.74         6.3 0.42                            18 195 
 BTL  SZ EP        812 18.74                             170     0.110   23 323 
 GIR2 SZ EP   3    812 20.82                             165     2.0 2   37 351 
 BRR  HZ EP        812 20.23                             151    -0.110   75 302 
 BRR  HZ I         812 20.35         3.0 0.21                            75 302 
 BRR  HN ES   1    812 36.98                             151     0.0 7   75 302 
 PAM  SZ EP   2    812 21.27                             149    -0.2 5   81  37 
 RUS  HZ EP        812 22.45                             145     0.110   95 176 
 RUS  HN ES   2    812 40.34                             145    -0.2 5   95 176 
 RUS  HZ I         812 42.43         0.9 0.34                            95 176 
 GRA  SZ EP   3    812 24.27                             136    -0.4 2  131  16 
                                                                                
