 2012  513 0805 22.3 L   6.781 -73.156141.7  RSN  5 0.2 1.5LRSN                1
 GAP=136        0.39       4.4     4.2  4.4  0.2082E+01 -0.3712E+01 -0.2415E+01E
 Epicentro: LOS SANTOS - SANTANDER                                             3
 ACTION:UP  12-07-05 12:04 OP:pat  STATUS:               ID:20120513080522 L   I
 2012-05-13-0800-00M.COL___195                                                 6
 STAT SP IPHASW D HRMM SECON CODA AMPLIT PERI AZIMU VELO SNR AR TRES W  DIS CAZ7
 BAR2 SZ EP        8 5 41.29                             171    -0.110   21 188 
 BAR2 SZ ES   1    8 5 56.33                             171     0.1 7   21 188 
 BAR2 SZ I         8 5 57.69         8.5 0.40                            21 188 
 BRR  HZ EP        8 5 43.01                             152     0.010   71 300 
 BRR  HN ES   1    8 5 59.07                             152    -0.1 7   71 300 
 BRR  HZ I         8 6  3.91         5.1 0.16                            71 300 
 PAM  SZ EP        8 5 44.32                             149     0.110   80  39 
 PAM  SN ES   3    8 6  0.34                             149    -0.9 2   80  39 
 RUS  HZ EP   2    8 5 45.31                             144    -0.2 5   99 175 
 RUS  HN ES   3    8 6  3.60                             144     0.0 2   99 175 
 PTB  HZ EP   2    8 5 48.55                             131    -0.2 5  146 260 
                                                                                
