 2012  113 0907  5.2 L   6.816 -73.070154.4  RSN  7 0.3 1.6LRSN                1
 GAP=206        0.55       5.3     8.0  6.4  0.2209E+02  0.1507E+01  0.6895E+01E
 Epicentro: LOS SANTOS - SANTANDER                                             3
 ACTION:UP  12-02-03 08:17 OP:REBC STATUS:               ID:20120113090705 L   I
 2012-01-13-0900-00M.COL___186                                                 6
 STAT SP IPHASW D HRMM SECON CODA AMPLIT PERI AZIMU VELO SNR AR TRES W  DIS CAZ7
 BAR2 SZ EP   1    9 7 25.67                             169    -0.3 7   28 207 
 BAR2 SZ ES   2    9 7 41.96                             169    -0.2 5   28 207 
 BAR2 SZ I         9 7 42.58         8.4 0.34                            28 207 
 GIR2 SZ EP   2    9 7 25.69                             168    -0.2 5   32 335 
 BRR  HZ EP        9 7 27.83                             152     0.210   78 294 
 BRR  HZ I         9 7 28.03        10.7 0.18                            78 294 
 BRR  HN ES   1    9 7 45.46                             152     0.3 7   78 294 
 RUS  HZ EP   2    9 7 30.12                             145     0.2 5  102 181 
 RUS  HN ES   2    9 7 48.88                             145    -0.3 5  102 181 
 PTB  HZ EP   2    9 7 33.14                             132    -0.5 5  156 259 
 ZAR  HN ES   2    9 8  4.66                             123    -0.6 4  211 291 
 CHI  HZ EP   1    9 7 44.00                             118     0.2 6  253 197 
 CHI  HN ES   2    9 8 14.14                             118     0.2 4  253 197 
 CHI  HZ I         9 8 18.13         1.2 0.30                           253 197 
                                                                                
