 2013  813 0541 38.9 L   6.818 -73.055142.7  RSN  9 0.4 1.8LRSN                1
 GAP=192        0.98       3.2     6.0  5.8  0.3508E+01  0.7280E+01 -0.2177E+01E
 Epicentro: LOS SANTOS - SANTANDER                                             3
 ACTION:UPD 14-01-14 09:01 OP:ep   STATUS:               ID:20130813054138 L   I
 OLDACT:UP  13-08-13 19:10 OP:cam  STATUS:               ID:20130813053844     3
 OLDACT:UP  13-08-13 19:10 OP:cam  STATUS:               ID:20130813053844     3
 OLDACT:UP  13-08-13 19:09 OP:cam  STATUS:               ID:20130813053844     3
 OLDACT:UP  13-08-13 19:09 OP:cam  STATUS:               ID:20130813053844     3
 OLDACT:REG 13-08-13 08:22 OP:stll STATUS:               ID:20130813053844     3
 2013-08-13-0538-44M.COL___218                                                 6
 STAT SP IPHASW D HRMM SECON CODA AMPLIT PERI AZIMU VELO AIN AR TRES W  DIS CAZ7
 BAR2 SZ EP        541 58.35                             168    0.1010 28.7 209 
 BAR2 SZ ES        542 13.05                             168   -0.3210 28.7 209 
 BAR2 SZ I         542 14.60        12.0 0.18            158           28.7 209 
 GIR2 SZ EP   1    541 57.95                             166   -0.27 7 32.6 332 
 GIR2 SZ ES        542 13.36                             166    0.0610 32.6 332 
 GIR2 SZ I         542 15.13        14.1 0.46            160           32.6 332 
 BRR  HZ EP        542  0.14                             149   -0.0310 79.3 294 
 BRR  HE ES        542 17.10                             149    0.3110 79.3 294 
 BRR  HZ I         542 20.18        12.0 0.34            140           79.3 294 
 RUS  HZ EP        542  2.40                             143   -0.0610  102 182 
 RUS  HN ES        542 21.11                             143    0.2610  102 182 
 RUS  HZ I         542 22.10         2.7 0.30            136            102 182 
 PTB  HZ EP   1    542  5.52                             129   -1.02 7  158 259 
 PTB  HZ I         542 29.28         7.8 0.16            121            158 259 
 OCA  HZ EP   1    542  7.73                             129    0.83 7  160 350 
 OCA  HN ES        542 28.33                             129   -0.43 9  160 350 
 SPBC HZ EP   1    542  7.59                             127   -0.32 7  171 221 
 SPBC HN ES        542 30.64                             127    0.09 9  171 221 
 SPBC HZ I         542 35.77         5.1 0.18            120            171 221 
 ZAR  HZ EP        542 12.88                             120    0.87 8  213 291 
 ZAR  HN ES        542 37.57                             120   -0.29 8  213 291 
 ZAR  HZ I         542 42.40         9.7 0.44            114            213 291 
 SML  HZ EP   1    542 14.89                             116   -0.72 6  246 333 
 SML  HN ES        542 44.58                             116    0.32 8  246 333 
 SML  HZ I         542 47.29         6.0 0.10            112            246 333 
                                                                                
