 2011  413 0646  2.7 L   6.814 -73.114149.2  RSN 11 0.4 2.7LRSN                1
 GAP=146        0.94       4.8     6.1  6.2 -0.1604E+02  0.1189E+00  0.5593E+01E
 Epicentro: LOS SANTOS - SANTANDER                                             3
 ACTION:UP  11-06-22 15:30 OP:REBC STATUS:               ID:20110413064602 L   I
 2011-04-13-0644-54S.COL___139                                                 6
 STAT SP IPHASW D HRMM SECON CODA AMPLIT PERI AZIMU VELO SNR AR TRES W  DIS CAZ7
 BTL  SZ ES   1    646 38.51                             172     0.2 7   21 304 
 BAR2 SZ EP        646 22.68                             170    -0.110   26 197 
 BAR2 SZ ES   1    646 37.55                             170    -0.9 7   26 197 
 BAR2 SZ I         646 40.36       151.9 0.29                            26 197 
 BRR  HZ IP     C  646 24.64                             152     0.310   74 296 
 BRR  HN ES   1    646 41.72                             152     0.5 7   74 296 
 BRR  HZ I         646 45.19       144.8 0.14                            74 296 
 PAM  SZ EP   1    646 25.52                             152     0.4 7   74  38 
 PAM  SN ES   2    646 42.74                             152     0.2 5   74  38 
 PAM  SZ I         646 44.95        50.3 0.68                            74  38 
 GRA  SZ IP        646 28.61                             138     0.510  123  16 
 GRA  SZ ES   1    646 47.67                             138    -0.2 7  123  16 
 GRA  SZ I         646 53.28        74.0 0.29                           123  16 
 OCA  SZ EP   1    646 30.87                             130    -0.3 7  159 352 
 OCA  SZ ES   1    646 52.67                             130    -0.7 7  159 352 
 NOR  SZ EP   1    646 38.40                             118    -0.7 6  238 235 
 NOR  SN ES   1    647  7.19                             118    -0.2 6  238 235 
 CHI  HZ EP   1    646 40.94                             117     0.1 6  251 196 
 CHI  HN ES   2    647 11.10                             117     0.5 4  251 196 
 CHI  HZ I         647 13.54        23.3 0.53                           251 196 
 HEL  HZ EP   1    646 43.97                             115     0.4 6  276 256 
 HEL  HN ES   1    647 15.44                             115     0.1 6  276 256 
 HEL  HZ I         647 22.41        25.7 0.39                           276 256 
 SDV  BZ EP   1    646 52.13                             109    -0.3 5  357  50 
 PRA  HZ EP   2    646 55.84                             107    -0.9 3  395 210 
 PRA  HN ES   2    647 39.04                             107     0.2 3  395 210 
                                                                                
