 2014  413 0424 41.2 L   6.811 -73.171147.1  RSN  8 0.3 1.7LRSN                1
 GAP=133        0.66       2.0     2.8  4.9 -0.6337E+00  0.3559E+01 -0.4911E-01E
 Epicentro: LOS SANTOS - SANTANDER                                             3
 ACTION:UPD 14-05-13 23:08 OP:nd   STATUS:               ID:20140413042441 L   I
 OLDACT:DUP 14-04-13 17:38 OP:stll STATUS:               ID:20140413041808d    3
 2014-04-13-0418-07M.COL___263                                                 6
 STAT SP IPHASW D HRMM SECON CODA AMPLIT PERI AZIMU VELO AIN AR TRES W  DIS CAZ7
 PAM  SZ EP        425  3.87                             151    0.2610 78.2  42 
 PAM  SZ I         425  4.14        14.2 0.22            153           78.2  42 
 PAM  SE ES        425 21.10                             151    0.0110 78.2  42 
 RUS  HZ EP        425  4.99                             144   -0.2010  102 175 
 RUS  HN ES        425 23.77                             144   -0.1410  102 175 
 RUS  HZ I         425 24.67         5.4 0.36            147            102 175 
 PTB  HZ EP        425  8.41                             133    0.35 9  145 258 
 PTB  HN ES        425 28.90                             133   -0.10 9  145 258 
 PTB  HZ I         425 34.88         5.6 0.40            132            145 258 
 SPBC HZ EP        425 10.00                             129    0.27 9  162 218 
 SPBC HN ES        425 31.85                             129   -0.14 9  162 218 
 SPBC HZ I         425 34.75         9.2 0.28            130            162 218 
 ZAR  HN ES        425 38.93                             123    0.38 9  201 292 
 ZAR  HZ I         425 45.60         4.2 0.50            122            201 292 
 NOR  HZ EP        425 16.24                             119   -0.61 8  233 234 
 NOR  HE ES        425 44.51                             119   -0.14 8  233 234 
 NOR  HZ I         425 49.12         3.3 0.22            119            233 234 
 SML  HZ EP        425 17.42                             118   -0.24 8  241 336 
 SML  HN ES        425 45.83                             118   -0.26 8  241 336 
 SML  HZ I         425 53.76         7.2 0.24            118            241 336 
 CHI  HZ EP        425 19.13                             117    0.10 8  249 194 
 CHI  HZ I         425 21.54         2.5 0.38            119            249 194 
 CHI  HN ES        425 48.89                             117    0.36 8  249 194 
                                                                                
