 2015  713 0800 15.9 L   6.759 -73.152147.4  RSN  5 0.2 1.4LRSN                1
 GAP=138        0.50       2.7     3.5  5.5  0.2315E+01  0.1658E+01 -0.4711E+01E
 Epicentro: LOS SANTOS - SANTANDER                                             3
 ACTION:UPD 15-09-08 21:48 OP:cam  STATUS:               ID:20150713080015 L   I
 OLDACT:REG 15-07-13 13:12 OP:spq  STATUS:               ID:20150713075748     3
 2015-07-13-0757-48M.COL___337                                                 6
 STAT SP IPHASW D HRMM SECON CODA AMPLIT PERI AZIMU VELO AIN AR TRES W  DIS CAZ7
 BAR2 EZ EP        8 0 35.51                             172   -0.1010 18.7 190 
 BAR2 EZ ES   1    8 0 50.63                             172   -0.38 7 18.7 190 
 BAR2 EZ I         8 0 51.87         3.8 0.30            171           18.7 190 
 PAM  EZ EP        8 0 38.47                             150   -0.0210 81.4  38 
 RUS  HZ EP   1    8 0 39.71                             145    0.25 7 96.1 175 
 RUS  HE ES   1    8 0 58.10                             145    0.23 7 96.1 175 
 RUS  HZ I         8 0 59.17         2.4 0.38            148           96.1 175 
 OCA  HZ EP   1    8 0 44.49                             129   -0.23 7  165 354 
 OCA  HE ES        8 1  7.48                             129    0.25 9  165 354 
 OCA  HZ I         8 1 10.34         5.0 0.31            130            165 354 
 ZAR  HZ EP   1    8 0 48.30                             123   -0.23 6  205 293 
 ZAR  HE ES        8 1 14.08                             123    0.07 9  205 293 
 ZAR  HZ I         8 1 20.52         2.8 0.34            122            205 293 
                                                                                
