 2011  513 0825 49.6 L   6.762 -73.116141.7  RSN  6 0.2 1.2LRSN                1
 GAP=142        0.51       3.3     6.6  6.0  0.2255E+01 -0.1834E+02 -0.2681E+01E
 Epicentro: LOS SANTOS - SANTANDER                                             3
 ACTION:UP  11-06-29 08:52 OP:tino STATUS:               ID:20110513082550dL   I
 2011-05-13-0824-31S.COL___141                                                 6
 STAT SP IPHASW D HRMM SECON CODA AMPLIT PERI AZIMU VELO SNR AR TRES W  DIS CAZ7
 BAR2 SZ EP   1    826  8.61                             171     0.0 7   20 201 
 BTL  SZ EP   1    826  8.69                             170     0.0 7   24 316 
 BTL  SZ ES   1    826 23.23                             170    -0.4 7   24 316 
 BRR  HZ EP   1    826 10.47                             150    -0.1 7   76 300 
 BRR  HE ES   1    826 27.26                             150     0.3 7   76 300 
 BRR  HZ I         826 31.54         7.5 0.13                            76 300 
 PAM  SZ EP   1    826 11.61                             150     0.2 7   79  36 
 RUS  HZ EP   1    826 12.60                             144     0.0 7   96 178 
 RUS  HE ES   1    826 30.72                             144     0.2 7   96 178 
 RUS  HZ I         826 32.07         1.0 0.34                            96 178 
 GRA  SZ EP   1    826 14.58                             135    -0.1 7  129  15 
 GRA  SZ I         826 16.00         3.1 0.23                           129  15 
 GRA  SZ ES   2    826 34.66                             135     0.3 5  129  15 
                                                                                
