 2017  913 0018 19.7 L   6.793 -73.120147.2  RSN 13 0.5 1.9LRSN                1
 GAP=115        0.82       3.2     3.5  4.7  0.7373E+00  0.3315E+01  0.5337E+01E
 Epicentro: LOS SANTOS - SANTANDER                                             3
 ACTION:UPD 17-10-05 19:11 OP:rebc STATUS:               ID:20170913001819 L   I
 OLDACT:UP  17-09-13 14:07 OP:mg   STATUS:               ID:20170913000739     3
 OLDACT:UP  17-09-13 14:06 OP:mg   STATUS:               ID:20170913000739     3
 OLDACT:REG 17-09-13 12:32 OP:mg   STATUS:               ID:20170913000739     3
 2017-09-13-0008-00M.COL___455                                                 6
 STAT SP IPHASW D HRMM SECON CODA AMPLIT PERI AZIMU VELO AIN AR TRES W  DIS CAZ7
 BAR2 EZ EP        018 39.29                             171   -0.2210 23.2 197 
 BAR2 EZ ES        018 55.19                             171    0.2410 23.2 197 
 BAR2 EZ I         018 55.84        21.0 0.19            166           23.2 197 
 BRR  HZ EP        018 41.21                             152    0.0410 74.1 298 
 BRR  HN ES        018 58.20                             152    0.2810 74.1 298 
 BRR  HZ I         019  1.59        10.0 0.12            151           74.1 298 
 PAM  EZ EP        018 42.29                             151    0.2810 76.3  38 
 PAM  EN ES        018 59.39                             151   -0.0110 76.3  38 
 PAM  EZ I         019  1.13         4.5 0.16            157           76.3  38 
 RUS  HZ EP        018 43.50                             144   -0.0310 99.6 178 
 RUS  HN ES        019  1.45                             144   -0.6610 99.6 178 
 RUS  HZ I         019  3.40        13.1 0.28            143           99.6 178 
 SPBC HZ EP   1    018 48.33                             129   -0.09 7  164 220 
 SPBC HN ES   3    019  9.95                             129   -0.88 2  164 220 
 SPBC HZ I         019 15.48        10.2 0.18            128            164 220 
 YPLC HZ EP   1    018 49.93                             127    0.53 7  175 152 
 YPLC HN ES   3    019 13.98                             127    1.41 2  175 152 
 YPLC HZ I         019 16.55         6.7 0.20            128            175 152 
 ZAR  HZ EP   1    018 52.64                             122    0.09 6  207 292 
 ZAR  HN ES        019 17.69                             122   -0.47 8  207 292 
 ZAR  HZ I         019 24.08         7.8 0.20            123            207 292 
 NOR  HZ EP        018 56.00                             118    0.29 8  237 235 
 NOR  HN ES        019 23.49                             118   -0.31 8  237 235 
 NOR  HZ I         019 28.47         5.7 0.22            119            237 235 
 CHI  HZ EP        018 57.63                             117    0.15 8  249 196 
 CHI  HN ES   1    019 27.55                             117    0.61 6  249 196 
 CHI  HZ I         019 34.51         3.3 0.43            118            249 196 
 GUY2CHZ EP   3    019  5.44                             112    1.85 2  303 235 
 GUY2CHN ES   4    019 39.90                             112    2.08 0  303 235 
 GUY2CHZ I         019 44.46         3.2 0.50                           303 235 
 PTGC HZ IP     D  019  2.67                             112   -0.75 7  307 159 
 PTGC HN ES   4    019 35.43                             112   -2.09 0  307 159 
 PTGC HZ I         019 40.83         5.0 0.41            113            307 159 
 PRA  HZ EP   1    019 13.50                             107    0.15 4  393 210 
 PRA  HN ES   1    019 56.20                             107    1.00 4  393 210 
 PRA  HZ I         020  2.22         3.7 0.36            107            393 210 
 SJC  HZ EP   3    019 13.86                             106   -1.71 1  411 327 
 SJC  HN ES   4    019 54.44                             106   -4.71 0  411 327 
 SJC  HZ I         019 58.27         1.5 0.28            107            411 327 
                                                                                
