 2016  313 0754  7.4 L   6.826 -73.154148.1  RSN  7 0.2 1.1LRSN                1
 GAP=134        0.59       2.2     3.0  4.6  0.7278E+00  0.5268E+01  0.2577E+01E
 Epicentro: LOS SANTOS - SANTANDER                                             3
 ACTION:UPD 16-05-13 21:23 OP:cam  STATUS:               ID:20160313075407 L   I
 OLDACT:DUP 16-03-13 19:54 OP:cara STATUS:               ID:20160313074751d    3
 OLDACT:REG 16-03-13 14:21 OP:cara STATUS:               ID:20160313074750     3
 2016-03-13-0747-50M.COL___291                                                 6
 STAT SP IPHASW D HRMM SECON CODA AMPLIT PERI AZIMU VELO AIN AR TRES W  DIS CAZ7
 BAR2 EZ EP        754 27.27                             169   -0.0510 26.1 187 
 BAR2 EZ ES        754 42.62                             169   -0.2710 26.1 187 
 BAR2 EZ I         754 44.20         3.0 0.36            167           26.1 187 
 PAM  EN ES        754 47.31                             152    0.1410 75.8  41 
 PAM  EZ I         754 49.03         3.4 0.60            157           75.8  41 
 RUS  HZ EP        754 31.72                             143    0.1810  104 176 
 RUS  HE ES        754 50.73                             143    0.3210  104 176 
 RUS  HZ I         754 51.56         1.1 0.28            144            104 176 
 PTB  HZ EP        754 34.44                             133   -0.04 9  147 258 
 PTB  HN ES        754 55.56                             133   -0.08 9  147 258 
 PTB  HZ I         755  2.60         1.5 0.42            131            147 258 
 OCA  HN ES        754 57.28                             131   -0.29 9  157 353 
 ZAR  HE ES        755  5.38                             123    0.36 9  202 291 
 ZAR  HZ I         755 12.14         1.5 0.30            123            202 291 
 CHI  HZ EP        754 45.44                             117   -0.02 8  251 195 
 CHI  HN ES        755 14.83                             117   -0.35 8  251 195 
 CHI  HZ I         755 22.43         0.5 0.46            118            251 195 
                                                                                
