 2017  513 0748 39.0 L   6.772 -73.102142.0  RSN  5 0.4 0.8LRSN                1
 GAP=143        0.85       5.4     5.1  8.3  0.8165E+01  0.5481E+01  0.4475E+01E
 Epicentro: LOS SANTOS - SANTANDER                                             3
 ACTION:UPD 17-06-16 13:35 OP:jn   STATUS:               ID:20170513074839 L   I
 OLDACT:REG 17-05-13 13:17 OP:osc  STATUS:               ID:20170513074738     3
 2017-05-13-0748-00M.COL___318                                                 6
 STAT SP IPHASW D HRMM SECON CODA AMPLIT PERI AZIMU VELO AIN AR TRES W  DIS CAZ7
 PAM  EZ EP        749  0.87                             150    0.0610 76.9  35 
 BRR  HZ EP        748 59.46                             150   -0.6510 76.9 299 
 BRR  HN ES        749 16.92                             150    0.3710 76.9 299 
 BRR  HZ I         749 21.71         3.0 0.29            149           76.9 299 
 PAM  EN ES   1    749 17.78                             150   -0.03 7 76.9  35 
 RUS  HZ EP        749  2.35                             144    0.1810 97.3 179 
 RUS  HN ES   1    749 20.07                             144   -0.15 7 97.3 179 
 RUS  HZ I         749 20.87         0.6 0.35            148           97.3 179 
 PTB  HZ EP   3    749  6.74                             130    0.67 2  152 260 
 PTB  HN ES   4    749 25.86                             130   -1.31 0  152 260 
 PTB  HZ I         749 28.13         0.6 0.08            132            152 260 
 ZAR  HZ EP   1    749 12.54                             121    0.73 6  210 292 
 ZAR  HE ES        749 37.12                             121   -0.27 8  210 292 
 ZAR  HZ I         749 42.21         0.6 0.05            122            210 292 
                                                                                
