 2012  713 0053 10.0 L   6.782 -73.151150.0  RSN  6 0.4 1.8LRSN                1
 GAP=137        1.12       6.2     5.7  9.2  0.1499E+01  0.1317E+02 -0.4184E+00E
 Epicentro: LOS SANTOS - SANTANDER                                             3
 ACTION:UPD 12-08-14 11:44 OP:ep   STATUS:               ID:20120713005310 L   I
 2012-07-13-0050-00M.COL___197                                                 6
 STAT SP IPHASW D HRMM SECON CODA AMPLIT PERI AZIMU VELO AIN AR TRES W  DIS CAZ7
 BAR2 SZ EP   1    053 29.74                             172    -0.4 7   21 189 
 BAR2 SZ ES   1    053 45.39                             172    -0.4 7   21 189 
 BAR2 SZ I         053 47.03        14.1 0.44            169             21 189 
 BRR  HZ EP   1    053 31.97                             153     0.3 7   72 300 
 BRR  HZ I         053 32.38        24.4 0.21            150             72 300 
 BRR  HN ES        053 49.11                             153     0.610   72 300 
 PAM  SZ EP   1    053 32.71                             151    -0.1 7   79  39 
 PAM  SZ I         053 33.20         8.5 0.26            154             79  39 
 PAM  SN ES        053 50.29                             151    -0.310   79  39 
 RUS  HZ EP   1    053 33.98                             145    -0.1 7   99 176 
 RUS  HN ES        053 53.23                             145     0.410   99 176 
 RUS  HZ I         053 54.06         4.7 0.24            146             99 176 
 PTB  HZ EP   1    053 37.13                             133    -0.1 7  147 260 
 PTB  HN ES        053 57.76                             133    -0.7 9  147 260 
 PTB  HZ I         054  3.88         9.5 0.30            131            147 260 
 ZAR  HZ EP   1    053 43.10                             123     0.3 6  204 293 
 ZAR  HN ES   1    054  8.54                             123     0.2 6  204 293 
 ZAR  HZ I         054 15.37         8.2 0.36            122            204 293 
