 2014  813 0419 31.3 L   6.843 -73.136139.0  RSN 10 0.5 1.8LRSN                1
 GAP=184        1.17       3.9     5.8  6.8  0.1235E+01  0.5319E+01 -0.3983E+01E
 Epicentro: LOS SANTOS - SANTANDER                                             3
 ACTION:UPD 14-09-15 21:49 OP:nd   STATUS:               ID:20140813041931 L   I
 OLDACT:UP  14-08-13 16:36 OP:cma  STATUS:               ID:20140813041746     3
 OLDACT:REG 14-08-13 16:16 OP:cam  STATUS:               ID:20140813041746     3
 2014-08-13-0417-46M.COL___269                                                 6
 STAT SP IPHASW D HRMM SECON CODA AMPLIT PERI AZIMU VELO AIN AR TRES W  DIS CAZ7
 BAR2 SZ EP        419 50.40                             168    0.2210 28.2 190 
 BAR2 SZ ES        420  4.24                             168   -0.7110 28.2 190 
 BAR2 SZ I         420  6.32        12.9 0.32            171           28.2 190 
 BRR  HZ EP     C  419 52.21                             152    0.6110 70.0 295 
 BRR  HN ES        420  8.17                             152    0.7010 70.0 295 
 BRR  HZ I         420 12.14        15.8 0.32            145           70.0 295 
 RUS  HZ EP        419 54.23                             141   -0.4710  105 177 
 RUS  HN ES        420 13.26                             141    0.2710  105 177 
 RUS  HZ I         420 15.02         4.1 0.42            140            105 177 
 PTB  HZ EP        419 57.26                             130   -0.60 9  150 257 
 PTB  HN ES        420 18.31                             130   -0.31 9  150 257 
 PTB  HZ I         420 21.62         6.3 0.24            125            150 257 
 OCA  HZ EP        419 58.86                             129    0.26 9  156 353 
 OCA  HN ES        420 20.00                             129    0.06 9  156 353 
 OCA  HZ I         420 24.96         8.0 0.36            122            156 353 
 SPBC HZ EP        419 59.72                             127    0.06 9  168 218 
 SPBC HN ES        420 22.02                             127    0.19 9  168 218 
 SPBC HZ I         420 29.31         6.5 0.30            123            168 218 
 ZAR  HZ EP        420  3.65                             121    0.47 9  203 291 
 ZAR  HN ES        420 27.60                             121   -0.49 9  203 291 
 ZAR  HZ I         420 36.83         6.0 0.16            116            203 291 
 SML  HZ EP        420  6.22                             116   -0.86 8  240 335 
 SML  HZ I         420 41.39         8.5 0.22            111            240 335 
 HEL  HZ EP   2    420 12.30                             113    0.93 4  274 255 
 GUY2CHZ EP        420 15.20                             111    0.23 7  305 234 
                                                                                
