 2012 1013 0148 11.9 L   6.771 -73.110138.8  RSN  6 0.3 2.0LRSN                1
 GAP=143        0.65       4.2     4.7  5.6  0.4096E+01  0.6323E+01  0.7492E+00E
 Epicentro: LOS SANTOS - SANTANDER                                             3
 ACTION:UPD 12-11-22 17:03 OP:ep   STATUS:               ID:20121013014811 L   I
 2012-10-13-0146-59S.COL___229                                                 6
 STAT SP IPHASW D HRMM SECON CODA AMPLIT PERI AZIMU VELO AIN AR TRES W  DIS CAZ7
 BAR2 SZ EP   1    148 30.59                             171   -0.06 7 21.3 202 
 BAR2 SZ ES   1    148 44.95                             171   -0.33 7 21.3 202 
 GIR2 SZ EP   1    148 30.65                             165   -0.22 7 35.3 345 
 GIR2 SZ ES   1    148 45.23                             165   -0.43 7 35.3 345 
 BRR  HZ EP   1    148 32.39                             150   -0.22 7 76.3 299 
 BRR  HN ES   1    148 49.34                             150    0.58 7 76.3 299 
 BRR  HZ I         148 50.52        20.3 0.14                          76.3 299 
 PAM  SZ EP   1    148 33.49                             149    0.10 7 77.5  36 
 PAM  SZ I         148 33.72        29.0 0.22                          77.5  36 
 PAM  SE ES   1    148 50.45                             149    0.30 7 77.5  36 
 RUS  HZ EP   1    148 34.53                             143   -0.19 7 97.1 178 
 RUS  HN ES   1    148 52.90                             143    0.38 7 97.1 178 
 RUS  HN I         148 54.71        11.9 0.24                          97.1 178 
 ZAR  HZ EP   1    148 44.78                             120    0.36 6  209 293 
 ZAR  HN ES   1    149  9.52                             120   -0.26 6  209 293 
                                                                                
