 2012  513 0307 11.6 L   6.751 -73.183143.9  RSN  5 0.2 1.6LRSN                1
 GAP=229        0.63       6.0     5.6  6.0  0.1704E+02  0.3030E+01  0.5890E+00E
 Epicentro: VILLANUEVA - SANTANDER                                             3
 ACTION:UP  12-07-05 12:04 OP:pat  STATUS:               ID:20120513030711 L   I
 2012-05-13-0300-00M.COL___195                                                 6
 STAT SP IPHASW D HRMM SECON CODA AMPLIT PERI AZIMU VELO SNR AR TRES W  DIS CAZ7
 BAR2 SZ EP        3 7 30.74                             173    -0.210   18 180 
 BAR2 SZ I         3 7 31.32         7.8 0.62                            18 180 
 BAR2 SZ ES   1    3 7 45.60                             173    -0.4 7   18 180 
 BRR  HZ EP        3 7 32.65                             152     0.110   70 304 
 BRR  HZ I         3 7 32.77         9.9 0.28                            70 304 
 BRR  HN ES   1    3 7 49.17                             152     0.3 7   70 304 
 RUS  HZ EP        3 7 35.09                             145     0.310   96 173 
 RUS  HN ES   1    3 7 53.07                             145     0.1 7   96 173 
 PTB  HZ EP        3 7 37.66                             133    -0.3 9  143 261 
 PTB  HN ES   1    3 7 58.55                             133     0.0 7  143 261 
 ZAR  HE ES   3    3 8  9.17                             122     0.3 2  202 294 
                                                                                
