 2017  213 0441 21.7 L   6.783 -73.196146.6  RSN  6 0.4 1.0LRSN                1
 GAP=131        1.13       6.0     5.5  8.3 -0.1096E+01  0.6149E+01  0.1681E+01E
 Epicentro: ZAPATOCA - SANTANDER                                               3
 ACTION:UPD 17-05-24 15:35 OP:jn   STATUS:               ID:20170213044121 L   I
 OLDACT:UP  17-02-13 16:40 OP:edw  STATUS:               ID:20170213043750d    3
 OLDACT:DUP 17-02-13 16:36 OP:edw  STATUS:               ID:20170213043750d    3
 OLDACT:REG 17-02-13 11:48 OP:edw  STATUS:               ID:20170213043749     3
 2017-02-13-0438-00M.COL___352                                                 6
 STAT SP IPHASW D HRMM SECON CODA AMPLIT PERI AZIMU VELO AIN AR TRES W  DIS CAZ7
 BAR2 EZ EP        441 40.64                             171   -0.7210 21.1 176 
 BAR2 EZ ES        441 56.54                             171   -0.1810 21.1 176 
 BAR2 EZ I         441 57.28         3.2 0.10            170           21.1 176 
 BRR  HZ EP        441 43.40                             154    0.7010 67.3 302 
 BRR  HN ES        441 59.45                             154    0.3510 67.3 302 
 PAM  EZ EP     C  441 44.42                             149    0.1310 82.4  42 
 PAM  EN ES        442  1.62                             149   -0.3010 82.4  42 
 RUS  HZ EP        441 45.79                             144    0.3810 99.2 173 
 RUS  HN ES        442  4.28                             144    0.3610 99.2 173 
 RUS  HZ I         442  5.21         1.4 0.34            144           99.2 173 
 PTB  HZ EP        441 47.61                             133   -0.58 9  142 259 
 PTB  HN ES        442  8.55                             133   -0.32 9  142 259 
 PTB  HZ I         442 11.65         0.8 0.20            133            142 259 
 ZAR  HN ES   2    442 19.12                             123    0.40 4  200 293 
                                                                                
