 2012  213 0149 56.6 L   6.761 -73.120142.8  RSN 13 0.4 2.0LRSN                1
 GAP=142        0.57       3.0     3.6  5.2 -0.2299E+01  0.4283E+01  0.3112E+01E
 ACTION:UP  12-03-07 16:30 OP:epov STATUS:               ID:20120213014956 L   I
 2012-02-13-0150-00M.COL___188                                                 6
 STAT SP IPHASW D HRMM SECON CODA AMPLIT PERI AZIMU VELO AIN AR TRES W  DIS CAZ7
 BAR2 SZ EP        150 15.72                             172   -0.1110 19.9 200 
 BAR2 SZ ES   2    150 30.84                             172    0.04 5 19.9 200 
 BAR2 SZ I         150 33.23        18.4 0.39                          19.9 200 
 GIR2 SZ EP   2    150 15.83                             165   -0.25 5 36.1 347 
 GIR2 SZ ES   2    150 30.77                             165   -0.48 5 36.1 347 
 BRR  HZ EP        150 17.62                             150   -0.1010 75.8 300 
 BRR  HE ES   2    150 34.62                             150    0.45 5 75.8 300 
 BRR  HZ I         150 39.77        26.9 0.19                          75.8 300 
 PAM  SZ EP        150 18.62                             150    0.0010 79.0  36 
 PAM  SN ES   2    150 35.97                             150    0.19 5 79.0  36 
 RUS  HZ EP   1    150 19.56                             144   -0.20 7 96.1 178 
 RUS  HN ES   2    150 38.20                             144    0.39 5 96.1 178 
 RUS  HZ I         150 41.01         7.1 0.38                          96.1 178 
 PTB  HZ EP   2    150 22.44                             131   -1.10 5  150 261 
 PTB  HE ES   2    150 44.56                             131    0.03 5  150 261 
 OCA  SZ EP   2    150 25.59                             128    0.45 5  165 352 
 OCA  SZ ES   2    150 48.32                             128    0.93 5  165 352 
 ZAR  HZ EP   2    150 28.83                             121   -0.49 4  208 293 
 ZAR  HN ES   2    150 54.18                             121   -0.65 4  208 293 
 ZAR  HZ I         151  2.72         9.9 0.15                           208 293 
 NOR  SZ EP   2    150 32.26                             118    0.09 4  235 236 
 NOR  SN ES   2    150 59.90                             118    0.01 4  235 236 
 CHI  HZ EP   2    150 33.98                             117    0.19 4  245 196 
 CHI  HE ES   2    151  3.20                             117    0.42 4  245 196 
 HEL  HZ EP   2    150 37.57                             114    0.69 4  274 257 
 HEL  HN ES   2    151  8.80                             114    0.52 4  274 257 
 HEL  HZ I         151 14.33         9.5 0.35                           274 257 
 RREF HZ EP   2    150 43.46                             110    0.89 3  321 230 
 RREF HN ES   2    151 18.76                             110    0.35 3  321 230 
 RREF HZ I         151 28.75         6.4 0.26                           321 230 
 PRA  HZ EP   2    150 49.56                             106   -0.21 3  390 210 
 PRA  HN ES   2    151 30.96                             106   -0.27 3  390 210 
                                                                                
