 2016  313 0703 10.1 L   6.749 -73.207135.0  RSN  6 0.3 1.1LRSN                1
 GAP=130        0.89       3.7     4.3  6.6  0.3242E+01  0.1310E+02  0.4981E+01E
 Epicentro: VILLANUEVA - SANTANDER                                             3
 ACTION:UPD 16-05-13 21:23 OP:cam  STATUS:               ID:20160313070310 L   I
 OLDACT:DUP 16-03-13 18:58 OP:cara STATUS:               ID:20160313065749d    3
 2016-03-13-0657-48M.COL___291                                                 6
 STAT SP IPHASW D HRMM SECON CODA AMPLIT PERI AZIMU VELO AIN AR TRES W  DIS CAZ7
 BAR2 EZ EP        7 3 27.83                             172   -0.5210 17.5 171 
 BAR2 EZ ES        7 3 42.13                             172   -0.4310 17.5 171 
 BAR2 EZ I         7 3 44.63         3.3 0.28            171           17.5 171 
 PAM  EN ES        7 3 48.97                             146    0.3010 86.1  41 
 PAM  EZ I         7 3 50.20         2.5 0.24            150           86.1  41 
 RUS  HZ EP        7 3 32.53                             143    0.0710 95.7 172 
 RUS  HE ES        7 3 50.34                             143    0.4510 95.7 172 
 RUS  HZ I         7 3 52.08         1.5 0.32            144           95.7 172 
 PTB  HZ EP        7 3 35.02                             131   -0.50 9  140 261 
 PTB  HN ES        7 3 55.29                             131   -0.04 9  140 261 
 PTB  HZ I         7 3 58.84         2.4 0.54            132            140 261 
 ZAR  HZ EP        7 3 41.67                             120    0.20 9  200 294 
 ZAR  HN ES        7 4  6.36                             120    0.44 9  200 294 
 ZAR  HZ I         7 4  7.82         2.1 0.12            122            200 294 
 CHI  HZ EP        7 3 46.47                             116    0.02 8  241 194 
 CHI  HN ES        7 4 14.98                             116    0.19 8  241 194 
 CHI  HZ I         7 4 19.79         0.5 0.64            117            241 194 
                                                                                
