 2012  313 0239  5.3 L   6.751 -73.164145.6  RSN 12 0.4 2.3LRSN                1
 GAP=136        0.92       3.9     4.3  6.2 -0.2253E+01  0.6383E+01  0.3442E+01E
 ACTION:UP  12-03-31 23:19 OP:EP   STATUS:               ID:20120313023905 L   I
 2012-03-13-0236-48M.COL___181                                                 6
 STAT SP IPHASW D HRMM SECON CODA AMPLIT PERI AZIMU VELO SNR AR TRES W  DIS CAZ7
 BAR2 SZ EP   1    239 24.84                             173     0.1 8   18 187 
 BAR2 SZ ES   1    239 40.43                             173     0.4 8   18 187 
 BAR2 SZ I         239 42.60        57.9 0.24                            18 187 
 BRR  HZ EP   1    239 26.74                             152     0.3 8   72 303 
 BRR  HZ I         239 27.03        40.6 0.20                            72 303 
 BRR  HN ES   1    239 43.69                             152     0.7 8   72 303 
 PAM  SZ EP   1    239 27.63                             149    -0.2 8   83  38 
 PAM  SZ I         239 27.91        30.5 0.22                            83  38 
 PAM  SN ES   1    239 44.68                             149    -0.7 8   83  38 
 RUS  HZ EP   1    239 28.90                             145     0.3 8   95 175 
 RUS  HN ES   1    239 46.50                             145    -0.3 8   95 175 
 RUS  HZ I         239 48.73        18.9 0.29                            95 175 
 PTB  HZ EP   1    239 31.45                             133    -0.5 7  145 261 
 PTB  HN ES        239 52.61                             133    -0.210  145 261 
 PTB  HZ I         240  0.20        19.1 0.29                           145 261 
 OCA  SZ EP   1    239 34.12                             129     0.1 7  165 354 
 OCA  SZ ES   1    239 56.84                             129     0.3 7  165 354 
 ZAR  HZ EP   1    239 37.31                             122    -0.4 7  204 294 
 ZAR  HN ES   1    240  2.59                             122    -0.5 7  204 294 
 ZAR  HZ I         240 10.59         8.4 0.15                           204 294 
 NOR  SZ EP   1    239 40.35                             119    -0.1 7  230 235 
 NOR  SN ES   1    240  7.90                             119     0.0 7  230 235 
 CHI  HZ EP   1    239 42.23                             118    -0.1 6  243 195 
 CHI  HN ES   2    240 11.24                             118     0.0 4  243 195 
 CHI  HZ I         240 20.43        10.1 0.29                           243 195 
 HEL  HZ EP   1    239 46.05                             115     0.9 6  269 257 
 HEL  HN ES   1    240 15.71                             115    -0.5 6  269 257 
 HEL  HZ I         240 23.24         9.4 0.29                           269 257 
 RREF HZ EP   1    239 51.46                             111     0.6 6  317 230 
 RREF HZ I         240 34.43        12.5 0.31                           317 230 
 PRA  HZ EP   1    239 58.26                             107     0.1 5  386 210 
 PRA  HZ I         240 47.21        25.4 0.24                           386 210 
                                                                                
