 2013  913 0648 58.3 L   6.511 -74.112 16.3  RSN  6 0.3 1.9LRSN                1
 GAP=119        0.82       2.0     1.9  4.8  0.2262E-01 -0.4105E+01 -0.1827E+01E
 Epicentro: PUERTO PARRA - SANTANDER                                           3
 ACTION:UPD 13-10-22 09:22 OP:ep   STATUS:               ID:20130913064858 L   I
 OLDACT:DUP 13-09-13 11:06 OP:carl STATUS:               ID:20130913063960d    3
 2013-09-13-0639-59M.COL___269                                                 6
 STAT SP IPHASW D HRMM SECON CODA AMPLIT PERI AZIMU VELO AIN AR TRES W  DIS CAZ7
 PTB  HZ IP     C  649  4.89                             110   -0.1010 38.2 275 
 PTB  HN ES        649 10.47                             110    0.2410 38.2 275 
 PTB  HZ I         649 10.61       269.5 0.14            107           38.2 275 
 BRR  HZ EP        649 10.84                              99   -0.1810 79.3  34 
 BRR  HN ES        649 20.93                              99   -0.0510 79.3  34 
 BRR  HZ I         649 21.66        11.2 0.44             98           79.3  34 
 SPBC HN ES        649 25.12                              98   -0.2410 95.1 177 
 BAR2 SZ EP        649 15.17                              97    0.3210  103  85 
 BAR2 SZ ES        649 27.60                              97   -0.1910  103  85 
 BAR2 SZ I         649 28.99        35.1 0.20             96            103  85 
 RUS  HZ EP        649 19.88                              96    0.3010  133 121 
 RUS  HN ES        649 36.35                              96    0.1410  133 121 
 PAM  SZ EP        649 24.94                              56   -0.73 9  181  60 
 PAM  SN ES        649 47.54                              56    0.48 9  181  60 
 PAM  SZ I         649 48.84        13.2 0.88             56            181  60 
                                                                                
