 2014  113 0034 28.9 L   6.809 -73.147148.0  RSN 20 0.5 2.5LRSN                1
 GAP= 71        0.93       2.5     2.8  4.7 -0.6840E+00  0.3533E+01 -0.1445E+00E
 Epicentro: LOS SANTOS - SANTANDER                                             3
 ACTION:UPD 14-03-13 09:54 OP:ep   STATUS:               ID:20140113003428 L   I
 OLDACT:REG 14-01-13 07:34 OP:cam  STATUS:               ID:20140113003000     3
 2014-01-13-0030-00M.COL___285                                                 6
 STAT SP IPHASW D HRMM SECON CODA AMPLIT PERI AZIMU VELO AIN AR TRES W  DIS CAZ7
 BAR2 SZ EP        034 48.86                             170    0.0410 24.2 189 
 BAR2 SZ ES        035  3.89                             170   -0.4710 24.2 189 
 BAR2 SZ I         035  6.52       145.8 0.32            168           24.2 189 
 BRR  HZ IP     C  034 50.67                             153    0.4110 70.6 298 
 BRR  HN ES   1    035  8.14                             153    1.22 7 70.6 298 
 BRR  HZ I         035 13.80        35.4 0.14            150           70.6 298 
 PAM  SZ IP     C  034 51.54                             151    0.2210 76.8  40 
 PAM  SN ES        035  8.96                             151    0.1510 76.8  40 
 PAM  SZ I         035 11.05        44.2 0.54            156           76.8  40 
 RUS  HZ IP     D  034 52.67                             144   -0.2710  102 176 
 RUS  HN ES        035 11.54                             144   -0.1610  102 176 
 RUS  HZ I         035 12.38        33.5 0.40            146            102 176 
 PTB  HZ EP        034 55.44                             132   -0.61 9  148 258 
 PTB  HE ES   1    035 16.59                             132   -0.64 7  148 258 
 PTB  HZ I         035 24.05        64.5 0.54            132            148 258 
 TAM  HZ EP     C  034 56.99                             131    0.19 9  156 105 
 TAM  HN ES        035 18.74                             131    0.18 9  156 105 
 OCA  HZ EP        034 56.96                             130   -0.34 9  159 353 
 OCA  HE ES   1    035 19.34                             130   -0.11 7  159 353 
 OCA  HZ I         035 24.36        39.7 0.32            132            159 353 
 SPBC HZ EP        034 57.74                             129    0.11 9  164 219 
 SPBC HN ES        035 19.73                             129   -0.31 9  164 219 
 SPBC HZ I         035 25.46        61.3 0.50            130            164 219 
 ZAR  HZ EP   1    035  2.23                             123    0.79 6  204 292 
 ZAR  HE ES        035 27.25                             123    0.43 9  204 292 
 ZAR  HZ I         035 33.81        37.9 0.30            123            204 292 
 NOR  HZ EP        035  4.67                             119   -0.14 8  235 234 
 NOR  HE ES        035 32.38                             119   -0.43 8  235 234 
 NOR  HZ I         035 36.40        35.1 0.18            120            235 234 
 SML  HZ EP   1    035  5.18                             118   -0.37 6  243 335 
 SML  HN ES   1    035 33.63                             118   -0.51 6  243 335 
 CHI  HZ EP        035  6.76                             117   -0.06 8  250 195 
 CHI  HE ES   1    035 36.33                             117   -0.06 6  250 195 
 CHI  HZ I         035 45.96        14.6 0.76            119            250 195 
 ROSC BZ EP   4    035  8.48                             117    1.26 0  253 211 
 ROSC BE ES   4    035 39.39                             117    2.28 0  253 211 
 HEL  HZ EP   1    035  9.96                             115    0.72 6  272 256 
 HEL  HN ES   1    035 41.02                             115    0.32 6  272 256 
 HEL  HZ I         035 46.97        13.7 0.28            116            272 256 
 URE  HZ EP   1    035  9.66                             114   -0.36 6  283 292 
 URE  HE ES   4    035 41.07                             114   -1.03 0  283 292 
 URE  HZ I         035 52.79        17.7 0.28            115            283 292 
 GUY2CHZ EP   1    035 13.59                             113    0.93 5  302 235 
 GUY2CHN ES   4    035 48.60                             113    1.81 0  302 235 
 GUY2CHZ I         035 55.64        29.5 0.76                           302 235 
 PTGC HZ EP   4 D  035 11.65                             112   -1.32 0  310 159 
 PTGC HN ES   4    035 44.81                             112   -2.53 0  310 159 
 RREF HZ EP   4    035 16.03                             111    0.83 0  322 229 
 RREF HN ES   4    035 53.79                             111    2.48 0  322 229 
 RREF HZ I         035 59.81        19.8 0.24            112            322 229 
 DBB  SZ EP   2    035 17.19                             110    0.75 3  339 274 
 COD  HZ EP   2    035 16.67                             109   -0.59 3  347 355 
 COD  HN ES   1    035 54.17                             109   -0.80 5  347 355 
 COD  HZ I         036  0.97         7.6 0.54            111            347 355 
 ORTC HZ EP   1    035 23.32                             107    0.34 4  396 216 
 ORTC HN ES   1    036  5.92                             107    0.77 4  396 216 
 ORTC HZ I         036 12.57        13.3 0.44            108            396 216 
 SJC  HZ EP   4    035 23.12                             106   -1.31 0  408 327 
 SJC  HN ES   4    036  4.39                             106   -3.36 0  408 327 
 SJC  HZ I         036  8.74         6.1 0.34            107            408 327 
                                                                                
