 2011 1013 0508 27.4 L   6.769 -73.085137.5  RSN  4 0.2 1.3LRSN                1
 GAP=146        0.48       3.2     4.7  6.2 -0.1274E+01 -0.3641E+01  0.1933E+01E
 Epicentro: LOS SANTOS - SANTANDER                                             3
 ACTION:UPD 12-07-13 16:03 OP:ep   STATUS:               ID:20111013050827 L   I
 2011-10-13-0506-01S.COL___168                                                 6
 STAT SP IPHASW D HRMM SECON CODA AMPLIT PERI AZIMU VELO AIN AR TRES W  DIS CAZ7
 BAR2 SZ EP   1    5 8 45.86                             170   -0.17 7 22.4 209 
 BAR2 SZ I         5 8 51.04         7.3 0.62                          22.4 209 
 PAM  SZ EP        5 8 48.90                             150    0.2310 76.0  34 
 PAM  SN ES   1    5 9  5.06                             150   -0.19 7 76.0  34 
 BRR  HZ EP   1    5 8 47.82                             148   -0.32 7 78.7 298 
 BRR  HZ I         5 8 48.21         8.0 0.13                          78.7 298 
 BRR  HE ES   1    5 9  4.49                             148    0.19 7 78.7 298 
 RUS  HZ EP   1    5 8 50.17                             143    0.08 7 97.0 180 
 RUS  HN ES   1    5 9  7.79                             143    0.01 7 97.0 180 
 RUS  HZ I         5 9  9.55         1.6 0.41                          97.0 180 
                                                                                
