 2014  713 0354  8.3 L   6.729 -73.148139.8  RSN  7 0.5 1.7LRSN                1
 GAP=139        1.11       5.0     5.1  7.6  0.1773E+01  0.7660E+01 -0.5975E+01E
 Epicentro: JORDAN - SANTANDER                                                 3
 ACTION:UPD 15-03-16 20:43 OP:nd   STATUS:               ID:20140713035408 L   I
 OLDACT:UP  14-07-28 10:52 OP:CAM  STATUS:               ID:20140713035408 L   3
 OLDACT:DUP 14-07-13 16:52 OP:stll STATUS:               ID:20140713034814d    3
 2014-07-13-0348-13M.COL___253                                                 6
 STAT SP IPHASW D HRMM SECON CODA AMPLIT PERI AZIMU VELO AIN AR TRES W  DIS CAZ7
 BAR2 SZ EP        354 27.51                             173    0.4210 15.6 194 
 BAR2 SZ ES        354 41.89                             173    0.1510 15.6 194 
 BAR2 SZ I         354 44.87         9.0 0.38            171           15.6 194 
 BRR  HZ EP        354 29.21                             150    0.1510 75.1 304 
 BRR  HZ I         354 29.62        18.0 0.22            150           75.1 304 
 BRR  HN ES   1    354 45.98                             150    0.75 7 75.1 304 
 PAM  SZ EP        354 30.19                             147   -0.1110 83.7  36 
 PAM  SN ES   2    354 46.94                             147   -0.51 5 83.7  36 
 PAM  SZ I         354 49.86         7.0 0.24            154           83.7  36 
 RUS  HZ EP        354 31.36                             145    0.4410 92.7 176 
 RUS  HN ES        354 47.68                             145   -0.8710 92.7 176 
 RUS  HZ I         354 53.45         4.0 0.24            148           92.7 176 
 PTB  HZ EP        354 34.33                             131   -0.33 9  146 262 
 PTB  HN ES        354 55.17                             131   -0.04 9  146 262 
 PTB  HZ I         355  2.59        11.4 0.30            132            146 262 
 SPBC HZ EP        354 36.40                             129    0.63 9  157 221 
 SPBC HN ES        354 57.18                             129   -0.00 9  157 221 
 SPBC HZ I         355  2.37        11.0 0.22            131            157 221 
 ZAR  HZ EP        354 40.05                             121   -0.63 8  207 294 
 ZAR  HN ES        355  5.62                             121   -0.31 8  207 294 
 ZAR  HZ I         355 13.71         5.1 0.12            123            207 294 
                                                                                
