 2016  313 0715 35.1 L   6.567 -73.450117.7  RSN  5 0.1 1.1LRSN                1
 GAP=136        0.44       2.1     1.9  3.5 -0.1571E+01  0.1581E+01 -0.1092E+01E
 Epicentro: EL CARMEN - SANTANDER                                              3
 ACTION:UPD 16-05-13 21:23 OP:cam  STATUS:               ID:20160313071535 L   I
 OLDACT:REG 16-03-13 14:18 OP:cara STATUS:               ID:20160313070750     3
 2016-03-13-0707-50M.COL___291                                                 6
 STAT SP IPHASW D HRMM SECON CODA AMPLIT PERI AZIMU VELO AIN AR TRES W  DIS CAZ7
 BAR2 EZ IP        715 51.59                             165    0.0610 29.7  85 
 BAR2 EZ ES        716  4.16                             165   -0.2010 29.7  85 
 BAR2 EZ I         716  5.42         5.7 0.50            167           29.7  85 
 RUS  HZ EP        715 54.89                             142   -0.0610 84.9 151 
 RUS  HN ES        716 10.60                             142    0.1510 84.9 151 
 RUS  HZ I         716 11.66         3.7 0.22            143           84.9 151 
 PTB  HZ EP        715 56.44                             133   -0.0210  111 268 
 PTB  HE ES        716 13.23                             133    0.0810  111 268 
 PTB  HZ I         716 15.41         1.9 0.10            133            111 268 
 PAM  EZ EP        715 57.57                             132   -0.2310  119  44 
 PAM  EZ I         715 59.29         1.6 0.12            134            119  44 
 PAM  EN ES        716 15.73                             132    0.2110  119  44 
 SPBC HZ EP        715 57.70                             131    0.1310  122 214 
 SPBC HN ES        716 14.99                             131   -0.1210  122 214 
 SPBC HZ I         716 20.26         2.7 0.12            130            122 214 
                                                                                
