 2013  413 0248 33.8 L   6.801 -73.169144.3  RSN  7 0.4 1.6LRSN                1
 GAP=134        0.96       3.9     4.7  6.3  0.4013E+00  0.4825E+01 -0.5285E+01E
 Epicentro: LOS SANTOS - SANTANDER                                             3
 ACTION:UPD 13-05-22 14:37 OP:EP   STATUS:               ID:20130413024833 L   I
 2013-04-13-0238-48M.COL___218                                                 6
 STAT SP IPHASW D HRMM SECON CODA AMPLIT PERI AZIMU VELO AIN AR TRES W  DIS CAZ7
 BAR2 SZ IP        248 53.41                             170    0.1610 23.2 184 
 BAR2 SZ I         248 53.66        10.6 0.30            171           23.2 184 
 BAR2 SZ ES        249  7.95                             170   -0.4710 23.2 184 
 GIR2 SZ EP        248 53.32                             167    0.0410 30.8 355 
 GIR2 SZ I         249  9.25         3.6 0.46            166           30.8 355 
 BRR  HZ EP        248 55.12                             153    0.4610 68.9 299 
 BRR  HN ES        249 11.53                             153    0.6010 68.9 299 
 BRR  HN I         249 15.68        12.2 0.18            151           68.9 299 
 PAM  SZ EP        248 56.19                             150    0.2410 78.9  41 
 PAM  SZ I         248 56.44         4.3 0.24            151           78.9  41 
 PAM  SN ES        249 13.23                             150    0.0110 78.9  41 
 RUS  HZ EP        248 57.72                             143    0.2910  101 175 
 RUS  HN ES        249 15.41                             143   -0.4510  101 175 
 RUS  HN I         249 17.03         5.9 0.18            145            101 175 
 PTB  HZ EP        249  0.35                             132   -0.07 9  145 259 
 PTB  HN ES        249 21.08                             132   -0.11 9  145 259 
 PTB  HN I         249 26.37         7.5 0.22            131            145 259 
 SML  HZ EP        249  9.65                             117   -0.56 8  243 336 
 SML  HN ES        249 38.02                             117   -0.59 8  243 336 
                                                                                
