 2011  213 0958 51.1 L   6.804 -73.107149.8  RSN 15 0.5 3.8LRSN                1
 GAP=105        0.84       3.5     5.4  6.6 -0.6998E+01  0.5934E+01  0.2542E+01E
 Epicentro: LOS SANTOS - SANTANDER                                             3
 ACTION:UP  11-03-28 15:08 OP:jfem STATUS:               ID:20110213095851 L   I
 2011-02-13-0956-45S.COL___136                                                 6
 STAT SP IPHASW D HRMM SECON CODA AMPLIT PERI AZIMU VELO SNR AR TRES W  DIS CAZ7
 BTL  SZ EP   1    959 11.38                             171     0.2 7   22 305 
 BTL  SZ ES   2    959 27.13                             171     0.3 5   22 305 
 BAR2 SZ IP        959 11.25                             170     0.010   25 200 
 BAR2 SZ ES   2    959 26.72                             170    -0.2 5   25 200 
 BAR2 SZ I         959 29.96      1539.8 0.49                            25 200 
 RUS  HZ EP   1    959 15.12                             144    -0.1 7  101 179 
 RUS  HN ES   2    959 33.71                             144    -0.4 5  101 179 
 RUS  HZ I         959 35.74       990.0 0.48                           101 179 
 GUE  SZ EP   1    959 16.44                             140     0.4 7  115  10 
 GRA  SZ EP   1    959 16.06                             138    -0.5 7  124  16 
 GRA  SZ ES   2    959 35.88                             138    -0.5 5  124  16 
 GRA  SZ I         959 37.86       725.4 0.33                           124  16 
 OCA  SZ EP   1    959 20.00                             130     0.3 7  160 352 
 OCA  SZ ES   2    959 42.71                             130     0.7 5  160 352 
 OCA  SZ I         959 47.83       809.3 0.36                           160 352 
 YOP  SZ EP   1    959 21.67                             127     0.4 7  178 155 
 YOP  SN ES   2    959 44.84                             127     0.0 4  178 155 
 YOP  SZ I         959 49.93       529.4 0.59                           178 155 
 NOR  SZ EP   1    959 27.06                             119    -0.4 6  239 235 
 NOR  SE ES   2    959 55.29                             119    -0.6 4  239 235 
 CHI  HZ EP   1    959 29.01                             118    -0.2 6  250 196 
 CHI  HE ES   2    959 57.87                             118    -1.0 4  250 196 
 CHI  HZ I        10 0  4.63       385.9 0.44                           250 196 
 ROSC BZ IP     C  959 30.61                             117     0.9 8  255 212 
 ROSC BN ES   2   10 0  0.06                             117     0.2 4  255 212 
 ROSC BZ I        10 0  4.60       921.4 0.52                           255 212 
 HEL  HZ EP   1    959 31.30                             115    -0.7 6  276 256 
 HEL  HN ES   2   10 0  3.58                             115    -0.3 4  276 256 
 HEL  HZ I        10 0  9.44       366.6 0.35                           276 256 
 VIL  SZ EP   1    959 35.15                             113     0.5 5  303 191 
 VIL  SN ES   2   10 0  8.74                             113     0.1 4  303 191 
 VIL  SZ I        10 0 14.35       314.6 0.44                           303 191 
 GUY  SZ EP   1    959 35.34                             113     0.0 5  305 235 
 RREF HZ EP   1    959 37.08                             111    -0.7 5  325 230 
 RREF HE ES   2   10 0 15.02                             111     0.8 3  325 230 
 RREF HZ I        10 0 21.43       490.2 0.46                           325 230 
 SDV  BZ EP   1    959 40.49                             109    -0.4 5  357  50 
 SDV  BE ES   2   10 0 19.22                             109    -0.5 3  357  50 
 SDV  BZ I        10 0 23.33       154.8 0.54                           357  50 
                                                                                
