 2013  713 0941 40.5 L   6.766 -73.165155.7  RSN  5 0.5 1.4LRSN                1
 GAP=199        1.26       6.7     9.3  9.3  0.2575E+02 -0.4342E+01 -0.2014E+02E
 Epicentro: LOS SANTOS - SANTANDER                                             3
 ACTION:UPD 13-08-12 10:37 OP:ep   STATUS:               ID:20130713094140 L   I
 OLDACT:REG 13-07-13 09:49 OP:nd   STATUS:               ID:20130713093959     3
 2013-07-13-0939-59M.COL___267                                                 6
 STAT SP IPHASW D HRMM SECON CODA AMPLIT PERI AZIMU VELO AIN AR TRES W  DIS CAZ7
 BAR2 SZ EP        942  1.42                             173    0.1810 19.3 186 
 BAR2 SZ ES        942 16.78                             173   -0.6510 19.3 186 
 BAR2 SZ I         942 18.00         7.2 0.18            167           19.3 186 
 BRR  HZ EP        942  3.03                             154    0.3110 71.3 302 
 BRR  HN ES        942 20.84                             154    0.7810 71.3 302 
 BRR  HZ I         942 23.53         5.8 0.30            149           71.3 302 
 RUS  HZ EP        942  5.58                             147    0.6010 97.0 175 
 RUS  HN ES        942 23.80                             147   -0.2910 97.0 175 
 RUS  HZ I         942 25.05         1.7 0.20            146           97.0 175 
 PTB  HZ EP        942  7.32                             135   -0.72 9  145 260 
 PTB  HN ES        942 29.59                             135    0.06 9  145 260 
 PTB  HZ I         942 36.83         2.2 0.42            131            145 260 
 SML  HZ EP        942 17.96                             119    0.00 8  246 336 
 SML  HN ES        942 46.64                             119   -0.55 8  246 336 
 SML  HZ I         942 48.65         2.0 0.24            120            246 336 
                                                                                
