 2016 1113 0101 57.3 L   6.638 -73.103145.1  RSN  4 0.4 1.3LRSN                1
 GAP=210        1.01      10.4     6.4  8.3 -0.3324E+02  0.2087E+01  0.1329E+02E
 Epicentro: CURITI - SANTANDER                                                 3
 ACTION:UPD 17-10-26 21:07 OP:lp   STATUS:               ID:20161113010157 L   I
 OLDACT:DUP 16-11-13 14:51 OP:and  STATUS:               ID:20161113005745d    3
 2016-11-13-0058-00M.COL___340                                                 6
 STAT SP IPHASW D HRMM SECON CODA AMPLIT PERI AZIMU VELO AIN AR TRES W  DIS CAZ7
 BAR2 EZ EP        1 2 16.62                             176   -0.0410 10.1 240 
 BAR2 EZ ES        1 2 32.02                             176    0.2610 10.1 240 
 BAR2 EZ I         1 2 33.50         6.4 0.36            177           10.1 240 
 BRR  HZ EP        1 2 19.55                             148    0.3310 85.0 308 
 BRR  HN ES        1 2 36.80                             148    0.4910 85.0 308 
 PAM  EZ EP        1 2 20.32                             147    0.1110 89.4  30 
 PAM  EN ES        1 2 37.50                             147   -0.5810 89.4  30 
 PAM  EZ I         1 2 40.62         2.9 0.48            148           89.4  30 
 PTB  HZ EP        1 2 24.46                             131    0.03 9  150 266 
 PTB  HN ES        1 2 44.91                             131   -0.68 9  150 266 
 PTB  HZ I         1 2 46.18         2.4 0.14            133            150 266 
                                                                                
