 2012 1213 0227 11.7 L   6.738 -73.188143.1  RSN  6 0.2 1.5LRSN                1
 GAP=134        0.64       3.9     3.4  4.9  0.5071E+01 -0.3288E+00 -0.3500E+01E
 Epicentro: VILLANUEVA - SANTANDER                                             3
 ACTION:UPD 13-01-04 14:27 OP:ep   STATUS:               ID:20121213022711 L   I
 2012-12-13-0220-00M.COL___242                                                 6
 STAT SP IPHASW D HRMM SECON CODA AMPLIT PERI AZIMU VELO AIN AR TRES W  DIS CAZ7
 BAR2 SZ EP        227 30.60                             173   -0.2410 16.1 178 
 BAR2 SZ ES        227 46.04                             173    0.2410 16.1 178 
 BAR2 SZ I         227 53.77         4.6 0.60                          16.1 178 
 BRR  HZ EP        227 32.91                             152    0.4110 70.8 305 
 BRR  HN ES        227 48.65                             152   -0.1010 70.8 305 
 BRR  HN I         227 50.33         9.6 0.38                          70.8 305 
 PAM  SZ EP        227 33.82                             148   -0.2910 85.7  39 
 RUS  HZ EP        227 34.79                             145    0.1010 94.2 173 
 RUS  HN ES        227 52.64                             145   -0.0210 94.2 173 
 RUS  HN I         227 54.78         1.8 0.20                          94.2 173 
 PTB  HZ EP        227 38.00                             133    0.12 9  142 261 
 PTB  HN ES        227 57.99                             133   -0.34 9  142 261 
 PTB  HN I         228  3.95         5.5 0.58                           142 261 
 ZAR  HE ES        228  8.94                             122    0.14 9  202 294 
 ZAR  HE I         228 15.25         8.0 0.38                           202 294 
                                                                                
