 2017  213 0146  0.5 L   6.787 -73.127142.6  RSN  6 0.2 1.4LRSN                1
 GAP=140        0.46       2.4     2.3  3.0  0.1125E+01  0.5935E+00 -0.7139E+00E
 Epicentro: LOS SANTOS - SANTANDER                                             3
 ACTION:UPD 17-05-24 15:35 OP:jn   STATUS:               ID:20170213014600 L   I
 OLDACT:UP  17-02-13 14:45 OP:edw  STATUS:               ID:20170213013749     3
 OLDACT:UP  17-02-13 14:43 OP:edw  STATUS:               ID:20170213013749     3
 OLDACT:REG 17-02-13 11:31 OP:edw  STATUS:               ID:20170213013749     3
 2017-02-13-0138-00M.COL___352                                                 6
 STAT SP IPHASW D HRMM SECON CODA AMPLIT PERI AZIMU VELO AIN AR TRES W  DIS CAZ7
 BAR2 EZ EP        146 19.57                             171   -0.1710 22.4 196 
 BAR2 EZ ES        146 35.04                             171    0.3010 22.4 196 
 BAR2 EZ I         146 35.47         6.9 0.30            171           22.4 196 
 BRR  HN EP        146 21.31                             151   -0.1510 73.7 299 
 BRR  HE ES        146 37.75                             151   -0.0610 73.7 299 
 PAM  EZ EP        146 22.47                             150    0.0910 77.2  38 
 PAM  EN ES        146 39.36                             150   -0.0810 77.2  38 
 PAM  EZ I         146 41.45         3.3 0.40            151           77.2  38 
 RUS  HZ EP        146 24.05                             144    0.2210 99.0 177 
 RUS  HN ES        146 41.80                             144   -0.2310 99.0 177 
 RUS  HZ I         146 44.43         2.0 0.20            145           99.0 177 
 PTB  HZ EP   9    146 26.35                             131   -1.03 0  150 260 
 PTB  HN ES        146 47.32                             132    0.01 9  150 260 
 PTB  HZ I         146 48.77         2.9 0.56            130            150 260 
 ZAR  HZ EP        146 33.07                             121    0.06 8  207 292 
 ZAR  HN ES        146 58.39                             121    0.03 8  207 292 
 ZAR  HZ I         147  6.00         4.7 0.22            121            207 292 
                                                                                
