 2017  813 0536 58.7 L   6.761 -73.127149.7  RSN  7 0.2 1.6LRSN                1
 GAP=236        0.62       2.9     3.5  4.1  0.1966E+01  0.3272E+01  0.7857E-01E
 Epicentro: LOS SANTOS - SANTANDER                                             3
 ACTION:UPD 17-09-04 20:19 OP:rebc STATUS:               ID:20170813053658 L   I
 OLDACT:REG 17-08-13 12:07 OP:dhb  STATUS:               ID:20170813052744     3
 2017-08-13-0528-00M.COL___404                                                 6
 STAT SP IPHASW D HRMM SECON CODA AMPLIT PERI AZIMU VELO AIN AR TRES W  DIS CAZ7
 BAR2 EZ EP        537 18.58                             172   -0.1210 19.7 198 
 BAR2 EZ ES        537 34.26                             172   -0.0610 19.7 198 
 BAR2 EZ I         537 35.37        13.3 0.23            168           19.7 198 
 BRR  HZ IP     C  537 20.54                             152    0.0810 75.2 301 
 BRR  HN ES        537 37.84                             152    0.3810 75.2 301 
 BRR  HZ I         537 40.26         8.1 0.12            149           75.2 301 
 RUS  HZ EP        537 22.39                             146   -0.1010 96.2 177 
 RUS  HN ES        537 41.09                             146    0.0110 96.2 177 
 RUS  HZ I         537 42.58         4.2 0.20            146           96.2 177 
 SPBC HZ EP        537 27.45                             130    0.17 9  161 221 
 SPBC HN ES        537 49.23                             130   -0.37 9  161 221 
 SPBC HZ I         537 53.16         3.5 0.15            129            161 221 
 ZAR  HZ EP        537 31.77                             123    0.04 8  208 293 
 ZAR  HN ES        537 57.02                             123   -0.51 8  208 293 
 ZAR  HZ I         538  2.38         3.1 0.13            122            208 293 
 NOR  HZ EP        537 34.63                             119    0.09 8  234 236 
 NOR  HE ES        538  2.93                             119    0.40 8  234 236 
 NOR  HZ I         538  9.24         2.2 0.08            119            234 236 
 GUY2CHZ EP   9    537 44.43                             113    2.06 0  300 236 
 GUY2CHE ES        538 18.38                                   -0.14 7  300 236 
                                                                                
