 2011 1213 0924 38.4 L   6.652 -73.116137.1  RSN  7 0.4 1.7LRSN                1
 GAP=146        0.69       5.7     5.1  7.0 -0.7048E+01  0.1841E+01 -0.4997E+01E
 Epicentro: CURITI - SANTANDER                                                 3
 ACTION:UPD 12-07-13 16:15 OP:ep   STATUS:               ID:20111213092438 L   I
 2011-12-13-0920-00M.COL___185                                                 6
 STAT SP IPHASW D HRMM SECON CODA AMPLIT PERI AZIMU VELO AIN AR TRES W  DIS CAZ7
 BAR2 SZ ES   2    925 11.41                             176    0.31 5 9.82 228 
 BAR2 SZ I         925 15.36         7.8 0.62                          9.82 228 
 GIR2 SZ EP   1    924 57.85                             160    0.23 7 48.0 350 
 BRR  HZ EP        924 59.68                             147    0.3410 82.9 307 
 BRR  HE ES   1    925 15.68                             147    0.00 7 82.9 307 
 BRR  HE I         925 20.52        38.5 0.26                          82.9 307 
 RUS  HZ EP   2    925  0.07                             147   -0.04 5 84.0 177 
 RUS  HE ES   2    925 16.58                             147   -0.48 5 84.0 177 
 PAM  SZ EP   1    925  0.53                             145    0.09 7 88.9  31 
 PAM  SN ES   2    925 17.49                             145   -0.16 5 88.9  31 
 PAM  SZ I         925 19.41         4.6 0.49                          88.9  31 
 PTB  HZ EP        925  4.94                             130    0.19 9  149 265 
 PTB  HN ES   1    925 24.83                             130   -0.48 7  149 265 
 OCA  SZ EP   1    925  6.87                             125   -0.81 7  177 353 
                                                                                
