 2010  713 0837 14.4 L   6.762 -73.101150.1  RSN 11 0.5 2.2LRSN                1
 GAP=161        1.11       4.8     9.7  8.0 -0.1311E+02 -0.1338E+01 -0.3115E+01E
 Epicentro: LOS SANTOS - SANTANDER                                             3
 ACTION:UPD 10-12-01 15:17 OP:pat  STATUS:               ID:20100713083714 L   I
 2010-07-13-0832-56S.COL___120                                                 6
 STAT SP IPHASW D HRMM SECON CODA AMPLIT PERI AZIMU VELO AIN AR TRES W  DIS CAZ7
 BAR2 SZ IP        837 34.38                             172    -0.110   21 206 
 BAR2 SZ ES   1    837 49.70                             172    -0.5 7   21 206 
 BAR2 SZ I         837 50.63        41.2 0.38                            21 206 
 GIR2 SZ EP   2    837 34.51                             166    -0.2 5   36 344 
 GIR2 SZ ES   2    837 51.19                             166     0.6 5   36 344 
 BRR  HZ IP     C  837 36.28                             151    -0.110   78 300 
 BRR  HZ I         837 36.55        96.6 0.15                            78 300 
 BRR  HE ES   1    837 53.83                             151     0.3 7   78 300 
 RUS  HZ IP     D  837 38.23                             146     0.010   96 179 
 RUS  HN ES   1    837 57.02                             146     0.1 7   96 179 
 RUS  HZ I         837 58.23        14.1 0.20                            96 179 
 BRI  SZ IP        837 38.93                             142     0.110  111  18 
 BRI  SZ ES   2    837 57.72                             142    -0.3 5  111  18 
 BRI  SZ I         838  2.02        16.2 0.32                           111  18 
 GUE  SZ EP        837 39.29                             140    -0.510  120   9 
 GUE  SZ I         838  2.33         8.7 0.14                           120   9 
 GRA  SZ IP        837 41.18                             137     0.910  128  15 
 GRA  SZ ES   1    838  0.96                             137     0.5 7  128  15 
 GRA  SZ I         838  3.11        24.3 0.31                           128  15 
 OCA  SZ IP        837 42.86                             130    -0.6 9  165 352 
 OCA  SZ ES   1    838  5.85                             130    -0.3 7  165 352 
 OCA  SZ I         838 10.66        31.9 0.21                           165 352 
 HEL  HZ EP   2    837 56.29                             115     1.0 4  276 257 
 HEL  HZ I         838 33.01        11.4 0.31                           276 257 
 RREF HZ EP   2    838  0.81                             112     0.0 3  323 231 
 RREF HE ES   2    838 37.32                             112     0.2 3  323 231 
 RREF HZ I         838 46.58         9.0 0.25                           323 231 
 PRA  HZ EP   2    838  8.31                             107     0.4 3  391 211 
 PRA  HZ I         838  9.95         5.5 0.26                           391 211 
                                                                                
