 2017  313 0658 37.0 L   6.766 -73.143145.1  RSN  6 0.5 1.2LRSN                1
 GAP=138        1.27       5.9     6.4  8.7 -0.9460E+01  0.8899E+01  0.5237E+01E
 Epicentro: LOS SANTOS - SANTANDER                                             3
 ACTION:UPD 17-05-25 18:39 OP:jn   STATUS:               ID:20170313065837 L   I
 OLDACT:REG 17-03-13 14:30 OP:cog  STATUS:               ID:20170313064740     3
 2017-03-13-0648-00M.COL___387                                                 6
 STAT SP IPHASW D HRMM SECON CODA AMPLIT PERI AZIMU VELO AIN AR TRES W  DIS CAZ7
 BAR2 EZ ES        659 10.67                             172   -0.9910 19.7 193 
 BRR  HZ EP        658 58.33                             152    0.1510 73.3 301 
 BRR  HN ES        659 15.56                             152    0.8510 73.3 301 
 PAM  EZ EP        658 59.20                             150   -0.0910 80.1  38 
 PAM  EE ES        659 16.76                             150    0.0610 80.1  38 
 PAM  EZ I         659 20.19         1.9 0.30            151           80.1  38 
 RUS  HZ EP        659  0.26                             145   -0.1410 96.8 176 
 RUS  HN ES        659 19.19                             145    0.5210 96.8 176 
 RUS  HZ I         659 20.12         2.6 0.32            148           96.8 176 
 PTB  HZ EP        659  3.59                             132   -0.27 9  147 260 
 PTB  HN ES        659 24.25                             132   -0.57 9  147 260 
 PTB  HZ I         659 30.26         2.8 0.62            133            147 260 
 SPBC HZ EP        659  5.31                             129    0.14 9  160 220 
 SPBC HN ES        659 27.47                             129    0.31 9  160 220 
                                                                                
