 2016 1113 0110 49.6 L   6.001 -73.726122.1  RSN  4 0.1 1.8LRSN                1
 GAP=207        0.41       3.1     2.4  4.6 -0.4581E+01 -0.2202E+01  0.5763E+01E
 Epicentro: BOLIVAR - SANTANDER                                                3
 ACTION:UPD 17-10-26 21:07 OP:lp   STATUS:               ID:20161113011049 L   I
 OLDACT:UP  16-11-13 15:08 OP:and  STATUS:               ID:20161113010750     3
 OLDACT:REG 16-11-13 12:37 OP:and  STATUS:               ID:20161113010750     3
 2016-11-13-0108-00M.COL___340                                                 6
 STAT SP IPHASW D HRMM SECON CODA AMPLIT PERI AZIMU VELO AIN AR TRES W  DIS CAZ7
 BAR2 EZ EP        111  9.85                             142    0.0410 88.8  43 
 BAR2 EZ ES        111 25.53                             142   -0.0610 88.8  43 
 BAR2 EZ I         111 26.31        19.1 0.18            146           88.8  43 
 PTB  HZ EP        111 10.21                             138   -0.2010  100 306 
 PTB  HN ISg       111 26.64                             138   -0.0210  100 306 
 PTB  HZ I         111 28.76         5.4 0.18            141            100 306 
 BRR  HZ EP        111 12.51                             132    0.2210  122   1 
 BRR  HN ES        111 30.01                             132    0.0110  122   1 
 NOR  HZ EP        111 13.49                             129   -0.11 9  136 249 
 NOR  HN ES        111 32.47                             129    0.14 9  136 249 
 NOR  HZ I         111 35.40        14.4 0.30            131            136 249 
 PAM  EN ES   4    111 44.51                             119    1.96 0  187  37 
                                                                                
