 2011  213 0527 27.3 L   6.859 -73.062162.7  RSN  5 0.3 1.6LRSN                1
 GAP=167        0.66       5.5    11.1 11.6 -0.3329E+02  0.4250E+02  0.1083E+01E
 Epicentro: LOS SANTOS - SANTANDER                                             3
 ACTION:UP  11-03-28 15:08 OP:jfem STATUS:               ID:20110213052727 L   I
 2011-02-13-0526-13S.COL___136                                                 6
 STAT SP IPHASW D HRMM SECON CODA AMPLIT PERI AZIMU VELO SNR AR TRES W  DIS CAZ7
 BTL  SZ EP   1    527 49.59                             171     0.6 7   24 286 
 RUS  HZ EP   1    527 53.27                             146     0.0 7  107 181 
 RUS  HN ES   2    528 13.28                             146    -0.1 5  107 181 
 RUS  HZ I         528 14.93         5.5 0.36                           107 181 
 GRA  SZ EP   1    527 53.00                             143    -0.5 7  117  14 
 GRA  SZ ES   2    528 13.88                             143     0.0 5  117  14 
 GRA  SZ I         528 15.05         5.8 0.47                           117  14 
 NOR  SZ EP   1    528  5.56                             121     0.3 6  246 235 
 NOR  SE ES   2    528 34.42                             121    -0.5 4  246 235 
 CHI  HZ EP   1    528  6.84                             120    -0.1 6  257 197 
 CHI  HZ I         528  8.27         1.9 0.28                           257 197 
 CHI  HE ES   2    528 37.63                             120    -0.2 4  257 197 
                                                                                
