 2012  513 0455 54.7 L   6.722 -73.197150.0  RSN  4 0.3 1.4LRSN                1
 GAP=225        0.52       6.2     7.3  7.9  0.2532E+02 -0.1202E+02 -0.1450E+02E
 Epicentro: VILLANUEVA - SANTANDER                                             3
 ACTION:UP  12-07-05 12:04 OP:pat  STATUS:               ID:20120513045554 L   I
 2012-05-13-0450-00M.COL___195                                                 6
 STAT SP IPHASW D HRMM SECON CODA AMPLIT PERI AZIMU VELO SNR AR TRES W  DIS CAZ7
 BAR2 SZ EP        456 14.73                             174     0.110   14 174 
 BAR2 SZ I         456 26.62         6.4 0.62                            14 174 
 BRR  HZ EP        456 16.00                             154    -0.310   71 307 
 BRR  HN ES   1    456 33.36                             154     0.3 7   71 307 
 BRR  HZ I         456 37.83         4.1 0.30                            71 307 
 RUS  HZ EP   3    456 19.18                             147     0.9 2   93 172 
 RUS  HN ES   1    456 36.63                             147    -0.1 7   93 172 
 PTB  HZ EP   2    456 21.45                             135     0.1 5  141 262 
 PTB  HN ES   2    456 42.10                             135    -0.1 5  141 262 
                                                                                
