 2011  313 0147 55.7 L   6.772 -73.129133.5  RSN  9 0.3 1.8LRSN                1
 GAP=161        0.50       2.1     3.2  5.0 -0.1821E+01  0.8248E+01 -0.2585E+00E
 Epicentro: LOS SANTOS - SANTANDER                                             3
 ACTION:UP  11-06-16 14:33 OP:jfem STATUS:               ID:20110313014755 L   I
 2011-03-13-0144-48S.COL___134                                                 6
 STAT SP IPHASW D HRMM SECON CODA AMPLIT PERI AZIMU VELO SNR AR TRES W  DIS CAZ7
 BAR2 SZ ES   3    148 27.60                             171    -0.4 2   21 197 
 RUS  HZ EP        148 17.95                             142    -0.110   97 177 
 RUS  HE ES        148 35.49                             142     0.010   97 177 
 RUS  HZ I         148 38.40        12.7 0.33                            97 177 
 GRA  SZ EP   1    148 20.18                             134     0.1 7  128  16 
 GRA  SZ ES   1    148 39.37                             134     0.2 7  128  16 
 GRA  SZ I         148 41.20        12.3 0.24                           128  16 
 OCA  SZ ES   1    148 44.75                             126    -0.3 7  164 353 
 OCA  SZ I         148 47.83         8.1 0.19                           164 353 
 NOR  SZ EP   1    148 30.60                             116    -0.2 6  235 235 
 NOR  SE ES   1    148 58.12                             116     0.0 6  235 235 
 NOR  SZ I         149  2.03         0.8 0.22                           235 235 
 CHI  HZ I         148 31.32         9.1 0.54                           246 196 
 CHI  HZ EP   1    148 32.71                             115     0.2 6  246 196 
 HEL  HZ EP        148 35.49                             112     0.0 8  273 257 
 HEL  HE ES        149  6.61                             112     0.1 8  273 257 
 HEL  HZ I         149 13.65         5.6 0.28                           273 257 
 GUY  SZ EP   2    148 39.74                             110     1.0 4  301 236 
 GUY  SN ES   2    149 12.32                             110    -0.1 4  301 236 
 PRA  HZ EP        148 48.19                             104    -0.4 6  390 210 
 PRA  HN ES   2    149 29.76                             104    -0.2 3  390 210 
                                                                                
