 2016  113 0521 46.9 L   6.776 -73.155149.9  RSN  5 0.3 1.2LRSN                1
 GAP=136        0.88       4.3     4.5  7.1 -0.5146E+01  0.2217E+01  0.5039E+01E
 Epicentro: LOS SANTOS - SANTANDER                                             3
 ACTION:UPD 16-03-09 23:24 OP:cam  STATUS:               ID:20160113052146 L   I
 OLDACT:REG 16-01-13 12:07 OP:drio STATUS:               ID:20160113051743     3
 2016-01-13-0517-43M.COL___328                                                 6
 STAT SP IPHASW D HRMM SECON CODA AMPLIT PERI AZIMU VELO AIN AR TRES W  DIS CAZ7
 BRR  HZ EP        522  8.80                             153    0.2910 71.7 301 
 BRR  HN ES        522 25.97                             153    0.5910 71.7 301 
 BRR  HZ I         522 29.28         2.9 0.14            153           71.7 301 
 PAM  EZ EP        522  9.68                             151   -0.0310 80.1  39 
 PAM  EE ES        522 27.10                             151   -0.4010 80.1  39 
 PAM  EZ I         522 28.92         3.2 0.58            157           80.1  39 
 RUS  HZ EP        522 10.80                             145   -0.0710 98.0 175 
 RUS  HE ES        522 29.72                             145    0.1510 98.0 175 
 RUS  HZ I         522 32.05         1.2 0.60            147           98.0 175 
 PTB  HZ EP        522 13.90                             133   -0.17 9  146 260 
 PTB  HN ES        522 34.67                             133   -0.60 9  146 260 
 PTB  HZ I         522 41.87         1.4 0.26            134            146 260 
 SPBC HZ EP        522 15.76                             130    0.30 9  160 219 
 SPBC HN ES        522 37.62                             130   -0.12 9  160 219 
 SPBC HZ I         522 45.10         3.1 0.28            132            160 219 
                                                                                
