 2016  313 0008 10.7 L   6.788 -73.162144.1  RSN  7 0.2 1.5LRSN                1
 GAP=135        0.55       2.3     2.4  3.8 -0.3339E+00  0.3292E+01  0.1802E+01E
 Epicentro: LOS SANTOS - SANTANDER                                             3
 ACTION:UPD 16-05-13 21:23 OP:cam  STATUS:               ID:20160313000810 L   I
 OLDACT:REG 16-03-13 12:45 OP:cara STATUS:               ID:20160313000006     3
 2016-03-13-0000-06M.COL___295                                                 6
 STAT SP IPHASW D HRMM SECON CODA AMPLIT PERI AZIMU VELO AIN AR TRES W  DIS CAZ7
 BAR2 EZ IP        0 8 30.09                             171   -0.0510 21.7 186 
 BAR2 EZ ES        0 8 45.18                             171   -0.0910 21.7 186 
 BAR2 EZ I         0 8 47.98        10.0 0.34            169           21.7 186 
 PAM  EZ IP     D  0 8 33.05                             150    0.1410 79.6  40 
 PAM  EN ES        0 8 50.15                             150   -0.0510 79.6  40 
 PAM  EZ I         0 8 52.38         4.0 0.18            153           79.6  40 
 RUS  HZ EP        0 8 34.04                             144   -0.2010 99.4 175 
 RUS  HN ES        0 8 52.69                             144    0.1210 99.4 175 
 RUS  HZ I         0 8 53.93         2.9 0.26            144           99.4 175 
 PTB  HZ EP        0 8 37.00                             132   -0.39 9  146 259 
 PTB  HN ES        0 8 58.33                             132    0.16 9  146 259 
 ZAR  HN ES        0 9  8.31                             122    0.22 9  203 293 
 ZAR  HZ I         0 9 11.02         3.0 0.12            124            203 293 
 CHI  HZ EP        0 8 48.25                             117    0.10 8  247 195 
 CHI  HN ES        0 9 17.59                             117    0.26 8  247 195 
 CHI  HZ I         0 9 25.97         1.9 0.56            118            247 195 
 GUY2CHZ EP        0 8 54.35                             112    0.33 7  299 235 
 GUY2CHN ES        0 9 27.33                             112   -0.45 7  299 235 
 GUY2CHZ I         0 9 36.60         1.9 0.24                           299 235 
                                                                                
