 2016  813 0910 42.6 L   6.762 -73.129142.8  RSN  4 0.4 1.2LRSN                1
 GAP=244        0.50       7.0     7.1  9.0 -0.1878E+02  0.1922E+02 -0.1243E+02E
 Epicentro: LOS SANTOS - SANTANDER                                             3
 ACTION:UPD 16-10-29 15:35 OP:rebc STATUS:               ID:20160813090701dL   I
 OLDACT:DUP 16-08-13 16:55 OP:dnl  STATUS:               ID:20160813090701dL   3
 2016-08-13-0907-59S.COL___343                                                 6
 STAT SP IPHASW D HRMM SECON CODA AMPLIT PERI AZIMU VELO AIN AR TRES W  DIS CAZ7
 BAR2 EZ EP   2    911  1.68                             172   -0.10 5 19.7 197 
 BAR2 EZ ES   2    911 17.17                             172    0.41 5 19.7 197 
 BAR2 EZ I         911 19.28         5.0 0.20                          19.7 197 
 RUS  HZ EP   2    911  5.85                             145    0.12 5 96.3 177 
 RUS  HE ES   2    911 23.08                             145   -0.71 5 96.3 177 
 RUS  HZ I         911 25.46         2.2 0.28                          96.3 177 
 SPBC HZ EP   2    911 10.82                             129    0.16 5  161 220 
 SPBC HE ES        911 32.63                             129    0.0710  161 220 
 SPBC HZ I         911 35.36         2.3 0.22                           161 220 
 ZAR  HZ EP   3    911 15.45                             121    0.27 2  207 293 
 ZAR  HE ES   3    911 39.75                             121   -0.85 2  207 293 
 ZAR  HZ I         911 45.45         1.4 0.28                           207 293 
                                                                                
