 2016  413 0320 22.2 L   6.776 -73.161138.6  RSN  7 0.2 1.6LRSN                1
 GAP=136        0.56       2.5     2.5  4.0 -0.1518E+01  0.4229E+01 -0.3298E-01E
 Epicentro: LOS SANTOS - SANTANDER                                             3
 ACTION:UPD 16-05-05 14:20 OP:rebc STATUS:               ID:20160413032022 L   I
 OLDACT:UP  16-04-13 16:06 OP:mh   STATUS:               ID:20160413031742     3
 OLDACT:UP  16-04-13 16:05 OP:mh   STATUS:               ID:20160413031742     3
 OLDACT:REG 16-04-13 13:14 OP:mh   STATUS:               ID:20160413031742     3
 2016-04-13-0317-42M.COL___309                                                 6
 STAT SP IPHASW D HRMM SECON CODA AMPLIT PERI AZIMU VELO AIN AR TRES W  DIS CAZ7
 BAR2 EZ EP        320 40.85                             171   -0.0110 20.5 187 
 BAR2 EZ ES        320 55.63                             171    0.1810 20.5 187 
 BAR2 EZ I         320 56.84         6.6 0.18            170           20.5 187 
 PAM  EZ EP        320 43.80                             148    0.0010 80.5  39 
 PAM  EN ES        321  0.76                             148    0.0810 80.5  39 
 PAM  EZ I         321  3.01         6.3 0.16            151           80.5  39 
 RUS  HZ EP   1    320 44.89                             143   -0.13 7 98.1 175 
 RUS  HN ES        321  2.70                             143   -0.1510 98.1 175 
 RUS  HZ I         321  3.93         4.3 0.28            144           98.1 175 
 PTB  HZ EP        320 48.51                             131    0.17 9  146 260 
 PTB  HN ES        321  8.45                             131   -0.31 9  146 260 
 PTB  HZ I         321 10.55         6.1 0.16            132            146 260 
 SPBC HZ EP        320 49.79                             128   -0.01 9  160 219 
 SPBC HN ES        321 11.29                             128   -0.08 9  160 219 
 SPBC HZ I         321 16.85         6.4 0.23            129            160 219 
 ZAR  HE ES        321 18.87                             121   -0.10 9  203 293 
 GUY2CHZ EP        321  4.86                             111   -0.24 7  298 235 
 GUY2CHN ES        321 39.33                             111    0.72 7  298 235 
 GUY2CHZ I         321 45.00         2.0 0.28                           298 235 
                                                                                
