 2011  413 0024 25.7 L   6.791 -73.098146.9  RSN 14 0.4 2.6LRSN                1
 GAP=105        0.82       3.3     4.8  5.8 -0.2487E+01  0.3031E+01  0.2795E+01E
 Epicentro: LOS SANTOS - SANTANDER                                             3
 ACTION:UP  11-06-22 15:30 OP:REBC STATUS:               ID:20110413002425 L   I
 2011-04-13-0021-12S.COL___138                                                 6
 STAT SP IPHASW D HRMM SECON CODA AMPLIT PERI AZIMU VELO SNR AR TRES W  DIS CAZ7
 BAR2 SZ EP   1    024 45.64                             170     0.1 7   24 203 
 BAR2 SZ ES   1    025  0.44                             170    -0.5 7   24 203 
 BAR2 SZ I         025  1.70        87.9 0.17                            24 203 
 GIR2 SZ EP   1    024 45.85                             167     0.3 7   33 342 
 GIR2 SZ ES   2    025  0.75                             167    -0.3 5   33 342 
 PAM  SZ EP   1    024 48.60                             152     0.7 7   75  36 
 PAM  SZ I         024 48.91        64.1 0.14                            75  36 
 PAM  SN ES   2    025  5.54                             152     0.3 5   75  36 
 BRR  HZ EP        024 47.66                             151     0.410   76 297 
 BRR  HN ES   2    025  4.71                             151     0.6 5   76 297 
 BRR  HZ I         025  5.99       111.1 0.15                            76 297 
 GRA  SZ EP   1    024 50.64                             137    -0.4 7  125  15 
 GRA  SZ ES   1    025 10.33                             137    -0.4 7  125  15 
 GRA  SZ I         025 11.68        66.0 0.41                           125  15 
 OCA  SZ EP   1    024 54.18                             129    -0.1 7  162 351 
 OCA  SZ ES   1    025 16.09                             129    -0.5 7  162 351 
 OCA  SZ I         025 20.47        61.7 0.31                           162 351 
 YOP  SZ EP   1    024 55.94                             127     0.4 7  176 155 
 YOP  SN ES   1    025 18.86                             127     0.1 7  176 155 
 YOP  SZ I         025 23.58        30.9 0.57                           176 155 
 NOR  SZ EP   1    025  2.00                             118     0.1 6  238 235 
 NOR  SZ I         025 35.83         5.6 0.16                           238 235 
 CHI  HN ES   2    025 32.16                             117    -0.9 4  249 196 
 HEL  HZ EP   2    025  7.11                             114     0.6 4  277 256 
 HEL  HN ES   2    025 38.59                             114     0.2 4  277 256 
 HEL  HZ I         025 45.35        14.7 0.45                           277 256 
 GUY  SN ES   2    025 44.49                             112    -0.2 4  307 236 
 DBB  SZ EP   1    025 13.37                             109    -0.5 5  345 274 
 SDV  BZ EP        025 15.34                             108    -0.1 6  357  50 
 PRA  HZ EP   2    025 18.80                             106    -0.7 3  394 210 
 PRA  HZ I         025 21.59        43.8 0.15                           394 210 
 PRA  HN ES   2    026  0.41                             106    -1.0 3  394 210 
                                                                                
