 2013  413 0214 47.6 L   6.037 -73.811102.9  RSN  6 0.1 1.7LRSN                1
 GAP=131        0.41       2.1     3.1  5.6  0.1991E+01  0.1028E+02  0.5131E+01E
 Epicentro: EL PEON - SANTANDER                                                3
 ACTION:UPD 13-05-22 14:37 OP:EP   STATUS:               ID:20130413021448 L   I
 2013-04-13-0208-41M.COL___218                                                 6
 STAT SP IPHASW D HRMM SECON CODA AMPLIT PERI AZIMU VELO AIN AR TRES W  DIS CAZ7
 RUS  HZ EP        215  5.74                             139   -0.0910 82.1 101 
 RUS  HN ES   1    215 19.94                             139   -0.13 7 82.1 101 
 RUS  HZ I         215 21.15         6.6 0.22            148           82.1 101 
 PTB  HZ EP        215  5.74                             135   -0.1310 90.5 308 
 BAR2 SZ EP        215  6.53                             135    0.1710 92.7  49 
 BAR2 SZ ES        215 21.01                             135   -0.0110 92.7  49 
 BAR2 SZ I         215 22.66        19.8 0.38            141           92.7  49 
 BRR  HZ EP        215  8.30                             126   -0.1610  119   5 
 BRR  HN ES        215 24.93                             126    0.1710  119   5 
 BRR  HN I         215 31.37         9.6 0.20            131            119   5 
 CHI  HZ EP        215 13.00                             119    0.17 9  156 177 
 PAM  SZ EP   1    215 16.51                             113   -0.07 7  189  40 
                                                                                
