 2013  813 0603 16.0 L   6.786 -73.164150.2  RSN  4 0.2 1.2LRSN                1
 GAP=234        0.47       6.3    10.0  4.4  0.5439E+02  0.3911E+01  0.2124E+01E
 Epicentro: LOS SANTOS - SANTANDER                                             3
 ACTION:UPD 14-01-14 09:01 OP:ep   STATUS:               ID:20130813060316 L   I
 OLDACT:UP  13-08-13 19:19 OP:cam  STATUS:               ID:20130813055848d    3
 OLDACT:UP  13-08-13 19:19 OP:cam  STATUS:               ID:20130813055848d    3
 OLDACT:DUP 13-08-13 19:16 OP:cam  STATUS:               ID:20130813055848d    3
 2013-08-13-0558-47M.COL___221                                                 6
 STAT SP IPHASW D HRMM SECON CODA AMPLIT PERI AZIMU VELO AIN AR TRES W  DIS CAZ7
 BAR2 SZ ES   1    6 3 51.43                             171   -0.35 7 21.6 185 
 BRR  HZ EP        6 3 37.58                             154    0.0510 70.2 300 
 BRR  HN ES        6 3 54.48                             154    0.1210 70.2 300 
 BRR  HZ I         6 3 58.36         3.4 0.50            151           70.2 300 
 RUS  HZ EP        6 3 40.08                             145    0.0310 99.2 175 
 RUS  HN ES        6 3 58.96                             145    0.1210 99.2 175 
 RUS  HZ I         6 3 59.21         1.9 0.34            147           99.2 175 
 PTB  HZ EP   1    6 3 42.86                             133   -0.23 7  146 259 
                                                                                
