 2015 1013 0843 46.9 L   7.490 -73.191128.4  RSN  5 0.3 1.6LRSN                1
 GAP=127        0.79       3.8     3.8  6.3  0.5253E+00  0.8201E+01 -0.4065E+01E
 Epicentro: EL PLAYON - SANTANDER                                              3
 ACTION:UPD 15-12-22 20:39 OP:cam  STATUS:               ID:20151013084346 L   I
 OLDACT:REG 15-10-13 14:42 OP:cara STATUS:               ID:20151013083748     3
 2015-10-13-0837-48M.COL___334                                                 6
 STAT SP IPHASW D HRMM SECON CODA AMPLIT PERI AZIMU VELO AIN AR TRES W  DIS CAZ7
 PAM  EZ EP        844  5.99                             155   -0.0810 56.8 107 
 PAM  EN ES        844 20.99                             155   -0.0510 56.8 107 
 PAM  EZ I         844 23.47         4.3 0.42            158           56.8 107 
 BRR  HZ EP        844  6.13                             149   -0.0710 71.4 234 
 BRR  HN ES        844 21.10                             149   -0.1710 71.4 234 
 OCA  HZ EP        844  7.88                             145    0.6210 84.0 350 
 OCA  HN ES        844 23.27                             145    0.1210 84.0 350 
 OCA  HZ I         844 26.23         8.7 0.16            147           84.0 350 
 SML  HZ EP        844 14.91                             123   -0.22 9  174 326 
 SML  HN ES        844 36.69                             123   -0.47 9  174 326 
 SML  HZ I         844 38.04         8.2 0.10            125            174 326 
 ZAR  HZ EP        844 15.93                             121   -0.21 9  184 270 
 ZAR  HE ES        844 39.39                             121    0.44 9  184 270 
 ZAR  HZ I         844 42.66         3.8 0.34            123            184 270 
                                                                                
