 2014  913 0853 18.1 L   6.807 -73.120150.8  RSN 16 0.5 2.1LRSN                1
 GAP=140        1.07       2.6     3.9  5.0 -0.2063E+01  0.5402E+01  0.1714E+01E
 Epicentro: LOS SANTOS - SANTANDER                                             3
 ACTION:UPD 14-10-03 23:04 OP:nd   STATUS:               ID:20140913085318 L   I
 OLDACT:REG 14-09-13 12:56 OP:carl STATUS:               ID:20140913084812     3
 2014-09-13-0848-12M.COL___293                                                 6
 STAT SP IPHASW D HRMM SECON CODA AMPLIT PERI AZIMU VELO AIN AR TRES W  DIS CAZ7
 BAR2 SZ IP     C  853 38.25                             170   -0.1010 24.7 196 
 BAR2 SZ ES        853 53.87                             170   -0.2910 24.7 196 
 BAR2 SZ I         853 55.11        27.5 0.46            168           24.7 196 
 BRR  HZ IP     C  853 40.19                             153    0.2910 73.4 297 
 BRR  HN ES        853 57.65                             153    0.7310 73.4 297 
 BRR  HZ I         854  1.73        16.6 0.56            150           73.4 297 
 PAM  SZ EP        853 41.21                             152    0.5010 75.0  38 
 PAM  SN ES        853 58.07                             152   -0.2810 75.0  38 
 PAM  SZ I         854  0.50        18.5 0.54            157           75.0  38 
 RUS  HZ EP        853 41.98                             145   -0.4010  101 178 
 RUS  HN ES        854  1.44                             145    0.1210  101 178 
 PTB  HZ EP        853 44.98                             132   -0.76 9  151 259 
 PTB  HN ES        854  6.50                             132   -0.80 9  151 259 
 PTB  HZ I         854 13.69        22.0 0.40            132            151 259 
 OCA  HZ EP        853 47.00                             131    0.24 9  160 352 
 OCA  HN ES        854  9.41                             131    0.28 9  160 352 
 OCA  HZ I         854 13.15        14.1 0.32            133            160 352 
 SPBC HZ EP        853 47.21                             130    0.01 9  166 220 
 SPBC HN ES        854  9.91                             130    0.00 9  166 220 
 SPBC HZ I         854 16.38        24.8 0.30            130            166 220 
 ZAR  HZ EP        853 51.02                             123   -0.09 8  206 292 
 ZAR  HN ES        854 17.51                             123    0.64 8  206 292 
 ZAR  HZ I         854 22.81        13.0 0.58            124            206 292 
 NOR  HZ EP        853 53.93                             119   -0.48 8  237 235 
 NOR  HN ES        854 22.11                             119   -0.63 8  237 235 
 NOR  HZ I         854 28.39         9.7 0.54            120            237 235 
 SML  HZ EP        853 54.66                             118   -0.40 8  244 335 
 SML  HN ES        854 23.25                             118   -0.65 8  244 335 
 SML  HZ I         854 27.97        21.5 0.10            120            244 335 
 CHI  HZ EP        853 55.87                             118   -0.36 8  250 196 
 CHI  HN ES        854 26.58                             118    0.60 8  250 196 
 CHI  HZ I         854 33.22         3.6 0.32            120            250 196 
 HEL  HZ EP        853 59.29                             115    0.40 8  275 256 
 HEL  HN ES        854 30.61                             115   -0.10 8  275 256 
 HEL  HZ I         854 37.74         5.6 0.30            116            275 256 
 GUY2CHZ EP        854  2.78                             113    0.54 7  304 235 
 GUY2CHN ES        854 37.12                             113    0.44 7  304 235 
 GUY2CHZ I         854 43.21         7.0 0.30                           304 235 
 TOL  SZ EP        854  7.62                             110    0.78 6  346 225 
 TOL  SN ES        854 44.88                             110    0.01 6  346 225 
 TOL  SZ I         854 49.31        13.1 0.24            111            346 225 
 PRA  HZ EP        854 11.47                             107   -0.56 6  394 210 
 PRA  HN ES        854 53.90                             107   -0.20 6  394 210 
 PRA  HZ I         854 58.89         3.4 0.38            109            394 210 
 ORTC HZ EP        854 12.69                             107    0.24 6  398 216 
 ORTC HN ES        854 55.83                             107    0.98 6  398 216 
 ORTC HZ I         855  0.91         2.7 0.44            108            398 216 
                                                                                
