 2013  713 0933 31.4 L   6.761 -73.302121.1  RSN  6 0.5 1.6LRSN                1
 GAP=115        1.22       8.6     4.9  8.5 -0.8984E+01  0.1294E+02 -0.7235E+01E
 Epicentro: ZAPATOCA - SANTANDER                                               3
 ACTION:UPD 13-08-12 10:37 OP:ep   STATUS:               ID:20130713093331 L   I
 OLDACT:REG 13-07-13 09:49 OP:nd   STATUS:               ID:20130713092959     3
 2013-07-13-0929-59M.COL___267                                                 6
 STAT SP IPHASW D HRMM SECON CODA AMPLIT PERI AZIMU VELO AIN AR TRES W  DIS CAZ7
 BAR2 SZ EP        933 48.49                             169    0.4610 22.8 145 
 BAR2 SZ ES        934  1.55                             169    0.5210 22.8 145 
 BAR2 SZ I         934  3.28        35.0 0.34            170           22.8 145 
 GIR2 SZ EP        933 48.35                             162    0.0210 37.2  19 
 GIR2 SZ ES   2    934  1.09                             162   -0.47 5 37.2  19 
 GIR2 SZ I         934  1.95         7.7 0.10            163           37.2  19 
 BRR  HZ EP        933 49.29                             152    0.1010 59.3 310 
 BRR  HN ES        934  3.43                             152    0.3510 59.3 310 
 BRR  HZ I         934  3.82         7.5 0.10            153           59.3 310 
 PAM  SZ EP        933 51.89                             141   -0.2410 92.3  46 
 PAM  SE ES        934  7.74                             141   -0.5710 92.3  46 
 PAM  SZ I         934 10.26         4.3 0.16            143           92.3  46 
 PTB  HZ EP        933 54.21                             130   -0.5210  130 259 
 PTB  HN ES        934 12.11                             130   -0.8410  130 259 
 PTB  HZ I         934 16.05         8.6 0.12            131            130 259 
 ZAR  HZ EP        934  1.62                             118    0.80 9  190 295 
 ZAR  HE ES        934 23.95                             118    0.17 9  190 295 
 ZAR  HZ I         934 26.35         3.0 0.28            120            190 295 
                                                                                
