 2014  413 0127 59.7 L   6.809 -73.162149.1  RSN  9 0.3 1.6LRSN                1
 GAP=134        0.84       2.8     3.7  5.7 -0.2132E+01  0.3711E+01  0.3417E+01E
 Epicentro: LOS SANTOS - SANTANDER                                             3
 2014-04-13-0118-14M.COL___269                                                 6
 ACTION:UPD 14-05-13 23:08 OP:nd   STATUS:               ID:20140413012759 L   I
 OLDACT:DUP 14-04-13 16:15 OP:stll STATUS:               ID:20140413011817d    3
 STAT SP IPHASW D HRMM SECON CODA AMPLIT PERI AZIMU VELO AIN AR TRES W  DIS CAZ7
 BRR  HZ EP        128 21.71                             154    0.5910 69.2 299 
 BRR  HN ES        128 38.01                             154    0.2010 69.2 299 
 BRR  HZ I         128 41.74        10.1 0.38            158           69.2 299 
 PAM  SZ EP        128 22.56                             151    0.2510 77.8  41 
 PAM  SN ES        128 40.12                             151    0.1810 77.8  41 
 PAM  HZ I         128 53.53         5.1 2.86            156           77.8  41 
 RUS  HZ EP        128 23.31                             144   -0.5710  102 175 
 RUS  HN ES        128 42.42                             144   -0.3010  102 175 
 RUS  HZ I         128 44.83         4.8 1.10            149            102 175 
 PTB  HZ EP        128 26.58                             133   -0.24 9  146 258 
 PTB  HN ES        128 47.66                             133   -0.30 9  146 258 
 PTB  HZ I         128 51.02         4.7 1.14            139            146 258 
 SPBC HZ EP        128 28.65                             130    0.21 9  163 218 
 SPBC HN ES        128 50.76                             130   -0.08 9  163 218 
 SPBC HZ I         128 57.68         6.3 0.50            135            163 218 
 NOR  HZ EP        128 35.82                             119    0.27 8  234 234 
 NOR  HE ES        129  3.57                             119    0.07 8  234 234 
 NOR  HZ I         129 15.63         3.2 1.60            125            234 234 
 SML  HN ES        129  4.31                             118   -0.62 8  242 336 
 CHI  HZ EP        128 37.49                             118   -0.16 8  249 195 
 CHI  HN ES        129  7.32                             118    0.08 8  249 195 
 CHI  HZ I         129  9.92         5.3 2.58            123            249 195 
 GUY2CHE ES        129 17.88                             113    0.44 7  300 234 
 GUY2CHZ I         129 29.92         2.1 0.62                           300 234 
                                                                                
