 2017 1013 1006 31.3 L   6.494 -73.338120.7  RSN  5 0.4 1.3LRSN                1
 GAP=114        1.08       6.7     7.1  9.4  0.2949E+02  0.2988E+02  0.2628E+02E
 Epicentro: SIMACOTA - SANTANDER                                               3
 ACTION:UPD 17-11-07 19:31 OP:rebc STATUS:               ID:20171013095740dL   I
 OLDACT:DUP 17-10-13 21:55 OP:lv   STATUS:               ID:20171013095740dL   3
 2017-10-13-0958-00M.COL___431                                                 6
 STAT SP IPHASW D HRMM SECON CODA AMPLIT PERI AZIMU VELO AIN AR TRES W  DIS CAZ7
 BAR2 EZ EP       10 6 48.13                             169    0.2410 20.4  58 
 BAR2 EZ ES       10 7  1.12                             169    0.3210 20.4  58 
 BAR2 EZ I        10 7  2.51         6.1 0.22            160           20.4  58 
 RUS  HZ EP       10 6 50.28                             147   -0.3210 72.2 157 
 RUS  HN ES       10 7  4.98                             147   -0.6510 72.2 157 
 RUS  HZ I        10 7  7.12         2.0 0.28            137           72.2 157 
 YPLC HZ EP       10 6 57.37                             123   -0.44 9  161 139 
 YPLC HZ I        10 7 13.43         3.3 0.32            113            161 139 
 YPLC HN ES       10 7 19.18                             123    0.72 9  161 139 
 ZAR  HN ES       10 7 25.84                             117    0.02 9  201 303 
 PRA  HN ES       10 7 57.17                             104    0.37 6  352 209 
 PRA  HZ I        10 8  5.27         1.2 0.34            100            352 209 
                                                                                
