 2013 1113 0608 49.0 L   6.743 -73.195150.1  RSN  5 0.4 1.4LRSN                1
 GAP=227        0.98       5.8     6.2  7.2  0.7094E+01  0.5651E+01  0.3843E+01E
 Epicentro: VILLANUEVA - SANTANDER                                             3
 ACTION:UPD 14-01-09 16:27 OP:ep   STATUS:               ID:20131113060849 L   I
 OLDACT:REG 13-11-13 08:18 OP:nd   STATUS:               ID:20131113060000     3
 2013-11-13-0600-00M.COL___276                                                 6
 STAT SP IPHASW D HRMM SECON CODA AMPLIT PERI AZIMU VELO AIN AR TRES W  DIS CAZ7
 BAR2 SZ EP        6 9  8.71                             173   -0.3010 16.8 175 
 BAR2 SZ ES        6 9 24.54                             173   -0.1010 16.8 175 
 BAR2 SZ I         6 9 25.40        10.3 0.36            171           16.8 175 
 BRR  HZ EP        6 9 10.66                             154    0.1510 69.8 305 
 BRR  HN ES        6 9 27.84                             154    0.5210 69.8 305 
 BRR  HZ I         6 9 31.84         4.2 0.16            151           69.8 305 
 RUS  HZ EP        6 9 12.68                             146   -0.0710 94.9 172 
 RUS  HN ES        6 9 31.15                             146   -0.1610 94.9 172 
 RUS  HZ I         6 9 33.05         3.2 0.22            148           94.9 172 
 PTB  HZ EP        6 9 15.48                             134   -0.24 9  141 261 
 PTB  HN ES        6 9 35.87                             134   -0.71 9  141 261 
 PTB  HZ I         6 9 42.53         3.4 0.28            133            141 261 
 SPBC HZ EP        6 9 17.53                             132    0.50 9  155 219 
 SPBC HN ES        6 9 39.38                             132    0.46 9  155 219 
 SPBC HZ I         6 9 42.47         3.2 0.20            132            155 219 
                                                                                
