 2010 1013 0244 29.1 L   6.876 -73.283124.6  RSN  5 0.2 1.4LRSN                1
 GAP=138        0.54       8.1     9.3  9.1  0.3570E+02 -0.4928E+02 -0.3161E+02E
 Epicentro: BETULIA - SANTANDER                                                3
 ACTION:UP  11-02-18 11:09 OP:tino STATUS:               ID:20101013024429 L   I
 2010-10-13-0239-48S.COL___124                                                 6
 STAT SP IPHASW D HRMM SECON CODA AMPLIT PERI AZIMU VELO SNR AR TRES W  DIS CAZ7
 BTL  SZ EP        244 46.17                             177     0.210    5  20 
 BAR2 SZ EP        244 46.41                             164    -0.110   33 161 
 BAR2 SZ ES   2    245  0.04                             164     0.0 5   33 161 
 BAR2 SZ I         245  1.04        10.8 0.40                            33 161 
 BRR  HZ EP        244 47.01                             155     0.010   54 298 
 BRR  HN ES   1    245  0.99                             155     0.0 7   54 298 
 BRR  HZ I         245  1.98         8.4 0.05                            54 298 
 GUE  SZ EP   2    244 51.09                             135    -0.6 5  113  21 
 GRA  SZ EP   2    244 52.79                             132     0.4 5  123  25 
 GRA  SZ I         245 13.96         2.8 0.24                           123  25 
                                                                                
