 2016 1113 0545 44.7 L   6.762 -73.147147.7  RSN  5 0.3 1.3LRSN                1
 GAP=154        0.91       7.6     4.4  6.6 -0.6744E+01  0.8048E+01 -0.2302E+01E
 Epicentro: LOS SANTOS - SANTANDER                                             3
 ACTION:UPD 17-10-26 21:07 OP:lp   STATUS:               ID:20161113054544 L   I
 OLDACT:UP  16-11-13 18:15 OP:and  STATUS:               ID:20161113053747     3
 OLDACT:UP  16-11-13 18:13 OP:and  STATUS:               ID:20161113053747     3
 OLDACT:REG 16-11-13 13:06 OP:and  STATUS:               ID:20161113053747     3
 2016-11-13-0538-00M.COL___340                                                 6
 STAT SP IPHASW D HRMM SECON CODA AMPLIT PERI AZIMU VELO AIN AR TRES W  DIS CAZ7
 BAR2 EZ EP        546  4.68                             172    0.2010 19.2 192 
 BAR2 EZ ES        546 20.18                             172    0.2610 19.2 192 
 BAR2 EZ I         546 20.94         5.6 0.24            173           19.2 192 
 BRR  HZ EP        546  6.40                             152    0.2310 73.2 301 
 BRR  HN ES        546 23.37                             152    0.4610 73.2 301 
 BRR  HZ I         546 27.15         3.2 0.36            149           73.2 301 
 PAM  EZ IP     D  546  7.28                             150   -0.0410 80.8  38 
 PAM  EN ES        546 24.44                             150   -0.5210 80.8  38 
 PAM  EZ I         546 26.54         4.3 0.50            152           80.8  38 
 PTB  HZ EP        546 11.46                             133   -0.28 9  147 260 
 PTB  HN ES        546 32.22                             133   -0.61 9  147 260 
 PTB  HZ I         546 37.26         1.9 0.12            133            147 260 
 ZAR  HZ EP        546 17.74                             123    0.32 8  206 293 
 ZAR  HN ES        546 42.89                             123   -0.05 8  206 293 
 ZAR  HZ I         546 48.18         2.3 0.30            123            206 293 
                                                                                
