 2016  213 0145 45.2 L   6.839 -73.068146.2  RSN 16 0.5 2.1LRSN                1
 GAP=124        1.13       3.4     3.7  5.4 -0.5409E+01  0.4255E+01  0.1164E+01E
 Epicentro: LOS SANTOS - SANTANDER                                             3
 ACTION:UPD 16-03-04 21:25 OP:rebc STATUS:               ID:20160213014545 L   I
 OLDACT:REG 16-02-13 12:39 OP:ak   STATUS:               ID:20160213013748     3
 2016-02-13-0137-48M.COL___313                                                 6
 STAT SP IPHASW D HRMM SECON CODA AMPLIT PERI AZIMU VELO AIN AR TRES W  DIS CAZ7
 BAR2 EZ EP        146  5.26                             168    0.2510 30.1 205 
 BAR2 EZ ES        146 20.58                             168    0.1010 30.1 205 
 BAR2 EZ I         146 22.90        18.5 0.36            166           30.1 205 
 PAM  EZ EP        146  7.82                             154    0.8810 68.7  36 
 PAM  EN ES        146 24.91                             154    0.9910 68.7  36 
 PAM  EZ I         146 25.64        15.4 0.20            157           68.7  36 
 RUS  HZ EP        146  9.33                             143    0.0710  105 181 
 RUS  HN ES        146 27.55                             143   -0.5010  105 181 
 RUS  HZ I         146 29.72        10.4 0.24            143            105 181 
 OCA  HZ EP   2    146 13.26                             130    0.02 5  157 350 
 OCA  HN ES        146 34.92                             130   -0.20 9  157 350 
 OCA  HZ I         146 39.54        28.3 0.20            132            157 350 
 PTB  HZ EP   9    146 11.58                             130   -1.44 0  157 258 
 PTB  HN ES        146 32.84                                   -0.46 9  157 258 
 PTB  HZ I         146 35.73        14.6 0.18            130            157 258 
 SPBC HZ EP        146 14.23                             128   -0.31 9  172 220 
 SPBC HN ES        146 36.84                             128   -0.61 9  172 220 
 SPBC HZ I         146 43.58        21.0 0.30            128            172 220 
 ZAR  HZ EP        146 18.32                             122    0.01 8  210 290 
 ZAR  HN ES        146 43.39                             122   -0.77 8  210 290 
 ZAR  HZ I         146 48.42        14.5 0.26            122            210 290 
 NOR  HZ EP        146 21.76                             118   -0.19 8  244 235 
 NOR  HN ES        146 49.72                             118   -0.91 8  244 235 
 NOR  HZ I         146 55.77         9.8 0.26            118            244 235 
 CHI  HZ EP        146 23.58                             117   -0.02 8  255 197 
 CHI  HN ES        146 53.32                             117   -0.25 8  255 197 
 CHI  HZ I         147  1.86         3.5 0.42            117            255 197 
 HEL  HZ EP        146 26.46                             114    0.01 7  281 255 
 HEL  HE ES        146 58.80                             114    0.16 7  281 255 
 HEL  HZ I         147  5.82         6.2 0.22            114            281 255 
 SOCV BZ EP        146 26.46                             113   -0.70 7  292  57 
 SOCV BE ES        146 59.03                             113   -0.89 7  292  57 
 GUY2CHZ EP        146 30.32                             112    0.45 7  311 235 
 GUY2CHN ES        147  5.21                             112    0.47 7  311 235 
 GUY2CHZ I         147 14.61         7.5 0.50                           311 235 
 ELA  HZ EP   2    146 32.99                             110   -0.12 3  338 230 
 ELA  HN ES        147 10.81                             110    0.31 7  338 230 
 ELA  HZ I         147 19.18         4.9 0.26            110            338 230 
 CBOC HZ EP        146 33.00                             109   -0.19 7  343 252 
 ANIL HZ EP        146 36.44                             108    0.40 6  366 225 
 ANIL HN ES        147 16.43                             108    0.71 6  366 225 
 ANIL HZ I         147 23.60        14.2 0.34            109            366 225 
 ORTC HZ EP        146 40.50                             106    0.39 6  404 217 
 ORTC HN ES        147 23.60                             106    0.64 6  404 217 
 ORTC HZ I         147 29.78         3.8 0.64            107            404 217 
                                                                                
