 2012  113 0857 18.5 L   6.640 -73.188150.0  RSN  4 0.2 1.4LRSN                1
 GAP=221        0.45       9.2     5.7  6.6  0.1852E+02  0.8324E+01  0.4450E+01E
 Epicentro: BARICHARA - SANTANDER                                              3
 ACTION:UP  12-02-03 08:17 OP:REBC STATUS:               ID:20120113085718 L   I
 2012-01-13-0850-00M.COL___186                                                 6
 STAT SP IPHASW D HRMM SECON CODA AMPLIT PERI AZIMU VELO SNR AR TRES W  DIS CAZ7
 BAR2 SZ EP   1    857 38.48                             178     0.1 7    5 173 
 BAR2 SZ ES   2    857 53.58                             178    -0.4 5    5 173 
 BAR2 SZ I         857 54.90         4.0 0.18                             5 173 
 BRR  HZ EP   1    857 40.31                             151    -0.1 7   78 312 
 BRR  HZ I         857 40.46         5.5 0.11                            78 312 
 BRR  HN ES   2    857 58.05                             151     0.5 5   78 312 
 PTB  HZ EP   1    857 45.33                             134     0.2 7  141 266 
 PTB  HE ES   2    858  5.93                             134    -0.1 5  141 266 
 ZAR  HZ EP   2    857 51.42                             123    -0.1 4  207 297 
 ZAR  HN ES   2    858 16.96                             123    -0.3 4  207 297 
                                                                                
