 2012 1213 0940 20.0 L   6.803 -73.165144.4  RSN 19 0.5 3.3LRSN 3.3WRSN        1
 SPEC AVERAGE  MO 14.1 ST 13.4 OM  2.4 f0 4.17 R0.3634 AL 3.05 WI 16.0 MW  3.3 3
 SPEC SD       MO  0.2 ST  9.5 OM  0.4 f00.732 R0.0632 AL      WI      MW  0.1 3
 GAP= 70        1.21       2.7     3.3  5.0  0.8633E+00  0.4459E+01  0.1130E+01E
 Epicentro: LOS SANTOS - SANTANDER                                             3
 SPEC PTB HH N MO 14.0 ST 11.8 OM  2.3 f0 4.38 R0.3356 AL 1.64 WI 17.1 MW  3.3 3
 SPEC PTB HH N T 941 6 K 0.000 GD  205 VS 4.20 DE 3.20 Q0300.0 QA 0.60 VS 4.20 3
 SPEC RUS HH N MO 14.0 ST  5.0 OM  2.4 f0 3.21 R0.4579 AL 2.32 WI  7.0 MW  3.3 3
 SPEC RUS HH N T 941 1 K 0.000 GD  176 VS 4.20 DE 3.20 Q0300.0 QA 0.60 VS 4.20 3
 SPEC PRA HH Z MO 14.0 ST 11.2 OM  2.0 f0 4.28 R0.3435 AL 3.53 WI 17.6 MW  3.3 3
 SPEC PRA HH Z T 94154 K 0.000 GD  416 VS 4.20 DE 3.20 Q0300.0 QA 0.60 VS 4.20 3
 SPEC MON HH N MO 13.7 ST 10.9 OM  1.7 f0 5.50 R0.2673 AL 4.48 WI 16.8 MW  3.1 3
 SPEC MON HH N T 94145 K 0.000 GD  380 VS 4.20 DE 3.20 Q0300.0 QA 0.60 VS 4.20 3
 SPEC HEL HH N MO 14.2 ST 13.8 OM  2.3 f0 4.03 R0.3648 AL 3.19 WI 22.9 MW  3.4 3
 SPEC HEL HH N T 94130 K 0.000 GD  306 VS 4.20 DE 3.20 Q0300.0 QA 0.60 VS 4.20 3
 SPEC OCA HH N MO 14.4 ST 30.2 OM  2.7 f0 4.33 R0.3395 AL 2.28 WI 16.9 MW  3.6 3
 SPEC OCA HH N T 941 8 K 0.000 GD  215 VS 4.20 DE 3.20 Q0300.0 QA 0.60 VS 4.20 3
 SPEC PAM SH N MO 14.0 ST  9.6 OM  2.4 f0 4.08 R0.3603 AL 4.02 WI  7.7 MW  3.3 3
 SPEC PAM SH N T 94058 K 0.000 GD  164 VS 4.20 DE 3.20 Q0300.0 QA 0.60 VS 4.20 3
 SPEC COD HH N MO 13.8 ST  6.7 OM  1.8 f0 4.34 R0.3387 AL 2.97 WI 24.7 MW  3.1 3
 SPEC COD HH N T 94144 K 0.000 GD  376 VS 4.20 DE 3.20 Q0300.0 QA 0.60 VS 4.20 3
 SPEC CHI HH N MO 14.1 ST  7.1 OM  2.2 f0 3.57 R0.4118 AL 3.50 WI 16.1 MW  3.3 3
 SPEC CHI HH N T 94126 K 0.000 GD  286 VS 4.20 DE 3.20 Q0300.0 QA 0.60 VS 4.20 3
 SPEC CTABSH Z MO 14.0 ST  4.1 OM  2.2 f0 3.02 R0.4868 AL 3.35 WI 19.5 MW  3.3 3
 SPEC CTABSH Z T 94122 K 0.000 GD  270 VS 4.20 DE 3.20 Q0300.0 QA 0.60 VS 4.20 3
 SPEC BRR HH N MO 14.2 ST 36.5 OM  2.6 f0 5.50 R0.2673 AL 2.78 WI 13.5 MW  3.4 3
 SPEC BRR HH N T 94057 K 0.000 GD  160 VS 4.20 DE 3.20 Q0300.0 QA 0.60 VS 4.20 3
 SPEC BAR2SH Z MO 14.3 ST 13.7 OM  2.7 f0 3.79 R0.3879 AL 2.53 WI 12.7 MW  3.5 3
 SPEC BAR2SH Z T 94053 K 0.000 GD  146 VS 4.20 DE 3.20 Q0300.0 QA 0.60 VS 4.20 3
 ACTION:UPD 13-01-04 14:27 OP:ep   STATUS:               ID:20121213094020 L   I
 2012-12-13-0940-00M.COL___242                                                 6
 STAT SP IPHASW D HRMM SECON CODA AMPLIT PERI AZIMU VELO AIN AR TRES W  DIS CAZ7
 BAR2 SZ EP        940 39.63                             170    0.2110 23.4 185 
 BAR2 SZ ES        940 54.21                             170   -0.3910 23.4 185 
 BAR2 SZ I         940 55.45       492.0 0.16                          23.4 185 
 GIR2 SZ IP        940 39.76                             167    0.3110 30.7 354 
 GIR2 SZ ES        940 54.27                             167   -0.3810 30.7 354 
 GIR2 SZ I         940 55.97       154.5 0.34                          30.7 354 
 BRR  HZ IP     D  940 41.55                             153    0.7110 69.2 299 
 BRR  HN ES        940 58.31                             153    1.1810 69.2 299 
 BRR  HN I         940 58.66       618.9 0.20                          69.2 299 
 PAM  SZ EP     C  940 42.52                             150    0.4310 78.5  41 
 PAM  SN ES        940 59.20                             150   -0.1510 78.5  41 
 PAM  SN I         941  0.68       261.1 0.42                          78.5  41 
 RUS  HZ IP     C  940 43.62                             143    0.0210  101 175 
 RUS  HN ES        941  1.78                             143   -0.2710  101 175 
 RUS  HN I         941  3.61       388.6 0.26                           101 175 
 PTB  HZ EP        940 46.12                             132   -0.51 9  146 259 
 PTB  HN ES        941  6.87                             132   -0.56 9  146 259 
 PTB  HN I         941 10.26       327.8 0.22                           146 259 
 TAM  HZ IP     D  940 47.96                             130    0.24 9  157 105 
 TAM  HN ES        941  9.27                             130   -0.10 9  157 105 
 TAM  HN I         941 17.82        55.9 0.52                           157 105 
 OCA  HZ EP        940 48.00                             129   -0.11 9  160 354 
 OCA  HN ES        941  9.37                             129   -0.69 9  160 354 
 OCA  HN I         941 14.70       514.9 0.28                           160 354 
 ZAR  HZ EP        940 52.40                             122    0.30 9  202 292 
 ZAR  HN ES        941 17.81                             122    0.64 9  202 292 
 ZAR  HN I         941 24.45       209.3 0.20                           202 292 
 CTAB SZ EP   4    940 57.16                             119    1.62 0  229 210 
 SML  HZ EP        940 56.31                             117   -0.07 8  243 336 
 SML  HN ES        941 25.73                             117    0.94 8  243 336 
 SML  HN I         941 28.19       377.3 0.10                           243 336 
 CHI  HZ EP        940 57.85                             117    0.30 8  248 195 
 CHI  HN ES        941 26.39                             117   -0.48 8  248 195 
 CHI  HN I         941 33.73       122.7 0.50                           248 195 
 ROSC BZ EP   4    940 59.44                             116    1.53 0  252 211 
 ROSC BZ I         941 37.50        76.1 0.35                           252 211 
 HEL  HZ EP        941  0.15                             115    0.27 8  270 256 
 HEL  HN ES        941 30.83                             115   -0.19 8  270 256 
 HEL  HN I         941 38.02        81.8 0.38                           270 256 
 URE  HZ EP        941  0.78                             113    0.05 7  282 292 
 URE  HN ES        941 31.90                             113   -0.63 7  282 292 
 URE  HN I         941 42.77       175.3 0.26                           282 292 
 VIL  SZ EP        941  3.69                             112    0.39 7  303 191 
 VIL  SN ES        941 37.04                             112   -0.06 7  303 191 
 VIL  SN I         941 45.32       331.6 0.88                           303 191 
 RREF HZ EP   1    941  6.78                             111    0.90 5  320 229 
 RREF HZ I         941 47.61        38.6 0.46                           320 229 
 COD  HZ EP        941  7.30                             109   -0.92 6  348 355 
 COD  HN ES        941 44.82                             109   -1.05 6  348 355 
 COD  HN I         941 52.76        30.8 0.42                           348 355 
 MON  HZ EP   4    941  7.22                             108   -1.47 0  352 309 
 MON  HN ES        941 45.72                             108   -0.98 6  352 309 
 MON  HN I         941 47.31        41.3 0.38                           352 309 
 PRA  HZ EP        941 13.10                             106   -0.24 6  391 209 
 PRA  HN ES        941 54.53                             106   -0.45 6  391 209 
 PRA  HN I         942  2.03        46.8 0.28                           391 209 
                                                                                
