 2017 1213 0504  0.5 L   7.152 -73.307110.9  RSN  4 0.2 0.9LRSN                1
 GAP=117        0.54       2.6     3.1  7.1 -0.2781E+01  0.8433E+01 -0.3415E+01E
 Epicentro: LEBRIJA - SANTANDER                                                3
 ACTION:UPD 18-01-04 13:19 OP:rebc STATUS:               ID:20171213050400 L   I
 OLDACT:UP  17-12-13 15:59 OP:edw  STATUS:               ID:20171213045649d    3
 OLDACT:DUP 17-12-13 15:55 OP:edw  STATUS:               ID:20171213045649d    3
 OLDACT:UP  17-12-13 15:54 OP:edw  STATUS:               ID:20171213045648d    3
 OLDACT:DUP 17-12-13 15:50 OP:edw  STATUS:               ID:20171213045648d    3
 OLDACT:REG 17-12-13 13:00 OP:edw  STATUS:               ID:20171213045646     3
 2017-12-13-0457-00M.COL___449                                                 6
 STAT SP IPHASW D HRMM SECON CODA AMPLIT PERI AZIMU VELO AIN AR TRES W  DIS CAZ7
 BAR2 EZ EP        5 4 17.99                             148    0.1810 63.4 167 
 BAR2 EZ ES        5 4 31.10                             148   -0.2310 63.4 167 
 BAR2 EZ I         5 4 31.44         5.1 0.26            149           63.4 167 
 PAM  EZ EP        5 4 18.42                             146   -0.2110 70.2  73 
 PAM  EN ES        5 4 33.02                             146    0.2510 70.2  73 
 OCA  HE ES        5 4 39.29                             129   -0.0810  120 359 
 PTB  HZ EP   4    5 4 22.12                             123   -2.36 0  144 242 
 PTB  HN ES        5 4 43.29                             123    0.09 9  144 242 
 PTB  HZ I         5 4 47.35         0.6 0.38            122            144 242 
                                                                                
