 2017  213 0949  9.6 L   6.780 -73.126145.8  RSN  6 0.4 1.3LRSN                1
 GAP=140        0.89       4.6     4.5  5.8  0.4341E+01  0.2044E+01 -0.2700E+01E
 Epicentro: LOS SANTOS - SANTANDER                                             3
 ACTION:UPD 17-05-24 15:36 OP:jn   STATUS:               ID:20170213094909 L   I
 OLDACT:UP  17-02-13 19:23 OP:edw  STATUS:               ID:20170213094740     3
 OLDACT:REG 17-02-13 12:22 OP:edw  STATUS:               ID:20170213094740     3
 2017-02-13-0948-00M.COL___340                                                 6
 STAT SP IPHASW D HRMM SECON CODA AMPLIT PERI AZIMU VELO AIN AR TRES W  DIS CAZ7
 BAR2 EZ IP     C  949 29.00                             171   -0.2310 21.6 197 
 BAR2 EZ ES        949 44.00                             171   -0.5110 21.6 197 
 BAR2 EZ I         949 46.73         6.8 0.32            171           21.6 197 
 BRR  HZ EP        949 31.00                             151    0.0510 74.2 299 
 BRR  HN ES        949 48.24                             151    0.6610 74.2 299 
 PAM  EZ EP     C  949 31.90                             151    0.0310 77.8  37 
 PAM  EN ES        949 49.18                             151   -0.0310 77.8  37 
 PAM  EZ I         949 51.11         2.6 0.46            153           77.8  37 
 RUS  HZ EP        949 33.19                             144   -0.0210 98.2 177 
 RUS  HN ES        949 51.87                             144    0.2710 98.2 177 
 RUS  HZ I         949 54.45         3.1 0.44            146           98.2 177 
 PTB  HZ EP   9    949 36.05                             132   -0.71 0  150 260 
 PTB  HN ES        949 57.21                             132    0.00 9  150 260 
 PTB  HZ I         949 59.18         2.7 0.10            132            150 260 
 ZAR  HZ EP        949 42.71                             122    0.33 8  207 292 
 ZAR  HE ES        950  7.29                             122   -0.63 8  207 292 
 ZAR  HZ I         950 13.14         2.0 0.32            123            207 292 
                                                                                
