 2017  113 0444 22.8 L   6.798 -73.160140.0  RSN  6 0.4 1.2LRSN                1
 GAP=135        0.75       4.7     4.1  6.0 -0.3866E+01  0.7522E+01 -0.6812E+01E
 Epicentro: LOS SANTOS - SANTANDER                                             3
 ACTION:UPD 17-05-22 15:58 OP:jn   STATUS:               ID:20170113044422 L   I
 OLDACT:UP  17-01-13 15:35 OP:and  STATUS:               ID:20170113043746d    3
 OLDACT:DUP 17-01-13 15:33 OP:and  STATUS:               ID:20170113043746d    3
 2017-01-13-0438-00M.COL___335                                                 6
 STAT SP IPHASW D HRMM SECON CODA AMPLIT PERI AZIMU VELO AIN AR TRES W  DIS CAZ7
 BAR2 EZ ES        444 56.62                             170    0.0910 22.9 186 
 BAR2 EZ I         444 58.15         6.4 0.16            171           22.9 186 
 BRR  HZ EP        444 43.27                             152   -0.0210 69.9 299 
 BRR  HN ES   3    445  0.97                             152    1.73 2 69.9 299 
 PAM  EZ EP        444 44.31                             149   -0.2010 78.6  40 
 RUS  HZ EP        444 45.88                             142   -0.1410  101 175 
 RUS  HN ES        445  4.09                             142   -0.0110  101 175 
 RUS  HZ I         445  5.32         2.2 0.32            145            101 175 
 PTB  HZ EP        444 49.66                             131    0.47 9  146 259 
 PTB  HN ES        445  9.25                             131   -0.49 9  146 259 
 PTB  HZ I         445 12.71         1.4 0.09            132            146 259 
 NOR  HZ EP        444 58.41                             117    0.33 8  233 234 
 NOR  HN ES        445 25.52                             117   -0.05 8  233 234 
 NOR  HZ I         445 25.69         1.2 0.18            119            233 234 
                                                                                
