 2017  413 0128 11.1 L   6.811 -73.126143.6  RSN 10 0.6 1.8LRSN                1
 GAP=113        1.50       5.4     6.3  8.0  0.9790E+01  0.1071E+02  0.1052E+02E
 Epicentro: LOS SANTOS - SANTANDER                                             3
 ACTION:UPD 17-05-30 21:11 OP:jn   STATUS:               ID:20170413012811 L   I
 OLDACT:UP  17-04-13 13:28 OP:cog  STATUS:               ID:20170413011741     3
 OLDACT:REG 17-04-13 12:32 OP:cog  STATUS:               ID:20170413011741     3
 2017-04-13-0118-00M.COL___356                                                 6
 STAT SP IPHASW D HRMM SECON CODA AMPLIT PERI AZIMU VELO AIN AR TRES W  DIS CAZ7
 BAR2 EZ EP        128 30.09                             170   -0.3910 25.0 195 
 BAR2 EZ ES        128 45.34                             170   -0.2710 25.0 195 
 BAR2 EZ I         128 46.12        28.0 0.28            167           25.0 195 
 BRR  HZ EP        128 31.94                             151   -0.1310 72.6 297 
 BRR  HN ES        128 49.03                             151    0.5810 72.6 297 
 BRR  HZ I         128 53.04        12.1 0.20            151           72.6 297 
 PAM  EZ EP        128 32.85                             150   -0.0710 75.0  39 
 PAM  EE ES        128 50.13                             150    0.1710 75.0  39 
 PAM  EZ I         128 52.16        12.4 0.54            156           75.0  39 
 RUS  HZ EP        128 34.00                             143   -0.6910  102 177 
 RUS  HE ES        128 52.76                             143   -0.3510  102 177 
 RUS  HZ I         128 53.58         7.2 0.26            143            102 177 
 PTB  HZ EP   9    128 37.15                             131   -0.94 0  150 259 
 PTB  HN ES        128 56.89                             131   -1.33 9  150 259 
 PTB  HZ I         129  5.55         6.7 0.14            130            150 259 
 YPLC HZ EP        128 40.19                             126   -0.53 9  177 152 
 YPLC HE ES        129  4.81                             126    0.98 9  177 152 
 YPLC HZ I         129  8.61         3.9 0.38            128            177 152 
 ZAR  HZ EP        128 44.59                             121    1.04 8  206 292 
 ZAR  HN ES        129  8.49                             121   -0.38 8  206 292 
 NOR  HZ EP        128 46.96                             117    0.01 8  237 235 
 NOR  HN ES   3    129 13.32                             117   -1.61 2  237 235 
 NOR  HZ I         129 20.70         4.7 0.52            118            237 235 
 CHI  HZ EP        128 48.23                             116   -0.62 8  250 196 
 CHI  HE ES        129 19.09                             116    0.78 8  250 196 
 CHI  HZ I         129 22.97         3.4 0.28            117            250 196 
 ROSC BZ ES   4    129 20.97                             116    1.83 0  255 211 
 CBOC HZ EP        128 58.83                             109    0.64 7  336 252 
                                                                                
