 2016  313 0813 28.9 L   6.846 -73.135149.2  RSN 21 0.6 2.2LRSN                1
 GAP= 70        1.21       2.9     3.0  5.6 -0.2410E+01  0.4735E+01 -0.1597E+01E
 Epicentro: LOS SANTOS - SANTANDER                                             3
 ACTION:UPD 16-05-13 21:23 OP:cam  STATUS:               ID:20160313081328 L   I
 OLDACT:UP  16-03-13 19:30 OP:cara STATUS:               ID:20160313080749     3
 OLDACT:UP  16-03-13 19:25 OP:cara STATUS:               ID:20160313080749     3
 OLDACT:REG 16-03-13 14:23 OP:cara STATUS:               ID:20160313080749     3
 2016-03-13-0807-49M.COL___291                                                 6
 STAT SP IPHASW D HRMM SECON CODA AMPLIT PERI AZIMU VELO AIN AR TRES W  DIS CAZ7
 BAR2 EZ EP        813 49.21                             169    0.1310 28.6 191 
 BAR2 EZ ES        814  4.15                             169   -0.6510 28.6 191 
 PAM  EZ EP     C  813 51.96                             153    0.7210 72.7  41 
 PAM  EE ES        814  9.25                             153    0.6110 72.7  41 
 PAM  EZ I         814 11.24        21.3 0.20            152           72.7  41 
 RUS  HZ EP        813 53.09                             143   -0.2910  106 177 
 RUS  HN ES        814 12.00                             143   -0.4510  106 177 
 RUS  HZ I         814 13.03        12.0 0.42            143            106 177 
 PTB  HZ EP        813 56.13                             132   -0.24 9  150 257 
 PTB  HN ES        814 17.14                             132   -0.64 9  150 257 
 PTB  HZ I         814 24.79        20.6 0.28            130            150 257 
 OCA  HZ EP        813 57.27                             131    0.22 9  155 352 
 OCA  HE ES        814 19.62                             131    0.64 9  155 352 
 OCA  HZ I         814 25.64        35.8 0.30            129            155 352 
 TAM  HZ EP        813 57.39                             131    0.49 9  155 107 
 TAM  HZ I         814 18.15        12.7 0.42            131            155 107 
 TAM  HE ES        814 19.06                             131    0.34 9  155 107 
 SPBC HZ EP        813 58.08                             129   -0.05 9  168 218 
 SPBC HE ES        814 20.95                             129    0.03 9  168 218 
 SPBC HZ I         814 27.31        36.7 0.24            128            168 218 
 ZAR  HZ EP        814  1.76                             123    0.25 9  203 291 
 ZAR  HE ES        814 27.46                             123    0.52 9  203 291 
 ZAR  HZ I         814 38.10        16.3 0.36            121            203 291 
 NOR  HZ EP        814  5.45                             119    0.17 8  239 234 
 NOR  HE ES        814 32.79                             119   -0.84 8  239 234 
 NOR  HZ I         814 36.85        14.9 0.34            117            239 234 
 CHI  HZ EP        814  7.14                             117   -0.24 8  254 195 
 CHI  HN ES        814 36.94                             117   -0.44 8  254 195 
 CHI  HZ I         814 42.59         5.2 0.40            116            254 195 
 ROSC BZ EP   4    814  9.30                             117    1.53 0  258 211 
 ROSC BN ES   4    814 40.52                             117    2.44 0  258 211 
 ROSC BZ I         814 45.22        17.3 0.55            116            258 211 
 HEL  HZ EP   4    814 10.51                             115    0.93 0  275 255 
 HEL  HE ES        814 41.98                             115    0.69 8  275 255 
 HEL  HZ I         814 47.85         8.0 0.36            114            275 255 
 URE  HZ EP   4    814  7.34                             114   -2.73 0  283 291 
 URE  HN ES   4    814 40.15                             114   -2.02 0  283 291 
 URE  HZ I         814 50.00         9.0 0.22            113            283 291 
 GUY2CHZ EP        814 14.00                             113    0.87 7  305 234 
 GUY2CHN ES        814 47.99                             113    0.37 7  305 234 
 GUY2CHZ I         814 56.08        14.6 0.76                           305 234 
 PTGC HZ EP   4    814 12.08                             112   -1.35 0  313 159 
 PTGC HN ES   4    814 45.17                             112   -2.97 0  313 159 
 LL6C HZ EP        814 13.59                             111   -0.60 7  320 357 
 LL6C HE ES        814 49.04                             111   -0.46 7  320 357 
 CBOC HZ EP        814 16.81                             110    0.52 7  336 251 
 CBOC HN ES        814 53.33                             110    0.09 7  336 251 
 CBOC HZ I         815  1.44         2.8 0.56            109            336 251 
 MON  HZ EP        814 16.64                             109   -1.16 6  351 308 
 MON  HN ES        814 55.11                             109   -0.82 6  351 308 
 MON  HZ I         815  9.81         4.0 0.52            108            351 308 
 SDV  BZ EP        814 18.04                             109   -0.57 6  356  51 
 SDV  BN ES        814 56.35                             109   -1.02 6  356  51 
 SDV  BZ I         815  0.60         1.4 0.55            108            356  51 
 ORTC HZ EP        814 24.00                             107    0.47 6  400 216 
 ORTC HN ES        815  7.09                             107    0.97 6  400 216 
 ORTC HZ I         815 13.92         5.4 0.22            106            400 216 
 SJC  HZ EP   4    814 23.43                             106   -0.74 0  406 326 
 SJC  HE ES   4    815  4.81                             106   -2.46 0  406 326 
 SJC  HZ I         815 17.09         2.4 0.32            105            406 326 
 PAL  HZ EP        814 24.77                             106    0.14 6  409 239 
 PAL  HE ES        815  7.15                             106   -0.92 6  409 239 
 PAL  HZ I         815 19.56         3.4 0.74            105            409 239 
                                                                                
