 2016  613 0449  0.7 L   6.840 -73.132144.0  RSN 10 0.6 1.8LRSN                1
 GAP=136        1.19       4.5     5.4  8.3 -0.8371E+01  0.1201E+02  0.2364E+01E
 Epicentro: LOS SANTOS - SANTANDER                                             3
 ACTION:UPD 16-07-21 22:18 OP:rebc STATUS:               ID:20160613044900 L   I
 OLDACT:REG 16-06-13 12:39 OP:dnl  STATUS:               ID:20160613044743     3
 2016-06-13-0447-43M.COL___319                                                 6
 STAT SP IPHASW D HRMM SECON CODA AMPLIT PERI AZIMU VELO AIN AR TRES W  DIS CAZ7
 BAR2 EZ EP        449 20.11                             169   -0.1310 28.0 192 
 BAR2 EZ ES   2    449 33.97                             169   -1.50 5 28.0 192 
 BAR2 EZ I         449 40.04         6.8 0.16                          28.0 192 
 BRR  HZ EP        449 22.15                             153    0.5110 70.6 295 
 BRR  HN ES        449 38.59                             153    0.6310 70.6 295 
 BRR  HZ I         449 42.50        20.3 0.44                          70.6 295 
 PAM  EZ EP        449 22.99                             152    0.5010 73.0  41 
 PAM  EN ES        449 39.93                             152    0.4610 73.0  41 
 PAM  EZ I         449 41.88        16.9 0.42                          73.0  41 
 RUS  HZ EP   2    449 24.30                             142   -0.32 5  105 177 
 RUS  HN ES        449 42.80                             142   -0.4610  105 177 
 RUS  HZ I         449 43.97         5.6 0.36                           105 177 
 PTB  HZ EP        449 27.19                             131   -0.58 9  150 257 
 PTB  HN ES        449 49.11                             131    0.25 9  150 257 
 PTB  HZ I         449 50.42         7.8 0.46                           150 257 
 OCA  HZ EP        449 28.21                             130   -0.29 9  156 352 
 OCA  HN ES        449 49.40                             130   -0.76 9  156 352 
 OCA  HZ I         449 56.22        16.3 0.48                           156 352 
 NOR  HZ EP   2    449 36.08                             118   -0.68 4  239 234 
 NOR  HE ES        450  4.97                             118    0.09 8  239 234 
 NOR  HZ I         450 12.31         4.3 0.14                           239 234 
 HEL  HZ EP   2    449 41.41                             114    0.28 4  275 255 
 HEL  HE ES        450 12.23                             114   -0.43 8  275 255 
 HEL  HZ I         450 19.31         2.3 0.38                           275 255 
 GUY2CHZ EP   4    449 45.89                             112    1.21 0  305 234 
 GUY2CHE ES   4    450 20.02                             112    1.05 0  305 234 
 GUY2CHZ I         450 28.61         2.1 0.22                           305 234 
 PRA  HZ EP   2    449 54.81                             106    0.09 3  397 209 
 PRA  HN ES        450 37.92                             106    1.08 6  397 209 
 PRA  HZ I         450 42.18         4.1 0.22                           397 209 
                                                                                
