 2013  113 0515 21.0 L   6.642 -73.192142.8  RSN  4 0.4 1.5LRSN                1
 GAP=217        1.02       8.0     8.1  8.5  0.3449E+02  0.1758E+02  0.8192E+01E
 Epicentro: BARICHARA - SANTANDER                                              3
 ACTION:UPD 13-02-15 09:13 OP:ep   STATUS:               ID:20130113051521 L   I
 2013-01-13-0510-00M.COL___241                                                 6
 STAT SP IPHASW D HRMM SECON CODA AMPLIT PERI AZIMU VELO AIN AR TRES W  DIS CAZ7
 BAR2 SZ ES        515 54.98                             178    0.0310 5.58 169 
 BAR2 SZ I         515 57.50         8.2 0.24            170           5.58 169 
 BRR  HZ EP        515 41.79                             150   -0.4310 77.1 312 
 BRR  HN ES        515 58.96                             150    0.2210 77.1 312 
 BRR  HN I         516  2.87         7.5 0.18            152           77.1 312 
 RUS  HZ EP        515 44.06                             148    0.7210 83.7 172 
 RUS  HN ES        516  0.31                             148   -0.4310 83.7 172 
 RUS  HN I         516  6.87         1.4 0.56            148           83.7 172 
 PTB  HZ EP        515 46.78                             133   -0.31 9  140 265 
 PTB  HN ES        516  7.59                             133    0.18 9  140 265 
 PTB  HN I         516 13.37         9.3 0.48            133            140 265 
                                                                                
