 2012  713 0322 55.5 L   6.815 -73.096144.8  RSN  6 0.3 1.8LRSN                1
 GAP=188        0.82       4.1     6.3  8.3  0.5044E+01  0.1682E+02  0.1031E+01E
 Epicentro: LOS SANTOS - SANTANDER                                             3
 ACTION:UPD 12-08-14 11:44 OP:ep   STATUS:               ID:20120713032255 L   I
 2012-07-13-0320-00M.COL___197                                                 6
 STAT SP IPHASW D HRMM SECON CODA AMPLIT PERI AZIMU VELO AIN AR TRES W  DIS CAZ7
 BAR2 SZ EP   1    323 15.11                             169     0.0 7   26 201 
 BAR2 SZ ES   1    323 30.19                             169    -0.2 7   26 201 
 BAR2 SZ I         323 31.77        25.8 0.19            164             26 201 
 BRR  HZ IP     D  323 17.08                             151     0.310   75 295 
 BRR  HN ES   1    323 34.11                             151     0.7 7   75 295 
 BRR  HZ I         323 36.81        11.1 0.18            148             75 295 
 RUS  HZ EP   1    323 19.18                             143    -0.1 7  102 179 
 RUS  HN ES   1    323 37.68                             143    -0.2 7  102 179 
 RUS  HZ I         323 39.26        10.1 0.27            143            102 179 
 OCA  HE ES        323 45.43                             130    -0.2 9  159 351 
 ZAR  HN ES   1    323 53.37                             122    -0.6 6  208 291 
 HEL  HZ EP   1    323 36.73                             114     0.4 6  278 256 
 HEL  HN ES   1    324  7.93                             114    -0.2 6  278 256 
 HEL  HZ I         324 14.39         2.1 0.27            114            278 256 
