 2015  513 0533  9.8 L   6.809 -73.113146.0  RSN  8 0.5 1.8LRSN                1
 GAP=140        1.10       3.7     5.6  8.3 -0.3637E+00  0.1011E+02 -0.4757E+01E
 Epicentro: LOS SANTOS - SANTANDER                                             3
 ACTION:UPD 15-09-10 22:03 OP:cam  STATUS:               ID:20150513053309 L   I
 OLDACT:UP  15-05-13 16:50 OP:mh   STATUS:               ID:20150513052747     3
 OLDACT:UP  15-05-13 16:49 OP:mh   STATUS:               ID:20150513052747     3
 OLDACT:REG 15-05-13 13:17 OP:mh   STATUS:               ID:20150513052747     3
 2015-05-13-0527-47M.COL___276                                                 6
 STAT SP IPHASW D HRMM SECON CODA AMPLIT PERI AZIMU VELO AIN AR TRES W  DIS CAZ7
 BAR2 EZ EP   1    533 29.61                             170    0.07 7 25.1 198 
 BAR2 EZ I         533 47.56        14.3 0.09            167           25.1 198 
 BRR  HN ES        533 48.13                             152    0.3110 74.0 297 
 BRR  HZ I         533 50.43         9.3 0.16            154           74.0 297 
 PAM  SZ EP   1    533 32.32                             152    0.41 7 74.4  38 
 PAM  SN ES        533 49.12                             152   -0.0010 74.4  38 
 PAM  SZ I         533 50.83        11.3 0.54            150           74.4  38 
 RUS  HZ EP        533 33.36                             144   -0.3210  101 178 
 RUS  HE ES        533 52.24                             144   -0.0210  101 178 
 OCA  HZ EP        533 37.26                             130   -0.87 9  160 352 
 OCA  HN ES        534  0.50                             130    0.31 9  160 352 
 OCA  HZ I         534  1.85        12.7 0.20            130            160 352 
 SPBC HE ES        534  1.17                             129    0.05 9  166 220 
 SPBC HZ I         534  2.55         3.6 0.10            127            166 220 
 ZAR  HZ EP        533 43.61                             122    0.99 8  207 292 
 ZAR  HN ES        534  7.49                             122   -0.69 8  207 292 
 SML  HZ EP   1    533 46.87                             118    0.31 6  244 334 
 SML  HE ES   1    534 14.82                             118   -0.38 6  244 334 
 SML  HZ I         534 16.21         5.4 0.10            117            244 334 
                                                                                
