 2016  713 0620 18.6 L   6.815 -73.144151.0  RSN  7 0.4 1.6LRSN                1
 GAP=239        0.86       4.9     5.7  6.4  0.1159E+02  0.1342E+02  0.1029E+02E
 Epicentro: LOS SANTOS - SANTANDER                                             3
 ACTION:UPD 17-03-29 16:50 OP:lp   STATUS:               ID:20160713062018 L   I
 OLDACT:REG 16-07-13 18:19 OP:dani STATUS:               ID:20160713061700     3
 2016-07-13-0616-59S.COL___328                                                 6
 STAT SP IPHASW D HRMM SECON CODA AMPLIT PERI AZIMU VELO AIN AR TRES W  DIS CAZ7
 BAR2 EZ EP        620 38.94                             170    0.0510 25.0 190 
 BAR2 EZ ES        620 54.54                             170   -0.1810 25.0 190 
 BAR2 EZ I         620 56.75         8.1 0.24            167           25.0 190 
 BRR  HN ES        620 57.92                             154    0.7310 70.6 297 
 RUS  HN ES        621  1.79                             144   -0.2210  102 176 
 PTB  HZ EP        620 45.75                             133   -0.30 9  148 258 
 PTB  HN ES        621  7.13                             133   -0.32 9  148 258 
 PTB  HZ I         621  9.79         3.6 0.38            132            148 258 
 SPBC HZ EP        620 47.70                             130    0.06 9  165 219 
 SPBC HN ES        621 10.20                             130   -0.09 9  165 219 
 SPBC HZ I         621 11.67         4.9 0.18            129            165 219 
 ZAR  HE ES        621 16.66                             124   -0.23 9  204 292 
 PRA  HZ EP        621 12.67                             107    0.18 6  394 209 
 PRA  HE ES        621 55.38                             107    0.86 6  394 209 
 PRA  HZ I         622  1.12         1.7 0.54            107            394 209 
                                                                                
