 2014  313 0625 28.5 L   6.779 -73.132146.4  RSN  9 0.4 1.7LRSN                1
 GAP=139        0.85       3.9     4.4  7.1 -0.3401E+01  0.1271E+02 -0.3322E+01E
 Epicentro: LOS SANTOS - SANTANDER                                             3
 OLDACT:UP  14-03-13 09:58 OP:fm   STATUS:               ID:20140313061808     3
 OLDACT:REG 14-03-13 07:43 OP:fm   STATUS:               ID:20140313061808     3
 OLDACT:DUP 14-03-13 10:07 OP:fm   STATUS:               ID:20140313061809d    3
 ACTION:UPD 14-04-09 23:16 OP:nd   STATUS:               ID:20140313062528 L   I
 OLDACT:UP  14-03-13 10:16 OP:fm   STATUS:               ID:20140313061809d    3
 2014-03-13-0618-08M.COL___232                                                 6
 STAT SP IPHASW D HRMM SECON CODA AMPLIT PERI AZIMU VELO AIN AR TRES W  DIS CAZ7
 BAR2 SZ EP        625 48.26                             171    0.0610 21.4 195 
 BAR2 SZ ES   1    626  2.94                             171   -0.60 7 21.4 195 
 BAR2 SZ I         626  4.21        28.5 0.50            164           21.4 195 
 PAM  SZ EP        625 51.09                             150    0.2310 78.2  38 
 PAM  SN ES        626  7.99                             150   -0.2910 78.2  38 
 PAM  SZ I         626  8.96         6.2 0.20            140           78.2  38 
 RUS  HZ EP        625 52.50                             144    0.3310 98.2 177 
 RUS  HE ES        626 10.96                             144    0.3410 98.2 177 
 RUS  SZ I         626 11.79         6.3 0.32            130           98.2 177 
 PTB  HZ EP   1    625 54.96                             132   -0.68 7  149 260 
 PTB  HE ES   1    626 16.78                             132   -0.01 7  149 260 
 PTB  SZ I         626 19.02         8.1 0.18            117            149 260 
 SPBC HZ EP   1    625 56.98                             129   -0.02 7  162 220 
 SPBC SZ I         626 24.17         4.5 0.28            115            162 220 
 ZAR  HN ES   1    626 27.67                             122    0.90 6  206 293 
 NOR  HZ EP   2    626  3.37                             118   -0.92 4  235 235 
 NOR  HE ES   1    626 31.71                             118   -0.47 6  235 235 
 NOR  SZ I         626 48.20         3.0 1.14            107            235 235 
 SML  HZ EP   1    626  5.22                             117   -0.26 6  246 335 
 SML  HN ES   2    626 34.90                             117    0.60 4  246 335 
 SML  SZ I         626 49.54         5.0 1.46            107            246 335 
 HEL  HZ EP   4    626 10.68                             115    1.80 0  273 256 
 HEL  HE ES   2    626 40.15                             115   -0.19 4  273 256 
 HEL  SZ I         626 42.01         2.4 1.02            105            273 256 
                                                                                
