 2016  313 0118 32.9 L   6.817 -73.162137.9  RSN  8 0.3 1.9LRSN                1
 GAP=134        0.75       2.5     3.3  4.9 -0.1767E+01  0.6394E+01 -0.1670E+01E
 Epicentro: LOS SANTOS - SANTANDER                                             3
 ACTION:UPD 16-05-13 21:23 OP:cam  STATUS:               ID:20160313011832 L   I
 OLDACT:DUP 16-03-13 15:56 OP:cara STATUS:               ID:20160313010756d    3
 2016-03-13-0107-50M.COL___295                                                 6
 STAT SP IPHASW D HRMM SECON CODA AMPLIT PERI AZIMU VELO AIN AR TRES W  DIS CAZ7
 BAR2 EZ ES        119  6.04                             169   -0.1910 24.9 185 
 BAR2 EZ I         119  7.26        15.2 0.16            171           24.9 185 
 PAM  EZ IP        118 54.52                             149    0.2310 77.2  41 
 PAM  EE ES        119 11.30                             149    0.3410 77.2  41 
 PAM  EZ I         119 13.42        24.4 0.44            151           77.2  41 
 RUS  HZ EP        118 56.51                             141    0.4610  103 175 
 RUS  HN ES        119 13.79                             141   -0.3010  103 175 
 RUS  HZ I         119 14.95         6.7 0.40            145            103 175 
 PTB  HZ EP        118 58.87                             130   -0.25 9  146 258 
 PTB  HN ES        119 19.65                             130    0.09 9  146 258 
 PTB  HZ I         119 21.43        10.3 0.12            132            146 258 
 OCA  HZ EP        118 59.97                             128   -0.46 9  158 354 
 OCA  HN ES        119 21.63                             128   -0.26 9  158 354 
 OCA  HZ I         119 26.52        26.2 0.18            129            158 354 
 SPBC HZ EP        119  0.48                             127   -0.37 9  163 218 
 SPBC HN ES        119 22.80                             127    0.16 9  163 218 
 SPBC HZ I         119 26.25         8.3 0.18            129            163 218 
 ZAR  HZ EP        119  4.91                             121    0.30 9  202 292 
 ZAR  HN ES        119 29.50                             121    0.17 9  202 292 
 ZAR  HZ I         119 33.40         6.3 0.26            122            202 292 
 GUY2CHZ EP        119 16.19                             111    0.07 7  301 234 
 GUY2CHE ES   4    119 50.90                             111    1.08 0  301 234 
 GUY2CHZ I         119 59.06         3.0 0.58                           301 234 
                                                                                
