 2013 1113 0048 38.7 L   6.796 -73.154151.5  RSN  5 0.3 1.4LRSN                1
 GAP=200        0.88       4.6     6.5  6.6  0.1249E+02 -0.2452E+01 -0.9962E+01E
 Epicentro: LOS SANTOS - SANTANDER                                             3
 ACTION:UPD 14-01-09 16:27 OP:ep   STATUS:               ID:20131113004838 L   I
 OLDACT:REG 13-11-13 07:27 OP:nd   STATUS:               ID:20131113004000     3
 2013-11-13-0040-00M.COL___276                                                 6
 STAT SP IPHASW D HRMM SECON CODA AMPLIT PERI AZIMU VELO AIN AR TRES W  DIS CAZ7
 BAR2 SZ EP        048 58.84                             171   -0.1310 22.8 188 
 BAR2 SZ ES        049 14.42                             171   -0.3910 22.8 188 
 BAR2 SZ I         049 15.12         7.0 0.26            170           22.8 188 
 BRR  HZ EP        049  0.86                             154    0.4610 70.6 299 
 BRR  HN ES        049 17.92                             154    0.5610 70.6 299 
 BRR  HZ I         049 21.11         6.0 0.40            153           70.6 299 
 RUS  HZ EP        049  3.06                             145    0.1110  100 176 
 RUS  HE ES        049 21.90                             145    0.0010  100 176 
 RUS  HZ I         049 24.59         1.1 0.22            146            100 176 
 PTB  HZ EP        049  5.73                             133   -0.29 9  147 259 
 PTB  HN ES        049 27.19                             133   -0.17 9  147 259 
 PTB  HZ I         049 30.22         3.7 0.32            134            147 259 
 SML  HZ EP        049 15.87                             119    0.25 8  244 336 
 SML  HN ES        049 43.85                             119   -0.59 8  244 336 
 SML  HZ I         049 45.12         1.9 0.28            120            244 336 
                                                                                
