 2013  713 0345  3.3 L   6.792 -73.176140.0  RSN  7 0.5 1.6LRSN                1
 GAP=234        1.28       7.2     7.4  9.7  0.1985E+02  0.1389E+02 -0.1160E+02E
 Epicentro: LOS SANTOS - SANTANDER                                             3
 ACTION:UPD 13-08-12 10:37 OP:ep   STATUS:               ID:20130713034503 L   I
 OLDACT:REG 13-07-13 08:18 OP:nd   STATUS:               ID:20130713033959     3
 2013-07-13-0339-59M.COL___266                                                 6
 STAT SP IPHASW D HRMM SECON CODA AMPLIT PERI AZIMU VELO AIN AR TRES W  DIS CAZ7
 BAR2 SZ EP        345 21.82                             171   -0.3710 22.1 182 
 BAR2 SZ ES        345 36.89                             171   -0.0510 22.1 182 
 BAR2 SZ I         345 38.89         9.1 0.40            174           22.1 182 
 BRR  HZ IP     C  345 24.06                             152    0.4010 68.7 300 
 BRR  HN ES   2    345 40.03                             152    0.47 5 68.7 300 
 BRR  HZ I         345 45.32         5.8 0.12            143           68.7 300 
 RUS  HZ EP        345 26.02                             143   -0.4010  100 174 
 RUS  HN ES        345 44.71                             143    0.2410  100 174 
 RUS  HZ I         345 46.39         5.3 0.36            146            100 174 
 PTB  HZ EP        345 28.91                             131   -0.55 9  144 259 
 PTB  HN ES        345 49.84                             131   -0.04 9  144 259 
 PTB  HZ I         345 54.63         6.2 0.30            128            144 259 
 SPBC HZ EP        345 30.91                             128   -0.16 9  160 218 
 SPBC HN ES        345 53.13                             128    0.38 9  160 218 
 ZAR  HZ EP        345 36.38                             121    1.32 9  201 293 
 ZAR  HE ES        345 59.06                             121   -0.79 9  201 293 
 ZAR  HZ I         346  5.86         6.3 0.54            115            201 293 
 SJC  HZ EP   4    345 56.01                             105   -2.51 0  408 327 
 SJC  HZ I         346 28.60         0.9 0.66            100            408 327 
 SJC  HN ES   4    346 38.29                             105   -3.32 0  408 327 
                                                                                
