 2014 1113 0930 49.0 L   6.794 -73.193139.8  RSN 12 0.4 2.0LRSN                1
 GAP= 69        1.70       5.7     6.3  9.0 -0.9275E+01  0.7434E+01  0.5986E+01E
 Epicentro: ZAPATOCA - SANTANDER                                               3
 ACTION:UPD 14-12-19 15:42 OP:nd   STATUS:               ID:20141113093049 L   I
 OLDACT:DUP 14-11-13 17:23 OP:mh   STATUS:               ID:20141113092739d    3
 2014-11-13-0927-38M.COL___289                                                 6
 STAT SP IPHASW D HRMM SECON CODA AMPLIT PERI AZIMU VELO AIN AR TRES W  DIS CAZ7
 BAR2 SZ EP   1    931  8.13                             171    0.24 7 22.4 177 
 BAR2 SZ ES        931 22.23                             171   -0.4010 22.4 177 
 BAR2 SZ I         931 24.11        23.5 0.37            169           22.4 177 
 BRR  HZ EP        931  9.89                             153    0.6210 67.0 301 
 BRR  HN ES        931 25.54                             153    0.4610 67.0 301 
 BRR  HZ I         931 30.79        23.2 0.08            151           67.0 301 
 PAM  SZ EP   1    931 10.82                             149   -0.01 7 81.3  42 
 PAM  SN ES        931 27.98                             149    0.1310 81.3  42 
 PAM  SZ I         931 30.27        19.6 0.48            155           81.3  42 
 RUS  HZ EP   1    931 12.24                             143    0.08 7  100 173 
 RUS  HN ES        931 30.79                             143    0.5710  100 173 
 RUS  HZ I         931 32.32        11.0 0.28            144            100 173 
 PTB  HZ EP        931 14.83                             132   -0.18 9  143 259 
 PTB  HN ES        931 35.11                             132   -0.18 9  143 259 
 PTB  HZ I         931 40.68        15.1 0.28            132            143 259 
 SPBC HZ EP        931 16.32                             129   -0.37 9  159 218 
 SPBC HN ES        931 38.00                             129   -0.29 9  159 218 
 SPBC HZ I         931 45.74        16.3 0.20            129            159 218 
 TAM  HZ EP        931 16.51                             129   -0.17 9  160 104 
 OCA  HZ EP        931 16.19                             129   -0.67 9  160 355 
 OCA  HN ES   1    931 37.90                             129   -0.70 7  160 355 
 OCA  HZ I         931 41.18        12.4 0.22            131            160 355 
 NOR  HZ EP        931 24.43                             118    0.54 8  230 234 
 NOR  HN ES        931 50.91                             118   -0.20 8  230 234 
 NOR  HZ I         931 57.56         6.1 0.34            119            230 234 
 CHI  HZ EP   1    931 26.09                             117   -0.07 6  247 194 
 CHI  HN ES   1    931 54.78                             117   -0.37 6  247 194 
 CHI  HZ I         932  3.84         2.7 0.32            118            247 194 
 HEL  HZ EP        931 28.78                             114    0.45 8  267 256 
 HEL  HN ES   1    931 59.08                             114    0.06 6  267 256 
 HEL  HZ I         932  7.19         5.4 0.25            115            267 256 
 MON  HZ EP   9    931 32.08                             108   -5.27 0  350 309 
 MON  HN ES        932 13.65                                    3.86 6  350 309 
                                                                                
