 2010  513 0833 49.5 L   6.758 -73.049142.6  RSN 14 0.4 2.6LRSN                1
 GAP=134        0.90       3.4     6.0  5.3 -0.1126E+02  0.2696E+01  0.2372E+01E
 Epicentro: LOS SANTOS - SANTANDER                                             3
 ACTION:UP  10-08-24 10:04 OP:vdl  STATUS:               ID:20100513083349 L   I
 2010-05-13-0831-49S.COL___104                                                 6
 STAT SP IPHASW D HRMM SECON CODA AMPLIT PERI AZIMU VELO AIN AR TRES W  DIS CAZ7
 BAR2 SZ IP        834  8.78                             170     0.010   24 219 
 BAR2 SZ ES   1    834 23.27                             170    -0.5 7   24 219 
 BRR  HZ IP     D  834 11.48                             148     0.410   83 298 
 BRR  HE ES   1    834 28.06                             148     0.2 7   83 298 
 BRR  HZ I         834 30.68        96.1 0.18                            83 298 
 RUS  HZ EP        834 12.82                             145     0.210   96 182 
 RUS  HN ES   1    834 30.71                             145     0.1 7   96 182 
 RUS  HZ I         834 32.74        68.0 0.36                            96 182 
 BRI  SZ EP        834 13.54                             141     0.310  110  15 
 BRI  SZ ES   1    834 32.06                             141     0.4 7  110  15 
 GUE  SZ EP        834 13.89                             138    -0.310  119   7 
 GRA  SZ IP        834 14.84                             136     0.210  127  12 
 GRA  SZ ES   1    834 33.76                             136    -0.5 7  127  12 
 OCA  SZ IP        834 17.56                             128    -0.6 9  166 350 
 OCA  SZ I         834 41.15        42.8 0.59                           166 350 
 CHI  HZ EP        834 26.98                             117     0.1 8  247 198 
 CHI  HN ES   2    834 55.82                             117    -0.2 4  247 198 
 CHI  HZ I         834 59.67        19.6 0.42                           247 198 
 ROSC BZ EP   1    834 28.57                             116     0.9 6  255 214 
 ROSC BN ES   2    834 57.59                             116     0.1 4  255 214 
 ROSC BZ I         835  2.58        17.4 0.51                           255 214 
 HEL  HZ EP        834 30.79                             113     0.2 7  281 257 
 HEL  HZ I         835  7.96        24.9 0.44                           281 257 
 RREF BZ EP        834 36.20                             110     0.1 7  327 231 
 RREF BN ES   1    835 12.23                             110    -0.3 5  327 231 
 RREF BZ I         835 16.64        16.4 0.28                           327 231 
 SDV  BZ EP        834 38.72                             108    -0.1 6  355  49 
 SDV  BZ I         835 20.62        17.3 0.57                           355  49 
 ANIL BZ EP        834 39.23                             108    -0.5 6  362 226 
 ANIL BZ I         835 26.01        24.7 0.38                           362 226 
 PRA  HZ EP        834 42.61                             106    -0.5 6  393 211 
 PRA  HE ES   1    835 24.55                             106    -0.4 4  393 211 
 PRA  HZ I         835 30.47        16.0 0.24                           393 211 
                                                                                
