 2015  813 0621 14.9 L   6.046 -73.695118.7  RSN 10 0.4 1.8LRSN                1
 GAP=112        1.02       3.3     3.6  6.6 -0.3399E+01  0.1064E+02  0.7402E+00E
 Epicentro: VELEZ - SANTANDER                                                  3
 ACTION:UPD 15-09-15 23:01 OP:cam  STATUS:               ID:20150813062114 L   I
 OLDACT:UP  15-08-13 17:53 OP:mh   STATUS:               ID:20150813061749     3
 OLDACT:UP  15-08-13 17:52 OP:mh   STATUS:               ID:20150813061749     3
 OLDACT:UP  15-08-13 17:51 OP:mh   STATUS:               ID:20150813061749     3
 OLDACT:REG 15-08-13 12:07 OP:mh   STATUS:               ID:20150813061749     3
 2015-08-13-0617-49M.COL___337                                                 6
 STAT SP IPHASW D HRMM SECON CODA AMPLIT PERI AZIMU VELO AIN AR TRES W  DIS CAZ7
 SPBC HZ EP        621 32.79                             151    0.1310 60.4 224 
 SPBC HN ES        621 45.99                             151   -0.5210 60.4 224 
 SPBC HZ I         621 47.84        29.8 0.10            150           60.4 224 
 RUS  HZ EP        621 33.88                             148    0.0610 69.8 104 
 RUS  HN ES        621 48.59                             148    0.0110 69.8 104 
 BAR2 EZ EP        621 34.67                             143    0.3010 82.8  43 
 BAR2 EZ ES        621 49.45                             143   -0.0910 82.8  43 
 BRR  HZ EP   1    621 36.67                             132   -0.22 7  117 359 
 BRR  HN ES        621 54.65                             132    0.6110  117 359 
 BRR  HZ I         621 56.61         9.9 0.14            133            117 359 
 NOR  HZ EP   1    621 38.80                             126   -0.36 7  141 248 
 NOR  HN ES        621 57.88                             126   -0.20 9  141 248 
 NOR  HZ I         621 59.56        17.4 0.40            126            141 248 
 HEL  HZ EP        621 45.80                             116   -0.37 9  204 275 
 HEL  HN ES        622 11.29                             116    0.74 9  204 275 
 HEL  HZ I         622 14.12         4.3 0.58            116            204 275 
 ZAR  HZ EP   1    621 44.93                             115   -0.95 6  205 321 
 ZAR  HN ES        622  9.54                             115   -0.50 9  205 321 
 ZAR  HZ I         622 11.30        10.5 0.26            116            205 321 
 GUY2CHZ EP   1    621 46.85                             116    0.27 6  206 244 
 GUY2CHN ES   4    622 12.85                             116    1.57 0  206 244 
 GUY2CHZ I         622 18.88         3.8 0.40                           206 244 
 TOL  SZ EP        621 51.10                             111    0.69 8  242 228 
 TOL  SN ES        622 18.28                             111    0.19 8  242 228 
 TOL  SZ I         622 22.06         4.1 0.36            112            242 228 
 URE  HZ EP   4    621 52.93                             108   -1.11 0  277 313 
 URE  HN ES   4    622 20.71                             108   -3.86 0  277 313 
 ORTC HZ EP        621 55.07                             107   -0.76 7  292 216 
 ORTC HN ES        622 28.15                             107    0.40 7  292 216 
 ORTC HZ I         622 33.54         4.1 0.62            107            292 216 
                                                                                
