 2017  813 0449 48.8 L   6.858 -73.082134.8  RSN  8 0.5 1.5LRSN                1
 GAP=248        1.01       4.3     5.7  6.1  0.7897E+01  0.1078E+02  0.5699E+01E
 Epicentro: LOS SANTOS - SANTANDER                                             3
 ACTION:UPD 17-09-04 20:19 OP:rebc STATUS:               ID:20170813044948 L   I
 OLDACT:REG 17-08-13 12:01 OP:dhb  STATUS:               ID:20170813044739     3
 2017-08-13-0448-00M.COL___410                                                 6
 STAT SP IPHASW D HRMM SECON CODA AMPLIT PERI AZIMU VELO AIN AR TRES W  DIS CAZ7
 BAR2 EZ IP     C  450  7.65                             167    0.3710 31.5 201 
 BAR2 EZ ES        450 21.69                             167   -0.0410 31.5 201 
 BAR2 EZ I         450 24.07         6.8 0.18            164           31.5 201 
 BRR  HZ EP        450  9.59                             149    0.6310 74.8 292 
 BRR  HN ES        450 24.33                             149   -0.3810 74.8 292 
 BRR  HZ I         450 28.95         6.2 0.28            148           74.8 292 
 RUS  HZ EP        450 11.66                             140   -0.2710  107 180 
 RUS  HN ES        450 30.31                             140    0.3110  107 180 
 RUS  HZ I         450 31.70         2.4 0.30            141            107 180 
 SPBC HZ EP        450 16.74                             125   -0.64 9  173 219 
 SPBC HE ES        450 39.62                             125   -0.08 9  173 219 
 SPBC HZ I         450 42.41         5.6 0.33            126            173 219 
 ZAR  HZ EP        450 20.82                             119   -0.14 8  208 290 
 ZAR  HN ES        450 46.26                             119    0.17 8  208 290 
 ZAR  HZ I         450 52.02         2.9 0.26            120            208 290 
 NOR  HZ EP        450 24.72                             115   -0.20 8  244 234 
 NOR  HN ES        450 52.44                             115   -0.68 8  244 234 
 NOR  HZ I         450 54.99         2.6 0.16            116            244 234 
 CHI  HZ EP        450 26.57                             114   -0.20 8  257 196 
 CHI  HN ES        450 56.57                             114    0.14 8  257 196 
 CHI  HZ I         451  2.50         1.4 0.25            116            257 196 
 GUY2CHZ EP        450 33.24                             109    0.27 7  311 235 
 GUY2CHN ES   1    451  8.89                             109    1.44 5  311 235 
 GUY2CHZ I         451 14.12         1.7 0.61                           311 235 
                                                                                
