 2011 1213 0117 35.0 L   6.745 -73.151156.2  RSN  5 0.2 1.3LRSN                1
 GAP=183        0.40       4.3     4.5  6.1  0.8425E+01 -0.5385E+01 -0.5717E+01E
 Epicentro: JORDAN - SANTANDER                                                 3
 ACTION:UPD 12-07-13 16:15 OP:ep   STATUS:               ID:20111213011735 L   I
 2011-12-13-0110-00M.COL___186                                                 6
 STAT SP IPHASW D HRMM SECON CODA AMPLIT PERI AZIMU VELO AIN AR TRES W  DIS CAZ7
 BAR2 SZ EP   2    117 55.45                             174   -0.30 5 17.2 192 
 GIR2 SZ EP   2    117 55.80                             166   -0.24 5 37.2 353 
 BRR  HZ EP   1    117 57.48                             153    0.09 7 73.8 303 
 BRR  HZ I         117 58.03         5.9 0.09                          73.8 303 
 BRR  HN ES   1    118 14.99                             153    0.11 7 73.8 303 
 RUS  HZ EP   2    117 59.81                             148    0.47 5 94.5 175 
 RUS  HE ES   1    118 18.31                             148   -0.05 7 94.5 175 
 RUS  HZ I         118 19.27         1.6 0.20                          94.5 175 
 PTB  HZ EP   2    118  2.54                             135   -0.12 5  146 261 
 PTB  HN ES   1    118 24.18                             135   -0.08 7  146 261 
                                                                                
