 2015  613 0547 27.1 L   6.141 -73.804 87.8  RSN  5 0.5 1.0LRSN                1
 GAP=113        1.39       5.3     6.8 14.0 -0.5952E+01  0.2804E+02 -0.2725E+02E
 Epicentro: LANDAZURI - SANTANDER                                              3
 ACTION:UPD 15-09-10 22:12 OP:cam  STATUS:               ID:20150613054727 L   I
 OLDACT:REG 15-06-13 13:03 OP:stll STATUS:               ID:20150613053747     3
 2015-06-13-0537-47M.COL___312                                                 6
 STAT SP IPHASW D HRMM SECON CODA AMPLIT PERI AZIMU VELO AIN AR TRES W  DIS CAZ7
 SPBC HZ EP        547 41.76                             142   -0.0410 61.7 209 
 SPBC HN ES        547 53.28                             142    0.0410 61.7 209 
 SPBC HZ I         547 55.19         5.3 0.36            146           61.7 209 
 RUS  HZ EP        547 44.65                             133    0.4010 84.4 109 
 RUS  HZ I         547 45.51         2.3 0.32            136           84.4 109 
 BAR2 EZ ES        547 56.14                             132   -0.9310 84.9  54 
 BAR2 EZ I         548  0.68         2.4 0.26            135           84.9  54 
 BRR  HZ EP        547 46.22                             125    0.4310  107   5 
 BRR  HE ES        548  1.17                             125    0.8310  107   5 
 ZAR  HZ EP        547 54.23                             110   -0.64 9  189 322 
 ZAR  HN ES        548 16.20                             110   -0.30 9  189 322 
 ZAR  HZ I         548 17.83         1.7 0.32            113            189 322 
                                                                                
