 2012 1013 0836  4.9 L   6.774 -73.124142.1  RSN  5 0.2 1.8LRSN                1
 GAP=141        0.52       3.6     3.9  5.9  0.2674E+01  0.1728E+01  0.4503E+00E
 Epicentro: LOS SANTOS - SANTANDER                                             3
 ACTION:UPD 12-11-22 17:03 OP:ep   STATUS:               ID:20121013083604 L   I
 2012-10-13-0830-00M.COL___231                                                 6
 STAT SP IPHASW D HRMM SECON CODA AMPLIT PERI AZIMU VELO AIN AR TRES W  DIS CAZ7
 BAR2 SZ EP   1    836 24.07                             171    0.00 7 21.2 198 
 BAR2 SZ ES   1    836 38.70                             171   -0.31 7 21.2 198 
 BAR2 SZ I         836 40.31        21.6 0.24                          21.2 198 
 BRR  HN ES   1    836 42.70                             151    0.46 7 74.7 300 
 PAM  SZ EP   1    836 26.94                             150    0.15 7 78.1  37 
 PAM  SZ I         836 27.16        10.3 0.22                          78.1  37 
 PAM  SN ES   1    836 43.72                             150   -0.14 7 78.1  37 
 PAM  SN I         836 44.88        13.2 0.46                          78.1  37 
 RUS  HZ EP   1    836 28.08                             144   -0.02 7 97.6 177 
 RUS  HZ I         836 29.26         4.6 0.20                          97.6 177 
 RUS  HN ES   1    836 46.28                             144    0.10 7 97.6 177 
 RUS  HN I         836 48.52        10.3 0.38                          97.6 177 
 ZAR  HN ES   1    837  2.53                             121   -0.35 6  207 293 
 ZAR  HN I         837  4.30         6.8 0.12                           207 293 
                                                                                
