 2017  813 0812  8.2 L   6.747 -73.147141.2  RSN  4 0.2 1.1LRSN                1
 GAP=233        0.62       3.6     5.1  5.5  0.1016E+02  0.1887E+01 -0.1235E+01E
 Epicentro: LOS SANTOS - SANTANDER                                             3
 ACTION:UPD 17-09-04 20:19 OP:rebc STATUS:               ID:20170813081208 L   I
 OLDACT:DUP 17-08-13 17:48 OP:dhb  STATUS:               ID:20170813080744d    3
 OLDACT:REG 17-08-13 12:25 OP:dhb  STATUS:               ID:20170813080743     3
 2017-08-13-0808-00M.COL___404                                                 6
 STAT SP IPHASW D HRMM SECON CODA AMPLIT PERI AZIMU VELO AIN AR TRES W  DIS CAZ7
 BRR  HZ IP     C  812 28.56                             151   -0.4610 74.0 303 
 BRR  HN ES        812 45.40                             151    0.1410 74.0 303 
 BRR  HZ I         812 53.20         2.0 0.57            151           74.0 303 
 RUS  HZ EP        812 31.30                             145    0.2210 94.7 176 
 RUS  HN ES        812 48.91                             145   -0.0110 94.7 176 
 RUS  HZ I         812 51.11         1.5 0.32            149           94.7 176 
 SPBC HZ EP        812 35.78                             129   -0.12 9  159 220 
 SPBC HN ES        812 57.47                             129   -0.04 9  159 220 
 SPBC HZ I         813  3.63         1.6 0.21            132            159 220 
 ZAR  HZ EP        812 40.92                             121    0.35 8  206 294 
 ZAR  HN ES        813  5.79                             121   -0.02 8  206 294 
 ZAR  HZ I         813  9.56         1.5 0.13            125            206 294 
                                                                                
