 2011  513 0927 53.9 L   6.770 -73.124150.5  RSN  4 0.1 1.3LRSN                1
 GAP=185        0.40       2.8     7.9  4.8  0.1211E+02 -0.1380E+02 -0.5653E+01E
 Epicentro: LOS SANTOS - SANTANDER                                             3
 ACTION:UP  11-06-29 08:53 OP:tino STATUS:               ID:20110513092753 L   I
 2011-05-13-0920-00M.COL___139                                                 6
 STAT SP IPHASW D HRMM SECON CODA AMPLIT PERI AZIMU VELO SNR AR TRES W  DIS CAZ7
 BAR2 SZ ES   1    928 29.67                             172    -0.1 7   21 198 
 BRR  HZ EP   1    928 15.48                             152    -0.3 7   75 300 
 BRR  HZ I         928 15.88         7.0 0.10                            75 300 
 BRR  HE ES   1    928 32.95                             152     0.1 7   75 300 
 RUS  HZ EP   1    928 17.93                             146     0.1 7   97 177 
 RUS  HE ES   1    928 36.58                             146     0.0 7   97 177 
 RUS  HZ I         928 37.42         2.0 0.35                            97 177 
 OCA  SZ EP   1    928 23.04                             130     0.2 7  164 352 
 OCA  SZ ES   1    928 45.46                             130    -0.1 7  164 352 
                                                                                
