 2015 1213 0239 41.4 L   6.797 -73.142150.5  RSN 14 0.5 2.1LRSN                1
 GAP=137        1.17       3.0     4.4  5.9 -0.2732E+01  0.7174E+01  0.2933E+00E
 Epicentro: LOS SANTOS - SANTANDER                                             3
 ACTION:UPD 16-02-04 15:04 OP:cam  STATUS:               ID:20151213023941 L   I
 OLDACT:UP  15-12-13 13:08 OP:mh   STATUS:               ID:20151213023750     3
 OLDACT:UP  15-12-13 13:01 OP:mh   STATUS:               ID:20151213023750     3
 OLDACT:REG 15-12-13 12:07 OP:mh   STATUS:               ID:20151213023750     3
 2015-12-13-0237-50M.COL___346                                                 6
 STAT SP IPHASW D HRMM SECON CODA AMPLIT PERI AZIMU VELO AIN AR TRES W  DIS CAZ7
 BAR2 EZ EP        240  1.80                             171    0.1910 23.1 191 
 BAR2 EZ ES        240 16.67                             171   -0.6910 23.1 191 
 BAR2 EZ I         240 17.72        24.0 0.14            170           23.1 191 
 BRR  HZ IP     D  240  3.82                             153    0.7210 71.7 299 
 BRR  HN ES        240 20.84                             153    0.8210 71.7 299 
 BRR  HZ I         240 23.69        20.4 0.36            150           71.7 299 
 PAM  EZ EP        240  4.46                             152    0.3310 77.4  39 
 PAM  EN ES        240 21.73                             152   -0.1210 77.4  39 
 PAM  EZ I         240 23.97         7.5 0.22            154           77.4  39 
 RUS  HZ EP        240  5.84                             145    0.2310  100 176 
 RUS  HN ES        240 24.65                             145    0.1710  100 176 
 RUS  HZ I         240 25.55        10.6 0.18            147            100 176 
 PTB  HZ EP        240  7.94                             133   -0.86 9  148 259 
 PTB  HN ES        240 29.65                             133   -0.51 9  148 259 
 PTB  HZ I         240 32.38        10.8 0.42            132            148 259 
 OCA  HZ EP        240 10.08                             131   -0.05 9  161 353 
 OCA  HN ES        240 32.34                             131   -0.19 9  161 353 
 OCA  HZ I         240 38.50        16.9 0.32            131            161 353 
 SPBC HZ EP        240 10.84                             130    0.56 9  163 219 
 SPBC HN ES        240 32.32                             130   -0.48 9  163 219 
 SPBC HZ I         240 38.58        17.8 0.20            130            163 219 
 ZAR  HZ EP        240 14.53                             123    0.31 9  205 292 
 ZAR  HN ES        240 40.05                             123    0.24 9  205 292 
 ZAR  HZ I         240 45.66        10.5 0.36            123            205 292 
 NOR  HN ES        240 45.96                             119    0.43 8  235 235 
 NOR  HZ I         240 48.91         8.6 0.18            120            235 235 
 SML  HZ EP        240 18.07                             118   -0.29 8  244 335 
 SML  HN ES        240 46.34                             118   -0.83 8  244 335 
 SML  HZ I         240 53.93        11.6 0.22            119            244 335 
 ROSC BZ EP        240 19.67                             118   -0.12 8  253 211 
 ROSC BE ES        240 49.33                             118   -0.39 8  253 211 
 ROSC BZ I         240 56.28        10.2 0.45            118            253 211 
 HEL  HZ EP        240 21.50                             116   -0.41 8  272 256 
 HEL  HE ES        240 54.21                             116    0.72 8  272 256 
 HEL  HZ I         241  0.58         6.8 0.30            116            272 256 
 GUY2CHZ EP   4    240 27.43                             113    2.17 0  301 235 
 GUY2CHE ES   4    241  1.65                             113    2.19 0  301 235 
 GUY2CHZ I         241  7.38         4.5 0.40                           301 235 
 PRA  HZ EP        240 35.11                             107    0.02 6  392 210 
 PRA  HN ES        241 16.50                             107   -0.46 6  392 210 
 PRA  HZ I         241 23.50         4.0 0.34            108            392 210 
 SJC  HZ EP   4    240 36.00                             106   -1.19 0  410 327 
 SJC  HN ES   4    241 18.34                             106   -2.36 0  410 327 
                                                                                
