 2012  313 0453 48.8 L   6.715 -73.231136.9  RSN  4 0.1 1.0LRSN                1
 GAP=221        0.42       3.8     3.7  5.4  0.9207E+01  0.3623E+00 -0.3197E+01E
 ACTION:UP  12-03-31 23:19 OP:EP   STATUS:               ID:20120313045348 L   I
 2012-03-13-0450-00M.COL___196                                                 6
 STAT SP IPHASW D HRMM SECON CODA AMPLIT PERI AZIMU VELO SNR AR TRES W  DIS CAZ7
 BRR  HZ EP   1    454  8.76                             152    -0.1 7   69 309 
 BRR  HZ I         454 10.52         4.0 0.10                            69 309 
 BRR  HN ES   1    454 24.35                             152    -0.1 7   69 309 
 RUS  HZ EP   1    454 11.10                             144     0.0 7   92 170 
 RUS  HN ES        454 28.50                             144     0.110   92 170 
 RUS  HZ I         454 30.74         1.7 0.30                            92 170 
 PTB  HZ EP   1    454 13.87                             132    -0.2 7  137 262 
 PTB  HN ES        454 33.67                             132    -0.1 9  137 262 
 PTB  HZ I         454 42.10         1.0 0.13                           137 262 
 ZAR  HN ES   1    454 44.97                             121     0.3 6  199 296 
                                                                                
