 2017  913 0731 32.6 L   6.791 -73.162148.0  RSN  5 0.3 1.1LRSN                1
 GAP=235        0.85       5.0     6.2  6.8  0.1425E+02  0.7413E+01  0.3785E+01E
 Epicentro: LOS SANTOS - SANTANDER                                             3
 ACTION:UPD 17-10-05 19:11 OP:rebc STATUS:               ID:20170913073132 L   I
 OLDACT:DUP 17-09-13 19:11 OP:lv   STATUS:               ID:20170913072741d    3
 2017-09-13-0728-00M.COL___421                                                 6
 STAT SP IPHASW D HRMM SECON CODA AMPLIT PERI AZIMU VELO AIN AR TRES W  DIS CAZ7
 BAR2 EZ EP        731 52.47                             171   -0.0210 22.1 186 
 BAR2 EZ ES        732  7.38                             171   -0.6110 22.1 186 
 BAR2 EZ I         732  8.31         4.3 0.32            171           22.1 186 
 BRR  HZ EP        731 53.91                             153   -0.0410 70.2 300 
 BRR  HN ES        732 11.20                             153    0.6210 70.2 300 
 BRR  HZ I         732 15.84         1.7 0.13            151           70.2 300 
 RUS  HZ EP        731 56.61                             144    0.0910 99.7 175 
 RUS  HN ES        732 15.39                             144    0.2210 99.7 175 
 RUS  HZ I         732 15.90         1.5 0.20            148           99.7 175 
 SPBC HZ EP        732  1.12                             130    0.02 9  161 219 
 SPBC HN ES        732 23.28                             130   -0.05 9  161 219 
 SPBC HZ I         732 24.62         1.8 0.07            131            161 219 
 ZAR  HN ES        732 30.07                             123   -0.33 9  203 293 
 ZAR  HZ I         732 35.26         1.1 0.11            123            203 293 
                                                                                
