 2013  313 0006 50.2 L   6.783 -73.155148.5  RSN  6 0.3 1.6LRSN                1
 GAP=136        0.67       4.6     4.0  7.1 -0.1362E+01  0.3262E+01  0.2167E+01E
 Epicentro: LOS SANTOS - SANTANDER                                             3
 ACTION:UPD 13-04-09 14:02 OP:ep   STATUS:               ID:20130313000650 L   I
 2013-03-13-0000-00M.COL___231                                                 6
 STAT SP IPHASW D HRMM SECON CODA AMPLIT PERI AZIMU VELO AIN AR TRES W  DIS CAZ7
 BAR2 SZ EP   1    0 7 10.07                             171   -0.07 7 21.3 188 
 BAR2 SZ I         0 7 25.95         8.5 0.16            171           21.3 188 
 BRR  HZ EP        0 7 11.80                             153    0.1310 71.2 300 
 BRR  HN ES   1    0 7 28.85                             153    0.46 7 71.2 300 
 BRR  HZ I         0 7 32.66         9.5 0.19            154           71.2 300 
 PAM  SZ EP     D  0 7 13.05                             151    0.2010 79.5  39 
 PAM  SN ES   1    0 7 29.94                             151   -0.56 7 79.5  39 
 PAM  SZ I         0 7 31.95        11.1 0.52            149           79.5  39 
 RUS  HZ EP   1    0 7 14.27                             145    0.16 7 98.8 175 
 RUS  HN ES   1    0 7 32.88                             145    0.13 7 98.8 175 
 RUS  HZ I         0 7 34.12         4.6 0.34            143           98.8 175 
 PTB  HZ EP        0 7 17.02                             133   -0.27 9  146 259 
 PTB  HN ES   1    0 7 37.93                             133   -0.47 7  146 259 
 PTB  HZ I         0 7 39.29         4.7 0.22            133            146 259 
 ZAR  HN ES   2    0 7 48.60                             123    0.35 4  204 293 
                                                                                
