 2016  713 0849 41.8 L   6.770 -73.164147.4  RSN  7 0.3 1.7LRSN                1
 GAP=233        0.71       4.1     4.5  5.3  0.4453E+01  0.4888E+01  0.3455E+01E
 Epicentro: LOS SANTOS - SANTANDER                                             3
 ACTION:UPD 17-03-29 16:50 OP:lp   STATUS:               ID:20160713084941 L   I
 OLDACT:UP  16-07-13 16:02 OP:dnl  STATUS:               ID:20160713084759     3
 OLDACT:REG 16-07-13 13:27 OP:dani STATUS:               ID:20160713084759     3
 2016-07-13-0847-59S.COL___322                                                 6
 STAT SP IPHASW D HRMM SECON CODA AMPLIT PERI AZIMU VELO AIN AR TRES W  DIS CAZ7
 BAR2 EZ EP        850  1.46                             172   -0.1310 19.8 186 
 BAR2 EZ ES        850 16.60                             172   -0.4010 19.8 186 
 BAR2 EZ I         850 18.00        15.2 0.28            165           19.8 186 
 BRR  HZ EP        850  3.22                             153    0.0710 71.1 302 
 BRR  HN ES        850 20.35                             153    0.5710 71.1 302 
 BRR  HZ I         850 22.38         8.6 0.16            149           71.1 302 
 RUS  HZ EP   2    850  5.80                             145    0.28 5 97.5 175 
 RUS  HN ES   2    850 23.99                             145   -0.00 5 97.5 175 
 RUS  HZ I         850 25.50         5.6 0.26            143           97.5 175 
 PTB  HZ EP        850  8.57                             133   -0.12 9  145 260 
 PTB  HN ES        850 29.38                             133   -0.27 9  145 260 
 PTB  HZ I         850 35.85         3.7 0.13            130            145 260 
 SPBC HZ EP        850 10.56                             130    0.47 9  159 219 
 SPBC HN ES        850 32.18                             130    0.04 9  159 219 
 SPBC HZ I         850 37.28         7.6 0.20            128            159 219 
 ZAR  HZ EP   2    850 13.76                             123   -0.56 4  203 293 
 ZAR  HE ES        850 39.46                             123   -0.20 9  203 293 
 ZAR  HZ I         850 44.81         5.7 0.40            122            203 293 
 PRA  HZ EP   2    850 34.36                             107   -0.59 3  388 210 
 PRA  HN ES   2    851 16.70                             107    0.31 3  388 210 
 PRA  HZ I         851 23.49         3.5 0.72            107            388 210 
 SJC  HZ EP   4    850 35.65                             106   -1.99 0  411 327 
 SJC  HN ES   4    851 18.01                             106   -3.16 0  411 327 
                                                                                
