 2017  313 0834 32.1 L   6.836 -73.208140.4  RSN  4 0.2 1.0LRSN                1
 GAP=149        0.59       3.3     3.3  6.5 -0.4726E+01  0.5988E+01 -0.1555E+01E
 Epicentro: ZAPATOCA - SANTANDER                                               3
 ACTION:UPD 17-05-25 18:39 OP:jn   STATUS:               ID:20170313083432 L   I
 OLDACT:DUP 17-03-13 18:02 OP:cog  STATUS:               ID:20170313082744d    3
 2017-03-13-0828-00M.COL___378                                                 6
 STAT SP IPHASW D HRMM SECON CODA AMPLIT PERI AZIMU VELO AIN AR TRES W  DIS CAZ7
 PAM  EZ EP        834 53.87                             149    0.0310 79.1  45 
 PAM  EN ES        835 10.91                             149    0.1110 79.1  45 
 PAM  EZ I         835 12.67         2.2 0.68            152           79.1  45 
 RUS  HZ EP        834 55.52                             141   -0.1510  105 172 
 RUS  HN ES        835 13.87                             141   -0.1810  105 172 
 RUS  HZ I         835 15.17         1.2 0.32            145            105 172 
 PTB  HZ EP        834 58.12                             132    0.04 9  142 257 
 PTB  HN ES        835 18.10                             132   -0.25 9  142 257 
 PTB  HZ I         835 22.02         1.7 0.28            134            142 257 
 SPBC HN ES        835 22.36                             128    0.45 9  162 216 
                                                                                
