 2011  313 0313 37.0 L   5.985 -73.641104.0  RSN  5 0.3 1.6LRSN                1
 GAP=132        0.73       3.8     4.8  8.4 -0.9458E+01  0.1703E+02 -0.7634E+01E
 Epicentro: VELEZ - SANTANDER                                                  3
 ACTION:UP  11-06-16 14:33 OP:jfem STATUS:               ID:20110313031337 L   I
 2011-03-13-0312-39S.COL___134                                                 6
 STAT SP IPHASW D HRMM SECON CODA AMPLIT PERI AZIMU VELO SNR AR TRES W  DIS CAZ7
 RUS  HZ EP   1    313 54.17                             147     0.2 7   63  99 
 RUS  HZ I         313 54.68         7.3 0.25                            63  99 
 RUS  HN ES   1    314  7.25                             147     0.1 7   63  99 
 BAR2 SZ EP   1    313 54.90                             138    -0.3 7   84  37 
 BAR2 SZ ES   1    314  9.11                             138    -0.3 7   84  37 
 BAR2 SZ I         314 10.62        37.7 0.22                            84  37 
 NOR  SZ EP   1    314  0.18                             121    -0.5 7  144 251 
 NOR  SZ ES   1    314 19.40                             121     0.3 7  144 251 
 NOR  SZ I         314 22.91         2.5 0.22                           144 251 
 CHI  HZ EP   1    314  1.44                             120    -0.3 7  150 184 
 CHI  HE ES   1    314 21.29                             120     0.2 7  150 184 
 CHI  HZ I         314 26.59         5.5 0.45                           150 184 
 GRA  SZ EP   1    314 10.68                             109     0.4 6  230  24 
 GRA  SZ ES   1    314 36.51                             109     0.3 6  230  24 
 GRA  SZ I         314 38.53         5.9 0.39                           230  24 
                                                                                
