 2017  213 0002 10.5 L   5.785 -73.865 98.0  RSN  5 0.2 1.0LRSN                1
 GAP=240        0.75       6.4     6.4  9.7  0.3017E+02  0.4343E+02  0.3241E+02E
 Epicentro: ALBANIA - SANTANDER                                                3
 ACTION:UPD 17-05-24 15:35 OP:jn   STATUS:               ID:20170213000210 L   I
 OLDACT:UP  17-02-13 12:26 OP:edw  STATUS:               ID:20170213000003     3
 OLDACT:REG 17-02-13 11:23 OP:edw  STATUS:               ID:20170213000003     3
 2017-02-13-0000-15M.COL___352                                                 6
 STAT SP IPHASW D HRMM SECON CODA AMPLIT PERI AZIMU VELO AIN AR TRES W  DIS CAZ7
 RUS  HZ EP        0 2 28.83                             135    0.0410 87.4  82 
 RUS  HN ES        0 2 42.89                             135   -0.1410 87.4  82 
 RUS  HZ I         0 2 44.69         2.3 0.26            153           87.4  82 
 PTB  HZ EP   9    0 2 30.41                             128    0.57 0  106 322 
 PTB  HN ES        0 2 44.95                             130   -0.5310  106 322 
 PTB  HZ I         0 2 49.81         1.9 0.26            137            106 322 
 BAR2 EZ ES        0 2 47.56                             125    0.2310  117  40 
 BRR  HZ EP        0 2 33.57                             119   -0.46 9  147   7 
 BRR  HN ES        0 2 52.35                             119   -0.00 9  147   7 
 ZAR  HZ EP        0 2 42.34                             109    0.29 8  218 330 
 ZAR  HN ES        0 3  6.75                             109    0.12 8  218 330 
 ZAR  HZ I         0 3  8.18         1.0 0.34            117            218 330 
                                                                                
