 2013  913 0736  0.8 L   6.812 -73.168139.2  RSN 11 0.4 2.0LRSN                1
 GAP=133        1.01       2.8     3.6  5.4 -0.1587E+01  0.5397E+01  0.1437E+01E
 Epicentro: LOS SANTOS - SANTANDER                                             3
 ACTION:UPD 13-10-22 09:22 OP:ep   STATUS:               ID:20130913073600 L   I
 OLDACT:DUP 13-09-13 11:33 OP:carl STATUS:               ID:20130913072960d    3
 2013-09-13-0729-59M.COL___269                                                 6
 STAT SP IPHASW D HRMM SECON CODA AMPLIT PERI AZIMU VELO AIN AR TRES W  DIS CAZ7
 BAR2 SZ EP        736 19.74                             170    0.0510 24.4 184 
 BAR2 SZ ES        736 33.59                             170   -0.8210 24.4 184 
 BAR2 SZ I         736 35.60        35.6 0.32            169           24.4 184 
 BRR  HZ EP        736 21.49                             152    0.3810 68.4 299 
 BRR  HN ES        736 37.63                             152    0.7010 68.4 299 
 BRR  HZ I         736 40.95        20.3 0.16            150           68.4 299 
 PAM  SZ EP        736 22.62                             149    0.2310 78.0  42 
 PAM  SN ES        736 39.62                             149    0.4210 78.0  42 
 PAM  SZ I         736 41.58        25.6 0.54            154           78.0  42 
 RUS  HZ EP        736 23.81                             142   -0.2510  102 175 
 RUS  HN ES        736 42.10                             142   -0.0810  102 175 
 RUS  HZ I         736 44.26        10.2 0.36            144            102 175 
 PTB  HZ EP        736 26.38                             131   -0.69 9  146 258 
 PTB  HN ES        736 47.31                             131   -0.22 9  146 258 
 PTB  HZ I         736 48.96        11.9 0.14            131            146 258 
 OCA  HZ EP        736 28.55                             128    0.07 9  159 354 
 OCA  HN ES        736 49.39                             128   -0.66 9  159 354 
 OCA  HZ I         736 54.56        15.9 0.22            130            159 354 
 SPBC HZ EP        736 28.80                             128    0.02 9  163 218 
 SPBC HN ES        736 50.81                             128    0.22 9  163 218 
 SPBC HZ I         736 56.91        16.9 0.22            128            163 218 
 ZAR  HZ EP        736 32.35                             121   -0.21 9  201 292 
 ZAR  HN ES        736 57.68                             121    0.37 9  201 292 
 ZAR  HZ I         737  5.41        18.7 0.42            122            201 292 
 NOR  HZ EP        736 35.77                             117   -0.28 8  233 234 
 NOR  HE ES        737  3.29                             117   -0.23 8  233 234 
 NOR  HZ I         737 10.45         7.5 0.58            118            233 234 
 CHI  HZ EP        736 38.65                             116    0.41 8  249 195 
 CHI  HN ES        737  7.93                             116    0.50 8  249 195 
 CHI  HZ I         737 12.15         3.1 0.50            117            249 195 
 HEL  HZ EP   1    736 40.64                             114    0.16 6  270 255 
 HEL  HN ES        737 11.50                             114    0.09 8  270 255 
 HEL  HZ I         737 17.96         6.6 0.42            114            270 255 
                                                                                
