 2014  113 0307 15.3 L   6.789 -73.142148.5  RSN 13 0.4 2.3LRSN                1
 GAP= 72        0.98       2.7     3.1  5.0 -0.3510E+00  0.2762E+01  0.1154E+01E
 Epicentro: LOS SANTOS - SANTANDER                                             3
 ACTION:UPD 14-03-13 09:54 OP:ep   STATUS:               ID:20140113030715 L   I
 OLDACT:UP  14-01-13 09:34 OP:cam  STATUS:               ID:20140113030000     3
 OLDACT:UP  14-01-13 09:33 OP:cam  STATUS:               ID:20140113030000     3
 OLDACT:REG 14-01-13 07:44 OP:cam  STATUS:               ID:20140113030000     3
 2014-01-13-0300-00M.COL___285                                                 6
 STAT SP IPHASW D HRMM SECON CODA AMPLIT PERI AZIMU VELO AIN AR TRES W  DIS CAZ7
 BAR2 SZ EP     D  3 7 35.16                             171   -0.0910 22.2 192 
 BAR2 SZ ES        3 7 50.41                             171   -0.3910 22.2 192 
 BAR2 SZ I         3 7 52.93        54.9 0.26            167           22.2 192 
 BRR  HZ IP     D  3 7 37.07                             153    0.2610 72.2 299 
 BRR  HE ES        3 7 54.51                             153    0.9310 72.2 299 
 BRR  HZ I         3 7 59.21        27.8 0.70            145           72.2 299 
 PAM  SZ EP     C  3 7 37.96                             151    0.1010 78.0  39 
 PAM  SN ES        3 7 55.34                             151   -0.1010 78.0  39 
 PAM  SZ I         3 7 57.33        21.1 0.50            151           78.0  39 
 RUS  HZ EP     C  3 7 38.97                             145   -0.2810 99.4 176 
 RUS  HN ES        3 7 58.06                             145    0.1410 99.4 176 
 RUS  HZ I         3 7 58.65        13.8 0.26            142           99.4 176 
 PTB  HZ EP        3 7 42.01                             133   -0.51 9  148 259 
 PTB  HN ES        3 8  2.93                             133   -0.82 9  148 259 
 PTB  HZ I         3 8  8.98        23.2 0.16            126            148 259 
 TAM  HZ EP        3 7 43.26                             131    0.12 9  154 105 
 TAM  HN ES   1    3 8  5.14                             131    0.30 7  154 105 
 OCA  HZ EP   2    3 7 43.66                             130   -0.29 5  162 353 
 OCA  HN ES        3 8  5.90                             130   -0.39 9  162 353 
 OCA  HZ I         3 8 10.89        23.3 0.24            126            162 353 
 SPBC HZ EP        3 7 44.11                             130    0.15 9  163 219 
 SPBC HN ES        3 8  6.35                             130    0.04 9  163 219 
 SPBC HZ I         3 8 12.84        40.4 0.34            125            163 219 
 ZAR  HZ EP   1    3 7 47.91                             123   -0.11 6  205 292 
 ZAR  HE ES        3 8 13.75                             123    0.21 9  205 292 
 ZAR  HZ I         3 8 19.66        26.0 0.36            118            205 292 
 NOR  HZ EP        3 7 51.17                             119    0.00 8  234 235 
 NOR  HN ES        3 8 19.10                             119   -0.03 8  234 235 
 NOR  HZ I         3 8 26.19        16.6 0.18            115            234 235 
 SML  HZ EP   1    3 7 51.64                             118   -0.59 6  245 335 
 SML  HE ES        3 8 21.19                             118    0.17 8  245 335 
 SML  HZ I         3 8 27.31        23.1 0.32            114            245 335 
 CHI  HZ EP        3 7 52.82                             118   -0.23 8  248 195 
 CHI  HE ES   1    3 8 22.78                             118    0.29 6  248 195 
 CHI  HZ I         3 8 28.30         6.2 0.30            114            248 195 
 HEL  HZ EP        3 7 56.77                             115    1.09 8  272 256 
 HEL  HZ I         3 8 34.70         9.9 0.26            111            272 256 
 GUY2CHZ EP   4    3 7 59.97                             113    0.96 0  301 235 
 GUY2CHN ES   4    3 8 37.52                             113    4.42 0  301 235 
 RREF HZ EP   4    3 8  2.76                             111    1.24 0  321 230 
 DBB  SZ EP   4    3 8  3.27                             110    0.31 0  340 274 
 COD  HZ EP   4    3 8  2.90                             109   -1.04 0  349 355 
                                                                                
