 2016  813 0140 57.7 L   6.839 -73.163147.6  RSN  4 0.2 1.5LRSN                1
 GAP=244        0.45       4.4     3.8  6.1  0.1177E+02 -0.7395E+01 -0.1277E+02E
 Epicentro: LOS SANTOS - SANTANDER                                             3
 ACTION:UPD 16-10-29 15:35 OP:rebc STATUS:               ID:20160813014057 L   I
 OLDACT:REG 16-08-13 12:16 OP:dani STATUS:               ID:20160813013759     3
 2016-08-13-0137-59S.COL___349                                                 6
 STAT SP IPHASW D HRMM SECON CODA AMPLIT PERI AZIMU VELO AIN AR TRES W  DIS CAZ7
 RUS  HZ EP        141 21.81                             143   -0.1410  105 175 
 RUS  HN ES        141 40.94                             143    0.0810  105 175 
 RUS  HZ I         141 41.69         4.4 0.30                           105 175 
 PTB  HZ EP        141 24.58                             133   -0.14 9  147 257 
 PTB  HN ES        141 45.62                             133   -0.18 9  147 257 
 PTB  HZ I         141 48.75         3.0 0.22                           147 257 
 SPBC HZ EP        141 26.76                             129    0.22 9  165 218 
 SPBC HN ES        141 49.07                             129    0.03 9  165 218 
 SPBC HZ I         141 55.71         6.7 0.26                           165 218 
 ZAR  HE ES        141 55.23                             123    0.19 9  201 291 
                                                                                
