 2013  413 0416 50.1 L   6.771 -73.137147.9  RSN  6 0.3 1.6LRSN                1
 GAP=139        0.82       5.7     4.8  7.3 -0.7952E+01  0.4615E+01 -0.4037E+01E
 Epicentro: LOS SANTOS - SANTANDER                                             3
 ACTION:UPD 13-05-22 14:37 OP:EP   STATUS:               ID:20130413041650 L   I
 2013-04-13-0408-48M.COL___218                                                 6
 STAT SP IPHASW D HRMM SECON CODA AMPLIT PERI AZIMU VELO AIN AR TRES W  DIS CAZ7
 BAR2 SZ ES        417 25.40                             172   -0.0210 20.4 194 
 GIR2 SZ ES        417 25.63                             166   -0.1210 34.6 350 
 BRR  HZ EP        417 11.17                             152   -0.4610 73.6 300 
 BRR  HN ES        417 28.87                             152    0.4510 73.6 300 
 BRR  HN I         417 29.47         8.2 0.24            151           73.6 300 
 PAM  SZ EP        417 13.14                             151    0.4710 79.3  38 
 PAM  SZ I         417 13.28         7.3 0.16            150           79.3  38 
 PAM  SN ES        417 30.00                             151   -0.2710 79.3  38 
 RUS  HN ES   1    417 32.44                             145    0.08 7 97.3 176 
 PTB  HN ES        417 38.38                             132   -0.11 9  148 260 
                                                                                
