 2011 1213 0144 25.3 L   6.742 -73.159145.6  RSN  7 0.4 1.6LRSN                1
 GAP=137        0.78       4.8     4.7  6.6 -0.7356E+01  0.5816E+01  0.4302E+01E
 Epicentro: VILLANUEVA - SANTANDER                                             3
 ACTION:UPD 12-07-13 16:15 OP:ep   STATUS:               ID:20111213014425 L   I
 2011-12-13-0140-00M.COL___186                                                 6
 STAT SP IPHASW D HRMM SECON CODA AMPLIT PERI AZIMU VELO AIN AR TRES W  DIS CAZ7
 BAR2 SZ EP        144 44.72                             173   -0.0410 16.8 189 
 BAR2 SZ ES   1    145  0.13                             173    0.16 7 16.8 189 
 BAR2 SZ I         145  1.57         8.0 0.12                          16.8 189 
 GIR2 SZ EP   1    144 45.00                             165   -0.10 7 37.4 354 
 GIR2 SZ ES   1    145  0.48                             165   -0.09 7 37.4 354 
 BRR  HZ EP        144 46.86                             152    0.3510 73.3 303 
 BRR  HN ES   1    145  3.76                             152    0.67 7 73.3 303 
 BRR  HZ I         145  4.94         9.2 0.27                          73.3 303 
 PAM  SZ EP   1    144 48.05                             149    0.23 7 83.3  37 
 PAM  SE ES   1    145  4.80                             149   -0.62 7 83.3  37 
 RUS  HZ EP   1    144 48.56                             146    0.00 7 94.3 175 
 RUS  HN ES   1    145  6.77                             146    0.04 7 94.3 175 
 RUS  HZ I         145  8.14         5.6 0.30                          94.3 175 
 PTB  HZ EP   1    144 51.64                             132   -0.35 7  145 261 
 PTB  HN ES   1    145 12.02                             132   -0.82 7  145 261 
 PTB  HZ I         145 14.67         4.6 0.17                           145 261 
 NOR  SN ES        145 28.07                             119    0.15 8  230 236 
                                                                                
