 2013  413 0150 42.2 L   6.787 -73.144145.5  RSN  6 0.4 1.8LRSN                1
 GAP=152        1.06       5.8     5.8  7.2 -0.1074E+02  0.1304E+00  0.1752E+02E
 Epicentro: LOS SANTOS - SANTANDER                                             3
 ACTION:UPD 13-05-22 14:37 OP:EP   STATUS:               ID:20130413015042 L   I
 2013-04-13-0148-42M.COL___218                                                 6
 STAT SP IPHASW D HRMM SECON CODA AMPLIT PERI AZIMU VELO AIN AR TRES W  DIS CAZ7
 BAR2 SZ EP        151  1.80                             171    0.0010 21.9 191 
 BAR2 SZ ES        151 16.76                             171   -0.3110 21.9 191 
 BAR2 SZ I         151 18.23        29.7 0.18            170           21.9 191 
 GIR2 SZ EP        151  1.88                             167   -0.0310 32.7 350 
 GIR2 SZ ES        151 17.52                             167    0.2610 32.7 350 
 GIR2 SZ I         151 18.83         6.1 0.32            166           32.7 350 
 BRR  HZ EP        151  3.55                             152    0.1510 72.0 299 
 BRR  HN ES        151 20.70                             152    0.7910 72.0 299 
 BRR  HN I         151 21.59        26.4 0.18            151           72.0 299 
 PAM  SZ EP        151  4.73                             150    0.2510 78.4  39 
 PAM  SN ES        151 21.30                             150   -0.5310 78.4  39 
 PAM  SN I         151 22.39         5.2 0.42            153           78.4  39 
 PTB  HZ EP        151  8.55                             132   -0.61 9  148 259 
 PTB  HN ES        151 29.67                             132   -0.50 9  148 259 
 PTB  HN I         151 34.49        12.7 0.42            132            148 259 
 CHI  HZ EP        151 20.15                             117    0.39 8  247 195 
 CHI  HN ES        151 49.27                             117    0.23 8  247 195 
                                                                                
