 2017  213 0457 13.8 L   6.743 -73.204145.4  RSN  5 0.4 1.2LRSN                1
 GAP=132        1.00       6.4     5.9  7.7  0.8404E+01 -0.3103E+01 -0.7342E+01E
 Epicentro: VILLANUEVA - SANTANDER                                             3
 ACTION:UPD 17-05-24 15:35 OP:jn   STATUS:               ID:20170213045713 L   I
 OLDACT:REG 17-02-13 11:51 OP:edw  STATUS:               ID:20170213045647     3
 2017-02-13-0457-00M.COL___352                                                 6
 STAT SP IPHASW D HRMM SECON CODA AMPLIT PERI AZIMU VELO AIN AR TRES W  DIS CAZ7
 BAR2 EZ EP        457 33.36                             173    0.1210 16.9 172 
 BAR2 EZ ES        457 48.45                             173    0.0210 16.9 172 
 BAR2 EZ I         457 50.75         3.2 0.48            172           16.9 172 
 BRR  HZ EP        457 34.90                             153    0.1410 69.1 306 
 BRR  HN ES        457 51.49                             153    0.3610 69.1 306 
 PAM  EZ IP     D  457 35.94                             148   -0.5610 86.3  40 
 RUS  HZ EP        457 37.81                             145    0.7210 95.0 172 
 RUS  HN ES        457 54.91                             145   -0.3710 95.0 172 
 RUS  HZ I         457 56.81         2.7 0.38            146           95.0 172 
 PTB  HZ EP        457 39.83                             133   -0.20 9  140 261 
 PTB  HN ES        458  0.23                             133   -0.29 9  140 261 
                                                                                
