 2017  113 0608 14.4 L   6.790 -73.207139.8  RSN  5 0.3 0.9LRSN                1
 GAP=129        0.73       5.5     4.3  7.0  0.9140E+00  0.2865E+01 -0.1591E+02E
 Epicentro: ZAPATOCA - SANTANDER                                               3
 ACTION:UPD 17-05-22 15:58 OP:jn   STATUS:               ID:20170113060814 L   I
 OLDACT:DUP 17-01-13 16:11 OP:and  STATUS:               ID:20170113060749d    3
 2017-01-13-0608-00M.COL___332                                                 6
 STAT SP IPHASW D HRMM SECON CODA AMPLIT PERI AZIMU VELO AIN AR TRES W  DIS CAZ7
 BAR2 EZ EP        6 8 32.97                             171   -0.3210 22.1 173 
 BAR2 EZ ES        6 8 48.16                             171    0.1410 22.1 173 
 BRR  HZ EP        6 8 34.92                             153    0.3110 65.9 302 
 BRR  HN ES   4    6 8 52.03                             153    1.66 0 65.9 302 
 PAM  EZ EP     D  6 8 36.15                             148   -0.1610 82.6  43 
 RUS  HZ EP        6 8 37.40                             143   -0.1410  100 172 
 RUS  HN ES        6 8 55.72                             143    0.1310  100 172 
 RUS  HZ I         6 8 56.89         1.3 0.32            143            100 172 
 PTB  HZ EP        6 8 40.68                             132    0.42 9  141 259 
 PTB  HN ES        6 9  0.05                             132   -0.38 9  141 259 
 PTB  HZ I         6 9  3.41         1.0 0.28            131            141 259 
                                                                                
