 2016 1013 0035 20.3 L   6.781 -73.142147.4  RSN  9 0.4 1.9LRSN                1
 GAP=138        1.05       4.2     4.1  6.1 -0.2422E+01  0.8572E+01  0.1425E+01E
 Epicentro: LOS SANTOS - SANTANDER                                             3
 ACTION:UPD 16-11-09 19:19 OP:rebc STATUS:               ID:20161013003520 L   I
 OLDACT:REG 16-10-13 12:31 OP:y    STATUS:               ID:20161013002750     3
 2016-10-13-0028-00M.COL___372                                                 6
 STAT SP IPHASW D HRMM SECON CODA AMPLIT PERI AZIMU VELO AIN AR TRES W  DIS CAZ7
 BAR2 EZ EP        035 39.85                             171   -0.2210 21.3 192 
 BAR2 EZ ES        035 55.46                             171   -0.0510 21.3 192 
 BAR2 EZ I         035 57.56        13.9 0.20            170           21.3 192 
 BRR  HZ EP        035 41.72                             152    0.0410 72.6 300 
 BRR  HE ES        035 59.08                             152    0.7010 72.6 300 
 BRR  HZ I         036  7.16        12.5 0.46            150           72.6 300 
 PAM  EZ EP        035 42.77                             151    0.0210 78.8  38 
 PAM  EN ES        036  0.06                             151   -0.2210 78.8  38 
 PAM  EZ I         036  1.80         8.6 0.56            156           78.8  38 
 RUS  HZ EP        035 43.73                             145   -0.3110 98.4 176 
 RUS  HN ES        036  2.95                             145    0.3710 98.4 176 
 RUS  HZ I         036  5.23         4.4 0.48            150           98.4 176 
 PTB  HZ EP        035 46.76                             132   -0.62 9  148 260 
 PTB  HN ES        036  8.04                             132   -0.48 9  148 260 
 PTB  HZ I         036 15.00         9.8 0.50            133            148 260 
 SPBC HZ EP        035 48.62                             130   -0.16 9  162 220 
 SPBC HE ES        036 11.24                             130    0.24 9  162 220 
 SPBC HZ I         036 13.51        19.9 0.32            132            162 220 
 ZAR  HZ EP        035 53.77                             123    0.82 8  205 293 
 ZAR  HE ES        036 17.98                             123   -0.46 8  205 293 
 ZAR  HZ I         036 25.04         8.1 0.40            124            205 293 
 NOR  HZ EP        035 55.91                             119   -0.10 8  234 235 
 NOR  HN ES        036 23.64                             119   -0.24 8  234 235 
 NOR  HZ I         036 29.31         7.4 0.18            122            234 235 
 HEL  HZ EP        036  1.55                             115    0.99 8  272 256 
 HEL  HN ES        036 31.93                             115   -0.06 8  272 256 
 HEL  HZ I         036 38.18         4.6 0.56            117            272 256 
                                                                                
