 2012 1213 0621 12.2 L   6.785 -73.137146.0  RSN 12 0.5 2.4LRSN 2.7WRSN        1
 SPEC AVERAGE  MO 13.2 ST  2.6 OM  2.1 f0 4.76 R0.3118 AL 3.31 WI 19.3 MW  2.7 3
 SPEC SD       MO  0.2 ST  1.2 OM  0.6 f00.504 R0.0295 AL      WI      MW  0.2 3
 GAP=138        1.17       3.2     4.5  6.5 -0.5357E+00  0.7612E+01  0.3004E+01E
 Epicentro: LOS SANTOS - SANTANDER                                             3
 SPEC HEL HH N MO 13.0 ST  1.2 OM  1.1 f0 4.49 R0.3274 AL 2.85 WI 26.2 MW  2.6 3
 SPEC HEL HH N T 62222 K 0.000 GD  309 VS 4.20 DE 3.20 Q0300.0 QA 0.60 VS 4.20 3
 SPEC OCA HH E MO 13.5 ST  4.4 OM  1.8 f0 4.54 R0.3238 AL 3.52 WI 15.1 MW  3.0 3
 SPEC OCA HH E T 622 1 K 0.000 GD  218 VS 4.20 DE 3.20 Q0300.0 QA 0.60 VS 4.20 3
 SPEC BRR HH N MO 13.3 ST  2.4 OM  1.7 f0 4.39 R0.3349 AL 3.32 WI 23.1 MW  2.8 3
 SPEC BRR HH N T 62149 K 0.000 GD  163 VS 4.20 DE 3.20 Q0300.0 QA 0.60 VS 4.20 3
 SPEC BAR2SH Z MO 13.0 ST  2.3 OM  1.4 f0 5.63 R0.2611 AL 3.57 WI 12.8 MW  2.6 3
 SPEC BAR2SH Z T 62145 K 0.000 GD  147 VS 4.20 DE 3.20 Q0300.0 QA 0.60 VS 4.20 3
 ACTION:UPD 13-01-04 14:27 OP:ep   STATUS:               ID:20121213062113dL   I
 2012-12-13-0620-00M.COL___242                                                 6
 STAT SP IPHASW D HRMM SECON CODA AMPLIT PERI AZIMU VELO AIN AR TRES W  DIS CAZ7
 BAR2 SZ EP        621 31.84                             171   -0.0110 21.9 193 
 BAR2 SZ ES        621 46.79                             171   -0.3710 21.9 193 
 BAR2 SZ I         621 49.75        38.2 0.36                          21.9 193 
 GIR2 SZ EP        621 31.97                             167    0.0010 33.1 349 
 BRR  HZ EP     C  621 33.79                             152    0.3110 72.8 299 
 BRR  HN ES        621 51.05                             152    0.9810 72.8 299 
 BRR  HN I         621 51.48        60.5 0.28                          72.8 299 
 PAM  SZ EP        621 34.65                             151    0.1510 78.1  38 
 PAM  SN ES        621 51.67                             151   -0.2110 78.1  38 
 PAM  SN I         621 52.74        27.9 0.22                          78.1  38 
 RUS  HZ EP        621 35.70                             144   -0.1710 98.9 177 
 RUS  HN ES        621 54.40                             144    0.0810 98.9 177 
 RUS  HN I         621 56.04        18.0 0.36                          98.9 177 
 PTB  HZ EP        621 38.43                             132   -0.83 9  148 260 
 PTB  HN ES        621 59.75                             132   -0.60 9  148 260 
 PTB  HN I         622  5.45        41.2 0.24                           148 260 
 OCA  HZ EP        621 40.51                             129   -0.20 9  162 353 
 OCA  HN ES        622  3.49                             129    0.55 9  162 353 
 OCA  HN I         622  7.23        40.0 0.24                           162 353 
 ZAR  HE ES        622 10.16                             122   -0.11 8  206 292 
 ZAR  HE I         622 16.71        42.9 0.22                           206 292 
 SML  HN ES        622 16.86                             117   -0.94 8  246 335 
 SML  HN I         622 27.60        47.7 0.10                           246 335 
 CHI  HZ EP        621 49.84                             117    0.06 8  247 195 
 CHI  HN ES        622 18.82                             117   -0.26 8  247 195 
 CHI  HN I         622 22.81        11.8 0.24                           247 195 
 HEL  HZ EP        621 53.52                             115    1.03 8  273 256 
 HEL  HN ES        622 23.95                             115    0.04 8  273 256 
 HEL  HE I         622 33.02         8.3 0.44                           273 256 
 PRA  HZ EP        622  6.16                             107    0.53 6  391 210 
 PRA  HN ES        622 47.78                             107    0.49 6  391 210 
 PRA  HN I         622 52.96         5.2 0.68                           391 210 
                                                                                
