 2013  413 0330 15.3 L   6.813 -73.162151.0  RSN  8 0.6 1.7LRSN                1
 GAP=136        1.52       6.1     8.7  9.6  0.7476E+01 -0.9449E+01 -0.4856E+01E
 Epicentro: LOS SANTOS - SANTANDER                                             3
 ACTION:UPD 13-05-22 14:37 OP:EP   STATUS:               ID:20130413033015 L   I
 2013-04-13-0328-51M.COL___218                                                 6
 STAT SP IPHASW D HRMM SECON CODA AMPLIT PERI AZIMU VELO AIN AR TRES W  DIS CAZ7
 BAR2 SZ EP        330 35.70                             170    0.1010 24.5 185 
 BAR2 SZ I         330 36.19         6.5 0.16            174           24.5 185 
 GIR2 SZ EP        330 35.86                             168    0.2910 29.6 353 
 GIR2 SZ ES        330 51.12                             168   -0.2510 29.6 353 
 BRR  HZ EP        330 37.65                             154    0.7310 68.9 298 
 BRR  HN ES        330 54.74                             154    0.9810 68.9 298 
 RUS  HZ EP        330 39.68                             144   -0.0210  102 175 
 RUS  HE ES        330 57.88                             144   -0.8310  102 175 
 PTB  HZ EP        330 42.57                             133   -0.02 9  146 258 
 PTB  HN ES        331  3.60                             133   -0.25 9  146 258 
 CAPV BZ EP        330 43.36                             133    0.21 9  149  39 
 SML  HZ EP        330 52.14                             119    0.11 8  242 336 
 SML  HN ES        331 19.00                             119   -1.66 8  242 336 
 SML  HN I         331 29.04         6.6 0.30            117            242 336 
 CHI  HZ EP        330 53.47                             118    0.06 8  250 195 
                                                                                
