 2017  213 0219 58.1 L   6.734 -73.226141.5  RSN  4 0.4 1.1LRSN                1
 GAP=215        0.97       7.7     7.6  8.1  0.3136E+02  0.1417E+02  0.8218E+01E
 Epicentro: VILLANUEVA - SANTANDER                                             3
 ACTION:UPD 17-05-24 15:35 OP:jn   STATUS:               ID:20170213021958 L   I
 OLDACT:REG 17-02-13 11:33 OP:edw  STATUS:               ID:20170213021740     3
 2017-02-13-0218-00M.COL___352                                                 6
 STAT SP IPHASW D HRMM SECON CODA AMPLIT PERI AZIMU VELO AIN AR TRES W  DIS CAZ7
 BAR2 EZ ES        220 31.34                             173   -0.5810 16.4 163 
 BAR2 EZ I         220 32.09         4.1 0.38            170           16.4 163 
 BRR  HZ EP        220 18.71                             153    0.1110 67.7 308 
 BRR  HN ES        220 34.97                             153    0.3910 67.7 308 
 RUS  HZ EP        220 21.31                             145    0.3110 94.4 170 
 RUS  HN ES        220 39.04                             145    0.1910 94.4 170 
 RUS  HZ I         220 39.82         1.9 0.20            144           94.4 170 
 PTB  HZ EP        220 23.24                             133   -0.58 9  138 261 
 PTB  HN ES        220 43.98                             133    0.10 9  138 261 
 PTB  HZ I         220 46.72         1.8 0.16            132            138 261 
                                                                                
