 2013  113 0524 19.0 L   6.636 -73.198146.6  RSN  4 0.4 1.5LRSN                1
 GAP=219        1.10       8.8     8.9 11.0  0.5259E+02  0.3047E+01 -0.6939E+01E
 Epicentro: BARICHARA - SANTANDER                                              3
 ACTION:UPD 13-02-15 09:13 OP:ep   STATUS:               ID:20130113052419 L   I
 2013-01-13-0520-00M.COL___241                                                 6
 STAT SP IPHASW D HRMM SECON CODA AMPLIT PERI AZIMU VELO AIN AR TRES W  DIS CAZ7
 BRR  HZ EP        524 40.09                             151   -0.4710 77.1 313 
 BRR  HN ES        524 57.75                             151    0.3610 77.1 313 
 BRR  HN I         525  0.68         8.7 0.18            149           77.1 313 
 RUS  HZ EP        524 42.36                             149    0.7210 83.1 171 
 RUS  HN ES        524 58.82                             149   -0.5010 83.1 171 
 RUS  HN I         525  1.02         2.1 0.32            151           83.1 171 
 PTB  HZ EP        524 45.13                             134   -0.16 9  140 266 
 PTB  HN ES        525  6.04                             134    0.24 9  140 266 
 PTB  HN I         525 11.19         5.4 0.32            133            140 266 
 ZAR  HN ES        525 17.03                             122   -0.23 8  206 297 
 ZAR  HN I         525 22.94         3.4 0.42            123            206 297 
                                                                                
