 2012 1113 0153 34.2 L   6.798 -73.135145.8  RSN 14 0.5 2.8LRSN 3.1WRSN        1
 SPEC AVERAGE  MO 13.7 ST  5.3 OM  2.5 f0 4.22 R0.3517 AL 2.47 WI  5.0 MW  3.1 3
 SPEC SD       MO  0.2 ST  2.2 OM  0.7 f00.431 R0.0361 AL      WI      MW  0.1 3
 GAP= 72        0.96       3.4     3.6  5.8 -0.4306E+00  0.4427E+01  0.5891E+01E
 Epicentro: LOS SANTOS - SANTANDER                                             3
 SPEC PRA HH N MO 13.5 ST  2.7 OM  1.5 f0 3.91 R0.3760 AL 2.09 WI  3.4 MW  3.0 3
 SPEC PRA HH N T 15510 K 0.000 GD  418 VS 4.20 DE 3.20 Q0300.0 QA 0.60 VS 4.20 3
 SPEC PAM SH N MO 13.7 ST  6.0 OM  2.1 f0 4.38 R0.3356 AL 2.95 WI  3.4 MW  3.1 3
 SPEC PAM SH N T 15413 K 0.000 GD  164 VS 4.20 DE 3.20 Q0300.0 QA 0.60 VS 4.20 3
 SPEC HEL HH N MO 13.4 ST  3.9 OM  1.5 f0 4.88 R0.3012 AL 2.82 WI  5.6 MW  2.9 3
 SPEC HEL HH N T 15446 K 0.000 GD  309 VS 4.20 DE 3.20 Q0300.0 QA 0.60 VS 4.20 3
 SPEC CHI HH N MO 13.9 ST  4.7 OM  2.0 f0 3.62 R0.4061 AL 2.46 WI  7.1 MW  3.2 3
 SPEC CHI HH N T 15440 K 0.000 GD  288 VS 4.20 DE 3.20 Q0300.0 QA 0.60 VS 4.20 3
 SPEC BRR HH N MO 13.9 ST  9.1 OM  2.3 f0 4.33 R0.3395 AL 2.05 WI  5.4 MW  3.2 3
 SPEC BRR HH N T 15412 K 0.000 GD  162 VS 4.20 DE 3.20 Q0300.0 QA 0.60 VS 4.20 3
 ACTION:UPD 12-12-05 15:33 OP:}ep  STATUS:               ID:20121113015334 L   I
 2012-11-13-0150-00M.COL___230                                                 6
 STAT SP IPHASW D HRMM SECON CODA AMPLIT PERI AZIMU VELO AIN AR TRES W  DIS CAZ7
 BAR2 SZ EP     C  153 53.85                             171    0.0310 23.3 193 
 BAR2 SZ ES   1    154  8.71                             171   -0.42 7 23.3 193 
 BAR2 SZ I         154 10.61       222.1 0.38                          23.3 193 
 GIR2 SZ EP        153 53.92                             167    0.0510 31.7 348 
 GIR2 SZ ES   1    154  9.48                             167    0.25 7 31.7 348 
 BRR  HZ EP        153 55.73                             152    0.3310 72.3 298 
 BRR  HN ES   1    154 12.78                             152    0.83 7 72.3 298 
 BRR  HZ I         154 15.94        72.3 0.17                          72.3 298 
 PAM  SZ EP        153 56.61                             151    0.2410 76.9  39 
 PAM  SE ES   1    154 13.87                             151    0.19 7 76.9  39 
 PAM  SZ I         154 15.95       132.4 0.21                          76.9  39 
 RUS  HZ EP   1    153 57.69                             144   -0.23 7  100 177 
 RUS  HN ES   1    154 15.93                             144   -0.50 7  100 177 
 RUS  HZ I         154 17.68        44.8 0.42                           100 177 
 PTB  HZ EP   1    154  0.31                             132   -0.94 7  149 259 
 PTB  HN ES   1    154 21.57                             132   -0.79 7  149 259 
 PTB  HZ I         154 27.73       134.8 0.26                           149 259 
 TAM  HZ EP   1    154  2.00                             131    0.24 7  154 105 
 TAM  HZ I         154 22.72        51.5 0.28                           154 105 
 TAM  HE ES   1    154 23.62                             131    0.36 7  154 105 
 OCA  HZ EP   1    154  1.97                             129   -0.57 7  161 353 
 OCA  HE ES   1    154 23.92                             129   -0.73 7  161 353 
 OCA  HZ I         154 29.07        84.2 0.34                           161 353 
 ZAR  HZ EP   1    154  6.60                             122   -0.15 6  205 292 
 ZAR  HE ES   1    154 32.08                             122   -0.07 6  205 292 
 ZAR  HZ I         154 38.32        59.2 0.14                           205 292 
 CHI  HZ EP        154 11.78                             117   -0.11 8  249 195 
 CHI  HN ES   1    154 40.87                             117   -0.43 6  249 195 
 CHI  HZ I         154 45.17        24.9 0.34                           249 195 
 HEL  HZ EP   1    154 14.45                             115   -0.07 6  273 256 
 HEL  HN ES   1    154 46.34                             115    0.37 6  273 256 
 HEL  HZ I         154 52.62        31.9 0.32                           273 256 
 VIL  SZ EP   1    154 18.07                             112    0.47 5  303 192 
 VIL  SN ES   1    154 51.14                             112   -0.33 5  303 192 
 VIL  SZ I         154 57.43        41.0 0.48                           303 192 
 GUY  SZ EP   1    154 18.90                             112    0.75 5  304 235 
 GUY  SN ES   1    154 54.18                             112    1.74 5  304 235 
 MON  HZ EP   4    154 21.01                             108   -2.30 0  355 308 
 MON  HN ES   4    154 59.91                             108   -1.72 0  355 308 
 PRA  HZ EP   1    154 27.26                             106   -0.49 4  392 210 
 PRA  HE ES   1    155  9.64                             106    0.11 4  392 210 
 PRA  HZ I         155 15.18        38.2 0.32                           392 210 
                                                                                
