 2016  513 0040  9.6 L   6.780 -73.142141.1  RSN  8 0.4 1.4LRSN                1
 GAP=138        0.98       4.4     4.1  6.7 -0.8120E+00  0.7210E+01  0.4309E+01E
 Epicentro: LOS SANTOS - SANTANDER                                             3
 ACTION:UPD 16-08-18 17:45 OP:cam  STATUS:               ID:20160513004009 L   I
 OLDACT:REG 16-05-13 12:20 OP:drio STATUS:               ID:20160513003742     3
 2016-05-13-0037-42M.COL___313                                                 6
 STAT SP IPHASW D HRMM SECON CODA AMPLIT PERI AZIMU VELO AIN AR TRES W  DIS CAZ7
 BAR2 EZ EP        040 28.81                             171    0.1510 21.2 192 
 BAR2 EZ ES        040 43.13                             171   -0.3710 21.2 192 
 BAR2 EZ I         040 44.73         7.1 0.36            169           21.2 192 
 BRR  HZ EP        040 30.58                             151    0.2210 72.6 300 
 BRR  HE ES        040 47.12                             151    0.5910 72.6 300 
 PAM  EZ EP        040 31.60                             149    0.1510 78.9  38 
 PAM  EE ES        040 47.89                             149   -0.5710 78.9  38 
 RUS  HZ EP        040 33.05                             143    0.2910 98.3 176 
 RUS  HE ES        040 51.21                             143    0.4010 98.3 176 
 RUS  HZ I         040 53.71         2.4 0.20            144           98.3 176 
 PTB  HZ EP        040 35.64                             131   -0.58 9  148 260 
 PTB  HN ES        040 56.56                             131   -0.40 9  148 260 
 PTB  HZ I         041  2.18         5.6 0.18            131            148 260 
 SPBC HZ EP        040 37.50                             128   -0.14 9  162 220 
 ZAR  HE ES        041  7.41                             121    0.34 8  205 293 
 NOR  HN ES        041 12.36                             118   -0.21 8  234 235 
                                                                                
