 2013  313 0437 23.7 L   6.761 -73.169140.4  RSN  6 0.5 1.7LRSN                1
 GAP=135        0.96       6.2     5.1  9.5  0.1298E+01  0.7119E+01 -0.2901E+01E
 Epicentro: LOS SANTOS - SANTANDER                                             3
 ACTION:UPD 13-04-09 14:02 OP:ep   STATUS:               ID:20130313043723 L   I
 2013-03-13-0430-00M.COL___229                                                 6
 STAT SP IPHASW D HRMM SECON CODA AMPLIT PERI AZIMU VELO AIN AR TRES W  DIS CAZ7
 BAR2 SZ EP   1    437 42.54                             172   -0.10 7 18.7 184 
 BAR2 SZ ES   1    437 57.10                             172   -0.28 7 18.7 184 
 BAR2 SZ I         437 59.47        13.6 0.38            173           18.7 184 
 BRR  HZ EP        437 44.43                             152    0.1210 71.2 303 
 BRR  HN ES   1    438  1.07                             152    0.71 7 71.2 303 
 BRR  HZ I         438  5.42         5.9 0.28            150           71.2 303 
 PAM  SZ EP   1    437 45.59                             148   -0.12 7 82.4  39 
 PAM  SN ES   1    438  2.48                             148   -0.35 7 82.4  39 
 PAM  SN I         438  3.52        16.1 0.50            152           82.4  39 
 RUS  HZ EP   1    437 47.11                             144    0.43 7 96.5 174 
 RUS  HN ES   1    438  5.00                             144    0.44 7 96.5 174 
 PTB  HZ EP   2    437 49.26                             131   -0.72 5  144 260 
 PTB  HN ES        438  9.71                             131   -0.72 9  144 260 
 PTB  HN I         438 14.23         7.6 0.24            133            144 260 
 ZAR  HN ES   1    438 21.40                             121    0.65 6  203 294 
 ZAR  HZ I         438 24.67         3.1 0.54            123            203 294 
                                                                                
