 2011  913 0537 25.9 L   6.740 -73.180147.0  RSN  7 0.3 1.7LRSN                1
 GAP=135        0.49       3.6     4.2  6.2 -0.1125E+01  0.5773E+01 -0.3422E+01E
 Epicentro: VILLANUEVA - SANTANDER                                             3
 ACTION:UPD 12-07-13 15:57 OP:ep   STATUS:               ID:20110913053725 L   I
 2011-09-13-0532-34S.COL___168                                                 6
 STAT SP IPHASW D HRMM SECON CODA AMPLIT PERI AZIMU VELO AIN AR TRES W  DIS CAZ7
 BAR2 SZ EP   1    537 45.56                             173   -0.01 7 16.3 181 
 BAR2 SZ I         537 46.11        11.2 0.36                          16.3 181 
 BAR2 SZ ES   2    538  0.96                             173    0.05 5 16.3 181 
 BRR  HZ IP     C  537 47.32                             153    0.1110 71.5 305 
 BRR  HZ I         537 47.62        20.1 0.23                          71.5 305 
 BRR  HN ES   2    538  3.94                             153    0.12 5 71.5 305 
 PAM  SZ EP   1    537 48.45                             149   -0.27 7 84.9  39 
 PAM  SN ES   2    538  5.98                             149   -0.53 5 84.9  39 
 RUS  HZ EP   2    537 49.77                             146    0.43 5 94.3 173 
 RUS  HN ES   2    538  7.69                             146    0.07 5 94.3 173 
 RUS  HZ I         538  9.82         3.5 0.30                          94.3 173 
 OCA  SZ EP   2    537 54.99                             129    0.09 5  166 355 
 OCA  SZ ES   2    538 18.32                             129    0.80 5  166 355 
 OCA  SZ I         538 20.16         4.8 0.32                           166 355 
 ZAR  HZ EP   2    537 58.07                             123   -0.28 4  203 294 
 ZAR  HN ES   2    538 23.18                             123   -0.47 4  203 294 
 ZAR  HZ I         538 29.25         6.8 0.26                           203 294 
 NOR  SN ES   2    538 28.15                             120   -0.18 4  228 235 
                                                                                
