 2010 1213 0801  0.3 L   7.426 -72.980137.7  RSN  4 0.1 1.4LRSN                1
 GAP=189        0.31       3.8     7.0  6.0 -0.5297E+01  0.8700E+01  0.1229E+02E
 Epicentro: SURATA - SANTANDER                                                 3
 *GRA-BAR2-BTL                                                                 3
 ACTION:UP  11-01-14 15:24 OP:pat  STATUS:               ID:20101213080100 L   I
 2010-12-13-0800-48S.COL___137                                                 6
 STAT SP IPHASW D HRMM SECON CODA AMPLIT PERI AZIMU VELO SNR AR TRES W  DIS CAZ7
 GIR2 SZ EP   2    8 1 19.53                             161     0.1 5   45 212 
 GRA  SZ EP        8 1 19.94                             157     0.010   54  21 
 GRA  SZ ES   1    8 1 35.17                             157     0.0 7   54  21 
 GRA  SZ I         8 1 37.27         7.5 0.24                            54  21 
 BTL  SZ EP        8 1 20.51                             154     0.010   64 210 
 OCA  SZ EP   2    8 1 22.44                             143    -0.1 5   97 337 
 OCA  SZ ES   2    8 1 39.96                             143     0.1 5   97 337 
 OCA  SZ I         8 1 42.10         3.3 0.29                            97 337 
                                                                                
