 2012  613 0553 45.1 L   6.816 -73.181139.0  RSN  4 0.3 1.2LRSN                1
 GAP=145        0.58       4.6     4.4  6.5 -0.6349E+01  0.8260E+01 -0.2801E+01E
 Epicentro: ZAPATOCA - SANTANDER                                               3
 ACTION:UPD 12-08-06 17:49 OP:ep   STATUS:               ID:20120613055345 L   I
 2012-06-13-0550-00M.COL___201                                                 6
 STAT SP IPHASW D HRMM SECON CODA AMPLIT PERI AZIMU VELO AIN AR TRES W  DIS CAZ7
 BAR2 SZ EP   1    554  3.82                             169   -0.13 7 24.7 180 
 BAR2 SZ ES   1    554 18.90                             169    0.26 7 24.7 180 
 BAR2 SZ I         554 19.73         6.5 0.19                          24.7 180 
 PAM  SZ EP   1    554  6.69                             149    0.01 7 78.6  43 
 PAM  SE ES   1    554 23.41                             149   -0.09 7 78.6  43 
 RUS  HZ EP   1    554  8.85                             142    0.50 7  103 174 
 RUS  HN ES   1    554 26.10                             142   -0.38 7  103 174 
 RUS  HZ I         554 27.35         2.1 0.36                           103 174 
 PTB  HZ EP   1    554 10.91                             131   -0.30 7  144 258 
 PTB  HN ES   1    554 31.68                             131    0.11 7  144 258 
 PTB  HZ I         554 34.03         2.2 0.13                           144 258 
                                                                                
