 2011 1213 0746 24.6 L   6.772 -73.164142.8  RSN 12 0.4 2.1LRSN                1
 GAP=135        0.83       3.9     4.3  5.5 -0.4838E+01  0.6105E+01  0.4271E+01E
 Epicentro: LOS SANTOS - SANTANDER                                             3
 ACTION:UPD 12-07-13 16:15 OP:ep   STATUS:               ID:20111213074624 L   I
 2011-12-13-0740-00M.COL___185                                                 6
 STAT SP IPHASW D HRMM SECON CODA AMPLIT PERI AZIMU VELO AIN AR TRES W  DIS CAZ7
 BAR2 SZ EP        746 43.69                             172   -0.0810 20.0 186 
 BAR2 SZ ES   1    746 58.69                             172   -0.06 7 20.0 186 
 BAR2 SZ I         746 59.84        50.2 0.18                          20.0 186 
 GIR2 SZ EP        746 43.73                             166   -0.2310 34.1 355 
 GIR2 SZ ES   1    746 59.25                             166    0.16 7 34.1 355 
 BRR  HZ EP        746 45.55                             152    0.1810 71.0 302 
 BRR  HN ES   1    747  2.40                             152    0.79 7 71.0 302 
 BRR  HZ I         747  6.66        36.5 0.17                          71.0 302 
 PAM  SZ EP   1    746 46.44                             149   -0.25 7 81.1  39 
 PAM  SN ES   1    747  3.49                             149   -0.46 7 81.1  39 
 RUS  HZ EP   1    746 47.68                             144   -0.13 7 97.6 175 
 RUS  HN ES   1    747  6.31                             144    0.37 7 97.6 175 
 RUS  HZ I         747  7.30        21.4 0.18                          97.6 175 
 PTB  HZ EP   1    746 50.20                             132   -0.85 7  145 260 
 PTB  HN ES   1    747 11.14                             132   -0.57 7  145 260 
 OCA  SZ EP   1    746 53.39                             129    0.48 7  163 354 
 OCA  SZ I         747 20.02        14.4 0.25                           163 354 
 NOR  SZ EP   1    746 59.62                             118   -0.12 6  231 235 
 NOR  SN ES   1    747 27.81                             118    0.63 6  231 235 
 CHI  HZ EP   1    747  1.93                             117    0.22 6  245 195 
 CHI  HN ES   1    747 30.64                             117   -0.04 6  245 195 
 CHI  HZ I         747 35.34         4.7 0.50                           245 195 
 HEL  HZ EP   1    747  5.20                             114    0.89 6  269 256 
 HEL  HN ES   1    747 34.77                             114   -0.55 6  269 256 
 HEL  HZ I         747 43.49         9.7 0.30                           269 256 
 RREF HN ES   1    747 45.44                             111   -0.29 5  318 230 
 RREF HZ I         747 54.62         5.7 0.42                           318 230 
 PRA  HZ EP   1    747 17.89                             106    0.35 4  388 210 
                                                                                
