 2015  613 0733 32.8 L   6.113 -73.862 98.2  RSN  5 0.2 1.1LRSN                1
 GAP=120        0.63       2.5     2.8  6.0  0.5117E-01  0.5544E+01 -0.5743E+01E
 Epicentro: EL PENON - SANTANDER                                               3
 ACTION:UPD 15-09-10 22:12 OP:cam  STATUS:               ID:20150613073332 L   I
 OLDACT:REG 15-06-13 13:07 OP:stll STATUS:               ID:20150613072743     3
 2015-06-13-0727-43M.COL___312                                                 6
 STAT SP IPHASW D HRMM SECON CODA AMPLIT PERI AZIMU VELO AIN AR TRES W  DIS CAZ7
 SPBC HZ EP        733 48.20                             148    0.0610 56.0 205 
 SPBC HE ES        734  0.04                             148   -0.0510 56.0 205 
 SPBC HZ I         734  0.76         6.3 0.12            149           56.0 205 
 RUS  HZ EP        733 51.36                             135    0.0710 89.6 106 
 RUS  HZ I         733 52.03         2.0 0.36            136           89.6 106 
 RUS  HN ES        734  5.81                             135    0.1210 89.6 106 
 BAR2 EZ ES        734  4.99                             134   -0.4610 92.0  55 
 BAR2 EZ I         734  6.64         3.8 0.36            134           92.0  55 
 BRR  HZ EP        733 52.65                             128    0.0310  111   9 
 BRR  HN ES        734  8.50                             128    0.4410  111   9 
 ZAR  HZ EP        734  0.74                             113   -0.12 9  188 324 
 ZAR  HN ES        734 22.57                             113   -0.16 9  188 324 
 ZAR  HZ I         734 25.03         2.0 0.26            112            188 324 
                                                                                
