 2017  213 0249 47.6 L   6.998 -73.295139.2  RSN  6 0.4 1.4LRSN                1
 GAP=132        1.21       6.3     5.7  8.7  0.7371E+01 -0.2607E+01 -0.1682E+01E
 Epicentro: BETULIA - SANTANDER                                                3
 ACTION:UPD 17-05-24 15:35 OP:jn   STATUS:               ID:20170213024947 L   I
 OLDACT:UP  17-02-13 15:21 OP:edw  STATUS:               ID:20170213024740     3
 OLDACT:REG 17-02-13 11:35 OP:edw  STATUS:               ID:20170213024740     3
 2017-02-13-0248-00M.COL___352                                                 6
 STAT SP IPHASW D HRMM SECON CODA AMPLIT PERI AZIMU VELO AIN AR TRES W  DIS CAZ7
 BAR2 EZ EP        250  6.88                             160   -0.2510 46.6 164 
 BAR2 EZ ES        250 22.48                             160    0.0910 46.6 164 
 BAR2 EZ I         250 23.18         6.6 0.52            161           46.6 164 
 BRR  HZ IP     C  250  6.94                             160    0.1210 47.6 285 
 BRR  HN ES        250 22.39                             160    0.5510 47.6 285 
 BRR  HZ I         250 23.26        16.5 0.10            161           47.6 285 
 PAM  EZ EP        250  9.64                             149    0.6510 75.8  60 
 PAM  EN ES        250 25.13                             149   -0.5710 75.8  60 
 PAM  EZ I         250 27.06         3.2 0.24            150           75.8  60 
 RUS  HZ EP        250 12.56                             136   -0.0310  124 169 
 RUS  HN ES        250 31.94                             136   -0.1510  124 169 
 RUS  HZ I         250 32.83         2.2 0.22            137            124 169 
 PTB  HZ EP   9    250 12.49                             132   -0.63 0  138 249 
 PTB  HN ES        250 31.55                             133   -0.87 9  138 249 
 PTB  HZ I         250 33.63         1.9 0.44            134            138 249 
 ZAR  HN ES        250 39.84                             124   -0.53 9  181 288 
                                                                                
