 2017 1113 0030 12.6 L   6.785 -73.129141.0  RSN 11 0.5 1.8LRSN                1
 GAP=139        1.15       3.9     4.5  6.3 -0.1318E+01  0.8362E+01  0.6738E+01E
 Epicentro: LOS SANTOS - SANTANDER                                             3
 ACTION:UPD 17-12-12 19:54 OP:rebc STATUS:               ID:20171113003012 L   I
 OLDACT:UP  17-11-13 13:59 OP:leo  STATUS:               ID:20171113002740     3
 OLDACT:REG 17-11-13 13:09 OP:leo  STATUS:               ID:20171113002740     3
 2017-11-13-0028-00M.COL___459                                                 6
 STAT SP IPHASW D HRMM SECON CODA AMPLIT PERI AZIMU VELO AIN AR TRES W  DIS CAZ7
 BAR2 EZ EP     C  030 31.46                             171   -0.1610 22.1 195 
 BAR2 EZ ES        030 46.04                             171   -0.4210 22.1 195 
 BAR2 EZ I         030 49.03        15.9 0.36            168           22.1 195 
 BRR  HZ EP     C  030 33.34                             151   -0.0210 73.6 299 
 BRR  HN ES        030 49.83                             151    0.2610 73.6 299 
 BRR  HZ I         030 52.75        10.8 0.32            151           73.6 299 
 PAM  EZ EP        030 34.45                             150    0.1510 77.5  38 
 PAM  EN ES        030 51.29                             150    0.0410 77.5  38 
 PAM  EZ I         030 51.95         9.3 0.34            156           77.5  38 
 RUS  HZ EP        030 35.37                             143   -0.3710 98.8 177 
 RUS  HN ES        030 54.24                             143    0.4410 98.8 177 
 RUS  HZ I         030 57.30         5.0 0.38            144           98.8 177 
 PTB  HZ EP        030 38.21                             131   -1.09 9  149 260 
 PTB  HN ES        031  0.33                             131    0.18 9  149 260 
 PTB  HZ I         031  3.46         6.3 0.14            131            149 260 
 SPBC HZ EP        030 40.49                             128   -0.22 9  163 220 
 SPBC HN ES   1    031  2.37                             128   -0.27 7  163 220 
 SPBC HZ I         031  5.99        12.1 0.22            129            163 220 
 ZAR  HZ EP        030 46.27                             121    1.31 8  206 292 
 ZAR  HE ES        031 10.09                             121   -0.13 8  206 292 
 ZAR  HZ I         031 15.44        10.3 0.32            123            206 292 
 NOR  HZ EP        030 47.75                             117   -0.34 8  235 235 
 NOR  HN ES        031 15.70                             117   -0.10 8  235 235 
 NOR  HZ I         031 21.88         6.0 0.22            119            235 235 
 CHI  HZ EP        030 49.72                             116   -0.17 8  248 196 
 CHI  HN ES        031 20.08                             116    1.08 8  248 196 
 CHI  HZ I         031 24.81         2.2 0.22            118            248 196 
 GUY2CHZ EP     D  030 56.32                             111    0.29 7  302 235 
 GUY2CHN ES        031 29.88                             111   -0.05 7  302 235 
 GUY2CHZ I         031 38.12         5.6 0.42                           302 235 
 PRA  HZ EP        031  5.95                             106    0.08 6  391 210 
 PRA  HE ES        031 47.15                             106   -0.29 6  391 210 
 PRA  HZ I         031 54.15         3.2 0.28            107            391 210 
                                                                                
