 2013 1213 0954 53.7 L   6.773 -73.158143.1  RSN  7 0.5 1.6LRSN                1
 GAP=136        1.17       5.0     5.1  8.5  0.1297E+01  0.8528E+01 -0.4130E+00E
 Epicentro: LOS SANTOS - SANTANDER                                             3
 ACTION:UPD 14-01-13 10:17 OP:ep   STATUS:               ID:20131213095453 L   I
 OLDACT:REG 13-12-13 08:11 OP:jn   STATUS:               ID:20131213095000     3
 2013-12-13-0950-00M.COL___285                                                 6
 STAT SP IPHASW D HRMM SECON CODA AMPLIT PERI AZIMU VELO AIN AR TRES W  DIS CAZ7
 BAR2 SZ EP        955 13.04                             172    0.0510 20.1 188 
 BAR2 SZ ES        955 28.30                             172    0.3010 20.1 188 
 BAR2 SZ I         955 29.03        12.2 0.14            173           20.1 188 
 BRR  HZ EP        955 14.76                             152    0.1410 71.5 301 
 BRR  HN ES        955 31.72                             152    0.8210 71.5 301 
 BRR  HZ I         955 37.29         5.0 0.20            152           71.5 301 
 PAM  SZ EP        955 16.05                             149    0.1810 80.6  39 
 PAM  SN ES        955 32.62                             149   -0.5010 80.6  39 
 PAM  SZ I         955 35.13        10.7 0.62            152           80.6  39 
 RUS  HZ EP        955 17.51                             144    0.4910 97.7 175 
 RUS  HN ES        955 34.72                             144   -0.4510 97.7 175 
 RUS  HZ I         955 36.51         4.7 0.38            148           97.7 175 
 PTB  HZ EP        955 20.13                             132   -0.19 9  146 260 
 PTB  HN ES        955 40.28                             132   -0.76 9  146 260 
 PTB  HZ I         955 43.01         4.0 0.16            134            146 260 
 OCA  HE ES   1    955 43.62                             128   -0.62 7  163 354 
 OCA  HZ I         955 45.30         6.2 0.46            131            163 354 
 ZAR  HN ES        955 51.27                             122    0.11 9  204 293 
                                                                                
