 2011 1113 0743 56.1 L   6.750 -73.125141.0  RSN  4 0.1 1.3LRSN                1
 GAP=141        0.36       2.5     3.5  4.5 -0.2289E+00 -0.7407E+00  0.5579E+00E
 Epicentro: LOS SANTOS - SANTANDER                                             3
 ACTION:UPD 12-07-13 16:09 OP:ep   STATUS:               ID:20111113074356 L   I
 2011-11-13-0741-50S.COL___179                                                 6
 STAT SP IPHASW D HRMM SECON CODA AMPLIT PERI AZIMU VELO AIN AR TRES W  DIS CAZ7
 BAR2 SZ EP        744 15.02                             172   -0.0810 18.6 200 
 BAR2 SZ I         744 35.79         4.8 0.45                          18.6 200 
 BRR  HZ EP        744 17.00                             150   -0.0510 75.9 301 
 BRR  HZ I         744 17.50         3.8 0.07                          75.9 301 
 BRR  HN ES   1    744 33.44                             150    0.08 7 75.9 301 
 PAM  SZ EP        744 17.98                             149   -0.0510 80.4  36 
 PAM  SN ES   1    744 35.19                             149    0.08 7 80.4  36 
 RUS  HZ EP   1    744 19.28                             144    0.27 7 94.9 177 
 RUS  HN ES   1    744 36.76                             144   -0.10 7 94.9 177 
                                                                                
