 2012  213 0621  1.5 L   6.695 -73.097133.3  RSN 10 0.5 1.5LRSN                1
 GAP=147        0.61       4.4     4.7  8.3 -0.1784E+01  0.1183E+02  0.7938E+01E
 ACTION:UP  12-03-07 16:30 OP:epov STATUS:               ID:20120213062101 L   I
 2012-02-13-0620-00M.COL___188                                                 6
 STAT SP IPHASW D HRMM SECON CODA AMPLIT PERI AZIMU VELO AIN AR TRES W  DIS CAZ7
 BAR2 SZ EP   2    621 19.40                             173   -0.11 5 14.7 220 
 BAR2 SZ ES   2    621 32.94                             173   -0.59 5 14.7 220 
 BAR2 SZ I         621 35.76        10.0 0.25                          14.7 220 
 GIR2 SZ EP   2    621 20.42                             161    0.26 5 43.8 346 
 GIR2 SZ ES   2    621 34.82                             161    0.13 5 43.8 346 
 BRR  HZ EP   2    621 22.55                             146    0.52 5 81.9 304 
 BRR  HN ES   2    621 38.79                             146    0.77 5 81.9 304 
 BRR  HZ I         621 40.72         6.9 0.22                          81.9 304 
 PAM  SZ EP   2    621 22.45                             146   -0.41 5 83.7  32 
 PAM  SN ES   2    621 39.24                             146   -0.25 5 83.7  32 
 RUS  HZ EP   2    621 23.52                             145    0.32 5 88.7 179 
 RUS  HN ES   2    621 40.47                             145    0.37 5 88.7 179 
 RUS  HZ I         621 43.51         3.4 0.27                          88.7 179 
 PTB  HE ES   2    621 47.97                             128   -0.41 5  151 264 
 ZAR  HN ES   2    621 58.86                             118   -0.86 4  214 294 
 ZAR  HZ I         622  3.08         2.5 0.29                           214 294 
 NOR  SE ES   2    622  3.30                             116   -0.20 4  233 238 
 CHI  HE ES   2    622  5.09                             115   -0.46 4  239 197 
 HEL  HN ES   2    622 13.25                             112    0.68 4  275 258 
                                                                                
