 2013  313 0810 47.0 L   6.798 -73.108136.0  RSN  7 0.3 1.7LRSN                1
 GAP=141        0.66       3.1     4.4  8.1 -0.1149E+00  0.1653E+02  0.9579E-01E
 Epicentro: LOS SANTOS - SANTANDER                                             3
 ACTION:UPD 13-04-09 14:02 OP:ep   STATUS:               ID:20130313081047 L   I
 2013-03-13-0810-00M.COL___231                                                 6
 STAT SP IPHASW D HRMM SECON CODA AMPLIT PERI AZIMU VELO AIN AR TRES W  DIS CAZ7
 BAR2 SZ ES   4    811 20.11                             169    0.20 0 24.2 200 
 BAR2 SZ I         811 21.53        13.2 0.26            167           24.2 200 
 BRR  HZ EP   1    811  7.68                             149    0.33 7 74.9 297 
 BRR  HN ES   2    811 23.68                             149    0.48 5 74.9 297 
 BRR  HN I         811 24.47        15.0 0.20            148           74.9 297 
 PAM  SZ EP   1    811  8.41                             150    0.35 7 75.0  37 
 PAM  SN ES        811 24.54                             150    0.0810 75.0  37 
 PAM  SN I         811 26.24         5.8 0.24            155           75.0  37 
 RUS  HZ EP   1    811  9.59                             142   -0.21 7  100 178 
 RUS  HN ES        811 27.35                             142   -0.2110  100 178 
 RUS  HN I         811 30.69         3.5 0.30            143            100 178 
 PTB  HZ EP   1    811 13.78                             129    0.19 7  152 259 
 PTB  HN ES   2    811 34.77                             129    0.46 5  152 259 
 PTB  HN I         811 38.47         4.4 0.30            129            152 259 
 OCA  HN ES   1    811 35.62                             127   -0.60 7  161 352 
 OCA  HN I         811 36.50        23.0 0.16            130            161 352 
 ZAR  HN ES   1    811 44.00                             119   -0.41 6  208 292 
 ZAR  HN I         811 50.09         4.8 0.20            121            208 292 
                                                                                
