 2010  713 0529 11.4 L   6.762 -73.084148.1  RSN 11 0.5 1.9LRSN                1
 GAP=163        1.35       6.1    12.1  9.7 -0.2183E+02 -0.7106E+01 -0.4176E+01E
 Epicentro: LOS SANTOS - SANTANDER                                             3
 ACTION:UPD 10-12-01 15:17 OP:pat  STATUS:               ID:20100713052911 L   I
 2010-07-13-0525-19S.COL___120                                                 6
 STAT SP IPHASW D HRMM SECON CODA AMPLIT PERI AZIMU VELO AIN AR TRES W  DIS CAZ7
 BAR2 SZ IP        529 31.14                             171    -0.210   22 210 
 BAR2 SZ ES   1    529 46.45                             171    -0.4 7   22 210 
 BAR2 SZ I         529 47.88        15.8 0.37                            22 210 
 GIR2 SZ EP   1    529 31.22                             165    -0.3 7   37 341 
 GIR2 SZ ES   1    529 48.01                             165     0.8 7   37 341 
 BRR  HZ IP     C  529 33.04                             151    -0.310   79 299 
 BRR  HZ I         529 33.30        45.2 0.17                            79 299 
 BRR  HE ES   1    529 50.48                             151     0.1 7   79 299 
 RUS  HZ EP   1    529 35.18                             146     0.1 7   96 180 
 RUS  HN ES   1    529 53.65                             146     0.1 7   96 180 
 RUS  HZ I         529 54.99         7.4 0.24                            96 180 
 BRI  SZ IP        529 34.75                             142    -0.910  110  17 
 BRI  SZ I         529 58.16         9.6 0.41                           110  17 
 GUE  SZ EP   1    529 37.06                             139     0.5 7  119   8 
 GUE  SZ I         530  0.06         4.1 0.09                           119   8 
 GRA  SZ IP        529 38.00                             137     0.910  128  14 
 GRA  SZ ES   1    529 57.66                             137     0.6 7  128  14 
 GRA  SZ I         529 58.57        13.2 0.26                           128  14 
 OCA  SZ EP   1    529 40.05                             129    -0.4 7  165 351 
 OCA  SZ ES   1    530  2.48                             129    -0.5 7  165 351 
 OCA  SZ I         530  7.39        18.0 0.29                           165 351 
 HEL  HZ EP   2    529 52.91                             115     0.5 4  278 257 
 HEL  HZ I         530 29.79         4.2 0.33                           278 257 
 RREF HN ES   2    530 34.79                             111     0.5 3  324 231 
 RREF HZ I         530 42.73         4.9 0.41                           324 231 
 PRA  HZ EP   2    530  5.14                             107     0.1 3  392 211 
 PRA  HZ I         530  6.73         2.9 0.15                           392 211 
 PRA  HE ES   2    530 47.57                             107     0.8 3  392 211 
                                                                                
