 2011  213 0452  6.6 L   6.798 -73.021147.3  RSN  8 0.3 1.7LRSN                1
 GAP=173        0.62       4.2    10.8  8.0 -0.2199E+02  0.4456E+02 -0.7641E+01E
 Epicentro: CEPITA - SANTANDER                                                 3
 ACTION:UP  11-03-28 15:08 OP:jfem STATUS:               ID:20110213045206 L   I
 2011-02-13-0449-55S.COL___136                                                 6
 STAT SP IPHASW D HRMM SECON CODA AMPLIT PERI AZIMU VELO SNR AR TRES W  DIS CAZ7
 BAR2 SZ EP   1    452 26.55                             168     0.0 7   29 218 
 BAR2 SZ ES   2    452 41.93                             168    -0.1 5   29 218 
 BAR2 SZ I         452 43.13        29.9 0.17                            29 218 
 BTL  SZ EP   1    452 26.79                             168     0.3 7   30 296 
 RUS  HZ EP   1    452 30.55                             144     0.1 7  100 184 
 RUS  HN ES   2    452 48.93                             144    -0.1 5  100 184 
 RUS  HZ I         452 50.51         5.2 0.38                           100 184 
 GRA  SZ EP   1    452 31.36                             138    -0.3 7  123  11 
 GRA  SZ ES   2    452 51.37                             138     0.1 5  123  11 
 GRA  SZ I         452 53.55         3.9 0.35                           123  11 
 OCA  SZ EP   1    452 35.30                             130     0.1 7  163 348 
 OCA  SZ I         453  2.03         6.1 0.38                           163 348 
 NOR  SZ EP   1    452 44.23                             118     0.6 6  246 236 
 CHI  HZ EP   1    452 44.63                             117    -0.1 6  252 198 
 CHI  HN ES   2    453 14.22                             117    -0.3 4  252 198 
 CHI  HZ I         453 17.64         1.7 0.62                           252 198 
 HEL  HZ EP   1    452 47.71                             114    -0.6 6  285 257 
 HEL  HZ I         453 26.14         2.5 0.39                           285 257 
                                                                                
