 2014  813 0142 47.6 L   6.810 -73.152145.9  RSN  6 0.3 1.6LRSN                1
 GAP=200        0.74       3.0     4.7  5.1  0.2950E+01  0.8675E+00 -0.3860E+01E
 Epicentro: LOS SANTOS - SANTANDER                                             3
 ACTION:UPD 14-09-15 21:49 OP:nd   STATUS:               ID:20140813014247 L   I
 OLDACT:REG 14-08-13 12:50 OP:cam  STATUS:               ID:20140813014000     3
 2014-08-13-0140-00M.COL___285                                                 6
 STAT SP IPHASW D HRMM SECON CODA AMPLIT PERI AZIMU VELO AIN AR TRES W  DIS CAZ7
 BAR2 SZ EP        143  7.39                             170    0.0910 24.3 188 
 BAR2 SZ ES        143 22.54                             170   -0.1010 24.3 188 
 BAR2 SZ I         143 23.94         7.5 0.24            169           24.3 188 
 BRR  HZ EP        143  9.02                             153    0.3010 70.0 298 
 BRR  HE ES        143 25.57                             153    0.3910 70.0 298 
 BRR  HZ I         143 29.54         5.1 0.42            152           70.0 298 
 RUS  HZ EP        143 11.37                             144   -0.1110  102 176 
 RUS  HN ES        143 29.83                             144   -0.2610  102 176 
 RUS  HZ I         143 31.17         3.2 0.24            145            102 176 
 PTB  HZ EP        143 14.19                             132   -0.37 9  147 258 
 PTB  HN ES        143 35.20                             132   -0.37 9  147 258 
 PTB  HZ I         143 36.90         4.2 0.42            132            147 258 
 SPBC HZ EP   1    143 16.51                             129    0.33 7  164 219 
 SPBC HE ES        143 38.78                             129    0.33 9  164 219 
 SPBC HZ I         143 44.03         5.9 0.32            130            164 219 
 SML  HZ EP        143 24.35                             118    0.24 8  242 335 
 SML  HN ES        143 52.18                             118   -0.39 8  242 335 
 SML  HZ I         143 53.66         5.6 0.22            119            242 335 
                                                                                
