 2016  213 0652 53.8 L   6.825 -73.142146.9  RSN  4 0.1 1.2LRSN                1
 GAP=245        0.38       3.9     3.2  5.9  0.8656E+01 -0.6652E+01 -0.1331E+02E
 Epicentro: LOS SANTOS - SANTANDER                                             3
 ACTION:UPD 16-03-04 21:25 OP:rebc STATUS:               ID:20160213065253 L   I
 OLDACT:UP  16-02-13 17:09 OP:ak   STATUS:               ID:20160213064743     3
 OLDACT:REG 16-02-13 14:11 OP:ak   STATUS:               ID:20160213064743     3
 2016-02-13-0647-43M.COL___307                                                 6
 STAT SP IPHASW D HRMM SECON CODA AMPLIT PERI AZIMU VELO AIN AR TRES W  DIS CAZ7
 RUS  HZ EP        653 17.89                             143    0.0110  103 176 
 RUS  HN ES        653 36.65                             143    0.0010  103 176 
 RUS  HZ I         653 37.52         1.2 0.24            143            103 176 
 PTB  HZ EP        653 20.84                             132   -0.13 9  149 258 
 PTB  HN ES        653 41.94                             132   -0.20 9  149 258 
 PTB  HZ I         653 47.91         2.3 0.34            129            149 258 
 SPBC HZ EP   2    653 22.65                             129    0.01 5  166 218 
 SPBC HN ES        653 45.26                             129    0.15 9  166 218 
 SPBC HZ I         653 52.04         2.8 0.38            127            166 218 
 ZAR  HZ EP   2    653 26.41                             123    0.13 4  203 291 
 ZAR  HE ES        653 51.76                             123    0.17 9  203 291 
 ZAR  HZ I         653 58.48         1.9 0.38            122            203 291 
                                                                                
