 2012 1113 0754 30.4 L   6.780 -73.114144.1  RSN  4 0.2 1.2LRSN                1
 GAP=142        0.49       3.8     5.8  7.2 -0.2044E+01 -0.1088E+02 -0.2044E+01E
 Epicentro: LOS SANTOS - SANTANDER                                             3
 ACTION:UPD 12-12-05 15:33 OP:}ep  STATUS:               ID:20121113075430 L   I
 2012-11-13-0750-00M.COL___230                                                 6
 STAT SP IPHASW D HRMM SECON CODA AMPLIT PERI AZIMU VELO AIN AR TRES W  DIS CAZ7
 BAR2 SZ EP   1    754 49.60                             171   -0.21 7 22.1 200 
 BAR2 SZ ES   1    755  4.59                             171   -0.35 7 22.1 200 
 BAR2 SZ I         755  5.95         5.4 0.13                          22.1 200 
 BRR  HN ES   1    755  8.31                             151    0.16 7 75.3 299 
 BRR  HZ I         755 12.50         2.3 0.21                          75.3 299 
 PAM  SZ EP   1    754 52.44                             151    0.02 7 77.0  36 
 PAM  SE ES   1    755  9.70                             151    0.11 7 77.0  36 
 PAM  SZ I         755 11.73         3.0 0.52                          77.0  36 
 RUS  HE ES   1    755 12.34                             144    0.27 7 98.2 178 
 RUS  HZ I         755 13.42         1.9 0.26                          98.2 178 
                                                                                
