 2016  413 0858 48.4 L   6.813 -73.161143.8  RSN  8 0.2 1.7LRSN                1
 GAP=134        0.62       2.1     2.7  4.2 -0.1412E+01  0.4295E+01 -0.1294E+01E
 Epicentro: LOS SANTOS - SANTANDER                                             3
 ACTION:UPD 16-05-05 14:21 OP:rebc STATUS:               ID:20160413085848 L   I
 OLDACT:REG 16-04-13 13:28 OP:mh   STATUS:               ID:20160413085740     3
 2016-04-13-0857-40M.COL___309                                                 6
 STAT SP IPHASW D HRMM SECON CODA AMPLIT PERI AZIMU VELO AIN AR TRES W  DIS CAZ7
 BAR2 EZ IP        859  7.78                             170   -0.0810 24.5 186 
 BAR2 EZ ES        859 23.09                             170    0.0910 24.5 186 
 BAR2 EZ I         859 24.39        11.2 0.16            171           24.5 186 
 PAM  EZ IP        859 10.76                             150    0.3110 77.4  41 
 PAM  EE ES        859 27.46                             150   -0.1510 77.4  41 
 PAM  EZ I         859 29.95         7.7 0.52            153           77.4  41 
 RUS  HZ EP        859 11.80                             143   -0.3110  102 175 
 RUS  HE ES        859 30.70                             143    0.1310  102 175 
 RUS  HZ I         859 32.51         6.0 0.26            146            102 175 
 PTB  HZ EP        859 14.84                             132   -0.29 9  146 258 
 PTB  HN ES        859 36.06                             132    0.12 9  146 258 
 PTB  HZ I         859 36.56         7.7 0.18            133            146 258 
 OCA  HZ EP        859 16.97                             129    0.52 9  159 354 
 OCA  HN ES        859 37.91                             129   -0.39 9  159 354 
 OCA  HZ I         859 42.05         8.9 0.32            131            159 354 
 SPBC HZ EP        859 16.73                             129   -0.07 9  163 218 
 SPBC HN ES        859 39.03                             129    0.12 9  163 218 
 SPBC HZ I         859 45.81         9.7 0.20            131            163 218 
 ZAR  HZ EP        859 20.60                             122    0.05 9  202 292 
 ZAR  HN ES        859 45.68                             122    0.09 9  202 292 
 ZAR  HZ I         859 51.26         5.3 0.40            124            202 292 
 GUY2CHZ EP   4    859 33.08                             112    1.18 0  301 234 
 GUY2CHE ES        9 0  5.64                             112   -0.16 7  301 234 
 GUY2CHZ I         9 0 13.01         2.6 0.56                           301 234 
                                                                                
