 2010  713 0411 30.6 L   6.817 -73.063142.8  RSN  6 0.4 1.8LRSN                1
 GAP=191        0.89       3.8    10.5  7.7  0.1147E+01  0.1138E+02  0.2526E+01E
 Epicentro: LOS SANTOS - SANTANDER                                             3
 ACTION:UPD 10-12-01 15:17 OP:pat  STATUS:               ID:20100713041130 L   I
 2010-07-13-0400-00S.COL___116                                                 6
 STAT SP IPHASW D HRMM SECON CODA AMPLIT PERI AZIMU VELO AIN AR TRES W  DIS CAZ7
 BAR2 SZ IP        411 50.08                             168     0.110   28 208 
 BAR2 SZ ES   1    412  4.65                             168    -0.4 7   28 208 
 BAR2 SZ I         412  6.15        12.0 0.30                            28 208 
 BRR  HZ IP     C  411 51.85                             149     0.010   79 294 
 BRR  HN ES   1    412  8.93                             149     0.5 7   79 294 
 BRR  HZ I         412  9.66        11.8 0.15                            79 294 
 RUS  HZ EP   1    411 54.16                             143     0.0 7  102 181 
 RUS  HE ES   1    412 12.68                             143     0.1 7  102 181 
 RUS  HZ I         412 14.59         7.3 0.32                           102 181 
 OCA  SZ EP   1    411 59.38                             129     0.8 7  160 350 
 OCA  SZ ES        412 20.04                             129    -0.4 9  160 350 
 OCA  SZ I         412 26.55         6.6 0.56                           160 350 
 HEL  HZ EP   2    412 11.40                             113    -0.3 4  281 256 
 HEL  HZ I         412 49.16         4.0 0.49                           281 256 
 PRA  HZ EP   1    412 24.24                             106    -0.5 4  398 211 
 PRA  HN ES        413  6.92                             106    -0.1 6  398 211 
 PRA  HZ I         413 12.48         3.9 0.30                           398 211 
                                                                                
