 2013 1113 0641 15.3 L   6.837 -73.178137.4  RSN 17 0.5 2.1LRSN                1
 GAP=131        1.28       3.2     4.9  6.5 -0.2944E+01  0.9211E+01  0.5464E+00E
 Epicentro: ZAPATOCA - SANTANDER                                               3
 ACTION:UPD 14-01-09 16:27 OP:ep   STATUS:               ID:20131113064115 L   I
 OLDACT:REG 13-11-13 08:20 OP:nd   STATUS:               ID:20131113064000     3
 2013-11-13-0640-00M.COL___276                                                 6
 STAT SP IPHASW D HRMM SECON CODA AMPLIT PERI AZIMU VELO AIN AR TRES W  DIS CAZ7
 BAR2 SZ EP        641 34.10                             168    0.1310 27.1 181 
 BAR2 SZ ES        641 49.16                             168    0.6010 27.1 181 
 BAR2 SZ I         641 51.05        29.4 0.44            167           27.1 181 
 BRR  HZ IP     C  641 35.85                             153    0.6310 66.1 297 
 BRR  HN ES        641 50.86                             153    0.0810 66.1 297 
 BRR  HZ I         641 56.69        42.7 0.14            150           66.1 297 
 PAM  SZ EP        641 37.04                             149    0.4910 76.7  44 
 PAM  SN ES        641 53.10                             149   -0.0510 76.7  44 
 PAM  SZ I         641 56.02        18.6 0.32            151           76.7  44 
 RUS  HZ EP        641 38.35                             141   -0.1910  105 174 
 RUS  HN ES        641 55.74                             141   -0.9510  105 174 
 RUS  HZ I         641 58.66        11.7 0.18            140            105 174 
 PTB  HZ EP        641 40.60                             131   -0.71 9  145 257 
 PTB  HN ES        642  1.49                             131   -0.14 9  145 257 
 PTB  HZ I         642  4.39        18.8 0.10            129            145 257 
 OCA  HZ EP        641 42.02                             128   -0.48 9  156 354 
 OCA  HN ES        642  3.75                             128   -0.00 9  156 354 
 OCA  HZ I         642  7.63        20.6 0.22            128            156 354 
 SPBC HZ EP        641 42.96                             127   -0.27 9  164 217 
 SPBC HN ES        642  4.79                             127   -0.26 9  164 217 
 SPBC HZ I         642 14.27        17.4 0.20            125            164 217 
 ZAR  HZ EP        641 47.29                             121    0.62 9  199 291 
 ZAR  HN ES        642 11.22                             121    0.06 9  199 291 
 ZAR  HZ I         642 17.60        18.2 0.22            120            199 291 
 NOR  HZ EP        641 50.28                             117   -0.19 8  234 233 
 NOR  HN ES        642 17.74                             117   -0.19 8  234 233 
 NOR  HZ I         642 25.90         8.8 0.16            116            234 233 
 SML  HZ EP        641 49.96                             116   -0.90 8  238 336 
 SML  HN ES        642 18.51                             116   -0.11 8  238 336 
 SML  HZ I         642 26.97        36.2 0.10            116            238 336 
 ROSC BZ EP        641 54.70                             115    1.57 8  254 210 
 ROSC BN ES        642 23.10                             115    0.43 8  254 210 
 HEL  HZ EP   4    641 55.43                             113    0.64 0  270 255 
 HEL  HN ES   4    642 26.68                             113    1.06 0  270 255 
 HEL  HZ I         642 33.00         5.4 0.38            112            270 255 
 GUY2CHZ EP   4    641 59.45                             111    1.01 0  301 234 
 GUY2CHN ES   4    642 33.60                             111    1.49 0  301 234 
 GUY2CHZ I         642 40.50         6.5 0.76                           301 234 
 PTGC HZ EP   4    641 57.53                             110   -1.82 0  314 158 
 PTGC HZ I         642 16.54         9.8 0.42            109            314 158 
 PTGC HN ES   4    642 30.48                             110   -3.26 0  314 158 
 CBOC HZ EP   4    642  2.59                             108    0.99 0  331 251 
 CBOC HN ES   4    642 37.46                             108   -0.28 0  331 251 
 CBOC HZ I         642 42.05         1.9 0.16            108            331 251 
 ORTC HZ EP     C  642  8.80                             105   -0.26 6  397 215 
 ORTC HN ES        642 51.29                             105    0.28 6  397 215 
 ORTC HZ I         642 56.88         6.1 0.44            104            397 215 
 SJC  HZ EP   4    642  8.21                             104   -1.71 0  404 327 
 SJC  HN ES   4    642 49.42                             104   -3.13 0  404 327 
 SJC  HZ I         642 56.00         3.0 0.28            104            404 327 
                                                                                
