 2010 1213 0657  2.6 L   6.807 -73.131145.0  RSN 10 0.3 1.9LRSN                1
 GAP=137        0.47       2.3     4.9  6.8 -0.2700E+01  0.1466E+02  0.3126E+01E
 Epicentro: LOS SANTOS - SANTANDER                                             3
 ACTION:UP  11-01-14 15:24 OP:pat  STATUS:               ID:20101213065702 L   I
 2010-12-13-0640-00M.COL___135                                                 6
 STAT SP IPHASW D HRMM SECON CODA AMPLIT PERI AZIMU VELO SNR AR TRES W  DIS CAZ7
 BAR2 SZ EP   2    657 22.54                             170     0.4 5   25 194 
 BAR2 SZ I         657 40.79        15.3 0.34                            25 194 
 RUS  HZ EP   2    657 26.20                             144    -0.1 5  101 177 
 RUS  HE ES   2    657 44.80                             144     0.0 5  101 177 
 RUS  HZ I         657 47.89         8.2 0.21                           101 177 
 GRA  SZ EP   2    657 27.18                             137    -0.5 5  125  17 
 GRA  SZ ES   1    657 47.05                             137    -0.1 7  125  17 
 GRA  SZ I         657 49.85         8.9 0.27                           125  17 
 OCA  SZ EP   1    657 30.59                             130    -0.2 7  160 353 
 OCA  SZ ES   2    657 53.36                             130     0.6 5  160 353 
 OCA  SZ I         657 56.65        14.6 0.25                           160 353 
 YOP  SZ EP   2    657 32.47                             126    -0.1 4  179 154 
 YOP  SE ES   2    657 56.10                             126     0.1 4  179 154 
 YOP  SZ I         658  1.14         5.4 0.68                           179 154 
 NOR  SZ EP   2    657 38.86                             118     0.4 4  237 235 
 NOR  SE ES   2    658  6.68                             118     0.2 4  237 235 
 CHI  HZ EP   1    657 40.50                             117     0.1 6  250 195 
 CHI  HE ES   2    658  9.57                             117    -0.3 4  250 195 
 CHI  HZ I         658 15.41         3.8 0.56                           250 195 
 RREF HZ EP   2    657 48.79                             111    -0.1 3  324 229 
 RREF HE ES   2    658 24.29                             111    -0.7 3  324 229 
 RREF HZ I         658 33.54         5.0 0.27                           324 229 
 TOL  SZ EP   2    657 51.25                             109     0.3 3  345 225 
 PRA  HZ EP   2    657 56.52                             106     0.3 3  393 210 
 PRA  HN ES   2    658 37.87                             106    -0.2 3  393 210 
                                                                                
