 2015 1013 0315 33.1 L   7.468 -73.187128.2  RSN 20 0.5 2.3LRSN                1
 GAP=114        1.20       3.0     3.6  5.8  0.8458E+00  0.6526E+01  0.3701E+01E
 Epicentro: EL PLAYON - SANTANDER                                              3
     140.0       9.0       8.0  5.0 10.0  7.0  0.0  0.1           RSN FPFIT    F
 ACTION:UPD 15-12-22 20:39 OP:cam  STATUS:               ID:20151013031533 L   I
 OLDACT:UP  15-11-01 03:28 OP:DRIO STATUS:               ID:20151013031533 L   3
 OLDACT:UP  15-10-13 17:19 OP:cara STATUS:               ID:20151013030735     3
 OLDACT:REG 15-10-13 14:14 OP:cara STATUS:               ID:20151013030735     3
 2015-10-13-0307-35M.COL___334                                                 6
 STAT SP IPHASW D HRMM SECON CODA AMPLIT PERI AZIMU VELO AIN AR TRES W  DIS CAZ7
 PAM  EZ EP        315 52.56                             155    0.3510 55.7 105 
 PAM  EN ES        316  7.67                             155    0.5610 55.7 105 
 BRR  HZ IP     D  315 52.33                             149   -0.0010 70.4 235 
 BRR  HZ I         315 52.45        47.2 0.16            139           70.4 235 
 BRR  HN ES        316  7.21                             149   -0.1110 70.4 235 
 OCA  HZ EP     D  315 53.85                             144    0.2110 86.5 350 
 OCA  HZ I         315 54.40        50.8 0.12            138           86.5 350 
 OCA  HE ES        316 10.07                             144    0.4210 86.5 350 
 BAR2 EZ EP        315 54.25                             141   -0.2810 96.9 180 
 BAR2 EZ ES        316 10.69                             141   -0.5410 96.9 180 
 BAR2 EZ I         316 11.84        50.6 0.14            133           96.9 180 
 RUS  HZ EP        316  1.45                             123   -0.55 9  175 176 
 RUS  HN ES   4    316 22.21                             123   -2.33 0  175 176 
 SML  HZ IP     D  316  1.06                             122   -0.51 9  177 327 
 SML  HZ I         316  1.86        42.1 0.28            115            177 327 
 SML  HE ES        316 23.09                             122   -0.68 9  177 327 
 ZAR  HZ EP        316  2.12                             121   -0.27 9  184 271 
 ZAR  HN ES        316 25.78                             121    0.55 9  184 271 
 ZAR  HZ I         316 30.19        29.2 0.40            113            184 271 
 TAM  HZ EP        316  3.35                             120    0.13 9  192 126 
 TAM  HN ES        316 26.07                             120   -0.64 9  192 126 
 TAM  HZ I         316 27.90        13.3 0.24            115            192 126 
 SPBC HZ EP        316  6.30                             116   -0.38 8  223 206 
 SPBC HE ES        316 32.94                             116    0.08 8  223 206 
 SPBC HZ I         316 35.26        22.5 0.18            109            223 206 
 URE  HZ EP   4    316  8.49                             112   -2.26 0  261 277 
 URE  HN ES   4    316 37.52                             112   -2.59 0  261 277 
 URE  HZ I         317  4.25        24.3 0.20            105            261 277 
 NOR  HZ IP     C  316 12.83                             110   -0.28 7  281 222 
 NOR  HE ES        316 43.46                             110   -0.85 7  281 222 
 NOR  HZ I         316 50.75        11.9 0.16            104            281 222 
 ARGC HZ EP        316 14.53                             109    0.59 7  289 336 
 ARGC HZ I         316 17.54         5.6 0.26            104            289 336 
 ARGC HN ES   4    316 48.85                             109    3.05 0  289 336 
 HEL  HZ EP     D  316 14.83                             109   -0.27 7  295 242 
 HEL  HE ES        316 47.53                             109   -0.32 7  295 242 
 HEL  HZ I         316 57.43         6.2 0.26            103            295 242 
 ROSC BZ EP   4    316 20.21                             108    2.58 0  316 203 
 ROSC BZ I         316 58.81        11.6 0.40            102            316 203 
 CHI  HZ EP        316 19.13                             107    1.11 7  320 191 
 CHI  HE ES        316 54.09                             107    1.04 7  320 191 
 CHI  HZ I         316 57.52         4.1 0.50            102            320 191 
 DBB  SZ EP        316 19.13                             106   -0.57 7  337 262 
 DBB  SZ ES   4    316 53.78                             106   -2.25 0  337 262 
 GUY2CHZ EP     D  316 22.57                             106    1.41 6  346 224 
 GUY2CHE ES        316 59.02                             106    0.37 6  346 224 
 GUY2CHZ I         317  7.47         6.3 0.50                           346 224 
 SJC  HZ EP   4 D  316 19.94                             106   -0.81 0  347 321 
 SJC  HZ I         316 27.39         6.8 0.14            100            347 321 
 SJC  HE ES   4    316 54.74                             106   -3.17 0  347 321 
 CBOC HZ EP        316 22.49                             105    0.14 6  359 241 
 CBOC HZ I         316 24.54         2.9 0.18             99            359 241 
 ELA  HZ EP   4    316 27.27                             104    2.21 0  378 220 
 ELA  HN ES        317  6.11                             104    0.54 6  378 220 
 ELA  HZ I         317 16.71         5.0 0.36             99            378 220 
                                                                                
