 2011 1113 0204 11.6 L   7.254 -73.513 93.0  RSN  4 0.3 1.3LRSN                1
 GAP=233        0.49       8.2     7.4  5.5  0.5459E+02  0.6275E+01  0.3423E+01E
 Epicentro: SABANA DE TORRES - SANTANDER                                       3
 ACTION:UPD 12-07-13 16:09 OP:ep   STATUS:               ID:20111113020411 L   I
 2011-11-13-0200-37S.COL___178                                                 6
 STAT SP IPHASW D HRMM SECON CODA AMPLIT PERI AZIMU VELO AIN AR TRES W  DIS CAZ7
 BRR  HZ EP        2 4 24.66                             163   -0.0210 27.4 234 
 BRR  HE ES   1    2 4 34.90                             163   -0.01 7 27.4 234 
 BRR  HZ I         2 4 36.96         7.3 0.20                          27.4 234 
 BAR2 SZ ES   1    2 4 41.78                             136   -0.03 7 81.8 153 
 ZAR  HZ EP   1    2 4 35.56                             117    0.39 7  151 280 
 ZAR  HN ES   1    2 4 53.38                             117   -0.21 7  151 280 
 ZAR  HZ I         2 4 57.05         4.0 0.16                           151 280 
 RUS  HZ EP   2    2 4 35.96                             116   -0.61 5  158 162 
 RUS  HE ES   1    2 4 56.24                             116    0.17 7  158 162 
                                                                                
