 2016 1113 0848 17.0 L   7.370 -73.203127.3  RSN 15 0.3 2.3LRSN                1
 GAP= 95        1.04       5.8     3.5  6.2  0.2656E+01  0.5943E+01  0.2903E+01E
 Epicentro: EL PLAYON - SANTANDER                                              3
 ACTION:UPD 17-10-26 21:07 OP:lp   STATUS:               ID:20161113084817 L   I
 OLDACT:UP  16-11-13 23:00 OP:and  STATUS:               ID:20161113083744     3
 OLDACT:UP  16-11-13 22:57 OP:and  STATUS:               ID:20161113083744     3
 OLDACT:UP  16-11-13 22:46 OP:and  STATUS:               ID:20161113083744     3
 OLDACT:UP  16-11-13 22:45 OP:and  STATUS:               ID:20161113083744     3
 OLDACT:REG 16-11-13 13:25 OP:and  STATUS:               ID:20161113083744     3
 2016-11-13-0838-00M.COL___340                                                 6
 STAT SP IPHASW D HRMM SECON CODA AMPLIT PERI AZIMU VELO AIN AR TRES W  DIS CAZ7
 PAM  EZ EP        848 36.23                             155    0.2310 55.6  93 
 PAM  EN ES        848 51.02                             155    0.2010 55.6  93 
 BRR  HZ IP     C  848 35.62                             152   -0.0810 63.3 243 
 BRR  HE ES        848 50.57                             152    0.2810 63.3 243 
 BRR  HZ I         848 51.78        54.5 0.44            142           63.3 243 
 BAR2 EZ IP     C  848 37.48                             144   -0.0410 86.1 179 
 BAR2 EZ ES        848 53.22                             144   -0.3210 86.1 179 
 BAR2 EZ I         848 54.49        82.4 0.34            135           86.1 179 
 PTB  HZ EP        848 43.76                             124   -0.59 9  166 237 
 PTB  HN ES        849  5.83                             124    0.14 9  166 237 
 PTB  HZ I         849  7.97        28.2 0.52            118            166 237 
 ZAR  HZ EP        848 45.69                             121   -0.41 9  183 274 
 ZAR  HN ES        849  8.92                             121    0.13 9  183 274 
 ZAR  HZ I         849 12.26        29.3 0.14            117            183 274 
 TAM  HZ EP   4    848 50.91                             120    4.36 0  187 123 
 TAM  HN ES        849  9.34                             120   -0.26 9  187 123 
 URE  HZ EP   4    848 56.27                             111    1.69 0  261 279 
 URE  HE ES   4    849 21.29                             111   -2.60 0  261 279 
 URE  HZ I         849 29.41        16.5 0.16            108            261 279 
 LL6C HZ EP   9    848 34.90                             111   -19.8 0  262 358 
 LL6C HN ES        849  3.26                              36   -1.04 8  262 358 
 NOR  HZ EP        848 55.79                             111   -0.12 8  272 223 
 NOR  HN ES   4    849 24.61                             111   -1.65 0  272 223 
 NOR  HZ I         849 32.86        18.1 0.18            106            272 223 
 ROSC BZ EP   9    849  4.04                             108    3.79 0  306 204 
 ROSC BN ES        849 36.78                             106   -1.00 7  306 204 
 ROSC BZ I         849 43.59        10.7 0.40            104            306 204 
 CHI  HZ EP        849  1.26                             108    0.66 7  309 191 
 CHI  HN ES   4    849 36.65                             108    2.03 0  309 191 
 CHI  HZ I         849 43.32         4.5 0.48            104            309 191 
 CBOC HZ EP        849  6.07                             105    0.64 6  352 242 
 CBOC HN ES   4    849 41.26                             105   -1.94 0  352 242 
 CBOC HZ I         849 46.38         3.4 0.60            102            352 242 
 PAL  HZ EP   4    849 17.04                             101    1.77 0  436 232 
 PAL  HN ES   4    849 58.93                             101   -1.80 0  436 232 
 PAL  HZ I         850  4.06         3.4 0.32             99            436 232 
 ORTC HZ EP   4    849 17.68                             101    1.47 0  445 211 
 ORTC HN ES   4    850  5.44                             101    3.04 0  445 211 
 ORTC HZ I         850 13.95         4.5 0.38             98            445 211 
 PRA  HZ EP   4    849 14.77                             101   -1.52 0  445 205 
 PRA  HN ES   4    850  1.76                             101   -0.78 0  445 205 
 PRA  HZ I         850 10.33         6.6 0.32             98            445 205 
                                                                                
