 2015 1213 0502 39.6 L   6.759 -73.150144.8  RSN  6 0.5 1.2LRSN                1
 GAP=138        1.19       4.8     6.4 11.8 -0.8179E+01  0.2342E+02 -0.7803E+01E
 Epicentro: LOS SANTOS - SANTANDER                                             3
 ACTION:UPD 16-02-04 15:04 OP:cam  STATUS:               ID:20151213050239 L   I
 OLDACT:UP  15-12-13 14:30 OP:mh   STATUS:               ID:20151213045736     3
 OLDACT:UP  15-12-13 14:28 OP:mh   STATUS:               ID:20151213045736     3
 OLDACT:UP  15-12-13 14:27 OP:mh   STATUS:               ID:20151213045736     3
 OLDACT:REG 15-12-13 12:12 OP:mh   STATUS:               ID:20151213045736     3
 2015-12-13-0457-36M.COL___343                                                 6
 STAT SP IPHASW D HRMM SECON CODA AMPLIT PERI AZIMU VELO AIN AR TRES W  DIS CAZ7
 BAR2 EZ EP   4    5 2 56.77                             172   -2.24 0 18.7 191 
 BAR2 EZ I         5 3 15.56         4.1 0.22            171           18.7 191 
 PAM  EZ EP        5 3  2.33                             149    0.4010 81.3  38 
 PAM  EN ES        5 3 19.15                             149   -0.2110 81.3  38 
 PAM  EZ I         5 3 22.51         2.9 0.36            149           81.3  38 
 RUS  HZ EP        5 3  2.36                             145   -0.5610 96.1 176 
 RUS  HN ES        5 3 21.20                             145    0.0810 96.1 176 
 RUS  HZ I         5 3 24.32         1.2 0.16            144           96.1 176 
 PTB  HZ EP   1    5 3  5.41                             132   -0.94 7  146 261 
 PTB  HN ES        5 3 26.75                             132   -0.48 9  146 261 
 PTB  HZ I         5 3 31.67         2.8 0.44            133            146 261 
 SPBC HZ EP        5 3  7.98                             129    0.34 9  159 220 
 SPBC HN ES        5 3 30.25                             129    0.72 9  159 220 
 SPBC HZ I         5 3 33.60         3.5 0.38            129            159 220 
 SML  HN ES        5 3 45.89                             117    0.45 8  248 336 
                                                                                
