 2010  913 0833  1.3 L   6.769 -73.115150.4  RSN  7 0.4 1.7LRSN                1
 GAP=162        1.21       6.1    15.8 13.6  0.7835E+01 -0.8622E+02 -0.1700E+02E
 Epicentro: LOS SANTOS - SANTANDER                                             3
 ACTION:UP  11-02-18 11:02 OP:tino STATUS:               ID:20100913083301 L   I
 2010-09-13-0831-23S.COL___120                                                 6
 STAT SP IPHASW D HRMM SECON CODA AMPLIT PERI AZIMU VELO SNR AR TRES W  DIS CAZ7
 BAR2 SZ EP        833 21.17                             172    -0.210   21 201 
 BAR2 SZ I         833 21.50        10.7 0.22                            21 201 
 BRR  HZ EP        833 23.13                             152     0.010   76 300 
 BRR  HN ES   1    833 40.50                             152     0.2 7   76 300 
 BRR  HZ I         833 42.36        11.4 0.19                            76 300 
 RUS  HZ EP        833 25.06                             146    -0.210   97 178 
 RUS  HN ES   1    833 43.84                             146    -0.1 7   97 178 
 RUS  HZ I         833 45.54         4.1 0.34                            97 178 
 GUE  SZ EP        833 26.42                             140    -0.210  119  10 
 GRA  SZ EP        833 27.91                             137     0.810  128  16 
 GRA  SZ I         833 48.83         9.3 0.47                           128  16 
 OCA  SZ EP        833 29.71                             130    -0.6 9  164 352 
 OCA  SZ I         833 56.74         6.7 0.50                           164 352 
 CHI  HZ EP        833 39.36                             118     0.4 8  246 196 
 CHI  HZ I         834 17.21         2.5 0.51                           246 196 
                                                                                
