 2013 1113 0240  4.1 L   6.456 -73.747 94.5  RSN  5 0.4 1.2LRSN                1
 GAP= 86        1.12       4.3     4.1 10.0  0.5286E+00  0.3293E+01  0.8488E+01E
 Epicentro: SANTA HELENA DEL OPON - SANTANDER                                  3
 ACTION:UPD 14-01-09 16:27 OP:ep   STATUS:               ID:20131113024004 L   I
 OLDACT:REG 13-11-13 07:34 OP:nd   STATUS:               ID:20131113024000     3
 2013-11-13-0240-00M.COL___276                                                 6
 STAT SP IPHASW D HRMM SECON CODA AMPLIT PERI AZIMU VELO AIN AR TRES W  DIS CAZ7
 BAR2 SZ EP        240 19.75                             143   -0.0410 64.2  76 
 BAR2 SZ ES        240 31.81                             143   -0.2410 64.2  76 
 BAR2 SZ I         240 33.68        14.8 0.30            148           64.2  76 
 BRR  HZ EP        240 19.95                             140   -0.1110 72.1   3 
 BRR  HN ES        240 33.22                             140    0.6910 72.1   3 
 BRR  HZ I         240 37.39         4.6 0.34            147           72.1   3 
 PTB  HZ EP        240 20.24                             137   -0.4110 79.0 277 
 PTB  HN ES        240 33.12                             137   -0.4610 79.0 277 
 PTB  HZ I         240 35.06         6.1 0.10            144           79.0 277 
 SPBC HZ EP        240 23.08                             131    0.8310 95.9 202 
 SPBC HN ES        240 36.59                             131    0.1610 95.9 202 
 SPBC HZ I         240 39.68         4.3 0.20            137           95.9 202 
 RUS  HZ EP        240 22.48                             131   -0.3510 96.3 130 
 RUS  HN ES        240 37.39                             131   -0.0710 96.3 130 
 RUS  HZ I         240 43.48         1.1 0.48            136           96.3 130 
                                                                                
