 2010 1013 0010 13.1 L   6.817 -73.076150.0  RSN 13 0.5 2.6LRSN                1
 GAP=106        1.04       5.1     7.9  9.8 -0.2114E+02 -0.1480E+02  0.2038E+02E
 Epicentro: LOS SANTOS - SANTANDER                                             3
 ACTION:UP  11-02-18 11:09 OP:tino STATUS:               ID:20101013001013 L   I
 2010-10-13-0008-39S.COL___124                                                 6
 STAT SP IPHASW D HRMM SECON CODA AMPLIT PERI AZIMU VELO SNR AR TRES W  DIS CAZ7
 BTL  SZ EP        010 33.16                             170     0.010   24 298 
 BAR2 SZ EP        010 32.99                             169    -0.310   28 206 
 BAR2 SZ I         010 49.73       170.6 0.27                            28 206 
 BRR  HZ IP     C  010 34.82                             151    -0.210   77 295 
 BRR  HN ES   1    010 52.19                             151     0.1 7   77 295 
 BRR  HZ I         010 53.93        91.5 0.14                            77 295 
 GRA  SZ EP        010 38.79                             139     0.410  122  14 
 GRA  SZ ES   2    010 57.94                             139    -0.1 5  122  14 
 GRA  SZ I         011  0.59        29.3 0.50                           122  14 
 OCA  SZ EP        010 41.55                             130    -0.1 9  159 350 
 OCA  SZ I         011  7.61        41.6 0.29                           159 350 
 YOP  SZ EP   1    010 43.44                             127     0.2 7  177 156 
 NOR  SZ EP   1    010 49.12                             118    -0.7 6  242 235 
 CHI  HZ EP   1    010 50.87                             117    -0.5 6  253 197 
 CHI  HZ I         010 51.44        20.7 0.12                           253 197 
 CHI  HN ES   1    011 21.07                             117    -0.3 6  253 197 
 ROSC BZ EP        010 52.68                             117     0.7 8  258 212 
 ROSC BN ES   1    011 22.58                             117     0.2 6  258 212 
 ROSC BZ I         011 27.90        34.3 0.40                           258 212 
 RREF HZ EP        011  1.15                             111     1.0 7  329 230 
 RREF HN ES   1    011 37.83                             111     0.9 5  329 230 
 RREF HZ I         011 43.54        27.9 0.32                           329 230 
 DBB  SZ EP   1    011  0.72                             109    -0.9 5  347 274 
 SDV  BZ EP   1    011  2.46                             109     0.0 5  353  50 
 SDV  BZ I         011  3.24         7.8 0.23                           353  50 
 PRA  HZ EP   1    011  6.38                             107    -1.0 4  398 210 
 PRA  HN ES   1    011 49.16                             107    -0.6 4  398 210 
                                                                                
