 2012  413 0237 19.2 L   6.747 -73.170143.8  RSN 10 0.4 2.2LRSN                1
 GAP=146        0.85       5.7     4.9  6.5 -0.1315E+02  0.9163E+01  0.2691E+01E
 Epicentro: VILLANUEVA - SANTANDER                                             3
 ACTION:UPD 12-07-05 11:53 OP:tino STATUS:               ID:20120413023719 L   I
 2012-04-13-0230-00M.COL___181                                                 6
 STAT SP IPHASW D HRMM SECON CODA AMPLIT PERI AZIMU VELO AIN AR TRES W  DIS CAZ7
 BAR2 SZ EP        237 38.72                             173     0.310   17 184 
 BAR2 SZ ES   1    237 53.21                             173    -0.3 7   17 184 
 BAR2 SZ I         237 54.93        32.1 0.21                            17 184 
 BRR  HZ EP        237 40.69                             152     0.610   72 304 
 BRR  HE ES   1    237 56.99                             152     0.5 7   72 304 
 BRR  HZ I         238  2.08        47.1 0.19                            72 304 
 PAM  SZ EP        237 41.60                             148     0.010   84  38 
 PAM  SE ES        237 58.72                             148    -0.310   84  38 
 PTB  HZ EP   1    237 45.69                             132     0.1 7  144 261 
 PTB  HN ES   1    238  5.78                             132    -0.5 7  144 261 
 PTB  HZ I         238  9.51        14.4 0.17                           144 261 
 OCA  SZ EP   1    237 47.47                             128    -0.4 7  166 354 
 OCA  SZ ES   2    238  9.89                             128    -0.3 5  166 354 
 ZAR  HZ EP   1    237 51.68                             122     0.2 6  204 294 
 ZAR  HN ES   2    238 16.97                             122     0.3 4  204 294 
 ZAR  HZ I         238 25.30        12.9 0.27                           204 294 
 NOR  SN ES   2    238 21.44                             119     0.0 4  229 235 
 HEL  HZ EP        237 58.06                             115    -0.8 8  268 257 
 HEL  HE ES   2    238 29.57                             115    -0.2 4  268 257 
 HEL  HZ I         238 38.23         5.1 0.38                           268 257 
 GUY  SN ES   2    238 35.99                             112     0.0 4  298 236 
 GUY  SZ I         238 45.52         9.2 0.31                           298 236 
 PRA  HZ EP   2    238 12.08                             106     0.2 3  386 210 
 PRA  HE ES   2    238 53.35                             106     0.4 3  386 210 
                                                                                
