 2010  913 0849 51.4 L   7.291 -74.132  8.3  RSN 10 0.5 2.1LRSN                1
 GAP= 89        1.30       4.9     7.0 15.0  0.8549E+01  0.7954E+02  0.2448E+02E
 Epicentro: PUERTO WILCHES - SANTANDER                                         3
 ACTION:UP  11-02-18 11:02 OP:tino STATUS:               ID:20100913084951 L   I
 2010-09-13-0849-11S.COL___120                                                 6
 STAT SP IPHASW D HRMM SECON CODA AMPLIT PERI AZIMU VELO SNR AR TRES W  DIS CAZ7
 BRR  HZ IP     D  849 59.59                              95    -0.110   51 114 
 BRR  HE ES   1    850  6.64                              95     0.5 7   51 114 
 BRR  HZ I         850  7.11       181.0 0.12                            51 114 
 BTL  SZ EP        850  8.06                              92     0.110  104 113 
 GIR2 SZ EP        850  8.35                              92     0.110  106 103 
 BAR2 SZ EP        850 11.95                              92     0.010  130 126 
 BAR2 SZ I         850 31.48        41.2 0.53                           130 126 
 OCA  SZ EP        850 12.35                              92    -0.7 9  138  41 
 OCA  SZ ES   2    850 28.94                              92    -1.0 5  138  41 
 OCA  SZ I         850 30.25        31.8 0.27                           138  41 
 GUE  SZ EP        850 14.09                              92    -0.3 9  146  66 
 GRA  SZ EP        850 17.15                              92     0.7 9  161  66 
 GRA  SZ ES   1    850 36.44                              92     0.4 7  161  66 
 RUS  HZ EP        850 20.88                              56    -0.2 9  193 143 
 RUS  HN ES   2    850 43.63                              56    -0.5 4  193 143 
 RUS  HZ I         850 46.86        14.1 0.20                           193 143 
 HEL  HZ EP        850 20.84                              56    -0.4 9  197 232 
 HEL  HZ I         850 48.12        22.2 0.43                           197 232 
 MON  HZ EP        850 26.72                              56     1.0 8  235 314 
 MON  HZ I         851  3.17         5.6 0.54                           235 314 
                                                                                
