 2015  513 0824 59.1 L   6.824 -73.155144.6  RSN 17 0.4 2.5LRSN                1
 GAP= 70        0.92       2.5     2.7  4.8 -0.2024E+00  0.4245E+01 -0.8240E+00E
 Epicentro: LOS SANTOS - SANTANDER                                             3
 ACTION:UPD 15-09-10 22:03 OP:cam  STATUS:               ID:20150513082459 L   I
 OLDACT:UP  15-05-13 18:33 OP:mh   STATUS:               ID:20150513081750     3
 OLDACT:UP  15-05-13 18:32 OP:mh   STATUS:               ID:20150513081750     3
 OLDACT:UP  15-05-13 18:32 OP:mh   STATUS:               ID:20150513081750     3
 OLDACT:UP  15-05-13 18:31 OP:mh   STATUS:               ID:20150513081750     3
 OLDACT:UP  15-05-13 18:31 OP:mh   STATUS:               ID:20150513081750     3
 OLDACT:UP  15-05-13 18:30 OP:mh   STATUS:               ID:20150513081750     3
 OLDACT:UP  15-05-13 18:28 OP:mh   STATUS:               ID:20150513081750     3
 OLDACT:UP  15-05-13 18:28 OP:mh   STATUS:               ID:20150513081750     3
 OLDACT:REG 15-05-13 13:20 OP:mh   STATUS:               ID:20150513081750     3
 2015-05-13-0817-50M.COL___276                                                 6
 STAT SP IPHASW D HRMM SECON CODA AMPLIT PERI AZIMU VELO AIN AR TRES W  DIS CAZ7
 BAR2 EZ EP        825 18.72                             170    0.0510 25.7 187 
 BAR2 EZ ES        825 33.80                             170   -0.1110 25.7 187 
 BAR2 EZ I         825 34.50        43.7 0.18            169           25.7 187 
 BRR  HZ EP        825 20.66                             153    0.6310 69.0 297 
 BRR  HN ES        825 36.79                             153    0.4610 69.0 297 
 BRR  HZ I         825 40.82        51.1 0.24            150           69.0 297 
 PAM  SZ EP   1    825 21.63                             151    0.49 7 76.1  41 
 PAM  SN ES        825 38.30                             151   -0.0110 76.1  41 
 PAM  SZ I         825 40.11        59.7 0.44            154           76.1  41 
 RUS  HZ EP   1    825 22.75                             143   -0.21 7  103 176 
 RUS  HN ES        825 41.14                             143   -0.4110  103 176 
 RUS  HZ I         825 41.46        24.3 0.26            145            103 176 
 TAM  HZ EP        825 27.05                             130    0.17 9  157 106 
 TAM  HE ES        825 48.41                             130   -0.11 9  157 106 
 TAM  HZ I         825 51.07        15.1 0.36            133            157 106 
 OCA  HZ EP     C  825 27.12                             130    0.02 9  158 353 
 OCA  HN ES        825 48.46                             130   -0.44 9  158 353 
 OCA  HZ I         825 54.20        52.8 0.18            130            158 353 
 SPBC HZ EP        825 27.56                             129   -0.11 9  165 218 
 SPBC HN ES        825 49.71                             129   -0.22 9  165 218 
 SPBC HZ I         825 55.04        32.6 0.20            129            165 218 
 ZAR  HZ EP   1    825 31.57                             122    0.27 6  202 292 
 ZAR  HN ES        825 56.63                             122    0.25 9  202 292 
 ZAR  HZ I         826  2.44        49.2 0.44            122            202 292 
 NOR  HZ EP   1    825 35.03                             118    0.17 6  235 234 
 NOR  HN ES        826  2.56                             118   -0.17 8  235 234 
 NOR  HZ I         826  8.43        17.0 0.18            118            235 234 
 SML  HZ EP   1    825 34.97                             117   -0.42 6  241 335 
 SML  HN ES        826  4.26                             117    0.60 8  241 335 
 SML  HZ I         826  6.13        30.2 0.26            118            241 335 
 ROSC BN ES   4    826  9.53                             116    2.33 0  254 211 
 HEL  HZ EP   1    825 40.02                             115    0.78 6  272 255 
 HEL  HN ES        826 10.15                             115   -0.37 8  272 255 
 HEL  HZ I         826 17.70        14.6 0.55            115            272 255 
 URE  HZ EP        825 39.15                             114   -0.77 7  282 292 
 URE  HN ES   4    826  9.40                             114   -2.34 0  282 292 
 URE  HZ I         826 23.54        17.1 0.30            114            282 292 
 GUY2CHZ EP   4    825 43.90                             112    1.14 0  302 234 
 GUY2CHN ES   4    826 19.58                             112    2.80 0  302 234 
 GUY2CHZ I         826 23.76        12.4 0.22                           302 234 
 PTGC HZ EP   4    825 41.77                             111   -1.49 0  312 159 
 PTGC HN ES   4    826 14.93                             111   -2.74 0  312 159 
 PTGC HZ I         826 17.42        15.9 0.32            113            312 159 
 MON  HZ EP   4    825 46.35                             109   -1.45 0  351 308 
 MON  HN ES        826 24.79                             109   -0.98 6  351 308 
 MON  HZ I         826 28.98         4.9 0.32            109            351 308 
 ANIL HN ES        826 28.56                             108    0.63 6  358 224 
 ANIL HZ I         826 34.27        26.9 0.36            109            358 224 
 SJC  HZ EP   1    825 53.50                             106   -0.83 4  406 327 
 SJC  HN ES   4    826 34.39                             106   -2.99 0  406 327 
 SJC  HZ I         826 38.34         6.8 0.42            106            406 327 
 GUA  SN ES   4    826 50.61                             103   -1.45 0  477 173 
                                                                                
