 2010 1213 0141 33.6 L   6.797 -72.754151.5  RSN  5 0.3 1.5LRSN                1
 GAP=203        0.52       3.8    17.1  8.7 -0.3635E+02  0.6242E+01  0.7001E+01E
 Epicentro: CONCEPCION - SANTANDER                                             3
 ACTION:UP  11-01-14 15:24 OP:pat  STATUS:               ID:20101213014133 L   I
 2010-12-13-0140-32S.COL___137                                                 6
 STAT SP IPHASW D HRMM SECON CODA AMPLIT PERI AZIMU VELO SNR AR TRES W  DIS CAZ7
 RUS  HZ EP   2    141 58.94                             143     0.6 5  106 200 
 RUS  HN ES   2    142 17.50                             143    -0.1 5  106 200 
 RUS  HZ I         142 18.73         2.6 0.22                           106 200 
 GRA  SZ EP   1    141 58.75                             139    -0.1 7  120 357 
 GRA  SZ ES   1    142 18.53                             139    -0.1 7  120 357 
 GRA  SZ I         142 22.02         4.6 0.31                           120 357 
 OCA  SZ EP   2    142  3.54                             129     0.2 4  171 339 
 OCA  SZ ES   2    142 26.80                             129     0.2 4  171 339 
 OCA  SZ I         142 30.91         5.6 0.34                           171 339 
 CHI  HZ EP   2    142 13.36                             117     0.2 4  263 204 
 CHI  HZ I         142 14.75         1.5 0.16                           263 204 
 CHI  HE ES   2    142 43.66                             117    -0.3 4  263 204 
 PRA  HZ EP   2    142 29.28                             106    -0.7 3  415 215 
                                                                                
