 2014 1013 0941 22.2 L   7.482 -73.174138.4  RSN  6 0.4 1.8LRSN                1
 GAP=118        1.02       3.9     5.3  7.5  0.3472E+00  0.1422E+02  0.3719E+01E
 Epicentro: EL PLAYON - SANTANDER                                              3
 ACTION:UPD 14-11-29 23:49 OP:nd   STATUS:               ID:20141013094122 L   I
 OLDACT:UP  14-10-13 18:11 OP:mh   STATUS:               ID:20141013093744     3
 OLDACT:REG 14-10-13 13:03 OP:mh   STATUS:               ID:20141013093744     3
 2014-10-13-0937-44M.COL___279                                                 6
 STAT SP IPHASW D HRMM SECON CODA AMPLIT PERI AZIMU VELO AIN AR TRES W  DIS CAZ7
 PAM  SZ EP   1    941 42.43                             157    0.05 7 54.7 107 
 PAM  SN ES        941 57.92                             157   -0.2210 54.7 107 
 PAM  SZ I         941 58.69        12.2 0.26            165           54.7 107 
 BRR  HZ IP     D  941 42.69                             151    0.0710 72.5 235 
 BRR  HN ES        941 58.79                             151    0.2310 72.5 235 
 BRR  HZ I         942  2.02         7.6 0.30            149           72.5 235 
 OCA  HZ EP        941 44.32                             147    0.6710 85.2 349 
 OCA  HN ES        942  0.40                             147    0.0010 85.2 349 
 OCA  HZ I         942  4.17         9.5 0.10            147           85.2 349 
 SML  HZ EP   1    941 51.91                             125    0.62 7  176 326 
 SML  HN ES        942 13.10                             125   -0.90 9  176 326 
 SML  HZ I         942 21.14         7.5 0.26            126            176 326 
 ZAR  HZ EP        941 51.93                             123   -0.36 9  186 270 
 ZAR  HN ES        942 16.16                             123    0.40 9  186 270 
 ZAR  HZ I         942 21.79         8.6 0.36            124            186 270 
 SPBC HZ EP        941 56.12                             118   -0.42 8  225 206 
 SPBC HN ES        942 23.21                             118   -0.13 8  225 206 
 SPBC HZ I         942 29.47         7.3 0.26            120            225 206 
 URE  HZ EP   4    942  0.27                             114   -0.19 0  262 277 
                                                                                
