 2017  413 0226 45.5 L   6.773 -73.097148.4  RSN  5 0.3 1.0LRSN                1
 GAP=144        0.89       5.3     5.1  7.4 -0.6173E+01  0.9962E+01 -0.6212E+01E
 Epicentro: LOS SANTOS - SANTANDER                                             3
 ACTION:UPD 17-05-30 21:11 OP:jn   STATUS:               ID:20170413022645 L   I
 OLDACT:REG 17-04-13 12:36 OP:cog  STATUS:               ID:20170413021741     3
 2017-04-13-0218-00M.COL___368                                                 6
 STAT SP IPHASW D HRMM SECON CODA AMPLIT PERI AZIMU VELO AIN AR TRES W  DIS CAZ7
 BAR2 EZ ES        227 20.97                             171    0.0210 22.2 205 
 PAM  EZ EP        227  8.46                             152    0.5310 76.4  35 
 PAM  EN ES        227 25.09                             152   -0.3410 76.4  35 
 PAM  EZ I         227 34.22         1.7 0.50            150           76.4  35 
 BRR  HZ EP        227  7.38                             151    0.1110 77.4 299 
 BRR  HN ES        227 24.27                             151    0.0010 77.4 299 
 RUS  HN ES        227 27.83                             145    0.0010 97.4 179 
 RUS  HZ I         227 28.30         2.2 0.24            151           97.4 179 
 PTB  HZ EP        227 12.43                             132   -0.67 9  153 260 
 PTB  HE ES        227 34.95                             132    0.30 9  153 260 
 PTB  HZ I         227 36.93         1.0 0.20            136            153 260 
                                                                                
