 2017  313 0553  0.6 L   6.794 -73.189134.7  RSN 11 0.4 1.9LRSN                1
 GAP=131        0.96       3.3     3.5  5.9 -0.1266E+01  0.9360E+01  0.1006E+01E
 Epicentro: ZAPATOCA - SANTANDER                                               3
 ACTION:UPD 17-05-25 18:39 OP:jn   STATUS:               ID:20170313055300 L   I
 OLDACT:UP  17-03-13 16:59 OP:cog  STATUS:               ID:20170313054750     3
 OLDACT:REG 17-03-13 14:19 OP:cog  STATUS:               ID:20170313054750     3
 2017-03-13-0548-00M.COL___390                                                 6
 STAT SP IPHASW D HRMM SECON CODA AMPLIT PERI AZIMU VELO AIN AR TRES W  DIS CAZ7
 BAR2 EZ IP     C  553 18.64                             170   -0.1910 22.3 178 
 BAR2 EZ ES        553 33.36                             170    0.2710 22.3 178 
 BAR2 EZ I         553 35.37        25.3 0.34            171           22.3 178 
 BRR  HZ IP     C  553 20.53                             152    0.2410 67.4 301 
 BRR  HN ES   3    553 37.43                             152    1.75 2 67.4 301 
 BRR  HZ I         553 42.10        18.4 0.14            151           67.4 301 
 PAM  EZ EP        553 21.51                             147   -0.3310 81.1  42 
 PAM  EN ES        553 38.42                             147   -0.0210 81.1  42 
 PAM  EZ I         553 39.08        17.1 0.36            152           81.1  42 
 RUS  HZ EP        553 22.66                             141   -0.5510  100 173 
 RUS  HN ES        553 41.10                             141    0.2110  100 173 
 RUS  HZ I         553 42.18        12.2 0.30            146            100 173 
 PTB  HZ EP        553 25.78                             130   -0.40 9  143 259 
 PTB  HN ES        553 45.59                             130   -0.58 9  143 259 
 SPBC HZ EP        553 27.81                             127   -0.07 9  160 218 
 SPBC HN ES        553 49.42                             127    0.23 9  160 218 
 ZAR  HZ EP        553 31.98                             120    0.12 9  200 293 
 ZAR  HN ES        553 56.54                             120    0.26 9  200 293 
 CHI  HZ EP        553 38.05                             115    0.60 8  247 194 
 CHI  HN ES        554  6.17                             115   -0.06 8  247 194 
 HEL  HZ EP        553 40.70                             113    1.02 8  267 256 
 HEL  HE ES        554 10.29                             113    0.09 8  267 256 
 HEL  HZ I         554 17.80         6.6 0.44            115            267 256 
 GUY2CHZ EP   4    553 44.62                             110    1.44 0  297 234 
 GUY2CHN ES        554 16.13                             110   -0.29 7  297 234 
 GUY2CHZ  IAML     554 26.26         5.3 0.70                           297 234 
 CBOC HZ EP        553 46.89                             108    0.42 7  329 252 
 CBOC HE ES        554 21.60                             108   -0.69 7  329 252 
 CBOC HZ I         554 26.41         1.5 0.22            110            329 252 
                                                                                
