 2014  613 0910 14.1 L   6.385 -73.825 86.2  RSN  9 0.5 1.3LRSN                1
 GAP=115        1.07       4.0     4.0  9.2  0.7799E+00  0.1371E+02 -0.2263E+00E
 Epicentro: LANDAZURI - SANTANDER                                              3
 ACTION:UPD 14-07-01 22:53 OP:nd   STATUS:               ID:20140613091014 L   I
 OLDACT:UP  14-06-13 19:45 OP:spq  STATUS:               ID:20140613090808     3
 OLDACT:UP  14-06-13 19:35 OP:spq  STATUS:               ID:20140613090808     3
 OLDACT:REG 14-06-13 14:38 OP:mh   STATUS:               ID:20140613090808     3
 2014-06-13-0908-08M.COL___256                                                 6
 STAT SP IPHASW D HRMM SECON CODA AMPLIT PERI AZIMU VELO AIN AR TRES W  DIS CAZ7
 PTB  HZ IP     C  910 29.33                             137    0.0410 71.8 284 
 PTB  HE ES        910 41.45                             137    0.2810 71.8 284 
 PTB  HZ I         910 44.85         4.0 0.10            141           71.8 284 
 BAR2 SZ ES   1    910 41.16                             136   -0.99 7 74.7  72 
 BAR2 SZ I         910 47.36         8.8 0.38            137           74.7  72 
 SPBC HZ EP        910 30.96                             131    0.3510 85.6 199 
 SPBC HE ES        910 43.93                             131    0.4110 85.6 199 
 SPBC HZ I         910 45.28         6.2 0.26            135           85.6 199 
 RUS  HE ES   1    910 46.78                             128    0.10 7 98.6 124 
 RUS  HZ I         910 52.08         1.5 0.44            130           98.6 124 
 NOR  HN ES   1    910 54.19                             115   -0.59 7  147 232 
 NOR  HZ I         910 57.43         4.7 0.20            119            147 232 
 ZAR  HZ EP        910 39.98                             112    0.81 9  167 317 
 ZAR  HE ES   1    910 58.12                             112   -0.64 7  167 317 
 ZAR  HZ I         911  3.97         3.6 0.11            115            167 317 
 HEL  HE ES        911  3.93                             110   -0.23 9  190 264 
 HEL  HZ I         911  5.58         5.7 0.24            112            190 264 
 GUY2CHZ EP   1    910 45.35                             107    0.23 6  213 233 
 GUY2CHN ES   1    911  8.86                             107   -0.49 6  213 233 
 GUY2CHZ I         911 13.83         1.7 0.48                           213 233 
 RREF HZ EP   1    910 47.42                             105   -0.49 6  235 226 
 RREF HN ES   1    911 13.73                             105   -0.58 6  235 226 
 RREF HZ I         911 20.53         1.5 0.42            108            235 226 
                                                                                
