 2015  913 0400 12.5 L   6.805 -73.210142.5  RSN 17 0.4 2.1LRSN                1
 GAP=176        1.03       2.5     3.9  5.0 -0.5518E+00  0.4493E+01  0.5662E+00E
 Epicentro: ZAPATOCA - SANTANDER                                               3
 ACTION:UPD 15-10-28 16:25 OP:cam  STATUS:               ID:20150913040012 L   I
 OLDACT:REG 15-09-13 12:27 OP:drio STATUS:               ID:20150913035748     3
 2015-09-13-0357-48M.COL___326                                                 6
 STAT SP IPHASW D HRMM SECON CODA AMPLIT PERI AZIMU VELO AIN AR TRES W  DIS CAZ7
 BAR2 EZ EP        4 0 31.79                             170    0.0110 23.7 173 
 BAR2 EZ ES        4 0 46.28                             170   -0.5110 23.7 173 
 BAR2 EZ I         4 0 47.73        26.8 0.20            172           23.7 173 
 BRR  HZ EP     C  4 0 33.49                             154    0.5110 64.8 301 
 BRR  HN ES        4 0 50.01                             154    1.0910 64.8 301 
 BRR  HZ I         4 0 51.54        15.2 0.26            149           64.8 301 
 RUS  HZ EP        4 0 36.20                             143    0.1410  102 172 
 RUS  HN ES        4 0 54.30                             143   -0.1010  102 172 
 RUS  HZ I         4 0 55.43        15.1 0.22            143            102 172 
 PTB  HZ EP        4 0 38.52                             133   -0.09 9  141 258 
 PTB  HN ES        4 0 59.02                             133    0.06 9  141 258 
 PTB  HZ I         4 1  6.46        14.9 0.22            129            141 258 
 SPBC HZ EP        4 0 40.59                             129    0.19 9  159 217 
 SPBC HN ES        4 1  1.68                             129   -0.46 9  159 217 
 SPBC HZ I         4 1  9.74        19.7 0.24            127            159 217 
 OCA  HZ EP        4 0 40.54                             129    0.06 9  159 356 
 OCA  HE ES        4 1  1.67                             129   -0.61 9  159 356 
 OCA  HZ I         4 1  5.06        19.5 0.20            126            159 356 
 ZAR  HZ EP        4 0 44.27                             123    0.20 9  197 293 
 ZAR  HN ES        4 1  8.67                             123    0.00 9  197 293 
 ZAR  HZ I         4 1 15.24         9.3 0.38            119            197 293 
 NOR  HZ EP        4 0 47.84                             118    0.35 8  229 233 
 NOR  HE ES        4 1 15.18                             118    0.43 8  229 233 
 NOR  HZ I         4 1 20.42         9.9 0.24            116            229 233 
 SML  HZ EP        4 0 48.06                             117   -0.55 8  240 337 
 SML  HE ES        4 1 16.46                             117   -0.29 8  240 337 
 SML  HZ I         4 1 20.12        16.6 0.10            114            240 337 
 CHI  HZ EP        4 0 49.85                             117   -0.06 8  247 194 
 CHI  HE ES        4 1 19.18                             117    0.11 8  247 194 
 CHI  HZ I         4 1 21.56         8.1 0.36            115            247 194 
 HEL  HZ EP   4    4 0 53.72                             115    1.89 0  265 255 
 HEL  HN ES        4 1 22.02                             115   -0.46 8  265 255 
 HEL  HZ I         4 1 29.90         5.7 0.28            112            265 255 
 URE  HZ EP        4 0 52.36                             113   -0.32 7  277 292 
 URE  HN ES   4    4 1 22.10                             113   -1.90 0  277 292 
 URE  HZ I         4 1 34.34         6.4 0.16            111            277 292 
 GUY2CHZ EP        4 0 56.12                             112    0.75 7  296 234 
 GUY2CHE ES        4 1 28.11                             112   -0.67 7  296 234 
 GUY2CHZ I         4 1 37.92         4.6 0.34                           296 234 
 PTGC HZ EP   4    4 0 54.96                             111   -1.64 0  312 157 
 PTGC HE ES   4    4 1 26.84                             111   -4.13 0  312 157 
 CBOC HZ EP   4    4 1  0.12                             110    1.57 0  327 252 
 CBOC HN ES        4 1 34.30                             110   -0.15 7  327 252 
 CBOC HZ I         4 1 45.40         1.8 0.46            108            327 252 
 PRA  HZ EP        4 1  5.93                             106    0.34 6  389 209 
 PRA  HN ES        4 1 45.99                             106   -0.98 6  389 209 
 PRA  HZ I         4 1 52.30         4.7 0.60            105            389 209 
 ORTC HZ EP        4 1  6.24                             106    0.34 6  392 215 
 ORTC HE ES   4    4 1 49.04                             106    1.51 0  392 215 
 ORTC HZ I         4 1 55.38         3.2 0.56            105            392 215 
 SJC  HZ EP   4    4 1  5.34                             105   -2.15 0  405 328 
 SJC  HN ES   4    4 1 46.83                             105   -3.52 0  405 328 
 SJC  HZ I         4 1 52.55         7.3 0.96            104            405 328 
                                                                                
