 2010  613 0546 20.4 L   6.790 -73.018141.3  RSN  5 0.2 1.5LRSN                1
 GAP=173        0.49       3.0    11.9  5.7  0.8584E+01 -0.3565E+01 -0.2828E+01E
 Epicentro: CEPITA - SANTANDER                                                 3
 ACTION:UP  10-08-24 10:10 OP:vdl  STATUS:               ID:20100613054620 L   I
 2010-06-13-0542-09S.COL___114                                                 6
 STAT SP IPHASW D HRMM SECON CODA AMPLIT PERI AZIMU VELO SNR AR TRES W  DIS CAZ7
 BAR2 SZ EP        546 39.57                             168    -0.110   29 220 
 BAR2 SZ ES   1    546 54.89                             168     0.2 7   29 220 
 RUS  HZ EP        546 43.61                             143    -0.110   99 184 
 RUS  HZ I         546 44.52         2.8 0.05                            99 184 
 RUS  HN ES   1    547  1.72                             143    -0.1 7   99 184 
 GRA  SZ EP   2    546 45.57                             137     0.5 5  123  11 
 OCA  SZ ES   1    547 10.62                             128    -0.2 7  164 348 
 OCA  SZ I         547 12.68         6.5 0.51                           164 348 
 HEL  HZ EP   2    547  2.14                             113     0.2 4  286 257 
 HEL  HZ I         547 38.84         2.3 0.62                           286 257 
                                                                                
