 2017  313 0826 16.8 L   6.805 -73.147149.5  RSN  6 0.3 1.4LRSN                1
 GAP=136        0.78       3.8     4.0  6.3 -0.4064E+01  0.1835E+01  0.4349E+01E
 Epicentro: LOS SANTOS - SANTANDER                                             3
 ACTION:UPD 17-05-25 18:39 OP:jn   STATUS:               ID:20170313082616 L   I
 OLDACT:REG 17-03-13 14:34 OP:cog  STATUS:               ID:20170313081742     3
 2017-03-13-0818-00M.COL___387                                                 6
 STAT SP IPHASW D HRMM SECON CODA AMPLIT PERI AZIMU VELO AIN AR TRES W  DIS CAZ7
 BRR  HZ EP        826 38.68                             153    0.3110 70.8 298 
 BRR  HE ES        826 55.17                             153    0.0110 70.8 298 
 BRR  HZ I         826 58.32         3.8 0.12            152           70.8 298 
 PAM  EZ EP        826 39.62                             151    0.1910 77.1  40 
 PAM  EE ES        826 57.05                             151   -0.0010 77.1  40 
 PAM  EZ I         826 58.73         2.8 0.46            157           77.1  40 
 RUS  HZ EP        826 40.71                             144   -0.2810  101 176 
 RUS  HE ES        826 59.62                             144   -0.2210  101 176 
 RUS  HZ I         827  0.38         1.8 0.24            146            101 176 
 PTB  HZ EP        826 43.75                             133   -0.36 9  148 259 
 PTB  HN ES        827  5.04                             133   -0.34 9  148 259 
 PTB  HZ I         827 10.77         3.7 0.64            133            148 259 
 SPBC HZ EP        826 45.74                             130    0.09 9  164 219 
 SPBC HN ES        827  8.76                             130    0.63 9  164 219 
 SPBC HZ I         827 14.89         7.0 0.36            131            164 219 
 GUY2CHZ EP   4    827  2.03                             113    1.39 0  301 235 
 GUY2CHE ES   4    827 39.92                             113    5.11 0  301 235 
 GUY2CHZ  IAML     827 43.99         1.4 0.56                           301 235 
                                                                                
