 2016  213 0505 31.6 L   6.813 -73.141138.0  RSN 16 0.3 2.0LRSN                1
 GAP=136        0.84       2.3     3.1  4.5 -0.2006E+01  0.5368E+01  0.3999E+00E
 Epicentro: LOS SANTOS - SANTANDER                                             3
 ACTION:UPD 16-03-04 21:25 OP:rebc STATUS:               ID:20160213050531 L   I
 OLDACT:REG 16-02-13 12:52 OP:ak   STATUS:               ID:20160213045741     3
 2016-02-13-0457-41M.COL___310                                                 6
 STAT SP IPHASW D HRMM SECON CODA AMPLIT PERI AZIMU VELO AIN AR TRES W  DIS CAZ7
 BAR2 EZ EP        5 5 50.45                             169    0.1410 24.8 191 
 BAR2 EZ ES        5 6  4.84                             169   -0.0810 24.8 191 
 BAR2 EZ I         5 6  6.60        38.8 0.18            167           24.8 191 
 PAM  EZ EP        5 5 53.17                             150    0.2810 76.0  40 
 PAM  EN ES        5 6 10.04                             150    0.5310 76.0  40 
 PAM  EZ I         5 6 12.13        15.2 0.46            154           76.0  40 
 RUS  HZ EP        5 5 54.50                             142   -0.1810  102 176 
 RUS  HN ES        5 6 12.83                             142    0.1310  102 176 
 RUS  HZ I         5 6 14.31         6.4 0.28            143            102 176 
 PTB  HZ EP   2    5 5 57.57                             130   -0.43 5  149 258 
 PTB  HN ES        5 6 17.96                             130   -0.64 9  149 258 
 PTB  HZ I         5 6 20.95        10.9 0.21            130            149 258 
 OCA  HZ EP        5 5 58.62                             128   -0.55 9  159 353 
 OCA  HN ES        5 6 20.37                             128   -0.31 9  159 353 
 OCA  HZ I         5 6 23.60        29.0 0.26            131            159 353 
 SPBC HZ EP        5 5 59.39                             127   -0.24 9  165 219 
 SPBC HN ES        5 6 21.16                             127   -0.35 9  165 219 
 SPBC HZ I         5 6 26.09        18.3 0.16            128            165 219 
 ZAR  HZ EP        5 6  3.84                             121    0.32 9  204 292 
 ZAR  HN ES        5 6 28.73                             121    0.29 9  204 292 
 ZAR  HZ I         5 6 34.86        12.6 0.26            122            204 292 
 NOR  HZ EP        5 6  7.20                             117    0.19 8  236 234 
 NOR  HE ES        5 6 34.82                             117    0.18 8  236 234 
 NOR  HZ I         5 6 40.26         9.7 0.20            118            236 234 
 CHI  HZ EP        5 6  8.72                             115   -0.31 8  250 195 
 CHI  HN ES        5 6 37.84                             115   -0.39 8  250 195 
 CHI  HZ I         5 6 45.75         4.0 0.30            117            250 195 
 ROSC BZ EP   9    5 6 10.71                             115    1.26 0  254 211 
 ROSC BN ES        5 6 41.18                                    0.93 8  254 211 
 ROSC BZ I         5 6 49.30         8.4 0.35            116            254 211 
 HEL  HZ EP        5 6 12.01                             113    0.51 8  273 256 
 HEL  HE ES        5 6 42.75                             113    0.11 8  273 256 
 HEL  HZ I         5 6 48.95         5.9 0.40            114            273 256 
 URE  HZ EP   4    5 6 14.46                             112    2.19 0  284 292 
 URE  HN ES   4    5 6 41.61                             112   -2.40 0  284 292 
 URE  HZ I         5 6 43.95         6.5 0.12            113            284 292 
 SOCV BZ EP   4    5 6 12.26                             111   -1.89 0  300  57 
 SOCV BE ES   4    5 6 43.55                             111   -3.80 0  300  57 
 GUY2CHZ EP   2    5 6 15.28                             111    0.30 4  302 235 
 GUY2CHN ES        5 6 49.12                             111    0.29 7  302 235 
 GUY2CHZ I         5 6 55.90         4.3 0.32                           302 235 
 ANIL HN ES   2    5 7  0.54                             107    0.54 3  359 224 
 ORTC HZ EP        5 6 25.83                             105    0.41 6  397 216 
 ORTC HN ES        5 7  7.56                             105    0.15 6  397 216 
 ORTC HZ I         5 7 12.62         3.6 0.20            106            397 216 
 PAL  HZ EP        5 6 26.26                             105   -0.37 6  407 239 
 PAL  HE ES        5 7  9.96                             105    0.39 6  407 239 
 PAL  HZ I         5 7 11.30         2.6 0.72            106            407 239 
                                                                                
