 2017  313 0611 45.0 L   5.901 -74.022 89.6  RSN  6 0.4 1.0LRSN                1
 GAP= 82        1.03       3.9     5.0  7.7  0.2726E+01 -0.9678E+01 -0.2717E+01E
 Epicentro: LA BELLEZA - SANTANDER                                             3
 ACTION:UPD 17-05-25 18:39 OP:jn   STATUS:               ID:20170313061145 L   I
 OLDACT:UP  17-03-13 17:03 OP:cog  STATUS:               ID:20170313060738     3
 OLDACT:UP  17-03-13 17:01 OP:cog  STATUS:               ID:20170313060738     3
 OLDACT:REG 17-03-13 14:23 OP:cog  STATUS:               ID:20170313060738     3
 2017-03-13-0608-00M.COL___390                                                 6
 STAT SP IPHASW D HRMM SECON CODA AMPLIT PERI AZIMU VELO AIN AR TRES W  DIS CAZ7
 SPBC HZ EP        611 57.39                             161   -0.4510 28.1 192 
 SPBC HN ES        612  8.20                             161    0.3210 28.1 192 
 SPBC HZ I         612  8.80         9.7 0.24            166           28.1 192 
 PTB  HN ES        612 14.43                             133   -0.2910 85.4 326 
 RUS  HZ EP        612  3.50                             127   -0.5710  104  90 
 RUS  HN ES        612 18.94                             127   -0.0210  104  90 
 RUS  HZ I         612 20.18         1.1 0.30            128            104  90 
 BRR  HZ EP        612  6.84                             119   -0.10 9  138  14 
 BRR  HN ES        612 24.73                             119    0.66 9  138  14 
 BRR  HZ I         612 28.35         2.4 0.15            119            138  14 
 GUY2CHZ EP   3    612 10.65                             114   -0.10 2  167 243 
 GUY2CHN ES   3    612 30.92                             114    0.06 2  167 243 
 VIL  EZ EP        612 14.98                             109    0.69 9  201 170 
                                                                                
