 2012  213 0524 51.1 L   6.776 -73.134145.3  RSN  7 0.4 1.6LRSN                1
 GAP=188        0.56       5.8     5.7  7.9  0.7340E+01  0.1314E+02  0.7769E+01E
 ACTION:UP  12-03-07 16:30 OP:epov STATUS:               ID:20120213052451 L   I
 2012-02-13-0520-00M.COL___188                                                 6
 STAT SP IPHASW D HRMM SECON CODA AMPLIT PERI AZIMU VELO AIN AR TRES W  DIS CAZ7
 BAR2 SZ EP   2    525 10.76                             171    0.17 5 21.1 195 
 BAR2 SZ ES   2    525 25.27                             171   -0.55 5 21.1 195 
 BAR2 SZ I         525 28.06        12.4 0.32                          21.1 195 
 GIR2 SZ EP   2    525 10.71                             166   -0.04 5 34.1 349 
 GIR2 SZ ES   2    525 25.83                             166   -0.28 5 34.1 349 
 BRR  HZ EP   2    525 12.52                             152    0.22 5 73.6 300 
 BRR  HE ES   2    525 29.44                             152    0.58 5 73.6 300 
 BRR  HZ I         525 32.03         7.7 0.17                          73.6 300 
 RUS  HZ EP   2    525 14.48                             144   -0.09 5 97.9 177 
 RUS  HE ES   2    525 33.46                             144    0.55 5 97.9 177 
 RUS  HZ I         525 34.65         3.5 0.31                          97.9 177 
 PTB  HZ EP   2    525 17.48                             132   -0.58 5  149 260 
 PTB  HN ES   2    525 38.57                             132   -0.55 5  149 260 
 ZAR  HE ES   2    525 49.56                             122    0.40 4  206 293 
 NOR  SN ES   2    525 54.72                             118    0.19 4  234 235 
                                                                                
