 2016  813 0711 22.5 L   6.797 -73.107148.3  RSN 13 0.4 1.8LRSN                1
 GAP=222        0.92       3.9     4.9  5.0  0.7327E+01  0.7028E+01  0.4659E+01E
 Epicentro: LOS SANTOS - SANTANDER                                             3
 ACTION:UPD 16-10-29 15:35 OP:rebc STATUS:               ID:20160813070701dL   I
 OLDACT:UP  16-08-13 17:00 OP:dani STATUS:               ID:20160813070760 L   3
 OLDACT:UP  16-08-13 17:00 OP:dani STATUS:               ID:20160813070760 L   3
 OLDACT:UPD 16-08-13 16:15 OP:dani STATUS:               ID:20160813070760 L   3
 2016-08-13-0707-59S.COL___343                                                 6
 STAT SP IPHASW D HRMM SECON CODA AMPLIT PERI AZIMU VELO AIN AR TRES W  DIS CAZ7
 BAR2 EZ EP        711 42.40                             170   -0.0610 24.1 200 
 BAR2 EZ ES        711 57.86                             170   -0.1510 24.1 200 
 BAR2 EZ I         711 58.75        14.8 0.24                          24.1 200 
 BRR  HZ EP        711 44.31                             152    0.1610 75.1 297 
 BRR  HE ES        712  1.57                             152    0.5410 75.1 297 
 BRR  HZ I         712  4.63         9.0 0.26                          75.1 297 
 RUS  HZ EP        711 46.56                             145    0.0910  100 178 
 RUS  HE ES        712  5.28                             145    0.1210  100 178 
 RUS  HZ I         712  6.61         4.1 0.28                           100 178 
 PTB  HZ EP        711 49.27                             132   -0.78 9  152 259 
 PTB  HE ES   4    712  9.70                             132   -1.84 0  152 259 
 PTB  HZ I         712 15.39         4.8 0.14                           152 259 
 SPBC HZ EP        711 51.54                             129    0.11 9  166 220 
 SPBC HN ES        712 13.42                             129   -0.57 9  166 220 
 SPBC HZ I         712 18.53        12.7 0.16                           166 220 
 ZAR  HZ EP        711 56.15                             122    0.62 8  208 292 
 ZAR  HN ES        712 20.65                             122   -0.64 8  208 292 
 ZAR  HZ I         712 26.02                                            208 292 
 CHI  HZ EP        712  0.31                             118   -0.13 8  249 196 
 CHI  HE ES        712 30.42                             118    0.40 8  249 196 
 CHI  HZ I         712 32.48         4.1 0.32                           249 196 
 HEL  HZ EP        712  3.56                             115    0.26 7  276 256 
 HEL  HZ I         712 41.32         3.1 0.44                           276 256 
 GUY2CHZ EP   4    712  7.91                             113    1.31 0  304 235 
 GUY2CHZ I         712 48.76         2.5 0.58                           304 235 
 PTGC HZ EP        712  5.83                             112   -0.44 7  307 159 
 PTGC HN ES   4    712 39.36                             112   -1.05 0  307 159 
 PTGC HZ I         712 40.13         4.4 0.33                           307 159 
 CBOC HZ EP        712  9.81                             110   -0.17 7  338 252 
 CBOC HN ES        712 47.27                             110    0.26 7  338 252 
 CBOC HZ I         712 57.76                                            338 252 
 PRA  HZ EP        712 16.63                             107    0.30 6  394 210 
 PRA  HN ES        712 58.70                             107    0.39 6  394 210 
 PRA  HZ I         713  5.07         2.7 0.22                           394 210 
 SJC  HZ EP   4    712 17.20                             106   -1.26 0  412 326 
 SJC  HZ I         713  2.62         0.7 0.40                           412 326 
                                                                                
