 2017  113 0740 51.8 L   6.774 -73.132151.4  RSN  6 0.2 1.1LRSN                1
 GAP=139        0.53       2.8     2.6  3.6 -0.2196E-01  0.2158E+01 -0.4907E+00E
 Epicentro: LOS SANTOS - SANTANDER                                             3
 ACTION:UPD 17-05-22 15:59 OP:jn   STATUS:               ID:20170113074051 L   I
 OLDACT:UP  17-01-13 17:59 OP:e    STATUS:               ID:20170113073742     3
 OLDACT:REG 17-01-13 12:56 OP:and  STATUS:               ID:20170113073742     3
 2017-01-13-0738-00M.COL___326                                                 6
 STAT SP IPHASW D HRMM SECON CODA AMPLIT PERI AZIMU VELO AIN AR TRES W  DIS CAZ7
 BAR2 EZ EP        741 11.90                             172   -0.1410 20.9 195 
 BAR2 EZ ES        741 27.63                             172   -0.2110 20.9 195 
 BAR2 EZ I         741 28.84         4.6 0.42            170           20.9 195 
 BRR  HZ EP        741 13.80                             153    0.1210 73.9 300 
 BRR  HN ES        741 31.03                             153    0.2610 73.9 300 
 BRR  HZ I         741 42.40         2.1 0.52            149           73.9 300 
 PAM  EZ EP        741 14.66                             151   -0.0110 78.7  37 
 PAM  EN ES        741 32.44                             151   -0.0910 78.7  37 
 PAM  EZ I         741 34.59         1.8 0.30            154           78.7  37 
 RUS  HZ EP        741 15.86                             146   -0.0210 97.6 177 
 RUS  HN ES        741 34.93                             146    0.2510 97.6 177 
 PTB  HZ EP        741 18.99                             133   -0.30 9  149 260 
 PTB  HN ES        741 40.63                             133   -0.12 9  149 260 
 PTB  HZ I         741 47.22         1.6 0.20            134            149 260 
 ZAR  HZ EP        741 25.19                             123    0.35 8  207 293 
 ZAR  HN ES   2    741 50.40                             123   -0.24 4  207 293 
                                                                                
