 2015 1213 0324 31.2 L   6.780 -73.162141.5  RSN  7 0.4 1.8LRSN                1
 GAP=135        0.90       3.9     3.9  6.7 -0.3398E+01  0.9820E+01 -0.1912E+01E
 Epicentro: LOS SANTOS - SANTANDER                                             3
 ACTION:UPD 16-02-04 15:04 OP:cam  STATUS:               ID:20151213032431 L   I
 OLDACT:REG 15-12-13 12:08 OP:mh   STATUS:               ID:20151213031746     3
 2015-12-13-0317-46M.COL___346                                                 6
 STAT SP IPHASW D HRMM SECON CODA AMPLIT PERI AZIMU VELO AIN AR TRES W  DIS CAZ7
 BAR2 EZ EP     C  324 50.40                             171    0.1310 20.9 186 
 BAR2 EZ ES        325  5.32                             171    0.1710 20.9 186 
 BAR2 EZ I         325  6.75        11.5 0.17            172           20.9 186 
 PAM  EZ EP        324 53.17                             149    0.0310 80.2  40 
 PAM  EN ES        325  9.94                             149   -0.3210 80.2  40 
 PAM  EZ I         325 12.68         9.6 0.42            151           80.2  40 
 RUS  HZ EP        324 54.43                             143    0.0410 98.6 175 
 RUS  HN ES        325 12.73                             143    0.2510 98.6 175 
 RUS  HZ I         325 14.23         4.7 0.52            148           98.6 175 
 PTB  HZ EP        324 56.95                             131   -0.67 9  146 260 
 PTB  HN ES        325 17.65                             131   -0.58 9  146 260 
 PTB  HZ I         325 19.55         6.7 0.10            131            146 260 
 SPBC HZ EP        324 59.23                             129    0.13 9  160 219 
 SPBC HN ES        325 20.79                             129   -0.08 9  160 219 
 SPBC HZ I         325 23.58        10.7 0.12            130            160 219 
 ZAR  HZ EP   1    325  3.66                             122    0.38 6  203 293 
 ZAR  HN ES        325 29.07                             122    0.77 9  203 293 
 ZAR  HZ I         325 38.69         7.7 0.30            122            203 293 
 NOR  HE ES        325 33.87                             118    0.04 8  232 235 
 NOR  HZ I         325 38.31         5.2 0.14            119            232 235 
                                                                                
