 2010  513 0628 58.4 L   6.855 -73.243121.7  RSN 15 0.5 2.8LRSN                1
 GAP=115        1.19       3.6     6.4  6.9 -0.1092E+02  0.1106E+02  0.2675E+01E
 Epicentro: ZAPATOCA - SANTANDER                                               3
 ACTION:UP  10-08-24 10:04 OP:vdl  STATUS:               ID:20100513062858 L   I
 2010-05-13-0627-22S.COL___104                                                 6
 STAT SP IPHASW D HRMM SECON CODA AMPLIT PERI AZIMU VELO AIN AR TRES W  DIS CAZ7
 BAR2 SZ IP        629 15.46                             165     0.110   30 167 
 BAR2 SZ ES   1    629 28.15                             165    -0.4 7   30 167 
 BRR  HZ IP     D  629 16.56                             153     0.310   59 298 
 BRR  HN ES   1    629 30.60                             153     0.4 7   59 298 
 BRR  HZ I         629 31.69       311.4 0.14                            59 298 
 BRI  SZ EP        629 20.39                             136     0.410  107  27 
 BRI  SZ ES   1    629 37.19                             136     0.4 7  107  27 
 RUS  HZ EP   1    629 20.18                             136    -0.3 7  108 171 
 RUS  HN ES   1    629 37.32                             136    -0.4 7  108 171 
 RUS  HZ I         629 38.98        88.7 0.20                           108 171 
 GUE  SZ IP        629 20.36                             134    -0.410  113  18 
 GUE  SZ ES   1    629 37.92                             134    -0.2 7  113  18 
 GRA  SZ IP        629 21.79                             131     0.410  124  23 
 GRA  SZ ES   1    629 39.71                             131     0.3 7  124  23 
 OCA  SZ IP        629 23.81                             125    -0.5 9  153 357 
 OCA  SZ ES   1    629 43.59                             125    -0.8 7  153 357 
 OCA  SZ I         629 46.91       178.9 0.49                           153 357 
 CHI  HZ EP   1    629 35.10                             111    -0.2 6  252 192 
 CHI  HE ES   1    630  2.89                             111    -1.1 6  252 192 
 CHI  HZ I         630  9.64        25.0 0.31                           252 192 
 ROSC BZ EP        629 36.07                             111     0.7 8  253 208 
 ROSC BN ES   1    630  4.81                             111     0.7 6  253 208 
 ROSC BZ I         630 12.25        22.0 0.47                           253 208 
 HEL  HZ EP        629 36.74                             110     0.2 8  263 254 
 HEL  HN ES   2    630  6.35                             110     0.1 4  263 254 
 HEL  HZ I         630  9.75        20.6 0.33                           263 254 
 RREF BZ EP   1    629 42.84                             106    -0.3 5  318 227 
 RREF BZ I         630 23.66        17.0 0.23                           318 227 
 DBB  SZ EP        629 42.45                             105    -1.3 7  328 273 
 ANIL BZ EP        629 47.89                             104     0.9 6  354 223 
 ANIL BZ I         629 49.23        30.3 0.28                           354 223 
 SDV  BZ EP        629 48.26                             103     0.1 6  365  52 
 SDV  BZ I         630 27.67        23.6 0.41                           365  52 
 PRA  HZ EP        629 50.92                             102    -0.3 6  392 208 
 PRA  HN ES   1    630 32.60                             102     0.2 4  392 208 
 PRA  HZ I         630 37.13        19.2 0.47                           392 208 
                                                                                
