 2017  613 0054 23.9 L   6.816 -73.177155.4  RSN  7 0.3 1.8LRSN                1
 GAP=212        0.73       3.6     3.8  6.4  0.5691E+01 -0.4151E+01  0.1495E+01E
 Epicentro: ZAPATOCA - SANTANDER                                               3
 ACTION:UPD 17-09-14 16:51 OP:jn   STATUS:               ID:20170613005423 L   I
 OLDACT:REG 17-06-13 12:18 OP:dani STATUS:               ID:20170613004745     3
 2017-06-13-0048-00M.COL___363                                                 6
 STAT SP IPHASW D HRMM SECON CODA AMPLIT PERI AZIMU VELO AIN AR TRES W  DIS CAZ7
 BRR  HZ EP        054 46.25                             155    0.3210 67.3 299 
 BRR  HE ES        055  2.90                             155   -0.1910 67.3 299 
 BRR  HZ I         055  6.45         9.6 0.24            155           67.3 299 
 PTB  HZ EP        054 51.13                             135   -0.31 9  145 258 
 PTB  HN ES        055 12.51                             135   -0.39 9  145 258 
 PTB  HZ I         055 17.24         5.7 0.24            135            145 258 
 SPBC HZ EP        054 53.19                             131    0.07 9  162 218 
 SPBC HE ES        055 15.84                             131   -0.05 9  162 218 
 SPBC HZ I         055 22.32         9.5 0.22            132            162 218 
 YPLC HZ EP        054 54.81                             128    0.06 9  180 151 
 YPLC HN ES        055 18.90                             128    0.11 9  180 151 
 YPLC HZ I         055 19.79        11.3 0.26            131            180 151 
 ZAR  HZ EP        054 56.21                             125   -0.43 9  200 292 
 ZAR  HN ES        055 22.83                             125    0.68 9  200 292 
 ZAR  HZ I         055 28.50         5.4 0.38            127            200 292 
 NOR  HN ES        055 28.48                             121    0.25 8  233 234 
 CHI  HZ EP   2    055  1.93                             119   -0.34 4  249 194 
 CHI  HE ES   2    055 32.32                             119    0.14 4  249 194 
 CHI  HZ I         055 38.01         3.7 0.22            120            249 194 
                                                                                
