 2017  113 0620 49.3 L   6.800 -73.131144.5  RSN  9 0.4 1.5LRSN                1
 GAP=138        1.04       4.1     4.6  6.1  0.1817E+01  0.8078E+01  0.5862E+01E
 Epicentro: LOS SANTOS - SANTANDER                                             3
 ACTION:UPD 17-05-22 15:58 OP:jn   STATUS:               ID:20170113062049 L   I
 OLDACT:UP  17-01-13 16:17 OP:and  STATUS:               ID:20170113061743     3
 OLDACT:UP  17-01-13 16:16 OP:and  STATUS:               ID:20170113061743     3
 OLDACT:REG 17-01-13 12:50 OP:and  STATUS:               ID:20170113061743     3
 2017-01-13-0618-00M.COL___332                                                 6
 STAT SP IPHASW D HRMM SECON CODA AMPLIT PERI AZIMU VELO AIN AR TRES W  DIS CAZ7
 BAR2 EZ EP        621  8.41                             170   -0.3310 23.7 194 
 BAR2 EZ ES        621 23.46                             170   -0.4710 23.7 194 
 BAR2 EZ I         621 26.22         7.9 0.30            169           23.7 194 
 BRR  HZ EP        621 10.54                             152    0.1910 72.6 298 
 BRR  HN ES        621 27.52                             152    0.7210 72.6 298 
 BRR  HZ I         621 31.66         3.8 0.18            150           72.6 298 
 PAM  EZ EP        621 11.19                             151   -0.0810 76.3  39 
 PAM  EN ES        621 28.36                             151   -0.0810 76.3  39 
 PAM  EZ I         621 30.69         5.6 0.22            155           76.3  39 
 RUS  HZ EP        621 12.46                             143   -0.4210  101 177 
 RUS  HN ES        621 31.74                             143    0.4410  101 177 
 RUS  HZ I         621 32.32         2.7 0.38            147            101 177 
 PTB  HZ EP   2    621 15.79                             131   -0.48 5  149 259 
 PTB  HN ES        621 36.65                             131   -0.68 9  149 259 
 PTB  HZ I         621 42.38         4.1 0.20            132            149 259 
 ZAR  HZ EP        621 22.12                             122    0.35 8  206 292 
 ZAR  HN ES        621 47.30                             122    0.16 8  206 292 
 ZAR  HZ I         621 54.04         3.7 0.34            123            206 292 
 NOR  HZ EP        621 24.50                             118   -0.56 8  236 235 
 NOR  HN ES   3    621 52.17                             118   -0.81 2  236 235 
 NOR  HZ I         621 56.67         3.2 0.22            120            236 235 
 CHI  HZ EP        621 27.58                             117    0.64 8  249 196 
 CHI  HN ES        621 56.78                             117    0.45 8  249 196 
 GUY2CHZ EP        621 33.10                             112    0.14 7  303 235 
 GUY2CHN ES   4    622  9.37                             112    2.32 0  303 235 
 GUY2CHZ I         622 15.14         2.0 0.42                           303 235 
                                                                                
