 2015  713 0857 43.1 L   6.828 -73.112149.2  RSN 27 0.4 2.7LRSN                1
 GAP=103        0.92       2.1     3.1  4.5 -0.1502E+01  0.4463E+01  0.5524E+00E
 Epicentro: LOS SANTOS - SANTANDER                                             3
 ACTION:UPD 15-09-08 21:48 OP:cam  STATUS:               ID:20150713085743 L   I
 OLDACT:DUP 15-07-13 14:23 OP:spq  STATUS:               ID:20150713084748d    3
 2015-07-13-0847-47M.COL___334                                                 6
 STAT SP IPHASW D HRMM SECON CODA AMPLIT PERI AZIMU VELO AIN AR TRES W  DIS CAZ7
 BAR2 EZ EP     D  858  3.30                             169    0.0410 27.1 197 
 BAR2 EZ ES   1    858 18.58                             169   -0.38 7 27.1 197 
 BAR2 EZ I         858 19.51       105.5 0.22            168           27.1 197 
 PAM  EZ EP     D  858  6.29                             153    0.8410 72.7  39 
 PAM  EN ES        858 23.40                             153    0.5410 72.7  39 
 PAM  EZ I         858 24.08        62.1 0.20            155           72.7  39 
 RUS  HZ EP     D  858  7.17                             144   -0.2610  103 178 
 RUS  HN ES        858 26.32                             144   -0.0610  103 178 
 RUS  HZ I         858 27.81        40.7 0.42            146            103 178 
 OCA  HZ EP        858 11.36                             131   -0.12 9  158 352 
 OCA  HN ES        858 33.21                             131   -0.38 9  158 352 
 OCA  HZ I         858 41.78       111.7 0.22            130            158 352 
 ZAR  HZ EP        858 15.80                             123   -0.25 8  206 291 
 ZAR  HN ES        858 41.15                             123   -0.56 8  206 291 
 ZAR  HZ I         858 47.65        45.2 0.09            121            206 291 
 NOR  HZ EP        858 19.33                             119   -0.25 8  239 234 
 NOR  HE ES        858 47.76                             119   -0.24 8  239 234 
 NOR  HZ I         858 52.74        32.0 0.18            119            239 234 
 SML  HZ EP        858 19.60                             118   -0.23 8  243 334 
 SML  HN ES   1    858 48.30                             118   -0.15 6  243 334 
 SML  HZ I         858 52.48        52.0 0.10            118            243 334 
 CHI  HZ EP        858 21.57                             117    0.12 8  253 196 
 CHI  HN ES        858 50.79                             117   -0.55 8  253 196 
 CHI  HZ I         858 56.15        31.7 0.32            119            253 196 
 ROSC BZ EP   4    858 23.25                             117    1.31 0  257 211 
 ROSC BE ES        858 53.00                             117    0.80 8  257 211 
 ROSC BZ I         858 57.89        77.0 0.40            118            257 211 
 HEL  HZ EP        858 23.89                             115   -0.11 7  276 255 
 HEL  HE ES        858 55.63                             115   -0.25 7  276 255 
 HEL  HZ I         859  1.92        27.2 0.24            115            276 255 
 URE  HZ EP   4    858 23.82                             114   -0.81 0  286 291 
 URE  HN ES   4    858 53.92                             114   -3.08 0  286 291 
 URE  HZ I         859  5.54        34.5 0.18            114            286 291 
 SOCV BZ EP        858 25.10                             113   -0.71 7  297  57 
 SOCV BN ES   4    858 57.05                             113   -2.05 0  297  57 
 LL2C HZ EP        858 27.42                             113    0.84 7  304 353 
 LL2C HN ES   4    859  2.59                             113    2.12 0  304 353 
 LL2C HZ I         859  4.49        40.2 0.46            113            304 353 
 GUY2CHZ EP        858 27.31                             113   -0.13 7  306 235 
 GUY2CHN ES   4    859  4.55                             113    2.55 0  306 235 
 GUY2CHZ I         859  9.73        26.6 0.58                           306 235 
 VIL  SZ EP        858 27.43                             112    0.29 7  307 192 
 VIL  SE ES        859  1.24                             112   -0.21 7  307 192 
 VIL  SZ I         859  4.11        35.8 0.34            114            307 192 
 PTGC HZ EP     C  858 26.60                             112   -0.72 7  310 159 
 PTGC HE ES   4    859  0.19                             112   -1.60 0  310 159 
 PTGC HZ I         859  2.60        18.4 0.42            114            310 159 
 LL4C HE ES   4    859  5.85                             111    1.95 0  321 351 
 LL4C HZ I         859 13.35        46.7 0.38            112            321 351 
 CBOC HZ EP        858 30.96                             110    0.25 7  338 252 
 CBOC HE ES        859  8.02                             110    0.21 7  338 252 
 CBOC HZ I         859 19.78         7.1 0.44            110            338 252 
 DBB  SZ EP        858 31.36                             110    0.21 7  343 274 
 DBB  SZ ES   4    859  7.52                             110   -1.08 0  343 274 
 TOL  SZ EP        858 32.35                             110    0.27 6  348 225 
 TOL  SN ES        859 11.04                             110    0.79 6  348 225 
 TOL  SZ I         859 19.71        22.2 0.32            110            348 225 
 MON  HZ EP   4    858 30.41                             109   -1.98 0  355 308 
 MON  HN ES   4    859  9.00                             109   -1.81 0  355 308 
 MON  HZ I         859 11.37        15.6 0.32            109            355 308 
 ARGC HZ EP        858 33.41                             109    0.67 6  358 340 
 ARGC HE ES   4    859 12.82                             109    1.39 0  358 340 
 ARGC HZ I         859 19.07        10.0 0.28            109            358 340 
 ANIL HZ EP   4    858 34.72                             109    1.10 0  362 225 
 ANIL HN ES   4    859 14.27                             109    1.27 0  362 225 
 PRA  HZ EP        858 36.88                             107   -0.42 6  396 210 
 PRA  HN ES        859 19.24                             107   -0.31 6  396 210 
 PRA  HZ I         859 25.84        28.2 0.24            108            396 210 
 ORTC HZ EP        858 37.59                             107   -0.13 6  400 216 
 ORTC HN ES        859 21.04                             107    0.75 6  400 216 
 ORTC HZ I         859 24.17        13.1 0.30            107            400 216 
 SJC  HE ES   4    859 20.50                             106   -1.63 0  409 326 
 SJC  HZ I         859 33.40         5.8 0.50            106            409 326 
 PAL  HZ EP        858 38.86                             106   -0.11 6  410 239 
 PAL  HE ES        859 22.53                             106    0.02 6  410 239 
 PAL  HZ I         859 28.82         5.5 0.28            106            410 239 
 MACC HZ EP   4    858 50.41                             102   -1.95 0  524 189 
 MACC HN ES   4    859 42.52                             102   -3.83 0  524 189 
 MACC HZ I         859 47.74         4.8 0.68            103            524 189 
                                                                                
