 2011  413 0212  8.2 L   6.795 -73.114146.6  RSN  7 0.4 1.8LRSN                1
 GAP=161        0.89       8.3    10.7  8.8 -0.5895E+02  0.2679E+02 -0.1252E+02E
 Epicentro: LOS SANTOS - SANTANDER                                             3
 ACTION:UP  11-06-22 15:30 OP:REBC STATUS:               ID:20110413021208 L   I
 2011-04-13-0211-21S.COL___138                                                 6
 STAT SP IPHASW D HRMM SECON CODA AMPLIT PERI AZIMU VELO SNR AR TRES W  DIS CAZ7
 BAR2 SZ EP   1    212 27.86                             170    -0.1 7   24 199 
 BAR2 SZ ES   1    212 43.23                             170    -0.1 7   24 199 
 GIR2 SZ EP   1    212 27.84                             167    -0.1 7   33 344 
 BRR  HZ IP     C  212 29.61                             152     0.010   75 298 
 BRR  HZ I         212 31.15        43.0 0.11                            75 298 
 BRR  HE ES   2    212 46.64                             152     0.3 5   75 298 
 PAM  SZ EP   1    212 30.43                             151     0.0 7   76  37 
 PAM  SN ES   2    212 47.19                             151    -0.5 5   76  37 
 PAM  SZ I         212 49.42         9.2 0.29                            76  37 
 GRA  SZ EP   1    212 34.30                             137     0.8 7  125  16 
 GRA  SZ ES   1    212 53.39                             137     0.2 7  125  16 
 GRA  SZ I         212 54.75        23.8 0.38                           125  16 
 OCA  SZ EP   1    212 35.67                             130    -1.0 7  161 352 
 NOR  SZ EP   1    212 44.43                             118     0.2 6  237 235 
 NOR  SN ES   2    213 12.33                             118     0.0 4  237 235 
 NOR  SZ I         213 18.16         0.9 0.17                           237 235 
                                                                                
