 2013  813 0942 31.6 L   6.813 -73.154141.9  RSN  8 0.5 1.7LRSN                1
 GAP=182        1.14       3.6     5.9  7.2  0.1131E+01  0.1370E+02 -0.3702E+01E
 Epicentro: LOS SANTOS - SANTANDER                                             3
 ACTION:UPD 14-01-14 09:01 OP:ep   STATUS:               ID:20130813094231 L   I
 OLDACT:REG 13-08-13 08:38 OP:stll STATUS:               ID:20130813093849     3
 2013-08-13-0938-49M.COL___221                                                 6
 STAT SP IPHASW D HRMM SECON CODA AMPLIT PERI AZIMU VELO AIN AR TRES W  DIS CAZ7
 BAR2 SZ EP        942 51.07                             170    0.3110 24.6 187 
 BAR2 SZ ES        943  5.92                             170    0.1910 24.6 187 
 BAR2 SZ I         943  7.38        13.3 0.16            169           24.6 187 
 GIR2 SZ EP        942 51.14                             168    0.4110 29.7 352 
 GIR2 SZ ES        943  6.17                             168    0.4810 29.7 352 
 GIR2 SZ I         943  9.13         4.8 0.38            166           29.7 352 
 RUS  HZ EP        942 55.08                             143    0.0310  102 176 
 RUS  HN ES        943 12.85                             143   -0.5210  102 176 
 RUS  HZ I         943 14.82         5.9 0.34            146            102 176 
 PTB  HZ EP        942 58.15                             131   -0.01 9  147 258 
 PTB  HN ES        943 18.12                             131   -0.79 9  147 258 
 PTB  HZ I         943 24.67         3.5 0.34            131            147 258 
 OCA  HN ES        943 20.25                             129   -0.91 9  159 353 
 SPBC HZ EP        942 59.66                             128   -0.16 9  164 218 
 SPBC HN ES        943 21.97                             128    0.10 9  164 218 
 SPBC HZ I         943 23.25         6.0 0.24            130            164 218 
 ZAR  HZ EP        943  3.85                             122    0.24 9  203 292 
 ZAR  HN ES        943 29.43                             122    0.82 9  203 292 
 ZAR  HZ I         943 35.22         5.1 0.38            123            203 292 
 SML  HZ EP        943  7.74                             117   -0.04 8  242 335 
 SML  HN ES        943 35.82                             117   -0.22 8  242 335 
 SML  HZ I         943 39.56         7.4 0.10            119            242 335 
                                                                                
