 2015  913 0312 45.4 L   6.354 -73.549106.1  RSN 12 0.4 2.0LRSN                1
 GAP= 78        1.10       2.5     3.4  5.9 -0.7464E+00  0.7058E+01 -0.1556E+01E
 Epicentro: SANTA HELENA DEL OPON - SANTANDER                                  3
 ACTION:UPD 15-10-28 16:25 OP:cam  STATUS:               ID:20150913031245 L   I
 OLDACT:REG 15-09-13 12:25 OP:drio STATUS:               ID:20150913030748     3
 2015-09-13-0307-48M.COL___326                                                 6
 STAT SP IPHASW D HRMM SECON CODA AMPLIT PERI AZIMU VELO AIN AR TRES W  DIS CAZ7
 BAR2 EZ IP     D  313  1.63                             154    0.3310 48.3  57 
 BAR2 EZ ES        313 13.55                             154   -0.1610 48.3  57 
 BAR2 EZ I         313 16.00        18.2 0.52            146           48.3  57 
 RUS  HZ EP        313  3.15                             143   -0.0610 72.6 135 
 RUS  HE ES        313 17.22                             143    0.1110 72.6 135 
 RUS  HZ I         313 19.14        16.1 0.20            132           72.6 135 
 BRR  HZ EP        313  3.49                             138   -0.0010 85.2 348 
 BRR  HN ES        313 18.48                             138    0.8610 85.2 348 
 SPBC HZ EP        313  4.70                             134    0.0910 96.8 217 
 SPBC HE ES        313 19.54                             134   -0.0610 96.8 217 
 SPBC HZ I         313 26.17        31.7 0.10            125           96.8 217 
 PTB  HZ IP     D  313  4.17                             132   -0.8310  102 282 
 PTB  HE ES        313 19.57                             132   -0.7310  102 282 
 PTB  HZ I         313 20.46        20.3 0.12            126            102 282 
 ZAR  HZ EP        313 13.89                             114   -0.32 9  192 311 
 ZAR  HE ES        313 37.15                             114    0.45 9  192 311 
 ZAR  HZ I         313 43.75        17.3 0.52            109            192 311 
 CHI  HZ EP        313 14.59                             114   -0.14 9  192 186 
 CHI  HE ES        313 37.33                             114   -0.30 9  192 186 
 CHI  HZ I         313 43.85         4.3 0.40            107            192 186 
 OCA  HZ EP        313 16.53                             111    0.08 8  210   7 
 OCA  HE ES        313 40.67                             111   -0.01 8  210   7 
 OCA  HZ I         313 45.68        31.6 0.16            107            210   7 
 HEL  HZ EP        313 18.43                             110    0.59 8  220 265 
 HEL  HE ES        313 43.19                             110    0.02 8  220 265 
 HEL  HZ I         313 47.23         4.9 0.20            106            220 265 
 GUY2CHZ EP        313 20.75                             109    0.82 8  237 238 
 GUY2CHN ES        313 47.20                             109    0.33 8  237 238 
 GUY2CHZ I         313 54.30         4.6 0.44                           237 238 
 URE  HZ EP   4    313 21.32                             106   -1.69 0  268 305 
 URE  HN ES   4    313 50.35                             106   -2.01 0  268 305 
 URE  HZ I         313 53.21        13.1 0.10            103            268 305 
 SML  HZ EP        313 23.84                             105   -0.15 7  277 348 
 SML  HE ES        313 53.30                             105   -0.80 7  277 348 
 SML  HZ I         314  1.94        15.8 0.10            102            277 348 
                                                                                
