 2011 1213 0127 31.0 L   6.797 -73.168140.8  RSN  7 0.5 1.5LRSN                1
 GAP=134        0.91       5.0     5.9  8.1 -0.5579E+01  0.2440E+01  0.5976E+01E
 Epicentro: LOS SANTOS - SANTANDER                                             3
 ACTION:UPD 12-07-13 16:15 OP:ep   STATUS:               ID:20111213012731 L   I
 2011-12-13-0120-00M.COL___186                                                 6
 STAT SP IPHASW D HRMM SECON CODA AMPLIT PERI AZIMU VELO AIN AR TRES W  DIS CAZ7
 BAR2 SZ EP   1    127 49.92                             170   -0.07 7 22.7 184 
 BAR2 SZ ES   1    128  4.26                             170   -0.56 7 22.7 184 
 BAR2 SZ I         128  6.20         5.8 0.22                          22.7 184 
 GIR2 SZ EP   1    127 49.97                             167   -0.08 7 31.2 355 
 BRR  HZ EP   1    127 51.72                             152    0.26 7 69.2 300 
 BRR  HZ I         127 54.87        10.9 0.24                          69.2 300 
 BRR  HE ES   1    128  8.41                             152    0.96 7 69.2 300 
 PAM  SZ EP        127 52.88                             149    0.1110 79.2  41 
 PAM  SE ES   1    128  9.68                             149   -0.09 7 79.2  41 
 RUS  HZ EP   1    127 53.97                             143   -0.25 7  100 175 
 RUS  HN ES   1    128 12.35                             143   -0.02 7  100 175 
 RUS  HZ I         128 14.63         5.6 0.26                           100 175 
 PTB  HZ EP   1    127 56.71                             131   -0.59 7  145 259 
 PTB  HN ES   1    128 17.27                             131   -0.57 7  145 259 
 PTB  HZ I         128 20.62         4.4 0.15                           145 259 
 CHI  HZ EP   2    128  8.62                             116    0.33 4  248 195 
 CHI  HN ES   1    128 38.33                             116    0.93 6  248 195 
 CHI  HZ I         128 45.54         1.5 0.26                           248 195 
                                                                                
