 2014 1013 0038 39.1 L   6.506 -74.095 25.2  RSN  8 0.4 1.9LRSN                1
 GAP= 62        0.97       2.1     2.6  4.7 -0.5426E+00 -0.6298E+01  0.3108E+00E
 Epicentro: PUERTO PARRA - SANTANDER                                           3
 ACTION:UPD 14-11-29 23:49 OP:nd   STATUS:               ID:20141013003839 L   I
 OLDACT:UP  14-10-13 13:39 OP:mh   STATUS:               ID:20141013003750     3
 OLDACT:UP  14-10-13 13:39 OP:mh   STATUS:               ID:20141013003750     3
 OLDACT:UP  14-10-13 13:30 OP:mh   STATUS:               ID:20141013003750     3
 OLDACT:REG 14-10-13 12:38 OP:mh   STATUS:               ID:20141013003750     3
 2014-10-13-0037-50M.COL___281                                                 6
 STAT SP IPHASW D HRMM SECON CODA AMPLIT PERI AZIMU VELO AIN AR TRES W  DIS CAZ7
 PTB  HZ EP     C  038 46.76                             113    0.1110 40.2 275 
 PTB  HN ES        038 52.91                             113    0.3610 40.2 275 
 BRR  HZ EP     D  038 51.92                              90   -0.1210 78.8  32 
 BRR  HN ES        039  1.89                              90   -0.2410 78.8  32 
 BRR  HZ I         039  2.63        72.9 0.10            103           78.8  32 
 SPBC HZ EP   1    038 54.53                              90    0.15 7 94.5 178 
 SPBC HN ES        039  5.55                              90   -0.7510 94.5 178 
 SPBC HZ I         039  6.71        17.0 0.46            101           94.5 178 
 RUS  HZ EP     C  039  0.10                              61    0.6010  131 121 
 RUS  HN ES        039 15.64                              61    0.2310  131 121 
 RUS  HZ I         039 17.15        29.8 0.22             56            131 121 
 ZAR  HZ EP   1    038 59.15                              61   -0.63 7  138 322 
 ZAR  HN ES   1    039 15.37                              61   -0.55 7  138 322 
 ZAR  HZ I         039 17.53        16.4 0.22             56            138 322 
 PAM  SZ EP   1    039  6.12                              61    0.54 7  180  59 
 PAM  SN ES        039 25.99                              61   -0.25 9  180  59 
 PAM  SZ I         039 28.79        22.1 0.20             56            180  59 
 GUY2CHZ EP   1    039  8.16                              61    0.08 6  200 225 
 GUY2CHN ES   1    039 30.91                              61    0.22 6  200 225 
 GUY2CHZ I         039 38.74         6.1 0.70                           200 225 
 OCA  HZ EP   4    039  8.64                              61   -0.32 0  210  24 
 SML  HN ES   1    039 42.35                              61    0.66 6  254   1 
                                                                                
