 2017  213 0254 36.7 L   6.777 -73.118140.8  RSN  5 0.1 0.9LRSN                1
 GAP=141        0.34       1.8     2.4  2.6 -0.1724E+00 -0.1584E+01 -0.2649E-02E
 Epicentro: LOS SANTOS - SANTANDER                                             3
 ACTION:UPD 17-05-24 15:35 OP:jn   STATUS:               ID:20170213025436 L   I
 OLDACT:DUP 17-02-13 15:22 OP:edw  STATUS:               ID:20170213024741d    3
 OLDACT:UP  17-02-13 15:21 OP:edw  STATUS:               ID:20170213024740     3
 OLDACT:REG 17-02-13 11:35 OP:edw  STATUS:               ID:20170213024740     3
 2017-02-13-0248-00M.COL___352                                                 6
 STAT SP IPHASW D HRMM SECON CODA AMPLIT PERI AZIMU VELO AIN AR TRES W  DIS CAZ7
 BAR2 EZ ES        255 10.59                             171    0.0410 21.7 199 
 BRR  HZ EP        254 57.53                             150   -0.0510 75.1 299 
 BRR  HN ES        255 13.84                             150    0.0110 75.1 299 
 PAM  EZ EP     C  254 58.33                             150   -0.1010 77.5  37 
 PAM  EN ES        255 15.40                             150    0.0510 77.5  37 
 PAM  EZ I         255 16.91         1.3 0.16            150           77.5  37 
 RUS  HZ EP        254 59.97                             143    0.1710 97.9 178 
 RUS  HN ES        255 17.68                             143   -0.1210 97.9 178 
 RUS  HZ I         255 19.03         1.6 0.24            144           97.9 178 
 PTB  HZ EP   9    255  2.30                             130   -1.23 0  150 260 
 PTB  HN ES        255 23.22                             133    0.01 9  150 260 
 PTB  HZ I         255 24.88         1.4 0.28            131            150 260 
                                                                                
