 2012  913 0003 22.6 L   6.795 -73.083143.1  RSN  5 0.3 1.6LRSN                1
 GAP=145        0.65       5.8     7.4  9.6  0.4224E+01 -0.1503E+02  0.8768E+01E
 Epicentro: LOS SANTOS - SANTANDER                                             3
 ACTION:UPD 12-10-22 14:18 OP:ep   STATUS:               ID:20120913000322 L   I
 2012-09-13-0000-00M.COL___227                                                 6
 STAT SP IPHASW D HRMM SECON CODA AMPLIT PERI AZIMU VELO AIN AR TRES W  DIS CAZ7
 BAR2 SZ EP        0 3 41.84                             170   -0.0610 24.9 206 
 BAR2 SZ I         0 3 42.50        11.9 0.20                          24.9 206 
 GIR2 SZ EP        0 3 42.50                             166    0.5210 33.7 339 
 PAM  SZ EP   1    0 3 44.22                             152   -0.05 7 73.7  35 
 PAM  SN ES   2    0 4  0.75                             152   -0.45 5 73.7  35 
 BRR  HZ EP        0 3 43.54                             150   -0.2510 77.6 296 
 BRR  HZ I         0 3 43.77         8.5 0.17                          77.6 296 
 BRR  HN ES   1    0 4  0.34                             150   -0.02 7 77.6 296 
 RUS  HZ EP   1    0 3 45.78                             143   -0.20 7 99.7 180 
 RUS  HZ I         0 3 47.25         4.1 0.17                          99.7 180 
 RUS  HE ES   2    0 4  4.50                             143    0.24 5 99.7 180 
                                                                                
