 2015  313 0128 30.7 L   6.769 -73.141148.0  RSN  6 0.5 1.4LRSN                1
 GAP=139        1.23       6.5     6.1  8.7 -0.9395E+01  0.9831E+01  0.9271E+01E
 Epicentro: LOS SANTOS - SANTANDER                                             3
 ACTION:UPD 15-04-30 16:25 OP:nd   STATUS:               ID:20150313012830 L   I
 OLDACT:UP  15-03-13 13:31 OP:cam  STATUS:               ID:20150313011745     3
 OLDACT:REG 15-03-13 13:09 OP:cam  STATUS:               ID:20150313011745     3
 2015-03-13-0117-45M.COL___269                                                 6
 STAT SP IPHASW D HRMM SECON CODA AMPLIT PERI AZIMU VELO AIN AR TRES W  DIS CAZ7
 BAR2 EZ EP        128 49.61                             172   -0.9410 20.0 193 
 BAR2 EZ ES        129  5.72                             172   -0.3010 20.0 193 
 BAR2 EZ I         129  8.48         5.9 0.26            170           20.0 193 
 BRR  HZ EP   1    128 52.44                             152    0.21 7 73.4 301 
 BRR  HN ES        129  9.79                             152    0.7810 73.4 301 
 BRR  HZ I         129 13.46         4.9 0.32            152           73.4 301 
 PAM  SZ EP        128 53.47                             151    0.1610 79.7  38 
 PAM  SN ES        129 10.72                             151   -0.2110 79.7  38 
 PAM  SZ I         129 11.64         4.2 0.18            156           79.7  38 
 RUS  HZ EP        128 54.72                             145    0.2810 97.1 176 
 RUS  HN ES        129 13.43                             145    0.4910 97.1 176 
 RUS  HZ I         129 16.06         2.1 0.40            148           97.1 176 
 PTB  HZ EP   1    128 57.62                             133   -0.23 7  148 260 
 PTB  HN ES        129 18.70                             133   -0.32 9  148 260 
 PTB  HZ I         129 25.85         5.6 0.52            133            148 260 
 GUY2CHZ EP   1    129 15.20                             113    0.95 5  300 235 
 GUY2CHN ES        129 47.72                             113   -0.49 7  300 235 
 GUY2CHZ I         129 57.52         1.9 0.68                           300 235 
                                                                                
