 2017  713 0030 14.9 L   6.296 -73.632116.6  RSN  4 0.2 1.3LRSN                1
 GAP=160        0.49       3.2     2.6  4.9  0.2768E+01  0.3841E+01  0.9359E+00E
 Epicentro: SANTA HELENA DEL OPON - SANTANDER                                  3
 ACTION:UPD 17-08-30 15:32 OP:rebc STATUS:               ID:20170713003014 L   I
 OLDACT:UP  17-07-14 13:17 OP:rebc STATUS:               ID:20170713003014 L   3
 OLDACT:UP  17-07-14 13:14 OP:nlst STATUS:               ID:20170713003014 L   3
 OLDACT:REG 17-07-13 12:41 OP:dnl  STATUS:               ID:20170713002741     3
 2017-07-13-0028-00M.COL___374                                                 6
 STAT SP IPHASW D HRMM SECON CODA AMPLIT PERI AZIMU VELO AIN AR TRES W  DIS CAZ7
 BAR2 EZ EP        030 32.70                             151    0.1210 59.5  57 
 BAR2 EZ ES        030 46.10                             151   -0.2710 59.5  57 
 BAR2 EZ I         030 46.80         7.7 0.40            152           59.5  57 
 RUS  HZ EP   2    030 34.23                             145    0.27 5 75.3 126 
 RUS  HE ES        030 48.91                             145    0.0810 75.3 126 
 RUS  HZ I         030 49.99         2.9 0.28            150           75.3 126 
 BRR  HZ EP        030 34.39                             139    0.0210 90.1 354 
 BRR  HE ES        030 49.71                             139    0.1510 90.1 354 
 BRR  HZ I         030 55.15         5.2 0.48            140           90.1 354 
 PTB  HZ EP        030 34.53                             138   -0.2610 95.1 287 
 PTB  HE ES        030 50.40                             138    0.0910 95.1 287 
 PTB  HZ I         030 51.81         3.4 0.34            140           95.1 287 
                                                                                
