 2011  913 0822 24.1 L   6.815 -73.033136.9  RSN 13 0.3 2.4LRSN                1
 GAP=151        0.45       2.2     3.5  3.8 -0.1279E+01  0.3532E+01  0.5732E+00E
 Epicentro: CEPITA - SANTANDER                                                 3
 ACTION:UPD 12-07-13 15:57 OP:ep   STATUS:               ID:20110913082224 L   I
 2011-09-13-0820-00M.COL___171                                                 6
 STAT SP IPHASW D HRMM SECON CODA AMPLIT PERI AZIMU VELO AIN AR TRES W  DIS CAZ7
 BAR2 SZ IP        822 42.91                             167    0.0910 29.7 214 
 BAR2 SZ ES   2    822 57.05                             167   -0.37 5 29.7 214 
 BAR2 SZ I         822 58.74        59.8 0.35                          29.7 214 
 GIR2 SZ EP   1    822 42.91                             165    0.10 7 34.2 329 
 GIR2 SZ ES   3    822 57.51                             165    0.11 2 34.2 329 
 PAM  SZ EP   2    822 45.54                             152    0.68 5 68.7  32 
 PAM  SE ES   2    823  1.33                             152    0.28 5 68.7  32 
 BRR  HZ IP     C  822 44.70                             147   -0.2610 81.7 293 
 BRR  HZ I         822 45.07        75.9 0.10                          81.7 293 
 BRR  HE ES   1    823  1.57                             147    0.34 7 81.7 293 
 RUS  HZ EP   1    822 47.06                             142   -0.05 7  102 183 
 RUS  HN ES   2    823  4.92                             142   -0.14 5  102 183 
 OCA  SZ EP   1    822 51.42                             128   -0.36 7  161 349 
 OCA  SZ ES   2    823 12.74                             128   -0.62 5  161 349 
 OCA  SZ I         823 16.46        32.7 0.04                           161 349 
 ZAR  HZ EP   1    822 57.08                             119   -0.08 6  215 290 
 ZAR  HZ I         823 26.74        19.9 0.19                           215 290 
 CHI  HZ EP   2    823  2.24                             115    0.35 4  254 198 
 CHI  HN ES   2    823 31.36                             115   -0.01 4  254 198 
 CHI  HZ I         823 37.45         5.8 0.42                           254 198 
 HEL  HZ EP   1    823  5.24                             112   -0.05 6  285 256 
 HEL  HN ES   2    823 37.99                             112    0.57 4  285 256 
 HEL  HZ I         823 43.66        10.0 0.25                           285 256 
 GUY  SZ EP   2    823  8.92                             110    0.05 3  315 236 
 GUY  SN ES   2    823 43.81                             110    0.02 3  315 236 
 GUY  SZ I         823 50.15        14.5 0.43                           315 236 
 RREF HN ES   2    823 47.70                             109   -0.06 3  332 231 
 RREF HZ I         823 55.28         7.6 0.28                           332 231 
 COD  HZ EP   2    823 12.24                             107    0.12 3  348 353 
 COD  HZ I         823 35.15        16.0 0.63                           348 353 
 COD  HN ES   2    823 50.18                             107    0.61 3  348 353 
 PRA  HZ EP   2    823 18.25                             105    0.01 3  400 211 
 PRA  HN ES   2    824  0.13                             105   -0.34 3  400 211 
                                                                                
