 2010  813 0418 47.1 L   5.756 -73.885106.0  RSN 14 0.5 2.2LRSN                1
 GAP= 92        0.95       3.2     3.7  8.8 -0.6377E+01  0.1102E+02 -0.4711E+01E
 Epicentro: ALBANIA - SANTANDER                                                3
 ACTION:UP  10-09-07 10:54 OP:vdl  STATUS:               ID:20100813041847 L   I
 2010-08-13-0416-48S.COL___126                                                 6
 STAT SP IPHASW D HRMM SECON CODA AMPLIT PERI AZIMU VELO SNR AR TRES W  DIS CAZ7
 RUS  HZ IP     C  419  6.19                             137    -0.110   90  80 
 RUS  HZ I         419  7.06        15.3 0.22                            90  80 
 RUS  HN ES   1    419 21.01                             137    -0.2 7   90  80 
 ROSC BZ EP   1    419  8.81                             130     0.7 7  112 206 
 ROSC BE ES   1    419 25.13                             130     0.6 7  112 206 
 ROSC BZ I         419 29.11        18.8 0.23                           112 206 
 BAR2 SZ IP        419  8.88                             128     0.210  121  40 
 BAR2 SZ ES   1    419 25.36                             128    -0.2 7  121  40 
 BAR2 SZ I         419 27.49        58.5 0.35                           121  40 
 CHI  HZ EP   1    419  9.17                             126    -0.3 7  126 172 
 CHI  HE ES   2    419 26.47                             126    -0.4 5  126 172 
 CHI  HZ I         419 30.72        10.7 0.28                           126 172 
 BRR  HZ EP        419 11.17                             121    -0.3 9  151   7 
 BRR  HE ES        419 30.58                             121     0.1 9  151   7 
 BRR  HZ I         419 33.67        35.3 0.12                           151   7 
 GUY  SZ EP   1    419 14.62                             117     0.0 7  174 250 
 GUY  SN ES   1    419 36.78                             117     0.7 7  174 250 
 GUY  SZ I         419 39.48        57.0 0.32                           174 250 
 RREF HZ EP   1    419 15.82                             115    -0.4 7  188 240 
 RREF HE ES   1    419 38.89                             115    -0.1 7  188 240 
 RREF HZ I         419 42.78        21.4 0.33                           188 240 
 HEL  HZ EP   1    419 16.06                             114     0.1 7  188 285 
 HEL  HN ES   1    419 37.82                             114    -0.7 7  188 285 
 HEL  HZ I         419 39.42        17.4 0.19                           188 285 
 TOL  SZ EP   1    419 17.98                             112     0.1 6  205 231 
 ANIL HZ EP   1    419 19.84                                     0.5 6  219 230 
 ANIL HE ES   2    419 43.40                                    -1.1 4  219 230 
 PRA  HZ EP   1    419 21.91                             107    -0.9 6  252 206 
 PRA  HN ES   2    419 50.35                             107    -0.3 4  252 206 
 PRA  HZ I         419 55.06        15.0 0.34                           252 206 
 GUE  SZ EP   1    419 23.81                             107     0.5 6  253  25 
 GRA  SZ EP   1    419 25.02                             106     0.6 6  264  27 
 OCA  SZ EP   2    419 26.79                             105     0.3 4  282  13 
 OCA  SZ ES   2    419 56.80                             105    -0.4 4  282  13 
 OCA  SZ I         420  9.16        15.0 0.33                           282  13 
                                                                                
