 2016  813 0348 32.1 L   6.751 -73.166150.1  RSN  4 0.2 1.3LRSN                1
 GAP=231        0.63       5.2     5.3  5.9  0.1475E+02 -0.3472E+00 -0.7270E+00E
 Epicentro: LOS SANTOS - SANTANDER                                             3
 ACTION:UPD 16-10-29 15:35 OP:rebc STATUS:               ID:20160813034832 L   I
 OLDACT:DUP 16-08-13 16:08 OP:dani STATUS:               ID:20160813034760d    3
 OLDACT:UP  16-08-13 16:08 OP:dani STATUS:               ID:20160813034759     3
 OLDACT:REG 16-08-13 12:28 OP:dani STATUS:               ID:20160813034759     3
 2016-08-13-0347-59S.COL___346                                                 6
 STAT SP IPHASW D HRMM SECON CODA AMPLIT PERI AZIMU VELO AIN AR TRES W  DIS CAZ7
 BAR2 EZ EP   2    348 52.26                             173    0.15 5 17.6 186 
 BAR2 EZ ES   2    349  7.87                             173    0.12 5 17.6 186 
 BAR2 EZ I         349 10.44         4.7 0.54                          17.6 186 
 BRR  HZ EP        348 54.06                             153    0.3310 72.1 303 
 BRR  HE ES        349 10.38                             153   -0.2510 72.1 303 
 BRR  HZ I         349 18.78         4.4 0.57                          72.1 303 
 RUS  HZ EP        348 55.46                             146   -0.4110 95.3 175 
 RUS  HE ES        349 14.63                             146    0.1810 95.3 175 
 RUS  HZ I         349 16.95         3.1 0.34                          95.3 175 
 PTB  HZ EP        348 59.20                             133    0.10 9  145 261 
 PTB  HE ES        349 20.19                             133   -0.01 9  145 261 
 PTB  HZ I         349 22.16         2.5 0.16                           145 261 
                                                                                
