 2012  213 0050 52.5 L   6.772 -73.116145.3  RSN  8 0.4 1.4LRSN                1
 GAP=142        0.60       5.7     5.6  8.8  0.2599E+01  0.2031E+02  0.1325E+02E
 ACTION:UP  12-03-07 16:29 OP:epov STATUS:               ID:20120213005052 L   I
 2012-02-13-0050-00M.COL___188                                                 6
 STAT SP IPHASW D HRMM SECON CODA AMPLIT PERI AZIMU VELO AIN AR TRES W  DIS CAZ7
 BAR2 SZ EP   2    051 12.16                             171    0.15 5 21.2 200 
 BAR2 SZ ES   2    051 26.62                             171   -0.63 5 21.2 200 
 BAR2 SZ I         051 29.81         6.6 0.33                          21.2 200 
 GIR2 SZ ES   2    051 27.72                             166    0.13 5 35.0 346 
 BRR  HZ EP   2    051 14.02                             151    0.19 5 75.6 299 
 BRR  HZ I         051 16.26         7.2 0.42                          75.6 299 
 BRR  HE ES   2    051 31.34                             151    0.85 5 75.6 299 
 PAM  SN ES   2    051 31.42                             151   -0.56 5 77.8  36 
 RUS  HZ EP   2    051 16.36                             145    0.41 5 97.3 178 
 RUS  HE ES   2    051 34.58                             145    0.32 5 97.3 178 
 RUS  HZ I         051 36.47         2.1 0.34                          97.3 178 
 PTB  HZ EP   2    051 19.19                             131   -0.46 5  150 260 
 PTB  HE ES   2    051 40.57                             131   -0.28 5  150 260 
 ZAR  HN ES   2    051 50.96                             122    0.00 4  208 293 
 NOR  SN ES   2    051 55.86                             118   -0.35 4  236 236 
                                                                                
