 2013 1213 0609 40.7 L   6.778 -73.137149.1  RSN  6 0.4 1.7LRSN                1
 GAP=139        1.04       5.0     5.3  7.6 -0.6536E+01  0.4573E+01  0.1203E+01E
 Epicentro: LOS SANTOS - SANTANDER                                             3
 ACTION:UPD 14-01-13 10:17 OP:ep   STATUS:               ID:20131213060940 L   I
 OLDACT:REG 13-12-13 08:23 OP:jn   STATUS:               ID:20131213060835     3
 2013-12-13-0608-35M.COL___247                                                 6
 STAT SP IPHASW D HRMM SECON CODA AMPLIT PERI AZIMU VELO AIN AR TRES W  DIS CAZ7
 BAR2 SZ EP        610  0.77                             172    0.0810 21.2 194 
 BAR2 SZ ES        610 15.88                             172   -0.4110 21.2 194 
 BAR2 SZ I         610 17.50        14.1 0.18            171           21.2 194 
 BRR  HZ EP        610  2.64                             152    0.3210 73.2 300 
 BRR  HN ES        610 20.01                             152    0.8210 73.2 300 
 BRR  HZ I         610 20.78         8.7 0.46            151           73.2 300 
 PAM  SZ EP        610  3.33                             151   -0.0110 78.7  38 
 PAM  SN ES        610 20.61                             151   -0.4010 78.7  38 
 PAM  SZ I         610 22.94        15.7 0.56            154           78.7  38 
 RUS  HZ EP        610  4.76                             145    0.1610 98.1 177 
 RUS  HN ES        610 23.49                             145    0.2410 98.1 177 
 RUS  HZ I         610 25.11         4.6 0.22            147           98.1 177 
 PTB  HZ EP        610  7.64                             133   -0.34 9  148 260 
 PTB  HN ES        610 28.65                             133   -0.62 9  148 260 
 PTB  HZ I         610 36.29         5.9 0.42            133            148 260 
 SPBC HN ES        610 31.73                             130    0.05 9  162 220 
                                                                                
