 2013  113 0435 23.5 L   6.710 -73.219142.2  RSN  6 0.3 1.5LRSN                1
 GAP=214        0.86       4.9     6.0  7.1  0.1682E+02  0.1529E+02  0.9459E+01E
 Epicentro: VILLANUEVA - SANTANDER                                             3
 ACTION:UPD 13-02-15 09:13 OP:ep   STATUS:               ID:20130113043523 L   I
 2013-01-13-0430-00M.COL___241                                                 6
 STAT SP IPHASW D HRMM SECON CODA AMPLIT PERI AZIMU VELO AIN AR TRES W  DIS CAZ7
 BAR2 SZ ES        435 56.89                             174   -0.4610 13.6 163 
 BAR2 SZ I         435 58.32         8.7 0.40            172           13.6 163 
 BRR  HZ EP        435 44.00                             152   -0.1610 70.0 309 
 BRR  HN ES        436  0.26                             152   -0.0410 70.0 309 
 BRR  HN I         436  1.37         8.9 0.32            153           70.0 309 
 RUS  HZ EP        435 46.18                             146   -0.0410 91.6 171 
 RUS  HN ES        436  4.65                             146    0.6710 91.6 171 
 RUS  HN I         436  5.91         4.1 0.18            145           91.6 171 
 PTB  HZ EP        435 49.48                             133    0.21 9  138 262 
 PTB  HE ES        436  9.38                             133   -0.02 9  138 262 
 PTB  HE I         436 12.15         3.6 0.34            133            138 262 
 ZAR  HN ES        436 20.41                             122    0.23 9  201 296 
 CHI  HN ES        436 27.48                             118   -0.47 8  237 194 
 CHI  HN I         436 30.73         1.5 0.46            118            237 194 
                                                                                
