 2012  313 0053 41.3 L   6.707 -73.180133.2  RSN  8 0.9 1.6LRSN                1
 GAP=136        2.18       9.9    11.4 17.3 -0.1784E+02  0.6014E+02 -0.1468E+02E
 ACTION:UP  12-03-31 23:19 OP:EP   STATUS:               ID:20120313005341 L   I
 2012-03-13-0050-00M.COL___196                                                 6
 STAT SP IPHASW D HRMM SECON CODA AMPLIT PERI AZIMU VELO SNR AR TRES W  DIS CAZ7
 BAR2 SZ EP   1    053 58.45                             174    -0.7 7   13 181 
 BAR2 SZ ES   1    054 13.61                             174     0.4 7   13 181 
 BAR2 SZ I         054 15.25        16.8 0.30                            13 181 
 BRR  HZ IP        054  0.95                             149    -0.310   74 307 
 BRR  HZ EP        054  0.95                             149             74 307 
 BRR  HN ES   1    054 16.13                             149    -0.6 7   74 307 
 BRR  HZ I         054 19.60        18.1 0.35                            74 307 
 PAM  SZ EP   1    054  2.10                             145    -0.7 7   88  37 
 PAM  SZ I         054  2.27         8.3 0.15                            88  37 
 PAM  SN ES   1    054 18.50                             145    -1.2 7   88  37 
 RUS  HZ EP   1    054  3.12                             144     0.1 7   91 173 
 RUS  HZ I         054  4.40         7.6 0.15                            91 173 
 RUS  HN ES   1    054 21.19                             144     1.1 7   91 173 
 PTB  HZ EP   1    054  6.03                             130    -0.7 7  142 263 
 PTB  HN ES   1    054 26.55                             130     0.0 7  142 263 
 PTB  HZ I         054 29.24         6.5 0.14                           142 263 
 OCA  SZ EP   1    054 10.57                             125     1.0 7  170 355 
 OCA  SZ ES   1    054 34.25                             125     2.6 7  170 355 
 OCA  SZ I         054 38.80         0.4 0.43                           170 355 
 ZAR  HZ EP   1    054 13.29                             119     0.3 6  205 295 
 ZAR  HN ES   1    054 36.95                             119    -0.8 6  205 295 
 ZAR  HZ I         054 42.58         7.0 0.21                           205 295 
 NOR  SZ EP   1    054 14.80                             117    -0.5 6  226 236 
 NOR  SN ES   1    054 42.90                             117     1.0 6  226 236 
                                                                                
