 2017 1113 0915 45.9 L   6.745 -73.154153.2  RSN  4 0.3 1.2LRSN                1
 GAP=232        0.83       5.2     6.2  7.5  0.9812E+01 -0.3134E+01  0.3851E+00E
 Epicentro: LOS SANTOS - SANTANDER                                             3
 ACTION:UPD 17-12-12 19:55 OP:rebc STATUS:               ID:20171113091545 L   I
 OLDACT:REG 17-11-13 13:42 OP:leo  STATUS:               ID:20171113090746     3
 2017-11-13-0908-00M.COL___435                                                 6
 STAT SP IPHASW D HRMM SECON CODA AMPLIT PERI AZIMU VELO AIN AR TRES W  DIS CAZ7
 BRR  HZ EP        916  7.97                             153    0.0010 73.5 303 
 BRR  HN ES        916 25.37                             153    0.1810 73.5 303 
 RUS  HZ EP        916  9.42                             147   -0.5510 94.6 175 
 RUS  HN ES        916 28.89                             147    0.1410 94.6 175 
 RUS  HZ I         916 30.23         1.5 0.36            145           94.6 175 
 PTB  HZ EP        916 13.48                             134    0.18 9  146 261 
 PTB  HZ ES        916 34.21                             134   -0.46 9  146 261 
 SPBC HZ EP        916 14.94                             132    0.46 9  158 220 
 SPBC HN ES        916 36.89                             132    0.11 9  158 220 
 SPBC HZ I         916 41.78         3.4 0.32            130            158 220 
                                                                                
