 2011  513 0515 56.7 L   6.769 -73.099140.9  RSN  5 0.2 1.4LRSN                1
 GAP=170        0.59       7.8     7.8  7.4 -0.3123E+01 -0.3067E+02 -0.8715E+01E
 Epicentro: LOS SANTOS - SANTANDER                                             3
 ACTION:UP  11-06-29 08:52 OP:tino STATUS:               ID:20110513051556 L   I
 2011-05-13-0511-52S.COL___141                                                 6
 STAT SP IPHASW D HRMM SECON CODA AMPLIT PERI AZIMU VELO SNR AR TRES W  DIS CAZ7
 BAR2 SZ EP        516 15.65                             171    -0.110   22 205 
 BAR2 SZ ES   3    516 31.01                             171     0.5 2   22 205 
 BAR2 SZ I         516 31.90         9.2 0.24                            22 205 
 BTL  SZ EP        516 15.96                             169     0.210   25 311 
 BTL  SZ ES   1    516 30.28                             169    -0.4 7   25 311 
 PAM  SZ EP   1    516 18.63                             150     0.3 7   77  35 
 BRR  HZ EP        516 17.54                             149    -0.210   77 299 
 BRR  HN ES   1    516 34.34                             149     0.3 7   77 299 
 BRR  HZ I         516 36.98         4.8 0.02                            77 299 
 GRA  SZ EP        516 21.57                             135    -0.110  128  15 
 GRA  SZ I         516 43.34         2.8 0.18                           128  15 
                                                                                
