 2017  713 0740  6.2 L   6.715 -73.139148.6  RSN  4 0.1 1.1LRSN                1
 GAP=164        0.38       4.0     2.4  3.3 -0.4502E+01  0.6289E-01  0.7861E+00E
 Epicentro: JORDAN - SANTANDER                                                 3
 ACTION:UPD 17-08-30 15:32 OP:rebc STATUS:               ID:20170713074006 L   I
 OLDACT:REG 17-07-13 12:52 OP:dnl  STATUS:               ID:20170713073739     3
 2017-07-13-0738-00M.COL___371                                                 6
 STAT SP IPHASW D HRMM SECON CODA AMPLIT PERI AZIMU VELO AIN AR TRES W  DIS CAZ7
 BAR2 EZ EP        740 26.02                             174    0.0310 14.4 199 
 BAR2 EZ ES        740 41.47                             174    0.0110 14.4 199 
 BAR2 EZ I         740 44.98         4.9 0.66            172           14.4 199 
 BRR  HZ EP        740 28.05                             151    0.1110 76.7 304 
 BRR  HN ES        740 45.03                             151    0.1110 76.7 304 
 BRR  HZ I         740 46.67         3.2 0.40            154           76.7 304 
 PAM  EZ IP     D  740 29.18                             149    0.0710 84.4  35 
 PAM  EN ES        740 46.83                             149   -0.1710 84.4  35 
 PAM  EZ I         740 48.68         1.8 0.42            153           84.4  35 
 PTB  HZ EP   2    740 32.99                             133   -0.30 5  147 262 
 PTB  HN ES        740 54.34                             133   -0.11 9  147 262 
 PTB  HZ I         740 57.60         0.8 0.16            135            147 262 
                                                                                
