 2011  213 0759 53.9 L   6.804 -73.034148.5  RSN  8 0.5 1.6LRSN                1
 GAP=171        0.87       4.9    10.0  8.8 -0.1575E+02  0.2751E+02  0.5309E+00E
 Epicentro: CEPITA - SANTANDER                                                 3
 ACTION:UP  11-03-28 15:08 OP:jfem STATUS:               ID:20110213075954 L   I
 2011-02-13-0756-25S.COL___136                                                 6
 STAT SP IPHASW D HRMM SECON CODA AMPLIT PERI AZIMU VELO SNR AR TRES W  DIS CAZ7
 BAR2 SZ EP   1    8 0 14.13                             169     0.1 7   29 215 
 BAR2 SZ I         8 0 14.52        11.8 0.39                            29 215 
 BAR2 SZ ES   2    8 0 30.19                             169     0.5 5   29 215 
 BTL  SZ EP   1    8 0 13.28                             169    -0.7 7   29 296 
 BTL  SZ ES   2    8 0 29.16                             169    -0.5 5   29 296 
 RUS  HZ EP   1    8 0 18.11                             144     0.2 7  101 183 
 RUS  HN ES   2    8 0 36.85                             144     0.1 5  101 183 
 RUS  HZ I         8 0 39.75         2.4 0.45                           101 183 
 GRA  SZ EP   1    8 0 18.96                             138    -0.1 7  122  12 
 GRA  SZ ES   2    8 0 38.50                             138    -0.3 5  122  12 
 GRA  SZ I         8 0 40.26         9.5 0.31                           122  12 
 OCA  SZ EP   1    8 0 22.92                             130     0.4 7  162 349 
 OCA  SZ ES   2    8 0 45.67                             130     0.7 5  162 349 
 OCA  SZ I         8 0 49.46         7.4 0.50                           162 349 
 NOR  SZ EP   1    8 0 30.04                             118    -0.9 6  245 236 
 CHI  HZ EP   1    8 0 32.35                             117     0.2 6  253 198 
 CHI  HN ES   2    8 1  2.45                             117     0.4 4  253 198 
 CHI  HZ I         8 1 11.03         3.0 0.51                           253 198 
 HEL  HZ EP   1    8 0 36.25                             114     0.6 6  284 256 
 HEL  HN ES   2    8 1  8.05                             114    -0.1 4  284 256 
 HEL  HZ I         8 1 14.45         1.9 0.52                           284 256 
                                                                                
