 2014  213 0048 16.1 L   6.827 -73.163155.4  RSN  6 0.4 1.7LRSN                1
 GAP=200        1.05       4.8     6.5 10.2  0.9908E+01  0.1660E+01 -0.4410E+01E
 Epicentro: LOS SANTOS - SANTANDER                                             3
 ACTION:UPD 14-03-10 08:09 OP:ep   STATUS:               ID:20140213004816 L   I
 OLDACT:DUP 14-02-13 08:56 OP:carl STATUS:               ID:20140213004002d    3
 2014-02-13-0040-00M.COL___199                                                 6
 STAT SP IPHASW D HRMM SECON CODA AMPLIT PERI AZIMU VELO AIN AR TRES W  DIS CAZ7
 BRR  HZ EP        048 38.71                             155    0.5610 68.1 297 
 BRR  HE ES        048 55.90                             155    0.5610 68.1 297 
 RUS  HZ EP        048 41.08                             145    0.0310  104 175 
 RUS  HN ES        049  0.04                             145   -0.4510  104 175 
 RUS  HZ I         049  1.62         3.4 0.28            144            104 175 
 PTB  HZ EP        048 43.76                             134   -0.01 9  146 258 
 PTB  HN ES        049  4.81                             134   -0.54 9  146 258 
 PTB  HZ I         049  7.52         7.4 0.18            132            146 258 
 ZAR  HE ES        049 14.31                             125   -0.19 9  201 292 
 ZAR  HZ I         049 21.21         6.2 0.38            123            201 292 
 NOR  HE ES        049 21.18                             120    0.40 8  235 234 
 NOR  HZ I         049 24.96         3.2 0.18            119            235 234 
 SML  HE ES        049 21.10                             120   -0.54 8  240 335 
 SML  HZ I         049 23.09         4.2 0.30            119            240 335 
                                                                                
