 2015  413 0220 15.6 L   6.788 -73.153151.3  RSN  4 0.3 1.4LRSN                1
 GAP=140        0.69       4.0     4.1  7.3 -0.7277E+01  0.7839E+01 -0.3034E+01E
 Epicentro: LOS SANTOS - SANTANDER                                             3
 ACTION:UPD 15-06-03 16:54 OP:cam  STATUS:               ID:20150413022015 L   I
 OLDACT:REG 15-04-13 13:07 OP:carl STATUS:               ID:20150413021747     3
 2015-04-13-0217-47M.COL___266                                                 6
 STAT SP IPHASW D HRMM SECON CODA AMPLIT PERI AZIMU VELO AIN AR TRES W  DIS CAZ7
 PAM  SZ EP        220 38.74                             151    0.2010 78.9  39 
 PAM  SN ES        220 56.45                             151    0.0510 78.9  39 
 PAM  SZ I         220 58.00         6.5 0.58            155           78.9  39 
 RUS  HZ EP        220 39.77                             145   -0.0810 99.3 176 
 RUS  HN ES        220 58.46                             145   -0.2710 99.3 176 
 RUS  HZ I         221  0.11         1.8 0.38            150           99.3 176 
 PTB  HZ EP        220 42.75                             133   -0.22 9  147 259 
 PTB  HN ES        221  4.11                             133   -0.17 9  147 259 
 PTB  HZ I         221 11.24         4.3 0.40            134            147 259 
 SPBC HN ES        221  7.41                             131    0.54 9  162 219 
                                                                                
