 2016  613 0016  1.2 L   6.849 -73.363122.0  RSN  9 0.5 1.8LRSN                1
 GAP=107        1.11       6.5     4.6  8.4 -0.3220E+01  0.1262E+01  0.1993E+02E
 Epicentro: SAN VICENTE DE CHUCURI - SANTANDER                                 3
 ACTION:UPD 16-07-21 22:18 OP:rebc STATUS:               ID:20160613001601 L   I
 OLDACT:REG 16-06-13 12:23 OP:dnl  STATUS:               ID:20160613000742     3
 2016-06-13-0007-42M.COL___328                                                 6
 STAT SP IPHASW D HRMM SECON CODA AMPLIT PERI AZIMU VELO AIN AR TRES W  DIS CAZ7
 BAR2 EZ EP     C  016 18.51                             163    0.1810 34.7 145 
 BAR2 EZ ES        016 31.61                             163   -0.0710 34.7 145 
 BAR2 EZ I         016 33.04        50.0 0.20                          34.7 145 
 BRR  HZ EP        016 18.92                             157    0.3910 48.0 307 
 BRR  HN ES        016 32.88                             157    0.8410 48.0 307 
 BRR  HZ I         016 33.91        17.5 0.14                          48.0 307 
 PAM  EZ EP   2    016 21.80                             141   -0.16 5 91.2  53 
 PAM  EN ES        016 37.55                             141   -0.6010 91.2  53 
 PAM  EZ I         016 40.53        13.4 0.50                          91.2  53 
 RUS  HZ EP        016 23.93                             135    0.4210  110 164 
 RUS  HN ES   2    016 41.08                             135    0.18 5  110 164 
 RUS  HZ I         016 42.84         5.3 0.36                           110 164 
 PTB  HZ EP        016 23.94                             131   -0.3010  126 254 
 PTB  HN ES        016 41.27                             131   -0.9310  126 254 
 PTB  HZ I         016 45.58        10.4 0.16                           126 254 
 TAM  HZ EP   2    016 29.46                             120   -0.20 4  180 105 
 TAM  HZ I         016 50.01        10.7 0.27                           180 105 
 TAM  HN ES   2    016 51.18                             120   -0.67 4  180 105 
 NOR  HE ES   4    017  0.84                             115    1.38 0  219 230 
 NOR  HZ I         017  8.49         5.6 0.22                           219 230 
 CHI  HZ EP   2    016 38.32                             112    0.60 4  249 189 
 CHI  HE ES   2    017  6.23                             112    0.03 4  249 189 
 CHI  HZ I         017 10.85         1.9 0.17                           249 189 
 GUY2CHZ EP   3    016 43.10                             109    1.11 2  285 231 
 GUY2CHE ES   4    017 15.19                             109    1.40 0  285 231 
 GUY2CHZ I         017 18.08         2.4 0.30                           285 231 
                                                                                
