 2016  613 0413 57.1 L   6.557 -73.571113.6  RSN  8 0.5 1.7LRSN                1
 GAP= 77        1.15       3.9     4.8  7.8 -0.6638E+01  0.4047E+01 -0.9017E-01E
 Epicentro: EL CARMEN - SANTANDER                                              3
 ACTION:UPD 16-07-21 22:18 OP:rebc STATUS:               ID:20160613041357 L   I
 OLDACT:DUP 16-06-13 15:32 OP:dnl  STATUS:               ID:20160613040747d    3
 2016-06-13-0407-46M.COL___319                                                 6
 STAT SP IPHASW D HRMM SECON CODA AMPLIT PERI AZIMU VELO AIN AR TRES W  DIS CAZ7
 BAR2 EZ EP        414 13.85                             158    0.2210 43.1  85 
 BAR2 EZ ES        414 26.48                             158   -0.0110 43.1  85 
 BAR2 EZ I         414 27.67        23.6 0.36                          43.1  85 
 BRR  HZ EP        414 14.69                             149    0.3310 62.8 346 
 BRR  HE ES        414 28.63                             149    0.8410 62.8 346 
 BRR  HZ I         414 29.30        10.9 0.34                          62.8 346 
 RUS  HZ EP        414 17.02                             139   -0.0810 91.2 144 
 RUS  HN ES   2    414 32.30                             139   -0.38 5 91.2 144 
 RUS  HZ I         414 33.77         4.3 0.42                          91.2 144 
 PTB  HZ EP        414 16.73                             136   -0.2710 98.0 269 
 PTB  HN ES        414 31.52                             136   -0.9810 98.0 269 
 PTB  HZ I         414 33.55        12.4 0.14                          98.0 269 
 SPBC HZ EP        414 18.54                             131   -0.0210  114 209 
 SPBC HN ES        414 34.98                             131   -0.2910  114 209 
 SPBC HZ I         414 37.76        11.7 0.32                           114 209 
 NOR  HZ EP   2    414 25.93                             118    0.70 4  181 233 
 NOR  HN ES        414 47.86                             118    0.71 9  181 233 
 NOR  HZ I         414 51.08         5.2 0.20                           181 233 
 OCA  HZ EP        414 25.97                             117   -0.16 9  188   8 
 OCA  HN ES        414 48.37                             117   -0.37 9  188   8 
 OCA  HZ I         414 56.50        12.5 0.34                           188   8 
 GUY2CHZ EP   4    414 36.05                             110    2.84 0  247 234 
 GUY2CHN ES   2    415  1.75                             110    0.41 4  247 234 
 GUY2CHZ I         415  7.58         1.8 0.60                           247 234 
                                                                                
