 2011  113 0855 25.3 L   6.815 -73.430121.7  RSN  6 0.1 1.6LRSN                1
 GAP=177        0.46       2.6    13.4 10.9 -0.1301E+02  0.1082E+03 -0.6460E+01E
 Epicentro: SAN VICENTE DE CHUCURI - SANTANDER                                 3
 ACTION:UP  11-02-08 08:40 OP:pat  STATUS:               ID:20110113085525 L   I
 2011-01-13-0852-43S.COL___136                                                 6
 STAT SP IPHASW D HRMM SECON CODA AMPLIT PERI AZIMU VELO SNR AR TRES W  DIS CAZ7
 BTL  SZ EP        855 41.83                             170    -0.210   21  57 
 BAR2 SZ EP        855 42.69                             162     0.210   37 132 
 BAR2 SZ I         856  0.19         6.8 0.38                            37 132 
 RUS  HZ EP        855 47.37                             136    -0.110  109 159 
 RUS  HN ES   2    856  4.92                             136     0.1 5  109 159 
 GRA  SZ ES   1    856  8.49                             128     0.0 7  137  30 
 GRA  SZ I         856 11.93         8.0 0.49                           137  30 
 OCA  SZ EP        855 51.72                             124     0.1 9  158   4 
 OCA  SZ I         856 18.77         5.8 0.29                           158   4 
 CHI  HZ EP   1    856  1.34                             112     0.1 6  244 188 
                                                                                
