 2013 1013 0606 34.0 L   6.798 -73.191144.6  RSN  7 0.5 1.7LRSN                1
 GAP=131        1.06       4.2     6.4  9.3 -0.3740E+00  0.2024E+02 -0.6858E+01E
 Epicentro: ZAPATOCA - SANTANDER                                               3
 ACTION:UPD 13-11-25 09:21 OP:ep   STATUS:               ID:20131013060634 L   I
 OLDACT:UP  13-10-13 09:32 OP:mh   STATUS:               ID:20131013055959     3
 OLDACT:REG 13-10-13 07:58 OP:mh   STATUS:               ID:20131013055959     3
 2013-10-13-0559-59M.COL___273                                                 6
 STAT SP IPHASW D HRMM SECON CODA AMPLIT PERI AZIMU VELO AIN AR TRES W  DIS CAZ7
 BAR2 SZ EP   1    6 6 53.65                             171    0.21 7 22.7 178 
 BAR2 SZ I         6 7 10.30        18.8 0.24            166           22.7 178 
 BRR  HZ EP        6 6 55.48                             154    0.7310 67.0 301 
 BRR  HN ES   1    6 7 11.47                             154    0.50 7 67.0 301 
 PAM  SZ EP   1    6 6 56.48                             149    0.22 7 80.8  42 
 PAM  SN ES        6 7 13.66                             149    0.0010 80.8  42 
 PAM  SZ I         6 7 14.33         3.8 0.15            145           80.8  42 
 RUS  HZ EP   1    6 6 57.87                             143    0.26 7  101 173 
 RUS  HN ES        6 7 15.47                             143   -0.5910  101 173 
 RUS  HZ I         6 7 17.06         3.9 0.44            137            101 173 
 PTB  HZ EP        6 6 59.94                             133   -0.45 9  143 259 
 PTB  HN ES   1    6 7 21.20                             133    0.20 7  143 259 
 OCA  HE ES   1    6 7 23.90                             129   -0.25 7  160 355 
 SML  HZ EP        6 7 10.56                             117    0.23 8  242 336 
 SML  HN ES        6 7 37.84                             117   -0.86 8  242 336 
 SML  HZ I         6 7 42.18         9.5 0.05            114            242 336 
                                                                                
