 2013  813 0836 37.1 L   6.696 -73.375142.0  RSN  4 0.5 1.2LRSN                1
 GAP=199        1.23       9.2     9.0 11.2  0.5385E+02  0.5807E+01 -0.1893E+01E
 Epicentro: GALAN - SANTANDER                                                  3
 ACTION:UPD 14-01-14 09:01 OP:ep   STATUS:               ID:20130813083637 L   I
 OLDACT:REG 13-08-13 08:36 OP:stll STATUS:               ID:20130813082848     3
 2013-08-13-0828-48M.COL___221                                                 6
 STAT SP IPHASW D HRMM SECON CODA AMPLIT PERI AZIMU VELO AIN AR TRES W  DIS CAZ7
 BRR  HZ EP        836 56.73                             156   -0.4410 58.7 321 
 BRR  HN ES        837 12.86                             156    0.0310 58.7 321 
 BRR  HZ I         837 14.94         3.0 0.42            155           58.7 321 
 RUS  HZ EP        837  0.18                             145    0.1410 94.6 160 
 RUS  HN ES        837 18.03                             145    0.0810 94.6 160 
 PTB  HZ EP        837  2.04                             137    0.6510  121 262 
 PTB  HE ES        837 19.74                             137   -0.6110  121 262 
 PTB  HZ I         837 25.28         2.0 0.14            135            121 262 
 ZAR  HZ EP   1    837  6.49                             124   -0.95 7  186 298 
 ZAR  HN ES        837 31.84                             124    0.73 9  186 298 
 ZAR  HZ I         837 35.54         1.6 0.10            124            186 298 
                                                                                
