 2016  313 0904 36.7 L   6.815 -73.159140.5  RSN 14 0.4 1.9LRSN                1
 GAP= 70        1.08       3.3     3.3  6.0 -0.1384E+01  0.5161E+01  0.5877E+00E
 Epicentro: LOS SANTOS - SANTANDER                                             3
 ACTION:UPD 16-05-13 21:23 OP:cam  STATUS:               ID:20160313090436 L   I
 OLDACT:UP  16-03-13 19:53 OP:cara STATUS:               ID:20160313085748     3
 OLDACT:UP  16-03-13 19:53 OP:cara STATUS:               ID:20160313085748     3
 OLDACT:REG 16-03-13 14:27 OP:cara STATUS:               ID:20160313085748     3
 2016-03-13-0857-48M.COL___291                                                 6
 STAT SP IPHASW D HRMM SECON CODA AMPLIT PERI AZIMU VELO AIN AR TRES W  DIS CAZ7
 BAR2 EZ IP     C  9 4 55.79                             169    0.0310 24.8 186 
 BAR2 EZ ES        9 5 10.76                             169    0.1510 24.8 186 
 BAR2 EZ I         9 5 16.10        10.7 0.20            171           24.8 186 
 PAM  EZ EP        9 4 58.53                             150    0.1610 77.0  41 
 PAM  EE ES        9 5 15.40                             150    0.1610 77.0  41 
 PAM  EZ I         9 5 17.61        11.1 0.42            152           77.0  41 
 RUS  HZ EP        9 4 59.87                             142   -0.2310  102 175 
 RUS  HN ES        9 5 18.49                             142    0.1610  102 175 
 RUS  HZ I         9 5 20.23         9.6 0.30            147            102 175 
 PTB  HZ EP        9 5  2.44                             131   -0.74 9  147 258 
 PTB  HN ES        9 5 23.41                             131   -0.39 9  147 258 
 PTB  HZ I         9 5 27.04        13.7 0.16            131            147 258 
 TAM  HZ EP        9 5  4.23                             129    0.06 9  157 105 
 TAM  HE ES        9 5 25.83                             129    0.25 9  157 105 
 TAM  HZ I         9 5 26.25         8.0 0.28            134            157 105 
 OCA  HZ EP        9 5  4.15                             129   -0.31 9  158 354 
 OCA  HE ES        9 5 25.62                             129   -0.47 9  158 354 
 OCA  HZ I         9 5 33.14        16.5 0.18            129            158 354 
 SPBC HZ EP        9 5  4.81                             128   -0.06 9  164 218 
 SPBC HN ES        9 5 25.97                             128   -0.85 9  164 218 
 SPBC HZ I         9 5 29.38        16.5 0.24            130            164 218 
 ZAR  HZ EP        9 5  8.65                             121    0.02 9  202 292 
 ZAR  HN ES        9 5 34.56                             121    1.04 9  202 292 
 ZAR  HZ I         9 5 39.63        17.9 0.42            121            202 292 
 NOR  HZ EP        9 5 12.23                             117    0.09 8  235 234 
 NOR  HN ES        9 5 40.37                             117    0.61 8  235 234 
 NOR  HZ I         9 5 41.94         8.8 0.22            119            235 234 
 CHI  HZ EP        9 5 14.37                             116    0.09 8  250 195 
 CHI  HN ES   4    9 5 42.50                             116   -1.07 0  250 195 
 CHI  HZ I         9 5 48.52         2.5 0.34            119            250 195 
 HEL  HZ EP   4    9 5 18.09                             114    1.52 0  271 255 
 HEL  HN ES   4    9 5 52.52                             114    4.87 0  271 255 
 HEL  HZ I         9 5 54.06         5.3 0.38            115            271 255 
 URE  HZ EP   4    9 5 15.93                             113   -1.40 0  282 292 
 URE  HE ES   4    9 5 45.25                             113   -3.74 0  282 292 
 URE  HZ I         9 5 59.52         6.2 0.18            113            282 292 
 GUY2CHZ EP        9 5 20.93                             111    0.85 7  301 234 
 GUY2CHN ES   4    9 5 55.04                             111    1.15 0  301 234 
 GUY2CHZ I         9 6  1.39         4.0 0.24                           301 234 
 PTGC HE ES   4    9 5 52.98                             110   -1.83 0  311 159 
 MON  HZ EP   4    9 5 23.12                             108   -2.16 0  351 308 
 MON  HN ES   4    9 6  1.67                             108   -1.48 0  351 308 
 MON  HZ I         9 6 19.37         1.8 0.46            109            351 308 
                                                                                
