 2012  213 0517  1.4 L   6.783 -73.099149.5  RSN 16 0.4 2.3LRSN                1
 GAP=143        0.49       2.3     3.1  3.8 -0.1907E+01  0.2019E+01  0.2019E+01E
 ACTION:UP  12-03-07 16:30 OP:epov STATUS:               ID:20120213051701 L   I
 2012-02-13-0510-00M.COL___188                                                 6
 STAT SP IPHASW D HRMM SECON CODA AMPLIT PERI AZIMU VELO AIN AR TRES W  DIS CAZ7
 BAR2 SZ EP        517 21.48                             171   -0.0410 23.0 203 
 BAR2 SZ ES   2    517 37.18                             171    0.01 5 23.0 203 
 BAR2 SZ I         517 39.45        41.8 0.33                          23.0 203 
 GIR2 SZ EP        517 21.61                             166   -0.0310 34.3 342 
 GIR2 SZ ES   2    517 36.95                             166   -0.45 5 34.3 342 
 PAM  SZ EP   1    517 24.41                             152    0.45 7 75.7  36 
 PAM  SN ES   2    517 41.58                             152    0.06 5 75.7  36 
 BRR  HZ EP        517 23.33                             151    0.0310 76.6 298 
 BRR  HE ES   1    517 40.85                             151    0.50 7 76.6 298 
 BRR  HZ I         517 43.07        33.7 0.27                          76.6 298 
 RUS  HZ EP   2    517 25.41                             145   -0.01 5 98.5 179 
 RUS  HN ES   2    517 43.59                             145   -0.53 5 98.5 179 
 RUS  HZ I         517 45.41        14.2 0.36                          98.5 179 
 PTB  HZ EP   2    517 28.42                             132   -0.72 5  152 260 
 PTB  HN ES   2    517 50.49                             132   -0.25 5  152 260 
 OCA  SZ EP   2    517 30.33                             130    0.05 5  163 351 
 OCA  SZ ES   2    517 52.62                             130   -0.15 5  163 351 
 ZAR  HZ EP   2    517 34.18                             122   -0.51 4  209 292 
 ZAR  HN ES   2    518  0.40                             122   -0.23 4  209 292 
 ZAR  HZ I         518  5.93        19.4 0.37                           209 292 
 NOR  SZ EP   1    517 37.68                             119   -0.05 6  238 236 
 NOR  SN ES   2    518  6.09                             119    0.07 4  238 236 
 CHI  HZ EP   1    517 39.60                             118    0.29 6  248 196 
 CHI  HN ES   2    518  9.15                             118    0.31 4  248 196 
 CHI  HZ I         518 17.19         7.8 0.43                           248 196 
 ROSC BZ EP   2    517 39.90                             117    0.01 4  254 212 
 ROSC BN ES   2    518  9.02                             117   -0.86 4  254 212 
 ROSC BZ I         518 17.62        22.8 0.61                           254 212 
 HEL  HZ EP   2    517 42.83                             115    0.48 4  277 256 
 HEL  HN ES   2    518 14.92                             115    0.67 4  277 256 
 HEL  HZ I         518 20.75         9.2 0.43                           277 256 
 GUY  SZ EP   2    517 46.16                             113    0.32 4  307 236 
 GUY  SN ES   2    518 20.47                             113   -0.01 4  307 236 
 GUY  SZ I         518 28.03        22.4 0.37                           307 236 
 RREF HZ EP   2    517 48.49                             111    0.43 3  324 230 
 RREF HN ES   2    518 24.20                             111   -0.22 3  324 230 
 RREF HZ I         518 33.84        10.2 0.34                           324 230 
 COD  HZ EP   2    517 49.85                             109   -0.39 3  351 354 
 COD  HN ES   2    518 27.46                             109   -0.84 3  351 354 
 PRA  HZ EP   2    517 54.97                             107   -0.24 3  393 210 
 PRA  HN ES   2    518 37.24                             107    0.10 3  393 210 
                                                                                
