 2015 1013 0936  7.6 L   6.349 -73.420123.9  RSN  5 0.2 1.1LRSN                1
 GAP=165        0.56       3.9     5.2  5.2  0.1122E+02  0.1217E+02 -0.3175E+01E
 Epicentro: CHIMA - SANTANDER                                                  3
 ACTION:UPD 15-12-22 20:39 OP:cam  STATUS:               ID:20151013093607 L   I
 OLDACT:REG 15-10-13 14:45 OP:cara STATUS:               ID:20151013092748     3
 2015-10-13-0927-48M.COL___331                                                 6
 STAT SP IPHASW D HRMM SECON CODA AMPLIT PERI AZIMU VELO AIN AR TRES W  DIS CAZ7
 BAR2 EZ EP        936 24.97                             162   -0.0710 37.6  44 
 BAR2 EZ ES        936 38.52                             162   -0.1310 37.6  44 
 BAR2 EZ I         936 40.30         3.5 0.36            171           37.6  44 
 RUS  HZ EP        936 26.42                             152   -0.2010 62.7 143 
 RUS  HZ I         936 38.64         2.3 0.52            144           62.7 143 
 RUS  HN ES        936 41.66                             152    0.2110 62.7 143 
 BRR  HZ EP        936 27.93                             142    0.1910 89.9 339 
 ZAR  HZ EP        936 38.91                             117    0.29 9  203 309 
 ZAR  HN ES        937  2.58                             117   -0.23 9  203 309 
 ZAR  HZ I         937  8.48         1.9 0.54            114            203 309 
 SML  HZ EP        936 46.97                             109   -0.33 7  281 345 
 SML  HE ES        937 18.54                             109    0.27 7  281 345 
                                                                                
