 2012  113 0055 40.8 L   6.745 -73.129150.0  RSN  7 0.5 1.7LRSN                1
 GAP=141        0.85       7.6     7.1  9.0  0.7378E+01  0.9132E+01  0.1208E+02E
 Epicentro: JORDAN - SANTANDER                                                 3
 ACTION:UP  12-02-03 08:16 OP:REBC STATUS:               ID:20120113005540 L   I
 2012-01-13-0050-00M.COL___187                                                 6
 STAT SP IPHASW D HRMM SECON CODA AMPLIT PERI AZIMU VELO SNR AR TRES W  DIS CAZ7
 BAR2 SZ ES   2    056 15.43                             173    -1.1 5   18 199 
 GIR2 SZ EP   1    056  0.93                             165    -0.2 7   38 349 
 GIR2 SZ ES   2    056 17.12                             165     0.1 5   38 349 
 BRR  HZ EP        056  2.74                             152     0.110   76 302 
 BRR  HZ I         056  3.03        16.9 0.16                            76 302 
 BRR  HN ES   1    056 20.47                             152     0.7 7   76 302 
 PAM  SZ EP   2    056  3.95                             151     0.3 5   81  36 
 PAM  SN ES   2    056 21.14                             151    -0.4 5   81  36 
 RUS  HZ EP   1    056  4.80                             147     0.3 7   94 177 
 RUS  HN ES   2    056 23.55                             147     0.5 5   94 177 
 RUS  HZ I         056 24.72         3.9 0.45                            94 177 
 PTB  HZ EP   1    056  7.72                             133    -0.5 7  148 261 
 PTB  HN ES   2    056 29.21                             133    -0.3 5  148 261 
 ZAR  HE ES   2    056 39.50                             123    -0.3 4  208 294 
 ZAR  HZ I         056 45.99         6.2 0.33                           208 294 
                                                                                
