 2017  213 0530  6.1 L   6.837 -73.148152.7  RSN 24 0.6 2.7LRSN                1
 GAP= 65        1.44       4.5     4.4  6.4  0.1850E+01  0.5673E+01  0.4227E+01E
 Epicentro: LOS SANTOS - SANTANDER                                             3
 ACTION:UPD 17-05-24 15:35 OP:jn   STATUS:               ID:20170213053006 L   I
 OLDACT:UP  17-02-13 18:10 OP:edw  STATUS:               ID:20170213052738     3
 OLDACT:UP  17-02-13 18:08 OP:edw  STATUS:               ID:20170213052738     3
 OLDACT:REG 17-02-13 11:54 OP:edw  STATUS:               ID:20170213052738     3
 2017-02-13-0528-00M.COL___352                                                 6
 STAT SP IPHASW D HRMM SECON CODA AMPLIT PERI AZIMU VELO AIN AR TRES W  DIS CAZ7
 BAR2 EZ IP     D  530 26.59                             169   -0.0210 27.3 188 
 BAR2 EZ ES        530 41.57                             169   -1.0710 27.3 188 
 BAR2 EZ I         530 42.73       129.6 0.30            171           27.3 188 
 BRR  HZ IP     C  530 28.38                             154    0.5210 69.1 296 
 BRR  HN ES        530 45.51                             154    0.6610 69.1 296 
 BRR  HZ I         530 48.68        53.5 0.28            151           69.1 296 
 PAM  EZ IP     C  530 29.43                             152    0.5710 74.5  42 
 PAM  EN ES        530 46.30                             152   -0.3410 74.5  42 
 PAM  EZ I         530 48.83       104.3 0.52            150           74.5  42 
 RUS  HZ IP     D  530 30.50                             143   -0.2910  105 176 
 RUS  HN ES        530 49.56                             143   -0.5210  105 176 
 RUS  HZ I         530 50.92        81.6 0.46            144            105 176 
 PTB  HZ EP   9    530 33.29                             133   -0.37 0  148 257 
 PTB  HN ES        530 53.71                             133   -1.10 9  148 257 
 PTB  HZ I         531  1.23        46.4 0.26            131            148 257 
 TAM  HZ IP     D  530 35.01                             131    0.59 9  156 106 
 TAM  HZ I         530 55.93        25.2 0.38            131            156 106 
 TAM  HN ES        530 56.64                             131    0.10 9  156 106 
 ZAR  HZ EP        530 39.20                             123    0.40 9  202 291 
 ZAR  HN ES        531  4.34                             123    0.02 9  202 291 
 ZAR  HZ I         531  9.98        53.2 0.46            121            202 291 
 NOR  HZ EP        530 42.70                             119    0.26 8  237 234 
 NOR  HN ES   4    531  9.47                             119   -1.33 0  237 234 
 NOR  HZ I         531 13.28        25.8 0.30            118            237 234 
 CHI  HZ EP        530 44.82                             117    0.25 8  252 195 
 CHI  HN ES        531 14.11                             117   -0.49 8  252 195 
 CHI  HZ I         531 17.64        41.8 0.56            117            252 195 
 ROSC BZ EP   4    530 46.78                             117    1.85 0  256 211 
 ROSC BN ES        531 16.10                             117    0.85 8  256 211 
 ROSC BZ I         531 21.30        81.2 0.40            116            256 211 
 URE  HZ EP   9    530 46.26                             114   -1.03 0  282 291 
 URE  HN ES        531 17.42                             115   -0.99 7  282 291 
 URE  HZ I         531 30.39        23.6 0.28            113            282 291 
 PTGC HZ IP     D  530 49.74                             112   -0.94 7  313 159 
 PTGC HN ES   4    531 22.99                             112   -2.48 0  313 159 
 PTGC HZ I         531 25.00        23.8 0.30            111            313 159 
 LL6C HN EP   4    530 32.42                             111   -19.2 0  321 358 
 LL6C HN ES   4    531  7.97                             111   -19.2 0  321 358 
 ELA  HZ EP   4    530 55.83                             111    2.33 0  332 229 
 ELA  HN ES   4    531 32.65                             111    2.16 0  332 229 
 ELA  HZ I         531 39.37        20.7 0.52            110            332 229 
 CBOC HZ EP   4    530 54.83                             110    1.44 0  335 251 
 CBOC HN ES   4    531 28.96                             110   -1.34 0  335 251 
 CBOC HZ I         531 36.21         7.9 0.44            109            335 251 
 DBB  EZ EP        530 54.32                             110    0.55 7  339 274 
 DBB  EN ES   4    531 29.35                             110   -1.63 0  339 274 
 DBB  EZ I         531 31.37        13.2 0.30            109            339 274 
 ARGC HZ EP   4    530 57.09                             109    1.54 0  355 340 
 ARGC HN ES   4    531 35.64                             109    1.50 0  355 340 
 ARGC HZ I         531 42.57         7.0 0.52            108            355 340 
 APAC HZ EP        531  0.44                             107    0.12 6  397 287 
 APAC HN ES        531 41.87                             107   -0.77 6  397 287 
 APAC HZ I         531 47.43         9.3 0.36            106            397 287 
 ORTC HZ EP        531  1.26                             107    0.67 6  399 216 
 ORTC HN ES        531 42.90                             107   -0.23 6  399 216 
 ORTC HZ I         531 47.98        20.9 0.30            106            399 216 
 SJC  HZ EP   9    531  0.40                             106   -1.05 0  406 327 
 SJC  HN ES        531 41.85                             107   -1.75 6  406 327 
 SJC  HZ I         531 54.11         9.7 0.32            105            406 327 
 CRJC HZ EP        531  7.03                             104   -1.26 5  464   4 
 CRJC HN ES   4    531 51.58                             104   -5.24 0  464   4 
 CRJC HZ I         532  1.80        15.4 0.38            103            464   4 
 YOT  HZ EP        531  9.18                             104   -0.42 5  474 228 
 SMAR HZ EP        531 10.40                             103   -1.25 4  493 346 
 SMAR HN ES   4    531 59.56                             103   -3.24 0  493 346 
 MACC HZ EP   4    531 13.84                             102   -1.58 0  525 189 
 MACC HN ES   4    532  5.28                             102   -4.24 0  525 189 
 MACC HZ I         532 10.93        11.4 0.88            101            525 189 
 FLO2 HZ EP        531 29.04                              99   -0.71 2  644 206 
 FLO2 HN ES   4    532 32.50                              99   -2.52 0  644 206 
                                                                                
