 2010 1013 0728 16.8 L   6.766 -73.071136.0  RSN  6 0.2 1.6LRSN                1
 GAP=200        0.56       4.4     6.0  6.2 -0.9932E+01 -0.6236E+01  0.3333E+00E
 Epicentro: LOS SANTOS - SANTANDER                                             3
 ACTION:UP  11-02-18 11:09 OP:tino STATUS:               ID:20101013072816 L   I
 2010-10-13-0724-35S.COL___124                                                 6
 STAT SP IPHASW D HRMM SECON CODA AMPLIT PERI AZIMU VELO SNR AR TRES W  DIS CAZ7
 BAR2 SZ EP        728 35.26                             170     0.010   23 213 
 BAR2 SZ ES   2    728 49.44                             170    -0.2 5   23 213 
 BAR2 SZ I         728 51.16        10.4 0.13                            23 213 
 BTL  SZ EP        728 35.53                             168     0.210   28 308 
 BRR  HZ EP        728 37.16                             148    -0.310   80 298 
 BRR  HN ES   1    728 53.87                             148     0.3 7   80 298 
 BRR  HZ I         728 55.10        11.7 0.12                            80 298 
 GRA  SZ IP        728 41.20                             135    -0.110  127  13 
 GRA  SZ ES   1    729  0.65                             135     0.2 7  127  13 
 GRA  SZ I         729  9.01         2.9 0.40                           127  13 
 OCA  SZ EP   1    728 44.93                             127     0.1 7  165 350 
 OCA  SZ ES   2    729  6.31                             127    -0.4 5  165 350 
 OCA  SZ I         729 10.69         5.2 0.23                           165 350 
 HEL  HZ EP   2    728 57.73                             112     0.4 4  279 257 
 HEL  HN ES   3    729 28.46                             112    -0.5 2  279 257 
 HEL  HZ I         729 34.53         2.5 0.47                           279 257 
                                                                                
