 2015  713 0648 12.1 L   7.443 -73.181129.9  RSN  4 0.3 1.4LRSN                1
 GAP=112        0.71       3.8     4.1  7.0  0.3372E+01  0.1453E+02  0.4486E+01E
 Epicentro: EL PLAYON - SANTANDER                                              3
 ACTION:UPD 15-09-08 21:48 OP:cam  STATUS:               ID:20150713064812 L   I
 OLDACT:DUP 15-07-13 16:37 OP:spq  STATUS:               ID:20150713063736d    3
 2015-07-13-0637-35M.COL___337                                                 6
 STAT SP IPHASW D HRMM SECON CODA AMPLIT PERI AZIMU VELO AIN AR TRES W  DIS CAZ7
 PAM  EZ EP        648 31.47                             156    0.1710 54.4 102 
 PAM  EN ES        648 46.66                             156    0.3710 54.4 102 
 PAM  EZ I         648 47.51         6.1 0.16            159           54.4 102 
 OCA  HZ EP        648 32.84                             143   -0.1310 89.3 350 
 OCA  HE ES        648 49.01                             143   -0.2710 89.3 350 
 OCA  HZ I         648 51.07         7.0 0.13            145           89.3 350 
 BAR2 EZ EP        648 33.32                             142   -0.1210 94.1 180 
 BAR2 EZ ES   1    648 49.57                             142   -0.54 7 94.1 180 
 BAR2 EZ I         648 50.82         5.1 0.22            144           94.1 180 
 ZAR  HZ EP        648 41.56                             121    0.02 9  185 272 
 ZAR  HE ES        649  4.87                             121    0.34 9  185 272 
 ZAR  HZ I         649  6.63         2.8 0.32            123            185 272 
                                                                                
