 2017 1013 0807 28.8 L   6.892 -73.121137.1  RSN  5 0.4 1.2LRSN                1
 GAP=249        0.91       8.8     7.1  7.5  0.4269E+02  0.7059E+01 -0.9267E+00E
 Epicentro: PIEDECUESTA - SANTANDER                                            3
 ACTION:UPD 17-11-07 19:31 OP:rebc STATUS:               ID:20171013080728 L   I
 OLDACT:UP  17-10-13 19:40 OP:leo  STATUS:               ID:20171013075746     3
 OLDACT:UP  17-10-13 19:39 OP:leo  STATUS:               ID:20171013075746     3
 OLDACT:UP  17-10-13 19:38 OP:leo  STATUS:               ID:20171013075746     3
 OLDACT:UP  17-10-13 19:37 OP:leo  STATUS:               ID:20171013075746     3
 OLDACT:REG 17-10-13 14:17 OP:leo  STATUS:               ID:20171013075746     3
 2017-10-13-0758-00M.COL___426                                                 6
 STAT SP IPHASW D HRMM SECON CODA AMPLIT PERI AZIMU VELO AIN AR TRES W  DIS CAZ7
 BAR2 EZ EP        8 7 47.94                             165    0.3110 33.9 192 
 BAR2 EZ ES        8 8  2.00                             165   -0.3410 33.9 192 
 BAR2 EZ I         8 8  4.15         5.3 0.52            149           33.9 192 
 RUS  HZ EP        8 7 51.94                             139   -0.5110  111 178 
 RUS  HN ES        8 8 11.47                             139    0.5410  111 178 
 RUS  HZ I         8 8 11.85         2.1 0.30            119            111 178 
 PTB  HZ EP        8 7 55.43                             129   -0.08 9  153 255 
 PTB  HN ES        8 8 16.09                             129   -0.28 9  153 255 
 PTB  HZ I         8 8 18.99         1.5 0.42            113            153 255 
 ZAR  HZ EP   4    8 8  1.99                             120    1.44 0  203 289 
 ZAR  HN ES        8 8 25.73                             120    0.38 9  203 289 
 ZAR  HZ I         8 8 31.53         2.3 0.30            107            203 289 
 CHI  HZ EP     C  8 8  7.21                             114    0.05 8  259 195 
 CHI  HZ I         8 8 41.36         1.1 0.36            102            259 195 
                                                                                
