 2012  713 0755 43.9 L   6.808 -73.155143.4  RSN 11 0.4 2.1LRSN                1
 GAP= 70        0.98       3.7     3.8  6.4 -0.1694E+01  0.6474E+01  0.2210E+01E
 Epicentro: LOS SANTOS - SANTANDER                                             3
 ACTION:UPD 12-08-14 11:44 OP:ep   STATUS:               ID:20120713075543 L   I
 2012-07-13-0750-00M.COL___197                                                 6
 STAT SP IPHASW D HRMM SECON CODA AMPLIT PERI AZIMU VELO AIN AR TRES W  DIS CAZ7
 BAR2 SZ EP   1    756  3.35                             170     0.1 7   24 187 
 BAR2 SZ ES   1    756 18.38                             170     0.0 7   24 187 
 BAR2 SZ I         756 19.71        38.2 0.21            171             24 187 
 BRR  HZ EP   1    756  5.22                             153     0.5 7   70 298 
 BRR  HN ES   1    756 21.76                             153     0.8 7   70 298 
 BRR  HZ I         756 26.41        26.6 0.20            151             70 298 
 PAM  SZ EP   1    756  6.23                             150     0.3 7   77  41 
 PAM  SN ES        756 22.94                             150    -0.110   77  41 
 PAM  SZ I         756 25.86        12.8 0.38            153             77  41 
 RUS  HZ EP   1    756  7.20                             143    -0.3 7  102 176 
 RUS  HN ES        756 25.77                             143    -0.110  102 176 
 RUS  HZ I         756 26.96        17.9 0.29            146            102 176 
 PTB  HZ EP   1    756 10.22                             132    -0.4 7  147 258 
 PTB  HN ES        756 30.87                             132    -0.6 9  147 258 
 PTB  HZ I         756 34.62        11.6 0.12            132            147 258 
 TAM  HZ EP   1    756 11.56                             130     0.0 7  156 105 
 OCA  HZ EP   1    756 11.99                             129     0.0 7  159 353 
 OCA  HN ES   1    756 33.16                             129    -0.7 7  159 353 
 OCA  HZ I         756 37.58        38.2 0.20            131            159 353 
 ZAR  HZ EP   1    756 16.23                             122     0.1 6  203 292 
 ZAR  HN ES   1    756 41.45                             122     0.3 6  203 292 
 ZAR  HZ I         756 43.72        10.4 0.12            123            203 292 
 NOR  SZ EP   1    756 19.20                             118    -0.3 6  234 234 
 NOR  SN ES   1    756 47.48                             118     0.3 6  234 234 
 CHI  HZ EP   1    756 21.02                             116    -0.5 6  249 195 
 CHI  HN ES   1    756 51.69                             116     0.8 6  249 195 
 CHI  HZ I         756 53.95         3.6 0.09            119            249 195 
 HEL  HZ EP   1    756 24.82                             114     0.9 6  271 256 
 HEL  HN ES        756 54.93                             114    -0.2 8  271 256 
 HEL  HZ I         757  2.23         8.8 0.27            116            271 256 
