 2010  813 0842  4.8 L   6.754 -73.117140.4  RSN  7 0.4 1.6LRSN                1
 GAP=162        0.99       9.2    13.3 11.0  0.7639E+01 -0.6834E+02 -0.3366E+02E
 Epicentro: LOS SANTOS - SANTANDER                                             3
 ACTION:UP  10-09-07 10:54 OP:vdl  STATUS:               ID:20100813084204 L   I
 2010-08-13-0837-36S.COL___126                                                 6
 STAT SP IPHASW D HRMM SECON CODA AMPLIT PERI AZIMU VELO SNR AR TRES W  DIS CAZ7
 BAR2 SZ EP        842 23.73                             172     0.010   19 202 
 BAR2 SZ ES   1    842 38.41                             172     0.0 7   19 202 
 BAR2 SZ I         842 40.06        10.8 0.43                            19 202 
 GIR2 SZ EP   1    842 23.80                             164    -0.2 7   37 347 
 GIR2 SZ ES   2    842 38.84                             164    -0.1 5   37 347 
 BRR  HZ EP        842 25.53                             150    -0.210   77 301 
 BRR  HZ I         842 26.13        15.2 0.30                            77 301 
 BRR  HE ES   1    842 42.23                             150     0.3 7   77 301 
 RUS  HZ EP   2    842 28.01                             144     0.4 5   95 178 
 RUS  HZ I         842 46.98         2.8 0.30                            95 178 
 GUE  SZ EP        842 28.78                             137    -0.610  121  10 
 GRA  SZ EP        842 30.59                             135     0.710  130  15 
 GRA  SZ I         842 31.74         7.1 0.28                           130  15 
 OCA  SZ ES   3    842 56.03                             127     0.6 2  166 352 
 OCA  SZ I         842 58.79         6.6 0.16                           166 352 
                                                                                
