 2010  713 0441 39.9 L   6.774 -73.146145.7  RSN 10 0.4 1.8LRSN                1
 GAP=156        1.09       5.0    10.2 10.1 -0.1701E+02 -0.4220E+01 -0.7208E+00E
 Epicentro: LOS SANTOS - SANTANDER                                             3
 ACTION:UPD 10-12-01 15:17 OP:pat  STATUS:               ID:20100713044139 L   I
 2010-07-13-0437-06S.COL___120                                                 6
 STAT SP IPHASW D HRMM SECON CODA AMPLIT PERI AZIMU VELO AIN AR TRES W  DIS CAZ7
 BAR2 SZ IP        441 59.28                             172    -0.210   21 192 
 BAR2 SZ I         442 15.40        21.8 0.16                            21 192 
 GIR2 SZ EP   2    441 59.39                             166    -0.3 5   34 351 
 BRR  HZ IP     C  442  1.12                             152     0.010   73 301 
 BRR  HZ I         442  5.42        11.6 0.11                            73 301 
 BRR  HE ES   1    442 17.99                             152     0.3 7   73 301 
 RUS  HZ EP   1    442  3.30                             145    -0.2 7   98 176 
 RUS  HE ES   1    442 21.88                             145     0.0 7   98 176 
 RUS  HZ I         442 23.61         6.1 0.40                            98 176 
 BRI  SZ IP        442  3.85                             141    -0.210  111  20 
 BRI  SZ I         442 28.22         8.5 0.73                           111  20 
 GUE  SZ EP   1    442  4.94                             139     0.1 7  119  12 
 GUE  SZ I         442  6.74         4.3 0.08                           119  12 
 GRA  SZ IP        442  6.10                             137     0.710  128  17 
 GRA  SZ I         442  7.22        10.7 0.28                           128  17 
 GRA  SZ ES   1    442 25.87                             137     0.6 7  128  17 
 OCA  SZ IP        442  7.68                             129    -0.8 9  163 353 
 OCA  SZ ES   2    442 30.34                             129    -0.5 5  163 353 
 OCA  SZ I         442 38.01        10.3 0.52                           163 353 
 HEL  HZ EP   2    442 20.90                             115     0.8 4  271 256 
 HEL  HZ I         442 56.93         4.1 0.33                           271 256 
 PRA  HZ EP   1    442 33.64                             107     0.5 4  390 210 
 PRA  HN ES   1    443 14.93                             107     0.2 4  390 210 
                                                                                
