 2015  713 0419 32.2 L   6.777 -73.196144.4  RSN  4 0.1 1.8LRSN                1
 GAP=179        0.43       1.8     6.0  3.7 -0.1478E+01  0.6808E+01 -0.1724E+01E
 Epicentro: ZAPATOCA - SANTANDER                                               3
 ACTION:UPD 15-09-08 21:48 OP:cam  STATUS:               ID:20150713041932 L   I
 OLDACT:DUP 15-07-13 20:01 OP:drio STATUS:               ID:20150713040747d    3
 OLDACT:REG 15-07-13 12:55 OP:spq  STATUS:               ID:20150713040745     3
 2015-07-13-0407-45M.COL___337                                                 6
 STAT SP IPHASW D HRMM SECON CODA AMPLIT PERI AZIMU VELO AIN AR TRES W  DIS CAZ7
 BAR2 EZ EP        419 51.40                             172   -0.2010 20.5 176 
 BAR2 EZ ES        420  6.69                             172   -0.0510 20.5 176 
 BAR2 EZ I         420  8.27        22.7 0.18            173           20.5 176 
 PAM  EZ EP        419 54.56                             149   -0.0410 82.9  41 
 PAM  EN ES        420 12.09                             149    0.0110 82.9  41 
 PAM  EZ I         420 14.24         7.8 0.60            150           82.9  41 
 RUS  HZ EP        419 55.56                             144   -0.1010 98.6 173 
 RUS  HE ES        420 14.17                             144    0.2010 98.6 173 
 RUS  HZ I         420 15.60         8.4 0.28            147           98.6 173 
 OCA  HZ EP        420  0.83                             129    0.25 9  162 355 
 OCA  HE ES        420 22.69                             129   -0.04 9  162 355 
 OCA  HZ I         420 25.61        10.2 0.22            130            162 355 
                                                                                
