 2016 1113 0119 29.6 L   6.784 -73.109136.5  RSN 12 0.4 2.0LRSN                1
 GAP= 98        0.88       4.1     4.2  5.1 -0.7892E+01 -0.3505E+01  0.9622E+01E
 Epicentro: LOS SANTOS - SANTANDER                                             3
 ACTION:UPD 17-10-26 21:07 OP:lp   STATUS:               ID:20161113011929 L   I
 OLDACT:UP  16-11-13 15:22 OP:and  STATUS:               ID:20161113010751d    3
 OLDACT:DUP 16-11-13 15:10 OP:and  STATUS:               ID:20161113010751d    3
 OLDACT:UP  16-11-13 15:08 OP:and  STATUS:               ID:20161113010750     3
 OLDACT:REG 16-11-13 12:37 OP:and  STATUS:               ID:20161113010750     3
 2016-11-13-0108-00M.COL___340                                                 6
 STAT SP IPHASW D HRMM SECON CODA AMPLIT PERI AZIMU VELO AIN AR TRES W  DIS CAZ7
 BAR2 EZ IP     D  119 47.70                             170   -0.4110 22.7 201 
 BAR2 EZ ES        120  2.78                             170    0.2410 22.7 201 
 BAR2 EZ I         120  4.70        16.4 0.32            167           22.7 201 
 BRR  HZ EP        119 49.67                             149   -0.3710 75.7 298 
 BRR  HE ES        120  6.48                             149    0.5110 75.7 298 
 BRR  HZ I         120  9.64        12.0 0.28            149           75.7 298 
 PAM  EZ EP        119 50.81                             149    0.0310 76.3  36 
 PAM  EN ES        120  7.12                             149   -0.1710 76.3  36 
 PAM  EZ I         120  9.56        25.8 0.50            154           76.3  36 
 TAM  HZ IP     D  119 56.06                             129   -0.09 9  151 105 
 PTB  HZ EP   9    119 54.60                             129   -1.58 0  151 260 
 PTB  HN ES        120 14.97                                   -0.36 9  151 260 
 PTB  HZ I         120 19.41         8.8 0.14            129            151 260 
 NOR  HZ EP        120  5.54                             116    0.47 8  237 235 
 NOR  HN ES        120 31.94                             116   -0.79 8  237 235 
 NOR  HZ I         120 39.05         6.4 0.18            117            237 235 
 CHI  HZ EP        120  7.16                             115    0.42 8  248 196 
 CHI  HN ES        120 35.50                             115   -0.20 8  248 196 
 CHI  HZ I         120 38.45         3.8 0.20            116            248 196 
 ROSC BZ EP   9    120  8.71                             114    1.40 0  253 212 
 ROSC BN ES        120 37.99                                   -0.12 8  253 212 
 ROSC BZ I         120 42.65         9.0 0.40            115            253 212 
 PTGC HZ EP   9    120 11.14                             110   -1.56 0  306 159 
 PTGC HN ES        120 44.41                                   -0.34 7  306 159 
 PRA  HZ EP        120 22.76                             105   -0.12 6  392 210 
 PRA  HN ES        121  5.15                             105    0.72 6  392 210 
 PRA  HZ I         121 12.44         3.1 0.38            106            392 210 
 ORTC HZ EP        120 23.67                             105    0.33 6  396 217 
 ORTC HN ES   4    121  7.07                             105    1.82 0  396 217 
 SJC  HZ EP   4    120 22.67                             104   -2.66 0  413 327 
 SJC  HN ES   4    121  3.70                             104   -5.08 0  413 327 
 SJC  HZ I         121  7.45         3.8 0.52            105            413 327 
                                                                                
