 2010 1013 0506 15.1 L   6.717 -73.117143.4  RSN  4 0.3 1.5LRSN                1
 GAP=193        0.71       7.5    11.1 10.1 -0.2230E+02 -0.2551E+02 -0.1255E+02E
 Epicentro: JORDAN - SANTANDER                                                 3
 ACTION:UP  11-02-18 11:09 OP:tino STATUS:               ID:20101013050615 L   I
 2010-10-13-0504-22S.COL___124                                                 6
 STAT SP IPHASW D HRMM SECON CODA AMPLIT PERI AZIMU VELO SNR AR TRES W  DIS CAZ7
 BAR2 SZ EP   1    5 6 34.38                             174     0.0 7   16 208 
 BAR2 SZ ES   2    5 6 49.36                             174     0.0 5   16 208 
 BAR2 SZ I         5 6 51.12        11.3 0.25                            16 208 
 BRR  HZ EP        5 6 36.23                             150    -0.210   79 303 
 BRR  HN ES   2    5 6 53.24                             150     0.1 5   79 303 
 BRR  HZ I         5 6 55.99         5.9 0.13                            79 303 
 GRA  SZ EP        5 6 41.15                             134     0.310  134  15 
 GRA  SZ ES   2    5 7  0.32                             134    -0.6 5  134  15 
 GRA  SZ I         5 7  2.25         3.3 0.12                           134  15 
 OCA  SZ EP   2    5 6 43.75                             127    -0.4 5  170 352 
 OCA  SZ ES   2    5 7  7.49                             127     0.7 5  170 352 
 OCA  SZ I         5 7 10.37         3.0 0.12                           170 352 
                                                                                
