 2010  813 0458 23.8 L   6.763 -73.130145.2  RSN  8 0.6 1.7LRSN                1
 GAP=161        1.50       8.0    12.6 11.8 -0.2992E+02  0.2662E+02  0.9025E+01E
 Epicentro: LOS SANTOS - SANTANDER                                             3
 ACTION:UP  10-09-07 10:54 OP:vdl  STATUS:               ID:20100813045823 L   I
 2010-08-13-0455-40S.COL___126                                                 6
 STAT SP IPHASW D HRMM SECON CODA AMPLIT PERI AZIMU VELO SNR AR TRES W  DIS CAZ7
 BAR2 SZ EP        458 43.38                             172     0.010   20 197 
 BAR2 SZ ES        458 57.70                             172    -0.810   20 197 
 BAR2 SZ I         458 59.83        10.8 0.31                            20 197 
 BTL  SZ IP        458 43.60                             170     0.210   23 319 
 BRR  HZ IP     C  458 45.26                             150     0.110   75 301 
 BRR  HZ I         458 46.78        10.8 0.11                            75 301 
 BRR  HE ES   1    459  2.65                             150     0.9 7   75 301 
 RUS  HZ EP   1    458 47.17                             145    -0.1 7   96 177 
 RUS  HE ES   1    459  6.32                             145     0.8 7   96 177 
 RUS  HZ I         459  7.15         3.1 0.19                            96 177 
 GRA  SZ EP   1    458 49.45                             136     0.1 7  129  16 
 GRA  SZ ES   2    459  8.13                             136    -1.1 5  129  16 
 GRA  SZ I         459 13.31         3.6 0.34                           129  16 
 CHI  HZ EP   1    459  1.26                             117     0.1 6  245 196 
 CHI  HZ I         459  2.31         2.9 0.59                           245 196 
 RREF HN ES        459 44.72                             111    -0.9 7  320 230 
 RREF HZ I         459 56.03         3.1 1.11                           320 230 
 PRA  HN ES   1    459 59.09                             107     0.6 4  389 210 
 PRA  HZ I         5 0  5.02         3.5 0.91                           389 210 
                                                                                
