 2014  413 0348 51.7 L   6.811 -73.214135.5  RSN 14 0.5 2.2LRSN                1
 GAP= 67        1.15       3.1     4.3  7.2 -0.4593E+01  0.8015E+01  0.1279E+01E
 Epicentro: ZAPATOCA - SANTANDER                                               3
 ACTION:UPD 14-05-13 23:08 OP:nd   STATUS:               ID:20140413034851 L   I
 OLDACT:UP  14-04-15 04:25 OP:CAM  STATUS:               ID:20140413034851 L   3
 OLDACT:REG 14-04-13 14:26 OP:stll STATUS:               ID:20140413034812     3
 2014-04-13-0348-12M.COL___263                                                 6
 STAT SP IPHASW D HRMM SECON CODA AMPLIT PERI AZIMU VELO AIN AR TRES W  DIS CAZ7
 PAM  SZ IP     C  349 13.39                             147    0.3210 81.5  44 
 PAM  SN ES        349 29.94                             147    0.1810 81.5  44 
 PAM  HZ I         349 32.20        38.1 0.50            154           81.5  44 
 RUS  HZ EP        349 14.54                             141   -0.0410  103 172 
 RUS  HN ES        349 32.62                             141    0.1710  103 172 
 PTB  HZ EP        349 17.12                             131   -0.04 9  141 258 
 PTB  HN ES        349 36.55                             131   -0.49 9  141 258 
 PTB  HZ I         349 40.15        19.0 0.20            131            141 258 
 OCA  HZ EP        349 18.72                             128   -0.29 9  158 356 
 OCA  HN ES        349 40.36                             128    0.02 9  158 356 
 OCA  HZ I         349 44.43        16.2 0.22            130            158 356 
 SPBC HZ EP        349 18.89                             127   -0.16 9  160 217 
 SPBC HE ES        349 41.21                             127    0.81 9  160 217 
 SPBC HZ I         349 48.21        15.2 0.32            129            160 217 
 TAM  HZ IP     D  349 18.70                             127   -0.60 9  163 105 
 TAM  HN ES   4    349 39.08                             127   -1.76 0  163 105 
 ZAR  HZ EP        349 23.48                             121    0.79 9  197 293 
 ZAR  HN ES   4    349 48.91                             121    2.04 0  197 293 
 ZAR  HZ I         349 54.89        21.6 0.50            122            197 293 
 NOR  HZ EP        349 26.87                             117    0.63 8  229 233 
 NOR  HN ES        349 52.53                             117   -0.68 8  229 233 
 NOR  HZ I         350  0.35         9.5 0.40            119            229 233 
 SML  HZ EP        349 26.71                             116   -0.57 8  239 337 
 SML  HN ES   2    349 54.99                             116   -0.06 4  239 337 
 SML  HZ I         350  3.51        18.9 0.08            118            239 337 
 CHI  HZ EP        349 28.62                             115   -0.13 8  248 193 
 CHI  HN ES        349 56.80                             115   -0.87 8  248 193 
 CHI  HZ I         350  4.55         6.4 1.84            118            248 193 
 HEL  HZ EP   4    349 31.91                             113    1.31 0  265 255 
 HEL  HE ES   4    350  0.78                             113   -0.18 0  265 255 
 HEL  HZ I         350 10.42         6.1 1.72            115            265 255 
 GUY2CHZ EP        349 34.69                             111    0.48 7  296 234 
 GUY2CHN ES        350  6.51                             111   -0.88 7  296 234 
 GUY2CHZ I         350 15.25         7.4 0.32                           296 234 
 SOCV BZ EP   4    349 32.98                             110   -1.94 0  307  58 
 SOCV BN ES   4    350  4.23                             110   -4.42 0  307  58 
 SDV  BZ EP   4    349 40.12                             106   -1.81 0  365  51 
 SDV  BN ES   4    350 17.71                             106   -3.42 0  365  51 
 PRA  HZ EP     C  349 44.92                             105    0.37 6  389 209 
 PRA  HN ES        350 25.68                             105   -0.12 6  389 209 
 ORTC HZ EP        349 45.32                             105    0.46 6  392 215 
 ORTC HN ES        350 27.59                             105    1.24 6  392 215 
 ORTC HZ I         350 32.24         3.9 1.14            107            392 215 
                                                                                
