 2016  913 0201 16.5 L   6.795 -73.120153.0  RSN  7 0.4 1.9LRSN                1
 GAP=140        0.89       4.2     4.4  5.9 -0.3347E+01  0.4370E+01  0.1702E+01E
 Epicentro: LOS SANTOS - SANTANDER                                             3
 ACTION:UPD 17-08-17 21:09 OP:lp   STATUS:               ID:20160913020116 L   I
 OLDACT:REG 16-09-13 11:59 OP:and  STATUS:               ID:20160913015732     3
 2016-09-13-0158-00M.COL___318                                                 6
 STAT SP IPHASW D HRMM SECON CODA AMPLIT PERI AZIMU VELO AIN AR TRES W  DIS CAZ7
 BAR2 EZ IP     D  2 1 36.90                             171   -0.0910 23.4 197 
 BAR2 EZ ES        2 1 52.99                             171    0.0110 23.4 197 
 BAR2 EZ I         2 1 53.86        10.8 0.20            170           23.4 197 
 BRR  HZ EP     D  2 1 38.75                             153    0.1710 73.9 298 
 BRR  HN ES        2 1 56.18                             153    0.3810 73.9 298 
 BRR  HZ I         2 1 59.94        14.5 0.16            150           73.9 298 
 PAM  EZ EP     D  2 1 40.01                             152    0.6010 76.1  38 
 PAM  EE ES        2 1 56.87                             152   -0.4110 76.1  38 
 PAM  EZ I         2 1 59.00         9.3 0.18            155           76.1  38 
 RUS  HZ EP        2 1 40.80                             145   -0.1110 99.8 178 
 RUS  HN ES        2 1 59.73                             145   -0.2210 99.8 178 
 RUS  HZ I         2 2  0.48         6.2 0.28            148           99.8 178 
 PTB  HZ EP        2 1 43.53                             133   -0.76 9  150 259 
 PTB  HE ES        2 2  5.79                             133   -0.18 9  150 259 
 PTB  HZ I         2 2 10.68         9.8 0.25            132            150 259 
 SPBC HZ EP        2 1 45.87                             130    0.20 9  164 220 
 SPBC HN ES        2 2  8.86                             130    0.42 9  164 220 
 SPBC HZ I         2 2 12.40        13.8 0.20            131            164 220 
 ZAR  HZ EP   2    2 1 49.64                             123   -0.06 4  207 292 
 ZAR  HN ES   2    2 2 15.43                             123   -0.18 4  207 292 
 ZAR  HZ I         2 2 21.13        11.4 0.30            123            207 292 
                                                                                
