 2016  913 0913 37.4 L   6.767 -73.126142.0  RSN  7 0.3 1.1LRSN                1
 GAP=141        0.75       3.2     3.2  6.0 -0.6458E+00  0.3024E+01  0.2850E+01E
 Epicentro: LOS SANTOS - SANTANDER                                             3
 ACTION:UPD 17-08-17 21:09 OP:lp   STATUS:               ID:20160913091337 L   I
 OLDACT:DUP 16-09-13 17:34 OP:ar   STATUS:               ID:20160913090742d    3
 OLDACT:REG 16-09-13 14:56 OP:and  STATUS:               ID:20160913090740     3
 2016-09-13-0908-00M.COL___318                                                 6
 STAT SP IPHASW D HRMM SECON CODA AMPLIT PERI AZIMU VELO AIN AR TRES W  DIS CAZ7
 BAR2 EZ EP     C  913 56.66                             171    0.1310 20.3 198 
 BRR  HZ EP        913 58.24                             151   -0.1310 74.9 300 
 BRR  HN ES        914 15.15                             151    0.4210 74.9 300 
 BRR  HZ I         914 33.11         3.8 0.24            152           74.9 300 
 PAM  EZ EP        913 59.65                             150    0.3310 78.9  37 
 PAM  EN ES        914 16.11                             150   -0.3010 78.9  37 
 PAM  EZ I         914 19.60         2.0 0.60            155           78.9  37 
 RUS  HZ EP        914  0.77                             144    0.2510 96.8 177 
 RUS  HN ES        914 18.17                             144   -0.3810 96.8 177 
 RUS  HZ I         914 20.27         1.3 0.32            154           96.8 177 
 PTB  HZ EP        914  3.81                             131   -0.41 9  149 260 
 PTB  HN ES        914 25.05                             131   -0.07 9  149 260 
 PTB  HZ I         914 26.75         1.7 0.42            137            149 260 
 SPBC HZ EP        914  5.44                             128   -0.05 9  162 220 
 SPBC HN ES        914 27.71                             128    0.32 9  162 220 
 SPBC HZ I         914 30.50         2.0 0.30            137            162 220 
 ZAR  HN ES        914 35.19                             121   -0.18 8  208 293 
                                                                                
