 2014  813 0748 53.4 L   6.763 -73.175139.7  RSN  5 0.4 1.4LRSN                1
 GAP=231        1.14       6.5     7.1  8.4  0.1078E+02  0.9257E+01  0.6457E+01E
 Epicentro: LOS SANTOS - SANTANDER                                             3
 ACTION:UPD 14-09-15 21:49 OP:nd   STATUS:               ID:20140813074000 L   I
 OLDACT:UP  14-08-13 15:57 OP:cam  STATUS:               ID:20140813074000 L   3
 OLDACT:UPD 14-08-13 15:40 OP:CF   STATUS:               ID:20140813074000 L   3
 2014-08-13-0740-00M.COL___285                                                 6
 STAT SP IPHASW D HRMM SECON CODA AMPLIT PERI AZIMU VELO AIN AR TRES W  DIS CAZ7
 BAR2 SZ EP        749 11.99                             172   -0.1910 18.9 182 
 BAR2 SZ ES        749 26.15                             172   -0.7010 18.9 182 
 BAR2 SZ I         749 27.90         6.0 0.14            171           18.9 182 
 BRR  HZ EP        749 13.96                             152    0.1510 70.5 303 
 BRR  HN ES        749 30.56                             152    0.7910 70.5 303 
 BRR  HN I         749 30.96        13.8 0.22            152           70.5 303 
 RUS  HZ EP        749 16.41                             144    0.1710 96.8 174 
 RUS  HN ES        749 34.29                             144    0.2010 96.8 174 
 RUS  HZ I         749 35.34         2.8 0.38            144           96.8 174 
 PTB  HZ EP        749 19.06                             131   -0.41 9  144 260 
 PTB  HN ES        749 39.28                             131   -0.56 9  144 260 
 PTB  HZ I         749 41.89         2.2 0.16            132            144 260 
 SPBC HZ EP        749 21.01                             129    0.11 9  158 219 
 SPBC HN ES        749 42.78                             129    0.41 9  158 219 
 SPBC HZ I         749 44.24         1.5 0.10            129            158 219 
                                                                                
