 2016  113 0609 22.9 L   6.782 -73.143149.4  RSN  6 0.4 1.4LRSN                1
 GAP=138        0.98       4.7     5.0  6.7 -0.5942E+01  0.4280E+01  0.3237E+01E
 Epicentro: LOS SANTOS - SANTANDER                                             3
 ACTION:UPD 16-03-09 23:24 OP:cam  STATUS:               ID:20160113060922 L   I
 OLDACT:REG 16-01-13 12:08 OP:drio STATUS:               ID:20160113060743     3
 2016-01-13-0607-43M.COL___328                                                 6
 STAT SP IPHASW D HRMM SECON CODA AMPLIT PERI AZIMU VELO AIN AR TRES W  DIS CAZ7
 BAR2 EZ EP        6 9 42.89                             171   -0.0810 21.4 192 
 BAR2 EZ ES        6 9 58.19                             171   -0.4010 21.4 192 
 BAR2 EZ I         610  1.07         4.3 0.36            172           21.4 192 
 BRR  HZ EP        6 9 44.69                             153    0.1410 72.5 300 
 BRR  HN ES        610  2.28                             153    0.8710 72.5 300 
 BRR  HZ I         610  4.66         3.1 0.44            154           72.5 300 
 PAM  EZ EP        6 9 45.57                             151   -0.0510 78.7  38 
 PAM  EE ES        610  3.03                             151   -0.2810 78.7  38 
 PAM  EZ I         610  5.02         4.3 0.56            154           78.7  38 
 RUS  HZ EP        6 9 47.10                             145    0.1910 98.6 176 
 RUS  HE ES        610  5.77                             145    0.1710 98.6 176 
 RUS  HZ I         610  7.03         2.8 0.50            147           98.6 176 
 PTB  HZ EP        6 9 49.92                             133   -0.28 9  148 260 
 PTB  HN ES        610 10.82                             133   -0.64 9  148 260 
 PTB  HZ I         610 12.86         4.1 0.14            135            148 260 
 SPBC HZ EP        6 9 51.82                             130    0.23 9  162 220 
 SPBC HN ES        610 14.00                             130    0.06 9  162 220 
 SPBC HZ I         610 16.48         4.7 0.10            132            162 220 
                                                                                
