 2010  513 0805 11.7 L   7.204 -72.958154.3  RSN  7 0.3 1.8LRSN                1
 GAP=168        0.63       2.9     6.3  4.8 -0.6409E+01 -0.2872E+01  0.2348E+01E
 Epicentro: TONA - SANTANDER                                                   3
 ACTION:UP  10-08-24 10:04 OP:vdl  STATUS:               ID:20100513080511 L   I
 2010-05-13-0805-06S.COL___104                                                 6
 STAT SP IPHASW D HRMM SECON CODA AMPLIT PERI AZIMU VELO AIN AR TRES W  DIS CAZ7
 BRI  SZ EP        8 5 33.63                             158     0.210   59  17 
 BRI  SZ ES   1    8 5 50.60                             158     0.2 7   59  17 
 GUE  SZ EP        8 5 34.04                             155    -0.110   69   3 
 GUE  SZ ES   1    8 5 51.50                             155    -0.1 7   69   3 
 BAR2 SZ EP        8 5 33.86                             154    -0.310   72 200 
 BAR2 SZ ES   1    8 5 51.53                             154    -0.1 7   72 200 
 GRA  SZ EP        8 5 34.31                             152     0.010   77  13 
 GRA  SZ ES   1    8 5 51.82                             152    -0.1 7   77  13 
 BRR  HZ EP        8 5 34.68                             150     0.210   84 263 
 BRR  HZ I         8 5 35.15        12.7 0.12                            84 263 
 BRR  HN ES   1    8 5 52.50                             150     0.2 7   84 263 
 OCA  SZ EP        8 5 37.45                             140     0.110  121 341 
 OCA  SZ ES   2    8 5 56.15                             140    -1.2 5  121 341 
 RUS  HZ EP        8 5 39.67                             135    -0.1 9  146 185 
 RUS  HE ES   1    8 6  1.78                             135     0.0 7  146 185 
 RUS  HZ I         8 6  3.51         5.7 0.53                           146 185 
                                                                                
