 2014  513 0825 20.6 L   6.798 -73.149139.0  RSN  9 0.6 1.7LRSN                1
 GAP=136        1.39       3.6     5.7  9.8 -0.3621E+01  0.1647E+02 -0.1446E+01E
 Epicentro: LOS SANTOS - SANTANDER                                             3
 ACTION:UPD 15-03-16 16:57 OP:nd   STATUS:               ID:20140513082520 L   I
 OLDACT:REG 14-05-13 14:20 OP:spq  STATUS:               ID:20140513081809     3
 2014-05-13-0818-09M.COL___248                                                 6
 STAT SP IPHASW D HRMM SECON CODA AMPLIT PERI AZIMU VELO AIN AR TRES W  DIS CAZ7
 PAM  SZ EP        825 42.48                             149    0.3410 77.8  40 
 PAM  SZ I         825 42.65        13.2 0.20            154           77.8  40 
 PAM  SN ES        825 59.23                             149    0.3010 77.8  40 
 RUS  HZ EP        825 43.76                             142    0.0710  100 176 
 RUS  HZ I         825 44.72         4.8 0.16            146            100 176 
 RUS  HE ES        826  1.71                             142    0.0210  100 176 
 PTB  HZ EP        825 46.33                             130   -0.67 9  147 259 
 PTB  HN ES        826  7.26                             130   -0.32 9  147 259 
 PTB  HZ I         826 13.40         4.4 0.32            131            147 259 
 OCA  HZ EP        825 48.79                             128    0.37 9  160 353 
 OCA  HN ES        826  8.73                             128   -1.39 9  160 353 
 OCA  HZ I         826 14.90         3.2 0.24            130            160 353 
 SPBC HZ EP        825 48.41                             127   -0.15 9  163 219 
 SPBC HN ES        826 11.03                             127    0.67 9  163 219 
 SPBC HZ I         826 16.81         7.3 0.12            129            163 219 
 ZAR  HZ EP        825 53.06                             121    0.46 9  204 292 
 ZAR  HN ES        826 17.73                             121    0.18 9  204 292 
 ZAR  HZ I         826 23.31         6.9 0.30            122            204 292 
 NOR  HZ EP        825 56.27                             117    0.36 8  234 234 
 NOR  HE ES        826 23.40                             117   -0.05 8  234 234 
 NOR  HZ I         826 26.28         3.5 0.26            119            234 234 
 SML  HZ EP        825 56.13                             116   -0.75 8  244 335 
 SML  HN ES        826 26.33                             116    1.17 8  244 335 
 SML  HZ I         826 34.53         7.6 0.10            118            244 335 
 CHI  HZ EP        825 58.11                             116    0.20 8  248 195 
 CHI  HN ES        826 26.20                             116   -0.80 8  248 195 
 CHI  HZ I         826 35.37         1.5 0.40            118            248 195 
                                                                                
