 2017  213 0623 47.6 L   6.794 -73.102148.8  RSN  5 0.3 1.1LRSN                1
 GAP=142        0.73       3.8     4.1  5.2  0.3590E+01  0.4888E+01 -0.8906E+00E
 Epicentro: LOS SANTOS - SANTANDER                                             3
 ACTION:UPD 17-05-24 15:35 OP:jn   STATUS:               ID:20170213062347 L   I
 OLDACT:REG 17-02-13 12:00 OP:edw  STATUS:               ID:20170213061744     3
 2017-02-13-0618-00M.COL___337                                                 6
 STAT SP IPHASW D HRMM SECON CODA AMPLIT PERI AZIMU VELO AIN AR TRES W  DIS CAZ7
 BAR2 EZ EP     C  624  7.40                             170   -0.2010 24.0 202 
 BAR2 EZ ES        624 23.21                             170    0.0110 24.0 202 
 BAR2 EZ I         624 23.71         3.8 0.32            171           24.0 202 
 PAM  EZ EP        624 10.35                             152    0.3710 74.9  36 
 PAM  EN ES        624 27.09                             152   -0.3610 74.9  36 
 PAM  EZ I         624 29.60         1.7 0.22            153           74.9  36 
 BRR  HZ IP     C  624  9.31                             151   -0.0210 75.8 297 
 BRR  HN ES        624 26.75                             151    0.4710 75.8 297 
 BRR  HZ I         624 28.66         2.9 0.12            153           75.8 297 
 RUS  HZ EP        624 11.82                             145    0.2410 99.7 179 
 RUS  HN ES        624 30.10                             145   -0.1910 99.7 179 
 RUS  HZ I         624 32.65         1.9 0.24            146           99.7 179 
 ZAR  HZ EP        624 20.52                             122   -0.20 8  209 292 
 ZAR  HN ES        624 46.30                             122   -0.26 8  209 292 
                                                                                
