 2012  913 0257 50.8 L   6.740 -73.129139.7  RSN  6 0.1 1.6LRSN                1
 GAP=188        0.30       2.9     3.9  3.4  0.5330E+01 -0.1984E+00 -0.1646E+01E
 Epicentro: JORDAN - SANTANDER                                                 3
 ACTION:UPD 12-10-22 14:18 OP:ep   STATUS:               ID:20120913025750 L   I
 2012-09-13-0250-00M.COL___227                                                 6
 STAT SP IPHASW D HRMM SECON CODA AMPLIT PERI AZIMU VELO AIN AR TRES W  DIS CAZ7
 BAR2 SZ EP        258  9.65                             173    0.0410 17.3 200 
 BAR2 SZ ES   1    258 24.16                             173   -0.11 7 17.3 200 
 BAR2 SZ I         258 26.08        22.2 0.17                          17.3 200 
 GIR2 SZ EP   2    258  9.85                             164   -0.14 5 38.2 349 
 BRR  HZ EP        258 11.59                             150   -0.0210 76.2 302 
 BRR  HN ES   2    258 28.11                             150    0.28 5 76.2 302 
 BRR  HZ I         258 32.60         9.2 0.15                          76.2 302 
 RUS  HZ EP   1    258 13.52                             144    0.03 7 93.8 177 
 RUS  HZ I         258 14.67         3.0 0.13                          93.8 177 
 RUS  HN ES   1    258 31.20                             144    0.03 7 93.8 177 
 PTB  HN ES   2    258 37.93                             130   -0.13 5  148 262 
 PRA  HZ EP   2    258 43.63                             106    0.07 3  387 210 
                                                                                
