 2010  413 0852 24.1 L   6.838 -73.002144.4  RSN  6 0.6 2.2LRSN                1
 GAP=167        1.41      11.0    10.6 10.8 -0.6102E+02 -0.1782E+02  0.8606E+01E
 Epicentro: CEPITA - SANTANDER                                                 3
 ACTION:UPD 10-08-24 09:58 OP:vdl  STATUS:               ID:20100413085224 L   I
 2010-04-13-0848-03S.COL___097                                                 6
 STAT SP IPHASW D HRMM SECON CODA AMPLIT PERI AZIMU VELO AIN AR TRES W  DIS CAZ7
 BAR2 SZ EP        852 43.47                             166    -0.310   34 216 
 BAR2 SZ ES   1    852 58.87                             166    -0.3 7   34 216 
 BRR  HZ EP        852 45.89                             148     0.010   84 291 
 BRR  HN ES        853  3.13                             148     0.310   84 291 
 BRR  HZ I         853  7.33        16.3 0.47                            84 291 
 OCA  SZ EP        852 52.29                             129     0.1 9  159 347 
 OCA  SZ I         853 19.65        26.6 0.53                           159 347 
 HEL  HZ EP   1    853  4.79                             113    -1.3 5  288 256 
 HEL  HN ES   1    853 37.76                             113    -1.0 5  288 256 
 HEL  HZ I         853 43.22         6.7 0.60                           288 256 
 RREF BZ EP   1    853 11.73                             109    -0.1 5  337 231 
 RREF BN ES        853 50.54                             109     1.4 7  337 231 
 RREF BZ I         853 55.16         6.3 0.58                           337 231 
 SDV  BZ EP        853 12.77                             109     0.4 6  346  49 
                                                                                
