 2013  613 0659 17.1 L   6.788 -73.128151.3  RSN  9 0.4 1.9LRSN                1
 GAP=185        0.85       4.2     5.0  7.0  0.3571E+00  0.3890E+01 -0.4208E+01E
 Epicentro: LOS SANTOS - SANTANDER                                             3
 ACTION:UPD 14-01-08 09:54 OP:ep   STATUS:               ID:20130613065917 L   I
 OLDACT:REG 13-06-13 10:30 OP:cam  STATUS:               ID:20130613065847     3
 2013-06-13-0658-47M.COL___222                                                 6
 STAT SP IPHASW D HRMM SECON CODA AMPLIT PERI AZIMU VELO AIN AR TRES W  DIS CAZ7
 BAR2 SZ EP        659 37.29                             171   -0.0710 22.4 195 
 BAR2 SZ ES        659 52.84                             171   -0.3310 22.4 195 
 BAR2 SZ I         659 55.13        14.4 0.30            168           22.4 195 
 GIR2 SZ EP        659 37.79                             167    0.3310 33.0 347 
 BRR  HZ EP        659 39.14                             153    0.1810 73.5 299 
 BRR  HN ES        659 56.63                             153    0.6110 73.5 299 
 BRR  HZ I         659 57.88         6.8 0.14            149           73.5 299 
 RUS  HZ EP   1    659 41.17                             145   -0.11 7 99.1 177 
 RUS  HN ES        7 0  0.13                             145   -0.0210 99.1 177 
 RUS  HZ I         7 0  2.64         7.5 0.32            145           99.1 177 
 PTB  HZ EP   2    659 44.44                             133   -0.21 5  149 259 
 PTB  HN ES        7 0  5.48                             133   -0.67 9  149 259 
 PTB  HZ I         7 0 12.59        13.5 0.48            131            149 259 
 OCA  HE ES   2    7 0  7.89                             130   -0.62 5  162 353 
 NOR  HN ES        7 0 21.66                             119    0.25 8  235 235 
 SML  HZ EP   2    659 54.64                             118    0.40 4  246 335 
 SML  HN ES   2    7 0 22.50                             118   -0.72 4  246 335 
 SML  HZ I         7 0 25.78        17.9 0.24            119            246 335 
 HEL  HZ I         7 0 35.28         3.1 0.34            115            274 256 
                                                                                
