 2014  313 0749 32.5 L   6.820 -73.146143.2  RSN  7 0.4 1.6LRSN                1
 GAP=135        0.90       4.2     4.7  8.4 -0.3431E+01  0.1498E+02 -0.8125E+01E
 Epicentro: LOS SANTOS - SANTANDER                                             3
 OLDACT:REG 14-03-13 07:48 OP:fm   STATUS:               ID:20140313074811     3
 ACTION:UPD 14-04-09 23:16 OP:nd   STATUS:               ID:20140313074932 L   I
 OLDACT:UP  14-03-13 11:53 OP:fm   STATUS:               ID:20140313074811     3
 2014-03-13-0748-11M.COL___232                                                 6
 STAT SP IPHASW D HRMM SECON CODA AMPLIT PERI AZIMU VELO AIN AR TRES W  DIS CAZ7
 BAR2 SZ EP        749 51.93                             169    0.0610 25.5 189 
 BAR2 SZ ES   1    750  6.49                             169   -0.48 7 25.5 189 
 BAR2 SZ I         750  9.87        12.9 1.40            171           25.5 189 
 PAM  SZ EP        749 54.82                             151    0.4810 75.7  41 
 PAM  SN ES        750 11.57                             151    0.1910 75.7  41 
 PAM  SZ I         750 13.60         5.5 0.46            154           75.7  41 
 RUS  HZ EP   2    749 56.73                             143    0.57 5  103 176 
 RUS  HE ES   1    750 14.28                             143   -0.33 7  103 176 
 RUS  SZ I         750 15.81         2.4 0.94            146            103 176 
 PTB  HZ EP        749 58.82                             131   -0.47 9  148 258 
 PTB  HN ES        750 20.36                             131    0.17 9  148 258 
 PTB  SZ I         750 23.12         3.8 0.76            134            148 258 
 OCA  HN ES   1    750 21.86                             129   -0.31 7  158 353 
 ZAR  HN ES   1    750 30.67                             122    0.88 6  203 292 
 SML  HZ EP   1    750  8.39                             117   -0.37 6  242 335 
 SML  HE ES   1    750 36.39                             117   -0.66 6  242 335 
 SML  SZ I         750 40.32         6.4 0.08            119            242 335 
                                                                                
