 2016  313 0315 16.8 L   5.987 -73.698123.3  RSN  4 0.1 0.7LRSN                1
 GAP=125        0.45       2.2     2.5  5.1  0.1625E+01  0.5616E+01  0.5069E+01E
 Epicentro: GUAVATA - SANTANDER                                                3
 ACTION:UPD 16-05-13 21:23 OP:cam  STATUS:               ID:20160313031516 L   I
 OLDACT:DUP 16-03-13 16:35 OP:cara STATUS:               ID:20160313030748d    3
 2016-03-13-0307-47M.COL___292                                                 6
 STAT SP IPHASW D HRMM SECON CODA AMPLIT PERI AZIMU VELO AIN AR TRES W  DIS CAZ7
 RUS  HZ EP        315 36.32                             149    0.1810 68.8  99 
 RUS  HE ES        315 51.03                             149   -0.1810 68.8  99 
 RUS  HZ I         315 53.64         1.0 0.20            139           68.8  99 
 BAR2 EZ ES        315 52.98                             142    0.0810 87.9  40 
 PTB  HZ EP        315 37.81                             137   -0.2310  104 306 
 PTB  HN ES        315 54.70                             137    0.1110  104 306 
 PTB  HZ I         315 58.22         1.2 0.26            127            104 306 
 CHI  HZ EP        315 42.83                             126    0.01 9  150 181 
 CHI  HZ I         316  0.87         0.7 0.66            115            150 181 
 CHI  HE ES        316  3.13                             126    0.04 9  150 181 
                                                                                
