 2011  913 0048 34.0 L   6.753 -73.124138.9  RSN  4 0.1 1.6LRSN                1
 GAP=189        0.30       6.2    14.9  4.6  0.6860E+02  0.1719E+02  0.2489E-01E
 Epicentro: LOS SANTOS - SANTANDER                                             3
 ACTION:UPD 12-07-13 15:57 OP:ep   STATUS:               ID:20110913004834 L   I
 2011-09-13-0040-00M.COL___171                                                 6
 STAT SP IPHASW D HRMM SECON CODA AMPLIT PERI AZIMU VELO AIN AR TRES W  DIS CAZ7
 BAR2 SZ EP   1    048 52.71                             172   -0.01 7 18.9 200 
 BAR2 SZ ES   1    049  7.36                             172    0.04 7 18.9 200 
 BAR2 SZ I         049  8.73        10.2 0.24                          18.9 200 
 GIR2 SZ EP   3    048 52.73                             164   -0.30 2 36.9 348 
 GIR2 SZ ES   3    049  7.98                             164    0.11 2 36.9 348 
 BRR  HZ EP   1    048 54.68                             150   -0.02 7 75.9 301 
 BRR  HZ I         048 59.01         9.2 0.44                          75.9 301 
 RUS  HZ EP   2    048 56.85                             144    0.16 5 95.2 177 
 RUS  HE ES   2    049 14.26                             144   -0.13 5 95.2 177 
 RUS  HZ I         049 16.40         4.7 0.41                          95.2 177 
                                                                                
