 2014  713 0049 19.1 L   6.810 -73.123142.9  RSN 16 0.5 2.1LRSN                1
 GAP=102        1.23       3.3     4.1  5.9 -0.2045E+01  0.1994E+01  0.1220E+01E
 Epicentro: LOS SANTOS - SANTANDER                                             3
 ACTION:UPD 15-03-16 20:43 OP:nd   STATUS:               ID:20140713004919 L   I
 OLDACT:UP  14-07-28 10:52 OP:CAM  STATUS:               ID:20140713004919 L   3
 OLDACT:REG 14-07-13 13:21 OP:stll STATUS:               ID:20140713004815     3
 2014-07-13-0048-15M.COL___262                                                 6
 STAT SP IPHASW D HRMM SECON CODA AMPLIT PERI AZIMU VELO AIN AR TRES W  DIS CAZ7
 BAR2 SZ EP        049 38.86                             170    0.3910 25.0 195 
 BAR2 SZ ES        049 53.36                             170   -0.1710 25.0 195 
 BAR2 SZ I         049 55.53        23.3 0.20            167           25.0 195 
 BRR  HZ IP     D  049 40.90                             152    0.8210 72.9 297 
 BRR  HN ES        049 57.08                             152    0.6710 72.9 297 
 BRR  HZ I         050  1.87        17.6 0.16            149           72.9 297 
 PAM  SZ EP        049 41.64                             151    0.7310 74.9  39 
 PAM  SZ I         049 42.61         7.9 0.18            155           74.9  39 
 RUS  HZ EP        049 42.93                             143    0.2410  102 178 
 RUS  HN ES        050  0.83                             143   -0.2210  102 178 
 RUS  HZ I         050  2.33        10.8 0.46            144            102 178 
 PTB  HZ EP        049 45.54                             131   -0.59 9  150 259 
 PTB  HZ I         049 48.16        11.4 0.26            130            150 259 
 PTB  HN ES        050  6.67                             131   -0.50 9  150 259 
 OCA  HN ES        050  8.79                             129   -0.22 9  159 352 
 SPBC HZ EP        049 47.68                             128    0.02 9  166 219 
 SPBC HE ES        050  9.41                             128   -0.49 9  166 219 
 SPBC HZ I         050 11.25        18.8 0.20            128            166 219 
 ZAR  HZ EP        049 51.43                             122   -0.17 8  206 292 
 ZAR  HN ES        050 16.89                             122   -0.03 8  206 292 
 ZAR  HZ I         050 22.50        14.0 0.42            121            206 292 
 NOR  HZ IP     D  049 55.28                             118    0.28 8  237 235 
 NOR  HN ES        050 22.08                             118   -0.89 8  237 235 
 NOR  HZ I         050 31.01        12.0 0.20            117            237 235 
 SML  HZ EP        049 55.23                             117   -0.39 8  244 335 
 SML  HN ES        050 23.17                             117   -0.90 8  244 335 
 SML  HZ I         050 26.92        16.8 0.24            117            244 335 
 HEL  HZ EP        050  0.29                             114    0.77 8  275 256 
 HEL  HE ES        050 30.70                             114   -0.30 8  275 256 
 HEL  HZ I         050 38.42         6.8 0.38            114            275 256 
 SOCV BZ EP        050  1.15                             112   -0.61 7  299  57 
 GUY2CHZ EP   1    050  3.79                             112    0.86 5  304 235 
 GUY2CHN ES        050 37.38                             112    0.30 7  304 235 
 GUY2CHZ I         050 45.55         6.9 0.44                           304 235 
 PTGC HZ EP        050  1.95                             111   -0.94 7  309 159 
 RREF HZ EP        050  6.22                             110    0.75 7  324 230 
 RREF HN ES        050 42.25                             110    0.66 7  324 230 
 RREF HZ I         050 50.86         7.8 0.26            110            324 230 
 PRA  HZ EP        050 12.56                             106   -0.27 6  394 210 
 PRA  HN ES        050 54.56                             106   -0.14 6  394 210 
 PRA  HZ I         051  3.38         6.0 0.28            106            394 210 
                                                                                
