 2016 1113 0904 13.6 L   6.597 -73.676101.2  RSN  6 0.4 1.4LRSN                1
 GAP=139        1.11       6.4     5.1  9.3 -0.1533E+02  0.1623E+02 -0.8023E+00E
 Epicentro: EL CARMEN - SANTANDER                                              3
 ACTION:UPD 17-10-26 21:07 OP:lp   STATUS:               ID:20161113090413 L   I
 OLDACT:UP  16-11-13 21:40 OP:dnl  STATUS:               ID:20161113085744     3
 OLDACT:UP  16-11-13 21:39 OP:dnl  STATUS:               ID:20161113085744     3
 OLDACT:REG 16-11-13 13:27 OP:and  STATUS:               ID:20161113085744     3
 2016-11-13-0858-00M.COL___340                                                 6
 STAT SP IPHASW D HRMM SECON CODA AMPLIT PERI AZIMU VELO AIN AR TRES W  DIS CAZ7
 BAR2 EZ IP     C  9 4 29.90                             149    0.4910 54.6  91 
 BAR2 EZ ES        9 4 41.70                             149    0.0010 54.6  91 
 BAR2 EZ I         9 4 43.38        19.1 0.16            151           54.6  91 
 BRR  HZ IP     C  9 4 29.14                             148   -0.0510 56.5 356 
 BRR  HE ES        9 4 41.44                             148    0.1310 56.5 356 
 BRR  HZ I         9 4 42.64         4.1 0.10            146           56.5 356 
 PTB  HZ IP     C  9 4 30.49                             136   -0.9710 86.5 266 
 PTB  HN ES   4    9 4 43.34                             136   -2.02 0 86.5 266 
 PTB  HZ I         9 4 47.17         6.1 0.58            136           86.5 266 
 PAM  EZ EP        9 4 36.67                             122   -0.09 9  136  53 
 PAM  EE ES        9 4 54.59                             122   -0.20 9  136  53 
 PAM  EZ I         9 5  0.71         2.5 0.24            123            136  53 
 ZAR  HZ EP     D  9 4 39.73                             116    0.58 9  164 307 
 ZAR  HE ES   4    9 5  0.67                             116    1.63 0  164 307 
 ZAR  HZ I         9 5  3.57         8.2 0.62            116            164 307 
 NOR  HZ EP   4    9 4 38.69                             115   -1.71 0  175 229 
 NOR  HE ES        9 5  1.48                             115    0.22 9  175 229 
 NOR  HZ I         9 5  4.22         2.6 0.12            115            175 229 
                                                                                
