 2015  113 0647  7.9 L   6.811 -73.145146.0  RSN 17 0.5 2.3LRSN                1
 GAP= 71        1.23       3.0     3.3  5.7 -0.1067E+01  0.5171E+01  0.1850E+01E
 Epicentro: LOS SANTOS - SANTANDER                                             3
 ACTION:UPD 15-03-02 15:39 OP:nd   STATUS:               ID:20150113064707 L   I
 OLDACT:DUP 15-01-13 15:25 OP:carl STATUS:               ID:20150113063751d    3
 2015-01-13-0637-50M.COL___256                                                 6
 STAT SP IPHASW D HRMM SECON CODA AMPLIT PERI AZIMU VELO AIN AR TRES W  DIS CAZ7
 BAR2 EZ EP        647 27.67                             170    0.1310 24.5 190 
 BAR2 EZ ES        647 42.93                             170    0.0410 24.5 190 
 BAR2 EZ I         647 43.87        49.7 0.20            168           24.5 190 
 BRR  HZ IP     D  647 29.50                             153    0.5010 70.7 298 
 BRR  HN ES        647 46.70                             153    1.2010 70.7 298 
 BRR  HZ I         647 49.78        28.0 0.44            151           70.7 298 
 PAM  SZ EP        647 30.63                             151    0.5910 76.4  40 
 PAM  SN ES        647 47.59                             151    0.2410 76.4  40 
 PAM  SZ I         647 49.81        50.9 0.44            156           76.4  40 
 RUS  HZ EP        647 31.70                             144   -0.0110  102 176 
 RUS  HN ES        647 50.57                             144    0.2510  102 176 
 RUS  HZ I         647 51.39        33.3 0.26            145            102 176 
 PTB  HZ EP        647 34.13                             132   -0.74 9  148 258 
 PTB  HN ES        647 55.23                             132   -0.71 9  148 258 
 PTB  HZ I         648  2.40        29.3 0.20            131            148 258 
 TAM  HZ EP        647 36.11                             131    0.54 9  155 105 
 TAM  HN ES        647 55.83                             131   -1.37 9  155 105 
 TAM  HZ I         647 56.94        10.1 0.40            136            155 105 
 OCA  HZ EP        647 35.93                             130   -0.15 9  159 353 
 OCA  HN ES        647 57.54                             130   -0.55 9  159 353 
 OCA  HZ I         648  4.73        19.9 0.32            132            159 353 
 SPBC HZ EP        647 36.50                             129    0.04 9  164 219 
 SPBC HN ES        647 58.57                             129   -0.21 9  164 219 
 SPBC HZ I         648  5.71        43.0 0.20            129            164 219 
 ZAR  HZ EP        647 40.26                             123   -0.02 9  204 292 
 ZAR  HN ES        648  5.31                             123   -0.26 9  204 292 
 ZAR  HZ I         648 11.04        12.9 0.24            123            204 292 
 NOR  HZ EP        647 43.90                             119    0.22 8  235 234 
 NOR  HN ES        648 11.15                             119   -0.47 8  235 234 
 NOR  HZ I         648 17.55        20.6 0.20            119            235 234 
 SML  HZ EP        647 44.04                             118   -0.34 8  243 335 
 SML  HN ES        648 12.45                             118   -0.42 8  243 335 
 SML  HZ I         648 17.09        25.3 0.20            119            243 335 
 CHI  HZ IP        647 45.80                             117    0.11 8  250 195 
 CHI  HN ES        648 15.03                             117   -0.17 8  250 195 
 CHI  HZ I         648 18.41        15.8 0.38            119            250 195 
 ROSC BZ EP   4    647 47.60                             117    1.50 0  254 211 
 ROSC BN ES   4    648 18.30                             117    2.37 0  254 211 
 ROSC BZ I         648 22.13        25.0 0.50            118            254 211 
 HEL  HZ EP        647 49.05                             115    0.93 8  272 256 
 HEL  HN ES        648 19.08                             115   -0.44 8  272 256 
 HEL  HZ I         648 25.64        13.4 0.28            115            272 256 
 RREF HZ EP   4    647 55.51                             111    1.41 0  323 229 
 RREF HE ES   4    648 30.43                             111    0.26 0  323 229 
 CBOC HZ EP        647 55.17                             110    0.34 7  334 252 
 CBOC HN ES        648 31.28                             110   -0.18 7  334 252 
 CBOC HZ I         648 41.58         3.1 0.50            111            334 252 
 ANIL HZ EP        647 58.09                             108    0.32 6  358 224 
 ANIL HE ES        648 36.97                             108    0.27 6  358 224 
 ANIL HZ I         648 47.40         3.2 0.30            110            358 224 
 ORTC HZ EP        648  1.92                             106    0.02 6  396 216 
 ORTC HN ES        648 44.17                             106    0.12 6  396 216 
 ORTC HZ I         648 49.06         7.6 0.34            108            396 216 
                                                                                
