 2016  413 0500  6.3 L   6.807 -73.154145.9  RSN 11 0.3 1.7LRSN                1
 GAP=135        0.83       2.8     3.3  5.1 -0.2643E+01  0.6906E+01 -0.1248E+01E
 Epicentro: LOS SANTOS - SANTANDER                                             3
 ACTION:UPD 16-05-05 14:20 OP:rebc STATUS:               ID:20160413050006 L   I
 OLDACT:UP  16-04-13 17:37 OP:mh   STATUS:               ID:20160413045747     3
 OLDACT:UP  16-04-13 17:28 OP:mh   STATUS:               ID:20160413045747     3
 OLDACT:UP  16-04-13 17:28 OP:mh   STATUS:               ID:20160413045747     3
 OLDACT:UP  16-04-13 17:27 OP:mh   STATUS:               ID:20160413045747     3
 OLDACT:REG 16-04-13 13:17 OP:mh   STATUS:               ID:20160413045747     3
 2016-04-13-0457-47M.COL___315                                                 6
 STAT SP IPHASW D HRMM SECON CODA AMPLIT PERI AZIMU VELO AIN AR TRES W  DIS CAZ7
 BAR2 EZ EP     C  5 0 25.92                             170   -0.0510 23.9 188 
 BAR2 EZ ES        5 0 41.29                             170   -0.0110 23.9 188 
 BAR2 EZ I         5 0 42.81         6.9 0.35            169           23.9 188 
 PAM  EZ IP     C  5 0 28.68                             151    0.1410 77.4  40 
 PAM  EN ES        5 0 46.06                             151    0.1810 77.4  40 
 PAM  EZ I         5 0 46.93         6.9 0.18            154           77.4  40 
 RUS  HZ EP        5 0 29.69                             144   -0.4510  101 176 
 RUS  HN ES        5 0 48.99                             144    0.2810  101 176 
 RUS  HZ I         5 0 49.33         3.2 0.16            149            101 176 
 PTB  HZ EP        5 0 32.77                             132   -0.45 9  147 258 
 PTB  HN ES        5 0 54.18                             132   -0.03 9  147 258 
 PTB  HZ I         5 1  1.14         7.8 0.40            131            147 258 
 OCA  HZ EP        5 0 34.86                             130    0.30 9  159 353 
 OCA  HN ES        5 0 55.95                             130   -0.63 9  159 353 
 OCA  HZ I         5 0 59.70        10.7 0.48            130            159 353 
 SPBC HZ EP        5 0 34.72                             129   -0.10 9  163 219 
 SPBC HN ES        5 0 57.12                             129    0.06 9  163 219 
 SPBC HZ I         5 0 59.43        10.6 0.22            131            163 219 
 ZAR  HZ EP   1    5 0 39.07                             123    0.42 6  203 292 
 ZAR  HN ES        5 1  4.38                             123    0.50 9  203 292 
 ZAR  HZ I         5 1 10.79         8.4 0.34            122            203 292 
 NOR  HZ EP   1    5 0 41.74                             119   -0.28 6  234 234 
 NOR  HN ES        5 1  9.82                             119   -0.05 8  234 234 
 NOR  HZ I         5 1 12.16         2.8 0.36            120            234 234 
 HEL  HZ EP        5 0 47.21                             115    0.75 8  271 256 
 HEL  HN ES        5 1 17.26                             115   -0.51 8  271 256 
 HEL  HZ I         5 1 24.63         4.1 0.47            116            271 256 
 URE  HZ EP   4    5 0 50.58                             114    3.31 0  283 292 
 URE  HN ES   4    5 1 17.29                             114   -1.92 0  283 292 
 URE  HZ I         5 1 31.27         3.6 0.36            114            283 292 
 GUY2CHZ EP        5 0 50.09                             112    0.20 7  301 235 
 GUY2CHN ES   4    5 1 27.20                             112    3.32 0  301 235 
 GUY2CHZ I         5 1 35.41         2.6 0.47                           301 235 
                                                                                
