 2012  213 0511  3.2 L   6.712 -73.151143.4  RSN  5 0.3 1.0LRSN                1
 GAP=182        0.49       6.0     6.4  8.1  0.1002E+02  0.5140E+01  0.9525E+01E
 ACTION:UP  12-03-07 16:30 OP:epov STATUS:               ID:20120213051103 L   I
 2012-02-13-0510-00M.COL___188                                                 6
 STAT SP IPHASW D HRMM SECON CODA AMPLIT PERI AZIMU VELO AIN AR TRES W  DIS CAZ7
 BAR2 SZ EP   2    511 22.49                             174    0.07 5 13.7 195 
 GIR2 SZ EP   2    511 22.92                             163    0.00 5 40.8 353 
 GIR2 SZ ES   2    511 37.74                             163   -0.54 5 40.8 353 
 BRR  HZ EP   2    511 24.75                             150    0.35 5 75.8 305 
 BRR  HZ I         511 25.12         2.8 0.13                          75.8 305 
 BRR  HN ES   2    511 41.39                             150    0.48 5 75.8 305 
 RUS  HZ EP   2    511 26.23                             146    0.15 5 91.0 175 
 RUS  HN ES   2    511 43.93                             146    0.04 5 91.0 175 
 RUS  HZ I         511 46.19         1.3 0.40                          91.0 175 
 PTB  HZ EP   2    511 29.24                             132   -0.58 5  146 263 
 PTB  HN ES   2    511 50.49                             132   -0.06 5  146 263 
                                                                                
