 2013 1113 0652 12.5 L   6.806 -73.152144.6  RSN 14 0.4 2.1LRSN                1
 GAP=182        0.95       2.8     4.1  5.3 -0.4602E+00  0.6941E+01 -0.9262E+00E
 Epicentro: LOS SANTOS - SANTANDER                                             3
 ACTION:UPD 14-01-09 16:27 OP:ep   STATUS:               ID:20131113065212 L   I
 OLDACT:REG 13-11-13 08:20 OP:nd   STATUS:               ID:20131113065000     3
 2013-11-13-0650-00M.COL___276                                                 6
 STAT SP IPHASW D HRMM SECON CODA AMPLIT PERI AZIMU VELO AIN AR TRES W  DIS CAZ7
 BAR2 SZ EP        652 32.12                             170    0.1310 23.9 188 
 BAR2 SZ ES        652 47.43                             170    0.2410 23.9 188 
 BAR2 SZ I         652 49.27        27.9 0.72            166           23.9 188 
 BRR  HZ EP        652 34.03                             153    0.5810 70.2 298 
 BRR  HN ES        652 49.63                             153   -0.1810 70.2 298 
 BRR  HZ I         652 57.16        10.5 0.22            154           70.2 298 
 RUS  HZ EP        652 35.98                             143   -0.1910  101 176 
 RUS  HN ES        652 54.17                             143   -0.4810  101 176 
 RUS  HZ I         652 57.60         8.9 0.32            137            101 176 
 PTB  HZ EP        652 38.74                             132   -0.56 9  147 259 
 PTB  HN IS        652 59.93                             132   -0.29 9  147 259 
 PTB  HZ I         653  2.26        16.7 0.38            130            147 259 
 OCA  HZ EP   4    652 39.31                             129   -1.33 0  160 353 
 OCA  HN ES        653  2.71                             129    0.12 9  160 353 
 OCA  HZ I         653  7.61        11.2 0.52            126            160 353 
 SPBC HZ EP        652 40.97                             129    0.07 9  163 219 
 SPBC HN ES        653  3.48                             129    0.42 9  163 219 
 SPBC HZ I         653  8.96        18.2 0.14            125            163 219 
 ZAR  HZ EP        652 44.95                             122    0.19 9  203 292 
 ZAR  HN ES        653 10.66                             122    0.73 9  203 292 
 ZAR  HZ I         653 17.25        12.5 0.48            120            203 292 
 NOR  HZ EP        652 48.39                             118    0.26 8  234 234 
 NOR  HN ES        653 16.13                             118    0.21 8  234 234 
 NOR  HZ I         653 19.85        13.6 0.16            115            234 234 
 SML  HZ EP        652 48.79                             117   -0.16 8  243 335 
 SML  HN ES        653 16.73                             117   -0.66 8  243 335 
 SML  HZ I         653 20.04        21.0 0.10            114            243 335 
 ROSC BZ EP   4    652 52.92                             116    2.36 0  253 211 
 ROSC BN ES   4    653 23.93                             116    3.67 0  253 211 
 HEL  HZ EP        652 52.31                             115   -0.27 8  272 256 
 HEL  HN ES        653 23.50                             115   -0.35 8  272 256 
 HEL  HZ I         653 31.51         5.6 0.43            112            272 256 
 GUY2CHZ EP   4    652 57.09                             112    1.07 0  301 235 
 GUY2CHN ES   4    653 30.68                             112    0.71 0  301 235 
 GUY2CHZ I         653 38.97         7.4 0.76                           301 235 
 PTGC HZ EP   4    652 54.83                             111   -1.56 0  310 159 
 PTGC HZ I         653 27.34         9.3 0.38            107            310 159 
 PTGC HN ES   4    653 27.75                             111   -2.89 0  310 159 
 CBOC HZ EP        652 60.00                             110    0.70 7  333 252 
 CBOC HN ES        653 35.17                             110   -0.63 7  333 252 
 CBOC HZ I         653 40.32         2.6 0.20            107            333 252 
 SJC  HZ EP   4    653  6.24                             105   -1.66 0  408 327 
 SJC  HN ES   4    653 47.47                             105   -3.65 0  408 327 
 SJC  HZ I         653 51.05         2.0 0.52            103            408 327 
                                                                                
