 2015 1113 0454  4.3 L   6.828 -73.122151.7  RSN 20 0.5 2.3LRSN                1
 GAP=138        1.07       2.9     4.3  5.7 -0.2946E+01  0.7386E+01  0.2774E+01E
 Epicentro: LOS SANTOS - SANTANDER                                             3
 ACTION:UPD 15-12-28 16:10 OP:cam  STATUS:               ID:20151113045404 L   I
 OLDACT:UP  15-11-19 06:51 OP:CARA STATUS:               ID:20151113045404 L   3
 OLDACT:UP  15-11-13 16:48 OP:dnl  STATUS:               ID:20151113044749     3
 OLDACT:UP  15-11-13 16:34 OP:dnl  STATUS:               ID:20151113044749     3
 OLDACT:REG 15-11-13 13:53 OP:dnl  STATUS:               ID:20151113044749     3
 2015-11-13-0447-49M.COL___319                                                 6
 STAT SP IPHASW D HRMM SECON CODA AMPLIT PERI AZIMU VELO AIN AR TRES W  DIS CAZ7
 BAR2 EZ EP     D  454 24.64                             169   -0.0610 26.9 194 
 BAR2 EZ ES   2    454 40.23                             169   -0.40 5 26.9 194 
 BAR2 EZ I         454 43.02        20.0 0.15            167           26.9 194 
 BRR  HZ EP        454 26.55                             153    0.4310 72.1 295 
 BRR  HE ES        454 43.63                             153    0.4710 72.1 295 
 BRR  HZ I         454 48.42        23.1 0.26            151           72.1 295 
 PAM  EZ EP     D  454 27.44                             153    0.5410 73.3  40 
 PAM  EE ES        454 44.60                             153    0.0510 73.3  40 
 PAM  EZ I         454 46.83        21.9 0.22            159           73.3  40 
 RUS  HZ EP     D  454 28.49                             144   -0.3410  104 178 
 RUS  HE ES        454 47.89                             144   -0.0910  104 178 
 RUS  HE I         454 49.06        19.2 0.15            146            104 178 
 OCA  HZ EP        454 33.22                             131    0.41 9  158 352 
 OCA  HN ES        454 54.57                             131   -0.48 9  158 352 
 OCA  HZ I         454 58.93        26.5 0.23            134            158 352 
 SPBC HZ EP        454 33.48                             130   -0.14 9  167 219 
 SPBC HN ES        454 56.10                             130   -0.40 9  167 219 
 SPBC HZ I         455  2.77        42.4 0.36            130            167 219 
 ZAR  HZ EP        454 35.93                             123   -1.32 8  205 291 
 ZAR  HN ES        455  3.30                             123    0.34 8  205 291 
 ZAR  HZ I         455  9.49        28.6 0.52            124            205 291 
 NOR  HZ EP        454 40.28                             119   -0.50 8  239 234 
 NOR  HE ES        455  8.96                             119   -0.28 8  239 234 
 NOR  HZ I         455 12.38        22.1 0.20            120            239 234 
 SML  HZ EP        454 40.96                             119   -0.10 8  242 334 
 SML  HN ES   2    455  8.61                             119   -1.14 4  242 334 
 SML  HZ I         455 15.06        28.3 0.10            121            242 334 
 CHI  HZ EP        454 42.55                             118   -0.16 8  252 196 
 CHI  HN ES   4    455 11.42                             118   -1.27 0  252 196 
 CHI  HZ I         455 19.84         5.6 0.36            120            252 196 
 ROSC BZ EP        454 44.01                             117    0.85 8  257 211 
 ROSC BE ES        455 13.10                             117   -0.39 8  257 211 
 ROSC BZ I         455 22.24        17.4 0.40            119            257 211 
 HEL  HZ EP   4    454 46.76                             116    1.60 0  275 255 
 HEL  HN ES   2    455 17.49                             116    0.44 4  275 255 
 HEL  HZ I         455 22.05         9.2 0.38            117            275 255 
 GUY2CHZ EP        454 49.29                             113    0.68 7  305 235 
 GUY2CHN ES   2    455 23.90                             113    0.72 4  305 235 
 GUY2CHZ I         455 29.78        11.2 0.27                           305 235 
 ELA  HZ EP   4    454 55.09                             111    3.25 0  333 229 
 ELA  HN ES   4    455 26.26                             111   -2.68 0  333 229 
 ELA  HZ I         455 40.27         6.3 0.26            112            333 229 
 CBOC HZ EP        454 52.34                             111    0.50 7  337 252 
 CBOC HE ES        455 28.48                             111   -0.45 7  337 252 
 CBOC HZ I         455 32.88         3.6 0.17            112            337 252 
 MON  HZ EP   4    454 51.49                             110   -2.04 0  354 308 
 MON  HN ES   4    455 29.46                             110   -2.48 0  354 308 
 MON  HZ I         455 32.97         3.1 0.25            111            354 308 
 ANIL HE ES   2    455 35.91                             109    1.74 3  361 224 
 ANIL HZ I         455 38.71        23.2 0.34            111            361 224 
 PRA  HZ EP        454 58.13                             107   -0.34 6  396 210 
 PRA  HN ES        455 40.96                             107    0.21 6  396 210 
 PRA  HZ I         455 45.34         5.9 0.38            109            396 210 
 ORTC HZ EP   2    454 59.01                             107    0.13 3  399 216 
 ORTC HN ES        455 42.14                             107    0.68 6  399 216 
 ORTC HZ I         455 47.55         4.4 0.20            109            399 216 
 SJC  HZ EP   4    454 58.52                             107   -1.38 0  408 326 
 SJC  HN ES   4    455 39.94                             107   -3.35 0  408 326 
 SJC  HZ I         455 47.09         2.7 0.26            108            408 326 
                                                                                
