 2014 1213 0358 25.8 L   6.510 -73.564111.6  RSN  8 0.5 1.5LRSN                1
 GAP= 74        1.15       3.6     4.2  7.8 -0.1766E+01  0.3459E+01 -0.9709E+01E
 Epicentro: SANTA HELENA DEL OPON - SANTANDER                                  3
 ACTION:UPD 15-02-10 17:03 OP:nd   STATUS:               ID:20141213035825 L   I
 OLDACT:DUP 14-12-13 16:48 OP:stll STATUS:               ID:20141213034747d    3
 2014-12-13-0347-45M.COL___294                                                 6
 STAT SP IPHASW D HRMM SECON CODA AMPLIT PERI AZIMU VELO AIN AR TRES W  DIS CAZ7
 BAR2 EZ EP        358 42.45                             157    0.3910 43.2  78 
 BAR2 EZ ES        358 55.22                             157    0.4710 43.2  78 
 BAR2 EZ I         358 56.35        27.5 0.52            158           43.2  78 
 BRR  HZ EP        358 43.30                             146    0.1510 68.0 346 
 BRR  HN ES        358 56.91                             146    0.2210 68.0 346 
 BRR  HZ I         358 58.02         2.9 0.10            146           68.0 346 
 RUS  HZ EP        358 45.49                             140    0.2810 86.6 142 
 RUS  HN ES        359  0.06                             140   -0.2910 86.6 142 
 RUS  HZ I         359  1.37         2.7 0.22            142           86.6 142 
 PTB  HZ EP        358 45.23                             135   -0.3210 98.7 272 
 PTB  HZ I         358 45.48         6.7 0.30            136           98.7 272 
 PTB  HN ES        359  0.30                             135   -0.6710 98.7 272 
 SPBC HN ES        359  3.33                             132    0.3710  110 211 
 SPBC HZ I         359  5.48         7.5 0.12            133            110 211 
 PAM  SZ EP        358 49.19                             127   -0.1210  132  46 
 PAM  SE ES        359  6.83                             127   -0.8110  132  46 
 PAM  SZ I         359  8.59         4.3 0.24            127            132  46 
 OCA  HN ES        359 17.96                             115   -0.25 9  193   8 
 OCA  HZ I         359 22.55         4.1 0.42            116            193   8 
 SML  HZ EP        359  2.36                             108   -0.22 8  259 348 
 SML  HN ES        359 32.24                             108    0.97 8  259 348 
 SML  HZ I         359 36.07         4.4 0.24            108            259 348 
                                                                                
