 2013  113 0803 25.4 L   6.755 -73.190145.6  RSN  6 0.4 1.5LRSN                1
 GAP=229        0.98       5.4     6.5  9.6  0.1855E+02  0.2388E+01  0.5092E+01E
 Epicentro: VILLANUEVA - SANTANDER                                             3
 ACTION:UPD 13-02-15 09:13 OP:ep   STATUS:               ID:20130113080325 L   I
 2013-01-13-0800-00M.COL___241                                                 6
 STAT SP IPHASW D HRMM SECON CODA AMPLIT PERI AZIMU VELO AIN AR TRES W  DIS CAZ7
 BAR2 SZ EP        8 3 44.56                             173   -0.3710 18.0 177 
 BAR2 SZ I         8 4  7.01         5.1 0.38            172           18.0 177 
 BRR  HZ EP        8 3 46.85                             153    0.4010 69.6 304 
 BRR  HN ES        8 4  3.23                             153    0.3710 69.6 304 
 BRR  HN I         8 4  5.45         9.5 0.18            150           69.6 304 
 RUS  HZ EP        8 3 49.10                             145    0.2710 96.1 173 
 RUS  HN ES        8 4  6.64                             145   -0.4510 96.1 173 
 RUS  HN I         8 4  9.52         2.0 0.16            143           96.1 173 
 PTB  HZ EP        8 3 51.82                             133   -0.03 9  142 260 
 PTB  HN ES        8 4 12.78                             133    0.31 9  142 260 
 PTB  HN I         8 4 18.25         9.2 0.60            132            142 260 
 ZAR  HN ES        8 4 21.93                             123   -0.74 9  201 294 
 ZAR  HN I         8 4 30.93         4.1 0.18            119            201 294 
 CHI  HN ES        8 4 31.44                             118    0.11 8  243 194 
 CHI  HN I         8 4 36.96         1.6 0.24            115            243 194 
                                                                                
