 2010  613 0001 21.1 L   6.774 -73.027146.1  RSN  4 0.3 1.7LRSN                1
 GAP=287        0.53       5.7     7.6  6.6 -0.2137E+01  0.1534E+02  0.6891E+01E
 Epicentro: CEPITA - SANTANDER                                                 3
 ACTION:UP  10-08-24 10:10 OP:vdl  STATUS:               ID:20100613000121 L   I
 2010-06-13-0000-00S.COL___113                                                 6
 STAT SP IPHASW D HRMM SECON CODA AMPLIT PERI AZIMU VELO SNR AR TRES W  DIS CAZ7
 BAR2 SZ IP        0 1 40.90                             169     0.110   27 221 
 BAR2 SZ ES   1    0 1 55.97                             169    -0.3 7   27 221 
 RUS  HZ EP   1    0 1 44.64                             145     0.0 7   98 184 
 RUS  HN ES   2    0 2  3.70                             145     0.6 5   98 184 
 RUS  HZ I         0 2  8.21         3.9 0.36                            98 184 
 CHI  HZ EP   2    0 1 59.02                             117     0.1 4  250 198 
 CHI  HN ES   1    0 2 28.10                             117    -0.3 6  250 198 
 CHI  HZ I         0 2 37.14         2.7 0.53                           250 198 
 HEL  HZ EP   2    0 2  2.69                             114     0.0 4  284 257 
 HEL  HN ES   2    0 2 35.32                             114     0.2 4  284 257 
 HEL  HZ I         0 2 40.12         5.8 0.37                           284 257 
                                                                                
