 2012  113 0747 21.9 L   6.683 -73.126157.4  RSN  6 0.3 1.5LRSN                1
 GAP=187        0.61       7.5     7.0  7.4  0.1885E+02  0.1083E+02  0.5660E+01E
 Epicentro: JORDAN - SANTANDER                                                 3
 ACTION:UP  12-02-03 08:17 OP:REBC STATUS:               ID:20120113074721 L   I
 2012-01-13-0740-00M.COL___186                                                 6
 STAT SP IPHASW D HRMM SECON CODA AMPLIT PERI AZIMU VELO SNR AR TRES W  DIS CAZ7
 BAR2 SZ EP   1    747 42.96                             176     0.2 7   12 212 
 BAR2 SZ ES   2    747 58.33                             176    -0.7 5   12 212 
 BAR2 SZ I         747 59.71         3.6 0.30                            12 212 
 GIR2 SZ EP   2    747 43.16                             163    -0.1 5   44 350 
 GIR2 SZ ES   2    747 59.64                             163    -0.4 5   44 350 
 BRR  HZ EP   1    747 44.94                             152     0.2 7   80 306 
 BRR  HZ I         747 45.08         9.6 0.18                            80 306 
 BRR  HN ES   1    748  2.98                             152     0.4 7   80 306 
 RUS  HN ES   2    748  4.97                             150     0.3 5   88 177 
 PTB  HZ EP   1    747 49.44                             134    -0.4 7  148 264 
 PTB  HN ES   2    748 11.73                             134     0.1 5  148 264 
 ZAR  HE ES   2    748 22.04                             124    -0.2 4  211 295 
                                                                                
