 2011 1213 0607 14.0 L   6.764 -73.180143.7  RSN  5 0.3 1.3LRSN                1
 GAP=176        0.58       4.9     5.0  6.3  0.1263E+02 -0.1623E+01 -0.5861E+00E
 Epicentro: VILLANUEVA - SANTANDER                                             3
 ACTION:UPD 12-07-13 16:15 OP:ep   STATUS:               ID:20111213060714 L   I
 2011-12-13-0600-00M.COL___184                                                 6
 STAT SP IPHASW D HRMM SECON CODA AMPLIT PERI AZIMU VELO AIN AR TRES W  DIS CAZ7
 GIR2 SZ EP   2    6 7 33.51                             166   -0.05 5 34.9 358 
 BRR  HZ EP   1    6 7 34.70                             153   -0.19 7 70.0 303 
 BRR  HN ES   1    6 7 51.52                             153    0.37 7 70.0 303 
 BRR  HZ I         6 7 52.47         3.9 0.10                          70.0 303 
 RUS  HZ EP   1    6 7 37.35                             144    0.03 7 96.9 174 
 RUS  HN ES        6 7 55.35                             144   -0.1310 96.9 174 
 RUS  HZ I         6 7 57.54         2.6 0.25                          96.9 174 
 PTB  HZ EP   1    6 7 40.08                             132   -0.35 7  143 260 
 PTB  HN ES        6 8  0.96                             132   -0.05 9  143 260 
 PTB  HZ I         6 8  3.34         3.7 0.14                           143 260 
 CHI  HZ EP   1    6 7 51.75                             117    0.66 6  244 195 
 CHI  HZ I         6 8 26.41         1.1 0.26                           244 195 
                                                                                
