 2014 1013 0602 31.9 L   7.610 -73.187133.3  RSN  4 0.4 1.4LRSN                1
 GAP=131        0.97       6.0     5.0  8.4 -0.1557E+01  0.1433E+02 -0.7558E+00E
 Epicentro: EL PLAYON - SANTANDER                                              3
 ACTION:UPD 14-11-29 23:49 OP:nd   STATUS:               ID:20141013060231 L   I
 OLDACT:DUP 14-10-13 16:50 OP:mh   STATUS:               ID:20141013055747d    3
 2014-10-13-0557-46M.COL___282                                                 6
 STAT SP IPHASW D HRMM SECON CODA AMPLIT PERI AZIMU VELO AIN AR TRES W  DIS CAZ7
 PAM  SZ EP        6 2 52.41                             154    0.5710 61.5 119 
 PAM  SN ES        6 3  7.28                             154   -0.1410 61.5 119 
 PAM  SZ I         6 3  9.38         4.1 0.16            157           61.5 119 
 OCA  HZ EP        6 2 51.19                             150   -0.7110 71.0 348 
 OCA  HN ES        6 3  7.84                             150    0.3210 71.0 348 
 OCA  HZ I         6 3  9.88         3.7 0.52            151           71.0 348 
 BRR  HZ EP        6 2 52.32                             147    0.0510 80.4 226 
 BRR  HN ES        6 3  7.92                             147   -0.2610 80.4 226 
 BRR  HZ I         6 3  9.27        10.2 0.15            149           80.4 226 
 ZAR  HZ EP        6 3  1.49                             122   -0.04 9  185 266 
 ZAR  HN ES        6 3 24.92                             122    0.26 9  185 266 
 ZAR  HZ I         6 3 27.18         1.9 0.18            124            185 266 
                                                                                
