 2012  113 0855 28.3 L   6.828 -73.133152.8  RSN  6 0.4 1.4LRSN                1
 GAP=205        0.60       6.7     7.4  8.7  0.1200E+02  0.6426E+01  0.1427E+02E
 Epicentro: LOS SANTOS - SANTANDER                                             3
 ACTION:UP  12-02-03 08:17 OP:REBC STATUS:               ID:20120113085528 L   I
 2012-01-13-0850-00M.COL___186                                                 6
 STAT SP IPHASW D HRMM SECON CODA AMPLIT PERI AZIMU VELO SNR AR TRES W  DIS CAZ7
 BAR2 SZ EP   2    855 48.59                             170    -0.3 5   27 192 
 BAR2 SZ ES   2    856  4.35                             170    -0.6 5   27 192 
 BAR2 SZ I         856  6.32         3.3 0.21                            27 192 
 GIR2 SZ EP   2    855 49.11                             169     0.3 5   29 346 
 BRR  HZ EP   1    855 50.57                             154     0.3 7   71 296 
 BRR  HE ES   2    856  7.80                             154     0.5 5   71 296 
 BRR  HZ I         856 15.76         6.9 0.49                            71 296 
 PTB  HZ EP   1    855 55.72                             133    -0.4 7  150 258 
 PTB  HE ES   2    856 17.56                             133    -0.1 5  150 258 
 ZAR  HE ES   2    856 26.83                             124    -0.1 4  204 291 
 CHI  HZ EP   2    856  6.58                             118    -0.2 4  252 195 
 CHI  HN ES   2    856 37.41                             118     0.6 4  252 195 
                                                                                
