 2016  513 0827 12.1 L   6.808 -73.121150.6  RSN 16 0.3 2.2LRSN                1
 GAP=139        0.76       2.6     3.4  4.0 -0.2560E+00  0.5506E+01  0.2214E+01E
 Epicentro: LOS SANTOS - SANTANDER                                             3
 ACTION:UPD 16-08-18 17:45 OP:cam  STATUS:               ID:20160513082712 L   I
 OLDACT:UP  16-05-13 14:57 OP:drio STATUS:               ID:20160513081742     3
 OLDACT:UP  16-05-13 14:57 OP:drio STATUS:               ID:20160513081742     3
 OLDACT:REG 16-05-13 12:36 OP:drio STATUS:               ID:20160513081742     3
 2016-05-13-0817-42M.COL___301                                                 6
 STAT SP IPHASW D HRMM SECON CODA AMPLIT PERI AZIMU VELO AIN AR TRES W  DIS CAZ7
 BAR2 EZ EP        827 32.19                             170   -0.1710 24.8 196 
 BAR2 EZ ES        827 47.56                             170   -0.5810 24.8 196 
 BAR2 EZ I         827 48.79        35.7 0.22            166           24.8 196 
 BRR  HZ EP        827 33.95                             153    0.0510 73.2 297 
 BRR  HN ES        827 51.28                             153    0.3910 73.2 297 
 BRR  HZ I         827 54.38        28.3 0.14            150           73.2 297 
 PAM  EZ EP        827 35.16                             152    0.4510 75.0  38 
 PAM  EE ES        827 52.53                             152    0.2010 75.0  38 
 PAM  EZ I         827 54.41        24.0 0.48            158           75.0  38 
 RUS  HZ EP        827 36.19                             145   -0.2110  101 178 
 RUS  HN ES        827 55.51                             145    0.1710  101 178 
 RUS  HZ I         827 56.98        16.6 0.26            143            101 178 
 PTB  HZ EP        827 39.13                             132   -0.61 9  151 259 
 PTB  HN ES   4    827 59.94                             132   -1.34 0  151 259 
 PTB  HZ I         828  2.04        22.5 0.14            131            151 259 
 SPBC HZ EP        827 41.40                             130    0.18 9  166 220 
 SPBC HN ES   4    828  3.10                             130   -0.81 0  166 220 
 SPBC HZ I         828  9.48        36.3 0.22            128            166 220 
 ZAR  HZ EP        827 44.86                             123   -0.24 8  206 292 
 ZAR  HN ES        828 10.62                             123   -0.21 8  206 292 
 NOR  HZ EP        827 48.30                             119   -0.12 8  237 235 
 NOR  HE ES   4    828 15.80                             119   -0.94 0  237 235 
 NOR  HZ I         828 18.72        17.1 0.18            118            237 235 
 CHI  HZ EP        827 50.31                             118    0.05 8  250 196 
 CHI  HE ES        828 20.16                             118    0.15 8  250 196 
 CHI  HZ I         828 25.90         8.3 0.30            118            250 196 
 ROSC BZ EP   4    827 52.51                             117    1.77 0  255 211 
 ROSC BN ES   4    828 25.21                             117    4.35 0  255 211 
 ROSC BZ I         828 30.34        14.6 0.35            117            255 211 
 LL6C HZ EP        827 57.57                             111   -0.37 7  324 357 
 CBOC HZ EP        828  0.09                             110    0.53 7  336 252 
 CBOC HN ES        828 36.84                             110    0.27 7  336 252 
 CBOC HZ I         828 53.34         3.7 0.54            110            336 252 
 PRA  HZ EP        828  6.07                             107    0.01 6  394 210 
 PRA  HE ES        828 47.63                             107   -0.50 6  394 210 
 PRA  HZ I         828 54.55         6.1 0.40            107            394 210 
 ORTC HZ EP        828  6.63                             107    0.15 6  398 216 
 ORTC HN ES   4    828 50.21                             107    1.33 0  398 216 
 ORTC HZ I         828 56.25         4.4 0.22            107            398 216 
 PAL  HZ EP        828  7.97                             106    0.20 6  408 239 
 PAL  HN ES        828 51.83                             106    0.66 6  408 239 
 PAL  HZ I         828 54.64         2.9 0.20            107            408 239 
 CRJC HZ EP   4    828 12.67                             104   -1.96 0  467   3 
 CRJC HN ES   4    829  0.05                             104   -3.34 0  467   3 
 CRJC HZ I         829  9.57         4.4 0.46            105            467   3 
                                                                                
