 2011  313 0921 44.3 L   6.818 -73.213142.0  RSN  5 0.3 1.5LRSN                1
 GAP=151        0.79       4.0     7.4  8.4 -0.1649E+02  0.3099E+02 -0.9407E+01E
 Epicentro: ZAPATOCA - SANTANDER                                               3
 ACTION:UP  11-06-16 14:33 OP:jfem STATUS:               ID:20110313092144 L   I
 2011-03-13-0921-12S.COL___134                                                 6
 STAT SP IPHASW D HRMM SECON CODA AMPLIT PERI AZIMU VELO SNR AR TRES W  DIS CAZ7
 BAR2 SZ ES   1    922 18.54                             169     0.0 9   25 173 
 BAR2 SZ I         922 22.14        12.6 0.21                            25 173 
 RUS  HZ EP   1    922  7.42                             142    -0.5 9  103 172 
 RUS  HN ES   1    922 26.67                             142     0.4 9  103 172 
 RUS  HZ I         922 28.62         3.7 0.28                           103 172 
 GRA  SZ EP   1    922  9.01                             136    -0.3 9  126  21 
 GRA  SZ ES   1    922 28.71                             136    -0.1 9  126  21 
 GRA  SZ I         922 29.97         7.6 0.29                           126  21 
 OCA  SZ EP   1    922 12.69                             129     0.6 8  158 356 
 OCA  SZ ES   1    922 33.62                             129    -0.1 8  158 356 
 OCA  SZ I         922 41.52         4.9 0.27                           158 356 
 NOR  SZ EP        922 19.57                             118     0.210  230 233 
 NOR  SN ES        922 46.44                             118    -0.210  230 233 
 NOR  SZ I         922 51.91         0.8 0.23                           230 233 
                                                                                
