 2016 1013 0232 42.6 L   6.709 -73.107140.2  RSN  7 0.4 1.4LRSN                1
 GAP=146        0.97       4.8     4.4  6.8 -0.9978E+00  0.9706E+01 -0.5249E+01E
 Epicentro: JORDAN - SANTANDER                                                 3
 ACTION:UPD 16-11-09 19:19 OP:rebc STATUS:               ID:20161013023242 L   I
 OLDACT:REG 16-10-13 12:38 OP:y    STATUS:               ID:20161013022744     3
 2016-10-13-0228-00M.COL___363                                                 6
 STAT SP IPHASW D HRMM SECON CODA AMPLIT PERI AZIMU VELO AIN AR TRES W  DIS CAZ7
 BAR2 EZ EP        233  1.68                             173    0.2410 15.3 213 
 BAR2 EZ ES        233 15.72                             173   -0.4010 15.3 213 
 BAR2 EZ I         233 17.90         4.3 0.20            171           15.3 213 
 BRR  HZ EP        233  3.70                             148   -0.0110 80.1 303 
 BRR  HE ES        233 20.91                             148    0.7510 80.1 303 
 BRR  HZ I         233 25.05         7.5 0.28            147           80.1 303 
 PAM  EZ EP        233  4.72                             148    0.1210 83.0  33 
 PAM  EN ES        233 21.37                             148   -0.3710 83.0  33 
 PAM  EZ I         233 23.77         4.1 0.44            151           83.0  33 
 RUS  HZ EP   2    233  5.86                             146    0.77 5 90.3 178 
 RUS  HN ES        233 22.70                             146    0.0910 90.3 178 
 PTB  HZ EP        233  8.80                             130   -0.58 9  150 263 
 PTB  HE ES        233 30.46                             130    0.21 9  150 263 
 PTB  HZ I         233 32.12         3.0 0.30            131            150 263 
 SPBC HN ES   2    233 30.94                             129   -0.82 5  158 222 
 SPBC HZ I         233 36.20         3.7 0.22            130            158 222 
 ZAR  HZ EP        233 15.68                             120    0.15 8  212 294 
 ZAR  HE ES        233 40.88                             120   -0.33 8  212 294 
 ZAR  HZ I         233 47.43         2.4 0.30            121            212 294 
                                                                                
