 2016 1013 0615 10.9 L   6.795 -73.143146.0  RSN  8 0.4 1.4LRSN                1
 GAP=137        0.90       3.1     4.2  6.3 -0.1178E+01  0.5872E+01  0.8465E-01E
 Epicentro: LOS SANTOS - SANTANDER                                             3
 ACTION:UPD 16-11-09 19:19 OP:rebc STATUS:               ID:20161013061510 L   I
 OLDACT:REG 16-10-13 12:49 OP:y    STATUS:               ID:20161013060747     3
 2016-10-13-0608-00M.COL___357                                                 6
 STAT SP IPHASW D HRMM SECON CODA AMPLIT PERI AZIMU VELO AIN AR TRES W  DIS CAZ7
 BAR2 EZ EP        615 30.28                             171   -0.2810 22.8 191 
 BRR  HZ EP        615 32.26                             152    0.1410 71.7 299 
 BRR  HN ES        615 49.28                             152    0.6210 71.7 299 
 BRR  HZ I         615 49.87         5.4 0.10            150           71.7 299 
 PAM  EZ EP        615 33.32                             151    0.1510 77.7  39 
 PAM  EN ES        615 50.56                             151    0.0210 77.7  39 
 PAM  EZ I         615 52.55         6.5 0.50            153           77.7  39 
 RUS  HZ EP        615 34.31                             144   -0.3410100.0 176 
 RUS  HN ES        615 53.28                             144    0.1210100.0 176 
 RUS  HZ I         615 53.98         2.2 0.28            148          100.0 176 
 PTB  HZ EP        615 37.82                             132   -0.09 9  148 259 
 PTB  HN ES   2    615 58.46                             132   -0.51 5  148 259 
 PTB  HZ I         616  4.27         1.5 0.26            132            148 259 
 OCA  HZ EP        615 39.12                             130   -0.18 9  161 353 
 OCA  HN ES        616  1.08                             130   -0.36 9  161 353 
 OCA  HZ I         616 10.07         4.9 0.32            131            161 353 
 SPBC HZ EP        615 39.76                             129    0.36 9  163 219 
 SPBC HN ES        616  1.34                             129   -0.28 9  163 219 
 SPBC HZ I         616  6.17         4.9 0.26            131            163 219 
 ZAR  HZ EP        615 44.15                             122    0.73 9  205 292 
 ZAR  HN ES        616  8.25                             122   -0.53 9  205 292 
 ZAR  HZ I         616 15.27         2.2 0.34            123            205 292 
                                                                                
