 2017  913 0317 40.5 L   6.774 -73.164149.7  RSN  4 0.2 1.4LRSN                1
 GAP=233        0.47       3.0     4.4  3.9  0.1014E+01  0.2521E+01  0.3967E+00E
 Epicentro: LOS SANTOS - SANTANDER                                             3
 ACTION:UPD 17-10-05 19:11 OP:rebc STATUS:               ID:20170913031740 L   I
 OLDACT:REG 17-09-13 12:48 OP:mg   STATUS:               ID:20170913030743     3
 2017-09-13-0308-00M.COL___458                                                 6
 STAT SP IPHASW D HRMM SECON CODA AMPLIT PERI AZIMU VELO AIN AR TRES W  DIS CAZ7
 BAR2 EZ EP        318  0.55                             172   -0.0110 20.2 186 
 BAR2 EZ ES        318 16.14                             172   -0.0510 20.2 186 
 BAR2 EZ I         318 16.80         8.4 0.21            166           20.2 186 
 BRR  HZ EP        318  2.30                             153    0.2310 70.9 301 
 BRR  HN ES   1    318 18.73                             153   -0.16 7 70.9 301 
 BRR  HZ I         318 20.22         3.8 0.39            150           70.9 301 
 RUS  HZ EP        318  4.51                             145    0.0510 97.9 175 
 RUS  HN ES        318 23.16                             145    0.0210 97.9 175 
 RUS  HZ I         318 24.62         1.9 0.25            144           97.9 175 
 SPBC HZ EP        318  8.66                             131   -0.33 9  160 219 
 SPBC HE ES        318 31.36                             131    0.16 9  160 219 
 SPBC HZ I         318 36.79         3.3 0.18            128            160 219 
                                                                                
