 2015  713 0419 32.7 L   6.801 -73.141142.0  RSN 10 0.4 1.8LRSN                1
 GAP=137        0.73       2.6     3.6  5.5 -0.2010E+01  0.9402E+01  0.1552E+01E
 Epicentro: LOS SANTOS - SANTANDER                                             3
 ACTION:UPD 15-09-08 21:48 OP:cam  STATUS:               ID:20150713041933dL   I
 OLDACT:UP  15-07-13 19:48 OP:spq  STATUS:               ID:20150713041748     3
 OLDACT:REG 15-07-13 12:56 OP:spq  STATUS:               ID:20150713041748     3
 2015-07-13-0417-48M.COL___337                                                 6
 STAT SP IPHASW D HRMM SECON CODA AMPLIT PERI AZIMU VELO AIN AR TRES W  DIS CAZ7
 BAR2 EZ EP        419 51.80                             170   -0.0610 23.5 191 
 BAR2 EZ ES   1    420  6.71                             170   -0.11 7 23.5 191 
 BAR2 EZ I         420  8.32        22.7 0.18            169           23.5 191 
 PAM  EZ EP        419 54.68                             150    0.2110 77.0  39 
 PAM  EN ES        420 11.90                             150    0.4410 77.0  39 
 PAM  EZ I         420 14.24         7.8 0.60            154           77.0  39 
 RUS  HZ EP        419 55.67                             143   -0.3910  101 176 
 RUS  HE ES   1    420 14.17                             143   -0.13 7  101 176 
 RUS  HZ I         420 15.61         8.4 0.28            145            101 176 
 OCA  HZ EP        420  0.62                             129   -0.08 9  160 353 
 OCA  HE ES        420 22.23                             129   -0.32 9  160 353 
 OCA  HZ I         420 25.64        10.2 0.22            130            160 353 
 ZAR  HZ EP   1    420  4.41                             121   -0.52 6  205 292 
 ZAR  HN ES        420 30.02                             121   -0.06 9  205 292 
 ZAR  HZ I         420 35.11         4.2 0.39            122            205 292 
 NOR  HE ES        420 36.04                             118    0.06 8  235 235 
 NOR  HZ I         420 39.26         6.0 0.14            119            235 235 
 GUY2CHZ EP   4    420 17.36                             111    1.19 0  302 235 
 GUY2CHE ES   4    420 52.23                             111    2.14 0  302 235 
 GUY2CHZ I         420 56.03         2.4 0.22                           302 235 
 CBOC HZ EP        420 20.07                             109    0.57 7  334 252 
 CBOC HN ES   1    420 56.51                             109    0.49 5  334 252 
 CBOC HZ I         421  1.92         0.9 0.39            110            334 252 
 TOL  SZ EP        420 21.61                             109    0.78 7  344 225 
 TOL  SE ES   1    420 58.16                             109   -0.23 5  344 225 
 TOL  SZ I         421  3.12         2.1 0.28            110            344 225 
 PRA  HZ EP        420 25.59                             106   -0.52 6  392 210 
 PRA  HN ES   1    421  7.83                             106    0.05 4  392 210 
 PRA  HZ I         421 13.86         2.5 0.40            107            392 210 
                                                                                
