 2014 1013 0934  7.6 L   7.026 -73.358116.2  RSN  4 0.4 1.1LRSN                1
 GAP=182        0.91       9.4     4.1  8.0 -0.1740E+02  0.5546E+01  0.7338E+01E
 Epicentro: BETULIA - SANTANDER                                                3
 ACTION:UPD 14-11-29 23:49 OP:nd   STATUS:               ID:20141013093407 L   I
 OLDACT:DUP 14-10-13 17:54 OP:mh   STATUS:               ID:20141013092744d    3
 2014-10-13-0927-43M.COL___279                                                 6
 STAT SP IPHASW D HRMM SECON CODA AMPLIT PERI AZIMU VELO AIN AR TRES W  DIS CAZ7
 BRR  HZ EP        934 23.60                             160   -0.3410 40.1 283 
 BRR  HN ES        934 36.51                             160   -0.1510 40.1 283 
 PAM  SZ EP        934 26.69                             143   -0.3410 80.6  64 
 PAM  SN ES        934 42.54                             143    0.3810 80.6  64 
 PAM  SZ I         934 44.85         2.4 0.40            149           80.6  64 
 PTB  HZ EP        934 31.52                             127    0.6310  133 246 
 PTB  HN ES        934 48.87                             127   -0.1610  133 246 
 PTB  HZ I         934 55.93         1.3 0.14            129            133 246 
 ZAR  HZ EP   1    934 34.60                             119   -0.43 7  173 287 
 ZAR  HN ES        934 56.68                             119    0.29 9  173 287 
 ZAR  HZ I         934 58.98         2.5 0.40            123            173 287 
                                                                                
