 2016  713 0953 44.0 L   6.791 -73.167144.0  RSN  6 0.4 1.5LRSN                1
 GAP=234        1.08       5.8     6.7  7.7  0.1447E+02  0.1254E+02 -0.1843E+01E
 Epicentro: LOS SANTOS - SANTANDER                                             3
 ACTION:UPD 17-03-29 16:50 OP:lp   STATUS:               ID:20160713095344 L   I
 OLDACT:REG 16-07-13 13:33 OP:dani STATUS:               ID:20160713094759     3
 2016-07-13-0947-59S.COL___322                                                 6
 STAT SP IPHASW D HRMM SECON CODA AMPLIT PERI AZIMU VELO AIN AR TRES W  DIS CAZ7
 BAR2 EZ EP        954  3.17                             171   -0.1810 22.1 184 
 BAR2 EZ ES        954 18.33                             171   -0.1510 22.1 184 
 BAR2 EZ I         954 19.90         8.4 0.32            167           22.1 184 
 BRR  HZ EP     C  954  4.55                             153   -0.2810 69.6 300 
 BRR  HN ES        954 21.60                             153    0.5010 69.6 300 
 BRR  HZ I         954 23.60         6.8 0.14            151           69.6 300 
 RUS  HZ EP   2    954  7.37                             144   -0.11 5 99.8 175 
 RUS  HN ES        954 25.90                             144    0.0710 99.8 175 
 RUS  HZ I         954 27.71         2.3 0.28            143           99.8 175 
 PTB  HZ EP        954  9.76                             132   -0.79 9  145 259 
 PTB  HN ES        954 30.85                             132   -0.44 9  145 259 
 PTB  HZ I         954 31.86         3.9 0.16            131            145 259 
 SPBC HZ EP        954 12.41                             129    0.30 9  161 219 
 SPBC HN ES        954 34.45                             129    0.39 9  161 219 
 SPBC HZ I         954 41.47         5.4 0.22            128            161 219 
 ZAR  HZ EP        954 17.01                             122    0.91 9  202 293 
 ZAR  HN ES        954 41.03                             122   -0.14 9  202 293 
 ZAR  HZ I         954 46.28         6.0 0.40            123            202 293 
                                                                                
