 2017  213 0339 45.7 L   6.793 -73.116144.7  RSN  8 0.4 1.5LRSN                1
 GAP=141        0.97       4.3     4.3  5.9 -0.1051E+00  0.4787E+01  0.1478E+01E
 Epicentro: LOS SANTOS - SANTANDER                                             3
 ACTION:UPD 17-05-24 15:35 OP:jn   STATUS:               ID:20170213033945 L   I
 OLDACT:UP  17-02-13 16:25 OP:edw  STATUS:               ID:20170213033745     3
 OLDACT:REG 17-02-13 11:43 OP:edw  STATUS:               ID:20170213033745     3
 2017-02-13-0338-00M.COL___352                                                 6
 STAT SP IPHASW D HRMM SECON CODA AMPLIT PERI AZIMU VELO AIN AR TRES W  DIS CAZ7
 BAR2 EZ EP        340  5.25                             170    0.0310 23.4 198 
 BAR2 EZ ES        340 20.10                             170   -0.3410 23.4 198 
 BAR2 EZ I         340 21.49         6.4 0.20            168           23.4 198 
 BRR  HZ IP     D  340  7.04                             151    0.1010 74.4 298 
 BRR  HN ES        340 23.68                             151    0.1910 74.4 298 
 BRR  HZ I         340 24.47         5.7 0.30            151           74.4 298 
 PAM  EZ EP     D  340  8.17                             151    0.4410 75.9  37 
 PAM  EN ES        340 24.75                             151   -0.1610 75.9  37 
 PAM  EZ I         340 27.39         4.1 0.50            153           75.9  37 
 RUS  HZ EP        340  9.32                             144    0.0310 99.6 178 
 RUS  HN ES        340 27.62                             144   -0.0710 99.6 178 
 RUS  HZ I         340 31.74         2.0 0.56            143           99.6 178 
 PTB  HZ EP   9    340 12.32                             131   -0.56 0  151 259 
 PTB  HN ES        340 32.86                             132   -0.65 9  151 259 
 PTB  HZ I         340 36.21         3.2 0.16            131            151 259 
 ZAR  HZ EP        340 17.41                             121   -1.02 8  207 292 
 ZAR  HN ES        340 44.35                             121    0.39 8  207 292 
 ZAR  HZ I         340 48.87         3.6 0.40            122            207 292 
 NOR  HN ES        340 49.86                             118    0.23 8  237 235 
 PRA  HZ EP        340 39.56                             106    0.25 6  393 210 
 PRA  HE ES   4    341 18.14                             106   -2.98 0  393 210 
 PRA  HZ I         341 27.82         1.8 0.36            106            393 210 
                                                                                
