 2013  213 0813  9.1 L   6.776 -73.229151.3  RSN  4 0.3 0.9LRSN                1
 GAP=193        0.65       4.6     6.9  7.9  0.1411E+02 -0.1199E+02 -0.1339E+02E
 Epicentro: ZAPATOCA - SANTANDER                                               3
 ACTION:UPD 13-03-12 09:32 OP:ep   STATUS:               ID:20130213081308 L   I
 2013-02-13-0810-00M.COL___239                                                 6
 STAT SP IPHASW D HRMM SECON CODA AMPLIT PERI AZIMU VELO AIN AR TRES W  DIS CAZ7
 BRR  HZ EP   1    813 30.79                             156    0.30 7 64.7 304 
 BRR  HN ES   1    813 47.58                             156    0.39 7 64.7 304 
 RUS  HZ EP   1    813 33.53                             145    0.26 7 99.0 171 
 RUS  HN ES   1    813 51.71                             145   -0.43 7 99.0 171 
 RUS  HZ I         813 54.21         1.0 0.40            145           99.0 171 
 PTB  HZ EP   1    813 35.87                             135    0.20 7  138 259 
 PTB  HE ES   1    813 56.11                             135   -0.30 7  138 259 
 PTB  HZ I         813 57.92         1.2 0.36            136            138 259 
 SML  HZ EP   1    813 45.60                             119   -0.28 6  242 338 
 SML  HN ES   1    814 14.20                             119   -0.39 6  242 338 
                                                                                
