 2016 1013 0643 23.2 L   6.782 -73.174143.3  RSN  8 0.4 1.5LRSN                1
 GAP= 99        0.95       3.9     3.5  5.6 -0.1370E+00  0.1927E+01  0.5774E+00E
 Epicentro: LOS SANTOS - SANTANDER                                             3
 ACTION:UPD 16-11-09 19:19 OP:rebc STATUS:               ID:20161013064323 L   I
 OLDACT:REG 16-10-13 12:51 OP:y    STATUS:               ID:20161013063740     3
 2016-10-13-0638-00M.COL___357                                                 6
 STAT SP IPHASW D HRMM SECON CODA AMPLIT PERI AZIMU VELO AIN AR TRES W  DIS CAZ7
 BAR2 EZ EP        643 42.40                             171   -0.1110 21.0 183 
 BAR2 EZ ES        643 57.13                             171   -0.4310 21.0 183 
 BAR2 EZ I         643 59.22         9.2 0.56            174           21.0 183 
 BRR  HZ EP        643 44.29                             153    0.2810 69.5 301 
 BRR  HN ES        644  1.06                             153    0.8310 69.5 301 
 BRR  HZ I         644  5.45         8.8 0.64            152           69.5 301 
 PAM  EZ EP        643 45.30                             149   -0.0910 80.9  40 
 PAM  EN ES        644  2.55                             149   -0.1410 80.9  40 
 PAM  EZ I         644  8.55         2.6 0.64            151           80.9  40 
 RUS  HZ EP        643 46.64                             144    0.0410 98.8 174 
 RUS  HN ES        644  5.06                             144    0.2210 98.8 174 
 RUS  HZ I         644  6.14         5.8 0.32            149           98.8 174 
 PTB  HZ EP        643 49.42                             132   -0.26 9  144 259 
 PTB  HE ES        644  9.58                             132   -0.73 9  144 259 
 PTB  HZ I         644 15.13         3.5 0.22            134            144 259 
 TAM  HZ EP        643 50.76                             129   -0.18 9  158 104 
 SPBC HZ EP        643 51.64                             129    0.44 9  160 219 
 SPBC HN ES        644 13.13                             129    0.11 9  160 219 
 SPBC HZ I         644 15.73         8.5 0.28            133            160 219 
 ZAR  HZ EP        643 55.44                             122    0.15 9  202 293 
 ZAR  HE ES        644 20.10                             122   -0.21 9  202 293 
 ZAR  HZ I         644 27.09         2.7 0.34            124            202 293 
                                                                                
