 2012  313 0245 23.3 L   6.733 -73.231144.0  RSN  5 0.4 1.6LRSN                1
 GAP=222        0.93       7.0     8.6  9.6  0.3213E+02  0.1718E+02  0.1535E+02E
 ACTION:UP  12-03-31 23:19 OP:EP   STATUS:               ID:20120313024523 L   I
 2012-03-13-0240-00M.COL___196                                                 6
 STAT SP IPHASW D HRMM SECON CODA AMPLIT PERI AZIMU VELO SNR AR TRES W  DIS CAZ7
 BRR  HZ EP   1    245 43.82                             154    -0.2 7   67 308 
 BRR  HN ES        246  0.60                             154     0.410   67 308 
 BRR  HZ I         246  1.46        13.4 0.09                            67 308 
 RUS  HZ EP   1    245 46.35                             145    -0.1 7   94 170 
 RUS  HN ES   1    246  4.31                             145    -0.2 7   94 170 
 RUS  HZ I         246  6.66         4.6 0.34                            94 170 
 PTB  HZ EP   1    245 48.86                             134    -0.3 7  137 261 
 PTB  HN ES   1    246  9.48                             134     0.1 7  137 261 
 PTB  HZ I         246 12.04         3.0 0.16                           137 261 
 ZAR  HZ EP   1    245 55.69                             123     0.6 6  198 295 
 ZAR  HN ES   1    246 19.02                             123    -0.8 6  198 295 
 ZAR  HZ I         246 25.67         3.8 0.17                           198 295 
 PRA  HN ES   1    246 56.74                             107     0.6 4  381 209 
                                                                                
