 2017  513 0701 31.5 L   6.791 -73.155146.0  RSN  8 0.4 1.4LRSN                1
 GAP=111        1.12       4.5     4.5  8.1  0.2366E+01  0.2492E+01  0.3553E+01E
 Epicentro: LOS SANTOS - SANTANDER                                             3
 ACTION:UPD 17-06-16 13:35 OP:jn   STATUS:               ID:20170513070131 L   I
 OLDACT:DUP 17-05-13 15:31 OP:lv   STATUS:               ID:20170513065744d    3
 2017-05-13-0658-00M.COL___318                                                 6
 STAT SP IPHASW D HRMM SECON CODA AMPLIT PERI AZIMU VELO AIN AR TRES W  DIS CAZ7
 BRR  HZ EP        7 1 52.85                             153    0.1610 70.8 300 
 BRR  HN ES        7 2  9.98                             153    0.7910 70.8 300 
 BRR  HZ I         7 2 10.55         7.5 0.12            152           70.8 300 
 PAM  EZ EP        7 1 53.92                             150    0.0510 78.8  40 
 PAM  EN ES        7 2 10.73                             150   -0.5510 78.8  40 
 PAM  EZ I         7 2 13.26         8.0 0.21            151           78.8  40 
 RUS  HZ EP        7 1 55.15                             144   -0.1010 99.7 175 
 RUS  HN ES        7 2 14.00                             144    0.2510 99.7 175 
 RUS  HZ I         7 2 14.76         1.9 0.07            146           99.7 175 
 PTB  HZ EP        7 1 58.03                             132   -0.39 9  147 259 
 PTB  HN ES        7 2 18.42                             132   -0.96 9  147 259 
 PTB  HZ I         7 2 20.74         1.8 0.35            133            147 259 
 SPBC HE ES        7 2 22.24                             129    0.18 9  162 219 
 YPLC HZ EP        7 2  1.31                             127   -0.01 9  176 151 
 YPLC HN ES   1    7 2 24.61                             127    0.07 7  176 151 
 YPLC HZ I         7 2 26.35         1.8 0.06            128            176 151 
 ZAR  HZ EP        7 2  4.50                             123    0.56 9  203 293 
 ZAR  HN ES   1    7 2 29.23                             123    0.02 6  203 293 
 ZAR  HZ I         7 2 35.69         3.2 0.14            123            203 293 
 SJC  HZ EP   4    7 2 25.33                             106   -1.81 0  409 327 
 SJC  HN ES   4    7 3  6.11                             106   -4.40 0  409 327 
 SJC  HZ I         7 3 10.93         0.9 0.45            106            409 327 
                                                                                
