 2017  213 0125 48.3 L   6.784 -73.129142.2  RSN 11 0.3 1.8LRSN                1
 GAP=139        0.73       2.5     3.1  4.0 -0.4312E+00  0.3595E+01  0.2604E+01E
 Epicentro: LOS SANTOS - SANTANDER                                             3
 ACTION:UPD 17-05-24 15:35 OP:jn   STATUS:               ID:20170213012548 L   I
 OLDACT:UP  17-02-13 14:18 OP:edw  STATUS:               ID:20170213011742     3
 OLDACT:REG 17-02-13 11:28 OP:edw  STATUS:               ID:20170213011742     3
 2017-02-13-0118-00M.COL___352                                                 6
 STAT SP IPHASW D HRMM SECON CODA AMPLIT PERI AZIMU VELO AIN AR TRES W  DIS CAZ7
 BAR2 EZ EP     D  126  7.34                             171   -0.1410 22.0 196 
 BAR2 EZ ES        126 22.35                             171   -0.0910 22.0 196 
 BAR2 EZ I         126 23.75        19.6 0.52            169           22.0 196 
 BRR  HZ EP     C  126  9.09                             151   -0.1310 73.7 299 
 BRR  HN ES        126 26.29                             151    0.7610 73.7 299 
 BRR  HZ I         126 29.52         6.9 0.26            147           73.7 299 
 PAM  EZ EP     C  126 10.01                             150   -0.1510 77.6  38 
 PAM  EN ES        126 27.20                             150   -0.0110 77.6  38 
 PAM  EZ I         126 29.24        11.7 0.44            152           77.6  38 
 RUS  HZ EP        126 11.63                             144    0.0610 98.7 177 
 RUS  HN ES        126 29.55                             144   -0.1710 98.7 177 
 RUS  HZ I         126 31.34        17.6 0.26            145           98.7 177 
 PTB  HZ EP   9    126 14.43                             131   -0.69 0  149 260 
 PTB  HN ES        126 34.86                             131   -0.49 9  149 260 
 PTB  HZ I         126 38.46         5.0 0.42            129            149 260 
 ZAR  HZ EP        126 20.83                             121    0.06 8  206 292 
 ZAR  HN ES        126 45.66                             121   -0.44 8  206 292 
 ZAR  HZ I         126 52.02         7.3 0.50            120            206 292 
 NOR  HZ EP        126 23.76                             118   -0.12 8  235 235 
 NOR  HN ES        126 51.67                             118    0.04 8  235 235 
 NOR  HZ I         126 53.41         3.5 0.16            117            235 235 
 CHI  HN ES        126 54.65                             116   -0.17 8  247 196 
 URE  HZ EP   4    126 31.41                             113    1.93 0  286 292 
 URE  HN ES   2    127  0.89                             113   -0.70 4  286 292 
 URE  HZ I         127 11.54         4.2 0.22            112            286 292 
 PRA  HZ EP        126 41.91                             106    0.28 6  391 210 
 PRA  HN ES        127 23.12                             106   -0.10 6  391 210 
 PRA  HZ I         127 29.99         2.7 0.40            106            391 210 
 ORTC HZ EP        126 42.70                             106    0.64 6  395 217 
 ORTC HN ES        127 24.36                             106    0.37 6  395 217 
 ORTC HZ I         127 30.71         3.1 0.20            106            395 217 
                                                                                
