 2015  713 0817 58.3 L   6.809 -73.118143.3  RSN 26 0.4 2.6LRSN                1
 GAP= 91        0.78       1.9     2.7  4.0 -0.1369E+01  0.4183E+01  0.4451E-01E
 Epicentro: LOS SANTOS - SANTANDER                                             3
 ACTION:UPD 15-09-08 21:48 OP:cam  STATUS:               ID:20150713081758 L   I
 OLDACT:UP  15-07-28 21:06 OP:cam  STATUS:               ID:20150713081758 L   3
 OLDACT:UP  15-07-28 21:02 OP:cam  STATUS:               ID:20150713081758 L   3
 OLDACT:UP  15-07-28 07:01 OP:AK   STATUS:               ID:20150713081758 L   3
 OLDACT:DUP 15-07-13 13:29 OP:spq  STATUS:               ID:20150713080745d    3
 OLDACT:UP  15-07-13 13:19 OP:spq  STATUS:               ID:20150713080743     3
 OLDACT:REG 15-07-13 13:12 OP:spq  STATUS:               ID:20150713080743     3
 2015-07-13-0807-43M.COL___334                                                 6
 STAT SP IPHASW D HRMM SECON CODA AMPLIT PERI AZIMU VELO AIN AR TRES W  DIS CAZ7
 BAR2 EZ IP     C  818 17.71                             170    0.0110 25.0 197 
 BAR2 EZ ES   1    818 32.74                             170   -0.08 7 25.0 197 
 BAR2 EZ I         818 33.69        87.3 0.16            168           25.0 197 
 PAM  EZ EP     C  818 20.60                             151    0.4710 74.7  38 
 PAM  EN ES        818 37.59                             151    0.4610 74.7  38 
 PAM  EZ I         818 39.96        57.9 0.44            154           74.7  38 
 RUS  HZ EP        818 21.70                             143   -0.2010  101 178 
 RUS  HN ES        818 40.06                             143   -0.2310  101 178 
 RUS  HZ I         818 40.83        39.9 0.26            144            101 178 
 OCA  HZ EP     C  818 26.04                             129   -0.36 9  160 352 
 OCA  HN ES        818 47.96                             129   -0.33 9  160 352 
 ZAR  HZ EP        818 30.60                             121   -0.28 8  207 292 
 ZAR  HN ES        818 56.34                             121    0.08 8  207 292 
 ZAR  HZ I         819  2.31        57.6 0.40            121            207 292 
 NOR  HZ EP        818 34.36                             118    0.11 8  238 235 
 NOR  HE ES        819  2.40                             118    0.13 8  238 235 
 NOR  HZ I         819  6.64        22.0 0.18            118            238 235 
 SML  HZ EP        818 34.14                             117   -0.73 8  244 335 
 SML  HN ES   1    819  3.35                             117   -0.01 6  244 335 
 SML  HZ I         819  6.79        57.1 0.10            117            244 335 
 CHI  HZ EP   1    818 36.03                             116   -0.06 6  250 196 
 CHI  HE ES   1    819  5.02                             116   -0.52 6  250 196 
 CHI  HZ I         819  8.31        10.8 0.26            117            250 196 
 ROSC BZ EP   9    818 37.77                             116    1.19 0  255 212 
 ROSC BE ES   1    819  8.19                             116    0.58 6  255 212 
 ROSC BZ I         819 14.31        25.5 0.40            116            255 212 
 HEL  HZ EP   1    818 39.42                             114    0.64 6  275 256 
 HEL  HN ES   1    819  9.59                             114   -0.74 6  275 256 
 HEL  HZ I         819 16.52        13.9 0.48            114            275 256 
 URE  HZ EP   9    818 38.19                             113   -1.37 0  286 292 
 URE  HN ES   1    819 10.31                             113   -0.04 6  286 292 
 URE  HZ I         819 19.39        33.1 0.22            113            286 292 
 SOCV BZ EP   4    818 39.72                             112   -1.20 0  298  57 
 SOCV BN ES   4    819 11.61                             112   -2.52 0  298  57 
 GUY2CHZ EP        818 42.54                             112    0.37 7  304 235 
 GUY2CHN ES        819 16.81                             112    0.44 7  304 235 
 GUY2CHZ I         819 23.04        12.8 0.30                           304 235 
 LL2C HZ EP   1    818 42.01                             111    0.28 5  306 353 
 LL2C HN ES   4    819 18.08                             111    2.50 0  306 353 
 LL2C HZ I         819 23.89        47.4 0.38            112            306 353 
 PTGC HZ EP   4 D  818 40.82                             111   -1.24 0  308 159 
 PTGC HN ES   4    819 14.02                             111   -2.15 0  308 159 
 PTGC HZ I         819 15.51        17.8 0.42            112            308 159 
 CBOC HZ EP        818 46.10                             109    0.58 7  337 252 
 CBOC HE ES        819 22.15                             109   -0.17 7  337 252 
 CBOC HZ I         819 25.44         8.1 0.62            109            337 252 
 DBB  SZ EP     C  818 45.98                             109   -0.07 7  342 274 
 DBB  SZ ES   1    819 22.58                             109   -0.70 5  342 274 
 TOL  SZ EP        818 47.53                             109    0.71 6  346 225 
 TOL  SN ES        819 24.51                             109   -0.13 6  346 225 
 TOL  SZ I         819 33.11         9.4 0.54            109            346 225 
 MON  HZ IP   4 C  818 45.64                             108   -1.81 0  355 308 
 MON  HE ES   4    819 24.41                             108   -1.35 0  355 308 
 MON  HZ I         819 25.41         6.8 0.20            108            355 308 
 ARGC HZ EP        818 48.60                             108    0.69 6  359 340 
 ARGC HE ES   1    819 26.90                             108    0.32 5  359 340 
 ARGC HZ I         819 32.74        13.2 0.23            108            359 340 
 ANIL HZ EP   1    818 49.17                             108    0.80 5  360 225 
 ANIL HN ES        819 27.39                             108   -0.02 6  360 225 
 ANIL HZ I         819 31.71        25.8 0.26            108            360 225 
 PRA  HZ EP        818 51.86                             106   -0.19 6  394 210 
 PRA  HE ES        819 33.77                             106   -0.17 6  394 210 
 PRA  HZ I         819 39.43        15.2 0.52            107            394 210 
 ORTC HZ EP        818 52.51                             106    0.04 6  398 216 
 ORTC HN ES   1    819 34.15                             106   -0.55 4  398 216 
 ORTC HZ I         819 42.16         9.6 0.60            106            398 216 
 ELOV BZ EP        818 52.04                             106   -0.87 6  402  87 
 ELOV BN ES   4    819 33.32                             106   -2.16 0  402  87 
 PAL  HZ EP        818 53.97                             105    0.19 6  409 239 
 PAL  HE ES   4    819 35.96                             105   -1.07 0  409 239 
 PAL  HZ I         819 38.95         6.4 0.24            106            409 239 
 SJC  HZ EP   4    818 52.11                             105   -1.80 0  410 327 
 SJC  HN ES   4    819 33.82                             105   -3.45 0  410 327 
 SJC  HZ I         819 37.60        16.4 0.46            106            410 327 
 GUA  SE ES   4    819 49.17                             103   -1.58 0  475 173 
 GUA  SZ I         819 54.95        15.2 0.26            104            475 173 
                                                                                
