 2010  413 0713 49.2 L   6.940 -73.013151.9  RSN  7 0.6 2.1LRSN                1
 GAP=261        1.34       7.9    11.7 10.7  0.1527E+02  0.3882E+02  0.2639E+02E
 Epicentro: PIEDECUESTA - SANTANDER                                            3
 ACTION:UPD 10-08-24 09:58 OP:vdl  STATUS:               ID:20100413071350 L   I
 2010-04-13-0709-00S.COL___097                                                 6
 STAT SP IPHASW D HRMM SECON CODA AMPLIT PERI AZIMU VELO AIN AR TRES W  DIS CAZ7
 BAR2 SZ EP        714  9.91                             163    -0.210   43 206 
 BAR2 SZ ES   1    714 25.36                             163    -1.0 7   43 206 
 BRR  HZ IP     C  714 12.14                             154     0.710   79 284 
 BRR  HN ES        714 29.25                             154     0.410   79 284 
 BRR  HZ I         714 31.24        18.2 0.11                            79 284 
 ROSC BZ EP        714 29.93                             116     0.0 8  274 212 
 ROSC BN ES        715  1.98                             116     0.3 8  274 212 
 ROSC BZ I         715  4.28         7.1 0.20                           274 212 
 HEL  HZ EP        714 31.84                             115     0.1 7  290 254 
 HEL  HE ES   2    715  3.29                             115    -1.6 4  290 254 
 HEL  HZ I         715  9.40         4.6 0.27                           290 254 
 RREF BZ EP   1    714 38.11                             111     0.1 5  343 229 
 RREF BN ES        715 16.60                             111     0.5 7  343 229 
 RREF BZ I         715 21.46         6.9 0.03                           343 229 
 MON  HN ES        715 16.51                             110    -0.8 6  355 305 
 TOL  SZ EP   1    714 39.06                             109    -1.1 5  365 225 
                                                                                
