 2012  113 0210 28.0 L   6.782 -73.094147.2  RSN 13 0.4 2.2LRSN                1
 GAP=144        0.65       3.3     4.2  5.1 -0.2087E+01  0.3541E+01  0.2790E+01E
 Epicentro: LOS SANTOS - SANTANDER                                             3
 ACTION:UP  12-02-03 08:17 OP:REBC STATUS:               ID:20120113021028 L   I
 2012-01-13-0210-00M.COL___187                                                 6
 STAT SP IPHASW D HRMM SECON CODA AMPLIT PERI AZIMU VELO SNR AR TRES W  DIS CAZ7
 BAR2 SZ EP   1    210 47.76                             171    -0.1 7   23 205 
 BAR2 SZ I         210 48.16        41.1 0.11                            23 205 
 BAR2 SZ ES   1    211  2.97                             171    -0.3 7   23 205 
 GIR2 SZ EP   2    210 47.99                             166     0.0 5   35 341 
 GIR2 SZ ES   2    211  2.62                             166    -0.9 5   35 341 
 PAM  SZ EP   1    210 50.64                             152     0.3 7   75  35 
 PAM  SN ES   2    211  8.09                             152     0.4 5   75  35 
 BRR  HZ EP        210 49.73                             151     0.010   77 298 
 BRR  HN ES   1    211  7.22                             151     0.6 7   77 298 
 BRR  HZ I         211  9.58        40.8 0.16                            77 298 
 RUS  HZ EP   1    210 51.62                             145    -0.1 7   98 179 
 RUS  HE ES   2    211 10.59                             145     0.3 5   98 179 
 PTB  HZ EP   2    210 54.94                             131    -0.7 5  153 260 
 PTB  HN ES   2    211 16.89                             131    -0.2 5  153 260 
 OCA  SZ EP   1    210 56.40                             129    -0.3 7  163 351 
 OCA  SZ ES   2    211 19.08                             129     0.0 5  163 351 
 OCA  SZ I         211 24.63        14.6 0.27                           163 351 
 ZAR  HZ EP   2    211  0.62                             122    -0.6 4  210 292 
 ZAR  HE ES   2    211 26.81                             122    -0.3 4  210 292 
 ZAR  HZ I         211 36.57        16.1 0.38                           210 292 
 NOR  SN ES   2    211 32.23                             118    -0.2 4  238 236 
 CHI  HZ EP   1    211  6.06                             117     0.3 6  248 197 
 CHI  HN ES   2    211 35.00                             117    -0.2 4  248 197 
 CHI  HZ I         211 44.67         6.4 0.49                           248 197 
 HEL  HZ EP   2    211  9.40                             115     0.5 4  277 257 
 HEL  HN ES   2    211 41.28                             115     0.5 4  277 257 
 HEL  HZ I         211 48.25         6.7 0.36                           277 257 
 RREF HZ EP   2    211 14.68                             111     0.1 3  325 230 
 RREF HN ES   2    211 51.18                             111     0.3 3  325 230 
 RREF HZ I         212  0.28        11.3 0.28                           325 230 
 PRA  HN ES   2    212  3.72                             107     0.1 3  393 210 
                                                                                
