 2015  213 0734 59.6 L   6.775 -73.139149.9  RSN  8 0.4 1.5LRSN                1
 GAP=139        0.80       3.2     4.1  6.5 -0.8594E+00  0.6694E+00  0.1251E+01E
 Epicentro: LOS SANTOS - SANTANDER                                             3
 ACTION:UPD 15-04-30 21:25 OP:nd   STATUS:               ID:20150213073459 L   I
 OLDACT:DUP 15-02-13 18:37 OP:fm   STATUS:               ID:20150213072747d    3
 2015-02-13-0727-46M.COL___290                                                 6
 STAT SP IPHASW D HRMM SECON CODA AMPLIT PERI AZIMU VELO AIN AR TRES W  DIS CAZ7
 BAR2 EZ EP        735 19.47                             172   -0.2210 20.7 193 
 BAR2 EZ ES   1    735 34.85                             172   -0.50 7 20.7 193 
 BAR2 EZ I         735 36.13         7.3 0.24            172           20.7 193 
 BRR  HZ EP        735 21.31                             153   -0.0110 73.3 300 
 BRR  HE ES        735 38.79                             153    0.5410 73.3 300 
 BRR  HZ I         735 42.55         4.4 0.24            151           73.3 300 
 PAM  SZ EP        735 22.39                             151    0.0310 79.1  38 
 PAM  SE ES   2    735 40.79                             151    0.68 5 79.1  38 
 PAM  SZ I         735 41.90         3.9 0.74            154           79.1  38 
 RUS  HZ EP   1    735 24.19                             145    0.62 7 97.7 176 
 RUS  HE ES   1    735 41.77                             145   -0.48 7 97.7 176 
 RUS  HZ I         735 43.34         5.6 0.24            148           97.7 176 
 PTB  HZ EP   1    735 26.51                             133   -0.43 7  148 260 
 PTB  HE ES   1    735 47.99                             133   -0.26 7  148 260 
 PTB  HZ I         735 50.27         2.3 0.33            133            148 260 
 SPBC HZ EP        735 28.42                             130    0.15 9  161 220 
 SPBC HE ES        735 50.86                             130    0.24 9  161 220 
 SPBC HZ I         735 55.20         4.5 0.24            132            161 220 
 OCA  HN ES        735 50.83                             130   -0.22 9  163 353 
 OCA  HZ I         735 53.83         2.6 0.41            132            163 353 
 ZAR  HN ES        735 58.02                             123   -0.15 8  206 293 
 ZAR  HZ I         736  3.27         4.7 0.22            124            206 293 
                                                                                
