 2017  613 0117 28.7 L   6.773 -73.166149.0  RSN  4 0.3 1.4LRSN                1
 GAP=277        0.80       5.3     8.5  8.2 -0.1950E+01 -0.9566E+01 -0.1738E+01E
 Epicentro: LOS SANTOS - SANTANDER                                             3
 ACTION:UPD 17-09-14 16:51 OP:jn   STATUS:               ID:20170613011728 L   I
 OLDACT:UP  17-06-13 14:07 OP:dani STATUS:               ID:20170613005921d    3
 OLDACT:DUP 17-06-13 14:04 OP:dani STATUS:               ID:20170613005921d    3
 2017-06-13-0108-00M.COL___365                                                 6
 STAT SP IPHASW D HRMM SECON CODA AMPLIT PERI AZIMU VELO AIN AR TRES W  DIS CAZ7
 BRR  HZ EP        117 50.20                             153    0.0210 70.7 302 
 BRR  HN ES        118  6.94                             153    0.0110 70.7 302 
 BRR  HZ I         118 10.65         5.3 0.18            147           70.7 302 
 PTB  HZ EP        117 55.17                             133   -0.52 9  145 260 
 PTB  HN ES        118 16.36                             133   -0.38 9  145 260 
 PTB  HZ I         118 23.56         1.7 0.31            131            145 260 
 SPBC HN ES        118 19.63                             130    0.38 9  159 219 
 ZAR  HZ EP        118  1.61                             123    0.35 9  203 293 
 ZAR  HE ES        118 26.91                             123    0.25 9  203 293 
 ZAR  HZ I         118 32.65         2.7 0.19            122            203 293 
                                                                                
