 2015  513 0735 16.2 L   6.805 -73.113153.6  RSN 20 0.4 2.6LRSN                1
 GAP= 68        0.92       2.4     2.8  4.7  0.1232E+00  0.2747E+01  0.1287E+01E
 Epicentro: LOS SANTOS - SANTANDER                                             3
 ACTION:UPD 15-09-10 22:03 OP:cam  STATUS:               ID:20150513073516 L   I
 OLDACT:UP  15-05-13 17:47 OP:mh   STATUS:               ID:20150513072749     3
 OLDACT:UP  15-05-13 17:46 OP:mh   STATUS:               ID:20150513072749     3
 OLDACT:UP  15-05-13 17:46 OP:mh   STATUS:               ID:20150513072749     3
 OLDACT:UP  15-05-13 17:45 OP:mh   STATUS:               ID:20150513072749     3
 OLDACT:REG 15-05-13 13:19 OP:mh   STATUS:               ID:20150513072749     3
 2015-05-13-0727-49M.COL___276                                                 6
 STAT SP IPHASW D HRMM SECON CODA AMPLIT PERI AZIMU VELO AIN AR TRES W  DIS CAZ7
 BAR2 EZ IP     D  735 36.74                             170   -0.0310 24.7 198 
 BAR2 EZ ES        735 52.73                             170   -0.1010 24.7 198 
 BAR2 EZ I         735 54.56        63.4 0.24            168           24.7 198 
 BRR  HZ EP     D  735 38.64                             153    0.3110 74.2 297 
 BRR  HN ES        735 56.16                             153    0.5510 74.2 297 
 BRR  HZ I         735 58.27        65.0 0.14            149           74.2 297 
 PAM  SZ EP   1    735 39.53                             153    0.46 7 74.7  38 
 PAM  SN ES        735 56.86                             153   -0.0710 74.7  38 
 PAM  SZ I         735 58.83        66.6 0.56            154           74.7  38 
 RUS  HZ EP        735 40.58                             145   -0.1410  101 178 
 RUS  HN ES        735 59.65                             145   -0.2110  101 178 
 RUS  HZ I         736  2.27        25.5 0.42            145            101 178 
 TAM  HZ IP     D  735 44.88                             133    0.71 9  152 106 
 TAM  HN ES        736  6.16                             133    0.14 9  152 106 
 TAM  HZ I         736  7.15        23.8 0.46            135            152 106 
 OCA  HZ EP        735 44.78                             131   -0.31 9  160 352 
 OCA  HN ES        736  7.12                             131   -0.53 9  160 352 
 OCA  HZ I         736 17.23        65.7 0.38            130            160 352 
 SPBC HZ EP   1    735 45.64                             130    0.11 7  166 220 
 SPBC HN ES        736  8.09                             130   -0.34 9  166 220 
 SPBC HZ I         736 11.12        62.2 0.14            128            166 220 
 ZAR  HZ EP   1    735 49.35                             124   -0.11 6  207 292 
 ZAR  HN ES        736 15.67                             124    0.25 8  207 292 
 ZAR  HZ I         736 21.41        73.0 0.30            121            207 292 
 NOR  HZ EP   1    735 52.36                             120   -0.35 6  238 235 
 NOR  HN ES        736 21.66                             120    0.45 8  238 235 
 NOR  HZ I         736 25.46        32.0 0.24            118            238 235 
 SML  HZ EP   1    735 52.84                             119   -0.52 6  245 334 
 SML  HN ES   1    736 21.69                             119   -0.68 6  245 334 
 SML  HZ I         736 28.08        70.2 0.10            118            245 334 
 CHI  HZ EP   1    735 54.31                             118   -0.16 6  250 196 
 CHI  HN ES        736 23.86                             118   -0.48 8  250 196 
 CHI  HZ I         736 33.14        17.7 0.66            118            250 196 
 HEL  HZ EP        735 58.08                             116    0.89 7  276 256 
 HEL  HN ES        736 29.20                             116    0.01 7  276 256 
 HEL  HZ I         736 34.62        23.6 0.26            114            276 256 
 URE  HZ EP   4    735 56.59                             115   -1.39 0  287 292 
 URE  HN ES   1    736 30.15                             115   -0.45 5  287 292 
 URE  HZ I         736 40.93        35.5 0.28            113            287 292 
 GUY2CHZ EP   4    736  1.42                             113    0.91 0  304 235 
 GUY2CHN ES   4    736 37.57                             113    2.47 0  304 235 
 GUY2CHZ I         736 41.59        23.0 0.38                           304 235 
 VIL  SZ EP   1    736  0.75                             113    0.66 5  305 192 
 VIL  SN ES   1    736 33.56                             113   -0.79 5  305 192 
 VIL  SZ I         736 42.06        17.2 0.56            113            305 192 
 PTGC HZ EP   1    735 59.51                             113   -0.78 5  308 159 
 PTGC HN ES   4    736 32.83                             113   -1.88 0  308 159 
 PTGC HZ I         736 35.31        20.1 0.38            113            308 159 
 RREF HZ EP   4    736  4.64                             112    1.63 0  325 230 
 RREF HN ES   4    736 41.69                             112    2.14 0  325 230 
 RREF HZ I         736 49.00        12.5 0.36            111            325 230 
 MON  HZ EP   4    736  3.82                             110   -1.96 0  356 308 
 MON  HN ES   4    736 42.72                             110   -1.75 0  356 308 
 MON  HZ I         736 57.52        13.7 0.54            109            356 308 
 ANIL HZ EP   4    736  7.00                             110    0.38 0  360 225 
 ANIL HN ES   4    736 47.16                             110    1.19 0  360 225 
 ANIL HZ I         736 52.61        40.9 0.46            109            360 225 
 SJC  HZ EP   4    736 10.80                             107   -1.38 0  411 326 
 SJC  HN ES   4    736 51.77                             107   -4.10 0  411 326 
 SJC  HZ I         736 56.56         8.2 0.52            106            411 326 
                                                                                
