 2017 1113 0249  2.5 L   6.800 -73.163149.9  RSN 18 0.7 2.6LRSN                1
 GAP=112        1.56       4.1     4.5  7.1  0.4819E+01  0.2663E+01  0.2730E+00E
 Epicentro: LOS SANTOS - SANTANDER                                             3
 ACTION:UPD 17-12-12 19:55 OP:rebc STATUS:               ID:20171113024902 L   I
 OLDACT:UP  17-11-13 15:32 OP:leo  STATUS:               ID:20171113024749     3
 OLDACT:UP  17-11-13 15:25 OP:leo  STATUS:               ID:20171113024749     3
 OLDACT:REG 17-11-13 13:19 OP:leo  STATUS:               ID:20171113024749     3
 2017-11-13-0248-00M.COL___453                                                 6
 STAT SP IPHASW D HRMM SECON CODA AMPLIT PERI AZIMU VELO AIN AR TRES W  DIS CAZ7
 BAR2 EZ IP     C  249 22.33                             171   -0.2610 23.1 185 
 BAR2 EZ E         249 37.30                                           23.1 185 
 BAR2 EZ ES        249 37.30                             171   -0.9910 23.1 185 
 BAR2 EZ I         249 38.65        81.4 0.54            171           23.1 185 
 BRR  HZ IP     C  249 24.15                             154    0.1810 69.5 299 
 BRR  HN ES        249 41.24                             154    0.5010 69.5 299 
 BRR  HZ I         249 43.72        63.9 0.30            154           69.5 299 
 RUS  HZ EP        249 26.55                             145   -0.0810  101 175 
 RUS  HN ES        249 45.57                             145    0.0810  101 175 
 PTB  HZ EP        249 29.17                             133   -0.43 9  146 259 
 PTB  HZ ES        249 51.61                             133    0.84 9  146 259 
 PTB  HZ I         249 57.09        36.3 0.42            133            146 259 
 TAM  HZ EP     D  249 30.82                             131    0.18 9  157 105 
 TAM  HZ I         249 51.53        14.9 0.48            130            157 105 
 SPBC HZ EP        249 31.26                             130    0.09 9  162 218 
 SPBC HE ES        249 53.54                             130   -0.02 9  162 218 
 SPBC HZ I         249 59.52        64.9 0.24            130            162 218 
 YPLC HZ EP        249 32.87                             127    0.22 9  178 151 
 YPLC HN ES        249 56.93                             127    0.73 9  178 151 
 YPLC HZ I         249 57.72        52.5 0.28            127            178 151 
 ZAR  HZ EP        249 34.91                             124   -0.08 9  202 292 
 ZAR  HN ES        250  0.38                             124    0.01 9  202 292 
 NOR  HZ EP        249 37.47                             120   -0.80 8  233 234 
 NOR  HN ES        250  6.96                             120    0.76 8  233 234 
 CHI  HZ EP        249 40.69                             118    0.35 8  248 195 
 CHI  HN ES        250 10.42                             118    0.53 8  248 195 
 CHI  HZ I         250 13.13        21.5 0.36            118            248 195 
 ROSC BZ EP   4    249 42.31                             118    1.61 0  252 211 
 ROSC BN ES   4    250 13.67                             118    3.13 0  252 211 
 ROSC BZ I         250 18.60        31.2 0.40            117            252 211 
 URE  HZ EP        249 43.00                             115   -0.53 7  282 292 
 URE  HN ES        250 13.74                             115   -1.83 7  282 292 
 URE  HZ I         250 26.87        25.0 0.18            114            282 292 
 DRL03HZ EP        249 44.75                             114    0.51 7  289 353 
 DRL03HN ES        250 18.05                             114    1.22 7  289 353 
 GUY2CHZ EP        249 46.71                             113    0.62 7  300 235 
 GUY2CHN ES        250 19.89                             113   -0.23 7  300 235 
 GUY2CHZ I         250 27.54        16.5 0.26                           300 235 
 PTGC HZ EP        249 45.62                             112   -0.97 7  309 158 
 PTGC HN ES        250 19.30                             112   -1.71 7  309 158 
 PTGC HZ I         250 20.72        21.2 0.22            112            309 158 
 DBB  EZ EP        249 49.59                             110   -0.29 7  338 274 
 DBB  EN ES        250 25.57                             110   -1.31 7  338 274 
 DBB  EZ I         250 28.29        12.2 0.14            110            338 274 
 PRA  HZ EP        249 56.87                             107    0.85 6  391 209 
 PRA  HN ES        250 37.77                             107   -0.02 6  391 209 
 PRA  HZ I         250 46.11        12.8 0.38            107            391 209 
 PAL  HZ EP        249 58.20                             107    0.63 6  404 239 
 PAL  HN ES        250 42.03                             107    1.48 6  404 239 
 SJC  HZ EP   4    249 56.48                             106   -1.55 0  408 327 
 SJC  HN ES   4    250 37.71                             106   -3.67 0  408 327 
                                                                                
