 2016  813 0018 52.8 L   6.814 -73.150151.0  RSN  4 0.5 1.4LRSN                1
 GAP=238        1.18       9.7    10.5 10.8  0.5469E+02 -0.2517E+01  0.8732E+01E
 Epicentro: LOS SANTOS - SANTANDER                                             3
 ACTION:UPD 16-10-29 15:35 OP:rebc STATUS:               ID:20160813001852 L   I
 OLDACT:REG 16-08-13 12:11 OP:dani STATUS:               ID:20160813001759     3
 2016-08-13-0017-59S.COL___349                                                 6
 STAT SP IPHASW D HRMM SECON CODA AMPLIT PERI AZIMU VELO AIN AR TRES W  DIS CAZ7
 BRR  HZ EP        019 14.02                             154   -0.4510 70.0 298 
 BRR  HN ES        019 31.81                             154    0.4510 70.0 298 
 BRR  HZ I         019 33.64         4.7 0.63                          70.0 298 
 RUS  HZ EP        019 17.56                             144    0.3610  102 176 
 RUS  HN ES        019 35.82                             144   -0.4010  102 176 
 RUS  HZ I         019 37.43         1.9 0.28                           102 176 
 PTB  HZ EP        019 19.63                             133   -0.58 9  148 258 
 PTB  HE ES        019 41.49                             133   -0.08 9  148 258 
 PTB  HZ I         019 47.11         2.7 0.26                           148 258 
 SPBC HZ EP        019 22.55                             130    0.74 9  164 219 
 SPBC HZ I         019 49.00         4.9 0.18                           164 219 
                                                                                
