 2017  913 0958  3.4 L   6.808 -73.045143.0  RSN  4 0.2 1.8LRSN                1
 GAP=248        0.59       5.1     9.6  4.7  0.3374E+02 -0.4988E+01  0.1432E+01E
 Epicentro: LOS SANTOS - SANTANDER                                             3
 ACTION:UPD 17-10-05 19:12 OP:rebc STATUS:               ID:20170913095803 L   I
 OLDACT:REG 17-09-13 13:51 OP:mg   STATUS:               ID:20170913093812     3
 2017-09-13-0948-00M.COL___403                                                 6
 STAT SP IPHASW D HRMM SECON CODA AMPLIT PERI AZIMU VELO AIN AR TRES W  DIS CAZ7
 BAR2 EZ EP     C  958 22.79                             168   -0.0210 28.3 212 
 BAR2 EZ ES        958 37.61                             168   -0.3410 28.3 212 
 BAR2 EZ I         958 40.59        21.4 0.32            154           28.3 212 
 BRR  HZ EP        958 24.70                             148   -0.1310 80.7 294 
 BRR  HN ES        958 41.75                             148    0.2110 80.7 294 
 BRR  HZ I         958 45.62        15.3 0.18            140           80.7 294 
 RUS  HZ EP        958 26.99                             143    0.0510  101 182 
 RUS  HN ES        958 45.60                             143    0.3010  101 182 
 RUS  HZ I         958 46.87         5.8 0.28            138            101 182 
 CHI  HZ EP        958 41.45                             116    0.06 8  253 198 
 CHI  HN ES   2    959 10.36                             116   -0.66 4  253 198 
 CHI  HZ I         959 16.55         3.1 0.36            114            253 198 
                                                                                
