 2012 1013 0405 60.0 L   6.776 -73.098144.0  RSN  7 0.4 1.9LRSN                1
 GAP=144        0.75       4.3     5.3  6.0  0.4494E+01  0.1060E+02  0.3272E+00E
 Epicentro: LOS SANTOS - SANTANDER                                             3
 ACTION:UPD 12-11-22 17:03 OP:ep   STATUS:               ID:20121013040560 L   I
 2012-10-13-0400-00M.COL___232                                                 6
 STAT SP IPHASW D HRMM SECON CODA AMPLIT PERI AZIMU VELO AIN AR TRES W  DIS CAZ7
 BAR2 SZ EP   1    4 6 19.13                             171   -0.26 7 22.4 205 
 BAR2 SZ I         4 6 19.30        20.5 0.18                          22.4 205 
 BAR2 SZ ES   1    4 6 34.34                             171   -0.18 7 22.4 205 
 GIR2 SZ EP   1    4 6 19.17                             166   -0.40 7 35.1 342 
 GIR2 SZ ES   1    4 6 35.30                             166    0.47 7 35.1 342 
 PAM  SZ EP   1    4 6 21.99                             151    0.04 7 76.3  35 
 PAM  SZ I         4 6 22.23        18.4 0.24                          76.3  35 
 PAM  SN ES   1    4 6 39.13                             151    0.05 7 76.3  35 
 PAM  SN I         4 6 40.02        12.9 0.24                          76.3  35 
 BRR  HZ EP   1    4 6 20.94                             150   -0.36 7 77.1 298 
 BRR  HZ I         4 6 21.34        20.8 0.14                          77.1 298 
 BRR  HE ES   1    4 6 38.26                             150    0.34 7 77.1 298 
 RUS  HZ EP   1    4 6 23.18                             144   -0.18 7 97.7 179 
 RUS  HN ES        4 6 41.70                             144    0.1110 97.7 179 
 RUS  HN I         4 6 42.31        10.9 0.30                          97.7 179 
 RUS  HZ I         4 6 42.81         5.9 0.42                          97.7 179 
 ZAR  HZ EP   1    4 6 33.66                             121    0.72 6  210 292 
 ZAR  HZ I         4 6 33.99         4.0 0.27                           210 292 
 ZAR  HN ES   1    4 6 57.90                             121   -0.74 6  210 292 
 ZAR  HN I         4 7  2.55        10.9 0.46                           210 292 
 HEL  HZ EP   1    4 6 41.16                             114    0.54 6  277 257 
 HEL  HZ I         4 7 18.53         3.2 0.24                           277 257 
                                                                                
