 2010  813 0409 35.4 L   6.773 -73.058144.1  RSN  9 0.5 2.0LRSN                1
 GAP=169        1.02       5.5    10.0 10.5 -0.2226E+02 -0.4033E+02  0.2396E+02E
 Epicentro: LOS SANTOS - SANTANDER                                             3
 ACTION:UP  10-09-07 10:54 OP:vdl  STATUS:               ID:20100813040935 L   I
 2010-08-13-0405-28S.COL___126                                                 6
 STAT SP IPHASW D HRMM SECON CODA AMPLIT PERI AZIMU VELO SNR AR TRES W  DIS CAZ7
 BAR2 SZ EP        4 9 54.56                             168    -0.310   24 215 
 GIR2 SZ EP   1    4 9 54.85                             162    -0.2 7   37 336 
 BRR  HZ EP        4 9 56.53                             145    -0.510   81 297 
 BRR  HZ I         4 9 56.84        24.0 0.20                            81 297 
 BRR  HN ES        410 13.94                             145     0.110   81 297 
 RUS  HZ EP   1    4 9 58.62                             143    -0.2 7   97 182 
 RUS  HN ES   2    410 17.35                                     0.3 5   97 182 
 GUE  SZ EP        410  0.73                             137     0.610  118   7 
 GRA  SZ EP        410  0.45                             135    -0.110  126  13 
 GRA  SZ ES   1    410 20.31                                     0.1 7  126  13 
 CHI  HZ EP   1    410 12.77                             115    -0.3 6  249 198 
 CHI  HE ES   2    410 43.42                             115     1.1 4  249 198 
 CHI  HZ I         410 51.57         3.9 0.61                           249 198 
 RREF HZ EP   1    410 23.33                             109     1.2 5  327 231 
 RREF HZ I         411  7.21         5.0 0.35                           327 231 
 PRA  HZ EP   1    410 28.79                             105    -0.4 4  394 211 
 PRA  HZ I         411 16.40         3.2 0.36                           394 211 
                                                                                
