 2014  113 0804 33.3 L   6.725 -73.177158.0  RSN  4 0.3 1.1LRSN                1
 GAP=136        0.66       5.0     5.5 11.7  0.1029E+02 -0.2427E+02 -0.4121E+02E
 Epicentro: VILLANUEVA - SANTANDER                                             3
 ACTION:UPD 14-03-13 09:54 OP:ep   STATUS:               ID:20140113080433 L   I
 OLDACT:UP  14-01-13 11:14 OP:cam  STATUS:               ID:20140113080000     3
 OLDACT:REG 14-01-13 07:57 OP:cam  STATUS:               ID:20140113080000     3
 2014-01-13-0800-00M.COL___285                                                 6
 STAT SP IPHASW D HRMM SECON CODA AMPLIT PERI AZIMU VELO AIN AR TRES W  DIS CAZ7
 PAM  SZ EP   1    8 4 56.98                             150   -0.36 8 86.0  38 
 RUS  HZ EP   1    8 4 57.93                             149    0.17 8 92.7 174 
 RUS  HN ES   1    8 5 17.00                             149    0.17 8 92.7 174 
 RUS  HZ I         8 5 17.55         0.9 0.52             90           92.7 174 
 PTB  HZ EP   2    8 5  1.55                             136    0.66 5  143 262 
 PTB  HN ES        8 5 22.19                             136   -0.2110  143 262 
 PTB  HZ I         8 5 23.16         1.0 0.14             90            143 262 
 SML  HZ EP        8 5 11.01                             119   -0.30 8  250 337 
 SML  HZ I         8 5 40.76         2.3 0.10             56            250 337 
 SML  HE ES        8 5 41.33                             119    0.39 8  250 337 
                                                                                
