 2015  913 0617 19.9 L   6.726 -73.152143.2  RSN  5 0.3 1.6LRSN                1
 GAP=248        0.84       5.0     6.5  6.3  0.4748E+01  0.1174E+02  0.1581E+01E
 Epicentro: JORDAN - SANTANDER                                                 3
 ACTION:UPD 15-10-28 16:25 OP:cam  STATUS:               ID:20150913061719 L   I
 OLDACT:REG 15-09-13 12:56 OP:drio STATUS:               ID:20150913060748     3
 2015-09-13-0607-48M.COL___323                                                 6
 STAT SP IPHASW D HRMM SECON CODA AMPLIT PERI AZIMU VELO AIN AR TRES W  DIS CAZ7
 BAR2 EZ ES        617 53.78                             174   -0.3010 15.2 193 
 BAR2 EZ I         617 54.88         8.5 0.38            168           15.2 193 
 BRR  HZ EP        617 41.01                             151   -0.0010 74.8 304 
 BRR  HN ES        617 57.90                             151    0.4410 74.8 304 
 BRR  HZ I         618  2.14         6.8 0.12            149           74.8 304 
 PTB  HZ EP        617 46.10                             132   -0.40 9  146 262 
 PTB  HN ES        618  6.88                             132   -0.34 9  146 262 
 PTB  HZ I         618  9.43         4.0 0.26            130            146 262 
 SPBC HZ EP        617 48.16                             130    0.57 9  156 221 
 SPBC HN ES        618  9.27                             130    0.10 9  156 221 
 SPBC HZ I         618 17.21         4.7 0.44            129            156 221 
 ZAR  HZ EP        617 52.22                             121   -0.25 8  207 294 
 ZAR  HE ES        618 18.02                             121    0.17 8  207 294 
 ZAR  HZ I         618 23.26         4.4 0.38            122            207 294 
                                                                                
