 2011  313 0514 44.0 L   6.841 -73.169134.7  RSN  9 0.4 1.9LRSN                1
 GAP=156        0.92       3.7     7.9  8.6 -0.1027E+02  0.4189E+02 -0.3970E+01E
 Epicentro: LOS SANTOS - SANTANDER                                             3
 ACTION:UP  11-06-16 14:33 OP:jfem STATUS:               ID:20110313051443 L   I
 2011-03-13-0513-14S.COL___134                                                 6
 STAT SP IPHASW D HRMM SECON CODA AMPLIT PERI AZIMU VELO SNR AR TRES W  DIS CAZ7
 BAR2 SZ IP        515  2.59                             168     0.210   28 183 
 BAR2 SZ I         515  2.92        23.0 0.09                            28 183 
 BAR2 SZ ES   1    515 16.47                             168    -0.2 7   28 183 
 RUS  HZ EP   1    515  6.77                             140    -0.2 7  105 175 
 RUS  HN ES   1    515 25.10                             140     0.1 7  105 175 
 RUS  HZ I         515 27.07        10.8 0.28                           105 175 
 GRA  SZ EP   1    515  8.34                             135     0.4 7  122  19 
 GRA  SZ ES   1    515 26.88                             135     0.2 7  122  19 
 GRA  SZ I         515 29.92        20.4 0.31                           122  19 
 OCA  SZ EP   1    515 10.51                             128    -0.5 7  156 354 
 OCA  SZ ES   1    515 31.75                             128    -0.3 7  156 354 
 OCA  SZ I         515 35.68        13.5 0.24                           156 354 
 NOR  SZ EP        515 18.66                             116    -0.5 8  235 233 
 NOR  SN ES   2    515 45.79                             116    -0.8 4  235 233 
 NOR  SZ I         515 50.52         1.7 0.35                           235 233 
 CHI  HZ EP   1    515 21.14                             114    -0.3 6  252 194 
 CHI  HE ES   2    515 50.88                             114     0.1 4  252 194 
 CHI  HZ I         515 54.80         3.9 0.34                           252 194 
 HEL  HZ EP        515 24.35                             112     0.9 8  271 255 
 HEL  HN ES   2    515 54.96                             112     0.7 4  271 255 
 HEL  HZ I         516  0.46         6.1 0.66                           271 255 
 DBB  SZ EP        515 30.38                             107    -0.3 7  337 274 
 PRA  HZ EP   2    515 37.06                             104    -0.4 3  395 209 
 PRA  HE ES   1    516 19.73                             104     0.6 4  395 209 
 PRA  HZ I         516 21.51         7.9 0.46                           395 209 
                                                                                
