 2011  513 0912 42.9 L   6.795 -73.089149.7  RSN  5 0.2 1.5LRSN                1
 GAP=165        0.53       2.7     6.8  5.5  0.8233E+00 -0.9042E+01 -0.3207E+01E
 Epicentro: LOS SANTOS - SANTANDER                                             3
 ACTION:UP  11-06-29 08:53 OP:tino STATUS:               ID:20110513091242 L   I
 2011-05-13-0900-00M.COL___139                                                 6
 STAT SP IPHASW D HRMM SECON CODA AMPLIT PERI AZIMU VELO SNR AR TRES W  DIS CAZ7
 BAR2 SZ EP   1    913  2.75                             170    -0.3 7   25 205 
 BAR2 SZ ES   1    913 18.95                             170     0.2 7   25 205 
 BAR2 SZ I         913 21.12         9.0 0.48                            25 205 
 BRR  HZ EP   1    913  4.52                             151    -0.3 7   77 297 
 BRR  HZ I         913  4.84         7.9 0.27                            77 297 
 BRR  HE ES   1    913 21.93                             151     0.1 7   77 297 
 RUS  HZ EP   1    913  7.00                             145     0.0 7  100 180 
 RUS  HN ES   1    913 25.70                             145     0.0 7  100 180 
 RUS  HZ I         913 27.12         1.9 0.36                           100 180 
 GRA  SZ EP   1    913  8.52                             138     0.2 7  125  15 
 GRA  SZ ES   1    913 28.07                             138    -0.2 7  125  15 
 GRA  SZ I         913 29.14         3.9 0.33                           125  15 
 OCA  SZ EP   1    913 12.02                             130     0.4 7  162 351 
 OCA  SZ ES   1    913 33.95                             130    -0.1 7  162 351 
 OCA  SZ I         913 36.35         3.2 0.47                           162 351 
                                                                                
