 2017 1013 0220 14.0 L   6.802 -73.153141.1  RSN 12 0.4 2.4LRSN                1
 GAP=108        0.93       3.2     2.6  5.2  0.1920E+00  0.4055E+01  0.3526E+01E
 Epicentro: LOS SANTOS - SANTANDER                                             3
 ACTION:UPD 17-11-07 19:31 OP:rebc STATUS:               ID:20171013022014 L   I
 OLDACT:UP  17-10-13 16:33 OP:y    STATUS:               ID:20171013021112     3
 OLDACT:UP  17-10-13 16:26 OP:y    STATUS:               ID:20171013021112     3
 OLDACT:REG 17-10-13 13:39 OP:leo  STATUS:               ID:20171013021112     3
 2017-10-13-0218-00M.COL___426                                                 6
 STAT SP IPHASW D HRMM SECON CODA AMPLIT PERI AZIMU VELO AIN AR TRES W  DIS CAZ7
 BAR2 EZ IP     C  220 33.05                             170    0.0110 23.4 188 
 BAR2 EZ ES        220 47.74                             170   -0.1810 23.4 188 
 BAR2 EZ I         220 49.06        79.9 0.22            168           23.4 188 
 PAM  EZ EP        220 35.94                             150    0.2310 77.7  40 
 PAM  EN ES        220 52.77                             150    0.1010 77.7  40 
 PAM  EZ I         220 54.35        27.6 0.20            153           77.7  40 
 RUS  HZ IP     C  220 37.02                             143   -0.2610  101 176 
 RUS  HN ES        220 55.30                             143   -0.1710  101 176 
 RUS  HZ I         220 56.27        21.3 0.26            143            101 176 
 PTB  HZ EP        220 39.88                             131   -0.61 9  147 259 
 PTB  HN ES        221  0.70                             131   -0.48 9  147 259 
 PTB  HZ I         221  2.99        30.6 0.14            131            147 259 
 TAM  HZ EP        220 40.92                             129   -0.43 9  156 105 
 TAM  HN ES        221  2.86                             129    0.14 9  156 105 
 TAM  HZ I         221  3.34        23.7 0.26            131            156 105 
 YPLC HZ IP     C  220 43.50                             125    0.02 9  177 151 
 YPLC HN ES        221  7.27                             125    0.77 9  177 151 
 YPLC HZ I         221  9.92        16.5 0.24            126            177 151 
 ZAR  HZ EP        220 45.84                             121   -0.19 9  203 292 
 ZAR  HN ES        221 11.79                             121    0.75 9  203 292 
 ZAR  HZ I         221 17.81        40.4 0.28            122            203 292 
 NOR  HZ EP        220 49.49                             117    0.12 8  234 234 
 NOR  HN ES        221 16.87                             117   -0.12 8  234 234 
 NOR  HZ I         221 22.26        20.7 0.22            118            234 234 
 CHI  HZ EP        220 51.28                             116   -0.13 8  249 195 
 CHI  HN ES        221 20.38                             116   -0.23 8  249 195 
 CHI  HZ I         221 24.12         6.8 0.52            116            249 195 
 ROSC BZ EP   4    220 53.04                             116    1.23 0  253 211 
 ROSC BN ES   4    221 23.62                             116    2.29 0  253 211 
 ROSC BZ I         221 27.74        20.3 0.35            116            253 211 
 GUY2CHZ EP        220 57.83                             111    0.53 7  301 235 
 GUY2CHN ES        221 32.03                             111    0.92 7  301 235 
 GUY2CHZ I         221 40.23        13.7 0.40                           301 235 
 PRA  HZ EP        221  6.87                             106   -0.43 6  392 209 
 PRA  HE ES        221 49.08                             106    0.17 6  392 209 
 PRA  HZ I         221 54.89        13.3 0.36            106            392 209 
                                                                                
