 2016  813 0321 14.8 L   6.760 -73.167151.4  RSN  5 0.2 1.2LRSN                1
 GAP=232        0.52       3.1     3.6  5.2  0.5273E+01 -0.7501E+00 -0.1752E+01E
 Epicentro: LOS SANTOS - SANTANDER                                             3
 ACTION:UPD 16-10-29 15:35 OP:rebc STATUS:               ID:20160813032114 L   I
 OLDACT:REG 16-08-13 12:24 OP:dani STATUS:               ID:20160813031659     3
 2016-08-13-0316-59S.COL___346                                                 6
 STAT SP IPHASW D HRMM SECON CODA AMPLIT PERI AZIMU VELO AIN AR TRES W  DIS CAZ7
 BRR  HZ EP        321 36.58                             153    0.0010 71.4 303 
 BRR  HE ES        321 53.63                             153    0.0710 71.4 303 
 BRR  HZ I         322  1.32         4.3 0.44                          71.4 303 
 RUS  HZ EP        321 39.09                             146    0.2710 96.3 174 
 RUS  HE ES        321 57.31                             146   -0.2410 96.3 174 
 RUS  HZ I         321 59.47         2.3 0.16                          96.3 174 
 PTB  HZ EP        321 41.73                             134   -0.23 9  145 260 
 PTB  HE ES        322  3.36                             134    0.22 9  145 260 
 PTB  HZ I         322  4.79         2.0 0.22                           145 260 
 SPBC HN ES        322  5.52                             131    0.02 9  158 219 
 ZAR  HN ES        322 12.99                             124   -0.15 9  204 294 
                                                                                
