 2011  113 0920 39.1 L   6.799 -73.394133.1  RSN  5 0.3 1.4LRSN                1
 GAP=202        0.77       4.5    19.1  7.2 -0.3195E+02  0.3324E+02 -0.8513E+01E
 Epicentro: SAN VICENTE DE CHUCURI - SANTANDER                                 3
 ACTION:UP  11-02-08 08:40 OP:pat  STATUS:               ID:20110113092039 L   I
 2011-01-13-0916-53S.COL___136                                                 6
 STAT SP IPHASW D HRMM SECON CODA AMPLIT PERI AZIMU VELO SNR AR TRES W  DIS CAZ7
 BTL  SZ EP        920 56.77                             171    -0.410   19  47 
 BTL  SZ ES   1    921 11.34                             171     0.2 7   19  47 
 BAR2 SZ EP        920 57.61                             165     0.210   33 135 
 BAR2 SZ ES   1    921 11.94                             165     0.2 7   33 135 
 BAR2 SZ I         921 13.95        10.2 0.37                            33 135 
 RUS  HZ EP        921  2.04                             139     0.010  106 161 
 RUS  HN ES   1    921 19.72                             139    -0.2 7  106 161 
 RUS  HZ I         921 21.78         4.6 0.48                           106 161 
 GRA  SZ EP        921  4.66                             131     0.4 9  137  28 
 GRA  SZ ES   1    921 23.37                             131    -0.4 7  137  28 
 GRA  SZ I         921 25.07         2.6 0.18                           137  28 
 OCA  SZ EP   2    921  6.09                             127    -0.3 5  159   3 
 OCA  SZ I         921 34.99         3.4 0.28                           159   3 
                                                                                
