 2010  313 0446 22.3 L   6.790 -73.073141.3  RSN  6 0.2 1.7LRSN                1
 GAP=190        0.47       2.4     8.5  5.1  0.6182E+01  0.2380E+01 -0.2129E+01E
 Epicentro: LOS SANTOS - SANTANDER                                             3
 ACTION:UP  10-08-24 09:53 OP:vdl  STATUS:               ID:20100313044622 L   I
 2010-03-13-0441-43S.COL___095                                                 6
 STAT SP IPHASW D HRMM SECON CODA AMPLIT PERI AZIMU VELO SNR AR TRES W  DIS CAZ7
 BAR2 SZ ES   2    446 56.24                             169    -0.2 5   25 209 
 BRR  HZ EP   1    446 43.56                             149     0.1 7   79 296 
 BRR  HE ES   2    447  0.35                             149     0.4 5   79 296 
 BRR  HZ I         447  3.44         7.2 0.21                            79 296 
 RUS  HZ EP   1    446 45.57                             143     0.0 7   99 181 
 RUS  HN ES        447  3.69                             143     0.010   99 181 
 RUS  HZ I         447  4.79         4.3 0.24                            99 181 
 OCA  SZ EP   1    446 50.70                             128     0.2 7  163 350 
 OCA  SZ ES   1    447 12.08                             128    -0.4 7  163 350 
 OCA  SZ I         447 16.33        13.3 0.44                           163 350 
 CHI  HZ EP   2    446 59.87                             116     0.0 4  250 197 
 PRA  HZ EP   2    447 16.18                             105     0.1 3  395 211 
 PRA  HN ES   2    447 57.43                             105    -0.5 3  395 211 
 PRA  HZ I         448  3.01         1.8 0.47                           395 211 
                                                                                
