 2016  913 0413 57.6 L   6.789 -73.085147.1  RSN 21 0.6 2.3LRSN                1
 GAP=125        1.25       2.8     3.9  5.6 -0.1263E+01  0.3543E+01  0.2260E+01E
 Epicentro: LOS SANTOS - SANTANDER                                             3
 ACTION:UPD 17-08-17 21:09 OP:lp   STATUS:               ID:20160913041357 L   I
 OLDACT:REG 16-09-13 12:43 OP:and  STATUS:               ID:20160913040737     3
 2016-09-13-0408-00M.COL___318                                                 6
 STAT SP IPHASW D HRMM SECON CODA AMPLIT PERI AZIMU VELO AIN AR TRES W  DIS CAZ7
 BAR2 EZ IP     D  414 17.51                             170    0.1110 24.3 206 
 BAR2 EZ ES        414 32.83                             170   -0.0310 24.3 206 
 BAR2 EZ I         414 34.23        49.4 0.19            171           24.3 206 
 PAM  EZ EP        414 20.30                             152    0.5310 74.3  35 
 PAM  EN ES        414 37.62                             152    0.5510 74.3  35 
 PAM  EZ I         414 40.77        15.2 0.33            148           74.3  35 
 BRR  HZ IP     C  414 19.37                             151    0.1010 77.7 297 
 BRR  HN ES        414 36.47                             151    0.3010 77.7 297 
 BRR  HZ I         414 40.50        27.8 0.25            147           77.7 297 
 RUS  HZ EP        414 21.47                             144    0.1010 99.1 180 
 RUS  HN ES        414 39.70                             144   -0.2210 99.1 180 
 RUS  HZ I         414 41.28        12.8 0.20            143           99.1 180 
 PTB  HZ EP        414 25.03                             131   -0.22 9  154 260 
 PTB  HE ES        414 46.30                             131   -0.53 9  154 260 
 PTB  HZ I         414 47.96        16.9 0.15            128            154 260 
 OCA  HZ EP        414 25.67                             130   -0.54 9  162 351 
 OCA  HN ES        414 48.09                             130   -0.44 9  162 351 
 OCA  HZ I         414 50.92        33.0 0.20            126            162 351 
 SPBC HZ EP        414 26.48                             129   -0.04 9  167 221 
 SPBC HN ES        414 48.83                             129   -0.25 9  167 221 
 SPBC HZ I         414 53.47        33.1 0.14            126            167 221 
 ZAR  HZ EP        414 29.93                             122   -0.89 8  211 292 
 ZAR  HE ES        414 56.15                             122   -0.58 8  211 292 
 ZAR  HZ I         415  0.87        20.2 0.34            119            211 292 
 NOR  HZ EP        414 33.67                             118   -0.25 8  240 236 
 NOR  HN ES        415  1.94                             118   -0.31 8  240 236 
 NOR  HZ I         415  7.16        12.3 0.21            116            240 236 
 CHI  HZ EP        414 35.96                             117    0.52 8  249 197 
 CHI  HN ES        415  4.96                             117    0.00 8  249 197 
 CHI  HZ I         415  8.83         9.5 0.46            115            249 197 
 ROSC BZ EP   4    414 37.45                             117    1.39 0  255 212 
 ROSC BN ES        415  5.37                             117   -0.69 8  255 212 
 ROSC BZ I         415 12.22        31.5 0.40            114            255 212 
 HEL  HZ EP        414 39.11                             114    0.54 7  278 256 
 HEL  HE ES        415 12.82                             114    2.29 7  278 256 
 HEL  HZ I         415 15.60         7.8 0.30            112            278 256 
 URE  HZ EP   4    414 42.66                             113    3.18 0  291 292 
 URE  HE ES   4    415  9.19                             113   -2.96 0  291 292 
 URE  HZ I         415 13.38         9.8 0.14            111            291 292 
 VIL  EZ EP        414 41.61                             112    0.51 7  304 193 
 VIL  EE ES        415 15.03                             112    0.00 7  304 193 
 VIL  EZ I         415 25.26        15.8 0.40            110            304 193 
 PTGC HZ EP        414 40.74                             112   -0.37 7  305 160 
 PTGC HN ES        415 14.89                             112   -0.16 7  305 160 
 PTGC HZ I         415 16.93         9.0 0.42            110            305 160 
 GUY2CHZ EP        414 42.51                             112    0.70 7  306 236 
 GUY2CHE ES        415 15.73                             112   -0.57 7  306 236 
 GUY2CHZ I         415 23.75        12.1 0.36                           306 236 
 LL6C HZ EP        414 43.05                             111   -0.48 7  326 356 
 LL6C HZ I         415 18.58         6.9 0.46            108            326 356 
 LL6C HN ES        415 19.82                             111    0.46 7  326 356 
 ELA  HZ EP   4    414 47.25                             110    2.25 0  333 230 
 ELA  HE ES   4    415 24.44                             110    2.46 0  333 230 
 ELA  HZ I         415 30.50         7.8 0.58            108            333 230 
 CBOC HZ EP        414 45.11                             110   -0.15 7  340 253 
 CBOC HN ES        415 22.80                             110    0.37 7  340 253 
 SJC  HZ EP   4    414 51.85                             106   -1.90 0  414 326 
 SJC  HN ES   4    415 32.41                             106   -5.15 0  414 326 
 SJC  HZ I         415 47.67         2.6 0.31            103            414 326 
 CRJC HZ EP   4    414 58.02                             103   -2.21 0  468   3 
 CRJC HN ES   4    415 46.45                             103   -2.64 0  468   3 
 CRJC HZ I         415 51.69         5.4 0.38            101            468   3 
                                                                                
