 2017  613 0900 27.1 L   6.787 -73.162155.7  RSN  5 0.3 1.3LRSN                1
 GAP=279        0.76       4.8     7.6  9.1 -0.7852E+01 -0.5316E+01  0.8214E+01E
 Epicentro: LOS SANTOS - SANTANDER                                             3
 ACTION:UPD 17-09-14 16:51 OP:jn   STATUS:               ID:20170613090027 L   I
 OLDACT:UP  17-06-13 16:52 OP:dani STATUS:               ID:20170613085729     3
 OLDACT:UP  17-06-13 16:51 OP:dani STATUS:               ID:20170613085729     3
 OLDACT:UP  17-06-13 16:51 OP:dani STATUS:               ID:20170613085729     3
 OLDACT:UP  17-06-13 16:51 OP:dani STATUS:               ID:20170613085729     3
 OLDACT:REG 17-06-13 13:02 OP:dani STATUS:               ID:20170613085729     3
 2017-06-13-0858-00M.COL___356                                                 6
 STAT SP IPHASW D HRMM SECON CODA AMPLIT PERI AZIMU VELO AIN AR TRES W  DIS CAZ7
 BRR  HZ EP        9 0 49.30                             155    0.0210 70.3 300 
 BRR  HE ES        9 1  6.78                             155    0.2010 70.3 300 
 BRR  HZ I         9 1 11.09         3.2 0.21            151           70.3 300 
 PTB  HZ EP        9 0 54.54                             135   -0.17 9  146 259 
 PTB  HN ES        9 1 15.69                             135   -0.56 9  146 259 
 PTB  HZ I         9 1 17.13         1.4 0.20            135            146 259 
 SPBC HE ES        9 1 18.80                             132   -0.05 9  161 219 
 ZAR  HZ EP   4    9 1  2.70                             125    2.61 0  203 293 
 ZAR  HN ES        9 1 25.98                             125    0.15 9  203 293 
 ZAR  HZ I         9 1 31.59         2.8 0.23            125            203 293 
 NOR  HN ES        9 1 31.85                             121    0.53 8  232 234 
                                                                                
