 2015  413 0755 46.4 L   6.812 -73.128148.0  RSN  6 0.5 1.5LRSN                1
 GAP=185        1.16       5.0     6.6  8.2  0.6678E+01  0.5875E+01 -0.8717E+01E
 Epicentro: LOS SANTOS - SANTANDER                                             3
 ACTION:UPD 15-06-03 16:54 OP:cam  STATUS:               ID:20150413075546 L   I
 OLDACT:REG 15-04-13 13:16 OP:carl STATUS:               ID:20150413074739     3
 2015-04-13-0747-39M.COL___266                                                 6
 STAT SP IPHASW D HRMM SECON CODA AMPLIT PERI AZIMU VELO AIN AR TRES W  DIS CAZ7
 BAR2 EZ ES        756 21.54                             170   -0.3210 25.1 194 
 BRR  HN ES        756 25.12                             153    0.5610 72.3 297 
 RUS  HZ EP        756 10.85                             144    0.4110  102 177 
 RUS  HN ES        756 29.37                             144    0.1710  102 177 
 RUS  HZ I         756 30.25         3.5 0.30            147            102 177 
 PTB  HZ EP        756 13.36                             132   -0.37 9  150 258 
 PTB  HN ES        756 34.21                             132   -0.85 9  150 258 
 PTB  HZ I         756 38.26         3.4 0.10            132            150 258 
 OCA  HZ EP        756 14.37                             130   -0.38 9  159 352 
 OCA  HN ES        756 36.72                             130   -0.17 9  159 352 
 OCA  HZ I         756 42.05         4.9 0.50            130            159 352 
 ZAR  HZ EP        756 19.43                             123    0.33 8  205 292 
 ZAR  HN ES        756 45.28                             123    0.65 8  205 292 
 ZAR  HZ I         756 52.68         2.7 0.44            122            205 292 
                                                                                
