 2014 1213 0524 29.3 L   6.959 -73.177138.7  RSN  7 0.5 1.5LRSN                1
 GAP=124        1.37       4.5     6.6  8.7 -0.2251E+00  0.9787E+01 -0.7901E+01E
 Epicentro: GIRON - SANTANDER                                                  3
 ACTION:UPD 15-02-10 17:03 OP:nd   STATUS:               ID:20141213052429 L   I
 OLDACT:REG 14-12-13 14:25 OP:stll STATUS:               ID:20141213051744     3
 2014-12-13-0517-44M.COL___294                                                 6
 STAT SP IPHASW D HRMM SECON CODA AMPLIT PERI AZIMU VELO AIN AR TRES W  DIS CAZ7
 BAR2 EZ EP        524 48.75                             163    0.1910 40.6 181 
 BAR2 EZ I         524 48.91         7.7 0.24            162           40.6 181 
 BAR2 EZ ES        525  3.84                             163    0.2510 40.6 181 
 BRR  HZ EP        524 49.83                             155    0.7110 61.4 286 
 BRR  HN ES        525  5.53                             155    0.9310 61.4 286 
 PAM  SZ EP        524 50.68                             153    0.5210 67.4  51 
 PAM  SZ I         524 51.07         5.6 0.18            158           67.4  51 
 PAM  SN ES        525  5.93                             153   -0.5210 67.4  51 
 RUS  HZ EP        524 54.06                             137    0.3210  118 175 
 RUS  HN ES        525 11.94                             137   -0.8810  118 175 
 RUS  HZ I         525 14.25         2.9 0.26            139            118 175 
 OCA  HZ EP        524 55.51                             132    0.13 9  142 354 
 OCA  HN ES        525 15.26                             132   -0.47 9  142 354 
 OCA  HZ I         525 18.51         4.8 0.14            132            142 354 
 PTB  HZ EP        524 55.57                             130   -0.22 9  149 252 
 PTB  HN ES        525 15.84                             130   -0.62 9  149 252 
 PTB  HZ I         525 26.07         3.5 0.16            128            149 252 
 SML  HZ EP        525  3.24                             118   -0.39 8  226 334 
 SML  HN ES        525 30.04                             118   -0.38 8  226 334 
 SML  HZ I         525 34.74         8.8 0.10            118            226 334 
                                                                                
