 2015  313 0424  3.5 L   6.715 -73.144148.5  RSN  4 0.3 1.4LRSN                1
 GAP=231        0.80       5.7     6.2  7.5  0.1444E+02  0.1778E+01  0.6449E+01E
 Epicentro: JORDAN - SANTANDER                                                 3
 ACTION:UPD 15-04-30 16:25 OP:nd   STATUS:               ID:20150313042403 L   I
 OLDACT:REG 15-03-13 13:15 OP:cam  STATUS:               ID:20150313041744     3
 2015-03-13-0417-44M.COL___281                                                 6
 STAT SP IPHASW D HRMM SECON CODA AMPLIT PERI AZIMU VELO AIN AR TRES W  DIS CAZ7
 BRR  HN ES        424 42.48                             151    0.2410 76.3 305 
 RUS  HZ EP        424 27.16                             147    0.2410 91.2 176 
 RUS  HN ES        424 44.78                             147   -0.3710 91.2 176 
 PTB  HZ EP        424 30.19                             133   -0.43 9  146 262 
 PTB  HN ES        424 51.50                             133   -0.24 9  146 262 
 PTB  HZ I         424 58.46         2.3 0.50            127            146 262 
 SPBC HZ EP        424 31.76                             131    0.16 9  156 221 
 SPBC HE ES        424 53.86                             131    0.38 9  156 221 
 SPBC HZ I         425  1.17         3.9 0.36            126            156 221 
                                                                                
