 2016  713 0904 53.6 L   6.746 -73.143154.0  RSN  6 0.4 1.5LRSN                1
 GAP=233        1.03       6.0     8.4  9.0  0.2129E+02  0.1237E+02 -0.5495E+01E
 Epicentro: LOS SANTOS - SANTANDER                                             3
 *M:4.3 Z:0KM 7.364N 80.426W LOS SANTOS-PANAMA (IGC)                           3
 ACTION:UPD 17-03-29 16:50 OP:lp   STATUS:               ID:20160713090453 L   I
 OLDACT:UP  16-07-13 17:06 OP:dani STATUS:               ID:20160713085760d    3
 OLDACT:DUP 16-07-13 16:47 OP:dani STATUS:               ID:20160713085760d    3
 OLDACT:REG 16-07-13 13:28 OP:dani STATUS:               ID:20160713085759     3
 2016-07-13-0857-59S.COL___322                                                 6
 STAT SP IPHASW D HRMM SECON CODA AMPLIT PERI AZIMU VELO AIN AR TRES W  DIS CAZ7
 BAR2 HZ EP        9 5 14.14                             173    0.0410 17.5 194 
 BRR  HZ EP        9 5 16.01                             153    0.2110 74.5 302 
 BRR  HN ES        9 5 33.56                             153    0.4210 74.5 302 
 BRR  HZ I         9 5 36.96         3.9 0.34            138           74.5 302 
 RUS  HE ES        9 5 35.97                             147   -0.6110 94.6 176 
 PTB  HZ EP        9 5 20.84                             134   -0.32 9  147 261 
 PTB  HZ I         9 5 48.05         2.7 0.20            120            147 261 
 SPBC HZ EP        9 5 22.94                             132    0.63 9  159 220 
 SPBC HN ES        9 5 45.02                             132    0.29 9  159 220 
 SPBC HZ I         9 5 48.12         5.8 0.22            119            159 220 
 ZAR  HZ EP        9 5 26.57                             124   -0.26 8  207 294 
 ZAR  HE ES        9 5 52.26                             124   -0.51 8  207 294 
 ZAR  HZ I         9 5 59.26         4.1 0.28            112            207 294 
                                                                                
