 2011 1213 0520 54.8 L   6.757 -73.182146.4  RSN  4 0.1 1.4LRSN                1
 GAP=230        0.34       3.7     3.6  4.7  0.6794E+01 -0.2015E+01 -0.1167E+01E
 Epicentro: VILLANUEVA - SANTANDER                                             3
 ACTION:UPD 12-07-13 16:15 OP:ep   STATUS:               ID:20111213052054 L   I
 2011-12-13-0520-00M.COL___185                                                 6
 STAT SP IPHASW D HRMM SECON CODA AMPLIT PERI AZIMU VELO AIN AR TRES W  DIS CAZ7
 BAR2 SZ EP   1    521 14.20                             173   -0.24 7 18.2 180 
 BAR2 SZ I         521 26.73         6.3 0.53                          18.2 180 
 BRR  HZ EP   1    521 16.08                             153    0.09 7 70.2 304 
 BRR  HZ I         521 16.39         4.2 0.16                          70.2 304 
 BRR  HN ES   1    521 32.55                             153    0.05 7 70.2 304 
 RUS  HZ EP   1    521 18.39                             145    0.06 7 96.2 173 
 RUS  HE ES   1    521 36.71                             145    0.05 7 96.2 173 
 PTB  HZ EP   1    521 21.48                             133    0.07 7  143 260 
 PTB  HN ES   1    521 42.06                             133   -0.09 7  143 260 
                                                                                
