 2016 1013 0705 21.7 L   6.849 -73.191139.6  RSN  4 0.3 0.7LRSN                1
 GAP=149        0.69       5.6     4.1 11.9 -0.2596E+01 -0.4081E+00 -0.3849E+02E
 Epicentro: ZAPATOCA - SANTANDER                                               3
 ACTION:UPD 16-11-09 19:19 OP:rebc STATUS:               ID:20161013070521 L   I
 OLDACT:DUP 16-10-13 17:00 OP:lv   STATUS:               ID:20161013065741d    3
 2016-10-13-0658-00M.COL___357                                                 6
 STAT SP IPHASW D HRMM SECON CODA AMPLIT PERI AZIMU VELO AIN AR TRES W  DIS CAZ7
 PAM  EZ EP        7 5 43.38                             150    0.1610 76.7  45 
 RUS  HZ EP        7 5 44.87                             141   -0.4210  106 174 
 RUS  HE ES        7 6  3.74                             141    0.0410  106 174 
 RUS  HZ I         7 6  4.40         0.8 0.36            146            106 174 
 PTB  HZ EP        7 5 48.04                             131    0.21 9  144 256 
 PTB  HE ES        7 6  7.95                             131   -0.26 9  144 256 
 PTB  HZ I         7 6 11.21         0.6 0.21            134            144 256 
 SPBC HN ES        7 6 12.12                             127    0.31 9  164 216 
                                                                                
