 2016 1013 0007 43.7 L   6.731 -73.131146.2  RSN  9 0.4 1.7LRSN                1
 GAP= 92        1.01       4.0     3.6  6.0 -0.1692E+01  0.2553E+01  0.9651E+00E
 Epicentro: JORDAN - SANTANDER                                                 3
 ACTION:UPD 16-11-09 19:19 OP:rebc STATUS:               ID:20161013000743 L   I
 OLDACT:REG 16-10-13 12:29 OP:y    STATUS:               ID:20161013000000     3
 2016-10-13-0000-15M.COL___372                                                 6
 STAT SP IPHASW D HRMM SECON CODA AMPLIT PERI AZIMU VELO AIN AR TRES W  DIS CAZ7
 BAR2 EZ EP        0 8  3.18                             173   -0.0310 16.3 200 
 BAR2 EZ ES        0 8 18.42                             173   -0.0510 16.3 200 
 BAR2 EZ I         0 8 22.73         5.6 0.14            173           16.3 200 
 BRR  HZ EP        0 8  5.19                             151    0.0410 76.5 303 
 BRR  HE ES        0 8 22.52                             151    0.6010 76.5 303 
 BRR  HZ I         0 8 27.63        13.7 0.40            150           76.5 303 
 PAM  EZ EP        0 8  6.28                             149    0.0510 82.5  35 
 PAM  EN ES        0 8 23.42                             149   -0.4110 82.5  35 
 PAM  EZ I         0 8 25.81         9.9 0.46            152           82.5  35 
 RUS  HZ EP        0 8  6.92                             146    0.0210 92.8 177 
 RUS  HE ES        0 8 24.86                             146   -0.1810 92.8 177 
 RUS  HZ I         0 8 26.49         5.8 0.36            150           92.8 177 
 PTB  HZ EP        0 8 10.12                             132   -0.56 9  148 262 
 PTB  HN ES        0 8 30.98                             132   -0.78 9  148 262 
 PTB  HZ I         0 8 36.19         5.2 0.16            134            148 262 
 TAM  HZ EP        0 8 11.48                             131    0.43 9  152 102 
 SPBC HZ EP        0 8 11.89                             130    0.16 9  158 221 
 SPBC HE ES        0 8 34.19                             130    0.57 9  158 221 
 SPBC HZ I         0 8 36.31         6.8 0.22            133            158 221 
 ZAR  HZ EP        0 8 16.25                             122   -0.33 8  209 294 
 ZAR  HE ES        0 8 42.91                             122    0.64 8  209 294 
 ZAR  HZ I         0 8 48.39         7.1 0.26            124            209 294 
 NOR  HE ES        0 8 46.60                             119   -0.11 8  232 236 
 NOR  HZ I         0 8 48.72         4.4 0.38            122            232 236 
                                                                                
