 2011 1013 0616 35.0 L   6.758 -73.111138.0  RSN  4 0.2 1.5LRSN                1
 GAP=143        0.41       4.2     6.7  8.8  0.1051E+02 -0.4496E+02 -0.8664E+01E
 Epicentro: LOS SANTOS - SANTANDER                                             3
 ACTION:UPD 12-07-13 16:03 OP:ep   STATUS:               ID:20111013061635 L   I
 2011-10-13-0615-56S.COL___161                                                 6
 STAT SP IPHASW D HRMM SECON CODA AMPLIT PERI AZIMU VELO AIN AR TRES W  DIS CAZ7
 BAR2 SZ EP        616 53.64                             172    0.0010 19.9 203 
 BAR2 SZ I         617 10.04        12.0 0.46                          19.9 203 
 BRR  HZ EP   1    616 55.39                             150   -0.28 7 76.8 300 
 BRR  HN ES        617 11.87                             150    0.0910 76.8 300 
 BRR  HZ I         617 16.55         7.0 0.13                          76.8 300 
 PAM  SZ EP        616 56.51                             149    0.0210 78.8  35 
 PAM  SZ I         616 56.73         5.3 0.25                          78.8  35 
 RUS  HZ EP   2    616 57.97                             144    0.32 5 95.7 178 
 RUS  HN ES   2    617 15.16                             144   -0.14 5 95.7 178 
 RUS  HZ I         617 18.17         2.9 0.16                          95.7 178 
                                                                                
