 2014 1213 0727 34.8 L   6.816 -73.172140.2  RSN 21 0.6 2.5LRSN                1
 GAP= 63        1.55       3.5     4.2  6.9 -0.2977E+01  0.7846E+01  0.3756E+01E
 Epicentro: LOS SANTOS - SANTANDER                                             3
 ACTION:UPD 15-02-10 17:03 OP:nd   STATUS:               ID:20141213072734 L   I
 OLDACT:DUP 14-12-13 18:21 OP:stll STATUS:               ID:20141213071744d    3
 2014-12-13-0717-43M.COL___294                                                 6
 STAT SP IPHASW D HRMM SECON CODA AMPLIT PERI AZIMU VELO AIN AR TRES W  DIS CAZ7
 BAR2 EZ EP        727 53.91                             169    0.1610 24.7 183 
 BAR2 EZ ES        728  8.62                             169    0.0610 24.7 183 
 BAR2 EZ I         728 10.02        96.2 0.34            171           24.7 183 
 BRR  HZ IP     C  727 55.66                             153    0.5410 67.8 298 
 BRR  HZ I         727 55.78       112.2 0.14            148           67.8 298 
 BRR  HN ES        728 12.13                             153    1.1310 67.8 298 
 PAM  SZ EP        727 56.70                             150    0.2810 77.9  42 
 PAM  SN ES        728 13.35                             150    0.0410 77.9  42 
 PAM  SZ I         728 16.11        95.9 0.84            149           77.9  42 
 RUS  HZ EP     D  727 57.88                             142   -0.2310  103 175 
 RUS  HE ES        728 15.93                             142   -0.4010  103 175 
 RUS  HZ I         728 17.52        27.8 0.30            143            103 175 
 PTB  HZ EP        728  0.40                             131   -0.65 9  145 258 
 PTB  HN ES        728 21.29                             131   -0.27 9  145 258 
 PTB  HZ I         728 24.74        28.4 0.18            128            145 258 
 OCA  HZ EP        728  2.03                             129   -0.42 9  158 354 
 OCA  HE ES        728 24.15                             129    0.11 9  158 354 
 OCA  HZ I         728 33.58        32.1 0.14            126            158 354 
 TAM  HZ IP     D  728  2.35                             128    0.04 9  158 105 
 TAM  HZ I         728  2.52        41.3 0.38            129            158 105 
 TAM  HE ES        728 23.38                             128   -0.41 9  158 105 
 SPBC HZ EP        728  2.73                             128   -0.07 9  163 218 
 SPBC HN ES        728 24.36                             128   -0.31 9  163 218 
 SPBC HZ I         728 29.84        60.5 0.20            126            163 218 
 NOR  HZ EP        728 10.06                             117    0.03 8  233 234 
 NOR  HN ES        728 35.86                             117   -1.68 8  233 234 
 NOR  HZ I         728 42.75        18.1 0.20            116            233 234 
 SML  HZ EP        728 10.18                             116   -0.60 8  241 336 
 SML  HN ES        728 37.98                             116   -0.89 8  241 336 
 SML  HZ I         728 45.09        50.6 0.10            114            241 336 
 CHI  HZ EP        728 12.13                             116   -0.13 8  250 194 
 CHI  HN ES        728 41.52                             116    0.01 8  250 194 
 CHI  HZ I         728 43.84        16.3 0.36            115            250 194 
 ROSC BZ EP        728 13.41                             115    0.82 8  253 210 
 ROSC BE ES        728 42.52                             115    0.43 8  253 210 
 ROSC BZ I         728 48.43        27.3 0.35            114            253 210 
 HEL  HZ EP        728 15.60                             114    1.17 8  270 255 
 HEL  HN ES        728 45.99                             114    0.61 8  270 255 
 HEL  HZ I         728 52.43        15.9 0.40            112            270 255 
 PTGC HZ EP   9    728 17.08                             110   -1.60 0  311 158 
 PTGC HZ I         728 18.34        25.1 0.32            110            311 158 
 PTGC HN ES        728 50.49                                   -0.85 7  311 158 
 RREF HZ EP        728 21.09                             110    0.54 7  321 229 
 RREF HN ES        728 56.73                             110    0.47 7  321 229 
 RREF HZ I         729  3.60        14.8 0.28            109            321 229 
 CBOC HZ EP        728 21.60                             109    0.40 7  331 252 
 CBOC HZ I         728 24.70         4.2 0.18            108            331 252 
 CBOC HN ES        728 56.31                             109   -1.11 7  331 252 
 TOL  SZ EP        728 23.21                             108    0.50 7  343 224 
 TOL  SN ES        729  0.77                             108    0.66 7  343 224 
 MON  HZ EP   9    728 21.43                             108   -1.73 0  350 308 
 MON  HN ES        728 59.39                                    0.21 6  350 308 
 MON  HZ I         729  0.03         8.7 0.18            106            350 308 
 ANIL HN ES        729  3.38                             107    0.50 6  357 224 
 ANIL HZ I         729  8.50         3.5 0.30            106            357 224 
 ORTC HZ EP        728 28.26                             105   -0.20 6  395 216 
 ORTC HN ES        729  9.26                             105   -1.09 6  395 216 
 ORTC HZ I         729 17.25         4.5 0.32            104            395 216 
 SJC  HZ EP   9    728 27.82                             105   -1.97 0  406 327 
 SJC  HZ I         729  5.83         5.2 0.10            104            406 327 
 SJC  HE ES        729  7.62                                   -3.12 6  406 327 
                                                                                
