 2015  713 0924 13.5 L   6.832 -73.065144.2  RSN  4 0.1 1.4LRSN                1
 GAP=208        0.39       3.2     4.0  4.5  0.7584E+01 -0.9440E+00 -0.7485E+01E
 Epicentro: LOS SANTOS - SANTANDER                                             3
 ACTION:UPD 15-09-08 21:48 OP:cam  STATUS:               ID:20150713092413 L   I
 OLDACT:REG 15-07-13 13:16 OP:spq  STATUS:               ID:20150713091750     3
 2015-07-13-0917-50M.COL___334                                                 6
 STAT SP IPHASW D HRMM SECON CODA AMPLIT PERI AZIMU VELO AIN AR TRES W  DIS CAZ7
 BAR2 EZ EP   1    924 33.25                             168    0.21 9 29.5 206 
 BAR2 EZ ES   1    924 48.37                             168    0.05 9 29.5 206 
 BAR2 EZ I         924 49.04         5.8 0.36            166           29.5 206 
 RUS  HZ EP   1    924 37.48                             143    0.18 9  104 181 
 RUS  HN ES   1    924 55.62                             143   -0.27 9  104 181 
 RUS  HZ I         924 56.63         2.0 0.40            145            104 181 
 ZAR  HZ EP        924 46.47                             121   -0.0610  211 290 
 ZAR  HE ES        925 12.39                             121    0.0610  211 290 
 ZAR  HZ I         925 17.09         2.5 0.24            121            211 290 
 SML  HZ EP        924 49.94                             117   -0.14 9  244 333 
 SML  HE ES   1    925 18.61                             117   -0.03 7  244 333 
 SML  HZ I         925 21.69         2.4 0.10            118            244 333 
                                                                                
