 2012 1013 0616  3.8 L   6.819 -73.385111.2  RSN 13 0.4 2.3LRSN                1
 GAP= 85        0.72       3.1     2.5  4.7  0.1287E+01  0.3395E+01  0.5955E+01E
 Epicentro: SAN VICENTE DE CHUCURI - SANTANDER                                 3
 ACTION:UPD 12-11-22 17:03 OP:ep   STATUS:               ID:20121013061603 L   I
 2012-10-13-0610-00M.COL___231                                                 6
 STAT SP IPHASW D HRMM SECON CODA AMPLIT PERI AZIMU VELO AIN AR TRES W  DIS CAZ7
 BAR2 SZ EP   1    616 19.62                             162   -0.05 7 33.6 138 
 BAR2 SZ I         616 19.97        51.3 0.12                          33.6 138 
 BAR2 SZ ES   1    616 31.77                             162   -0.24 7 33.6 138 
 GIR2 SZ EP   1    616 19.39                             161   -0.21 7 35.6  36 
 GIR2 SZ ES   1    616 32.02                             161    0.13 7 35.6  36 
 BRR  HZ EP   1    616 19.68                             155   -0.29 7 48.2 311 
 BRR  HZ I         616 19.89        71.5 0.12                          48.2 311 
 BRR  HN ES   1    616 32.91                             155    0.36 7 48.2 311 
 PAM  SZ EP   1    616 23.64                             137   -0.27 7 95.1  53 
 PAM  SZ I         616 25.42        23.6 0.16                          95.1  53 
 PAM  SN ES   1    616 39.35                             137   -0.21 7 95.1  53 
 RUS  HZ EP   1    616 24.71                             133   -0.30 7  108 162 
 RUS  HE ES   1    616 41.40                             133   -0.13 7  108 162 
 RUS  HE I         616 42.59        38.8 0.26                           108 162 
 RUS  HZ I         616 43.49        23.7 0.34                           108 162 
 ZAR  HZ EP   1    616 31.66                             117    0.12 7  179 295 
 ZAR  HN ES   1    616 53.39                             117    0.25 7  179 295 
 ZAR  HN I         616 54.06        55.7 0.36                           179 295 
 ZAR  HZ I         616 54.61        34.4 0.38                           179 295 
 TAM  HZ EP   1    616 31.60                             117   -0.23 7  181 103 
 TAM  HZ I         616 31.82        11.3 0.14                           181 103 
 TAM  HN ES   1    616 53.85                             117    0.20 7  181 103 
 TAM  HN I         616 54.47        37.9 0.30                           181 103 
 YOP  SZ EP   1    616 33.55                             115    0.24 6  194 147 
 YOP  SN ES   1    616 57.28                             115    0.98 6  194 147 
 YOP  SN I         616 58.05        32.1 0.38                           194 147 
 NOR  SN ES   1    617  0.67                             112    0.29 6  215 230 
 CHI  HZ EP   1    616 39.38                             109   -0.11 6  245 189 
 CHI  HN I         617 13.84        24.5 0.42                           245 189 
 HEL  HZ EP   1    616 39.78                             109    0.12 6  247 254 
 HEL  HN ES   2    617  6.78                             109   -0.81 4  247 254 
 HEL  HN I         617 13.27        18.8 0.26                           247 254 
 GUY  SZ EP   1    616 45.02                             106    0.98 6  284 232 
 PRA  HZ EP   1    616 54.83                             100   -0.32 4  382 206 
 PRA  HN ES   1    617 34.06                             100   -1.10 4  382 206 
 PRA  HZ I         617 42.63         9.4 0.30                           382 206 
                                                                                
