 2012  913 0412  6.6 L   6.749 -73.173143.4  RSN  5 0.2 1.6LRSN                1
 GAP=230        0.33       3.6     4.4  5.3  0.5222E+01 -0.2778E+01  0.6914E+01E
 Epicentro: VILLANUEVA - SANTANDER                                             3
 ACTION:UPD 12-10-22 14:18 OP:ep   STATUS:               ID:20120913041206 L   I
 2012-09-13-0410-00M.COL___227                                                 6
 STAT SP IPHASW D HRMM SECON CODA AMPLIT PERI AZIMU VELO AIN AR TRES W  DIS CAZ7
 BAR2 SZ EP   2    412 25.78                             173   -0.08 5 17.4 183 
 BAR2 SZ I         412 43.14        11.6 0.32                          17.4 183 
 BRR  HZ EP   1    412 27.62                             152    0.09 7 71.5 304 
 BRR  HN ES   1    412 43.95                             152    0.11 7 71.5 304 
 BRR  HZ I         412 48.97        12.1 0.19                          71.5 304 
 RUS  HZ EP   1    412 29.63                             145   -0.13 7 95.2 174 
 RUS  HE ES   2    412 47.79                             145   -0.01 5 95.2 174 
 RUS  HZ I         412 50.02         4.8 0.20                          95.2 174 
 PTB  HN ES   2    412 53.34                             132   -0.29 5  144 261 
 PRA  HZ EP   2    412 59.56                             106    0.25 3  386 210 
 PRA  HN ES   2    413 40.66                             106    0.25 3  386 210 
                                                                                
