 2017  313 0137 51.8 L   6.779 -73.132151.2  RSN  7 0.4 1.5LRSN                1
 GAP=139        0.83       3.6     3.7  5.6 -0.7212E+00  0.3850E+01  0.1529E+01E
 Epicentro: LOS SANTOS - SANTANDER                                             3
 ACTION:UPD 17-05-25 18:39 OP:jn   STATUS:               ID:20170313013751 L   I
 OLDACT:DUP 17-03-13 15:52 OP:cog  STATUS:               ID:20170313012745d    3
 2017-03-13-0128-00M.COL___403                                                 6
 STAT SP IPHASW D HRMM SECON CODA AMPLIT PERI AZIMU VELO AIN AR TRES W  DIS CAZ7
 BAR2 EZ EP        138 11.93                             172   -0.1410 21.4 195 
 BAR2 EZ ES        138 27.92                             172    0.0610 21.4 195 
 BAR2 EZ I         138 28.69         6.6 0.22            171           21.4 195 
 BRR  HZ EP        138 13.95                             153    0.2610 73.6 300 
 BRR  HE ES        138 31.36                             153    0.6110 73.6 300 
 BRR  HZ I         138 35.47         6.4 0.42            151           73.6 300 
 PAM  EZ EP        138 14.70                             152    0.0410 78.2  38 
 PAM  EN ES        138 32.12                             152   -0.3710 78.2  38 
 PAM  EZ I         138 33.18         3.0 0.16            154           78.2  38 
 RUS  HZ EP        138 16.28                             146    0.3410 98.2 177 
 RUS  HN ES        138 34.77                             146    0.0110 98.2 177 
 RUS  HZ I         138 35.57         4.2 0.20            148           98.2 177 
 PTB  HZ EP        138 18.72                             133   -0.60 9  149 260 
 PTB  HN ES        138 40.43                             133   -0.35 9  149 260 
 PTB  HZ I         138 41.58         3.7 0.40            133            149 260 
 SPBC HZ EP        138 20.73                             131    0.07 9  162 220 
 SPBC HN ES        138 43.18                             131    0.02 9  162 220 
 SPBC HZ I         138 47.36         5.4 0.42            131            162 220 
 ZAR  HZ EP   3    138 26.39                             123    1.54 2  206 293 
 ZAR  HE ES        138 50.44                             123   -0.17 8  206 293 
 ZAR  HZ I         138 56.19         7.2 0.38            124            206 293 
                                                                                
