 2010  913 0346 19.9 L   6.778 -73.124144.8  RSN  8 0.4 1.7LRSN                1
 GAP=161        0.97       4.2    10.8  7.6 -0.5918E+01 -0.1489E+02 -0.2837E+01E
 Epicentro: LOS SANTOS - SANTANDER                                             3
 ACTION:UP  11-02-18 11:02 OP:tino STATUS:               ID:20100913034619 L   I
 2010-09-13-0344-18S.COL___120                                                 6
 STAT SP IPHASW D HRMM SECON CODA AMPLIT PERI AZIMU VELO SNR AR TRES W  DIS CAZ7
 BAR2 SZ EP        346 39.17                             171    -0.210   22 198 
 BAR2 SZ ES   1    346 54.43                             171    -0.1 7   22 198 
 BAR2 SZ I         346 55.89        13.7 0.04                            22 198 
 BRR  HZ EP        346 41.03                             151    -0.110   75 299 
 BRR  HZ I         346 41.29        20.5 0.13                            75 299 
 BRR  HE ES   1    346 57.99                             151     0.3 7   75 299 
 RUS  HZ EP        346 43.26                             144    -0.110   98 177 
 RUS  HN ES   1    347  1.70                             144     0.0 7   98 177 
 RUS  HZ I         347  3.91         4.9 0.20                            98 177 
 GUE  SZ EP        346 44.26                             139    -0.410  118  11 
 GRA  SZ EP        346 45.98                             136     0.810  127  16 
 GRA  SZ ES   2    347  5.22                             136     0.3 5  127  16 
 GRA  SZ I         347 10.21         5.3 0.29                           127  16 
 OCA  SZ EP        346 47.92                             129    -0.5 9  163 352 
 OCA  SZ I         347 14.20         8.8 0.17                           163 352 
 CHI  HZ EP        346 57.61                             117     0.3 8  247 196 
 CHI  HE ES   2    347 26.59                             117     0.0 4  247 196 
 CHI  HZ I         347 33.07         3.4 0.20                           247 196 
 PRA  HZ EP   2    347 13.76                             106     0.5 3  391 210 
                                                                                
