 2013  413 0013 13.0 L   6.766 -73.136149.7  RSN  6 0.5 1.7LRSN                1
 GAP=139        1.23       7.2     6.7  9.4 -0.1008E+02  0.1156E+02 -0.1002E+02E
 Epicentro: LOS SANTOS - SANTANDER                                             3
 ACTION:UPD 13-05-22 14:37 OP:EP   STATUS:               ID:20130413001313 L   I
 2013-04-13-0008-41M.COL___215                                                 6
 STAT SP IPHASW D HRMM SECON CODA AMPLIT PERI AZIMU VELO AIN AR TRES W  DIS CAZ7
 BAR2 SZ EP        013 33.07                             172    0.0210 19.9 195 
 BAR2 SZ I         013 33.17        10.4 0.40            172           19.9 195 
 BAR2 SZ ES        013 47.91                             172   -0.7710 19.9 195 
 GIR2 SZ EP        013 33.17                             166   -0.0810 35.1 350 
 BRR  HZ EP        013 35.00                             152    0.2710 74.0 301 
 BRR  HZ I         013 35.11         7.1 0.18            152           74.0 301 
 BRR  HN ES        013 52.55                             152    0.8710 74.0 301 
 PAM  SZ IP     D  013 35.95                             151    0.1710 79.7  37 
 PAM  SZ I         013 36.05         8.7 0.20            150           79.7  37 
 PAM  SN ES        013 53.22                             151   -0.3110 79.7  37 
 RUS  HN ES        013 56.04                             146    0.5410 96.8 177 
 PTB  HZ EP        013 39.94                             133   -0.39 9  148 260 
 PTB  HN ES        014  1.21                             133   -0.43 9  148 260 
                                                                                
