 2012  113 0632 57.9 L   6.761 -73.096142.5  RSN  7 0.3 1.5LRSN                1
 GAP=196        0.50       4.3     5.6  6.0  0.7228E+01  0.9423E+01  0.4731E+01E
 Epicentro: LOS SANTOS - SANTANDER                                             3
 ACTION:UP  12-02-03 08:17 OP:REBC STATUS:               ID:20120113063257 L   I
 2012-01-13-0630-00M.COL___186                                                 6
 STAT SP IPHASW D HRMM SECON CODA AMPLIT PERI AZIMU VELO SNR AR TRES W  DIS CAZ7
 BAR2 SZ EP   1    633 17.06                             171     0.0 7   21 207 
 BAR2 SZ ES   2    633 31.56                             171    -0.5 5   21 207 
 BAR2 SZ I         633 33.90         8.3 0.27                            21 207 
 GIR2 SZ EP   2    633 17.54                             165     0.2 5   37 343 
 GIR2 SZ ES   2    633 32.43                             165    -0.1 5   37 343 
 BRR  HZ EP        633 19.27                             150     0.210   78 299 
 BRR  HZ I         633 19.45         8.1 0.16                            78 299 
 BRR  HE ES   2    633 35.93                             150     0.3 5   78 299 
 RUS  HE ES   2    633 39.36                             144     0.3 5   96 179 
 PTB  HZ EP   1    633 24.54                             130    -0.5 7  152 261 
 PTB  HE ES   2    633 46.20                             130     0.0 5  152 261 
 ZAR  HN ES   2    633 56.72                             121     0.2 4  211 293 
 CHI  HZ EP   2    633 35.14                             117     0.0 4  246 197 
 CHI  HE ES   2    634  4.43                             117     0.2 4  246 197 
 CHI  HZ I         634 12.75         1.1 0.49                           246 197 
                                                                                
