 2017  913 0359 54.9 L   6.852 -73.148143.5  RSN 32 0.6 2.6LRSN                1
 GAP= 64        0.92       2.5     2.6  4.2  0.6886E+00  0.3748E+01  0.1501E+01E
 Epicentro: LOS SANTOS - SANTANDER                                             3
 ACTION:UPD 17-10-05 19:11 OP:rebc STATUS:               ID:20170913035954 L   I
 OLDACT:UP  17-09-13 17:56 OP:mg   STATUS:               ID:20170913035738     3
 OLDACT:UP  17-09-13 17:54 OP:mg   STATUS:               ID:20170913035738     3
 OLDACT:REG 17-09-13 13:06 OP:mg   STATUS:               ID:20170913035738     3
 2017-09-13-0358-00M.COL___464                                                 6
 STAT SP IPHASW D HRMM SECON CODA AMPLIT PERI AZIMU VELO AIN AR TRES W  DIS CAZ7
 BAR2 EZ IP     D  4 0 14.21                             168   -0.2110 29.0 188 
 BAR2 EZ ES        4 0 29.32                             168   -0.3010 29.0 188 
 BAR2 EZ I         4 0 32.90       110.0 0.34            163           29.0 188 
 BRR  HZ IP     C  4 0 15.65                             153   -0.0310 68.4 294 
 BRR  HN ES        4 0 32.41                             153    0.5510 68.4 294 
 BRR  HZ I         4 0 33.01        89.2 0.12            152           68.4 294 
 PAM  EZ EP        4 0 16.51                             152   -0.1510 73.2  43 
 PAM  EN ES        4 0 33.40                             152   -0.2110 73.2  43 
 PAM  EZ I         4 0 34.60        83.3 0.26            159           73.2  43 
 RUS  HZ EP        4 0 18.44                             142   -0.4510  106 176 
 RUS  HN ES        4 0 37.60                             142    0.0210  106 176 
 RUS  HZ I         4 0 38.75        56.1 0.26            140            106 176 
 TAM  HZ IP     C  4 0 22.70                             130    0.10 9  157 107 
 TAM  HN ES        4 0 44.44                             130    0.25 9  157 107 
 TAM  HZ I         4 0 45.02        23.5 0.54            133            157 107 
 SPBC HZ EP        4 0 23.48                             128   -0.20 9  168 218 
 SPBC HN ES   2    4 0 47.92                             128    1.82 5  168 218 
 SPBC HZ I         4 0 54.72        71.1 0.32            126            168 218 
 YPLC HZ EP        4 0 25.05                             125   -0.03 9  182 152 
 YPLC HN ES        4 0 48.97                             125    0.38 9  182 152 
 YPLC HZ I         4 0 53.43        46.1 0.34            126            182 152 
 ZAR  HZ EP        4 0 26.81                             122   -0.18 9  202 291 
 ZAR  HN ES   1    4 0 51.81                             122   -0.18 6  202 291 
 ZAR  HZ I         4 0 57.09        60.5 0.44            123            202 291 
 TABC EZ EP   9    4 0 32.47                             118    1.40 0  235 210 
 TABC EZ ES   4    4 1  1.22                             118    0.56 0  235 210 
 TABC EZ I         4 1  6.30        59.2 0.54            118            235 210 
 NOR  HZ EP        4 0 30.63                             118   -0.24 8  238 233 
 NOR  HN ES   2    4 0 58.20                             118   -0.71 4  238 233 
 NOR  HZ I         4 1  5.89        39.1 0.18            117            238 233 
 CHI  HZ EP        4 0 33.07                             116   -0.04 8  254 195 
 CHI  HN ES   1    4 1  3.30                             116    0.42 6  254 195 
 CHI  HZ I         4 1  8.06        14.7 0.24            116            254 195 
 ROSC BZ EP   4    4 0 34.75                             116    1.29 0  258 210 
 ROSC BN ES   4    4 1  8.78                             116    5.27 0  258 210 
 ROSC BZ I         4 1 12.25        44.5 0.45            116            258 210 
 HEL  HZ EP        4 0 36.08                             114    0.92 8  273 255 
 HEL  HN ES        4 1  5.85                             114   -0.70 8  273 255 
 HEL  HZ I         4 1 13.00        25.0 0.60            114            273 255 
 URE  HZ EP   3    4 0 37.28                             113    1.65 2  281 291 
 URE  HN ES   4    4 1  4.44                             113   -2.93 0  281 291 
 URE  HZ I         4 1  6.65        25.8 0.15            114            281 291 
 GUY2CHZ EP   2    4 0 39.91                             112    1.12 4  304 234 
 GUY2CHN ES   1    4 1 13.62                             112    0.62 5  304 234 
 GUY2CHZ I         4 1 19.61        26.1 0.32                           304 234 
 VIL  EZ EP   1    4 0 38.56                             111   -0.32 5  309 191 
 VIL  EN ES   2    4 1 14.11                             111    0.95 4  309 191 
 VIL  EZ I         4 1 17.78        31.4 0.36            112            309 191 
 PTGC HZ EP   2    4 0 37.85                             111   -1.46 3  314 159 
 PTGC HN ES   2    4 1 11.71                             111   -2.21 3  314 159 
 PTGC HZ I         4 1 15.22        13.5 0.54            112            314 159 
 LL6C HZ EP   4    4 0 38.30                             110   -1.57 0  319 358 
 LL6C HN ES   4    4 1 10.83                             110   -4.10 0  319 358 
 LL6C HZ I         4 1 14.19         8.1 0.38            113            319 358 
 ELA  HZ EP   9    4 0 44.22                             110    2.12 0  333 229 
 ELA  HN ES   4    4 1 21.83                             110    0.82 0  333 229 
 ELA  HZ I         4 1 29.37        19.3 0.52            110            333 229 
 CBOC HZ EP   1    4 0 41.97                             109    0.04 5  335 251 
 CBOC HN ES   1    4 1 18.07                             109   -0.52 5  335 251 
 CBOC HZ I         4 1 24.50         9.0 0.14            110            335 251 
 DBB  EZ EP   1    4 0 42.30                             109    0.06 5  339 273 
 DBB  EN ES   3    4 1 17.50                             109   -1.65 2  339 273 
 DBB  EZ I         4 1 23.78         6.4 0.15            110            339 273 
 ARGC HZ EP        4 0 44.14                             108    0.28 6  354 340 
 ARGC HN ES        4 1 22.38                             108    0.35 6  354 340 
 ARGC HZ I         4 1 23.82         5.4 0.28            110            354 340 
 ANIL HZ EP   9    4 0 47.09                             108    1.98 0  361 224 
 ANIL HN ES   4    4 1 26.79                             108    0.56 0  361 224 
 ANIL HZ I         4 1 32.44        55.9 0.30            108            361 224 
 APAC HZ EP   1    4 0 48.92                             106    0.11 4  396 287 
 APAC HN ES   2    4 1 29.42                             106   -1.42 3  396 287 
 APAC HZ I         4 1 34.06         5.2 0.21            107            396 287 
 PRA  HZ EP        4 0 48.99                             106    0.04 6  397 209 
 PRA  HN ES        4 1 31.31                             106    0.23 6  397 209 
 PRA  HZ I         4 1 37.99        23.0 0.70            106            397 209 
 ORTC HZ EP   1    4 0 50.00                             106    0.70 4  400 216 
 ORTC HN ES   2    4 1 33.28                             106    1.57 3  400 216 
 ORTC HZ I         4 1 36.60        10.6 0.28            106            400 216 
 SJC  HZ EP   4    4 0 47.64                             106   -2.19 0  404 327 
 SJC  HN ES   4    4 1 28.22                             106   -4.44 0  404 327 
 SJC  HZ I         4 1 31.08         4.6 0.26            107            404 327 
 VALLCHZ EP   1    4 0 50.42                             105    0.60 4  405 358 
 VALLCHN ES   4    4 1 28.59                             105   -4.05 0  405 358 
 VALLCHZ I         4 1 31.86         4.4 0.13                           405 358 
 PAL  HZ EP        4 0 50.27                             105   -0.07 6  408 238 
 PAL  HN ES   1    4 1 32.60                             105   -0.96 4  408 238 
 PAL  HZ I         4 1 40.31         7.9 0.20            106            408 238 
 CRJC HZ EP   4    4 0 53.56                             103   -3.13 0  462   4 
 CRJC HN ES   4    4 1 39.65                             103   -5.20 0  462   4 
 CRJC HZ I         4 1 43.92        11.5 0.44            105            462   4 
 MACC HZ EP   4    4 1  1.99                             101   -2.27 0  526 189 
 MACC HN ES   4    4 1 54.76                             101   -3.58 0  526 189 
 MACC HZ I         4 1 59.77         4.3 0.27            102            526 189 
 URI  HZ EP   4    4 1  4.06                             100   -3.16 0  551  13 
 URI  HN ES   4    4 1 59.23                             100   -4.37 0  551  13 
 URI  HZ I         4 2  4.88         1.7 0.26            102            551  13 
                                                                                
