 2016 1113 0716 39.2 L   6.786 -73.175143.1  RSN  4 0.4 1.0LRSN                1
 GAP=142        0.91       9.1     5.5  7.4 -0.2488E+02  0.4255E+01  0.4478E+01E
 Epicentro: LOS SANTOS - SANTANDER                                             3
 ACTION:UPD 17-10-26 21:07 OP:lp   STATUS:               ID:20161113071639 L   I
 OLDACT:DUP 16-11-13 19:54 OP:and  STATUS:               ID:20161113070644d    3
 2016-11-13-0707-00M.COL___340                                                 6
 STAT SP IPHASW D HRMM SECON CODA AMPLIT PERI AZIMU VELO AIN AR TRES W  DIS CAZ7
 BAR2 EZ EP        716 58.16                             171   -0.2910 21.4 182 
 BAR2 EZ ES        717 13.82                             171    0.3310 21.4 182 
 BRR  HZ EP        717  0.22                             153    0.2910 69.2 301 
 BRR  HN ES        717 16.37                             153    0.2610 69.2 301 
 PAM  EZ IP     D  717  1.26                             149   -0.0610 80.7  41 
 PAM  EN ES        717 18.28                             149   -0.3010 80.7  41 
 PTB  HZ EP        717  5.99                             132    0.38 9  144 259 
 PTB  HN ES        717 25.59                             132   -0.64 9  144 259 
 PTB  HZ I         717 28.89         1.2 0.14            131            144 259 
                                                                                
