 2017  113 0201 47.3 L   6.806 -73.094151.3  RSN 11 0.4 1.5LRSN                1
 GAP=123        0.92       3.7     4.3  5.8  0.7049E+00  0.3937E+01  0.6848E+01E
 Epicentro: LOS SANTOS - SANTANDER                                             3
 ACTION:UPD 17-05-22 15:58 OP:jn   STATUS:               ID:20170113020147 L   I
 OLDACT:UP  17-01-13 14:09 OP:and  STATUS:               ID:20170113015742     3
 OLDACT:UP  17-01-13 14:08 OP:and  STATUS:               ID:20170113015742     3
 OLDACT:UP  17-01-13 14:06 OP:and  STATUS:               ID:20170113015742     3
 OLDACT:REG 17-01-13 12:31 OP:and  STATUS:               ID:20170113015742     3
 2017-01-13-0158-00M.COL___338                                                 6
 STAT SP IPHASW D HRMM SECON CODA AMPLIT PERI AZIMU VELO AIN AR TRES W  DIS CAZ7
 BAR2 EZ EP        2 2  7.60                             170   -0.0710 25.5 202 
 BAR2 EZ ES        2 2 23.54                             170    0.0010 25.5 202 
 BAR2 EZ I         2 2 24.17         5.2 0.30            172           25.5 202 
 PAM  EZ EP        2 2 10.39                             153    0.4710 73.4  36 
 PAM  EN ES        2 2 27.41                             153   -0.1210 73.4  36 
 PAM  EZ I         2 2 29.53         3.5 0.20            144           73.4  36 
 BRR  HZ EP        2 2  9.62                             152    0.2710 76.0 296 
 BRR  HN ES        2 2 26.72                             152    0.2010 76.0 296 
 RUS  HZ EP        2 2 11.64                             145   -0.0210  101 179 
 RUS  HN ES        2 2 30.23                             145   -0.4010  101 179 
 RUS  HZ I         2 2 33.06         1.3 0.20            143            101 179 
 PTB  HZ EP        2 2 14.66                             132   -0.61 9  153 259 
 PTB  HN ES   3    2 2 35.60                             132   -1.45 2  153 259 
 PTB  HZ I         2 2 43.08         3.8 0.40            124            153 259 
 ZAR  HN ES        2 2 46.45                             123   -0.20 8  209 291 
 ZAR  HZ I         2 2 50.88         2.6 0.22            115            209 291 
 NOR  HE ES        2 2 52.62                             119    0.16 8  240 235 
 NOR  HZ I         2 2 54.87         2.4 0.22            113            240 235 
 CHI  HZ EP        2 2 25.81                             118    0.23 8  251 196 
 CHI  HN ES        2 2 56.24                             118    0.84 8  251 196 
 GUY2CHZ EP   4    2 2 34.36                             113    2.59 0  306 235 
 GUY2CHZ I         2 3 14.18         1.9 0.34                           306 235 
 PTGC HZ EP        2 2 30.57                             113   -0.71 7  307 160 
 SJC  HZ EP   4    2 2 34.79                             106   -8.60 0  412 326 
 SJC  HZ I         2 3 30.10         1.9 0.52            101            412 326 
                                                                                
