 2012  113 0416 57.4 L   6.770 -73.156144.3  RSN 11 0.4 1.9LRSN                1
 GAP=137        0.71       4.2     4.0  6.7 -0.2556E+01  0.2427E+01  0.7861E+01E
 Epicentro: LOS SANTOS - SANTANDER                                             3
 ACTION:UP  12-02-03 08:17 OP:REBC STATUS:               ID:20120113041657 L   I
 2012-01-13-0410-00M.COL___187                                                 6
 STAT SP IPHASW D HRMM SECON CODA AMPLIT PERI AZIMU VELO SNR AR TRES W  DIS CAZ7
 BAR2 SZ EP   2    417 16.59                             172    -0.2 5   20 189 
 BAR2 SZ ES   2    417 32.00                             172     0.1 5   20 189 
 BAR2 SZ I         417 34.78        12.0 0.31                            20 189 
 GIR2 SZ EP   1    417 16.69                             166    -0.3 7   34 353 
 GIR2 SZ ES   2    417 31.67                             166    -0.6 5   34 353 
 BRR  HZ EP        417 18.55                             152     0.210   72 301 
 BRR  HZ I         417 18.84        28.6 0.24                            72 301 
 BRR  HE ES   2    417 35.35                             152     0.6 5   72 301 
 PAM  SZ EP   1    417 19.51                             150    -0.1 7   81  39 
 PAM  SN ES   2    417 36.83                             150    -0.1 5   81  39 
 RUS  HZ EP   1    417 20.94                             144     0.2 7   97 175 
 RUS  HN ES   2    417 39.39                             144     0.4 5   97 175 
 RUS  HZ I         417 40.89         7.3 0.30                            97 175 
 PTB  HZ EP   1    417 23.19                             132    -0.9 7  146 260 
 PTB  HE ES        417 44.69                             132    -0.2 9  146 260 
 OCA  SZ ES   2    417 48.94                             129     0.9 5  163 354 
 OCA  SZ I         417 55.35         8.6 0.25                           163 354 
 ZAR  HE ES   2    417 55.24                             122     0.3 4  204 293 
 ZAR  HZ I         418  1.88        18.6 0.40                           204 293 
 CHI  HZ EP   1    417 34.88                             117     0.3 6  245 195 
 CHI  HN ES   2    418  3.74                             117     0.1 4  245 195 
 CHI  HZ I         418  8.74         2.0 0.29                           245 195 
 HEL  HZ EP   2    417 37.24                             115     0.0 4  270 256 
 HEL  HN ES   2    418  8.75                             115     0.3 4  270 256 
 HEL  HZ I         418 15.76         5.8 0.31                           270 256 
 RREF HZ EP   2    417 43.28                             111     0.2 3  319 230 
 RREF HE ES   2    418 19.06                             111     0.3 3  319 230 
 RREF HZ I         418 26.29         5.4 0.31                           319 230 
                                                                                
