 2011  213 0319 36.0 L   6.789 -72.977148.1  RSN  7 0.2 1.7LRSN                1
 GAP=178        0.44       2.5     7.5  4.5 -0.6205E+01  0.5743E+01  0.2826E-01E
 Epicentro: CEPITA - SANTANDER                                                 3
 ACTION:UP  11-03-28 15:08 OP:jfem STATUS:               ID:20110213031936 L   I
 2011-02-13-0315-03S.COL___136                                                 6
 STAT SP IPHASW D HRMM SECON CODA AMPLIT PERI AZIMU VELO SNR AR TRES W  DIS CAZ7
 BAR2 SZ EP   1    319 56.04                             167     0.0 7   32 226 
 BAR2 SZ ES   2    320 11.42                             167    -0.3 5   32 226 
 BAR2 SZ I         320 12.83        13.6 0.37                            32 226 
 BTL  SZ EP   1    319 56.56                             166     0.4 7   35 294 
 BTL  SZ ES   2    320 11.96                             166     0.0 5   35 294 
 RUS  HZ EP   1    320  0.01                             144     0.1 7  100 187 
 RUS  HN ES   2    320 18.68                             144     0.1 5  100 187 
 RUS  HZ I         320 22.17         5.3 0.40                           100 187 
 GRA  SZ EP   1    320  0.95                             138    -0.2 7  123   9 
 GRA  SZ ES   2    320 20.62                             138    -0.2 5  123   9 
 GRA  SZ I         320 23.43         8.4 0.31                           123   9 
 OCA  SZ EP   1    320  4.84                             129     0.0 7  165 347 
 OCA  SZ ES   2    320 27.61                             129     0.2 5  165 347 
 OCA  SZ I         320 32.53        12.4 0.38                           165 347 
 CHI  HZ EP   1    320 14.31                             117     0.0 6  253 199 
 CHI  HE ES   2    320 43.78                             117    -0.4 4  253 199 
 CHI  HZ I         320 52.68         2.1 0.78                           253 199 
 HEL  HZ EP   1    320 18.17                             114    -0.1 5  290 257 
 HEL  HZ I         320 55.72         3.3 0.24                           290 257 
                                                                                
