 2014  613 0837 47.3 L   6.773 -73.165135.6  RSN  6 0.4 1.4LRSN                1
 GAP=181        0.96       5.0     6.6 10.0  0.1158E+02  0.1633E+02 -0.9932E+01E
 Epicentro: LOS SANTOS - SANTANDER                                             3
 ACTION:UPD 14-07-01 22:53 OP:nd   STATUS:               ID:20140613083747 L   I
 OLDACT:UP  14-06-13 18:56 OP:mh   STATUS:               ID:20140613082809     3
 OLDACT:REG 14-06-13 14:37 OP:mh   STATUS:               ID:20140613082809     3
 2014-06-13-0828-09M.COL___256                                                 6
 STAT SP IPHASW D HRMM SECON CODA AMPLIT PERI AZIMU VELO AIN AR TRES W  DIS CAZ7
 BAR2 SZ EP   1    838  6.04                             171    0.40 7 20.1 186 
 BAR2 SZ ES   1    838 20.03                             171    0.09 7 20.1 186 
 BAR2 SZ I         838 22.30         6.8 0.09            174           20.1 186 
 RUS  HZ EP        838  9.18                             143   -0.6710 97.8 175 
 RUS  HN ES   1    838 27.86                             143    0.42 7 97.8 175 
 RUS  HZ I         838 29.96         3.1 0.09            148           97.8 175 
 PTB  HZ EP   1    838 12.99                             130   -0.22 7  145 260 
 PTB  HN ES   1    838 33.01                             130   -0.41 7  145 260 
 PTB  HZ I         838 36.92         2.5 0.64            133            145 260 
 OCA  HN ES   1    838 36.74                             127   -0.05 7  163 354 
 OCA  HZ I         838 41.57         3.9 0.05            130            163 354 
 ZAR  HZ EP        838 19.84                             120    0.82 9  203 293 
 ZAR  HN ES        838 43.75                             120   -0.01 9  203 293 
 ZAR  HZ I         838 49.48         3.2 0.14            123            203 293 
 SML  HN ES   1    838 51.58                             115   -0.30 6  246 336 
                                                                                
