 2017  813 0925 18.0 L   6.852 -73.129149.8  RSN 11 0.7 1.6LRSN                1
 GAP=219        1.34       5.5     6.0  7.3  0.1391E+02  0.6123E+01  0.9691E+01E
 Epicentro: LOS SANTOS - SANTANDER                                             3
 ACTION:UPD 17-09-04 20:19 OP:rebc STATUS:               ID:20170813092518 L   I
 OLDACT:REG 17-08-13 12:31 OP:dhb  STATUS:               ID:20170813091741     3
 2017-08-13-0918-00M.COL___401                                                 6
 STAT SP IPHASW D HRMM SECON CODA AMPLIT PERI AZIMU VELO AIN AR TRES W  DIS CAZ7
 BAR2 EZ IP     C  925 38.33                             169    0.0810 29.3 192 
 BAR2 EZ ES        925 53.43                             169   -0.6110 29.3 192 
 BAR2 EZ I         925 54.90         7.1 0.06            165           29.3 192 
 BRR  HZ IP     D  925 40.06                             154    0.5210 70.3 294 
 BRR  HN ES        925 56.81                             154    0.4710 70.3 294 
 BRR  HZ I         926  0.45         8.0 0.31            151           70.3 294 
 RUS  HZ EP        925 42.47                             143   -0.0810  106 177 
 RUS  HN ES        926  1.52                             143   -0.1810  106 177 
 RUS  HZ I         926  3.00         5.1 0.15            143            106 177 
 SPBC HZ EP        925 47.28                             129   -0.06 9  169 218 
 SPBC HE ES        926 10.14                             129   -0.09 9  169 218 
 SPBC HZ I         926 16.31         5.4 0.24            128            169 218 
 YPLC HZ EP        925 48.77                             127    0.27 9  181 153 
 YPLC HE ES        926 13.46                             127    1.18 9  181 153 
 YPLC HZ I         926 13.77         4.8 0.27            129            181 153 
 ZAR  HZ EP        925 50.73                             123    0.05 9  204 290 
 ZAR  HE ES        926 15.68                             123   -0.48 9  204 290 
 ZAR  HZ I         926 24.24         2.6 0.09            123            204 290 
 NOR  HZ EP        925 53.41                             119   -1.08 8  240 234 
 NOR  HE ES        926 22.93                             119   -0.02 8  240 234 
 NOR  HZ I         926 27.20         2.4 0.17            119            240 234 
 CHI  HZ EP        925 56.85                             117    0.27 8  255 195 
 CHI  HN ES        926 26.35                             117   -0.32 8  255 195 
 CHI  HZ I         926 28.90         1.4 0.35            118            255 195 
 GUY2CHZ EP   1    926  3.10                             113    0.76 5  306 234 
 GUY2CHE ES   3    926 39.08                             113    2.15 2  306 234 
 GUY2CHZ I         926 45.13         1.4 0.25                           306 234 
 PTGC HZ EP        926  1.61                             112   -0.96 7  313 159 
 PTGC HN ES   1    926 35.41                             112   -1.92 5  313 159 
 PTGC HZ I         926 40.58         2.0 0.17            113            313 159 
 PRA  HZ EP        926 12.83                             107    0.48 6  398 209 
 PRA  HE ES        926 55.86                             107    1.11 6  398 209 
 PRA  HZ I         927  0.07         1.0 0.40            107            398 209 
                                                                                
