 2012  413 0417 14.7 L   6.805 -73.154148.2  RSN 14 0.4 2.8LRSN                1
 GAP=113        0.78       2.6     3.4  5.0 -0.2027E+01  0.3801E+01  0.1866E+01E
 Epicentro: LOS SANTOS - SANTANDER                                             3
 ACTION:UPD 12-07-05 11:53 OP:tino STATUS:               ID:20120413041714 L   I
 2012-04-13-0410-00M.COL___181                                                 6
 STAT SP IPHASW D HRMM SECON CODA AMPLIT PERI AZIMU VELO AIN AR TRES W  DIS CAZ7
 BAR2 SZ IP        417 34.59                             171     0.010   24 188 
 BAR2 SZ ES   1    417 49.81                             171    -0.3 7   24 188 
 BAR2 SZ I         417 51.40       109.7 0.27                            24 188 
 BRR  HZ IP     D  417 36.51                             153     0.510   70 298 
 BRR  HE ES   1    417 53.36                             153     0.7 7   70 298 
 BRR  HZ I         417 57.05        90.6 0.29                            70 298 
 PAM  SZ EP        417 37.40                             151     0.310   78  40 
 PAM  SE ES   1    417 54.66                             151     0.0 7   78  40 
 PTB  HZ EP        417 41.16                             133    -0.6 9  147 259 
 PTB  HN ES   1    418  2.42                             133    -0.5 7  147 259 
 PTB  HZ I         418 10.23        54.4 0.43                           147 259 
 OCA  SZ EP        417 43.28                             130     0.2 9  160 353 
 OCA  SZ ES   1    418  5.11                             130    -0.2 7  160 353 
 YOP  SN ES   1    418  8.28                             127    -0.3 7  180 153 
 ZAR  HZ EP   1    417 46.93                             123    -0.2 6  203 292 
 ZAR  HN ES   1    418 12.11                             123    -0.4 6  203 292 
 ZAR  HZ I         418 20.28        83.1 0.23                           203 292 
 NOR  SZ EP   1    417 50.68                             119     0.2 6  234 234 
 NOR  SE ES   1    418 18.73                             119     0.3 6  234 234 
 CHI  HZ EP   1    417 52.69                             118     0.2 6  249 195 
 CHI  HN ES   1    418 22.09                             118     0.0 6  249 195 
 CHI  HZ I         418 27.96        33.5 0.54                           249 195 
 HEL  HZ EP   2    417 55.61                             115     0.7 4  271 256 
 HEL  HN ES   1    418 26.19                             115    -0.1 6  271 256 
 HEL  HZ I         418 32.75        31.9 0.42                           271 256 
 GUY  SZ EP   1    417 59.06                             113     0.5 5  303 235 
 GUY  SN ES   1    418 33.08                             113     0.2 5  303 235 
 GUY  SZ I         418 44.84        63.2 0.44                           303 235 
 RREF HZ EP   1    418  0.38                             111    -0.5 5  321 229 
 RREF HN ES   1    418 36.92                             111     0.0 5  321 229 
 RREF HZ I         418 46.21        48.5 0.28                           321 229 
 COD  HZ EP   1    418  2.56                             109    -0.5 5  348 355 
 COD  HN ES   1    418 40.63                             109    -0.2 5  348 355 
 COD  HZ I         418 45.32        23.8 0.32                           348 355 
 PRA  HZ EP        418  8.14                             107    -0.1 6  392 209 
 PRA  HN ES   1    418 50.38                             107     0.3 4  392 209 
                                                                                
