 2017 1113 0215 34.9 L   6.079 -73.328166.0  RSN  6 0.3 1.6LRSN                1
 GAP=148        0.71       3.1     4.6  6.0  0.3844E+01  0.2071E+01 -0.3036E+01E
 Epicentro: SUAITA - SANTANDER                                                 3
 ACTION:UPD 17-12-12 19:55 OP:rebc STATUS:               ID:20171113021534 L   I
 OLDACT:REG 17-11-13 13:17 OP:leo  STATUS:               ID:20171113020744     3
 2017-11-13-0208-00M.COL___462                                                 6
 STAT SP IPHASW D HRMM SECON CODA AMPLIT PERI AZIMU VELO AIN AR TRES W  DIS CAZ7
 RUS  HZ EP        215 57.49                             168   -0.0910 34.1 127 
 RUS  HN ES        216 15.05                             168   -0.2210 34.1 127 
 RUS  HZ I         216 18.38         7.4 0.62            170           34.1 127 
 SPBC HZ EP        216  0.04                             149    0.2810 95.0 240 
 SPBC HN ES        216 19.30                             149    0.1510 95.0 240 
 SPBC HZ I         216 23.24         9.1 0.10            153           95.0 240 
 BRR  HZ EP        216  1.78                             142    0.3310  121 340 
 BRR  HN ES        216 22.34                             142    0.1810  121 340 
 BRR  HZ I         216 27.69         4.9 0.62            144            121 340 
 PTB  HZ EP        216  2.22                             139   -0.3010  135 292 
 PTB  HN ES        216 24.26                             139    0.1910  135 292 
 PTB  HZ I         216 26.00         2.6 0.10            142            135 292 
 CHI  HN ES        216 29.70                             133   -0.13 9  166 196 
 ZAR  HN ES        216 39.22                             123   -0.59 8  230 313 
                                                                                
