 2016  613 0908 32.3 L   6.771 -73.150151.4  RSN  7 0.4 1.7LRSN                1
 GAP=182        0.82       3.6     5.4  6.4 -0.2594E+00  0.6521E+01 -0.1926E+01E
 Epicentro: LOS SANTOS - SANTANDER                                             3
 ACTION:UPD 16-07-21 22:18 OP:rebc STATUS:               ID:20160613090832 L   I
 OLDACT:REG 16-06-13 13:12 OP:dnl  STATUS:               ID:20160613090744     3
 2016-06-13-0907-44M.COL___319                                                 6
 STAT SP IPHASW D HRMM SECON CODA AMPLIT PERI AZIMU VELO AIN AR TRES W  DIS CAZ7
 BAR2 EZ EP        9 8 52.50                             172   -0.0910 20.1 190 
 BAR2 EZ ES        9 9  7.94                             172   -0.4410 20.1 190 
 BAR2 EZ I         9 9  9.37         9.0 0.44                          20.1 190 
 BRR  HZ EP        9 8 54.38                             153    0.2210 72.4 301 
 BRR  HN ES        9 9 11.94                             153    0.7610 72.4 301 
 BRR  HZ I         9 9 16.80         6.4 0.14                          72.4 301 
 RUS  HZ EP   2    9 8 56.78                             146    0.35 5 97.4 176 
 RUS  HE ES        9 9 15.28                             146    0.0610 97.4 176 
 RUS  HZ I         9 9 16.38         3.9 0.32                          97.4 176 
 PTB  HZ EP        9 8 59.38                             133   -0.30 9  147 260 
 PTB  HN ES        9 9 20.91                             133   -0.09 9  147 260 
 PTB  HZ I         9 9 25.74         4.8 0.42                           147 260 
 SPBC HZ EP   2    9 9  1.56                             131    0.54 5  160 220 
 SPBC HN ES   2    9 9 23.48                             131    0.09 5  160 220 
 SPBC HZ I         9 9 26.41         9.5 0.28                           160 220 
 OCA  HZ EP   2    9 9  1.58                             130    0.20 5  163 353 
 OCA  HN ES        9 9 23.63                             130   -0.40 9  163 353 
 OCA  HZ I         9 9 28.49        15.5 0.22                           163 353 
 NOR  HZ EP   2    9 9  8.34                             120    0.17 4  232 235 
 NOR  HN ES   2    9 9 35.36                             120   -0.75 4  232 235 
 NOR  HZ I         9 9 41.63         2.9 0.44                           232 235 
                                                                                
