 2015  913 0732  4.0 L   6.461 -73.143170.5  RSN  6 0.4 1.7LRSN                1
 GAP=191        0.97       8.5     7.6  7.0  0.3082E+02  0.1307E+02 -0.1008E+02E
 Epicentro: VALLE DE SAN JOSE - SANTANDER                                      3
 ACTION:UPD 15-10-28 16:26 OP:cam  STATUS:               ID:20150913073204 L   I
 OLDACT:REG 15-09-13 13:00 OP:drio STATUS:               ID:20150913072748     3
 2015-09-13-0727-48M.COL___326                                                 6
 STAT SP IPHASW D HRMM SECON CODA AMPLIT PERI AZIMU VELO AIN AR TRES W  DIS CAZ7
 BAR2 EZ EP        732 26.36                             175   -0.1310 15.2 343 
 BAR2 EZ ES        732 43.35                             175   -0.6810 15.2 343 
 BAR2 EZ I         732 44.96        19.8 0.32            174           15.2 343 
 RUS  HE ES        732 47.48                             159    0.3810 63.2 174 
 RUS  HZ I         732 48.97        11.9 0.28            161           63.2 174 
 BRR  HZ EP        732 29.55                             149    0.3510 95.2 319 
 BRR  HN ES        732 49.25                             149    0.3810 95.2 319 
 BRR  HZ I         732 52.83         2.7 0.18            150           95.2 319 
 PTB  HZ EP        732 32.80                             138   -0.09 9  146 274 
 PTB  HN ES        732 55.30                             138   -0.14 9  146 274 
 PTB  HZ I         732 58.40         2.1 0.28            138            146 274 
 ZAR  HZ EP        732 40.21                             125    0.36 8  221 301 
 ZAR  HE ES        733  7.87                             125    0.05 8  221 301 
 ZAR  HZ I         733  8.90         3.1 0.30            126            221 301 
 URE  HZ EP        732 47.41                             117   -0.73 7  300 299 
 URE  HE ES   4    733 20.50                             117   -2.08 0  300 299 
 URE  HZ I         733 23.29         4.7 0.14            118            300 299 
                                                                                
