 2011  513 0800 40.1 L   6.772 -73.065146.0  RSN  4 0.2 1.3LRSN                1
 GAP=148        0.47       9.9    15.5 10.9  0.1222E+03 -0.8734E+02 -0.5825E+02E
 Epicentro: LOS SANTOS - SANTANDER                                             3
 ACTION:UP  11-06-29 08:52 OP:tino STATUS:               ID:20110513080040 L   I
 2011-05-13-0759-00S.COL___136                                                 6
 STAT SP IPHASW D HRMM SECON CODA AMPLIT PERI AZIMU VELO SNR AR TRES W  DIS CAZ7
 BAR2 SZ EP        8 0 59.77                             171     0.010   24 213 
 BAR2 SZ I         8 1  0.06         4.9 0.06                            24 213 
 BAR2 SZ ES   3    8 1 14.73                             171    -0.4 2   24 213 
 PAM  SZ EP   3    8 1  2.53                             152     0.3 2   75  33 
 BRR  HZ EP        8 1  1.67                             150    -0.210   81 297 
 BRR  HZ I         8 1  1.88         5.9 0.15                            81 297 
 BRR  HN ES   2    8 1 19.17                             150     0.4 5   81 297 
 RUS  HZ EP   2    8 1  3.98                             145     0.3 5   97 181 
 RUS  HN ES   2    8 1 21.87                             145    -0.1 5   97 181 
 RUS  HZ I         8 1 23.66         1.8 0.44                            97 181 
                                                                                
