 2010  313 0630 27.8 L   6.881 -72.980142.0  RSN  7 0.4 1.6LRSN                1
 GAP=200        0.74       4.0     8.9 10.1 -0.2195E+00 -0.2172E+02  0.1000E+02E
 Epicentro: CEPITA - SANTANDER                                                 3
 ACTION:UP  10-08-24 09:53 OP:vdl  STATUS:               ID:20100313063028 L   I
 2010-03-13-0626-49S.COL___095                                                 6
 STAT SP IPHASW D HRMM SECON CODA AMPLIT PERI AZIMU VELO SNR AR TRES W  DIS CAZ7
 BAR2 SZ EP   1    630 47.62                             164     0.2 7   39 215 
 BRR  HZ IP        630 49.35                             147     0.010   85 287 
 BRR  HN ES   1    631  6.37                             147     0.1 7   85 287 
 BRR  HZ I         631  9.32         8.4 0.25                            85 287 
 RUS  HZ EP   1    630 51.78                             140    -0.1 7  110 186 
 RUS  HN ES   2    631 10.86                             140     0.2 5  110 186 
 RUS  HZ I         631 11.93         3.2 0.31                           110 186 
 OCA  SZ EP   1    630 55.87                             130     0.6 7  155 346 
 OCA  SZ I         630 56.81        10.0 0.07                           155 346 
 OCA  SZ ES   1    631 16.07                             130    -0.7 7  155 346 
 CHI  HZ EP   2    631  7.25                             115     0.4 4  263 199 
 CHI  HN ES   2    631 37.06                             115    -0.2 4  263 199 
 CHI  HZ I         631 39.99         1.5 0.21                           263 199 
 HEL  HN ES   2    631 43.35                             112     0.3 4  292 255 
 HEL  HZ I         631 47.44         2.3 0.30                           292 255 
 PRA  HZ EP   2    631 22.97                             105    -0.2 3  409 211 
 PRA  HN ES   2    632  5.26                             105    -1.2 3  409 211 
 PRA  HZ I         632 11.49         2.1 0.34                           409 211 
                                                                                
