 2012  213 0102 23.2 L   6.461 -73.000127.3  RSN  4 0.3 1.7LRSN                1
 GAP=287        0.50      11.7     8.4  8.5 -0.2938E+02 -0.1182E+02  0.1435E+02E
 ACTION:UP  12-03-07 16:30 OP:epov STATUS:               ID:20120213010223 L   I
 2012-02-13-0100-00M.COL___188                                                 6
 STAT SP IPHASW D HRMM SECON CODA AMPLIT PERI AZIMU VELO AIN AR TRES W  DIS CAZ7
 BAR2 SZ ES   2    1 2 54.11                             168   -0.11 5 24.9 306 
 GIR2 SZ EP   2    1 2 43.03                             149    0.45 5 71.6 343 
 GIR2 SZ ES   2    1 2 58.00                             149    0.28 5 71.6 343 
 PAM  SZ EP   2    1 2 45.50                             139    0.19 5  103  19 
 PAM  SE ES   2    1 3  2.24                             139   -0.34 5  103  19 
 BRR  HZ EP   2    1 2 44.38                             137   -0.55 5  106 312 
 BRR  HZ I         1 2 47.98         8.4 0.09                           106 312 
 BRR  HE ES   2    1 3  1.98                             137    0.08 5  106 312 
                                                                                
