 2017 1113 0811 24.1 L   6.753 -73.192143.9  RSN  7 0.5 1.1LRSN                1
 GAP=228        1.16       5.3     7.1  7.3  0.1740E+02  0.1173E+02  0.6682E+01E
 Epicentro: VILLANUEVA - SANTANDER                                             3
 ACTION:UPD 17-12-12 19:55 OP:rebc STATUS:               ID:20171113081124 L   I
 OLDACT:DUP 17-11-13 18:19 OP:osc  STATUS:               ID:20171113080739d    3
 OLDACT:REG 17-11-13 13:37 OP:leo  STATUS:               ID:20171113080738     3
 2017-11-13-0808-00M.COL___435                                                 6
 STAT SP IPHASW D HRMM SECON CODA AMPLIT PERI AZIMU VELO AIN AR TRES W  DIS CAZ7
 BAR2 EZ ES        811 58.60                             173    0.1810 17.8 176 
 BAR2 EZ I         811 58.78         5.2 0.30            171           17.8 176 
 BRR  HZ EP        811 44.57                             153   -0.3510 69.5 304 
 BRR  HE ES        812  1.72                             153    0.5410 69.5 304 
 BRR  HZ I         812  4.80         2.3 0.42            153           69.5 304 
 RUS  HZ EP        811 46.88                             145   -0.4110 95.9 173 
 RUS  HE ES        812  5.06                             145   -0.3510 95.9 173 
 RUS  HZ I         812  7.01         1.3 0.44            145           95.9 173 
 PTB  HZ EP        811 49.85                             133   -0.49 9  142 261 
 PTB  HN ES        812 10.23                             133   -0.60 9  142 261 
 PTB  HZ I         812 12.52         1.3 0.12            133            142 261 
 SPBC HZ EP        811 52.15                             130    0.42 9  156 219 
 SPBC HE ES        812 13.94                             130    0.64 9  156 219 
 SPBC HZ I         812 15.20         2.3 0.10            130            156 219 
 ZAR  HZ EP        811 56.80                             122    0.69 9  201 294 
 ZAR  HN ES        812 20.74                             122   -0.37 9  201 294 
 CHI  HZ EP        812  1.49                             117    0.52 8  242 194 
 CHI  HN ES        812 29.56                             117   -0.19 8  242 194 
 CHI  HZ I         812 33.81         1.2 0.40            118            242 194 
                                                                                
