 2012  913 0454 59.2 L   6.754 -73.141145.5  RSN 12 0.3 2.5LRSN                1
 GAP= 73        0.65       3.1     3.1  4.3 -0.1251E+01  0.2121E+00  0.4601E+01E
 Epicentro: LOS SANTOS - SANTANDER                                             3
 ACTION:UPD 12-10-22 14:18 OP:ep   STATUS:               ID:20120913045459 L   I
 2012-09-13-0450-00M.COL___227                                                 6
 STAT SP IPHASW D HRMM SECON CODA AMPLIT PERI AZIMU VELO AIN AR TRES W  DIS CAZ7
 BAR2 SZ EP        455 18.87                             172    0.1210 18.4 194 
 BAR2 SZ ES   1    455 33.55                             172   -0.42 7 18.4 194 
 BAR2 SZ I         455 35.65        98.8 0.31                          18.4 194 
 GIR2 SZ EP        455 18.85                             165   -0.1810 36.4 351 
 GIR2 SZ ES   2    455 34.09                             165   -0.38 5 36.4 351 
 BRR  HZ IP     C  455 20.72                             151    0.1810 74.2 302 
 BRR  HZ I         455 21.03       115.4 0.23                          74.2 302 
 BRR  HN ES        455 37.82                             151    0.6810 74.2 302 
 PAM  SZ EP        455 21.59                             150   -0.0710 81.1  37 
 PAM  SZ I         455 21.85        58.0 0.23                          81.1  37 
 PAM  SN ES        455 39.03                             150   -0.1110 81.1  37 
 RUS  HZ EP   1    455 22.46                             145   -0.15 7 95.4 176 
 RUS  HN ES   1    455 40.68                             145   -0.15 7 95.4 176 
 PTB  HZ EP   2    455 25.70                             132   -0.45 5  147 261 
 PTB  HE ES   2    455 46.74                             132   -0.40 5  147 261 
 TAM  HZ EP        455 26.97                             131    0.23 9  153 103 
 ZAR  HZ EP   1    455 31.52                             122   -0.40 6  206 293 
 ZAR  HN ES   2    455 56.67                             122   -0.74 4  206 293 
 ZAR  HZ I         456  3.92        28.2 0.48                           206 293 
 NOR  SN ES   2    456  1.99                             119   -0.34 4  232 236 
 NOR  SZ I         456 12.52        13.1 0.24                           232 236 
 CHI  HZ EP   1    455 36.62                             118    0.21 6  244 196 
 CHI  HN ES   2    456  5.83                             118    0.44 4  244 196 
 CHI  HZ I         456 13.96        10.6 0.54                           244 196 
 ROSC BZ EP   2    455 37.46                             117    0.56 4  249 212 
 ROSC BZ I         456 16.97        19.6 0.51                           249 212 
 PRA  HZ EP   1    455 52.21                             107   -0.05 4  388 210 
 PRA  HE ES   1    456 33.62                             107    0.00 4  388 210 
                                                                                
