 2017 1113 0835 28.2 L   6.787 -73.164144.0  RSN 11 0.5 1.5LRSN                1
 GAP=135        1.18       4.0     4.5  6.3 -0.1898E+01  0.8008E+01  0.6288E+01E
 Epicentro: LOS SANTOS - SANTANDER                                             3
 ACTION:UPD 17-12-12 19:55 OP:rebc STATUS:               ID:20171113083528 L   I
 OLDACT:REG 17-11-13 13:39 OP:leo  STATUS:               ID:20171113082747     3
 2017-11-13-0828-00M.COL___435                                                 6
 STAT SP IPHASW D HRMM SECON CODA AMPLIT PERI AZIMU VELO AIN AR TRES W  DIS CAZ7
 BAR2 EZ EP        835 47.40                             171   -0.1710 21.6 185 
 BAR2 EZ ES        836  2.83                             171    0.1410 21.6 185 
 BAR2 EZ I         836  5.18         8.8 0.26            170           21.6 185 
 BRR  HZ EP        835 49.19                             153    0.1010 70.2 300 
 BRR  HN ES        836  6.26                             153    0.8710 70.2 300 
 BRR  HZ I         836  9.40         4.6 0.26            151           70.2 300 
 PAM  EZ EP        835 50.31                             150   -0.0510 79.8  40 
 PAM  EN ES        836  7.53                             150   -0.1210 79.8  40 
 PAM  EZ I         836  9.78         3.2 0.30            154           79.8  40 
 RUS  HZ EP        835 51.33                             144   -0.3410 99.3 175 
 RUS  HN ES        836 10.10                             144    0.1110 99.3 175 
 PTB  HZ EP        835 53.88                             132   -0.93 9  146 259 
 PTB  HN ES        836 14.77                             132   -0.80 9  146 259 
 PTB  HZ I         836 18.05         2.4 0.22            132            146 259 
 SPBC HZ EP        835 56.32                             129   -0.00 9  161 219 
 SPBC HE ES        836 18.66                             129    0.39 9  161 219 
 SPBC HZ I         836 22.52         5.3 0.10            130            161 219 
 ZAR  HZ EP        836  0.77                             122    0.39 9  203 293 
 ZAR  HN ES        836 24.98                             122   -0.52 9  203 293 
 ZAR  HZ I         836 34.27         4.1 0.26            123            203 293 
 NOR  HZ EP        836  4.13                             119    0.58 8  232 234 
 NOR  HE ES        836 30.94                             119   -0.19 8  232 234 
 NOR  HZ I         836 34.05         2.2 0.40            120            232 234 
 CHI  HZ EP        836  5.21                             117   -0.37 8  247 195 
 CHI  HN ES        836 34.58                             117   -0.16 8  247 195 
 CHI  HZ I         836 38.64         2.0 0.48            119            247 195 
 GUY2CHZ EP        836 12.75                             112    1.31 7  299 235 
 GUY2CHE ES        836 45.64                             112    0.47 7  299 235 
 GUY2CHZ I         836 53.73         1.8 0.60                           299 235 
 PRA  HZ EP        836 21.42                             106    0.04 6  390 209 
 PRA  HN ES        837  2.56                             106   -0.32 6  390 209 
 PRA  HZ I         837  9.57         2.3 0.40            108            390 209 
                                                                                
