 2017  213 0757 27.5 L   6.546 -73.770 97.4  RSN  4 0.2 0.8LRSN                1
 GAP=136        0.67       3.8     2.8  6.5  0.3368E+01  0.1853E+01  0.7881E+01E
 Epicentro: SANTA HELENA DEL OPON - SANTANDER                                  3
 ACTION:UPD 17-05-24 15:36 OP:jn   STATUS:               ID:20170213075727 L   I
 OLDACT:REG 17-02-13 12:10 OP:edw  STATUS:               ID:20170213074741     3
 2017-02-13-0748-00M.COL___346                                                 6
 STAT SP IPHASW D HRMM SECON CODA AMPLIT PERI AZIMU VELO AIN AR TRES W  DIS CAZ7
 BRR  HZ EP        757 42.89                             145   -0.1110 62.4   6 
 BRR  HN ES        757 55.44                             145    0.3210 62.4   6 
 BAR2 EZ EP        757 43.35                             144   -0.1910 65.2  85 
 BAR2 EZ ES        757 55.81                             144   -0.2710 65.2  85 
 BAR2 EZ I         757 57.35         4.2 0.42            147           65.2  85 
 PTB  HZ EP        757 44.32                             139    0.2810 75.9 270 
 PTB  HN ES        757 56.73                             139   -0.2510 75.9 270 
 PTB  HZ I         757 58.77         1.3 0.14            141           75.9 270 
 RUS  HZ EP        757 47.17                             130   -0.0810  105 134 
 RUS  HN ES        758  2.99                             130    0.3010  105 134 
 RUS  HZ I         758  3.83         0.9 0.36            131            105 134 
                                                                                
