 2010  113 0443 45.0 L   6.804 -73.123144.6  RSN  7 0.3 2.3LRSN                1
 GAP=185        0.53       2.4    11.7  5.3 -0.7259E+01  0.2660E+02  0.9846E-01E
 Epicentro: LOS SANTOS - SANTANDER                                             3
 ACTION:UP  10-08-24 09:43 OP:vdl  STATUS:               ID:20100113044345 L   I
 2010-01-13-0440-10S.COL___097                                                 6
 STAT SP IPHASW D HRMM SECON CODA AMPLIT PERI AZIMU VELO SNR AR TRES W  DIS CAZ7
 BAR2 SZ IP        444  4.64                             170     0.210   24 196 
 BAR2 SZ ES   1    444 19.75                             170     0.1 7   24 196 
 GIR2 SZ EP   1    444  4.69                             167     0.2 7   31 346 
 RUS  BZ IP        444  8.55                             143    -0.110  101 178 
 RUS  BE ES   2    444 27.19                             143     0.1 5  101 178 
 OCA  SZ IP        444 13.17                             130     0.0 9  160 352 
 OCA  SZ ES   1    444 34.75                             130    -0.4 7  160 352 
 OCA  SZ I         444 38.55        24.2 0.45                           160 352 
 CHI  HZ IP        444 22.41                             117    -0.3 8  250 196 
 CHI  HE ES   1    444 51.99                             117    -0.2 6  250 196 
 CHI  HZ I         444 55.53         6.7 0.55                           250 196 
 TOL  SZ EP   2    444 34.29                             109     0.9 3  346 225 
 PRA  HZ EP   1    444 38.90                             106     0.3 4  394 210 
 PRA  HE ES   2    445 20.09                             106    -0.4 3  394 210 
 PRA  HZ I         445 26.32         7.8 0.32                           394 210 
                                                                                
