 2014  113 0507 41.7 L   6.851 -73.152148.4  RSN  5 0.4 1.1LRSN                1
 GAP=133        0.87       5.2     4.8  8.4 -0.4644E+01  0.3821E+01  0.2140E+01E
 Epicentro: LOS SANTOS - SANTANDER                                             3
 ACTION:UPD 14-03-13 09:54 OP:ep   STATUS:               ID:20140113050741 L   I
 OLDACT:UP  14-01-13 10:03 OP:cam  STATUS:               ID:20140113050000     3
 OLDACT:REG 14-01-13 07:52 OP:cam  STATUS:               ID:20140113050000     3
 2014-01-13-0500-00M.COL___285                                                 6
 STAT SP IPHASW D HRMM SECON CODA AMPLIT PERI AZIMU VELO AIN AR TRES W  DIS CAZ7
 BAR2 SZ EP   2    5 8  1.81                             169    0.07 5 28.8 187 
 BRR  HZ EP        5 8  3.14                             154    0.2110 68.0 295 
 BRR  HE ES        5 8 20.07                             154    0.5510 68.0 295 
 BRR  HZ I         5 8 25.44         2.2 0.16            154           68.0 295 
 PAM  SZ EP        5 8  4.12                             152    0.1710 73.6  43 
 PAM  SE ES        5 8 20.84                             152   -0.4910 73.6  43 
 PAM  SZ I         5 8 22.00         3.4 0.24            158           73.6  43 
 RUS  HZ EP   2    5 8  6.59                             143    0.49 5  106 176 
 RUS  HN ES        5 8 25.15                             143    0.0010  106 176 
 RUS  HZ I         5 8 28.31         1.0 0.40            146            106 176 
 PTB  HZ EP   1    5 8  8.42                             132   -0.48 7  148 257 
 PTB  HN ES        5 8 29.74                             132   -0.40 9  148 257 
 PTB  HZ I         5 8 34.17         1.7 0.16            134            148 257 
 ZAR  HZ EP   4    5 8 15.98                             123    1.97 0  201 291 
 SML  HN ES   4    5 8 44.11                             119   -1.98 0  238 335 
                                                                                
