 2010  913 0442 39.4 L   6.799 -73.070144.0  RSN  5 0.2 1.6LRSN                1
 GAP=173        0.53       3.5     8.6  7.4  0.1168E+02 -0.3717E+02 -0.1089E+02E
 Epicentro: LOS SANTOS - SANTANDER                                             3
 ACTION:UP  11-02-18 11:02 OP:tino STATUS:               ID:20100913044239 L   I
 2010-09-13-0438-54S.COL___120                                                 6
 STAT SP IPHASW D HRMM SECON CODA AMPLIT PERI AZIMU VELO SNR AR TRES W  DIS CAZ7
 BAR2 SZ EP        442 59.00                             169     0.110   26 209 
 BAR2 SZ I         442 59.34         7.9 0.15                            26 209 
 BAR2 SZ ES   2    443 13.87                             169    -0.2 5   26 209 
 BRR  HZ EP        443  0.75                             150    -0.110   79 296 
 BRR  HE ES   1    443 17.63                             150     0.1 7   79 296 
 BRR  HZ I         443 20.98        11.2 0.21                            79 296 
 RUS  HZ EP        443  3.05                             144     0.110  100 181 
 RUS  HZ I         443  3.83         2.9 0.31                           100 181 
 RUS  HN ES   2    443 20.93                             144    -0.4 5  100 181 
 GUE  SZ EP        443  3.98                             139     0.110  115   8 
 OCA  SZ EP        443  7.37                             129    -0.3 9  162 350 
 OCA  SZ ES   2    443 30.00                             129     0.2 5  162 350 
 OCA  SZ I         443 34.02         5.5 0.45                           162 350 
                                                                                
