 2012  713 0531 32.6 L   6.815 -73.139148.0  RSN 21 0.5 3.9LRSN                1
 GAP= 56        1.12       3.8     3.4  6.2  0.7874E+00  0.4496E+01  0.3308E+01E
 Epicentro: LOS SANTOS - SANTANDER                                             3
 SPEC SD       MO  0.1 ST 44.9 OM  1.1 f00.658 R0.1089 AL      WI      MW  0.1 3
 SPEC PTB HH N MO 15.0 ST 21.9 OM  3.3 f0 2.53 R0.5810 AL 1.57 WI 13.3 MW  3.9 3
 SPEC PTB HH N T 53219 K 0.000 GD  209 VS 4.20 DE 3.00 Q0230.0 QA 0.60 VS 4.20 3
 SPEC RUS HH Z MO 15.3 ST115.9 OM  2.9 f0 3.49 R0.4212 AL 2.49 WI 17.5 MW  4.1 3
 SPEC RUS HH Z T 53156 K 0.000 GD  179 VP 7.60 DE 3.00 Q0230.0 QA 0.60 VS 4.20 3
 SPEC CHI HH N MO 15.1 ST109.1 OM  3.3 f0 3.88 R0.3789 AL 2.86 WI 16.0 MW  4.0 3
 SPEC CHI HH N T 53238 K 0.000 GD  290 VS 4.20 DE 3.00 Q0230.0 QA 0.60 VS 4.20 3
 SPEC HEL HH N MO 15.2 ST 24.0 OM  3.3 f0 2.29 R0.6419 AL 2.01 WI 22.4 MW  4.1 3
 SPEC HEL HH N T 53244 K 0.000 GD  310 VS 4.20 DE 3.00 Q0230.0 QA 0.60 VS 4.20 3
 ACTION:UPD 12-08-14 11:44 OP:ep   STATUS:               ID:20120713053132 L   I
 2012-07-13-0530-00M.COL___211                                                 6
 STAT SP IPHASW D HRMM SECON CODA AMPLIT PERI AZIMU VELO AIN AR TRES W  DIS CAZ7
 BAR2 SZ IP        531 52.58                             170     0.110   25 191 
 BAR2 SZ I         531 52.90      1330.7 0.21            171             25 191 
 BAR2 SZ ES   1    532  7.80                             170    -0.2 7   25 191 
 BRR  HZ EP        531 54.47                             153     0.510   71 297 
 BRR  HN ES   1    532 11.64                             153     1.0 7   71 297 
 BRR  HZ I         532 15.40      1300.0 0.18            139             71 297 
 PAM  SZ EP        531 55.48                             152     0.610   76  40 
 PAM  SN ES   1    532 12.16                             152    -0.2 7   76  40 
 PAM  SZ I         532 14.66       778.3 0.35            140             76  40 
 RUS  HZ EP        531 56.34                             144    -0.310  102 177 
 RUS  HZ I         531 57.31       587.9 0.19            138            102 177 
 RUS  HN ES   1    532 14.69                             144    -0.7 7  102 177 
 PTB  HZ EP        531 59.10                             132    -0.7 9  149 258 
 PTB  HN ES   1    532 20.79                             132    -0.3 7  149 258 
 PTB  HZ I         532 26.50      1070.3 0.35            120            149 258 
 TAM  HZ IP     D  532  0.73                             131     0.3 9  155 106 
 TAM  HZ I         532  0.93      1227.2 0.20            122            155 106 
 TAM  HN ES        532 21.90                             131    -0.2 9  155 106 
 OCA  HN EP   1    532  0.93                             130     0.0 7  159 353 
 OCA  HZ ES   2    532 22.86                             130    -0.2 5  159 353 
 YOP  SZ EP        532  3.02                             127     0.1 9  180 154 
 YOP  SN ES   1    532 26.42                             127    -0.1 7  180 154 
 ZAR  HZ EP   1    532  5.01                             123    -0.2 6  204 292 
 ZAR  HN ES   1    532 30.26                             123    -0.3 6  204 292 
 ZAR  HZ I         532 37.06      1301.7 0.41            111            204 292 
 NOR  SZ EP   1    532  8.55                             119     0.0 6  236 234 
 NOR  SN ES   1    532 37.48                             119     0.8 6  236 234 
 CHI  HZ EP   1    532 10.25                             117    -0.3 6  250 195 
 CHI  HN ES   1    532 39.22                             117    -1.0 6  250 195 
 CHI  HZ I         532 44.09       414.5 0.33            109            250 195 
 ROSC BZ EP        532 12.05                             117     1.0 8  255 211 
 ROSC BZ I         532 49.15       979.4 0.53            108            255 211 
 HEL  HZ EP   1    532 12.48                             115    -0.5 6  273 256 
 HEL  HN ES   1    532 45.13                             115     0.6 6  273 256 
 HEL  HZ I         532 51.10       488.1 0.57            105            273 256 
 URE  HZ EP   2    532 13.41                             114    -0.3 4  284 292 
 URE  HN ES   2    532 44.89                             114    -1.0 4  284 292 
 GUY  SZ EP   1    532 16.84                             112     0.1 5  305 235 
 DBB  SZ EP   1    532 20.12                             110    -0.1 5  340 274 
 COD  HZ EP   1    532 20.29                             109    -0.6 5  347 354 
 COD  HZ I         533  4.94       194.9 0.34            100            347 354 
 SDV  BZ EP   1    532 21.90                             109    -0.6 5  359  50 
 PRA  HZ EP   1    532 25.54                             107    -0.8 4  394 210 
 PRA  HN ES   1    533  8.75                             107     0.4 4  394 210 
 SJA  SZ EP   1    532 28.10                             106     0.7 4  402 193 
 PAL  HZ EP   1    532 28.01                             106     0.0 4  407 239 
