 2015  313 0832 30.7 L   6.818 -73.186144.5  RSN  5 0.3 1.5LRSN                1
 GAP=145        0.75       4.3     4.2  6.9 -0.7796E+01  0.1017E+02  0.4421E+00E
 Epicentro: ZAPATOCA - SANTANDER                                               3
 ACTION:UPD 15-04-30 16:25 OP:nd   STATUS:               ID:20150313083230 L   I
 OLDACT:UP  15-03-13 15:25 OP:cam  STATUS:               ID:20150313082743     3
 OLDACT:UP  15-03-13 15:25 OP:cam  STATUS:               ID:20150313082743     3
 OLDACT:REG 15-03-13 13:22 OP:cam  STATUS:               ID:20150313082743     3
 2015-03-13-0827-43M.COL___281                                                 6
 STAT SP IPHASW D HRMM SECON CODA AMPLIT PERI AZIMU VELO AIN AR TRES W  DIS CAZ7
 PAM  SZ EP   1    832 52.71                             150   -0.19 7 78.8  43 
 PAM  SN ES        833 10.35                             150    0.1710 78.8  43 
 PAM  SZ I         833 12.31         5.7 0.54            156           78.8  43 
 RUS  HZ EP        832 54.10                             143   -0.4310  103 174 
 RUS  HN ES        833 13.04                             143   -0.0510  103 174 
 RUS  HZ I         833 15.61         2.6 0.40            149            103 174 
 PTB  HZ EP        832 57.25                             132    0.01 9  144 258 
 PTB  HN ES        833 17.73                             132   -0.18 9  144 258 
 PTB  HZ I         833 25.66         4.2 0.48            135            144 258 
 SPBC HZ EP        832 59.21                             129    0.19 9  162 217 
 SPBC HN ES        833 21.55                             129    0.47 9  162 217 
 SPBC HZ I         833 23.48         6.8 0.44            133            162 217 
 NOR  HZ EP        833  6.60                             118    0.47 8  232 233 
 NOR  HE ES        833 33.29                             118   -0.45 8  232 233 
 NOR  HZ I         833 36.28         1.9 0.16            122            232 233 
                                                                                
