 2013  113 0825 40.4 L   6.674 -73.192148.8  RSN  5 0.3 1.6LRSN                1
 GAP=222        0.72       5.5     5.1  5.8  0.1710E+02  0.5070E+01  0.6585E+00E
 Epicentro: VILLANUEVA - SANTANDER                                             3
 ACTION:UPD 13-02-15 09:13 OP:ep   STATUS:               ID:20130113082540 L   I
 2013-01-13-0820-00M.COL___241                                                 6
 STAT SP IPHASW D HRMM SECON CODA AMPLIT PERI AZIMU VELO AIN AR TRES W  DIS CAZ7
 BAR2 SZ EP        826  0.05                             176   -0.1710 9.12 173 
 BAR2 SZ ES        826 15.23                             176   -0.4410 9.12 173 
 BAR2 SZ I         826 18.95         5.3 0.26            176           9.12 173 
 BRR  HZ EP        826  2.04                             152   -0.0710 74.8 310 
 BRR  HN ES        826 19.42                             152    0.4010 74.8 310 
 BRR  HN I         826 19.49        13.8 0.20            151           74.8 310 
 RUS  HZ EP        826  3.85                             148    0.2810 87.3 172 
 RUS  HN ES        826 21.88                             148    0.2510 87.3 172 
 RUS  HN I         826 24.02         3.6 0.24            150           87.3 172 
 PTB  HZ EP        826  6.79                             134   -0.22 9  141 264 
 PTB  HN ES        826 27.56                             134   -0.19 9  141 264 
 PTB  HN I         826 28.72         4.6 0.30            134            141 264 
 ZAR  HN ES        826 38.89                             123    0.17 9  205 296 
 ZAR  HN I         826 46.49         5.7 0.58            123            205 296 
                                                                                
