 2013  713 0905  1.3 L   6.843 -73.418124.4  RSN  4 0.4 1.2LRSN                1
 GAP=155        1.01       5.7     6.5  8.1  0.4761E+00  0.9824E+01 -0.1792E+02E
 Epicentro: SAN VICENTE DE CHUCURI - SANTANDER                                 3
 ACTION:UPD 13-08-12 10:37 OP:ep   STATUS:               ID:20130713090501 L   I
 OLDACT:REG 13-07-13 09:48 OP:nd   STATUS:               ID:20130713085959     3
 2013-07-13-0859-59M.COL___266                                                 6
 STAT SP IPHASW D HRMM SECON CODA AMPLIT PERI AZIMU VELO AIN AR TRES W  DIS CAZ7
 BAR2 SZ EP        9 5 18.63                             162   -0.1510 38.1 137 
 BAR2 SZ ES        9 5 32.14                             162   -0.3010 38.1 137 
 BAR2 SZ I         9 5 33.19         5.0 0.24            176           38.1 137 
 BRR  HZ EP        9 5 18.89                             159    0.2410 43.7 312 
 BRR  HN ES        9 5 32.83                             159    0.6210 43.7 312 
 BRR  HZ I         9 5 53.06         2.6 0.48            153           43.7 312 
 PTB  HZ EP        9 5 24.13                             133    0.1910  120 254 
 PTB  HN ES        9 5 41.24                             133   -0.3810  120 254 
 PTB  HZ I         9 5 45.73         2.4 0.82            141            120 254 
 SML  HZ EP        9 5 35.42                             114    0.38 8  228 342 
 SML  HN ES        9 6  0.67                             114   -0.72 8  228 342 
 SML  HZ I         9 6  9.52         2.6 0.28            120            228 342 
                                                                                
