 2012  713 0348 32.4 L   6.624 -73.232142.0  RSN  5 0.1 1.4LRSN                1
 GAP=167        0.41       3.9     4.0  5.3  0.8329E+01  0.3395E+01  0.2788E+00E
 Epicentro: BARICHARA - SANTANDER                                              3
 ACTION:UPD 12-08-14 11:44 OP:ep   STATUS:               ID:20120713034832 L   I
 2012-07-13-0347-42M.COL___214                                                 6
 STAT SP IPHASW D HRMM SECON CODA AMPLIT PERI AZIMU VELO AIN AR TRES W  DIS CAZ7
 BAR2 SZ EP   1    348 51.18                             177    -0.2 7    7 122 
 BAR2 SZ I         349  7.28         4.3 0.26            156              7 122 
 BRR  HZ EP   1    348 53.29                             150    -0.1 7   75 315 
 BRR  HZ I         348 53.81         6.3 0.10            150             75 315 
 BRR  HN ES        349  9.84                             150     0.110   75 315 
 RUS  HN ES   1    349 11.88                             148     0.1 7   83 168 
 PTB  HZ EP   1    348 58.23                             134     0.2 7  136 266 
 PTB  HN ES   1    349 17.75                             134    -0.2 7  136 266 
 ZAR  HN ES   1    349 29.65                             122     0.0 6  204 298 
