 2017 1213 0936 35.7 L   6.775 -73.146145.0  RSN 12 0.5 2.0LRSN                1
 GAP= 66        1.22       3.4     4.8  7.6  0.3711E+01  0.6004E+00 -0.1230E+00E
 Epicentro: LOS SANTOS - SANTANDER                                             3
 ACTION:UPD 18-01-04 13:20 OP:rebc STATUS:               ID:20171213093635 L   I
 OLDACT:REG 17-12-13 13:35 OP:edw  STATUS:               ID:20171213092742     3
 2017-12-13-0928-00M.COL___440                                                 6
 STAT SP IPHASW D HRMM SECON CODA AMPLIT PERI AZIMU VELO AIN AR TRES W  DIS CAZ7
 BAR2 EZ EP        936 55.16                             172   -0.0510 20.6 191 
 BAR2 EZ ES        937 10.57                             172    0.1610 20.6 191 
 BAR2 EZ I         937 12.96        19.2 0.26            168           20.6 191 
 PAM  EZ EP        936 58.15                             150    0.1610 79.5  38 
 PAM  EN ES   4    937 14.93                             150   -0.42 0 79.5  38 
 PAM  EZ I         937 18.05         8.0 0.56            152           79.5  38 
 PTB  HZ EP        937  1.95                             132   -0.63 9  147 260 
 PTB  HE ES   4    937 22.16                             132   -1.36 0  147 260 
 PTB  HZ I         937 26.55         9.0 0.24            129            147 260 
 TAM  HZ IP        937  3.63                             130    0.35 9  154 104 
 TAM  HN ES   4    937 23.01                             130   -1.76 0  154 104 
 TAM  HZ I         937 30.30         8.4 0.40            130            154 104 
 SPBC HZ EP        937  4.19                             129    0.23 9  161 220 
 SPBC HE ES        937 25.91                             129   -0.08 9  161 220 
 SPBC HZ I         937 33.26        15.5 0.12            127            161 220 
 OCA  HZ EP        937  3.75                             129   -0.48 9  163 353 
 OCA  HN ES        937 25.89                             129   -0.57 9  163 353 
 OCA  HZ I         937 33.25        23.3 0.34            129            163 353 
 YPLC HZ EP        937  5.67                             127    0.44 9  174 151 
 YPLC HE ES        937 28.75                             127    0.51 9  174 151 
 YPLC HZ I         937 30.54        13.8 0.28            125            174 151 
 ZAR  HZ EP        937  7.47                             122   -0.75 9  205 293 
 ZAR  HN ES        937 33.86                             122    0.29 9  205 293 
 ZAR  HZ I         937 38.65         9.8 0.42            120            205 293 
 DRL03HZ EP        937 18.57                             113    0.97 7  292 353 
 DRL03HN ES        937 50.55                             113    0.29 7  292 353 
 GUY2CHZ EP        937 20.09                             112    0.97 7  300 235 
 GUY2CHN ES   4    937 54.97                             112    2.01 0  300 235 
 GUY2CHZ I         938  5.44         4.6 0.48                           300 235 
 PTGC HZ EP        937 18.47                             112   -0.79 7  306 158 
 PTGC HN ES        937 52.10                             112   -1.12 7  306 158 
 PTGC HZ I         937 53.08         8.7 0.28            110            306 158 
 PRA  HZ EP        937 29.19                             106    0.25 6  390 210 
 PRA  HN EP        937 29.78                             106            390 210 
 PRA  HZ I         938 17.51         2.8 0.40            105            390 210 
                                                                                
