 2014  113 0601 42.9 L   6.801 -73.188145.5  RSN  7 0.5 1.4LRSN                1
 GAP=131        1.07       3.9     5.0  7.6  0.5203E+00  0.1081E+02  0.1589E+00E
 Epicentro: ZAPATOCA - SANTANDER                                               3
 ACTION:UPD 14-03-13 09:54 OP:ep   STATUS:               ID:20140113060142 L   I
 OLDACT:REG 14-01-13 07:54 OP:cam  STATUS:               ID:20140113060000     3
 2014-01-13-0600-00M.COL___285                                                 6
 STAT SP IPHASW D HRMM SECON CODA AMPLIT PERI AZIMU VELO AIN AR TRES W  DIS CAZ7
 BAR2 SZ EP        6 2  2.46                             171   -0.0510 23.1 178 
 BAR2 SZ ES        6 2 17.56                             171   -0.2310 23.1 178 
 BAR2 SZ I         6 2 18.77         8.9 0.28            171           23.1 178 
 PAM  SZ EP        6 2  5.34                             150    0.0610 80.3  42 
 PAM  SN ES        6 2 22.78                             150    0.0610 80.3  42 
 PAM  SZ I         6 2 24.50         3.3 0.42            153           80.3  42 
 RUS  HZ EP   1    6 2  6.40                             144   -0.28 7  101 173 
 RUS  HE ES        6 2 25.70                             144    0.4910  101 173 
 RUS  HZ I         6 2 26.07         2.5 0.32            147            101 173 
 PTB  HZ EP   1    6 2  9.14                             133   -0.31 7  143 258 
 PTB  HN ES        6 2 29.46                             133   -0.69 9  143 258 
 PTB  HZ I         6 2 37.29         2.7 0.36            133            143 258 
 ZAR  HE ES        6 2 40.96                             123    1.12 9  200 293 
 SML  HZ EP   1    6 2 19.42                             118    0.11 6  242 336 
 SML  HN ES   1    6 2 46.84                             118   -0.85 6  242 336 
 SML  HZ I         6 2 51.73         2.7 0.26            119            242 336 
 CHI  HZ EP        6 2 20.66                             117    0.18 8  248 194 
 CHI  HN ES        6 2 49.63                             117   -0.15 8  248 194 
                                                                                
