 2015  413 0354 29.2 L   6.877 -73.268126.1  RSN  8 0.4 2.0LRSN                1
 GAP=165        1.06       3.4     4.4  6.8  0.1441E+01  0.5653E+01 -0.6327E+01E
 Epicentro: BETULIA - SANTANDER                                                3
 ACTION:UPD 15-06-03 16:54 OP:cam  STATUS:               ID:20150413035429 L   I
 OLDACT:REG 15-04-13 13:09 OP:carl STATUS:               ID:20150413034749     3
 2015-04-13-0347-49M.COL___266                                                 6
 STAT SP IPHASW D HRMM SECON CODA AMPLIT PERI AZIMU VELO AIN AR TRES W  DIS CAZ7
 BAR2 EZ EP        354 46.99                             165    0.3010 32.8 163 
 BAR2 EZ ES        355  0.29                             165   -0.0710 32.8 163 
 BAR2 EZ I         355  1.50        32.8 0.26            170           32.8 163 
 BRR  HZ EP        354 47.51                             155    0.2210 55.3 297 
 BRR  HN ES        355  1.55                             155    0.1210 55.3 297 
 RUS  HZ EP        354 52.01                             136    0.1610  111 169 
 RUS  HE ES        355  9.58                             136    0.0210  111 169 
 PTB  HZ EP        354 52.35                             130   -1.17 9  137 254 
 PTB  HN ES        355 12.11                             130   -0.42 9  137 254 
 PTB  HZ I         355 14.42         7.4 0.18            131            137 254 
 OCA  HZ EP        354 55.24                             127    0.17 9  151 358 
 OCA  HN ES        355 15.10                             127   -0.18 9  151 358 
 OCA  HZ I         355 19.09        16.2 0.14            126            151 358 
 ZAR  HZ EP        354 58.51                             120   -0.21 9  188 291 
 ZAR  HN ES        355 22.22                             120    0.44 9  188 291 
 ZAR  HZ I         355 26.80         5.6 0.40            120            188 291 
 SML  HZ EP        355  3.70                             114    0.41 8  231 337 
 SML  HN ES        355 29.63                             114   -0.28 8  231 337 
 SML  HZ I         355 38.61        12.4 0.10            115            231 337 
 HEL  HN ES        355 37.63                             111    0.72 8  261 253 
                                                                                
