 2010 1013 0550 27.4 L   6.772 -73.046141.2  RSN  8 0.3 1.9LRSN                1
 GAP=186        0.71       4.8     9.2  6.5 -0.2482E+02  0.5193E+01  0.3215E+01E
 Epicentro: LOS SANTOS - SANTANDER                                             3
 ACTION:UP  11-02-18 11:09 OP:tino STATUS:               ID:20101013055027 L   I
 2010-10-13-0548-11S.COL___124                                                 6
 STAT SP IPHASW D HRMM SECON CODA AMPLIT PERI AZIMU VELO SNR AR TRES W  DIS CAZ7
 BAR2 SZ EP        550 46.79                             169     0.310   25 217 
 BAR2 SZ ES   1    551  1.23                             169    -0.2 7   25 217 
 BAR2 SZ I         551  4.55        12.5 0.17                            25 217 
 BRR  HZ EP        550 48.68                             148     0.010   82 297 
 BRR  HE ES   2    551  5.77                             148     0.4 5   82 297 
 BRR  HZ I         551  8.41        10.0 0.15                            82 297 
 GRA  SZ IP        550 52.59                             136     0.410  126  12 
 GRA  SZ ES   1    551 11.02                             136    -0.6 7  126  12 
 GRA  SZ I         551 13.39         6.9 0.22                           126  12 
 OCA  SZ EP   2    550 55.34                             128    -0.5 5  165 349 
 OCA  SZ I         551 21.99         8.1 0.39                           165 349 
 NOR  SZ EP   2    551  3.19                             117    -0.5 4  242 237 
 CHI  HZ EP   2    551  4.95                             116     0.1 4  249 198 
 CHI  HE ES   2    551 33.95                             116    -0.1 4  249 198 
 CHI  HZ I         551 40.03         3.4 0.30                           249 198 
 HEL  HZ EP   2    551  8.43                             113    -0.1 4  282 257 
 HEL  HZ I         551 45.18         3.0 0.28                           282 257 
 PRA  HZ EP   1    551 20.84                             105    -0.3 4  395 211 
 PRA  HE ES   2    552  2.80                             105    -0.2 3  395 211 
 PRA  HZ I         552  7.58        11.5 0.27                           395 211 
                                                                                
