 2016  113 0808 20.5 L   6.811 -73.148145.2  RSN 13 0.5 1.8LRSN                1
 GAP=136        1.16       3.5     4.2  6.1 -0.3521E+01  0.7273E+01 -0.5590E+00E
 Epicentro: LOS SANTOS - SANTANDER                                             3
 ACTION:UPD 16-03-09 23:24 OP:cam  STATUS:               ID:20160113080820 L   I
 OLDACT:UP  16-01-13 16:08 OP:drio STATUS:               ID:20160113075745     3
 OLDACT:REG 16-01-13 12:12 OP:drio STATUS:               ID:20160113075745     3
 2016-01-13-0757-45M.COL___328                                                 6
 STAT SP IPHASW D HRMM SECON CODA AMPLIT PERI AZIMU VELO AIN AR TRES W  DIS CAZ7
 BAR2 EZ EP        8 8 39.96                             170   -0.1210 24.5 189 
 BAR2 EZ ES        8 8 54.61                             170   -0.7510 24.5 189 
 BAR2 EZ I         8 8 56.82        11.2 0.16            170           24.5 189 
 BRR  HZ IP     C  8 8 41.90                             153    0.3610 70.4 298 
 BRR  HN ES        8 8 58.92                             153    0.9710 70.4 298 
 BRR  HZ I         8 9  2.72        11.0 0.14            151           70.4 298 
 PAM  EZ EP        8 8 43.03                             151    0.4310 76.6  40 
 PAM  EN ES        8 9  0.11                             151    0.2610 76.6  40 
 PAM  EZ I         8 9  2.07        13.7 0.50            155           76.6  40 
 RUS  HZ EP        8 8 44.29                             143    0.0110  102 176 
 RUS  HE ES        8 9  2.91                             143    0.0710  102 176 
 RUS  HZ I         8 9  4.63         4.5 0.32            147            102 176 
 PTB  HZ EP        8 8 46.87                             132   -0.55 9  148 258 
 PTB  HN ES        8 9  7.84                             132   -0.58 9  148 258 
 PTB  HZ I         8 9 14.10         5.2 0.32            132            148 258 
 OCA  HZ EP        8 8 49.09                             130    0.45 9  159 353 
 OCA  HE ES        8 9  9.77                             130   -0.83 9  159 353 
 OCA  HZ I         8 9 15.13        15.2 0.34            132            159 353 
 SPBC HZ EP        8 8 49.02                             129   -0.01 9  164 219 
 SPBC HN ES        8 9 11.32                             129    0.04 9  164 219 
 SPBC HZ I         8 9 17.16         7.5 0.22            131            164 219 
 ZAR  HZ EP        8 8 53.17                             122    0.34 9  203 292 
 ZAR  HN ES        8 9 18.06                             122    0.00 9  203 292 
 ZAR  HZ I         8 9 24.57         6.8 0.40            123            203 292 
 NOR  HE ES        8 9 23.93                             118   -0.21 8  235 234 
 SML  HZ EP        8 8 56.47                             117   -0.48 8  242 335 
 SML  HN ES   4    8 9 24.40                             117   -0.99 0  242 335 
 SML  HZ I         8 9 28.63         5.9 0.10            119            242 335 
 CHI  HZ EP        8 8 58.24                             117   -0.04 8  250 195 
 CHI  HN ES   4    8 9 26.00                             117   -1.76 0  250 195 
 CHI  HZ I         8 9 31.62         1.8 0.58            119            250 195 
 HEL  HZ EP        8 9  0.19                             115   -0.50 8  272 256 
 HEL  HN ES        8 9 32.34                             115    0.30 8  272 256 
 HEL  HZ I         8 9 38.39         4.5 0.40            116            272 256 
 GUY2CHZ EP   4    8 9  5.89                             112    1.76 0  302 235 
 GUY2CHE ES        8 9 38.89                             112    0.71 7  302 235 
 GUY2CHZ I         8 9 48.85         1.8 0.50                           302 235 
                                                                                
