 2016  113 0807  0.7 L   5.780 -73.968104.9  RSN  7 0.4 1.3LRSN                1
 GAP=175        1.06       4.4     4.5  7.0 -0.8616E+01  0.2577E+01 -0.7874E+01E
 Epicentro: FLORIAN - SANTANDER                                                3
 ACTION:UPD 16-03-09 23:24 OP:cam  STATUS:               ID:20160113080700 L   I
 OLDACT:DUP 16-01-13 16:08 OP:drio STATUS:               ID:20160113075746d    3
 2016-01-13-0757-45M.COL___328                                                 6
 STAT SP IPHASW D HRMM SECON CODA AMPLIT PERI AZIMU VELO AIN AR TRES W  DIS CAZ7
 SPBC HZ EP        8 7 15.17                             169    0.1110 18.3 219 
 SPBC HN ES        8 7 26.44                             169    0.1610 18.3 219 
 SPBC HZ I         8 7 27.87         5.6 0.40            169           18.3 219 
 PTB  HZ EP        8 7 18.97                             133   -0.9910 99.9 327 
 PTB  HE ES        8 7 35.31                             133    0.3010 99.9 327 
 PTB  HZ I         8 7 37.34         2.7 0.26            132           99.9 327 
 NOR  HZ EP        8 7 20.46                             132    0.1910  103 257 
 NOR  HN ES        8 7 35.10                             132   -0.4510  103 257 
 NOR  HZ I         8 7 38.42         5.0 0.12            133            103 257 
 BAR2 EZ EP        8 7 22.69                             126    0.0610  125  44 
 BAR2 EZ ES        8 7 39.43                             126   -0.3310  125  44 
 BAR2 EZ I         8 7 40.72         5.8 0.46            128            125  44 
 BRR  HZ EP        8 7 24.91                             120    0.09 9  149  11 
 BRR  HE ES        8 7 44.12                             120    0.46 9  149  11 
 BRR  HZ I         8 7 46.24         3.7 0.16            121            149  11 
 GUY2CHZ EP        8 7 27.88                             117    0.61 9  167 248 
 GUY2CHN ES   4    8 7 49.94                             117    1.93 0  167 248 
 GUY2CHZ I         8 7 53.01         2.0 0.36                           167 248 
 ZAR  HZ EP        8 7 31.75                             111   -0.15 8  213 333 
 ZAR  HE ES        8 7 56.36                             111    0.11 8  213 333 
 ZAR  HZ I         8 8  2.37         2.3 0.32            111            213 333 
                                                                                
