 2012  913 0505 52.7 L   6.755 -73.144140.5  RSN 13 0.3 2.7LRSN                1
 GAP= 73        0.65       3.1     2.3  3.9 -0.2842E+00  0.1120E+01  0.2722E+01E
 Epicentro: LOS SANTOS - SANTANDER                                             3
 ACTION:UPD 12-10-22 14:18 OP:ep   STATUS:               ID:20120913050552 L   I
 2012-09-13-0500-00M.COL___227                                                 6
 STAT SP IPHASW D HRMM SECON CODA AMPLIT PERI AZIMU VELO AIN AR TRES W  DIS CAZ7
 BAR2 SZ IP        5 6 11.72                             172    0.1010 18.5 193 
 BAR2 SZ ES        5 6 26.30                             172   -0.0610 18.5 193 
 BAR2 SZ I         5 6 27.64       195.4 0.16                          18.5 193 
 GIR2 SZ EP        5 6 11.84                             165   -0.0710 36.2 351 
 BRR  HZ EP        5 6 13.66                             151    0.2110 73.9 302 
 BRR  HN ES        5 6 30.25                             151    0.6210 73.9 302 
 BRR  HZ I         5 6 31.82       165.7 0.19                          73.9 302 
 PAM  SZ EP        5 6 14.59                             149   -0.0110 81.2  37 
 PAM  SN ES        5 6 31.31                             149   -0.3710 81.2  37 
 RUS  HZ EP        5 6 15.70                             144    0.1210 95.6 176 
 RUS  HN ES   1    5 6 33.49                             144    0.07 7 95.6 176 
 RUS  HZ I         5 6 35.39        52.7 0.21                          95.6 176 
 PTB  HZ EP   2    5 6 18.98                             131   -0.21 5  147 261 
 PTB  HN ES   1    5 6 39.16                             131   -0.69 7  147 261 
 PTB  HZ I         5 6 42.68        49.7 0.16                           147 261 
 TAM  HZ IP     D  5 6 20.05                             130    0.21 9  154 103 
 TAM  HZ I         5 6 20.21       106.6 0.23                           154 103 
 TAM  HE ES   1    5 6 40.57                             130   -0.43 7  154 103 
 ZAR  HZ EP   1    5 6 24.73                             121   -0.31 6  206 293 
 ZAR  HN ES   2    5 6 50.06                             121   -0.20 4  206 293 
 ZAR  HZ I         5 6 55.99        54.3 0.11                           206 293 
 NOR  SZ EP   2    5 6 27.99                             118    0.14 4  232 236 
 NOR  SN ES   1    5 6 55.13                             118   -0.13 6  232 236 
 NOR  SZ I         5 7  0.14        24.0 0.32                           232 236 
 CHI  HZ EP   1    5 6 29.65                             116    0.05 6  244 196 
 HEL  HZ EP   2    5 6 32.78                             114    0.22 4  271 257 
 HEL  HE ES   2    5 7  3.14                             114   -0.49 4  271 257 
 HEL  HZ I         5 7  9.28        17.3 0.38                           271 257 
 DBB  SZ EP   1    5 6 39.76                             108   -0.29 5  340 275 
 PRA  HZ EP   1    5 6 46.22                             106    0.66 4  388 210 
                                                                                
