 2016  413 0827 39.7 L   6.785 -73.147139.1  RSN  8 0.3 1.8LRSN                1
 GAP=137        0.87       2.9     3.7  5.6 -0.2873E+01  0.8581E+01 -0.2038E+01E
 Epicentro: LOS SANTOS - SANTANDER                                             3
 ACTION:UPD 16-05-05 14:21 OP:rebc STATUS:               ID:20160413082739 L   I
 OLDACT:REG 16-04-13 13:24 OP:mh   STATUS:               ID:20160413081747     3
 2016-04-13-0817-47M.COL___315                                                 6
 STAT SP IPHASW D HRMM SECON CODA AMPLIT PERI AZIMU VELO AIN AR TRES W  DIS CAZ7
 BAR2 EZ EP        827 58.31                             171   -0.1410 21.6 190 
 BAR2 EZ ES        828 12.65                             171   -0.4610 21.6 190 
 BAR2 EZ I         828 17.74         8.4 0.20            173           21.6 190 
 PAM  EZ IP     D  828  1.23                             149   -0.0310 78.8  39 
 PAM  EE ES        828 18.60                             149    0.5010 78.8  39 
 PAM  EZ I         828 20.82        10.5 0.40            152           78.8  39 
 RUS  HZ EP        828  2.41                             143   -0.2310 98.9 176 
 RUS  HE ES        828 20.75                             143    0.1910 98.9 176 
 RUS  HZ I         828 22.18         5.1 0.30            148           98.9 176 
 PTB  HZ EP        828  5.62                             131   -0.43 9  147 259 
 PTB  HN ES        828 26.67                             131    0.05 9  147 259 
 PTB  HZ I         828 30.13         8.6 0.12            134            147 259 
 SPBC HZ EP        828  7.40                             128   -0.12 9  162 219 
 SPBC HN ES        828 29.81                             128    0.56 9  162 219 
 SPBC HZ I         828 31.37        10.0 0.22            132            162 219 
 OCA  HZ IP        828  7.58                             128   -0.04 9  162 353 
 OCA  HE ES        828 29.13                             128   -0.30 9  162 353 
 OCA  HZ I         828 33.83        15.8 0.26            131            162 353 
 ZAR  HZ EP        828 12.51                             121    0.78 9  205 293 
 ZAR  HN ES        828 36.74                             121   -0.00 9  205 293 
 ZAR  HZ I         828 39.55        10.5 0.10            124            205 293 
 GUY2CHZ EP        828 22.93                             111    0.09 7  300 235 
 GUY2CHE ES        828 56.13                             111   -0.39 7  300 235 
 GUY2CHZ I         829  4.98         2.6 0.38                           300 235 
                                                                                
