 2012 1013 0829 20.1 L   6.774 -73.123147.7  RSN  9 0.3 2.0LRSN                1
 GAP= 82        0.66       4.3     4.2  4.9  0.4021E+01  0.2256E+01  0.3086E+01E
 Epicentro: LOS SANTOS - SANTANDER                                             3
 ACTION:UPD 12-11-22 17:03 OP:ep   STATUS:               ID:20121013082920 L   I
 2012-10-13-0827-59S.COL___228                                                 6
 STAT SP IPHASW D HRMM SECON CODA AMPLIT PERI AZIMU VELO AIN AR TRES W  DIS CAZ7
 BAR2 SZ EP   1    829 39.75                             171   -0.20 7 21.2 198 
 BAR2 SZ I         829 39.93        21.1 0.18                          21.2 198 
 BAR2 SZ ES   1    829 55.10                             171   -0.31 7 21.2 198 
 GIR2 SZ EP   1    829 39.91                             166   -0.21 7 34.6 347 
 GIR2 SZ ES   1    829 56.26                             166    0.54 7 34.6 347 
 BRR  HZ EP   1    829 41.66                             152   -0.03 7 74.8 300 
 BRR  HZ I         829 41.95        43.6 0.26                          74.8 300 
 BRR  HN ES   1    829 59.11                             152    0.60 7 74.8 300 
 BRR  HN I         830  0.14        47.3 0.16                          74.8 300 
 PAM  SZ EP   1    829 42.57                             151   -0.02 7 78.1  37 
 PAM  SZ I         829 42.80        16.7 0.20                          78.1  37 
 PAM  SN ES   1    829 59.77                             151   -0.34 7 78.1  37 
 PAM  SN I         830  0.86        14.4 0.20                          78.1  37 
 RUS  HZ EP   1    829 43.94                             145    0.09 7 97.6 177 
 RUS  HN ES   1    830  2.18                             145   -0.18 7 97.6 177 
 RUS  HN I         830  2.91        16.3 0.32                          97.6 177 
 RUS  HZ I         830  3.64         8.2 0.22                          97.6 177 
 TAM  HZ EP   1    829 47.94                             132    0.28 7  152 104 
 TAM  HZ I         829 48.80         5.6 0.25                           152 104 
 ZAR  HE ES   1    830 18.14                             122   -0.59 6  207 293 
 URE  HZ EP   1    830  1.80                             114    0.13 5  287 292 
 URE  HZ I         830 41.09         5.4 0.18                           287 292 
 PRA  HZ EP   1    830 14.07                             107    0.50 4  391 210 
 PRA  HZ I         830 59.13         2.6 0.50                           391 210 
                                                                                
