 2013  613 0524  5.3 L   6.773 -73.141150.4  RSN  8 0.4 1.8LRSN                1
 GAP=183        0.98       4.1     6.2  6.5 -0.1532E+00  0.5599E+01  0.1394E+00E
 Epicentro: LOS SANTOS - SANTANDER                                             3
 ACTION:UPD 14-01-08 09:54 OP:ep   STATUS:               ID:20130613052405 L   I
 OLDACT:REG 13-06-13 07:44 OP:cam  STATUS:               ID:20130613051959     3
 2013-06-13-0519-59M.COL___261                                                 6
 STAT SP IPHASW D HRMM SECON CODA AMPLIT PERI AZIMU VELO AIN AR TRES W  DIS CAZ7
 BAR2 SZ EP        524 25.30                             172   -0.1910 20.6 193 
 BAR2 SZ ES        524 41.21                             172    0.0110 20.6 193 
 BAR2 SZ I         524 43.04        13.0 0.44            170           20.6 193 
 GIR2 SZ EP   1    524 25.41                             167   -0.25 7 34.3 350 
 GIR2 SZ ES   1    524 41.33                             167   -0.17 7 34.3 350 
 BRR  HZ EP        524 27.22                             153    0.1110 73.1 300 
 BRR  HE ES        524 44.88                             153    0.8010 73.1 300 
 BRR  HZ I         524 47.35        11.2 0.38            150           73.1 300 
 RUS  HZ EP   1    524 29.20                             146   -0.16 7 97.6 176 
 RUS  HN ES        524 48.18                             146    0.1010 97.6 176 
 RUS  HZ I         524 49.04         4.4 0.28            148           97.6 176 
 PTB  HZ EP   1    524 32.26                             133   -0.44 7  148 260 
 PTB  HN ES        524 53.23                             133   -0.80 9  148 260 
 PTB  HZ I         525  0.67        17.2 0.42            132            148 260 
 OCA  HZ EP   1    524 34.72                             130    0.42 7  163 353 
 OCA  HN ES        524 56.58                             130   -0.31 9  163 353 
 OCA  HZ I         524 59.89         8.4 0.32            131            163 353 
 NOR  HZ EP   1    524 42.08                             120    0.86 6  233 235 
 NOR  HE ES   2    525  9.95                             120    0.75 4  233 235 
 PRA  HZ EP   1    524 58.91                             107    0.14 4  390 210 
                                                                                
