 2011  913 0550 58.5 L   6.806 -73.107147.6  RSN 19 0.3 3.1LRSN                1
 GAP=117        0.46       1.8     2.7  3.9 -0.9073E+00  0.3619E+01  0.1112E+01E
 Epicentro: LOS SANTOS - SANTANDER                                             3
 ACTION:UPD 12-07-13 15:57 OP:ep   STATUS:               ID:20110913055058 L   I
 2011-09-13-0549-25S.COL___168                                                 6
 STAT SP IPHASW D HRMM SECON CODA AMPLIT PERI AZIMU VELO AIN AR TRES W  DIS CAZ7
 BAR2 SZ IP        551 18.42                             170    0.0010 25.1 199 
 BAR2 SZ ES   2    551 33.55                             170   -0.38 5 25.1 199 
 BAR2 SZ I         551 35.13       429.0 0.16                          25.1 199 
 PAM  SZ IP        551 21.20                             152    0.4510 74.2  37 
 PAM  SN ES   2    551 37.98                             152   -0.11 5 74.2  37 
 BRR  HZ IP     C  551 20.25                             152    0.1810 74.7 297 
 BRR  HE ES   2    551 37.36                             152    0.48 5 74.7 297 
 BRR  HZ I         551 41.55       147.1 0.54                          74.7 297 
 RUS  HZ IP        551 22.31                             144   -0.1810  101 178 
 RUS  HN ES   2    551 41.08                             144   -0.11 5  101 178 
 RUS  HZ I         551 42.85        93.0 0.37                           101 178 
 OCA  SZ EP   1    551 26.87                             130   -0.10 7  160 352 
 OCA  SZ ES   2    551 48.99                             130   -0.17 5  160 352 
 OCA  SZ I         551 55.57       141.7 0.41                           160 352 
 YOP  SE ES   2    551 52.16                             127    0.14 4  178 155 
 ZAR  HZ EP   2    551 30.96                             122   -0.51 4  208 292 
 ZAR  HE ES   2    551 56.54                             122   -0.63 4  208 292 
 ZAR  HZ I         552  2.30       101.6 0.33                           208 292 
 NOR  SZ EP   1    551 34.24                             118   -0.54 6  239 235 
 NOR  SN ES   2    552  2.77                             118   -0.28 4  239 235 
 CHI  HZ EP   1    551 36.36                             117   -0.16 6  250 196 
 CHI  HE ES   2    552  5.83                             117   -0.33 4  250 196 
 CHI  HZ I         552  9.47        59.2 0.77                           250 196 
 ROSC BZ EP   2    551 37.38                             117    0.33 4  256 212 
 ROSC BN ES   2    552  7.06                             117   -0.04 4  256 212 
 ROSC BZ I         552 16.31       153.4 0.73                           256 212 
 HEL  HZ EP   2    551 40.00                             115    0.69 4  276 256 
 HEL  HN ES   2    552 10.96                             115   -0.16 4  276 256 
 HEL  HZ I         552 16.66        54.8 0.28                           276 256 
 VIL  SZ EP   2    551 41.96                             112   -0.24 4  305 192 
 VIL  SN ES   2    552 16.13                             112   -0.14 4  305 192 
 VIL  SZ I         552 25.98        45.5 0.40                           305 192 
 GUY  SN ES   2    552 17.65                             112    0.10 4  307 235 
 GUY  SZ I         552 24.40        67.2 0.54                           307 235 
 RREF HZ EP   1    551 45.44                             111    0.27 5  325 230 
 RREF HN ES   2    552 22.20                             111    0.65 3  325 230 
 RREF HZ I         552 30.51        72.5 0.82                           325 230 
 DBB  SZ EP   2    551 46.85                             109    0.29 3  344 274 
 TOL  SZ EP   1    551 47.32                             109    0.06 5  347 225 
 TOL  SZ ES   2    552 25.17                             109   -0.10 3  347 225 
 COD  HZ EP   2    551 46.29                             109   -0.66 3  348 354 
 COD  HN ES   2    552 24.45                             109   -0.26 3  348 354 
 COD  HZ I         552 36.13        55.6 0.54                           348 354 
 ANIL HZ EP   2    551 49.20                             109    0.39 3  361 225 
 ANIL HN ES   2    552 28.40                             109    0.38 3  361 225 
 ANIL HZ I         552 32.21       158.0 0.34                           361 225 
 PRA  HZ EP   2    551 52.04                             107   -0.39 3  395 210 
 PRA  HN ES   2    552 34.31                             107   -0.16 3  395 210 
                                                                                
