 2011  613 0152 52.6 L   6.775 -73.102148.0  RSN 14 0.4 2.8LRSN                1
 GAP=143        0.75       3.0     5.4  5.1 -0.6325E+01  0.3786E+01  0.3050E+01E
 Epicentro: LOS SANTOS - SANTANDER                                             3
 ACTION:UP  11-07-14 19:04 OP:ep   STATUS:               ID:20110613015252 L   I
 2011-06-13-0148-32S.COL___132                                                 6
 STAT SP IPHASW D HRMM SECON CODA AMPLIT PERI AZIMU VELO SNR AR TRES W  DIS CAZ7
 BAR2 SZ IP        153 12.55                             171     0.010   22 204 
 BAR2 SZ ES   1    153 28.14                             171     0.1 7   22 204 
 BAR2 SZ I         153 30.50       182.7 0.22                            22 204 
 BTL  SZ IP        153 13.07                             170     0.510   24 311 
 BTL  SZ ES   2    153 27.67                             170    -0.4 5   24 311 
 BRR  HZ IP     C  153 14.47                             151     0.110   77 299 
 BRR  HZ I         153 34.84       223.3 0.19                            77 299 
 PAM  SN ES   2    153 31.79                             151    -0.7 5   77  35 
 BRR  HN ES   1    153 31.95                             151     0.7 7   77 299 
 RUS  HZ EP   1    153 16.39                             145     0.0 7   98 179 
 RUS  HN ES   2    153 34.49                             145    -0.4 5   98 179 
 RUS  HZ I         153 36.98        82.6 0.46                            98 179 
 BRI  SZ EP   1    153 17.16                             142     0.3 7  109  18 
 BRI  SZ ES   2    153 35.52                             142    -0.2 5  109  18 
 BRI  SZ I         153 38.88        41.1 0.49                           109  18 
 GRA  SZ IP        153 18.35                             137     0.210  127  15 
 GRA  SZ ES   2    153 37.63                             137    -0.5 5  127  15 
 GRA  SZ I         153 41.04        70.3 0.19                           127  15 
 OCA  SZ EP   1    153 21.31                             130    -0.1 7  164 352 
 OCA  SZ ES        153 43.44                             130    -0.5 9  164 352 
 OCA  SZ I         153 52.02        51.6 0.20                           164 352 
 NOR  SZ EP   1    153 28.27                             119    -0.5 6  237 236 
 NOR  SN ES   1    153 56.53                             119    -0.4 6  237 236 
 CHI  HZ EP   1    153 30.45                             118     0.1 6  247 196 
 CHI  HE ES   2    153 59.71                             118     0.0 4  247 196 
 CHI  HZ I         154  9.30        39.5 0.63                           247 196 
 VIL  SZ EP   2    153 36.17                             113     0.2 4  302 193 
 VIL  SN ES   2    154  9.20                             113    -0.6 4  302 193 
 VIL  SZ I         154 14.58        26.9 0.41                           302 193 
 RREF HZ EP   1    153 39.15                             111     0.1 5  324 230 
 RREF HN ES   2    154 15.67                             111     0.3 3  324 230 
 RREF HZ I         154 25.02        52.4 0.50                           324 230 
 DBB  SZ EP   1    153 40.14                             110    -0.6 5  344 275 
 PRA  HZ EP   1    153 46.14                             107    -0.1 4  392 210 
 PRA  HN ES   2    154 28.23                             107     0.2 3  392 210 
                                                                                
