 2016  213 0959 48.8 L   6.815 -73.157143.8  RSN 12 0.5 1.7LRSN                1
 GAP=134        0.68       4.1     4.2  6.8 -0.3069E+01  0.7001E+01  0.2183E+01E
 Epicentro: LOS SANTOS - SANTANDER                                             3
 ACTION:UPD 16-03-04 21:25 OP:rebc STATUS:               ID:20160213095948 L   I
 OLDACT:REG 16-02-13 21:18 OP:dnl  STATUS:               ID:20160213095748     3
 2016-02-13-0957-48M.COL___305                                                 6
 STAT SP IPHASW D HRMM SECON CODA AMPLIT PERI AZIMU VELO AIN AR TRES W  DIS CAZ7
 BAR2 EZ EP       10 0  8.39                             170    0.1310 24.8 187 
 BAR2 EZ ES   2   10 0 23.85                             170    0.44 5 24.8 187 
 BAR2 EZ I        10 0 26.63         6.7 0.16            168           24.8 187 
 PAM  EZ EP   2   10 0 11.34                             150    0.53 5 76.9  41 
 PAM  EN ES   2   10 0 27.77                             150   -0.18 5 76.9  41 
 PAM  EZ I        10 0 29.33         5.7 0.36            156           76.9  41 
 RUS  HZ EP   2   10 0 12.40                             143   -0.12 5  102 175 
 RUS  HN ES   2   10 0 31.32                             143    0.33 5  102 175 
 RUS  HZ I        10 0 35.04         2.1 0.14            146            102 175 
 PTB  HZ EP       10 0 15.04                             132   -0.52 9  147 258 
 PTB  HN ES       10 0 36.32                             132   -0.09 9  147 258 
 PTB  HZ I        10 0 38.62         7.9 0.12            132            147 258 
 OCA  HZ EP   2   10 0 17.79                             129    0.96 5  158 354 
 OCA  HN ES   2   10 0 37.49                             129   -1.17 5  158 354 
 OCA  HZ I        10 0 44.46        12.3 0.24            132            158 354 
 SPBC HZ EP   2   10 0 17.20                             128   -0.03 5  164 218 
 ZAR  HZ EP   2   10 0 21.10                             122    0.13 4  202 292 
 ZAR  HE ES   2   10 0 46.54                             122    0.50 4  202 292 
 ZAR  HZ I        10 0 53.69         9.6 0.28            123            202 292 
 NOR  HZ EP   2   10 0 24.11                             118   -0.34 4  235 234 
 NOR  HN ES   2   10 0 52.47                             118    0.25 4  235 234 
 NOR  HZ I        10 0 56.14         6.7 0.16            120            235 234 
 CHI  HZ EP   2   10 0 26.41                             116   -0.16 4  250 195 
 CHI  HN ES   2   10 0 55.20                             116   -0.79 4  250 195 
 CHI  HZ I        10 1  3.56         2.2 0.56            119            250 195 
 HEL  HZ EP   2   10 0 29.64                             114    0.78 4  271 255 
 HEL  HE ES   4   10 0 55.36                             114   -4.72 0  271 255 
 HEL  HZ I        10 1  9.14         3.9 0.34            116            271 255 
 GUY2CHZ EP   2   10 0 32.71                             112    0.36 4  301 234 
 GUY2CHE ES   2   10 1  6.42                             112    0.13 4  301 234 
 GUY2CHZ I        10 1 18.85         3.5 0.59                           301 234 
 CBOC HZ EP   2   10 0 36.29                             110    0.69 3  333 252 
 CBOC HN ES   4   10 1  8.22                             110   -3.84 0  333 252 
 CBOC HZ I        10 1 17.86         1.2 0.24            111            333 252 
                                                                                
