 2010  913 0353 28.5 L   6.786 -73.072145.3  RSN 13 0.4 2.6LRSN                1
 GAP=167        1.11       4.6     7.9  6.7 -0.1431E+02  0.8743E+01  0.5759E+01E
 Epicentro: LOS SANTOS - SANTANDER                                             3
 ACTION:UP  11-02-18 11:02 OP:tino STATUS:               ID:20100913035328 L   I
 2010-09-13-0351-18S.COL___120                                                 6
 STAT SP IPHASW D HRMM SECON CODA AMPLIT PERI AZIMU VELO SNR AR TRES W  DIS CAZ7
 BAR2 SZ EP        353 47.95                             170    -0.110   25 210 
 BAR2 SZ ES   1    354  2.94                             170    -0.4 7   25 210 
 BAR2 SZ I         354  5.58        81.9 0.23                            25 210 
 GIR2 SZ EP   1    353 47.99                             166    -0.2 7   35 338 
 GIR2 SZ ES   1    354  3.82                             166     0.2 7   35 338 
 BRR  HZ IP     C  353 49.79                             150    -0.310   79 297 
 BRR  HZ I         353 50.16        76.3 0.12                            79 297 
 BRR  HE ES   1    354  7.09                             150     0.2 7   79 297 
 RUS  HZ EP        353 51.86                             144    -0.210   99 181 
 RUS  HN ES   2    354 10.49                             144     0.0 5   99 181 
 GUE  SZ EP        353 52.78                             139    -0.410  117   8 
 GRA  SZ IP        353 54.66                             137     1.010  125  14 
 GRA  SZ I         353 55.79        47.9 0.33                           125  14 
 GRA  SZ ES   1    354 13.75                             137     0.5 7  125  14 
 OCA  SZ EP        353 56.21                             129    -0.8 9  163 350 
 OCA  SZ I         354 25.88        40.3 0.14                           163 350 
 CHI  HZ EP        354  6.12                             117    -0.1 8  249 197 
 CHI  HN ES   1    354 36.28                             117     0.6 6  249 197 
 CHI  HZ I         354 45.13        14.2 0.15                           249 197 
 HEL  HZ EP        354  9.69                             114     0.2 7  280 257 
 HEL  HE ES   2    354 41.10                             114    -0.4 4  280 257 
 HEL  HZ I         354 47.06        22.3 0.36                           280 257 
 GUY  SZ EP        354 13.29                             112     0.6 7  307 236 
 GUY  SE ES   2    354 47.55                             112     0.3 4  307 236 
 RREF HZ EP        354 15.13                             110    -0.1 7  327 231 
 RREF HZ I         355  0.77        15.9 0.35                           327 231 
 ANIL HZ EP   2    354 19.28                             108     0.5 3  362 226 
 PRA  HZ EP        354 22.11                             106    -0.2 6  395 211 
 PRA  HZ I         355  8.20        15.7 0.62                           395 211 
                                                                                
