 2017 1113 0810 35.8 L   6.815 -73.174148.4  RSN  8 0.4 1.0LRSN                1
 GAP=132        1.03       3.9     4.4  6.5 -0.3494E+00  0.4495E+01  0.6097E+01E
 Epicentro: LOS SANTOS - SANTANDER                                             3
 ACTION:UPD 17-12-12 19:55 OP:rebc STATUS:               ID:20171113081035 L   I
 OLDACT:REG 17-11-13 13:37 OP:leo  STATUS:               ID:20171113080738     3
 2017-11-13-0808-00M.COL___435                                                 6
 STAT SP IPHASW D HRMM SECON CODA AMPLIT PERI AZIMU VELO AIN AR TRES W  DIS CAZ7
 BAR2 EZ EP        810 56.39                             170    0.6210 24.6 182 
 BAR2 EZ ES        811 10.98                             170   -0.3710 24.6 182 
 BRR  HZ EP        810 57.35                             154    0.3110 67.7 299 
 BRR  HE ES        811 14.29                             154    0.6810 67.7 299 
 BRR  HZ I         811 14.85         1.8 0.12            155           67.7 299 
 PAM  EZ EP        810 58.32                             151   -0.0210 78.2  42 
 PAM  EN ES        811 15.51                             151   -0.4110 78.2  42 
 PAM  EZ I         811 17.25         2.3 0.52            152           78.2  42 
 RUS  HZ EP        810 59.85                             144   -0.0910  102 174 
 RUS  HE ES        811 18.87                             144    0.0910  102 174 
 RUS  HZ I         811 20.36         1.3 0.22            145            102 174 
 PTB  HZ EP        811  2.19                             133   -0.55 9  145 258 
 PTB  HE ES        811 23.19                             133   -0.56 9  145 258 
 PTB  HZ I         811 25.85         1.4 0.18            134            145 258 
 SPBC HZ EP        811  3.97                             130   -0.47 9  163 218 
 SPBC HE ES        811 27.04                             130    0.26 9  163 218 
 ZAR  HN ES        811 33.30                             123    0.08 9  201 292 
 CHI  HZ EP        811 14.10                             118    0.37 8  249 194 
 CHI  HN ES        811 43.37                             118    0.06 8  249 194 
                                                                                
