 2011  713 0634  4.2 L   6.747 -73.109147.6  RSN  9 0.3 1.9LRSN                1
 GAP=160        0.49       2.2     3.3  3.8 -0.2033E+01  0.2659E+01  0.6219E+00E
 Epicentro: LOS SANTOS - SANTANDER                                             3
 ACTION:UPD 12-07-25 14:00 OP:epov STATUS:               ID:20110713063404 L   I
 2011-07-13-0633-32S.COL___142                                                 6
 STAT SP IPHASW D HRMM SECON CODA AMPLIT PERI AZIMU VELO AIN AR TRES W  DIS CAZ7
 BAR2 SZ EP   1    634 23.92                             172   -0.05 7 19.0 205 
 BAR2 SZ ES   1    634 39.09                             172   -0.30 7 19.0 205 
 BAR2 SZ I         634 41.54        12.8 0.26                          19.0 205 
 BRR  HZ EP   1    634 25.84                             151   -0.07 7 77.6 301 
 BRR  HZ I         634 26.14        31.2 0.15                          77.6 301 
 BRR  HN ES   1    634 43.08                             151    0.23 7 77.6 301 
 RUS  HZ EP   1    634 27.86                             146    0.16 7 94.6 178 
 RUS  HE ES   1    634 46.33                             146    0.29 7 94.6 178 
 RUS  HZ I         634 48.23         4.6 0.19                          94.6 178 
 BRI  SZ EP   1    634 28.74                             141    0.17 7  113  18 
 BRI  SZ ES   1    634 47.63                             141    0.04 7  113  18 
 BRI  SZ I         634 54.26         7.1 0.51                           113  18 
 OCA  SZ EP   1    634 33.13                             129   -0.11 7  167 352 
 OCA  SZ ES   1    634 55.69                             129   -0.21 7  167 352 
 OCA  SZ I         635  0.43        15.2 0.26                           167 352 
 NOR  SN ES   1    635  7.71                             119   -0.28 6  235 236 
 CHI  HZ EP   1    634 40.90                             118   -0.61 6  244 196 
 CHI  HZ I         634 44.62         2.2 0.08                           244 196 
 HEL  HZ EP   1    634 45.21                             115    0.42 6  275 257 
 HEL  HN ES   1    635 16.53                             115    0.08 6  275 257 
 HEL  HZ I         635 23.65         8.8 0.34                           275 257 
 PRA  HZ EP   1    634 57.70                             107    0.27 4  389 211 
                                                                                
