 2017  913 0508 26.2 L   6.782 -73.111147.2  RSN 10 0.5 1.5LRSN                1
 GAP=116        0.86       4.1     5.3  5.9 -0.5588E+00 -0.6528E+00  0.8431E+01E
 Epicentro: LOS SANTOS - SANTANDER                                             3
 ACTION:UPD 17-10-05 19:11 OP:rebc STATUS:               ID:20170913050826 L   I
 OLDACT:UP  17-09-13 18:43 OP:mg   STATUS:               ID:20170913050740     3
 OLDACT:REG 17-09-13 13:13 OP:mg   STATUS:               ID:20170913050740     3
 2017-09-13-0508-00M.COL___424                                                 6
 STAT SP IPHASW D HRMM SECON CODA AMPLIT PERI AZIMU VELO AIN AR TRES W  DIS CAZ7
 BAR2 EZ EP        5 8 45.63                             171   -0.3610 22.4 201 
 BAR2 EZ ES   1    5 9  0.44                             171   -0.97 7 22.4 201 
 BAR2 EZ I         5 9  3.30         8.9 0.20            168           22.4 201 
 BRR  HZ IP     C  5 8 47.51                             151   -0.2410 75.5 298 
 BRR  HN ES        5 9  4.79                             151    0.2310 75.5 298 
 BRR  HZ I         5 9  7.75         5.4 0.28            149           75.5 298 
 PAM  EZ EP   1    5 8 49.27                             151    0.75 7 76.6  36 
 PAM  HN ES   1    5 9  6.16                             151    0.23 7 76.6  36 
 PAM  EZ I         5 9  8.28         2.2 0.17            156           76.6  36 
 RUS  HZ EP        5 8 49.90                             145   -0.0410 98.4 178 
 RUS  HN ES        5 9  8.54                             145    0.0910 98.4 178 
 RUS  HZ I         5 9  9.48         3.6 0.28            145           98.4 178 
 SPBC HZ EP   1    5 8 54.82                             129   -0.08 7  164 220 
 SPBC HN ES   1    5 9 17.57                             129    0.29 7  164 220 
 SPBC HZ I         5 9 22.45         4.8 0.25            129            164 220 
 YPLC HZ EP   1    5 8 56.26                             127    0.50 7  173 152 
 YPLC HN ES   3    5 9 20.36                             127    1.55 2  173 152 
 YPLC HZ I         5 9 22.76         3.6 0.31            129            173 152 
 ZAR  HN ES   3    5 9 23.36                             122   -1.55 2  208 292 
 ZAR  HZ I         5 9 30.94         3.3 0.11            122            208 292 
 NOR  HZ EP   1    5 9  2.65                             118    0.42 6  237 235 
 NOR  HN ES   2    5 9 30.77                             118    0.44 4  237 235 
 NOR  HZ I         5 9 36.50         2.3 0.22            119            237 235 
 CHI  HZ EP        5 9  3.76                             117   -0.13 8  248 196 
 CHI  HN ES   2    5 9 33.82                             117    0.54 4  248 196 
 CHI  HZ I         5 9 35.62         2.5 0.35            118            248 196 
 PTGC HZ EP   1    5 9  9.01                             112   -0.75 5  305 159 
 PTGC HN ES   3    5 9 42.81                             112   -0.92 2  305 159 
 PTGC HZ I         5 9 44.80         4.1 0.39            113            305 159 
                                                                                
