 2011  613 0324 35.5 L   6.766 -73.084148.5  RSN  9 0.2 1.8LRSN                1
 GAP=163        0.48       2.3     4.6  4.2 -0.2637E+01  0.5657E+00  0.5257E+00E
 Epicentro: LOS SANTOS - SANTANDER                                             3
 ACTION:UP  11-07-14 19:04 OP:ep   STATUS:               ID:20110613032435 L   I
 2011-06-13-0320-03S.COL___132                                                 6
 STAT SP IPHASW D HRMM SECON CODA AMPLIT PERI AZIMU VELO SNR AR TRES W  DIS CAZ7
 BAR2 SZ EP   1    324 55.21                             171    -0.2 7   22 209 
 BAR2 SZ ES   2    325 10.71                             171    -0.2 5   22 209 
 BAR2 SZ I         325 12.20        12.6 0.38                            22 209 
 BTL  SZ EP   1    324 55.85                             169     0.4 7   26 310 
 BTL  SZ ES   2    325 11.61                             169     0.5 5   26 310 
 BRR  HZ EP   1    324 57.32                             150     0.0 7   79 299 
 BRR  HZ I         324 58.98        11.8 0.15                            79 299 
 BRR  HN ES   1    325 14.52                             150     0.1 7   79 299 
 RUS  HZ EP   1    324 59.39                             145     0.2 7   97 180 
 RUS  HZ I         325  0.26         7.4 0.47                            97 180 
 RUS  HN ES   1    325 17.63                             145    -0.1 7   97 180 
 BRI  SZ ES   2    325 18.23                             142    -0.4 5  110  17 
 BRI  SZ I         325 23.20         6.5 0.33                           110  17 
 GRA  SZ EP   1    325  1.24                             137     0.2 7  127  14 
 GRA  SZ ES   2    325 20.83                             137    -0.2 5  127  14 
 GRA  SZ I         325 21.96         6.5 0.23                           127  14 
 OCA  SZ EP   1    325  4.35                             129    -0.1 7  165 351 
 OCA  SZ ES   2    325 26.70                             129    -0.3 5  165 351 
 OCA  SZ I         325 31.91         7.2 0.33                           165 351 
 NOR  SZ EP   1    325 11.70                             119     0.0 6  238 236 
 NOR  SE ES   2    325 39.70                             119    -0.3 4  238 236 
 CHI  HZ EP   2    325 13.19                             118     0.1 4  247 197 
 CHI  HE ES   2    325 42.13                             118    -0.4 4  247 197 
 CHI  HZ I         325 47.81        12.2 0.66                           247 197 
                                                                                
