 2015  713 0831  5.1 L   6.797 -73.151151.6  RSN  4 0.1 1.2LRSN                1
 GAP=182        0.39       2.2     3.5  5.0  0.2847E+01  0.6029E+01 -0.9407E+00E
 Epicentro: LOS SANTOS - SANTANDER                                             3
 ACTION:UPD 15-09-08 21:48 OP:cam  STATUS:               ID:20150713083105 L   I
 OLDACT:REG 15-07-13 13:14 OP:spq  STATUS:               ID:20150713082741     3
 2015-07-13-0827-41M.COL___334                                                 6
 STAT SP IPHASW D HRMM SECON CODA AMPLIT PERI AZIMU VELO AIN AR TRES W  DIS CAZ7
 BAR2 EZ EP   1    831 25.73                             171    0.32 8 23.0 189 
 BAR2 EZ ES   1    831 41.36                             171    0.09 8 23.0 189 
 BAR2 EZ I         831 43.06         4.0 0.36            172           23.0 189 
 RUS  HZ EP   1    831 29.30                             145   -0.10 8  100 176 
 RUS  HE ES   1    831 48.20                             145   -0.17 8  100 176 
 RUS  HZ I         831 49.97         1.4 0.24            149            100 176 
 OCA  HN ES        831 56.25                             131   -0.0810  160 353 
 OCA  HZ I         832  0.06         2.4 0.31            132            160 353 
 ZAR  HZ EP   1    831 37.83                             124   -0.04 7  204 292 
 ZAR  HN ES        832  3.46                             124    0.01 9  204 292 
 ZAR  HZ I         832  8.24         1.6 0.38            125            204 292 
                                                                                
