 2013  913 0645 24.1 L   6.791 -73.155140.5  RSN  6 0.5 1.6LRSN                1
 GAP=136        1.24       6.1     5.4  9.0  0.2853E+01  0.1005E+02  0.9899E+00E
 Epicentro: LOS SANTOS - SANTANDER                                             3
 ACTION:UPD 13-10-22 09:22 OP:ep   STATUS:               ID:20130913064524 L   I
 OLDACT:DUP 13-09-13 11:09 OP:carl STATUS:               ID:20130913063901d    3
 2013-09-13-0639-59M.COL___269                                                 6
 STAT SP IPHASW D HRMM SECON CODA AMPLIT PERI AZIMU VELO AIN AR TRES W  DIS CAZ7
 BAR2 SZ EP        645 43.49                             170    0.4210 22.2 188 
 BAR2 SZ ES        645 57.47                             170   -0.3910 22.2 188 
 BAR2 SZ I         645 59.37         8.1 0.30            169           22.2 188 
 BRR  HZ EP        645 44.87                             152    0.2210 70.8 300 
 BRR  HN ES        646  1.19                             152    0.5110 70.8 300 
 BRR  HN I         646  2.77        17.2 0.32            153           70.8 300 
 PAM  SZ EP        645 45.47                             149   -0.3610 78.8  40 
 PAM  SN ES        646  2.56                             149   -0.2310 78.8  40 
 RUS  HZ EP        645 47.81                             143    0.5510 99.7 175 
 RUS  HN ES        646  5.52                             143    0.1810 99.7 175 
 RUS  HZ I         646  7.76         3.5 0.48            144           99.7 175 
 PTB  HZ EP        645 49.65                             131   -0.88 9  147 259 
 PTB  HN ES        646 10.55                             131   -0.59 9  147 259 
 PTB  HZ I         646 13.33         3.5 0.12            132            147 259 
 ZAR  HN ES        646 21.68                             121    0.54 9  203 292 
                                                                                
