 2015 1013 0045 54.8 L   6.850 -73.177143.6  RSN 11 0.4 1.8LRSN                1
 GAP= 68        1.09       2.8     4.5  5.6 -0.2953E+01  0.5215E+01  0.1038E+01E
 Epicentro: ZAPATOCA - SANTANDER                                               3
 ACTION:UPD 15-12-22 20:39 OP:cam  STATUS:               ID:20151013004554 L   I
 OLDACT:REG 15-10-13 13:49 OP:cara STATUS:               ID:20151013003748     3
 2015-10-13-0037-48M.COL___337                                                 6
 STAT SP IPHASW D HRMM SECON CODA AMPLIT PERI AZIMU VELO AIN AR TRES W  DIS CAZ7
 BAR2 EZ EP        046 14.20                             168   -0.0410 28.5 181 
 BAR2 EZ ES        046 28.66                             168   -0.7710 28.5 181 
 BAR2 EZ I         046 32.10         8.3 0.22            169           28.5 181 
 BRR  HZ EP        046 16.13                             154    0.7710 65.6 296 
 BRR  HE ES        046 32.01                             154    0.5810 65.6 296 
 BRR  HZ I         046 37.61         7.5 0.16            152           65.6 296 
 PAM  EZ EP        046 17.13                             151    0.5010 75.6  44 
 PAM  EZ I         046 17.33        14.0 0.14            154           75.6  44 
 PAM  EN ES        046 34.06                             151    0.3710 75.6  44 
 RUS  HZ EP        046 18.57                             142   -0.1510  106 174 
 RUS  HE ES        046 37.29                             142   -0.1210  106 174 
 RUS  HZ I         046 38.84         7.8 0.30            145            106 174 
 OCA  HZ EP        046 22.53                             130    0.19 9  154 354 
 OCA  HN ES        046 43.19                             130   -0.67 9  154 354 
 OCA  HZ I         046 49.75        15.9 0.20            132            154 354 
 TAM  HZ IP     D  046 22.78                             129    0.07 9  160 107 
 SPBC HZ EP        046 23.44                             128    0.14 9  165 217 
 SPBC HN ES        046 45.61                             128    0.04 9  165 217 
 SPBC HZ I         046 48.14        12.4 0.24            130            165 217 
 NOR  HZ EP        046 30.62                             118    0.21 8  235 233 
 NOR  HN ES        046 57.87                             118   -0.35 8  235 233 
 NOR  HZ I         047  4.41         3.9 0.16            119            235 233 
 SML  HZ EP        046 29.66                             118   -0.90 8  237 335 
 SML  HE ES        046 58.14                             118   -0.34 8  237 335 
 SML  HZ I         047  1.59         8.3 0.30            119            237 335 
 CHI  HZ EP        046 32.52                             116   -0.30 8  253 194 
 CHI  HZ I         046 35.21         2.4 0.12            118            253 194 
 CHI  HN ES        047  2.26                             116   -0.25 8  253 194 
 GUY2CHZ EP        046 38.39                             112    0.08 7  302 234 
 GUY2CHN ES        047 12.76                             112    0.47 7  302 234 
 GUY2CHZ I         047 20.60         3.1 0.56                           302 234 
                                                                                
