 2011 1013 0735 24.3 L   6.720 -73.078143.3  RSN  5 0.1 1.7LRSN                1
 GAP=188        0.35       4.3     3.7  4.7 -0.1017E+02 -0.1877E+01  0.5921E+01E
 Epicentro: JORDAN - SANTANDER                                                 3
 ACTION:UPD 12-07-13 16:03 OP:ep   STATUS:               ID:20111013073524 L   I
 2011-10-13-0733-53S.COL___168                                                 6
 STAT SP IPHASW D HRMM SECON CODA AMPLIT PERI AZIMU VELO AIN AR TRES W  DIS CAZ7
 BAR2 SZ EP   1    735 43.66                             172    0.10 7 18.3 219 
 BAR2 SZ I         736  2.24        13.2 0.40                          18.3 219 
 PAM  SZ EP   1    735 46.46                             149    0.01 7 80.2  31 
 PAM  SN ES   1    736  3.65                             149   -0.05 7 80.2  31 
 PAM  SZ I         736  5.89         4.2 0.36                          80.2  31 
 BRR  HZ EP   1    735 45.62                             148   -0.24 7 82.1 301 
 BRR  HN ES   1    736  2.73                             148    0.07 7 82.1 301 
 BRR  HZ I         736  6.09        10.2 0.26                          82.1 301 
 OCA  SZ EP   1    735 53.50                             127    0.13 7  170 351 
 OCA  SZ I         736 19.50         6.6 0.21                           170 351 
 NOR  SN ES   1    736 27.91                             118    0.01 6  236 237 
                                                                                
