 2016  513 0515 40.8 L   6.810 -73.133152.4  RSN 25 0.5 2.5LRSN                1
 GAP= 71        1.09       2.5     2.9  4.3 -0.1716E+01  0.2002E+01  0.3287E+00E
 Epicentro: LOS SANTOS - SANTANDER                                             3
 ACTION:UPD 16-08-18 17:45 OP:cam  STATUS:               ID:20160513051540 L   I
 OLDACT:UP  16-05-15 07:33 OP:ar   STATUS:               ID:20160513051540 L   3
 OLDACT:UP  16-05-13 14:14 OP:drio STATUS:               ID:20160513050749     3
 OLDACT:REG 16-05-13 12:31 OP:drio STATUS:               ID:20160513050749     3
 2016-05-13-0507-49M.COL___307                                                 6
 STAT SP IPHASW D HRMM SECON CODA AMPLIT PERI AZIMU VELO AIN AR TRES W  DIS CAZ7
 BAR2 EZ IP     C  516  1.16                             171   -0.0410 24.7 193 
 BAR2 EZ ES        516 17.08                             171   -0.0710 24.7 193 
 BAR2 EZ I         516 18.08        43.7 0.12            169           24.7 193 
 BRR  HZ IP     C  516  3.14                             153    0.4910 71.9 297 
 BRR  HN ES        516 20.47                             153    0.7310 71.9 297 
 BRR  HZ I         516 22.83        71.9 0.12            151           71.9 297 
 PAM  EZ EP     C  516  4.12                             152    0.5510 75.6  39 
 PAM  EE ES        516 21.39                             152    0.0210 75.6  39 
 PAM  EZ I         516 24.50        35.9 0.72            153           75.6  39 
 RUS  HZ EP        516  5.04                             145   -0.1910  102 177 
 RUS  HE ES        516 23.73                             145   -0.5910  102 177 
 RUS  HZ I         516 24.32        16.4 0.34            143            102 177 
 PTB  HZ EP        516  7.88                             133   -0.53 9  149 259 
 PTB  HN ES        516 29.23                             133   -0.75 9  149 259 
 PTB  HZ I         516 34.84        51.0 0.12            130            149 259 
 TAM  HZ EP     C  516  9.33                             132    0.47 9  154 106 
 TAM  HZ I         516 29.99        29.4 0.34            132            154 106 
 TAM  HE ES        516 31.31                             132    0.52 9  154 106 
 OCA  HZ EP        516  9.62                             131    0.13 9  159 353 
 OCA  HE ES        516 31.77                             131   -0.14 9  159 353 
 OCA  HZ I         516 35.98        51.4 0.30            130            159 353 
 SPBC HZ EP        516  9.98                             130    0.05 9  165 219 
 SPBC HE ES        516 32.13                             130   -0.56 9  165 219 
 SPBC HZ I         516 36.69        80.2 0.18            128            165 219 
 ZAR  HZ EP        516 14.09                             124    0.37 9  205 292 
 ZAR  HE ES        516 39.73                             124    0.29 9  205 292 
 ZAR  HZ I         516 45.05        51.9 0.34            122            205 292 
 NOR  HZ EP        516 17.27                             120    0.21 8  236 234 
 NOR  HN ES        516 45.21                             120   -0.17 8  236 234 
 NOR  HZ I         516 51.70        38.2 0.20            118            236 234 
 CHI  HZ EP        516 18.93                             118   -0.05 8  250 195 
 CHI  HN ES        516 48.32                             118   -0.48 8  250 195 
 CHI  HZ I         516 55.10        10.3 0.24            117            250 195 
 ROSC BZ EP   9    516 20.97                             118    1.55 0  254 211 
 ROSC BN ES        516 50.87                             118   -0.26 8  254 211 
 ROSC BZ I         516 58.44        23.3 0.40            116            254 211 
 HEL  HZ EP        516 22.40                             116    0.91 8  274 256 
 HEL  HE ES   4    516 55.72                             116    2.46 0  274 256 
 HEL  HZ I         516 59.99        17.7 0.36            114            274 256 
 URE  HZ EP        516 21.29                             115   -0.96 7  285 292 
 URE  HN ES   4    516 51.50                             115   -3.11 0  285 292 
 URE  HZ I         517  5.71        23.6 0.26            113            285 292 
 VIL  SZ EP        516 24.77                             113    0.14 7  305 192 
 VIL  SN ES        516 58.30                             113   -0.56 7  305 192 
 PTGC HZ EP   4 C  516 23.84                             113   -1.13 0  309 159 
 PTGC HE ES   4    516 57.07                             113   -2.40 0  309 159 
 PTGC HZ I         516 59.57        10.5 0.40            112            309 159 
 LL6C HZ EP        516 26.10                             111   -0.52 7  324 357 
 LL6C HE ES   4    517  0.69                             111   -1.70 0  324 357 
 CBOC HZ EP        516 28.76                             111    0.62 7  335 252 
 CBOC HN ES   4    517  3.92                             111   -1.18 0  335 252 
 CBOC HZ I         517 22.34         5.0 0.50            109            335 252 
 DBB  SZ EP        516 28.77                             110    0.12 7  341 274 
 DBB  SZ ES   4    517  4.79                             110   -1.22 0  341 274 
 DBB  SZ I         517 12.17        32.8 0.38            109            341 274 
 ANIL HZ EP   9    516 32.93                             109    1.91 0  359 225 
 ANIL HN ES        517 11.84                             109   -0.30 6  359 225 
 ANIL HZ I         517 17.65        34.6 0.26            108            359 225 
 SDV  BZ EP        516 30.82                             109   -0.02 6  359  50 
 SDV  BE ES        517  8.52                             109   -1.39 6  359  50 
 SDV  BZ I         517 10.43         4.6 0.40            109            359  50 
 PRA  HZ EP        516 34.47                             107   -0.23 6  394 210 
 PRA  HN ES        517 17.30                             107    0.52 6  394 210 
 PRA  HZ I         517 21.38        12.1 0.32            106            394 210 
 ORTC HZ EP        516 35.43                             107    0.32 6  397 216 
 ORTC HN ES        517 18.53                             107    1.03 6  397 216 
 ORTC HZ I         517 23.89         7.9 0.20            106            397 216 
 PAL  HZ EP        516 36.65                             107    0.30 6  407 239 
 PAL  HE ES        517 19.21                             107   -0.50 6  407 239 
 PAL  HZ I         517 27.75         5.7 0.24            106            407 239 
 SJC  HZ EP        516 36.00                             107   -0.51 6  409 327 
 SJC  HN ES   4    517 17.16                             107   -2.85 0  409 327 
 SJC  HZ I         517 21.22         4.1 0.48            106            409 327 
                                                                                
