 2016  713 0228 52.1 L   6.763 -73.179142.1  RSN  7 0.3 1.7LRSN                1
 GAP=231        0.74       3.8     4.3  4.7  0.6817E+01  0.4286E+01  0.1255E+01E
 Epicentro: LOS SANTOS - SANTANDER                                             3
 ACTION:UPD 17-03-29 16:50 OP:lp   STATUS:               ID:20160713022852 L   I
 OLDACT:UP  16-07-13 15:24 OP:dani STATUS:               ID:20160713021759     3
 OLDACT:REG 16-07-13 12:22 OP:dani STATUS:               ID:20160713021759     3
 2016-07-13-0217-59S.COL___331                                                 6
 STAT SP IPHASW D HRMM SECON CODA AMPLIT PERI AZIMU VELO AIN AR TRES W  DIS CAZ7
 BAR2 EZ EP        229 11.12                             172   -0.1010 18.9 181 
 BAR2 EZ ES        229 25.97                             172   -0.1610 18.9 181 
 BAR2 EZ I         229 26.96        13.4 0.28            168           18.9 181 
 BRR  HZ EP        229 12.78                             152   -0.0210 70.1 303 
 BRR  HN ES        229 29.01                             152    0.0710 70.1 303 
 BRR  HZ I         229 32.80        12.0 0.34            150           70.1 303 
 RUS  HZ EP        229 15.06                             144   -0.1810 96.9 174 
 RUS  HE ES        229 33.60                             144    0.3210 96.9 174 
 RUS  HZ I         229 35.50         3.1 0.34            144           96.9 174 
 PTB  HZ EP        229 17.78                             132   -0.61 9  143 260 
 PTB  HN ES        229 38.79                             132   -0.09 9  143 260 
 PTB  HZ I         229 44.28         6.1 0.18            130            143 260 
 SPBC HZ EP        229 20.32                             129    0.51 9  158 219 
 SPBC HN ES        229 41.33                             129   -0.09 9  158 219 
 SPBC HZ I         229 43.93         7.0 0.16            128            158 219 
 ZAR  HZ EP        229 24.62                             122    0.49 9  202 294 
 ZAR  HN ES        229 49.20                             122    0.09 9  202 294 
 ZAR  HZ I         229 53.84         5.4 0.22            122            202 294 
 PRA  HZ EP        229 44.61                             106   -0.27 6  387 209 
 PRA  HE ES   4    230 28.30                             106    2.26 0  387 209 
 PRA  HZ I         230 32.62         2.5 0.80            107            387 209 
                                                                                
