 2012  413 0815 41.4 L   6.723 -73.144150.2  RSN  5 0.4 1.9LRSN                1
 GAP=161        0.91      10.3     5.9  8.7 -0.1264E+02  0.1337E+02 -0.2748E+01E
 Epicentro: JORDAN - SANTANDER                                                 3
 ACTION:UPD 12-07-05 11:53 OP:tino STATUS:               ID:20120413081541 L   I
 2012-04-13-0810-00M.COL___181                                                 6
 STAT SP IPHASW D HRMM SECON CODA AMPLIT PERI AZIMU VELO AIN AR TRES W  DIS CAZ7
 BAR2 SZ EP   1    816  1.61                             174     0.2 7   15 196 
 BAR2 SZ ES   1    816 17.11                             174     0.1 7   15 196 
 BAR2 SZ I         816 18.35        14.4 0.42                            15 196 
 BRR  HZ EP        816  3.53                             152     0.210   76 304 
 BRR  HZ I         816  3.88        24.1 0.11                            76 304 
 BRR  HE ES   1    816 21.06                             152     0.7 7   76 304 
 PAM  SZ EP   1    816  4.52                             149     0.0 7   84  36 
 PAM  SE ES   1    816 21.88                             149    -0.6 7   84  36 
 PTB  HZ EP   1    816  8.65                             133     0.0 7  147 262 
 PTB  HN ES   1    816 29.17                             133    -0.7 7  147 262 
 PTB  HZ I         816 37.07         4.4 0.13                           147 262 
 ZAR  HZ EP   1    816 14.37                             123    -0.1 6  208 294 
 ZAR  HN ES   1    816 40.21                             123    -0.1 6  208 294 
 ZAR  HZ I         816 45.69         7.5 0.44                           208 294 
                                                                                
