 2016 1013 0656  8.5 L   6.816 -73.146146.3  RSN 20 0.4 2.2LRSN                1
 GAP= 70        1.02       2.9     2.8  4.6 -0.9598E+00  0.2411E+01  0.2084E+01E
 Epicentro: LOS SANTOS - SANTANDER                                             3
 ACTION:UPD 16-11-09 19:19 OP:rebc STATUS:               ID:20161013065608 L   I
 OLDACT:UP  16-10-13 18:44 OP:ar   STATUS:               ID:20161013064743     3
 OLDACT:REG 16-10-13 12:51 OP:y    STATUS:               ID:20161013064743     3
 2016-10-13-0648-00M.COL___357                                                 6
 STAT SP IPHASW D HRMM SECON CODA AMPLIT PERI AZIMU VELO AIN AR TRES W  DIS CAZ7
 BAR2 EZ EP        656 28.22                             170   -0.0210 25.1 189 
 BAR2 EZ ES        656 43.41                             170   -0.2210 25.1 189 
 BAR2 EZ I         656 44.76        58.7 0.28            168           25.1 189 
 BRR  HZ IP     C  656 29.96                             153    0.3010 70.3 297 
 BRR  HN ES        656 47.03                             153    0.8610 70.3 297 
 BRR  HZ I         656 48.19        20.9 0.34            151           70.3 297 
 PAM  HZ EP        656 30.96                             152    0.2610 76.0  40 
 PAM  HN ES        656 47.82                             152   -0.1910 76.0  40 
 PAM  HZ I         656 50.33        17.5 0.52            154           76.0  40 
 RUS  HZ EP        656 32.11                             143   -0.3310  102 176 
 RUS  HN ES        656 51.05                             143   -0.0610  102 176 
 RUS  HZ I         656 52.17        14.8 0.36            144            102 176 
 PTB  HZ EP        656 35.19                             132   -0.36 9  148 258 
 PTB  HE ES        656 55.93                             132   -0.71 9  148 258 
 PTB  HZ I         657  1.98        13.0 0.74            131            148 258 
 TAM  HZ EP        656 36.52                             131    0.25 9  156 106 
 TAM  HN ES        656 58.22                             131    0.29 9  156 106 
 TAM  HZ I         656 58.78        10.0 0.30            133            156 106 
 OCA  HZ EP        656 36.12                             130   -0.57 9  158 353 
 OCA  HN ES   4    656 59.94                             130    1.26 0  158 353 
 OCA  HZ I         657  4.82        24.9 0.62            131            158 353 
 SPBC HZ EP        656 37.09                             129   -0.08 9  165 219 
 SPBC HN ES        656 59.33                             129   -0.21 9  165 219 
 SPBC HZ I         657  3.99        30.2 0.22            128            165 219 
 ZAR  HZ EP        656 40.68                             123   -0.23 9  203 292 
 ZAR  HN ES        657  6.01                             123   -0.18 9  203 292 
 ZAR  HZ I         657 11.45        16.8 0.40            122            203 292 
 NOR  HZ EP        656 43.95                             119   -0.42 8  236 234 
 NOR  HN ES        657 12.30                             119   -0.05 8  236 234 
 NOR  HZ I         657 18.03         9.3 0.38            118            236 234 
 CHI  HZ EP        656 46.37                             117   -0.05 8  250 195 
 CHI  HN ES        657 15.99                             117   -0.00 8  250 195 
 CHI  HZ I         657 19.12         9.3 0.70            117            250 195 
 ROSC BZ EP   9    656 48.19                             117    1.37 0  254 211 
 ROSC HN ES        657 18.11                             117    0.03 8  254 211 
 ROSC BZ I         657 22.80        19.2 0.45            117            254 211 
 HEL  HZ EP        656 49.32                             115    0.53 8  272 255 
 HEL  HE ES        657 20.85                             115    0.64 8  272 255 
 HEL  HZ I         657 27.04         5.2 0.52            115            272 255 
 GUY2CHZ EP   9    656 53.99                             112    1.74 0  302 234 
 GUY2CHN ES        657 29.56                                    1.45 7  302 234 
 GUY2CHZ I         657 34.40         6.7 0.32                           302 234 
 VIL  EZ EP        656 52.45                             112    0.31 7  305 191 
 VIL  EE ES        657 26.45                             112    0.27 7  305 191 
 VIL  EZ I         657 36.04        14.2 0.48            112            305 191 
 PTGC HZ EP   4    656 51.30                             112   -1.27 0  310 159 
 PTGC HN ES   4    657 23.77                             112   -3.18 0  310 159 
 PTGC HZ I         657 31.32         3.2 0.28            112            310 159 
 CBOC HZ EP        656 56.17                             110    0.67 7  334 252 
 CBOC HN ES   4    657 30.40                             110   -1.76 0  334 252 
 CBOC HZ I         657 37.93         2.1 0.74            110            334 252 
 PRA  HZ EP        657  1.83                             107   -0.39 6  394 209 
 PRA  HE ES        657 43.83                             107   -0.29 6  394 209 
 PRA  HZ I         657 50.40         9.4 0.30            107            394 209 
 PAL  HN ES        657 47.54                             106    0.63 6  407 239 
 SJC  HZ EP   4    657  1.98                             106   -1.92 0  408 327 
 SJC  HN ES   4    657 43.01                             106   -4.11 0  408 327 
 SJC  HZ I         657 51.13         3.3 0.38            106            408 327 
                                                                                
