 2014 1013 0219 49.8 L   6.806 -73.135152.0  RSN  9 0.3 1.8LRSN                1
 GAP=138        0.71       2.4     3.7  5.7  0.6213E+00  0.4455E+01 -0.2687E+00E
 Epicentro: LOS SANTOS - SANTANDER                                             3
 ACTION:UPD 14-11-29 23:49 OP:nd   STATUS:               ID:20141013021949 L   I
 OLDACT:UP  14-10-13 14:49 OP:mh   STATUS:               ID:20141013021745d    3
 OLDACT:DUP 14-10-13 14:41 OP:mh   STATUS:               ID:20141013021745d    3
 2014-10-13-0217-44M.COL___283                                                 6
 STAT SP IPHASW D HRMM SECON CODA AMPLIT PERI AZIMU VELO AIN AR TRES W  DIS CAZ7
 BAR2 SZ EP   1    220 10.23                             171    0.08 7 24.2 192 
 BAR2 SZ ES   1    220 25.83                             171   -0.23 7 24.2 192 
 BAR2 SZ I         220 28.02        22.2 0.24            171           24.2 192 
 BRR  HZ EP        220 11.91                             153    0.2910 71.9 298 
 BRR  HN ES        220 29.34                             153    0.6610 71.9 298 
 BRR  HZ I         220 34.57        11.3 0.30            151           71.9 298 
 PAM  SN ES   1    220 30.10                             152   -0.26 7 76.2  39 
 PAM  SZ I         220 32.47         6.9 0.16            156           76.2  39 
 RUS  HZ EP        220 14.13                             145   -0.0310  101 177 
 RUS  HN ES        220 33.09                             145   -0.1110  101 177 
 RUS  HZ I         220 33.96         5.3 0.30            149            101 177 
 PTB  HZ EP   1    220 17.20                             133   -0.15 7  149 259 
 PTB  HN ES        220 38.38                             133   -0.49 9  149 259 
 PTB  HZ I         220 43.29         8.9 0.30            134            149 259 
 OCA  HN ES        220 40.77                             131   -0.17 9  160 353 
 OCA  HZ I         220 48.06         5.2 0.27            133            160 353 
 SPBC HZ EP   1    220 19.09                             130    0.24 7  164 219 
 SPBC HN ES        220 41.69                             130    0.14 9  164 219 
 SPBC HZ I         220 48.37        12.8 0.11            133            164 219 
 ZAR  HN ES        220 48.21                             124   -0.18 9  205 292 
 ZAR  HZ I         220 54.86         9.0 0.42            125            205 292 
 SML  HN ES        220 55.53                             119   -0.04 8  244 335 
                                                                                
