 2017  213 0047 27.9 L   6.947 -73.500116.7  RSN  4 0.3 1.2LRSN                1
 GAP=191        0.84       6.1     4.8  6.9  0.1277E+02  0.5076E+01  0.1093E+02E
 Epicentro: SAN VICENTE DE CHUCURI - SANTANDER                                 3
 ACTION:UPD 17-05-24 15:35 OP:jn   STATUS:               ID:20170213004727 L   I
 OLDACT:DUP 17-02-13 13:53 OP:edw  STATUS:               ID:20170213003745d    3
 2017-02-13-0038-00M.COL___352                                                 6
 STAT SP IPHASW D HRMM SECON CODA AMPLIT PERI AZIMU VELO AIN AR TRES W  DIS CAZ7
 BRR  HZ IP     C  047 43.53                             165   -0.3510 29.4 307 
 BRR  HN ES        047 56.43                             165    0.1010 29.4 307 
 BRR  HZ I         047 56.86         8.8 0.10            164           29.4 307 
 BAR2 EZ EP        047 44.87                             154   -0.3510 52.6 138 
 BAR2 EZ ES        047 59.06                             154    0.3410 52.6 138 
 BAR2 EZ I         047 59.44         5.6 0.19            152           52.6 138 
 PTB  HZ EP        047 49.96                             132    0.4310  115 247 
 PTB  HN ES        048  6.20                             132   -0.1910  115 247 
 PTB  HZ I         048 10.41         3.3 0.32            130            115 247 
 RUS  HZ EP        047 51.47                             130    0.3410  125 158 
 RUS  HN ES        048  8.95                             130   -0.3010  125 158 
 RUS  HZ I         048 12.94         1.5 0.20            129            125 158 
                                                                                
