 2016  213 0822 43.6 L   6.817 -73.138140.0  RSN  8 0.4 1.6LRSN                1
 GAP=137        1.05       3.5     4.6  6.9 -0.4238E+01  0.1196E+02 -0.1897E+01E
 Epicentro: LOS SANTOS - SANTANDER                                             3
 ACTION:UPD 16-03-04 21:25 OP:rebc STATUS:               ID:20160213082243 L   I
 OLDACT:REG 16-02-13 14:18 OP:ak   STATUS:               ID:20160213081747     3
 2016-02-13-0817-47M.COL___307                                                 6
 STAT SP IPHASW D HRMM SECON CODA AMPLIT PERI AZIMU VELO AIN AR TRES W  DIS CAZ7
 BAR2 EZ EP        823  2.65                             169    0.0610 25.3 191 
 BAR2 EZ ES        823 17.70                             169    0.3110 25.3 191 
 BAR2 EZ I         823 18.39         5.1 0.32            169           25.3 191 
 PAM  EZ EP        823  5.36                             151    0.2710 75.4  40 
 PAM  EN ES        823 22.42                             151    0.5710 75.4  40 
 PAM  EZ I         823 24.38         9.1 0.48            154           75.4  40 
 RUS  HZ EP        823  6.57                             142   -0.3610  102 177 
 RUS  HN ES        823 24.55                             142   -0.5710  102 177 
 RUS  HZ I         823 26.59         2.8 0.26            145            102 177 
 PTB  HZ EP        823 10.07                             130   -0.15 9  149 258 
 PTB  HN ES        823 30.38                             130   -0.59 9  149 258 
 PTB  HZ I         823 32.45         6.3 0.30            131            149 258 
 OCA  HZ EP        823 10.87                             129   -0.43 9  159 353 
 OCA  HN ES        823 32.35                             129   -0.56 9  159 353 
 OCA  HZ I         823 35.67        12.4 0.36            131            159 353 
 SPBC HZ EP        823 11.77                             127   -0.09 9  165 219 
 SPBC HN ES        823 34.35                             127    0.45 9  165 219 
 SPBC HZ I         823 40.85         4.0 0.07            129            165 219 
 ZAR  HZ EP   2    823 16.58                             121    0.89 4  204 292 
 ZAR  HN ES        823 41.10                             121    0.39 9  204 292 
 ZAR  HZ I         823 45.75         6.0 0.44            122            204 292 
 URE  HN ES   4    823 52.40                             112   -3.83 0  284 291 
 GUY2CHZ EP        823 27.78                             111    0.63 7  303 235 
 GUY2CHN ES        824  1.36                             111    0.24 7  303 235 
 GUY2CHZ I         824  8.99         1.3 0.30                           303 235 
 SJC  HZ EP   4    823 37.13                             105   -1.72 0  408 327 
 SJC  HN ES   4    824 19.11                             105   -2.83 0  408 327 
                                                                                
