 2011  513 0744 50.6 L   6.818 -73.177137.3  RSN 11 0.4 2.2LRSN                1
 GAP=132        1.07       5.5    10.6  6.9 -0.2856E+02  0.1182E+02  0.3692E+00E
 Epicentro: LOS SANTOS - SANTANDER                                             3
 ACTION:UP  11-06-29 08:52 OP:tino STATUS:               ID:20110513074450 L   I
 2011-05-13-0740-00M.COL___142                                                 6
 STAT SP IPHASW D HRMM SECON CODA AMPLIT PERI AZIMU VELO SNR AR TRES W  DIS CAZ7
 BTL  SZ EP        745  9.38                             173     0.310   15 318 
 BTL  SZ ES   1    745 23.77                             173     0.3 7   15 318 
 BAR2 SZ IP        745  9.25                             169     0.010   25 181 
 BAR2 SZ ES   1    745 22.82                             169    -0.9 7   25 181 
 BAR2 SZ I         745 25.33        41.4 0.26                            25 181 
 GIR2 SZ EP        745  9.33                             167     0.110   29 356 
 GIR2 SZ ES   1    745 24.07                             167     0.4 7   29 356 
 BRR  HZ IP        745 11.04                             152     0.410   67 298 
 BRR  HZ I         745 32.16        43.8 0.10                            67 298 
 PAM  SZ EP        745 12.19                             149     0.210   78  42 
 RUS  HZ EP   1    745 13.30                             141    -0.4 7  103 174 
 RUS  HZ I         745 33.75        16.9 0.26                           103 174 
 BRI  SZ EP        745 13.92                             140     0.310  108  23 
 GRA  SZ EP        745 14.94                             135    -0.110  125  19 
 GRA  SZ ES   1    745 33.71                             135    -0.4 7  125  19 
 OCA  SZ EP        745 17.75                             128    -0.3 9  158 354 
 OCA  SZ ES   1    745 38.58                             128    -0.8 7  158 354 
 OCA  SZ I         745 42.82        25.1 0.19                           158 354 
 NOR  SZ EP        745 25.60                             117    -0.1 8  233 234 
 NOR  SZ I         745 57.08         1.6 0.35                           233 234 
 PRA  HZ EP        745 43.28                             105    -0.5 6  392 209 
 PRA  HZ I         746 29.89        27.6 0.57                           392 209 
                                                                                
