 2017  213 0311 21.3 L   6.779 -73.146150.0  RSN 10 0.5 1.7LRSN                1
 GAP=120        1.09       3.9     4.5  6.5  0.3328E+00  0.4049E+00  0.9440E+01E
 Epicentro: LOS SANTOS - SANTANDER                                             3
 ACTION:UPD 17-05-24 15:35 OP:jn   STATUS:               ID:20170213031121 L   I
 OLDACT:UP  17-02-13 15:47 OP:edw  STATUS:               ID:20170213030741     3
 OLDACT:UP  17-02-13 15:44 OP:edw  STATUS:               ID:20170213030741     3
 OLDACT:REG 17-02-13 11:37 OP:edw  STATUS:               ID:20170213030741     3
 2017-02-13-0308-00M.COL___352                                                 6
 STAT SP IPHASW D HRMM SECON CODA AMPLIT PERI AZIMU VELO AIN AR TRES W  DIS CAZ7
 BAR2 EZ EP        311 41.51                             172    0.0710 21.0 191 
 BAR2 EZ ES        311 56.85                             172   -0.2610 21.0 191 
 BAR2 EZ I         311 58.07        15.5 0.28            171           21.0 191 
 BRR  HZ EP        311 43.19                             153    0.1810 72.3 300 
 BRR  HN ES        312  0.39                             153    0.4910 72.3 300 
 BRR  HZ I         312  4.35         8.0 0.28            150           72.3 300 
 PAM  EZ IP     D  311 44.44                             151    0.3210 79.2  39 
 PAM  EN ES        312  1.38                             151   -0.5010 79.2  39 
 PAM  EZ I         312  4.75         4.1 0.46            153           79.2  39 
 RUS  HZ EP        311 45.47                             145    0.1210 98.3 176 
 RUS  HN ES        312  4.38                             145    0.3110 98.3 176 
 RUS  HZ I         312  5.56         6.9 0.32            147           98.3 176 
 PTB  HZ EP   9    311 48.67                             133    0.06 0  147 260 
 PTB  HN ES        312  9.37                             132   -0.57 9  147 260 
 PTB  HZ I         312 16.08         3.7 0.16            132            147 260 
 ZAR  HZ EP   4    311 56.40                             123    2.25 0  205 293 
 ZAR  HN ES        312 19.37                             123   -0.36 9  205 293 
 ZAR  HZ I         312 24.83         5.0 0.48            122            205 293 
 NOR  HN ES        312 24.42                             119   -0.69 8  233 235 
 CHI  HE ES        312 29.25                             118    0.82 8  246 195 
 PTGC HZ IP     C  312  4.68                             112   -0.47 7  307 158 
 PTGC HN ES        312 38.36                             112   -0.96 7  307 158 
 PRA  HZ EP        312 15.23                             107    0.46 6  390 210 
 PRA  HN ES        312 56.50                             107    0.06 6  390 210 
 PRA  HZ I         313  3.73         3.5 0.36            108            390 210 
                                                                                
