 2012  313 0303  2.6 L   6.543 -73.513 28.5  RSN  5 0.3 0.9LRSN                1
 GAP=123        0.83       3.0     3.2  5.1  0.2280E+01  0.8332E+01  0.1209E+01E
 ACTION:UP  12-03-31 23:19 OP:EP   STATUS:               ID:20120313030302 L   I
 2012-03-13-0300-00M.COL___196                                                 6
 STAT SP IPHASW D HRMM SECON CODA AMPLIT PERI AZIMU VELO SNR AR TRES W  DIS CAZ7
 BAR2 SZ EP   1    3 3  9.47                             123    -0.8 7   37  82 
 BAR2 SZ ES   1    3 3 16.43                             123     0.2 7   37  82 
 BAR2 SZ I         3 3 17.61         8.8 0.14                            37  82 
 BRR  HZ EP   1    3 3 13.90                             104     0.1 7   66 341 
 BRR  HN ES   1    3 3 22.73                             104     0.2 7   66 341 
 BRR  HZ I         3 3 26.04         3.5 0.08                            66 341 
 RUS  HZ EP   1    3 3 17.74                              98     0.6 7   86 146 
 RUS  HN ES   1    3 3 28.47                              98    -0.1 7   86 146 
 RUS  HZ I         3 3 29.22         1.7 0.13                            86 146 
 PTB  HZ EP   1    3 3 18.84                              61     0.0 7  104 270 
 PTB  HN ES   1    3 3 31.38                              61    -0.2 7  104 270 
 PTB  HZ I         3 3 32.06         6.6 0.29                           104 270 
 PAM  SN ES   1    3 3 37.32                              61     0.0 7  126  46 
                                                                                
