 2017  813 0958 25.8 L   6.873 -73.298121.0  RSN 17 0.7 2.1LRSN                1
 GAP= 54        1.53       3.5     3.7  6.8 -0.9559E-01  0.6633E+01  0.1612E+01E
 Epicentro: BETULIA - SANTANDER                                                3
 ACTION:UPD 17-09-04 20:19 OP:rebc STATUS:               ID:20170813095825 L   I
 OLDACT:REG 17-08-13 12:35 OP:dhb  STATUS:               ID:20170813094738     3
 2017-08-13-0948-00M.COL___401                                                 6
 STAT SP IPHASW D HRMM SECON CODA AMPLIT PERI AZIMU VELO AIN AR TRES W  DIS CAZ7
 BAR2 EZ IP     D  958 42.78                             164    0.0210 33.6 158 
 BAR2 EZ ES        958 55.34                             164   -0.6510 33.6 158 
 BRR  HZ IP     C  958 43.28                             155    0.0510 52.5 300 
 BRR  HN ES        958 57.45                             155    0.6310 52.5 300 
 BRR  HZ I         959  2.78        10.5 0.07            154           52.5 300 
 PAM  EZ EP        958 46.21                             143    0.3110 83.9  52 
 PAM  EN ES        959  2.10                             143    0.5210 83.9  52 
 PAM  EZ I         959  4.51        26.4 0.17            147           83.9  52 
 RUS  HZ EP        958 47.73                             135   -0.3410  111 168 
 RUS  HN ES        959  5.46                             135    0.0110  111 168 
 RUS  HZ I         959  6.87        12.8 0.29            138            111 168 
 SPBC HZ EP        958 51.92                             123   -0.26 9  160 212 
 SPBC HN ES        959 11.64                             123   -1.12 9  160 212 
 SPBC HZ I         959 15.23        15.9 0.10            126            160 212 
 TAM  HZ IP     C  958 53.63                             121    0.10 9  174 106 
 TAM  HN ES        959 13.77                             121   -1.39 9  174 106 
 TAM  HZ I         959 14.74        15.6 0.13            124            174 106 
 ZAR  HZ EP        958 54.64                             119   -0.10 9  185 292 
 ZAR  HN ES        959 17.65                             119    0.33 9  185 292 
 ZAR  HZ I         959 22.87        18.5 0.26            121            185 292 
 YPLC HZ IP     D  958 55.62                             118    0.05 9  192 148 
 YPLC HN ES        959 19.61                             118    0.82 9  192 148 
 YPLC HZ I         959 21.98        43.0 0.43            121            192 148 
 NOR  HZ EP        958 59.27                             114    0.00 8  226 230 
 NOR  HN ES        959 25.28                             114   -0.10 8  226 230 
 NOR  HZ I         959 29.61         5.7 0.37            116            226 230 
 CHI  HZ EP        959  2.73                             111    0.02 8  253 191 
 CHI  HN ES        959 32.12                             111    0.62 8  253 191 
 HEL  HZ EP        959  4.02                             110    0.77 8  258 253 
 HEL  HE ES        959 33.05                             110    0.58 8  258 253 
 HEL  HZ I         959 37.34         8.7 0.51            112            258 253 
 URE  HZ EP   9    959  2.50                             110   -1.13 0  265 292 
 URE  HN ES        959 31.39                                   -0.62 8  265 292 
 URE  HZ I         959 33.19        13.5 0.22            111            265 292 
 GUY2CHZ EP   2    959  8.78                             108    1.41 4  293 232 
 GUY2CHN ES        959 40.15                             108    0.35 7  293 232 
 GUY2CHZ I         959 46.85         6.0 0.37                           293 232 
 LL6C HZ EP        959 10.52                             106    0.94 7  317   1 
 LL6C HN ES        959 44.72                             106    0.98 7  317   1 
 LL6C HZ I         959 47.79         8.5 0.66            108            317   1 
 PRA  HZ EP        959 18.66                             102    0.19 6  391 207 
 PRA  HE ES        959 59.96                             102    0.41 6  391 207 
 PRA  HZ I        10 0  4.88         4.9 0.24            104            391 207 
 SJC  HZ EP        959 16.92                             102   -1.84 6  393 328 
 SJC  HE ES        959 58.26                             102   -1.81 6  393 328 
 SJC  HZ I        10 0  1.25         1.5 0.17            104            393 328 
 PAL  HZ EP        959 19.14                             102    0.10 6  396 237 
 PAL  HN ES        959 58.73                             102   -1.85 6  396 237 
 PAL  HZ I        10 0  4.92         4.1 0.35            103            396 237 
                                                                                
