 2010  413 0407 57.5 L   6.788 -73.011148.9  RSN  4 0.1 1.6LRSN                1
 GAP=233        0.39       4.3     4.9  4.7  0.5001E+01 -0.2557E+01 -0.2763E+00E
 Epicentro: CEPITA - SANTANDER                                                 3
 ACTION:UPD 10-08-24 09:58 OP:vdl  STATUS:               ID:20100413040757 L   I
 2010-04-13-0402-47S.COL___097                                                 6
 STAT SP IPHASW D HRMM SECON CODA AMPLIT PERI AZIMU VELO AIN AR TRES W  DIS CAZ7
 BAR2 SZ EP        4 8 17.64                             168     0.010   29 221 
 BAR2 SZ ES   1    4 8 33.21                             168    -0.1 7   29 221 
 BRR  HZ EP        4 8 19.90                             148     0.110   85 295 
 BRR  HZ I         4 8 21.55         7.1 0.56                            85 295 
 BRR  HN ES        4 8 37.32                             148     0.110   85 295 
 OCA  SZ ES   2    4 8 48.70                             130    -0.3 5  164 348 
 HEL  HN ES   2    4 9 11.85                             114    -0.3 4  286 257 
 HEL  HZ I         4 9 17.02         2.0 0.38                           286 257 
                                                                                
