 2017 1213 0104 53.3 L   6.776 -73.186150.5  RSN  4 0.2 1.5LRSN                1
 GAP=138        0.50       4.6     2.6  4.8 -0.3694E+01  0.4215E+01 -0.2788E+01E
 Epicentro: LOS SANTOS - SANTANDER                                             3
 ACTION:UPD 18-01-04 13:19 OP:rebc STATUS:               ID:20171213010453 L   I
 OLDACT:UP  17-12-13 13:48 OP:edw  STATUS:               ID:20171213005742     3
 OLDACT:REG 17-12-13 12:08 OP:edw  STATUS:               ID:20171213005742     3
 2017-12-13-0058-00M.COL___458                                                 6
 STAT SP IPHASW D HRMM SECON CODA AMPLIT PERI AZIMU VELO AIN AR TRES W  DIS CAZ7
 BAR2 EZ EP        1 5 13.35                             172   -0.0610 20.3 179 
 BAR2 EZ ES        1 5 29.22                             172    0.0910 20.3 179 
 BAR2 EZ I         1 5 29.72         8.9 0.30            172           20.3 179 
 PAM  EZ EP        1 5 16.57                             150    0.2910 82.3  41 
 PAM  EN ES        1 5 34.03                             150   -0.2010 82.3  41 
 PAM  EZ I         1 5 35.68         6.0 0.50            154           82.3  41 
 PTB  HZ EP        1 5 19.96                             134   -0.24 9  143 260 
 PTB  HN ES        1 5 41.26                             134    0.06 9  143 260 
 PTB  HZ I         1 5 48.50         3.2 0.44            134            143 260 
 ZAR  HN ES        1 5 51.08                             124    0.05 9  201 293 
                                                                                
