 2013  613 0755 26.0 L   6.815 -73.143151.7  RSN 31 0.5 3.7LRSN 3.9WRSN        1
 SPEC AVERAGE  MO 15.0 ST103.6 OM  3.5 f0 3.64 R0.5243 AL 2.99 WI 44.9 MW  3.9 3
 SPEC SD       MO  0.2 ST133.1 OM  0.3 f0 1.58 R0.2430 AL      WI      MW  0.1 3
 GAP= 55        0.92       1.9     2.5  3.9 -0.1131E-01  0.9912E+00  0.1561E+00E
 Epicentro: LOS SANTOS - SANTANDER                                             3
 SPEC TAM HH N MO 15.0 ST  4.6 OM  3.3 f0 1.54 R1.0091 AL 1.96 WI 57.9 MW  4.0 3
 SPEC TAM HH N T 75615 K 0.000 GD  216 VS 4.20 DE 3.20 Q0300.0 QA 0.60 VS 4.20 3
 SPEC PTB HH N MO 15.0 ST 17.9 OM  3.3 f0 2.44 R0.6369 AL 1.67 WI 26.1 MW  4.0 3
 SPEC PTB HH N T 75614 K 0.000 GD  211 VS 4.20 DE 3.20 Q0300.0 QA 0.60 VS 4.20 3
 SPEC RUS HH N MO 14.7 ST  5.0 OM  3.0 f0 2.11 R0.7365 AL 1.59 WI 15.1 MW  3.7 3
 SPEC RUS HH N T 756 8 K 0.000 GD  182 VS 4.20 DE 3.20 Q0300.0 QA 0.60 VS 4.20 3
 SPEC PRA HH N MO 14.9 ST 79.8 OM  2.9 f0 4.34 R0.3581 AL 2.91 WI103.3 MW  3.9 3
 SPEC PRA HH N T 75659 K 0.000 GD  422 VS 4.20 DE 3.20 Q0300.0 QA 0.60 VS 4.20 3
 SPEC NOR HH E MO 15.1 ST435.2 OM  3.3 f0 6.44 R0.2413 AL 6.28 WI 39.3 MW  4.0 3
 SPEC NOR HH E T 75629 K 0.000 GD  280 VS 4.20 DE 3.20 Q0300.0 QA 0.60 VS 4.20 3
 SPEC OCA HH N MO 15.2 ST123.7 OM  3.5 f0 3.94 R0.3944 AL 3.28 WI 21.8 MW  4.1 3
 SPEC OCA HH N T 75616 K 0.000 GD  219 VS 4.20 DE 3.20 Q0300.0 QA 0.60 VS 4.20 3
 SPEC CHI HH N MO 15.2 ST 43.2 OM  3.3 f0 2.94 R0.5286 AL 3.26 WI 76.9 MW  4.1 3
 SPEC CHI HH N T 75630 K 0.000 GD  292 VS 4.20 DE 3.20 Q0300.0 QA 0.60 VS 4.20 3
 SPEC BRR HH N MO 14.8 ST119.6 OM  3.2 f0 5.37 R0.2894 AL 2.98 WI 19.1 MW  3.8 3
 SPEC BRR HH N T 756 5 K 0.000 GD  167 VS 4.20 DE 3.20 Q0300.0 QA 0.60 VS 4.20 3
 ACTION:UPD 14-01-08 09:54 OP:ep   STATUS:               ID:20130613075526 L   I
 OLDACT:UP  13-06-13 10:09 OP:cam  STATUS:               ID:20130613074959     3
 OLDACT:UP  13-06-13 10:05 OP:cam  STATUS:               ID:20130613074959     3
 OLDACT:UP  13-06-13 10:04 OP:cam  STATUS:               ID:20130613074959     3
 OLDACT:UP  13-06-13 09:59 OP:cam  STATUS:               ID:20130613074959     3
 OLDACT:REG 13-06-13 07:53 OP:cam  STATUS:               ID:20130613074959     3
 2013-06-13-0749-59M.COL___261                                                 6
 STAT SP IPHASW D HRMM SECON CODA AMPLIT PERI AZIMU VELO AIN AR TRES W  DIS CAZ7
 BAR2 SZ IP     C  755 46.41                             170   -0.0110 25.0 190 
 BAR2 SZ ES        756  1.81                             170   -0.5010 25.0 190 
 BAR2 SZ I         756  3.19      1351.0 0.30            171           25.0 190 
 GIR2 SZ EP        755 46.42                             168    0.0410 29.7 349 
 BRR  HZ EP     C  755 48.28                             154    0.4710 70.7 297 
 BRR  HN ES        756  5.65                             154    0.8710 70.7 297 
 BRR  HZ I         756  9.37       512.5 0.34            154           70.7 297 
 RUS  HZ IP        755 50.23                             144   -0.2710  102 176 
 RUS  HZ I         755 51.46       346.0 0.18            144            102 176 
 RUS  HN ES        756  9.25                             144   -0.3210  102 176 
 GRA  SZ IP     C  755 51.93                             139    0.2510  124  18 
 PTB  HZ EP        755 53.04                             133   -0.52 9  148 258 
 PTB  HN ES        756 14.35                             133   -0.66 9  148 258 
 PTB  HZ I         756 15.73       448.6 0.44            133            148 258 
 TAM  HZ IP     D  755 54.64                             132    0.43 9  155 106 
 TAM  HZ I         756 15.31       362.2 0.34            130            155 106 
 TAM  HN ES        756 16.49                             132    0.31 9  155 106 
 OCA  HZ EP   1    755 54.61                             131   -0.06 7  159 353 
 OCA  HN ES        756 16.60                             131   -0.40 9  159 353 
 OCA  HZ I         756 23.46       418.0 0.44            130            159 353 
 YOP  SZ IP     D  755 56.93                             127    0.28 9  180 154 
 YOP  SZ I         755 57.90       343.9 0.58            127            180 154 
 ZAR  HZ EP        755 58.90                             124    0.05 9  204 292 
 ZAR  HE ES        756 24.64                             124    0.21 9  204 292 
 ZAR  HZ I         756 30.30       413.9 0.32            123            204 292 
 NOR  HZ EP        756  2.13                             119   -0.12 8  236 234 
 NOR  HE IS   1    756 30.85                             119    0.36 6  236 234 
 NOR  HE ES        756 30.85                             119    0.36 8  236 234 
 NOR  HZ I         756 34.73       360.6 0.50            119            236 234 
 SML  HZ EP   1    756  2.48                             119   -0.38 6  242 335 
 SML  HE ES        756 31.36                             119   -0.22 8  242 335 
 SML  HZ I         756 36.07       319.1 0.24            118            242 335 
 CHI  HZ EP        756  4.44                             118    0.18 8  250 195 
 CHI  HN ES        756 33.77                             118   -0.29 8  250 195 
 CHI  HZ I         756 42.11       290.3 0.44            118            250 195 
 ROSC BZ EP   4    756  5.83                             118    1.17 0  254 211 
 HEL  HZ EP   1    756  6.98                             116    0.34 6  273 255 
 HEL  HN ES   2    756 38.79                             116    0.49 4  273 255 
 HEL  HZ I         756 44.65       234.5 0.50            115            273 255 
 CVER SZ EP        756  7.73                             116    0.84 8  274 202 
 VIL  SZ EP        756  9.42                             113   -0.51 7  305 192 
 VIL  SN ES        756 43.81                             113   -0.34 7  305 192 
 VIL  SZ I         756 53.68       436.9 0.44            112            305 192 
 RREF HZ EP        756 13.41                             112    0.81 7  323 229 
 DBB  SZ EP        756 13.71                             110   -0.08 7  340 274 
 DBB  SZ ES        756 50.50                             110   -0.52 7  340 274 
 COD  HZ EP        756 13.76                             110   -0.71 6  347 355 
 COD  HN ES        756 51.52                             110   -0.73 6  347 355 
 COD  HZ I         757  2.99       114.1 0.70            109            347 355 
 ARGC HZ EP        756 16.34                             109    0.58 6  358 340 
 ARGC HN ES        756 55.43                             109    0.89 6  358 340 
 ARGC HZ I         757  8.76       105.4 0.32            108            358 340 
 SDV  BZ EP        756 15.94                             109   -0.23 6  359  50 
 SDV  BN ES   4    756 53.95                             109   -1.31 0  359  50 
 PRA  HZ EP        756 19.27                             107   -0.69 6  394 209 
 PRA  HN ES        757  2.06                             107    0.05 6  394 209 
 PRA  HZ I         757  8.07       438.4 0.32            107            394 209 
 PAL  HZ IP     C  756 21.77                             107    0.23 6  407 239 
 PAL  HZ I         756 23.42       180.9 0.14            106            407 239 
 YOT  HZ EP        756 28.71                             104   -0.70 5  473 229 
 SMAR HZ EP   2    756 31.71                             103   -0.18 2  495 346 
 MARA HZ EP   2    756 37.24                             102   -0.15 2  539 216 
 URI  HN ES   2    757 32.68                             101   -3.20 2  555  13 
 MAL  SZ EP        756 40.15                             101    0.76 3  558 237 
 PCON HZ EP   2    756 47.26                             100    0.54 1  614 216 
 POP2 HZ EP        756 45.66                             100   -0.69 3  614 220 
 POP2 HN ES   2    757 49.34                             100    0.35 1  614 220 
 FLO2 HZ EP   4    756 48.47                              99   -1.01 0  642 206 
 BBAC HZ EP        756 57.01                              98    0.46 1  699 221 
 BBAC HN ES   2    758  6.53                              98   -0.62 1  699 221 
 CRU  SZ EP   4    757  0.14                              98    1.13 0  718 216 
                                                                                
