 2017  413 0305 26.7 L   6.792 -73.151149.0  RSN  8 0.5 1.4LRSN                1
 GAP=112        0.98       5.0     5.0  6.6 -0.1054E+01  0.4090E+01  0.6424E+01E
 Epicentro: LOS SANTOS - SANTANDER                                             3
 ACTION:UPD 17-05-30 21:11 OP:jn   STATUS:               ID:20170413030526 L   I
 OLDACT:UP  17-04-13 13:56 OP:cog  STATUS:               ID:20170413025745d    3
 OLDACT:DUP 17-04-13 13:51 OP:cog  STATUS:               ID:20170413025745d    3
 2017-04-13-0258-00M.COL___365                                                 6
 STAT SP IPHASW D HRMM SECON CODA AMPLIT PERI AZIMU VELO AIN AR TRES W  DIS CAZ7
 BAR2 EZ ES        3 6  1.97                             171   -0.3110 22.4 189 
 BAR2 EZ I         3 6  4.20        10.2 0.30            170           22.4 189 
 BRR  HZ EP        3 5 48.34                             153    0.1710 71.1 299 
 BRR  HN ES        3 6  5.71                             153    0.7710 71.1 299 
 BRR  HZ I         3 6 12.62         3.4 0.16            150           71.1 299 
 PAM  EZ EP        3 5 49.38                             151    0.0810 78.5  39 
 PAM  EE ES        3 6  6.55                             151   -0.4010 78.5  39 
 PAM  EZ I         3 6  8.26         2.7 0.30            155           78.5  39 
 RUS  HZ EP        3 5 50.87                             145    0.1810 99.8 176 
 RUS  HN ES        3 6  9.70                             145    0.2810 99.8 176 
 RUS  HZ I         3 6 10.18         2.6 0.14            149           99.8 176 
 PTB  HZ EP        3 5 53.46                             133   -0.38 9  147 259 
 PTB  HN ES        3 6 14.53                             133   -0.50 9  147 259 
 PTB  HZ I         3 6 21.81         5.4 0.52            133            147 259 
 YPLC HN ES   3    3 6 18.44                             127   -1.61 2  176 151 
 ZAR  HN ES   3    3 6 23.65                             123   -1.11 2  204 292 
 CHI  HZ EP        3 6  4.67                             118    0.22 8  248 195 
 CHI  HN ES   4    3 6 36.14                             118    2.23 0  248 195 
                                                                                
