 2014  613 0837 47.6 L   6.770 -73.186136.0  RSN  5 0.4 1.4LRSN                1
 GAP=178        0.83       5.0     6.1  8.1  0.7475E+01  0.1821E+02 -0.6177E+01E
 Epicentro: VILLANUEVA - SANTANDER                                             3
 ACTION:UPD 14-07-01 22:53 OP:nd   STATUS:               ID:20140613083748dL   I
 OLDACT:UP  14-06-13 19:44 OP:mh   STATUS:               ID:20140613083647     3
 OLDACT:REG 14-06-13 19:39 OP:mh   STATUS:               ID:20140613083647     3
 2014-06-13-0836-47M.COL___259                                                 6
 STAT SP IPHASW D HRMM SECON CODA AMPLIT PERI AZIMU VELO AIN AR TRES W  DIS CAZ7
 BAR2 SZ EP        838  6.03                             171    0.0710 19.7 179 
 BAR2 SZ ES        838 20.44                             171    0.1510 19.7 179 
 BAR2 SZ I         838 22.26         6.7 0.15            171           19.7 179 
 RUS  HZ EP   1    838  9.50                             142   -0.66 7 97.7 173 
 RUS  HN ES   1    838 28.05                             142    0.27 7 97.7 173 
 RUS  HZ I         838 30.18         3.2 0.42            144           97.7 173 
 PTB  HZ EP        838 13.31                             131    0.01 9  143 260 
 PTB  HN ES   1    838 32.89                             131   -0.47 7  143 260 
 PTB  HZ I         838 34.91         2.6 0.32            132            143 260 
 OCA  HN ES   1    838 36.81                             127   -0.32 7  163 355 
 ZAR  HZ EP   1    838 20.04                             120    0.94 6  201 293 
 ZAR  HN ES   1    838 43.66                             120   -0.03 6  201 293 
 ZAR  HZ I         838 46.99         3.5 0.06            122            201 293 
                                                                                
