 2016  413 0113 51.9 L   6.799 -73.165142.5  RSN  7 0.4 1.7LRSN                1
 GAP=134        0.98       4.4     4.5  7.2 -0.1522E+01  0.1324E+02 -0.2349E+01E
 Epicentro: LOS SANTOS - SANTANDER                                             3
 ACTION:UPD 16-05-05 14:20 OP:rebc STATUS:               ID:20160413011351 L   I
 OLDACT:UP  16-04-13 15:35 OP:mh   STATUS:               ID:20160413010742     3
 OLDACT:UP  16-04-13 15:34 OP:mh   STATUS:               ID:20160413010742     3
 OLDACT:UP  16-04-13 15:34 OP:mh   STATUS:               ID:20160413010742     3
 OLDACT:UP  16-04-13 15:34 OP:mh   STATUS:               ID:20160413010742     3
 OLDACT:UP  16-04-13 15:33 OP:mh   STATUS:               ID:20160413010742     3
 OLDACT:REG 16-04-13 12:52 OP:mh   STATUS:               ID:20160413010742     3
 2016-04-13-0107-42M.COL___315                                                 6
 STAT SP IPHASW D HRMM SECON CODA AMPLIT PERI AZIMU VELO AIN AR TRES W  DIS CAZ7
 BAR2 EZ EP        114 11.18                             170    0.0410 23.0 185 
 BAR2 EZ ES        114 25.36                             170   -0.7810 23.0 185 
 BAR2 EZ I         114 27.41        12.6 0.28            169           23.0 185 
 PAM  EZ EP   1    114 14.13                             150    0.27 7 78.8  41 
 PAM  EN ES        114 31.27                             150    0.2810 78.8  41 
 PAM  EZ I         114 33.07         9.5 0.52            156           78.8  41 
 RUS  HZ EP        114 15.15                             143   -0.2010  101 175 
 RUS  HN ES        114 34.08                             143    0.4510  101 175 
 PTB  HZ EP        114 17.86                             132   -0.56 9  146 259 
 PTB  HN ES        114 39.06                             132   -0.04 9  146 259 
 PTB  HZ I         114 45.71         6.9 0.44            132            146 259 
 SPBC HZ EP        114 20.11                             128    0.08 9  162 218 
 SPBC HN ES        114 42.32                             128    0.36 9  162 218 
 SPBC HZ I         114 50.07         5.7 0.44            130            162 218 
 ZAR  HZ EP        114 23.76                             122   -0.18 9  202 292 
 ZAR  HN ES        114 49.41                             122    0.48 9  202 292 
 ZAR  HZ I         114 55.16         5.1 0.30            123            202 292 
 GUY2CHN ES   4    115 11.37                             112    2.46 0  299 235 
 GUY2CHZ I         115 16.32         1.5 0.62                           299 235 
                                                                                
