 2012 1213 0652 15.1 L   6.540 -73.538108.5  RSN  9 0.5 1.8LRSN                1
 GAP= 74        1.27       3.8     4.6  8.6  0.4238E+01  0.1864E+02  0.2609E+01E
 Epicentro: EL CARMEN DE CHUCURI - SANTANDER                                   3
 ACTION:UPD 13-01-04 14:27 OP:ep   STATUS:               ID:20121213065215 L   I
 2012-12-13-0650-00M.COL___242                                                 6
 STAT SP IPHASW D HRMM SECON CODA AMPLIT PERI AZIMU VELO AIN AR TRES W  DIS CAZ7
 BAR2 SZ EP        652 31.04                             158    0.1510 39.8  82 
 BAR2 SZ ES        652 43.54                             158    0.3510 39.8  82 
 BAR2 SZ I         652 44.49        49.6 0.40                          39.8  82 
 BRR  HZ EP        652 31.61                             146   -0.3910 65.6 343 
 BRR  HN ES        652 45.62                             146    0.4510 65.6 343 
 BRR  HN I         652 52.47        13.1 0.14                          65.6 343 
 RUS  HZ EP        652 34.27                             138   -0.0610 87.5 145 
 RUS  HE ES        652 48.79                             138   -0.5310 87.5 145 
 RUS  HN I         652 50.56         4.4 0.38                          87.5 145 
 PTB  HZ IP     C  652 33.89                             133   -0.9710  102 270 
 PTB  HN ES        652 49.84                             133   -0.4210  102 270 
 PTB  HN I         652 54.86        13.6 0.22                           102 270 
 ZAR  HZ EP        652 43.22                             116    0.46 9  180 306 
 ZAR  HN ES        653  5.03                             116    0.71 9  180 306 
 ZAR  HN I         653  9.85         9.6 0.14                           180 306 
 OCA  HN ES        653  6.34                             115   -0.19 9  189   7 
 OCA  HN I         653 10.98        22.2 0.18                           189   7 
 CHI  HN ES        653 12.57                             112    0.89 8  212 186 
 HEL  HZ EP        652 48.59                             111    0.47 8  224 260 
 HEL  HN ES        653 13.64                             111   -0.22 8  224 260 
 HEL  HN I         653 18.68         2.3 0.16                           224 260 
 MON  HN ES        653 37.22                             101   -0.36 7  341 317 
                                                                                
