 2016  513 0451 30.3 L   6.780 -73.149144.7  RSN 10 0.4 1.8LRSN                1
 GAP=137        1.00       3.3     4.3  6.0 -0.1490E+01  0.5444E+01  0.4319E+01E
 Epicentro: LOS SANTOS - SANTANDER                                             3
 ACTION:UPD 16-08-18 17:45 OP:cam  STATUS:               ID:20160513045130 L   I
 OLDACT:UP  16-05-13 14:04 OP:drio STATUS:               ID:20160513044746     3
 OLDACT:REG 16-05-13 12:31 OP:drio STATUS:               ID:20160513044746     3
 2016-05-13-0447-46M.COL___304                                                 6
 STAT SP IPHASW D HRMM SECON CODA AMPLIT PERI AZIMU VELO AIN AR TRES W  DIS CAZ7
 BAR2 EZ EP        451 49.65                             171   -0.0710 21.1 190 
 BAR2 EZ ES        452  4.64                             171   -0.2610 21.1 190 
 BAR2 EZ I         452  5.51        10.0 0.32            170           21.1 190 
 BRR  HZ EP        451 51.65                             152    0.3210 71.9 300 
 BRR  HN ES        452  8.35                             152    0.5810 71.9 300 
 PAM  EZ EP        451 52.40                             150   -0.0710 79.3  39 
 PAM  EE ES        452  9.56                             150   -0.2510 79.3  39 
 PAM  EZ I         452  9.98         5.8 0.42            151           79.3  39 
 RUS  HZ EP        451 54.00                             144    0.2510 98.4 176 
 RUS  HN ES        452 11.91                             144   -0.1610 98.4 176 
 RUS  HZ I         452 13.37         4.1 0.46            144           98.4 176 
 PTB  HZ EP        451 56.25                             132   -0.81 9  147 260 
 PTB  HN ES        452 17.37                             132   -0.61 9  147 260 
 PTB  HZ I         452 19.84         6.8 0.12            130            147 260 
 SPBC HZ EP        451 58.59                             129    0.10 9  161 219 
 SPBC HN ES        452 20.93                             129    0.42 9  161 219 
 SPBC HZ I         452 22.80         9.3 0.20            128            161 219 
 OCA  HZ EP   4    452  0.58                             129    1.90 0  162 353 
 OCA  HN ES        452 21.26                             129    0.40 9  162 353 
 OCA  HZ I         452 23.39        13.2 0.16            128            162 353 
 ZAR  HZ EP   4    452  4.02                             122    1.34 0  205 293 
 ZAR  HE ES        452 27.84                             122   -0.13 9  205 293 
 ZAR  HZ I         452 33.19         8.2 0.52            121            205 293 
 PRA  HZ EP        452 23.15                             106   -0.34 6  390 210 
 PRA  HE ES        453  6.04                             106    1.02 6  390 210 
 PRA  HZ I         453 12.12         2.8 0.60            106            390 210 
 ORTC HZ EP        452 23.86                             106   -0.04 6  393 216 
 ORTC HE ES   4    453  7.23                             106    1.48 0  393 216 
 ORTC HZ I         453 12.25         1.8 0.44            106            393 216 
                                                                                
