 2015  913 0020 58.7 L   7.171 -73.174  4.0  RSN  8 0.4 1.6LRSN                1
 GAP=106        1.08       2.7     2.2  5.5 -0.9054E+00  0.2937E+01 -0.3087E+01E
 Epicentro: BUCARAMANGA - SANTANDER                                            3
 ACTION:UPD 15-10-28 16:25 OP:cam  STATUS:               ID:20150913002058 L   I
 OLDACT:REG 15-09-13 12:16 OP:drio STATUS:               ID:20150913001748     3
 2015-09-13-0017-48M.COL___326                                                 6
 STAT SP IPHASW D HRMM SECON CODA AMPLIT PERI AZIMU VELO AIN AR TRES W  DIS CAZ7
 PAM  EZ EP        021  8.02                              47   -0.2210 55.6  70 
 PAM  EE ES        021 15.43                              47   -0.2510 55.6  70 
 PAM  EZ I         021 16.76        19.6 0.26             47           55.6  70 
 BRR  HZ EP        021  8.12                              47   -0.2510 59.8 263 
 BRR  HE ES        021 15.81                              47   -0.0910 59.8 263 
 BRR  HZ I         021 17.40        15.0 0.14             47           59.8 263 
 BAR2 EZ EP        021  8.79                              47   -0.4610 64.0 181 
 BAR2 EZ ES        021 18.20                              47    0.7210 64.0 181 
 BAR2 EZ I         021 21.97        15.7 0.52             47           64.0 181 
 RUS  HZ EP        021 21.18                              47   -0.11 9  142 176 
 RUS  HE ES   4    021 36.64                              47   -2.26 0  142 176 
 RUS  HZ I         021 43.00         9.0 0.22             47            142 176 
 PTB  HZ EP        021 23.44                              47    0.18 9  158 244 
 PTB  HN ES        021 41.90                              47   -0.51 9  158 244 
 PTB  HZ I         021 43.93        15.3 0.44             47            158 244 
 ZAR  HZ EP        021 28.25                              37    0.61 9  189 281 
 ZAR  HN ES        021 49.83                              37   -0.37 9  189 281 
 ZAR  HZ I         021 53.46         6.3 0.34             37            189 281 
 SPBC HZ EP   4    021 30.31                              37    1.84 0  195 211 
 SPBC HN ES   4    021 53.27                              37    1.59 0  195 211 
 SPBC HZ I         021 56.16        12.0 0.28             37            195 211 
 SML  HZ EP        021 30.49                              37    0.82 8  206 331 
 SML  HE ES        021 54.02                              37    0.21 8  206 331 
 SML  HZ I         021 58.88        12.2 0.10             37            206 331 
                                                                                
