 2013  513 0328 30.8 L   6.753 -73.161145.5  RSN  4 0.5 1.2LRSN                1
 GAP=232        0.94       9.3     9.0  9.7  0.3865E+02  0.2299E+01 -0.7106E+01E
 Epicentro: LOS SANTOS - SANTANDER                                             3
 ACTION:UPD 13-06-20 09:49 OP:ep   STATUS:               ID:20130513032830 L   I
 2013-05-13-0320-00M.COL___256                                                 6
 STAT SP IPHASW D HRMM SECON CODA AMPLIT PERI AZIMU VELO AIN AR TRES W  DIS CAZ7
 BAR2 SZ EP        328 50.25                             173   -0.0510 17.9 188 
 BAR2 SZ ES   1    329  4.61                             173   -0.91 7 17.9 188 
 BAR2 SZ I         329  7.49         3.2 0.28            169           17.9 188 
 BRR  HZ EP        328 52.09                             152    0.1010 72.4 303 
 BRR  HN ES   1    329  9.18                             152    0.66 7 72.4 303 
 BRR  HZ I         329 12.36         3.6 0.18            151           72.4 303 
 RUS  HZ EP   1    328 54.21                             145    0.04 7 95.5 175 
 RUS  HE ES   1    329 12.99                             145    0.60 7 95.5 175 
 RUS  HZ I         329 14.35         1.7 0.44            147           95.5 175 
 PTB  HZ EP   1    328 57.19                             132   -0.33 7  145 261 
 PTB  HN ES   1    329 18.15                             132   -0.20 7  145 261 
 PTB  HZ I         329 22.85         2.1 0.38            133            145 261 
                                                                                
