 2011  513 0138 55.7 L   6.761 -73.085139.8  RSN  8 0.2 1.7LRSN                1
 GAP=146        0.45       3.0     4.2  5.1 -0.4587E+01 -0.4870E+01  0.4849E+01E
 Epicentro: LOS SANTOS - SANTANDER                                             3
 ACTION:UP  11-06-29 08:52 OP:tino STATUS:               ID:20110513013855 L   I
 2011-05-13-0136-08S.COL___141                                                 6
 STAT SP IPHASW D HRMM SECON CODA AMPLIT PERI AZIMU VELO SNR AR TRES W  DIS CAZ7
 BAR2 SZ EP   1    139 14.56                             171     0.0 7   21 210 
 BAR2 SZ ES   3    139 28.85                             171    -0.5 2   21 210 
 BAR2 SZ I         139 30.91        12.4 0.19                            21 210 
 BTL  SZ IP        139 14.75                             169     0.110   27 311 
 GIR2 SZ EP   3    139 13.74                             165    -1.1 2   37 341 
 PAM  SZ EP        139 17.52                             150     0.310   77  34 
 PAM  SN ES   1    139 33.94                             150    -0.1 7   77  34 
 BRR  HZ EP        139 16.62                             149    -0.110   79 299 
 BRR  HN ES   1    139 33.15                             149     0.1 7   79 299 
 BRR  HZ I         139 35.85         8.5 0.22                            79 299 
 RUS  HZ EP        139 18.60                             144     0.110   96 180 
 RUS  HN ES   3    139 36.39                             144     0.0 2   96 180 
 RUS  HZ I         139 38.33         7.2 0.25                            96 180 
 BRI  SZ EP   1    139 19.13                             140    -0.1 7  110  17 
 GRA  SZ EP        139 20.44                             135    -0.210  128  14 
 GRA  SZ ES   1    139 40.20                             135     0.1 7  128  14 
 GRA  SZ I         139 41.25         7.0 0.42                           128  14 
                                                                                
