 2015  713 0405  2.8 L   6.532 -73.495112.8  RSN 16 0.4 2.3LRSN                1
 GAP= 68        0.86       2.3     2.7  6.1 -0.1848E+01  0.7707E+01 -0.1338E+01E
 Epicentro: EL CARMEN - SANTANDER                                              3
 ACTION:UPD 15-09-08 21:48 OP:cam  STATUS:               ID:20150713040502 L   I
 OLDACT:DUP 15-07-13 20:03 OP:spq  STATUS:               ID:20150713035751d    3
 OLDACT:REG 15-07-13 12:54 OP:spq  STATUS:               ID:20150713035750     3
 2015-07-13-0357-50M.COL___337                                                 6
 STAT SP IPHASW D HRMM SECON CODA AMPLIT PERI AZIMU VELO AIN AR TRES W  DIS CAZ7
 BAR2 EZ IP     D  4 5 19.22                             162    0.3910 35.2  79 
 BAR2 EZ ES   1    4 5 31.40                             162    0.04 7 35.2  79 
 RUS  HZ EP        4 5 22.14                             141    0.0410 84.1 147 
 RUS  HE ES   1    4 5 36.93                             141   -0.26 7 84.1 147 
 RUS  HZ I         4 5 38.17        19.0 0.22            145           84.1 147 
 PAM  EZ EP        4 5 26.03                             129    0.3510  125  45 
 PAM  EN ES        4 5 43.62                             129    0.0710  125  45 
 PAM  EZ I         4 5 44.86        32.9 0.10            132            125  45 
 ZAR  HZ EP        4 5 31.21                             117    0.09 9  184 305 
 ZAR  HE ES        4 5 53.75                             117    0.52 9  184 305 
 ZAR  HZ I         4 5 56.18        44.1 0.46            118            184 305 
 NOR  HZ EP        4 5 31.46                             117    0.09 9  186 235 
 NOR  HN ES        4 5 53.05                             117   -0.63 9  186 235 
 NOR  HZ I         4 5 57.44        16.1 0.18            118            186 235 
 OCA  HZ EP        4 5 31.30                             116   -0.61 9  190   6 
 OCA  HN ES        4 5 54.32                             116   -0.32 9  190   6 
 OCA  HZ I         4 5 59.90        68.4 0.30            118            190   6 
 CHI  HN ES   1    4 6  0.03                             113    0.41 6  212 187 
 CHI  HZ I         4 6  4.70         6.3 0.28            115            212 187 
 HEL  HZ EP        4 5 36.44                             111   -0.03 8  228 261 
 HEL  HN ES        4 6  2.29                             111   -0.47 8  228 261 
 HEL  HZ I         4 6  9.98        10.6 0.40            113            228 261 
 GUY2CHZ EP        4 5 40.18                             109    0.78 8  253 235 
 GUY2CHN ES        4 6  7.73                             109   -0.24 8  253 235 
 GUY2CHZ I         4 6 15.71         7.6 0.32                           253 235 
 SML  HZ EP        4 5 39.02                             108   -0.50 8  259 346 
 SML  HE ES   1    4 6  8.33                             108    0.14 6  259 346 
 SML  HZ I         4 6 13.50        47.4 0.48            110            259 346 
 CBOC HZ EP   1    4 5 43.63                             106    0.46 5  288 255 
 CBOC HN ES        4 6 14.79                             106    0.11 7  288 255 
 CBOC HZ I         4 6 18.65         4.9 0.48            107            288 255 
 TOL  SN ES   4    4 6 14.41                             105   -2.13 0  295 223 
 TOL  SZ I         4 6 22.14         6.0 0.30            107            295 223 
 PTGC HZ EP        4 5 43.71                             105   -0.50 7  299 150 
 PTGC HE ES   4    4 6 15.41                             105   -1.13 0  299 150 
 PTGC HZ I         4 6 15.91        23.5 0.60            107            299 150 
 MON  HZ EP   4    4 5 48.26                             102   -1.41 0  345 316 
 MON  HN ES   4    4 6 25.67                             102   -0.58 0  345 316 
 MON  HZ I         4 6 27.29         8.7 0.30            104            345 316 
 PAL  HZ EP   1    4 5 51.71                             102    0.48 5  357 240 
 SJC  HZ EP   4    4 5 56.86                              99   -1.38 0  416 334 
 SJC  HE ES   4    4 6 38.31                              99   -3.19 0  416 334 
 SJC  HZ I         4 6 46.82         3.6 0.64            101            416 334 
                                                                                
