 2010  713 0414 57.7 L   7.406 -73.119123.6  RSN  7 0.3 1.9LRSN                1
 GAP=192        0.55       3.7     7.8  6.5  0.3366E+01 -0.1364E+02 -0.2056E+01E
 Epicentro: EL PLAYON - SANTANDER                                              3
 ACTION:UPD 10-12-01 15:17 OP:pat  STATUS:               ID:20100713041457 L   I
 2010-07-13-0400-00S.COL___116                                                 6
 STAT SP IPHASW D HRMM SECON CODA AMPLIT PERI AZIMU VELO AIN AR TRES W  DIS CAZ7
 BRR  HZ IP     D  415 16.32                             148    -0.310   73 243 
 BRR  HE ES   1    415 31.43                             148     0.0 7   73 243 
 BRR  HZ I         415 35.87        16.0 0.10                            73 243 
 BAR2 SZ IP        415 18.24                             142     0.010   90 185 
 BAR2 SZ ES   1    415 34.38                             142     0.2 7   90 185 
 BAR2 SZ I         415 35.66        16.4 0.17                            90 185 
 OCA  SZ EP   1    415 18.43                             141     0.0 7   95 347 
 OCA  SZ ES   2    415 34.99                             141     0.4 5   95 347 
 OCA  SZ I         415 38.59        12.6 0.45                            95 347 
 RUS  HZ EP   2    415 25.33                             124    -0.2 5  167 179 
 HEL  HZ EP   2    415 40.17                             108     0.2 4  298 243 
 HEL  HZ I         416 19.66         2.3 0.39                           298 243 
 RREF HZ EP   3    415 49.58                             104     0.8 2  371 222 
 RREF HZ I         416 35.64         3.5 0.91                           371 222 
 PRA  HZ EP   2    415 58.27                             100     0.4 2  453 206 
 PRA  HZ I         416 55.77         3.8 0.30                           453 206 
                                                                                
