 2010  513 0303 11.9 L   6.797 -72.969140.0  RSN  5 0.2 1.3LRSN                1
 GAP=179        0.46       3.0     9.5 10.9  0.7622E+01 -0.7243E+02 -0.1337E+01E
 Epicentro: CEPITA - SANTANDER                                                 3
 ACTION:UP  10-08-24 10:04 OP:vdl  STATUS:               ID:20100513030311 L   I
 2010-05-13-0301-22S.COL___104                                                 6
 STAT SP IPHASW D HRMM SECON CODA AMPLIT PERI AZIMU VELO AIN AR TRES W  DIS CAZ7
 BAR2 SZ EP        3 3 30.95                             166    -0.110   33 226 
 BRR  HZ EP   2    3 3 33.74                             146     0.2 5   89 293 
 BRR  HE ES   1    3 3 50.50                             146     0.1 7   89 293 
 BRR  HZ I         3 3 52.35         5.4 0.35                            89 293 
 RUS  HZ EP        3 3 35.00                             143    -0.110  101 187 
 RUS  HE ES   2    3 3 53.48                             143     0.3 5  101 187 
 RUS  HZ I         3 3 55.52         2.4 0.36                           101 187 
 GRA  SZ EP   2    3 3 36.85                             137     0.6 5  122   9 
 GRA  SZ ES   3    3 3 55.12                             137    -0.2 2  122   9 
 OCA  SZ ES   1    3 4  2.00                             128    -0.1 7  164 346 
                                                                                
