 2012  713 0425 21.8 L   6.778 -73.150135.6  RSN  8 0.5 1.7LRSN                1
 GAP=137        1.06       4.4     5.8  8.6 -0.9891E+00  0.2012E+02 -0.7326E+01E
 Epicentro: LOS SANTOS - SANTANDER                                             3
 ACTION:UPD 12-08-14 11:44 OP:ep   STATUS:               ID:20120713042521 L   I
 2012-07-13-0420-00M.COL___197                                                 6
 STAT SP IPHASW D HRMM SECON CODA AMPLIT PERI AZIMU VELO AIN AR TRES W  DIS CAZ7
 BAR2 SZ EP   1    425 40.08                             171    -0.1 7   21 190 
 BAR2 SZ ES        425 54.50                             171     0.010   21 190 
 BAR2 SZ I         425 56.14        15.6 0.29            171             21 190 
 BRR  HZ EP   1    425 41.85                             150     0.0 7   72 300 
 BRR  HN ES   1    425 58.34                             150     0.8 7   72 300 
 BRR  HZ I         425 59.49        12.9 0.12            150             72 300 
 PAM  SN ES   1    425 59.32                             148    -0.3 7   80  39 
 RUS  HZ EP   1    425 44.22                             142    -0.1 7   98 176 
 RUS  HN ES        426  2.05                             142     0.110   98 176 
 RUS  HZ I         426  4.66         4.4 0.16            145             98 176 
 PTB  HZ EP   1    425 47.06                             130    -0.8 7  147 260 
 PTB  HN ES   1    426  7.90                             130    -0.3 7  147 260 
 PTB  HZ I         426  8.98         3.1 0.21            130            147 260 
 OCA  HZ EP   1    425 50.09                             127     0.5 7  163 353 
 OCA  HN ES        426 11.05                             127    -0.2 9  163 353 
 OCA  HZ I         426 13.74        17.6 0.18            128            163 353 
 ZAR  HZ EP   1    425 54.55                             120     0.9 6  205 293 
 ZAR  HN ES   1    426 17.82                             120    -0.7 6  205 293 
 ZAR  HZ I         426 23.82         4.9 0.12            121            205 293 
 HEL  HN ES   1    426 32.64                             113     0.4 6  271 256 
