 2017  613 0145 25.0 L   7.394 -73.190128.1  RSN  4 0.4 1.4LRSN                1
 GAP=293        0.90       9.1     9.1  9.2  0.1000E+02 -0.4658E+01 -0.1696E+02E
 Epicentro: EL PLAYON - SANTANDER                                              3
 ACTION:UPD 17-09-14 16:51 OP:jn   STATUS:               ID:20170613014525 L   I
 OLDACT:UP  17-06-13 14:29 OP:dani STATUS:               ID:20170613013733d    3
 OLDACT:UP  17-06-13 14:28 OP:dani STATUS:               ID:20170613013733d    3
 OLDACT:UP  17-06-13 14:28 OP:dani STATUS:               ID:20170613013733d    3
 OLDACT:DUP 17-06-13 14:25 OP:dani STATUS:               ID:20170613013733d    3
 2017-06-13-0138-00M.COL___365                                                 6
 STAT SP IPHASW D HRMM SECON CODA AMPLIT PERI AZIMU VELO AIN AR TRES W  DIS CAZ7
 BRR  HZ EP        145 43.81                             153   -0.1110 65.8 241 
 BRR  HE ES        145 59.04                             153    0.3510 65.8 241 
 BRR  HZ I         146  7.00         6.1 0.30            158           65.8 241 
 PTB  HZ EP        145 52.53                             125   -0.14 9  169 236 
 PTB  HN ES        146 13.56                             125   -0.69 9  169 236 
 PTB  HZ I         146 17.24         2.3 0.10            133            169 236 
 ZAR  HZ EP        145 54.37                             122    0.11 9  184 273 
 ZAR  HE ES        146 17.30                             122    0.21 9  184 273 
 ZAR  HZ I         146 19.92         4.4 0.32            130            184 273 
 SPBC HN ES   2    146 24.38                             118    1.10 4  216 207 
                                                                                
