 2010  413 1805  4.6 L   6.882 -73.196157.0  RSN  4 0.5 2.3LRSN                1
 GAP=233        0.77      13.6    23.0 10.8 -0.2450E+03 -0.7190E+02  0.7225E+02E
 Epicentro: BETULIA - SANTANDER                                                3
 ACTION:UPD 10-08-24 09:59 OP:vdl  STATUS:               ID:20100413180505 L   I
 2010-04-13-1803-42S.COL___097                                                 6
 STAT SP IPHASW D HRMM SECON CODA AMPLIT PERI AZIMU VELO AIN AR TRES W  DIS CAZ7
 BRR  HZ EP   1   18 5 26.05                             160    -0.5 7   62 294 
 BRR  HN ES   1   18 5 43.56                             160    -0.1 7   62 294 
 BRR  HZ I        18 5 45.17        30.0 0.11                            62 294 
 OCA  SZ EP   2   18 5 32.97                             134     0.0 5  151 355 
 OCA  SZ ES   2   18 5 55.92                             134     0.8 5  151 355 
 RREF BZ EP   1   18 5 52.00                             112     0.5 5  324 228 
 RREF BN ES   2   18 6 28.66                             112     0.6 3  324 228 
 RREF BZ I        18 6 34.49        10.2 0.22                           324 228 
 DBB  SZ EP   1   18 5 51.52                             112    -0.4 5  333 273 
                                                                                
