 2014  713 1808 45.3 L   6.778 -73.172148.7  RSN  7 0.3 1.9LRSN                1
 GAP=134        0.66       3.4     3.6  4.5  0.9745E-01  0.6526E+00 -0.1528E+01E
 Epicentro: LOS SANTOS - SANTANDER                                             3
 ACTION:UPD 15-03-16 20:43 OP:nd   STATUS:               ID:20140713180845 L   I
 OLDACT:UP  14-07-14 00:39 OP:cam  STATUS:               ID:20140713180000     3
 OLDACT:REG 14-07-13 22:11 OP:cam  STATUS:               ID:20140713180000     3
 2014-07-13-1800-00M.COL___282                                                 6
 STAT SP IPHASW D HRMM SECON CODA AMPLIT PERI AZIMU VELO AIN AR TRES W  DIS CAZ7
 BAR2 SZ EP       18 9  5.04                             172   -0.2110 20.5 183 
 BAR2 SZ ES       18 9 20.61                             172   -0.1910 20.5 183 
 BAR2 SZ I        18 9 21.42        36.1 0.32            174           20.5 183 
 BRR  HZ EP       18 9  6.60                             153   -0.1210 69.9 301 
 BRR  HN ES       18 9 23.86                             153    0.4610 69.9 301 
 BRR  HZ I        18 9 29.23        11.1 0.32            153           69.9 301 
 PAM  SZ EP     D 18 9  7.92                             150   -0.1610 81.1  40 
 RUS  HZ EP       18 9  9.41                             145    0.2010 98.4 174 
 RUS  HN ES       18 9 27.97                             145    0.1310 98.4 174 
 RUS  HZ I        18 9 28.52         6.1 0.46            149           98.4 174 
 PTB  HZ EP       18 9 12.09                             133   -0.14 9  144 260 
 PTB  HN ES       18 9 32.83                             133   -0.39 9  144 260 
 SPBC HZ EP       18 9 13.86                             130    0.16 9  159 219 
 SPBC HN ES       18 9 35.84                             130    0.01 9  159 219 
 SPBC HZ I        18 9 37.67         9.8 0.12            133            159 219 
 ZAR  HZ EP   1   18 9 18.29                             123    0.51 6  202 293 
                                                                                
