 2013  513 1821  1.6 L   6.813 -73.148142.1  RSN 11 0.5 2.3LRSN                1
 GAP= 70        1.27       4.0     3.9  7.3  0.1174E+01  0.4245E+01  0.4193E+01E
 Epicentro: LOS SANTOS - SANTANDER                                             3
 ACTION:UPD 13-06-20 09:50 OP:ep   STATUS:               ID:20130513182101 L   I
 2013-05-13-1820-00M.COL___254                                                 6
 STAT SP IPHASW D HRMM SECON CODA AMPLIT PERI AZIMU VELO AIN AR TRES W  DIS CAZ7
 BAR2 SZ EP       1821 20.89                             170    0.0810 24.7 189 
 BAR2 SZ ES       1821 35.46                             170   -0.3510 24.7 189 
 BAR2 SZ I        1821 37.10        77.1 0.18            170           24.7 189 
 BRR  HZ IP     C 1821 22.76                             152    0.4610 70.3 298 
 BRR  HN ES       1821 39.37                             152    0.9310 70.3 298 
 BRR  HZ I        1821 44.59        41.4 0.14            152           70.3 298 
 PAM  SZ EP       1821 23.85                             150    0.4810 76.5  40 
 PAM  SN ES       1821 40.56                             150    0.2110 76.5  40 
 PAM  SZ I        1821 42.70        50.6 0.44            154           76.5  40 
 RUS  HZ EP       1821 24.99                             143   -0.1010  102 176 
 RUS  HN ES       1821 42.85                             143   -0.5710  102 176 
 RUS  HZ I        1821 45.65        14.7 0.34            145            102 176 
 PTB  HZ EP       1821 27.90                             131   -0.36 9  148 258 
 PTB  HN ES       1821 48.74                             131   -0.33 9  148 258 
 PTB  HZ I        1821 51.44        25.9 0.13            132            148 258 
 TAM  HZ EP       1821 29.33                             130    0.28 9  156 105 
 TAM  HN ES       1821 50.39                             130   -0.07 9  156 105 
 OCA  HN ES       1821 50.61                             129   -0.63 9  159 353 
 ZAR  HN ES       1821 59.48                             122    0.70 9  203 292 
 ZAR  HZ I        1822  5.57        26.5 0.36            123            203 292 
 NOR  HZ EP       1821 37.47                             118    0.29 8  235 234 
 NOR  HN ES       1822  4.72                             118   -0.21 8  235 234 
 NOR  HZ I        1822  8.91        12.9 0.38            119            235 234 
 SML  HN ES       1822  4.88                             117   -1.27 8  242 335 
 CHI  HZ EP       1821 39.31                             116    0.08 8  250 195 
                                                                                
