 2017  513 1818 13.6 L   6.780 -73.165141.3  RSN  5 0.3 1.5LRSN                1
 GAP=135        0.88       4.4     4.0  8.6  0.1375E+01  0.3171E+01  0.2337E+01E
 Epicentro: LOS SANTOS - SANTANDER                                             3
 ACTION:UPD 17-06-16 13:36 OP:jn   STATUS:               ID:20170513181813 L   I
 OLDACT:UP  17-05-13 21:57 OP:edw  STATUS:               ID:20170513181744     3
 OLDACT:REG 17-05-13 19:39 OP:lv   STATUS:               ID:20170513181744     3
 2017-05-13-1818-00M.COL___323                                                 6
 STAT SP IPHASW D HRMM SECON CODA AMPLIT PERI AZIMU VELO AIN AR TRES W  DIS CAZ7
 BRR  HZ EP       1818 34.88                             152    0.6510 70.4 301 
 BRR  HE ES       1818 50.50                             152    0.1810 70.4 301 
 PAM  EZ EP       1818 35.32                             149   -0.2210 80.4  40 
 PAM  EN ES       1818 52.43                             149   -0.2210 80.4  40 
 PAM  EZ I        1818 54.03         5.6 0.62            150           80.4  40 
 RUS  HZ EP       1818 36.59                             143   -0.1910 98.6 175 
 RUS  HN ES       1818 55.08                             143    0.2310 98.6 175 
 RUS  HZ I        1818 56.30         5.3 0.36            144           98.6 175 
 PTB  HN ES       1819  0.06                             131   -0.50 9  145 260 
 ZAR  HN ES       1819 10.65                             121    0.01 9  203 293 
                                                                                
