 2016  713 1313 33.1 L   5.903 -74.066 95.8  RSN  4 0.1 1.3LRSN                1
 GAP=213        0.38       2.2     2.8  4.3 -0.4732E+00  0.2266E+01 -0.2654E+01E
 Epicentro: LA BELLEZA - SANTANDER                                             3
 ACTION:UPD 17-03-29 16:50 OP:lp   STATUS:               ID:20160713131333 L   I
 OLDACT:REG 16-07-13 20:39 OP:lv   STATUS:               ID:20160713130759     3
 2016-07-13-1307-59S.COL___325                                                 6
 STAT SP IPHASW D HRMM SECON CODA AMPLIT PERI AZIMU VELO AIN AR TRES W  DIS CAZ7
 SPBC HZ IP     C 1313 46.82                             163    0.0910 27.8 182 
 SPBC HE ES       1313 57.32                             163   -0.0110 27.8 182 
 SPBC HZ I        1313 58.50        16.3 0.26            161           27.8 182 
 PTB  HZ EP       1313 50.06                             136   -0.0810 82.6 328 
 PTB  HE ES       1314  3.47                             136    0.0710 82.6 328 
 PTB  HZ I        1314  3.75         2.9 0.09            137           82.6 328 
 NOR  HN ES       1314  5.58                             131   -0.1410 96.6 247 
 NOR  HZ I        1314  8.13         5.4 0.13            130           96.6 247 
 GUY2CHN ES   2   1314 19.09                             117    0.32 5  162 243 
 GUY2CHZ I        1314 23.92         2.1 0.26                           162 243 
                                                                                
