 2014  913 1306 11.5 L   6.823 -73.096152.9  RSN  8 0.3 1.8LRSN                1
 GAP=205        0.65       2.7     3.9  5.0  0.8810E+00  0.1742E+01 -0.1978E+01E
 Epicentro: LOS SANTOS - SANTANDER                                             3
 ACTION:UPD 14-10-03 23:04 OP:nd   STATUS:               ID:20140913130611 L   I
 OLDACT:REG 14-09-13 20:14 OP:spq  STATUS:               ID:20140913125818     3
 2014-09-13-1258-18M.COL___296                                                 6
 STAT SP IPHASW D HRMM SECON CODA AMPLIT PERI AZIMU VELO AIN AR TRES W  DIS CAZ7
 BAR2 SZ EP       13 6 32.40                             170    0.3010 27.3 200 
 BAR2 SZ ES   1   13 6 47.93                             170   -0.21 7 27.3 200 
 BAR2 SZ I        13 6 50.21        18.1 0.30            169           27.3 200 
 BRR  HE ES       13 6 51.19                             153    0.2710 74.9 295 
 BRR  HZ I        13 6 55.44        12.2 0.40            150           74.9 295 
 RUS  HZ EP   1   13 6 35.56                             145   -0.60 7  103 179 
 RUS  HE ES   1   13 6 55.57                             145    0.21 7  103 179 
 RUS  HZ I        13 6 56.28         5.8 0.32            147            103 179 
 PTB  HZ EP       13 6 39.49                             132   -0.13 9  154 258 
 PTB  HN ES       13 7  1.04                             132   -0.48 9  154 258 
 PTB  HZ I        13 7  2.78         4.5 0.06            132            154 258 
 SPBC HZ EP   1   13 6 41.36                             130    0.26 7  169 220 
 SPBC HN ES       13 7  4.14                             130   -0.02 9  169 220 
 SPBC HZ I        13 7  5.23         7.1 0.10            131            169 220 
 ZAR  HZ EP   1   13 6 45.17                             123    0.30 6  208 291 
 ZAR  HN ES   1   13 7 11.12                             123    0.24 6  208 291 
 ZAR  HZ I        13 7 17.35         3.1 0.11            124            208 291 
 NOR  HE ES       13 7 17.14                             119    0.13 8  241 235 
 NOR  HZ I        13 7 23.19         3.9 0.25            120            241 235 
 SML  HZ EP   1   13 6 48.63                             119    0.06 6  244 334 
 SML  HE ES       13 7 17.22                             119   -0.23 8  244 334 
 SML  HZ I        13 7 20.74         6.5 0.28            120            244 334 
                                                                                
