 2010  113 1625 55.4 L   6.837 -73.207139.3  RSN  5 0.2 1.8LRSN                1
 GAP=169        0.40       3.8     8.2  5.6  0.9550E+01  0.1957E+02  0.1147E+01E
 Epicentro: ZAPATOCA - SANTANDER                                               3
 ACTION:UP  10-08-24 09:44 OP:vdl  STATUS:               ID:20100113162554 L   I
 2010-01-13-1624-16S.COL___095                                                 6
 STAT SP IPHASW D HRMM SECON CODA AMPLIT PERI AZIMU VELO SNR AR TRES W  DIS CAZ7
 GIR2 SZ EP   1   1626 14.40                             168     0.2 7   27   3 
 BAR2 SZ IP       1626 14.40                             168     0.010   27 175 
 BAR2 SZ ES   1   1626 29.03                             168    -0.1 7   27 175 
 RUS  BZ EP   2   1626 18.47                             141    -0.5 5  105 173 
 RUS  BZ I        1626 19.61        11.4 0.20                           105 173 
 RUS  BE ES   2   1626 37.44                             141     0.2 5  105 173 
 CHI  HZ EP   2   1626 33.05                             115     0.0 4  251 193 
 CHI  HE ES   2   1627  2.50                             115     0.1 4  251 193 
 CHI  HZ I        1627  8.15         4.3 0.57                           251 193 
 MON  HE ES   2   1627 20.51                             108     0.0 3  345 309 
                                                                                
