 2013  413 1732 50.9 L   6.746 -73.164140.2  RSN  4 0.1 1.4LRSN                1
 GAP=149        0.39       5.1     3.0  4.3 -0.7269E+01 -0.1236E+00 -0.1305E+01E
 Epicentro: VILLANUEVA - SANTANDER                                             3
 ACTION:UPD 13-05-22 14:38 OP:EP   STATUS:               ID:20130413173250 L   I
 2013-04-13-1730-00M.COL___244                                                 6
 STAT SP IPHASW D HRMM SECON CODA AMPLIT PERI AZIMU VELO AIN AR TRES W  DIS CAZ7
 BAR2 SZ EP   1   1733  9.80                             173    0.05 7 17.1 187 
 BAR2 SZ ES   1   1733 24.42                             173   -0.03 7 17.1 187 
 BAR2 SZ I        1733 27.45        10.6 0.28            171           17.1 187 
 BRR  HZ EP       1733 11.33                             151   -0.2010 72.6 303 
 BRR  HN ES   1   1733 27.75                             151    0.13 7 72.6 303 
 PAM  SZ EP       1733 13.06                             148    0.1610 83.3  38 
 PAM  SN ES   1   1733 29.97                             148   -0.09 7 83.3  38 
 PAM  SZ I        1733 32.50         3.2 0.38            150           83.3  38 
 PTB  HE ES   1   1733 37.66                             131    0.04 7  145 261 
                                                                                
