 2011 1213 1518 36.5 L   6.342 -73.583111.6  RSN  8 0.3 2.2LRSN                1
 GAP=107        0.55       3.0     2.7  6.2 -0.4554E+00  0.2857E+01  0.3363E+01E
 Epicentro: SANTA HELENA DEL OPON - SANTANDER                                  3
 ACTION:UPD 12-07-13 16:15 OP:ep   STATUS:               ID:20111213151836 L   I
 2011-12-13-1517-59S.COL___182                                                 6
 STAT SP IPHASW D HRMM SECON CODA AMPLIT PERI AZIMU VELO AIN AR TRES W  DIS CAZ7
 BAR2 SZ IP     C 1518 53.44                             153    0.2310 52.2  58 
 BAR2 SZ I        1518 53.72       110.7 0.16                          52.2  58 
 BAR2 SZ ES   2   1519  6.19                             153   -0.07 5 52.2  58 
 RUS  HZ IP       1518 54.93                             144   -0.0610 74.4 132 
 RUS  HN ES   2   1519  9.36                             144   -0.05 5 74.4 132 
 RUS  HZ I        1519 12.89        20.9 0.44                          74.4 132 
 BRR  HZ EP   1   1518 55.23                             139    0.08 7 85.8 350 
 BRR  HZ I        1519 10.06        38.0 0.14                          85.8 350 
 BRR  HE ES   2   1519 10.23                             139    0.52 5 85.8 350 
 GIR2 SZ IP     C 1518 56.01                             137    0.1510 92.1  28 
 GIR2 SZ ES   2   1519 11.10                             137    0.13 5 92.1  28 
 PTB  HZ IP     C 1518 55.99                             135   -0.2810 99.0 283 
 PTB  HN ES   2   1519 10.86                             135   -0.84 5 99.0 283 
 PAM  SZ EP   1   1519  1.26                             123   -0.22 7  147  41 
 PAM  SN ES   2   1519 20.72                             123   -0.26 5  147  41 
 NOR  SZ EP   1   1519  3.06                             119    0.15 7  166 239 
 NOR  SN ES   2   1519 24.26                             119    0.74 5  166 239 
 YOP  SZ EP   2   1519  3.28                             119    0.04 5  169 130 
 YOP  SN ES   2   1519 23.81                             119   -0.30 5  169 130 
 YOP  SZ I        1519 25.88        24.7 0.24                           169 130 
                                                                                
