 2012  713 1437 59.0 L   6.775 -73.153149.7  RSN 11 0.4 2.7LRSN                1
 GAP= 72        1.00       4.2     3.6  5.7  0.2129E+00  0.3790E+01  0.1691E+01E
 Epicentro: LOS SANTOS - SANTANDER                                             3
 ACTION:UPD 12-08-14 11:44 OP:ep   STATUS:               ID:20120713143759 L   I
 2012-07-13-1430-00M.COL___197                                                 6
 STAT SP IPHASW D HRMM SECON CODA AMPLIT PERI AZIMU VELO AIN AR TRES W  DIS CAZ7
 BAR2 SZ IP       1438 19.17                             172     0.110   20 189 
 BAR2 SZ ES       1438 34.30                             172    -0.410   20 189 
 BAR2 SZ I        1438 37.19        92.1 0.38            174             20 189 
 BRR  HZ EP       1438 21.08                             153     0.410   72 301 
 BRR  HN ES       1438 38.44                             153     0.910   72 301 
 BRR  HZ I        1438 40.23       133.2 0.16            143             72 301 
 PAM  SZ EP       1438 21.95                             151     0.110   80  39 
 PAM  SE ES   1   1438 38.91                             151    -0.7 7   80  39 
 RUS  HZ EP       1438 22.99                             145     0.010   98 175 
 RUS  HN ES       1438 41.67                             145     0.010   98 175 
 PTB  HZ EP       1438 25.77                             133    -0.4 9  146 260 
 PTB  HE ES   2   1438 47.05                             133    -0.4 5  146 260 
 PTB  HZ I        1438 54.91        76.3 0.43            126            146 260 
 TAM  HZ EP       1438 27.26                             131     0.2 9  155 104 
 TAM  HN ES   1   1438 48.95                             131     0.1 7  155 104 
 OCA  HZ EP   1   1438 27.36                             130    -0.6 7  163 354 
 OCA  HZ I        1438 55.66        72.4 0.32            122            163 354 
 ZAR  HZ EP   1   1438 31.58                             123    -0.2 6  204 293 
 ZAR  HN ES   1   1438 56.97                             123    -0.3 6  204 293 
 ZAR  HZ I        1439  8.03        49.9 0.36            116            204 293 
 NOR  SZ EP       1438 34.94                             120     0.2 8  232 235 
 NOR  SN ES   1   1439  2.30                             120    -0.3 6  232 235 
 CHI  HZ EP   1   1438 36.87                             118     0.2 6  246 195 
 CHI  HN ES   1   1439  6.09                             118     0.1 6  246 195 
 CHI  HZ I        1439 16.08        17.9 0.33            115            246 195 
 HEL  HZ EP   1   1438 39.46                             116     0.2 6  271 256 
 HEL  HE ES   1   1439 10.42                             116    -0.3 6  271 256 
 HEL  HZ I        1439 17.82        27.1 0.38            111            271 256 
