 2015 1213 1038 53.5 L   6.789 -73.160148.0  RSN  4 0.4 1.5LRSN                1
 GAP=211        0.66      11.0    11.7  8.2  0.8796E+02 -0.6512E+01 -0.3973E+02E
 Epicentro: LOS SANTOS - SANTANDER                                             3
 ACTION:UPD 16-02-04 15:04 OP:cam  STATUS:               ID:20151213103853 L   I
 OLDACT:REG 15-12-13 20:36 OP:a    STATUS:               ID:20151213102749     3
 2015-12-13-1027-49M.COL___346                                                 6
 STAT SP IPHASW D HRMM SECON CODA AMPLIT PERI AZIMU VELO AIN AR TRES W  DIS CAZ7
 BAR2 EZ EP       1039 13.11                             172   -0.2410 21.9 186 
 BAR2 EZ ES       1039 28.91                             172    0.0610 21.9 186 
 BAR2 EZ I        1039 29.40         5.8 0.28            156           21.9 186 
 BRR  HZ EP   2   1039 15.05                             153    0.22 5 70.4 300 
 BRR  HN ES   2   1039 32.17                             153    0.69 5 70.4 300 
 BRR  HZ I        1040  7.31         8.4 0.40            143           70.4 300 
 ZAR  HZ EP   2   1039 26.55                             123    0.58 4  203 293 
 ZAR  HN ES   2   1039 50.53                             123   -0.78 4  203 293 
 ZAR  HZ I        1039 53.33         2.1 0.30            125            203 293 
 SML  HZ EP   2   1039 30.76                             118    0.47 4  244 336 
 SML  HN ES   2   1039 58.48                             118   -0.51 4  244 336 
 SML  HZ I        1040  0.33         1.5 0.12            125            244 336 
                                                                                
