 2013  613 1036  1.5 L   6.819 -73.151136.9  RSN  6 0.5 1.8LRSN                1
 GAP=183        0.92       5.0     7.6  7.5  0.8757E+01  0.1284E+02 -0.7253E+01E
 Epicentro: LOS SANTOS - SANTANDER                                             3
 ACTION:UPD 14-01-08 09:54 OP:ep   STATUS:               ID:20130613103601 L   I
 OLDACT:REG 13-06-13 14:03 OP:mh   STATUS:               ID:20130613102959     3
 2013-06-13-1029-59M.COL___260                                                 6
 STAT SP IPHASW D HRMM SECON CODA AMPLIT PERI AZIMU VELO AIN AR TRES W  DIS CAZ7
 BAR2 SZ EP   1   1036 20.64                             169    0.53 7 25.3 188 
 BAR2 SZ ES       1036 34.57                             169   -0.0510 25.3 188 
 BAR2 SZ I        1036 35.78         8.9 0.30            168           25.3 188 
 BRR  HZ EP     C 1036 22.17                             151    0.5710 69.7 297 
 BRR  HN ES   1   1036 37.31                             151    0.02 7 69.7 297 
 BRR  HZ I        1036 40.64         8.7 0.16            148           69.7 297 
 RUS  HZ EP   1   1036 24.78                             141    0.23 7  103 176 
 RUS  HN ES   1   1036 42.30                             141   -0.23 7  103 176 
 RUS  HN I        1036 44.25         3.6 0.40            145            103 176 
 PTB  HZ EP       1036 27.04                             130   -0.70 9  148 258 
 PTB  HN ES   2   1036 47.83                             130   -0.38 5  148 258 
 PTB  HN I        1036 51.68         7.6 0.16            129            148 258 
 OCA  HZ EP   1   1036 28.50                             128   -0.42 7  158 353 
 OCA  HN ES   1   1036 49.87                             128   -0.44 7  158 353 
 OCA  HN I        1036 53.81        29.4 0.44            129            158 353 
 ZAR  HZ EP   1   1036 33.49                             121    0.25 6  203 292 
 ZAR  HE ES   2   1036 58.91                             121    0.92 4  203 292 
 ZAR  HE I        1037  5.35        14.4 0.16            121            203 292 
                                                                                
