 2012  313 1347 27.9 L   6.813 -73.354126.0  RSN  4 0.2 1.6LRSN                1
 GAP=193        0.51       4.5     4.1  5.3  0.8339E+01  0.2652E+01  0.1982E+01E
 ACTION:UP  12-03-31 23:19 OP:EP   STATUS:               ID:20120313134727 L   I
 2012-03-13-1340-00M.COL___196                                                 6
 STAT SP IPHASW D HRMM SECON CODA AMPLIT PERI AZIMU VELO SNR AR TRES W  DIS CAZ7
 BAR2 SZ EP       1347 45.46                             165     0.110   31 142 
 BAR2 SZ ES   1   1347 58.72                             165    -0.3 7   31 142 
 BAR2 SZ I        1347 59.91        15.2 0.32                            31 142 
 BRR  HZ EP       1347 45.89                             156     0.110   51 309 
 BRR  HZ I        1347 50.08        10.6 0.10                            51 309 
 BRR  HE ES   1   1347 59.90                             156     0.1 7   51 309 
 RUS  HZ EP   1   1347 50.33                             138     0.1 7  106 164 
 RUS  HN ES   1   1348  7.68                             138     0.1 7  106 164 
 RUS  HZ I        1348 10.79         3.1 0.33                           106 164 
 PTB  HZ EP   1   1347 50.87                             132    -0.4 7  126 256 
 PTB  HN ES   1   1348  9.60                             132     0.1 7  126 256 
 PTB  HZ I        1348 12.97         7.3 0.30                           126 256 
                                                                                
