 2010 1213 1305 39.7 L   6.779 -73.231146.4  RSN  5 0.4 2.1LRSN                1
 GAP=175        0.79       5.3    23.4 11.5 -0.2458E+02  0.2754E+02 -0.2094E+02E
 Epicentro: ZAPATOCA - SANTANDER                                               3
 ACTION:UP  11-01-14 15:24 OP:pat  STATUS:               ID:20101213130539 L   I
 2010-12-13-1304-06S.COL___137                                                 6
 STAT SP IPHASW D HRMM SECON CODA AMPLIT PERI AZIMU VELO SNR AR TRES W  DIS CAZ7
 BTL  SZ EP   1   13 5 58.74                             174    -0.6 7   16 345 
 BAR2 SZ IP       13 5 59.55                             171     0.110   21 166 
 BAR2 SZ ES   2   13 6 14.17                             171    -0.6 5   21 166 
 RUS  HZ EP   1   13 6  3.88                             144     0.4 7   99 171 
 RUS  HE ES   2   13 6 22.25                             144     0.3 5   99 171 
 RUS  HZ I        13 6 23.43        16.6 0.31                            99 171 
 GRA  SZ IP       13 6  5.36                             136    -0.110  131  21 
 GRA  SZ ES   2   13 6 25.61                             136     0.0 5  131  21 
 OCA  SZ EP   1   13 6  8.12                             129    -0.1 7  162 357 
 OCA  SZ ES   2   13 6 31.41                             129     0.9 5  162 357 
 OCA  SZ I        13 6 36.11        21.4 0.30                           162 357 
                                                                                
