 2016 1013 1121 45.1 L   6.815 -73.158142.7  RSN 12 0.4 2.4LRSN                1
 GAP=134        0.86       2.5     3.5  5.2 -0.1893E+01  0.6004E+01  0.8271E-01E
 Epicentro: LOS SANTOS - SANTANDER                                             3
 ACTION:UPD 16-11-09 19:19 OP:rebc STATUS:               ID:20161013112145 L   I
 OLDACT:UP  16-10-13 23:36 OP:and  STATUS:               ID:20161013111745     3
 OLDACT:REG 16-10-13 19:57 OP:and  STATUS:               ID:20161013111745     3
 2016-10-13-1118-00M.COL___366                                                 6
 STAT SP IPHASW D HRMM SECON CODA AMPLIT PERI AZIMU VELO AIN AR TRES W  DIS CAZ7
 BAR2 EZ IP     C 1122  4.31                             170   -0.1010 24.8 186 
 BAR2 EZ ES       1122 19.52                             170    0.0610 24.8 186 
 BAR2 EZ I        1122 20.54        94.3 0.31            169           24.8 186 
 BRR  HZ IP     C 1122  6.09                             153    0.2610 69.2 298 
 BRR  HN ES   3   1122 23.40                             153    1.43 2 69.2 298 
 BRR  HZ I        1122 27.54        32.1 0.13            149           69.2 298 
 PAM  EZ EP       1122  7.12                             150    0.1410 76.9  41 
 PAM  EN ES       1122 24.40                             150    0.3710 76.9  41 
 PAM  EZ I        1122 26.81        37.6 0.58            155           76.9  41 
 RUS  HZ EP   2   1122  8.61                             142   -0.10 5  102 175 
 RUS  HN ES       1122 27.03                             142   -0.0710  102 175 
 RUS  HZ I        1122 27.93        23.2 0.28            146            102 175 
 PTB  HZ EP       1122 11.25                             131   -0.50 9  147 258 
 PTB  HN ES       1122 32.06                             131   -0.46 9  147 258 
 PTB  HZ I        1122 37.75        35.0 0.13            131            147 258 
 OCA  HZ EP       1122 12.55                             129   -0.47 9  158 354 
 OCA  HN ES       1122 34.70                             129   -0.08 9  158 354 
 OCA  HZ I        1122 38.15        57.1 0.24            131            158 354 
 SPBC HZ EP       1122 13.45                             128    0.01 9  164 218 
 SPBC HN ES       1122 35.17                             128   -0.35 9  164 218 
 SPBC HZ I        1122 35.92        39.8 0.14            129            164 218 
 ZAR  HZ EP       1122 17.67                             122    0.49 9  202 292 
 ZAR  HN ES       1122 41.90                             122   -0.27 9  202 292 
 ZAR  HZ I        1122 48.92        27.1 0.40            122            202 292 
 NOR  HZ EP   4   1122 22.99                             118    2.32 0  235 234 
 NOR  HN ES       1122 48.81                             118    0.42 8  235 234 
 NOR  HZ I        1122 54.05        12.8 0.22            119            235 234 
 CHI  HZ EP       1122 22.64                             116   -0.16 8  250 195 
 CHI  HN ES       1122 51.86                             116   -0.32 8  250 195 
 CHI  HZ I        1122 54.18        10.2 0.38            119            250 195 
 ROSC BZ EP       1122 24.02                             116    0.86 8  254 211 
 ROSC BN ES   4   1122 54.42                             116    1.59 0  254 211 
 ROSC BZ I        1122 59.01        25.0 0.40            118            254 211 
 HEL  HZ EP   3   1122 26.57                             114    1.49 2  271 255 
 HEL  HN ES   2   1122 57.20                             114    0.95 4  271 255 
 HEL  HZ I        1123  3.64        10.1 0.54            115            271 255 
                                                                                
