 2013  713 1120 47.6 L   6.779 -73.156140.8  RSN  7 0.5 1.7LRSN                1
 GAP=136        1.32       6.7     6.2 10.1  0.7200E+01  0.1849E+02  0.5846E+01E
 Epicentro: LOS SANTOS - SANTANDER                                             3
 ACTION:UPD 13-08-12 10:37 OP:ep   STATUS:               ID:20130713112047 L   I
 OLDACT:DUP 13-07-13 18:08 OP:stll STATUS:               ID:20130713111842d    3
 2013-07-13-1118-41M.COL___222                                                 6
 STAT SP IPHASW D HRMM SECON CODA AMPLIT PERI AZIMU VELO AIN AR TRES W  DIS CAZ7
 BAR2 SZ EP       1121  6.76                             171    0.1610 20.8 188 
 BAR2 SZ ES       1121 21.36                             171   -0.0410 20.8 188 
 BAR2 SZ I        1121 22.70         8.0 0.34            171           20.8 188 
 GIR2 SZ EP       1121  6.88                             166    0.1210 33.4 353 
 BRR  HZ EP       1121  8.58                             152    0.3510 71.3 301 
 BRR  HN ES       1121 25.28                             152    0.9710 71.3 301 
 BRR  HN I        1121 26.12        17.2 0.42            153           71.3 301 
 PAM  SN ES       1121 25.70                             149   -0.8010 80.0  39 
 PAM  SN I        1121 27.68        11.8 0.46            151           80.0  39 
 RUS  HZ EP       1121 11.06                             143    0.3510 98.3 175 
 RUS  HN ES       1121 28.73                             143    0.0010 98.3 175 
 RUS  HN I        1121 31.11         6.7 0.38            144           98.3 175 
 PTB  HZ EP       1121 13.61                             131   -0.42 9  146 260 
 PTB  HN ES       1121 33.76                             131   -0.88 9  146 260 
 PTB  HN I        1121 35.79         6.4 0.34            133            146 260 
 ZAR  HE ES       1121 44.79                             121    0.03 9  204 293 
                                                                                
