 2017  913 1230 50.3 L   6.763 -73.106144.1  RSN  8 0.3 1.9LRSN                1
 GAP=143        0.72       2.9     3.3  4.7 -0.1832E+01  0.5698E+01  0.6185E+00E
 Epicentro: LOS SANTOS - SANTANDER                                             3
 ACTION:UPD 17-10-05 19:12 OP:rebc STATUS:               ID:20170913123050 L   I
 OLDACT:REG 17-09-13 21:15 OP:dnl  STATUS:               ID:20170913122743     3
 2017-09-13-1228-00M.COL___448                                                 6
 STAT SP IPHASW D HRMM SECON CODA AMPLIT PERI AZIMU VELO AIN AR TRES W  DIS CAZ7
 BAR2 EZ IP       1231  9.60                             171   -0.0910 20.7 204 
 BAR2 EZ ES       1231 24.37                             171   -0.4310 20.7 204 
 BAR2 EZ I        1231 25.68        22.6 0.18            172           20.7 204 
 BRR  HZ EP       1231 11.50                             150   -0.1210 77.0 300 
 BRR  HE ES       1231 28.51                             150    0.2810 77.0 300 
 BRR  HZ I        1231 28.81        17.9 0.16            149           77.0 300 
 PAM  EZ EP       1231 12.49                             150    0.1110 78.0  35 
 PAM  EE ES       1231 29.69                             150    0.0910 78.0  35 
 PAM  EZ I        1231 33.30         7.3 0.32            151           78.0  35 
 RUS  HZ EP       1231 13.59                             145    0.0010 96.3 178 
 RUS  HN ES       1231 32.04                             145    0.3010 96.3 178 
 RUS  HZ I        1231 33.14         9.9 0.32            147           96.3 178 
 SPBC HZ EP   2   1231 18.17                             129   -0.48 5  163 221 
 SPBC HE ES       1231 40.77                             129    0.02 9  163 221 
 SPBC HZ I        1231 43.02        10.2 0.32            130            163 221 
 ZAR  HZ EP       1231 22.72                             121   -0.51 8  210 293 
 ZAR  HE ES       1231 49.16                             121    0.26 8  210 293 
 ZAR  HZ I        1231 56.64        11.0 0.20            121            210 293 
 NOR  HZ EP       1231 26.27                             118    0.19 8  236 236 
 NOR  HN ES       1231 53.42                             118   -0.55 8  236 236 
 NOR  HZ I        1231 56.38         4.7 0.18            119            236 236 
 GUY2CHZ EP   2   1231 34.76                             112    0.78 4  302 236 
 GUY2CHN ES       1232  8.52                             112    0.47 7  302 236 
 GUY2CHZ I        1232 15.38         2.5 0.26                           302 236 
                                                                                
