 2017 1213 1104 56.8 L   6.795 -73.176144.5  RSN  9 0.5 1.8LRSN                1
 GAP=109        1.04       3.2     3.7  6.3 -0.9680E+00  0.6175E+01  0.3591E+01E
 Epicentro: LOS SANTOS - SANTANDER                                             3
 ACTION:UPD 18-01-04 13:20 OP:rebc STATUS:               ID:20171213110456 L   I
 OLDACT:REG 17-12-13 20:27 OP:osc  STATUS:               ID:20171213105739     3
 2017-12-13-1058-00M.COL___449                                                 6
 STAT SP IPHASW D HRMM SECON CODA AMPLIT PERI AZIMU VELO AIN AR TRES W  DIS CAZ7
 BAR2 EZ EP       11 5 16.14                             171   -0.1510 22.4 182 
 BAR2 EZ ES       11 5 31.69                             171    0.2310 22.4 182 
 BAR2 EZ I        11 5 32.72        10.2 0.16            172           22.4 182 
 PAM  EZ EP     D 11 5 19.13                             150    0.0710 79.9  41 
 PAM  EN ES       11 5 35.92                             150   -0.4910 79.9  41 
 PAM  EZ I        11 5 38.91         6.8 0.42            153           79.9  41 
 PTB  HZ EP       11 5 22.76                             132   -0.63 9  144 259 
 PTB  HN ES       11 5 43.94                             132   -0.16 9  144 259 
 PTB  HZ I        11 5 51.29         4.3 0.40            134            144 259 
 OCA  HZ EP       11 5 24.89                             129   -0.17 9  160 354 
 OCA  HN ES       11 5 47.43                             129    0.36 9  160 354 
 OCA  HZ I        11 5 52.32        14.1 0.26            131            160 354 
 SPBC HZ EP       11 5 25.26                             129    0.27 9  161 218 
 SPBC HE ES       11 5 47.27                             129    0.31 9  161 218 
 SPBC HZ I        11 5 49.37         9.9 0.10            132            161 218 
 YPLC HZ EP       11 5 26.64                             126    0.00 9  178 150 
 YPLC HE ES       11 5 50.13                             126    0.23 9  178 150 
 YPLC HZ I        11 5 53.18         6.7 0.36            130            178 150 
 ZAR  HZ EP       11 5 28.87                             122   -0.03 9  201 293 
 ZAR  HN ES       11 5 54.32                             122    0.41 9  201 293 
 ZAR  HZ I        11 5 59.69         7.3 0.32            124            201 293 
 GUY2CHZ EP       11 5 41.36                             112    1.32 7  298 234 
 GUY2CHN ES       11 6 12.82                             112   -0.92 7  298 234 
 GUY2CHZ I        11 6 24.50         2.2 0.52                           298 234 
 PRA  HZ EP       11 5 49.52                             106   -0.54 6  390 209 
 PRA  HE ES       11 6 31.31                             106   -0.27 6  390 209 
 SJC  HZ EP   4   11 5 50.28                             105   -1.91 0  408 327 
 SJC  HE ES   4   11 6 33.71                             105   -1.66 0  408 327 
                                                                                
