 2012  413 1628 40.6 L   6.797 -73.191134.5  RSN  8 0.3 1.9LRSN                1
 GAP=131        0.65       3.9     4.3  6.2 -0.5556E+01  0.1052E+02 -0.7083E-01E
 Epicentro: ZAPATOCA - SANTANDER                                               3
 ACTION:UPD 12-07-05 11:53 OP:tino STATUS:               ID:20120413162840 L   I
 2012-04-13-1627-59S.COL___189                                                 6
 STAT SP IPHASW D HRMM SECON CODA AMPLIT PERI AZIMU VELO AIN AR TRES W  DIS CAZ7
 BAR2 SZ EP       1628 58.83                             170     0.010   23 177 
 BAR2 SZ ES   1   1629 13.11                             170     0.1 7   23 177 
 BAR2 SZ I        1629 14.99        29.3 0.19                            23 177 
 BRR  HZ EP   1   1629  0.74                             152     0.5 7   67 301 
 BRR  HZ I        1629 20.68        14.3 0.15                            67 301 
 PAM  SZ EP   1   1629  1.74                             147    -0.1 7   81  42 
 PAM  SZ I        1629  1.97        10.9 0.16                            81  42 
 PAM  SN ES   1   1629 18.50                             147     0.1 7   81  42 
 RUS  HZ EP   1   1629  2.85                             141    -0.4 7  101 173 
 RUS  HE ES   1   1629 20.93                             141     0.0 7  101 173 
 RUS  HZ I        1629 22.75        11.8 0.27                           101 173 
 PTB  HZ EP   1   1629  5.98                             130    -0.2 7  143 259 
 PTB  HN ES   1   1629 25.67                             130    -0.5 7  143 259 
 PTB  HZ I        1629 29.81        10.9 0.18                           143 259 
 OCA  SZ ES   2   1629 29.07                             127    -0.3 5  160 355 
 NOR  SZ EP   1   1629 15.62                             116     0.4 6  230 234 
 NOR  SE ES   1   1629 42.58                             116     0.4 6  230 234 
 PRA  HZ EP   1   1629 33.06                             105    -0.3 4  389 209 
                                                                                
