 2012  413 1740 59.9 L   6.699 -73.186151.9  RSN  5 0.3 1.4LRSN                1
 GAP=136        0.59       5.3     4.9  8.9  0.1079E+02  0.1266E+02  0.4957E+01E
 Epicentro: VILLANUEVA - SANTANDER                                             3
 ACTION:UPD 12-07-05 11:53 OP:tino STATUS:               ID:20120413174059 L   I
 2012-04-13-1740-00M.COL___181                                                 6
 STAT SP IPHASW D HRMM SECON CODA AMPLIT PERI AZIMU VELO AIN AR TRES W  DIS CAZ7
 BRR  HE ES   2   1741 39.16                             153     0.2 5   74 308 
 PAM  SE ES   2   1741 41.54                             148    -0.3 5   89  37 
 RUS  HZ EP   1   1741 23.65                             148     0.1 7   90 173 
 RUS  HZ I        1741 24.67         3.4 0.18                            90 173 
 RUS  HN ES   1   1741 42.09                             148     0.1 7   90 173 
 PTB  HZ EP   1   1741 26.63                             135    -0.2 7  142 263 
 PTB  HN ES   1   1741 47.41                             135    -0.4 7  142 263 
 PTB  HZ I        1741 48.56         3.7 0.15                           142 263 
 ZAR  HN ES   1   1741 58.79                             124     0.4 6  205 296 
 ZAR  HZ I        1742  3.97         2.9 0.37                           205 296 
                                                                                
