 2017  613 1850 16.7 L   6.773 -73.079149.5  RSN  7 0.5 2.1LRSN                1
 GAP=222        1.01       5.9     5.6  9.5  0.8848E+01 -0.1387E+01  0.1937E+02E
 Epicentro: LOS SANTOS - SANTANDER                                             3
 ACTION:UPD 17-09-14 16:51 OP:jn   STATUS:               ID:20170613185016 L   I
 OLDACT:REG 17-06-13 21:07 OP:dhb  STATUS:               ID:20170613184744     3
 2017-06-13-1848-00M.COL___368                                                 6
 STAT SP IPHASW D HRMM SECON CODA AMPLIT PERI AZIMU VELO AIN AR TRES W  DIS CAZ7
 BRR  HZ EP       1850 39.13                             151    0.4610 79.1 298 
 BRR  HN ES       1850 55.84                             151   -0.0010 79.1 298 
 BRR  HZ I        1850 59.51        18.2 0.12            148           79.1 298 
 PTB  HZ EP       1850 43.96                             131   -0.59 9  154 260 
 PTB  HN ES       1851  5.65                             131   -0.64 9  154 260 
 PTB  HZ I        1851  7.68        12.9 0.12            129            154 260 
 ZAR  HZ EP       1850 50.36                             122    0.19 8  212 292 
 ZAR  HN ES       1851 16.49                             122    0.18 8  212 292 
 ZAR  HZ I        1851 24.37        11.3 0.20            121            212 292 
 NOR  HZ EP   4   1850 51.43                             119   -1.65 0  239 236 
 NOR  HN ES       1851 22.30                             119    0.82 8  239 236 
 NOR  HZ I        1851 26.97        10.3 0.14            117            239 236 
 HEL  HZ EP       1850 57.20                             115   -0.58 7  279 257 
 HEL  HN ES       1851 30.33                             115    0.48 7  279 257 
 HEL  HZ I        1851 37.85         9.6 0.26            114            279 257 
 PTGC HZ EP   2   1851  0.49                             113    0.41 4  303 160 
 PTGC HE ES       1851 33.81                             113   -0.13 7  303 160 
 PTGC HZ I        1851 36.90         8.7 0.30            113            303 160 
 CBOC HZ EP   2   1851  5.09                             110    0.65 3  340 253 
 CBOC HN ES       1851 41.26                             110   -0.44 7  340 253 
 CBOC HZ I        1851 53.00         2.2 0.64            110            340 253 
                                                                                
