 2013  913 1614 37.8 L   6.781 -73.120151.4  RSN 14 0.5 2.6LRSN                1
 GAP=141        1.05       3.2     5.5  5.9  0.5966E+00  0.1303E+02  0.8091E+00E
 Epicentro: LOS SANTOS - SANTANDER                                             3
 ACTION:UPD 13-10-22 09:22 OP:ep   STATUS:               ID:20130913161437 L   I
 OLDACT:UP  13-09-13 18:43 OP:cam  STATUS:               ID:20130913160959     3
 OLDACT:UP  13-09-13 18:43 OP:cam  STATUS:               ID:20130913160959     3
 OLDACT:REG 13-09-13 17:32 OP:cam  STATUS:               ID:20130913160959     3
 2013-09-13-1609-59M.COL___269                                                 6
 STAT SP IPHASW D HRMM SECON CODA AMPLIT PERI AZIMU VELO AIN AR TRES W  DIS CAZ7
 BAR2 SZ IP     C 1614 58.04                             171   -0.0310 22.0 198 
 BAR2 SZ ES   1   1615 13.96                             171    0.07 7 22.0 198 
 BAR2 SZ I        1615 15.30        69.5 0.22            168           22.0 198 
 BRR  HZ IP     D 1615  0.13                             152    0.3910 74.7 299 
 BRR  HE ES       1615 16.95                             152    0.0910 74.7 299 
 BRR  HZ I        1615 22.39        60.8 0.12            143           74.7 299 
 PAM  SZ EP     D 1615  1.18                             152    0.5910 77.2  37 
 PAM  SN ES       1615 18.45                             152    0.0710 77.2  37 
 PAM  SZ I        1615 21.36        41.8 0.40            150           77.2  37 
 RUS  HZ IP     D 1615  1.75                             145   -0.1910 98.4 178 
 RUS  HE ES       1615 20.21                             145   -0.5710 98.4 178 
 RUS  HZ I        1615 21.48        33.2 0.26            147           98.4 178 
 PTB  HZ EP       1615  4.64                             133   -0.80 9  150 260 
 PTB  HN ES   4   1615 25.88                             133   -1.12 0  150 260 
 PTB  HZ I        1615 30.71        62.5 0.16            127            150 260 
 SPBC HZ EP       1615  6.86                             130    0.11 9  163 220 
 SPBC HE ES   1   1615 30.00                             130    0.67 7  163 220 
 OCA  HZ EP   1   1615  6.92                             130    0.16 7  163 352 
 OCA  HN ES   1   1615 28.66                             130   -0.70 7  163 352 
 OCA  HZ I        1615 39.58        35.9 0.44            125            163 352 
 SPBC HZ I        1615 31.18        58.8 0.20            127            163 220 
 ZAR  HZ EP       1615 11.19                             123    0.23 8  207 292 
 ZAR  HE ES   1   1615 37.15                             123    0.32 6  207 292 
 ZAR  HZ I        1615 43.00        78.7 0.42            118            207 292 
 CHI  HZ EP       1615 15.89                             118    0.22 8  247 196 
 CHI  HN ES   1   1615 44.64                             118   -0.58 6  247 196 
 CHI  HZ I        1615 49.20        15.7 0.64            117            247 196 
 SML  HZ EP   1   1615 15.30                             118    0.23 6  247 335 
 SML  HN ES       1615 43.99                             118   -0.15 8  247 335 
 SML  HZ I        1615 52.11        45.1 0.26            114            247 335 
 ROSC BZ EP   4   1615 17.47                             118    1.28 0  252 212 
 HEL  HZ EP   1   1615 19.32                             116    0.78 6  274 256 
 HEL  HN ES   4   1615 52.48                             116    2.15 0  274 256 
 HEL  HZ I        1615 56.94        34.5 0.46            112            274 256 
 URE  HZ EP       1615 18.50                             114   -1.02 7  287 292 
 URE  HZ I        1616  2.95        35.3 0.36            111            287 292 
 GUY2CHZ EP       1615 22.57                             113    0.78 7  302 235 
 RREF HZ EP   4   1615 25.88                             112    1.60 0  323 230 
 PRA  HZ EP   4   1615 31.31                             107   -0.16 0  392 210 
 SJC  HZ EP   1   1615 33.03                             106   -0.90 4  413 327 
 SJC  HN ES   4   1616 14.45                             106   -3.26 0  413 327 
 SJC  HZ I        1616 18.59         7.1 0.48            104            413 327 
                                                                                
