 2016  913 1249 17.2 L   6.893 -73.110144.1  RSN  4 0.4 1.2LRSN                1
 GAP=147        0.79       5.3     5.2  8.1 -0.6559E+01  0.1018E+02  0.6047E+01E
 Epicentro: PIEDECUESTA - SANTANDER                                            3
 ACTION:UPD 17-08-17 21:09 OP:lp   STATUS:               ID:20160913124917 L   I
 OLDACT:REG 16-09-13 21:05 OP:dnl  STATUS:               ID:20160913124736     3
 2016-09-13-1248-00M.COL___312                                                 6
 STAT SP IPHASW D HRMM SECON CODA AMPLIT PERI AZIMU VELO AIN AR TRES W  DIS CAZ7
 BAR2 EZ EP   2   1249 37.37                             166    0.42 5 34.2 194 
 BAR2 EZ ES       1249 52.09                             166   -0.2210 34.2 194 
 BAR2 EZ I        1249 53.90         4.8 0.18            167           34.2 194 
 PAM  EZ EP   2   1249 37.60                             153   -1.09 5 67.0  43 
 PAM  EE ES       1249 55.84                             153    0.4210 67.0  43 
 PAM  EZ I        1249 57.37         3.9 0.12            156           67.0  43 
 RUS  HZ EP       1249 41.67                             141    0.0810  111 178 
 RUS  HN ES       1250  0.56                             141   -0.0210  111 178 
 RUS  HZ I        1250  1.76         2.0 0.34            143            111 178 
 PTB  HZ EP   2   1249 45.15                             130    0.51 5  154 255 
 PTB  HN ES       1250  5.78                             130   -0.23 9  154 255 
 PTB  HZ I        1250  9.53         1.2 0.24            131            154 255 
                                                                                
