 2011  413 1839  9.4 L   7.431 -73.468101.3  RSN  5 0.2 1.8LRSN                1
 GAP=153        0.44       2.2     4.2  5.5 -0.7904E+00 -0.8180E+01 -0.2194E+01E
 Epicentro: SABANA DE TORRES - SANTANDER                                       3
 ACTION:UP  11-06-22 15:30 OP:REBC STATUS:               ID:20110413183909 L   I
 2011-04-13-1838-02S.COL___138                                                 6
 STAT SP IPHASW D HRMM SECON CODA AMPLIT PERI AZIMU VELO SNR AR TRES W  DIS CAZ7
 BRR  HZ EP   1   1839 24.16                             154     0.0 7   45 217 
 BRR  HE ES   1   1839 35.86                             154     0.1 7   45 217 
 BRR  HZ I        1839 37.05        25.3 0.31                            45 217 
 PAM  SZ EP   1   1839 27.78                             137     0.0 7   85  97 
 PAM  SN ES   2   1839 41.89                             137    -0.2 5   85  97 
 GRA  SZ EP       1839 27.81                             135     0.210   89  56 
 OCA  SZ EP   1   1839 27.44                             135    -0.3 7   91  10 
 OCA  SZ ES   1   1839 42.06                             135     0.0 7   91  10 
 OCA  SZ I        1839 43.45        17.6 0.17                            91  10 
 BAR2 SZ EP   1   1839 28.34                             132    -0.1 7   98 161 
 BAR2 SZ ES   1   1839 43.37                             132     0.0 7   98 161 
 BAR2 SZ I        1839 44.41        12.3 0.13                            98 161 
                                                                                
