 2010  313 1016 25.7 L   6.073 -74.231  4.1  RSN  4 0.1 1.1LRSN                1
 GAP=176        0.39       2.2     1.2  3.1 -0.1923E+00  0.4647E-01 -0.1072E+01E
 Epicentro: CIMITARRA - SANTANDER                                              3
 ACTION:UP  10-08-24 09:53 OP:vdl  STATUS:               ID:20100313101625 L   I
 2010-03-13-1010-41S.COL___095                                                 6
 STAT SP IPHASW D HRMM SECON CODA AMPLIT PERI AZIMU VELO SNR AR TRES W  DIS CAZ7
 BRR  HZ EP       1016 44.77                              43    -0.110  128  27 
 BRR  HN ES   1   1016 59.96                              43     0.1 7  128  27 
 RUS  HZ I        1016 46.14         3.7 0.35                           129  99 
 RUS  HN ES   1   1017  0.88                              43    -0.1 7  129  99 
 BAR2 SZ ES   2   1017  0.85                              43     0.2 5  129  64 
 RUS  HZ EP       1016 45.61                              43     0.110  129  99 
 HEL  HZ EP       1016 47.56                              37     0.110  144 275 
 HEL  HZ I        1016 47.96         3.1 0.47                           144 275 
 HEL  HN ES   1   1017  4.22                              37    -0.2 7  144 275 
                                                                                
