 2016 1113 1850  2.0 L   6.794 -73.171142.3  RSN 11 0.4 2.4LRSN                1
 GAP=101        0.94       4.0     2.8  5.7 -0.5124E+00  0.2134E+01  0.6770E+01E
 Epicentro: LOS SANTOS - SANTANDER                                             3
 ACTION:UPD 17-10-26 21:07 OP:lp   STATUS:               ID:20161113185002 L   I
 OLDACT:UP  16-11-14 01:24 OP:and  STATUS:               ID:20161113184745     3
 OLDACT:UP  16-11-14 01:20 OP:and  STATUS:               ID:20161113184745     3
 OLDACT:UP  16-11-14 01:15 OP:and  STATUS:               ID:20161113184745     3
 OLDACT:REG 16-11-13 20:58 OP:dnl  STATUS:               ID:20161113184745     3
 2016-11-13-1848-00M.COL___343                                                 6
 STAT SP IPHASW D HRMM SECON CODA AMPLIT PERI AZIMU VELO AIN AR TRES W  DIS CAZ7
 BAR2 EZ EP       1850 21.31                             171    0.1110 22.3 183 
 BAR2 EZ ES       1850 35.99                             171   -0.1810 22.3 183 
 BAR2 EZ I        1850 38.91        56.6 0.34            167           22.3 183 
 BRR  HZ IP     C 1850 23.07                             153    0.4110 69.1 300 
 BRR  HN ES       1850 39.59                             153    0.8110 69.1 300 
 BRR  HZ I        1850 44.32        28.5 0.22            153           69.1 300 
 PAM  EZ IP     C 1850 24.16                             149    0.1610 79.7  41 
 PAM  EN ES       1850 40.41                             149   -0.7410 79.7  41 
 PAM  EZ I        1850 43.46        20.0 0.44            156           79.7  41 
 PTB  HZ EP       1850 27.97                             132   -0.46 9  145 259 
 PTB  HN ES       1850 48.74                             132   -0.30 9  145 259 
 PTB  HZ I        1850 53.93        19.0 0.26            132            145 259 
 TAM  HZ EP       1850 29.69                             129    0.04 9  158 104 
 TAM  HN ES       1850 51.49                             129    0.28 9  158 104 
 ZAR  HZ EP       1850 33.87                             122   -0.11 9  202 293 
 ZAR  HN ES       1850 58.72                             122   -0.21 9  202 293 
 ZAR  HZ I        1851  4.84        20.1 0.38            124            202 293 
 NOR  HZ EP       1850 37.18                             118   -0.06 8  232 234 
 NOR  HN ES       1851  4.95                             118    0.22 8  232 234 
 NOR  HZ I        1851 10.83        14.7 0.24            119            232 234 
 CHI  HZ EP       1850 39.60                             116    0.24 8  247 195 
 CHI  HE ES       1851  8.17                             116   -0.33 8  247 195 
 CHI  HZ I        1851 13.77        10.5 0.40            118            247 195 
 ROSC BZ EP   4   1850 41.76                             116    2.05 0  251 211 
 ROSC BN ES   4   1851 12.07                             116    2.95 0  251 211 
 ROSC BZ I        1851 15.74        43.2 0.35            118            251 211 
 ANIL HZ EP   4   1850 53.21                             108    1.82 0  355 224 
 ANIL HN ES   4   1851 33.78                             108    3.87 0  355 224 
 ANIL HZ I        1851 37.31        30.2 0.30            109            355 224 
 PRA  HZ EP   9   1850 52.70                             106   -2.47 0  390 209 
 PRA  HN ES       1851 34.45                             106    0.28 6  390 209 
 PRA  HZ I        1851 38.94        10.4 0.34            108            390 209 
                                                                                
