 2017  213 1150 20.3 L   7.574 -73.232136.2  RSN  4 0.3 1.5LRSN                1
 GAP=244        0.78       8.7     5.0  7.2 -0.2171E+02  0.1420E+02 -0.2040E+02E
 Epicentro: EL PLAYON - SANTANDER                                              3
 ACTION:UPD 17-05-24 15:36 OP:jn   STATUS:               ID:20170213115020 L   I
 OLDACT:REG 17-02-13 20:39 OP:cog  STATUS:               ID:20170213114745     3
 2017-02-13-1148-00M.COL___346                                                 6
 STAT SP IPHASW D HRMM SECON CODA AMPLIT PERI AZIMU VELO AIN AR TRES W  DIS CAZ7
 PAM  EZ EP       1150 40.85                             154    0.1310 64.2 114 
 PAM  EN ES       1150 56.44                             154   -0.2210 64.2 114 
 PAM  EZ I        1150 57.60         4.8 0.38            154           64.2 114 
 BRR  HZ EP       1150 40.72                             150    0.1410 74.0 226 
 BRR  HZ IP       1150 40.72                             150           74.0 226 
 BRR  HN ES       1150 56.52                             150    0.1210 74.0 226 
 BAR2 EZ EP       1150 43.80                             139    0.4110  109 177 
 BAR2 EZ ES       1151  1.25                             139   -0.1610  109 177 
 BAR2 EZ I        1151  2.33         8.2 0.26            139            109 177 
 PTB  HZ EP       1150 48.70                             124   -0.66 9  177 230 
 PTB  HN ES       1151 12.17                             124    0.13 9  177 230 
 PTB  HZ I        1151 13.96         2.6 0.18            124            177 230 
                                                                                
