 2016  913 1237 36.1 L   5.853 -73.726118.0  RSN  8 0.3 1.8LRSN                1
 GAP= 94        0.64       2.1     2.0  4.2 -0.4640E+00  0.2113E+01 -0.5840E-01E
 Epicentro: PUENTE NACIONAL - SANTANDER                                        3
 ACTION:UPD 17-08-17 21:09 OP:lp   STATUS:               ID:20160913123736 L   I
 OLDACT:REG 16-09-13 21:05 OP:dnl  STATUS:               ID:20160913122734     3
 2016-09-13-1228-00M.COL___312                                                 6
 STAT SP IPHASW D HRMM SECON CODA AMPLIT PERI AZIMU VELO AIN AR TRES W  DIS CAZ7
 SPBC HZ EP       1237 52.81                             158   -0.1410 44.3 240 
 SPBC HN ES       1238  5.98                             158   -0.0910 44.3 240 
 SPBC HZ I        1238  7.38        26.2 0.16            158           44.3 240 
 RUS  HZ EP       1237 55.27                             147    0.2210 71.3  86 
 RUS  HE ES       1238  9.78                             147   -0.0410 71.3  86 
 RUS  HZ I        1238 11.36        12.7 0.46            150           71.3  86 
 BAR2 EZ EP       1237 57.20                             136    0.2210  101  36 
 BAR2 EZ ES       1238 13.42                             136    0.1710  101  36 
 PTB  HZ EP       1237 57.30                             133   -0.1810  111 313 
 PTB  HE ES       1238 14.05                             133   -0.1010  111 313 
 PTB  HZ I        1238 17.16         7.7 0.10            136            111 313 
 NOR  HZ EP       1237 59.49                             128    0.1410  131 256 
 NOR  HN ES       1238 17.81                             128    0.3410  131 256 
 NOR  HZ I        1238 20.51        26.5 0.12            130            131 256 
 CHI  HZ EP       1238  0.34                             128    0.06 9  135 180 
 CHI  HN ES       1238 18.63                             128   -0.50 9  135 180 
 CHI  HZ I        1238 21.65         5.4 0.26            130            135 180 
 GUY2CHZ EP       1238  6.50                             117    0.03 9  194 249 
 GUY2CHN ES       1238 30.49                             117    0.34 9  194 249 
 GUY2CHZ I        1238 36.27         7.2 0.38                           194 249 
 ZAR  HZ EP   2   1238  8.30                             113   -0.42 4  220 325 
 ZAR  HN ES       1238 33.67                             113   -0.48 8  220 325 
 ZAR  HZ I        1238 34.77         5.1 0.24            116            220 325 
                                                                                
