 2016  813 1917 50.1 L   6.804 -73.177142.5  RSN  5 0.3 1.3LRSN                1
 GAP=143        0.76       4.5     4.1  5.9 -0.7995E+01  0.9230E+01 -0.1395E+01E
 Epicentro: LOS SANTOS - SANTANDER                                             3
 ACTION:UPD 16-10-29 15:35 OP:rebc STATUS:               ID:20160813191750 L   I
 OLDACT:REG 16-08-13 21:57 OP:lv   STATUS:               ID:20160813190759     3
 2016-08-13-1907-59S.COL___349                                                 6
 STAT SP IPHASW D HRMM SECON CODA AMPLIT PERI AZIMU VELO AIN AR TRES W  DIS CAZ7
 BAR2 EZ EP       1918  9.26                             170   -0.0710 23.5 181 
 BAR2 EZ ES       1918 24.22                             170   -0.1110 23.5 181 
 BAR2 EZ I        1918 25.56         5.5 0.16                          23.5 181 
 PAM  EZ EP       1918 12.28                             150    0.2110 79.3  42 
 PAM  EN ES       1918 29.23                             150    0.0110 79.3  42 
 PAM  EZ I        1918 31.69         4.4 0.24                          79.3  42 
 RUS  HZ EP       1918 13.93                             143    0.3510  101 174 
 RUS  HE ES       1918 31.70                             143   -0.1910  101 174 
 RUS  HZ I        1918 33.11         2.9 0.25                           101 174 
 PTB  HZ EP       1918 15.78                             132   -0.71 9  144 258 
 PTB  HN ES       1918 37.37                             132    0.30 9  144 258 
 PTB  HZ I        1918 39.94         2.7 0.12                           144 258 
 NOR  HZ EP       1918 25.36                             118    0.01 8  232 234 
 NOR  HN ES       1918 53.08                             118    0.22 8  232 234 
 NOR  HZ I        1918 58.00         1.4 0.09                           232 234 
                                                                                
