 2017 1113 1701 53.1 L   6.740 -73.293134.4  RSN  5 0.5 1.0LRSN                1
 GAP= 98        1.26       6.4     5.9  9.3 -0.2818E+01  0.6052E+01  0.2260E+01E
 Epicentro: ZAPATOCA - SANTANDER                                               3
 ACTION:UPD 17-12-12 19:55 OP:rebc STATUS:               ID:20171113170153 L   I
 OLDACT:DUP 17-11-13 23:54 OP:lv   STATUS:               ID:20171113165742d    3
 OLDACT:REG 17-11-13 21:57 OP:lv   STATUS:               ID:20171113165740     3
 2017-11-13-1658-00M.COL___453                                                 6
 STAT SP IPHASW D HRMM SECON CODA AMPLIT PERI AZIMU VELO AIN AR TRES W  DIS CAZ7
 BAR2 EZ EP       17 2 11.49                             171    0.2310 20.5 143 
 BAR2 EZ ES       17 2 25.34                             171   -0.1210 20.5 143 
 BAR2 EZ I        17 2 27.27         6.1 0.26            170           20.5 143 
 BRR  HZ EP       17 2 12.72                             154    0.2910 61.5 311 
 BRR  HN ES       17 2 28.43                             154    0.8810 61.5 311 
 PAM  EZ EP       17 2 14.76                             143   -0.4010 93.3  45 
 PAM  EN ES       17 2 31.94                             143   -0.4510 93.3  45 
 PAM  EZ I        17 2 33.84         1.8 0.44            146           93.3  45 
 RUS  HZ EP       17 2 15.94                             142    0.5410 96.6 166 
 RUS  HN ES       17 2 32.73                             142   -0.1010 96.6 166 
 RUS  HZ I        17 2 35.31         1.1 0.20            143           96.6 166 
 PTB  HZ EP       17 2 17.43                             133   -0.1010  130 260 
 PTB  HN ES       17 2 35.78                             133   -0.8410  130 260 
 PTB  HZ I        17 2 38.31         1.3 0.24            135            130 260 
                                                                                
