 2015  413 1349 16.0 L   5.760 -73.876111.9  RSN 12 0.5 2.0LRSN                1
 GAP=159        1.15       4.6     3.9  6.9 -0.6173E+01  0.7214E+01 -0.5719E+01E
 Epicentro: ALBANIA - SANTANDER                                                3
 ACTION:UPD 15-06-03 16:54 OP:cam  STATUS:               ID:20150413134916 L   I
 OLDACT:REG 15-04-13 19:33 OP:spq  STATUS:               ID:20150413134749     3
 2015-04-13-1347-49M.COL___266                                                 6
 STAT SP IPHASW D HRMM SECON CODA AMPLIT PERI AZIMU VELO AIN AR TRES W  DIS CAZ7
 SPBC HZ EP       1349 31.20                             167   -0.1610 24.8 241 
 SPBC HN ES       1349 43.00                             167   -0.3810 24.8 241 
 SPBC HZ I        1349 43.87        83.2 0.32            166           24.8 241 
 RUS  HZ EP   1   1349 35.49                             139   -0.11 7 89.0  80 
 RUS  HN ES   1   1349 50.92                             139   -0.00 7 89.0  80 
 PTB  HZ EP       1349 35.61                             133   -0.9210  108 323 
 PTB  HN ES       1349 53.03                             133    0.4710  108 323 
 PTB  HZ I        1349 55.10        16.6 0.21            134            108 323 
 NOR  HZ EP       1349 36.30                             131   -0.7010  112 259 
 NOR  HN ES       1349 53.48                             131    0.0810  112 259 
 NOR  HZ I        1349 54.82        26.7 0.12            133            112 259 
 ROSC BN ES   4   1349 55.44                             132    1.08 0  113 206 
 ROSC BZ I        1349 58.95        19.3 0.45            134            113 206 
 BAR2 EZ ES   1   1349 55.83                             130    0.72 7  120  40 
 BAR2 EZ I        1349 57.36        20.0 0.24            132            120  40 
 BRR  HZ EP       1349 41.10                             122    0.47 9  150   7 
 BRR  HN ES   4   1350  2.37                             122    2.50 0  150   7 
 BRR  HZ I        1350  3.84        16.2 0.12            124            150   7 
 GUY2CHZ EP       1349 44.09                             118    0.18 9  175 250 
 GUY2CHE ES       1350  6.52                             118    0.82 9  175 250 
 GUY2CHZ I        1350 11.74         7.6 0.58                           175 250 
 RREF HN EP   1   1349 45.95                             116    0.38 7  189 240 
 RREF HE ES   1   1350  9.15                             116    0.49 7  189 240 
 HEL  HZ EP       1349 45.75                             116    0.48 9  189 285 
 HEL  HN ES       1350  7.76                             116   -0.37 9  189 285 
 HEL  HZ I        1350 13.30         7.7 0.48            118            189 285 
 ZAR  HZ EP       1349 47.70                             112   -0.58 8  220 331 
 ZAR  HE ES       1350 13.68                             112    0.20 8  220 331 
 ZAR  HZ I        1350 14.82        12.1 0.28            113            220 331 
 CBOC HZ EP       1349 50.46                             110    0.08 8  237 273 
 CBOC HN ES   1   1350 16.71                             110   -0.52 6  237 273 
 CBOC HZ I        1350 21.73         2.6 0.40            112            237 273 
                                                                                
