 2011 1113 1156 45.9 L   6.717 -73.193146.4  RSN  5 0.2 1.6LRSN                1
 GAP=134        0.46       4.6     5.1  7.3  0.1475E+02 -0.1287E+02 -0.1210E+02E
 Epicentro: VILLANUEVA - SANTANDER                                             3
 ACTION:UPD 12-07-13 16:10 OP:ep   STATUS:               ID:20111113115645 L   I
 2011-11-13-1155-51S.COL___179                                                 6
 STAT SP IPHASW D HRMM SECON CODA AMPLIT PERI AZIMU VELO AIN AR TRES W  DIS CAZ7
 BAR2 SZ EP   1   1157  5.23                             174   -0.18 7 13.8 175 
 BRR  HZ EP   1   1157  7.55                             152    0.45 7 71.8 307 
 BRR  HN ES   1   1157 23.65                             152   -0.03 7 71.8 307 
 BRR  HN I        1157 25.51        16.0 0.21                          71.8 307 
 PAM  SZ EP   1   1157  8.70                             148   -0.09 7 87.8  38 
 RUS  HZ EP   1   1157  8.97                             146   -0.09 7 91.9 172 
 RUS  HN ES   1   1157 27.23                             146    0.06 7 91.9 172 
 RUS  HZ I        1157 29.59         2.7 0.27                          91.9 172 
 ZAR  HN ES   1   1157 43.30                             123   -0.18 6  203 295 
                                                                                
