 2016 1113 1027 55.2 L   6.753 -73.150144.4  RSN 12 0.5 2.0LRSN                1
 GAP= 95        1.03       4.6     4.4  6.6 -0.1105E+01  0.3836E+01  0.1292E+02E
 Epicentro: LOS SANTOS - SANTANDER                                             3
 ACTION:UPD 17-10-26 21:07 OP:lp   STATUS:               ID:20161113102755 L   I
 OLDACT:UP  16-11-13 22:17 OP:dnl  STATUS:               ID:20161113101746d    3
 OLDACT:DUP 16-11-13 22:11 OP:dnl  STATUS:               ID:20161113101746d    3
 OLDACT:UP  16-11-13 22:10 OP:dnl  STATUS:               ID:20161113101745     3
 OLDACT:UP  16-11-13 21:50 OP:dnl  STATUS:               ID:20161113101745     3
 OLDACT:REG 16-11-13 20:39 OP:dnl  STATUS:               ID:20161113101745     3
 2016-11-13-1018-00M.COL___340                                                 6
 STAT SP IPHASW D HRMM SECON CODA AMPLIT PERI AZIMU VELO AIN AR TRES W  DIS CAZ7
 BAR2 EZ EP       1028 14.72                             172    0.1610 18.2 191 
 BAR2 EZ ES       1028 29.25                             172   -0.4210 18.2 191 
 BAR2 EZ I        1028 30.76        21.5 0.34            170           18.2 191 
 BRR  HZ EP   2   1028 16.46                             152    0.15 5 73.4 302 
 BRR  HN ES       1028 33.62                             152    0.8210 73.4 302 
 BRR  HZ I        1028 38.79        17.0 0.20            149           73.4 302 
 PAM  EZ EP       1028 17.71                             149    0.1910 81.7  37 
 PAM  EE ES       1028 34.73                             149   -0.2210 81.7  37 
 PAM  EZ I        1028 36.90        10.0 0.50            152           81.7  37 
 PTB  HZ EP   2   1028 21.20                             132   -0.72 5  146 261 
 PTB  HE ES   2   1028 42.50                             132   -0.27 5  146 261 
 PTB  HZ I        1028 44.38        12.5 0.38            130            146 261 
 TAM  HZ EP   2   1028 22.97                             130    0.29 5  154 103 
 TAM  HN ES   4   1028 41.82                             130   -2.31 0  154 103 
 TAM  HZ I        1028 44.03         9.4 0.40            133            154 103 
 ZAR  HZ EP       1028 27.27                             122   -0.43 8  206 294 
 ZAR  HE ES       1028 52.50                             122   -0.57 8  206 294 
 ZAR  HZ I        1028 57.86        13.0 0.38            121            206 294 
 NOR  HZ EP       1028 30.53                             119    0.05 8  231 235 
 NOR  HN ES       1028 58.29                             119    0.29 8  231 235 
 NOR  HZ I        1029  3.38         5.2 0.24            118            231 235 
 CHI  HZ EP       1028 33.21                             117    0.96 8  244 195 
 CHI  HN ES       1029  0.67                             117   -0.50 8  244 195 
 CHI  HZ I        1029  7.34         6.2 0.34            117            244 195 
 ROSC BZ EP   4   1028 34.87                             117    2.15 0  248 212 
 ROSC BE ES   4   1029  3.83                             117    1.83 0  248 212 
 ROSC BZ I        1029  9.38        16.5 0.40            116            248 212 
 PTGC HZ EP       1028 37.95                             112   -0.51 7  304 158 
 PTGC HN ES   4   1029 10.79                             112   -1.42 0  304 158 
 PTGC HZ I        1029 13.09         6.4 0.28            112            304 158 
 ORTC HZ EP   2   1028 49.10                             106    0.56 3  391 217 
 ORTC HN ES   4   1029 31.52                             106    1.37 0  391 217 
 ORTC HZ I        1029 36.11         3.5 0.22            106            391 217 
 SJC  HZ EP   4   1028 48.34                             105   -2.84 0  413 327 
 SJC  HN ES   4   1029 30.52                             105   -4.34 0  413 327 
 SJC  HZ I        1029 44.55         1.9 0.60            105            413 327 
                                                                                
