 2012  413 1852  6.1 L   6.771 -73.158144.7  RSN  7 0.4 1.9LRSN                1
 GAP=136        0.96       5.8     5.3  8.6 -0.1487E+01  0.1362E+02 -0.1707E+01E
 Epicentro: LOS SANTOS - SANTANDER                                             3
 ACTION:UPD 12-07-05 11:53 OP:tino STATUS:               ID:20120413185206 L   I
 2012-04-13-1850-00M.COL___181                                                 6
 STAT SP IPHASW D HRMM SECON CODA AMPLIT PERI AZIMU VELO AIN AR TRES W  DIS CAZ7
 BAR2 SZ EP   1   1852 25.60                             172     0.0 7   20 188 
 BAR2 SZ ES   1   1852 41.04                             172     0.3 7   20 188 
 BAR2 SZ I        1852 41.43        30.8 0.32                            20 188 
 BRR  HZ EP       1852 27.26                             152     0.110   72 301 
 BRR  HZ I        1852 27.52        26.5 0.15                            72 301 
 BRR  HE ES   1   1852 44.09                             152     0.5 7   72 301 
 PAM  SZ EP   1   1852 28.44                             150     0.0 7   81  39 
 PAM  SE ES   1   1852 45.55                             150    -0.3 7   81  39 
 PAM  SZ I        1852 47.26        10.5 0.66                            81  39 
 RUS  HZ EP   1   1852 29.67                             144     0.1 7   98 175 
 RUS  HN ES   1   1852 47.58                             144    -0.3 7   98 175 
 RUS  HZ I        1852 49.88         7.2 0.28                            98 175 
 PTB  HZ EP   1   1852 32.12                             132    -0.7 7  146 260 
 PTB  HN ES   1   1852 53.11                             132    -0.6 7  146 260 
 PTB  HZ I        1852 55.99         6.3 0.10                           146 260 
 ZAR  HZ EP   1   1852 39.29                             122     0.8 6  204 293 
 ZAR  HN ES   1   1853  3.36                             122    -0.4 6  204 293 
 ZAR  HZ I        1853  9.84         8.5 0.27                           204 293 
 NOR  SN ES   1   1853  9.62                             119     0.6 6  232 235 
                                                                                
