 2017  413 1019 43.2 L   6.669 -73.236146.0  RSN  5 0.5 1.2LRSN                1
 GAP=192        1.04       8.9     9.3  9.9  0.3230E+02  0.1293E+02 -0.1083E+02E
 Epicentro: BARICHARA - SANTANDER                                              3
 ACTION:UPD 17-05-30 21:11 OP:jn   STATUS:               ID:20170413101938 L   I
 OLDACT:UP  17-05-09 21:33 OP:jn   STATUS:               ID:20170413101938 L   3
 OLDACT:UP  17-05-09 21:03 OP:nlst STATUS:               ID:20170413101938 L   3
 OLDACT:UP  17-04-13 22:33 OP:edw  STATUS:               ID:20170413101740d    3
 OLDACT:UP  17-04-13 22:33 OP:edw  STATUS:               ID:20170413101740d    3
 OLDACT:UP  17-04-13 22:31 OP:edw  STATUS:               ID:20170413101740d    3
 OLDACT:UP  17-04-13 22:30 OP:edw  STATUS:               ID:20170413101740d    3
 OLDACT:DUP 17-04-13 22:19 OP:edw  STATUS:               ID:20170413101740d    3
 OLDACT:UP  17-04-13 22:18 OP:edw  STATUS:               ID:20170413101739     3
 OLDACT:UP  17-04-13 22:18 OP:edw  STATUS:               ID:20170413101739     3
 OLDACT:UP  17-04-13 22:03 OP:edw  STATUS:               ID:20170413101739     3
 OLDACT:REG 17-04-13 21:03 OP:edw  STATUS:               ID:20170413101739     3
 2017-04-13-1018-00M.COL___368                                                 6
 STAT SP IPHASW D HRMM SECON CODA AMPLIT PERI AZIMU VELO AIN AR TRES W  DIS CAZ7
 BAR2 HE ES   3   1020 17.13                             176   -0.76 2 10.3 145 
 BRR  HZ EP       1020  3.77                             153   -0.6610 71.5 313 
 BRR  HE ES       1020 21.18                             153    0.2210 71.5 313 
 RUS  HE ES   1   1020 24.43                             148    0.48 7 87.5 169 
 PTB  HZ EP       1020  8.86                             135   -0.29 9  136 264 
 PTB  HN ES       1020 29.16                             135   -0.21 9  136 264 
 PTB  HZ I        1020 32.87         1.4 0.16            132            136 264 
 ZAR  HZ EP       1020 16.16                             123    0.78 9  201 297 
 ZAR  HN ES   1   1020 40.70                             123    0.24 6  201 297 
 ZAR  HZ I        1020 42.81         1.8 0.28            122            201 297 
                                                                                
