 2017  413 1011 24.9 L   6.785 -73.146144.0  RSN  6 0.5 1.1LRSN                1
 GAP=137        1.31       6.5     5.8  8.9  0.3875E+01  0.1326E+02 -0.2503E+01E
 Epicentro: LOS SANTOS - SANTANDER                                             3
 ACTION:UPD 17-05-30 21:11 OP:jn   STATUS:               ID:20170413101124 L   I
 OLDACT:DUP 17-04-13 21:55 OP:edw  STATUS:               ID:20170413100739d    3
 OLDACT:UP  17-04-13 21:55 OP:edw  STATUS:               ID:20170413100738     3
 OLDACT:UP  17-04-13 21:54 OP:edw  STATUS:               ID:20170413100738     3
 OLDACT:UP  17-04-13 21:52 OP:edw  STATUS:               ID:20170413100738     3
 OLDACT:REG 17-04-13 21:02 OP:edw  STATUS:               ID:20170413100738     3
 2017-04-13-1008-00M.COL___368                                                 6
 STAT SP IPHASW D HRMM SECON CODA AMPLIT PERI AZIMU VELO AIN AR TRES W  DIS CAZ7
 BAR2 EZ EP       1011 44.30                             171   -0.0210 21.7 191 
 BAR2 EZ ES       1011 59.22                             171   -0.2210 21.7 191 
 BRR  HZ EP       1011 46.36                             152    0.4210 72.0 300 
 BRR  HN ES       1012  3.23                             152    0.9010 72.0 300 
 PAM  EZ EP     C 1011 47.26                             150    0.2110 78.7  39 
 PAM  HN ES       1012  3.56                             150   -0.7310 78.7  39 
 PAM  EZ I        1012  6.27         3.2 0.54            151           78.7  39 
 RUS  HZ EP       1011 48.86                             144    0.4610 98.9 176 
 RUS  HN ES       1012  6.81                             144    0.1210 98.9 176 
 RUS  HZ I        1012  8.02         1.9 0.28            145           98.9 176 
 PTB  HZ EP       1011 51.34                             132   -0.39 9  147 259 
 PTB  HN ES       1012 11.79                             132   -0.84 9  147 259 
 PTB  HZ I        1012 14.39         1.8 0.14            133            147 259 
 ZAR  HZ EP       1011 56.85                             122   -0.48 9  205 293 
 ZAR  HN ES       1012 23.00                             122    0.40 9  205 293 
                                                                                
