 2015  713 1453 23.1 L   6.779 -73.171142.0  RSN 14 0.4 2.2LRSN                1
 GAP=134        0.85       2.3     3.8  5.1 -0.1581E+01  0.9955E+01  0.8439E+00E
 Epicentro: LOS SANTOS - SANTANDER                                             3
 ACTION:UPD 15-09-08 21:48 OP:cam  STATUS:               ID:20150713145323 L   I
 OLDACT:REG 15-07-13 22:22 OP:ak   STATUS:               ID:20150713144749     3
 2015-07-13-1447-49M.COL___340                                                 6
 STAT SP IPHASW D HRMM SECON CODA AMPLIT PERI AZIMU VELO AIN AR TRES W  DIS CAZ7
 BAR2 EZ EP       1453 42.32                             171    0.0910 20.7 183 
 BAR2 EZ ES       1453 57.14                             171   -0.0110 20.7 183 
 BAR2 EZ I        1453 58.91        69.5 0.16            168           20.7 183 
 PAM  EZ EP       1453 45.14                             149   -0.0010 80.9  40 
 PAM  EN ES       1454  2.26                             149   -0.0710 80.9  40 
 RUS  HZ EP       1453 46.26                             144   -0.0810 98.5 174 
 RUS  HE ES       1454  4.72                             144    0.2610 98.5 174 
 RUS  HZ I        1454  6.23        19.1 0.20            146           98.5 174 
 ZAR  HZ EP       1453 55.66                             122    0.53 9  202 293 
 ZAR  HN ES       1454 19.57                             122   -0.54 9  202 293 
 ZAR  HZ I        1454 26.89        12.0 0.10            121            202 293 
 NOR  HZ EP       1453 58.50                             118    0.27 8  231 235 
 NOR  HN ES       1454 25.51                             118   -0.11 8  231 235 
 NOR  HZ I        1454 30.96         9.9 0.22            118            231 235 
 SML  HZ EP       1453 58.69                             117   -0.94 8  245 336 
 SML  HE ES       1454 28.73                             117    0.62 8  245 336 
 CHI  HZ EP       1454  0.42                             117    0.14 8  246 195 
 CHI  HN ES       1454 28.54                             117   -0.73 8  246 195 
 CHI  HZ I        1454 35.39         6.9 0.34            118            246 195 
 ROSC BZ EP       1454  0.69                             116    0.04 8  249 211 
 ROSC BN ES       1454 29.83                             116   -0.10 8  249 211 
 ROSC BZ I        1454 37.28        16.0 0.30            117            249 211 
 GUY2CHZ EP       1454  5.90                             112   -0.23 7  298 235 
 GUY2CHN ES       1454 40.34                             112    0.65 7  298 235 
 GUY2CHZ I        1454 54.54         6.9 0.52                           298 235 
 MON  HZ EP   4   1454 16.51                             108    4.63 0  353 309 
 MON  HE ES   4   1454 46.30                             108   -3.62 0  353 309 
 MON  HZ I        1455  4.71         4.4 0.42            109            353 309 
 ANIL HZ EP   1   1454 12.15                             108   -0.20 5  354 224 
 ANIL HN ES       1454 50.52                             108   -0.24 6  354 224 
 PRA  HZ EP       1454 16.09                             106   -0.01 6  389 209 
 PRA  HN ES       1454 57.92                             106    0.48 6  389 209 
 PRA  HZ I        1455  1.03         6.9 0.42            107            389 209 
 ORTC HZ EP   1   1454 17.36                             106    0.87 4  392 216 
 ORTC HN ES       1454 57.84                             106   -0.28 6  392 216 
 ORTC HZ I        1455  5.65         6.0 0.68            107            392 216 
 SJC  HZ EP   4   1454 16.48                             105   -2.12 0  410 327 
 SJC  HN ES   4   1454 59.81                             105   -2.07 0  410 327 
 SJC  HZ I        1455  2.96         2.3 0.28            106            410 327 
                                                                                
