 2017 1213 1357 40.4 L   6.846 -73.085143.4  RSN 13 0.6 2.1LRSN                1
 GAP=104        1.30       3.9     4.5  6.9 -0.5127E+01  0.2147E+01  0.4657E+01E
 Epicentro: LOS SANTOS - SANTANDER                                             3
 ACTION:UPD 18-01-04 13:20 OP:rebc STATUS:               ID:20171213135740 L   I
 OLDACT:DUP 17-12-13 23:25 OP:osc  STATUS:               ID:20171213135529d    3
 2017-12-13-1358-00M.COL___455                                                 6
 STAT SP IPHASW D HRMM SECON CODA AMPLIT PERI AZIMU VELO AIN AR TRES W  DIS CAZ7
 BAR2 EZ EP       1357 59.69                             168   -0.2210 30.0 201 
 BAR2 EZ ES       1358 15.31                             168    0.1910 30.0 201 
 BAR2 EZ I        1358 16.10        15.2 0.34            166           30.0 201 
 PAM  EZ EP       1358  2.49                             153    0.6010 69.2  38 
 PAM  EN ES       1358 19.22                             153    0.5610 69.2  38 
 PAM  EZ I        1358 21.56        21.8 0.52            155           69.2  38 
 PTB  HZ EP   9   1358  6.28                             130   -1.60 0  155 257 
 PTB  HE ES       1358 27.54                                   -0.18 9  155 257 
 PTB  HZ I        1358 30.97         9.8 0.10            130            155 257 
 OCA  HN ES       1358 29.25                             130   -0.54 9  156 350 
 SPBC HZ EP       1358  8.97                             127   -0.54 9  171 220 
 SPBC HN ES       1358 31.26                             127   -0.95 9  171 220 
 YPLC HZ EP       1358 10.14                             126   -0.02 9  178 154 
 YPLC HN ES       1358 33.49                             126    0.11 9  178 154 
 YPLC HZ I        1358 37.73         9.1 0.50            126            178 154 
 ZAR  HZ EP       1358 14.49                             121    1.34 8  208 290 
 ZAR  HN ES       1358 38.43                             121   -0.27 8  208 290 
 ZAR  HZ I        1358 44.29        16.0 0.23            122            208 290 
 ROSC BN ES   2   1358 51.37                             115    1.81 4  261 212 
 GUY2CHZ EP       1358 24.45                             111   -0.40 7  310 235 
 GUY2CHE ES       1358 59.38                             111   -0.15 7  310 235 
 GUY2CHZ I        1359  5.06         7.6 0.28                           310 235 
 ELA  HZ EP   9   1358 29.99                             109    1.87 0  338 230 
 ELA  HE ES       1359  6.50                                   -0.71 7  338 230 
 ELA  HZ I        1359 11.13         6.5 0.56            110            338 230 
 SDV  BZ EP       1358 29.38                             108    0.00 6  352  50 
 SDV  B2 ES       1359  6.43                             108   -1.15 6  352  50 
 PRA  HZ EP       1358 34.66                             106   -0.09 6  400 210 
 PRA  HE ES       1359 16.92                             106   -0.22 6  400 210 
 PRA  HZ I        1359 21.61         5.7 0.42            106            400 210 
 ORTC HZ EP       1358 35.09                             106   -0.10 6  403 217 
 ORTC HN ES       1359 18.86                             106    0.94 6  403 217 
 ORTC HZ I        1359 24.69         4.1 0.36            106            403 217 
                                                                                
