 2011  513 1805 39.2 L   6.766 -73.062143.9  RSN  6 0.2 1.9LRSN                1
 GAP=149        0.54       3.2     7.2  5.8 -0.3623E+01 -0.6823E+01 -0.5887E+01E
 Epicentro: LOS SANTOS - SANTANDER                                             3
 ACTION:UP  11-06-29 08:53 OP:tino STATUS:               ID:20110513180539 L   I
 2011-05-13-1802-25S.COL___140                                                 6
 STAT SP IPHASW D HRMM SECON CODA AMPLIT PERI AZIMU VELO SNR AR TRES W  DIS CAZ7
 BAR2 SZ EP   1   18 5 58.56                             170     0.0 7   23 215 
 BAR2 SZ ES   1   18 6 13.51                             170    -0.2 7   23 215 
 BAR2 SZ I        18 6 15.23        15.8 0.25                            23 215 
 PAM  SZ EP       18 6  1.38                             151     0.310   75  32 
 BRR  HZ EP   1   18 6  0.50                             149    -0.2 7   81 298 
 BRR  HN ES   2   18 6 17.95                             149     0.4 5   81 298 
 BRR  HZ I        18 6 21.34        13.2 0.14                            81 298 
 RUS  HZ EP   1   18 6  2.42                             144     0.0 7   97 181 
 RUS  HE ES   1   18 6 20.57                             144     0.0 7   97 181 
 RUS  HZ I        18 6 22.95         4.8 0.54                            97 181 
 GRA  SZ EP   1   18 6  4.32                             136     0.0 7  127  13 
 GRA  SZ ES   1   18 6 23.80                             136    -0.2 7  127  13 
 GRA  SZ I        18 6 24.97        12.6 0.37                           127  13 
 OCA  SZ EP   1   18 6  7.69                             128    -0.1 7  165 350 
 OCA  SZ I        18 6 27.33        16.5 0.18                           165 350 
                                                                                
