 2012  413 1713 14.7 L   6.763 -73.136150.2  RSN  6 0.4 1.6LRSN                1
 GAP=139        0.85       5.9     5.2  8.3  0.2642E+01  0.7925E+01  0.4760E+00E
 Epicentro: LOS SANTOS - SANTANDER                                             3
 ACTION:UPD 12-07-05 11:53 OP:tino STATUS:               ID:20120413171314 L   I
 2012-04-13-1710-00M.COL___181                                                 6
 STAT SP IPHASW D HRMM SECON CODA AMPLIT PERI AZIMU VELO AIN AR TRES W  DIS CAZ7
 BAR2 SZ EP   1   1713 34.85                             172     0.0 7   20 195 
 BAR2 SZ ES   1   1713 50.12                             172    -0.4 7   20 195 
 BAR2 SZ I        1713 51.67         9.9 0.34                            20 195 
 BRR  HZ EP   1   1713 36.80                             152     0.3 7   74 301 
 BRR  HZ I        1713 37.27        10.8 0.11                            74 301 
 BRR  HE ES   1   1713 54.28                             152     0.7 7   74 301 
 PAM  SZ EP   1   1713 37.51                             151    -0.1 7   80  37 
 PAM  SN ES   1   1713 55.07                             151    -0.3 7   80  37 
 RUS  HZ EP   1   1713 38.86                             146     0.2 7   96 176 
 RUS  HN ES   1   1713 57.51                             146     0.2 7   96 176 
 RUS  HZ I        1713 58.80         3.4 0.43                            96 176 
 PTB  HZ EP   1   1713 41.79                             133    -0.3 7  148 260 
 PTB  HN ES   1   1714  2.91                             133    -0.5 7  148 260 
 PTB  HZ I        1714  4.92         2.6 0.14                           148 260 
 ZAR  HN ES   1   1714 13.49                             123     0.0 6  207 293 
 ZAR  HZ I        1714 20.01         5.8 0.24                           207 293 
                                                                                
