 2012 1013 1144  1.0 L   6.783 -73.129148.4  RSN  7 0.3 2.2LRSN                1
 GAP=139        0.51       3.2     4.7  4.7 -0.1552E+00 -0.8580E+00  0.5741E+00E
 Epicentro: LOS SANTOS - SANTANDER                                             3
 ACTION:UPD 12-11-22 17:03 OP:ep   STATUS:               ID:20121013114401 L   I
 2012-10-13-1140-00M.COL___231                                                 6
 STAT SP IPHASW D HRMM SECON CODA AMPLIT PERI AZIMU VELO AIN AR TRES W  DIS CAZ7
 BAR2 SZ EP       1144 20.91                             171   -0.0510 21.9 196 
 BAR2 SZ ES   1   1144 36.21                             171   -0.29 7 21.9 196 
 BAR2 SZ I        1144 37.66        37.2 0.58                          21.9 196 
 GIR2 SZ EP       1144 21.03                             166   -0.0610 33.5 348 
 GIR2 SZ ES   3   1144 37.19                             166    0.46 2 33.5 348 
 BRR  HZ EP       1144 22.82                             151    0.2010 73.7 299 
 BRR  HZ I        1144 23.01        33.6 0.18                          73.7 299 
 BRR  HN ES   1   1144 39.88                             151    0.43 7 73.7 299 
 PAM  SZ IP       1144 23.76                             151    0.2010 77.7  38 
 PAM  SZ I        1144 24.05        34.0 0.42                          77.7  38 
 PAM  SN ES   1   1144 40.75                             151   -0.38 7 77.7  38 
 RUS  HZ EP       1144 24.82                             145   -0.0910 98.6 177 
 RUS  HN ES   1   1144 43.47                             145   -0.06 7 98.6 177 
 RUS  HN I        1144 45.16        22.3 0.24                          98.6 177 
 ZAR  HE ES   3   1144 58.38                             122   -1.16 2  206 292 
 ZAR  HN I        1145  6.97        20.4 0.28                           206 292 
 CHI  HZ EP   3   1144 38.61                             118   -0.13 2  247 196 
 CHI  HZ I        1144 40.86         5.8 0.16                           247 196 
 CHI  HN ES   3   1145  8.32                             118    0.17 2  247 196 
                                                                                
