 2013  313 1830  4.5 L   6.456 -73.531115.4  RSN  4 0.3 1.6LRSN                1
 GAP=134        0.64       4.6     4.2  6.5  0.8443E+01  0.9601E+01  0.7950E+01E
 Epicentro: SANTA HELENA DEL OPON - SANTANDER                                  3
 ACTION:UPD 13-04-09 14:02 OP:ep   STATUS:               ID:20130313183004 L   I
 2013-03-13-1830-00M.COL___231                                                 6
 STAT SP IPHASW D HRMM SECON CODA AMPLIT PERI AZIMU VELO AIN AR TRES W  DIS CAZ7
 BAR2 SZ EP       1830 21.24                             159    0.1010 41.4  69 
 BAR2 SZ ES       1830 33.79                             159   -0.3210 41.4  69 
 BAR2 SZ I        1830 35.82        17.9 0.26            167           41.4  69 
 BRR  HZ IP     C 1830 22.63                             145   -0.0910 74.7 345 
 BRR  HN ES       1830 37.17                             145    0.2510 74.7 345 
 BRR  HN I        1830 37.59        20.7 0.23            152           74.7 345 
 RUS  HZ EP   1   1830 23.47                             143   -0.30 7 79.7 141 
 RUS  HN ES   1   1830 39.24                             143    0.45 7 79.7 141 
 RUS  HN I        1830 42.38         8.7 0.41            145           79.7 141 
 PTB  HZ EP   1   1830 25.18                             135    0.23 7  103 275 
 PTB  HN ES   1   1830 40.63                             135   -0.26 7  103 275 
 PTB  HZ I        1830 45.04         3.0 0.15            137            103 275 
                                                                                
