 2016 1213 1520 35.3 L   6.788 -73.143148.4  RSN  7 0.5 2.2LRSN                1
 GAP=137        1.35       6.8     6.1  9.1  0.4395E+01  0.1363E+02 -0.2687E+01E
 Epicentro: LOS SANTOS - SANTANDER                                             3
 ACTION:UPD 17-01-11 20:14 OP:rebc STATUS:               ID:20161213152035 L   I
 OLDACT:UP  16-12-14 00:42 OP:ar   STATUS:               ID:20161213151746     3
 OLDACT:UP  16-12-14 00:40 OP:ar   STATUS:               ID:20161213151746     3
 OLDACT:REG 16-12-13 22:14 OP:ar   STATUS:               ID:20161213151746     3
 2016-12-13-1518-00M.COL___354                                                 6
 STAT SP IPHASW D HRMM SECON CODA AMPLIT PERI AZIMU VELO AIN AR TRES W  DIS CAZ7
 BAR2 EZ EP       1520 55.17                             171   -0.0910 22.1 191 
 BAR2 EZ ES       1521 10.78                             171   -0.0210 22.1 191 
 BAR2 EZ I        1521 11.89        33.0 0.46            169           22.1 191 
 BRR  HZ EP       1520 57.17                             153    0.3510 72.1 299 
 BRR  HN ES       1521 14.67                             153    1.0910 72.1 299 
 PAM  EZ EP       1520 58.07                             151    0.1910 78.2  39 
 PAM  EN ES       1521 14.72                             151   -0.7410 78.2  39 
 PAM  EZ I        1521 17.34        19.1 0.58            154           78.2  39 
 RUS  HZ EP       1520 59.44                             145    0.1810 99.3 176 
 RUS  HN ES       1521 17.95                             145    0.0410 99.3 176 
 RUS  HZ I        1521 20.34        17.2 0.46            147           99.3 176 
 PTB  HZ EP       1521  1.94                             133   -0.59 9  148 259 
 PTB  HN ES       1521 23.24                             133   -0.49 9  148 259 
 PTB  HZ I        1521 30.57        26.0 0.50            131            148 259 
 ZAR  HZ EP       1521  8.65                             123    0.61 9  205 292 
 ZAR  HE ES       1521 32.88                             123   -0.66 9  205 292 
 ZAR  HZ I        1521 38.64        24.7 0.46            122            205 292 
 URE  HZ EP   4   1521 21.85                             114    5.22 0  285 292 
 URE  HN ES   4   1521 46.99                             114   -1.84 0  285 292 
 URE  HZ I        1521 59.18        12.4 0.30            114            285 292 
                                                                                
