 2013 1113 1851  6.3 L   6.734 -73.137137.2  RSN  5 0.4 1.6LRSN                1
 GAP=141        1.02       5.3     5.1  7.8 -0.3069E+01  0.3932E+01  0.3849E+01E
 Epicentro: JORDAN - SANTANDER                                                 3
 ACTION:UPD 14-01-09 16:27 OP:ep   STATUS:               ID:20131113185106 L   I
 OLDACT:REG 13-11-13 15:52 OP:stll STATUS:               ID:20131113184810     3
 2013-11-13-1848-10M.COL___225                                                 6
 STAT SP IPHASW D HRMM SECON CODA AMPLIT PERI AZIMU VELO AIN AR TRES W  DIS CAZ7
 BAR2 SZ EP       1851 24.79                             173    0.0010 16.5 198 
 BAR2 SZ ES       1851 39.41                             173    0.2110 16.5 198 
 BAR2 SZ I        1851 40.84        16.7 0.20            172           16.5 198 
 BRR  HN ES       1851 43.33                             149    0.5210 75.8 303 
 PAM  SZ EP       1851 28.06                             147    0.1110 82.6  36 
 PAM  SZ I        1851 28.07        10.1 0.20            149           82.6  36 
 PAM  SN ES       1851 44.37                             147   -0.4710 82.6  36 
 RUS  HZ EP       1851 28.54                             144   -0.1510 93.2 176 
 RUS  HZ I        1851 29.78         3.2 0.10            144           93.2 176 
 RUS  HN ES       1851 46.22                             144    0.0710 93.2 176 
 PTB  HZ EP       1851 33.02                             130    0.45 9  147 262 
 PTB  HN ES       1851 52.25                             130   -0.80 9  147 262 
 PTB  HZ I        1851 54.82         4.6 0.12            130            147 262 
                                                                                
