 2017  413 1551 13.8 L   6.771 -73.326118.1  RSN 10 0.4 1.7LRSN                1
 GAP= 97        1.09       3.3     3.8  6.1  0.1973E+01  0.2682E+01  0.3761E+01E
 Epicentro: ZAPATOCA - SANTANDER                                               3
 ACTION:UPD 17-05-30 21:11 OP:jn   STATUS:               ID:20170413155113 L   I
 OLDACT:UP  17-04-13 23:53 OP:edw  STATUS:               ID:20170413154739     3
 OLDACT:UP  17-04-13 23:53 OP:edw  STATUS:               ID:20170413154739     3
 OLDACT:UP  17-04-13 23:51 OP:edw  STATUS:               ID:20170413154739     3
 OLDACT:REG 17-04-13 21:32 OP:edw  STATUS:               ID:20170413154739     3
 2017-04-13-1548-00M.COL___371                                                 6
 STAT SP IPHASW D HRMM SECON CODA AMPLIT PERI AZIMU VELO AIN AR TRES W  DIS CAZ7
 BAR2 EZ IP     C 1551 30.08                             167   -0.0710 25.4 141 
 BAR2 HE IP     D 1551 30.08                             167   -0.0710 25.4 141 
 BAR2 EZ ES       1551 43.23                             167    0.3110 25.4 141 
 BAR2 EZ I        1551 44.08        28.1 0.40            167           25.4 141 
 BRR  HZ IP     C 1551 30.84                             153   -0.2710 56.5 311 
 BRR  HN ES       1551 45.13                             153    0.5010 56.5 311 
 PAM  EZ EP       1551 34.39                             139    0.0410 93.6  48 
 PAM  EN ES       1551 50.47                             139    0.0710 93.6  48 
 PAM  EZ I        1551 54.19         5.5 0.54            141           93.6  48 
 RUS  HZ EP       1551 34.35                             137   -0.5910  101 164 
 RUS  HN ES       1551 51.16                             137   -0.2910  101 164 
 RUS  HZ I        1551 52.72         7.8 0.22            137            101 164 
 PTB  HZ EP   9   1551 35.02                             129   -1.66 0  128 258 
 PTB  HN ES       1551 51.80                             130   -1.0810  128 258 
 PTB  HZ I        1551 55.54         9.3 0.16            129            128 258 
 SPBC HZ EP       1551 39.39                             125    0.55 9  149 214 
 SPBC HN ES       1551 58.41                             125    0.02 9  149 214 
 SPBC HZ I        1552  3.65         7.2 0.22            124            149 214 
 YPLC HZ EP       1551 42.12                             118   -0.44 9  185 145 
 YPLC HE ES       1552  5.45                             118    0.45 9  185 145 
 YPLC HZ I        1552  7.90         7.6 0.40            119            185 145 
 ZAR  HZ EP       1551 43.09                             118    0.35 9  187 295 
 ZAR  HN ES       1552  4.91                             118   -0.41 9  187 295 
 ZAR  HZ I        1552 10.32         8.3 0.58            118            187 295 
 CHI  HZ EP   4   1551 50.56                             111    1.32 0  241 191 
 CHI  HN ES       1552 16.61                             111   -0.28 8  241 191 
 CHI  HZ I        1552 23.04         2.2 0.74            112            241 191 
 HEL  HZ EP   2   1551 51.03                             110    0.61 4  252 255 
 HEL  HE ES   4   1552 17.50                             110   -1.51 0  252 255 
                                                                                
