 2017 1113 1720  0.1 L   6.759 -73.151139.3  RSN  9 0.4 1.9LRSN                1
 GAP=138        1.06       3.6     4.2  6.1 -0.9399E+00  0.6744E+01  0.3992E+01E
 Epicentro: LOS SANTOS - SANTANDER                                             3
 ACTION:UPD 17-12-12 19:55 OP:rebc STATUS:               ID:20171113172000 L   I
 OLDACT:REG 17-11-13 22:01 OP:lv   STATUS:               ID:20171113171746     3
 2017-11-13-1718-00M.COL___453                                                 6
 STAT SP IPHASW D HRMM SECON CODA AMPLIT PERI AZIMU VELO AIN AR TRES W  DIS CAZ7
 BAR2 EZ EP       1720 18.89                             172   -0.0010 18.8 191 
 BAR2 EZ ES       1720 33.15                             172   -0.3810 18.8 191 
 BAR2 EZ I        1720 34.52        31.4 0.28            170           18.8 191 
 BRR  HZ EP       1720 20.89                             151    0.2110 72.9 302 
 BRR  HE ES       1720 37.66                             151    0.9410 72.9 302 
 BRR  HZ I        1720 40.66        16.7 0.26            150           72.9 302 
 PAM  EZ EP       1720 21.86                             148   -0.0510 81.3  38 
 PAM  EN ES       1720 38.46                             148   -0.4310 81.3  38 
 PAM  EZ I        1720 40.78        16.1 0.48            153           81.3  38 
 RUS  HZ EP       1720 22.86                             144   -0.0610 96.1 175 
 RUS  HN ES       1720 41.09                             144    0.3910 96.1 175 
 RUS  HZ I        1720 42.95         9.0 0.40            145           96.1 175 
 PTB  HZ EP       1720 25.74                             131   -0.70 9  146 261 
 PTB  HN ES       1720 46.26                             131   -0.71 9  146 261 
 PTB  HZ I        1720 50.02         7.1 0.46            131            146 261 
 SPBC HZ EP       1720 28.07                             128    0.31 9  159 220 
 SPBC HN ES       1720 49.27                             128   -0.05 9  159 220 
 SPBC HZ I        1720 54.24        11.7 0.22            129            159 220 
 ZAR  HZ EP       1720 32.15                             121   -0.13 8  205 293 
 ZAR  HN ES       1720 57.73                             121    0.37 8  205 293 
 ZAR  HZ I        1721  3.66        10.2 0.26            122            205 293 
 NOR  HZ EP       1720 35.52                             117    0.37 8  232 235 
 NOR  HN ES       1721  2.10                             117   -0.37 8  232 235 
 NOR  HZ I        1721  7.18         5.2 0.26            119            232 235 
 CHI  HZ EP       1720 37.24                             116    0.26 8  244 195 
 CHI  HN ES       1721  5.82                             116    0.10 8  244 195 
 CHI  HZ I        1721  9.60         2.9 0.66            118            244 195 
                                                                                
