 2016  413 1207 14.2 L   6.749 -73.098147.3  RSN  4 0.1 1.5LRSN                1
 GAP=174        0.36       6.0     6.7  3.4 -0.3525E+02 -0.9592E+01  0.7732E+01E
 Epicentro: LOS SANTOS - SANTANDER                                             3
 ACTION:UPD 16-05-05 14:21 OP:rebc STATUS:               ID:20160413120714 L   I
 OLDACT:DUP 16-04-13 22:49 OP:ar   STATUS:               ID:20160413115746d    3
 OLDACT:UP  16-04-13 22:37 OP:ar   STATUS:               ID:20160413115745     3
 OLDACT:REG 16-04-13 21:51 OP:ar   STATUS:               ID:20160413115745     3
 2016-04-13-1157-45M.COL___315                                                 6
 STAT SP IPHASW D HRMM SECON CODA AMPLIT PERI AZIMU VELO AIN AR TRES W  DIS CAZ7
 BAR2 EZ EP       12 7 33.92                             172   -0.0210 19.7 208 
 BAR2 EZ ES       12 7 49.31                             172   -0.0310 19.7 208 
 BAR2 EZ I        12 7 51.75         4.7 0.17            170           19.7 208 
 PAM  EZ EP       12 7 36.75                             150    0.1010 78.7  34 
 PAM  EE ES       12 7 54.14                             150   -0.0310 78.7  34 
 PAM  EZ I        12 7 55.86         6.4 0.54            153           78.7  34 
 PTB  HZ EP   9   12 7 40.81                             132   -0.86 0  152 261 
 PTB  HN ES       12 8  2.06                              81   -0.18 9  152 261 
 PTB  HZ I        12 8  5.27         3.7 0.20            131            152 261 
 SPBC HZ EP   2   12 7 42.47                             129   -0.26 5  162 222 
 SPBC HN ES   2   12 8  5.14                             129    0.16 5  162 222 
 SPBC HZ I        12 8  7.75         4.8 0.56            130            162 222 
                                                                                
