 2012  213 1615 23.8 L   6.803 -73.177143.4  RSN  4 0.3 1.6LRSN                1
 GAP=140        0.60       8.0     4.8  6.5 -0.1914E+02  0.3452E+01  0.3084E+01E
 ACTION:UP  12-03-07 16:30 OP:epov STATUS:               ID:20120213161523 L   I
 2012-02-13-1610-00M.COL___188                                                 6
 STAT SP IPHASW D HRMM SECON CODA AMPLIT PERI AZIMU VELO AIN AR TRES W  DIS CAZ7
 BAR2 SZ EP   1   1615 42.83                             170   -0.33 7 23.3 181 
 BAR2 SZ ES   1   1615 58.54                             170    0.29 7 23.3 181 
 BAR2 SZ I        1615 59.38         8.7 0.20                          23.3 181 
 BRR  HZ EP   1   1615 45.05                             153    0.52 7 68.0 300 
 BRR  HZ I        1615 51.51         7.4 0.40                          68.0 300 
 BRR  HE ES   1   1616  0.67                             153   -0.02 7 68.0 300 
 PAM  SZ EP   1   1615 46.06                             150    0.16 7 79.4  42 
 PAM  SE ES   1   1616  2.82                             150   -0.31 7 79.4  42 
 PTB  HZ EP   1   1615 50.11                             132   -0.18 7  144 258 
 PTB  HE ES   1   1616 10.77                             132   -0.17 7  144 258 
                                                                                
