 2016 1013 1654 27.3 L   6.739 -73.142142.0  RSN  5 0.4 1.5LRSN                1
 GAP=140        1.01       5.7     5.4  9.0 -0.4831E+01  0.2173E+01 -0.2269E+01E
 Epicentro: LOS SANTOS - SANTANDER                                             3
 ACTION:UPD 16-11-09 19:19 OP:rebc STATUS:               ID:20161013165427 L   I
 OLDACT:DUP 16-10-14 00:04 OP:dnl  STATUS:               ID:20161013164744d    3
 OLDACT:REG 16-10-13 20:29 OP:and  STATUS:               ID:20161013164743     3
 2016-10-13-1648-00M.COL___359                                                 6
 STAT SP IPHASW D HRMM SECON CODA AMPLIT PERI AZIMU VELO AIN AR TRES W  DIS CAZ7
 BAR2 EZ EP       1654 46.42                             173    0.0110 16.8 195 
 BAR2 EZ ES       1655  1.01                             173   -0.2610 16.8 195 
 BAR2 EZ I        1655  2.47         6.7 0.18            174           16.8 195 
 BRR  HZ EP   2   1654 48.59                             151    0.28 5 75.0 303 
 BRR  HE ES       1655  5.47                             151    0.8110 75.0 303 
 BRR  HZ I        1655  8.31        13.3 0.34            151           75.0 303 
 PAM  EZ EP       1654 49.43                             149   -0.0510 82.5  36 
 PAM  EN ES       1655  6.42                             149   -0.3310 82.5  36 
 PAM  EZ I        1655  8.72         9.4 0.64            150           82.5  36 
 RUS  HZ EP   2   1654 50.45                             145    0.21 5 93.8 176 
 RUS  HN ES       1655  8.37                             145    0.2710 93.8 176 
 RUS  HZ I        1655 10.08         2.7 0.26            148           93.8 176 
 PTB  HZ EP   2   1654 54.26                             131    0.32 5  147 261 
 PTB  HN ES       1655 13.95                             131   -0.72 9  147 261 
 PTB  HZ I        1655 16.11         3.8 0.50            133            147 261 
                                                                                
