 2010  913 1146 42.0 L   6.775 -73.138140.5  RSN 10 0.5 2.2LRSN                1
 GAP=160        0.96       5.3     8.3  9.2 -0.1603E+02  0.2435E+02 -0.2776E+00E
 Epicentro: LOS SANTOS - SANTANDER                                             3
 ACTION:UP  11-02-18 11:02 OP:tino STATUS:               ID:20100913114642 L   I
 2010-09-13-1142-27S.COL___120                                                 6
 STAT SP IPHASW D HRMM SECON CODA AMPLIT PERI AZIMU VELO SNR AR TRES W  DIS CAZ7
 BAR2 SZ IP     C 1147  0.75                             171    -0.210   21 194 
 BAR2 SZ ES   2   1147 15.01                             171    -0.7 5   21 194 
 BAR2 SZ I        1147 18.40        49.2 0.51                            21 194 
 GIR2 SZ EP   2   1147  0.86                             166    -0.2 5   34 350 
 GIR2 SZ ES   3   1147 16.16                             166     0.2 2   34 350 
 BRR  HZ EP   1   1147  2.65                             151     0.0 7   73 300 
 BRR  HE ES   2   1147 19.65                             151     0.8 5   73 300 
 BRR  HZ I        1147 20.54        48.9 0.10                            73 300 
 RUS  HZ EP   1   1147  4.73                             143    -0.3 7   98 176 
 RUS  HE ES   2   1147 23.35                             143     0.4 5   98 176 
 RUS  HZ I        1147 24.24        21.0 0.30                            98 176 
 GUE  SZ EP   1   1147  5.86                             138    -0.5 7  119  11 
 GRA  SZ EP   1   1147  7.68                             135     0.7 7  128  17 
 GRA  SZ ES   2   1147 27.23                             135     0.8 5  128  17 
 GRA  SZ I        1147 28.24        17.5 0.35                           128  17 
 OCA  SZ EP   1   1147 10.21                             128     0.1 7  163 353 
 OCA  SZ ES   2   1147 31.19                             128    -0.9 5  163 353 
 OCA  SZ I        1147 42.00        14.9 0.20                           163 353 
 ROSC BZ EP   1   1147 19.86                             116     0.3 6  251 212 
 ROSC BZ I        1147 56.99         9.8 0.59                           251 212 
 HEL  HZ EP       1147 21.46                             114    -0.5 8  272 256 
 HEL  HE ES   2   1147 53.02                             114    -0.1 4  272 256 
 HEL  HZ I        1147 59.25         9.3 0.39                           272 256 
 RREF HZ EP   1   1147 28.63                             110     0.9 5  321 230 
 RREF HE ES   2   1148  3.73                             110     0.3 3  321 230 
 RREF HZ I        1148  9.75         7.3 0.19                           321 230 
                                                                                
