 2014  513 1226 26.2 L   6.767 -73.485  0.0  RSN  4 0.5 1.5LRSN                1
 GAP=171        1.23       4.0     4.6 10.3  0.7787E+01 -0.3235E+01 -0.3358E+01E
 Epicentro: EL CARMEN DE CHUCURI - SANTANDER                                   3
 ACTION:UPD 15-03-16 16:57 OP:nd   STATUS:               ID:20140513122626 L   I
 OLDACT:REG 14-05-13 21:12 OP:carl STATUS:               ID:20140513121814     3
 2014-05-13-1218-14M.COL___251                                                 6
 STAT SP IPHASW D HRMM SECON CODA AMPLIT PERI AZIMU VELO AIN AR TRES W  DIS CAZ7
 RUS  HN ES       1226 58.17                              47    0.3010  106 155 
 PTB  HZ EP       1226 43.41                              47   -0.6810  110 257 
 PTB  HN ES       1226 58.24                              47    0.1910  110 257 
 PTB  HZ I        1227  0.06         6.7 0.26            142            110 257 
 ZAR  HN ES       1227 14.95                              47    0.40 9  172 298 
 ZAR  HZ I        1227 21.05         3.9 0.28            121            172 298 
 SML  HZ EP       1227  0.53                              37   -0.82 8  234 344 
 SML  HN ES       1227 29.39                              37    0.61 8  234 344 
 SML  HZ I        1227 39.83         7.0 0.10            111            234 344 
                                                                                
