 2017  813 1026  0.0 L   6.873 -73.043151.3  RSN 10 0.4 1.7LRSN                1
 GAP=226        0.78       3.7     4.1  4.8  0.4779E+01  0.1879E+01  0.4481E+01E
 Epicentro: PIEDECUESTA - SANTANDER                                            3
 ACTION:UPD 17-09-04 20:19 OP:rebc STATUS:               ID:20170813102600 L   I
 OLDACT:UP  17-08-14 03:10 OP:edw  STATUS:               ID:20170813101740     3
 OLDACT:UP  17-08-14 03:09 OP:edw  STATUS:               ID:20170813101740     3
 OLDACT:UP  17-08-14 03:06 OP:edw  STATUS:               ID:20170813101740     3
 OLDACT:REG 17-08-14 02:39 OP:osc  STATUS:               ID:20170813101740     3
 2017-08-13-1018-00M.COL___407                                                 6
 STAT SP IPHASW D HRMM SECON CODA AMPLIT PERI AZIMU VELO AIN AR TRES W  DIS CAZ7
 BAR2 HZ EP     C 1026 20.59                             167    0.0110 34.7 206 
 BAR2 HZ ES       1026 36.46                             167   -0.1610 34.7 206 
 BAR2 HZ I        1026 36.94         8.0 0.26            163           34.7 206 
 BRR  HZ EP       1026 22.54                             151    0.3810 78.3 289 
 BRR  HN ES       1026 39.58                             151    0.1410 78.3 289 
 BRR  HZ I        1026 40.02         6.4 0.34            152           78.3 289 
 RUS  HZ EP       1026 24.56                             143   -0.3210  109 182 
 RUS  HE ES       1026 44.06                             143   -0.2210  109 182 
 RUS  HZ I        1026 44.84         4.5 0.28            141            109 182 
 SPBC HZ EP       1026 29.57                             128   -0.64 9  177 220 
 SPBC HN ES       1026 54.21                             128    0.44 9  177 220 
 SPBC HZ I        1026 58.99         7.2 0.24            127            177 220 
 YPLC HZ EP       1026 31.04                             127    0.61 9  179 156 
 YPLC HE ES   2   1026 54.34                             127    0.19 4  179 156 
 YPLC HZ I        1026 58.48         4.3 0.40            127            179 156 
 ZAR  HE ES       1026 59.72                             122   -0.10 8  212 289 
 ZAR  HZ I        1027  0.93         4.2 0.22            123            212 289 
 NOR  HZ EP       1026 37.24                             118   -0.31 8  249 234 
 NOR  HN ES       1027  6.54                             118   -0.30 8  249 234 
 NOR  HZ I        1027  7.02         2.6 0.26            118            249 234 
 CHI  HZ EP       1026 39.14                             117   -0.06 8  260 197 
 CHI  HE ES       1027 10.00                             117    0.23 8  260 197 
 CHI  HZ I        1027 14.36         2.3 0.60            117            260 197 
 GUY2CHZ EP   2   1026 46.15                             112    0.70 3  315 235 
 GUY2CHN ES   2   1027 21.68                             112    0.80 3  315 235 
 GUY2CHZ I        1027 27.15         2.5 0.28                           315 235 
 PRA  HZ EP       1026 55.16                             107   -0.05 6  405 210 
 PRA  HN ES   4   1027 39.53                             107    1.28 0  405 210 
 PRA  HZ I        1027 41.96         2.4 0.66            107            405 210 
                                                                                
