 2014 1113 1810 59.8 L   6.823 -73.201140.9  RSN  4 0.2 1.2LRSN                1
 GAP=147        0.57       3.4     3.3  6.2 -0.3379E+01  0.5827E+01 -0.5170E+00E
 Epicentro: ZAPATOCA - SANTANDER                                               3
 ACTION:UPD 14-12-19 15:42 OP:nd   STATUS:               ID:20141113181059 L   I
 OLDACT:UP  14-11-13 23:52 OP:cam  STATUS:               ID:20141113180814     3
 OLDACT:REG 14-11-13 19:57 OP:cam  STATUS:               ID:20141113180814     3
 2014-11-13-1808-14M.COL___289                                                 6
 STAT SP IPHASW D HRMM SECON CODA AMPLIT PERI AZIMU VELO AIN AR TRES W  DIS CAZ7
 BAR2 SZ EP       1811 18.86                             169   -0.0810 25.6 175 
 PAM  SZ EP       1811 21.95                             149    0.2810 79.5  44 
 PAM  SN ES       1811 38.57                             149   -0.1310 79.5  44 
 PAM  SZ I        1811 39.51         3.3 0.18            155           79.5  44 
 RUS  HZ EP       1811 23.02                             142   -0.3310  104 173 
 RUS  HE ES       1811 41.90                             142    0.2110  104 173 
 RUS  HE I        1811 42.38         2.4 0.54            147            104 173 
 PTB  HZ EP       1811 26.04                             132    0.12 9  142 257 
 PTB  HN ES       1811 46.21                             132   -0.05 9  142 257 
 PTB  HZ I        1811 54.03         2.1 0.52            132            142 257 
                                                                                
