 2014 1013 1844 34.9 L   6.755 -73.166142.9  RSN  6 0.3 1.5LRSN                1
 GAP=136        0.74       3.9     4.0  6.5 -0.4669E+01  0.5868E+01 -0.1537E+01E
 Epicentro: LOS SANTOS - SANTANDER                                             3
 ACTION:UPD 14-11-29 23:49 OP:nd   STATUS:               ID:20141013184434 L   I
 OLDACT:DUP 14-10-14 00:54 OP:fm   STATUS:               ID:20141013183746d    3
 2014-10-13-1837-45M.COL___296                                                 6
 STAT SP IPHASW D HRMM SECON CODA AMPLIT PERI AZIMU VELO AIN AR TRES W  DIS CAZ7
 BAR2 SZ ES   1   1845  8.51                             172   -0.54 7 18.1 186 
 BAR2 SZ I        1845 10.97        15.8 0.34            171           18.1 186 
 BRR  HZ EP   1   1844 55.75                             152   -0.02 7 71.8 303 
 BRR  HN ES   1   1845 12.81                             152    0.75 7 71.8 303 
 BRR  HZ I        1845 16.67         8.6 0.36            152           71.8 303 
 PAM  SZ EP       1844 57.23                             149    0.1010 82.6  39 
 PAM  SN ES       1845 14.38                             149   -0.1010 82.6  39 
 PAM  SZ I        1845 16.45         4.4 0.52            153           82.6  39 
 RUS  HZ EP   1   1844 58.02                             145   -0.00 7 95.8 175 
 RUS  HN ES       1845 16.16                             145    0.1010 95.8 175 
 RUS  HZ I        1845 17.97         2.5 0.26            147           95.8 175 
 PTB  HZ EP       1845  1.26                             132   -0.09 9  145 261 
 PTB  HN ES       1845 21.62                             132   -0.37 9  145 261 
 PTB  HZ I        1845 24.54         2.8 0.14            133            145 261 
 SPBC HE ES   1   1845 24.77                             129    0.42 7  158 219 
 SPBC HZ I        1845 30.38         3.5 0.20            131            158 219 
                                                                                
