 2012  813 1430 54.6 L   6.754 -73.151152.0  RSN  6 0.3 1.8LRSN                1
 GAP=233        0.60       5.3     5.5  4.9  0.1737E+02  0.5591E+01  0.3350E+01E
 Epicentro: LOS SANTOS - SANTANDER                                             3
 ACTION:UPD 12-09-10 11:56 OP:ep   STATUS:               ID:20120813143054 L   I
 2012-08-13-1430-00M.COL___217                                                 6
 STAT SP IPHASW D HRMM SECON CODA AMPLIT PERI AZIMU VELO AIN AR TRES W  DIS CAZ7
 BAR2 SZ EP   1   1431 14.60                             173   -0.25 7 18.2 191 
 BAR2 SZ ES   1   1431 30.20                             173   -0.48 7 18.2 191 
 BAR2 SZ I        1431 34.00        15.6 0.42                          18.2 191 
 BRR  HZ EP       1431 16.74                             153    0.2410 73.2 302 
 BRR  HN ES       1431 33.92                             153    0.3110 73.2 302 
 BRR  HZ I        1431 36.99         9.2 0.19                          73.2 302 
 RUS  HZ EP   1   1431 18.63                             146    0.04 7 95.6 175 
 RUS  HN ES   1   1431 37.50                             146    0.17 7 95.6 175 
 PTB  HZ EP       1431 21.67                             134   -0.24 9  146 261 
 PTB  HE ES   1   1431 43.30                             134    0.05 7  146 261 
 PTB  HZ I        1431 45.12         7.1 0.38                           146 261 
 ZAR  HZ EP   1   1431 27.45                             124   -0.11 6  205 294 
 ZAR  HE ES   1   1431 52.98                             124   -0.32 6  205 294 
 ZAR  HZ I        1431 59.19         6.1 0.17                           205 294 
 PRA  HZ EP   1   1431 48.29                             108    0.53 4  387 210 
 PRA  HZ I        1432 36.52         2.8 0.50                           387 210 
                                                                                
