 2012 1113 1621 15.3 L   6.768 -73.045146.8  RSN  5 0.3 1.4LRSN                1
 GAP=151        0.73       4.0     5.9  7.0 -0.5871E+00 -0.1789E+01  0.3017E+01E
 Epicentro: LOS SANTOS - SANTANDER                                             3
 ACTION:UPD 12-12-05 15:33 OP:}ep  STATUS:               ID:20121113162115 L   I
 2012-11-13-1620-00M.COL___230                                                 6
 STAT SP IPHASW D HRMM SECON CODA AMPLIT PERI AZIMU VELO AIN AR TRES W  DIS CAZ7
 BAR2 SZ EP       1621 34.88                             170   -0.2010 24.7 218 
 BAR2 SZ I        1621 34.93         4.2 0.16                          24.7 218 
 GIR2 SZ EP       1621 35.07                             165   -0.2210 38.1 334 
 PAM  SZ EP       1621 37.78                             152    0.3710 73.8  31 
 PAM  SN ES       1621 54.55                             152   -0.1210 73.8  31 
 BRR  HZ EP       1621 36.89                             149   -0.3510 82.7 297 
 BRR  HN ES       1621 54.66                             149    0.3010 82.7 297 
 RUS  HZ EP       1621 39.22                             145    0.3310 96.9 183 
 RUS  HN ES       1621 57.18                             145   -0.1110 96.9 183 
 RUS  HN I        1621 57.99         4.6 0.34                          96.9 183 
                                                                                
