 2013  313 1946 18.2 L   6.780 -73.133146.8  RSN  6 0.4 1.9LRSN                1
 GAP=139        0.80       5.3     4.8  8.9  0.3130E+01  0.6017E+01  0.6901E+01E
 Epicentro: LOS SANTOS - SANTANDER                                             3
 ACTION:UPD 13-04-09 14:02 OP:ep   STATUS:               ID:20130313194618 L   I
 2013-03-13-1940-00M.COL___231                                                 6
 STAT SP IPHASW D HRMM SECON CODA AMPLIT PERI AZIMU VELO AIN AR TRES W  DIS CAZ7
 BAR2 SZ I        1946 55.67        20.6 0.16            172           21.5 195 
 BRR  HZ IP     C 1946 39.98                             152    0.3810 73.5 300 
 BRR  HN ES   1   1946 56.90                             152    0.62 7 73.5 300 
 BRR  HN I        1947  0.22        25.6 0.18            154           73.5 300 
 PAM  SZ EP   1   1946 40.81                             151    0.23 7 78.2  38 
 PAM  SN ES   1   1946 57.43                             151   -0.60 7 78.2  38 
 PAM  SZ I        1947  0.09        11.6 0.56            155           78.2  38 
 RUS  HZ EP       1946 41.88                             145   -0.0210 98.3 177 
 RUS  HN ES   1   1947  0.33                             145   -0.04 7 98.3 177 
 RUS  HZ I        1947  2.18         6.4 0.41            149           98.3 177 
 PTB  HZ EP   1   1946 44.89                             132   -0.46 7  149 260 
 PTB  HE ES   1   1947  6.28                             132   -0.23 7  149 260 
 PTB  HZ I        1947  8.85         7.3 0.16            136            149 260 
 ZAR  HE ES   1   1947 16.11                             122   -0.36 6  206 293 
                                                                                
