 2015  913 1235 28.1 L   6.787 -73.174147.4  RSN 12 0.6 2.1LRSN                1
 GAP=198        1.29       3.9     5.8  6.6  0.3974E+01  0.9284E+01  0.8967E+00E
 Epicentro: LOS SANTOS - SANTANDER                                             3
 ACTION:UPD 15-10-28 16:26 OP:cam  STATUS:               ID:20150913123528 L   I
 OLDACT:REG 15-09-13 20:42 OP:stll STATUS:               ID:20150913122748     3
 2015-09-13-1227-48M.COL___316                                                 6
 STAT SP IPHASW D HRMM SECON CODA AMPLIT PERI AZIMU VELO AIN AR TRES W  DIS CAZ7
 BAR2 EZ EP       1235 47.74                             171   -0.1110 21.5 183 
 BAR2 EZ ES       1236  3.20                             171   -0.0910 21.5 183 
 BAR2 EZ I        1236  4.85        16.5 0.16            168           21.5 183 
 BRR  HZ EP       1235 49.71                             153    0.4310 69.2 301 
 BRR  HZ I        1235 49.98        23.3 0.26            149           69.2 301 
 BRR  HN ES       1236  6.66                             153    0.8310 69.2 301 
 RUS  HZ EP       1235 52.18                             144    0.3010 99.4 174 
 RUS  HN ES       1236 10.14                             144   -0.3310 99.4 174 
 RUS  HZ I        1236 11.38         9.9 0.26            146           99.4 174 
 PTB  HZ EP       1235 54.19                             133   -0.67 9  144 259 
 PTB  HN ES       1236 15.28                             133   -0.49 9  144 259 
 PTB  HZ I        1236 20.47        14.1 0.46            130            144 259 
 SPBC HZ EP       1235 56.66                             130    0.27 9  160 218 
 SPBC HE ES       1236 18.32                             130   -0.17 9  160 218 
 SPBC HZ I        1236 25.70        16.6 0.28            129            160 218 
 ZAR  HZ EP       1236  0.63                             123    0.26 9  202 293 
 ZAR  HN ES       1236 25.47                             123   -0.11 9  202 293 
 ZAR  HZ I        1236 31.58        17.1 0.70            122            202 293 
 SML  HZ EP       1236  4.35                             118   -0.43 8  244 336 
 SML  HN ES       1236 32.68                             118   -0.75 8  244 336 
 SML  HZ I        1236 40.55        13.9 0.10            118            244 336 
 CHI  HZ EP       1236  5.55                             118   -0.06 8  246 195 
 CHI  HN ES       1236 34.90                             118    0.01 8  246 195 
 CHI  HZ I        1236 40.89         5.9 0.32            118            246 195 
 HEL  HZ EP       1236  9.10                             115    1.12 8  269 256 
 HEL  HE ES       1236 38.69                             115   -0.43 8  269 256 
 HEL  HZ I        1236 46.81         4.5 0.60            115            269 256 
 URE  HZ EP       1236  8.58                             114   -0.37 7  282 292 
 URE  HN ES   4   1236 38.69                             114   -2.15 0  282 292 
 URE  HZ I        1236 51.69         9.5 0.30            114            282 292 
 GUY2CHZ EP       1236 12.29                             113    0.93 7  298 235 
 GUY2CHN ES       1236 46.15                             113    1.01 7  298 235 
 GUY2CHZ I        1236 56.35         4.9 0.34                           298 235 
 PRA  HZ EP       1236 21.19                             107   -0.11 6  389 209 
 PRA  HE ES       1237  1.19                             107   -1.65 6  389 209 
 PRA  HZ I        1237  7.52         4.2 0.50            107            389 209 
                                                                                
