 2017  813 1541 41.4 L   6.769 -73.118148.0  RSN 10 0.5 1.9LRSN                1
 GAP=115        1.18       5.2     5.2  7.2 -0.3118E+00  0.2957E+01  0.5399E+01E
 Epicentro: LOS SANTOS - SANTANDER                                             3
 ACTION:UPD 17-09-04 20:20 OP:rebc STATUS:               ID:20170813154141 L   I
 OLDACT:UP  17-08-14 06:42 OP:edw  STATUS:               ID:20170813153744     3
 OLDACT:UP  17-08-14 06:41 OP:edw  STATUS:               ID:20170813153744     3
 OLDACT:UP  17-08-14 06:40 OP:edw  STATUS:               ID:20170813153744     3
 OLDACT:UP  17-08-14 06:34 OP:edw  STATUS:               ID:20170813153744     3
 OLDACT:REG 17-08-14 02:41 OP:osc  STATUS:               ID:20170813153744     3
 2017-08-13-1538-00M.COL___410                                                 6
 STAT SP IPHASW D HRMM SECON CODA AMPLIT PERI AZIMU VELO AIN AR TRES W  DIS CAZ7
 BAR2 EZ EP       1542  1.30                             171    0.0910 20.8 200 
 BAR2 EZ ES       1542 16.75                             171    0.0610 20.8 200 
 BAR2 EZ I        1542 17.45        24.3 0.18            171           20.8 200 
 BRR  HZ EP     C 1542  3.19                             152    0.1910 75.6 300 
 BRR  HN ES       1542 20.39                             152    0.5110 75.6 300 
 BRR  HZ I        1542 24.85        11.5 0.16            152           75.6 300 
 PAM  EZ EP     C 1542  4.25                             151    0.3910 78.2  36 
 PAM  EN ES       1542 20.84                             151   -0.5710 78.2  36 
 PAM  EZ I        1542 23.55         8.0 0.66            153           78.2  36 
 RUS  HZ EP       1542  5.50                             145    0.4310 97.0 178 
 RUS  HN ES       1542 23.63                             145    0.0610 97.0 178 
 RUS  HZ I        1542 24.34        14.1 0.44            146           97.0 178 
 SPBC HZ EP   9   1542  8.85                             130   -1.11 0  162 221 
 SPBC HN ES       1542 31.77                             128    0.61 9  162 221 
 SPBC HZ I        1542 33.16        12.7 0.20            131            162 221 
 YPLC HZ EP       1542 10.13                             128   -0.75 9  172 152 
 YPLC HN ES   4   1542 35.49                             128    1.59 0  172 152 
 YPLC HZ I        1542 39.90         5.5 0.30            129            172 152 
 ZAR  HZ EP   4   1542 16.59                             122    2.21 0  208 293 
 ZAR  HE ES       1542 39.43                             122   -0.70 8  208 293 
 ZAR  HZ I        1542 45.73        13.0 0.46            123            208 293 
 NOR  HZ EP       1542 17.80                             119    0.53 8  235 236 
 NOR  HN ES       1542 44.69                             119   -0.60 8  235 236 
 NOR  HZ I        1542 46.90         6.9 0.16            120            235 236 
 GUY2CHZ EP   4   1542 28.21                             113    3.08 0  302 236 
 GUY2CHE ES   4   1543  2.77                             113    3.50 0  302 236 
 GUY2CHZ I        1543  9.19         3.5 0.50                           302 236 
 ORTC HN ES   4   1543 19.61                             107    2.34 0  394 217 
 SJC  HZ EP   4   1542 35.50                             106   -2.03 0  414 327 
 SJC  HE ES   4   1543 16.94                             106   -4.41 0  414 327 
 SJC  HZ I        1543 21.37         1.5 0.50            107            414 327 
                                                                                
