 2014  113 1750 52.4 L   6.774 -73.161145.6  RSN  7 0.4 1.9LRSN                1
 GAP=136        0.87       4.9     5.3  8.2 -0.1190E+02  0.6712E+01  0.2619E+01E
 Epicentro: LOS SANTOS - SANTANDER                                             3
 ACTION:UPD 14-03-13 09:55 OP:ep   STATUS:               ID:20140113175052 L   I
 OLDACT:REG 14-01-13 18:28 OP:carl STATUS:               ID:20140113175000     3
 2014-01-13-1750-00M.COL___285                                                 6
 STAT SP IPHASW D HRMM SECON CODA AMPLIT PERI AZIMU VELO AIN AR TRES W  DIS CAZ7
 BAR2 SZ ES   2   1751 26.70                             172   -0.49 5 20.3 187 
 BRR  HZ EP       1751 13.80                             152    0.2810 71.2 301 
 BRR  HN ES   1   1751 30.85                             152    0.85 7 71.2 301 
 PAM  SZ EP       1751 14.91                             150    0.1310 80.6  39 
 PAM  SN ES       1751 31.85                             150   -0.4010 80.6  39 
 PAM  SZ I        1751 33.97         8.4 0.46            153           80.6  39 
 RUS  HZ EP   1   1751 15.84                             144   -0.09 7 97.9 175 
 RUS  HE ES   1   1751 34.53                             144    0.24 7 97.9 175 
 RUS  HZ I        1751 35.63        11.8 0.34            145           97.9 175 
 PTB  HZ EP   1   1751 18.83                             132   -0.32 7  146 260 
 PTB  HN ES   1   1751 39.15                             132   -0.87 7  146 260 
 PTB  HZ I        1751 42.09        12.0 0.26            133            146 260 
 SPBC HZ EP   2   1751 20.75                             129    0.18 5  160 219 
 SPBC HN ES       1751 42.70                             129    0.15 9  160 219 
 SPBC HZ I        1751 47.96        12.4 0.22            130            160 219 
 NOR  HZ EP   4   1751 28.17                             119    0.38 0  232 235 
 NOR  HN ES   2   1751 55.25                             119   -0.15 4  232 235 
                                                                                
