 2010 1113 1036 44.8 L   6.532 -73.536112.9  RSN  5 0.2 1.7LRSN                1
 GAP=109        0.37       3.2     3.9  5.8  0.1454E+00  0.5930E+01 -0.2851E+00E
 Epicentro: EL CARMEN DE CHUCURI - SANTANDER                                   3
 ACTION:UP  10-12-17 16:52 OP:REBC STATUS:               ID:20101113103644 L   I
 2010-11-13-1033-38S.COL___127                                                 6
 STAT SP IPHASW D HRMM SECON CODA AMPLIT PERI AZIMU VELO SNR AR TRES W  DIS CAZ7
 BAR2 SZ EP       1037  1.17                             159     0.110   39  80 
 BAR2 SZ ES   2   1037 13.42                             159    -0.3 5   39  80 
 BAR2 SZ I        1037 15.06        34.7 0.46                            39  80 
 BRR  HZ EP   2   1037  2.07                             147    -0.1 5   67 343 
 BRR  HN ES   2   1037 16.00                             147     0.2 5   67 343 
 BRR  HZ I        1037 17.18         8.8 0.19                            67 343 
 RUS  HZ EP   2   1037  4.42                             140     0.0 5   87 145 
 RUS  HE ES   2   1037 19.67                             140     0.1 5   87 145 
 NOR  SN ES   2   1037 34.98                             117    -0.1 4  183 234 
 OCA  SZ EP   2   1037 13.88                             116    -0.1 4  190   7 
 OCA  SZ I        1037 42.54         4.1 0.39                           190   7 
                                                                                
