 2011  913 1230  9.9 L   6.760 -73.125144.8  RSN 18 0.4 3.0LRSN                1
 GAP=117        0.76       2.6     4.2  4.8 -0.3855E+00  0.7883E+01  0.2211E+01E
 Epicentro: LOS SANTOS - SANTANDER                                             3
 ACTION:UPD 12-07-13 15:57 OP:ep   STATUS:               ID:20110913123009 L   I
 2011-09-13-1228-25S.COL___169                                                 6
 STAT SP IPHASW D HRMM SECON CODA AMPLIT PERI AZIMU VELO AIN AR TRES W  DIS CAZ7
 BAR2 SZ IP       1230 29.28                             172   -0.0910 19.6 199 
 BAR2 SZ ES   1   1230 44.10                             172   -0.43 7 19.6 199 
 BAR2 SZ I        1230 45.17       208.5 0.42                          19.6 199 
 BRR  HZ IP     C 1230 31.31                             151    0.1010 75.3 301 
 BRR  HZ I        1230 31.65       162.9 0.18                          75.3 301 
 BRR  HN ES   1   1230 48.34                             151    0.54 7 75.3 301 
 PAM  SZ IP       1230 32.23                             150    0.0710 79.5  36 
 PAM  SE ES   1   1230 49.56                             150    0.05 7 79.5  36 
 RUS  HZ IP     D 1230 33.12                             145   -0.1410 96.1 177 
 RUS  HN ES   1   1230 51.11                             145   -0.35 7 96.1 177 
 RUS  HZ I        1230 52.53        85.9 0.38                          96.1 177 
 OCA  SZ EP       1230 38.11                             128   -0.49 9  165 353 
 OCA  SZ ES   1   1231  1.75                             128    0.79 7  165 353 
 OCA  SZ I        1231  4.74       160.7 0.27                           165 353 
 YOP  SE EP   2   1230 39.94                             127    0.52 4  174 153 
 YOP  SE ES   2   1231  2.92                             127    0.50 4  174 153 
 ZAR  HZ EP       1230 42.33                             122   -0.37 8  208 293 
 ZAR  HE ES   2   1231  7.84                             122   -0.41 4  208 293 
 ZAR  HZ I        1231 14.12       151.9 0.48                           208 293 
 NOR  SZ EP       1230 45.14                             118   -0.39 8  234 236 
 NOR  SN ES   1   1231 13.04                             118   -0.25 6  234 236 
 CHI  HZ EP       1230 47.05                             117   -0.13 8  245 196 
 CHI  HN ES   1   1231 16.73                             117    0.50 6  245 196 
 CHI  HZ I        1231 26.40        30.9 0.38                           245 196 
 HEL  HZ EP   2   1230 50.44                             114    0.22 4  273 257 
 HEL  HZ I        1231 27.94        49.1 0.32                           273 257 
 VIL  SE ES   2   1231 26.62                             112    0.26 4  300 192 
 VIL  SZ I        1231 35.03        23.7 0.50                           300 192 
 RREF HZ EP   1   1230 56.51                             111    0.61 5  321 230 
 RREF HZ I        1231 42.17        45.5 0.30                           321 230 
 DBB  SZ EP       1230 57.66                             109    0.00 7  342 275 
 TOL  SZ EP       1230 59.06                             109    1.09 7  342 225 
 COD  HZ EP   3   1230 57.48                             108   -1.31 2  353 354 
 COD  HZ I        1231 44.88        28.5 0.54                           353 354 
 ANIL HE ES   3   1231 38.56                             108    0.36 2  356 225 
 ANIL HZ I        1231 53.68        61.5 0.38                           356 225 
 PRA  HZ EP       1231  2.89                             106   -0.21 6  389 210 
 PRA  HE ES   2   1231 44.43                             106   -0.14 3  389 210 
 SJC  HZ EP   4   1231  3.61                             105   -2.42 0  414 327 
 SJC  HZ I        1231 49.75        39.5 0.48                           414 327 
                                                                                
