 2013 1113 1717 59.6 L   6.839 -73.329115.9  RSN  7 0.6 2.2LRSN                1
 GAP= 98        1.45       5.2     5.3  9.2  0.3330E+01  0.1207E+02 -0.1044E+02E
 Epicentro: ZAPATOCA - SANTANDER                                               3
 ACTION:UPD 14-01-09 16:27 OP:ep   STATUS:               ID:20131113171759 L   I
 OLDACT:REG 13-11-13 15:49 OP:stll STATUS:               ID:20131113170810     3
 2013-11-13-1708-10M.COL___222                                                 6
 STAT SP IPHASW D HRMM SECON CODA AMPLIT PERI AZIMU VELO AIN AR TRES W  DIS CAZ7
 BAR2 SZ EP       1718 16.41                             164    0.4810 31.8 149 
 BAR2 SZ ES       1718 28.92                             164    0.2710 31.8 149 
 BRR  HZ IP     D 1718 16.77                             154    0.3210 51.6 305 
 BRR  HN ES       1718 29.85                             154    0.2810 51.6 305 
 BRR  HE I        1718 31.45       104.0 0.16            152           51.6 305 
 PAM  SZ EP       1718 19.33                             140   -0.2910 88.9  51 
 PAM  SZ I        1718 20.57        16.8 0.16            142           88.9  51 
 PAM  SN ES       1718 34.96                             140   -0.2610 88.9  51 
 RUS  HZ EP       1718 21.07                             134   -0.1610  108 165 
 RUS  HZ I        1718 22.16         5.4 0.14            136            108 165 
 RUS  HE ES       1718 37.99                             134   -0.0810  108 165 
 PTB  HZ IP     D 1718 21.70                             128   -0.7910  129 255 
 PTB  HN ES       1718 39.67                             128   -0.6510  129 255 
 PTB  HZ I        1718 43.70        25.3 0.20            128            129 255 
 ZAR  HZ EP       1718 28.47                             118    0.38 9  184 293 
 ZAR  HN ES       1718 50.96                             118    0.67 9  184 293 
 ZAR  HZ I        1718 53.40        28.0 0.86            117            184 293 
 SML  HZ EP       1718 34.60                             112    1.18 8  232 339 
 SML  HN ES       1718 58.51                             112   -1.27 8  232 339 
 SML  HZ I        1719  3.46        28.3 0.30            112            232 339 
                                                                                
