 2010 1213 1022  8.0 L   6.793 -73.084147.3  RSN  7 0.2 1.5LRSN                1
 GAP=166        0.51       3.0     9.3  5.3 -0.1123E+02  0.1209E+02 -0.2272E+00E
 Epicentro: LOS SANTOS - SANTANDER                                             3
 ACTION:UP  11-01-14 15:24 OP:pat  STATUS:               ID:20101213102208 L   I
 2010-12-13-1017-48S.COL___136                                                 6
 STAT SP IPHASW D HRMM SECON CODA AMPLIT PERI AZIMU VELO SNR AR TRES W  DIS CAZ7
 BTL  SZ EP   1   1022 27.32                             170    -0.5 7   25 304 
 BTL  SZ ES   2   1022 43.18                             170    -0.1 5   25 304 
 BAR2 SZ EP   1   1022 28.04                             170     0.2 7   25 206 
 BAR2 SZ ES   2   1022 43.46                             170     0.2 5   25 206 
 RUS  HZ EP   1   1022 31.89                             144     0.1 7  100 180 
 RUS  HN ES   2   1022 50.40                             144     0.0 5  100 180 
 RUS  HZ I        1022 51.83         6.0 0.25                           100 180 
 GRA  SZ EP   1   1022 32.97                             138    -0.3 7  125  14 
 GRA  SZ ES   2   1022 53.22                             138     0.2 5  125  14 
 OCA  SZ EP   1   1022 36.86                             130     0.3 7  162 351 
 OCA  SZ ES   2   1022 59.04                             130     0.2 5  162 351 
 OCA  SZ I        1023  1.65         6.9 0.52                           162 351 
 NOR  SZ EP   1   1022 44.34                             118     0.0 6  240 236 
 NOR  SZ I        1023 15.39         0.8 0.54                           240 236 
 CHI  HZ EP   1   1022 46.09                             117     0.2 6  250 197 
 CHI  HE ES   2   1023 15.36                             117    -0.1 4  250 197 
 CHI  HZ I        1023 24.01         3.0 0.48                           250 197 
                                                                                
