 2010  613 1633 48.8 L   6.793 -73.207143.0  RSN  7 0.5 1.8LRSN                1
 GAP=162        0.95       5.7    24.8 12.1 -0.7649E+02  0.8755E+02 -0.1579E+02E
 Epicentro: ZAPATOCA - SANTANDER                                               3
 ACTION:UP  10-08-24 10:10 OP:vdl  STATUS:               ID:20100613163348 L   I
 2010-06-13-1631-30S.COL___114                                                 6
 STAT SP IPHASW D HRMM SECON CODA AMPLIT PERI AZIMU VELO SNR AR TRES W  DIS CAZ7
 BAR2 SZ EP   1   1634  7.85                             171    -0.3 7   22 173 
 BAR2 SZ ES   2   1634 23.24                             171     0.1 5   22 173 
 RUS  HZ EP   1   1634 11.84                             143    -0.5 7  101 172 
 RUS  HN ES   2   1634 30.38                             143    -0.2 5  101 172 
 RUS  HZ I        1634 31.61        12.5 0.28                           101 172 
 BRI  SZ EP   1   1634 12.64                             140    -0.1 7  112  24 
 GUE  SZ EP   1   1634 14.49                             138     1.0 7  119  15 
 GRA  SZ EP   1   1634 13.92                             136    -0.2 7  129  20 
 GRA  SZ ES   2   1634 34.10                             136     0.3 5  129  20 
 OCA  SZ EP   1   1634 16.53                             129    -0.4 7  160 356 
 OCA  SZ ES   2   1634 38.52                             129    -0.3 5  160 356 
 OCA  SZ I        1634 49.51         9.0 0.56                           160 356 
 CHI  HZ EP   1   1634 26.12                             117     0.0 6  246 194 
 CHI  HN ES   2   1634 56.57                             117     1.4 4  246 194 
 CHI  HZ I        1635  1.02         4.1 0.36                           246 194 
                                                                                
