 2011 1213 1511 43.4 L   6.785 -73.128147.7  RSN 19 0.4 3.4LRSN                1
 GAP=116        0.77       2.8     3.5  4.3 -0.2439E+01  0.2157E+01  0.2585E+01E
 Epicentro: LOS SANTOS - SANTANDER                                             3
 ACTION:UPD 12-07-13 16:15 OP:ep   STATUS:               ID:20111213151143 L   I
 2011-12-13-1509-59S.COL___183                                                 6
 STAT SP IPHASW D HRMM SECON CODA AMPLIT PERI AZIMU VELO AIN AR TRES W  DIS CAZ7
 BAR2 SZ IP       1512  3.21                             171   -0.0210 22.2 196 
 BAR2 SZ ES   1   1512 18.50                             171   -0.20 7 22.2 196 
 BAR2 SZ I        1512 20.08       626.4 0.37                          22.2 196 
 GIR2 SZ EP   1   1512  3.28                             167   -0.07 7 33.3 347 
 GIR2 SZ ES   2   1512 19.25                             167    0.34 5 33.3 347 
 BRR  HZ IP     C 1512  5.10                             152    0.2110 73.7 299 
 BRR  HN ES       1512 22.26                             152    0.6010 73.7 299 
 BRR  HZ I        1512 24.85       457.1 0.14                          73.7 299 
 PAM  SZ IP     D 1512  5.97                             151    0.1510 77.5  38 
 PAM  SN ES   1   1512 23.24                             151   -0.07 7 77.5  38 
 RUS  HZ IP     D 1512  7.06                             145   -0.1510 98.8 177 
 RUS  HN ES   1   1512 25.62                             145   -0.16 7 98.8 177 
 RUS  HZ I        1512 27.16       221.2 0.29                          98.8 177 
 BRI  SZ EP       1512  7.73                             141    0.2010  109  20 
 PTB  HZ IP       1512  9.68                             132   -0.98 9  149 260 
 PTB  HN ES   1   1512 31.16                             132   -0.77 7  149 260 
 PTB  HZ I        1512 38.64       318.7 0.32                           149 260 
 OCA  SZ EP   1   1512 11.78                             130   -0.25 7  162 353 
 OCA  SZ I        1512 40.10       548.6 0.31                           162 353 
 YOP  SZ EP   2   1512 13.59                             127    0.24 4  177 154 
 YOP  SN ES   2   1512 36.84                             127    0.13 4  177 154 
 NOR  SZ EP   1   1512 18.87                             119   -0.43 6  235 235 
 NOR  SN ES   2   1512 47.12                             119   -0.19 4  235 235 
 CHI  HZ EP       1512 21.44                             118    0.36 8  248 196 
 CHI  HN ES   1   1512 50.10                             118   -0.38 6  248 196 
 CHI  HZ I        1513  0.16        81.6 0.28                           248 196 
 ROSC BZ EP   2   1512 22.21                             117    0.63 4  252 212 
 ROSC BN ES   2   1512 51.36                             117    0.00 4  252 212 
 ROSC BZ I        1512 57.03       258.8 0.50                           252 212 
 HEL  HZ EP   1   1512 24.60                             115    0.73 6  274 256 
 HEL  HE ES   2   1512 55.38                             115   -0.06 4  274 256 
 HEL  HZ I        1513  1.94       168.2 0.37                           274 256 
 VIL  SZ EP   2   1512 25.88                             112   -0.88 4  302 192 
 VIL  SN ES   2   1513  0.53                             112   -0.06 4  302 192 
 VIL  SZ I        1513  6.69        69.0 0.69                           302 192 
 GUY  SZ EP   2   1512 27.80                             112    0.37 4  304 236 
 GUY  SE ES   2   1513  2.17                             112    0.40 4  304 236 
 GUY  SZ I        1513 13.21       211.2 0.49                           304 236 
 RREF HZ EP       1512 30.21                             111    0.54 7  322 230 
 RREF HN ES   2   1513  5.81                             111    0.05 3  322 230 
 RREF HZ I        1513 12.80       166.4 0.73                           322 230 
 TOL  SZ EP   1   1512 32.57                             110    0.82 5  344 225 
 TOL  SZ ES   2   1513  9.43                             110   -0.04 3  344 225 
 COD  HZ EP   2   1512 31.11                             109   -0.95 3  350 354 
 COD  HN ES   2   1513  9.45                             109   -0.56 3  350 354 
 COD  HZ I        1513 17.96       162.2 0.59                           350 354 
 PRA  HZ EP   2   1512 36.69                             107   -0.24 3  392 210 
 PRA  HN ES   2   1513 18.70                             107    0.02 3  392 210 
                                                                                
