 2015  213 1343 58.5 L   6.829 -73.190133.1  RSN 18 0.5 2.1LRSN                1
 GAP= 68        1.59       3.9     5.1  7.3 -0.4516E+01  0.1069E+02  0.4532E+01E
 Epicentro: ZAPATOCA - SANTANDER                                               3
 ACTION:UPD 15-04-30 21:25 OP:nd   STATUS:               ID:20150213134358 L   I
 OLDACT:REG 15-02-13 20:45 OP:stll STATUS:               ID:20150213133750     3
 2015-02-13-1337-50M.COL___305                                                 6
 STAT SP IPHASW D HRMM SECON CODA AMPLIT PERI AZIMU VELO AIN AR TRES W  DIS CAZ7
 BAR2 EZ EP       1344 16.86                             168    0.2210 26.1 178 
 BAR2 EZ ES       1344 30.99                             168    0.1710 26.1 178 
 BAR2 EZ I        1344 32.55        55.1 0.18            168           26.1 178 
 BRR  HZ IP     D 1344 18.75                             152    0.8310 65.4 298 
 BRR  HE ES       1344 33.32                             152    0.2310 65.4 298 
 BRR  HZ I        1344 37.29        32.2 0.24            150           65.4 298 
 PAM  SZ IP     C 1344 19.73                             148    0.3310 78.3  44 
 PAM  SZ I        1344 19.99        65.0 0.22            152           78.3  44 
 PAM  SN ES       1344 36.16                             148    0.4210 78.3  44 
 RUS  HZ EP       1344 21.15                             140   -0.1210  104 173 
 RUS  HE ES       1344 38.94                             140   -0.1210  104 173 
 RUS  HZ I        1344 40.84        22.1 0.34            142            104 173 
 PTB  HZ EP       1344 23.44                             130   -0.60 9  144 257 
 PTB  HE ES       1344 43.73                             130   -0.26 9  144 257 
 PTB  HZ I        1344 47.63        22.6 0.48            129            144 257 
 OCA  HZ EP       1344 25.58                             127    0.12 9  157 355 
 OCA  HE ES       1344 45.96                             127   -0.57 9  157 355 
 OCA  HZ I        1344 51.24        23.3 0.44            129            157 355 
 TAM  HZ IP     C 1344 25.22                             126   -0.49 9  161 106 
 NOR  HZ EP       1344 32.84                             116   -0.42 8  233 233 
 NOR  HN ES       1345  0.14                             116   -0.27 8  233 233 
 NOR  HZ I        1345  6.32        11.1 0.18            116            233 233 
 SML  HZ EP       1344 33.20                             115   -0.67 8  239 336 
 SML  HE ES       1345  1.22                             115   -0.27 8  239 336 
 SML  HZ I        1345  5.52        15.3 0.10            116            239 336 
 CHI  HZ EP       1344 35.39                             114   -0.30 8  250 194 
 CHI  HN ES       1345  3.74                             114   -1.00 8  250 194 
 CHI  HZ I        1345  7.64         5.3 0.56            115            250 194 
 GUY2CHZ EP       1344 42.53                             110    1.26 7  299 234 
 GUY2CHN ES       1345 14.74                             110    0.07 7  299 234 
 GUY2CHZ I        1345 22.04         7.1 0.26                           299 234 
 SOCV BZ EP   9   1344 39.79                             109   -1.45 0  304  58 
 SOCV BN ES       1345 10.25                                   -2.90 7  304  58 
 RREF HZ EP       1344 44.74                             108    0.84 7  320 228 
 RREF HE ES       1345 19.12                             108   -0.22 7  320 228 
 RREF HZ I        1345 29.01         4.9 0.30            109            320 228 
 CBOC HZ EP       1344 44.83                             108    0.37 7  330 251 
 CBOC HE ES       1345 19.94                             108   -0.40 7  330 251 
 CBOC HZ I        1345 25.99         2.8 0.30            108            330 251 
 DBB  SZ EP       1344 45.22                             107    0.36 7  334 274 
 TOL  SZ EP       1344 46.55                             107    0.44 7  342 224 
 TOL  SE ES       1345 23.75                             107    0.48 7  342 224 
 MON  HZ EP   9   1344 44.49                             106   -1.83 0  348 308 
 MON  HN ES       1345 19.79                                   -2.03 6  348 308 
 MON  HZ I        1345 26.14         3.6 0.22            107            348 308 
 PRA  HZ EP       1344 51.66                             104    0.04 6  392 209 
 PRA  HN ES       1345 32.81                             104   -0.27 6  392 209 
 PRA  HZ I        1345 39.63         3.9 0.24            105            392 209 
                                                                                
