 2016  513 1711 47.6 L   6.554 -73.491112.9  RSN  4 0.4 1.6LRSN                1
 GAP=138        0.72       4.2     5.2  9.0 -0.1889E+01  0.3063E+02 -0.1087E+02E
 Epicentro: EL CARMEN - SANTANDER                                              3
 ACTION:UPD 16-08-18 17:45 OP:cam  STATUS:               ID:20160513171147 L   I
 OLDACT:REG 16-05-13 20:47 OP:ak   STATUS:               ID:20160513170748     3
 2016-05-13-1707-48M.COL___313                                                 6
 STAT SP IPHASW D HRMM SECON CODA AMPLIT PERI AZIMU VELO AIN AR TRES W  DIS CAZ7
 BAR2 EZ EP       1712  3.51                             162   -0.1410 34.4  83 
 BAR2 EZ ES       1712 16.21                             162    0.0410 34.4  83 
 BAR2 EZ I        1712 17.28        25.1 0.34            162           34.4  83 
 PTB  HZ EP   2   1712  7.33                             133   -0.85 5  107 269 
 PTB  HN ES   4   1712 21.46                             133   -2.76 0  107 269 
 PTB  HZ I        1712 22.58         3.5 0.12            132            107 269 
 SPBC HZ EP   2   1712  9.07                             130   -0.30 5  119 213 
 SPBC HE ES       1712 26.46                             130    0.1210  119 213 
 SPBC HZ I        1712 30.12         7.5 0.05            128            119 213 
 ZAR  HZ EP       1712 16.39                             117    0.54 9  183 305 
 ZAR  HN ES       1712 37.69                             117   -0.19 9  183 305 
 ZAR  HZ I        1712 40.68         5.6 0.44            116            183 305 
                                                                                
