 2013  413 1752 17.0 L   6.765 -73.166132.3  RSN  8 0.5 1.8LRSN                1
 GAP=136        1.15       5.7     6.4  8.9 -0.1090E+02  0.2153E+02 -0.5722E+01E
 Epicentro: LOS SANTOS - SANTANDER                                             3
 ACTION:UPD 13-05-22 14:38 OP:EP   STATUS:               ID:20130413175217 L   I
 2013-04-13-1750-00M.COL___244                                                 6
 STAT SP IPHASW D HRMM SECON CODA AMPLIT PERI AZIMU VELO AIN AR TRES W  DIS CAZ7
 BAR2 SZ EP       1752 34.93                             171    0.0310 19.2 185 
 BAR2 SZ ES       1752 48.30                             171   -0.5810 19.2 185 
 BAR2 SZ I        1752 50.89        19.0 0.18            172           19.2 185 
 BRR  HZ EP       1752 36.97                             150    0.2910 71.2 302 
 BRR  HN ES   1   1752 53.19                             150    1.15 7 71.2 302 
 BRR  HZ I        1752 57.21        17.5 0.28            149           71.2 302 
 PAM  SZ EP       1752 37.89                             147   -0.1710 81.8  39 
 PAM  SN ES       1752 54.37                             147   -0.1310 81.8  39 
 PAM  SZ I        1752 56.92         7.4 0.50            150           81.8  39 
 RUS  HN ES   1   1752 57.21                             142    0.77 7 97.0 175 
 PTB  HZ EP       1752 41.94                             129   -0.66 9  145 260 
 PTB  HN ES   1   1753  2.21                             129   -0.37 7  145 260 
 PTB  HZ I        1753  5.19         9.7 0.20            131            145 260 
 NOR  HN ES   1   1753 18.33                             116   -0.12 6  231 235 
 NOR  HZ I        1753 20.73         4.4 0.14            119            231 235 
 SML  HN ES   1   1753 21.63                             114    0.24 6  246 336 
 PRA  HZ EP   1   1753 10.49                             104    0.96 4  388 210 
                                                                                
