 2011  913 1313 41.1 L   6.797 -73.130144.4  RSN 10 0.4 2.6LRSN                1
 GAP=139        0.85       3.2     4.7  5.8 -0.4739E+00  0.9672E+01  0.3793E+01E
 Epicentro: LOS SANTOS - SANTANDER                                             3
 ACTION:UPD 12-07-13 15:57 OP:ep   STATUS:               ID:20110913131340 L   I
 2011-09-13-1309-43S.COL___169                                                 6
 STAT SP IPHASW D HRMM SECON CODA AMPLIT PERI AZIMU VELO AIN AR TRES W  DIS CAZ7
 BAR2 SZ IP       1314  0.51                             170   -0.0210 23.3 194 
 BAR2 SZ ES   1   1314 15.23                             170   -0.49 7 23.3 194 
 BAR2 SZ I        1314 17.25        77.1 0.34                          23.3 194 
 BRR  HZ EP       1314  2.44                             152    0.2810 72.9 298 
 BRR  HE ES   1   1314 19.31                             152    0.69 7 72.9 298 
 BRR  HZ I        1314 24.05        85.9 0.14                          72.9 298 
 PAM  SZ EP       1314  3.39                             151    0.3010 76.6  38 
 PAM  SN ES   1   1314 20.26                             151   -0.01 7 76.6  38 
 RUS  HZ EP       1314  4.30                             144   -0.3510  100 177 
 RUS  HE ES   1   1314 23.33                             144    0.29 7  100 177 
 RUS  HZ I        1314 24.50        52.1 0.50                           100 177 
 OCA  SZ EP   1   1314  9.49                             129    0.16 7  161 353 
 OCA  SZ ES   1   1314 30.78                             129   -0.59 7  161 353 
 OCA  SZ I        1314 36.00        61.4 0.47                           161 353 
 ZAR  HZ EP       1314 13.19                             122   -0.41 8  206 292 
 ZAR  HE ES   1   1314 38.51                             122   -0.47 6  206 292 
 ZAR  HZ I        1314 46.04        42.1 0.28                           206 292 
 NOR  SZ EP       1314 16.69                             118   -0.15 8  236 235 
 NOR  SN ES   1   1314 44.39                             118   -0.36 6  236 235 
 CHI  HZ EP       1314 18.51                             117   -0.19 8  249 196 
 CHI  HN ES   1   1314 48.14                             117    0.09 6  249 196 
 CHI  HZ I        1314 53.77        24.4 0.58                           249 196 
 HEL  HZ EP       1314 22.36                             114    0.98 8  274 256 
 HEL  HZ I        1314 59.27        25.1 0.38                           274 256 
 PRA  HZ EP       1314 34.36                             106   -0.24 6  393 210 
 PRA  HE ES   2   1315 17.08                             106    0.72 3  393 210 
                                                                                
