 2015  213 1843 54.4 L   6.846 -73.283119.8  RSN  4 0.3 1.7LRSN                1
 GAP=180        0.82       5.1    11.3 16.0  0.2279E+02  0.7469E+02 -0.3300E+02E
 Epicentro: ZAPATOCA - SANTANDER                                               3
 ACTION:UPD 15-04-30 21:25 OP:nd   STATUS:               ID:20150213184354 L   I
 OLDACT:REG 15-02-13 21:13 OP:stll STATUS:               ID:20150213183745     3
 2015-02-13-1837-45M.COL___305                                                 6
 STAT SP IPHASW D HRMM SECON CODA AMPLIT PERI AZIMU VELO AIN AR TRES W  DIS CAZ7
 BAR2 EZ EP       1844 11.68                             165    0.5410 30.2 158 
 BAR2 EZ I        1844 27.86        11.7 0.42                          30.2 158 
 RUS  HZ EP       1844 16.38                             135    0.0510  108 168 
 RUS  HE ES       1844 32.98                             135   -0.4210  108 168 
 RUS  HZ I        1844 36.30         8.6 0.20            116            108 168 
 PTB  HZ EP       1844 18.20                             128    0.1110  134 255 
 PTB  HZ I        1844 44.61         5.5 0.16            106            134 255 
 SML  HZ EP       1844 28.18                             112   -0.37 8  233 338 
 SML  HN ES       1844 55.10                             112   -0.05 8  233 338 
 SML  HZ I        1845  1.73         5.7 0.10            103            233 338 
                                                                                
