 2014  213 1047 39.4 L   6.812 -73.137143.7  RSN 21 0.5 2.6LRSN                1
 GAP= 55        1.02       2.8     2.6  5.2 -0.8571E+00  0.3337E+01  0.2560E+01E
 Epicentro: LOS SANTOS - SANTANDER                                             3
 ACTION:UPD 14-03-10 08:10 OP:ep   STATUS:               ID:20140213104739 L   I
 OLDACT:UP  14-02-13 16:53 OP:mh   STATUS:               ID:20140213104646     3
 OLDACT:UP  14-02-13 16:47 OP:fm   STATUS:               ID:20140213104646     3
 OLDACT:UP  14-02-13 16:20 OP:fm   STATUS:               ID:20140213104646     3
 OLDACT:REG 14-02-13 15:22 OP:fm   STATUS:               ID:20140213104646     3
 2014-02-13-1046-46M.COL___195                                                 6
 STAT SP IPHASW D HRMM SECON CODA AMPLIT PERI AZIMU VELO AIN AR TRES W  DIS CAZ7
 BAR2 SZ IP     D 1047 58.80                             170    0.0110 24.8 192 
 BAR2 SZ ES       1048 13.50                             170   -0.4310 24.8 192 
 BAR2 SZ I        1048 15.90       169.7 0.25            168           24.8 192 
 PAM  SZ EP     C 1048  1.88                             151    0.6010 75.7  40 
 PAM  SN ES       1048 18.48                             151    0.1310 75.7  40 
 PAM  SZ I        1048 21.49        77.5 0.51            155           75.7  40 
 PTB  HZ EP       1048  5.39                             131   -0.90 9  149 258 
 PTB  HN ES       1048 27.50                             131    0.22 9  149 258 
 PTB  HZ I        1048 28.86        82.7 0.15            132            149 258 
 TAM  HZ IP     D 1048  7.19                             130    0.35 9  155 106 
 TAM  HN ES       1048 28.59                             130    0.33 9  155 106 
 OCA  HZ EP       1048  7.58                             129    0.17 9  159 353 
 OCA  HN ES       1048 28.76                             129   -0.52 9  159 353 
 OCA  HZ I        1048 32.26        43.7 0.52            133            159 353 
 SPBC HZ EP     C 1048  7.74                             128   -0.14 9  165 219 
 SPBC HN ES   1   1048 29.43                             128   -0.67 7  165 219 
 SPBC HZ I        1048 34.61        34.5 0.08            129            165 219 
 ZAR  HZ EP   1   1048 12.28                             122    0.55 6  204 292 
 ZAR  HN ES       1048 37.77                             122    0.81 9  204 292 
 NOR  HZ EP       1048 14.92                             118   -0.24 8  236 234 
 NOR  HN ES       1048 43.72                             118    0.66 8  236 234 
 NOR  HZ I        1048 44.78        39.0 0.13            119            236 234 
 SML  HZ EP   1   1048 15.62                             117   -0.18 6  243 335 
 SML  HN ES   2   1048 43.66                             117   -0.55 4  243 335 
 CHI  HZ EP       1048 17.06                             116   -0.07 8  250 195 
 CHI  HN ES       1048 46.13                             116   -0.45 8  250 195 
 CHI  HZ I        1048 53.81        10.7 0.27            118            250 195 
 ROSC BZ EP   1   1048 18.47                             116    0.90 6  254 211 
 ROSC BN ES   4   1048 51.82                             116    4.47 0  254 211 
 ROSC BZ I        1048 55.96        34.2 0.33            117            254 211 
 HEL  HZ EP       1048 20.23                             114    0.60 8  273 256 
 HEL  HN ES       1048 51.04                             114    0.02 8  273 256 
 HEL  HZ I        1048 57.96        32.7 0.29            116            273 256 
 URE  HZ EP   1   1048 19.27                             113   -1.12 6  284 292 
 URE  HN ES       1048 51.85                             113   -0.53 7  284 292 
 URE  HZ I        1048 52.95        28.4 0.17            115            284 292 
 GUY2CHZ EP   2   1048 24.03                             112    0.96 4  303 235 
 GUY2CHN ES   4   1049  1.11                             112    3.96 0  303 235 
 GUY2CHZ I        1049  4.34        20.0 0.27                           303 235 
 PTGC HZ EP   1   1048 22.60                             111   -0.65 5  310 159 
 PTGC HN ES   4   1048 54.77                             111   -2.69 0  310 159 
 CBOC HZ EP   4   1048 28.01                             109    1.65 0  335 252 
 CBOC HN ES       1049  3.52                             109    0.51 7  335 252 
 DBB  SZ EP   1   1048 27.00                             109    0.13 5  340 274 
 DBB  SZ ES   1   1049  3.45                             109   -0.47 5  340 274 
 DBB  SZ I        1049  7.54        40.6 0.59            110            340 274 
 COD  HZ EP   4   1048 29.41                             108    1.88 0  347 354 
 SDV  BZ EP       1048 28.70                             108   -0.46 6  359  50 
 SDV  BN ES   4   1049  6.28                             108   -1.70 0  359  50 
 PRA  HZ EP       1048 32.85                             106   -0.17 6  394 210 
 PRA  HN ES       1049 14.55                             106   -0.31 6  394 210 
 ORTC HZ EP   1   1048 33.01                             106   -0.41 4  397 216 
 ORTC HN ES   1   1049 16.20                             106    0.62 4  397 216 
 ORTC HZ I        1049 20.69         9.0 0.46            107            397 216 
 SJC  HZ EP   4   1048 33.32                             105   -1.48 0  409 327 
 SJC  HN ES   4   1049 11.97                             105   -6.07 0  409 327 
 SJC  HZ I        1049 19.43         3.2 0.18            107            409 327 
                                                                                
