 2016 1213 1724 42.0 L   6.700 -73.133141.3  RSN  6 0.4 1.7LRSN                1
 GAP=142        1.17       6.1     6.0  8.6 -0.3240E+01  0.6807E+01  0.1062E+01E
 Epicentro: JORDAN - SANTANDER                                                 3
 ACTION:UPD 17-01-11 20:14 OP:rebc STATUS:               ID:20161213172442 L   I
 OLDACT:REG 16-12-13 22:33 OP:ar   STATUS:               ID:20161213171745     3
 2016-12-13-1718-00M.COL___369                                                 6
 STAT SP IPHASW D HRMM SECON CODA AMPLIT PERI AZIMU VELO AIN AR TRES W  DIS CAZ7
 BAR2 EZ EP       1725  1.23                             174    0.2910 13.1 205 
 BAR2 EZ ES       1725 16.22                             174    0.5210 13.1 205 
 BAR2 EZ I        1725 18.73        10.1 0.52            175           13.1 205 
 BRR  HZ EP       1725  3.12                             149    0.0110 78.3 305 
 BRR  HE ES       1725 19.96                             149    0.4010 78.3 305 
 PAM  EZ EP       1725  4.09                             147   -0.1810 85.4  34 
 PAM  EN ES       1725 21.16                             147   -0.4710 85.4  34 
 PAM  EZ I        1725 23.23         7.1 0.64            149           85.4  34 
 RUS  HZ EP       1725  5.25                             146    0.7110 89.4 176 
 RUS  HN ES       1725 21.44                             146   -0.6710 89.4 176 
 RUS  HZ I        1725 22.44         5.3 0.20            148           89.4 176 
 PTB  HZ EP       1725  8.27                             131   -0.32 9  147 263 
 PTB  HN ES       1725 28.92                             131   -0.40 9  147 263 
 PTB  HZ I        1725 31.34        10.4 0.12            133            147 263 
 GUY2CHZ EP   4   1725 26.92                             112    2.08 0  296 237 
 GUY2CHN ES   4   1726  3.81                             112    5.56 0  296 237 
 GUY2CHZ I        1726  9.22         2.9 0.34                           296 237 
                                                                                
