 2013  613 1237 28.9 L   6.753 -73.185137.4  RSN  7 0.4 2.2LRSN                1
 GAP=175        0.94       5.2     5.0  7.4  0.7251E+01  0.8193E+01  0.2892E+01E
 Epicentro: VILLANUEVA - SANTANDER                                             3
 ACTION:UPD 14-01-08 09:54 OP:ep   STATUS:               ID:20130613123728 L   I
 OLDACT:UP  13-06-13 18:03 OP:mh   STATUS:               ID:20130613122959     3
 OLDACT:REG 13-06-13 14:07 OP:mh   STATUS:               ID:20130613122959     3
 2013-06-13-1229-59M.COL___261                                                 6
 STAT SP IPHASW D HRMM SECON CODA AMPLIT PERI AZIMU VELO AIN AR TRES W  DIS CAZ7
 BAR2 SZ EP       1237 47.39                             172   -0.0210 17.8 179 
 BAR2 SZ ES   1   1238  1.74                             172   -0.12 7 17.8 179 
 BAR2 SZ I        1238  3.41        38.0 0.18            174           17.8 179 
 GIR2 SZ EP   1   1237 47.34                             165   -0.38 7 36.0 358 
 GIR2 SZ I        1237 56.80         9.9 0.18            162           36.0 358 
 BRR  HZ EP   1   1237 49.33                             151    0.25 7 70.2 304 
 BRR  HE ES       1238  5.48                             151    0.6510 70.2 304 
 BRR  HE I        1238 10.92        52.1 0.20            148           70.2 304 
 RUS  HZ EP       1237 51.44                             144   -0.0410 95.8 173 
 RUS  HN ES       1238  9.09                             144   -0.0010 95.8 173 
 RUS  HN I        1238 11.50        14.5 0.40            146           95.8 173 
 PTB  HZ EP   1   1237 54.30                             131   -0.41 7  143 261 
 PTB  HN ES       1238 14.03                             131   -0.82 9  143 261 
 PTB  HN I        1238 18.45        24.9 0.12            130            143 261 
 ZAR  HZ EP   1   1238  0.72                             121    0.12 6  202 294 
 ZAR  HN ES   1   1238 25.01                             121   -0.32 6  202 294 
 ZAR  HN I        1238 31.58        29.9 0.18            120            202 294 
 NOR  HZ EP   1   1238  3.87                             118    0.43 6  228 235 
 NOR  HN ES       1238 30.97                             118    0.59 8  228 235 
 NOR  HN I        1238 39.66        25.2 0.18            117            228 235 
                                                                                
