 2014  913 1240 42.9 L   6.809 -73.133151.0  RSN 25 0.4 2.6LRSN                1
 GAP= 71        0.76       2.0     2.2  3.7 -0.2409E+00  0.1966E+01  0.1207E+01E
 Epicentro: LOS SANTOS - SANTANDER                                             3
 ACTION:UPD 14-10-03 23:04 OP:nd   STATUS:               ID:20140913124042 L   I
 OLDACT:REG 14-09-13 20:13 OP:spq  STATUS:               ID:20140913123820     3
 2014-09-13-1238-20M.COL___296                                                 6
 STAT SP IPHASW D HRMM SECON CODA AMPLIT PERI AZIMU VELO AIN AR TRES W  DIS CAZ7
 BAR2 SZ IP     D 1241  2.94                             170   -0.2010 24.5 193 
 BAR2 SZ ES   1   1241 19.19                             170    0.22 7 24.5 193 
 BAR2 SZ I        1241 20.73       130.5 0.44            166           24.5 193 
 BRR  HZ IP     C 1241  4.70                             153    0.0810 72.0 297 
 BRR  HE ES       1241 22.13                             153    0.5410 72.0 297 
 BRR  HZ I        1241 25.79        58.2 0.17            151           72.0 297 
 PAM  SZ EP       1241  5.69                             152    0.1510 75.8  39 
 PAM  SN ES       1241 23.14                             152   -0.1010 75.8  39 
 PAM  SZ I        1241 25.00        68.4 0.50            158           75.8  39 
 RUS  HZ EP       1241  7.00                             145   -0.1910  101 177 
 RUS  HE ES       1241 25.68                             145   -0.4910  101 177 
 RUS  HZ I        1241 26.83        41.4 0.30            144            101 177 
 PTB  HZ EP       1241  9.82                             133   -0.58 9  149 259 
 PTB  HE ES   1   1241 31.43                             133   -0.45 7  149 259 
 PTB  HZ I        1241 37.85        45.9 0.24            132            149 259 
 TAM  HZ EP       1241 11.18                             132    0.32 9  154 105 
 TAM  HN ES       1241 32.85                             132    0.15 9  154 105 
 TAM  HZ I        1241 33.98        21.5 0.32            136            154 105 
 OCA  HZ EP       1241 11.39                             131   -0.12 9  160 353 
 OCA  HE ES       1241 33.98                             131    0.12 9  160 353 
 OCA  HZ I        1241 38.45        55.2 0.22            134            160 353 
 SPBC HZ EP       1241 11.81                             130   -0.10 9  165 219 
 SPBC HN ES       1241 34.37                             130   -0.21 9  165 219 
 SPBC HZ I        1241 41.30        53.2 0.22            129            165 219 
 ZAR  HZ EP       1241 16.04                             123    0.29 9  205 292 
 ZAR  HN ES       1241 41.67                             123    0.27 9  205 292 
 ZAR  HZ I        1241 46.58        67.1 0.44            124            205 292 
 NOR  HZ EP       1241 19.12                             119    0.04 8  236 234 
 NOR  HE ES       1241 47.47                             119    0.15 8  236 234 
 NOR  HZ I        1241 55.44        34.5 0.22            119            236 234 
 SML  HZ EP   1   1241 19.22                             119   -0.53 6  243 335 
 SML  HE ES   1   1241 47.86                             119   -0.67 6  243 335 
 SML  HZ I        1241 51.87        55.3 0.10            120            243 335 
 CHI  HZ EP   1   1241 21.16                             118    0.17 6  250 195 
 CHI  HN ES   1   1241 51.42                             118    0.69 6  250 195 
 CHI  HZ I        1241 57.57        16.3 0.22            119            250 195 
 ROSC BZ EP   4   1241 23.00                             118    1.57 0  254 211 
 ROSC BN ES   4   1241 54.05                             118    2.53 0  254 211 
 ROSC BZ I        1241 58.95        49.9 0.35            118            254 211 
 HEL  HZ EP   4   1241 24.72                             116    1.20 0  274 256 
 HEL  HE ES   1   1241 55.20                             116   -0.03 6  274 256 
 HEL  HZ I        1242  2.64        13.2 0.26            116            274 256 
 GUY2CHZ EP   1   1241 27.49                             113    0.59 5  303 235 
 GUY2CHE ES   4   1242  5.70                             113    4.45 0  303 235 
 GUY2CHZ I        1242  9.45        25.2 0.38                           303 235 
 VIL  SZ EP   1   1241 26.37                             113   -0.29 5  305 192 
 VIL  SN ES   1   1242  0.18                             113   -0.64 5  305 192 
 VIL  SZ I        1242  7.55        19.7 0.38            114            305 192 
 CBOC HZ EP   1   1241 31.00                             111    0.82 5  335 252 
 CBOC HN ES   4   1242  8.58                             111    1.49 0  335 252 
 CBOC HZ I        1242 16.67         5.2 0.24            111            335 252 
 DBB  SZ ES   1   1242  7.33                             110   -0.69 5  341 274 
 TOL  SZ EP   1   1241 32.18                             110    0.66 5  345 225 
 TOL  SN ES   4   1242 10.79                             110    1.32 0  345 225 
 TOL  SZ I        1242 16.13        48.6 0.50            111            345 225 
 MON  HZ EP   4   1241 30.12                             109   -2.01 0  354 308 
 MON  HE ES   4   1242  9.15                             109   -1.40 0  354 308 
 MON  HZ I        1242 10.96        11.3 0.56            111            354 308 
 ANIL HZ EP   4   1241 34.79                             109    1.73 0  359 225 
 ANIL HN ES   4   1242 14.17                             109    1.96 0  359 225 
 ANIL HZ I        1242 17.27         4.7 0.32            110            359 225 
 PRA  HZ EP       1241 36.52                             107   -0.22 6  394 210 
 PRA  HN ES   1   1242 19.26                             107    0.49 4  394 210 
 PRA  HZ I        1242 27.79        24.3 0.30            108            394 210 
 ORTC HZ EP       1241 37.18                             107    0.03 6  397 216 
 ORTC HN ES   1   1242 20.44                             107    0.95 4  397 216 
 ORTC HZ I        1242 27.46        11.7 0.38            108            397 216 
 SJC  HZ EP   4   1241 36.76                             106   -1.83 0  409 327 
 SJC  HN ES   4   1242 20.05                             106   -2.02 0  409 327 
 SJC  HZ I        1242 22.69         9.0 0.36            108            409 327 
 SMAR HZ EP   1   1241 48.35                             103   -0.45 3  496 346 
 SMAR HN ES   4   1242 35.77                             103   -4.46 0  496 346 
                                                                                
