 2010  813 1817 24.4 L   6.821 -73.072137.7  RSN  6 0.1 2.0LRSN                1
 GAP=167        0.37       3.0     5.7  6.1  0.2806E+01 -0.1553E+02 -0.8403E+01E
 Epicentro: LOS SANTOS - SANTANDER                                             3
 ACTION:UP  10-09-07 10:54 OP:vdl  STATUS:               ID:20100813181724 L   I
 2010-08-13-1814-32S.COL___111                                                 6
 STAT SP IPHASW D HRMM SECON CODA AMPLIT PERI AZIMU VELO SNR AR TRES W  DIS CAZ7
 BAR2 SZ EP       1817 43.27                             168     0.110   28 206 
 BAR2 SZ ES   2   1817 57.90                             168     0.1 5   28 206 
 BAR2 SZ I        1817 59.18        22.9 0.23                            28 206 
 GIR2 SZ EP   1   1817 43.29                             166     0.2 7   32 335 
 BRR  HZ EP       1817 45.01                             149     0.010   78 294 
 BRR  HZ I        1817 45.25        46.1 0.14                            78 294 
 BRR  HN ES   2   1818  1.11                             149    -0.1 5   78 294 
 RUS  HZ EP   1   1817 47.53                             141     0.0 7  103 181 
 RUS  HE ES   2   1818  5.21                             141    -0.3 5  103 181 
 RUS  HZ I        1818  7.52        11.7 0.34                           103 181 
 GUE  SZ EP       1817 48.03                             139     0.010  113   8 
 GRA  SZ EP   1   1817 48.43                             136    -0.1 7  121  14 
 GRA  SZ I        1818 10.52        14.0 0.08                           121  14 
                                                                                
