 2016  913 1325  0.4 L   6.758 -73.039146.0  RSN  4 0.4 1.7LRSN                1
 GAP=153        0.83       4.4     5.5  7.3  0.6639E+00  0.1156E+02 -0.3287E+01E
 Epicentro: JORDAN - SANTANDER                                                 3
 ACTION:UPD 17-08-17 21:09 OP:lp   STATUS:               ID:20160913132500 L   I
 OLDACT:REG 16-09-13 21:06 OP:dnl  STATUS:               ID:20160913131730     3
 2016-09-13-1318-00M.COL___315                                                 6
 STAT SP IPHASW D HRMM SECON CODA AMPLIT PERI AZIMU VELO AIN AR TRES W  DIS CAZ7
 BAR2 EZ EP       1325 19.84                             170   -0.2110 24.2 221 
 BAR2 EZ ES       1325 34.83                             170   -0.5710 24.2 221 
 BAR2 EZ I        1325 36.15         8.2 0.12            169           24.2 221 
 PAM  EZ EP       1325 22.50                             152    0.0610 74.4  30 
 PAM  EE ES       1325 39.85                             152    0.2010 74.4  30 
 PAM  EZ I        1325 41.87         9.9 0.50            153           74.4  30 
 RUS  HZ EP       1325 23.88                             145    0.0710 95.8 183 
 RUS  HN ES       1325 42.46                             145    0.3710 95.8 183 
 RUS  HZ I        1325 43.75         5.4 0.32            147           95.8 183 
 ZAR  HZ EP   2   1325 33.33                             120   -0.82 4  217 292 
 ZAR  HE ES       1326  0.83                             120    0.33 8  217 292 
 ZAR  HZ I        1326  4.37         6.4 0.38            121            217 292 
                                                                                
