 2011 1013 1217 54.7 L   6.823 -73.169138.0  RSN  7 0.3 1.8LRSN                1
 GAP=133        0.61       3.7     4.3  5.1 -0.4170E+01  0.7392E+01  0.7284E+00E
 Epicentro: LOS SANTOS - SANTANDER                                             3
 ACTION:UPD 12-07-13 16:03 OP:ep   STATUS:               ID:20111013121754 L   I
 2011-10-13-1214-55S.COL___168                                                 6
 STAT SP IPHASW D HRMM SECON CODA AMPLIT PERI AZIMU VELO AIN AR TRES W  DIS CAZ7
 BAR2 SZ EP   1   1218 13.40                             169    0.01 7 25.6 183 
 BAR2 SZ ES   1   1218 27.81                             169   -0.20 7 25.6 183 
 BAR2 SZ I        1218 29.92        12.3 0.14                          25.6 183 
 BRR  HZ EP   1   1218 14.70                             152   -0.06 7 67.7 298 
 BRR  HE ES   1   1218 30.46                             152    0.01 7 67.7 298 
 BRR  HZ I        1218 34.81        15.9 0.31                          67.7 298 
 PAM  SZ EP       1218 16.13                             149    0.1010 77.1  42 
 PAM  SN ES   1   1218 33.02                             149    0.32 7 77.1  42 
 RUS  HZ EP   1   1218 17.42                             141   -0.43 7  103 175 
 RUS  HZ I        1218 18.38         4.5 0.10                           103 175 
 RUS  HN ES   1   1218 35.91                             141   -0.04 7  103 175 
 ZAR  HZ EP   1   1218 25.61                             121   -0.64 6  201 292 
 ZAR  HZ I        1218 56.72         7.5 0.24                           201 292 
 NOR  SZ EP   1   1218 30.01                             117    0.13 6  234 234 
 NOR  SN ES   1   1218 57.74                             117    0.39 6  234 234 
 RREF HZ EP   1   1218 41.15                             109    0.71 5  322 229 
 RREF HZ I        1219 26.01         3.7 0.31                           322 229 
                                                                                
