 2013  313 1702 43.9 L   6.728 -73.127142.2  RSN  6 0.2 1.7LRSN                1
 GAP=142        0.56       3.6     3.1  5.0  0.4013E-01  0.3029E+01 -0.9291E+00E
 Epicentro: JORDAN - SANTANDER                                                 3
 ACTION:UPD 13-04-09 14:02 OP:ep   STATUS:               ID:20130313170243 L   I
 2013-03-13-1700-00M.COL___231                                                 6
 STAT SP IPHASW D HRMM SECON CODA AMPLIT PERI AZIMU VELO AIN AR TRES W  DIS CAZ7
 BAR2 SZ EP   1   17 3  3.12                             173    0.15 7 16.2 202 
 BAR2 SZ I        17 3  3.59        15.4 0.11            170           16.2 202 
 BAR2 SZ ES   1   17 3 17.82                             173   -0.03 7 16.2 202 
 BRR  HZ EP       17 3  5.09                             150    0.0910 77.1 303 
 BRR  HN ES   1   17 3 21.92                             150    0.45 7 77.1 303 
 BRR  HN I        17 3 25.03        14.4 0.21            148           77.1 303 
 PAM  SZ EP       17 3  6.14                             148    0.1010 82.5  35 
 PAM  SN ES   1   17 3 22.93                             148   -0.39 7 82.5  35 
 PAM  SZ I        17 3 25.27         6.2 0.34            154           82.5  35 
 RUS  HZ EP   1   17 3  7.05                             145    0.34 7 92.5 177 
 RUS  HN ES   1   17 3 24.35                             145   -0.17 7 92.5 177 
 RUS  HN I        17 3 27.38        10.8 0.28            149           92.5 177 
 PTB  HZ EP       17 3 10.30                             131   -0.34 9  149 262 
 PTB  HE ES   1   17 3 31.44                             131   -0.06 7  149 262 
 PTB  HZ I        17 3 38.03         4.1 0.18            132            149 262 
 ZAR  HE ES   1   17 3 42.03                             121   -0.14 6  209 294 
 ZAR  HZ I        17 3 48.19         4.0 0.38            122            209 294 
                                                                                
