 2017  313 1741 25.9 L   6.676 -73.149139.0  RSN  4 0.3 1.1LRSN                1
 GAP=141        0.61       3.5     3.3  7.0 -0.1975E+01  0.5990E+00 -0.7372E+00E
 Epicentro: VILLANUEVA - SANTANDER                                             3
 ACTION:UPD 17-05-25 18:40 OP:jn   STATUS:               ID:20170313174125 L   I
 OLDACT:UP  17-03-14 00:54 OP:dnl  STATUS:               ID:20170313173140     3
 OLDACT:REG 17-03-13 21:20 OP:dnl  STATUS:               ID:20170313173140     3
 2017-03-13-1738-00M.COL___409                                                 6
 STAT SP IPHASW D HRMM SECON CODA AMPLIT PERI AZIMU VELO AIN AR TRES W  DIS CAZ7
 BRR  HZ EP   2   1741 47.04                             149    0.24 5 78.4 307 
 BRR  HN ES       1742  3.47                             149    0.4010 78.4 307 
 RUS  HZ EP   2   1741 48.48                             147    0.42 5 86.9 175 
 RUS  HE ES       1742  5.34                             147    0.0210 86.9 175 
 RUS  HZ I        1742  9.04         2.3 0.34            147           86.9 175 
 PAM  EZ EP       1741 48.13                             146   -0.0410 88.6  34 
 PAM  EN ES       1742  5.29                             146   -0.2210 88.6  34 
 PAM  EZ I        1742  7.36         2.1 0.60            149           88.6  34 
 PTB  HZ EP   2   1741 52.07                             131   -0.07 5  145 264 
 PTB  HN ES       1742 12.23                             131   -0.36 9  145 264 
 PTB  HZ I        1742 14.60         1.8 0.40            133            145 264 
                                                                                
