 2014 1013 1733 53.9 L   6.805 -73.127147.8  RSN 22 0.4 2.7LRSN                1
 GAP=139        0.97       2.3     3.7  4.8 -0.9491E+00  0.4826E+01  0.8624E+00E
 Epicentro: LOS SANTOS - SANTANDER                                             3
 ACTION:UPD 14-11-29 23:49 OP:nd   STATUS:               ID:20141013173353 L   I
 OLDACT:REG 14-10-13 21:12 OP:fm   STATUS:               ID:20141013172745     3
 2014-10-13-1727-45M.COL___296                                                 6
 STAT SP IPHASW D HRMM SECON CODA AMPLIT PERI AZIMU VELO AIN AR TRES W  DIS CAZ7
 BAR2 SZ EP       1734 13.84                             170    0.0910 24.3 195 
 BAR2 SZ ES   1   1734 29.28                             170    0.02 7 24.3 195 
 BAR2 SZ I        1734 30.58       120.8 0.26            168           24.3 195 
 BRR  HZ EP       1734 15.72                             152    0.4110 72.8 297 
 BRR  HN ES       1734 32.84                             152    0.7910 72.8 297 
 BRR  HZ I        1734 38.03        57.6 0.14            151           72.8 297 
 PAM  SZ EP       1734 16.66                             152    0.4810 75.6  39 
 PAM  SN ES       1734 33.52                             152   -0.0810 75.6  39 
 PAM  SZ I        1734 36.02       116.3 0.56            156           75.6  39 
 RUS  HZ EP       1734 17.65                             144   -0.1810  101 177 
 RUS  HE ES       1734 36.63                             144    0.0910  101 177 
 RUS  HZ I        1734 39.33        41.0 0.38            145            101 177 
 PTB  HZ EP       1734 20.63                             132   -0.55 9  150 259 
 PTB  HN ES       1734 41.54                             132   -0.96 9  150 259 
 PTB  HZ I        1734 44.12        39.3 0.14            132            150 259 
 OCA  HZ EP       1734 21.97                             130   -0.33 9  160 352 
 OCA  HN ES       1734 43.91                             130   -0.57 9  160 352 
 OCA  HZ I        1734 49.53        50.6 0.20            132            160 352 
 SPBC HZ EP       1734 22.80                             129    0.13 9  165 219 
 SPBC HN ES       1734 45.10                             129   -0.05 9  165 219 
 SPBC HZ I        1734 49.90        72.8 0.20            130            165 219 
 ZAR  HN ES       1734 51.93                             123   -0.23 8  206 292 
 ZAR  HZ I        1734 59.37        35.8 0.26            123            206 292 
 SML  HZ EP       1734 30.42                             118   -0.21 8  244 335 
 SML  HE ES       1734 59.80                             118    0.48 8  244 335 
 SML  HZ I        1735  2.05        98.8 0.10            119            244 335 
 CHI  HZ EP       1734 31.99                             117    0.21 8  250 196 
 CHI  HN ES       1735  0.77                             117   -0.59 8  250 196 
 CHI  HZ I        1735  7.31        15.5 0.58            119            250 196 
 URE  HZ EP   4   1734 20.40                             114   -14.8 0  286 292 
 GUY2CHZ EP   4   1734 39.84                             113    2.06 0  303 235 
 GUY2CHN ES   4   1735 15.53                             113    3.48 0  303 235 
 GUY2CHZ I        1735 20.53        35.6 0.80                           303 235 
 VIL  SN ES   1   1735 11.17                             112   -0.32 5  304 192 
 VIL  SZ I        1735 14.48        21.3 0.42            114            304 192 
 CBOC HZ EP       1734 41.82                             110    0.72 7  336 252 
 CBOC HN ES       1735 18.50                             110    0.55 7  336 252 
 CBOC HZ I        1735 24.34        10.0 0.42            111            336 252 
 DBB  SZ EP   1   1734 42.05                             110    0.40 5  342 274 
 DBB  SZ ES   4   1735 16.66                             110   -2.27 0  342 274 
 DBB  SZ I        1735 19.82        66.3 0.32            111            342 274 
 TOL  SZ EP   4   1734 43.49                             110    1.09 0  345 225 
 TOL  SN ES   4   1735 22.40                             110    2.13 0  345 225 
 TOL  SZ I        1735 28.40        42.9 0.42            111            345 225 
 MON  HZ EP   4   1734 40.78                             109   -2.30 0  355 308 
 MON  HN ES   4   1735 18.88                             109   -2.60 0  355 308 
 MON  HZ I        1735 22.25         7.0 0.36            110            355 308 
 ARGC HZ EP   1   1734 43.72                             109    0.11 5  359 340 
 ARGC HE ES       1735 21.95                             109   -0.47 6  359 340 
 ARGC HZ I        1735 26.37        10.3 0.26            110            359 340 
 PRA  HZ EP       1734 47.76                             107    0.14 6  394 210 
 PRA  HN ES       1735 29.87                             107    0.31 6  394 210 
 PRA  HZ I        1735 35.61        16.0 0.42            108            394 210 
 ORTC HZ EP       1734 47.70                             107   -0.34 6  397 216 
 ORTC HN ES   4   1735 31.74                             107    1.44 0  397 216 
 ORTC HZ I        1735 38.53        13.8 0.22            108            397 216 
 PAL  HZ EP       1734 49.14                             106   -0.18 6  408 239 
 PAL  HN ES       1735 33.27                             106    0.68 6  408 239 
 PAL  HZ I        1735 36.61        10.6 0.26            107            408 239 
 SJC  HZ EP   4   1734 47.37                             106   -2.19 0  410 327 
 SJC  HN ES   4   1735 28.60                             106   -4.42 0  410 327 
 SJC  HZ I        1735 33.49         9.7 0.50            107            410 327 
 SMAR HN ES   4   1735 46.06                             103   -5.13 0  497 346 
 SMAR HZ I        1735 50.47        11.2 0.20            104            497 346 
                                                                                
