 2016 1213 1217  0.7 L   5.944 -73.659120.3  RSN 15 0.4 2.3LRSN                1
 GAP= 54        0.95       2.0     2.5  5.3 -0.3838E+00  0.1730E+01  0.3024E+01E
 Epicentro: GUAVATA - SANTANDER                                                3
 ACTION:UPD 17-01-11 20:14 OP:rebc STATUS:               ID:20161213121700 L   I
 OLDACT:UP  16-12-13 23:05 OP:ar   STATUS:               ID:20161213120742d    3
 OLDACT:DUP 16-12-13 22:57 OP:ar   STATUS:               ID:20161213120742d    3
 2016-12-13-1208-00M.COL___354                                                 6
 STAT SP IPHASW D HRMM SECON CODA AMPLIT PERI AZIMU VELO AIN AR TRES W  DIS CAZ7
 RUS  HZ IP     C 1217 19.52                             150    0.0710 64.0  95 
 RUS  HN ES       1217 34.07                             150    0.0210 64.0  95 
 RUS  HZ I        1217 35.10        41.5 0.34            154           64.0  95 
 BAR2 EZ IP       1217 21.08                             141    0.2810 89.0  36 
 BAR2 EZ ES       1217 36.55                             141    0.0910 89.0  36 
 PTB  HZ EP       1217 21.38                             134   -0.8410  110 307 
 PTB  HE ES       1217 38.62                             134   -0.3710  110 307 
 PTB  HZ I        1217 43.69        18.6 0.14            137            110 307 
 BRR  HZ EP       1217 23.97                             130    0.0810  129 357 
 BRR  HE ES       1217 42.16                             130    0.2010  129 357 
 BRR  HZ I        1217 43.57        26.5 0.12            133            129 357 
 NOR  HZ EP       1217 25.01                             127   -0.08 9  140 253 
 NOR  HE ES       1217 43.99                             127   -0.09 9  140 253 
 NOR  HZ I        1217 45.99        39.0 0.28            129            140 253 
 ROSC BZ EP   4   1217 27.11                             127    1.39 0  142 211 
 ROSC BN ES   4   1217 47.49                             127    2.28 0  142 211 
 ROSC BZ I        1217 51.82        27.1 0.30            129            142 211 
 CHI  HZ EP       1217 25.93                             126   -0.14 9  146 183 
 CHI  HE ES       1217 45.95                             126    0.12 9  146 183 
 CHI  HZ I        1217 50.59        11.5 0.40            128            146 183 
 PAM  EZ EP       1217 30.58                             119    0.12 9  187  34 
 PAM  EE ES       1217 53.76                             119    0.11 9  187  34 
 PAM  EZ I        1217 58.47        10.8 0.18            122            187  34 
 VIL  EZ EP       1217 31.49                             116   -0.17 9  203 181 
 VIL  EN ES       1217 56.59                             116    0.81 9  203 181 
 VIL  EZ I        1217 59.23        35.2 0.28            119            203 181 
 GUY2CHZ EP       1217 32.85                             116    0.48 9  205 247 
 GUY2CHN ES   4   1217 59.07                             116    2.03 0  205 247 
 GUY2CHZ I        1218  5.41        14.7 0.76                           205 247 
 TAM  HZ EP       1217 33.05                             115    0.28 8  214  75 
 ZAR  HZ EP       1217 33.67                             115    0.64 8  217 322 
 ZAR  HN ES       1217 57.98                             115   -0.25 8  217 322 
 ZAR  HZ I        1218  3.89        20.4 0.18            117            217 322 
 PTGC HZ EP       1217 36.95                             110   -0.60 8  257 139 
 PTGC HN ES       1218  5.35                             110   -0.91 8  257 139 
 PTGC HZ I        1218 11.18        19.7 0.40            113            257 139 
 PRA  HZ EP       1217 40.50                             108    0.02 7  282 209 
 PRA  HN ES       1218 11.08                             108   -0.40 7  282 209 
 PRA  HZ I        1218 16.79        18.5 0.22            110            282 209 
 ORTC HZ EP       1217 40.88                             108   -0.06 7  286 218 
 ORTC HN ES       1218 12.91                             108    0.60 7  286 218 
 ORTC HZ I        1218 17.17        10.8 0.66            110            286 218 
                                                                                
