 2013  113 1954 20.1 L   6.418 -73.672101.7  RSN  8 0.4 2.2LRSN 2.9WRSN        1
 SPEC AVERAGE  MO 13.5 ST  4.6 OM  2.7 f0 4.65 R0.3417 AL 2.26 WI 18.5 MW  2.9 3
 SPEC SD       MO  0.3 ST  3.1 OM  1.1 f0 1.19 R0.1004 AL      WI      MW  0.2 3
 GAP= 78        1.04       3.0     3.9  6.7  0.7758E+00  0.8081E+01  0.3838E+01E
 Epicentro: SANTA HELENA DEL OPON - SANTANDER                                  3
 SPEC RUS HH Z MO 13.1 ST  1.3 OM  0.8 f0 4.28 R0.3435 AL 1.30 WI 12.5 MW  2.7 3
 SPEC RUS HH Z T195438 K 0.000 GD  134 VP 7.60 DE 3.00 Q0230.0 QA 0.60 VS 4.20 3
 SPEC OCA HH N MO 13.8 ST  2.3 OM  2.1 f0 2.92 R0.5034 AL 1.82 WI 25.1 MW  3.2 3
 SPEC OCA HH N T195513 K 0.000 GD  228 VS 4.20 DE 3.00 Q0230.0 QA 0.60 VS 4.20 3
 SPEC NOR HH N MO 13.7 ST  9.0 OM  2.0 f0 5.25 R0.2800 AL 2.65 WI 18.2 MW  3.0 3
 SPEC NOR HH N T1955 5 K 0.000 GD  192 VS 4.20 DE 3.00 Q0230.0 QA 0.60 VS 4.20 3
 SPEC BRR HH N MO 13.3 ST  6.0 OM  1.8 f0 6.13 R0.2398 AL 3.26 WI 18.0 MW  2.8 3
 SPEC BRR HH N T195450 K 0.000 GD  127 VS 4.20 DE 3.00 Q0230.0 QA 0.60 VS 4.20 3
 ACTION:UPD 13-02-15 09:14 OP:ep   STATUS:               ID:20130113195420 L   I
 2013-01-13-1948-36M.COL___169                                                 6
 STAT SP IPHASW D HRMM SECON CODA AMPLIT PERI AZIMU VELO AIN AR TRES W  DIS CAZ7
 BAR2 SZ IP       1954 36.41                             148    0.3010 57.4  70 
 BAR2 SZ ES       1954 49.12                             148    0.5510 57.4  70 
 BAR2 SZ I        1954 50.92        52.8 0.28            146           57.4  70 
 BRR  HZ IP     D 1954 37.20                             140    0.0810 76.3 357 
 BRR  HN ES       1954 50.86                             140    0.4810 76.3 357 
 BRR  HE I        1954 51.79        33.6 0.18            126           76.3 357 
 RUS  HZ EP       1954 38.54                             136   -0.1610 87.3 132 
 RUS  HZ I        1954 39.08        17.1 0.32            126           87.3 132 
 RUS  HE ES       1954 52.46                             136   -0.7310 87.3 132 
 PTB  HZ EP       1954 37.77                             136   -0.3210 87.8 279 
 PTB  HN ES       1954 51.63                             136   -0.4710 87.8 279 
 PTB  HE I        1954 52.33        29.2 0.30            116           87.8 279 
 NOR  HZ EP       1954 45.69                             117    0.09 9  163 235 
 NOR  HN I        1955  9.12        56.3 0.16            104            163 235 
 CHI  HZ EP       1954 50.30                             112    0.34 9  198 182 
 CHI  HE ES       1955 13.46                             112    0.23 9  198 182 
 CHI  HN I        1955 16.20        13.8 0.28            102            198 182 
 OCA  HZ EP       1954 49.91                             111   -0.53 9  205  11 
 OCA  HE ES       1955 13.86                             111   -0.23 9  205  11 
 OCA  HN I        1955 18.81        57.6 0.26            102            205  11 
 HEL  HZ EP       1954 51.40                             110    0.46 8  207 263 
 HEL  HE I        1955 19.87        10.9 0.22            101            207 263 
                                                                                
