 2011 1013 1206 56.3 L   6.755 -73.085146.5  RSN 13 0.4 2.5LRSN                1
 GAP=147        0.78       3.7     4.7  4.8 -0.4915E+01  0.7011E+01 -0.1092E+00E
 Epicentro: LOS SANTOS - SANTANDER                                             3
 ACTION:UPD 12-07-13 16:03 OP:ep   STATUS:               ID:20111013120656 L   I
 2011-10-13-1200-00M.COL___171                                                 6
 STAT SP IPHASW D HRMM SECON CODA AMPLIT PERI AZIMU VELO AIN AR TRES W  DIS CAZ7
 BAR2 SZ EP       12 7 15.90                             171   -0.0310 20.9 211 
 BAR2 SZ ES       12 7 31.71                             171    0.4410 20.9 211 
 BAR2 SZ I        12 7 33.90        41.7 0.33                          20.9 211 
 BTL  SZ EP       12 7 16.21                             169    0.1510 27.2 312 
 GIR2 SZ EP       12 7 16.02                             165   -0.1910 37.8 341 
 PAM  SZ EP       12 7 18.69                             151    0.1410 77.4  33 
 PAM  SN ES       12 7 35.51                             151   -0.4310 77.4  33 
 BRR  HZ IP     C 12 7 17.80                             150   -0.1710 79.5 299 
 BRR  HZ I        12 7 18.30        89.0 0.17                          79.5 299 
 BRR  HE ES       12 7 35.15                             150    0.2410 79.5 299 
 RUS  HZ EP   1   12 7 19.91                             146    0.20 7 95.3 180 
 RUS  HN ES   1   12 7 37.54                             146   -0.46 7 95.3 180 
 RUS  HZ I        12 7 41.35        17.1 0.19                          95.3 180 
 OCA  SZ EP       12 7 25.66                             129    0.48 9  166 351 
 OCA  SZ ES   2   12 7 47.42                             129   -0.32 5  166 351 
 OCA  SZ I        12 7 52.75        26.7 0.24                           166 351 
 ZAR  HZ EP   1   12 7 28.75                             121   -0.84 6  212 293 
 ZAR  HZ I        12 8  0.55        36.7 0.37                           212 293 
 NOR  SZ EP   1   12 7 31.74                             118   -0.58 6  237 236 
 NOR  SN ES   2   12 7 59.90                             118   -0.55 4  237 236 
 CHI  HZ EP   2   12 7 33.78                             118    0.11 4  246 197 
 HEL  HZ EP   1   12 7 37.91                             114    0.81 6  277 257 
 HEL  HN ES   2   12 8  8.61                             114   -0.35 4  277 257 
 HEL  HZ I        12 8 14.30        18.9 0.28                           277 257 
 GUY  SZ EP   2   12 7 40.64                             112    0.17 4  306 237 
 RREF HZ EP   2   12 7 42.53                             111   -0.12 3  324 231 
 RREF HN ES   2   12 8 19.62                             111    0.78 3  324 231 
 RREF HZ I        12 8 27.64        24.8 0.37                           324 231 
                                                                                
