 2014  313 1517 32.0 L   6.826 -73.187138.4  RSN  6 0.4 1.7LRSN                1
 GAP=146        0.89       4.8     4.9  6.4 -0.1077E+02  0.1154E+02 -0.1671E+01E
 Epicentro: ZAPATOCA - SANTANDER                                               3
 ACTION:UPD 14-04-09 23:16 OP:nd   STATUS:               ID:20140313151732 L   I
 OLDACT:REG 14-03-13 15:37 OP:cam  STATUS:               ID:20140313151045     3
 2014-03-13-1510-45M.COL___244                                                 6
 STAT SP IPHASW D HRMM SECON CODA AMPLIT PERI AZIMU VELO AIN AR TRES W  DIS CAZ7
 BAR2 SZ EP       1517 50.72                             169   -0.0510 25.8 179 
 BAR2 SZ ES       1518  5.61                             169    0.1810 25.8 179 
 BAR2 SZ I        1518  8.41        14.6 0.20            169           25.8 179 
 PAM  SZ EP       1517 53.62                             149    0.1610 78.3  43 
 PAM  SN ES       1518 10.43                             149    0.2010 78.3  43 
 PAM  SZ I        1518 12.99         6.2 0.20            155           78.3  43 
 RUS  HZ EP       1517 55.09                             141   -0.1610  104 174 
 RUS  HN ES       1518 12.99                             141   -0.4110  104 174 
 RUS  HZ I        1518 14.58         3.9 0.44            146            104 174 
 PTB  HZ EP       1517 57.64                             131   -0.34 9  144 257 
 PTB  HN ES       1518 17.78                             131   -0.49 9  144 257 
 PTB  HZ I        1518 24.65         8.3 0.22            132            144 257 
 SPBC HZ EP       1517 59.66                             127   -0.19 9  163 217 
 SPBC HN ES       1518 22.25                             127    0.65 9  163 217 
 SPBC HZ I        1518 28.88        10.3 0.34            130            163 217 
 GUY2CHZ EP       1518 15.67                             111    0.66 7  299 234 
 GUY2CHN ES   2   1518 49.27                             111    0.69 4  299 234 
 GUY2CHZ I        1518 57.39         3.0 0.42                           299 234 
                                                                                
