 2010  813 1327 59.7 L   6.773 -73.056138.3  RSN  5 0.2 1.6LRSN                1
 GAP=169        0.52       3.4     6.6  5.9  0.5340E+00 -0.1796E+02 -0.2434E+01E
 Epicentro: LOS SANTOS - SANTANDER                                             3
 ACTION:UP  10-09-07 10:54 OP:vdl  STATUS:               ID:20100813132759 L   I
 2010-08-13-1326-11S.COL___125                                                 6
 STAT SP IPHASW D HRMM SECON CODA AMPLIT PERI AZIMU VELO SNR AR TRES W  DIS CAZ7
 BAR2 SZ EP       1328 18.46                             170     0.010   24 215 
 BAR2 SZ ES   1   1328 33.01                             170     0.0 7   24 215 
 BAR2 SZ I        1328 34.56        11.3 0.23                            24 215 
 BRR  HZ EP       1328 20.42                             148    -0.210   81 297 
 BRR  HN ES   1   1328 37.15                             148     0.1 7   81 297 
 RUS  HZ EP       1328 22.49                             143     0.010   97 182 
 RUS  HZ I        1328 23.65         3.6 0.10                            97 182 
 RUS  HN ES   3   1328 40.14                             143    -0.1 2   97 182 
 GUE  SZ EP   1   1328 23.55                             137    -0.3 7  118   7 
 GUE  SZ ES   2   1328 42.44                             137    -0.2 5  118   7 
 GRA  SZ EP       1328 24.61                             135     0.310  126  13 
 GRA  SZ I        1328 25.83         7.6 0.18                           126  13 
                                                                                
