 2016 1013 1634 33.3 L   6.733 -73.059144.7  RSN  4 0.2 1.6LRSN                1
 GAP=151        0.45       2.4     3.8  4.0 -0.8362E+00 -0.3128E+01  0.8724E+00E
 Epicentro: JORDAN - SANTANDER                                                 3
 ACTION:UPD 16-11-09 19:19 OP:rebc STATUS:               ID:20161013163433 L   I
 OLDACT:UP  16-10-13 23:36 OP:dnl  STATUS:               ID:20161013162737     3
 OLDACT:UP  16-10-13 23:36 OP:dnl  STATUS:               ID:20161013162737     3
 OLDACT:REG 16-10-13 20:28 OP:and  STATUS:               ID:20161013162737     3
 2016-10-13-1628-00M.COL___371                                                 6
 STAT SP IPHASW D HRMM SECON CODA AMPLIT PERI AZIMU VELO AIN AR TRES W  DIS CAZ7
 BAR2 EZ EP       1634 52.78                             171   -0.0010 20.7 221 
 BAR2 EZ ES       1635  8.10                             171    0.1510 20.7 221 
 BAR2 EZ I        1635 10.42        12.0 0.30            171           20.7 221 
 PAM  EZ EP       1634 55.45                             150   -0.0210 77.9  31 
 PAM  EN ES       1635 12.69                             150   -0.0410 77.9  31 
 PAM  EZ I        1635 14.86         5.9 0.50            153           77.9  31 
 BRR  HZ EP   2   1634 54.73                             148   -0.36 5 83.1 300 
 BRR  HN ES       1635 12.05                             148   -0.0010 83.1 300 
 BRR  HZ I        1635 15.07         6.7 0.21            150           83.1 300 
 RUS  HZ EP       1634 56.68                             146    0.2410 93.0 182 
 RUS  HN ES       1635 14.24                             146   -0.2310 93.0 182 
 RUS  HZ I        1635 16.54         4.9 0.34            148           93.0 182 
                                                                                
