 2017  913 1213 37.7 L   6.823 -73.107148.9  RSN  8 0.3 1.7LRSN                1
 GAP=218        0.68       4.4     4.6  5.7  0.1264E+02  0.2113E+01  0.3417E+01E
 Epicentro: LOS SANTOS - SANTANDER                                             3
 ACTION:UPD 17-10-05 19:12 OP:rebc STATUS:               ID:20170913121337 L   I
 OLDACT:UP  17-09-13 22:29 OP:dnl  STATUS:               ID:20170913120747     3
 OLDACT:REG 17-09-13 21:14 OP:dnl  STATUS:               ID:20170913120747     3
 2017-09-13-1208-00M.COL___448                                                 6
 STAT SP IPHASW D HRMM SECON CODA AMPLIT PERI AZIMU VELO AIN AR TRES W  DIS CAZ7
 BAR2 EZ EP       1213 57.77                             169   -0.0210 26.8 198 
 BAR2 EZ ES       1214 12.94                             169   -0.5110 26.8 198 
 BAR2 EZ I        1214 15.60         8.8 0.26            166           26.8 198 
 BRR  HZ EP   2   1213 58.66                             152   -0.69 5 73.9 295 
 BRR  HN ES       1214 16.70                             152    0.4810 73.9 295 
 BRR  HZ I        1214 20.59         9.7 0.24            149           73.9 295 
 RUS  HZ EP       1214  1.99                             144    0.0510  103 179 
 RUS  HE ES       1214 20.98                             144    0.1510  103 179 
 RUS  HZ I        1214 22.50         2.9 0.20            143            103 179 
 SPBC HZ EP   2   1214  6.90                             129    0.01 5  168 220 
 SPBC HN ES       1214 29.50                             129   -0.15 9  168 220 
 SPBC HZ I        1214 33.43         7.0 0.42            128            168 220 
 YPLC HZ EP   2   1214  8.10                             127    0.34 4  177 153 
 YPLC HN ES       1214 31.36                             127    0.17 9  177 153 
 YPLC HZ I        1214 33.14         6.5 0.24            129            177 153 
 ZAR  HZ EP   4   1214  8.23                             123   -2.45 0  207 291 
 ZAR  HE ES       1214 36.41                             123    0.03 8  207 291 
 ZAR  HZ I        1214 43.02         6.1 0.30            122            207 291 
 NOR  HZ EP   2   1214 13.74                             119   -0.41 4  240 235 
 NOR  HE ES   4   1214 41.83                             119   -0.74 0  240 235 
 NOR  HZ I        1214 47.12         3.9 0.58            118            240 235 
 GUY2CHZ EP   4   1214 23.21                             112    1.19 0  306 235 
 GUY2CHN ES   4   1214 59.38                             112    2.80 0  306 235 
 GUY2CHZ I        1215  4.13         2.5 0.70                           306 235 
                                                                                
