 2012  913 1931  8.7 L   6.742 -73.143143.7  RSN  7 0.4 1.9LRSN                1
 GAP=139        0.84       6.2     5.1  9.6 -0.2895E+00  0.7541E+01 -0.1479E+02E
 Epicentro: JORDAN - SANTANDER                                                 3
 ACTION:UPD 12-10-22 14:18 OP:ep   STATUS:               ID:20120913193108 L   I
 2012-09-13-1930-00M.COL___227                                                 6
 STAT SP IPHASW D HRMM SECON CODA AMPLIT PERI AZIMU VELO AIN AR TRES W  DIS CAZ7
 BAR2 SZ EP   1   1931 27.85                             173   -0.14 7 17.1 195 
 BAR2 SZ ES   1   1931 42.40                             173   -0.63 7 17.1 195 
 BAR2 SZ I        1931 45.41        21.2 0.26                          17.1 195 
 GIR2 SZ EP   1   1931 28.20                             165   -0.14 7 37.7 351 
 BRR  HZ EP   1   1931 30.06                             151    0.21 7 74.8 303 
 BRR  HZ I        1931 30.31        16.6 0.26                          74.8 303 
 BRR  HN ES   1   1931 47.02                             151    0.68 7 74.8 303 
 PAM  SZ EP   1   1931 30.96                             149   -0.05 7 82.2  37 
 PAM  SZ I        1931 31.24        15.3 0.16                          82.2  37 
 PAM  SN ES   1   1931 48.32                             149   -0.09 7 82.2  37 
 RUS  HN ES   1   1931 50.41                             145    0.59 7 94.1 176 
 RUS  HZ I        1931 51.89         6.7 0.46                          94.1 176 
 PTB  HN ES   1   1931 55.65                             132   -0.65 7  147 261 
 PTB  HN I        1932  0.84        12.7 0.18                           147 261 
 ZAR  HN ES   1   1932  6.94                             121    0.19 6  207 294 
 ZAR  HZ I        1932 12.82        14.3 0.42                           207 294 
                                                                                
