 2010  713 1003 42.2 L   6.806 -73.071143.7  RSN  4 0.1 1.4LRSN                1
 GAP=205        0.36       7.0    12.9  8.0  0.7939E+02 -0.7941E+02 -0.3130E+02E
 Epicentro: LOS SANTOS - SANTANDER                                             3
 ACTION:UPD 10-12-01 15:17 OP:pat  STATUS:               ID:20100713100342 L   I
 2010-07-13-1000-52S.COL___120                                                 6
 STAT SP IPHASW D HRMM SECON CODA AMPLIT PERI AZIMU VELO AIN AR TRES W  DIS CAZ7
 BAR2 SZ EP   1   10 4  1.59                             169     0.0 7   27 208 
 GIR2 SZ EP   2   10 4  1.70                             166     0.0 5   33 336 
 BRR  HZ EP       10 4  3.44                             150    -0.110   78 295 
 BRR  HN ES       10 4 20.23                             150     0.110   78 295 
 BRR  HZ I        10 4 22.36        12.4 0.60                            78 295 
 RUS  HZ EP       10 4  5.86                             143     0.110  101 181 
 RUS  HN ES   2   10 4 23.96                             143    -0.2 5  101 181 
 RUS  HZ I        10 4 25.31         1.7 0.51                           101 181 
                                                                                
