 2010  213 1746 54.6 L   6.759 -72.935147.6  RSN  4 0.2 2.2LRSN                1
 GAP=324        0.38      10.9    11.4  6.5 -0.8877E+02 -0.8105E+01  0.3934E+02E
 Epicentro: CEPITA - SANTANDER                                                 3
 ACTION:UP  10-08-24 09:48 OP:vdl  STATUS:               ID:20100213174654 L   I
 2010-02-13-1746-29S.COL___093                                                 6
 STAT SP IPHASW D HRMM SECON CODA AMPLIT PERI AZIMU VELO SNR AR TRES W  DIS CAZ7
 BAR2 SZ IP       1747 14.79                             167     0.110   33 236 
 BAR2 SZ ES   2   1747 30.20                             167    -0.2 5   33 236 
 CHI  HZ EP   2   1747 32.79                             117     0.1 4  251 201 
 CHI  HZ I        1747 42.76         5.4 0.47                           251 201 
 RREF BZ EP   1   1747 42.29                             110    -0.3 5  337 233 
 RREF BE ES   2   1748 20.32                             110     0.3 3  337 233 
 RREF BZ I        1748 26.43         8.0 0.43                           337 233 
 PRA  HZ EP       1747 49.15                             106     0.0 6  400 213 
 PRA  HE ES   2   1748 31.48                             106    -0.2 3  400 213 
 PRA  HZ I        1748 36.38         5.5 0.09                           400 213 
                                                                                
