 2016  113 1628 13.3 L   6.776 -73.161157.1  RSN  8 0.2 2.1LRSN                1
 GAP=147        0.62       3.1     4.4  5.7 -0.8010E+01 -0.7902E+01  0.4038E+01E
 Epicentro: LOS SANTOS - SANTANDER                                             3
 ACTION:UPD 16-03-09 23:25 OP:cam  STATUS:               ID:20160113162813 L   I
 OLDACT:REG 16-01-13 23:12 OP:mh   STATUS:               ID:20160113162750     3
 2016-01-13-1627-50M.COL___334                                                 6
 STAT SP IPHASW D HRMM SECON CODA AMPLIT PERI AZIMU VELO AIN AR TRES W  DIS CAZ7
 BAR2 EZ EP       1628 34.15                             172   -0.0810 20.5 187 
 BAR2 EZ I        1628 49.98        13.3 0.18            170           20.5 187 
 BRR  HZ EP       1628 36.04                             154    0.3710 71.1 301 
 BRR  HN ES       1628 53.34                             154    0.2210 71.1 301 
 BRR  HZ I        1628 57.53        21.2 0.38            162           71.1 301 
 PAM  EZ EP       1628 36.92                             152    0.0310 80.4  39 
 PTB  HZ EP       1628 40.89                             135   -0.13 9  146 260 
 PTB  HN ES       1629  2.58                             135   -0.07 9  146 260 
 PTB  HZ I        1629  2.87         9.9 0.24            141            146 260 
 SPBC HZ EP       1628 42.76                             132    0.36 9  160 219 
 SPBC HN ES       1629  4.82                             132   -0.29 9  160 219 
 SPBC HZ I        1629 11.52        15.2 0.22            137            160 219 
 OCA  HZ EP       1628 42.32                             132   -0.40 9  163 354 
 OCA  HN ES       1629  5.53                             132   -0.15 9  163 354 
 OCA  HZ I        1629 13.19        25.2 0.22            137            163 354 
 ZAR  HZ EP       1628 46.62                             125    0.18 9  204 293 
 ZAR  HE ES   4   1629 14.64                             125    2.33 0  204 293 
 ZAR  HZ I        1629 18.15        15.2 0.30            131            204 293 
 NOR  HE ES       1629 17.43                             121   -0.14 8  232 235 
 NOR  HZ I        1629 23.08         7.1 0.22            126            232 235 
                                                                                
