 2017  113 1057 20.8 L   7.106 -73.130141.8  RSN  4 0.2 1.3LRSN                1
 GAP=175        0.43       4.1     3.2  4.2 -0.7385E+01  0.5905E+01 -0.3327E+01E
 Epicentro: BUCARAMANGA - SANTANDER                                            3
 ACTION:UPD 17-05-22 15:59 OP:jn   STATUS:               ID:20170113105720 L   I
 OLDACT:REG 17-01-13 19:57 OP:dani STATUS:               ID:20170113104749     3
 2017-01-13-1048-00M.COL___331                                                 6
 STAT SP IPHASW D HRMM SECON CODA AMPLIT PERI AZIMU VELO AIN AR TRES W  DIS CAZ7
 PAM  EZ EP       1057 41.36                             158    0.0510 54.1  61 
 PAM  EN ES       1057 57.41                             158    0.0610 54.1  61 
 PAM  EZ I        1057 58.40         2.5 0.28            160           54.1  61 
 BAR2 EZ EP       1057 41.11                             157    0.0210 57.1 186 
 BAR2 EZ ES       1057 56.70                             157   -0.2510 57.1 186 
 BAR2 EZ I        1057 57.91         7.8 0.18            159           57.1 186 
 RUS  HZ EP   2   1057 46.62                             134   -0.23 5  134 178 
 RUS  HN ES   2   1058  7.73                             134    0.53 5  134 178 
 PTB  HZ EP       1057 48.48                             129   -0.02 9  159 247 
 PTB  HN ES       1058 10.22                             129    0.07 9  159 247 
 PTB  HZ I        1058 11.75         2.2 0.16            130            159 247 
                                                                                
