 2012  513 1600 33.5 L   6.809 -73.120148.0  RSN 11 0.4 2.4LRSN                1
 GAP=139        0.73       3.2     4.2  5.4 -0.8249E-01  0.7894E+01  0.3732E+01E
 Epicentro: LOS SANTOS - SANTANDER                                             3
 ACTION:UP  12-07-05 12:04 OP:pat  STATUS:               ID:20120513160033 L   I
 2012-05-13-1600-00M.COL___195                                                 6
 STAT SP IPHASW D HRMM SECON CODA AMPLIT PERI AZIMU VELO SNR AR TRES W  DIS CAZ7
 BAR2 SZ IP       16 0 53.26                             170    -0.210   25 196 
 BAR2 SZ ES   1   16 1  8.91                             170    -0.1 7   25 196 
 BAR2 SZ I        16 1  9.73        41.6 0.15                            25 196 
 BRR  HZ EP       16 0 55.03                             152     0.010   73 297 
 BRR  HE ES   1   16 1 12.31                             152     0.5 7   73 297 
 BRR  HZ I        16 1 15.52        43.0 0.18                            73 297 
 PAM  SZ EP   1   16 0 56.08                             152     0.2 7   75  38 
 PAM  SN ES   1   16 1 13.64                             152     0.4 7   75  38 
 RUS  HZ EP   1   16 0 57.22                             144    -0.4 7  101 178 
 RUS  HZ I        16 0 58.48        19.0 0.20                           101 178 
 RUS  HN ES   1   16 1 16.26                             144    -0.1 7  101 178 
 PTB  HZ EP   1   16 1  0.26                             132    -0.7 7  151 259 
 PTB  HE ES   2   16 1 22.03                             132    -0.3 5  151 259 
 PTB  HZ I        16 1 26.13        19.4 0.24                           151 259 
 OCA  HZ EP   2   16 1  2.39                             130     0.4 5  160 352 
 OCA  HN ES   2   16 1 23.51                             130    -0.6 5  160 352 
 OCA  HZ I        16 1 28.71        64.9 0.41                           160 352 
 ZAR  HZ EP   1   16 1  6.52                             123     0.2 6  206 292 
 ZAR  HN ES   1   16 1 31.56                             123    -0.4 6  206 292 
 ZAR  HZ I        16 1 36.46        24.5 0.37                           206 292 
 CHI  HZ EP   1   16 1 11.49                             117    -0.1 6  250 196 
 CHI  HN ES   1   16 1 41.28                             117     0.1 6  250 196 
 CHI  HZ I        16 1 47.03        12.6 0.62                           250 196 
 HEL  HZ EP   1   16 1 14.52                             115     0.3 6  275 256 
 HEL  HN ES   2   16 1 46.34                             115     0.4 4  275 256 
 HEL  HZ I        16 1 53.55        12.6 0.29                           275 256 
 RREF HZ EP   1   16 1 20.28                             111     0.2 5  325 230 
 RREF HN ES   1   16 1 57.11                             111     0.7 5  325 230 
 RREF HZ I        16 2  7.47        14.8 0.24                           325 230 
 PRA  HZ EP   1   16 1 27.69                             107     0.3 4  394 210 
 PRA  HN ES   2   16 2  9.87                             107     0.4 3  394 210 
                                                                                
