 2016  813 1247 42.2 L   6.329 -73.136178.8  RSN  9 0.4 1.9LRSN                1
 GAP=183        0.96       4.6     4.6  6.0 -0.5893E-02  0.8729E+01 -0.1907E+01E
 Epicentro: OCAMONTE - SANTANDER                                               3
 ACTION:UPD 16-10-29 15:35 OP:rebc STATUS:               ID:20160813124742 L   I
 OLDACT:REG 16-08-13 20:10 OP:lv   STATUS:               ID:20160813123759     3
 2016-08-13-1237-59S.COL___349                                                 6
 STAT SP IPHASW D HRMM SECON CODA AMPLIT PERI AZIMU VELO AIN AR TRES W  DIS CAZ7
 BAR2 EZ IP     D 1248  5.81                             170   -0.1410 29.6 350 
 BAR2 EZ ES       1248 24.67                             170    0.2110 29.6 350 
 RUS  HZ EP       1248  6.78                             164   -0.0710 48.6 173 
 RUS  HN ES       1248 26.32                             164    0.2710 48.6 173 
 RUS  HZ I        1248 29.48        17.9 0.32                          48.6 173 
 SPBC HZ EP       1248 10.65                             143    0.0210  128 234 
 SPBC HN ES       1248 32.03                             143   -0.7610  128 234 
 SPBC HZ I        1248 36.53        11.5 0.20                           128 234 
 PTB  HZ EP       1248 11.59                             139   -0.49 9  148 279 
 PTB  HE ES       1248 35.85                             139    0.49 9  148 279 
 PTB  HZ I        1248 38.64         7.1 0.17                           148 279 
 CHI  HE ES       1248 44.33                             130    0.01 9  199 199 
 NOR  HZ EP       1248 17.95                             128    0.32 8  210 246 
 NOR  HE ES       1248 44.98                             128   -0.27 8  210 246 
 NOR  HZ I        1248 49.95         4.1 0.19                           210 246 
 ZAR  HZ EP       1248 18.81                             125   -0.71 8  230 304 
 ZAR  HN ES       1248 48.62                             125    0.01 8  230 304 
 ZAR  HZ I        1248 52.17         6.0 0.16                           230 304 
 HEL  HZ EP       1248 24.22                             122    0.61 8  265 267 
 HEL  HN ES       1248 56.06                             122    0.17 8  265 267 
 HEL  HZ I        1249  1.05         2.9 0.34                           265 267 
 GUY2CHZ EP       1248 25.54                             121    0.72 7  275 244 
 GUY2CHN ES       1248 57.97                             121   -0.06 7  275 244 
 GUY2CHZ I        1249  3.87         2.0 0.24                           275 244 
                                                                                
