 2017  213 1212 47.1 L   6.807 -73.136146.0  RSN 14 0.5 2.4LRSN                1
 GAP=137        1.02       3.5     3.8  5.3  0.1933E+00  0.7428E+01  0.3931E+01E
 Epicentro: LOS SANTOS - SANTANDER                                             3
 ACTION:UPD 17-05-24 15:36 OP:jn   STATUS:               ID:20170213121247 L   I
 OLDACT:UP  17-02-13 23:23 OP:cog  STATUS:               ID:20170213120746     3
 OLDACT:REG 17-02-13 20:44 OP:cog  STATUS:               ID:20170213120746     3
 2017-02-13-1208-00M.COL___346                                                 6
 STAT SP IPHASW D HRMM SECON CODA AMPLIT PERI AZIMU VELO AIN AR TRES W  DIS CAZ7
 BAR2 EZ EP       1213  6.59                             170   -0.1910 24.3 192 
 BAR2 EZ ES       1213 22.05                             170   -0.0810 24.3 192 
 BAR2 EZ I        1213 24.42        93.1 0.30            165           24.3 192 
 BRR  HZ EP       1213  8.44                             152    0.1310 71.8 298 
 BRR  HN ES       1213 25.53                             152    0.6810 71.8 298 
 BRR  HZ I        1213 26.01        46.7 0.12            152           71.8 298 
 PAM  EZ EP       1213  9.38                             151    0.1210 76.0  39 
 PAM  EN ES       1213 26.67                             151    0.1210 76.0  39 
 PAM  EZ I        1213 29.84        24.5 0.46            157           76.0  39 
 RUS  HZ EP       1213 10.60                             144   -0.3310  101 177 
 RUS  HE ES       1213 29.48                             144   -0.0310  101 177 
 RUS  HZ I        1213 30.69        29.4 0.26            141            101 177 
 PTB  HZ EP       1213 13.40                             132   -0.80 9  149 259 
 PTB  HN ES       1213 34.61                             132   -0.73 9  149 259 
 PTB  HZ I        1213 36.96        26.9 0.14            131            149 259 
 ZAR  HZ EP       1213 19.94                             122    0.31 9  205 292 
 ZAR  HN ES       1213 44.99                             122   -0.02 9  205 292 
 CHI  HZ EP       1213 24.98                             117    0.05 8  250 195 
 CHI  HE ES       1213 54.24                             117   -0.19 8  250 195 
 CHI  HZ I        1214  0.37        12.6 0.34            117            250 195 
 ROSC BZ EP   9   1213 27.17                             117    1.80 0  254 211 
 ROSC BN ES       1213 57.23                             116    0.21 8  254 211 
 ROSC BZ I        1214  1.33        34.4 0.45            116            254 211 
 URE  HZ EP   3   1213 27.25                             114   -1.01 2  285 292 
 URE  HN ES   4   1213 56.99                             114   -3.38 0  285 292 
 ELA  HZ EP   3   1213 36.30                             110    2.18 2  330 229 
 ELA  HN ES       1214 12.09                             110    1.30 7  330 229 
 ELA  HZ I        1214 23.28        10.3 0.46            110            330 229 
 CBOC HZ EP       1213 34.85                             110    0.68 7  335 252 
 CBOC HE ES       1214 10.73                             110   -0.16 7  335 252 
 CBOC HZ I        1214 23.12         4.0 0.40            110            335 252 
 DBB  EZ EP       1213 34.70                             109   -0.00 7  341 274 
 DBB  EN ES       1214 11.20                             109   -0.64 7  341 274 
 ANIL HN ES   4   1214 18.47                             108    2.42 0  359 225 
 PRA  HZ EP       1213 40.53                             106   -0.25 6  393 210 
 PRA  HE ES   4   1214 22.09                             106   -0.55 0  393 210 
 PRA  HZ I        1214 28.94        15.1 0.36            106            393 210 
 ORTC HZ EP       1213 41.14                             106   -0.04 6  397 216 
 ORTC HN ES       1214 24.28                             106    0.92 6  397 216 
 ORTC HZ I        1214 30.27         6.6 0.54            106            397 216 
                                                                                
