 2010  113 1234  9.5 L   6.849 -73.151146.7  RSN  4 0.2 1.8LRSN                1
 GAP=327        0.35       5.8    12.4  5.5 -0.3752E+02  0.3388E+02 -0.1035E+01E
 Epicentro: LOS SANTOS - SANTANDER                                             3
 ACTION:UP  10-08-24 09:43 OP:vdl  STATUS:               ID:20100113123409 L   I
 2010-01-13-1229-17S.COL___094                                                 6
 STAT SP IPHASW D HRMM SECON CODA AMPLIT PERI AZIMU VELO SNR AR TRES W  DIS CAZ7
 BAR2 SZ EP   1   1234 29.23                             168    -0.1 7   29 187 
 BAR2 SZ ES   2   1234 44.86                             168     0.0 5   29 187 
 RUS  BZ EP   1   1234 33.83                             142     0.1 7  106 176 
 RUS  BE ES   2   1234 52.72                             142     0.1 5  106 176 
 RUS  BZ I        1234 53.60         5.2 0.27                           106 176 
 CHI  HZ EP   1   1234 47.68                             117    -0.1 6  254 195 
 CHI  HZ I        1234 48.80         3.4 0.49                           254 195 
 CHI  HN ES   2   1235 17.29                             117    -0.4 4  254 195 
 PRA  HZ EP   1   1235  3.74                             106     0.2 4  396 209 
 PRA  HZ I        1235  5.49         3.7 0.60                           396 209 
 PRA  HE ES   2   1235 45.96                             106     0.2 3  396 209 
                                                                                
