 2016  913 1727 30.0 L   6.793 -73.147142.7  RSN  8 0.2 1.6LRSN                1
 GAP=137        0.65       3.2     3.7  5.3 -0.3580E+01 -0.1225E+01  0.2623E+01E
 Epicentro: LOS SANTOS - SANTANDER                                             3
 ACTION:UPD 17-08-17 21:09 OP:lp   STATUS:               ID:20160913172730 L   I
 OLDACT:DUP 16-09-13 23:48 OP:dnl  STATUS:               ID:20160913171731d    3
 2016-09-13-1718-00M.COL___318                                                 6
 STAT SP IPHASW D HRMM SECON CODA AMPLIT PERI AZIMU VELO AIN AR TRES W  DIS CAZ7
 BAR2 EZ EP   2   1727 48.81                             171   -0.44 5 22.5 190 
 BAR2 EZ ES       1728  4.13                             171   -0.1310 22.5 190 
 BAR2 EZ I        1728  5.82         7.4 0.14            169           22.5 190 
 BRR  HZ EP   2   1727 50.79                             152   -0.05 5 71.4 299 
 BRR  HE ES       1728  6.94                             152   -0.1410 71.4 299 
 BRR  HZ I        1728 11.22        18.7 0.38            148           71.4 299 
 PAM  EZ EP       1727 52.20                             150    0.2610 78.1  39 
 PAM  EN ES       1728  8.97                             150   -0.0810 78.1  39 
 PAM  EZ I        1728 11.29         7.7 0.44            152           78.1  39 
 RUS  HZ EP   2   1727 53.45                             144    0.05 5 99.8 176 
 RUS  HE ES       1728 11.88                             144    0.2310 99.8 176 
 RUS  HZ I        1728 13.36         2.7 0.34            144           99.8 176 
 PTB  HZ EP   2   1727 56.25                             131   -0.45 5  147 259 
 PTB  HN ES   2   1728 17.83                             131    0.32 5  147 259 
 PTB  HZ I        1728 19.25         3.7 0.10            129            147 259 
 SPBC HZ EP   2   1727 58.24                             129    0.04 5  162 219 
 SPBC HN ES       1728 20.18                             129   -0.01 9  162 219 
 SPBC HZ I        1728 26.65         5.7 0.24            127            162 219 
 ZAR  HZ EP   9   1728  4.06                             122    1.79 0  204 292 
 ZAR  HE ES       1728 29.97                                    0.75 9  204 292 
 ZAR  HZ I        1728 33.86         4.9 0.26            120            204 292 
 GUY2CHZ EP   4   1728 15.45                             112    2.04 0  301 235 
 GUY2CHE ES   4   1728 51.02                             112    3.76 0  301 235 
 GUY2CHZ I        1728 55.73         1.5 0.28                           301 235 
                                                                                
