 2012 1113 1022 38.3 L   6.793 -73.146148.2  RSN  6 0.4 1.4LRSN                1
 GAP=137        1.07       5.9     6.6  8.0 -0.9346E+01  0.6057E+01  0.3221E+00E
 Epicentro: LOS SANTOS - SANTANDER                                             3
 ACTION:UPD 12-12-05 15:33 OP:}ep  STATUS:               ID:20121113102238 L   I
 2012-11-13-1020-00M.COL___230                                                 6
 STAT SP IPHASW D HRMM SECON CODA AMPLIT PERI AZIMU VELO AIN AR TRES W  DIS CAZ7
 BAR2 SZ EP       1022 57.86                             171   -0.3510 22.6 190 
 BAR2 SZ ES       1023 13.65                             171   -0.1010 22.6 190 
 BAR2 SZ I        1023 15.98         5.4 0.40                          22.6 190 
 GIR2 SZ EP       1022 59.18                             167    0.8910 32.0 350 
 GIR2 SZ ES       1023 14.28                             167    0.4010 32.0 350 
 BRR  HZ EP       1022 59.83                             153    0.0910 71.6 299 
 PAM  SZ EP       1023  0.68                             151   -0.1410 78.0  39 
 PAM  SN ES       1023 17.85                             151   -0.5310 78.0  39 
 RUS  HZ EP       1023  2.04                             144   -0.2010 99.8 176 
 RUS  HN ES       1023 21.15                             144    0.2410 99.8 176 
 RUS  HN I        1023 22.07         3.1 0.16                          99.8 176 
 PTB  HN ES       1023 26.29                             133   -0.35 9  148 259 
 PTB  HN I        1023 27.12         4.0 0.48                           148 259 
                                                                                
