 2016  513 1635 40.5 L   6.754 -73.183147.1  RSN  7 0.4 1.7LRSN                1
 GAP=230        1.03       5.0     5.8  6.8  0.9687E+01  0.9824E+01  0.7539E+01E
 Epicentro: LOS SANTOS - SANTANDER                                             3
 ACTION:UPD 16-08-18 17:45 OP:cam  STATUS:               ID:20160513163540 L   I
 OLDACT:REG 16-05-13 20:45 OP:ak   STATUS:               ID:20160513162748     3
 2016-05-13-1627-48M.COL___309                                                 6
 STAT SP IPHASW D HRMM SECON CODA AMPLIT PERI AZIMU VELO AIN AR TRES W  DIS CAZ7
 BAR2 EZ EP       1635 59.88                             173   -0.2910 17.8 180 
 BAR2 EZ ES       1636 15.69                             173    0.1610 17.8 180 
 BAR2 EZ I        1636 16.11        11.1 0.22            169           17.8 180 
 BRR  HZ EP       1636  2.04                             153    0.3210 70.3 304 
 BRR  HE ES       1636 18.83                             153    0.5410 70.3 304 
 BRR  HZ I        1636 21.49        14.7 0.28            152           70.3 304 
 RUS  HZ EP       1636  4.22                             145    0.2010 95.8 173 
 RUS  HN ES       1636 21.90                             145   -0.4910 95.8 173 
 RUS  HZ I        1636 23.85         7.0 0.26            145           95.8 173 
 PTB  HZ EP       1636  6.52                             133   -0.58 9  143 261 
 PTB  HN ES       1636 27.09                             133   -0.79 9  143 261 
 PTB  HZ I        1636 29.74         5.7 0.18            132            143 261 
 SPBC HZ EP       1636  8.72                             131    0.26 9  157 219 
 SPBC HE ES       1636 30.59                             131    0.30 9  157 219 
 SPBC HZ I        1636 35.30         7.3 0.14            130            157 219 
 ZAR  HZ EP   2   1636 12.30                             123   -0.52 4  202 294 
 ZAR  HE ES       1636 38.18                             123    0.13 9  202 294 
 ZAR  HZ I        1636 40.25         4.2 0.30            123            202 294 
 PRA  HZ EP       1636 33.36                             107    0.08 6  386 209 
 PRA  HE ES       1637 15.19                             107    0.72 6  386 209 
 PRA  HZ I        1637 20.48         1.4 0.40            108            386 209 
                                                                                
