 2010  113 1123 41.0 L   6.788 -73.013147.5  RSN  5 0.4 1.8LRSN                1
 GAP=216        0.61       6.3    18.5  7.5 -0.4323E+02  0.2154E+02  0.1641E+02E
 Epicentro: CEPITA - SANTANDER                                                 3
 ACTION:UP  10-08-24 09:43 OP:vdl  STATUS:               ID:20100113112341 L   I
 2010-01-13-1120-00S.COL___096                                                 6
 STAT SP IPHASW D HRMM SECON CODA AMPLIT PERI AZIMU VELO SNR AR TRES W  DIS CAZ7
 BAR2 SZ EP   1   1124  0.84                             169    -0.1 7   29 221 
 BAR2 SZ ES   2   1124 16.12                             169    -0.4 5   29 221 
 GIR2 SZ EP   1   1124  1.49                             165     0.5 7   38 328 
 GIR2 SZ ES   2   1124 16.41                             165    -0.3 5   38 328 
 RUS  BZ EP   1   1124  4.58                             145    -0.2 7   99 184 
 RUS  BE ES   2   1124 23.91                             145     0.5 5   99 184 
 CHI  HZ EP   1   1124 18.61                             117    -0.5 6  252 198 
 CHI  HN ES   2   1124 49.07                             117     0.3 4  252 198 
 CHI  HZ I        1124 52.33         2.3 0.62                           252 198 
 PRA  HZ EP   1   1124 35.66                             106     0.4 4  398 212 
 PRA  HE ES   2   1125 17.42                             106    -0.2 3  398 212 
 PRA  HZ I        1125 24.69         2.5 0.83                           398 212 
                                                                                
