 2012 1213 1005 22.2 L   6.797 -73.134150.3  RSN 31 0.6 4.0LRSN 4.2WRSN        1
 SPEC AVERAGE  MO 15.4 ST121.5 OM  3.7 f0 3.05 R0.5746 AL 3.28 WI 21.2 MW  4.2 3
 SPEC SD       MO  0.2 ST 88.6 OM  0.3 f0 1.11 R0.3111 AL      WI      MW  0.1 3
 GAP= 68        1.02       2.7     3.5  4.9 -0.6845E+00  0.3728E+01  0.2956E+01E
 Epicentro: LOS SANTOS - SANTANDER                                             3
 SPEC URE HH N MO 15.3 ST106.5 OM  3.4 f0 3.37 R0.4362 AL 3.88 WI 33.1 MW  4.1 3
 SPEC URE HH N T10 631 K 0.000 GD  322 VS 4.20 DE 3.20 Q0300.0 QA 0.60 VS 4.20 3
 SPEC ZAR HH E MO 15.7 ST221.2 OM  3.9 f0 3.17 R0.4637 AL 2.63 WI 15.8 MW  4.4 3
 SPEC ZAR HH E T10 620 K 0.000 GD  254 VS 4.20 DE 3.20 Q0300.0 QA 0.60 VS 4.20 3
 SPEC TAM HH E MO 15.5 ST 60.6 OM  3.8 f0 2.35 R0.6255 AL 3.49 WI 11.2 MW  4.3 3
 SPEC TAM HH E T10 611 K 0.000 GD  215 VS 4.20 DE 3.20 Q0300.0 QA 0.60 VS 4.20 3
 SPEC PTB HH E MO 15.3 ST 85.5 OM  3.6 f0 3.09 R0.4757 AL 2.23 WI 19.5 MW  4.2 3
 SPEC PTB HH E T10 6 9 K 0.000 GD  211 VS 4.20 DE 3.20 Q0300.0 QA 0.60 VS 4.20 3
 SPEC RUS HH N MO 15.2 ST 48.9 OM  3.5 f0 2.92 R0.5034 AL 3.07 WI 13.1 MW  4.0 3
 SPEC RUS HH N T10 6 3 K 0.000 GD  180 VS 4.20 DE 3.20 Q0300.0 QA 0.60 VS 4.20 3
 SPEC PRA HH E MO 15.6 ST 99.9 OM  3.6 f0 2.59 R0.5676 AL 2.53 WI 16.9 MW  4.4 3
 SPEC PRA HH E T10 657 K 0.000 GD  419 VS 4.20 DE 3.20 Q0300.0 QA 0.60 VS 4.20 3
 SPEC MON HH N MO 15.6 ST 46.1 OM  3.6 f0 2.06 R0.7136 AL 2.59 WI 26.4 MW  4.3 3
 SPEC MON HH N T10 646 K 0.000 GD  385 VS 4.20 DE 3.20 Q0300.0 QA 0.60 VS 4.20 3
 SPEC HEL HH N MO 15.5 ST 28.8 OM  3.6 f0 1.89 R0.7778 AL 2.62 WI 30.7 MW  4.3 3
 SPEC HEL HH N T10 633 K 0.000 GD  311 VS 4.20 DE 3.20 Q0300.0 QA 0.60 VS 4.20 3
 SPEC OCA HH N MO 15.5 ST217.4 OM  3.8 f0 3.57 R0.4118 AL 3.79 WI 16.8 MW  4.3 3
 SPEC OCA HH N T10 612 K 0.000 GD  220 VS 4.20 DE 3.20 Q0300.0 QA 0.60 VS 4.20 3
 SPEC FLO2HH Z MO 15.7 ST  5.4 OM  2.7 f00.927 R1.5858 AL 2.41 WI 51.3 MW  4.4 3
 SPEC FLO2HH Z T10 642 K 0.000 GD  658 VP 7.60 DE 3.20 Q0300.0 QA 0.60 VS 4.20 3
 SPEC ANILHH N MO 15.6 ST235.8 OM  3.6 f0 3.54 R0.4153 AL 3.42 WI 22.5 MW  4.3 3
 SPEC ANILHH N T10 650 K 0.000 GD  388 VS 4.20 DE 3.20 Q0300.0 QA 0.60 VS 4.20 3
 SPEC COD HH E MO 15.1 ST 45.3 OM  3.1 f0 3.02 R0.4868 AL 3.44 WI 19.8 MW  4.0 3
 SPEC COD HH E T10 647 K 0.000 GD  379 VS 4.20 DE 3.20 Q0300.0 QA 0.60 VS 4.20 3
 SPEC CHI HH N MO 15.3 ST243.0 OM  3.4 f0 4.59 R0.3203 AL 5.28 WI 11.8 MW  4.1 3
 SPEC CHI HH N T10 629 K 0.000 GD  290 VS 4.20 DE 3.20 Q0300.0 QA 0.60 VS 4.20 3
 SPEC BRR HH N MO 15.0 ST257.2 OM  3.4 f0 5.63 R0.2611 AL 4.56 WI  8.0 MW  4.0 3
 SPEC BRR HH N T10 6 1 K 0.000 GD  166 VS 4.20 DE 3.20 Q0300.0 QA 0.60 VS 4.20 3
 ACTION:UPD 13-01-04 14:27 OP:ep   STATUS:               ID:20121213100522 L   I
 2012-12-13-1000-00M.COL___242                                                 6
 STAT SP IPHASW D HRMM SECON CODA AMPLIT PERI AZIMU VELO AIN AR TRES W  DIS CAZ7
 BAR2 SZ EP       10 5 42.36                             171    0.0010 23.3 193 
 BAR2 SZ ES   1   10 5 57.88                             171   -0.22 7 23.3 193 
 BAR2 SZ I        10 5 59.29      5279.8 0.32                          23.3 193 
 GIR2 SZ EP     C 10 5 42.43                             167    0.0110 31.8 348 
 GIR2 SZ ES   1   10 5 58.37                             167    0.18 7 31.8 348 
 GIR2 SZ I        10 5 59.74       947.3 0.37                          31.8 348 
 BRR  HZ EP     C 10 5 44.22                             153    0.3210 72.5 298 
 BRR  HN ES   1   10 6  1.59                             153    0.75 7 72.5 298 
 BRR  HZ I        10 6  4.19      1020.4 0.16                          72.5 298 
 PAM  SZ EP       10 5 45.14                             151    0.2810 76.8  39 
 PAM  SN ES   1   10 6  2.65                             151    0.12 7 76.8  39 
 PAM  SZ I        10 6  4.76      1056.1 0.54                          76.8  39 
 RUS  HZ EP   1   10 5 46.28                             145   -0.08 7  100 177 
 RUS  HN ES   1   10 6  4.19                             145   -1.02 7  100 177 
 RUS  HZ I        10 6  6.43      1342.8 0.38                           100 177 
 PTB  HZ EP   1   10 5 48.95                             133   -0.69 7  149 259 
 PTB  HE ES   1   10 6  9.85                             133   -1.21 7  149 259 
 PTB  HZ I        10 6 18.01      2167.2 0.46                           149 259 
 TAM  HZ IP     C 10 5 50.52                             132    0.41 9  154 105 
 TAM  HZ I        10 6 11.59       968.4 0.36                           154 105 
 TAM  HE ES   1   10 6 12.00                             132    0.12 7  154 105 
 OCA  HZ EP   1   10 5 50.64                             130   -0.26 7  161 353 
 OCA  HN ES   1   10 6 13.29                             130    0.00 7  161 353 
 OCA  HZ I        10 6 18.53      1827.7 0.26                           161 353 
 ZAR  HZ EP       10 5 54.87                             123   -0.20 8  205 292 
 ZAR  HE ES   1   10 6 20.82                             123    0.10 6  205 292 
 ZAR  HZ I        10 6 27.02      1990.6 0.28                           205 292 
 CTAB SZ EP   1   10 5 59.57                             120    1.31 6  230 211 
 SML  HZ EP   1   10 5 59.00                             118   -0.17 6  245 335 
 SML  HE ES   1   10 6 28.15                             118    0.14 6  245 335 
 CHI  HZ EP     D 10 6  0.06                             118   -0.09 8  249 195 
 CHI  HN ES   1   10 6 29.89                             118    0.14 6  249 195 
 CHI  HZ I        10 6 35.98       593.6 0.42                           249 195 
 ROSC BZ EP     D 10 6  1.80                             117    1.19 8  253 211 
 ROSC BE ES   1   10 6 29.42                             117   -1.15 6  253 211 
 ROSC BZ I        10 6 40.61      1768.0 0.40                           253 211 
 CVER SZ EP   1   10 6  3.55                             116    0.74 6  272 203 
 HEL  HZ EP   1   10 6  2.04                             115   -0.73 6  273 256 
 HEL  HN ES   1   10 6 34.64                             115    0.22 6  273 256 
 HEL  HZ I        10 6 41.80       946.4 0.30                           273 256 
 URE  HZ EP   4   10 6  2.23                             114   -1.41 0  285 292 
 URE  HN ES   4   10 6 32.38                             114   -3.58 0  285 292 
 VIL  SZ EP   1   10 6  5.62                             113   -0.19 5  303 192 
 VIL  SN ES   1   10 6 38.83                             113   -1.01 5  303 192 
 RREF HZ EP   1   10 6  9.57                             111    0.95 5  323 230 
 RREF HE ES   1   10 6 45.44                             111    0.60 5  323 230 
 RREF HZ I        10 6 54.40       914.1 0.40                           323 230 
 COD  HZ EP       10 6  9.88                             109   -0.92 6  349 354 
 COD  HE ES   1   10 6 48.06                             109   -0.66 5  349 354 
 COD  HZ I        10 6 57.93       196.7 0.38                           349 354 
 MON  HZ EP   4   10 6  9.53                             109   -1.98 0  355 308 
 MON  HN ES   4   10 6 47.85                             109   -2.14 0  355 308 
 ANIL HZ EP   1   10 6 13.16                             109    0.91 5  358 225 
 ANIL HN ES   1   10 6 51.78                             109    0.48 5  358 225 
 ANIL HZ I        10 6 59.23       805.9 0.38                           358 225 
 PRA  HZ EP   1   10 6 15.64                             107   -0.28 4  392 210 
 PRA  HE ES   1   10 6 58.10                             107    0.28 4  392 210 
 PRA  HZ I        10 7  3.34       671.0 0.40                           392 210 
 PAL  HZ EP   1   10 6 18.12                             106    0.50 4  407 239 
 SJC  HN ES   4   10 6 57.30                             106   -4.27 0  410 327 
 VALL EZ EP   9   10 6 25.01                             106    6.97 0  411 358 
 VALL EN ES   2   10 7  9.92                                    1.35 3  411 358 
 YOT  HZ EP   1   10 6 24.91                             104   -0.55 4  473 229 
 YOT  HZ I        10 7 26.44        41.2 0.54                           473 229 
 GUA  SZ EP   1   10 6 23.91                             104   -1.50 4  474 173 
 GUA  SE ES   1   10 7 14.51                             104   -0.22 4  474 173 
 GUA  SZ I        10 7 18.29       230.2 0.20                           474 173 
 SMAR HZ EP   1   10 6 27.40                             103   -0.86 3  498 346 
 SMAR HE ES   4   10 7 15.32                             103   -4.47 0  498 346 
 BET  SZ EP   1   10 6 30.16                             102   -1.09 3  522 209 
 MARA HZ EP   1   10 6 32.64                             102   -0.74 3  538 216 
 PCON HZ EP   1   10 6 42.80                             100    0.08 2  613 216 
 FLO2 HZ EP   1   10 6 44.72                              99   -0.72 2  641 206 
 FLO2 HZ I        10 8  0.61        35.8 0.50                           641 206 
 SOTA HZ EP   1   10 6 46.94                              99    0.57 2  644 217 
 CRU  SZ EP   1   10 6 55.85                              98    0.84 1  717 216 
                                                                                
