 2016  613 1415 12.7 L   6.415 -73.665123.7  RSN  7 0.2 1.6LRSN                1
 GAP= 77        0.58       3.0     2.7  5.6 -0.3033E+01 -0.3900E+01 -0.1489E+01E
 Epicentro: SANTA HELENA DEL OPON - SANTANDER                                  3
 ACTION:UPD 16-07-21 22:18 OP:rebc STATUS:               ID:20160613141512 L   I
 OLDACT:DUP 16-06-14 00:24 OP:dani STATUS:               ID:20160613140742d    3
 OLDACT:UP  16-06-14 00:21 OP:dani STATUS:               ID:20160613140741     3
 OLDACT:UP  16-06-14 00:21 OP:dani STATUS:               ID:20160613140741     3
 OLDACT:UP  16-06-14 00:14 OP:dani STATUS:               ID:20160613140741     3
 OLDACT:REG 16-06-13 21:12 OP:dani STATUS:               ID:20160613140741     3
 2016-06-13-1407-41M.COL___328                                                 6
 STAT SP IPHASW D HRMM SECON CODA AMPLIT PERI AZIMU VELO AIN AR TRES W  DIS CAZ7
 BAR2 EZ EP       1415 31.21                             154    0.2410 56.9  70 
 BAR2 EZ I        1415 46.29        24.3 0.14                          56.9  70 
 BRR  HZ EP       1415 31.92                             146    0.0810 76.7 356 
 BRR  HN ES   2   1415 47.26                             146    0.46 5 76.7 356 
 RUS  HZ EP       1415 33.08                             143   -0.1510 86.5 132 
 RUS  HE ES   2   1415 48.78                             143   -0.49 5 86.5 132 
 RUS  HZ I        1415 56.20         4.3 0.40                          86.5 132 
 PTB  HZ EP       1415 32.43                             142   -0.2810 88.6 279 
 PTB  HE ES       1415 48.22                             142   -0.1310 88.6 279 
 PTB  HZ I        1415 49.27         7.5 0.30                          88.6 279 
 SPBC HN ES       1415 49.73                             140    0.2310 95.6 208 
 PAM  EZ EP       1415 38.40                             127   -0.16 9  148  46 
 PAM  EN ES   2   1415 58.89                             127    0.13 5  148  46 
 PAM  EZ I        1416  0.09         4.9 0.46                           148  46 
 NOR  HZ EP       1415 39.87                             124    0.35 9  163 235 
 NOR  HE ES       1416  0.29                             124   -0.18 9  163 235 
 NOR  HZ I        1416  2.11         4.3 0.24                           163 235 
                                                                                
