 2016  913 1241 18.2 L   7.374 -73.117  7.2  RSN  8 0.4 2.0LRSN                1
 GAP=108        1.06       2.1     2.6  6.1 -0.1318E+00  0.8454E+01 -0.4940E+00E
 Epicentro: MATANZA - SANTANDER                                                3
 ACTION:UPD 17-08-17 21:09 OP:lp   STATUS:               ID:20160913124118 L   I
 OLDACT:REG 16-09-13 21:05 OP:dnl  STATUS:               ID:20160913123734     3
 2016-09-13-1238-00M.COL___312                                                 6
 STAT SP IPHASW D HRMM SECON CODA AMPLIT PERI AZIMU VELO AIN AR TRES W  DIS CAZ7
 PAM  EZ EP     D 1241 26.60                              95    0.3210 46.2  95 
 PAM  EN ES       1241 32.82                              95    0.2110 46.2  95 
 PAM  EZ I        1241 34.02       114.1 0.14             47           46.2  95 
 BRR  HZ EP       1241 30.02                              93    0.3410 72.1 246 
 BRR  HE ES       1241 39.09                              93    0.4210 72.1 246 
 BRR  HZ I        1241 40.97        22.3 0.16             47           72.1 246 
 BAR2 EZ EP       1241 32.03                              92   -0.1210 86.7 185 
 BAR2 EZ ES       1241 42.61                              92   -0.4510 86.7 185 
 BAR2 EZ I        1241 43.72        43.0 0.16             47           86.7 185 
 OCA  HZ EP       1241 33.62                              92   -0.1910 98.2 347 
 OCA  HN ES       1241 45.39                              92   -0.6210 98.2 347 
 OCA  HZ I        1241 47.80        73.8 0.72             47           98.2 347 
 RUS  HZ EP       1241 44.47                              91    0.38 9  164 179 
 RUS  HN ES       1242  3.63                              91   -0.69 9  164 179 
 RUS  HZ I        1242  6.48         9.7 0.24             47            164 179 
 PTB  HZ EP       1241 45.45                              56    0.48 9  174 238 
 PTB  HE ES       1242  5.41                              56   -0.47 9  174 238 
 PTB  HZ I        1242  7.08        19.4 0.24             47            174 238 
 ZAR  HZ EP       1241 47.75                              56    0.51 9  193 274 
 ZAR  HE ES       1242  9.87                              56   -0.05 9  193 274 
 ZAR  HZ I        1242 11.36        28.5 0.24             37            193 274 
 SPBC HZ EP   4   1241 52.92                              56    2.45 0  218 209 
 SPBC HE ES   4   1242 19.40                              56    3.73 0  218 209 
 SPBC HZ I        1242 22.69        11.4 0.28             37            218 209 
                                                                                
