 2015  413 1801 32.7 L   6.797 -73.156155.2  RSN 16 0.4 2.4LRSN                1
 GAP=135        0.91       2.9     3.5  5.5 -0.1877E+01  0.5382E+01 -0.3074E+01E
 Epicentro: LOS SANTOS - SANTANDER                                             3
 ACTION:UPD 15-06-03 16:54 OP:cam  STATUS:               ID:20150413180132 L   I
 OLDACT:REG 15-04-13 20:07 OP:spq  STATUS:               ID:20150413175748     3
 2015-04-13-1757-48M.COL___272                                                 6
 STAT SP IPHASW D HRMM SECON CODA AMPLIT PERI AZIMU VELO AIN AR TRES W  DIS CAZ7
 BAR2 EZ EP       18 1 53.53                             171    0.0710 22.8 187 
 BAR2 EZ ES   1   18 2  9.46                             171   -0.19 7 22.8 187 
 BAR2 EZ I        18 2 10.10        49.3 0.41            169           22.8 187 
 BRR  HZ EP     C 18 1 55.41                             154    0.5710 70.4 299 
 BRR  HN ES       18 2 12.75                             154    0.6510 70.4 299 
 BRR  HZ I        18 2 13.84        37.1 0.14            150           70.4 299 
 PAM  SZ EP       18 1 56.29                             152    0.3010 78.4  40 
 PAM  SN ES       18 2 13.65                             152   -0.5010 78.4  40 
 PAM  SZ I        18 2 16.06        43.1 0.62            156           78.4  40 
 RUS  HZ EP       18 1 57.74                             146    0.3610  100 175 
 RUS  HE ES       18 2 16.22                             146   -0.4010  100 175 
 RUS  HZ I        18 2 17.81        24.7 0.40            147            100 175 
 PTB  HZ EP   1   18 1 59.99                             134   -0.37 7  147 259 
 PTB  HN ES       18 2 21.53                             134   -0.39 9  147 259 
 PTB  HZ I        18 2 28.79        30.6 0.44            132            147 259 
 OCA  HZ EP       18 2  1.59                             131   -0.20 9  161 354 
 OCA  HN ES       18 2 24.26                             131   -0.21 9  161 354 
 OCA  HZ I        18 2 27.82        39.0 0.18            132            161 354 
 SPBC HN ES       18 2 24.62                             131    0.03 9  162 219 
 SPBC HZ I        18 2 27.33        41.3 0.32            130            162 219 
 ZAR  HZ EP   1   18 2  6.07                             124    0.37 6  203 292 
 ZAR  HE ES       18 2 31.89                             124    0.46 9  203 292 
 ZAR  HZ I        18 2 38.62        32.8 0.28            123            203 292 
 NOR  HZ EP   1   18 2  8.43                             120   -0.46 6  234 234 
 NOR  HN ES       18 2 36.89                             120   -0.21 8  234 234 
 NOR  HZ I        18 2 45.38        12.8 0.18            120            234 234 
 SML  HZ EP       18 2 10.12                             119    0.25 8  244 336 
 SML  HE ES   1   18 2 38.73                             119   -0.12 6  244 336 
 SML  HZ I        18 2 41.40        38.4 0.10            120            244 336 
 HEL  HE ES   4   18 2 46.69                             117    1.74 0  271 256 
 HEL  HZ I        18 2 52.14        12.5 0.38            116            271 256 
 GUY2CHZ EP   4   18 2 19.46                             114    2.81 0  300 235 
 GUY2CHN ES   4   18 2 55.06                             114    4.15 0  300 235 
 GUY2CHZ I        18 3  0.08         7.1 0.38                           300 235 
 CBOC HZ EP   4   18 2 21.75                             111    1.85 0  332 252 
 CBOC HN ES   1   18 2 57.25                             111    0.55 5  332 252 
 CBOC HZ I        18 3  7.19         3.0 0.37            112            332 252 
 DBB  SZ ES   1   18 2 57.02                             111   -0.69 5  338 274 
 DBB  SZ I        18 3  1.31        28.7 0.34            111            338 274 
 MON  HZ EP   4   18 2 20.76                             110   -1.26 0  353 309 
 MON  HN ES   1   18 2 59.60                             110   -0.88 5  353 309 
 MON  HZ I        18 3  1.54         5.0 0.30            110            353 309 
 SJC  HZ EP   1   18 2 27.72                             107   -0.85 4  409 327 
 SJC  HN ES   4   18 3 11.06                             107   -1.07 0  409 327 
 SJC  HZ I        18 3 13.19         4.6 0.60            108            409 327 
                                                                                
