 2017  913 1119 32.8 L   6.741 -73.086147.8  RSN 10 0.3 1.9LRSN                1
 GAP=127        0.75       2.5     3.2  4.6 -0.1999E-01  0.2894E+01  0.3824E+01E
 Epicentro: JORDAN - SANTANDER                                                 3
 ACTION:UPD 17-10-05 19:12 OP:rebc STATUS:               ID:20170913111932 L   I
 OLDACT:REG 17-09-13 21:13 OP:dnl  STATUS:               ID:20170913111139     3
 2017-09-13-1118-00M.COL___439                                                 6
 STAT SP IPHASW D HRMM SECON CODA AMPLIT PERI AZIMU VELO AIN AR TRES W  DIS CAZ7
 BAR2 EZ IP     C 1119 52.59                             172   -0.0010 19.6 213 
 BAR2 EZ ES       1120  7.69                             172   -0.3510 19.6 213 
 BAR2 EZ I        1120  8.65        10.0 0.10            168           19.6 213 
 PAM  EZ EP       1119 55.72                             151    0.4310 78.7  33 
 PAM  EN ES       1120 12.73                             151   -0.1210 78.7  33 
 PAM  EZ I        1120 15.34         7.5 0.40            155           78.7  33 
 BRR  HZ EP       1119 54.58                             150   -0.1010 80.2 300 
 BRR  HE ES       1120 11.85                             150    0.1010 80.2 300 
 BRR  HZ I        1120 14.95        14.6 0.28            149           80.2 300 
 RUS  HZ EP       1119 56.49                             146    0.2210 93.9 180 
 RUS  HE ES       1120 15.10                             146    0.5210 93.9 180 
 RUS  HZ I        1120 15.75        13.2 0.24            146           93.9 180 
 SPBC HZ EP       1120  1.44                             130    0.06 9  163 222 
 SPBC HE ES       1120 23.47                             130   -0.22 9  163 222 
 SPBC HZ I        1120 29.32        13.0 0.36            129            163 222 
 ZAR  HZ EP   2   1120  6.00                             122   -0.25 4  213 293 
 ZAR  HN ES       1120 32.13                             122   -0.23 8  213 293 
 ZAR  HZ I        1120 36.75        13.3 0.30            122            213 293 
 NOR  HZ EP       1120  8.49                             119   -0.33 8  236 237 
 NOR  HN ES       1120 36.99                             119    0.05 8  236 237 
 NOR  HZ I        1120 41.46         7.3 0.22            119            236 237 
 CHI  HZ EP   2   1120 10.66                             118    0.54 4  244 197 
 CHI  HE ES       1120 39.56                             118    0.31 8  244 197 
 CHI  HZ I        1120 47.56         2.4 0.42            118            244 197 
 PTGC HZ EP   2   1120 15.58                             113   -0.20 4  300 159 
 PTGC HN ES       1120 48.36                             113   -0.96 7  300 159 
 PTGC HZ I        1120 49.99         8.5 0.34            114            300 159 
 PRA  HZ EP   2   1120 26.83                             107    0.72 3  390 211 
 PRA  HE ES       1121  7.71                             107    0.00 6  390 211 
 PRA  HZ I        1121 13.40         2.2 0.26            107            390 211 
                                                                                
