 2010  313 1701 27.4 L   6.810 -73.042142.4  RSN  5 0.2 1.8LRSN                1
 GAP=249        0.38       4.1     6.6  6.4  0.6230E+01  0.1065E+02 -0.1583E+01E
 Epicentro: LOS SANTOS - SANTANDER                                             3
 ACTION:UP  10-08-24 09:53 OP:vdl  STATUS:               ID:20100313170127 L   I
 2010-03-13-1659-22S.COL___095                                                 6
 STAT SP IPHASW D HRMM SECON CODA AMPLIT PERI AZIMU VELO SNR AR TRES W  DIS CAZ7
 BAR2 SZ EP       17 1 46.85                             168     0.110   29 213 
 BAR2 SZ ES   2   17 2  1.59                             168    -0.3 5   29 213 
 BRR  HZ EP       17 1 48.82                             149     0.010   81 294 
 BRR  HZ I        17 2 20.86        15.6 0.44                            81 294 
 RUS  HZ EP       17 1 50.80                             143    -0.110  102 183 
 RUS  HN ES   2   17 2  9.47                             143     0.2 5  102 183 
 RUS  HZ I        17 2 11.23         4.1 0.62                           102 183 
 RREF BN ES   2   17 2 51.28                             109     0.1 3  331 231 
 RREF BZ I        17 2 58.38         3.7 0.17                           331 231 
 PRA  HN ES   3   17 3  3.50                             106    -0.4 1  399 211 
                                                                                
