 2014  813 1615 41.2 L   6.862 -72.919142.2  RSN  7 0.4 1.6LRSN                1
 GAP=220        0.74       4.4     5.6  6.4  0.1023E+02  0.1897E+01 -0.4136E-01E
 Epicentro: GUACA - SANTANDER                                                  3
 ACTION:UPD 14-09-15 21:49 OP:nd   STATUS:               ID:20140813161541 L   I
 OLDACT:DUP 14-08-14 01:05 OP:spq  STATUS:               ID:20140813160821d    3
 2014-08-13-1608-20M.COL___266                                                 6
 STAT SP IPHASW D HRMM SECON CODA AMPLIT PERI AZIMU VELO AIN AR TRES W  DIS CAZ7
 BAR2 SZ EP       1616  1.15                             163    0.2110 41.7 224 
 BAR2 SZ ES   1   1616 16.27                             163   -0.06 7 41.7 224 
 BAR2 SZ I        1616 19.07         8.4 0.22            167           41.7 224 
 BRR  HZ EP       1616  3.22                             145   -0.0710 91.8 287 
 BRR  HN ES       1616 20.74                             145    0.2310 91.8 287 
 BRR  HZ I        1616 24.23        11.8 0.36            146           91.8 287 
 RUS  HZ EP       1616  5.57                             141    0.3410  109 190 
 RUS  HN ES   1   1616 23.29                             141   -0.67 7  109 190 
 RUS  HZ I        1616 25.10         3.0 0.26            146            109 190 
 PTB  HZ EP   1   1616  9.72                             126   -0.65 7  174 258 
 PTB  HE ES   1   1616 33.23                             126    0.12 7  174 258 
 PTB  HZ I        1616 34.44         4.9 0.30            129            174 258 
 ZAR  HN ES   1   1616 42.09                             119   -0.46 6  225 288 
 ZAR  HZ I        1616 45.78         3.2 0.43            121            225 288 
 SML  HN ES   1   1616 47.15                             116    0.00 6  249 329 
 SML  HZ I        1616 53.62         4.3 0.24            117            249 329 
 GUY2CHZ EP   1   1616 27.26                             110   -0.20 5  326 236 
 GUY2CHN ES   1   1617  4.17                             110    0.63 5  326 236 
 GUY2CHZ I        1617  6.70         1.8 0.36                           326 236 
                                                                                
