 2017 1213 1733 37.1 L   6.811 -73.194140.0  RSN  6 0.5 2.1LRSN                1
 GAP=145        1.16       6.3     3.9  8.2 -0.2311E+01  0.4301E+01  0.1641E+02E
 Epicentro: ZAPATOCA - SANTANDER                                               3
 ACTION:UPD 18-01-04 13:20 OP:rebc STATUS:               ID:20171213173337 L   I
 OLDACT:DUP 17-12-14 00:36 OP:osc  STATUS:               ID:20171213172740d    3
 2017-12-13-1728-00M.COL___455                                                 6
 STAT SP IPHASW D HRMM SECON CODA AMPLIT PERI AZIMU VELO AIN AR TRES W  DIS CAZ7
 BAR2 EZ EP       1733 56.13                             170    0.0310 24.2 177 
 BAR2 EZ ES       1734 11.09                             170    0.2010 24.2 177 
 BAR2 EZ I        1734 12.24        28.4 0.34            169           24.2 177 
 PAM  EZ EP       1733 58.98                             149    0.0710 80.0  43 
 PAM  EE ES       1734 16.32                             149    0.4310 80.0  43 
 PAM  EZ I        1734 18.36        37.8 0.52            152           80.0  43 
 PTB  HZ EP       1734  3.23                             132    0.03 9  143 258 
 PTB  HE ES       1734 22.75                             132   -0.76 9  143 258 
 PTB  HZ I        1734 28.77         9.2 0.52            133            143 258 
 TAM  HZ EP     D 1734  4.62                             128   -0.27 9  161 105 
 TAM  HN ES       1734 25.80                             128   -0.73 9  161 105 
 YPLC HZ EP       1734  6.58                             125   -0.31 9  180 150 
 YPLC HN ES       1734 30.68                             125    0.59 9  180 150 
 YPLC HZ I        1734 33.37        16.2 0.26            127            180 150 
 GUY2CHZ EP       1734 21.20                             111    1.12 7  298 234 
 GUY2CHN ES       1734 53.50                             111   -0.07 7  298 234 
 GUY2CHZ I        1735  0.30         5.3 0.30                           298 234 
                                                                                
