 2017 1113 1336  1.8 L   6.775 -73.169132.9  RSN  4 0.2 1.5LRSN                1
 GAP=233        0.61       6.5     7.4  5.4  0.3878E+02  0.7431E+01 -0.3369E+01E
 Epicentro: LOS SANTOS - SANTANDER                                             3
 ACTION:UPD 17-12-12 19:55 OP:rebc STATUS:               ID:20171113133601 L   I
 OLDACT:REG 17-11-13 20:25 OP:lv   STATUS:               ID:20171113132739     3
 2017-11-13-1328-00M.COL___453                                                 6
 STAT SP IPHASW D HRMM SECON CODA AMPLIT PERI AZIMU VELO AIN AR TRES W  DIS CAZ7
 BAR2 EZ EP       1336 19.49                             171   -0.2910 20.3 184 
 BAR2 EZ ES       1336 34.11                             171    0.2810 20.3 184 
 BAR2 EZ I        1336 36.67         5.2 0.32            167           20.3 184 
 BRR  HZ EP       1336 21.45                             150   -0.0310 70.3 301 
 BRR  HN ES       1336 36.76                             150   -0.0910 70.3 301 
 RUS  HN ES       1336 41.43                             142   -0.0510 98.1 174 
 ZAR  HZ EP       1336 33.68                             120    0.42 9  203 293 
 ZAR  HE ES       1336 57.66                             120   -0.16 9  203 293 
 ZAR  HZ I        1337  3.02         4.1 0.66            120            203 293 
                                                                                
