 2014  713 1116  3.7 L   6.791 -73.150146.6  RSN  5 0.4 1.6LRSN                1
 GAP=214        0.79       4.2     5.8  7.1  0.3341E+01  0.9893E+01 -0.8546E+01E
 Epicentro: LOS SANTOS - SANTANDER                                             3
 ACTION:UPD 15-03-16 20:43 OP:nd   STATUS:               ID:20140713111603 L   I
 OLDACT:UP  14-07-13 23:02 OP:cam  STATUS:               ID:20140713111000     3
 OLDACT:REG 14-07-13 21:48 OP:cam  STATUS:               ID:20140713111000     3
 2014-07-13-1110-00M.COL___282                                                 6
 STAT SP IPHASW D HRMM SECON CODA AMPLIT PERI AZIMU VELO AIN AR TRES W  DIS CAZ7
 BAR2 SZ EP       1116 23.32                             171   -0.1010 22.3 189 
 BAR2 SZ ES       1116 38.77                             171   -0.0310 22.3 189 
 BAR2 SZ I        1116 39.81         9.3 0.28            170           22.3 189 
 PTB  HN ES   1   1116 50.87                             132   -0.87 7  147 259 
 SPBC HZ EP       1116 32.40                             129    0.23 9  162 219 
 SPBC HN ES   1   1116 54.84                             129    0.46 7  162 219 
 SPBC HZ I        1116 55.60         5.1 0.16            130            162 219 
 ZAR  HZ EP       1116 36.02                             122   -0.19 9  204 292 
 ZAR  HN ES       1117  1.87                             122    0.31 9  204 292 
 ZAR  HZ I        1117  7.70         3.5 0.48            122            204 292 
 SML  HZ EP   1   1116 40.01                             117   -0.45 6  244 335 
 SML  HE ES       1117  9.47                             117    0.34 8  244 335 
                                                                                
