 2017  813 1329 34.6 L   7.041 -73.539110.1  RSN  6 0.3 1.5LRSN                1
 GAP=211        0.85       4.0     4.2  6.6  0.7784E+01  0.1030E+02  0.7429E+01E
 Epicentro: SAN VICENTE DE CHUCURI - SANTANDER                                 3
 ACTION:UPD 17-09-04 20:19 OP:rebc STATUS:               ID:20170813132934 L   I
 OLDACT:UP  17-08-14 05:12 OP:edw  STATUS:               ID:20170813132741     3
 OLDACT:UP  17-08-14 04:49 OP:edw  STATUS:               ID:20170813132741     3
 OLDACT:REG 17-08-14 02:41 OP:osc  STATUS:               ID:20170813132741     3
 2017-08-13-1328-00M.COL___410                                                 6
 STAT SP IPHASW D HRMM SECON CODA AMPLIT PERI AZIMU VELO AIN AR TRES W  DIS CAZ7
 BRR  HZ EP     C 1329 49.67                             169    0.1010 20.5 291 
 BRR  HN ES       1330  1.51                             169    0.2910 20.5 291 
 BAR2 EZ EP       1329 52.41                             148    0.5410 63.4 142 
 BAR2 EZ ES       1330  5.02                             148   -0.3010 63.4 142 
 BAR2 EZ I        1330  6.13        12.4 0.34            151           63.4 142 
 RUS  HZ EP       1329 58.53                             125    0.07 9  137 158 
 RUS  HN ES       1330 16.58                             125   -0.46 9  137 158 
 RUS  HZ I        1330 17.93         2.6 0.18            127            137 158 
 ZAR  HZ EP       1329 59.33                             121   -0.27 9  154 289 
 ZAR  HN ES       1330 18.71                             121   -0.37 9  154 289 
 ZAR  HZ I        1330 24.12         5.9 0.64            121            154 289 
 SPBC HE ES       1330 21.21                             119   -0.03 9  165 201 
 NOR  HE ES       1330 32.47                             111    0.42 8  220 222 
                                                                                
