 2012  213 1036 13.7 L   6.811 -73.505104.0  RSN  5 0.3 1.1LRSN                1
 GAP=112        0.63       5.7     3.9  7.9  0.5632E+01  0.1002E+02 -0.1168E+02E
 ACTION:UP  12-03-07 16:30 OP:epov STATUS:               ID:20120213103613 L   I
 2012-02-13-1030-00M.COL___188                                                 6
 STAT SP IPHASW D HRMM SECON CODA AMPLIT PERI AZIMU VELO AIN AR TRES W  DIS CAZ7
 BAR2 SZ EP   1   1036 29.08                             156   -0.06 8 43.1 124 
 BAR2 SZ ES   1   1036 41.38                             156    0.22 8 43.1 124 
 BAR2 SZ I        1036 42.79         8.3 0.16                          43.1 124 
 GIR2 SZ EP   1   1036 28.72                             155   -0.39 8 45.4  49 
 PTB  HZ EP       1036 33.61                             130   -0.2110  109 254 
 PTB  HN ES   1   1036 49.39                             130   -0.11 7  109 254 
 RUS  HZ EP   1   1036 34.69                             129    0.01 7  112 155 
 RUS  HN ES   1   1036 51.17                             129    0.14 7  112 155 
 RUS  HZ I        1036 52.30         1.2 0.27                           112 155 
 ZAR  HZ EP   1   1036 40.45                             117    0.69 7  167 297 
 ZAR  HZ I        1037  5.30         2.1 0.49                           167 297 
                                                                                
