 2013  913 1340 31.0 L   6.800 -73.137146.4  RSN 11 0.4 2.0LRSN                1
 GAP=138        0.95       3.5     4.1  5.8 -0.2540E+01  0.6164E+01  0.9226E-01E
 Epicentro: LOS SANTOS - SANTANDER                                             3
 ACTION:UPD 13-10-22 09:22 OP:ep   STATUS:               ID:20130913134031 L   I
 OLDACT:UP  13-09-13 18:10 OP:cam  STATUS:               ID:20130913133959     3
 OLDACT:REG 13-09-13 17:28 OP:cam  STATUS:               ID:20130913133959     3
 2013-09-13-1339-59M.COL___269                                                 6
 STAT SP IPHASW D HRMM SECON CODA AMPLIT PERI AZIMU VELO AIN AR TRES W  DIS CAZ7
 BAR2 SZ EP       1340 50.60                             170   -0.0610 23.5 192 
 BAR2 SZ ES       1341  5.53                             170   -0.5010 23.5 192 
 BAR2 SZ I        1341  6.53        20.7 0.18            170           23.5 192 
 BRR  HZ EP       1340 52.46                             152    0.2510 72.0 298 
 BRR  HN ES       1341  9.47                             152    0.6810 72.0 298 
 BRR  HZ I        1341 13.52        17.1 0.48            150           72.0 298 
 PAM  SZ EP       1340 53.50                             151    0.3010 76.8  39 
 PAM  SN ES       1341 10.52                             151   -0.0310 76.8  39 
 PAM  SZ I        1341 12.44        13.4 0.46            155           76.8  39 
 RUS  HZ EP       1340 54.63                             144   -0.1310  101 177 
 RUS  HE ES       1341 13.48                             144    0.1510  101 177 
 RUS  HZ I        1341 15.01        10.6 0.40            147            101 177 
 PTB  HZ EP       1340 57.44                             132   -0.61 9  149 259 
 PTB  HN ES       1341 18.42                             132   -0.77 9  149 259 
 PTB  HZ I        1341 21.05        10.3 0.42            132            149 259 
 SPBC HZ EP       1340 59.69                             129    0.14 9  164 219 
 SPBC HE ES       1341 21.96                             129    0.10 9  164 219 
 SPBC HZ I        1341 26.53        13.3 0.22            130            164 219 
 ZAR  HZ EP   4   1341  5.17                             122    1.65 0  205 292 
 ZAR  HE ES   1   1341 29.36                             122    0.43 6  205 292 
 ZAR  HZ I        1341 37.68         9.0 0.36            123            205 292 
 NOR  HZ EP       1341  7.04                             118    0.25 8  235 235 
 NOR  HE ES       1341 35.11                             118    0.36 8  235 235 
 NOR  HZ I        1341 39.81         6.9 0.24            119            235 235 
 SML  HZ EP   1   1341  7.43                             117   -0.22 6  244 335 
 SML  HE ES   1   1341 35.82                             117   -0.46 6  244 335 
 SML  HZ I        1341 38.92         8.7 0.10            119            244 335 
 ROSC BZ E        1344 14.57                                            253 211 
 SJC  HZ EP   4   1341 25.21                             106   -1.38 0  410 327 
 SJC  HN ES   4   1342  6.69                             106   -3.30 0  410 327 
 SJC  HZ I        1342 10.28         1.6 0.54            107            410 327 
                                                                                
