 2017  313 1646 57.4 L   6.766 -73.034145.9  RSN  5 0.4 1.5LRSN                1
 GAP=153        1.11       5.9     8.6  8.7 -0.5336E+00  0.1100E+00  0.2440E+00E
 Epicentro: CEPITA - SANTANDER                                                 3
 ACTION:UPD 17-05-25 18:40 OP:jn   STATUS:               ID:20170313164657 L   I
 OLDACT:UP  17-03-14 00:30 OP:dnl  STATUS:               ID:20170313163747     3
 OLDACT:REG 17-03-13 21:16 OP:dnl  STATUS:               ID:20170313163747     3
 2017-03-13-1638-00M.COL___409                                                 6
 STAT SP IPHASW D HRMM SECON CODA AMPLIT PERI AZIMU VELO AIN AR TRES W  DIS CAZ7
 BAR2 EZ EP       1647 16.94                             170   -0.1810 25.3 220 
 BAR2 EZ ES       1647 32.01                             170   -0.4710 25.3 220 
 BAR2 EZ I        1647 33.67         6.9 0.28            164           25.3 220 
 PAM  EZ EP       1647 19.95                             152    0.5210 73.4  30 
 PAM  EN ES       1647 36.36                             152   -0.2210 73.4  30 
 PAM  EZ I        1647 37.37         4.5 0.16            155           73.4  30 
 BRR  HZ EP       1647 18.77                             148   -0.5910 83.9 297 
 BRR  HE ES       1647 37.16                             148    0.7010 83.9 297 
 BRR  HZ I        1647 46.49         8.8 0.41            143           83.9 297 
 RUS  HZ EP       1647 21.25                             145    0.3210 96.8 183 
 RUS  HN ES       1647 39.29                             145    0.0410 96.8 183 
 RUS  HZ I        1647 40.57         2.6 0.36            148           96.8 183 
 ZAR  HZ EP   2   1647 30.61                             120   -0.62 4  217 292 
 ZAR  HE ES   4   1647 55.61                             120   -1.97 0  217 292 
 ZAR  HZ I        1648  1.29         4.5 0.26            120            217 292 
                                                                                
