 2014  513 1906 57.6 L   6.807 -73.171145.8  RSN 11 0.4 2.5LRSN                1
 GAP=133        1.00       2.9     4.1  6.8 -0.1191E+01  0.8112E+01  0.5349E+00E
 Epicentro: LOS SANTOS - SANTANDER                                             3
 ACTION:UPD 15-03-16 16:57 OP:nd   STATUS:               ID:20140513190657 L   I
 OLDACT:REG 14-05-13 21:29 OP:carl STATUS:               ID:20140513185814     3
 2014-05-13-1858-14M.COL___260                                                 6
 STAT SP IPHASW D HRMM SECON CODA AMPLIT PERI AZIMU VELO AIN AR TRES W  DIS CAZ7
 PAM  SZ EP       19 7 20.36                             150    0.4910 78.6  41 
 PAM  SN ES       19 7 37.37                             150    0.1110 78.6  41 
 PAM  SZ I        19 7 40.07        31.0 0.40            156           78.6  41 
 RUS  HZ EP       19 7 21.26                             143   -0.1410  102 174 
 RUS  HN ES       19 7 39.92                             143   -0.0710  102 174 
 RUS  HZ I        19 7 41.00        32.9 0.22            145            102 174 
 PTB  HZ EP       19 7 23.72                             133   -0.59 9  145 258 
 PTB  HN ES       19 7 45.07                             133   -0.09 9  145 258 
 PTB  HZ I        19 7 47.13        38.1 0.58            133            145 258 
 SPBC HZ EP       19 7 25.86                             129   -0.11 9  162 218 
 SPBC HN ES       19 7 48.47                             129    0.36 9  162 218 
 SPBC HZ I        19 7 55.28        31.1 0.26            130            162 218 
 ZAR  HZ EP       19 7 30.03                             123    0.31 9  201 292 
 ZAR  HN ES       19 7 54.92                             123    0.12 9  201 292 
 ZAR  HZ I        19 8  0.54        23.7 0.42            124            201 292 
 NOR  HZ EP       19 7 33.77                             119    0.66 8  233 234 
 NOR  HN ES       19 8  1.31                             119    0.49 8  233 234 
 NOR  HZ I        19 8  7.12        15.8 0.20            120            233 234 
 SML  HZ EP       19 7 33.71                             118   -0.29 8  242 336 
 SML  HE ES       19 8  1.75                             118   -0.66 8  242 336 
 SML  HZ I        19 8  6.20        42.3 0.10            120            242 336 
 CHI  HZ EP       19 7 35.46                             117    0.18 8  249 194 
 CHI  HN ES       19 8  3.64                             117   -1.04 8  249 194 
 CHI  HZ I        19 8  7.12        19.6 0.36            119            249 194 
 ROSC BZ EP   4   19 7 36.45                             117    0.84 0  252 210 
 ROSC BN ES   4   19 8  7.25                             117    1.97 0  252 210 
 ROSC BZ I        19 8 11.96        35.9 0.35            118            252 210 
 GUY2CHZ EP   4   19 7 42.66                             112    1.69 0  299 234 
 GUY2CHN ES   4   19 8 16.30                             112    1.47 0  299 234 
 GUY2CHZ I        19 8 23.57        10.2 0.30                           299 234 
 ANIL HE ES   4   19 8 28.39                             108    2.46 0  356 224 
 PRA  HZ EP       19 7 51.52                             107    0.51 6  391 209 
 PRA  HN ES       19 8 32.34                             107   -0.35 6  391 209 
 PRA  HZ I        19 8 41.25        10.3 0.26            108            391 209 
                                                                                
