 2016  613 1347 44.3 L   6.844 -73.124155.3  RSN 14 0.4 2.1LRSN                1
 GAP= 74        1.02       5.0     3.5  6.5 -0.4465E+01  0.7291E+00  0.1013E+02E
 Epicentro: LOS SANTOS - SANTANDER                                             3
 ACTION:UPD 16-07-21 22:18 OP:rebc STATUS:               ID:20160613134744 L   I
 OLDACT:UP  16-06-13 23:50 OP:dani STATUS:               ID:20160613133743     3
 OLDACT:UP  16-06-13 23:48 OP:dani STATUS:               ID:20160613133743     3
 OLDACT:REG 16-06-13 21:09 OP:dani STATUS:               ID:20160613133743     3
 2016-06-13-1337-43M.COL___328                                                 6
 STAT SP IPHASW D HRMM SECON CODA AMPLIT PERI AZIMU VELO AIN AR TRES W  DIS CAZ7
 BAR2 EZ EP     C 1348  5.01                             169   -0.2010 28.6 193 
 BAR2 EZ I        1348 22.60        19.9 0.24                          28.6 193 
 BRR  HN ES       1348 23.81                             154   -0.0010 71.2 294 
 PAM  EZ EP       1348  7.65                             154    0.3810 72.0  41 
 PAM  EN ES       1348 25.01                             154   -0.1510 72.0  41 
 PAM  EN IS       1348 25.01                             154           72.0  41 
 PAM  EZ I        1348 26.58        11.1 0.28                          72.0  41 
 RUS  HZ EP       1348  8.98                             144   -0.3710  105 178 
 RUS  HE ES       1348 28.10                             144   -0.7810  105 178 
 RUS  HZ I        1348 28.84        13.2 0.18                           105 178 
 PTB  HZ EP       1348 11.71                             133   -0.67 9  151 257 
 PTB  HE ES       1348 34.68                             133    0.41 9  151 257 
 PTB  HZ I        1348 36.39        15.2 0.34                           151 257 
 TAM  HZ EP     D 1348 13.05                             133    0.37 9  154 107 
 TAM  HN ES       1348 35.19                             133    0.39 9  154 107 
 TAM  HZ I        1348 35.80         8.2 0.23                           154 107 
 SPBC HZ EP     C 1348 14.09                             130    0.03 9  169 219 
 SPBC HE ES       1348 37.93                             130    0.67 9  169 219 
 SPBC HZ I        1348 42.61        20.0 0.38                           169 219 
 NOR  HZ EP       1348 21.07                             120   -0.06 8  240 234 
 NOR  HE ES       1348 49.97                             120    0.12 8  240 234 
 NOR  HZ I        1348 52.69         8.8 0.28                           240 234 
 CHI  HZ EP       1348 22.97                             118   -0.17 8  254 195 
 CHI  HN ES   4   1348 52.42                             118   -1.00 0  254 195 
 CHI  HZ I        1348 55.08         3.9 0.34                           254 195 
 HEL  HZ EP   4   1348 27.00                             116    1.57 0  276 255 
 HEL  HE ES   4   1348 56.32                             116   -1.17 0  276 255 
 HEL  HZ I        1349  5.40         7.3 0.26                           276 255 
 URE  HN ES   4   1348 56.36                             115   -2.01 0  284 291 
 URE  HZ I        1348 58.82        16.6 0.38                           284 291 
 GUY2CHZ EP   4   1348 30.38                             114    1.45 0  306 234 
 GUY2CHE ES   4   1349  6.45                             114    2.73 0  306 234 
 GUY2CHZ I        1349 11.01         5.9 0.48                           306 234 
 PRA  HZ EP       1348 39.57                             108    0.75 6  397 210 
 PRA  HN ES   4   1349 20.60                             108   -0.73 0  397 210 
 PRA  HZ I        1349 28.92         3.8 0.28                           397 210 
 SJC  HZ EP   2   1348 38.99                             107   -0.90 3  406 326 
                                                                                
