 2012  213 1008 59.3 L   6.163 -73.779 98.7  RSN  9 0.5 1.3LRSN                1
 GAP= 67        0.99       4.7     3.8  9.4 -0.1747E+00  0.8385E+01  0.3945E+01E
 ACTION:UP  12-03-07 16:30 OP:epov STATUS:               ID:20120213100859 L   I
 2012-02-13-1006-00S.MAN___181                                                 6
 STAT SP IPHASW D HRMM SECON CODA AMPLIT PERI AZIMU VELO AIN AR TRES W  DIS CAZ7
 BAR2 SZ EP       10 9 17.08                             138    0.2910 81.3  54 
 BAR2 SZ ES   1   10 9 31.13                             138    0.73 7 81.3  54 
 BAR2 SZ I        10 9 32.45         6.7 0.18                          81.3  54 
 RUS  HZ EP   1   10 9 17.21                             138   -0.04 7 82.6 111 
 RUS  HN ES   1   10 9 30.76                             138   -0.46 7 82.6 111 
 RUS  HZ I        10 9 32.26         4.3 0.31                          82.6 111 
 PTB  HZ EP   1   10 9 16.17                             136   -0.69 7 85.8 299 
 PTB  HE ES   1   10 9 29.77                             136   -0.77 7 85.8 299 
 BRR  HZ EP   1   10 9 18.59                             130    0.04 7  105   4 
 BRR  HZ I        10 9 40.85         5.1 0.41                           105   4 
 NOR  SZ EP   1   10 9 21.78                             122   -0.16 7  138 241 
 NOR  SN ES   1   10 9 40.15                             122    0.57 7  138 241 
 CHI  HZ EP   1   10 9 26.04                             116    0.19 7  170 178 
 CHI  HZ I        10 9 50.32         1.7 0.36                           170 178 
 PAM  SZ EP   1   10 9 26.11                             115   -0.60 7  177  42 
 ZAR  HZ EP   1   10 9 27.25                             113   -0.29 7  189 321 
 ZAR  HN ES   1   10 9 50.39                             113    0.84 7  189 321 
 ZAR  HZ I        10 9 52.32         5.9 0.40                           189 321 
 RREF HZ EP   1   10 9 32.50                             110    0.31 6  223 231 
 RREF HZ I        1010  4.41         1.6 0.28                           223 231 
                                                                                
