 2014  913 1016 18.2 L   6.721 -73.136150.6  RSN  8 0.3 1.4LRSN                1
 GAP=183        0.70       3.0     4.2  5.3  0.2341E+01  0.1137E+01 -0.1779E+01E
 Epicentro: JORDAN - SANTANDER                                                 3
 ACTION:UPD 14-10-03 23:04 OP:nd   STATUS:               ID:20140913101618 L   I
 OLDACT:UP  14-09-13 21:29 OP:spq  STATUS:               ID:20140913100821d    3
 OLDACT:DUP 14-09-13 21:12 OP:spq  STATUS:               ID:20140913100821d    3
 2014-09-13-1008-20M.COL___296                                                 6
 STAT SP IPHASW D HRMM SECON CODA AMPLIT PERI AZIMU VELO AIN AR TRES W  DIS CAZ7
 BAR2 SZ EP       1016 38.19                             174   -0.1010 15.1 200 
 BAR2 SZ ES   1   1016 53.83                             174   -0.12 7 15.1 200 
 BAR2 SZ I        1016 54.21         8.2 0.36            172           15.1 200 
 BRR  HZ EP       1016 40.35                             152    0.1610 76.7 304 
 BRR  HZ I        1016 56.53         7.2 0.38            147           76.7 304 
 BRR  HE ES       1016 57.66                             152    0.3210 76.7 304 
 RUS  HZ EP   1   1016 41.76                             147   -0.07 7 91.8 176 
 RUS  HN ES   1   1017  0.17                             147   -0.10 7 91.8 176 
 RUS  HZ I        1017  2.08         1.8 0.31            144           91.8 176 
 PTB  HZ EP   1   1016 45.52                             133   -0.02 7  147 262 
 PTB  HN ES       1017  6.23                             133   -0.63 9  147 262 
 PTB  HZ I        1017  6.97         2.5 0.12            129            147 262 
 SPBC HZ EP       1016 46.95                             131    0.43 9  157 221 
 SPBC HE ES   1   1017  8.56                             131   -0.05 7  157 221 
 SPBC HZ I        1017 15.66         1.5 0.16            127            157 221 
 OCA  HN ES   1   1017 10.84                             129    0.09 7  169 353 
 OCA  HZ I        1017 12.37         3.4 0.30            125            169 353 
 ZAR  HZ EP   1   1016 51.55                             123    0.13 6  208 294 
 ZAR  HE ES       1017 17.69                             123    0.36 8  208 294 
 ZAR  HZ I        1017 25.73         2.2 0.28            119            208 294 
 SML  HZ EP   1   1016 55.37                             117   -0.64 6  252 336 
 SML  HE ES   1   1017 25.12                             117   -0.39 6  252 336 
 SML  HZ I        1017 28.18         2.0 0.10            114            252 336 
                                                                                
