 2013  413 1501 25.8 L   6.814 -73.172141.2  RSN 14 0.5 2.8LRSN                1
 GAP= 69        0.99       3.2     3.5  5.4 -0.2278E+01  0.4239E+01  0.5007E+00E
 Epicentro: LOS SANTOS - SANTANDER                                             3
 ACTION:UPD 13-05-22 14:38 OP:EP   STATUS:               ID:20130413150125 L   I
 2013-04-13-1500-00M.COL___244                                                 6
 STAT SP IPHASW D HRMM SECON CODA AMPLIT PERI AZIMU VELO AIN AR TRES W  DIS CAZ7
 BAR2 SZ EP       15 1 45.07                             170    0.1910 24.5 183 
 BAR2 SZ ES       15 1 59.39                             170   -0.3910 24.5 183 
 BAR2 SZ I        15 2  1.66       239.1 0.44            168           24.5 183 
 BRR  HZ EP       15 1 46.99                             153    0.7510 67.9 299 
 BRR  HN ES   4   15 2  4.06                             153    1.85 0 67.9 299 
 BRR  HZ I        15 2  5.10        99.5 0.18            150           67.9 299 
 PAM  SZ EP       15 1 47.94                             150    0.3910 78.1  42 
 PAM  SN ES       15 2  4.91                             150    0.3810 78.1  42 
 PAM  SZ I        15 2  7.19        91.8 0.56            144           78.1  42 
 RUS  HZ EP       15 1 48.95                             142   -0.2610  102 174 
 RUS  HE ES   1   15 2  7.43                             142   -0.06 7  102 174 
 RUS  HZ I        15 2  9.20        83.9 0.44            138            102 174 
 PTB  HZ EP       15 1 51.81                             132   -0.33 9  145 258 
 PTB  HN ES       15 2 12.38                             132   -0.32 9  145 258 
 PTB  HZ I        15 2 16.11        68.2 0.14            127            145 258 
 TAM  HZ EP       15 1 53.33                             129   -0.06 9  158 105 
 NOR  HZ EP       15 2  1.02                             118   -0.06 8  233 234 
 NOR  HN ES   1   15 2 28.93                             118    0.31 6  233 234 
 NOR  HZ I        15 2 36.23        60.4 0.18            114            233 234 
 SML  HZ EP       15 2  1.49                             117   -0.37 8  241 336 
 SML  HE ES   1   15 2 30.05                             117    0.04 6  241 336 
 CHI  HZ EP       15 2  3.25                             116   -0.05 8  249 194 
 CHI  HN ES       15 2 32.09                             116   -0.48 8  249 194 
 CHI  HZ I        15 2 40.48        21.3 0.48            112            249 194 
 ROSC BZ EP   1   15 2  4.59                             116    0.96 6  253 210 
 ROSC BN ES   1   15 2 34.00                             116    0.85 6  253 210 
 ROSC BZ I        15 2 39.48        53.4 0.40            112            253 210 
 HEL  HZ EP   1   15 2  6.12                             114    0.64 6  270 255 
 HEL  HE ES   1   15 2 35.64                             114   -0.82 6  270 255 
 HEL  HZ I        15 2 45.17        28.8 0.54            110            270 255 
 URE  HZ EP   1   15 2  6.68                             113    0.43 6  281 292 
 URE  HN ES   1   15 2 37.25                             113   -0.58 6  281 292 
 SDV  BZ EP       15 2 14.72                             107   -1.07 6  362  51 
 SDV  BZ I        15 2 56.28        12.7 0.35            103            362  51 
 PRA  HZ EP       15 2 18.70                             106   -0.42 6  392 209 
 PRA  HE ES   1   15 3  1.31                             106    0.57 4  392 209 
 PRA  HZ I        15 3  8.20        25.9 0.48            102            392 209 
                                                                                
