 2010  813 1958 34.6 L   6.787 -73.080144.2  RSN  7 0.3 2.0LRSN                1
 GAP=172        0.71       3.8     9.3  7.2  0.5421E+01 -0.2188E+02 -0.5734E+01E
 Epicentro: LOS SANTOS - SANTANDER                                             3
 ACTION:UP  10-09-07 10:54 OP:vdl  STATUS:               ID:20100813195834 L   I
 2010-08-13-1956-20S.COL___111                                                 6
 STAT SP IPHASW D HRMM SECON CODA AMPLIT PERI AZIMU VELO SNR AR TRES W  DIS CAZ7
 BAR2 SZ EP       1958 54.07                             170     0.010   24 208 
 BAR2 SZ ES   1   1959  8.67                             170    -0.5 7   24 208 
 BAR2 SZ I        1959 10.79        24.0 0.13                            24 208 
 GIR2 SZ EP   2   1958 53.46                             166    -0.7 5   35 339 
 BRR  HZ EP       1958 56.03                             150     0.110   78 297 
 BRR  HZ I        1958 56.25        41.0 0.14                            78 297 
 BRR  HE ES   1   1959 12.90                             150     0.2 7   78 297 
 RUS  HZ EP       1958 58.21                             144     0.210   99 180 
 RUS  HZ I        1958 59.01         7.7 0.39                            99 180 
 RUS  HN ES   1   1959 16.76                             144     0.4 7   99 180 
 GUE  SZ EP       1958 59.17                             139     0.010  117   8 
 OCA  SZ EP   2   1959  2.79                             129    -0.2 5  163 351 
 CHI  HZ EP   3   1959 12.16                             117    -0.1 2  249 197 
 CHI  HE ES   1   1959 41.16                             117    -0.5 6  249 197 
 CHI  HZ I        1959 48.59         6.3 0.69                           249 197 
                                                                                
