 2012  813 1108 28.4 L   6.665 -73.606107.2  RSN  6 0.3 1.7LRSN                1
 GAP=116        0.68       4.6     3.6  6.5  0.8021E+01  0.7320E+01  0.7264E+01E
 Epicentro: EL CARMEN DE CHUCURI - SANTANDER                                   3
 ACTION:UPD 12-09-10 11:56 OP:ep   STATUS:               ID:20120813110828 L   I
 2012-08-13-1100-00M.COL___217                                                 6
 STAT SP IPHASW D HRMM SECON CODA AMPLIT PERI AZIMU VELO AIN AR TRES W  DIS CAZ7
 BAR2 SZ EP       11 8 44.30                             154   -0.0510 47.5 100 
 BAR2 SZ ES       11 8 56.71                             154   -0.1210 47.5 100 
 BAR2 SZ I        11 8 57.85        40.5 0.30                          47.5 100 
 BRR  HZ EP   1   11 8 44.16                             153    0.00 7 50.3 347 
 BRR  HZ I        11 8 50.50         8.5 0.13                          50.3 347 
 BRR  HN ES   1   11 8 56.77                             153    0.29 7 50.3 347 
 GIR2 SZ EP   1   11 8 44.73                             147   -0.51 7 64.6  45 
 PTB  HZ EP       11 8 47.33                             135   -0.0910 95.0 262 
 PTB  HE ES   1   11 9  1.83                             135   -0.46 7 95.0 262 
 RUS  HZ EP       11 8 48.95                             133    0.1710  103 146 
 RUS  HZ I        11 8 49.66        12.5 0.11                           103 146 
 RUS  HE ES   1   11 9  5.10                             133    0.39 7  103 146 
 ZAR  HE ES   1   11 9 15.29                             118    0.57 7  166 304 
 ZAR  HZ I        11 9 19.72         6.2 0.34                           166 304 
                                                                                
