 2013 1113 1625 26.2 L   6.782 -73.173147.1  RSN  9 0.5 1.9LRSN 2.6WRSN        1
 SPEC AVERAGE  MO 13.0 ST181.3 OM  1.2 f0 18.7 R0.1829 AL 0.00 WI 20.0 MW  2.6 3
 SPEC SD       MO  0.2 ST330.3 OM  0.3 f0 12.1 R0.1613 AL      WI      MW  0.1 3
 GAP=198        1.25       4.3     6.0  7.3  0.1775E+01  0.9985E+01 -0.8321E+00E
 Epicentro: LOS SANTOS - SANTANDER                                             3
 SPEC BAR2SH Z MO 12.8 ST 43.6 OM  1.0 f0 21.6 R0.0891 AL-0.00 WI 20.0 MW  2.5 3
 SPEC BAR2SH Z T162559 K 0.050 GD  148 VS 5.20 DE 3.20 Q0750.0 QA 1.50 VS 5.20 3
 SPEC BRR HH Z MO 12.9 ST  8.4 OM  1.0 f0 12.1 R0.1590 AL-0.00 WI 20.0 MW  2.5 3
 SPEC BRR HH Z T1626 3 K 0.050 GD  162 VS 5.20 DE 3.20 Q0750.0 QA 1.50 VS 5.20 3
 SPEC PTB HH Z MO 13.0 ST0.347 OM  1.0 f0 3.87 R0.4972 AL-0.00 WI 20.0 MW  2.6 3
 SPEC PTB HH Z T162612 K 0.050 GD  205 VS 5.20 DE 3.20 Q0750.0 QA 1.50 VS 5.20 3
 SPEC NOR HH Z MO 12.7 ST 12.8 OM  0.6 f0 15.9 R0.1210 AL-0.00 WI 20.0 MW  2.4 3
 SPEC NOR HH Z T162627 K 0.050 GD  273 VS 5.20 DE 3.20 Q0750.0 QA 1.50 VS 5.20 3
 SPEC SML HH Z MO 13.3 ST841.2 OM  1.2 f0 40.0 R0.0481 AL-0.00 WI 20.0 MW  2.8 3
 SPEC SML HH Z T162628 K 0.050 GD  284 VS 5.20 DE 3.20 Q0750.0 QA 1.50 VS 5.20 3
 OLDACT:REG 13-11-13 15:47 OP:stll STATUS:               ID:20131113161810     3
 ACTION:UPD 14-01-09 16:27 OP:ep   STATUS:               ID:20131113162526 L   I
 OLDACT:UP  13-11-13 18:38 OP:stll STATUS:               ID:20131113161810     3
 2013-11-13-1618-10M.COL___222                                                 6
 STAT SP IPHASW D HRMM SECON CODA AMPLIT PERI AZIMU VELO AIN AR TRES W  DIS CAZ7
 BAR2 SZ EP       1625 45.91                             171   -0.0210 21.0 183 
 BAR2 SZ ES       1626  0.80                             171   -0.5310 21.0 183 
 BAR2 SZ I        1626  9.50        13.9 0.38            168           21.0 183 
 BRR  HZ EP       1625 47.99                             153    0.6010 69.6 301 
 BRR  HE ES       1626  4.58                             153    0.6610 69.6 301 
 BRR  SZ I        1626  7.45        23.1 0.44            160           69.6 301 
 RUS  HZ EP       1625 49.85                             145   -0.1010 98.9 174 
 RUS  HN ES       1626  8.50                             145    0.0210 98.9 174 
 RUS  SZ I        1626 26.68         5.3 2.30            146           98.9 174 
 PTB  HZ EP       1625 53.00                             133    0.04 9  144 259 
 PTB  HE ES       1626 14.08                             133    0.23 9  144 259 
 PTB  SZ I        1626 20.76        14.5 0.36            138            144 259 
 SPBC HZ EP       1625 54.85                             130    0.39 9  160 219 
 SPBC HE ES       1626 16.32                             130   -0.20 9  160 219 
 SPBC SZ I        1626 22.46        10.0 0.26            134            160 219 
 ZAR  HN ES       1626 24.00                             123    0.28 9  202 293 
 NOR  HZ EP       1626  1.96                             119    0.35 8  231 234 
 NOR  HN ES       1626 28.91                             119   -0.33 8  231 234 
 NOR  SZ I        1626 35.24         5.5 0.40            124            231 234 
 SML  HZ EP       1626  2.70                             118   -0.24 8  244 336 
 SML  HN ES       1626 30.41                             118   -1.21 8  244 336 
 SML  SZ I        1626 33.88        16.0 0.08            125            244 336 
 RREF HZ EP       1626 12.64                             111    0.66 7  318 229 
 RREF HE ES       1626 46.32                             111   -1.38 7  318 229 
 RREF SZ I        1626 58.63         3.8 0.58            116            318 229 
                                                                                
