 2013 1113 1417 26.3 L   6.785 -73.430119.0  RSN  6 0.6 2.2LRSN 2.6WRSN        1
 SPEC AVERAGE  MO 13.0 ST197.7 OM  1.6 f0 23.0 R0.1515 AL 0.00 WI 20.0 MW  2.6 3
 SPEC SD       MO  0.2 ST238.2 OM  0.5 f0 14.9 R0.1109 AL      WI      MW  0.1 3
 GAP=145        1.52       6.6     7.3 10.1  0.2167E+02  0.9512E+01 -0.1534E+02E
 Epicentro: SAN VICENTE DE CHUCURI - SANTANDER                                 3
 SPEC BAR2SH Z MO 13.0 ST 57.6 OM  1.2 f0 21.6 R0.0891 AL-0.00 WI 20.0 MW  2.6 3
 SPEC BAR2SH Z T141754 K 0.050 GD  123 VS 5.20 DE 3.20 Q0750.0 QA 1.50 VS 5.20 3
 SPEC BRR HH Z MO 13.2 ST  2.9 OM  1.4 f0 6.73 R0.2859 AL-0.00 WI 20.0 MW  2.7 3
 SPEC BRR HH Z T141755 K 0.050 GD  128 VS 5.20 DE 3.20 Q0750.0 QA 1.50 VS 5.20 3
 SPEC PTB HH Z MO 12.9 ST310.9 OM  1.0 f0 40.0 R0.0481 AL-0.00 WI 20.0 MW  2.5 3
 SPEC PTB HH Z T1418 3 K 0.050 GD  166 VS 5.20 DE 3.20 Q0750.0 QA 1.50 VS 5.20 3
 SPEC ZAR HH Z MO 12.8 ST  1.2 OM  0.8 f0 6.72 R0.2863 AL-0.00 WI 20.0 MW  2.5 3
 SPEC ZAR HH Z T141815 K 0.050 GD  212 VS 5.20 DE 3.20 Q0750.0 QA 1.50 VS 5.20 3
 SPEC SML HH Z MO 13.2 ST615.7 OM  1.1 f0 40.0 R0.0481 AL-0.00 WI 20.0 MW  2.7 3
 SPEC SML HH Z T141824 K 0.050 GD  262 VS 5.20 DE 3.20 Q0750.0 QA 1.50 VS 5.20 3
 OLDACT:REG 13-11-13 15:45 OP:stll STATUS:               ID:20131113140810     3
 ACTION:UPD 14-01-09 16:27 OP:ep   STATUS:               ID:20131113141726 L   I
 OLDACT:UP  13-11-13 18:10 OP:stll STATUS:               ID:20131113140810     3
 2013-11-13-1408-10M.COL___216                                                 6
 STAT SP IPHASW D HRMM SECON CODA AMPLIT PERI AZIMU VELO AIN AR TRES W  DIS CAZ7
 BAR2 SZ IP     D 1417 43.50                             163    0.4210 34.7 128 
 BAR2 SZ ES       1417 56.18                             163    0.0210 34.7 128 
 BAR2 SZ I        1417 57.40        45.1 0.32            173           34.7 128 
 BRR  HZ EP       1417 43.63                             157    0.3710 47.3 319 
 BRR  HN ES       1417 56.90                             157    0.4210 47.3 319 
 BRR  SZ I        1418 13.64        14.6 0.36            157           47.3 319 
 RUS  HZ EP       1417 48.46                             136    0.4810  106 159 
 RUS  HN ES       1418  4.03                             136   -0.8510  106 159 
 RUS  SZ I        1418 11.10       180.1 0.90            149            106 159 
 PTB  HZ EP       1417 48.43                             132    0.1610  117 257 
 PTB  HN ES       1418  4.50                             132   -0.9110  117 257 
 PTB  SZ I        1418  9.43        15.6 0.16            140            117 257 
 ZAR  HZ EP       1417 54.33                             120    0.19 9  176 296 
 ZAR  HN ES       1418 16.70                             120    0.85 9  176 296 
 ZAR  SZ I        1418 25.07         9.6 1.58            127            176 296 
 SML  HZ EP       1418  0.19                             112   -0.28 8  234 342 
 SML  HN ES       1418 25.91                             112   -1.21 8  234 342 
 SML  SZ I        1418 33.83        13.8 0.08            119            234 342 
                                                                                
