 2012  913 1627 13.3 L   6.741 -73.127146.8  RSN  8 0.3 2.0LRSN                1
 GAP=142        0.63       4.3     3.9  6.5  0.2490E+00  0.3352E+01 -0.2821E+01E
 Epicentro: JORDAN - SANTANDER                                                 3
 ACTION:UPD 12-10-22 14:18 OP:ep   STATUS:               ID:20120913162713 L   I
 2012-09-13-1620-00M.COL___227                                                 6
 STAT SP IPHASW D HRMM SECON CODA AMPLIT PERI AZIMU VELO AIN AR TRES W  DIS CAZ7
 BAR2 SZ EP   1   1627 32.99                             173    0.08 7 17.5 200 
 BAR2 SZ I        1627 33.16        19.8 0.20                          17.5 200 
 BAR2 SZ ES   1   1627 48.17                             173   -0.07 7 17.5 200 
 GIR2 SZ EP   1   1627 33.45                             165    0.20 7 38.1 349 
 BRR  HZ EP   1   1627 34.86                             151    0.05 7 76.3 302 
 BRR  HZ I        1627 35.29        19.7 0.14                          76.3 302 
 BRR  HN ES   1   1627 52.34                             151    0.72 7 76.3 302 
 PAM  SZ EP   1   1627 35.71                             150   -0.11 7 81.4  35 
 PAM  SZ I        1627 36.01        14.8 0.20                          81.4  35 
 PAM  SN ES   1   1627 53.09                             150   -0.34 7 81.4  35 
 RUS  HN ES   1   1627 54.85                             146   -0.03 7 93.9 177 
 PTB  HN ES   1   1628  1.05                             132   -0.50 7  149 261 
 ZAR  HE ES   1   1628 11.75                             122   -0.19 6  208 294 
 ZAR  HZ I        1628 17.03         6.9 0.62                           208 294 
 CHI  HZ EP   2   1627 50.68                             118    0.29 4  243 196 
                                                                                
