 2011  913 1220 55.3 L   6.751 -73.104141.2  RSN  5 0.4 1.8LRSN                1
 GAP=144        0.86       6.0     6.6  8.1  0.3872E+01  0.3785E+01  0.4274E+01E
 Epicentro: LOS SANTOS - SANTANDER                                             3
 ACTION:UPD 12-07-13 15:57 OP:ep   STATUS:               ID:20110913122055 L   I
 2011-09-13-1220-32S.COL___168                                                 6
 STAT SP IPHASW D HRMM SECON CODA AMPLIT PERI AZIMU VELO AIN AR TRES W  DIS CAZ7
 BAR2 SZ EP       1221 14.23                             172   -0.0610 19.6 206 
 BAR2 SZ ES   1   1221 28.27                             172   -0.85 7 19.6 206 
 BAR2 SZ I        1221 32.20        11.9 0.46                          19.6 206 
 BRR  HZ EP       1221 16.19                             149   -0.1410 77.8 300 
 BRR  HN ES   1   1221 33.47                             149    0.71 7 77.8 300 
 BRR  HZ I        1221 34.35        13.2 0.14                          77.8 300 
 PAM  SZ EP       1221 17.15                             149    0.0510 78.9  34 
 PAM  SE ES   1   1221 34.22                             149    0.09 7 78.9  34 
 RUS  HZ EP       1221 18.24                             144    0.0610 95.0 179 
 RUS  HE ES   2   1221 36.88                             144    0.84 5 95.0 179 
 ZAR  HZ EP   2   1221 28.24                             120    0.15 4  210 293 
 ZAR  HE ES   2   1221 52.99                             120   -0.69 4  210 293 
 ZAR  HZ I        1221 59.06         6.7 0.22                           210 293 
                                                                                
