 2012  913 1021 45.7 L   6.711 -73.149142.8  RSN  5 0.1 1.4LRSN                1
 GAP=203        0.38       5.3     3.8  6.2  0.6045E+01  0.1254E+02  0.7047E+01E
 Epicentro: VILLANUEVA - SANTANDER                                             3
 ACTION:UPD 12-10-22 14:18 OP:ep   STATUS:               ID:20120913102145 L   I
 2012-09-13-1020-00M.COL___227                                                 6
 STAT SP IPHASW D HRMM SECON CODA AMPLIT PERI AZIMU VELO AIN AR TRES W  DIS CAZ7
 BAR2 SZ EP   1   1022  4.88                             174    0.06 7 13.6 196 
 BAR2 SZ ES   1   1022 19.73                             174    0.00 7 13.6 196 
 BAR2 SZ I        1022 21.98         4.9 0.19                          13.6 196 
 GIR2 SZ ES   1   1022 20.46                             163   -0.18 7 41.0 353 
 BRR  HN ES   1   1022 23.54                             150    0.24 7 76.1 305 
 PTB  HN ES   1   1022 32.89                             132   -0.07 7  146 263 
 PTB  HN I        1022 38.50         4.6 0.38                           146 263 
 ZAR  HE ES   1   1022 43.71                             121   -0.07 6  208 295 
 ZAR  HZ I        1022 48.81         1.8 0.46                           208 295 
                                                                                
