 2011 1113 1006  7.5 L   6.623 -73.219  5.0  RSN  6 0.5 1.3LRSN                1
 GAP= 94        0.91       3.3     4.2  6.9 -0.2112E+00  0.2128E+02 -0.5578E+01E
 Epicentro: BARICHARA - SANTANDER                                              3
 ACTION:UPD 12-07-13 16:09 OP:ep   STATUS:               ID:20111113100607 L   I
 2011-11-13-1003-21S.COL___179                                                 6
 STAT SP IPHASW D HRMM SECON CODA AMPLIT PERI AZIMU VELO AIN AR TRES W  DIS CAZ7
 BAR2 SZ EP   1   10 6  8.97                             127   -0.25 7 5.35 130 
 BAR2 SZ ES   1   10 6  9.97                             127   -0.61 7 5.35 130 
 BAR2 SZ I        10 6 10.70       350.7 0.15                          5.35 130 
 BRR  HZ EP   1   10 6 20.15                              91    0.51 7 76.3 315 
 BRR  HZ I        10 6 25.69         8.1 0.12                          76.3 315 
 BRR  HN ES   1   10 6 29.11                              91   -0.02 7 76.3 315 
 RUS  HZ EP   1   10 6 21.94                              91    0.90 7 82.2 169 
 RUS  HZ I        10 6 31.75         3.4 0.10                          82.2 169 
 PAM  SZ EP   1   10 6 23.72                              91    0.32 7 97.8  36 
 PAM  SN ES   1   10 6 35.54                              91   -0.28 7 97.8  36 
 PAM  SZ I        10 6 37.65         4.0 0.13                          97.8  36 
 ZAR  HZ EP   1   10 6 38.39                              56    0.11 6  205 298 
 ZAR  HN ES   1   10 7  2.14                              56   -0.16 6  205 298 
 ZAR  HZ I        10 7  4.63         2.7 0.12                           205 298 
 HEL  HZ EP   1   10 6 45.61                              56    0.02 6  260 260 
 HEL  HN ES   1   10 7 14.39                              56   -0.92 6  260 260 
 HEL  HZ I        10 7 17.33         4.4 0.19                           260 260 
                                                                                
