 2014  513 1916 57.4 L   6.803 -73.164139.4  RSN  9 0.5 2.3LRSN                1
 GAP=134        1.22       3.7     5.5  9.3 -0.1676E+01  0.2186E+02  0.2878E+01E
 Epicentro: LOS SANTOS - SANTANDER                                             3
 ACTION:UPD 15-03-16 16:57 OP:nd   STATUS:               ID:20140513191657 L   I
 OLDACT:REG 14-05-13 21:29 OP:carl STATUS:               ID:20140513190814     3
 2014-05-13-1908-14M.COL___260                                                 6
 STAT SP IPHASW D HRMM SECON CODA AMPLIT PERI AZIMU VELO AIN AR TRES W  DIS CAZ7
 PAM  SZ IP     C 1917 19.44                             149    0.4510 78.5  41 
 PAM  SN ES       1917 36.16                             149    0.3210 78.5  41 
 PAM  SZ I        1917 38.51        48.1 0.48            153           78.5  41 
 RUS  HZ EP       1917 20.59                             142    0.0410  101 175 
 RUS  HN ES       1917 38.13                             142   -0.4810  101 175 
 PTB  HZ EP       1917 22.69                             131   -0.97 9  146 259 
 PTB  HN ES       1917 43.97                             131   -0.18 9  146 259 
 PTB  HZ I        1917 47.36        22.9 0.16            131            146 259 
 OCA  HE ES       1917 46.96                             128    0.15 9  160 354 
 OCA  HZ I        1917 49.62        23.7 0.22            130            160 354 
 ZAR  HZ EP       1917 29.77                             121    0.56 9  202 292 
 ZAR  HN ES       1917 54.68                             121    0.65 9  202 292 
 ZAR  HZ I        1918  2.14        14.7 0.28            122            202 292 
 SML  HZ EP       1917 32.66                             116   -0.87 8  243 336 
 SML  HN ES       1918  1.13                             116   -0.60 8  243 336 
 SML  HZ I        1918  6.82        21.8 0.10            118            243 336 
 GUY2CHZ EP   4   1917 42.63                             111    2.10 0  300 234 
 GUY2CHN ES   4   1918 14.36                             111    0.17 0  300 234 
 GUY2CHZ I        1918 24.75         6.0 0.58                           300 234 
 RREF HZ EP       1917 43.82                             110    0.72 7  320 229 
 RREF HN ES       1918 18.95                             110    0.19 7  320 229 
 RREF HZ I        1918 28.50         6.1 0.28            111            320 229 
 PRA  HZ EP       1917 50.44                             105   -0.16 6  391 209 
 PRA  HN ES       1918 32.76                             105    0.64 6  391 209 
 PRA  HZ I        1918 36.26         8.4 0.62            107            391 209 
                                                                                
