 2011 1013 1819 32.4 L   6.772 -73.043148.0  RSN  6 0.4 1.8LRSN                1
 GAP=151        0.80       4.3     5.7  7.0  0.2694E+01  0.4855E+01 -0.5014E+01E
 Epicentro: LOS SANTOS - SANTANDER                                             3
 ACTION:UPD 12-07-13 16:03 OP:ep   STATUS:               ID:20111013181932 L   I
 2011-10-13-1815-29S.COL___168                                                 6
 STAT SP IPHASW D HRMM SECON CODA AMPLIT PERI AZIMU VELO AIN AR TRES W  DIS CAZ7
 BAR2 SZ EP       1819 52.22                             170   -0.0710 25.1 218 
 BAR2 SZ I        1819 52.62        12.5 0.22                          25.1 218 
 BAR2 SZ ES   1   1820  8.46                             170    0.62 7 25.1 218 
 PAM  SZ EP       1819 55.07                             152    0.5010 73.3  31 
 PAM  SE ES   1   1820 11.52                             152   -0.39 7 73.3  31 
 BRR  HZ EP   1   1819 54.23                             149   -0.19 7 82.7 297 
 BRR  HZ I        1819 54.39        18.4 0.16                          82.7 297 
 BRR  HN ES   1   1820 11.37                             149   -0.26 7 82.7 297 
 RUS  HZ EP   1   1819 56.25                             145    0.15 7 97.3 183 
 RUS  HN ES   1   1820 14.17                             145   -0.45 7 97.3 183 
 RUS  HZ I        1820 16.03         3.4 0.33                          97.3 183 
 OCA  SZ EP   1   1820  1.19                             129   -0.10 7  165 349 
 OCA  SZ ES   1   1820 23.70                             129   -0.15 7  165 349 
 OCA  SZ I        1820 28.25         8.7 0.35                           165 349 
 ZAR  HZ EP   1   1820  5.53                             121   -0.62 6  216 292 
 ZAR  HE ES   1   1820 33.07                             121    0.56 6  216 292 
 ZAR  HZ I        1820 36.78         9.1 0.40                           216 292 
                                                                                
