 2014  713 1120  8.2 L   6.728 -73.183140.7  RSN  4 0.5 1.6LRSN                1
 GAP=203        1.11       8.9     7.3 11.8  0.3820E+01  0.1581E+02 -0.6478E+02E
 Epicentro: VILLANUEVA - SANTANDER                                             3
 ACTION:UPD 15-03-16 20:43 OP:nd   STATUS:               ID:20140713112008 L   I
 OLDACT:UP  14-07-13 23:04 OP:cam  STATUS:               ID:20140713112000     3
 OLDACT:REG 14-07-13 21:48 OP:cam  STATUS:               ID:20140713112000     3
 2014-07-13-1120-00M.COL___282                                                 6
 STAT SP IPHASW D HRMM SECON CODA AMPLIT PERI AZIMU VELO AIN AR TRES W  DIS CAZ7
 BAR2 SZ EP       1120 27.45                             174    0.3610 15.0 180 
 BAR2 SZ ES       1120 41.78                             174   -0.0410 15.0 180 
 BAR2 SZ I        1120 43.16         6.3 0.32            175           15.0 180 
 PTB  HN ES       1120 54.04                             132   -0.56 9  142 262 
 ZAR  HZ EP       1120 40.76                             121    0.49 9  203 295 
 ZAR  HN ES       1121  5.72                             121    0.46 9  203 295 
 ZAR  HZ I        1121 11.61         2.8 0.24            122            203 295 
 SML  HZ EP       1120 44.27                             116   -0.90 8  249 337 
 SML  HN ES       1121 14.08                             116    0.08 8  249 337 
 SML  HZ I        1121 16.52         3.9 0.24            117            249 337 
                                                                                
