 2011 1113 1838 45.8 L   6.765 -73.134139.3  RSN  4 0.3 1.3LRSN                1
 GAP=236        0.63       9.1    10.5  7.5  0.7937E+02  0.1694E+01 -0.3985E+01E
 Epicentro: LOS SANTOS - SANTANDER                                             3
 ACTION:UPD 12-07-13 16:10 OP:ep   STATUS:               ID:20111113183845 L   I
 2011-11-13-1837-01S.COL___179                                                 6
 STAT SP IPHASW D HRMM SECON CODA AMPLIT PERI AZIMU VELO AIN AR TRES W  DIS CAZ7
 BAR2 SZ EP   1   1839  3.94                             171   -0.61 7 19.8 196 
 BAR2 SZ ES   1   1839 19.26                             171    0.05 7 19.8 196 
 BAR2 SZ I        1839 22.44         5.1 0.34                          19.8 196 
 BRR  HZ EP   1   1839  6.70                             150    0.30 7 74.2 301 
 BRR  HZ I        1839  6.95         9.6 0.18                          74.2 301 
 BRR  HE ES   1   1839 22.63                             150    0.13 7 74.2 301 
 RUS  HZ EP   1   1839  8.93                             144    0.33 7 96.6 177 
 RUS  HN ES   1   1839 26.34                             144   -0.07 7 96.6 177 
 RUS  HZ I        1839 28.61         1.6 0.17                          96.6 177 
 ZAR  HN ES   1   1839 43.09                             120   -0.19 6  207 293 
                                                                                
