 2012 1213 1035 52.4 L   6.856 -73.143149.6  RSN  5 0.2 1.3LRSN                1
 GAP=189        0.46       4.3     3.9  4.8  0.4676E+01  0.4863E+01  0.1737E+01E
 Epicentro: LOS SANTOS - SANTANDER                                             3
 ACTION:UPD 13-01-04 14:27 OP:ep   STATUS:               ID:20121213103552 L   I
 2012-12-13-1030-00M.COL___242                                                 6
 STAT SP IPHASW D HRMM SECON CODA AMPLIT PERI AZIMU VELO AIN AR TRES W  DIS CAZ7
 GIR2 SZ EP   1   1036 12.30                             170   -0.07 7 25.3 347 
 GIR2 SZ ES   1   1036 28.18                             170    0.22 7 25.3 347 
 GIR2 SZ I        1036 29.75         4.2 0.34                          25.3 347 
 BAR2 SZ EP   1   1036 12.68                             168    0.07 7 29.5 189 
 BAR2 SZ ES   1   1036 27.96                             168   -0.43 7 29.5 189 
 BAR2 SZ I        1036 29.70         6.4 0.38                          29.5 189 
 RUS  HZ EP   1   1036 16.92                             143   -0.04 7  107 176 
 RUS  HN ES   1   1036 36.40                             143    0.28 7  107 176 
 RUS  HZ I        1036 37.59         1.8 0.28                           107 176 
 PTB  HZ EP   1   1036 19.71                             132   -0.10 7  149 257 
 PTB  HN ES   1   1036 41.17                             132   -0.04 7  149 257 
 PTB  HZ I        1036 43.58         3.7 0.18                           149 257 
 ZAR  HE ES   2   1036 50.49                             123    0.26 4  202 290 
                                                                                
