 2015  713 1815 38.3 L   6.325 -73.834 77.6  RSN  5 0.2 1.6LRSN                1
 GAP=115        0.51       2.0     2.1  7.7 -0.3170E+00  0.1151E+02 -0.1444E+01E
 Epicentro: LANDAZURI - SANTANDER                                              3
 ACTION:UPD 15-09-08 21:48 OP:cam  STATUS:               ID:20150713181538 L   I
 OLDACT:UP  15-07-13 23:58 OP:ak   STATUS:               ID:20150713180750     3
 OLDACT:REG 15-07-13 22:37 OP:ak   STATUS:               ID:20150713180750     3
 2015-07-13-1807-50M.COL___340                                                 6
 STAT SP IPHASW D HRMM SECON CODA AMPLIT PERI AZIMU VELO AIN AR TRES W  DIS CAZ7
 BAR2 EZ EP       1815 53.53                             131   -0.0810 77.9  68 
 BAR2 EZ ES       1816  5.32                             131   -0.2510 77.9  68 
 BAR2 EZ I        1816  6.67        12.9 0.19            124           77.9  68 
 RUS  HZ EP       1815 55.92                             125    0.2110 95.9 120 
 RUS  HN ES       1816  9.48                             125    0.1810 95.9 120 
 PAM  EN ES       1816 23.57                             109    0.01 9  168  48 
 PAM  EZ I        1816 27.27        10.9 0.52            105            168  48 
 ZAR  HZ EP       1816  3.31                             109   -0.20 9  172 319 
 ZAR  HN ES       1816 23.49                             109    0.30 9  172 319 
 GUY2CHZ EP   1   1816  8.33                             105   -0.15 6  209 234 
 GUY2CHN ES       1816 31.92                             105   -0.11 8  209 234 
 GUY2CHZ I        1816 38.23         2.5 0.60                           209 234 
                                                                                
