 2017 1113 1707 54.3 L   6.747 -73.109137.8  RSN  8 0.4 1.5LRSN                1
 GAP=144        0.92       3.9     3.9  5.9 -0.1811E+01  0.5941E+01  0.4491E+00E
 Epicentro: LOS SANTOS - SANTANDER                                             3
 ACTION:UPD 17-12-12 19:55 OP:rebc STATUS:               ID:20171113170754 L   I
 OLDACT:REG 17-11-13 21:57 OP:lv   STATUS:               ID:20171113165740     3
 2017-11-13-1658-00M.COL___453                                                 6
 STAT SP IPHASW D HRMM SECON CODA AMPLIT PERI AZIMU VELO AIN AR TRES W  DIS CAZ7
 BAR2 EZ EP       17 8 12.79                             172   -0.1010 18.9 205 
 BAR2 EZ ES       17 8 27.61                             172    0.2210 18.9 205 
 BAR2 EZ I        17 8 28.47         7.2 0.22            172           18.9 205 
 BRR  HZ EP       17 8 14.68                             149   -0.3010 77.6 301 
 BRR  HN ES       17 8 31.54                             149    0.4210 77.6 301 
 BRR  HZ I        17 8 35.64        10.1 0.34            147           77.6 301 
 PAM  EZ EP       17 8 15.79                             148   -0.0310 79.6  35 
 PAM  EN ES       17 8 32.41                             148   -0.1910 79.6  35 
 PAM  EZ I        17 8 34.98         6.7 0.50            149           79.6  35 
 RUS  HZ EP       17 8 16.73                             144   -0.1010 94.5 178 
 RUS  HN ES       17 8 34.48                             144    0.0710 94.5 178 
 RUS  HZ I        17 8 35.65         1.6 0.28            148           94.5 178 
 PTB  HZ EP   9   17 8 19.70                             130   -1.20 0  151 261 
 PTB  HN ES       17 8 40.11                                   -0.34 9  151 261 
 PTB  HZ I        17 8 43.16         5.8 0.16            130            151 261 
 ZAR  HZ EP       17 8 27.57                             120    0.70 8  210 293 
 ZAR  HN ES       17 8 51.81                             120   -0.46 8  210 293 
 ZAR  HZ I        17 8 59.44         4.5 0.24            120            210 293 
 NOR  HN ES       17 8 56.37                             117   -0.72 8  235 236 
 GUY2CHZ EP   4   17 8 38.76                             111    1.21 0  301 236 
 GUY2CHN ES       17 9 11.86                             111    0.58 7  301 236 
 GUY2CHZ I        17 9 18.16         2.1 0.26                           301 236 
                                                                                
