 2015  213 1607  1.1 L   6.795 -73.136139.1  RSN 18 0.5 2.5LRSN                1
 GAP= 66        1.05       2.9     2.9  4.8 -0.1878E+01  0.3478E+01  0.4199E+01E
 Epicentro: LOS SANTOS - SANTANDER                                             3
 ACTION:UPD 15-04-30 21:25 OP:nd   STATUS:               ID:20150213160701 L   I
 OLDACT:REG 15-02-13 20:48 OP:stll STATUS:               ID:20150213155747     3
 2015-02-13-1557-47M.COL___302                                                 6
 STAT SP IPHASW D HRMM SECON CODA AMPLIT PERI AZIMU VELO AIN AR TRES W  DIS CAZ7
 BAR2 EZ EP       16 7 20.29                             170    0.3710 23.0 193 
 BAR2 EZ ES       16 7 34.83                             170    0.2310 23.0 193 
 BAR2 EZ I        16 7 36.44        76.6 0.20            168           23.0 193 
 BRR  HZ IP     D 16 7 22.19                             151    0.5910 72.4 299 
 BRR  HZ I        16 7 22.43        74.6 0.26            144           72.4 299 
 BRR  HN ES       16 7 37.76                             151    0.1710 72.4 299 
 PAM  SZ EP     D 16 7 23.01                             150    0.4210 77.1  39 
 PAM  SZ I        16 7 23.33       127.1 0.24            148           77.1  39 
 PAM  SE ES       16 7 39.32                             150   -0.0410 77.1  39 
 RUS  HZ EP     C 16 7 24.04                             143   -0.1110 99.9 177 
 RUS  HE ES       16 7 41.66                             143   -0.4710 99.9 177 
 RUS  HZ I        16 7 43.28        33.2 0.46            141           99.9 177 
 PTB  HZ EP       16 7 27.09                             130   -0.53 9  149 259 
 PTB  HN ES       16 7 47.89                             130   -0.41 9  149 259 
 PTB  HZ I        16 7 53.25        31.0 0.30            125            149 259 
 TAM  HZ IP     C 16 7 28.52                             129    0.38 9  154 105 
 TAM  HZ I        16 7 28.60        32.2 0.18            128            154 105 
 TAM  HN ES       16 7 49.06                             129   -0.18 9  154 105 
 OCA  HZ EP       16 7 28.36                             128   -0.61 9  161 353 
 OCA  HN ES       16 7 50.53                             128   -0.17 9  161 353 
 OCA  HZ I        16 7 55.05        47.4 0.26            124            161 353 
 NOR  HZ EP       16 7 36.24                             117   -0.27 8  235 235 
 NOR  HN ES       16 8  3.91                             117   -0.22 8  235 235 
 NOR  HZ I        16 8  6.63        27.3 0.44            113            235 235 
 CHI  HZ EP       16 7 38.17                             116   -0.24 8  248 195 
 CHI  HN ES       16 8  7.99                             116    0.48 8  248 195 
 CHI  HZ I        16 8 13.51        17.2 0.26            113            248 195 
 GUY2CHZ EP       16 7 44.86                             111    0.39 7  302 235 
 GUY2CHN ES       16 8 17.84                             111   -0.46 7  302 235 
 GUY2CHZ I        16 8 26.82        14.7 0.58                           302 235 
 PTGC HZ EP       16 7 43.29                             110   -1.27 7  308 159 
 RREF HZ EP       16 7 47.35                             109    0.34 7  322 230 
 RREF HN ES       16 8 22.55                             109   -0.27 7  322 230 
 RREF HZ I        16 8 32.66        19.1 0.28            106            322 230 
 CBOC HZ EP       16 7 48.10                             109    0.25 7  334 252 
 CBOC HN ES       16 8 23.54                             109   -0.77 7  334 252 
 CBOC HZ I        16 8 27.43         5.7 0.46            105            334 252 
 DBB  SZ EP       16 7 48.99                             108    0.55 7  341 274 
 DBB  SZ I        16 8 33.89        33.3 0.34            105            341 274 
 TOL  SZ EP       16 7 49.58                             108    0.44 7  344 225 
 TOL  SN ES       16 8 28.17                             108    1.57 7  344 225 
 ANIL HZ EP       16 7 50.56                             107   -0.14 6  358 225 
 ANIL HE ES       16 8 29.35                             107   -0.03 6  358 225 
 ANIL HZ I        16 8 42.03         3.4 0.28            104            358 225 
 PRA  HZ EP       16 7 54.22                             105   -0.18 6  392 210 
 PRA  HN ES       16 8 35.88                             105   -0.10 6  392 210 
 PRA  HZ I        16 8 42.80        16.4 0.34            103            392 210 
 ORTC HZ EP       16 7 54.91                             105    0.09 6  396 216 
 ORTC HN ES       16 8 37.35                             105    0.63 6  396 216 
 ORTC HZ I        16 8 44.41        11.4 0.50            103            396 216 
                                                                                
