 2013  113 1026 55.0 L   6.807 -73.143144.5  RSN  9 0.5 2.2LRSN 3.0WRSN        1
 SPEC AVERAGE  MO 13.5 ST  5.9 OM  2.4 f0 4.16 R0.4058 AL 2.37 WI 18.7 MW  3.0 3
 SPEC SD       MO  0.3 ST  6.4 OM  0.7 f0 1.45 R0.1595 AL      WI      MW  0.2 3
 GAP=112        1.23       4.1     4.0  7.0  0.2895E+01  0.3154E+01  0.6776E+00E
 Epicentro: LOS SANTOS - SANTANDER                                             3
 SPEC ZAR HH N MO 13.8 ST 18.1 OM  2.0 f0 6.08 R0.2418 AL 2.67 WI 20.4 MW  3.1 3
 SPEC ZAR HH N T102752 K 0.000 GD  249 VS 4.20 DE 3.00 Q0230.0 QA 0.60 VS 4.20 3
 SPEC RUS HH N MO 13.1 ST0.646 OM  1.5 f0 3.30 R0.4455 AL 2.09 WI 10.5 MW  2.7 3
 SPEC RUS HH N T102736 K 0.000 GD  176 VS 4.20 DE 3.00 Q0230.0 QA 0.60 VS 4.20 3
 SPEC OCA HH N MO 13.8 ST  4.7 OM  2.1 f0 3.79 R0.3879 AL 2.00 WI 24.2 MW  3.1 3
 SPEC OCA HH N T102743 K 0.000 GD  214 VS 4.20 DE 3.00 Q0230.0 QA 0.60 VS 4.20 3
 SPEC CHI HH N MO 13.5 ST0.457 OM  1.7 f0 2.14 R0.6869 AL 1.91 WI 21.3 MW  3.0 3
 SPEC CHI HH N T1028 1 K 0.000 GD  288 VS 4.20 DE 3.00 Q0230.0 QA 0.60 VS 4.20 3
 SPEC BRR HH N MO 13.4 ST  5.5 OM  1.8 f0 5.51 R0.2668 AL 3.19 WI 17.1 MW  2.9 3
 SPEC BRR HH N T102733 K 0.000 GD  161 VS 4.20 DE 3.00 Q0230.0 QA 0.60 VS 4.20 3
 ACTION:UPD 13-02-15 09:13 OP:ep   STATUS:               ID:20130113102655 L   I
 2013-01-13-1018-36M.COL___165                                                 6
 STAT SP IPHASW D HRMM SECON CODA AMPLIT PERI AZIMU VELO AIN AR TRES W  DIS CAZ7
 BAR2 SZ IP       1027 14.54                             170    0.0710 24.2 190 
 BAR2 SZ ES       1027 29.61                             170   -0.0710 24.2 190 
 BAR2 SZ I        1027 31.21        42.0 0.20            169           24.2 190 
 BRR  HZ EP       1027 16.41                             152    0.4310 71.1 298 
 BRR  HN ES       1027 33.44                             152    1.0810 71.1 298 
 BRR  HN I        1027 37.31        33.7 0.36            151           71.1 298 
 RUS  HZ EP       1027 18.50                             143   -0.1610  101 176 
 RUS  HE ES       1027 37.10                             143   -0.0310  101 176 
 RUS  HN I        1027 39.00        20.7 0.46            145            101 176 
 PTB  HZ EP       1027 21.42                             132   -0.46 9  148 259 
 PTB  HN ES       1027 42.32                             132   -0.55 9  148 259 
 PTB  HN I        1027 47.18        18.3 0.42            132            148 259 
 TAM  HZ EP       1027 22.90                             130    0.36 9  155 105 
 TAM  HE ES       1027 43.73                             130   -0.32 9  155 105 
 OCA  HZ EP       1027 23.10                             130   -0.01 9  159 353 
 OCA  HN ES       1027 44.25                             130   -0.81 9  159 353 
 OCA  HN I        1027 47.88        37.3 0.18            131            159 353 
 ZAR  HZ EP       1027 27.21                             122   -0.12 9  204 292 
 ZAR  HN ES       1027 52.68                             122    0.11 9  204 292 
 ZAR  HN I        1027 59.16        17.1 0.16            123            204 292 
 CHI  HZ EP       1027 32.78                             117    0.09 8  250 195 
 CHI  HN ES       1028  2.02                             117   -0.10 8  250 195 
 CHI  HN I        1028  6.59        13.7 0.40            118            250 195 
 HEL  HZ EP       1027 36.33                             115    1.16 8  273 256 
 HEL  HN ES       1028  5.76                             115   -0.77 8  273 256 
 HEL  HN I        1028 11.98         3.7 0.34            115            273 256 
                                                                                
