 2017  313 1053 16.8 L   6.762 -73.118148.0  RSN  9 0.3 1.9LRSN                1
 GAP=142        0.71       3.0     3.0  4.9 -0.1241E+01  0.3651E+01  0.9510E+00E
 Epicentro: LOS SANTOS - SANTANDER                                             3
 ACTION:UPD 17-05-25 18:40 OP:jn   STATUS:               ID:20170313105316 L   I
 OLDACT:REG 17-03-13 20:53 OP:dnl  STATUS:               ID:20170313104744     3
 2017-03-13-1048-00M.COL___387                                                 6
 STAT SP IPHASW D HRMM SECON CODA AMPLIT PERI AZIMU VELO AIN AR TRES W  DIS CAZ7
 BAR2 EZ IP     D 1053 36.57                             172   -0.0810 20.1 201 
 BAR2 EZ ES       1053 52.26                             172    0.1310 20.1 201 
 BAR2 EZ I        1053 53.95        22.4 0.20            172           20.1 201 
 BRR  HZ IP     D 1053 38.44                             151   -0.0310 75.9 300 
 BRR  HN ES       1053 55.44                             151    0.0710 75.9 300 
 BRR  HZ I        1053 55.77         8.6 0.14            150           75.9 300 
 PAM  EZ IP     D 1053 39.44                             151    0.0910 78.8  36 
 PAM  EE ES       1053 56.58                             151   -0.3510 78.8  36 
 PAM  EZ I        1053 58.84        19.7 0.68            153           78.8  36 
 RUS  HZ EP       1053 40.61                             146    0.1310 96.2 178 
 RUS  HN ES       1053 59.04                             146    0.1010 96.2 178 
 RUS  HZ I        1054  0.10        11.6 0.30            148           96.2 178 
 PTB  HZ EP   2   1053 44.14                             132   -0.03 5  150 261 
 PTB  HE ES       1054  5.83                             132    0.33 9  150 261 
 PTB  HZ I        1054 10.33         4.1 0.10            132            150 261 
 SPBC HZ EP   2   1053 45.03                             130   -0.34 5  162 221 
 SPBC HE ES       1054  7.68                             130    0.04 9  162 221 
 SPBC HZ I        1054  8.45        18.1 0.18            131            162 221 
 ZAR  HZ EP   2   1053 50.90                             122    1.04 4  208 293 
 ZAR  HN ES       1054 15.54                             122   -0.09 8  208 293 
 ZAR  HZ I        1054 21.04        13.3 0.54            123            208 293 
 GUY2CHZ EP   2   1054  1.10                             113    0.56 4  301 236 
 GUY2CHN ES       1054 33.67                             113   -0.97 7  301 236 
 GUY2CHZ  IAML    1054 41.60         4.8 0.32                           301 236 
 SJC  HZ EP   4   1054 10.85                             106   -2.20 0  414 327 
 SJC  HE ES   4   1054 51.57                             106   -5.35 0  414 327 
 SJC  HZ I        1054 56.31         1.4 0.42            107            414 327 
                                                                                
