 2017  513 1053  8.9 L   6.329 -73.618109.8  RSN  9 0.4 1.8LRSN                1
 GAP= 85        1.09       3.2     3.0  7.7  0.1111E+01 -0.3063E+01 -0.3342E+01E
 Epicentro: SANTA HELENA DEL OPON - SANTANDER                                  3
 ACTION:UPD 17-06-16 13:35 OP:jn   STATUS:               ID:20170513105308 L   I
 OLDACT:REG 17-05-13 19:01 OP:lv   STATUS:               ID:20170513104747     3
 2017-05-13-1048-00M.COL___321                                                 6
 STAT SP IPHASW D HRMM SECON CODA AMPLIT PERI AZIMU VELO AIN AR TRES W  DIS CAZ7
 RUS  HZ EP       1053 27.23                             143   -0.1410 76.4 129 
 RUS  HN ES       1053 41.31                             143   -0.4710 76.4 129 
 RUS  HZ I        1053 43.29         4.7 0.19            144           76.4 129 
 BRR  HZ EP       1053 27.46                             139   -0.0210 86.7 353 
 BRR  HN ES       1053 42.58                             139    0.6010 86.7 353 
 BRR  HZ I        1053 43.18        19.3 0.14            139           86.7 353 
 SPBC HZ EP       1053 28.24                             138    0.3510 90.1 214 
 SPBC HN ES       1053 43.35                             138    0.6510 90.1 214 
 SPBC HZ I        1053 46.06        28.0 0.05            137           90.1 214 
 PTB  HZ EP       1053 27.78                             136   -0.4710 95.6 284 
 PTB  HN ES       1053 42.75                             136   -0.5810 95.6 284 
 PTB  HZ I        1053 45.16        15.0 0.28            135           95.6 284 
 PAM  EZ EP       1053 34.09                             122   -0.08 9  151  42 
 PAM  EN ES       1053 53.48                             122   -0.40 9  151  42 
 PAM  EZ I        1053 57.66         5.3 0.20            123            151  42 
 NOR  HN ES       1053 54.49                             119   -0.49 9  162 239 
 NOR  HZ I        1053 57.60         8.9 0.14            119            162 239 
 YPLC HZ EP       1053 35.83                             118    0.03 9  171 127 
 YPLC HN ES       1053 57.22                             118    0.44 9  171 127 
 YPLC HZ I        1053 58.77         9.0 0.50            119            171 127 
 ZAR  HZ EP       1053 37.57                             115    0.06 9  188 313 
 ZAR  HN ES       1054  0.42                             115    0.60 9  188 313 
 ZAR  HZ I        1054  4.62        13.1 0.22            115            188 313 
 HEL  HZ EP   9   1053 42.17                             112    1.52 0  212 266 
 HEL  HN ES       1054  6.62                                   -0.31 8  212 266 
 HEL  HZ I        1054 12.43         6.8 0.18            112            212 266 
                                                                                
