 2017  313 1851 57.2 L   6.842 -73.129144.9  RSN 24 0.7 2.8LRSN                1
 GAP= 74        1.44       4.6     3.9  6.4 -0.1046E+00  0.8330E+01  0.6283E+01E
 Epicentro: LOS SANTOS - SANTANDER                                             3
 ACTION:UPD 17-05-25 18:40 OP:jn   STATUS:               ID:20170313185157 L   I
 OLDACT:UP  17-03-14 00:28 OP:edw  STATUS:               ID:20170313184744     3
 OLDACT:UP  17-03-14 00:27 OP:edw  STATUS:               ID:20170313184744     3
 OLDACT:REG 17-03-13 21:22 OP:dnl  STATUS:               ID:20170313184744     3
 2017-03-13-1848-00M.COL___409                                                 6
 STAT SP IPHASW D HRMM SECON CODA AMPLIT PERI AZIMU VELO AIN AR TRES W  DIS CAZ7
 BAR2 EZ EP       1852 16.73                             169   -0.0510 28.3 192 
 BAR2 EZ ES       1852 31.42                             169   -0.6810 28.3 192 
 BAR2 EZ I        1852 32.63       171.9 0.23            165           28.3 192 
 BRR  HZ IP     D 1852 18.62                             152    0.4410 70.8 294 
 BRR  HN ES       1852 34.95                             152    0.3710 70.8 294 
 BRR  HZ I        1852 38.55        86.3 0.16            151           70.8 294 
 PAM  EZ IP     D 1852 19.51                             152    0.5210 72.6  41 
 PAM  EN ES       1852 36.68                             152    0.6610 72.6  41 
 PAM  EZ I        1852 38.74        73.5 0.52            157           72.6  41 
 RUS  HZ IP     C 1852 20.58                             142   -0.5710  105 177 
 RUS  HN ES       1852 39.36                             142   -0.5110  105 177 
 RUS  HZ I        1852 39.88       108.8 0.46            142            105 177 
 PTB  HZ EP   9   1852 23.68                             131   -0.62 0  151 257 
 PTB  HN ES       1852 44.29                             131   -0.57 9  151 257 
 PTB  HZ I        1852 47.08        56.8 0.14            131            151 257 
 TAM  HZ IP     C 1852 24.90                             130    0.19 9  155 107 
 TAM  HN ES       1852 46.12                             130   -0.08 9  155 107 
 TAM  HZ I        1852 46.39        30.3 0.28            134            155 107 
 SPBC HZ EP       1852 25.66                             128   -0.38 9  168 218 
 SPBC HN ES   4   1852 47.54                             128   -1.04 0  168 218 
 SPBC HZ I        1852 54.49        90.2 0.24            128            168 218 
 ZAR  HZ EP       1852 29.58                             122    0.04 9  204 291 
 ZAR  HN ES       1852 54.98                             122    0.17 9  204 291 
 ZAR  HZ I        1853  1.39        75.5 0.30            123            204 291 
 NOR  HZ EP       1852 32.90                             118   -0.39 8  239 234 
 NOR  HN ES       1853  0.81                             118   -0.66 8  239 234 
 NOR  HZ I        1853  3.09        29.6 0.22            118            239 234 
 CHI  HZ EP       1852 34.83                             116   -0.52 8  254 195 
 CHI  HN ES   4   1853  3.77                             116   -1.37 0  254 195 
 CHI  HZ I        1853 10.08        27.4 0.26            117            254 195 
 ROSC BZ EP   4   1852 36.54                             116    0.77 0  258 211 
 ROSC BN ES   4   1853  8.04                             116    2.15 0  258 211 
 ROSC BZ I        1853 12.97        45.7 0.40            116            258 211 
 HEL  HZ EP   4   1852 38.74                             114    1.09 0  275 255 
 HEL  HN ES       1853  8.47                             114   -0.77 8  275 255 
 HEL  HZ I        1853 16.49        27.4 0.22            115            275 255 
 URE  HZ EP       1852 37.72                             113   -0.46 7  284 291 
 URE  HN ES   4   1853  9.05                             113   -1.14 0  284 291 
 URE  HZ I        1853 10.76        44.7 0.10            114            284 291 
 GUY2CHZ EP       1852 41.26                             112    0.06 7  305 234 
 GUY2CHN ES       1853 16.04                             112    0.48 7  305 234 
 GUY2CHZ  IAML    1853 23.33        24.2 0.56                           305 234 
 VIL  EN ES       1853 16.10                             111    0.74 7  308 192 
 PTGC HZ EP   4 D 1852 39.77                             111   -1.62 0  312 159 
 PTGC HN ES   4   1853 12.19                             111   -3.70 0  312 159 
 ELA  HZ EP       1852 45.64                             110    1.16 7  334 229 
 ELA  HN ES       1853 24.18                             110    2.79 7  334 229 
 ELA  HZ I        1853 29.28        15.4 0.50            110            334 229 
 CBOC HZ EP   2   1852 45.21                             109    0.81 3  337 251 
 CBOC HN ES   2   1853 20.50                             109   -0.76 3  337 251 
 CBOC HZ I        1853 23.95        11.0 0.48            110            337 251 
 DBB  EZ EP       1852 45.35                             109    0.58 7  341 273 
 DBB  EN ES       1853 21.28                             109   -0.64 7  341 273 
 DBB  EZ I        1853 26.12        16.1 0.20            110            341 273 
 ANIL HZ EP       1852 48.13                             108    0.67 6  362 224 
 ANIL HN ES   4   1853 25.39                             108   -1.31 0  362 224 
 ANIL HZ I        1853 35.75        57.0 0.32            109            362 224 
 PRA  HZ EP       1852 50.36                             106   -0.87 6  397 209 
 PRA  HN ES       1853 33.00                             106   -0.40 6  397 209 
 PRA  HZ I        1853 39.26        28.9 0.32            107            397 209 
 APAC HZ EP   4   1852 49.28                             106   -2.07 0  399 287 
 APAC HN ES   2   1853 33.80                             106    0.17 3  399 287 
 ORTC HZ EP       1852 51.32                             106   -0.29 6  400 216 
 ORTC HN ES   4   1853 35.12                             106    1.03 0  400 216 
 ORTC HZ I        1853 40.89        19.8 0.48            107            400 216 
 SJC  HZ EP       1852 51.21                             105   -1.14 6  406 326 
 SJC  HN ES   4   1853 32.85                             105   -2.55 0  406 326 
 YOT  HZ EP       1852 59.66                             103   -1.05 5  476 229 
 YOT  HN ES   4   1853 53.13                             103    2.85 0  476 229 
                                                                                
