 2017 1013 1405 29.7 L   6.765 -73.149142.2  RSN  8 0.4 1.8LRSN                1
 GAP=209        0.91       4.4     4.7  5.5  0.1136E+02  0.8184E+01  0.7945E+01E
 Epicentro: LOS SANTOS - SANTANDER                                             3
 ACTION:UPD 17-11-07 19:31 OP:rebc STATUS:               ID:20171013140529 L   I
 OLDACT:REG 17-10-13 21:35 OP:lv   STATUS:               ID:20171013135530     3
 2017-10-13-1358-00M.COL___432                                                 6
 STAT SP IPHASW D HRMM SECON CODA AMPLIT PERI AZIMU VELO AIN AR TRES W  DIS CAZ7
 BAR2 EZ EP       14 5 48.69                             172   -0.1010 19.4 191 
 BAR2 EZ ES       14 6  3.59                             172   -0.1310 19.4 191 
 BAR2 EZ I        14 6  5.80        13.4 0.28            170           19.4 191 
 BRR  HZ EP       14 5 50.71                             151    0.1810 72.9 301 
 BRR  HN ES       14 6  7.53                             151    0.7310 72.9 301 
 RUS  HZ EP       14 5 52.52                             144   -0.2710 96.7 176 
 RUS  HN ES       14 6 10.59                             144   -0.2410 96.7 176 
 RUS  HZ I        14 6 12.57         8.9 0.30            144           96.7 176 
 YPLC HZ EP       14 5 58.97                             126    0.09 9  174 151 
 YPLC HN ES       14 6 21.59                             126   -0.08 9  174 151 
 YPLC HZ I        14 6 24.18        11.7 0.22            128            174 151 
 ZAR  HZ EP       14 6  2.35                             121    0.35 8  205 293 
 ZAR  HN ES       14 6 26.34                             121   -0.89 8  205 293 
 ZAR  HZ I        14 6 32.80         7.9 0.26            122            205 293 
 NOR  HZ EP       14 6  4.68                             118   -0.24 8  232 235 
 NOR  HN ES       14 6 32.32                             118   -0.09 8  232 235 
 NOR  HZ I        14 6 34.04         4.1 0.16            118            232 235 
 CHI  HZ EP       14 6  7.06                             117    0.31 8  245 195 
 CHI  HN ES   4   14 6 32.58                             117   -3.09 0  245 195 
 CHI  HZ I        14 6 39.71         4.0 0.34            117            245 195 
 PRA  HZ EP       14 6 22.63                             106   -0.01 6  388 210 
 PRA  HN ES       14 7  4.65                             106    0.68 6  388 210 
                                                                                
