 2011  213 1129 46.4 L   6.817 -73.103144.6  RSN  6 0.2 1.4LRSN                1
 GAP=163        0.43       4.7     7.1  8.5 -0.1507E+02  0.3424E+02 -0.1817E+02E
 Epicentro: LOS SANTOS - SANTANDER                                             3
 ACTION:UP  11-03-28 15:08 OP:jfem STATUS:               ID:20110213112946 L   I
 2011-02-13-1126-13S.COL___136                                                 6
 STAT SP IPHASW D HRMM SECON CODA AMPLIT PERI AZIMU VELO SNR AR TRES W  DIS CAZ7
 BTL  SZ EP   1   1130  6.10                             171     0.2 7   21 302 
 BAR2 SZ EP       1130  6.03                             169     0.110   27 200 
 BAR2 SZ I        1130  6.39         9.2 0.11                            27 200 
 RUS  HZ EP   1   1130 10.10                             143    -0.1 7  102 179 
 RUS  HZ I        1130 10.66         2.6 0.11                           102 179 
 RUS  HN ES   1   1130 28.54                             143    -0.1 7  102 179 
 GRA  SZ EP   2   1130 10.90                             137    -0.4 5  123  16 
 GRA  SZ I        1130 36.99         2.5 0.22                           123  16 
 NOR  SZ EP   1   1130 22.66                             118     0.0 6  240 235 
 NOR  SN ES   2   1130 50.65                             118    -0.2 4  240 235 
 CHI  HZ EP   2   1130 24.49                             117     0.1 4  252 196 
 CHI  HZ I        1130 57.68         1.6 0.35                           252 196 
                                                                                
