 2016  313 1201 48.3 L   6.797 -73.139133.6  RSN  8 0.4 1.6LRSN                1
 GAP=138        0.99       3.6     4.2  6.4 -0.1913E+01  0.9890E+01  0.2576E+01E
 Epicentro: LOS SANTOS - SANTANDER                                             3
 ACTION:UPD 16-05-13 21:23 OP:cam  STATUS:               ID:20160313120148 L   I
 OLDACT:UP  16-03-13 21:46 OP:drio STATUS:               ID:20160313115748     3
 OLDACT:REG 16-03-13 20:23 OP:drio STATUS:               ID:20160313115748     3
 2016-03-13-1157-48M.COL___285                                                 6
 STAT SP IPHASW D HRMM SECON CODA AMPLIT PERI AZIMU VELO AIN AR TRES W  DIS CAZ7
 BAR2 EZ EP       12 2  6.33                             170   -0.1810 23.2 192 
 BAR2 EZ ES       12 2 20.67                             170   -0.0110 23.2 192 
 BAR2 EZ I        12 2 22.03         7.5 0.20            170           23.2 192 
 PAM  EZ EP       12 2  9.24                             148   -0.0310 77.1  39 
 PAM  EE ES       12 2 26.00                             148    0.4110 77.1  39 
 PAM  EZ I        12 2 28.12         9.7 0.44            152           77.1  39 
 RUS  HZ EP       12 2 10.43                             141   -0.4610  100 176 
 RUS  HE ES       12 2 28.38                             141   -0.1010  100 176 
 RUS  HZ I        12 2 30.64         6.1 0.38            145            100 176 
 PTB  HZ EP   4   12 2 11.82                             129   -2.59 0  148 259 
 PTB  HN ES       12 2 34.04                             129   -0.71 9  148 259 
 PTB  HZ I        12 2 41.45         6.2 0.12            130            148 259 
 SPBC HZ EP       12 2 16.28                             126    0.32 9  163 219 
 SPBC HE ES       12 2 37.71                             126    0.20 9  163 219 
 SPBC HZ I        12 2 39.59         9.0 0.24            128            163 219 
 ZAR  HZ EP       12 2 20.22                             119    0.10 9  205 292 
 ZAR  HN ES       12 2 45.01                             119    0.11 9  205 292 
 ZAR  HZ I        12 2 50.79         5.4 0.16            121            205 292 
 CHI  HZ EP       12 2 24.55                             114   -0.84 8  249 195 
 CHI  HN ES       12 2 55.00                             114    0.72 8  249 195 
 GUY2CHZ EP       12 2 31.96                             110    0.49 7  302 235 
 GUY2CHN ES       12 3  5.56                             110    0.45 7  302 235 
 GUY2CHZ I        12 3 13.28         1.8 0.38                           302 235 
                                                                                
