 2015 1013 1600 40.9 L   6.779 -73.114144.9  RSN  5 0.2 1.5LRSN                1
 GAP=239        0.52       3.3     3.7  4.2  0.6138E+01  0.5081E+01  0.1506E+01E
 Epicentro: LOS SANTOS - SANTANDER                                             3
 ACTION:UPD 15-12-22 20:39 OP:cam  STATUS:               ID:20151013160040 L   I
 OLDACT:UP  15-10-14 00:05 OP:ak   STATUS:               ID:20151013155748     3
 OLDACT:REG 15-10-13 23:02 OP:ak   STATUS:               ID:20151013155748     3
 2015-10-13-1557-48M.COL___339                                                 6
 STAT SP IPHASW D HRMM SECON CODA AMPLIT PERI AZIMU VELO AIN AR TRES W  DIS CAZ7
 BAR2 EZ EP       16 1  0.63                             171    0.1810 21.9 200 
 BAR2 EZ ES       16 1 15.61                             171   -0.0510 21.9 200 
 BAR2 EZ I        16 1 17.01         7.4 0.12            169           21.9 200 
 BRR  HZ EP       16 1  2.36                             151    0.1110 75.4 299 
 BRR  HE ES       16 1 19.09                             151    0.2310 75.4 299 
 RUS  HZ EP       16 1  4.41                             144   -0.0210 98.0 178 
 RUS  HE ES       16 1 22.49                             144   -0.2610 98.0 178 
 RUS  HZ I        16 1 24.27         4.7 0.18            145           98.0 178 
 ZAR  HZ EP   1   16 1 13.53                             122   -0.24 6  208 292 
 ZAR  HE ES       16 1 39.07                             122   -0.30 8  208 292 
 ZAR  HZ I        16 1 44.47         4.0 0.47            122            208 292 
 GUY2CHZ EP   4   16 1 26.19                             112    1.50 0  303 236 
 GUY2CHE ES       16 1 59.04                             112    0.23 7  303 236 
 GUY2CHZ I        16 2  5.70         1.1 0.37                           303 236 
                                                                                
