 2015  613 1900 52.1 L   6.749 -73.119150.5  RSN  6 0.5 1.8LRSN                1
 GAP=261        1.19       6.3     8.0  8.7 -0.4525E+01  0.2230E+02  0.8373E+01E
 Epicentro: LOS SANTOS - SANTANDER                                             3
 ACTION:UPD 15-09-10 22:12 OP:cam  STATUS:               ID:20150613190052 L   I
 OLDACT:REG 15-06-13 21:52 OP:ak   STATUS:               ID:20150613185748     3
 2015-06-13-1857-48M.COL___315                                                 6
 STAT SP IPHASW D HRMM SECON CODA AMPLIT PERI AZIMU VELO AIN AR TRES W  DIS CAZ7
 BAR2 EZ EP       19 1 12.28                             173    0.1110 18.7 202 
 BAR2 EZ ES       19 1 27.09                             173   -0.7710 18.7 202 
 BAR2 EZ I        19 1 28.76        11.8 0.41            168           18.7 202 
 BRR  HZ EP       19 1 14.13                             151    0.1110 76.6 301 
 BRR  HN ES       19 1 31.91                             151    0.7610 76.6 301 
 BRR  HZ I        19 1 33.55        11.7 0.34            147           76.6 301 
 SPBC HZ EP       19 1 20.82                             130    0.13 9  161 221 
 SPBC HN ES       19 1 43.41                             130    0.38 9  161 221 
 ZAR  HZ EP       19 1 25.76                             123    0.44 8  209 293 
 ZAR  HE ES       19 1 50.32                             123   -0.94 8  209 293 
 ZAR  HZ I        19 1 57.32         7.8 0.37            122            209 293 
 NOR  HZ EP   1   19 1 27.50                             119   -0.48 6  234 236 
 NOR  HN ES       19 1 56.10                             119    0.10 8  234 236 
 NOR  HZ I        19 2  3.58         4.1 0.24            119            234 236 
 GUY2CHZ EP   1   19 1 35.04                             113   -0.76 5  300 236 
 GUY2CHN ES       19 2 10.00                             113    0.08 7  300 236 
 GUY2CHZ I        19 2 18.85         1.6 0.28                           300 236 
                                                                                
