 2010  813 1314 11.7 L   6.785 -73.082142.9  RSN  7 0.4 2.0LRSN                1
 GAP=166        0.85       3.9     8.9  6.7 -0.1180E+02 -0.7242E+01  0.2967E+01E
 Epicentro: LOS SANTOS - SANTANDER                                             3
 ACTION:UP  10-09-07 10:54 OP:vdl  STATUS:               ID:20100813131411 L   I
 2010-08-13-1312-16S.COL___126                                                 6
 STAT SP IPHASW D HRMM SECON CODA AMPLIT PERI AZIMU VELO SNR AR TRES W  DIS CAZ7
 BAR2 SZ EP       1314 31.12                             170     0.210   24 208 
 BAR2 SZ ES   1   1314 45.16                             170    -0.9 7   24 208 
 BAR2 SZ I        1314 47.07        23.5 0.05                            24 208 
 BRR  HZ EP       1314 32.79                             150    -0.110   78 297 
 BRR  HN ES   1   1314 49.85                             150     0.4 7   78 297 
 BRR  HZ I        1314 52.91        18.6 0.11                            78 297 
 RUS  HZ EP   1   1314 35.12                             144     0.1 7   99 180 
 RUS  HN ES   1   1314 53.71                             144     0.5 7   99 180 
 RUS  HZ I        1314 54.98        12.4 0.23                            99 180 
 GUE  SZ EP       1314 36.09                             139     0.010  117   9 
 GRA  SZ EP       1314 36.38                             137    -0.210  125  14 
 GRA  SZ ES   1   1314 56.45                             137     0.4 7  125  14 
 GRA  SZ I        1314 57.66        15.9 0.23                           125  14 
 CHI  HZ EP       1314 49.28                             117     0.0 8  249 197 
 CHI  HE ES   2   1315 18.02                             117    -0.5 4  249 197 
 CHI  HZ I        1315 22.15         6.9 0.24                           249 197 
 PRA  HZ EP   1   1315  5.18                             106    -0.1 4  394 211 
 PRA  HN ES   2   1315 47.26                             106     0.1 3  394 211 
 PRA  HZ I        1315 53.49         3.7 0.30                           394 211 
                                                                                
