 2014 1013 1633  6.0 L   6.826 -73.175142.7  RSN  5 0.5 1.5LRSN                1
 GAP=199        1.07       7.7     8.5 12.9  0.3110E+02  0.1948E+02 -0.2920E+02E
 Epicentro: ZAPATOCA - SANTANDER                                               3
 ACTION:UPD 14-11-29 23:49 OP:nd   STATUS:               ID:20141013163306 L   I
 OLDACT:REG 14-10-13 21:08 OP:fm   STATUS:               ID:20141013162747     3
 2014-10-13-1627-47M.COL___296                                                 6
 STAT SP IPHASW D HRMM SECON CODA AMPLIT PERI AZIMU VELO AIN AR TRES W  DIS CAZ7
 BAR2 SZ ES   1   1633 41.15                             170    0.77 8 25.9 182 
 BAR2 SZ I        1633 43.07         4.7 0.16            172           25.9 182 
 RUS  HZ EP   1   1633 30.32                             142    0.64 7  104 174 
 RUS  HN ES       1633 47.43                             142   -0.7210  104 174 
 RUS  HZ I        1633 50.59         2.8 0.20            147            104 174 
 PTB  HZ EP       1633 32.57                             132    0.09 9  145 257 
 PTB  HN ES       1633 53.08                             132   -0.06 9  145 257 
 PTB  HZ I        1633 56.14         4.2 0.12            134            145 257 
 ZAR  HN ES   1   1634  2.78                             122    0.14 6  200 292 
 ZAR  HZ I        1634  9.36         4.7 0.22            124            200 292 
 SML  HN ES   1   1634  9.67                             117   -0.45 6  240 336 
 SML  HZ I        1634 12.82         3.7 0.10            119            240 336 
                                                                                
