 2016 1113 1940 16.9 L   6.728 -73.150140.6  RSN  9 0.4 1.9LRSN                1
 GAP=157        1.01       4.1     4.3  6.3 -0.2599E+01  0.5610E+01  0.1011E+02E
 Epicentro: JORDAN - SANTANDER                                                 3
 ACTION:UPD 17-10-26 21:07 OP:lp   STATUS:               ID:20161113194016 L   I
 OLDACT:UP  16-11-14 01:04 OP:and  STATUS:               ID:20161113193747     3
 OLDACT:REG 16-11-13 20:59 OP:dnl  STATUS:               ID:20161113193747     3
 2016-11-13-1938-00M.COL___331                                                 6
 STAT SP IPHASW D HRMM SECON CODA AMPLIT PERI AZIMU VELO AIN AR TRES W  DIS CAZ7
 BAR2 EZ EP       1940 35.76                             173    0.0110 15.4 193 
 BAR2 EZ ES       1940 50.45                             173   -0.0210 15.4 193 
 BAR2 EZ I        1940 51.63        19.5 0.18            171           15.4 193 
 BRR  HZ EP       1940 37.79                             150    0.1010 74.9 304 
 BRR  HE ES       1940 54.34                             150    0.4210 74.9 304 
 BRR  HZ I        1940 58.20        12.8 0.22            150           74.9 304 
 PAM  EZ EP       1940 38.81                             148   -0.1510 84.0  36 
 PAM  EN ES       1940 56.02                             148   -0.1710 84.0  36 
 PAM  EZ I        1940 58.22        14.7 0.46            152           84.0  36 
 PTB  HZ EP       1940 42.42                             131   -0.84 9  146 262 
 PTB  HN ES       1941  3.32                             131   -0.52 9  146 262 
 PTB  HZ I        1941  7.13         8.3 0.16            132            146 262 
 ZAR  HZ EP       1940 50.21                             121    0.94 8  207 294 
 ZAR  HE ES       1941 14.74                             121    0.21 8  207 294 
 ZAR  HZ I        1941 18.96         7.5 0.36            122            207 294 
 NOR  HZ EP       1940 51.37                             118   -0.40 8  230 236 
 NOR  HN ES       1941 18.87                             118   -0.12 8  230 236 
 NOR  HZ I        1941 23.70         6.3 0.30            119            230 236 
 CHI  HZ EP       1940 53.67                             117    0.24 8  241 196 
 CHI  HN ES       1941 22.53                             117    0.57 8  241 196 
 CHI  HZ I        1941 25.67         2.9 0.52            118            241 196 
 PRA  HZ EP       1941  9.08                             106   -0.30 6  385 210 
 PRA  HN ES       1941 50.59                             106    0.26 6  385 210 
 PRA  HZ I        1941 56.56         2.7 0.32            107            385 210 
 SJC  HZ EP   4   1941 10.09                             105   -2.94 0  416 328 
 SJC  HN ES   4   1941 52.03                             105   -4.80 0  416 328 
 SJC  HZ I        1941 56.82         3.9 0.86            106            416 328 
                                                                                
