 2017  513 1206 57.5 L   7.018 -73.289123.0  RSN  5 0.4 1.1LRSN                1
 GAP=134        1.14       6.0     5.0  8.9 -0.2268E+01  0.8556E+01  0.7426E+01E
 Epicentro: BETULIA - SANTANDER                                                3
 ACTION:UPD 17-06-16 13:35 OP:jn   STATUS:               ID:20170513120657 L   I
 OLDACT:REG 17-05-13 19:05 OP:lv   STATUS:               ID:20170513115745     3
 2017-05-13-1158-00M.COL___330                                                 6
 STAT SP IPHASW D HRMM SECON CODA AMPLIT PERI AZIMU VELO AIN AR TRES W  DIS CAZ7
 BRR  HZ EP       12 7 15.00                             157    0.0910 47.8 282 
 BRR  HN ES       12 7 29.07                             157    0.5710 47.8 282 
 PAM  EZ EP       12 7 16.79                             147   -0.3310 74.1  61 
 PAM  EN ES       12 7 32.14                             147   -0.2910 74.1  61 
 PAM  EZ I        12 7 33.24         3.6 0.24            152           74.1  61 
 RUS  HZ EP       12 7 21.58                             131    0.2610  127 170 
 RUS  HN ES       12 7 40.15                             131    0.2410  127 170 
 RUS  HZ I        12 7 41.86         0.9 0.23            134            127 170 
 PTB  HZ EP       12 7 21.63                             128   -0.28 9  140 248 
 PTB  HN ES       12 7 40.11                             128   -0.84 9  140 248 
 PTB  HZ I        12 7 45.44         2.8 0.20            128            140 248 
 ZAR  HZ EP       12 7 26.74                             120    0.64 9  181 287 
 ZAR  HN ES   4   12 7 50.34                             120    1.92 0  181 287 
 ZAR  HZ I        12 7 53.91         1.9 0.15            121            181 287 
                                                                                
