 2015  313 1826 51.3 L   6.800 -73.175142.9  RSN  6 0.4 1.5LRSN                1
 GAP=133        1.04       4.2     5.2  8.1 -0.5856E+01  0.1727E+02 -0.1043E+02E
 Epicentro: LOS SANTOS - SANTANDER                                             3
 ACTION:UPD 15-04-30 16:25 OP:nd   STATUS:               ID:20150313182651 L   I
 OLDACT:REG 15-03-13 21:46 OP:y    STATUS:               ID:20150313181750     3
 2015-03-13-1817-50M.COL___275                                                 6
 STAT SP IPHASW D HRMM SECON CODA AMPLIT PERI AZIMU VELO AIN AR TRES W  DIS CAZ7
 BAR2 EZ EP       1827 10.79                             170    0.1910 23.0 182 
 BAR2 EZ ES       1827 25.81                             170    0.1710 23.0 182 
 BAR2 EZ I        1827 27.01        12.2 0.22            172           23.0 182 
 PAM  SZ IP     C 1827 13.58                             149    0.2110 79.5  41 
 PAM  SN ES       1827 30.48                             149   -0.0810 79.5  41 
 PAM  SZ I        1827 33.28         3.4 0.18            151           79.5  41 
 RUS  HZ EP       1827 15.07                             143    0.2610  101 174 
 RUS  HE ES       1827 32.57                             143   -0.5610  101 174 
 RUS  HZ I        1827 34.48         5.0 0.36            146            101 174 
 PTB  HZ EP       1827 18.47                             132    0.70 9  145 259 
 PTB  HN ES       1827 38.38                             132   -0.02 9  145 259 
 PTB  HZ I        1827 41.05         7.0 0.14            134            145 259 
 NOR  HN ES       1827 53.80                             118   -0.32 8  232 234 
 SML  HZ EP       1827 26.66                             117   -0.99 8  242 336 
 SML  HN ES       1827 56.07                             117    0.09 8  242 336 
                                                                                
