 2010 1013 1007 22.3 L   6.782 -73.054147.2  RSN  4 0.5 1.6LRSN                1
 GAP=201        1.21      13.7    17.1 15.6 -0.1189E+03 -0.1069E+03  0.1840E+02E
 Epicentro: LOS SANTOS - SANTANDER                                             3
 ACTION:UP  11-02-18 11:09 OP:tino STATUS:               ID:20101013100722 L   I
 2010-10-13-1004-40S.COL___124                                                 6
 STAT SP IPHASW D HRMM SECON CODA AMPLIT PERI AZIMU VELO SNR AR TRES W  DIS CAZ7
 BAR2 SZ EP   1   10 7 42.44                             170     0.3 7   25 214 
 BAR2 SZ ES   2   10 7 57.18                             170    -0.4 5   25 214 
 BRR  HZ EP       10 7 44.25                             150     0.110   81 296 
 BRR  HZ I        10 7 48.99         8.9 0.31                            81 296 
 BRR  HE ES   1   10 8  1.14                             150    -0.1 7   81 296 
 GUE  SZ EP       10 7 46.24                             140    -0.910  117   7 
 GRA  SZ EP       10 7 48.10                             138     0.510  125  13 
 GRA  SZ ES   1   10 8  7.61                             138     0.3 7  125  13 
 GRA  SZ I        10 8 10.00         3.7 0.46                           125  13 
                                                                                
