 2015  913 1657 37.5 L   7.454 -73.225128.7  RSN  7 0.5 1.8LRSN                1
 GAP=109        1.22       4.1     5.1  8.4 -0.2771E+00  0.1459E+02 -0.4430E+01E
 Epicentro: EL PLAYON - SANTANDER                                              3
 ACTION:UPD 15-10-28 16:26 OP:cam  STATUS:               ID:20150913165737 L   I
 OLDACT:DUP 15-09-14 01:10 OP:stll STATUS:               ID:20150913164750d    3
 2015-09-13-1647-49M.COL___329                                                 6
 STAT SP IPHASW D HRMM SECON CODA AMPLIT PERI AZIMU VELO AIN AR TRES W  DIS CAZ7
 PAM  EZ EP       1657 57.40                             154    0.5710 59.4 102 
 PAM  EN ES       1658 11.90                             154   -0.0210 59.4 102 
 PAM  EZ I        1658 13.09        11.8 0.14            157           59.4 102 
 BRR  HZ EP       1657 56.79                             151    0.2910 66.0 235 
 BRR  HZ I        1657 57.01        20.0 0.26            152           66.0 235 
 BRR  HN ES       1658 11.03                             151   -0.2910 66.0 235 
 OCA  HZ EP       1657 58.52                             144    0.3910 87.4 353 
 OCA  HN ES       1658 14.61                             144    0.3810 87.4 353 
 OCA  HZ I        1658 16.99        18.9 0.46            145           87.4 353 
 BAR2 EZ EP       1657 58.72                             141   -0.1210 95.4 177 
 BAR2 EZ ES       1658 15.01                             141   -0.4810 95.4 177 
 BAR2 EZ I        1658 16.17        11.3 0.12            144           95.4 177 
 PTB  HZ EP       1658  4.97                             124   -0.30 9  170 233 
 PTB  HN ES       1658 27.02                             124    0.08 9  170 233 
 PTB  HZ I        1658 30.09         4.5 0.12            125            170 233 
 SML  HZ EP       1658  5.49                             123   -0.39 9  176 328 
 SML  HN ES       1658 27.00                             123   -1.03 9  176 328 
 SML  HZ I        1658 29.89        13.9 0.10            124            176 328 
 ZAR  HZ EP       1658  6.16                             122   -0.20 9  180 271 
 ZAR  HN ES       1658 29.85                             122    0.96 9  180 271 
 ZAR  HZ I        1658 31.18         6.6 0.16            123            180 271 
                                                                                
