 2014  513 1153 49.5 L   6.762 -73.150142.5  RSN  8 0.3 1.8LRSN                1
 GAP=138        0.77       2.6     3.6  6.1 -0.2592E+01  0.8359E+01 -0.2047E+01E
 Epicentro: LOS SANTOS - SANTANDER                                             3
 ACTION:UPD 15-03-16 16:57 OP:nd   STATUS:               ID:20140513115349 L   I
 OLDACT:REG 14-05-13 21:11 OP:carl STATUS:               ID:20140513114809     3
 2014-05-13-1148-09M.COL___248                                                 6
 STAT SP IPHASW D HRMM SECON CODA AMPLIT PERI AZIMU VELO AIN AR TRES W  DIS CAZ7
 PAM  SZ EP       1154 12.06                             149    0.4710 81.0  38 
 PAM  SE ES       1154 28.85                             149    0.0310 81.0  38 
 PAM  SZ I        1154 31.53         6.8 0.46            148           81.0  38 
 RUS  HE ES       1154 30.41                             144   -0.2710 96.4 176 
 PTB  HZ EP       1154 16.00                             131   -0.09 9  146 260 
 PTB  HN ES       1154 36.45                             131   -0.38 9  146 260 
 PTB  HZ I        1154 37.03         4.9 0.14            131            146 260 
 SPBC HE ES       1154 39.29                             129    0.11 9  160 220 
 ZAR  HN ES       1154 47.48                             121    0.39 9  205 293 
 NOR  HZ EP       1154 25.10                             118    0.36 8  232 235 
 NOR  HE ES       1154 52.63                             118    0.41 8  232 235 
 NOR  HZ I        1154 57.97         3.9 0.22            118            232 235 
 SML  HZ EP       1154 26.14                             116   -0.20 8  247 336 
 SML  HE ES       1154 54.55                             116   -0.52 8  247 336 
 SML  HZ I        1155  1.52         8.5 0.24            116            247 336 
 PRA  HZ EP       1154 42.07                             106   -0.39 6  388 210 
 PRA  HN ES       1155 23.44                             106   -0.32 6  388 210 
 PRA  HZ I        1155 28.48         1.9 0.76            106            388 210 
                                                                                
