 2010  413 1210 55.0 L   6.957 -73.326155.6  RSN  5 0.5 2.4LRSN                1
 GAP=220        0.75      10.1    12.6 11.6 -0.6884E+02  0.1703E+02  0.3006E+02E
 Epicentro: BETULIA - SANTANDER                                                3
 ACTION:UPD 10-08-24 09:58 OP:vdl  STATUS:               ID:20100413121055 L   I
 2010-04-13-1208-00S.COL___097                                                 6
 STAT SP IPHASW D HRMM SECON CODA AMPLIT PERI AZIMU VELO AIN AR TRES W  DIS CAZ7
 BRR  HZ EP   1   1211 15.78                             161    -0.3 7   46 291 
 BRR  HE ES   2   1211 33.01                             161     0.5 5   46 291 
 BRR  HZ I        1211 36.86        35.3 0.40                            46 291 
 OCA  SZ EP   2   1211 21.95                             134    -0.5 5  142   0 
 RREF BZ EP   1   1211 41.62                             112     0.4 5  319 225 
 RREF BN ES   1   1212 16.84                             112    -0.5 5  319 225 
 RREF BZ I        1212 25.79        12.5 0.47                           319 225 
 DBB  SZ EP   1   1211 41.25                             112     0.7 5  319 271 
 DBB  SZ ES   2   1212 15.29                             112    -0.7 3  319 271 
 TOL  SZ EP   2   1211 43.84                             110     0.3 3  343 220 
                                                                                
