 2016  813 1740 39.8 L   6.774 -73.181145.1  RSN  7 0.4 1.6LRSN                1
 GAP=232        1.01       5.1     5.1  6.8  0.6462E+01  0.1200E+02  0.3726E+01E
 Epicentro: LOS SANTOS - SANTANDER                                             3
 ACTION:UPD 16-10-29 15:35 OP:rebc STATUS:               ID:20160813174039 L   I
 OLDACT:REG 16-08-13 20:22 OP:lv   STATUS:               ID:20160813173759     3
 2016-08-13-1737-59S.COL___349                                                 6
 STAT SP IPHASW D HRMM SECON CODA AMPLIT PERI AZIMU VELO AIN AR TRES W  DIS CAZ7
 BAR2 EZ EP       1740 59.23                             172   -0.0810 20.2 181 
 BAR2 EZ ES       1741 13.83                             172   -0.6810 20.2 181 
 BAR2 EZ I        1741 17.82         6.0 0.21                          20.2 181 
 BRR  HZ IP     C 1741  0.99                             153    0.2010 69.3 302 
 BRR  HN ES       1741 17.73                             153    0.5810 69.3 302 
 BRR  HZ I        1741 22.41         6.2 0.21                          69.3 302 
 RUS  HZ EP       1741  3.53                             144    0.2010 98.1 174 
 RUS  HN ES       1741 21.94                             144    0.2710 98.1 174 
 RUS  HZ I        1741 23.71         3.2 0.26                          98.1 174 
 PTB  HZ EP       1741  6.10                             133   -0.24 9  143 260 
 PTB  HE ES       1741 26.93                             133   -0.10 9  143 260 
 PTB  HZ I        1741 30.92         6.4 0.18                           143 260 
 ZAR  HZ EP       1741 12.43                             123    0.46 9  202 293 
 ZAR  HN ES       1741 36.57                             123   -0.47 9  202 293 
 ZAR  HZ I        1741 42.60         8.1 0.27                           202 293 
 NOR  HZ EP       1741 14.28                             119   -0.72 8  230 234 
 NOR  HN ES       1741 42.80                             119    0.36 8  230 234 
 NOR  HZ I        1741 46.24         4.4 0.22                           230 234 
 GUY2CHZ EP   4   1741 24.72                             113    1.86 0  296 235 
 GUY2CHE ES       1741 56.52                             113    0.09 7  296 235 
 GUY2CHZ I        1742  3.86         2.3 0.50                           296 235 
                                                                                
