 2012  513 1915 59.9 L   6.771 -73.100150.7  RSN  7 0.4 1.6LRSN                1
 GAP=144        0.78       4.9     5.4  8.3  0.3368E+01  0.4628E+01 -0.1570E+01E
 Epicentro: LOS SANTOS - SANTANDER                                             3
 ACTION:UP  12-07-05 12:04 OP:pat  STATUS:               ID:20120513191559 L   I
 2012-05-13-1910-00M.COL___195                                                 6
 STAT SP IPHASW D HRMM SECON CODA AMPLIT PERI AZIMU VELO SNR AR TRES W  DIS CAZ7
 BAR2 SZ EP   1   1916 19.91                             171    -0.2 7   22 205 
 BAR2 SZ ES   1   1916 35.36                             171    -0.5 7   22 205 
 BAR2 SZ I        1916 37.44         7.8 0.21                            22 205 
 BRR  HZ EP   1   1916 21.90                             151    -0.1 7   77 299 
 BRR  HZ I        1916 22.04        13.9 0.16                            77 299 
 BRR  HE ES   1   1916 39.83                             151     0.7 7   77 299 
 PAM  SZ EP   1   1916 22.79                             152     0.1 7   77  35 
 PAM  SN ES   1   1916 40.16                             152    -0.2 7   77  35 
 RUS  HZ EP   1   1916 24.03                             146     0.1 7   97 179 
 RUS  HN ES   1   1916 43.01                             146     0.4 7   97 179 
 RUS  HZ I        1916 44.15         2.3 0.27                            97 179 
 PTB  HE ES   2   1916 48.83                             132    -0.5 5  152 260 
 OCA  HN ES   2   1916 51.89                             130     0.2 5  164 352 
 ZAR  HE ES   1   1916 59.13                             123    -0.2 6  210 292 
 ZAR  HZ I        1917  4.33         5.4 0.43                           210 292 
                                                                                
