 2017  913 1352  8.5 L   6.792 -73.101153.0  RSN  7 0.4 1.7LRSN                1
 GAP=143        0.84       3.8     4.3  6.8 -0.2912E+01  0.9156E+01  0.5915E+00E
 Epicentro: LOS SANTOS - SANTANDER                                             3
 ACTION:UPD 17-10-05 19:12 OP:rebc STATUS:               ID:20170913135208 L   I
 OLDACT:UP  17-09-13 23:00 OP:dnl  STATUS:               ID:20170913134743     3
 OLDACT:REG 17-09-13 21:20 OP:dnl  STATUS:               ID:20170913134743     3
 2017-09-13-1348-00M.COL___457                                                 6
 STAT SP IPHASW D HRMM SECON CODA AMPLIT PERI AZIMU VELO AIN AR TRES W  DIS CAZ7
 BAR2 EZ EP       1352 29.25                             171    0.1910 23.8 202 
 BAR2 EZ ES       1352 44.79                             171   -0.2710 23.8 202 
 BAR2 EZ I        1352 47.08        11.4 0.30            171           23.8 202 
 PAM  EZ EP       1352 30.98                             153   -0.4310 75.1  36 
 PAM  EN ES       1352 49.24                             153   -0.0010 75.1  36 
 PAM  EZ I        1352 51.35         9.9 0.54            155           75.1  36 
 BRR  HZ EP   2   1352 31.24                             152    0.49 5 75.9 297 
 BRR  HE ES       1352 48.71                             152    0.6410 75.9 297 
 BRR  HZ I        1352 50.04         9.8 0.42            151           75.9 297 
 RUS  HZ EP   2   1352 33.73                             146    0.79 5 99.5 179 
 RUS  HN ES       1352 51.97                             146    0.0010 99.5 179 
 RUS  HZ I        1352 53.45         5.2 0.40            148           99.5 179 
 SPBC HZ EP   2   1352 38.21                             130    0.37 5  166 221 
 SPBC HE ES       1353  0.35                             130   -0.34 9  166 221 
 SPBC HZ I        1353  2.87        11.5 0.30            131            166 221 
 ZAR  HZ EP   2   1352 41.50                             123   -0.47 4  209 292 
 ZAR  HN ES       1353  7.65                             123   -0.39 8  209 292 
 ZAR  HZ I        1353 14.25         3.6 0.50            124            209 292 
 GUY2CHZ EP   4   1352 54.29                             114    1.40 0  305 235 
 GUY2CHN ES       1353 27.70                             114    0.22 7  305 235 
 GUY2CHZ I        1353 35.79         2.9 0.34                           305 235 
                                                                                
