 2011  713 1005 33.4 L   6.804 -73.089144.8  RSN 12 0.6 2.5LRSN                1
 GAP=144        1.19       4.9     7.3  7.3 -0.1253E+02  0.1355E+02  0.1043E+01E
 Epicentro: LOS SANTOS - SANTANDER                                             3
 ACTION:UP  12-07-25 14:00 OP:epov STATUS:               ID:20110713100533 L   I
 OLDACT:UPD 12-07-12 22:03 OP:ep   STATUS:               ID:20110713100533 L   3
 2011-07-13-1000-00M.COL___133                                                 6
 STAT SP IPHASW D HRMM SECON CODA AMPLIT PERI AZIMU VELO AIN AR TRES W  DIS CAZ7
 BAR2 SZ EP   1   10 5 52.78                             169   -0.14 7 25.6 204 
 BAR2 SZ ES   1   10 6  7.48                             169   -0.70 7 25.6 204 
 BAR2 SZ I        10 6  8.78        58.6 0.21                          25.6 204 
 GIR2 SZ EP       10 5 53.05                             167    0.1010 32.5 339 
 GIR2 SZ ES   1   10 6  8.03                             167   -0.20 7 32.5 339 
 PAM  SZ EP   1   10 5 55.80                             152    0.57 7 73.2  36 
 PAM  SN ES   1   10 6 12.60                             152    0.32 7 73.2  36 
 BRR  HZ IP     D 10 5 54.69                             150   -0.0310 76.6 296 
 BRR  HN ES   1   10 6 11.74                             150    0.36 7 76.6 296 
 BRR  HZ I        10 6 12.37        85.6 0.09                          76.6 296 
 RUS  HZ EP       10 5 56.99                             144   -0.0410  101 180 
 RUS  HE ES   1   10 6 15.61                             144    0.12 7  101 180 
 RUS  HZ I        10 6 17.50        25.6 0.26                           101 180 
 BRI  SZ EP       10 5 57.40                             142    0.4310  106  18 
 BRI  SZ ES   1   10 6 16.16                             142    0.78 7  106  18 
 BRI  SZ I        10 6 21.04        42.2 0.46                           106  18 
 GRA  SZ IP       10 5 56.91                             137   -1.4310  124  15 
 OCA  SZ EP       10 6  2.09                             129    0.45 9  161 351 
 OCA  SZ ES   1   10 6 23.16                             129   -0.53 7  161 351 
 OCA  SZ I        10 6 26.55        29.8 0.16                           161 351 
 NOR  SZ EP   1   10 6  9.09                             118   -0.53 6  240 235 
 HEL  HZ EP   1   10 6 15.12                             114    0.90 6  278 256 
 HEL  HN ES   1   10 6 46.40                             114    0.32 6  278 256 
 HEL  HZ I        10 6 51.30        23.7 0.42                           278 256 
 DBB  SZ EP   1   10 6 20.68                             109   -0.84 5  346 274 
 PRA  HZ EP   1   10 6 27.65                             106    0.39 4  396 210 
 PRA  HN ES   1   10 7  9.60                             106    0.30 4  396 210 
 PRA  HZ I        10 7 12.90        19.4 0.27                           396 210 
                                                                                
