 2013 1213 1359 54.7 L   6.783 -73.144152.4  RSN  8 0.4 1.9LRSN                1
 GAP=138        1.09       5.4     5.1  6.8  0.9026E+00  0.1134E+02  0.2619E+01E
 Epicentro: LOS SANTOS - SANTANDER                                             3
 ACTION:UPD 14-01-13 10:17 OP:ep   STATUS:               ID:20131213135954 L   I
 OLDACT:UP  13-12-13 17:24 OP:cam  STATUS:               ID:20131213135840     3
 OLDACT:REG 13-12-13 17:21 OP:cam  STATUS:               ID:20131213135840     3
 2013-12-13-1358-40M.COL___244                                                 6
 STAT SP IPHASW D HRMM SECON CODA AMPLIT PERI AZIMU VELO AIN AR TRES W  DIS CAZ7
 BAR2 SZ EP       14 0 15.01                             172   -0.1010 21.5 191 
 BAR2 SZ ES       14 0 31.88                             172    0.8610 21.5 191 
 BAR2 SZ I        14 0 36.60        15.1 0.26            171           21.5 191 
 BRR  HZ EP       14 0 16.84                             153    0.2010 72.3 300 
 BRR  HE ES       14 0 33.99                             153    0.2410 72.3 300 
 BRR  HZ I        14 0 37.36        15.5 0.44            152           72.3 300 
 PAM  SZ EP       14 0 17.79                             152    0.0710 78.8  39 
 PAM  SN ES       14 0 35.10                             152   -0.5610 78.8  39 
 PAM  SZ I        14 0 37.34        11.3 0.46            156           78.8  39 
 RUS  HZ EP   2   14 0 19.46                             146    0.47 5 98.7 176 
 RUS  HN ES       14 0 37.43                             146   -0.4910 98.7 176 
 RUS  HZ I        14 0 38.74         7.2 0.38            150           98.7 176 
 PTB  HZ EP       14 0 21.63                             133   -0.58 9  148 260 
 PTB  HN ES       14 0 43.10                             133   -0.56 9  148 260 
 PTB  HZ I        14 0 50.10        15.1 0.38            135            148 260 
 SPBC HZ EP       14 0 24.02                             131    0.42 9  162 219 
 ZAR  HZ EP       14 0 27.74                             124    0.05 9  205 293 
 ZAR  HE ES       14 0 53.55                             124    0.14 9  205 293 
 ZAR  HZ I        14 0 58.97        16.3 0.44            126            205 293 
 NOR  HZ EP       14 0 30.97                             120    0.24 8  234 235 
                                                                                
