 2011  513 1513 51.9 L   6.762 -73.070139.3  RSN 14 0.3 2.6LRSN                1
 GAP=148        0.58       3.0     4.3  3.7 -0.7028E+01  0.2023E+01  0.2096E+01E
 Epicentro: LOS SANTOS - SANTANDER                                             3
 ACTION:UP  11-06-29 08:53 OP:tino STATUS:               ID:20110513151351 L   I
 2011-05-13-1509-55S.COL___141                                                 6
 STAT SP IPHASW D HRMM SECON CODA AMPLIT PERI AZIMU VELO SNR AR TRES W  DIS CAZ7
 BAR2 SZ IP   1   1514 10.80                             170     0.0 7   23 213 
 BAR2 SZ I        1514 11.36       106.1 0.39                            23 213 
 BAR2 SZ ES   1   1514 25.19                             170    -0.3 7   23 213 
 BTL  SZ EP   1   1514 10.95                             168     0.1 7   28 308 
 BTL  SZ ES   1   1514 26.19                             168     0.5 7   28 308 
 GIR2 SZ IP       1514 10.88                             164    -0.110   38 339 
 GIR2 SZ ES   2   1514 26.14                             164     0.2 5   38 339 
 PAM  SZ EP   1   1514 13.69                             150     0.3 7   76  33 
 PAM  SN ES   2   1514 30.39                             150     0.3 5   76  33 
 BRR  HZ EP   1   1514 12.82                             148    -0.1 7   81 298 
 BRR  HZ I        1514 13.08       118.4 0.10                            81 298 
 BRR  HN ES   1   1514 29.48                             148     0.1 7   81 298 
 RUS  HZ EP   1   1514 14.78                             144     0.1 7   96 181 
 RUS  HN ES   2   1514 31.80                             144    -0.7 5   96 181 
 RUS  HZ I        1514 34.31        39.9 0.39                            96 181 
 BRI  SZ EP   1   1514 15.56                             140     0.3 7  110  16 
 BRI  SZ ES   1   1514 33.32                             140    -0.2 7  110  16 
 GRA  SZ EP   1   1514 16.84                             135     0.1 7  128  13 
 GRA  SZ ES   1   1514 35.83                             135    -0.3 7  128  13 
 OCA  SZ EP   2   1514 19.75                             127    -0.5 5  166 350 
 OCA  SZ ES   2   1514 41.94                             127    -0.4 5  166 350 
 NOR  SZ EP   1   1514 27.23                             116    -0.5 6  239 236 
 NOR  SE ES   2   1514 55.33                             116    -0.4 4  239 236 
 HEL  HZ EP   1   1514 32.59                             113     0.0 6  279 257 
 HEL  HZ I        1515 11.45        16.9 0.35                           279 257 
 GUY  SZ EP   1   1514 36.50                             111     0.5 5  308 237 
 GUY  SN ES   2   1515 10.84                             111     0.4 4  308 237 
 GUY  SZ I        1515 14.85        20.7 0.30                           308 237 
 RREF HZ EP   2   1514 38.31                             109     0.1 3  326 231 
 RREF HN ES   2   1515 14.37                             109     0.0 3  326 231 
 RREF HZ I        1515 20.04        13.2 0.28                           326 231 
 PRA  HZ EP   1   1514 45.64                             105     0.3 4  393 211 
                                                                                
