 2015  213 1016 50.5 L   6.790 -73.130146.9  RSN  9 0.6 2.1LRSN                1
 GAP= 72        1.55       4.7     5.3  8.8 -0.6091E-01  0.2835E+01 -0.5075E+01E
 Epicentro: LOS SANTOS - SANTANDER                                             3
 ACTION:UPD 15-04-30 21:25 OP:nd   STATUS:               ID:20150213101650 L   I
 OLDACT:REG 15-02-13 20:32 OP:stll STATUS:               ID:20150213100744     3
 2015-02-13-1007-44M.COL___296                                                 6
 STAT SP IPHASW D HRMM SECON CODA AMPLIT PERI AZIMU VELO AIN AR TRES W  DIS CAZ7
 BAR2 EZ EP       1017 10.68                             171    0.4210 22.7 195 
 BAR2 EZ ES       1017 25.52                             171   -0.1510 22.7 195 
 BAR2 EZ I        1017 28.20        22.4 0.28            169           22.7 195 
 BRR  HZ EP       1017 12.42                             152    0.5210 73.3 299 
 BRR  HZ I        1017 21.75        13.6 0.38            149           73.3 299 
 BRR  HE ES       1017 29.94                             152    1.3610 73.3 299 
 PAM  SZ EP       1017 13.14                             151    0.3110 77.1  38 
 PAM  SZ I        1017 13.71        35.0 0.22            154           77.1  38 
 PAM  SN ES       1017 30.29                             151    0.0510 77.1  38 
 RUS  HZ EP       1017 14.67                             144    0.3810 99.4 177 
 RUS  HN ES       1017 32.35                             144   -0.4910 99.4 177 
 RUS  HZ I        1017 34.44         7.9 0.40            145           99.4 177 
 PTB  HZ EP       1017 17.54                             132   -0.17 9  149 259 
 PTB  HN ES       1017 37.87                             132   -1.05 9  149 259 
 PTB  HZ I        1017 46.13        11.9 0.42            130            149 259 
 TAM  HZ EP       1017 18.72                             131    0.63 9  153 105 
 TAM  HE ES       1017 38.63                             131   -0.98 9  153 105 
 OCA  HZ EP       1017 18.70                             130   -0.33 9  162 353 
 OCA  HN ES       1017 41.04                             130   -0.23 9  162 353 
 OCA  HZ I        1017 47.25        14.0 0.26            130            162 353 
 SPBC HZ EP       1017 19.59                             129    0.47 9  163 220 
 SPBC HN ES       1017 41.19                             129   -0.25 9  163 220 
 SPBC HZ I        1017 48.79        21.5 0.22            128            163 220 
 SML  HZ EP       1017 27.01                             117   -0.37 8  245 335 
 SML  HN ES       1017 55.27                             117   -0.87 8  245 335 
 SML  HZ I        1017 59.03        19.0 0.24            117            245 335 
                                                                                
