 2013 1113 1910 36.0 L   6.786 -73.155145.0  RSN  7 0.5 1.9LRSN                1
 GAP=136        1.36       5.6     6.0  9.0  0.3739E+01  0.9978E+01 -0.1033E+02E
 Epicentro: LOS SANTOS - SANTANDER                                             3
 ACTION:UPD 14-01-09 16:27 OP:ep   STATUS:               ID:20131113191036 L   I
 OLDACT:REG 13-11-13 15:52 OP:stll STATUS:               ID:20131113190810     3
 2013-11-13-1908-10M.COL___225                                                 6
 STAT SP IPHASW D HRMM SECON CODA AMPLIT PERI AZIMU VELO AIN AR TRES W  DIS CAZ7
 BAR2 SZ EP       1910 55.77                             171    0.3010 21.6 188 
 BAR2 SZ ES       1911 10.86                             171    0.1810 21.6 188 
 BAR2 SZ I        1911 12.03        19.1 0.26            170           21.6 188 
 BRR  HZ EP       1910 57.80                             152    0.7710 71.0 300 
 BRR  HN ES       1911 13.60                             152    0.1510 71.0 300 
 PAM  SZ EP       1910 58.71                             150    0.4910 79.3  39 
 PAM  SZ I        1910 58.97        17.3 0.22            152           79.3  39 
 PAM  SN ES       1911 15.59                             150    0.0310 79.3  39 
 RUS  HZ EP       1910 59.51                             144   -0.0310 99.1 175 
 RUS  HN ES       1911 16.82                             144   -1.1010 99.1 175 
 RUS  HZ I        1911 19.60         4.1 0.40            145           99.1 175 
 PTB  HZ EP       1911  3.10                             132    0.34 9  146 259 
 PTB  HN ES       1911 23.43                             132   -0.21 9  146 259 
 PTB  HZ I        1911 31.30         5.3 0.34            131            146 259 
 ZAR  HN ES       1911 33.80                             122    0.24 9  204 293 
 SML  HZ EP       1911 11.98                             117   -0.68 8  245 336 
 SML  HN ES       1911 40.25                             117   -1.03 8  245 336 
 SML  HZ I        1911 47.21        17.6 0.10            117            245 336 
                                                                                
