 2011  513 1950 30.2 L   6.768 -73.102142.4  RSN  4 0.1 1.8LRSN                1
 GAP=144        0.41       4.2     6.6  6.1  0.1262E+02 -0.1923E+02 -0.1020E+02E
 Epicentro: LOS SANTOS - SANTANDER                                             3
 ACTION:UP  11-06-29 08:53 OP:tino STATUS:               ID:20110513195030 L   I
 2011-05-13-1946-56S.COL___141                                                 6
 STAT SP IPHASW D HRMM SECON CODA AMPLIT PERI AZIMU VELO SNR AR TRES W  DIS CAZ7
 BTL  SZ EP   1   1950 49.58                             170     0.2 7   25 312 
 BTL  SZ ES   1   1951  4.32                             170    -0.1 7   25 312 
 BRR  HZ EP   1   1950 51.11                             150    -0.2 7   77 299 
 BRR  HN ES   1   1951  7.93                             150     0.1 7   77 299 
 BRR  HZ I        1951 12.27        20.2 0.12                            77 299 
 PAM  SZ EP   1   1950 52.04                             150     0.0 7   77  35 
 PAM  SZ I        1950 52.40        10.6 0.19                            77  35 
 RUS  HN ES   1   1951 11.38                             144     0.0 7   97 179 
 RUS  HZ I        1951 13.03         7.1 0.36                            97 179 
                                                                                
