 2013  713 1550 21.4 L   6.805 -73.165144.3  RSN  5 0.2 1.8LRSN                1
 GAP=181        0.67       4.7     4.6  5.3  0.8132E+01  0.8666E-01 -0.1958E+01E
 Epicentro: LOS SANTOS - SANTANDER                                             3
 ACTION:UPD 13-08-12 10:37 OP:ep   STATUS:               ID:20130713155021 L   I
 OLDACT:REG 13-07-13 15:50 OP:stll STATUS:               ID:20130713154852     3
 2013-07-13-1548-52M.COL___226                                                 6
 STAT SP IPHASW D HRMM SECON CODA AMPLIT PERI AZIMU VELO AIN AR TRES W  DIS CAZ7
 BAR2 SZ EP       1550 40.90                             170    0.0610 23.6 185 
 BAR2 SZ ES       1550 55.67                             170   -0.3410 23.6 185 
 BAR2 SZ I        1550 57.26         9.2 0.38            173           23.6 185 
 GIR2 SZ EP       1550 40.73                             167   -0.1210 30.4 354 
 BRR  HZ EP       1550 42.68                             153    0.4310 69.0 299 
 BRR  HN ES       1550 58.60                             153    0.0810 69.0 299 
 BRR  HN I        1551  3.92        18.0 0.24            154           69.0 299 
 RUS  HZ EP       1550 44.94                             143   -0.1010  101 175 
 RUS  HN ES       1551  3.77                             143    0.2810  101 175 
 RUS  HN I        1551  5.32        11.0 0.22            148            101 175 
 PTB  HZ EP       1550 47.69                             132   -0.36 9  146 258 
 PTB  HN ES       1551  8.87                             132    0.03 9  146 258 
                                                                                
