 2017 1113 1503  7.5 L   6.798 -73.174142.0  RSN 11 0.5 1.8LRSN                1
 GAP=133        1.12       4.0     4.4  6.4 -0.1803E+01  0.6930E+01  0.7412E+01E
 Epicentro: LOS SANTOS - SANTANDER                                             3
 ACTION:UPD 17-12-12 19:55 OP:rebc STATUS:               ID:20171113150307 L   I
 OLDACT:DUP 17-11-13 23:23 OP:lv   STATUS:               ID:20171113145745d    3
 OLDACT:REG 17-11-13 21:49 OP:lv   STATUS:               ID:20171113145744     3
 2017-11-13-1458-00M.COL___453                                                 6
 STAT SP IPHASW D HRMM SECON CODA AMPLIT PERI AZIMU VELO AIN AR TRES W  DIS CAZ7
 BAR2 EZ IP     C 15 3 26.43                             170   -0.2810 22.7 182 
 BAR2 EZ ES       15 3 41.62                             170   -0.0410 22.7 182 
 BAR2 EZ I        15 3 42.63        18.8 0.28            169           22.7 182 
 BRR  HZ EP       15 3 28.28                             153    0.1410 68.6 300 
 BRR  HN ES       15 3 45.05                             153    0.8510 68.6 300 
 BRR  HZ I        15 3 49.26        13.8 0.30            148           68.6 300 
 PAM  EZ EP       15 3 29.43                             150   -0.0710 79.6  41 
 PAM  EN ES       15 3 46.60                             150   -0.0210 79.6  41 
 PAM  EZ I        15 3 48.52        10.0 0.52            150           79.6  41 
 RUS  HZ EP       15 3 30.64                             143   -0.2910  101 174 
 RUS  HN ES       15 3 49.34                             143    0.1710  101 174 
 RUS  HZ I        15 3 50.16         4.8 0.26            141            101 174 
 PTB  HZ EP       15 3 33.44                             132   -0.48 9  145 259 
 PTB  HN ES       15 3 53.60                             132   -0.89 9  145 259 
 PTB  HZ I        15 3 58.76         4.6 0.38            128            145 259 
 SPBC HZ EP       15 3 35.55                             129    0.00 9  161 218 
 SPBC HZ I        15 3 56.24        34.2 0.22            125            161 218 
 SPBC HN ES       15 3 57.90                             129    0.51 9  161 218 
 ZAR  HE ES       15 4  4.24                             122   -0.10 9  201 293 
 ZAR  HZ I        15 4 11.26         5.4 0.16            119            201 293 
 NOR  HZ EP       15 3 42.76                             118   -0.00 8  232 234 
 NOR  HN ES       15 4  9.89                             118   -0.34 8  232 234 
 NOR  HZ I        15 4 18.35         3.6 0.22            115            232 234 
 CHI  HZ EP       15 3 44.68                             117   -0.24 8  248 194 
 CHI  HN ES       15 4 13.81                             117   -0.26 8  248 194 
 CHI  HZ I        15 4 19.33         4.3 0.34            114            248 194 
 GUY2CHZ EP       15 3 51.84                             112    1.17 7  298 234 
 GUY2CHN ES   4   15 4 27.57                             112    3.26 0  298 234 
 GUY2CHZ I        15 4 32.90         3.5 0.58                           298 234 
 ORTC HN ES       15 4 43.72                             106    0.86 6  393 216 
 ORTC HZ I        15 4 47.89         1.4 0.26            104            393 216 
                                                                                
