 2013  913 1049 55.4 L   7.297 -73.367119.5  RSN  7 0.5 1.5LRSN                1
 GAP= 83        1.18       4.4     5.9 12.0  0.5042E+01  0.3937E+02  0.5858E+01E
 Epicentro: SABANA DE TORRES - SANTANDER                                       3
 ACTION:UPD 13-10-22 09:22 OP:ep   STATUS:               ID:20130913104955 L   I
 OLDACT:UP  13-09-13 17:49 OP:cam  STATUS:               ID:20130913104959     3
 OLDACT:REG 13-09-13 17:20 OP:cam  STATUS:               ID:20130913104959     3
 2013-09-13-1049-59M.COL___269                                                 6
 STAT SP IPHASW D HRMM SECON CODA AMPLIT PERI AZIMU VELO AIN AR TRES W  DIS CAZ7
 PAM  SZ EP       1050 15.26                             146    0.6310 73.8  86 
 PAM  SN ES       1050 30.02                             146    0.3710 73.8  86 
 PAM  SZ I        1050 31.49         4.3 0.16            148           73.8  86 
 BAR2 SZ EP       1050 14.99                             144    0.2510 80.5 165 
 BAR2 SZ ES       1050 29.56                             144   -0.2910 80.5 165 
 OCA  HN ES       1050 32.32                             136   -0.6410  104   3 
 PTB  HZ EP       1050 19.69                             125   -0.54 9  147 235 
 PTB  HE ES   4   1050 37.82                             125   -1.80 0  147 235 
 PTB  HZ I        1050 40.54         3.8 0.18            126            147 235 
 RUS  HZ EP   4   1050 23.22                             123    1.18 0  158 169 
 RUS  HN ES       1050 42.48                             123   -0.37 9  158 169 
 RUS  HZ I        1050 47.66         1.8 0.56            124            158 169 
 ZAR  HZ EP   1   1050 22.56                             121    0.37 7  166 278 
 ZAR  HE ES       1050 43.73                             121    0.62 9  166 278 
 ZAR  HZ I        1050 45.17         5.9 0.20            123            166 278 
 SML  HZ EP   1   1050 23.51                             119   -0.51 7  184 335 
 SML  HE ES   4   1050 44.99                             119   -1.38 0  184 335 
 SML  HZ I        1050 48.06        10.9 0.26            120            184 335 
                                                                                
