 2015  213 1848  7.8 L   6.834 -73.151138.3  RSN 25 0.5 2.8LRSN                1
 GAP= 53        1.49       3.3     3.9  6.4 -0.2040E+01  0.7156E+01  0.4187E+01E
 Epicentro: LOS SANTOS - SANTANDER                                             3
 ACTION:UPD 15-04-30 21:25 OP:nd   STATUS:               ID:20150213184807 L   I
 OLDACT:DUP 15-02-14 01:26 OP:STLL STATUS:               ID:20150213183746d    3
 2015-02-13-1837-45M.COL___305                                                 6
 STAT SP IPHASW D HRMM SECON CODA AMPLIT PERI AZIMU VELO AIN AR TRES W  DIS CAZ7
 BAR2 EZ IP     C 1848 27.03                             168    0.4110 27.0 187 
 BAR2 EZ ES       1848 41.50                             168    0.2010 27.0 187 
 BAR2 EZ I        1848 42.99       119.0 0.22            168           27.0 187 
 BRR  HZ IP     C 1848 28.82                             152    0.8010 68.9 296 
 BRR  HN ES       1848 43.96                             152    0.1710 68.9 296 
 BRR  HZ I        1848 48.16       222.6 0.86            150           68.9 296 
 PAM  SZ EP       1848 29.59                             150    0.5110 74.9  42 
 PAM  SN ES       1848 46.22                             150    0.5510 74.9  42 
 PAM  SZ I        1848 49.06       103.1 0.26            154           74.9  42 
 RUS  HZ EP     C 1848 30.94                             141   -0.1810  104 176 
 RUS  HZ I        1848 32.16        69.3 0.12            143            104 176 
 RUS  HN ES       1848 49.20                             141   -0.1010  104 176 
 PTB  HZ EP       1848 33.73                             130   -0.46 9  148 257 
 PTB  HN ES       1848 54.09                             130   -0.68 9  148 257 
 PTB  HZ I        1849  2.16        89.2 0.38            130            148 257 
 OCA  HZ EP       1848 34.90                             128   -0.28 9  156 353 
 OCA  HN ES       1848 56.35                             128   -0.18 9  156 353 
 OCA  HZ I        1848 59.99        81.6 0.22            130            156 353 
 TAM  HZ IP     C 1848 35.42                             128    0.37 9  157 106 
 TAM  HZ I        1848 35.71        73.2 0.32            133            157 106 
 TAM  HN ES       1848 55.18                             128   -1.12 9  157 106 
 SPBC HZ EP       1848 35.93                             127   -0.06 9  166 218 
 SPBC HE ES       1848 58.06                             127    0.08 9  166 218 
 SPBC HZ I        1849  5.62        97.4 0.18            127            166 218 
 ZAR  HN ES       1849  4.04                             121   -0.31 9  202 291 
 NOR  HZ EP       1848 43.19                             116   -0.11 8  236 234 
 NOR  HE ES       1849 10.96                             116   -0.03 8  236 234 
 NOR  HZ I        1849 17.07        62.9 0.18            117            236 234 
 SML  HZ EP       1848 43.56                             116   -0.06 8  240 335 
 SML  HN ES       1849 11.04                             116   -0.51 8  240 335 
 SML  HZ I        1849 17.76        70.4 0.26            117            240 335 
 CHI  HZ EP       1848 45.36                             115   -0.12 8  252 195 
 CHI  HE ES       1849 14.15                             115   -0.72 8  252 195 
 CHI  HZ I        1849 19.87        29.0 0.28            117            252 195 
 ROSC BZ EP     D 1848 47.17                             115    1.32 8  256 210 
 ROSC BN ES       1849 15.56                             115    0.03 8  256 210 
 ROSC BZ I        1849 21.47        65.5 0.45            116            256 210 
 SOCV BZ EP   9   1848 49.78                             111   -0.56 0  300  58 
 SOCV BN ES       1849 20.99                                   -1.97 7  300  58 
 GUY2CHZ EP       1848 51.56                             110    0.29 7  303 234 
 GUY2CHN ES       1849 26.10                             110    0.92 7  303 234 
 GUY2CHZ I        1849 33.75        31.4 0.34                           303 234 
 PTGC HZ EP   9   1848 50.26                             110   -1.50 0  312 159 
 PTGC HZ I        1848 51.64        47.0 0.26            112            312 159 
 PTGC HN ES       1849 23.10                                   -1.45 7  312 159 
 RREF HZ EP       1848 53.85                             109   -0.01 7  324 229 
 RREF HN ES       1849 30.17                             109    0.38 7  324 229 
 RREF HZ I        1849 35.07        29.8 0.30            110            324 229 
 CBOC HZ EP       1848 54.58                             108    0.09 7  334 251 
 CBOC HZ I        1848 57.94        14.1 0.18            109            334 251 
 CBOC HN ES       1849 30.91                             108    0.01 7  334 251 
 DBB  SZ EP       1848 53.84                             108   -1.05 7  339 274 
 TOL  SZ EP       1848 56.23                             108    0.20 6  346 224 
 TOL  SN ES       1849 32.31                             108   -1.34 6  346 224 
 MON  HZ EP   9   1848 54.23                             107   -1.97 0  351 308 
 MON  HN ES       1849 30.72                                   -1.26 6  351 308 
 MON  HZ I        1849 47.78        15.8 0.46            108            351 308 
 SDV  BZ EP   9   1848 56.44                             107   -0.90 0  358  51 
 SDV  BZ I        1848 57.35        22.4 0.35            109            358  51 
 SDV  BE ES       1849 33.07                                   -2.01 6  358  51 
 ANIL HZ EP       1848 58.55                             107    0.95 6  360 224 
 ANIL HN ES       1849 36.34                             107   -0.10 6  360 224 
 ANIL HZ I        1849 41.85         7.7 0.32            108            360 224 
 PRA  HZ EP       1849  0.71                             105   -0.72 6  395 209 
 PRA  HE ES       1849 43.13                             105   -0.12 6  395 209 
 PRA  HZ I        1849 47.55        42.7 0.34            106            395 209 
 ORTC HZ EP       1849  1.28                             105   -0.51 6  398 216 
 ORTC HN ES       1849 44.57                             105    0.66 6  398 216 
 ORTC HZ I        1849 51.33        31.1 0.24            106            398 216 
                                                                                
