 2013  113 1923  0.9 L   6.160 -73.691102.4  RSN  6 0.3 1.7LRSN                1
 GAP=132        0.67       2.2     2.9  6.8  0.1298E+00  0.4826E+01  0.6383E+01E
 Epicentro: LANDAZURI - SANTANDER                                              3
 ACTION:UPD 13-02-15 09:14 OP:ep   STATUS:               ID:20130113192300 L   I
 2013-01-13-1918-36M.COL___168                                                 6
 STAT SP IPHASW D HRMM SECON CODA AMPLIT PERI AZIMU VELO AIN AR TRES W  DIS CAZ7
 BAR2 SZ ES       1923 31.68                             141    0.1510 73.9  50 
 BAR2 SZ I        1923 33.31        17.5 0.18            148           73.9  50 
 PTB  HZ EP       1923 18.93                             134   -0.5710 94.5 296 
 PTB  HN ES       1923 33.88                             134   -0.1410 94.5 296 
 PTB  HN I        1923 37.32         8.6 0.56            138           94.5 296 
 BRR  HZ EP       1923 20.55                             130    0.1410  105 359 
 BRR  HN ES       1923 35.51                             130   -0.1310  105 359 
 BRR  HN I        1923 37.41        11.5 0.20            136            105 359 
 NOR  HZ EP       1923 24.65                             120    0.04 9  146 243 
 NOR  HN ES       1923 43.38                             120    0.26 9  146 243 
 NOR  HN I        1923 46.84        14.2 0.14            124            146 243 
 CHI  HZ EP       1923 27.55                             116   -0.01 9  169 182 
 CHI  HZ I        1923 28.27         2.7 0.50            121            169 182 
 CHI  HN ES       1923 48.36                             116   -0.01 9  169 182 
 ZAR  HN ES       1923 53.12                             112    0.39 9  196 319 
                                                                                
