 2012 1113 1953 39.1 L   6.689 -74.220 60.4  RSN  7 0.3 1.8LRSN                1
 GAP=115        0.76       2.6     2.1  4.8 -0.2432E+01 -0.1176E+01  0.8077E+00E
 Epicentro: PUERTO PARRA - SANTANDER                                           3
 ACTION:UPD 12-12-05 15:33 OP:}ep  STATUS:               ID:20121113195339 L   I
 2012-11-13-1950-00M.COL___230                                                 6
 STAT SP IPHASW D HRMM SECON CODA AMPLIT PERI AZIMU VELO AIN AR TRES W  DIS CAZ7
 PTB  HZ IP     D 1953 48.18                             149   -0.5410 31.0 238 
 PTB  HZ I        1953 48.55        35.3 0.16                          31.0 238 
 PTB  HN ES       1953 56.14                             149   -0.0810 31.0 238 
 BRR  HZ EP       1953 52.33                             123    0.0110 72.7  51 
 BRR  HN ES       1954  3.18                             123    0.5510 72.7  51 
 BRR  HN I        1954  4.82        25.5 0.22                          72.7  51 
 ZAR  HZ EP       1953 57.07                             110    0.2310  113 322 
 ZAR  HN ES       1954 10.53                             110   -0.1610  113 322 
 ZAR  HN I        1954 15.25        19.9 0.12                           113 322 
 BAR2 SZ EP       1953 57.16                             110   -0.1810  115  95 
 BAR2 SZ I        1953 57.64        15.8 0.20                           115  95 
 NOR  HZ EP       1954  0.54                             105    0.06 9  144 210 
 NOR  HN ES       1954 17.48                             105    0.32 9  144 210 
 NOR  HN I        1954 19.17        32.5 0.16                           144 210 
 HEL  HZ EP       1954  1.98                             104   -0.23 9  155 249 
 HEL  HN ES       1954 20.48                             104    0.24 9  155 249 
 HEL  HN I        1954 21.76         7.5 0.44                           155 249 
 PAM  SZ EP       1954  5.81                             101    0.10 9  183  67 
 PAM  SN ES       1954 26.13                             101   -0.33 9  183  67 
                                                                                
