 2011 1013 1745 13.8 L   6.762 -73.106151.8  RSN  5 0.3 1.8LRSN                1
 GAP=143        0.67       4.5     5.4  5.5  0.6128E+01  0.8959E+00  0.8834E+00E
 Epicentro: LOS SANTOS - SANTANDER                                             3
 ACTION:UPD 12-07-13 16:03 OP:ep   STATUS:               ID:20111013174513 L   I
 2011-10-13-1741-53S.COL___168                                                 6
 STAT SP IPHASW D HRMM SECON CODA AMPLIT PERI AZIMU VELO AIN AR TRES W  DIS CAZ7
 BAR2 SZ EP       1745 34.06                             172   -0.0810 20.5 204 
 BAR2 SZ ES       1745 49.72                             172   -0.2510 20.5 204 
 BAR2 SZ I        1745 53.38        16.2 0.41                          20.5 204 
 BRR  HZ EP       1745 36.22                             151    0.2510 77.0 300 
 BRR  HE ES       1745 53.54                             151    0.3110 77.0 300 
 BRR  HZ I        1745 56.00        15.7 0.18                          77.0 300 
 PAM  SZ EP   1   1745 36.98                             152    0.24 7 78.1  35 
 PAM  SN ES   1   1745 54.16                             152   -0.44 7 78.1  35 
 RUS  HZ EP       1745 37.96                             146    0.0810 96.1 178 
 RUS  HE ES   1   1745 56.74                             146    0.11 7 96.1 178 
 RUS  HZ I        1745 58.24         4.7 0.41                          96.1 178 
 ZAR  HZ EP   2   1745 46.56                             123   -0.70 4  210 293 
 ZAR  HE ES   2   1746 12.55                             123   -0.77 4  210 293 
 ZAR  HZ I        1746 19.07         4.1 0.30                           210 293 
                                                                                
