 2017  913 1354 22.9 L   6.796 -73.156144.4  RSN  6 0.3 1.6LRSN                1
 GAP=135        0.71       3.1     3.5  5.3 -0.8152E-01  0.3474E+01  0.2123E+00E
 Epicentro: LOS SANTOS - SANTANDER                                             3
 ACTION:UPD 17-10-05 19:12 OP:rebc STATUS:               ID:20170913135422 L   I
 OLDACT:DUP 17-09-13 23:06 OP:dnl  STATUS:               ID:20170913134744d    3
 OLDACT:UP  17-09-13 23:00 OP:dnl  STATUS:               ID:20170913134743     3
 OLDACT:REG 17-09-13 21:20 OP:dnl  STATUS:               ID:20170913134743     3
 2017-09-13-1348-00M.COL___457                                                 6
 STAT SP IPHASW D HRMM SECON CODA AMPLIT PERI AZIMU VELO AIN AR TRES W  DIS CAZ7
 BAR2 EZ EP       1354 42.13                             171   -0.2310 22.7 187 
 BAR2 EZ ES       1354 57.09                             171   -0.4510 22.7 187 
 BAR2 EZ I        1354 58.81         8.5 0.16            171           22.7 187 
 BRR  HZ EP       1354 44.12                             153    0.2510 70.4 299 
 BRR  HE ES       1355  0.68                             153    0.4710 70.4 299 
 BRR  HZ I        1355  6.85        14.0 0.34            153           70.4 299 
 PAM  EZ EP       1354 45.20                             150    0.1610 78.4  40 
 PAM  EN ES       1355  2.31                             150    0.0010 78.4  40 
 PAM  EZ I        1355  5.29         4.7 0.22            155           78.4  40 
 RUS  HZ EP       1354 46.44                             144   -0.0610  100 175 
 RUS  HN ES       1355  4.98                             144    0.0810  100 175 
 RUS  HZ I        1355  7.04         3.8 0.36            147            100 175 
 SPBC HZ EP   2   1354 51.30                             129    0.10 5  162 219 
 SPBC HE ES       1355 13.46                             129    0.19 9  162 219 
 SPBC HZ I        1355 18.06         5.7 0.24            132            162 219 
 ZAR  HZ EP   2   1354 54.82                             122   -0.35 4  203 292 
 ZAR  HN ES       1355 19.88                             122   -0.46 9  203 292 
 ZAR  HZ I        1355 21.55         4.0 0.48            125            203 292 
                                                                                
