 2016  213 1054  0.4 L   6.428 -73.141123.2  RSN  5 0.2 1.2LRSN                1
 GAP=188        0.37       5.8     7.0  6.4 -0.9879E+01  0.9808E+01  0.1581E+02E
 Epicentro: VALLE DE SAN JOSE - SANTANDER                                      3
 ACTION:UPD 16-03-04 21:25 OP:rebc STATUS:               ID:20160213105400 L   I
 OLDACT:REG 16-02-13 21:20 OP:dnl  STATUS:               ID:20160213104739     3
 2016-02-13-1047-39M.COL___302                                                 6
 STAT SP IPHASW D HRMM SECON CODA AMPLIT PERI AZIMU VELO AIN AR TRES W  DIS CAZ7
 BAR2 EZ EP   4   1054 15.67                             171   -1.52 0 18.7 346 
 BAR2 EZ ES   2   1054 30.58                             171    0.27 5 18.7 346 
 RUS  HZ EP   2   1054 19.01                             153   -0.13 5 59.6 174 
 RUS  HN ES   2   1054 33.54                             153   -0.24 5 59.6 174 
 RUS  HZ I        1054 39.13         2.6 0.40            153           59.6 174 
 SPBC HZ EP   2   1054 24.22                             129   -0.16 5  134 230 
 SPBC HE ES   2   1054 42.99                             129   -0.12 5  134 230 
 SPBC HZ I        1054 48.49         2.9 0.25            133            134 230 
 CHI  HZ EP   2   1054 32.73                             116    0.17 4  209 198 
 CHI  HE ES   2   1054 57.99                             116    0.33 4  209 198 
 ZAR  HZ EP   4   1054 36.21                             114    2.65 0  223 302 
 ZAR  HN ES   4   1054 54.53                             114   -4.92 0  223 302 
 ZAR  HZ I        1055  0.35         1.5 0.09            121            223 302 
                                                                                
