 2013  313 1506 20.1 L   6.785 -73.148149.5  RSN 15 0.4 3.0LRSN                1
 GAP= 71        0.89       3.3     3.4  4.7  0.1466E+01  0.2592E+01 -0.6724E-01E
 Epicentro: LOS SANTOS - SANTANDER                                             3
 ACTION:UPD 13-04-09 14:02 OP:ep   STATUS:               ID:20130313150620 L   I
 2013-03-13-1500-00M.COL___231                                                 6
 STAT SP IPHASW D HRMM SECON CODA AMPLIT PERI AZIMU VELO AIN AR TRES W  DIS CAZ7
 BAR2 SZ IP       15 6 40.19                             172    0.0310 21.6 190 
 BAR2 SZ ES       15 6 55.72                             172   -0.0710 21.6 190 
 BAR2 SZ I        15 6 56.91       202.1 0.34            154           21.6 190 
 BRR  HZ IP     C 15 6 42.07                             153    0.3710 71.8 300 
 BRR  HZ I        15 6 42.39       203.1 0.20            134           71.8 300 
 BRR  HN ES       15 6 59.36                             153    0.8310 71.8 300 
 PAM  SZ EP       15 6 42.99                             151    0.1810 78.8  39 
 PAM  SN ES   1   15 7  0.07                             151   -0.44 7 78.8  39 
 RUS  HZ IP     D 15 6 44.01                             145   -0.1010 98.9 176 
 RUS  HE ES   1   15 7  2.24                             145   -0.60 7 98.9 176 
 RUS  HZ I        15 7  4.02        66.1 0.41            118           98.9 176 
 PTB  HZ EP       15 6 46.83                             133   -0.50 9  147 259 
 PTB  HN ES   1   15 7  7.98                             133   -0.59 7  147 259 
 PTB  HZ I        15 7 15.49       148.8 0.25            110            147 259 
 TAM  HZ EP       15 6 48.36                             132    0.29 9  155 104 
 TAM  HZ I        15 7  9.25        59.0 0.31            107            155 104 
 TAM  HN ES   1   15 7  9.92                             132    0.05 7  155 104 
 OCA  HZ EP   1   15 6 49.22                             130    0.36 7  162 353 
 OCA  HN ES   1   15 7 10.79                             130   -0.50 7  162 353 
 OCA  HE ES   1   15 7 11.30                             130            162 353 
 OCA  HZ I        15 7 15.13       189.3 0.35            109            162 353 
 ZAR  HZ EP       15 6 52.52                             123   -0.32 9  204 293 
 ZAR  HE ES   1   15 7 18.47                             123    0.10 6  204 293 
 ZAR  HZ I        15 7 24.60       116.4 0.29            104            204 293 
 SML  HZ EP       15 6 56.96                             118   -0.14 8  245 336 
 SML  HE ES   1   15 7 26.07                             118    0.12 6  245 336 
 ROSC BZ EP   4   15 6 59.70                             118    1.43 0  251 211 
 ROSC BN ES   4   15 7 30.20                             118    2.17 0  251 211 
 ROSC BZ I        15 7 34.70        94.9 0.58            100            251 211 
 HEL  HZ EP   1   15 7  1.49                             116    1.05 6  271 256 
 HEL  HZ I        15 7 39.35        63.5 0.39             99            271 256 
 URE  HZ EP   4   15 6 59.94                             114   -1.47 0  284 292 
 VIL  SZ EP   1   15 7  3.08                             113   -0.43 5  302 192 
 VIL  SZ I        15 7 47.35        54.4 0.53             98            302 192 
 DBB  SZ EP       15 7  7.65                             110   -0.08 7  339 275 
 COD  HZ EP   1   15 7  8.20                             109   -0.62 5  350 355 
 COD  HZ I        15 7 54.05        15.1 0.39             97            350 355 
 PRA  HZ EP   1   15 7 13.43                             107   -0.15 4  390 210 
 PRA  HN ES   1   15 7 55.79                             107    0.51 4  390 210 
 PRA  HZ I        15 8  2.04        42.5 0.29             96            390 210 
 SJC  HN EP   4   15 7 14.47                             106   -1.47 0  410 327 
                                                                                
