 2017  413 1850 36.1 L   6.793 -73.201142.7  RSN  4 0.3 1.0LRSN                1
 GAP=144        0.69       4.2     3.9  5.8 -0.5032E+01  0.6223E+01 -0.2455E+01E
 Epicentro: ZAPATOCA - SANTANDER                                               3
 ACTION:UPD 17-05-30 21:11 OP:jn   STATUS:               ID:20170413185036 L   I
 OLDACT:REG 17-04-13 21:45 OP:edw  STATUS:               ID:20170413184738     3
 2017-04-13-1848-00M.COL___371                                                 6
 STAT SP IPHASW D HRMM SECON CODA AMPLIT PERI AZIMU VELO AIN AR TRES W  DIS CAZ7
 BAR2 EZ EP       1850 54.97                             171   -0.4010 22.3 175 
 BAR2 EZ ES       1851 10.57                             171    0.1910 22.3 175 
 PAM  EZ IP     D 1850 58.17                             149   -0.1410 82.0  42 
 PAM  EN ES       1851 15.70                             149    0.1010 82.0  42 
 PAM  EZ I        1851 17.30         2.6 0.50            151           82.0  42 
 RUS  HZ EP       1850 59.68                             143    0.1110  100 173 
 RUS  HN ES       1851 17.81                             143   -0.0410  100 173 
 RUS  HZ I        1851 19.36         2.1 0.28            146            100 173 
 PTB  HZ EP       1851  2.76                             133    0.46 9  142 259 
 PTB  HN ES       1851 22.45                             133   -0.25 9  142 259 
 PTB  HZ I        1851 26.54         0.8 0.18            133            142 259 
                                                                                
