 2017 1013 1556  7.8 L   6.789 -73.125143.3  RSN 13 0.6 2.2LRSN                1
 GAP=114        1.39       4.7     5.0  7.4  0.4980E+01  0.1153E+02  0.1043E+02E
 Epicentro: LOS SANTOS - SANTANDER                                             3
 ACTION:UPD 17-11-07 19:31 OP:rebc STATUS:               ID:20171013155607 L   I
 OLDACT:REG 17-10-13 21:39 OP:lv   STATUS:               ID:20171013154119     3
 2017-10-13-1548-00M.COL___435                                                 6
 STAT SP IPHASW D HRMM SECON CODA AMPLIT PERI AZIMU VELO AIN AR TRES W  DIS CAZ7
 BAR2 EZ EP       1556 27.21                             171    0.0810 22.6 196 
 BAR2 EZ ES       1556 41.61                             171   -0.5910 22.6 196 
 BAR2 EZ I        1556 43.30        69.8 0.20            169           22.6 196 
 BRR  HZ IP     C 1556 29.19                             151    0.3510 73.8 299 
 BRR  HN ES       1556 46.17                             151    0.9210 73.8 299 
 BRR  HZ I        1556 47.79        54.8 0.14            151           73.8 299 
 PAM  EZ EP       1556 28.52                             151   -1.2110 76.9  38 
 PAM  EN ES       1556 47.19                             151    0.3510 76.9  38 
 PAM  EZ I        1556 49.58        36.8 0.52            153           76.9  38 
 RUS  HZ EP       1556 31.32                             144    0.1110 99.2 177 
 RUS  HN ES       1556 50.02                             144    0.5410 99.2 177 
 RUS  HZ I        1556 50.78        15.6 0.34            144           99.2 177 
 PTB  HZ EP       1556 33.97                             131   -0.79 9  150 259 
 PTB  HN ES       1556 54.85                             131   -0.93 9  150 259 
 PTB  HZ I        1556 56.92        20.6 0.44            131            150 259 
 YPLC HZ EP       1556 37.75                             126    0.55 9  175 152 
 YPLC HN ES       1556 59.80                             126   -0.34 9  175 152 
 YPLC HZ I        1557  4.20         9.1 0.40            128            175 152 
 ZAR  HZ EP       1556 40.16                             122   -0.20 8  207 292 
 ZAR  HN ES       1557  6.04                             122    0.28 8  207 292 
 ZAR  HZ I        1557 12.10        24.2 0.30            122            207 292 
 NOR  HZ EP       1556 43.59                             118    0.07 8  236 235 
 NOR  HN ES   4   1557 10.13                             118   -1.24 0  236 235 
 NOR  HZ I        1557 13.04        15.9 0.30            118            236 235 
 CHI  HZ EP       1556 45.70                             117    0.40 8  248 196 
 CHI  HN ES       1557 14.43                             117   -0.12 8  248 196 
 CHI  HZ I        1557 18.46         4.1 0.58            117            248 196 
 GUY2CHZ EP   4   1556 53.08                             112    1.65 0  302 235 
 GUY2CHN ES       1557 25.80                             112    0.34 7  302 235 
 GUY2CHZ I        1557 33.90        10.1 0.48                           302 235 
 DBB  EZ EP       1556 56.08                             109    0.62 7  342 274 
 DBB  EN ES   4   1557 30.73                             109   -1.90 0  342 274 
 DBB  EZ I        1557 34.46         7.5 0.21            110            342 274 
 PRA  HZ EP       1557  1.80                             106    0.56 6  392 210 
 PRA  HN ES       1557 42.52                             106   -0.41 6  392 210 
 PRA  HZ I        1557 50.12         4.9 0.26            107            392 210 
 SJC  HZ EP   4   1557  1.77                             105   -1.79 0  412 327 
 SJC  HN ES   4   1557 42.88                             105   -4.17 0  412 327 
 SJC  HZ I        1557 47.32         4.1 0.72            106            412 327 
                                                                                
