 2011  413 1312  4.5 L   7.557 -73.046150.5  RSN  8 0.4 2.0LRSN                1
 GAP=102        1.17       6.7     9.7  9.2 -0.1720E+02 -0.3636E+01  0.3774E+01E
 Epicentro: EL PLAYON - SANTANDER                                              3
 ACTION:UP  11-06-22 15:30 OP:REBC STATUS:               ID:20110413131204 L   I
 2011-04-13-1310-15S.COL___138                                                 6
 STAT SP IPHASW D HRMM SECON CODA AMPLIT PERI AZIMU VELO SNR AR TRES W  DIS CAZ7
 GRA  SZ IP       1312 25.71                             162     0.510   45  36 
 GRA  SZ I        1312 26.04        17.8 0.19                            45  36 
 GRA  SZ ES   1   1312 41.32                             162     0.0 7   45  36 
 PAM  SZ EP   1   1312 26.01                             162     0.3 7   45 122 
 PAM  SZ I        1312 26.46        10.0 0.17                            45 122 
 PAM  SN ES   1   1312 42.48                             162     0.3 7   45 122 
 GIR2 SZ EP   1   1312 25.75                             159     0.2 7   55 197 
 BTL  SZ EP       1312 25.85                             153    -0.810   75 199 
 OCA  SZ EP       1312 27.28                             150     0.310   81 338 
 OCA  SZ I        1312 27.52        36.8 0.13                            81 338 
 OCA  SZ ES   1   1312 43.81                             150    -0.7 7   81 338 
 BRR  HZ EP       1312 27.32                             148     0.110   89 236 
 BRR  HN ES   1   1312 45.04                             148     0.1 7   89 236 
 BRR  HZ I        1312 46.92        28.5 0.08                            89 236 
 BAR2 SZ EP       1312 28.84                             143     0.010  108 188 
 BAR2 SZ ES   1   1312 47.56                             143    -0.3 7  108 188 
 BAR2 SZ I        1312 49.49        17.4 0.40                           108 188 
 SDV  BZ EP   1   1312 47.62                             113    -0.6 5  304  61 
 SDV  BZ I        1313 20.67         4.5 0.50                           304  61 
                                                                                
