 2016  413 1753 28.9 L   6.372 -73.626105.5  RSN 13 0.4 2.3LRSN                1
 GAP= 91        1.01       3.4     2.9  6.2 -0.3101E+01  0.7693E+01 -0.3369E+01E
 Epicentro: SANTA HELENA DEL OPON - SANTANDER                                  3
 ACTION:UPD 16-05-05 14:21 OP:rebc STATUS:               ID:20160413175328 L   I
 OLDACT:UP  16-04-14 00:43 OP:ar   STATUS:               ID:20160413174744     3
 OLDACT:REG 16-04-13 21:29 OP:ar   STATUS:               ID:20160413174744     3
 2016-04-13-1747-44M.COL___319                                                 6
 STAT SP IPHASW D HRMM SECON CODA AMPLIT PERI AZIMU VELO AIN AR TRES W  DIS CAZ7
 BAR2 EZ IP     C 1753 45.35                             151    0.2110 54.8  64 
 BAR2 EZ ES       1753 58.44                             151    0.6510 54.8  64 
 BAR2 EZ I        1753 59.88        93.4 0.34            151           54.8  64 
 RUS  HZ EP       1753 46.58                             140   -0.6810 80.1 131 
 RUS  HE ES       1754  1.33                             140   -0.2310 80.1 131 
 RUS  HZ I        1754  3.43        33.7 0.28            145           80.1 131 
 SPBC HZ EP       1753 47.40                             135   -0.4310 93.7 212 
 SPBC HN ES       1754  2.58                             135    0.0110 93.7 212 
 SPBC HZ I        1754  4.65        63.7 0.12            137           93.7 212 
 PTB  HZ IP       1753 47.03                             135   -0.7010 93.7 281 
 PTB  HN ES       1754  2.19                             135   -0.2010 93.7 281 
 PTB  HZ I        1754  4.76        35.8 0.10            133           93.7 281 
 PAM  EZ EP       1753 53.43                             121   -0.18 9  148  44 
 PAM  EN ES       1754 13.19                             121    0.33 9  148  44 
 PAM  EZ I        1754 17.57        15.0 0.44            121            148  44 
 NOR  HZ EP       1753 54.70                             118   -0.05 9  164 237 
 NOR  HN ES       1754 15.10                             118    0.21 9  164 237 
 NOR  HZ I        1754 20.34        22.5 0.12            118            164 237 
 ZAR  HZ EP       1753 56.83                             115   -0.05 9  184 312 
 ZAR  HE ES   4   1754 20.40                             115    1.72 0  184 312 
 ZAR  HZ I        1754 24.68        36.9 0.22            113            184 312 
 OCA  HZ EP   4   1753 58.06                             111   -1.82 0  209   9 
 OCA  HN ES   4   1754 26.24                             111    2.21 0  209   9 
 OCA  HZ I        1754 33.56        42.2 0.28            111            209   9 
 HEL  HZ EP       1754  1.01                             111    0.59 8  212 265 
 HEL  HN ES       1754 25.08                             111    0.10 8  212 265 
 HEL  HZ I        1754 28.96        13.0 0.28            111            212 265 
 GUY2CHZ EP       1754  3.22                             109    0.47 8  231 237 
 GUY2CHN ES   4   1754 31.08                             109    1.95 0  231 237 
 GUY2CHZ I        1754 36.52        11.1 0.28                           231 237 
 ELA  HZ EP   4   1754  8.40                             106    2.41 0  258 230 
 ELA  HN ES       1754 35.44                             106    0.54 8  258 230 
 ELA  HZ I        1754 40.40         8.5 0.36            107            258 230 
 URE  HZ EP   4   1754  4.08                             106   -1.51 0  260 306 
 URE  HE ES       1754 33.87                             106   -0.33 8  260 306 
 URE  HZ I        1754 43.91        21.6 0.20            106            260 306 
 ORTC HZ EP       1754 13.93                             101    0.47 7  326 213 
 ORTC HN ES   4   1754 49.94                             101    1.74 0  326 213 
 ORTC HZ I        1754 52.58         7.1 0.18            102            326 213 
                                                                                
