 2015  313 1244 10.9 L   6.829 -73.162149.5  RSN 13 0.4 2.2LRSN                1
 GAP=133        0.86       2.8     4.1  5.3 -0.2896E+01  0.5301E+01  0.6778E+00E
 Epicentro: LOS SANTOS - SANTANDER                                             3
 ACTION:UPD 15-04-30 16:25 OP:nd   STATUS:               ID:20150313124410 L   I
 OLDACT:REG 15-03-13 21:11 OP:y    STATUS:               ID:20150313123748     3
 2015-03-13-1237-48M.COL___284                                                 6
 STAT SP IPHASW D HRMM SECON CODA AMPLIT PERI AZIMU VELO AIN AR TRES W  DIS CAZ7
 BAR2 EZ EP     C 1244 30.92                             170   -0.0910 26.2 185 
 BAR2 EZ ES   1   1244 46.64                             170   -0.07 7 26.2 185 
 BAR2 EZ I        1244 47.34        30.7 0.14            168           26.2 185 
 BRR  HZ EP       1244 32.68                             154    0.4210 68.1 297 
 BRR  HN ES       1244 49.62                             154    0.6910 68.1 297 
 BRR  HZ I        1244 50.21        35.7 0.38            151           68.1 297 
 PAM  SZ EP     D 1244 33.80                             152    0.3910 76.2  42 
 PAM  SE ES       1244 50.69                             152   -0.3110 76.2  42 
 PAM  SZ I        1244 52.75        23.3 0.48            156           76.2  42 
 RUS  HZ EP       1244 35.00                             144   -0.2310  104 175 
 RUS  HN ES   1   1244 54.14                             144   -0.08 7  104 175 
 PTB  HZ EP       1244 37.52                             133   -0.52 9  147 257 
 PTB  HN ES   1   1244 58.60                             133   -0.64 7  147 257 
 PTB  HZ I        1245  3.64        25.9 0.12            131            147 257 
 OCA  HZ EP   1   1244 39.27                             131    0.11 7  157 354 
 OCA  HN ES       1245  0.95                             131   -0.28 9  157 354 
 OCA  HZ I        1245  5.74        24.8 0.32            132            157 354 
 SPBC HZ EP       1244 39.92                             130    0.14 9  165 218 
 SPBC HE ES       1245  2.01                             130   -0.32 9  165 218 
 SPBC HZ I        1245 10.06        18.2 0.18            129            165 218 
 NOR  HZ EP       1244 47.40                             119    0.54 8  235 234 
 NOR  HN ES       1245 15.26                             119    0.33 8  235 234 
 NOR  HZ I        1245 21.01         9.6 0.13            119            235 234 
 SML  HZ EP   1   1244 47.29                             119   -0.03 6  240 335 
 SML  HE ES   1   1245 15.55                             119   -0.20 6  240 335 
 SML  HZ I        1245 19.74        19.9 0.10            119            240 335 
 GUY2CHZ EP   4   1244 56.42                             113    1.73 0  302 234 
 GUY2CHN ES   4   1245 32.35                             113    3.48 0  302 234 
 GUY2CHZ I        1245 39.79         6.6 0.41                           302 234 
 TOL  SZ EP   4   1245  0.85                             110    1.46 0  344 224 
 TOL  SN ES   4   1245 39.83                             110    2.59 0  344 224 
 TOL  SZ I        1245 44.59         6.6 0.74            110            344 224 
 MON  HN ES   1   1245 37.05                             109   -0.61 5  350 308 
 MON  HZ I        1245 40.35         2.7 0.28            109            350 308 
 PRA  HZ EP   1   1245  4.63                             107   -0.11 4  394 209 
 PRA  HN ES   4   1245 47.94                             107    1.18 0  394 209 
 PRA  HZ I        1245 52.83         5.8 0.26            107            394 209 
                                                                                
