 2011  513 1146 26.3 L   6.773 -73.083140.3  RSN 11 0.3 1.8LRSN                1
 GAP=146        0.54       3.0     4.6  4.5 -0.4909E+01  0.3637E+00 -0.6350E-01E
 Epicentro: LOS SANTOS - SANTANDER                                             3
 ACTION:UP  11-06-29 08:53 OP:tino STATUS:               ID:20110513114626 L   I
 2011-05-13-1140-00M.COL___139                                                 6
 STAT SP IPHASW D HRMM SECON CODA AMPLIT PERI AZIMU VELO SNR AR TRES W  DIS CAZ7
 BAR2 SZ EP   1   1146 45.26                             170     0.0 7   23 209 
 BAR2 SZ ES   1   1146 59.77                             170    -0.3 7   23 209 
 BAR2 SZ I        1147  1.57        22.3 0.29                            23 209 
 PAM  SZ EP   1   1146 48.29                             150     0.5 7   76  34 
 PAM  SN ES   2   1147  4.81                             150     0.2 5   76  34 
 BRR  HZ EP   1   1146 47.13                             149    -0.2 7   79 298 
 BRR  HE ES   1   1147  3.80                             149     0.1 7   79 298 
 BRR  HZ I        1147  8.16        12.0 0.19                            79 298 
 RUS  HZ EP   1   1146 49.23                             144     0.0 7   97 180 
 RUS  HN ES   2   1147  7.38                             144     0.2 5   97 180 
 RUS  HZ I        1147  9.37         7.4 0.26                            97 180 
 BRI  SZ EP   1   1146 49.18                             140    -0.5 7  109  17 
 BRI  SZ I        1146 51.09         4.7 0.57                           109  17 
 GRA  SZ EP   1   1146 51.08                             135    -0.1 7  127  14 
 GRA  SZ ES   2   1147 10.88                             135     0.4 5  127  14 
 GRA  SZ I        1147 17.85         6.0 0.28                           127  14 
 OCA  SZ EP   1   1146 54.68                             128     0.1 7  164 351 
 OCA  SZ ES   2   1147 16.37                             128    -0.2 5  164 351 
 OCA  SZ I        1147 20.15        10.6 0.34                           164 351 
 NOR  SN ES   2   1147 30.24                             117     0.1 4  239 236 
 HEL  HZ EP   2   1147  7.26                             113     0.4 4  278 257 
 HEL  HZ I        1147 45.93         4.1 0.71                           278 257 
 RREF HZ EP   2   1147 12.43                             110    -0.2 3  325 231 
 RREF HZ I        1147 58.24         3.5 0.31                           325 231 
 PRA  HZ EP   2   1147 19.51                             105    -0.2 3  393 211 
 PRA  HN ES   2   1148  1.71                             105     0.3 3  393 211 
                                                                                
