 2012  513 1627 58.4 L   6.779 -73.161152.0  RSN 10 0.3 2.1LRSN                1
 GAP=136        0.75       4.2     4.4  6.4  0.9111E+00  0.1182E+02  0.8395E+01E
 Epicentro: LOS SANTOS - SANTANDER                                             3
 ACTION:UP  12-07-05 12:04 OP:pat  STATUS:               ID:20120513162758 L   I
 2012-05-13-1620-00M.COL___195                                                 6
 STAT SP IPHASW D HRMM SECON CODA AMPLIT PERI AZIMU VELO SNR AR TRES W  DIS CAZ7
 BAR2 SZ EP   1   1628 18.52                             172    -0.2 7   21 186 
 BAR2 SZ ES   1   1628 34.20                             172    -0.4 7   21 186 
 BAR2 SZ I        1628 35.61        24.1 0.44                            21 186 
 BRR  HZ EP   1   1628 20.49                             154     0.3 7   71 301 
 BRR  HE ES   1   1628 37.87                             154     0.7 7   71 301 
 BRR  HZ I        1628 40.94        25.5 0.14                            71 301 
 PAM  SN ES   1   1628 39.23                             151    -0.2 7   80  39 
 RUS  HZ EP   1   1628 22.41                             146    -0.2 7   98 175 
 RUS  HN ES   1   1628 41.97                             146     0.5 7   98 175 
 RUS  HZ I        1628 42.91        13.6 0.63                            98 175 
 PTB  HZ EP   1   1628 25.14                             134    -0.6 7  146 260 
 PTB  HN ES   1   1628 46.67                             134    -0.3 7  146 260 
 PTB  HZ I        1628 54.07        14.9 0.47                           146 260 
 OCA  HE ES   2   1628 50.32                             131     0.3 5  162 354 
 ZAR  HN ES   1   1628 56.67                             124    -0.1 6  203 293 
 ZAR  HZ I        1629  3.62        17.5 0.29                           203 293 
 HEL  HZ EP   1   1628 38.99                             116     0.3 6  270 256 
 HEL  HE ES   1   1629  9.89                             116    -0.2 6  270 256 
 HEL  HZ I        1629 16.72         5.8 0.25                           270 256 
 RREF HZ EP   1   1628 44.88                             112     0.4 5  319 229 
 RREF HN ES   1   1629 20.49                             112     0.0 5  319 229 
 RREF HZ I        1629 29.79         6.8 0.51                           319 229 
 PRA  HZ EP   1   1628 51.86                             108     0.1 4  389 210 
 PRA  HN ES   2   1629 33.76                             108     0.3 3  389 210 
                                                                                
