 2016  413 1319 14.1 L   6.339 -73.559112.2  RSN 20 0.5 2.5LRSN                1
 GAP= 77        1.10       2.6     2.6  5.2 -0.7787E+00  0.4603E+01  0.7580E+00E
 Epicentro: SANTA HELENA DEL OPON - SANTANDER                                  3
 ACTION:UPD 16-05-05 14:21 OP:rebc STATUS:               ID:20160413131914 L   I
 OLDACT:UP  16-04-15 21:37 OP:nlst STATUS:               ID:20160413131914 L   3
 OLDACT:UP  16-04-13 23:52 OP:ar   STATUS:               ID:20160413131745     3
 OLDACT:UP  16-04-13 23:50 OP:ar   STATUS:               ID:20160413131745     3
 OLDACT:REG 16-04-13 20:54 OP:ar   STATUS:               ID:20160413131745     3
 2016-04-13-1317-45M.COL___316                                                 6
 STAT SP IPHASW D HRMM SECON CODA AMPLIT PERI AZIMU VELO AIN AR TRES W  DIS CAZ7
 BAR2 EZ IP     D 1319 31.25                             154    0.4610 50.2  56 
 BAR2 EZ ES       1319 44.06                             154    0.2510 50.2  56 
 BAR2 EZ I        1319 45.57       119.3 0.38            156           50.2  56 
 RUS  HZ IP       1319 32.53                             145    0.0210 72.2 133 
 RUS  HE ES       1319 46.53                             145   -0.3410 72.2 133 
 RUS  HZ I        1319 49.37        44.0 0.24            146           72.2 133 
 SPBC HZ EP       1319 33.32                             137   -0.3810 94.9 217 
 SPBC HE ES       1319 48.92                             137   -0.0610 94.9 217 
 SPBC HZ I        1319 50.43        79.4 0.44            137           94.9 217 
 PTB  HZ EP   1   1319 33.04                             134   -1.14 7  102 283 
 PTB  HN ES       1319 49.65                             134   -0.1810  102 283 
 PTB  HZ I        1319 50.96        42.0 0.10            135            102 283 
 PAM  EZ EP       1319 39.26                             124    0.27 9  146  41 
 PAM  EN ES       1319 58.82                             124    0.41 9  146  41 
 PAM  EZ I        1320  3.65        31.3 0.46            125            146  41 
 NOR  HZ EP       1319 40.64                             119   -0.15 9  169 239 
 NOR  HN ES       1320  1.52                             119   -0.09 9  169 239 
 NOR  HZ I        1320  6.13        44.4 0.18            120            169 239 
 ROSC BZ EP       1319 44.10                             116    0.99 9  186 207 
 ROSC BN ES   4   1320  7.83                             116    2.09 0  186 207 
 ROSC BZ I        1320 13.05        22.6 0.30            117            186 207 
 CHI  HZ EP       1319 43.28                             116   -0.30 9  190 186 
 CHI  HN ES       1320  6.76                             116    0.19 9  190 186 
 CHI  HZ I        1320 10.56        13.8 0.36            116            190 186 
 ZAR  HZ EP       1319 42.93                             115   -0.35 9  192 312 
 ZAR  HE ES       1320  6.07                             115    0.03 9  192 312 
 ZAR  HZ I        1320  9.65        46.9 0.32            116            192 312 
 OCA  HZ EP   9   1319 47.37                             113    1.71 0  212   7 
 OCA  HE ES       1320 11.05                             114   -0.93 8  212   7 
 OCA  HZ I        1320 16.51        54.2 0.22            114            212   7 
 HEL  HZ EP       1319 47.00                             112    0.29 8  219 266 
 HEL  HE ES       1320 12.17                             112    0.04 8  219 266 
 HEL  HZ I        1320 14.47        14.7 0.24            113            219 266 
 GUY2CHZ EP       1319 48.93                             110    0.23 8  235 238 
 GUY2CHN ES       1320 15.81                             110    0.13 8  235 238 
 GUY2CHZ I        1320 22.94        17.6 0.62                           235 238 
 VIL  SZ EP       1319 49.26                             109   -0.35 8  247 183 
 VIL  SN ES       1320 16.66                             109   -0.65 8  247 183 
 ELA  HZ EP   4   1319 54.42                             108    2.61 0  261 231 
 ELA  HN ES       1320 21.60                             108    0.38 8  261 231 
 ELA  HZ I        1320 31.43        10.1 0.44            109            261 231 
 URE  HZ EP       1319 51.01                             107   -0.95 8  268 306 
 URE  HN ES   4   1320 18.26                             107   -3.22 0  268 306 
 URE  HZ I        1320 21.08        36.0 0.14            108            268 306 
 CBOC HZ EP       1319 53.76                             107    0.63 7  277 259 
 CBOC HN ES       1320 23.43                             107   -0.14 7  277 259 
 ANIL HZ EP       1319 55.12                             106    0.38 7  289 225 
 ANIL HE ES   4   1320 28.44                             106    2.01 0  289 225 
 ANIL HZ I        1320 34.27        37.0 0.34            106            289 225 
 DBB  SZ EP       1319 55.23                             105   -0.84 7  303 285 
 DBB  SZ ES       1320 29.75                             105    0.95 7  303 285 
 DBB  SZ I        1320 30.41        28.9 0.18            105            303 285 
 ORTC HZ EP       1319 59.08                             103    0.12 7  327 215 
 ORTC HN ES   4   1320 36.18                             103    2.24 0  327 215 
 ORTC HZ I        1320 41.41        11.9 0.50            104            327 215 
 SOCV BZ EP       1320  3.57                             101   -0.19 6  368  54 
 SOCV BE ES   4   1320 41.03                             101   -1.46 0  368  54 
                                                                                
