 2016  313 1233 19.5 L   6.783 -73.167138.8  RSN  8 0.4 1.9LRSN                1
 GAP=135        0.99       3.7     4.3  6.5 -0.1051E+01  0.9222E+01  0.1531E+01E
 Epicentro: LOS SANTOS - SANTANDER                                             3
 ACTION:UPD 16-05-13 21:23 OP:cam  STATUS:               ID:20160313123319 L   I
 OLDACT:REG 16-03-13 20:24 OP:drio STATUS:               ID:20160313122749     3
 2016-03-13-1227-49M.COL___291                                                 6
 STAT SP IPHASW D HRMM SECON CODA AMPLIT PERI AZIMU VELO AIN AR TRES W  DIS CAZ7
 BAR2 EZ EP       1233 38.12                             171   -0.1110 21.1 185 
 BAR2 EZ ES       1233 52.79                             171   -0.0610 21.1 185 
 BAR2 EZ I        1233 54.17        26.3 0.36            168           21.1 185 
 PAM  EZ EP       1233 41.02                             149   -0.1310 80.4  40 
 PAM  EE ES       1233 58.30                             149    0.2510 80.4  40 
 PAM  EZ I        1234  0.45        16.0 0.66            155           80.4  40 
 RUS  HZ EP       1233 41.57                             143   -0.8610 98.8 175 
 RUS  HE ES       1234  0.66                             143    0.3410 98.8 175 
 RUS  HZ I        1234  1.45         4.9 0.26            144           98.8 175 
 PTB  HZ EP       1233 46.05                             131    0.41 9  145 259 
 PTB  HE ES       1234  5.47                             131   -0.57 9  145 259 
 PTB  HZ I        1234 11.43         8.2 0.64            130            145 259 
 SPBC HZ EP       1233 47.25                             128    0.08 9  160 219 
 SPBC HN ES       1234  9.04                             128    0.28 9  160 219 
 SPBC HZ I        1234 18.32         9.5 0.18            128            160 219 
 ZAR  HZ EP       1233 51.95                             121    0.62 9  203 293 
 ZAR  HE ES       1234 16.04                             121   -0.13 9  203 293 
 ZAR  HZ I        1234 22.77        11.4 0.36            122            203 293 
 CHI  HZ EP       1233 56.31                             116   -0.22 8  246 195 
 CHI  HN ES       1234 25.74                             116    0.31 8  246 195 
 CHI  HZ I        1234 29.01         4.3 0.58            118            246 195 
 ROSC BZ EP   4   1233 58.70                             115    1.78 0  250 211 
 ROSC BN ES   4   1234 27.77                             115    1.66 0  250 211 
 ROSC BZ I        1234 32.70         9.0 0.40            117            250 211 
                                                                                
