 2012  613 1459  4.3 L   6.810 -73.177147.5  RSN  4 0.1 1.4LRSN                1
 GAP=144        0.32       2.6     2.5  4.5 -0.1979E+01  0.3008E+01 -0.3506E+00E
 Epicentro: LOS SANTOS - SANTANDER                                             3
 ACTION:UP  12-08-06 17:49 OP:ep   STATUS:               ID:20120613145904 L   I
 2012-06-13-1450-00M.COL___201                                                 6
 STAT SP IPHASW D HRMM SECON CODA AMPLIT PERI AZIMU VELO AIN AR TRES W  DIS CAZ7
 BAR2 SZ EP       1459 24.29                             170    0.1010 24.1 182 
 BAR2 SZ I        1459 24.91         9.7 0.18                          24.1 182 
 PAM  SZ EP   1   1459 26.90                             151    0.08 7 78.8  42 
 PAM  SN ES   1   1459 44.27                             151   -0.09 7 78.8  42 
 RUS  HZ EP   1   1459 28.28                             144   -0.08 7  102 174 
 RUS  HZ I        1459 29.23         2.6 0.09                           102 174 
 RUS  HN ES   1   1459 47.09                             144   -0.01 7  102 174 
 PTB  HZ EP   1   1459 31.05                             133   -0.12 7  145 258 
 PTB  HZ I        1459 33.59         3.7 0.24                           145 258 
 PTB  HN ES   1   1459 52.13                             133    0.04 7  145 258 
                                                                                
