 2011  713 1015 39.5 L   6.783 -73.050140.0  RSN  9 0.5 1.9LRSN                1
 GAP=167        1.01       4.7     7.1  7.8 -0.8076E+01  0.5939E+01 -0.2810E+01E
 Epicentro: LOS SANTOS - SANTANDER                                             3
 ACTION:UPD 12-07-25 14:00 OP:epov STATUS:               ID:20110713101539 L   I
 2011-07-13-1000-00M.COL___133                                                 6
 STAT SP IPHASW D HRMM SECON CODA AMPLIT PERI AZIMU VELO AIN AR TRES W  DIS CAZ7
 BAR2 SZ EP   1   1015 58.27                             169   -0.22 7 25.7 215 
 BAR2 SZ ES   1   1016 12.86                             169   -0.44 7 25.7 215 
 BAR2 SZ I        1016 14.09        15.7 0.17                          25.7 215 
 GIR2 SZ EP       1015 59.26                             165    0.6210 36.4 334 
 BRR  HZ EP       1015 59.97                             148   -0.6910 81.5 296 
 BRR  HN ES   1   1016 17.24                             148    0.07 7 81.5 296 
 BRR  HZ I        1016 18.61        13.8 0.20                          81.5 296 
 RUS  HZ EP       1016  2.35                             143   -0.1810 98.5 182 
 RUS  HN ES   1   1016 20.94                             143    0.44 7 98.5 182 
 RUS  HZ I        1016 22.09         9.5 0.33                          98.5 182 
 BRI  SZ EP   1   1016  2.99                             141    0.26 7  107  15 
 BRI  SZ ES   1   1016 21.47                             141    0.62 7  107  15 
 BRI  SZ I        1016 23.54        10.2 0.45                           107  15 
 GRA  SZ EP       1016  3.50                             136   -0.6610  125  13 
 OCA  SZ EP   1   1016  8.26                             128    0.56 7  164 350 
 OCA  SZ ES   2   1016 29.48                             128   -0.22 5  164 350 
 OCA  SZ I        1016 34.70         4.2 0.30                           164 350 
 HEL  HZ EP   1   1016 20.61                             113    0.08 6  282 257 
 HEL  HN ES   1   1016 52.98                             113    0.45 6  282 257 
 HEL  HZ I        1016 57.31         7.1 0.42                           282 257 
 PRA  HZ EP   1   1016 33.67                             105    0.41 4  396 211 
 PRA  HZ I        1017 20.12         7.2 0.26                           396 211 
                                                                                
