 2012 1213 1626 48.0 L   6.791 -73.193140.4  RSN  5 0.3 1.5LRSN                1
 GAP=131        0.69       4.7     4.2  7.2 -0.6357E-01  0.1118E+02 -0.5521E+01E
 Epicentro: ZAPATOCA - SANTANDER                                               3
 ACTION:UPD 13-01-04 14:27 OP:ep   STATUS:               ID:20121213162648 L   I
 2012-12-13-1620-00M.COL___242                                                 6
 STAT SP IPHASW D HRMM SECON CODA AMPLIT PERI AZIMU VELO AIN AR TRES W  DIS CAZ7
 BAR2 SZ EP   1   1627  6.99                             171    0.04 7 22.0 177 
 BAR2 SZ ES   1   1627 22.26                             171    0.52 7 22.0 177 
 PAM  SZ EP   1   1627  9.90                             148    0.00 7 81.5  42 
 PAM  SN ES   1   1627 26.75                             148   -0.24 7 81.5  42 
 PAM  SZ I        1627 29.13         6.5 0.48                          81.5  42 
 RUS  HZ EP   1   1627 11.27                             143    0.08 7  100 173 
 RUS  HN ES   1   1627 28.94                             143   -0.34 7  100 173 
 RUS  HZ I        1627 31.15         5.1 0.24                           100 173 
 PTB  HZ EP   1   1627 13.67                             132   -0.37 7  142 259 
 PTB  HN ES   1   1627 34.44                             132    0.08 7  142 259 
 ZAR  HZ EP   1   1627 20.34                             122    0.71 6  200 293 
 ZAR  HN ES   1   1627 43.88                             122   -0.43 6  200 293 
                                                                                
