 2016  613 1026 28.4 L   6.928 -73.109139.7  RSN  6 0.5 1.5LRSN                1
 GAP=285        1.15       8.0     7.1 10.6  0.1446E+01  0.2165E+02  0.2643E+01E
 Epicentro: PIEDECUESTA - SANTANDER                                            3
 ACTION:UPD 16-07-21 22:18 OP:rebc STATUS:               ID:20160613102628 L   I
 OLDACT:DUP 16-06-13 21:57 OP:dani STATUS:               ID:20160613101748d    3
 OLDACT:UP  16-06-13 21:55 OP:dani STATUS:               ID:20160613101747     3
 OLDACT:UP  16-06-13 21:54 OP:dani STATUS:               ID:20160613101747     3
 OLDACT:UP  16-06-13 21:54 OP:dani STATUS:               ID:20160613101747     3
 OLDACT:REG 16-06-13 20:39 OP:dani STATUS:               ID:20160613101747     3
 2016-06-13-1017-47M.COL___319                                                 6
 STAT SP IPHASW D HRMM SECON CODA AMPLIT PERI AZIMU VELO AIN AR TRES W  DIS CAZ7
 BAR2 EZ EP       1026 48.16                             164    0.5010 38.0 192 
 BAR2 EZ ES       1027  2.82                             164    0.1010 38.0 192 
 BAR2 EZ I        1027  4.27         7.5 0.16                          38.0 192 
 RUS  HZ EP       1026 52.25                             139   -0.3510  115 179 
 RUS  HE ES       1027 10.99                             139   -0.5210  115 179 
 RUS  HZ I        1027 12.26         3.1 0.24                           115 179 
 PTB  HZ EP       1026 55.18                             129   -0.34 9  155 254 
 PTB  HN ES       1027 17.17                             129    0.46 9  155 254 
 PTB  HZ I        1027 18.79         3.8 0.22                           155 254 
 SPBC HE ES       1027 20.68                             125    0.03 9  177 217 
 NOR  HE ES       1027 32.93                             116   -0.68 8  246 232 
 NOR  HZ I        1027 38.04         2.5 0.20                           246 232 
 CHI  HE ES       1027 38.67                             115    0.90 8  263 195 
                                                                                
