 2010  313 1739  4.4 L   6.822 -72.965145.4  RSN  6 0.2 1.8LRSN                1
 GAP=256        0.57       4.2     6.4  6.0  0.3871E+01  0.6201E+01  0.4355E+01E
 Epicentro: CEPITA - SANTANDER                                                 3
 ACTION:UP  10-08-24 09:53 OP:vdl  STATUS:               ID:20100313173904 L   I
 2010-03-13-1736-00S.COL___095                                                 6
 STAT SP IPHASW D HRMM SECON CODA AMPLIT PERI AZIMU VELO SNR AR TRES W  DIS CAZ7
 BAR2 SZ EP       1739 24.52                             166     0.210   35 223 
 BAR2 SZ ES   1   1739 39.92                             166     0.1 7   35 223 
 BRR  HZ IP       1739 26.32                             147    -0.310   88 291 
 BRR  HZ I        1739 26.63        27.7 0.16                            88 291 
 BRR  HN ES   1   1739 43.97                             147     0.1 7   88 291 
 RUS  HZ EP   1   1739 28.58                             143     0.2 7  104 187 
 RUS  HN ES   1   1739 46.76                             143    -0.3 7  104 187 
 RUS  HZ I        1739 48.35         5.5 0.29                           104 187 
 CHI  HN ES   3   1740 12.77                             116    -0.3 2  257 199 
 CHI  HZ I        1740 14.66         2.1 0.48                           257 199 
 RREF BN ES   1   1740 30.26                             110     0.3 5  339 231 
 RREF BZ I        1740 32.92         2.8 0.24                           339 231 
 PRA  HN ES   1   1740 42.05                             106    -0.2 4  404 212 
 PRA  HZ I        1740 48.43         2.8 0.60                           404 212 
                                                                                
