 2011 1013 1006 48.7 L   5.821 -73.879109.4  RSN  5 0.4 1.7LRSN                1
 GAP=171        0.65       4.7     4.2 10.4 -0.3402E+00  0.2092E+02 -0.1257E+02E
 Epicentro: ALBANIA - SANTANDER                                                3
 ACTION:UPD 12-07-13 16:03 OP:ep   STATUS:               ID:20111013100648 L   I
 2011-10-13-1004-35S.COL___168                                                 6
 STAT SP IPHASW D HRMM SECON CODA AMPLIT PERI AZIMU VELO AIN AR TRES W  DIS CAZ7
 RUS  HZ EP   1   10 7  8.06                             138    0.03 8 88.5  85 
 RUS  HN ES   1   10 7 22.88                             138   -0.26 8 88.5  85 
 NOR  SZ EP   2   10 7 10.50                             130    0.90 5  113 255 
 NOR  SN ES   2   10 7 25.65                             130   -0.28 5  113 255 
 BAR2 SZ ES   2   10 7 26.72                             130    0.08 5  115  42 
 BAR2 SZ I        10 7 29.02        16.9 0.14                           115  42 
 BRR  HZ EP       10 7 12.45                             123   -0.0310  143   7 
 BRR  HZ I        10 7 13.67        10.5 0.25                           143   7 
 BRR  HE ES   1   10 7 31.57                             123    0.52 7  143   7 
 ZAR  HZ EP   1   10 7 19.88                             112   -0.30 7  214 330 
 ZAR  HN ES   1   10 7 44.35                             112   -0.40 7  214 330 
 ZAR  HZ I        10 7 46.51         2.1 0.17                           214 330 
                                                                                
