 2017  413 1928 17.3 L   6.738 -73.169154.0  RSN  5 0.4 1.3LRSN                1
 GAP=136        0.97       7.4     5.3  8.6  0.1359E+02  0.9518E+00 -0.2767E+02E
 Epicentro: VILLANUEVA - SANTANDER                                             3
 ACTION:UPD 17-05-30 21:11 OP:jn   STATUS:               ID:20170413192817 L   I
 OLDACT:UP  17-04-14 01:31 OP:edw  STATUS:               ID:20170413192739     3
 OLDACT:REG 17-04-13 21:47 OP:edw  STATUS:               ID:20170413192739     3
 2017-04-13-1928-00M.COL___371                                                 6
 STAT SP IPHASW D HRMM SECON CODA AMPLIT PERI AZIMU VELO AIN AR TRES W  DIS CAZ7
 BAR2 EZ EP       1928 37.76                             174   -0.0010 16.2 185 
 BAR2 EZ ES       1928 53.87                             174    0.1110 16.2 185 
 PAM  EZ EP       1928 40.40                             150   -0.3610 84.3  38 
 RUS  HZ EP       1928 41.10                             147   -0.2810 94.0 174 
 RUS  HN ES       1929  0.59                             147    0.4010 94.0 174 
 RUS  HZ I        1929  1.46         2.7 0.34            149           94.0 174 
 PTB  HZ EP       1928 44.76                             135    0.18 9  144 261 
 PTB  HN ES       1929  5.15                             135   -0.75 9  144 261 
 PTB  HZ I        1929  9.85         1.9 0.28            134            144 261 
 ZAR  HZ EP       1928 50.81                             124    0.52 9  204 294 
 ZAR  HN ES       1929 16.40                             124    0.35 9  204 294 
 ZAR  HZ I        1929 21.73         2.6 0.26            124            204 294 
                                                                                
