 2012  513 1310 51.8 L   6.774 -73.147148.7  RSN  7 0.5 2.0LRSN                1
 GAP=138        1.09       6.6     6.5  9.8  0.3081E+01  0.1578E+02 -0.2894E+01E
 Epicentro: LOS SANTOS - SANTANDER                                             3
 ACTION:UP  12-07-05 12:04 OP:pat  STATUS:               ID:20120513131051 L   I
 2012-05-13-1310-00M.COL___195                                                 6
 STAT SP IPHASW D HRMM SECON CODA AMPLIT PERI AZIMU VELO SNR AR TRES W  DIS CAZ7
 BAR2 SZ EP   1   1311 11.80                             172     0.1 7   20 191 
 BAR2 SZ ES   1   1311 26.38                             172    -0.9 7   20 191 
 BAR2 SZ I        1311 28.46        17.6 0.29                            20 191 
 BRR  HZ EP   1   1311 13.71                             153     0.4 7   73 301 
 BRR  HZ I        1311 13.84        25.2 0.29                            73 301 
 BRR  HE ES   1   1311 31.06                             153     0.9 7   73 301 
 PAM  SZ EP   1   1311 14.66                             151     0.2 7   80  38 
 PAM  SN ES   1   1311 31.78                             151    -0.3 7   80  38 
 RUS  HZ EP   1   1311 15.91                             145     0.3 7   98 176 
 RUS  HE ES   1   1311 34.52                             145     0.3 7   98 176 
 RUS  HZ I        1311 35.59         8.2 0.51                            98 176 
 PTB  HZ EP   1   1311 18.33                             133    -0.6 7  147 260 
 PTB  HN ES   1   1311 39.85                             133    -0.2 7  147 260 
 PTB  HZ I        1311 41.95         7.5 0.21                           147 260 
 OCA  HN ES   2   1311 42.88                             130    -0.2 5  163 353 
 ZAR  HZ EP   1   1311 24.05                             123    -0.5 6  205 293 
 ZAR  HE ES   1   1311 50.15                             123     0.1 6  205 293 
 ZAR  HZ I        1311 56.80        14.2 0.32                           205 293 
                                                                                
