 2017  213 1138  6.5 L   6.274 -73.676112.8  RSN  5 0.4 1.3LRSN                1
 GAP=166        0.76       6.2     7.3  9.4  0.3487E+02  0.4135E+02  0.2466E+02E
 Epicentro: SANTA HELENA DEL OPON - SANTANDER                                  3
 ACTION:UPD 17-05-24 15:36 OP:jn   STATUS:               ID:20170213113806 L   I
 OLDACT:REG 17-02-13 20:37 OP:cog  STATUS:               ID:20170213112743     3
 2017-02-13-1128-00M.COL___343                                                 6
 STAT SP IPHASW D HRMM SECON CODA AMPLIT PERI AZIMU VELO AIN AR TRES W  DIS CAZ7
 BAR2 EZ EP       1138 24.26                             151    0.1010 64.9  57 
 BAR2 EZ ES       1138 37.66                             151   -0.2410 64.9  57 
 BAR2 EZ I        1138 38.74        15.8 0.27            152           64.9  57 
 RUS  HZ EP       1138 25.31                             144   -0.1110 78.0 123 
 RUS  HN ES       1138 40.51                             144    0.3710 78.0 123 
 RUS  HZ I        1138 42.89         2.7 0.60            145           78.0 123 
 PTB  HZ EP   3   1138 25.47                             138   -0.31 2 91.2 289 
 PTB  HN ES   3   1138 39.49                             138   -1.30 2 91.2 289 
 PTB  HZ I        1138 41.50         3.4 0.21            141           91.2 289 
 BRR  HZ EP       1138 25.54                             139   -0.3010 92.2 358 
 BRR  HE ES       1138 40.74                             139   -0.1510 92.2 358 
 BRR  HZ I        1138 41.84         5.6 0.27            142           92.2 358 
 ZAR  HE ES       1138 58.26                             117    0.58 9  188 316 
                                                                                
