 2013  413 1051 35.4 L   6.637 -73.202147.5  RSN  5 0.3 1.4LRSN                1
 GAP=178        0.72       5.1     6.4  6.4  0.1109E+02  0.1059E+02 -0.3969E+01E
 Epicentro: BARICHARA - SANTANDER                                              3
 ACTION:UPD 13-05-22 14:38 OP:EP   STATUS:               ID:20130413105135 L   I
 2013-04-13-1050-00M.COL___244                                                 6
 STAT SP IPHASW D HRMM SECON CODA AMPLIT PERI AZIMU VELO AIN AR TRES W  DIS CAZ7
 BAR2 SZ EP       1051 55.36                             178    0.3110 5.42 156 
 BAR2 SZ ES       1052 10.10                             178   -0.2510 5.42 156 
 BAR2 SZ I        1052 12.11         8.6 0.28            172           5.42 156 
 BRR  HZ EP       1051 57.14                             151    0.0610 76.7 313 
 BRR  HN ES       1052 14.34                             151    0.3710 76.7 313 
 RUS  HN ES   1   1052 15.60                             149   -0.36 7 83.4 171 
 PTB  HZ EP       1052  1.83                             134    0.05 9  139 266 
 PTB  HN ES   1   1052 22.08                             134   -0.24 7  139 266 
 PTB  HZ I        1052 27.85         2.6 0.38            132            139 266 
 SML  HE ES   1   1052 42.88                             116   -0.65 6  258 338 
                                                                                
