 2012  713 1927 17.6 L   6.733 -73.142144.0  RSN  6 0.3 2.2LRSN                1
 GAP=233        0.94       6.3     6.1  7.4  0.6409E+01  0.8387E+01  0.1539E+02E
 Epicentro: JORDAN - SANTANDER                                                 3
 ACTION:UPD 12-08-14 11:44 OP:ep   STATUS:               ID:20120713192717 L   I
 2012-07-13-1920-00M.COL___197                                                 6
 STAT SP IPHASW D HRMM SECON CODA AMPLIT PERI AZIMU VELO AIN AR TRES W  DIS CAZ7
 BAR2 SZ EP       1927 36.75                             173    -0.110   16 196 
 BAR2 SZ ES   1   1927 51.39                             173    -0.5 7   16 196 
 BAR2 SZ I        1927 53.44        65.0 0.17            169             16 196 
 BRR  HZ EP       1927 38.69                             151    -0.110   75 303 
 BRR  HZ I        1927 40.41        40.8 0.11            150             75 303 
 BRR  HN ES       1927 55.86                             151     0.610   75 303 
 RUS  HZ EP       1927 40.83                             146     0.210   93 176 
 RUS  HE ES   1   1927 58.66                             146     0.1 7   93 176 
 RUS  HZ I        1928  0.96        18.2 0.36            146             93 176 
 PTB  HZ EP       1927 43.70                             132    -0.6 9  147 262 
 PTB  HN ES   1   1928  4.90                             132    -0.3 7  147 262 
 PTB  HZ I        1928 12.17        14.2 0.32            132            147 262 
 NOR  SZ EP       1927 52.83                             119     0.1 8  231 236 
 NOR  SN ES       1928 20.39                             119     0.2 8  231 236 
 CHI  HZ EP   1   1927 54.80                             118     0.4 6  242 196 
