 2017  213 1158  2.9 L   6.815 -73.179146.0  RSN  5 0.3 1.5LRSN                1
 GAP=132        0.70       3.7     3.2  5.9 -0.1573E+00  0.5661E+01 -0.1598E+01E
 Epicentro: ZAPATOCA - SANTANDER                                               3
 ACTION:UPD 17-05-24 15:36 OP:jn   STATUS:               ID:20170213115802 L   I
 OLDACT:DUP 17-02-13 23:11 OP:cog  STATUS:               ID:20170213114746d    3
 2017-02-13-1148-00M.COL___346                                                 6
 STAT SP IPHASW D HRMM SECON CODA AMPLIT PERI AZIMU VELO AIN AR TRES W  DIS CAZ7
 BAR2 EZ EP       1158 22.39                             170   -0.2010 24.6 181 
 BAR2 EZ ES       1158 38.00                             170    0.0610 24.6 181 
 BAR2 EZ I        1158 39.64         5.9 0.32            171           24.6 181 
 PAM  EZ EP       1158 25.32                             150    0.1110 78.5  42 
 PAM  EN ES       1158 42.46                             150   -0.1510 78.5  42 
 PAM  EZ I        1158 44.49         9.0 0.46            152           78.5  42 
 RUS  HZ EP       1158 26.66                             143   -0.1610  103 174 
 RUS  HN ES       1158 45.81                             143    0.3410  103 174 
 RUS  HZ I        1158 46.32         4.7 0.34            145            103 174 
 PTB  HZ EP       1158 29.74                             133    0.14 9  145 258 
 PTB  HE ES       1158 49.93                             133   -0.49 9  145 258 
 PTB  HZ I        1158 52.28         3.9 0.12            134            145 258 
 ZAR  HN ES       1159  0.36                             123    0.41 9  200 292 
                                                                                
