 2010 1113 1054 15.3 L   6.779 -73.057146.5  RSN  9 0.4 1.9LRSN                1
 GAP=169        0.68       3.9     5.7  6.1 -0.3649E+01  0.6311E+01  0.1954E+01E
 Epicentro: LOS SANTOS - SANTANDER                                             3
 ACTION:UP  10-12-17 16:52 OP:REBC STATUS:               ID:20101113105415 L   I
 2010-11-13-1051-15S.COL___127                                                 6
 STAT SP IPHASW D HRMM SECON CODA AMPLIT PERI AZIMU VELO SNR AR TRES W  DIS CAZ7
 BAR2 SZ EP   1   1054 35.03                             170     0.0 7   25 214 
 BAR2 SZ ES   1   1054 50.08                             170    -0.4 7   25 214 
 BAR2 SZ I        1054 51.80        19.9 0.40                            25 214 
 BRR  HZ EP   1   1054 36.92                             149    -0.2 7   81 297 
 BRR  HZ I        1054 37.24        22.9 0.17                            81 297 
 BRR  HE ES   1   1054 54.49                             149     0.4 7   81 297 
 RUS  HZ EP   1   1054 38.91                             145     0.0 7   98 182 
 RUS  HN ES   1   1054 57.83                             145     0.5 7   98 182 
 RUS  HZ I        1054 59.43         8.2 0.42                            98 182 
 GUE  SZ EP   2   1054 40.01                             139    -0.1 5  117   7 
 GRA  SZ EP   2   1054 40.58                             137     0.0 5  125  13 
 GRA  SZ ES   2   1055  0.29                             137     0.0 5  125  13 
 GRA  SZ I        1055  1.79         7.1 0.43                           125  13 
 NOR  SZ EP   2   1054 50.88                             118    -0.9 4  242 236 
 NOR  SN ES   2   1055 19.50                             118    -0.8 4  242 236 
 CHI  HZ EP   2   1054 53.23                             117     0.1 4  249 197 
 CHI  HE ES   2   1055 22.16                             117    -0.4 4  249 197 
 CHI  HZ I        1055 28.30         3.6 0.34                           249 197 
 HEL  HZ EP   2   1054 57.25                             114     0.7 4  281 257 
 HEL  HE ES   2   1055 28.94                             114     0.2 4  281 257 
 HEL  HZ I        1055 34.11         4.5 0.49                           281 257 
 RREF HZ EP   2   1055  2.97                             111     0.8 3  328 231 
 RREF HE ES   2   1055 38.79                             111     0.1 3  328 231 
 RREF HZ I        1055 47.49         3.3 0.38                           328 231 
                                                                                
