 2017  713 1018 13.6 L   6.767 -73.145143.3  RSN  8 0.4 1.5LRSN                1
 GAP=138        0.98       4.1     4.0  7.1 -0.2510E+01  0.7154E+01  0.9955E+00E
 Epicentro: LOS SANTOS - SANTANDER                                             3
 ACTION:UPD 17-08-30 15:32 OP:rebc STATUS:               ID:20170713101813 L   I
 OLDACT:UP  17-07-13 21:02 OP:dani STATUS:               ID:20170713100720d    3
 OLDACT:DUP 17-07-13 20:59 OP:dani STATUS:               ID:20170713100720d    3
 OLDACT:UP  17-07-13 20:58 OP:dani STATUS:               ID:20170713100719     3
 OLDACT:UP  17-07-13 20:57 OP:dani STATUS:               ID:20170713100719     3
 OLDACT:REG 17-07-13 20:06 OP:dani STATUS:               ID:20170713100719     3
 2017-07-13-1008-00M.COL___368                                                 6
 STAT SP IPHASW D HRMM SECON CODA AMPLIT PERI AZIMU VELO AIN AR TRES W  DIS CAZ7
 BAR2 EZ EP       1018 32.81                             172   -0.1010 19.7 192 
 BAR2 EZ ES       1018 47.34                             172   -0.5910 19.7 192 
 BAR2 EZ I        1018 49.06        11.4 0.30            172           19.7 192 
 BRR  HZ EP       1018 34.70                             151    0.0610 73.1 301 
 BRR  HE ES       1018 51.58                             151    0.5710 73.1 301 
 BRR  HZ I        1018 55.44        11.1 0.44            150           73.1 301 
 PAM  EZ EP       1018 35.74                             149   -0.0310 80.2  38 
 PAM  EN ES       1018 53.15                             149    0.1310 80.2  38 
 PAM  EZ I        1018 54.75         4.9 0.62            152           80.2  38 
 RUS  HZ EP       1018 37.11                             144    0.2210 96.9 176 
 RUS  HN ES       1018 55.14                             144    0.1210 96.9 176 
 RUS  HZ I        1018 56.36         3.4 0.28            148           96.9 176 
 PTB  HZ EP       1018 39.79                             132   -0.57 9  147 260 
 PTB  HN ES       1019  0.51                             132   -0.68 9  147 260 
 PTB  HZ I        1019  5.36         1.9 0.30            132            147 260 
 SPBC HE ES       1019  4.00                             129    0.44 9  160 220 
 ZAR  HZ EP   4   1018 45.43                             122   -0.66 0  206 293 
 ZAR  HE ES       1019 11.62                             122    0.23 8  206 293 
 ZAR  HZ I        1019 17.13         4.4 0.16            122            206 293 
 NOR  HZ EP   4   1018 53.48                             118    4.47 0  233 235 
 NOR  HE ES       1019 16.84                             118    0.24 8  233 235 
 NOR  HZ I        1019 18.40         2.5 0.12            120            233 235 
                                                                                
