 2015  913 1158 13.3 L   6.811 -73.133141.6  RSN 13 0.6 2.2LRSN                1
 GAP=184        1.43       3.5     5.8  7.2 -0.9710E+00  0.8354E+01  0.1123E+01E
 Epicentro: LOS SANTOS - SANTANDER                                             3
 ACTION:UPD 15-10-28 16:26 OP:cam  STATUS:               ID:20150913115813 L   I
 OLDACT:DUP 15-09-13 23:10 OP:stll STATUS:               ID:20150913114746d    3
 2015-09-13-1147-45M.COL___316                                                 6
 STAT SP IPHASW D HRMM SECON CODA AMPLIT PERI AZIMU VELO AIN AR TRES W  DIS CAZ7
 BAR2 EZ EP       1158 32.71                             170    0.2410 24.8 193 
 BAR2 EZ ES       1158 47.30                             170   -0.1210 24.8 193 
 BAR2 EZ I        1158 49.84        24.7 0.28            168           24.8 193 
 BRR  HZ EP     C 1158 34.71                             152    0.6610 71.9 297 
 BRR  HN ES       1158 51.47                             152    1.2410 71.9 297 
 BRR  HZ I        1158 55.85        15.1 0.16            148           71.9 297 
 RUS  HZ EP       1158 37.20                             143    0.4710  102 177 
 RUS  HN ES       1158 54.41                             143   -0.5910  102 177 
 RUS  HZ I        1158 56.68        18.9 0.32            146            102 177 
 PTB  HZ EP       1158 39.56                             131   -0.52 9  149 258 
 PTB  HN ES       1159  0.49                             131   -0.49 9  149 258 
 PTB  HZ I        1159  7.56        15.7 0.66            130            149 258 
 OCA  HZ EP       1158 40.87                             129   -0.33 9  159 353 
 OCA  HN ES       1159  2.83                             129   -0.13 9  159 353 
 OCA  HZ I        1159  7.43        38.9 0.38            131            159 353 
 SPBC HZ EP       1158 41.66                             128   -0.00 9  165 219 
 SPBC HE ES       1159  3.44                             128   -0.34 9  165 219 
 SPBC HZ I        1159  6.34        30.6 0.38            129            165 219 
 ZAR  HZ EP       1158 45.29                             121   -0.28 9  205 292 
 ZAR  HN ES       1159 10.13                             121   -0.61 9  205 292 
 ZAR  HZ I        1159 19.53        10.5 0.26            122            205 292 
 NOR  HZ EP       1158 48.95                             117   -0.04 8  237 234 
 NOR  HN ES       1159 16.33                             117   -0.50 8  237 234 
 NOR  HZ I        1159 24.76        14.1 0.14            119            237 234 
 SML  HZ EP       1158 49.31                             117   -0.34 8  243 335 
 SML  HN ES       1159 17.30                             117   -0.69 8  243 335 
 SML  HZ I        1159 21.16        30.4 0.28            118            243 335 
 CHI  HZ EP       1158 51.00                             116    0.06 8  250 195 
 CHI  HZ I        1158 51.54         7.9 0.18            119            250 195 
 CHI  HN ES       1159 20.06                             116   -0.24 8  250 195 
 HEL  HZ EP       1158 55.27                             114    1.78 8  274 256 
 HEL  HE ES       1159 24.73                             114   -0.11 8  274 256 
 HEL  HZ I        1159 30.90         6.5 0.26            115            274 256 
 GUY2CHZ EP       1158 57.21                             111    0.28 7  303 235 
 GUY2CHE ES       1159 32.24                             111    1.28 7  303 235 
 GUY2CHZ I        1159 43.00         6.0 0.50                           303 235 
 PRA  HZ EP       1159  6.50                             106   -0.38 6  394 210 
 PRA  HE ES       1159 48.03                             106   -0.65 6  394 210 
 PRA  HZ I        1159 52.86         4.8 0.20            108            394 210 
                                                                                
