 2013  313 1028 26.3 L   6.757 -73.200143.5  RSN  6 0.4 1.6LRSN                1
 GAP=195        0.78       6.6     6.5  7.1  0.2015E+02  0.3390E+00 -0.1418E+02E
 Epicentro: VILLANUEVA - SANTANDER                                             3
 ACTION:UPD 13-04-09 14:02 OP:ep   STATUS:               ID:20130313102826 L   I
 2013-03-13-1020-00M.COL___231                                                 6
 STAT SP IPHASW D HRMM SECON CODA AMPLIT PERI AZIMU VELO AIN AR TRES W  DIS CAZ7
 BAR2 SZ EP       1028 45.54                             173   -0.0410 18.3 174 
 BAR2 SZ ES   1   1029  0.15                             173   -0.46 7 18.3 174 
 BAR2 SZ I        1029  1.46        11.4 0.18            170           18.3 174 
 BRR  HZ IP     C 1028 47.33                             153    0.2510 68.6 304 
 BRR  HN ES   1   1029  3.83                             153    0.56 7 68.6 304 
 BRR  HN I        1029  5.30        13.7 0.18            150           68.6 304 
 RUS  HZ EP   1   1028 49.87                             145    0.32 7 96.4 172 
 RUS  HN ES   1   1029  7.64                             145   -0.03 7 96.4 172 
 RUS  HN I        1029  9.83         5.8 0.10            145           96.4 172 
 PTB  HZ EP   1   1028 52.27                             133   -0.22 7  141 260 
 PTB  HN ES   1   1029 12.50                             133   -0.40 7  141 260 
 PTB  HZ I        1029 16.16         4.3 0.15            131            141 260 
 ZAR  HZ EP   1   1028 58.70                             122    0.46 6  200 294 
 ZAR  HN ES   2   1029 23.10                             122   -0.04 4  200 294 
 ZAR  HZ I        1029 29.26         3.6 0.09            122            200 294 
 SML  HZ EP   1   1029  2.17                             117   -0.86 6  246 337 
                                                                                
