 2014  313 1229  3.1 L   6.812 -73.155143.4  RSN  8 0.3 2.2LRSN                1
 GAP=135        0.79       2.4     3.5  5.0 -0.2369E+00  0.5658E+01 -0.9983E+00E
 Epicentro: LOS SANTOS - SANTANDER                                             3
 ACTION:UPD 14-04-09 23:16 OP:nd   STATUS:               ID:20140313122903 L   I
 OLDACT:REG 14-03-13 15:29 OP:cam  STATUS:               ID:20140313122043     3
 2014-03-13-1220-43M.COL___235                                                 6
 STAT SP IPHASW D HRMM SECON CODA AMPLIT PERI AZIMU VELO AIN AR TRES W  DIS CAZ7
 BAR2 SZ EP       1229 22.57                             170    0.1110 24.4 187 
 BAR2 SZ ES       1229 37.16                             170   -0.4110 24.4 187 
 BAR2 SZ I        1229 38.81        37.6 0.28            169           24.4 187 
 PAM  SZ EP       1229 25.31                             150    0.2710 77.1  41 
 PAM  SN ES       1229 42.40                             150    0.2510 77.1  41 
 PAM  SZ I        1229 44.80        21.4 0.20            155           77.1  41 
 RUS  HZ EP       1229 26.54                             143   -0.1710  102 176 
 RUS  HN ES       1229 45.16                             143    0.0310  102 176 
 RUS  HZ I        1229 46.66        10.0 0.38            145            102 176 
 PTB  HZ EP       1229 29.32                             132   -0.48 9  147 258 
 PTB  HN ES       1229 50.33                             132   -0.30 9  147 258 
 PTB  HZ I        1229 56.48        17.5 0.24            131            147 258 
 SPBC HZ EP       1229 31.59                             128    0.15 9  164 218 
 SPBC HN ES       1229 54.07                             128    0.51 9  164 218 
 SPBC HZ I        1229 58.70        24.4 0.40            129            164 218 
 ZAR  HZ EP       1229 35.40                             122    0.16 9  203 292 
 ZAR  HN ES       1230  0.89                             122    0.58 9  203 292 
 ZAR  HZ I        1230  6.97        18.8 0.30            123            203 292 
 SML  HZ EP       1229 39.43                             117    0.02 8  242 335 
 SML  HN ES       1230  7.21                             117   -0.53 8  242 335 
 SML  HZ I        1230 11.25        25.6 0.10            119            242 335 
 CHI  HZ EP       1229 40.65                             116   -0.12 8  250 195 
 CHI  HN ES       1230 10.01                             116   -0.14 8  250 195 
 CHI  HZ I        1230 16.00         4.5 0.38            118            250 195 
                                                                                
