 2015  113 1721 34.7 L   6.785 -73.162151.1  RSN  8 0.4 2.1LRSN                1
 GAP=135        0.88       3.1     4.3  7.3 -0.1962E+01  0.1051E+02 -0.4686E+01E
 Epicentro: LOS SANTOS - SANTANDER                                             3
 ACTION:UPD 15-03-02 15:39 OP:nd   STATUS:               ID:20150113172134 L   I
 OLDACT:REG 15-01-13 20:21 OP:mh   STATUS:               ID:20150113171744     3
 2015-01-13-1717-44M.COL___256                                                 6
 STAT SP IPHASW D HRMM SECON CODA AMPLIT PERI AZIMU VELO AIN AR TRES W  DIS CAZ7
 BAR2 EZ EP   1   1721 54.62                             171   -0.32 7 21.5 186 
 BAR2 EZ I        1722 11.83        24.5 0.23            173           21.5 186 
 PAM  SZ EP       1721 57.82                             151    0.2010 79.7  40 
 PAM  SN ES       1722 15.09                             151   -0.4110 79.7  40 
 PAM  SZ I        1722 16.87        19.4 0.54            150           79.7  40 
 RUS  HZ EP       1721 59.13                             145    0.2510 99.1 175 
 RUS  HN ES       1722 17.60                             145   -0.1310 99.1 175 
 RUS  HZ I        1722 18.36        11.9 0.22            147           99.1 175 
 PTB  HZ EP       1722  1.63                             134   -0.30 9  146 259 
 PTB  HN ES   1   1722 22.76                             134   -0.40 7  146 259 
 PTB  HZ I        1722 24.43        13.0 0.48            134            146 259 
 SPBC HZ EP       1722  3.29                             131   -0.10 9  161 219 
 SPBC HN ES       1722 26.42                             131    0.65 9  161 219 
 SPBC HZ I        1722 28.63        20.7 0.19            131            161 219 
 OCA  HZ EP   1   1722  3.98                             130    0.42 7  162 354 
 OCA  HN ES   1   1722 26.97                             130    0.90 7  162 354 
 OCA  HZ I        1722 30.81        13.5 0.26            130            162 354 
 ZAR  HZ EP   1   1722  7.23                             124   -0.16 6  203 293 
 ZAR  HN ES       1722 32.71                             124   -0.18 9  203 293 
 ZAR  HZ I        1722 38.61        16.6 0.62            124            203 293 
 SML  HZ EP       1722 11.25                             118   -0.46 8  244 336 
 SML  HN ES   1   1722 40.98                             118    0.41 6  244 336 
 SML  HZ I        1722 46.56        15.5 0.19            118            244 336 
                                                                                
