 2017 1113 1413  6.5 L   6.765 -73.117144.0  RSN 10 0.5 1.8LRSN                1
 GAP=142        1.33       4.7     5.8  7.6  0.1472E+01  0.1466E+02  0.1091E+02E
 Epicentro: LOS SANTOS - SANTANDER                                             3
 ACTION:UPD 17-12-12 19:55 OP:rebc STATUS:               ID:20171113141306 L   I
 OLDACT:REG 17-11-13 20:28 OP:lv   STATUS:               ID:20171113140741     3
 2017-11-13-1408-00M.COL___453                                                 6
 STAT SP IPHASW D HRMM SECON CODA AMPLIT PERI AZIMU VELO AIN AR TRES W  DIS CAZ7
 BAR2 EZ IP     C 1413 25.81                             172   -0.0610 20.4 201 
 BAR2 EZ ES       1413 39.96                             172   -1.0110 20.4 201 
 BAR2 EZ I        1413 43.64        16.3 0.24            168           20.4 201 
 BRR  HZ IP     C 1413 27.74                             151    0.0010 75.8 300 
 BRR  HN ES       1413 45.17                             151    0.8810 75.8 300 
 BRR  HZ I        1413 49.50        11.2 0.28            150           75.8 300 
 PAM  EN ES       1413 46.12                             150    0.2810 78.5  36 
 RUS  HZ EP       1413 29.85                             145    0.0510 96.6 178 
 RUS  HN ES       1413 48.26                             145    0.2910 96.6 178 
 RUS  HZ I        1413 50.28         6.4 0.32            145           96.6 178 
 PTB  HZ EP       1413 32.74                             131   -0.81 9  150 261 
 PTB  HN ES       1413 53.69                             131   -0.96 9  150 261 
 PTB  HZ I        1413 56.39         7.3 0.18            131            150 261 
 SPBC HZ EP       1413 34.79                             129    0.01 9  162 221 
 SPBC HN ES       1413 57.52                             129    0.68 9  162 221 
 ZAR  HZ EP       1413 38.82                             121   -0.47 8  208 293 
 ZAR  HE ES       1414  5.59                             121    0.73 8  208 293 
 ZAR  HZ I        1414 10.84        10.1 0.26            123            208 293 
 NOR  HZ EP       1413 41.92                             118   -0.26 8  235 236 
 NOR  HN ES       1414 10.15                             118    0.15 8  235 236 
 NOR  HZ I        1414 14.04         6.2 0.16            119            235 236 
 CHI  HZ EP       1413 44.02                             117    0.22 8  246 196 
 CHI  HN ES       1414 12.76                             117   -0.13 8  246 196 
 CHI  HZ I        1414 21.89         2.3 0.46            118            246 196 
 PRA  HZ EP       1414  0.39                             106    0.63 6  390 210 
 PRA  HE ES       1414 41.69                             106    0.39 6  390 210 
 PRA  HZ I        1414 46.90         2.4 0.20            108            390 210 
                                                                                
