 2013  513 1751 41.7 L   6.799 -73.155146.4  RSN 14 0.5 2.6LRSN                1
 GAP= 65        1.25       3.4     3.8  6.4  0.3652E+00  0.4216E+01  0.3114E+01E
 Epicentro: LOS SANTOS - SANTANDER                                             3
 ACTION:UPD 13-06-20 09:50 OP:ep   STATUS:               ID:20130513175141 L   I
 2013-05-13-1750-00M.COL___254                                                 6
 STAT SP IPHASW D HRMM SECON CODA AMPLIT PERI AZIMU VELO AIN AR TRES W  DIS CAZ7
 BAR2 SZ EP       1752  1.48                             171    0.1210 23.1 188 
 BAR2 SZ ES       1752 16.49                             171   -0.2510 23.1 188 
 BAR2 SZ I        1752 18.12       128.8 0.20            161           23.1 188 
 BRR  HZ IP     C 1752  3.30                             153    0.4710 70.4 299 
 BRR  HE ES       1752 20.76                             153    1.4110 70.4 299 
 BRR  HZ I        1752 26.14        49.9 0.16            141           70.4 299 
 PAM  SZ EP     C 1752  4.23                             151    0.2510 78.1  40 
 PAM  SE ES       1752 21.43                             151    0.0310 78.1  40 
 PAM  SZ I        1752 23.55        60.6 0.56            143           78.1  40 
 RUS  HZ EP     D 1752  5.37                             144   -0.1110  101 175 
 RUS  HN ES       1752 23.65                             144   -0.4010  101 175 
 RUS  HZ I        1752 24.91        40.5 0.44            130            101 175 
 PTB  HZ EP       1752  8.29                             132   -0.30 9  147 259 
 PTB  HN ES       1752 28.88                             132   -0.72 9  147 259 
 PTB  HZ I        1752 36.67        64.6 0.40            119            147 259 
 TAM  HZ IP     D 1752  9.64                             131    0.16 9  156 105 
 TAM  HN ES       1752 30.88                             131   -0.29 9  156 105 
 TAM  HZ I        1752 31.89        22.7 0.28            119            156 105 
 OCA  HZ EP       1752  9.51                             130   -0.50 9  160 353 
 OCA  HN ES       1752 32.05                             130   -0.08 9  160 353 
 OCA  HZ I        1752 37.10        71.8 0.34            119            160 353 
 YOP  SZ EP   1   1752 11.82                             126    0.03 7  179 153 
 YOP  SZ I        1752 44.18        22.9 0.40            114            179 153 
 ZAR  HZ EP   1   1752 14.48                             123    0.43 6  203 292 
 ZAR  HE ES   1   1752 38.55                             123   -0.77 6  203 292 
 ZAR  HZ I        1752 46.51        36.5 0.30            112            203 292 
 NOR  HZ EP       1752 17.48                             119    0.15 8  234 234 
 NOR  HN ES       1752 44.87                             119   -0.29 8  234 234 
 NOR  HZ I        1752 50.88        43.7 0.32            108            234 234 
 SML  HN ES       1752 45.99                             118   -0.86 8  243 336 
 CHI  HZ EP       1752 19.52                             117    0.16 8  248 195 
 CHI  HN ES       1752 48.96                             117    0.20 8  248 195 
 CHI  HZ I        1752 54.63        15.8 0.24            107            248 195 
 HEL  HZ EP       1752 22.86                             115    1.06 8  271 256 
 HEL  HZ I        1753  1.08        27.3 0.46            106            271 256 
 PRA  HZ EP   1   1752 34.63                             107   -0.51 4  391 209 
 PRA  HZ I        1753 24.06        22.3 0.26            100            391 209 
                                                                                
