 2010 1213 1409 19.0 L   6.778 -73.071141.8  RSN 10 0.4 2.4LRSN                1
 GAP=167        0.65       5.1     7.6  7.2 -0.1910E+02  0.2342E+02 -0.3343E+01E
 Epicentro: LOS SANTOS - SANTANDER                                             3
 ACTION:UP  11-01-14 15:24 OP:pat  STATUS:               ID:20101213140919 L   I
 2010-12-13-1404-16S.COL___137                                                 6
 STAT SP IPHASW D HRMM SECON CODA AMPLIT PERI AZIMU VELO SNR AR TRES W  DIS CAZ7
 BAR2 SZ IP       14 9 38.13                             170     0.010   24 211 
 BAR2 SZ ES   2   14 9 52.77                             170    -0.4 5   24 211 
 RUS  HZ EP   1   14 9 42.10                             144    -0.1 7   98 181 
 RUS  HZ I        14 9 42.85        24.1 0.20                            98 181 
 RUS  HE ES   2   1410  0.72                             144     0.5 5   98 181 
 GRA  SZ EP   1   14 9 44.03                             136     0.1 7  126  14 
 NOR  SZ EP   1   14 9 54.66                             117    -0.4 6  240 236 
 NOR  SN ES   2   1410 23.02                             117    -0.2 4  240 236 
 CHI  HZ EP   1   14 9 56.37                             116    -0.1 6  249 197 
 CHI  HE ES   2   1410 25.35                             116    -0.4 4  249 197 
 CHI  HZ I        1410 29.79         9.5 0.79                           249 197 
 ROSC BZ EP   1   14 9 57.85                             115     0.7 6  255 213 
 ROSC BE ES   2   1410 27.09                             115     0.2 4  255 213 
 ROSC BZ I        1410 33.01        25.7 0.44                           255 213 
 HEL  HZ EP   1   14 9 59.56                             113    -0.3 6  280 257 
 HEL  HZ I        1410 36.95        23.3 0.40                           280 257 
 RREF HZ EP   1   1410  6.37                             110     0.9 5  327 231 
 RREF HN ES   2   1410 42.05                             110     0.2 3  327 231 
 RREF HZ I        1410 47.58        16.0 0.25                           327 231 
 PRA  HZ EP   1   1410 12.61                             106     0.0 4  394 211 
 PRA  HN ES   2   1410 54.40                             106     0.0 3  394 211 
 SJA  SZ EP   1   1410 12.55                             105    -0.8 4  400 194 
                                                                                
