 2014  913 1416 47.3 L   6.795 -73.114147.2  RSN 13 0.4 2.1LRSN                1
 GAP=141        0.95       3.4     4.3  5.4 -0.1925E+01  0.3978E+01  0.2497E+01E
 Epicentro: LOS SANTOS - SANTANDER                                             3
 ACTION:UPD 14-10-03 23:04 OP:nd   STATUS:               ID:20140913141647 L   I
 OLDACT:REG 14-09-13 20:20 OP:spq  STATUS:               ID:20140913140820     3
 2014-09-13-1408-20M.COL___296                                                 6
 STAT SP IPHASW D HRMM SECON CODA AMPLIT PERI AZIMU VELO AIN AR TRES W  DIS CAZ7
 BAR2 SZ IP     C 1417  6.94                             170   -0.1410 23.7 199 
 BAR2 SZ ES   1   1417 22.30                             170   -0.23 7 23.7 199 
 BAR2 SZ I        1417 23.76        31.4 0.25            168           23.7 199 
 BRR  HZ EP       1417  9.04                             152    0.2810 74.6 298 
 BRR  HN ES       1417 26.20                             152    0.6710 74.6 298 
 BRR  HZ I        1417 31.01        15.0 0.19            149           74.6 298 
 PAM  SZ EP       1417  9.73                             152    0.2010 75.6  37 
 PAM  SE ES   1   1417 26.91                             152    0.01 7 75.6  37 
 PAM  SZ I        1417 29.08        18.0 0.20            156           75.6  37 
 RUS  HZ EP   1   1417 10.73                             144   -0.38 7 99.8 178 
 RUS  HN ES   1   1417 29.42                             144   -0.28 7 99.8 178 
 RUS  HZ I        1417 30.75         7.6 0.44            147           99.8 178 
 PTB  HZ EP       1417 14.00                             132   -0.66 9  151 259 
 PTB  HE ES       1417 35.33                             132   -0.69 9  151 259 
 PTB  HZ I        1417 40.88        14.2 0.17            131            151 259 
 SPBC HZ EP       1417 15.91                             129   -0.14 9  165 220 
 SPBC HE ES       1417 38.79                             129    0.29 9  165 220 
 SPBC HZ I        1417 43.01        19.3 0.40            130            165 220 
 ZAR  HZ EP       1417 20.10                             122   -0.06 8  208 292 
 ZAR  HE ES   1   1417 45.34                             122   -0.49 6  208 292 
 ZAR  HZ I        1417 55.61        11.4 0.50            123            208 292 
 NOR  HZ EP       1417 22.92                             118   -0.43 8  237 235 
 NOR  HE ES       1417 51.93                             118    0.43 8  237 235 
 NOR  HZ I        1417 54.77         8.0 0.24            120            237 235 
 SML  HZ EP   1   1417 23.82                             118   -0.37 6  246 335 
 SML  HE ES   1   1417 53.19                             118    0.20 6  246 335 
 SML  HZ I        1417 55.54        18.1 0.10            119            246 335 
 CHI  HZ EP   1   1417 24.62                             117   -0.47 6  249 196 
 CHI  HN ES   1   1417 54.93                             117    0.34 6  249 196 
 CHI  HZ I        1417 57.26         6.5 0.32            120            249 196 
 GUY2CHZ EP       1417 31.96                             112    0.73 7  304 235 
 GUY2CHN ES   4   1418 10.22                             112    4.69 0  304 235 
 GUY2CHZ I        1418 13.82         8.8 0.74                           304 235 
 TOL  SZ EP       1417 36.67                             109    0.85 6  346 225 
 TOL  SN ES   4   1418 15.79                             109    2.10 0  346 225 
 TOL  SZ I        1418 18.07        12.7 0.22            111            346 225 
 PRA  HZ EP       1417 41.42                             107    0.44 6  393 210 
 PRA  HE ES   4   1418 25.72                             107    2.83 0  393 210 
 PRA  HZ I        1418 27.61         4.7 0.50            108            393 210 
                                                                                
