 2010  813 1252 54.9 L   6.808 -73.074142.6  RSN 11 0.3 2.2LRSN                1
 GAP=167        0.51       2.3     4.1  4.1 -0.3746E+01 -0.3568E+00  0.1793E+01E
 Epicentro: LOS SANTOS - SANTANDER                                             3
 ACTION:UP  10-09-07 10:54 OP:vdl  STATUS:               ID:20100813125254 L   I
 2010-08-13-1250-11S.COL___126                                                 6
 STAT SP IPHASW D HRMM SECON CODA AMPLIT PERI AZIMU VELO SNR AR TRES W  DIS CAZ7
 BAR2 SZ EP       1253 14.18                             169     0.010   27 207 
 BAR2 SZ ES   1   1253 29.04                             169    -0.2 7   27 207 
 BAR2 SZ I        1253 32.76        26.0 0.54                            27 207 
 GIR2 SZ EP   1   1253 14.30                             166     0.1 7   33 336 
 BRR  HZ EP       1253 15.96                             150    -0.110   78 295 
 BRR  HN ES   1   1253 32.96                             150     0.3 7   78 295 
 BRR  HZ I        1253 36.18        43.3 0.14                            78 295 
 RUS  HZ EP       1253 18.23                             143    -0.110  101 181 
 RUS  HZ I        1253 19.53        16.9 0.16                           101 181 
 RUS  HE ES   2   1253 36.87                             143     0.2 5  101 181 
 GUE  SZ EP       1253 19.05                             139    -0.110  114   8 
 GRA  SZ EP       1253 19.85                             137     0.310  123  14 
 GRA  SZ ES   1   1253 38.73                             137    -0.1 7  123  14 
 GRA  SZ I        1253 41.78        20.6 0.35                           123  14 
 CHI  HZ EP   1   1253 32.76                             116     0.0 6  252 197 
 CHI  HE ES   1   1254  2.55                             116     0.3 6  252 197 
 CHI  HZ I        1254  7.17         6.8 0.30                           252 197 
 HEL  HZ EP   2   1253 35.54                             113    -0.3 4  280 256 
 HEL  HN ES   2   1254  7.22                             113    -0.5 4  280 256 
 HEL  HZ I        1254 13.60        11.1 0.56                           280 256 
 GUY  SN ES   2   1254 13.65                             111     0.0 4  308 236 
 RREF HZ EP   2   1253 42.61                             110     1.0 3  328 230 
 PRA  HZ EP   1   1253 48.66                             106    -0.2 4  397 211 
 PRA  HE ES   2   1254 30.71                             106    -0.2 3  397 211 
 PRA  HZ I        1254 36.98         9.0 0.35                           397 211 
                                                                                
