 2012  913 1917 17.7 L   6.762 -73.175151.3  RSN  6 0.4 1.8LRSN                1
 GAP=177        0.75       6.2     5.8  7.0  0.1528E+02  0.9140E+01  0.5330E+01E
 Epicentro: LOS SANTOS - SANTANDER                                             3
 ACTION:UPD 12-10-22 14:18 OP:ep   STATUS:               ID:20120913191717 L   I
 2012-09-13-1910-00M.COL___227                                                 6
 STAT SP IPHASW D HRMM SECON CODA AMPLIT PERI AZIMU VELO AIN AR TRES W  DIS CAZ7
 BAR2 SZ EP   1   1917 38.04                             173    0.17 7 18.8 182 
 BAR2 SZ ES   1   1917 53.40                             173   -0.24 7 18.8 182 
 BAR2 SZ I        1917 54.48        19.4 0.19                          18.8 182 
 GIR2 SZ EP   1   1917 37.40                             166   -0.69 7 35.1 357 
 GIR2 SZ ES   1   1917 54.11                             166    0.08 7 35.1 357 
 BRR  HZ EP   1   1917 39.66                             154    0.29 7 70.5 303 
 BRR  HZ I        1917 40.06        10.1 0.14                          70.5 303 
 BRR  HE ES   1   1917 56.59                             154    0.28 7 70.5 303 
 RUS  HZ EP   1   1917 42.32                             146    0.64 7 96.7 174 
 RUS  HN ES   1   1918  0.33                             146   -0.10 7 96.7 174 
 RUS  HZ I        1918  1.79         5.1 0.18                          96.7 174 
 PTB  HZ EP   1   1917 44.20                             134   -0.53 7  144 260 
 PTB  HN ES   1   1918  5.74                             134   -0.11 7  144 260 
 PTB  HN I        1918 11.29        13.6 0.24                           144 260 
 ZAR  HN ES   1   1918 16.01                             124    0.19 6  203 294 
 ZAR  HZ I        1918 21.92         4.4 0.17                           203 294 
                                                                                
