 2017 1213 1612  8.2 L   6.851 -73.132152.8  RSN 19 0.6 2.8LRSN                1
 GAP= 66        1.33       2.9     3.5  6.4 -0.7112E+00  0.5833E+01  0.1258E+01E
 Epicentro: LOS SANTOS - SANTANDER                                             3
 ACTION:UPD 18-01-04 13:20 OP:rebc STATUS:               ID:20171213161208 L   I
 OLDACT:DUP 17-12-13 23:49 OP:osc  STATUS:               ID:20171213155722d    3
 2017-12-13-1608-00M.COL___455                                                 6
 STAT SP IPHASW D HRMM SECON CODA AMPLIT PERI AZIMU VELO AIN AR TRES W  DIS CAZ7
 BAR2 EZ IP     C 1612 28.73                             169   -0.1110 29.1 191 
 BAR2 EZ ES       1612 44.66                             169   -0.2510 29.1 191 
 BAR2 EZ I        1612 47.83       108.6 0.46            169           29.1 191 
 PAM  EZ EP       1612 31.31                             154    0.4010 72.1  41 
 PAM  EN ES       1612 48.60                             154    0.0010 72.1  41 
 PAM  EZ I        1612 49.22        71.3 0.20            148           72.1  41 
 PTB  HZ EP       1612 35.29                             133   -0.74 9  150 257 
 PTB  HE ES       1612 57.41                             133   -0.29 9  150 257 
 PTB  HZ I        1613  0.08        58.5 0.14            130            150 257 
 OCA  HZ EP       1612 37.13                             132    0.51 9  155 352 
 OCA  HN ES       1612 58.74                             132   -0.01 9  155 352 
 OCA  HZ I        1613  3.24       134.0 0.20            127            155 352 
 TAM  HZ IP     D 1612 36.77                             132    0.28 9  155 107 
 TAM  HN ES       1612 58.50                             132   -0.02 9  155 107 
 TAM  HZ I        1613  6.31        29.2 0.30            127            155 107 
 SPBC HZ EP       1612 37.55                             130   -0.23 9  169 218 
 SPBC HE ES       1613  1.14                             130    0.31 9  169 218 
 SPBC HZ I        1613  5.76       106.5 0.34            127            169 218 
 YPLC HZ IP     C 1612 38.98                             127    0.02 9  181 153 
 YPLC HN ES       1613  2.62                             127   -0.30 9  181 153 
 YPLC HZ I        1613  3.94        65.4 0.24            123            181 153 
 ZAR  HZ EP       1612 41.28                             124    0.19 9  203 291 
 ZAR  HE ES       1613  6.97                             124    0.25 9  203 291 
 ZAR  HZ I        1613 12.75       122.7 0.26            121            203 291 
 ROSC BZ EP       1612 48.75                             117    1.39 8  258 211 
 ROSC BN ES       1613 18.58                             117    0.71 8  258 211 
 URE  HZ EP       1612 48.77                             115   -0.82 7  283 291 
 URE  HE ES       1613 20.08                             115   -1.77 7  283 291 
 URE  HZ I        1613 23.64        69.5 0.14            112            283 291 
 DRL03HZ EP       1612 50.01                             115    0.41 7  284 352 
 DRL03HN ES       1613 22.82                             115    0.96 7  284 352 
 GUY2CHZ EP       1612 52.96                             113    0.27 7  306 234 
 GUY2CHE ES       1613 27.87                             113    0.52 7  306 234 
 GUY2CHZ I        1613 35.72        32.9 0.58                           306 234 
 PTGC HZ EP       1612 51.63                             112   -1.31 7  313 159 
 PTGC HN ES   4   1613 25.19                             112   -2.62 0  313 159 
 PTGC HZ I        1613 28.46        23.9 0.18            109            313 159 
 DRL02HZ EP       1612 53.01                             112   -0.61 7  319 357 
 DRL02HN ES       1613 28.43                             112   -0.59 7  319 357 
 CBOC HZ EP       1612 56.83                             111    1.01 7  337 251 
 CBOC HN ES       1613 33.87                             111    0.94 7  337 251 
 CBOC HZ I        1613 50.20        12.6 0.64            108            337 251 
 PRA  HZ EP       1613  2.25                             107   -0.41 6  398 209 
 PRA  HE ES       1613 44.44                             107   -0.68 6  398 209 
 PRA  HZ I        1613 49.73        17.4 0.30            105            398 209 
 ORTC HZ EP       1613  2.90                             107   -0.14 6  401 216 
 ORTC HN ES       1613 45.45                             107   -0.33 6  401 216 
 ORTC HZ I        1613 52.96        15.3 0.38            104            401 216 
 SJC  HZ EP   4   1613  2.37                             107   -1.22 0  405 326 
 SJC  HN ES   4   1613 43.73                             107   -3.04 0  405 326 
 SJC  HZ I        1613 46.76        11.3 0.18            104            405 326 
 YOT  HZ EP       1613 11.67                             104   -0.39 5  477 228 
                                                                                
