 2013 1013 1023 29.8 L   6.852 -73.089142.3  RSN  7 0.3 1.6LRSN                1
 GAP=206        0.70       3.3     4.5  4.6  0.4884E+01  0.4738E+01 -0.2525E+00E
 Epicentro: LOS SANTOS - SANTANDER                                             3
 ACTION:UPD 13-11-25 09:21 OP:ep   STATUS:               ID:20131013102329 L   I
 OLDACT:REG 13-10-13 14:46 OP:nd   STATUS:               ID:20131013101959     3
 2013-10-13-1019-59M.COL___273                                                 6
 STAT SP IPHASW D HRMM SECON CODA AMPLIT PERI AZIMU VELO AIN AR TRES W  DIS CAZ7
 BAR2 SZ EP       1023 49.23                             167    0.1010 30.6 200 
 BAR2 SZ ES       1024  4.10                             167   -0.1510 30.6 200 
 BAR2 SZ I        1024  5.65         9.4 0.38            165           30.6 200 
 BRR  HZ EP       1023 51.15                             151    0.4410 74.4 292 
 BRR  HN ES       1024  7.31                             151    0.2510 74.4 292 
 BRR  HZ I        1024  9.53         5.1 0.40            147           74.4 292 
 RUS  HZ EP       1023 53.57                             142   -0.0010  106 180 
 RUS  HN ES       1024 12.12                             142   -0.0410  106 180 
 RUS  HZ I        1024 13.64         3.5 0.22            143            106 180 
 SPBC HZ EP       1023 58.26                             127   -0.54 9  172 219 
 SPBC HN ES   2   1024 21.08                             127   -0.38 4  172 219 
 SPBC HZ I        1024 25.31         6.2 0.22            127            172 219 
 ZAR  HZ EP   2   1024  2.52                             121    0.15 4  208 290 
 ZAR  HN ES       1024 27.30                             121   -0.50 8  208 290 
 ZAR  HZ I        1024 34.74         3.1 0.32            121            208 290 
 SML  HZ EP       1024  5.84                             117   -0.07 8  241 333 
 SML  HN ES   2   1024 33.93                             117   -0.19 4  241 333 
 SML  HZ I        1024 38.14         6.2 0.10            117            241 333 
 GUY2CHZ EP       1024 14.32                             111    0.16 7  310 235 
 GUY2CHN ES       1024 49.31                             111    0.51 7  310 235 
 GUY2CHZ I        1024 54.66         1.9 0.28                           310 235 
                                                                                
