 2016  513 1936 35.4 L   6.780 -73.122147.8  RSN  5 0.5 1.7LRSN                1
 GAP=239        1.04       6.2     7.8  7.7  0.2445E+02  0.1361E+02  0.2767E+01E
 Epicentro: LOS SANTOS - SANTANDER                                             3
 ACTION:UPD 16-08-18 17:45 OP:cam  STATUS:               ID:20160513193635 L   I
 OLDACT:UP  16-05-14 01:38 OP:ak   STATUS:               ID:20160513192440     3
 OLDACT:REG 16-05-14 01:34 OP:ak   STATUS:               ID:20160513192440     3
 2016-05-13-1936-00M.COL___451                                                 6
 STAT SP IPHASW D HRMM SECON CODA AMPLIT PERI AZIMU VELO AIN AR TRES W  DIS CAZ7
 BAR2 EZ EP       1936 55.24                             171    0.0310 21.9 198 
 BAR2 EZ ES       1937 10.54                             171   -0.1510 21.9 198 
 BAR2 EZ I        1937 11.52        12.4 0.24            163           21.9 198 
 BRR  HZ EP   2   1936 56.01                             152   -0.92 5 74.6 299 
 BRR  HN ES       1937 14.31                             152    0.5710 74.6 299 
 RUS  HZ EP       1936 58.93                             145   -0.2210 98.3 178 
 RUS  HN ES       1937 17.55                             145   -0.1610 98.3 178 
 RUS  HZ I        1937 20.76         3.8 0.16            142           98.3 178 
 SPBC HZ EP       1937  4.26                             129    0.24 9  163 220 
 SPBC HN ES       1937 26.44                             129    0.06 9  163 220 
 SPBC HZ I        1937 32.67        10.5 0.10            126            163 220 
 ZAR  HZ EP       1937  8.98                             122    0.70 8  207 292 
 ZAR  HN ES       1937 33.15                             122   -0.80 8  207 292 
 ZAR  HZ I        1937 38.12         5.3 0.37            121            207 292 
                                                                                
