 2017 1113 1245 35.1 L   6.779 -73.174132.7  RSN  4 0.1 1.2LRSN                1
 GAP=134        0.34       2.8     1.6  4.9 -0.4676E+00  0.1670E+01  0.6667E+01E
 Epicentro: LOS SANTOS - SANTANDER                                             3
 ACTION:UPD 17-12-12 19:55 OP:rebc STATUS:               ID:20171113124535 L   I
 OLDACT:REG 17-11-13 20:20 OP:lv   STATUS:               ID:20171113123739     3
 2017-11-13-1238-00M.COL___456                                                 6
 STAT SP IPHASW D HRMM SECON CODA AMPLIT PERI AZIMU VELO AIN AR TRES W  DIS CAZ7
 PAM  EZ EP       1245 56.12                             147   -0.1110 81.2  40 
 PAM  EN ES       1246 12.72                             147    0.0410 81.2  40 
 PAM  EZ I        1246 14.57         3.0 0.26             47           81.2  40 
 RUS  HZ EP       1245 57.53                             141    0.0610 98.5 174 
 RUS  HZ I        1246 17.39         2.5 0.52             47           98.5 174 
 PTB  HZ EP       1246  0.76                             130    0.02 9  144 260 
 PTB  HN ES       1246 20.62                             130   -0.08 9  144 260 
 ZAR  HN ES       1246 31.13                             120    0.07 9  202 293 
                                                                                
