 2015  613 1326 57.7 L   6.809 -73.130139.3  RSN 18 0.6 2.4LRSN                1
 GAP=185        1.20       3.0     5.2  5.9 -0.2355E+01  0.9782E+01  0.2386E+01E
 Epicentro: LOS SANTOS - SANTANDER                                             3
 ACTION:UPD 15-09-10 22:12 OP:cam  STATUS:               ID:20150613132657 L   I
 OLDACT:REG 15-06-13 21:25 OP:ak   STATUS:               ID:20150613131748     3
 2015-06-13-1317-48M.COL___315                                                 6
 STAT SP IPHASW D HRMM SECON CODA AMPLIT PERI AZIMU VELO AIN AR TRES W  DIS CAZ7
 BAR2 EZ IP     C 1327 16.58                             169   -0.0410 24.7 194 
 BAR2 EZ ES       1327 31.00                             169   -0.3510 24.7 194 
 BAR2 EZ I        1327 32.98        67.6 0.22            168           24.7 194 
 BRR  HZ EP       1327 18.39                             151    0.1410 72.3 297 
 BRR  HN ES       1327 34.75                             151    0.4910 72.3 297 
 BRR  HZ I        1327 36.38        34.9 0.14            149           72.3 297 
 RUS  HZ EP       1327 20.78                             142   -0.1410  101 177 
 RUS  HN ES       1327 39.46                             142    0.4510  101 177 
 RUS  HZ I        1327 40.55        24.3 0.28            144            101 177 
 OCA  HZ EP       1327 26.35                             128    0.87 9  160 352 
 OCA  HN ES       1327 46.60                             128   -0.52 9  160 352 
 OCA  HZ I        1327 51.11        59.0 0.22            130            160 352 
 SPBC HZ EP       1327 25.56                             127   -0.37 9  165 219 
 SPBC HN ES       1327 47.54                             127   -0.38 9  165 219 
 SPBC HZ I        1327 53.91        23.7 0.17            128            165 219 
 ZAR  HZ EP       1327 30.81                             121    0.91 8  205 292 
 ZAR  HN ES       1327 54.79                             121   -0.19 8  205 292 
 ZAR  HZ I        1328  0.19        18.6 0.17            122            205 292 
 NOR  HZ EP       1327 33.02                             117   -0.29 8  237 235 
 NOR  HN ES       1328  0.56                             117   -0.50 8  237 235 
 NOR  HZ I        1328  5.70        25.2 0.16            118            237 235 
 SML  HZ EP   1   1327 33.11                             116   -0.88 6  244 335 
 SML  HN ES       1328  1.34                             116   -0.93 8  244 335 
 SML  HZ I        1328  7.48        19.3 0.08            118            244 335 
 ROSC BZ EP       1327 36.35                             115    0.65 8  255 211 
 ROSC BE ES   4   1328  7.46                             115    2.14 0  255 211 
 ROSC BZ I        1328 13.15        21.7 0.35            117            255 211 
 HEL  HZ EP       1327 38.66                             113    0.82 8  274 256 
 HEL  HN ES       1328  9.23                             113    0.10 8  274 256 
 HEL  HZ I        1328 17.36         7.8 0.22            114            274 256 
 URE  HZ EP   4   1327 36.88                             112   -1.76 0  285 292 
 URE  HN ES   4   1328  7.82                             112   -2.72 0  285 292 
 URE  HZ I        1328 10.05        13.2 0.12            113            285 292 
 GUY2CHZ EP       1327 42.21                             111    0.93 7  303 235 
 GUY2CHN ES       1328 15.93                             111    0.69 7  303 235 
 GUY2CHZ I        1328 23.24         9.0 0.36                           303 235 
 RREF HZ EP       1327 43.41                             109   -0.42 7  324 229 
 RREF HN ES       1328 19.29                             109   -0.49 7  324 229 
 RREF HZ I        1328 30.79         4.8 0.30            111            324 229 
 TOL  SZ EP       1327 46.32                             108    0.36 6  345 225 
 TOL  SN ES       1328 23.52                             108   -0.06 6  345 225 
 TOL  SZ I        1328 30.91        10.3 0.54            109            345 225 
 ANIL HZ EP       1327 47.24                             107   -0.28 6  359 225 
 ANIL HN ES       1328 27.09                             107    0.74 6  359 225 
 ANIL HZ I        1328 31.24        24.3 0.38            109            359 225 
 PRA  HZ EP       1327 50.54                             105   -0.70 6  394 210 
 PRA  HN ES       1328 32.33                             105   -0.64 6  394 210 
 PRA  HZ I        1328 39.18        12.0 0.54            107            394 210 
 ORTC HZ EP       1327 50.74                             105   -0.91 6  397 216 
 ORTC HE ES       1328 33.07                             105   -0.64 6  397 216 
 ORTC HZ I        1328 41.04         6.4 0.45            107            397 216 
 SJC  HZ EP   4   1327 51.02                             105   -2.08 0  409 327 
 SJC  HN ES   4   1328 31.41                             105   -4.88 0  409 327 
 SJC  HZ I        1328 35.62         4.1 0.26            106            409 327 
                                                                                
