 2016 1113 1022 44.0 L   6.823 -73.154146.7  RSN 22 0.6 2.8LRSN                1
 GAP= 81        1.31       3.9     3.9  6.5 -0.2533E+01  0.5721E+01  0.6032E+01E
 Epicentro: LOS SANTOS - SANTANDER                                             3
 ACTION:UPD 17-10-26 21:07 OP:lp   STATUS:               ID:20161113102244 L   I
 OLDACT:UP  16-11-13 22:10 OP:dnl  STATUS:               ID:20161113101745     3
 OLDACT:UP  16-11-13 21:50 OP:dnl  STATUS:               ID:20161113101745     3
 OLDACT:REG 16-11-13 20:39 OP:dnl  STATUS:               ID:20161113101745     3
 2016-11-13-1018-00M.COL___340                                                 6
 STAT SP IPHASW D HRMM SECON CODA AMPLIT PERI AZIMU VELO AIN AR TRES W  DIS CAZ7
 BAR2 EZ IP     D 1023  3.62                             170   -0.1710 25.8 187 
 BAR2 EZ ES       1023 18.47                             170   -0.7610 25.8 187 
 BAR2 EZ I        1023 19.67       213.6 0.32            168           25.8 187 
 BRR  HZ IP     C 1023  5.38                             153    0.2510 69.2 297 
 BRR  HN ES       1023 22.60                             153    0.9810 69.2 297 
 BRR  HZ I        1023 23.60        77.0 0.16            152           69.2 297 
 PAM  EZ EP       1023  6.43                             151    0.2010 76.0  41 
 PAM  EE ES       1023 23.62                             151    0.0510 76.0  41 
 PAM  EZ I        1023 25.80        97.3 0.54            151           76.0  41 
 PTB  HZ IP     C 1023  9.97                             132   -1.04 9  147 258 
 PTB  HE ES       1023 31.85                             132   -0.22 9  147 258 
 PTB  HZ I        1023 38.34        93.9 0.64            130            147 258 
 TAM  HZ IP     D 1023 12.07                             130    0.17 9  157 106 
 TAM  HZ I        1023 32.95        41.0 0.38            129            157 106 
 TAM  HN ES       1023 33.63                             130   -0.02 9  157 106 
 ZAR  HZ EP       1023 16.08                             123   -0.24 9  202 292 
 ZAR  HE ES       1023 41.45                             123   -0.07 9  202 292 
 ZAR  HZ I        1023 46.73        96.5 0.36            121            202 292 
 NOR  HZ EP       1023 19.42                             119   -0.44 8  235 234 
 NOR  HN ES       1023 47.43                             119   -0.41 8  235 234 
 NOR  HZ I        1023 52.28        44.0 0.24            117            235 234 
 CHI  HZ EP       1023 21.72                             117   -0.27 8  251 195 
 CHI  HN ES       1023 50.73                             117   -0.90 8  251 195 
 CHI  HZ I        1023 56.24        52.3 0.36            115            251 195 
 ROSC BZ EP       1023 23.42                             117    1.06 8  255 211 
 ROSC BE ES       1023 53.60                             117    1.32 8  255 211 
 ROSC BZ I        1023 58.29       134.7 0.40            115            255 211 
 URE  HZ EP   4   1023 23.41                             114   -1.50 0  282 291 
 URE  HN ES   4   1023 54.05                             114   -2.77 0  282 291 
 URE  HZ I        1024  8.64        49.8 0.26            112            282 291 
 LL1C HZ EP   4   1023 28.82                             112    1.49 0  304 352 
 LL1C HN ES       1024  1.30                             112    0.17 7  304 352 
 PTGC HZ IP   4 D 1023 26.78                             111   -1.43 0  311 159 
 PTGC HN ES   4   1024  0.30                             111   -2.39 0  311 159 
 PTGC HZ I        1024  2.00        34.9 0.28            110            311 159 
 LL6C HZ EP   4   1023  9.40                             111   -20.0 0  322 358 
 LL6C HN ES   4   1023 41.47                             111   -23.4 0  322 358 
 LL6C HZ I        1023 50.17        15.7 0.40            110            322 358 
 ELA  HZ EP   4   1023 32.15                             110    1.15 0  330 229 
 ELA  HN ES       1024  8.14                             110    0.48 7  330 229 
 ELA  HZ I        1024 15.41        27.9 0.36            109            330 229 
 CBOC HZ EP       1023 31.23                             110    0.29 7  334 252 
 CBOC HN ES   4   1024  6.31                             110   -1.25 0  334 252 
 CBOC HZ I        1024 13.19        12.0 0.34            109            334 252 
 ARGC HZ EP       1023 33.12                             108   -0.25 6  356 340 
 ARGC HE ES   4   1024 12.94                             108    1.06 0  356 340 
 ARGC HZ I        1024 24.01        10.9 0.26            107            356 340 
 ANIL HZ EP       1023 34.70                             108    0.72 6  359 224 
 ANIL HN ES   4   1024 14.19                             108    1.23 0  359 224 
 ORTC HZ EP       1023 37.93                             106   -0.20 6  397 216 
 ORTC HN ES       1024 21.23                             106    0.88 6  397 216 
 ORTC HZ I        1024 24.98        26.6 0.24            105            397 216 
 PAL  HZ EP       1023 38.95                             106   -0.30 6  406 239 
 PAL  HN ES       1024 21.51                             106   -0.84 6  406 239 
 PAL  HZ I        1024 27.58        10.9 0.72            105            406 239 
 SJC  HZ EP   4   1023 37.24                             106   -2.04 0  407 327 
 SJC  HN ES   4   1024 18.80                             106   -3.59 0  407 327 
 SJC  HZ I        1024 28.66         9.2 0.28            105            407 327 
 CRJC HZ EP   4   1023 43.95                             103   -2.27 0  465   4 
 CRJC HE ES   4   1024 31.64                             103   -3.12 0  465   4 
 CRJC HZ I        1024 36.10        18.8 0.58            103            465   4 
 URI  HZ EP   4   1023 54.18                             101   -2.57 0  554  13 
 URI  HE ES   4   1024 48.61                             101   -4.88 0  554  13 
 URI  HZ I        1024 59.12         2.6 0.30            100            554  13 
                                                                                
