 2016  113 1648 47.0 L   7.479 -73.157137.4  RSN 16 0.5 2.6LRSN                1
 GAP= 82        1.13       3.2     4.1  6.4 -0.8729E+00  0.7331E+01  0.4632E+01E
 Epicentro: EL PLAYON - SANTANDER                                              3
 ACTION:UPD 16-03-09 23:25 OP:cam  STATUS:               ID:20160113164847 L   I
 OLDACT:UP  16-01-14 01:52 OP:mh   STATUS:               ID:20160113164747     3
 OLDACT:UP  16-01-14 01:52 OP:mh   STATUS:               ID:20160113164747     3
 OLDACT:UP  16-01-14 01:50 OP:mh   STATUS:               ID:20160113164747     3
 OLDACT:REG 16-01-13 23:12 OP:mh   STATUS:               ID:20160113164747     3
 2016-01-13-1647-47M.COL___337                                                 6
 STAT SP IPHASW D HRMM SECON CODA AMPLIT PERI AZIMU VELO AIN AR TRES W  DIS CAZ7
 PAM  EZ IP     D 1649  7.34                             158    0.3610 52.8 107 
 PAM  EN ES       1649 22.85                             158    0.2710 52.8 107 
 PAM  EZ I        1649 23.85       109.5 0.28            162           52.8 107 
 BRR  HZ EP       1649  7.50                             150    0.1110 73.7 236 
 BRR  HZ I        1649 24.52        95.2 0.12            145           73.7 236 
 OCA  HZ EP       1649  8.47                             146    0.0710 85.9 348 
 OCA  HN ES       1649 26.02                             146    0.9210 85.9 348 
 OCA  HZ I        1649 33.15        81.9 0.28            139           85.9 348 
 BAR2 EZ EP     C 1649  9.16                             143   -0.2210 98.1 182 
 BAR2 EZ ES       1649 25.92                             143   -0.9210 98.1 182 
 BAR2 EZ I        1649 27.55        69.8 0.44            142           98.1 182 
 PTB  HZ EP   1   1649 15.49                             125   -0.65 7  177 234 
 PTB  HN ES       1649 38.27                             125   -0.61 9  177 234 
 PTB  HZ I        1649 41.01        58.9 0.38            120            177 234 
 SML  HZ EP   1   1649 15.78                             124   -0.38 7  178 326 
 SML  HN ES       1649 38.15                             124   -0.76 9  178 326 
 SML  HZ I        1649 49.19        74.1 0.10            119            178 326 
 ZAR  HZ IP     C 1649 17.28                             123    0.07 9  188 271 
 ZAR  HN ES       1649 41.38                             123    0.61 9  188 271 
 ZAR  HZ I        1649 44.41        43.6 0.12            118            188 271 
 SPBC HZ EP       1649 21.53                             118    0.19 8  226 207 
 SPBC HN ES       1649 48.07                             118   -0.06 8  226 207 
 SOCV BZ EP       1649 25.67                             113   -0.33 8  269  71 
 SOCV BN ES   4   1649 54.69                             113   -1.74 0  269  71 
 NOR  HZ EP       1649 27.78                             112    0.04 7  284 222 
 NOR  HN ES   1   1649 59.92                             112    0.39 6  284 222 
 NOR  HZ I        1650  5.43        32.8 0.20            109            284 222 
 HEL  HZ EP       1649 29.94                             111    0.18 7  298 242 
 HEL  HN ES       1650  2.49                             111   -0.63 7  298 242 
 HEL  HZ I        1650 11.53        16.1 0.26            108            298 242 
 SDV  BZ EP   4   1649 29.41                             109   -2.48 0  319  61 
 SDV  BN ES   4   1650  4.71                             109   -2.19 0  319  61 
 SDV  BZ I        1650  8.10        14.4 0.35            107            319  61 
 CHI  HZ EP       1649 32.51                             109    0.05 7  321 191 
 CHI  HN ES       1650  8.50                             109    0.57 7  321 191 
 CHI  HZ I        1650 18.05         7.7 0.54            107            321 191 
 DBB  SZ EP   1   1649 33.89                             108   -0.42 5  341 262 
 DBB  SZ I        1650 11.62        33.4 0.39            105            341 262 
 GUY2CHZ EP   4   1649 38.03                             107    2.29 0  349 225 
 GUY2CHN ES   4   1650 16.07                             107    2.31 0  349 225 
 GUY2CHZ I        1650 22.50         8.8 0.36                           349 225 
 ANIL HE ES   4   1650 32.81                             104    5.98 0  413 217 
 PRA  HZ EP       1649 49.05                             102    0.97 5  458 205 
 PRA  HN ES       1650 36.61                             102    0.88 5  458 205 
 PRA  HZ I        1650 45.07        12.6 0.38            100            458 205 
                                                                                
