 2017  813 1712 28.1 L   6.796 -73.110145.0  RSN 21 0.6 2.5LRSN                1
 GAP=100        1.09       3.1     3.1  5.2  0.2650E+00  0.4968E+01  0.3687E+01E
 Epicentro: LOS SANTOS - SANTANDER                                             3
 ACTION:UPD 17-09-04 20:20 OP:rebc STATUS:               ID:20170813171228 L   I
 OLDACT:UP  17-08-14 03:37 OP:osc  STATUS:               ID:20170813170747     3
 OLDACT:REG 17-08-14 02:42 OP:osc  STATUS:               ID:20170813170747     3
 2017-08-13-1708-00M.COL___410                                                 6
 STAT SP IPHASW D HRMM SECON CODA AMPLIT PERI AZIMU VELO AIN AR TRES W  DIS CAZ7
 BAR2 EZ EP       1712 47.43                             170   -0.2410 24.0 200 
 BAR2 EZ ES       1713  2.60                             170   -0.3110 24.0 200 
 BAR2 EZ I        1713  3.98        89.2 0.20            167           24.0 200 
 BRR  HZ IP     C 1712 49.14                             151   -0.2610 74.9 297 
 BRR  HE ES       1713  6.51                             151    0.5210 74.9 297 
 BRR  HZ I        1713 10.27        48.7 0.16            151           74.9 297 
 PAM  EZ EP       1712 50.24                             151    0.1210 75.2  37 
 PAM  EN ES       1713  7.56                             151    0.2710 75.2  37 
 PAM  EZ I        1713  9.82        39.4 0.56            155           75.2  37 
 RUS  HZ EP       1712 51.67                             144   -0.0810  100 178 
 RUS  HN ES       1713 10.24                             144    0.0610  100 178 
 RUS  HZ I        1713 11.43        43.0 0.30            143            100 178 
 TAM  HZ IP     C 1712 55.73                             131    0.36 9  151 105 
 TAM  HE ES       1713 15.90                             131   -0.73 9  151 105 
 SPBC HZ EP       1712 56.42                             128   -0.35 9  165 220 
 SPBC HE ES       1713 19.19                             128    0.07 9  165 220 
 SPBC HZ I        1713 20.86        38.2 0.22            127            165 220 
 YPLC HZ EP       1712 58.21                             127    0.57 9  175 152 
 YPLC HN ES       1713 21.03                             127    0.37 9  175 152 
 YPLC HZ I        1713 22.67        36.6 0.30            127            175 152 
 ZAR  HZ EP       1713  1.24                             122    0.33 8  208 292 
 ZAR  HE ES       1713 25.66                             122   -0.82 8  208 292 
 ZAR  HZ I        1713 30.59        28.4 0.30            122            208 292 
 TABC EZ EP       1713  4.26                             119    0.25 8  232 212 
 TABC EZ ES       1713 32.18                             119    0.19 8  232 212 
 TABC EZ I        1713 38.87        36.4 0.40            118            232 212 
 NOR  HZ EP       1713  3.55                             118   -0.58 8  238 235 
 NOR  HE ES       1713 31.89                             118   -0.32 8  238 235 
 NOR  HZ I        1713 37.03        13.1 0.19            118            238 235 
 CHI  HZ EP       1713  5.65                             117   -0.20 8  249 196 
 CHI  HE ES       1713 35.38                             117    0.10 8  249 196 
 CHI  HZ I        1713 44.96        14.6 0.44            117            249 196 
 ROSC BZ EP   4   1713  7.45                             116    1.06 0  254 212 
 ROSC BN ES   4   1713 39.30                             116    3.07 0  254 212 
 ROSC BZ I        1713 42.02        35.3 0.45            116            254 212 
 HEL  HZ EP       1713  8.01                             114   -0.70 7  276 256 
 HEL  HN ES   4   1713 38.18                             114   -2.19 0  276 256 
 HEL  HZ I        1713 46.20        10.5 0.38            114            276 256 
 URE  HN ES   2   1713 44.44                             113    2.52 4  288 292 
 GUY2CHZ EP       1713 12.74                             112    0.71 7  304 235 
 GUY2CHE ES   4   1713 49.80                             112    3.51 0  304 235 
 GUY2CHZ I        1713 53.58        16.2 0.32                           304 235 
 PTGC HZ EP   9   1713 10.52                             111   -1.22 0  307 159 
 PTGC HE ES       1713 43.76                             112   -0.78 7  307 159 
 PTGC HZ I        1713 56.83        14.7 0.44            112            307 159 
 ELA  HE ES   2   1713 54.33                             110    2.31 3  332 230 
 DBB  EZ EP       1713 15.72                             109   -0.30 7  343 274 
 DBB  EE ES   4   1713 50.71                             109   -2.68 0  343 274 
 DBB  EZ I        1713 52.57         7.1 0.18            109            343 274 
 ANIL HZ EP   4   1713 19.48                             108    1.30 0  360 225 
 ANIL HE ES   4   1713 59.70                             108    2.47 0  360 225 
 PRA  HZ EP       1713 21.65                             106   -0.15 6  394 210 
 PRA  HE ES       1714  3.25                             106   -0.43 6  394 210 
 PRA  HZ I        1714  9.56        22.2 0.36            106            394 210 
 ORTC HZ EP       1713 22.65                             106    0.40 6  397 217 
 ORTC HE ES       1714  4.64                             106    0.17 6  397 217 
 ORTC HZ I        1714 11.39         9.2 0.50            106            397 217 
 SJC  HZ EP   4   1713 21.51                             105   -2.44 0  412 327 
 SJC  HE ES   4   1714  3.69                             105   -3.81 0  412 327 
 SJC  HZ I        1714 17.55         4.4 0.41            106            412 327 
                                                                                
