 2017  113 1537 25.4 L   6.794 -73.156144.0  RSN  4 0.3 1.0LRSN                1
 GAP=141        0.79       4.8     4.7  6.8 -0.7115E+01  0.9310E+01 -0.3124E+01E
 Epicentro: LOS SANTOS - SANTANDER                                             3
 ACTION:UPD 17-05-22 15:59 OP:jn   STATUS:               ID:20170113153725 L   I
 OLDACT:REG 17-01-13 20:24 OP:dani STATUS:               ID:20170113152749     3
 2017-01-13-1528-00M.COL___323                                                 6
 STAT SP IPHASW D HRMM SECON CODA AMPLIT PERI AZIMU VELO AIN AR TRES W  DIS CAZ7
 BAR2 EZ ES       1537 59.81                             171   -0.0810 22.5 188 
 PAM  EZ EP       1537 47.46                             150    0.0110 78.6  40 
 PAM  EE ES       1538  4.73                             150    0.0410 78.6  40 
 PAM  EZ I        1538  6.11         1.8 0.34            153           78.6  40 
 RUS  HZ EP       1537 48.40                             144   -0.4910100.0 175 
 RUS  HN ES       1538  7.56                             144    0.3210100.0 175 
 RUS  HZ I        1538  8.66         1.6 0.31            146          100.0 175 
 PTB  HZ EP       1537 52.55                             132    0.48 9  147 259 
 PTB  HN ES       1538 12.66                             132   -0.24 9  147 259 
 PTB  HZ I        1538 18.59         1.9 0.36            132            147 259 
                                                                                
