 2012  613 1546  5.5 L   6.791 -73.166147.2  RSN  5 0.2 1.7LRSN                1
 GAP=134        0.49       3.5     3.0  5.3 -0.8999E+00  0.3719E+01 -0.2741E+01E
 Epicentro: LOS SANTOS - SANTANDER                                             3
 ACTION:UPD 12-08-06 17:49 OP:ep   STATUS:               ID:20120613154605 L   I
 2012-06-13-1540-00M.COL___201                                                 6
 STAT SP IPHASW D HRMM SECON CODA AMPLIT PERI AZIMU VELO AIN AR TRES W  DIS CAZ7
 BAR2 SZ EP   1   1546 25.27                             171   -0.02 7 22.0 185 
 BAR2 SZ ES   1   1546 40.84                             171    0.12 7 22.0 185 
 BAR2 SZ I        1546 42.34        12.7 0.36                          22.0 185 
 PAM  SZ EP       1546 28.15                             150    0.1410 79.6  40 
 PAM  SN ES   1   1546 45.31                             150   -0.25 7 79.6  40 
 RUS  HZ EP   1   1546 29.55                             144    0.20 7 99.8 175 
 RUS  HN ES   1   1546 47.92                             144   -0.02 7 99.8 175 
 RUS  HZ I        1546 49.54         4.7 0.48                          99.8 175 
 PTB  HZ EP   1   1546 31.91                             133   -0.48 7  145 259 
 PTB  HN ES   1   1546 53.23                             133   -0.12 7  145 259 
 PTB  HZ I        1546 54.93         4.7 0.21                           145 259 
 ZAR  HE ES   1   1547  3.45                             123    0.32 6  202 293 
 ZAR  HZ I        1547  8.91         6.2 0.46                           202 293 
                                                                                
