 2012  413 1440 19.7 L   6.778 -73.151147.0  RSN  6 0.3 1.8LRSN                1
 GAP=151        0.81       7.4     5.1  8.4 -0.1390E+02  0.1002E+02  0.4372E+01E
 Epicentro: LOS SANTOS - SANTANDER                                             3
 ACTION:UPD 12-07-05 11:53 OP:tino STATUS:               ID:20120413144019 L   I
 2012-04-13-1440-00M.COL___181                                                 6
 STAT SP IPHASW D HRMM SECON CODA AMPLIT PERI AZIMU VELO AIN AR TRES W  DIS CAZ7
 BAR2 SZ EP   1   1440 39.42                             172     0.0 7   21 189 
 BAR2 SZ ES   1   1440 54.82                             172     0.0 7   21 189 
 BAR2 SZ I        1440 55.86        12.7 0.13                            21 189 
 BRR  HZ EP       1440 41.29                             152     0.210   72 300 
 BRR  HZ I        1440 57.88        12.7 0.17                            72 300 
 BRR  HN ES   1   1440 58.09                             152     0.4 7   72 300 
 PAM  SZ EP   1   1440 42.45                             150     0.2 7   80  39 
 PAM  SZ I        1440 42.74         9.3 0.20                            80  39 
 PAM  SE ES   1   1440 59.38                             150    -0.4 7   80  39 
 PTB  HZ EP   1   1440 46.18                             132    -0.5 7  147 260 
 PTB  HN ES   1   1441  7.25                             132    -0.5 7  147 260 
 PTB  HZ I        1441  8.30         5.8 0.16                           147 260 
 ZAR  HE ES   1   1441 17.59                             123    -0.1 6  204 293 
 ZAR  HZ I        1441 22.29         5.8 0.15                           204 293 
 NOR  SE ES   1   1441 23.52                             119     0.4 6  233 235 
                                                                                
