 2017  513 1434 28.7 L   6.744 -73.136146.7  RSN  6 0.4 1.4LRSN                1
 GAP=140        0.94       4.8     4.3  8.2  0.1112E+01  0.6104E+01  0.8477E+01E
 Epicentro: LOS SANTOS - SANTANDER                                             3
 ACTION:UPD 17-06-16 13:35 OP:jn   STATUS:               ID:20170513143428 L   I
 OLDACT:DUP 17-05-13 22:14 OP:lv   STATUS:               ID:20170513142744d    3
 2017-05-13-1428-00M.COL___324                                                 6
 STAT SP IPHASW D HRMM SECON CODA AMPLIT PERI AZIMU VELO AIN AR TRES W  DIS CAZ7
 BRR  HN ES       1435  7.67                             151    0.6910 75.3 302 
 PAM  EZ EP       1434 51.27                             150   -0.0410 81.6  36 
 PAM  EN ES       1435  8.59                             150   -0.3210 81.6  36 
 PAM  EZ I        1435 10.79         4.4 0.42            150           81.6  36 
 RUS  HZ EP       1434 52.29                             146    0.1510 94.3 176 
 RUS  HN ES       1435 10.37                             146   -0.0210 94.3 176 
 PTB  HN ES       1435 16.25                             132   -0.63 9  148 261 
 PTB  HZ I        1435 18.09         3.3 0.40            133            148 261 
 ZAR  HN ES       1435 27.17                             122   -0.06 8  208 294 
 NOR  HZ EP       1435  4.45                             119    0.21 8  232 236 
                                                                                
