 2016  813 1707 24.6 L   6.890 -73.164143.9  RSN  4 0.2 1.6LRSN                1
 GAP=280        0.57       5.8     4.5  5.9 -0.1195E+01  0.1111E+02 -0.6643E+01E
 Epicentro: BETULIA - SANTANDER                                                3
 ACTION:UPD 16-10-29 15:35 OP:rebc STATUS:               ID:20160813170724 L   I
 OLDACT:REG 16-08-13 20:20 OP:lv   STATUS:               ID:20160813165759     3
 2016-08-13-1657-59S.COL___349                                                 6
 STAT SP IPHASW D HRMM SECON CODA AMPLIT PERI AZIMU VELO AIN AR TRES W  DIS CAZ7
 BAR2 EZ EP       17 7 44.58                             166    0.3110 33.0 183 
 BAR2 EZ ES       17 7 59.52                             166   -0.0710 33.0 183 
 BAR2 EZ I        17 8  2.25        12.7 0.22                          33.0 183 
 RUS  HZ EP       17 7 49.01                             140    0.0610  111 175 
 RUS  HE ES       17 8  7.79                             140   -0.1410  111 175 
 RUS  HZ I        17 8  8.44         6.1 0.32                           111 175 
 PTB  HZ EP       17 7 51.09                             131   -0.37 9  148 255 
 PTB  HN ES   2   17 8 12.57                             131    0.17 5  148 255 
 PTB  HZ I        17 8 17.50         3.7 0.09                           148 255 
 NOR  HE ES       17 8 29.05                             117    0.19 8  239 232 
 NOR  HZ I        17 8 34.16         3.4 0.21                           239 232 
                                                                                
