 2017  113 1025  1.0 L   6.817 -73.178144.0  RSN  7 0.3 1.3LRSN                1
 GAP=132        0.84       3.8     3.9  6.1 -0.3635E+00  0.7516E+01  0.5643E+01E
 Epicentro: ZAPATOCA - SANTANDER                                               3
 ACTION:UPD 17-05-22 15:59 OP:jn   STATUS:               ID:20170113102501 L   I
 OLDACT:UP  17-01-13 21:01 OP:dani STATUS:               ID:20170113101742     3
 OLDACT:UP  17-01-13 21:01 OP:dani STATUS:               ID:20170113101742     3
 OLDACT:REG 17-01-13 19:54 OP:dani STATUS:               ID:20170113101742     3
 2017-01-13-1018-00M.COL___331                                                 6
 STAT SP IPHASW D HRMM SECON CODA AMPLIT PERI AZIMU VELO AIN AR TRES W  DIS CAZ7
 BAR2 EZ EP       1025 20.28                             170   -0.2010 24.8 181 
 BAR2 EZ ES       1025 35.99                             170    0.3410 24.8 181 
 BAR2 EZ I        1025 38.08         7.4 0.30            171           24.8 181 
 PAM  EZ EP       1025 23.24                             150    0.1210 78.4  42 
 PAM  EE ES       1025 40.09                             150   -0.2610 78.4  42 
 PAM  EZ I        1025 43.47         3.3 0.56            153           78.4  42 
 RUS  HZ EP   1   1025 24.63                             143   -0.14 7  103 174 
 RUS  HN ES   1   1025 43.72                             143    0.44 7  103 174 
 RUS  HZ I        1025 44.03         2.0 0.23            145            103 174 
 PTB  HZ EP       1025 27.20                             132   -0.37 9  145 258 
 PTB  HN ES       1025 47.76                             132   -0.51 9  145 258 
 PTB  HZ I        1025 50.60         2.4 0.16            133            145 258 
 ZAR  HZ EP   4   1025 35.63                             123    2.68 0  200 292 
 ZAR  HE ES       1025 58.39                             123    0.55 9  200 292 
 ZAR  HZ I        1026  3.72         2.6 0.14            123            200 292 
 CHI  HZ EP       1025 38.94                             117    0.21 8  249 194 
 CHI  HN ES       1026  7.86                             117   -0.27 8  249 194 
 CHI  HZ I        1026 11.82         2.0 0.48            118            249 194 
 GUY2CHZ EP       1025 44.84                             112    0.49 7  299 234 
                                                                                
