 2016  613 1213 58.3 L   6.755 -73.209160.7  RSN  4 0.2 1.6LRSN                1
 GAP=226        0.65       5.5     5.4  6.4  0.1469E+02 -0.5401E+01 -0.3300E+01E
 Epicentro: ZAPATOCA - SANTANDER                                               3
 ACTION:UPD 16-07-21 22:18 OP:rebc STATUS:               ID:20160613121358 L   I
 OLDACT:UP  16-06-13 23:00 OP:dani STATUS:               ID:20160613120740     3
 OLDACT:REG 16-06-13 20:57 OP:dani STATUS:               ID:20160613120740     3
 2016-06-13-1207-40M.COL___325                                                 6
 STAT SP IPHASW D HRMM SECON CODA AMPLIT PERI AZIMU VELO AIN AR TRES W  DIS CAZ7
 BAR2 EZ EP       1214 19.21                             173   -0.4510 18.3 171 
 BAR2 EZ I        1214 35.80         8.8 0.24                          18.3 171 
 BRR  HZ EP       1214 21.21                             156    0.2810 67.8 305 
 BRR  HE ES       1214 38.60                             156    0.0410 67.8 305 
 BRR  HZ I        1214 42.32         8.3 0.30                          67.8 305 
 RUS  HZ EP       1214 23.26                             148   -0.0310 96.4 172 
 RUS  HE ES       1214 42.94                             148    0.1810 96.4 172 
 RUS  HZ I        1214 43.01         3.7 0.24                          96.4 172 
 PTB  HZ EP       1214 26.05                             137    0.17 9  140 260 
 PTB  HE ES       1214 47.18                             137   -0.19 9  140 260 
 PTB  HZ I        1214 50.16         4.8 0.14                           140 260 
                                                                                
