 2014  713 1100  5.8 L   6.837 -73.127146.6  RSN  6 0.3 1.9LRSN                1
 GAP=218        0.60       2.8     4.1  4.9  0.7741E+00  0.3896E+01 -0.3097E+01E
 Epicentro: LOS SANTOS - SANTANDER                                             3
 ACTION:UPD 15-03-16 20:43 OP:nd   STATUS:               ID:20140713110005 L   I
 OLDACT:UP  14-07-13 22:57 OP:cam  STATUS:               ID:20140713110000     3
 OLDACT:REG 14-07-13 21:47 OP:cam  STATUS:               ID:20140713110000     3
 2014-07-13-1100-00M.COL___282                                                 6
 STAT SP IPHASW D HRMM SECON CODA AMPLIT PERI AZIMU VELO AIN AR TRES W  DIS CAZ7
 BAR2 SZ EP     C 11 0 25.72                             169    0.0610 27.7 193 
 BAR2 SZ ES       11 0 41.17                             169    0.0510 27.7 193 
 BAR2 SZ I        11 0 42.38        11.5 0.28            167           27.7 193 
 PTB  HZ EP     D 11 0 32.77                             132   -0.35 9  151 257 
 PTB  HN ES       11 0 54.00                             132   -0.41 9  151 257 
 PTB  HZ I        11 0 59.64         7.7 0.58            131            151 257 
 SPBC HZ EP       11 0 34.73                             128   -0.08 9  168 219 
 SPBC HN ES       11 0 57.68                             128    0.26 9  168 219 
 SPBC HN I        11 1  1.97        20.4 0.16            129            168 219 
 ZAR  HZ EP   1   11 0 38.74                             123    0.38 6  204 291 
 ZAR  HE ES       11 1  4.13                             123    0.38 9  204 291 
 ZAR  HZ I        11 1 10.18         5.1 0.32            122            204 291 
 SML  HZ EP   1   11 0 42.25                             118    0.06 6  241 334 
 SML  HN ES       11 1 10.42                             118   -0.14 8  241 334 
 SML  HZ I        11 1 15.50         5.1 0.26            119            241 334 
 GUY2CHZ EP   1   11 0 50.04                             112    0.11 5  305 234 
 GUY2CHZ I        11 1 32.55         4.4 0.74                           305 234 
                                                                                
