 2014  113 1034 18.9 L   6.796 -73.181147.3  RSN  9 0.4 1.8LRSN                1
 GAP=132        0.90       2.6     4.1  5.5 -0.3017E+01  0.8994E+01 -0.9723E+00E
 Epicentro: LOS SANTOS - SANTANDER                                             3
 ACTION:UPD 14-03-13 09:54 OP:ep   STATUS:               ID:20140113103418 L   I
 OLDACT:REG 14-01-13 14:30 OP:carl STATUS:               ID:20140113103000     3
 2014-01-13-1030-00M.COL___285                                                 6
 STAT SP IPHASW D HRMM SECON CODA AMPLIT PERI AZIMU VELO AIN AR TRES W  DIS CAZ7
 BAR2 SZ EP       1034 38.55                             171   -0.1710 22.6 180 
 BAR2 SZ ES       1034 53.95                             171   -0.2210 22.6 180 
 BAR2 SZ I        1034 56.35        13.9 0.40            170           22.6 180 
 PAM  SZ EP       1034 41.29                             150   -0.1810 80.3  42 
 PAM  SE ES       1034 59.02                             150   -0.0510 80.3  42 
 PAM  SZ I        1035  0.65         9.8 0.52            154           80.3  42 
 RUS  HZ EP       1034 42.78                             144   -0.0410  101 174 
 RUS  HN ES       1035  1.60                             144    0.1310  101 174 
 RUS  HZ I        1035  2.70         4.8 0.32            146            101 174 
 PTB  HZ EP       1034 45.55                             133   -0.11 9  144 259 
 PTB  HN ES       1035  6.27                             133   -0.25 9  144 259 
 PTB  HZ I        1035 10.90         6.5 0.34            133            144 259 
 OCA  HZ EP       1034 47.50                             130    0.15 9  160 355 
 OCA  HN ES       1035 10.58                             130    1.05 9  160 355 
 OCA  HZ I        1035 13.36         8.6 0.34            132            160 355 
 NOR  HZ EP       1034 54.80                             119    0.43 8  231 234 
 NOR  HE ES       1035 22.52                             119    0.49 8  231 234 
 NOR  HZ I        1035 26.07         6.0 0.20            120            231 234 
 SML  HZ EP       1034 54.91                             118   -0.59 8  242 336 
 SML  HN ES       1035 23.42                             118   -0.61 8  242 336 
 SML  HZ I        1035 26.90         7.8 0.24            119            242 336 
 CHI  HZ EP       1034 56.65                             118    0.10 8  247 194 
 CHI  HN ES       1035 25.78                             118   -0.13 8  247 194 
 CHI  HZ I        1035 35.83         2.1 0.50            119            247 194 
 GUY2CHZ EP       1035  2.41                             113    0.20 7  298 234 
 GUY2CHN ES       1035 35.83                             113   -0.15 7  298 234 
 GUY2CHZ I        1035 43.39         2.8 0.28                           298 234 
                                                                                
