 2010 1113 1333 33.3 L   6.821 -73.001144.4  RSN  4 0.3 1.4LRSN                1
 GAP=253        0.48      13.0    21.7 13.1  0.2336E+03 -0.1718E+03 -0.1106E+03E
 Epicentro: CEPITA - SANTANDER                                                 3
 ACTION:UP  10-12-17 16:52 OP:REBC STATUS:               ID:20101113133333 L   I
 2010-11-13-1331-02S.COL___129                                                 6
 STAT SP IPHASW D HRMM SECON CODA AMPLIT PERI AZIMU VELO SNR AR TRES W  DIS CAZ7
 BTL  SZ EP   2   1333 53.26                             167     0.3 5   31 290 
 BAR2 SZ EP   2   1333 53.08                             167     0.1 5   32 219 
 BAR2 SZ ES   2   1334  8.08                             167    -0.3 5   32 219 
 BAR2 SZ I        1334  9.81         7.9 0.35                            32 219 
 BRR  HZ EP   2   1333 54.73                             148    -0.4 5   85 292 
 BRR  HZ I        1333 55.17         7.7 0.17                            85 292 
 BRR  HE ES   2   1334 12.37                             148     0.2 5   85 292 
 RUS  HN ES   2   1334 15.75                             143     0.1 5  103 185 
 RUS  HZ I        1334 16.85         2.1 0.00                           103 185 
                                                                                
