 2017  313 1327 12.6 L   6.783 -73.195146.1  RSN  7 0.4 1.8LRSN                1
 GAP=131        1.07       5.9     5.8  8.7 -0.3451E+00  0.5931E+01  0.8528E+01E
 Epicentro: ZAPATOCA - SANTANDER                                               3
 ACTION:UPD 17-05-25 18:40 OP:jn   STATUS:               ID:20170313132712 L   I
 OLDACT:UP  17-03-13 23:25 OP:y    STATUS:               ID:20170313131316     3
 OLDACT:UP  17-03-13 23:25 OP:y    STATUS:               ID:20170313131316     3
 OLDACT:UP  17-03-13 23:25 OP:y    STATUS:               ID:20170313131316     3
 OLDACT:REG 17-03-13 21:00 OP:dnl  STATUS:               ID:20170313131316     3
 2017-03-13-1318-00M.COL___403                                                 6
 STAT SP IPHASW D HRMM SECON CODA AMPLIT PERI AZIMU VELO AIN AR TRES W  DIS CAZ7
 BAR2 EZ IP     D 1327 32.11                             171   -0.1610 21.2 176 
 BAR2 EZ ES       1327 47.19                             171   -0.4010 21.2 176 
 BAR2 EZ I        1327 48.48        19.7 0.72            170           21.2 176 
 BRR  HZ EP       1327 34.00                             154    0.3810 67.5 302 
 BRR  HE ES       1327 50.78                             154    0.7910 67.5 302 
 BRR  HZ I        1327 51.50        20.7 0.36            153           67.5 302 
 PAM  EZ EP   2   1327 35.25                             149    0.05 5 82.3  42 
 PAM  EN ES       1327 52.40                             149   -0.3810 82.3  42 
 PAM  EZ I        1327 54.28        18.4 0.58            151           82.3  42 
 RUS  HZ EP       1327 36.34                             144    0.0010 99.3 173 
 RUS  HE ES       1327 55.24                             144    0.4310 99.3 173 
 RUS  HZ I        1327 55.87         5.1 0.26            143           99.3 173 
 PTB  HZ EP   2   1327 38.79                             133   -0.34 5  142 259 
 PTB  HN ES       1327 59.10                             133   -0.69 9  142 259 
 PTB  HZ I        1328  1.78         3.7 0.52            132            142 259 
 GUY2CHZ EP   4   1327 57.86                             113    2.21 0  296 234 
 GUY2CHE ES   4   1328 32.38                             113    3.18 0  296 234 
 GUY2CHZ  IAML    1328 38.26         2.2 0.26                           296 234 
 PRA  HZ EP   2   1328  5.92                             107    0.24 3  388 209 
 PRA  HE ES   4   1328 45.01                             107   -2.04 0  388 209 
 PRA  HZ I        1328 53.91         2.4 0.28            106            388 209 
                                                                                
