 2016 1013 1337 54.2 L   6.805 -73.205143.9  RSN  5 0.3 1.3LRSN                1
 GAP=232        0.83       6.4     6.0  6.5  0.2106E+02  0.4430E+01 -0.1236E+00E
 Epicentro: ZAPATOCA - SANTANDER                                               3
 ACTION:UPD 16-11-09 19:19 OP:rebc STATUS:               ID:20161013133754 L   I
 OLDACT:DUP 16-10-14 00:20 OP:and  STATUS:               ID:20161013132734d    3
 OLDACT:UP  16-10-14 00:19 OP:and  STATUS:               ID:20161013132733     3
 OLDACT:REG 16-10-13 20:08 OP:and  STATUS:               ID:20161013132733     3
 2016-10-13-1328-00M.COL___365                                                 6
 STAT SP IPHASW D HRMM SECON CODA AMPLIT PERI AZIMU VELO AIN AR TRES W  DIS CAZ7
 BAR2 EZ EP       1338 13.25                             170   -0.3710 23.7 174 
 BAR2 EZ ES       1338 29.18                             170    0.4210 23.7 174 
 BAR2 EZ I        1338 30.76         4.2 0.30            170           23.7 174 
 BRR  HZ EP       1338 15.33                             154    0.5110 65.2 301 
 BRR  HN ES       1338 30.46                             154   -0.4510 65.2 301 
 RUS  HZ EP       1338 17.89                             143    0.0310  102 172 
 RUS  HN ES       1338 36.16                             143   -0.1610  102 172 
 PTB  HZ EP       1338 20.21                             133   -0.24 9  141 258 
 PTB  HN ES       1338 41.14                             133    0.22 9  141 258 
 PTB  HZ I        1338 44.75         2.2 0.17            131            141 258 
 ZAR  HZ EP   2   1338 26.32                             123    0.44 4  198 293 
 ZAR  HN ES   2   1338 50.35                             123   -0.24 4  198 293 
 ZAR  HZ I        1338 57.55         2.6 0.24            122            198 293 
                                                                                
