 2011  813 1833 30.9 L   6.745 -73.128142.7  RSN  6 0.2 2.0LRSN                1
 GAP=184        0.41       3.6     5.4  3.8  0.7981E+01  0.4266E+01  0.2972E+01E
 Epicentro: JORDAN - SANTANDER                                                 3
 ACTION:UPD 12-07-13 15:51 OP:ep   STATUS:               ID:20110813183331 L   I
 2011-08-13-1830-42S.COL___150                                                 6
 STAT SP IPHASW D HRMM SECON CODA AMPLIT PERI AZIMU VELO AIN AR TRES W  DIS CAZ7
 BAR2 SZ EP       1833 50.04                             172   -0.0610 17.9 200 
 BAR2 SZ I        1833 50.38        19.4 0.36                          17.9 200 
 BAR2 SZ ES   1   1834  4.85                             172   -0.20 7 17.9 200 
 BRR  HZ EP       1833 51.83                             150   -0.2010 75.9 302 
 BRR  HE ES   1   1834  8.71                             150    0.22 7 75.9 302 
 BRR  HZ I        1834 11.70        18.0 0.16                          75.9 302 
 RUS  HZ EP       1833 54.13                             145    0.1910 94.4 177 
 RUS  HE ES   2   1834 11.94                             145    0.05 5 94.4 177 
 OCA  SZ EP   2   1833 59.82                             128    0.21 5  167 353 
 NOR  SZ EP       1834  6.31                             118    0.03 8  233 236 
 CHI  HE ES   3   1834 36.34                             117   -0.36 2  243 196 
                                                                                
