 2016  313 1908 22.4 L   6.766 -73.181144.5  RSN  4 0.1 1.4LRSN                1
 GAP=140        0.45       2.8     2.7  3.9 -0.2273E+01  0.2943E+01 -0.1147E+01E
 Epicentro: LOS SANTOS - SANTANDER                                             3
 ACTION:UPD 16-05-13 21:23 OP:cam  STATUS:               ID:20160313190822 L   I
 OLDACT:REG 16-03-13 20:40 OP:drio STATUS:               ID:20160313185745     3
 2016-03-13-1857-45M.COL___292                                                 6
 STAT SP IPHASW D HRMM SECON CODA AMPLIT PERI AZIMU VELO AIN AR TRES W  DIS CAZ7
 BAR2 EZ ES       19 8 56.75                             172   -0.1510 19.2 181 
 BAR2 EZ I        19 8 59.35         6.7 0.28            173           19.2 181 
 PAM  EZ EP       19 8 44.56                             149   -0.2210 82.8  40 
 PAM  EN ES       19 9  2.45                             149    0.1910 82.8  40 
 PAM  EZ I        19 9  4.72         3.5 0.42            151           82.8  40 
 RUS  HZ EP       19 8 45.73                             144   -0.0210 97.2 174 
 RUS  HN ES       19 9  4.07                             144    0.0910 97.2 174 
 RUS  HZ I        19 9  5.57         3.5 0.34            148           97.2 174 
 PTB  HZ EP       19 8 49.00                             133    0.17 9  143 260 
 PTB  HE ES       19 9  9.41                             133   -0.05 9  143 260 
 PTB  HZ I        19 9 12.49         3.6 0.20            134            143 260 
                                                                                
