 2014 1213 1136 55.2 L   6.761 -73.170139.3  RSN  9 0.5 1.5LRSN                1
 GAP=135        1.18       3.8     5.1  8.2 -0.8894E+00  0.8926E+01  0.1492E-01E
 Epicentro: LOS SANTOS - SANTANDER                                             3
 ACTION:UPD 15-02-10 17:03 OP:nd   STATUS:               ID:20141213113655 L   I
 OLDACT:DUP 14-12-13 21:49 OP:fm   STATUS:               ID:20141213112750d    3
 2014-12-13-1127-49M.COL___285                                                 6
 STAT SP IPHASW D HRMM SECON CODA AMPLIT PERI AZIMU VELO AIN AR TRES W  DIS CAZ7
 BAR2 EZ EP       1137 14.27                             172    0.2910 18.7 184 
 BAR2 EZ ES       1137 28.93                             172    0.3110 18.7 184 
 BAR2 EZ I        1137 31.90         6.0 0.16            169           18.7 184 
 BRR  HZ EP       1137 15.99                             151    0.3210 71.1 303 
 BRR  HN ES       1137 32.40                             151    0.7910 71.1 303 
 BRR  HZ I        1137 37.66         9.7 0.66            148           71.1 303 
 PAM  SZ EP       1137 17.02                             148   -0.0510 82.5  39 
 PAM  SN ES       1137 33.71                             148   -0.4110 82.5  39 
 PAM  SZ I        1137 36.53         4.5 0.44            154           82.5  39 
 RUS  HZ EP       1137 18.18                             144    0.1410 96.5 174 
 RUS  HE ES       1137 35.29                             144   -0.5510 96.5 174 
 RUS  HZ I        1137 38.07         2.5 0.30            147           96.5 174 
 PTB  HZ EP       1137 21.36                             131    0.01 9  144 260 
 PTB  HN ES       1137 41.56                             131   -0.17 9  144 260 
 PTB  HZ I        1137 49.64         3.1 0.54            131            144 260 
 SPBC HN ES       1137 43.31                             129   -0.90 9  158 219 
 SPBC HZ I        1137 54.68         6.0 0.10            130            158 219 
 ZAR  HN ES   1   1137 51.82                             121   -0.26 6  203 294 
 ZAR  HZ I        1138  0.31         3.2 0.36            122            203 294 
 CHI  HN ES       1138  1.50                             116    0.76 8  244 195 
 SML  HE ES       1137 59.80                             116   -0.54 8  247 336 
 SML  HZ I        1138  6.50         5.9 0.26            118            247 336 
                                                                                
