 2016 1013 1655 56.1 L   5.929 -73.767110.8  RSN  4 0.1 1.1LRSN                1
 GAP=219        0.38       3.1     2.2  5.0  0.3199E+01  0.9463E+00 -0.1371E+01E
 Epicentro: SUCRE - SANTANDER                                                  3
 ACTION:UPD 16-11-09 19:19 OP:rebc STATUS:               ID:20161013165556 L   I
 OLDACT:REG 16-10-13 20:29 OP:and  STATUS:               ID:20161013164743     3
 2016-10-13-1648-00M.COL___359                                                 6
 STAT SP IPHASW D HRMM SECON CODA AMPLIT PERI AZIMU VELO AIN AR TRES W  DIS CAZ7
 RUS  HZ EP   2   1656 14.83                             143    0.23 5 75.8  93 
 RUS  HN ES       1656 28.92                             143   -0.1310 75.8  93 
 RUS  HZ I        1656 30.68         1.5 0.32            148           75.8  93 
 BAR2 EZ EP       1656 15.96                             136   -0.0310 97.8  41 
 BAR2 EZ ES       1656 31.73                             136    0.2010 97.8  41 
 BAR2 EZ I        1656 32.20         7.9 0.20            141           97.8  41 
 PTB  HZ EP   3   1656 16.17                             134    0.12 2  102 312 
 PTB  HN ES       1656 31.66                             134    0.0410  102 312 
 PTB  HZ I        1656 34.26         2.1 0.10            137            102 312 
 BRR  HZ EP   2   1656 18.60                             126   -0.08 5  130   3 
 BRR  HE ES       1656 36.18                             126   -0.1410  130   3 
                                                                                
