 2016  313 1248 34.3 L   6.815 -73.197146.4  RSN  4 0.2 1.4LRSN                1
 GAP=275        0.60       5.2     3.9  5.1  0.1957E+01  0.4270E+01 -0.3412E+01E
 Epicentro: ZAPATOCA - SANTANDER                                               3
 ACTION:UPD 16-05-13 21:23 OP:cam  STATUS:               ID:20160313124834 L   I
 OLDACT:REG 16-03-13 20:24 OP:drio STATUS:               ID:20160313123748     3
 2016-03-13-1237-48M.COL___291                                                 6
 STAT SP IPHASW D HRMM SECON CODA AMPLIT PERI AZIMU VELO AIN AR TRES W  DIS CAZ7
 BAR2 EZ EP       1248 54.05                             170    0.0510 24.7 176 
 BAR2 EZ ES       1249  9.48                             170    0.0910 24.7 176 
 BAR2 EZ I        1249 11.92         5.5 0.34            167           24.7 176 
 RUS  HZ EP       1248 58.37                             143    0.1310  103 173 
 RUS  HE ES       1249 16.70                             143   -0.2410  103 173 
 RUS  HZ I        1249 18.29         2.5 0.38            146            103 173 
 PTB  HZ EP       1249  0.36                             133   -0.45 9  143 258 
 PTB  HN ES       1249 21.66                             133    0.13 9  143 258 
 PTB  HZ I        1249 29.40         3.8 0.36            132            143 258 
 SPBC HZ EP       1249  2.90                             130    0.29 9  161 217 
 SPBC HN ES       1249 24.72                             130    0.00 9  161 217 
 SPBC HZ I        1249 29.95         5.8 0.26            130            161 217 
                                                                                
