 2014  913 1019 53.1 L   6.817 -73.074153.9  RSN  6 0.4 1.3LRSN                1
 GAP=207        0.88       4.4     6.4  6.9  0.3360E+01 -0.2385E+01 -0.3885E+01E
 Epicentro: LOS SANTOS - SANTANDER                                             3
 ACTION:UPD 14-10-03 23:04 OP:nd   STATUS:               ID:20140913101953 L   I
 OLDACT:UP  14-09-13 21:42 OP:spq  STATUS:               ID:20140913101818     3
 OLDACT:REG 14-09-13 19:55 OP:spq  STATUS:               ID:20140913101818     3
 2014-09-13-1018-18M.COL___296                                                 6
 STAT SP IPHASW D HRMM SECON CODA AMPLIT PERI AZIMU VELO AIN AR TRES W  DIS CAZ7
 BAR2 SZ EP       1020 14.01                             169    0.1710 27.5 206 
 BAR2 SZ ES   1   1020 29.60                             169   -0.38 7 27.5 206 
 BAR2 SZ I        1020 30.26         6.1 0.15            169           27.5 206 
 BRR  HZ EP       1020 15.85                             152    0.3310 77.5 295 
 BRR  HN ES       1020 33.01                             152    0.0310 77.5 295 
 BRR  HZ I        1020 35.35         8.6 0.30            153           77.5 295 
 RUS  HZ EP   1   1020 17.84                             145    0.03 7  102 181 
 RUS  HE ES   1   1020 36.88                             145   -0.17 7  102 181 
 RUS  HZ I        1020 38.50         1.3 0.22            146            102 181 
 PTB  HZ EP       1020 20.65                             132   -0.86 9  156 259 
 PTB  HE ES       1020 43.51                             132   -0.12 9  156 259 
 PTB  HZ I        1020 43.73         1.6 0.18            133            156 259 
 SPBC HZ EP       1020 22.76                             130   -0.12 9  170 221 
 SPBC HE ES       1020 46.70                             130    0.63 9  170 221 
 SPBC HZ I        1020 48.36         1.9 0.26            130            170 221 
 SML  HZ EP   1   1020 30.81                             119    0.39 6  245 333 
 SML  HE ES   1   1020 59.60                             119    0.10 6  245 333 
                                                                                
