 2014  713 1610 26.2 L   6.725 -73.129144.8  RSN  4 0.3 1.7LRSN                1
 GAP=258        0.80       5.8     6.2  6.8 -0.5112E+01  0.2809E+01  0.9078E+01E
 Epicentro: JORDAN - SANTANDER                                                 3
 ACTION:UPD 15-03-16 20:43 OP:nd   STATUS:               ID:20140713161026 L   I
 OLDACT:REG 14-07-13 22:06 OP:cam  STATUS:               ID:20140713161000     3
 2014-07-13-1610-00M.COL___282                                                 6
 STAT SP IPHASW D HRMM SECON CODA AMPLIT PERI AZIMU VELO AIN AR TRES W  DIS CAZ7
 BAR2 SZ EP       1610 45.48                             174   -0.1410 15.8 202 
 BAR2 SZ ES       1611  0.50                             174   -0.2410 15.8 202 
 BAR2 SZ I        1611  1.76        11.9 0.74            165           15.8 202 
 BRR  HZ EP     D 1610 47.55                             150   -0.0710 77.0 303 
 BRR  HE ES       1611  4.77                             150    0.4710 77.0 303 
 BRR  HE I        1611  5.17        16.5 0.28            150           77.0 303 
 PTB  HZ EP   1   1610 52.75                             132   -0.41 7  148 262 
 PTB  HN ES       1611 13.79                             132   -0.37 9  148 262 
 PTB  HZ I        1611 18.11         5.9 0.18            130            148 262 
 SPBC HZ EP       1610 54.62                             130    0.45 9  158 221 
 SPBC HN ES       1611 16.07                             130    0.12 9  158 221 
 SPBC HZ I        1611 23.67         5.1 0.26            127            158 221 
                                                                                
