 2017  913 1713 13.6 L   6.734 -73.164148.2  RSN  4 0.3 1.6LRSN                1
 GAP=230        0.77       9.1    10.1  7.3  0.7810E+02  0.9210E+01  0.5234E+01E
 Epicentro: VILLANUEVA - SANTANDER                                             3
 ACTION:UPD 17-10-05 19:12 OP:rebc STATUS:               ID:20170913171313 L   I
 OLDACT:REG 17-09-13 21:31 OP:dnl  STATUS:               ID:20170913170747     3
 2017-09-13-1708-00M.COL___464                                                 6
 STAT SP IPHASW D HRMM SECON CODA AMPLIT PERI AZIMU VELO AIN AR TRES W  DIS CAZ7
 BAR2 EZ EP       1713 33.30                             173   -0.0710 15.8 187 
 BAR2 EZ ES       1713 48.32                             173   -0.4910 15.8 187 
 BAR2 EZ I        1713 49.01         9.5 0.26            163           15.8 187 
 BRR  HZ EP   2   1713 35.33                             152    0.22 5 73.3 304 
 BRR  HE ES       1713 52.35                             152    0.4610 73.3 304 
 BRR  HZ I        1713 52.84        14.4 0.38            145           73.3 304 
 RUS  HZ EP       1713 37.13                             146    0.0610 93.4 174 
 RUS  HN ES       1713 55.59                             146    0.2010 93.4 174 
 RUS  HZ I        1713 56.41         2.7 0.32            141           93.4 174 
 ZAR  HZ EP   4   1713 48.81                             123    2.52 0  205 294 
 ZAR  HE ES       1714 11.51                             123   -0.28 9  205 294 
 ZAR  HZ I        1714 18.46         4.0 0.30            119            205 294 
                                                                                
