 2015  913 1151 31.9 L   6.345 -73.596110.0  RSN 17 0.5 2.5LRSN 3.1WRSN        1
 SPEC AVERAGE  MO 13.8 ST0.525 OM  2.5 f0 2.11 R1.1113 AL 0.00 WI 30.0 MW  3.1 3
 SPEC SD       MO  0.2 ST0.538 OM  0.9 f0 1.10 R0.3965 AL      WI      MW  0.2 3
 GAP= 72        1.12       2.4     3.3  5.4 -0.1079E+01  0.5842E+01 -0.8150E-01E
 Epicentro: SANTA HELENA DEL OPON - SANTANDER                                  3
 SPEC ZAR HH Z MO 13.6 ST  1.4 OM  1.5 f0 3.99 R0.4822 AL-0.00 WI 30.0 MW  3.0 3
 SPEC ZAR HH Z T115221 K 0.000 GD  218 VS 5.20 DE 3.50 Q0750.0 QA 1.50 Q1 0.00 3
 SPEC OCA HH Z MO 14.2 ST0.540 OM  2.1 f0 1.78 R1.0809 AL-0.00 WI 30.0 MW  3.4 3
 SPEC OCA HH Z T115226 K 0.000 GD  238 VS 5.20 DE 3.50 Q0750.0 QA 1.50 Q1 0.00 3
 SPECGUY2CHH Z MO 13.6 ST0.074 OM  1.5 f0 1.42 R1.3549 AL-0.00 WI 30.0 MW  3.0 3
 SPECGUY2CHH Z T115232 K 0.000 GD  256 VS 5.20 DE 3.50 Q0750.0 QA 1.50 Q1 0.00 3
 SPEC PRA HH Z MO 13.8 ST0.087 OM  1.6 f0 1.26 R1.5270 AL-0.00 WI 30.0 MW  3.2 3
 SPEC PRA HH Z T115249 K 0.000 GD  342 VS 5.20 DE 3.50 Q0750.0 QA 1.50 Q1 0.00 3
 OLDACT:REG 15-09-13 20:40 OP:stll STATUS:               ID:20150913114745     3
 ACTION:UPD 15-10-28 16:26 OP:cam  STATUS:               ID:20150913115131 L   I
 OLDACT:UP  15-09-13 23:17 OP:stll STATUS:               ID:20150913114745     3
 2015-09-13-1147-45M.COL___316                                                 6
 STAT SP IPHASW D HRMM SECON CODA AMPLIT PERI AZIMU VELO AIN AR TRES W  DIS CAZ7
 BAR2 EZ IP     D 1151 49.08                             152    0.5410 53.2  59 
 BAR2 EZ ES       1152  2.33                             152    0.8310 53.2  59 
 BAR2 EZ I        1152  3.59       172.9 0.30            146           53.2  59 
 RUS  HZ EP     D 1151 50.37                             143    0.0110 75.6 131 
 RUS  HZ I        1151 50.62        25.3 0.26            134           75.6 131 
 RUS  HE ES       1152  4.15                             143   -0.5910 75.6 131 
 BRR  HZ EP     C 1151 50.59                             139    0.1810 85.2 351 
 BRR  HN ES       1152  4.79                             139   -0.0310 85.2 351 
 BRR  HZ I        1152  6.21        65.2 0.10            131           85.2 351 
 SPBC HZ EP       1151 51.17                             137    0.0010 93.0 215 
 SPBC HE ES       1152  6.50                             137    0.3310 93.0 215 
 SPBC HZ I        1152 12.56        65.3 0.38            126           93.0 215 
 PTB  HZ EP       1151 50.85                             135   -0.6010 97.6 283 
 PTB  HN ES       1152  5.73                             135   -0.9510 97.6 283 
 PTB  HZ I        1152  8.22       110.1 0.14            125           97.6 283 
 NOR  HZ EP       1151 57.72                             119   -0.43 9  165 239 
 NOR  HN ES       1152 18.71                             119    0.11 9  165 239 
 NOR  HZ I        1152 20.89        36.2 0.16            111            165 239 
 ZAR  HZ EP     C 1152  0.58                             115   -0.03 9  189 312 
 ZAR  HN ES       1152 23.13                             115    0.15 9  189 312 
 ZAR  HZ I        1152 27.63        60.6 0.42            108            189 312 
 CHI  HZ EP       1152  1.25                             115   -0.07 9  190 185 
 CHI  HN ES       1152 23.69                             115   -0.55 9  190 185 
 CHI  HZ I        1152 28.85        15.1 0.24            108            190 185 
 OCA  HZ EP     D 1152  3.27                             112   -0.10 8  212   8 
 OCA  HN ES       1152 28.02                             112    0.13 8  212   8 
 OCA  HZ I        1152 34.46        79.8 0.46            106            212   8 
 HEL  HZ EP       1152  4.43                             112    0.46 8  215 266 
 HEL  HE ES       1152 29.05                             112    0.08 8  215 266 
 HEL  HZ I        1152 34.12        20.1 0.34            106            215 266 
 GUY2CHZ EP       1152  6.74                             110    0.67 8  232 238 
 GUY2CHE ES       1152 33.67                             110    0.97 8  232 238 
 GUY2CHZ I        1152 39.24        17.0 0.24                           232 238 
 URE  HZ EP   4   1152  7.94                             107   -1.33 0  265 306 
 URE  HN ES   4   1152 35.56                             107   -2.84 0  265 306 
 URE  HZ I        1152 38.84        36.6 0.14            102            265 306 
 SML  HZ EP       1152 10.09                             106   -0.57 7  277 349 
 SML  HN ES       1152 40.48                             106   -0.39 7  277 349 
 SML  HZ I        1152 46.47        30.3 0.10            102            277 349 
 DBB  SZ EP       1152 13.50                             104    0.16 7  298 285 
 DBB  SZ I        1152 48.10        51.4 0.32            101            298 285 
 PRA  HZ EP       1152 16.09                             103   -0.25 7  324 206 
 PRA  HN ES       1152 50.61                             103   -0.38 7  324 206 
 PRA  HZ I        1152 59.11        17.2 0.30            100            324 206 
 ORTC HZ EP       1152 16.89                             103    0.38 7  326 214 
 ORTC HZ I        1152 57.61         9.5 0.20            100            326 214 
 SJC  HZ EP   4   1152 27.79                              98   -1.25 0  430 336 
 SJC  HE ES   4   1153  9.05                              98   -4.53 0  430 336 
 SJC  HZ I        1153 15.74         4.3 0.56             97            430 336 
                                                                                
