 2012  813 1528 28.7 L   6.498 -73.562109.5  RSN  7 0.4 1.9LRSN                1
 GAP= 93        0.86       3.8     3.3  6.8 -0.6663E-01  0.4782E+01  0.3222E+01E
 Epicentro: SANTA HELENA DEL OPON - SANTANDER                                  3
 ACTION:UPD 12-09-10 11:56 OP:ep   STATUS:               ID:20120813152828 L   I
 2012-08-13-1520-00M.COL___217                                                 6
 STAT SP IPHASW D HRMM SECON CODA AMPLIT PERI AZIMU VELO AIN AR TRES W  DIS CAZ7
 BAR2 SZ EP       1528 45.12                             157    0.3810 43.3  76 
 BAR2 SZ ES   1   1528 57.35                             157    0.10 7 43.3  76 
 BRR  HZ EP       1528 45.96                             145    0.0210 69.3 346 
 BRR  HE ES       1528 59.65                             145    0.2610 69.3 346 
 BRR  HZ I        1529  0.04        20.9 0.15                          69.3 346 
 RUS  HZ EP       1528 48.18                             139    0.3510 85.4 142 
 RUS  HN ES   1   1529  2.75                             139   -0.01 7 85.4 142 
 PTB  HZ IP     C 1528 47.95                             135   -0.3510 99.0 273 
 PTB  HN ES   1   1529  2.87                             135   -0.72 7 99.0 273 
 PTB  HZ I        1529  4.30        17.1 0.11                          99.0 273 
 PAM  SZ EP       1528 51.75                             126   -0.3910  133  46 
 PAM  SE ES   1   1529  9.75                             126   -0.67 7  133  46 
 PAM  SZ I        1529 11.28        12.1 0.30                           133  46 
 NOR  SZ EP   1   1528 56.43                             117    0.20 7  178 235 
 NOR  SN ES   1   1529 17.46                             117   -0.24 7  178 235 
 NOR  SZ I        1529 20.70         8.2 0.15                           178 235 
 ZAR  HZ EP   1   1528 56.85                             116    0.38 7  180 308 
 ZAR  HN ES   1   1529 18.70                             116    0.58 7  180 308 
 ZAR  HZ I        1529 21.99        11.8 0.31                           180 308 
                                                                                
