 2017 1213 1322 33.1 L   6.688 -73.147148.0  RSN  5 0.3 1.7LRSN                1
 GAP=166        0.84       5.3     4.4  6.8 -0.6261E+01  0.1091E+02  0.1894E+01E
 Epicentro: VILLANUEVA - SANTANDER                                             3
 ACTION:UPD 18-01-04 13:20 OP:rebc STATUS:               ID:20171213132233 L   I
 OLDACT:REG 17-12-13 20:57 OP:osc  STATUS:               ID:20171213131743     3
 2017-12-13-1318-00M.COL___455                                                 6
 STAT SP IPHASW D HRMM SECON CODA AMPLIT PERI AZIMU VELO AIN AR TRES W  DIS CAZ7
 BAR2 EZ EP       1322 53.39                             175    0.5310 11.3 200 
 BAR2 EZ ES       1323  8.51                             175    0.2710 11.3 200 
 BAR2 EZ I        1323  9.61        14.1 0.32            174           11.3 200 
 PAM  EZ EP       1322 56.19                             148   -0.0210 87.4  34 
 PAM  EN ES       1323 13.67                             148   -0.5410 87.4  34 
 PAM  EZ I        1323 15.63         6.1 0.48            149           87.4  34 
 PTB  HZ EP       1323  0.09                             133   -0.01 9  146 264 
 PTB  HE ES       1323 21.16                             133    0.02 9  146 264 
 PTB  HZ I        1323 24.21         3.7 0.16            133            146 264 
 ZAR  HZ EP       1323  6.35                             122    0.12 8  209 295 
 ZAR  HE ES       1323 31.94                             122   -0.10 8  209 295 
 ZAR  HZ I        1323 38.38         7.6 0.54            122            209 295 
 PRA  HN ES       1324  5.56                             107   -0.74 6  381 210 
                                                                                
