 2011  813 1121 47.4 L   6.775 -73.115147.3  RSN  9 0.4 2.1LRSN                1
 GAP=142        0.77       4.0     6.3  5.7 -0.3028E+01  0.6698E+01  0.6125E+01E
 Epicentro: LOS SANTOS - SANTANDER                                             3
 ACTION:UPD 12-07-13 15:51 OP:ep   STATUS:               ID:20110813112147 L   I
 2011-08-13-1120-59S.COL___149                                                 6
 STAT SP IPHASW D HRMM SECON CODA AMPLIT PERI AZIMU VELO AIN AR TRES W  DIS CAZ7
 BAR2 SZ IP       1122  7.05                             171   -0.1710 21.5 200 
 BAR2 SZ ES   1   1122 21.99                             171   -0.66 7 21.5 200 
 BAR2 SZ I        1122 24.71        34.0 0.42                          21.5 200 
 BRR  HZ IP     D 1122  8.94                             151   -0.0610 75.5 299 
 BRR  HZ I        1122  9.22        45.1 0.28                          75.5 299 
 BRR  HN ES   1   1122 26.57                             151    0.75 7 75.5 299 
 PAM  SZ EP       1122  9.90                             151    0.0810 77.5  36 
 RUS  HZ EP       1122 11.31                             145    0.1810 97.6 178 
 RUS  HE ES   1   1122 29.72                             145    0.11 7 97.6 178 
 RUS  HZ I        1122 30.57        15.1 0.26                          97.6 178 
 OCA  SZ EP   3   1122 15.92                             129   -0.25 2  163 352 
 OCA  SZ ES   2   1122 38.41                             129   -0.17 5  163 352 
 OCA  SZ I        1122 43.48        20.4 0.27                           163 352 
 NOR  SZ EP       1122 22.61                             119   -0.77 8  236 235 
 NOR  SE ES   2   1122 51.26                             119   -0.16 4  236 235 
 CHI  HZ IP     D 1122 25.34                             118    0.31 8  247 196 
 CHI  HZ I        1122 26.97         4.4 0.14                           247 196 
 CHI  HN ES   2   1122 54.79                             118    0.44 4  247 196 
 TOL  SZ EP       1122 36.28                             109    0.48 7  344 225 
 PRA  HZ EP       1122 40.95                             107    0.02 6  391 210 
 PRA  HE ES   2   1123 22.18                             107   -0.47 3  391 210 
                                                                                
