 2017  913 1847 21.3 L   6.744 -73.109146.1  RSN  6 0.5 1.6LRSN                1
 GAP=237        1.03       6.4     7.0  9.0  0.1889E+02  0.3340E+02  0.2264E+02E
 Epicentro: LOS SANTOS - SANTANDER                                             3
 ACTION:UPD 17-10-05 19:12 OP:rebc STATUS:               ID:20170913184721 L   I
 OLDACT:UP  17-09-14 00:20 OP:dnl  STATUS:               ID:20170913183745     3
 OLDACT:UP  17-09-14 00:20 OP:dnl  STATUS:               ID:20170913183745     3
 OLDACT:REG 17-09-13 21:33 OP:dnl  STATUS:               ID:20170913183745     3
 2017-09-13-1838-00M.COL___464                                                 6
 STAT SP IPHASW D HRMM SECON CODA AMPLIT PERI AZIMU VELO AIN AR TRES W  DIS CAZ7
 BAR2 EZ EP   2   1847 40.67                             173   -0.27 5 18.7 206 
 BAR2 EZ ES       1847 55.88                             173   -0.3310 18.7 206 
 BAR2 EZ I        1847 56.76        10.2 0.18            173           18.7 206 
 BRR  HZ EP   2   1847 42.96                             150    0.04 5 77.8 301 
 BRR  HE ES       1848  0.30                             150    0.5610 77.8 301 
 BRR  HZ I        1848  2.36        15.4 0.44            148           77.8 301 
 RUS  HZ EP       1847 44.47                             146   -0.2210 94.2 178 
 RUS  HE ES       1848  3.14                             146    0.2510 94.2 178 
 RUS  HZ I        1848  4.33         5.1 0.36            148           94.2 178 
 ZAR  HE ES       1848 19.87                             122   -0.39 8  210 293 
 ZAR  HZ I        1848 27.59         5.8 0.38            121            210 293 
 NOR  HZ EP   4   1847 55.50                             119   -1.58 0  235 236 
 NOR  HE ES       1848 24.13                             119   -0.82 8  235 236 
 NOR  HZ I        1848 25.55         2.5 0.14            119            235 236 
 GUY2CHZ EP       1848  5.52                             112    0.57 7  301 236 
 GUY2CHE ES       1848 39.60                             112    0.63 7  301 236 
 GUY2CHZ I        1848 46.76         1.3 0.28                           301 236 
                                                                                
