 2012 1013 1823 55.3 L   6.779 -73.118143.9  RSN 12 0.4 2.6LRSN 3.0WRSN        1
 SPEC AVERAGE  MO 13.6 ST  6.0 OM  2.9 f0 3.72 R0.4469 AL 2.16 WI 22.6 MW  3.0 3
 SPEC SD       MO  0.2 ST  5.9 OM  1.0 f0 1.20 R0.1634 AL      WI      MW  0.2 3
 GAP= 68        0.76       3.8     4.0  4.8  0.7925E+00  0.4042E+01  0.6610E+01E
 Epicentro: LOS SANTOS - SANTANDER                                             3
 SPEC RUS HH N MO 13.3 ST0.295 OM  1.7 f0 2.19 R0.6712 AL 1.47 WI 11.4 MW  2.8 3
 SPEC RUS HH N T182436 K 0.000 GD  174 VS 4.20 DE 3.00 Q0230.0 QA 0.60 VS 4.20 3
 SPEC HEL HH E MO 13.7 ST  3.6 OM  1.8 f0 3.84 R0.3828 AL 1.89 WI 33.9 MW  3.0 3
 SPEC HEL HH E T1825 5 K 0.000 GD  309 VS 4.20 DE 3.00 Q0230.0 QA 0.60 VS 4.20 3
 SPEC BRR HH N MO 13.9 ST 14.1 OM  2.3 f0 5.13 R0.2865 AL 3.12 WI 22.6 MW  3.2 3
 SPEC BRR HH N T182432 K 0.000 GD  162 VS 4.20 DE 3.00 Q0230.0 QA 0.60 VS 4.20 3
 ACTION:UPD 12-11-22 17:03 OP:ep   STATUS:               ID:20121013182355 L   I
 2012-10-13-1820-00M.COL___231                                                 6
 STAT SP IPHASW D HRMM SECON CODA AMPLIT PERI AZIMU VELO AIN AR TRES W  DIS CAZ7
 BAR2 SZ EP       1824 14.64                             171   -0.0110 21.8 199 
 BAR2 SZ ES   1   1824 29.71                             171   -0.06 7 21.8 199 
 BAR2 SZ I        1824 31.34       101.9 0.22                          21.8 199 
 GIR2 SZ EP       1824 14.60                             166   -0.2110 34.2 346 
 GIR2 SZ ES   2   1824 28.82                             166   -1.23 5 34.2 346 
 BRR  HZ EP       1824 16.48                             151    0.0310 75.0 299 
 BRR  HZ I        1824 16.85        75.6 0.12                          75.0 299 
 BRR  HN ES   1   1824 33.56                             151    0.60 7 75.0 299 
 PAM  SZ EP       1824 17.37                             150    0.0810 77.4  37 
 PAM  SN ES   1   1824 34.78                             150    0.32 7 77.4  37 
 PAM  SN I        1824 35.80        70.9 0.26                          77.4  37 
 RUS  HZ EP       1824 18.54                             144   -0.1210 98.0 178 
 RUS  HN ES   1   1824 36.87                             144   -0.03 7 98.0 178 
 RUS  HN I        1824 37.95        46.8 0.36                          98.0 178 
 TAM  HZ EP       1824 22.76                             131    0.29 9  152 104 
 TAM  HZ I        1824 22.91        66.0 0.36                           152 104 
 ZAR  HZ EP       1824 27.34                             121   -0.65 8  208 292 
 ZAR  HN I        1824 58.43        53.5 0.76                           208 292 
 AGZ  SZ EP       1824 28.70                             120   -0.17 8  216 160 
 CHI  HZ EP       1824 32.64                             117   -0.07 8  247 196 
 CHI  HN ES   3   1825  2.55                             117    0.64 2  247 196 
 CHI  HN I        1825  6.30        21.0 0.58                           247 196 
 HEL  HZ EP       1824 36.06                             114    0.40 8  274 256 
 HEL  HN I        1825 14.95        16.0 0.26                           274 256 
 GUY  SZ EP       1824 39.82                             112    0.62 7  305 236 
 GUY  SN ES   2   1825 13.54                             112    0.09 4  305 236 
 PRA  HZ EP       1824 48.35                             106   -0.32 6  391 210 
 PRA  HN I        1825 34.87         6.3 0.42                           391 210 
                                                                                
