 2012 1113 1449 43.6 L   7.467 -73.188131.3  RSN  6 0.5 1.9LRSN                1
 GAP=138        1.27       6.4     6.2 10.1  0.1079E+02  0.8553E+01 -0.2605E+02E
 Epicentro: EL PLAYON - SANTANDER                                              3
 ACTION:UPD 12-12-05 15:33 OP:}ep  STATUS:               ID:20121113144943 L   I
 2012-11-13-1448-19M.COL___203                                                 6
 STAT SP IPHASW D HRMM SECON CODA AMPLIT PERI AZIMU VELO AIN AR TRES W  DIS CAZ7
 GIR2 SZ EP       1450  1.94                             161    0.0210 42.9 181 
 GIR2 SZ ES       1450 16.51                             161    0.2710 42.9 181 
 PAM  SZ EP       1450  3.49                             156    0.4810 55.7 105 
 PAM  SN ES       1450 18.52                             156    0.3410 55.7 105 
 PAM  SN I        1450 20.27        19.9 0.34                          55.7 105 
 BRR  HZ EP       1450  3.22                             150    0.1210 70.2 236 
 BRR  HN ES       1450 18.43                             150    0.0910 70.2 236 
 BRR  HN I        1450 19.20        19.6 0.20                          70.2 236 
 BAR2 SZ EP       1450  5.06                             142   -0.2010 96.7 180 
 BAR2 SZ ES       1450 21.18                             142   -1.0110 96.7 180 
 BAR2 SZ I        1450 22.43        12.8 0.38                          96.7 180 
 SML  HZ EP       1450 12.32                             123    0.09 9  177 327 
 SML  HN ES       1450 33.70                             123   -0.90 9  177 327 
 ZAR  HN ES       1450 36.67                             122    0.66 9  184 271 
                                                                                
