 2017 1213 1551 22.5 L   6.800 -73.168142.7  RSN  7 0.3 1.7LRSN                1
 GAP=110        0.78       3.8     3.2  5.3 -0.2809E+01  0.4190E+01  0.3429E+01E
 Epicentro: LOS SANTOS - SANTANDER                                             3
 ACTION:UPD 18-01-04 13:20 OP:rebc STATUS:               ID:20171213155122 L   I
 OLDACT:REG 17-12-13 21:10 OP:osc  STATUS:               ID:20171213154601     3
 2017-12-13-1548-00M.COL___452                                                 6
 STAT SP IPHASW D HRMM SECON CODA AMPLIT PERI AZIMU VELO AIN AR TRES W  DIS CAZ7
 BAR2 EZ EP       1551 41.63                             170   -0.1310 23.0 184 
 BAR2 EZ ES       1551 57.20                             170    0.4210 23.0 184 
 BAR2 EZ I        1551 59.86         7.1 0.56            168           23.0 184 
 PAM  EZ EP       1551 44.54                             150    0.0510 79.0  41 
 PAM  EN ES       1552  1.37                             150   -0.2710 79.0  41 
 PAM  EZ I        1552  1.96         7.7 0.30            157           79.0  41 
 PTB  HZ EP       1551 48.53                             132   -0.48 9  145 259 
 PTB  HN ES       1552  9.25                             132   -0.43 9  145 259 
 PTB  HZ I        1552 14.78         3.9 0.12            133            145 259 
 SPBC HZ EP       1551 50.50                             129   -0.12 9  162 218 
 SPBC HN ES       1552 12.78                             129    0.23 9  162 218 
 SPBC HZ I        1552 22.37         7.1 0.10            130            162 218 
 YPLC HZ EP       1551 52.26                             126    0.07 9  178 151 
 ZAR  HZ EP       1551 54.88                             122    0.36 9  202 292 
 ZAR  HN ES       1552 19.81                             122    0.32 9  202 292 
 ZAR  HZ I        1552 26.38         8.1 0.44            124            202 292 
 GUY2CHZ EP       1552  6.26                             112    0.51 7  299 235 
 GUY2CHE ES       1552 39.14                             112   -0.33 7  299 235 
 GUY2CHZ I        1552 49.95         2.0 0.58                           299 235 
                                                                                
