 2014  113 1946 15.6 L   6.359 -73.996 37.0  RSN 10 0.5 2.2LRSN                1
 GAP= 69        1.36       2.9     3.2 22.7 -0.8606E+00 -0.2813E+02  0.3525E+01E
 Epicentro: CIMITARRA - SANTANDER                                              3
 ACTION:UPD 14-03-13 09:55 OP:ep   STATUS:               ID:20140113194615 L   I
 OLDACT:REG 14-01-13 15:04 OP:carl STATUS:               ID:20140113194000     3
 2014-01-13-1940-00M.COL___285                                                 6
 STAT SP IPHASW D HRMM SECON CODA AMPLIT PERI AZIMU VELO AIN AR TRES W  DIS CAZ7
 PTB  HZ EP       1946 25.59                             108   -0.0110 54.7 291 
 PTB  HN ES       1946 33.35                             108   -0.0210 54.7 291 
 PTB  HZ I        1946 34.60       256.4 0.14            108           54.7 291 
 SPBC HZ EP       1946 29.05                              99    0.4410 78.6 186 
 SPBC HN ES       1946 39.41                              99    0.6910 78.6 186 
 SPBC HZ I        1946 40.74        58.6 0.14             98           78.6 186 
 BRR  HZ EP       1946 29.49                              97   -0.2210 88.4  21 
 BRR  HN ES       1946 40.78                              97    0.0910 88.4  21 
 BRR  HZ I        1946 41.61        86.4 0.36             61           88.4  21 
 BAR2 SZ EP       1946 30.13                              96   -0.5110 93.6  74 
 BAR2 SZ ES   4   1946 40.92                              96   -1.42 0 93.6  74 
 BAR2 SZ I        1946 45.51       105.2 0.38             61           93.6  74 
 RUS  HZ EP       1946 33.33                              94   -0.0910  113 117 
 RUS  HE ES       1946 46.28                              94   -1.0010  113 117 
 NOR  HZ EP       1946 34.66                              93   -0.3910  131 228 
 NOR  HN ES       1946 49.82                              93   -0.3610  131 228 
 NOR  HZ I        1946 55.37        14.4 0.12             61            131 228 
 ZAR  HZ EP       1946 37.98                              93   -0.34 9  157 323 
 ZAR  HN ES       1946 55.60                              93   -0.41 9  157 323 
 ZAR  HZ I        1946 57.20        28.7 0.30             61            157 323 
 HEL  HZ EP       1946 41.09                              92    0.68 9  171 264 
 HEL  HN ES   4   1947  0.18                              92    0.45 0  171 264 
 HEL  HZ I        1947  0.90        49.0 0.18             61            171 264 
 PAM  SZ EP       1946 42.47                              92    0.79 9  180  53 
 PAM  SN ES       1947  2.93                              92    0.94 9  180  53 
 PAM  SZ I        1947  6.47        19.8 0.18             61            180  53 
 GUY2CHZ EP   4   1946 45.69                              81    1.90 0  197 230 
 GUY2CHN ES   4   1947  8.31                              81    2.57 0  197 230 
 GUY2CHZ I        1947 10.13         8.1 0.34                           197 230 
                                                                                
