 2014  913 1014 37.8 L   7.426 -73.131131.9  RSN  7 0.3 1.4LRSN                1
 GAP=197        0.75       3.6     5.2  5.8 -0.2384E+00  0.3279E+01  0.3470E+01E
 Epicentro: EL PLAYON - SANTANDER                                              3
 ACTION:UPD 14-10-03 23:04 OP:nd   STATUS:               ID:20140913101437 L   I
 OLDACT:UP  14-09-13 21:12 OP:spq  STATUS:               ID:20140913100820     3
 OLDACT:REG 14-09-13 19:54 OP:spq  STATUS:               ID:20140913100820     3
 2014-09-13-1008-20M.COL___296                                                 6
 STAT SP IPHASW D HRMM SECON CODA AMPLIT PERI AZIMU VELO AIN AR TRES W  DIS CAZ7
 BRR  HZ EP       1014 57.59                             149   -0.0010 73.2 241 
 BRR  HN ES       1015 12.82                             149   -0.2110 73.2 241 
 BRR  HZ I        1015 16.04         7.0 0.40            147           73.2 241 
 OCA  HN ES       1015 15.93                             143    0.1910 92.3 347 
 OCA  HZ I        1015 18.25         3.2 0.18            146           92.3 347 
 BAR2 SZ EP   1   1014 58.68                             143   -0.56 7 92.4 184 
 BAR2 SZ ES   1   1015 16.19                             143    0.23 7 92.4 184 
 BAR2 SZ I        1015 16.95        10.7 0.12            143           92.4 184 
 PTB  HZ EP       1015  6.10                             123   -0.38 9  176 236 
 PTB  HE ES   1   1015 28.92                             123    0.06 7  176 236 
 PTB  HZ I        1015 31.77         1.4 0.20            124            176 236 
 SML  HZ EP   1   1015  6.92                             122   -0.34 7  184 326 
 SML  HN ES   4   1015 28.70                             122   -1.54 0  184 326 
 SML  HZ I        1015 30.15         3.8 0.10            124            184 326 
 ZAR  HZ EP   1   1015  8.36                             121    0.38 7  191 272 
 ZAR  HE ES       1015 31.55                             121    0.03 9  191 272 
 ZAR  HZ I        1015 34.25         2.3 0.30            122            191 272 
 SPBC HZ EP       1015 12.08                             117    0.66 8  222 208 
 SPBC HE ES   4   1015 39.41                             117    1.76 0  222 208 
 SPBC HZ I        1015 44.87         1.2 0.20            118            222 208 
                                                                                
