 2017  413 1632 58.4 L   6.798 -73.137147.1  RSN  5 0.4 1.1LRSN                1
 GAP=138        1.05       5.7     5.0  8.8 -0.6374E+00  0.1341E+02 -0.3665E+01E
 Epicentro: LOS SANTOS - SANTANDER                                             3
 ACTION:UPD 17-05-30 21:11 OP:jn   STATUS:               ID:20170413163258 L   I
 OLDACT:UP  17-04-14 00:15 OP:edw  STATUS:               ID:20170413162746     3
 OLDACT:REG 17-04-13 21:35 OP:edw  STATUS:               ID:20170413162746     3
 2017-04-13-1628-00M.COL___371                                                 6
 STAT SP IPHASW D HRMM SECON CODA AMPLIT PERI AZIMU VELO AIN AR TRES W  DIS CAZ7
 BAR2 EZ EP       1633 18.02                             171   -0.1410 23.3 192 
 BAR2 EZ ES       1633 34.01                             171    0.4110 23.3 192 
 PAM  EZ EP     C 1633 21.07                             151    0.3710 77.0  39 
 PAM  EN ES       1633 37.91                             151   -0.2110 77.0  39 
 PAM  EZ I        1633 40.33         2.2 0.54            153           77.0  39 
 RUS  HZ EP       1633 21.81                             144   -0.4210  100 177 
 RUS  HN ES       1633 40.56                             144   -0.2810  100 177 
 RUS  HZ I        1633 41.46         3.5 0.26            147            100 177 
 PTB  HZ EP       1633 26.19                             132    0.66 9  149 259 
 PTB  HE ES       1633 46.94                             132    0.23 9  149 259 
 PTB  HZ I        1633 50.70         1.0 0.18            133            149 259 
 ZAR  HE ES       1633 55.77                             122   -0.69 9  205 292 
                                                                                
