 2016  513 1611 45.4 L   6.796 -73.147147.9  RSN 24 0.5 2.8LRSN                1
 GAP= 55        1.13       2.8     2.8  4.8 -0.5387E+00  0.3250E+01  0.2487E+01E
 Epicentro: LOS SANTOS - SANTANDER                                             3
 ACTION:UPD 16-08-18 17:45 OP:cam  STATUS:               ID:20160513161145 L   I
 OLDACT:REG 16-05-13 20:44 OP:ak   STATUS:               ID:20160513160744     3
 2016-05-13-1607-44M.COL___313                                                 6
 STAT SP IPHASW D HRMM SECON CODA AMPLIT PERI AZIMU VELO AIN AR TRES W  DIS CAZ7
 BAR2 EZ IP     D 1612  5.40                             171    0.1010 22.9 190 
 BAR2 EZ ES       1612 20.68                             171   -0.1310 22.9 190 
 BAR2 EZ I        1612 21.62       107.7 0.26            170           22.9 190 
 BRR  HZ EP       1612  7.19                             153    0.3810 71.3 299 
 BRR  HN ES       1612 24.02                             153    0.5310 71.3 299 
 BRR  HZ I        1612 26.30        64.2 0.15            153           71.3 299 
 PAM  EZ EP       1612  8.44                             151    0.5510 77.8  39 
 PAM  EN ES       1612 25.45                             151    0.0410 77.8  39 
 PAM  EZ I        1612 28.64        73.5 0.52            149           77.8  39 
 RUS  HZ EP       1612  9.39                             144    0.0410  100 176 
 RUS  HN ES       1612 27.77                             144   -0.2510  100 176 
 RUS  HZ I        1612 29.47        48.4 0.30            143            100 176 
 PTB  HZ EP       1612 11.96                             133   -0.58 9  148 259 
 PTB  HN ES       1612 32.98                             133   -0.72 9  148 259 
 PTB  HZ I        1612 35.71        52.8 0.16            132            148 259 
 TAM  HZ EP       1612 13.75                             131    0.48 9  155 105 
 TAM  HZ I        1612 34.74        38.4 0.44            129            155 105 
 TAM  HN ES       1612 34.75                             131   -0.24 9  155 105 
 OCA  HZ EP       1612 13.36                             130   -0.57 9  161 353 
 OCA  HN ES       1612 36.12                             130   -0.06 9  161 353 
 OCA  HZ I        1612 39.36       127.3 0.18            129            161 353 
 SPBC HZ EP       1612 14.37                             130    0.33 9  163 219 
 SPBC HN ES       1612 36.45                             130    0.08 9  163 219 
 SPBC HZ I        1612 40.63        95.3 0.09            128            163 219 
 ZAR  HZ EP       1612 17.80                             123   -0.21 9  204 292 
 ZAR  HN ES       1612 43.17                             123   -0.26 9  204 292 
 ZAR  HZ I        1612 48.53        64.5 0.38            122            204 292 
 NOR  HZ EP       1612 21.54                             119    0.30 8  234 235 
 NOR  HN ES       1612 49.08                             119   -0.09 8  234 235 
 NOR  HZ I        1612 54.91        40.7 0.22            118            234 235 
 CHI  HZ EP       1612 23.41                             118    0.22 8  248 195 
 CHI  HN ES       1612 52.97                             118    0.32 8  248 195 
 CHI  HZ I        1612 58.04        37.6 0.38            116            248 195 
 ROSC BZ EP   9   1612 25.24                             117    1.63 0  252 211 
 ROSC BN ES       1612 55.33                                    0.30 8  252 211 
 ROSC BZ I        1613  0.08       118.9 0.40            116            252 211 
 HEL  HZ EP       1612 27.33                             115    1.61 8  272 256 
 HEL  HN ES       1612 57.99                             115    0.84 8  272 256 
 HEL  HZ I        1613  4.00        27.1 0.24            114            272 256 
 URE  HZ EP       1612 25.84                             114   -0.76 7  284 292 
 URE  HN ES   4   1612 56.02                             114   -2.70 0  284 292 
 URE  HZ I        1613  4.54        35.2 0.14            113            284 292 
 VIL  SZ EP       1612 28.21                             112   -0.67 7  303 192 
 VIL  SN ES       1613  1.76                             112   -1.03 7  303 192 
 PTGC HZ EP       1612 28.61                             112   -0.72 7  308 159 
 PTGC HN ES   4   1613  1.77                             112   -1.81 0  308 159 
 PTGC HZ I        1613  7.36        30.6 0.52            111            308 159 
 CBOC HZ EP       1612 33.21                             110    0.81 7  333 252 
 CBOC HE ES   1   1613  9.16                             110    0.12 5  333 252 
 DBB  SZ EP       1612 32.46                             110   -0.51 7  339 274 
 DBB  SZ ES       1613  9.08                             110   -0.98 7  339 274 
 DBB  SZ I        1613 12.97        71.6 0.48            109            339 274 
 ANIL HZ EP   4   1612 36.99                             109    1.73 0  357 225 
 ANIL HE ES   4   1613 16.94                             109    2.80 0  357 225 
 SDV  BZ EP   2   1612 35.11                             109   -0.47 3  361  50 
 PRA  HZ EP       1612 38.91                             107   -0.05 6  392 210 
 PRA  HN ES       1613 20.66                             107   -0.07 6  392 210 
 PRA  HZ I        1613 25.64        34.9 0.56            106            392 210 
 ORTC HZ EP       1612 39.95                             107    0.59 6  395 216 
 ORTC HE ES       1613 21.68                             107    0.24 6  395 216 
 ORTC HZ I        1613 26.85        21.0 0.16            106            395 216 
 PAL  HZ EP       1612 40.77                             106    0.16 6  405 239 
 PAL  HN ES       1613 23.53                             106   -0.13 6  405 239 
 PAL  HZ I        1613 28.92         9.2 0.20            105            405 239 
 SJC  HZ EP   4   1612 38.45                             106   -2.63 0  410 327 
 SJC  HN ES   4   1613 20.57                             106   -3.93 0  410 327 
 SJC  HZ I        1613 29.39        10.1 0.40            105            410 327 
 CRJC HZ EP   4   1612 45.89                             104   -2.14 0  468   4 
 CRJC HE ES   4   1613 33.48                             104   -3.38 0  468   4 
 CRJC HZ I        1613 40.61        13.8 0.25            103            468   4 
 MACC HZ EP   4   1612 52.36                             102   -1.77 0  520 189 
 MACC HN ES   4   1613 44.72                             102   -3.00 0  520 189 
                                                                                
