 2016  913 1951  7.0 L   6.797 -73.180136.0  RSN  4 0.3 1.8LRSN                1
 GAP=132        0.58       3.3     3.8  7.7 -0.2497E+00  0.1304E+02 -0.6066E+01E
 Epicentro: LOS SANTOS - SANTANDER                                             3
 ACTION:UPD 17-08-17 21:09 OP:lp   STATUS:               ID:20160913195107 L   I
 OLDACT:REG 16-09-13 21:53 OP:dnl  STATUS:               ID:20160913194740     3
 2016-09-13-1948-00M.COL___318                                                 6
 STAT SP IPHASW D HRMM SECON CODA AMPLIT PERI AZIMU VELO AIN AR TRES W  DIS CAZ7
 BAR2 EZ ES   2   1951 39.25                             170   -0.53 5 22.6 181 
 BAR2 EZ I        1951 41.34        17.1 0.22            171           22.6 181 
 PAM  EZ EP       1951 28.05                             149   -0.2710 80.1  41 
 PAM  EN ES       1951 45.22                             149    0.2410 80.1  41 
 PAM  EZ I        1951 47.29        19.1 0.48            152           80.1  41 
 RUS  HZ EP   2   1951 29.43                             142   -0.33 5  101 174 
 RUS  HN ES       1951 47.71                             142    0.1710  101 174 
 RUS  HZ I        1951 49.01         8.9 0.26            146            101 174 
 ZAR  HZ EP   2   1951 38.86                             121    0.43 4  201 293 
 ZAR  HE ES       1952  2.99                             121    0.01 9  201 293 
 ZAR  HZ I        1952 10.10         6.8 0.34            122            201 293 
                                                                                
