 2017  113 1435 29.0 L   6.809 -73.181142.0  RSN  5 0.4 1.2LRSN                1
 GAP=144        0.81       5.0     4.8  6.8 -0.7390E+01  0.9047E+01 -0.3052E+01E
 Epicentro: ZAPATOCA - SANTANDER                                               3
 ACTION:UPD 17-05-22 15:59 OP:jn   STATUS:               ID:20170113143529 L   I
 OLDACT:UP  17-01-13 22:48 OP:dani STATUS:               ID:20170113142618     3
 OLDACT:UP  17-01-13 22:48 OP:dani STATUS:               ID:20170113142618     3
 OLDACT:UP  17-01-13 22:42 OP:dani STATUS:               ID:20170113142618     3
 OLDACT:UP  17-01-13 22:42 OP:dani STATUS:               ID:20170113142618     3
 OLDACT:REG 17-01-13 20:17 OP:dani STATUS:               ID:20170113142618     3
 2017-01-13-1428-00M.COL___329                                                 6
 STAT SP IPHASW D HRMM SECON CODA AMPLIT PERI AZIMU VELO AIN AR TRES W  DIS CAZ7
 BAR2 EZ EP       1435 47.57                             170   -0.6110 23.9 180 
 BAR2 EZ ES       1436  3.17                             170    0.0210 23.9 180 
 PAM  EZ EP       1435 51.09                             150    0.1710 79.2  42 
 PAM  EN ES       1436  8.20                             150    0.1810 79.2  42 
 PAM  EZ I        1436  9.77         2.0 0.14            152           79.2  42 
 RUS  HZ EP       1435 52.20                             143   -0.2710  102 174 
 RUS  HN ES       1436 11.14                             143    0.3610  102 174 
 RUS  HZ I        1436 12.21         2.5 0.28            146            102 174 
 PTB  HZ EP       1435 55.30                             132   -0.02 9  144 258 
 PTB  HN ES       1436 15.99                             132    0.13 9  144 258 
 PTB  HZ I        1436 19.36         4.3 0.14            133            144 258 
 GUY2CHZ EP   3   1436 14.28                             112    2.15 2  299 234 
                                                                                
