 2013  813 1432 25.7 L   6.816 -73.189138.0  RSN  6 0.4 1.7LRSN                1
 GAP=130        0.97       6.1     5.3  8.1  0.5064E+01  0.8807E+01  0.7627E+00E
 Epicentro: ZAPATOCA - SANTANDER                                               3
 ACTION:UPD 14-01-14 09:01 OP:ep   STATUS:               ID:20130813143225 L   I
 OLDACT:REG 13-08-13 14:45 OP:mh   STATUS:               ID:20130813142959     3
 2013-08-13-1429-59M.COL___271                                                 6
 STAT SP IPHASW D HRMM SECON CODA AMPLIT PERI AZIMU VELO AIN AR TRES W  DIS CAZ7
 BAR2 SZ EP   1   1432 44.38                             169   -0.09 7 24.8 178 
 BAR2 SZ ES   1   1432 59.73                             169    0.65 7 24.8 178 
 BAR2 SZ I        1433  5.29         5.4 0.20            169           24.8 178 
 BRR  HZ IP     D 1432 46.17                             153    0.4010 66.2 299 
 BRR  HN ES       1433  0.60                             153   -0.7910 66.2 299 
 BRR  HN I        1433  4.20        20.7 0.32            153           66.2 299 
 PAM  SZ EP   1   1432 47.12                             149   -0.13 7 79.2  43 
 PAM  SN ES   1   1433  4.22                             149    0.19 7 79.2  43 
 PAM  SZ I        1433  5.86         6.3 0.16            155           79.2  43 
 RUS  HZ EP   1   1432 48.54                             141   -0.37 7  103 173 
 RUS  HN ES   1   1433  6.95                             141   -0.02 7  103 173 
 RUS  HN I        1433 10.08         4.7 0.44            145            103 173 
 PTB  HZ EP   1   1432 51.09                             131   -0.60 7  143 258 
 PTB  HN ES   1   1433 12.32                             131    0.39 7  143 258 
 PTB  HN I        1433 14.76        13.6 0.24            133            143 258 
 ZAR  HZ EP   1   1432 57.60                             121    0.44 6  199 292 
 ZAR  HN ES   1   1433 22.09                             121    0.42 6  199 292 
 ZAR  HN I        1433 29.69        10.6 0.26            124            199 292 
                                                                                
