 2011 1213 1414 50.9 L   7.346 -73.280122.0  RSN  5 0.2 2.2LRSN                1
 GAP=210        0.39       6.0     3.7  5.1 -0.6089E+01  0.4639E+01 -0.2643E+01E
 Epicentro: RIONEGRO - SANTANDER                                               3
 ACTION:UPD 12-07-13 16:15 OP:ep   STATUS:               ID:20111213141450 L   I
 2011-12-13-1410-00M.COL___183                                                 6
 STAT SP IPHASW D HRMM SECON CODA AMPLIT PERI AZIMU VELO AIN AR TRES W  DIS CAZ7
 GIR2 SZ EP   2   1415  7.68                             164   -0.05 5 31.1 162 
 GIR2 SZ ES   2   1415 20.77                             164   -0.11 5 31.1 162 
 BRR  HZ EP       1415  8.39                             154   -0.1410 54.5 241 
 BRR  HE ES   2   1415 22.38                             154    0.09 5 54.5 241 
 BRR  HZ I        1415 23.09        53.4 0.12                          54.5 241 
 PAM  SZ EP   2   1415  9.84                             150    0.07 5 64.1  91 
 PAM  SN ES   2   1415 24.60                             150    0.08 5 64.1  91 
 BAR2 SZ EP       1415 10.96                             143    0.2110 84.1 173 
 BAR2 SZ ES   2   1415 25.90                             143   -0.34 5 84.1 173 
 BAR2 SZ I        1415 27.30        23.0 0.31                          84.1 173 
 PTB  HZ EP   2   1415 16.67                             124   -0.34 5  158 236 
 PTB  HE ES   2   1415 37.68                             124    0.29 5  158 236 
                                                                                
