 2010 1013 1306  7.6 L   6.794 -73.034136.9  RSN  5 0.4 1.6LRSN                1
 GAP=205        0.84       9.9    12.2 11.6  0.4865E+01 -0.6755E+02 -0.3040E+02E
 Epicentro: CEPITA - SANTANDER                                                 3
 ACTION:UP  11-02-18 11:09 OP:tino STATUS:               ID:20101013130607 L   I
 2010-10-13-1301-38S.COL___124                                                 6
 STAT SP IPHASW D HRMM SECON CODA AMPLIT PERI AZIMU VELO SNR AR TRES W  DIS CAZ7
 BAR2 SZ EP       13 6 26.39                             167     0.110   28 217 
 BAR2 SZ ES   2   13 6 40.83                             167     0.0 5   28 217 
 BAR2 SZ I        13 6 42.24         6.4 0.21                            28 217 
 BTL  SZ EP       13 6 26.80                             167     0.510   29 298 
 BTL  SZ ES   2   13 6 40.07                             167    -0.9 5   29 298 
 BRR  HZ EP       13 6 28.28                             147    -0.310   83 295 
 BRR  HE ES   1   13 6 45.13                             147     0.3 7   83 295 
 BRR  HZ I        13 6 45.84        14.1 0.15                            83 295 
 GUE  SZ EP       13 6 31.17                             138    -0.310  115   6 
 GRA  SZ ES   3   13 6 51.54                             136     0.7 2  123  12 
                                                                                
