 2011  213 1338 43.3 L   6.872 -73.072146.7  RSN  5 0.1 1.3LRSN                1
 GAP=166        0.33       3.3    11.1  4.1 -0.2446E+02 -0.1025E+02  0.3269E+01E
 Epicentro: LOS SANTOS - SANTANDER                                             3
 ACTION:UP  11-03-28 15:08 OP:jfem STATUS:               ID:20110213133843 L   I
 2011-02-13-1336-08S.COL___136                                                 6
 STAT SP IPHASW D HRMM SECON CODA AMPLIT PERI AZIMU VELO SNR AR TRES W  DIS CAZ7
 BTL  SZ EP   1   1339  3.16                             171     0.1 7   22 283 
 BTL  SZ ES   1   1339 18.36                             171    -0.1 7   22 283 
 BAR2 SZ EP   1   1339  3.14                             167    -0.2 7   33 202 
 BAR2 SZ ES   1   1339 18.95                             167     0.1 7   33 202 
 BAR2 SZ I        1339 22.16         3.4 0.36                            33 202 
 RUS  HZ EP   3   1339  7.51                             142    -0.2 2  108 181 
 RUS  HN ES   2   1339 26.81                             142     0.0 5  108 181 
 RUS  HZ I        1339 28.71         1.6 0.19                           108 181 
 GRA  SZ ES   1   1339 26.98                             140     0.0 7  116  15 
 GRA  SZ I        1339 28.35         4.4 0.34                           116  15 
 CHI  HZ EP   2   1339 22.26                             116     0.1 4  259 196 
 CHI  HZ I        1339 59.35         1.7 0.40                           259 196 
                                                                                
