 2015  213 1324 28.3 L   6.790 -73.174146.3  RSN  5 0.4 1.6LRSN                1
 GAP=133        0.87       4.8     5.3 11.1 -0.5862E+01  0.2007E+02 -0.2860E+02E
 Epicentro: LOS SANTOS - SANTANDER                                             3
 ACTION:UPD 15-04-30 21:25 OP:nd   STATUS:               ID:20150213132428 L   I
 OLDACT:DUP 15-02-13 23:06 OP:stll STATUS:               ID:20150213131751d    3
 OLDACT:REG 15-02-13 20:45 OP:stll STATUS:               ID:20150213131750     3
 2015-02-13-1317-50M.COL___305                                                 6
 STAT SP IPHASW D HRMM SECON CODA AMPLIT PERI AZIMU VELO AIN AR TRES W  DIS CAZ7
 BAR2 EZ ES       1325  3.32                             171   -0.0110 21.9 182 
 BAR2 EZ I        1325  5.31         7.5 0.44            169           21.9 182 
 PAM  SZ EP       1324 51.12                             150    0.3510 80.3  41 
 PAM  SN ES       1325  8.42                             150    0.1410 80.3  41 
 RUS  HN ES       1325 10.15                             144   -0.4410 99.7 174 
 PTB  HN ES       1325 16.24                             133    0.36 9  144 259 
 PTB  HZ I        1325 24.01         3.5 0.30            130            144 259 
 SML  HN ES       1325 32.95                             117   -0.57 8  243 336 
 SML  HZ I        1325 38.30         4.7 0.10            117            243 336 
                                                                                
