 2012 1013 1915 36.4 L   6.779 -73.133139.0  RSN  6 0.3 2.0LRSN                1
 GAP=139        0.62       4.1     5.3  6.2  0.4963E+01 -0.4430E+01 -0.3468E+01E
 Epicentro: LOS SANTOS - SANTANDER                                             3
 ACTION:UPD 12-11-22 17:03 OP:ep   STATUS:               ID:20121013191536 L   I
 2012-10-13-1910-00M.COL___231                                                 6
 STAT SP IPHASW D HRMM SECON CODA AMPLIT PERI AZIMU VELO AIN AR TRES W  DIS CAZ7
 BAR2 SZ EP       1915 55.19                             171    0.0010 21.3 195 
 BAR2 SZ ES   1   1916  9.61                             171   -0.23 7 21.3 195 
 BAR2 SZ I        1916 12.38        19.3 0.20                          21.3 195 
 GIR2 SZ EP       1915 55.25                             166   -0.1110 33.9 349 
 BRR  HZ EP       1915 56.93                             150   -0.0510 73.6 300 
 BRR  HN ES   1   1916 13.61                             150    0.59 7 73.6 300 
 BRR  HN I        1916 17.44        63.5 0.18                          73.6 300 
 PAM  SZ EP       1915 58.01                             149    0.0410 78.3  38 
 PAM  SN ES   2   1916 14.59                             149   -0.20 5 78.3  38 
 PAM  SN I        1916 16.33         8.5 0.46                          78.3  38 
 RUS  HZ EP       1915 59.58                             143    0.2510 98.1 177 
 RUS  HN ES   1   1916 16.99                             143   -0.21 7 98.1 177 
 RUS  HN I        1916 19.43        14.6 0.22                          98.1 177 
 ZAR  HN ES   2   1916 32.93                             120   -0.88 4  206 293 
 ZAR  HN I        1916 41.89        15.7 0.16                           206 293 
                                                                                
