 2014 1213 1753  9.1 L   6.790 -73.162136.9  RSN 17 0.4 2.3LRSN                1
 GAP=135        0.93       2.2     3.2  4.5 -0.1232E+01  0.4787E+01  0.1641E+01E
 Epicentro: LOS SANTOS - SANTANDER                                             3
 ACTION:UPD 15-02-10 17:03 OP:nd   STATUS:               ID:20141213175309 L   I
 OLDACT:DUP 14-12-13 23:24 OP:fm   STATUS:               ID:20141213174748d    3
 2014-12-13-1747-46M.COL___294                                                 6
 STAT SP IPHASW D HRMM SECON CODA AMPLIT PERI AZIMU VELO AIN AR TRES W  DIS CAZ7
 BAR2 EZ EP       1753 28.01                             170    0.3610 22.0 186 
 BAR2 EZ ES       1753 41.53                             170   -0.5810 22.0 186 
 BAR2 EZ I        1753 44.25        47.9 0.22            170           22.0 186 
 BRR  HZ EP       1753 29.88                             151    0.6310 70.2 300 
 BRR  HE ES       1753 45.36                             151    0.4010 70.2 300 
 BRR  HZ I        1753 47.49        33.8 0.66            147           70.2 300 
 PAM  SZ EP     D 1753 30.84                             148    0.3210 79.4  40 
 PAM  SN ES       1753 47.49                             148    0.2810 79.4  40 
 PAM  SZ I        1753 50.09        18.7 0.46            147           79.4  40 
 RUS  HZ EP       1753 31.76                             142   -0.1710 99.6 175 
 RUS  HN ES       1753 49.24                             142   -0.4910 99.6 175 
 RUS  HZ I        1753 51.00        18.1 0.24            141           99.6 175 
 PTB  HZ EP       1753 34.82                             130   -0.37 9  146 259 
 PTB  HE ES       1753 56.06                             130    0.53 9  146 259 
 PTB  HZ I        1754  1.15        22.4 0.32            127            146 259 
 SPBC HZ EP       1753 36.96                             127    0.20 9  161 219 
 SPBC HN ES       1753 58.25                             127   -0.07 9  161 219 
 SPBC HZ I        1754  1.37        34.7 0.24            125            161 219 
 OCA  HN ES       1753 58.17                             127   -0.29 9  161 354 
 OCA  HZ I        1754  0.15        23.7 0.24            124            161 354 
 ZAR  HZ EP   1   1753 41.01                             120    0.14 6  203 293 
 ZAR  HN ES       1754  5.81                             120    0.17 9  203 293 
 ZAR  HZ I        1754 12.17        23.6 0.28            117            203 293 
 NOR  HZ EP   1   1753 44.33                             117    0.21 6  233 234 
 NOR  HN ES       1754 11.21                             117   -0.21 8  233 234 
 NOR  HZ I        1754 18.47        22.0 0.54            114            233 234 
 SML  HZ EP       1753 44.64                             115   -0.65 8  244 336 
 SML  HN ES       1754 13.05                             115   -0.45 8  244 336 
 SML  HZ I        1754 16.65        25.4 0.32            113            244 336 
 CHI  HZ EP       1753 45.80                             115   -0.37 8  247 195 
 CHI  HN ES       1754 15.15                             115    0.08 8  247 195 
 CHI  HZ I        1754 21.36        12.1 0.26            113            247 195 
 ROSC BZ EP       1753 47.15                             115    0.59 8  251 211 
 ROSC BN ES       1754 15.87                             115    0.10 8  251 211 
 ROSC BZ I        1754 24.02        22.3 0.50            113            251 211 
 HEL  HZ EP       1753 48.01                             113   -0.66 8  270 256 
 HEL  HN ES       1754 18.83                             113   -0.69 8  270 256 
 HEL  HZ I        1754 25.93         7.5 0.20            111            270 256 
 RREF HZ EP       1753 54.55                             109   -0.10 7  320 229 
 RREF HN ES       1754 29.95                             109   -0.22 7  320 229 
 RREF HZ I        1754 40.47        11.6 0.24            107            320 229 
 TOL  SZ EP       1753 56.77                             108   -0.02 7  341 225 
 TOL  SN ES       1754 34.16                             108    0.18 7  341 225 
 TOL  SZ I        1754 44.86        27.4 0.52            106            341 225 
 ANIL HZ EP       1753 58.90                             107    0.55 6  355 224 
 ANIL HN ES       1754 37.24                             107    0.48 6  355 224 
 ANIL HZ I        1754 44.78         3.1 0.28            105            355 224 
 SJC  HZ EP   4   1754  2.52                             104   -1.87 0  409 327 
 SJC  HN ES   4   1754 41.19                             104   -6.32 0  409 327 
 SJC  HZ I        1754 48.13         5.0 0.54            102            409 327 
                                                                                
