 2015  313 1411 46.5 L   6.818 -73.107153.4  RSN  9 0.4 1.9LRSN                1
 GAP=141        0.83       3.8     5.4  6.2 -0.7680E+01  0.1235E+02 -0.3817E+00E
 Epicentro: LOS SANTOS - SANTANDER                                             3
 ACTION:UPD 15-04-30 16:25 OP:nd   STATUS:               ID:20150313141146 L   I
 OLDACT:REG 15-03-13 21:18 OP:y    STATUS:               ID:20150313140748     3
 2015-03-13-1407-48M.COL___275                                                 6
 STAT SP IPHASW D HRMM SECON CODA AMPLIT PERI AZIMU VELO AIN AR TRES W  DIS CAZ7
 BAR2 EZ EP       1412  6.92                             170   -0.1910 26.3 199 
 BAR2 EZ ES   1   1412 22.71                             170   -0.47 7 26.3 199 
 BAR2 EZ I        1412 23.58         7.6 0.40            168           26.3 199 
 PAM  SZ EP       1412  9.67                             153    0.3710 73.2  38 
 PAM  SE ES       1412 26.90                             153   -0.1710 73.2  38 
 PAM  SZ I        1412 29.10        10.6 0.50            157           73.2  38 
 BRR  HZ EP       1412  9.02                             153    0.3810 74.1 296 
 BRR  HE ES   1   1412 26.61                             153    0.71 7 74.1 296 
 BRR  HZ I        1412 27.15        16.4 0.26            150           74.1 296 
 RUS  HZ EP   1   1412 10.88                             145   -0.25 7  102 179 
 RUS  HE ES   1   1412 30.67                             145    0.33 7  102 179 
 RUS  HZ I        1412 31.39         4.8 0.40            147            102 179 
 PTB  HZ EP   1   1412 13.94                             133   -0.57 7  152 258 
 PTB  HN ES   4   1412 35.12                             133   -1.23 0  152 258 
 PTB  HZ I        1412 40.90        10.9 0.38            132            152 258 
 SPBC HZ EP       1412 15.89                             130   -0.10 9  167 220 
 SPBC HN ES       1412 38.72                             130   -0.27 9  167 220 
 SPBC HZ I        1412 45.05        14.3 0.38            130            167 220 
 NOR  HZ EP   1   1412 23.11                             119   -0.06 6  239 235 
 NOR  HE ES   1   1412 51.89                             119    0.11 6  239 235 
 NOR  HZ I        1412 54.63         5.6 0.18            120            239 235 
 SML  HZ EP   2   1412 23.50                             119   -0.07 4  244 334 
 SML  HE ES   1   1412 51.79                             119   -0.69 6  244 334 
 SML  HZ I        1412 56.57         9.8 0.24            120            244 334 
 GUY2CHZ EP   1   1412 31.84                             113    0.85 5  306 235 
 GUY2CHE ES   4   1413  9.94                             113    4.25 0  306 235 
 GUY2CHZ I        1413 14.14         3.6 0.64                           306 235 
                                                                                
