 2013  613 1513 37.8 L   6.756 -73.163156.3  RSN  5 0.4 2.0LRSN                1
 GAP=199        0.82       5.3     7.3  8.6  0.1760E+02 -0.1208E+02 -0.1660E+02E
 Epicentro: LOS SANTOS - SANTANDER                                             3
 ACTION:UPD 14-01-08 09:54 OP:ep   STATUS:               ID:20130613151337 L   I
 OLDACT:UP  13-06-13 18:32 OP:mh   STATUS:               ID:20130613150959     3
 OLDACT:REG 13-06-13 14:12 OP:mh   STATUS:               ID:20130613150959     3
 2013-06-13-1509-59M.COL___261                                                 6
 STAT SP IPHASW D HRMM SECON CODA AMPLIT PERI AZIMU VELO AIN AR TRES W  DIS CAZ7
 BRR  HZ EP   1   1514  0.45                             154    0.35 7 72.1 303 
 BRR  HN ES       1514 17.95                             154    0.4110 72.1 303 
 BRR  HZ I        1514 20.73         8.9 0.32            155           72.1 303 
 RUS  HZ EP   1   1514  2.55                             147    0.31 7 95.8 175 
 RUS  HN ES       1514 21.00                             147   -0.3410 95.8 175 
 RUS  HZ I        1514 23.74         7.1 0.26            152           95.8 175 
 PTB  HZ EP   1   1514  5.48                             135    0.11 7  145 261 
 PTB  HN ES       1514 26.65                             135   -0.26 9  145 261 
 PTB  HZ I        1514 28.63        12.3 0.14            139            145 261 
 SML  HZ EP   1   1514 15.47                             119    0.08 6  247 336 
 SML  HN ES   1   1514 43.89                             119   -0.85 6  247 336 
 SML  HN I        1514 50.33        22.5 0.10            121            247 336 
 GUY2CHZ EP   4   1514 23.43                             115    2.04 0  297 235 
 GUY2CHE ES   4   1514 59.10                             115    3.68 0  297 235 
 GUY2CHE I        1515  5.91         7.6 0.40                           297 235 
                                                                                
