 2012  213 1606 49.1 L   7.341 -73.207130.9  RSN  5 0.3 1.7LRSN                1
 GAP=175        0.54       6.1     3.4  6.8 -0.4572E+01  0.9644E+01 -0.9403E+01E
 ACTION:UP  12-03-07 16:30 OP:epov STATUS:               ID:20120213160649 L   I
 2012-02-13-1600-00M.COL___188                                                 6
 STAT SP IPHASW D HRMM SECON CODA AMPLIT PERI AZIMU VELO AIN AR TRES W  DIS CAZ7
 PAM  SZ EP   1   16 7  8.40                             156   -0.09 7 56.0  90 
 PAM  SE ES   1   16 7 23.40                             156   -0.24 7 56.0  90 
 BRR  HZ EP   1   16 7  8.31                             153    0.24 7 61.5 245 
 BRR  HE ES   1   16 7 23.13                             153    0.24 7 61.5 245 
 BRR  HZ I        16 7 23.68        11.0 0.09                          61.5 245 
 BAR2 SZ ES   1   16 7 26.04                             146    0.19 7 82.8 178 
 PTB  HZ EP   1   16 7 16.62                             125    0.15 7  164 237 
 PTB  HN ES   1   16 7 37.28                             125   -0.56 7  164 237 
 ZAR  HN ES   1   16 7 41.26                             122    0.01 7  183 275 
 ZAR  HZ I        16 7 42.59         4.5 0.17                           183 275 
                                                                                
