 2010 1013 1235 56.8 L   6.877 -73.322123.2  RSN 14 0.4 2.9LRSN                1
 GAP= 97        0.97       3.1     4.7  6.2 -0.1853E+01  0.7290E+01  0.3450E+01E
 Epicentro: BETULIA - SANTANDER                                                3
 ACTION:UP  11-02-18 11:09 OP:tino STATUS:               ID:20101013123556 L   I
 2010-10-13-1233-08S.COL___124                                                 6
 STAT SP IPHASW D HRMM SECON CODA AMPLIT PERI AZIMU VELO SNR AR TRES W  DIS CAZ7
 BTL  SZ IP       1236 13.44                             176     0.010    8  52 
 BAR2 SZ IP       1236 13.92                             163    -0.110   35 154 
 BAR2 SZ ES   1   1236 27.13                             163    -0.4 7   35 154 
 BAR2 SZ I        1236 28.31       619.6 0.36                            35 154 
 URB  SZ EP       1236 14.35                             161     0.310   40 358 
 BRR  HZ IP     D 1236 14.29                             156     0.010   50 301 
 BRR  HZ I        1236 14.52       204.2 0.26                            50 301 
 BRR  HN ES   1   1236 28.35                             156     0.3 7   50 301 
 GUE  SZ EP       1236 18.93                             135    -0.310  114  23 
 GRA  SZ EP       1236 20.20                             132     0.210  125  27 
 GRA  SZ ES   1   1236 38.62                             132     0.4 7  125  27 
 GRA  SZ I        1236 41.21        59.4 0.24                           125  27 
 OCA  SZ EP       1236 22.38                             126    -0.1 9  151   0 
 OCA  SZ ES   1   1236 42.28                             126    -0.2 7  151   0 
 OCA  SZ I        1236 47.87        85.1 0.20                           151   0 
 YOP  SZ IP       1236 27.21                             118     0.1 9  196 149 
 YOP  SN ES   1   1236 50.31                             118    -0.4 6  196 149 
 NOR  SZ EP   2   1236 30.14                             114     0.0 4  225 230 
 NOR  SN ES   1   1236 55.84                             114    -0.4 6  225 230 
 CHI  HZ EP       1236 33.99                             112     0.2 8  253 190 
 CHI  HN ES   2   1237  2.41                             112    -0.2 4  253 190 
 HEL  HZ EP       1236 35.10                             111     1.0 8  256 253 
 HEL  HN ES   3   1237  2.68                             111    -0.5 2  256 253 
 HEL  HZ I        1237  7.80        39.8 0.63                           256 253 
 DBB  SZ EP       1236 41.18                             106     0.1 7  320 273 
 MON  HZ IP       1236 41.15                             105    -1.4 7  332 309 
 PRA  HZ EP       1236 49.45                             102     0.1 6  390 206 
 PRA  HN ES   1   1237 30.36                             102    -0.1 4  390 206 
 PRA  HZ I        1237 36.49        34.9 0.22                           390 206 
                                                                                
