 2012 1213 1049 12.6 L   6.766 -73.163149.7  RSN  7 0.4 1.9LRSN                1
 GAP=136        0.81       5.5     4.8  7.7  0.1765E+01  0.5740E+01 -0.7975E+00E
 Epicentro: LOS SANTOS - SANTANDER                                             3
 ACTION:UPD 13-01-04 14:27 OP:ep   STATUS:               ID:20121213104912 L   I
 2012-12-13-1047-49M.COL___194                                                 6
 STAT SP IPHASW D HRMM SECON CODA AMPLIT PERI AZIMU VELO AIN AR TRES W  DIS CAZ7
 BAR2 SZ EP   1   1049 32.76                             172    0.18 7 19.3 186 
 BAR2 SZ ES   1   1049 47.78                             172   -0.43 7 19.3 186 
 BAR2 SZ I        1049 49.41        21.7 0.25                          19.3 186 
 GIR2 SZ EP   1   1049 32.78                             166   -0.01 7 34.8 354 
 GIR2 SZ I        1049 54.60        10.4 0.42                          34.8 354 
 BRR  HZ EP   1   1049 34.63                             153    0.49 7 71.4 302 
 BRR  HN ES   1   1049 51.75                             153    0.77 7 71.4 302 
 BRR  HZ I        1049 55.47        15.4 0.13                          71.4 302 
 PAM  SZ EP   1   1049 35.54                             150    0.11 7 81.5  39 
 PAM  SN ES   1   1049 52.87                             150   -0.41 7 81.5  39 
 PAM  SZ I        1049 55.01        17.0 0.50                          81.5  39 
 RUS  HZ EP   1   1049 36.67                             146    0.23 7 97.0 175 
 RUS  HN ES   1   1049 55.00                             146   -0.07 7 97.0 175 
 PTB  HZ EP   1   1049 39.03                             133   -0.58 7  145 260 
 PTB  HN ES   1   1050  0.84                             133    0.12 7  145 260 
 PTB  HZ I        1050  4.12        11.3 0.16                           145 260 
 ZAR  HN ES   1   1050 10.10                             123   -0.61 6  204 293 
                                                                                
