 2017  413 1017 12.4 L   6.804 -73.162149.7  RSN 10 0.4 1.4LRSN                1
 GAP=134        1.09       4.2     4.7  7.8 -0.1198E+01  0.6828E+01  0.4042E+01E
 Epicentro: LOS SANTOS - SANTANDER                                             3
 ACTION:UPD 17-05-30 21:11 OP:jn   STATUS:               ID:20170413101712 L   I
 OLDACT:UP  17-04-13 21:55 OP:edw  STATUS:               ID:20170413100738     3
 OLDACT:UP  17-04-13 21:54 OP:edw  STATUS:               ID:20170413100738     3
 OLDACT:UP  17-04-13 21:52 OP:edw  STATUS:               ID:20170413100738     3
 OLDACT:REG 17-04-13 21:02 OP:edw  STATUS:               ID:20170413100738     3
 2017-04-13-1008-00M.COL___368                                                 6
 STAT SP IPHASW D HRMM SECON CODA AMPLIT PERI AZIMU VELO AIN AR TRES W  DIS CAZ7
 BAR2 EZ EP       1017 32.41                             171   -0.0810 23.6 185 
 BAR2 EZ ES       1017 48.05                             171   -0.1210 23.6 185 
 BAR2 EZ I        1017 59.57         7.6 0.44            169           23.6 185 
 BRR  HZ EP       1017 34.39                             154    0.5310 69.4 299 
 BRR  HN ES       1017 51.35                             154    0.7410 69.4 299 
 PAM  EZ IP     D 1017 35.37                             151    0.3010 78.2  41 
 PAM  EN ES       1017 51.95                             151   -0.8110 78.2  41 
 PAM  EZ I        1017 54.54         2.4 0.54            158           78.2  41 
 RUS  HZ EP       1017 36.54                             144   -0.0310  101 175 
 RUS  HN ES       1017 55.74                             144    0.3110  101 175 
 RUS  HZ I        1017 56.62         2.9 0.50            147            101 175 
 PTB  HZ EP       1017 39.48                             133   -0.04 9  146 259 
 PTB  HN ES       1018  0.11                             133   -0.58 9  146 259 
 PTB  HZ I        1018  6.74         2.1 0.34            137            146 259 
 SPBC HN ES       1018  3.81                             130    0.29 9  162 218 
 ZAR  HN ES       1018  9.99                             123   -0.27 9  202 292 
 NOR  HN ES   2   1018 15.78                             119   -0.38 4  233 234 
 CHI  HZ EP   4   1017 45.81                             118   -4.49 0  249 195 
 CHI  HE ES       1018 19.42                             118   -0.46 8  249 195 
 CHI  HZ I        1018 23.31         1.6 0.70            121            249 195 
 PRA  HZ EP   4   1018  0.14                             107   -5.85 0  392 209 
 PRA  HE ES   4   1018 48.54                             107    0.75 0  392 209 
 PRA  HZ I        1018 54.40         1.8 0.78            110            392 209 
                                                                                
