 2010  713 1008  8.0 L   6.871 -73.249120.8  RSN  4 0.2 1.2LRSN                1
 GAP=152        0.49       6.6     8.7  5.8  0.3942E+02 -0.1946E+02 -0.2602E+00E
 Epicentro: BETULIA - SANTANDER                                                3
 ACTION:UPD 10-12-01 15:17 OP:pat  STATUS:               ID:20100713100808 L   I
 2010-07-13-1002-49S.COL___120                                                 6
 STAT SP IPHASW D HRMM SECON CODA AMPLIT PERI AZIMU VELO AIN AR TRES W  DIS CAZ7
 GIR2 SZ EP       10 8 24.62                             168     0.110   24  15 
 BAR2 SZ EP       10 8 24.93                             164     0.010   32 167 
 BAR2 SZ ES   1   10 8 37.92                             164    -0.2 7   32 167 
 BRR  HZ EP   1   10 8 25.36                             153    -0.4 7   57 297 
 BRR  HZ I        10 8 26.13         8.2 0.07                            57 297 
 BRR  HE ES       10 8 39.62                             153     0.110   57 297 
 RUS  HZ EP       10 8 30.28                             135     0.110  110 170 
 RUS  HZ I        10 8 31.17         1.4 0.12                           110 170 
                                                                                
