 2013  413 1815 54.1 L   6.786 -73.137149.2  RSN  7 0.4 1.7LRSN                1
 GAP=138        0.94       4.4     4.7  6.6 -0.3591E+01  0.4342E+01  0.7147E+01E
 Epicentro: LOS SANTOS - SANTANDER                                             3
 ACTION:UPD 13-05-22 14:38 OP:EP   STATUS:               ID:20130413181554 L   I
 2013-04-13-1810-00M.COL___244                                                 6
 STAT SP IPHASW D HRMM SECON CODA AMPLIT PERI AZIMU VELO AIN AR TRES W  DIS CAZ7
 BAR2 SZ EP       1816 13.99                             171   -0.1310 22.0 193 
 BAR2 SZ ES   1   1816 29.86                             171    0.12 7 22.0 193 
 BAR2 SZ I        1816 31.94        13.9 0.38            170           22.0 193 
 BRR  HZ EP       1816 16.19                             153    0.4810 72.8 299 
 BRR  HN ES       1816 33.15                             153    0.5810 72.8 299 
 PAM  SZ EP       1816 16.99                             151    0.2810 77.9  38 
 PAM  SN ES       1816 33.84                             151   -0.5210 77.9  38 
 PAM  SZ I        1816 36.39        11.6 0.56            155           77.9  38 
 RUS  HZ EP       1816 17.90                             145   -0.1810 99.0 177 
 RUS  HN ES       1816 36.84                             145    0.0610 99.0 177 
 RUS  HZ I        1816 37.77         3.8 0.34            147           99.0 177 
 PTB  HZ EP       1816 21.12                             133   -0.29 9  148 259 
 PTB  HN ES       1816 41.96                             133   -0.75 9  148 259 
 PTB  HZ I        1816 49.46        10.1 0.32            133            148 259 
 NOR  HZ EP   1   1816 30.22                             119    0.20 6  235 235 
 NOR  HE ES   1   1816 58.27                             119    0.23 6  235 235 
 NOR  HZ I        1817  2.46         4.2 0.20            120            235 235 
 CHI  HZ EP   1   1816 31.68                             118   -0.18 6  247 195 
 CHI  HN ES   1   1817  1.80                             118    0.49 6  247 195 
                                                                                
