 2014 1213 1734 52.3 L   6.762 -73.178134.0  RSN  5 0.3 1.2LRSN                1
 GAP=134        0.68       3.8     3.8  6.1 -0.3864E+01  0.8631E+01 -0.3954E+01E
 Epicentro: LOS SANTOS - SANTANDER                                             3
 ACTION:UPD 15-02-10 17:03 OP:nd   STATUS:               ID:20141213173452 L   I
 OLDACT:REG 14-12-13 20:49 OP:fm   STATUS:               ID:20141213172748     3
 2014-12-13-1727-48M.COL___294                                                 6
 STAT SP IPHASW D HRMM SECON CODA AMPLIT PERI AZIMU VELO AIN AR TRES W  DIS CAZ7
 BAR2 EZ EP       1735 10.84                             172    0.3910 18.7 182 
 BAR2 EZ ES   1   1735 24.51                             172   -0.08 7 18.7 182 
 BAR2 EZ I        1735 27.88         3.6 0.28            172           18.7 182 
 PAM  SZ EP       1735 13.63                             147   -0.0310 82.9  40 
 PAM  SN ES       1735 30.25                             147   -0.0510 82.9  40 
 PAM  SZ I        1735 31.68         4.0 0.18            151           82.9  40 
 RUS  HZ EP       1735 14.90                             142    0.2610 96.7 174 
 RUS  HN ES       1735 31.76                             142   -0.2910 96.7 174 
 RUS  HZ I        1735 34.44         1.6 0.28            146           96.7 174 
 PTB  HZ EP       1735 17.55                             130   -0.41 9  144 260 
 PTB  HE ES       1735 38.21                             130    0.25 9  144 260 
 PTB  HZ I        1735 40.85         4.4 0.14            133            144 260 
 ZAR  HZ EP   1   1735 23.63                             120   -0.23 6  202 294 
                                                                                
