 2016  113 1801 56.4 L   6.805 -73.124150.4  RSN 21 0.5 2.8LRSN                1
 GAP=139        0.94       2.6     3.5  4.6 -0.1227E+01  0.4618E+01  0.1777E+01E
 Epicentro: LOS SANTOS - SANTANDER                                             3
 ACTION:UPD 16-03-09 23:25 OP:cam  STATUS:               ID:20160113180156 L   I
 OLDACT:UP  16-01-14 02:05 OP:mh   STATUS:               ID:20160113175747     3
 OLDACT:REG 16-01-13 23:15 OP:mh   STATUS:               ID:20160113175747     3
 2016-01-13-1757-47M.COL___334                                                 6
 STAT SP IPHASW D HRMM SECON CODA AMPLIT PERI AZIMU VELO AIN AR TRES W  DIS CAZ7
 BAR2 EZ IP       18 2 16.54                             170   -0.0410 24.4 195 
 BAR2 EZ ES       18 2 32.03                             170   -0.3110 24.4 195 
 BAR2 EZ I        18 2 33.92        86.4 0.40            167           24.4 195 
 BRR  HZ EP       18 2 18.44                             153    0.3210 73.1 297 
 BRR  HN ES       18 2 35.52                             153    0.4310 73.1 297 
 BRR  HZ I        18 2 40.55        76.0 0.14            147           73.1 297 
 PAM  EZ IP     D 18 2 19.32                             152    0.3510 75.4  38 
 PAM  EN ES       18 2 36.70                             152    0.1110 75.4  38 
 PAM  EZ I        18 2 38.40        94.7 0.56            153           75.4  38 
 RUS  HZ EP     C 18 2 20.51                             145   -0.1010  101 177 
 RUS  HN ES       18 2 39.31                             145   -0.2010  101 177 
 RUS  HZ I        18 2 41.40        40.0 0.62            144            101 177 
 PTB  HZ EP   1   18 2 23.33                             132   -0.61 7  150 259 
 PTB  HN ES       18 2 44.64                             132   -0.81 9  150 259 
 PTB  HZ I        18 2 50.28        92.3 0.60            128            150 259 
 OCA  HZ EP   1   18 2 24.85                             131   -0.17 7  160 352 
 OCA  HN ES   1   18 2 47.85                             131    0.48 7  160 352 
 OCA  HZ I        18 2 52.07       136.6 0.40            128            160 352 
 SPBC HZ EP   1   18 2 24.89                             130   -0.52 7  165 220 
 SPBC HE ES       18 2 48.13                             130    0.07 9  165 220 
 SPBC HZ I        18 2 54.38       122.0 0.34            127            165 220 
 ZAR  HZ EP   1   18 2 28.68                             123   -0.65 6  206 292 
 ZAR  HN ES       18 2 55.31                             123    0.27 8  206 292 
 ZAR  HZ I        18 3  0.90        86.1 0.56            120            206 292 
 NOR  HZ EP   1   18 2 31.95                             119   -0.67 6  237 235 
 NOR  HN ES   1   18 3  1.02                             119    0.13 6  237 235 
 NOR  HZ I        18 3  2.54        47.5 0.26            117            237 235 
 SML  HZ EP   1   18 2 32.77                             118   -0.55 6  244 335 
 SML  HN ES   1   18 3  1.50                             118   -0.63 6  244 335 
 SML  HZ I        18 3  6.05       105.7 0.22            116            244 335 
 CHI  HZ EP     D 18 2 34.56                             118    0.10 8  250 196 
 CHI  HN ES       18 3  3.95                             118   -0.21 8  250 196 
 CHI  HZ I        18 3  7.52        20.8 0.40            117            250 196 
 ROSC BZ EP       18 2 35.83                             117    0.89 8  254 211 
 ROSC BN ES   4   18 3  6.87                             117    1.86 0  254 211 
 ROSC BZ I        18 3  9.84        44.5 0.35            116            254 211 
 HEL  HZ EP   1   18 2 37.91                             115    0.81 6  275 256 
 HEL  HN ES       18 3  9.04                             115    0.18 8  275 256 
 HEL  HZ I        18 3 16.71        30.6 0.28            113            275 256 
 URE  HZ EP   4   18 2 36.51                             114   -1.39 0  286 292 
 URE  HN ES   4   18 3  9.36                             114   -0.92 0  286 292 
 SOCV BZ EP   4   18 2 37.57                             113   -1.80 0  299  57 
 SOCV BN ES   4   18 3 10.00                             113   -2.91 0  299  57 
 GUY2CHZ EP       18 2 40.63                             113    0.17 7  303 235 
 GUY2CHE ES   4   18 3 17.94                             113    3.10 0  303 235 
 GUY2CHZ I        18 3 23.36        32.9 0.40                           303 235 
 ELA  HZ EP   4   18 2 45.23                             111    1.56 0  331 230 
 ELA  HN ES       18 3 21.36                             111    0.79 7  331 230 
 ELA  HZ I        18 3 28.11        20.6 0.38            109            331 230 
 DBB  SZ EP       18 2 43.95                             110   -0.36 7  342 274 
 DBB  SZ I        18 3 22.37        70.8 0.34            108            342 274 
 SDV  BZ EP   4   18 2 45.35                             109   -0.99 0  358  50 
 SDV  BN ES   4   18 3 22.96                             109   -2.35 0  358  50 
 SDV  BZ I        18 3 24.65        10.3 0.35            109            358  50 
 ANIL HZ EP   4   18 2 46.31                             109   -0.29 0  359 225 
 ANIL HE ES   4   18 3 28.06                             109    2.28 0  359 225 
 ANIL HZ I        18 3 32.68        69.3 0.42            108            359 225 
 PRA  HZ EP   1   18 2 49.13                             107   -1.12 4  394 210 
 PRA  HN ES   2   18 3 32.61                             107    0.33 3  394 210 
 PRA  HZ I        18 3 35.41        17.8 0.22            106            394 210 
 ORTC HZ EP   1   18 2 50.77                             107    0.10 4  397 216 
 ORTC HN ES       18 3 33.59                             107    0.56 6  397 216 
 ORTC HZ I        18 3 37.89        13.0 0.32            106            397 216 
 SJC  HZ EP   4   18 2 50.60                             106   -1.59 0  410 327 
 SJC  HN ES   4   18 3 31.08                             106   -4.65 0  410 327 
 SJC  HZ I        18 3 36.28         9.9 0.58            105            410 327 
                                                                                
