 2011  113 1209 26.3 L   6.331 -73.621105.7  RSN 14 0.4 2.7LRSN                1
 GAP= 84        0.94       2.9     3.5  7.1 -0.2411E+01  0.1181E+02  0.1161E+01E
 Epicentro: SANTA HELENA DEL OPON - SANTANDER                                  3
 ACTION:UP  11-02-08 08:40 OP:pat  STATUS:               ID:20110113120926 L   I
 2011-01-13-1207-33S.COL___136                                                 6
 STAT SP IPHASW D HRMM SECON CODA AMPLIT PERI AZIMU VELO SNR AR TRES W  DIS CAZ7
 BAR2 SZ IP       12 9 43.05                             150     0.410   56  59 
 BAR2 SZ ES   1   12 9 55.98                             150     0.6 7   56  59 
 BAR2 SZ I        12 9 57.63       188.2 0.37                            56  59 
 BTL  SZ IP       12 9 43.45                             142    -0.610   76  31 
 BTL  SZ ES   1   12 9 57.27                             142    -0.5 7   76  31 
 RUS  HZ EP       12 9 44.34                             142    -0.110   77 129 
 RUS  HN ES   2   12 9 58.61                             142     0.1 5   77 129 
 GIR2 SZ EP   1   12 9 45.66                                     0.2 7   95  30 
 NOR  SZ EP       12 9 51.67                             118    -0.3 9  162 239 
 NOR  SN ES   1   1210 11.13                             118    -0.8 7  162 239 
 YOP  SZ EP       12 9 52.85                             117    -0.2 9  171 129 
 YOP  SN ES   1   1210 14.33                             117     0.5 7  171 129 
 YOP  SZ I        1210 15.96        80.8 0.33                           171 129 
 CHI  HZ EP       12 9 55.49                             114     0.2 9  189 184 
 CHI  HN ES   1   1210 17.88                             114     0.0 7  189 184 
 CHI  HZ I        1210 22.33        24.6 0.26                           189 184 
 GRA  SZ EP       12 9 55.24                             113    -0.4 9  194  28 
 GRA  SZ ES   1   1210 18.63                             113     0.2 6  194  28 
 HEL  HZ EP       12 9 58.29                             111     0.4 8  212 266 
 HEL  HN ES   1   1210 23.28                             111     0.8 6  212 266 
 HEL  HZ I        1210 27.00        34.5 0.27                           212 266 
 OCA  SZ EP       12 9 57.83                             111     0.0 8  214   9 
 OCA  SZ ES   1   1210 22.45                             111     0.1 6  214   9 
 OCA  SZ I        1210 29.49        71.3 0.49                           214   9 
 GUY  SZ EP       12 9 59.89                             109    -0.1 8  229 238 
 GUY  SZ I        1210 32.90        65.8 0.26                           229 238 
 RREF HZ EP       1210  2.13                             107    -0.3 8  248 230 
 RREF HZ I        1210 38.45        62.2 0.21                           248 230 
 TOL  SZ EP       1210  4.64                             105     0.1 8  270 224 
 DBB  SZ EP       1210  7.73                             103     0.4 7  296 285 
                                                                                
