 2015  413 1301 10.8 L   6.512 -73.721 95.2  RSN 10 0.4 2.0LRSN                1
 GAP= 68        1.06       3.6     3.2  7.2 -0.3371E+01  0.6520E+01  0.2765E+01E
 Epicentro: SANTA HELENA DEL OPON - SANTANDER                                  3
 ACTION:UPD 15-06-03 16:54 OP:cam  STATUS:               ID:20150413130110 L   I
 OLDACT:REG 15-04-13 19:30 OP:spq  STATUS:               ID:20150413125750     3
 2015-04-13-1257-50M.COL___266                                                 6
 STAT SP IPHASW D HRMM SECON CODA AMPLIT PERI AZIMU VELO AIN AR TRES W  DIS CAZ7
 BAR2 EZ EP       13 1 26.43                             145    0.1110 60.2  82 
 BAR2 EZ ES   1   13 1 38.64                             145    0.23 7 60.2  82 
 BAR2 EZ I        13 1 40.26       103.2 0.16            152           60.2  82 
 BRR  HZ EP       13 1 26.46                             143    0.0710 65.8   1 
 BRR  HN ES       13 1 39.26                             143    0.7210 65.8   1 
 BRR  HZ I        13 1 45.12        17.0 0.14            147           65.8   1 
 PTB  HZ EP       13 1 26.98                             136   -0.6910 81.4 272 
 PTB  HN ES       13 1 40.04                             136   -0.7710 81.4 272 
 PTB  HZ I        13 1 41.68        49.1 0.12            139           81.4 272 
 RUS  HZ EP   1   13 1 29.54                             131   -0.28 7 98.3 134 
 RUS  HE ES   1   13 1 44.47                             131   -0.18 7 98.3 134 
 RUS  HZ I        13 1 46.22        13.0 0.14            138           98.3 134 
 SPBC HZ EP       13 1 29.73                             129    0.0310  103 202 
 SPBC HN ES       13 1 44.79                             129    0.3610  103 202 
 SPBC HZ I        13 1 48.91        27.2 0.22            134            103 202 
 PAM  SN ES       13 1 52.63                             119   -0.47 9  145  51 
 PAM  SZ I        13 1 53.52        22.6 0.18            125            145  51 
 NOR  HZ EP       13 1 35.82                             116   -0.33 9  165 231 
 NOR  HE ES       13 1 55.98                             116    0.06 9  165 231 
 NOR  HZ I        13 1 59.64        14.8 0.14            119            165 231 
 ZAR  HZ EP       13 1 36.57                             115    0.35 9  166 311 
 ZAR  HN ES   4   13 1 57.54                             115    1.50 0  166 311 
 ZAR  HZ I        13 1 59.93        19.8 0.26            119            166 311 
 HEL  HZ EP       13 1 40.97                             111    0.06 9  203 260 
 HEL  HE ES       13 2  4.53                             111    0.15 9  203 260 
 HEL  HZ I        13 2  8.70        12.0 0.28            114            203 260 
 GUY2CHZ EP       13 1 45.03                             108    0.73 8  231 232 
 GUY2CHE ES   4   13 2 12.09                             108    1.68 0  231 232 
 GUY2CHZ I        13 2 18.28         6.8 0.58                           231 232 
 RREF HN ES   4   13 2 17.47                             106    2.04 0  253 225 
                                                                                
