 2017  213 1022 51.3 L   6.722 -73.190144.6  RSN  5 0.3 1.3LRSN                1
 GAP=226        0.85       6.4     5.9  6.2  0.2320E+02  0.5898E+01 -0.2429E+01E
 Epicentro: VILLANUEVA - SANTANDER                                             3
 ACTION:UPD 17-05-24 15:36 OP:jn   STATUS:               ID:20170213102251 L   I
 OLDACT:REG 17-02-13 20:28 OP:cog  STATUS:               ID:20170213101744     3
 2017-02-13-1018-00M.COL___343                                                 6
 STAT SP IPHASW D HRMM SECON CODA AMPLIT PERI AZIMU VELO AIN AR TRES W  DIS CAZ7
 BAR2 EZ EP       1023 10.39                             174   -0.2110 14.4 177 
 BAR2 EZ ES       1023 25.82                             174    0.1410 14.4 177 
 BAR2 EZ I        1023 26.51         4.7 0.26            171           14.4 177 
 BRR  HZ EP       1023 12.19                             152   -0.1210 71.7 306 
 BRR  HN ES       1023 28.77                             152    0.0410 71.7 306 
 BRR  HZ I        1023 29.52         7.2 0.28            151           71.7 306 
 RUS  HZ EP       1023 14.90                             146    0.5710 92.5 173 
 RUS  HN ES       1023 32.00                             146   -0.3210 92.5 173 
 RUS  HZ I        1023 34.86         1.6 0.38            145           92.5 173 
 PTB  HZ EP       1023 17.00                             133   -0.57 9  142 262 
 PTB  HN ES       1023 38.39                             133    0.30 9  142 262 
 PTB  HZ I        1023 40.79         1.9 0.12            131            142 262 
 ZAR  HZ EP       1023 23.87                             122    0.35 9  203 295 
 ZAR  HE ES       1023 48.53                             122   -0.16 9  203 295 
 ZAR  HZ I        1023 54.17         1.7 0.32            122            203 295 
                                                                                
