 2015 1213 1208  4.3 L   6.778 -73.170149.4  RSN  7 0.4 1.7LRSN                1
 GAP=134        0.85       4.3     4.7  6.6  0.2657E+01  0.1873E+01 -0.1188E+02E
 Epicentro: LOS SANTOS - SANTANDER                                             3
 ACTION:UPD 16-02-04 15:04 OP:cam  STATUS:               ID:20151213120804 L   I
 OLDACT:UP  15-12-13 22:39 OP:ar   STATUS:               ID:20151213115748     3
 OLDACT:REG 15-12-13 21:07 OP:a    STATUS:               ID:20151213115748     3
 2015-12-13-1157-48M.COL___346                                                 6
 STAT SP IPHASW D HRMM SECON CODA AMPLIT PERI AZIMU VELO AIN AR TRES W  DIS CAZ7
 BAR2 EZ EP       12 8 24.67                             172    0.3010 20.6 184 
 BAR2 EZ ES       12 8 40.16                             172    0.1810 20.6 184 
 BAR2 EZ I        12 8 42.48        10.9 0.24            170           20.6 184 
 BRR  HZ EP   2   12 8 26.45                             154    0.62 5 70.0 301 
 BRR  HN ES       12 8 42.83                             154    0.2510 70.0 301 
 BRR  HZ I        12 8 46.30         7.7 0.30            151           70.0 301 
 PAM  EZ EP       12 8 27.32                             150    0.1610 81.0  40 
 PAM  EN ES   2   12 8 45.09                             150    0.13 5 81.0  40 
 PAM  EZ I        12 8 46.93         7.5 0.56            156           81.0  40 
 RUS  HN ES       12 8 46.39                             145   -0.6010 98.4 174 
 RUS  HZ I        12 8 49.96         6.0 0.38            148           98.4 174 
 PTB  HZ EP       12 8 31.43                             134    0.09 9  145 260 
 PTB  HN ES       12 8 52.23                             134   -0.16 9  145 260 
 PTB  HZ I        12 8 59.76         9.7 0.58            133            145 260 
 ZAR  HE ES   2   12 9  2.86                             123    0.63 4  202 293 
 ZAR  HZ I        12 9  9.15         5.7 0.09            124            202 293 
 SML  HZ EP       12 8 41.21                             118   -0.08 8  245 336 
 SML  HN ES       12 9  9.34                             118   -0.77 8  245 336 
                                                                                
