 2015 1013 1310 24.5 L   6.472 -73.322128.8  RSN 14 0.4 2.1LRSN                1
 GAP=108        0.89       2.3     3.2  4.6 -0.3076E+01  0.6866E+01 -0.1579E+01E
 Epicentro: SIMACOTA - SANTANDER                                               3
 ACTION:UPD 15-12-22 20:39 OP:cam  STATUS:               ID:20151013131024 L   I
 OLDACT:UP  15-10-14 01:05 OP:ak   STATUS:               ID:20151013130748     3
 OLDACT:REG 15-10-13 21:33 OP:ak   STATUS:               ID:20151013130748     3
 2015-10-13-1307-48M.COL___337                                                 6
 STAT SP IPHASW D HRMM SECON CODA AMPLIT PERI AZIMU VELO AIN AR TRES W  DIS CAZ7
 BAR2 EZ EP       1310 41.83                             170   -0.1710 20.3  49 
 BAR2 EZ ES       1310 55.49                             170   -0.1810 20.3  49 
 BAR2 EZ I        1310 56.64        26.5 0.18            172           20.3  49 
 RUS  HZ IP     D 1310 44.24                             150   -0.1710 69.3 158 
 RUS  HN ES       1311  0.38                             150    0.4310 69.3 158 
 BRR  HZ EP       1310 44.43                             145   -0.1210 82.4 328 
 BRR  HN ES       1311  0.05                             145   -0.1610 82.4 328 
 BRR  HZ I        1311  6.56        18.5 0.16            144           82.4 328 
 PAM  EZ EP       1310 48.48                             135    0.4610  118  36 
 PAM  EN ES       1311  6.80                             135    0.4110  118  36 
 PAM  EZ I        1311 10.44         8.8 0.30            138            118  36 
 SPBC HZ EP       1310 47.32                             133   -0.6010  123 223 
 SPBC HE ES       1311  6.10                             133   -0.1010  123 223 
 SPBC HZ I        1311  7.58         9.9 0.08            135            123 223 
 OCA  HZ EP       1310 55.42                             120    0.29 9  195   0 
 OCA  HN ES       1311 18.60                             120   -0.44 9  195   0 
 OCA  HZ I        1311 22.42        38.1 0.52            121            195   0 
 NOR  HZ EP       1310 54.96                             119   -0.39 9  199 240 
 NOR  HN ES       1311 18.84                             119   -0.59 9  199 240 
 ZAR  HZ EP       1310 56.07                             118    0.22 9  204 304 
 ZAR  HN ES       1311 20.50                             118    0.18 9  204 304 
 ZAR  HZ I        1311 25.18        10.8 0.31            119            204 304 
 HEL  HZ EP       1311  1.43                             114    0.47 8  246 263 
 HEL  HN ES       1311 30.08                             114    0.67 8  246 263 
 HEL  HZ I        1311 33.57         7.4 0.34            115            246 263 
 GUY2CHZ EP       1311  3.50                             112    0.28 8  265 239 
 GUY2CHN ES       1311 34.18                             112    0.75 8  265 239 
 GUY2CHZ I        1311 40.36        13.7 0.42                           265 239 
 SML  HZ EP       1311  3.14                             111   -0.09 8  270 342 
 SML  HN ES       1311 33.04                             111   -0.41 8  270 342 
 SML  HZ I        1311 36.16        14.1 0.24            113            270 342 
 ELA  HZ EP       1311  5.64                             110   -0.63 7  291 232 
 ELA  HE ES       1311 38.68                             110   -0.18 7  291 232 
 ELA  HZ I        1311 47.71         8.9 0.40            111            291 232 
 ANIL HZ EP   1   1311  9.03                             108   -0.05 5  318 227 
 ANIL HE ES       1311 44.18                             108    0.30 7  318 227 
 ANIL HZ I        1311 52.61        14.1 0.32            109            318 227 
 DBB  SZ EP   1   1311  9.69                             107    0.08 5  325 281 
 DBB  SZ ES   4   1311 42.87                             107   -1.95 0  325 281 
                                                                                
