 2013  113 1643  0.3 L   6.223 -73.829 95.9  RSN  4 0.4 1.5LRSN                1
 GAP=191        1.15       8.0    16.8 23.5  0.9793E+02  0.3345E+03  0.1418E+03E
 Epicentro: LANDAZURI - SANTANDER                                              3
 ACTION:UPD 13-02-15 09:14 OP:ep   STATUS:               ID:20130113164300 L   I
 2013-01-13-1638-36M.COL___178                                                 6
 STAT SP IPHASW D HRMM SECON CODA AMPLIT PERI AZIMU VELO AIN AR TRES W  DIS CAZ7
 BAR2 SZ EP       1643 17.77                             137    0.1710 82.4  60 
 BAR2 SZ ES       1643 30.25                             137   -0.8410 82.4  60 
 BAR2 SZ I        1643 31.63        20.3 0.34            138           82.4  60 
 RUS  HZ EP       1643 19.03                             134    0.3910 90.3 114 
 RUS  HZ I        1643 19.28         3.0 0.34            136           90.3 114 
 RUS  HN ES       1643 33.35                             134    0.4110 90.3 114 
 BRR  HZ EP       1643 18.68                             131   -0.0410 98.6   8 
 BRR  HN ES       1643 33.40                             131    0.3110 98.6   8 
 BRR  HE I        1643 34.35        10.4 0.18            132           98.6   8 
 CHI  HZ EP       1643 26.93                             114   -0.51 9  177 176 
                                                                                
