 2010 1113 1513 35.7 L   6.767 -73.095144.0  RSN  4 0.1 1.6LRSN                1
 GAP=165        0.41       6.0    11.4 10.3  0.4488E+02 -0.8628E+02 -0.3324E+02E
 Epicentro: LOS SANTOS - SANTANDER                                             3
 ACTION:UP  10-12-17 16:52 OP:REBC STATUS:               ID:20101113151335 L   I
 2010-11-13-1509-41S.COL___129                                                 6
 STAT SP IPHASW D HRMM SECON CODA AMPLIT PERI AZIMU VELO SNR AR TRES W  DIS CAZ7
 BTL  SZ EP   1   1513 55.36                             170     0.1 7   25 311 
 BRR  HZ EP   1   1513 56.89                             151    -0.2 7   78 299 
 BRR  HE ES   1   1514 13.84                             151     0.1 7   78 299 
 BRR  HZ I        1514 16.31         8.1 0.15                            78 299 
 RUS  HZ EP   2   1513 59.21                             145     0.2 5   97 179 
 RUS  HN ES   2   1514 17.09                             145    -0.1 5   97 179 
 RUS  HZ I        1514 19.15         4.8 0.26                            97 179 
 GRA  SZ EP   2   1514  0.91                             136    -0.1 5  128  15 
 GRA  SZ I        1514 21.43         5.4 0.37                           128  15 
                                                                                
