 2014  113 1522 38.5 L   6.824 -73.139147.9  RSN 16 0.4 3.0LRSN                1
 GAP=136        0.98       2.4     3.4  4.6 -0.7138E+00  0.4867E+01  0.2090E+01E
 Epicentro: LOS SANTOS - SANTANDER                                             3
 ACTION:UPD 14-03-13 09:55 OP:ep   STATUS:               ID:20140113152238 L   I
 OLDACT:REG 14-01-13 14:51 OP:carl STATUS:               ID:20140113152000     3
 2014-01-13-1520-00M.COL___285                                                 6
 STAT SP IPHASW D HRMM SECON CODA AMPLIT PERI AZIMU VELO AIN AR TRES W  DIS CAZ7
 BAR2 SZ IP     D 1522 58.43                             170    0.0110 26.1 190 
 BAR2 SZ ES       1523 13.84                             170   -0.1310 26.1 190 
 BAR2 SZ I        1523 14.94       298.0 0.52            167           26.1 190 
 BRR  HZ IP     C 1523  0.15                             153    0.3310 70.6 296 
 BRR  HN ES       1523 17.43                             153    0.9610 70.6 296 
 BRR  HZ I        1523 19.71        85.1 0.22            150           70.6 296 
 PAM  SZ EP       1523  1.15                             152    0.3810 74.9  40 
 PAM  SN ES       1523 18.18                             152    0.0210 74.9  40 
 PAM  SZ I        1523 20.65       121.3 0.50            157           74.9  40 
 RUS  HZ IP     C 1523  2.41                             143   -0.2110  103 177 
 RUS  HE ES       1523 21.17                             143   -0.2910  103 177 
 RUS  HZ I        1523 22.72        77.9 0.32            145            103 177 
 PTB  HZ EP       1523  5.08                             132   -0.64 9  149 258 
 PTB  HN ES       1523 26.17                             132   -0.81 9  149 258 
 PTB  HZ I        1523 33.52       114.0 0.52            131            149 258 
 OCA  HN ES       1523 28.70                             131   -0.04 9  158 353 
 OCA  HZ I        1523 33.77       142.3 0.30            132            158 353 
 SPBC HZ EP       1523  7.45                             129    0.08 9  166 219 
 SPBC HE ES       1523 30.09                             129    0.18 9  166 219 
 ZAR  HZ EP       1523 11.14                             123    0.12 9  204 291 
 ZAR  HN ES       1523 36.45                             123    0.04 9  204 291 
 ZAR  HZ I        1523 41.63        97.0 0.28            123            204 291 
 NOR  HZ EP       1523 14.55                             119    0.00 8  237 234 
 NOR  HE ES       1523 42.68                             119   -0.01 8  237 234 
 NOR  HZ I        1523 46.55        90.5 0.24            119            237 234 
 SML  HZ EP       1523 14.84                             118   -0.15 8  242 335 
 SML  HN ES       1523 42.48                             118   -0.99 8  242 335 
 SML  HZ I        1523 44.89        67.0 0.26            119            242 335 
 CHI  HZ EP       1523 16.79                             117    0.21 8  251 195 
 CHI  HN ES       1523 46.31                             117   -0.00 8  251 195 
 CHI  HZ I        1523 52.24        57.9 0.26            118            251 195 
 HEL  HZ EP       1523 19.19                             115    0.25 8  273 255 
 HEL  HN ES       1523 50.25                             115   -0.25 8  273 255 
 HEL  HZ I        1523 58.95        68.8 0.60            115            273 255 
 VIL  SZ EP       1523 21.74                             112   -0.55 7  306 192 
 VIL  SN ES       1523 55.97                             112   -0.51 7  306 192 
 VIL  SZ I        1524  0.59        79.4 0.36            113            306 192 
 RREF HZ EP       1523 25.62                             111    0.66 7  324 229 
 RREF HN ES       1524  1.68                             111    0.46 7  324 229 
 RREF HZ I        1524 10.71        47.1 0.44            112            324 229 
 CBOC HZ EP       1523 26.35                             110    0.71 7  335 252 
 CBOC HN ES       1524  2.50                             110    0.06 7  335 252 
 CBOC HZ I        1524 14.41        19.3 0.48            111            335 252 
 ORTC HZ EP       1523 32.88                             107    0.12 6  398 216 
 ORTC HN ES       1524 15.45                             107    0.34 6  398 216 
 ORTC HZ I        1524 22.84        42.9 0.42            107            398 216 
 SJC  HZ EP   4   1523 32.66                             106   -1.22 0  407 327 
 SJC  HN ES   4   1524 13.59                             106   -3.52 0  407 327 
                                                                                
