 2016  613 1442  8.8 L   6.640 -73.123145.6  RSN  5 0.3 1.6LRSN                1
 GAP=200        0.78       9.8     5.2  7.0 -0.1219E+02 -0.2836E+01  0.4256E+01E
 Epicentro: VILLANUEVA - SANTANDER                                             3
 ACTION:UPD 16-07-21 22:18 OP:rebc STATUS:               ID:20160613144208 L   I
 OLDACT:UP  16-06-14 01:42 OP:dani STATUS:               ID:20160613143743     3
 OLDACT:UP  16-06-14 01:41 OP:dani STATUS:               ID:20160613143743     3
 OLDACT:UP  16-06-14 01:41 OP:dani STATUS:               ID:20160613143743     3
 OLDACT:REG 16-06-13 21:19 OP:dani STATUS:               ID:20160613143743     3
 2016-06-13-1437-43M.COL___328                                                 6
 STAT SP IPHASW D HRMM SECON CODA AMPLIT PERI AZIMU VELO AIN AR TRES W  DIS CAZ7
 BAR2 EZ EP       1442 28.74                             177    0.5610 8.41 231 
 BAR2 EZ ES       1442 43.06                             177   -0.2510 8.41 231 
 BAR2 EZ I        1442 44.78        12.0 0.18                          8.41 231 
 RUS  HE ES   4   1442 51.50                             149    2.62 0 82.8 177 
 BRR  HN ES       1442 47.82                             149    0.1610 83.1 308 
 PAM  EZ EP       1442 31.58                             147   -0.2210 90.4  31 
 PTB  HZ EP       1442 35.48                             132   -0.26 9  148 266 
 PTB  HN ES       1442 56.75                             132   -0.02 9  148 266 
 PTB  HZ I        1442 59.39         5.0 0.24                           148 266 
 NOR  HN ES   4   1443 11.24                             119    0.35 0  227 238 
 GUY2CHZ EP   4   1442 53.89                             113    2.38 0  293 238 
 GUY2CHE ES   4   1443 30.70                             113    5.87 0  293 238 
 GUY2CHZ I        1443 35.93         2.1 0.46                           293 238 
                                                                                
