 2013  113 1406  5.7 L   6.763 -73.176138.8  RSN  5 0.5 1.8LRSN                1
 GAP=231        1.24       8.9     9.3  9.6  0.4084E+02  0.5312E+01  0.1879E+02E
 Epicentro: LOS SANTOS - SANTANDER                                             3
 ACTION:UPD 13-02-15 09:14 OP:ep   STATUS:               ID:20130113140605 L   I
 2013-01-13-1358-36M.COL___181                                                 6
 STAT SP IPHASW D HRMM SECON CODA AMPLIT PERI AZIMU VELO AIN AR TRES W  DIS CAZ7
 BAR2 SZ EP       14 6 24.22                             172   -0.2110 18.8 182 
 BAR2 SZ ES       14 6 38.16                             172   -0.8610 18.8 182 
 BAR2 SZ I        14 6 41.56         9.2 0.18            174           18.8 182 
 BRR  HZ EP       14 6 26.14                             151    0.0610 70.5 303 
 BRR  HN ES       14 6 42.61                             151    0.6510 70.5 303 
 BRR  HN I        14 6 47.37        22.1 0.16            153           70.5 303 
 RUS  HZ EP       14 6 28.67                             143    0.1610 96.7 174 
 RUS  HN ES       14 6 46.92                             143    0.6310 96.7 174 
 RUS  HN I        14 6 48.73        10.0 0.34            148           96.7 174 
 PTB  HN ES       14 6 51.76                             131   -0.31 9  144 260 
 CHI  HZ EP       14 6 42.25                             116   -0.26 8  244 195 
                                                                                
