 2011 1113 1019 42.6 L   6.767 -73.186138.3  RSN  7 0.3 1.8LRSN                1
 GAP=133        0.65       3.1     3.6  5.8 -0.3998E-01  0.6019E+01 -0.2224E+01E
 Epicentro: VILLANUEVA - SANTANDER                                             3
 ACTION:UPD 12-07-13 16:10 OP:ep   STATUS:               ID:20111113101942 L   I
 2011-11-13-1018-58S.COL___179                                                 6
 STAT SP IPHASW D HRMM SECON CODA AMPLIT PERI AZIMU VELO AIN AR TRES W  DIS CAZ7
 BAR2 SZ EP   1   1020  1.16                             172   -0.04 9 19.3 179 
 BAR2 SZ ES   1   1020 15.36                             172   -0.39 9 19.3 179 
 BAR2 SZ I        1020 18.31        14.4 0.24                          19.3 179 
 BRR  HZ EP   1   1020  3.41                             152    0.63 9 69.2 303 
 BRR  HZ I        1020  3.77        27.7 0.09                          69.2 303 
 BRR  HN ES   1   1020 18.81                             152    0.25 9 69.2 303 
 PAM  SZ EP   1   1020  4.07                             148   -0.26 9 83.0  40 
 PAM  SN ES   1   1020 21.25                             148   -0.08 9 83.0  40 
 PAM  SZ I        1020 25.81         4.0 0.68                          83.0  40 
 RUS  HZ EP   1   1020  5.31                             143   -0.02 9 97.4 173 
 RUS  HN ES   1   1020 23.36                             143    0.26 9 97.4 173 
 RUS  HZ I        1020 24.58         8.6 0.36                          97.4 173 
 OCA  SZ EP   1   1020 11.03                             127    0.44 8  163 355 
 OCA  SZ ES   1   1020 32.30                             127   -0.17 8  163 355 
 OCA  SZ I        1020 37.06         5.0 0.26                           163 355 
 ZAR  HZ EP   1   1020 13.61                             121   -0.63 7  201 294 
 ZAR  HN ES       1020 38.96                             121    0.0110  201 294 
 ZAR  HZ I        1020 45.70        10.1 0.34                           201 294 
 NOR  SN ES   1   1020 44.11                             117   -0.17 7  229 235 
                                                                                
