 2014  713 1025 29.8 L   6.799 -73.174148.0  RSN  6 0.3 1.3LRSN                1
 GAP=206        0.69       3.5     4.6  6.6 -0.3563E+00  0.7748E+01 -0.8026E+01E
 Epicentro: LOS SANTOS - SANTANDER                                             3
 ACTION:UPD 15-03-16 20:43 OP:nd   STATUS:               ID:20140713102529 L   I
 OLDACT:UP  14-07-13 22:36 OP:cam  STATUS:               ID:20140713102000     3
 OLDACT:REG 14-07-13 20:55 OP:cam  STATUS:               ID:20140713102000     3
 2014-07-13-1020-00M.COL___282                                                 6
 STAT SP IPHASW D HRMM SECON CODA AMPLIT PERI AZIMU VELO AIN AR TRES W  DIS CAZ7
 BAR2 SZ EP       1025 49.40                             171   -0.2810 22.9 182 
 BAR2 SZ ES       1026  5.48                             171    0.2810 22.9 182 
 BAR2 SZ I        1026  5.61         6.6 0.26            173           22.9 182 
 PTB  HZ EP   1   1025 56.56                             133   -0.10 7  145 259 
 PTB  HN ES       1026 17.46                             133   -0.16 9  145 259 
 PTB  HZ I        1026 19.39         1.6 0.16            132            145 259 
 SPBC HE ES       1026 20.36                             130   -0.12 9  161 218 
 ZAR  HN ES       1026 27.58                             123    0.30 9  201 293 
 ZAR  HZ I        1026 34.02         1.5 0.28            123            201 293 
 SML  HZ EP   1   1026  7.04                             118    0.62 6  242 336 
 SML  HN ES       1026 34.58                             118   -0.40 8  242 336 
 SML  HZ I        1026 38.16         2.3 0.28            118            242 336 
 GUY2CHZ EP   1   1026 13.59                             113    0.38 5  299 234 
                                                                                
