 2015  113 1018 12.2 L   6.817 -73.177147.7  RSN 10 0.4 1.5LRSN                1
 GAP=132        0.95       2.7     4.1  6.6 -0.1028E+01  0.7198E+01 -0.1414E+00E
 Epicentro: ZAPATOCA - SANTANDER                                               3
 ACTION:UPD 15-03-02 15:39 OP:nd   STATUS:               ID:20150113101812 L   I
 OLDACT:UP  15-01-13 22:35 OP:mh   STATUS:               ID:20150113100749d    3
 OLDACT:DUP 15-01-13 22:09 OP:mh   STATUS:               ID:20150113100749d    3
 OLDACT:REG 15-01-13 20:06 OP:mh   STATUS:               ID:20150113100748     3
 2015-01-13-1007-48M.COL___255                                                 6
 STAT SP IPHASW D HRMM SECON CODA AMPLIT PERI AZIMU VELO AIN AR TRES W  DIS CAZ7
 BAR2 EZ EP   1   1018 31.44                             170   -0.62 7 24.9 181 
 BAR2 EZ ES   1   1018 46.84                             170   -0.74 7 24.9 181 
 PAM  SZ EP       1018 34.95                             151    0.3110 78.2  42 
 PAM  SN ES       1018 52.30                             151    0.1410 78.2  42 
 PAM  SZ I        1018 54.51         3.1 0.34            152           78.2  42 
 RUS  HZ EP       1018 36.66                             143    0.3910  103 174 
 RUS  HN ES       1018 55.09                             143    0.0210  103 174 
 RUS  HZ I        1018 55.96         2.4 0.19            145            103 174 
 PTB  HZ EP       1018 39.25                             133    0.22 9  145 258 
 PTB  HN ES       1018 59.57                             133   -0.41 9  145 258 
 PTB  HZ I        1019  3.58         3.3 0.10            133            145 258 
 OCA  HE ES   1   1019  3.09                             130    0.64 7  158 354 
 OCA  HZ I        1019  6.48         3.8 0.22            131            158 354 
 SPBC HZ EP       1018 40.47                             129   -0.29 9  163 218 
 SPBC HN ES       1019  3.59                             129    0.53 9  163 218 
 SPBC HZ I        1019  6.43         5.7 0.10            130            163 218 
 ZAR  HN ES       1019  9.71                             123    0.27 9  200 292 
 NOR  HN ES   1   1019 16.21                             119    0.55 6  233 234 
 SML  HZ EP       1018 48.50                             118   -0.06 8  241 336 
 SML  HN ES       1019 16.31                             118   -0.64 8  241 336 
 SML  HZ I        1019 24.59         5.5 0.26            118            241 336 
 CHI  HZ EP       1018 49.64                             117   -0.44 8  250 194 
 CHI  HN ES       1019 19.47                             117   -0.18 8  250 194 
 CHI  HZ I        1019 27.63         1.4 0.24            118            250 194 
                                                                                
