 2012  913 1804 44.9 L   6.796 -73.147148.6  RSN 12 0.4 2.7LRSN 3.2WRSN        1
 SPEC AVERAGE  MO 13.9 ST 13.9 OM  6.5 f0 4.94 R0.2976 AL 3.76 WI  7.2 MW  3.2 3
 SPEC SD       MO  0.0 ST0.000 OM  4.2 f00.000 R0.0000 AL      WI      MW  0.0 3
 GAP= 71        0.75       4.0     2.6  4.7 -0.1636E+00  0.3138E+01  0.4060E+01E
 Epicentro: LOS SANTOS - SANTANDER                                             3
 SPEC RUS HH E MO 13.9 ST 13.9 OM  2.3 f0 4.94 R0.2976 AL 3.76 WI  7.2 MW  3.2 3
 SPEC RUS HH E T18 527 K 0.000 GD  179 VS 4.20 DE 3.00 Q0230.0 QA 0.60 VS 4.20 3
 ACTION:UPD 12-10-22 14:18 OP:ep   STATUS:               ID:20120913180444 L   I
 2012-09-13-1800-00M.COL___227                                                 6
 STAT SP IPHASW D HRMM SECON CODA AMPLIT PERI AZIMU VELO AIN AR TRES W  DIS CAZ7
 BAR2 SZ EP       18 5  4.75                             171   -0.1210 22.8 190 
 BAR2 SZ ES   1   18 5 20.38                             171   -0.06 7 22.8 190 
 BAR2 SZ I        18 5 21.49       137.4 0.22                          22.8 190 
 GIR2 SZ EP   1   18 5  4.79                             167   -0.14 7 31.7 351 
 GIR2 SZ ES   1   18 5 20.56                             167    0.01 7 31.7 351 
 BRR  HZ EP   1   18 5  6.69                             153    0.32 7 71.3 299 
 BRR  HN ES   1   18 5 24.03                             153    0.92 7 71.3 299 
 BRR  HZ I        18 5 25.99        57.4 0.14                          71.3 299 
 PAM  SZ EP   1   18 5  7.65                             151    0.20 7 77.8  39 
 PAM  SE ES   1   18 5 24.71                             151   -0.33 7 77.8  39 
 PAM  SE I        18 5 26.84       101.8 0.26                          77.8  39 
 RUS  HZ EP   1   18 5  8.57                             144   -0.34 7  100 176 
 RUS  HE ES   1   18 5 27.61                             144   -0.01 7  100 176 
 RUS  HZ I        18 5 28.81        33.5 0.58                           100 176 
 PTB  HZ EP   1   18 5 11.69                             133   -0.40 7  148 259 
 PTB  HN ES   1   18 5 32.49                             133   -0.80 7  148 259 
 PTB  HN I        18 5 38.05       105.7 0.32                           148 259 
 TAM  HZ EP       18 5 12.92                             131    0.11 9  155 105 
 TAM  HZ I        18 5 13.09        77.1 0.32                           155 105 
 TAM  HN ES   1   18 5 34.65                             131    0.07 7  155 105 
 ZAR  HZ EP   1   18 5 17.20                             123   -0.35 6  204 292 
 ZAR  HE ES   1   18 5 42.81                             123   -0.20 6  204 292 
 ZAR  HZ I        18 5 49.33        56.8 0.40                           204 292 
 NOR  SZ EP       18 5 20.73                             119   -0.04 8  234 235 
 NOR  SN ES       18 5 48.85                             119    0.12 8  234 235 
 HEL  HZ EP   1   18 5 26.24                             115    1.00 6  272 256 
 HEL  HN ES   1   18 5 57.23                             115    0.53 6  272 256 
 HEL  HZ I        18 6  3.48        29.0 0.36                           272 256 
 DBB  SZ EP   1   18 5 32.28                             110   -0.22 5  339 274 
 DBB  SZ ES   1   18 6  9.25                             110   -0.36 5  339 274 
 DBB  SZ I        18 6 10.67        23.9 0.38                           339 274 
 PRA  HZ EP   1   18 5 38.95                             107    0.47 4  392 210 
 PRA  HZ I        18 6 26.28        28.0 0.64                           392 210 
                                                                                
