 2015 1013 1543 48.0 L   6.112 -73.725105.5  RSN  6 0.3 1.7LRSN                1
 GAP=108        0.68       3.0     2.7  5.8 -0.3608E+01  0.9191E+01 -0.6504E+01E
 Epicentro: CHIPATA - SANTANDER                                                3
 ACTION:UPD 15-12-22 20:39 OP:cam  STATUS:               ID:20151013154348 L   I
 OLDACT:UP  15-10-14 01:09 OP:ak   STATUS:               ID:20151013153748     3
 OLDACT:REG 15-10-13 22:59 OP:y    STATUS:               ID:20151013153748     3
 2015-10-13-1537-48M.COL___339                                                 6
 STAT SP IPHASW D HRMM SECON CODA AMPLIT PERI AZIMU VELO AIN AR TRES W  DIS CAZ7
 SPBC HZ EP       1544  4.59                             146   -0.0310 63.8 217 
 SPBC HN ES       1544 17.46                             146   -0.0910 63.8 217 
 SPBC HZ I        1544 20.21        14.4 0.10            150           63.8 217 
 RUS  HZ EP   1   1544  6.11                             142    0.11 7 75.1 109 
 RUS  HN ES       1544 19.72                             142   -0.2910 75.1 109 
 BAR2 EZ EP       1544  6.03                             140    0.0010 80.1  49 
 BAR2 EZ ES       1544 20.44                             140    0.3810 80.1  49 
 BAR2 EZ I        1544 21.85        14.0 0.20            145           80.1  49 
 NOR  HZ EP       1544 11.01                             122   -0.36 9  140 244 
 NOR  HE ES       1544 29.64                             122    0.08 9  140 244 
 NOR  HZ I        1544 33.39         9.1 0.20            126            140 244 
 ZAR  HZ EP       1544 17.11                             113   -0.37 9  197 321 
 ZAR  HN ES       1544 40.39                             113   -0.05 9  197 321 
 ZAR  HZ I        1544 44.56         6.2 0.34            116            197 321 
 GUY2CHZ EP       1544 19.65                             112    0.55 8  206 242 
 GUY2CHE ES       1544 43.50                             112    0.18 8  206 242 
 GUY2CHZ I        1544 52.37         2.5 0.62                           206 242 
                                                                                
