 2012  413 1121  6.2 L   6.761 -73.165140.0  RSN  6 0.3 1.7LRSN                1
 GAP=147        0.64       5.6     4.3  6.7 -0.1020E+02  0.1234E+02 -0.2516E+01E
 Epicentro: LOS SANTOS - SANTANDER                                             3
 ACTION:UPD 12-07-05 11:53 OP:tino STATUS:               ID:20120413112106 L   I
 2012-04-13-1120-00M.COL___181                                                 6
 STAT SP IPHASW D HRMM SECON CODA AMPLIT PERI AZIMU VELO AIN AR TRES W  DIS CAZ7
 BAR2 SZ EP   1   1121 25.16                             172     0.1 7   19 186 
 BAR2 SZ ES   1   1121 39.74                             172     0.0 7   19 186 
 BAR2 SZ I        1121 41.40        14.1 0.35                            19 186 
 BRR  HZ EP   1   1121 26.96                             151     0.2 7   72 302 
 BRR  HZ I        1121 27.31        13.0 0.15                            72 302 
 PAM  SZ EP   1   1121 28.02                             148    -0.1 7   82  39 
 PAM  SE ES   1   1121 45.07                             148    -0.1 7   82  39 
 PAM  SZ I        1121 47.27         5.0 0.44                            82  39 
 PTB  HZ EP   1   1121 31.75                             131    -0.7 7  145 260 
 PTB  HN ES   1   1121 52.86                             131     0.0 7  145 260 
 PTB  HZ I        1122  0.68         6.4 0.26                           145 260 
 ZAR  HZ EP   1   1121 38.71                             121     0.5 6  204 293 
 ZAR  HE ES   1   1122  3.06                             121    -0.1 6  204 293 
 ZAR  HZ I        1122 10.81         9.4 0.24                           204 293 
 NOR  SZ EP   1   1121 40.97                             118    -0.1 6  230 235 
 NOR  SN ES   1   1122  8.58                             118     0.2 6  230 235 
                                                                                
