 2011  113 1126 35.7 L   6.789 -73.154146.1  RSN  8 0.4 2.0LRSN                1
 GAP=158        0.77       3.9     9.8  5.9 -0.2088E+02  0.1610E+02 -0.1754E-01E
 Epicentro: LOS SANTOS - SANTANDER                                             3
 ACTION:UP  11-02-08 08:40 OP:pat  STATUS:               ID:20110113112635 L   I
 2011-01-13-1122-13S.COL___136                                                 6
 STAT SP IPHASW D HRMM SECON CODA AMPLIT PERI AZIMU VELO SNR AR TRES W  DIS CAZ7
 BTL  SZ EP       1126 54.82                             173    -0.510   19 319 
 BTL  SZ ES   1   1127 10.53                             173     0.0 7   19 319 
 BAR2 SZ EP       1126 55.46                             171     0.110   22 189 
 BAR2 SZ ES   1   1127 10.42                             171    -0.2 7   22 189 
 BAR2 SZ I        1127 12.33        21.7 0.34                            22 189 
 RUS  HZ EP   2   1126 59.43                             144     0.0 5   99 175 
 RUS  HN ES   3   1127 17.93                             144     0.1 2   99 175 
 GRA  SZ EP       1127  1.31                             137     0.210  127  18 
 GRA  SZ ES   1   1127 21.06                             137     0.2 7  127  18 
 GRA  SZ I        1127 22.59        13.8 0.43                           127  18 
 OCA  SZ EP       1127  3.83                             129    -0.3 9  161 354 
 OCA  SZ ES   1   1127 26.70                             129     0.4 7  161 354 
 OCA  SZ I        1127 30.63        13.9 0.46                           161 354 
 NOR  SZ EP       1127 10.97                             119    -0.3 8  233 235 
 CHI  HZ EP       1127 13.51                             117     0.3 8  247 195 
 CHI  HN ES   2   1127 43.29                             117     0.7 4  247 195 
 CHI  HZ I        1127 46.42         4.8 0.71                           247 195 
 RREF HN ES   2   1127 58.57                             111     1.0 3  320 229 
 RREF HZ I        1128  8.00         7.2 0.27                           320 229 
                                                                                
