 2012  813 1828 32.5 L   6.730 -73.200151.4  RSN  4 0.1 1.5LRSN                1
 GAP=226        0.39       4.0     3.9  5.0  0.7987E+01 -0.3601E+01 -0.1112E+01E
 Epicentro: VILLANUEVA - SANTANDER                                             3
 ACTION:UPD 12-09-10 11:56 OP:ep   STATUS:               ID:20120813182832 L   I
 2012-08-13-1820-00M.COL___217                                                 6
 STAT SP IPHASW D HRMM SECON CODA AMPLIT PERI AZIMU VELO AIN AR TRES W  DIS CAZ7
 BAR2 SZ EP       1828 52.51                             174   -0.2110 15.3 173 
 BRR  HZ EP   1   1828 54.30                             154    0.05 7 70.3 306 
 BRR  HZ I        1828 58.10        13.4 0.43                          70.3 306 
 BRR  HE ES   1   1829 11.32                             154    0.13 7 70.3 306 
 RUS  HZ EP       1828 56.48                             147    0.1210 93.4 172 
 RUS  HE ES   1   1829 14.96                             147    0.02 7 93.4 172 
 RUS  HZ I        1829 16.57         4.2 0.37                          93.4 172 
 PTB  HZ EP   1   1828 59.43                             135    0.09 7  140 261 
 PTB  HZ I        1829  0.56         2.7 0.42                           140 261 
 PTB  HN ES   1   1829 20.11                             135   -0.13 7  140 261 
                                                                                
