 2014  413 1158 36.1 L   6.825 -73.146145.4  RSN 15 0.4 2.4LRSN                1
 GAP=126        0.82       2.0     3.2  5.2 -0.1696E+01  0.3840E+01 -0.5293E+00E
 Epicentro: LOS SANTOS - SANTANDER                                             3
 ACTION:UPD 14-05-13 23:08 OP:nd   STATUS:               ID:20140413115836 L   I
 OLDACT:REG 14-04-13 22:26 OP:cam  STATUS:               ID:20140413115813     3
 2014-04-13-1158-13M.COL___260                                                 6
 STAT SP IPHASW D HRMM SECON CODA AMPLIT PERI AZIMU VELO AIN AR TRES W  DIS CAZ7
 PAM  SZ IP     D 1158 58.76                             151    0.6210 75.4  41 
 PAM  SN ES       1159 15.57                             151    0.2310 75.4  41 
 PAM  SZ I        1159 17.80        68.4 0.54            155           75.4  41 
 RUS  HZ EP   1   1158 59.82                             143   -0.17 7  103 176 
 RUS  HN ES       1159 18.73                             143    0.0910  103 176 
 RUS  HZ I        1159 20.15        20.9 0.22            146            103 176 
 PTB  HZ EP       1159  2.69                             132   -0.37 9  148 258 
 PTB  HN ES       1159 23.64                             132   -0.46 9  148 258 
 PTB  HZ I        1159 29.44        30.1 0.26            132            148 258 
 OCA  HZ EP     D 1159  4.22                             130    0.11 9  158 353 
 OCA  HE ES       1159 25.92                             130   -0.05 9  158 353 
 OCA  HZ I        1159 31.28        22.9 0.18            132            158 353 
 SPBC HZ EP       1159  4.83                             129    0.08 9  165 218 
 SPBC HN ES       1159 26.51                             129   -0.60 9  165 218 
 SPBC HZ I        1159 32.46        48.3 0.24            130            165 218 
 ZAR  HZ EP   4   1159  7.18                             122   -1.21 0  203 291 
 ZAR  HN ES       1159 33.84                             122    0.25 9  203 291 
 NOR  HZ EP     D 1159 11.99                             118    0.04 8  236 234 
 NOR  HN ES       1159 39.80                             118   -0.13 8  236 234 
 NOR  HZ I        1159 46.95        17.6 0.38            120            236 234 
 SML  HZ EP       1159 12.15                             118   -0.27 8  241 335 
 SML  HN ES       1159 40.60                             118   -0.16 8  241 335 
 SML  HZ I        1159 47.68        40.5 0.10            119            241 335 
 CHI  HZ EP       1159 13.89                             117   -0.15 8  251 195 
 CHI  HN ES       1159 43.48                             117   -0.17 8  251 195 
 CHI  HZ I        1159 46.99        10.4 0.60            119            251 195 
 HEL  HZ EP   4   1159 17.98                             115    1.64 0  273 255 
 HEL  HN ES       1159 48.55                             115    0.81 8  273 255 
 HEL  HZ I        1159 54.11        13.0 0.52            116            273 255 
 GUY2CHZ EP   1   1159 20.80                             112    0.96 5  303 234 
 GUY2CHE ES   4   1159 57.47                             112    3.50 0  303 234 
 GUY2CHZ I        12 0  2.35        16.7 0.50                           303 234 
 RREF HZ EP   2   1159 23.16                             111    0.76 3  323 229 
 COD  HZ EP   1   1159 23.77                             109   -0.36 5  346 355 
 COD  HE ES       12 0  1.14                             109   -0.47 6  346 355 
 COD  HZ I        12 0  6.31         5.8 0.54            111            346 355 
 SDV  BZ EP   2   1159 25.23                             108   -0.68 3  359  51 
 PRA  HZ EP   2   1159 29.84                             106   -0.02 3  394 209 
 PRA  HE ES   1   12 0 12.48                             106    0.67 4  394 209 
 PRA  HZ I        12 0 17.49        12.4 0.38            108            394 209 
                                                                                
