 2012  713 1007 45.6 L   6.783 -73.168145.1  RSN  6 0.2 1.6LRSN                1
 GAP=135        0.51       3.9     3.7  5.7  0.2278E+00  0.1302E+01 -0.1301E+01E
 Epicentro: LOS SANTOS - SANTANDER                                             3
 ACTION:UPD 12-08-14 11:44 OP:ep   STATUS:               ID:20120713100745 L   I
 2012-07-13-1000-00M.COL___197                                                 6
 STAT SP IPHASW D HRMM SECON CODA AMPLIT PERI AZIMU VELO AIN AR TRES W  DIS CAZ7
 BAR2 SZ EP   1   10 8  4.97                             171    -0.1 7   21 184 
 BAR2 SZ ES   2   10 8 19.68                             171    -0.6 5   21 184 
 BRR  HZ EP   1   10 8  6.84                             153     0.2 7   70 301 
 BRR  HN ES   2   10 8 23.39                             153     0.4 5   70 301 
 BRR  HZ I        10 8 27.71         9.4 0.16            124             70 301 
 PAM  SZ EP   1   10 8  7.83                             150    -0.1 7   80  40 
 PAM  SE ES   2   10 8 25.46                             150     0.1 5   80  40 
 RUS  HZ EP       10 8  9.25                             144     0.110   99 175 
 RUS  HN ES   1   10 8 27.70                             144     0.2 7   99 175 
 RUS  HZ I        10 8 30.57         4.7 0.56            127             99 175 
 PTB  HZ EP   1   10 8 12.02                             132    -0.2 7  145 259 
 PTB  HN ES   1   10 8 33.04                             132     0.0 7  145 259 
 PTB  HZ I        10 8 40.60         4.2 0.30            109            145 259 
 ZAR  HZ EP   3   10 8 17.87                             122     0.0 2  203 293 
 ZAR  HZ I        10 8 49.76         4.1 0.52            104            203 293 
