 2013  513 1021 35.1 L   6.752 -73.153145.9  RSN  8 0.5 1.5LRSN                1
 GAP=182        1.31       5.5     7.7  8.6  0.1340E+02  0.1509E+02  0.9851E+01E
 Epicentro: LOS SANTOS - SANTANDER                                             3
 ACTION:UPD 13-06-20 09:50 OP:ep   STATUS:               ID:20130513102135 L   I
 2013-05-13-1020-00M.COL___256                                                 6
 STAT SP IPHASW D HRMM SECON CODA AMPLIT PERI AZIMU VELO AIN AR TRES W  DIS CAZ7
 BAR2 SZ EP       1021 54.67                             173   -0.0210 17.9 191 
 BAR2 SZ ES       1022 10.80                             173    0.8610 17.9 191 
 BAR2 SZ I        1022 12.33         6.7 0.20            167           17.9 191 
 GIR2 SZ EP       1021 54.80                             165   -0.1810 36.4 353 
 GIR2 SZ ES       1022  9.97                             165   -0.4810 36.4 353 
 BRR  HZ EP       1021 56.69                             152    0.2710 73.2 302 
 BRR  HE ES       1022 13.52                             152    0.5010 73.2 302 
 BRR  HZ I        1022 18.39         5.4 0.12            148           73.2 302 
 RUS  HZ EP       1021 59.08                             145    0.5510 95.3 175 
 RUS  HN ES       1022 15.77                             145   -1.0010 95.3 175 
 RUS  HZ I        1022 18.52         3.2 0.42            146           95.3 175 
 PTB  HZ EP       1022  1.37                             132   -0.60 9  146 261 
 PTB  HN ES       1022 22.75                             132   -0.14 9  146 261 
 PTB  HZ I        1022 28.56         6.1 0.26            130            146 261 
 ZAR  HE ES   1   1022 33.18                             122    0.02 6  205 294 
 ZAR  HZ I        1022 39.13         4.9 0.16            122            205 294 
 CHI  HZ EP   1   1022 13.06                             118    0.79 6  243 195 
 CHI  HN ES       1022 41.30                             118    0.08 8  243 195 
 CHI  HZ I        1022 45.08         1.1 0.27            119            243 195 
 SML  HE ES   1   1022 40.64                             117   -0.58 6  248 336 
                                                                                
