 2011  513 1316 56.0 L   7.448 -73.477113.8  RSN  4 0.1 1.6LRSN                1
 GAP=202        0.37       5.4     6.2  5.7 -0.2362E+02 -0.1890E+01  0.5229E+01E
 Epicentro: SABANA DE TORRES - SANTANDER                                       3
 ACTION:UP  11-06-29 08:53 OP:tino STATUS:               ID:20110513131656 L   I
 2011-05-13-1315-42S.COL___139                                                 6
 STAT SP IPHASW D HRMM SECON CODA AMPLIT PERI AZIMU VELO SNR AR TRES W  DIS CAZ7
 BRR  HZ I        1317 24.44        19.5 0.41                            46 215 
 BRR  HE ES   2   1317 24.96                             156    -0.1 5   46 215 
 PAM  SZ EP   2   1317 15.71                             140     0.1 5   87  98 
 PAM  SE ES   2   1317 30.79                             140    -0.2 5   87  98 
 GRA  SZ EP   1   1317 15.17                             139    -0.1 7   89  57 
 GRA  SZ ES   1   1317 30.50                             139     0.1 7   89  57 
 GRA  SZ I        1317 32.95         5.4 0.32                            89  57 
 BAR2 SZ EP   1   1317 16.47                             136     0.1 7  100 161 
 BAR2 SZ I        1317 34.05         6.6 0.89                           100 161 
                                                                                
