 2016  213 1030 15.8 L   6.732 -73.236132.0  RSN  8 0.6 1.6LRSN                1
 GAP=118        0.68       4.9     6.3  8.8  0.1488E+01  0.2751E+02  0.1117E+02E
 Epicentro: VILLANUEVA - SANTANDER                                             3
 ACTION:UPD 16-03-04 21:25 OP:rebc STATUS:               ID:20160213103015 L   I
 OLDACT:REG 16-02-13 21:19 OP:dnl  STATUS:               ID:20160213102749     3
 2016-02-13-1027-49M.COL___305                                                 6
 STAT SP IPHASW D HRMM SECON CODA AMPLIT PERI AZIMU VELO AIN AR TRES W  DIS CAZ7
 BAR2 EZ EP   2   1030 33.83                             173    0.16 6 16.5 159 
 BAR2 EZ ES   2   1030 47.82                             173    0.23 6 16.5 159 
 BAR2 EZ I        1030 52.21         6.5 0.32            166           16.5 159 
 PAM  EZ EP   2   1030 38.53                             144    1.11 6 89.6  41 
 PAM  EE ES   2   1030 53.59                             144   -0.68 6 89.6  41 
 PAM  EZ I        1030 56.33         7.3 0.52            150           89.6  41 
 RUS  HZ EP   2   1030 37.26                             143   -0.51 6 94.3 170 
 RUS  HN ES   2   1030 55.22                             143    0.33 6 94.3 170 
 RUS  HZ I        1030 56.68         5.5 0.32            145           94.3 170 
 PTB  HZ EP   2   1030 40.14                             131   -0.52 6  137 261 
 PTB  HZ I        1031  3.06         6.8 0.14            125            137 261 
 ZAR  HZ EP   2   1030 46.39                             120   -0.37 5  198 295 
 ZAR  HE ES   2   1031 11.07                             120    0.18 5  198 295 
 ZAR  HZ I        1031 12.93         9.6 0.08            117            198 295 
 CHI  HZ EP       1030 51.43                             115   -0.2810  239 193 
 CHI  HE ES   2   1031 19.80                             115    0.10 5  239 193 
 CHI  HZ I        1031 23.45         1.9 0.28            116            239 193 
 HEL  HZ EP   3   1030 55.17                             113    1.10 2  261 257 
 HEL  HE ES   3   1031 22.64                             113   -1.27 2  261 257 
 HEL  HZ I        1031 39.57         2.0 0.29            111            261 257 
 GUY2CHZ EP   2   1030 58.20                             111    0.80 5  289 235 
 GUY2CHE ES   2   1031 30.27                             111    0.45 5  289 235 
 GUY2CHZ I        1031 40.52         2.7 0.58                           289 235 
                                                                                
