 2011 1013 1337 42.2 L   6.792 -73.148141.7  RSN  7 0.2 1.8LRSN                1
 GAP=137        0.44       2.5     2.9  3.6 -0.2838E+00  0.2635E+01  0.8514E-01E
 Epicentro: LOS SANTOS - SANTANDER                                             3
 ACTION:UPD 12-07-13 16:03 OP:ep   STATUS:               ID:20111013133742 L   I
 2011-10-13-1334-46S.COL___168                                                 6
 STAT SP IPHASW D HRMM SECON CODA AMPLIT PERI AZIMU VELO AIN AR TRES W  DIS CAZ7
 BAR2 SZ EP       1338  1.45                             171    0.1010 22.4 190 
 BAR2 SZ ES   1   1338 16.23                             171   -0.03 7 22.4 190 
 BAR2 SZ I        1338 17.69        19.9 0.15                          22.4 190 
 BRR  HZ EP   1   1338  3.17                             152    0.22 7 71.4 299 
 BRR  HZ I        1338  7.10        12.1 0.12                          71.4 299 
 BRR  HE ES   1   1338 19.18                             152    0.07 7 71.4 299 
 PAM  SZ EP       1338  4.27                             150    0.2010 78.2  39 
 PAM  SN ES   1   1338 20.69                             150   -0.40 7 78.2  39 
 RUS  HZ EP       1338  5.44                             143   -0.0810 99.7 176 
 RUS  HZ I        1338  6.73         5.3 0.15                          99.7 176 
 RUS  HE ES   1   1338 23.79                             143    0.11 7 99.7 176 
 OCA  SZ EP   2   1338  9.89                             128   -0.42 5  161 353 
 OCA  SZ I        1338 36.12        10.1 0.29                           161 353 
 ZAR  HZ EP   1   1338 14.50                             121    0.07 6  204 292 
 ZAR  HE ES   2   1338 39.61                             121    0.07 4  204 292 
 ZAR  HZ I        1338 46.10         6.3 0.30                           204 292 
 NOR  SZ EP   1   1338 17.41                             118   -0.24 6  234 235 
 NOR  SN ES   2   1338 44.86                             118   -0.41 4  234 235 
                                                                                
