 2017 1113 1313 15.4 L   6.814 -73.102149.9  RSN  9 0.5 1.6LRSN                1
 GAP=141        1.27       5.0     5.2  8.0 -0.1618E+01  0.1057E+02  0.1146E+02E
 Epicentro: LOS SANTOS - SANTANDER                                             3
 ACTION:UPD 17-12-12 19:55 OP:rebc STATUS:               ID:20171113131315 L   I
 OLDACT:REG 17-11-13 20:22 OP:lv   STATUS:               ID:20171113130739     3
 2017-11-13-1308-00M.COL___456                                                 6
 STAT SP IPHASW D HRMM SECON CODA AMPLIT PERI AZIMU VELO AIN AR TRES W  DIS CAZ7
 BAR2 EZ EP       1313 36.15                             170    0.6110 26.1 200 
 BAR2 EZ ES       1313 50.69                             170   -0.5910 26.1 200 
 BAR2 EZ I        1313 52.11        11.4 0.32            169           26.1 200 
 PAM  EZ EP       1313 37.26                             153   -0.5110 73.2  37 
 PAM  EN ES       1313 55.07                             153   -0.1810 73.2  37 
 PAM  EZ I        1313 58.17         5.1 0.44            154           73.2  37 
 BRR  HZ EP       1313 37.53                             152    0.3810 74.8 296 
 BRR  HN ES       1313 54.99                             152    0.8410 74.8 296 
 RUS  HZ EP       1313 39.55                             144   -0.0610  102 179 
 RUS  HN ES       1313 58.91                             144    0.3910  102 179 
 RUS  HZ I        1313 59.84         5.2 0.24            145            102 179 
 PTB  HZ EP       1313 43.00                             132   -0.11 9  153 259 
 PTB  HN ES       1314  4.33                             132   -0.44 9  153 259 
 PTB  HZ I        1314  5.83         4.4 0.14            132            153 259 
 ZAR  HZ EP   4   1313 49.63                             123    1.16 0  208 291 
 ZAR  HN ES       1314 13.81                             123   -0.49 8  208 291 
 ZAR  HZ I        1314 19.33         7.4 0.40            123            208 291 
 NOR  HZ EP       1313 51.39                             119   -0.45 8  240 235 
 NOR  HN ES       1314 20.61                             119    0.31 8  240 235 
 NOR  HZ I        1314 24.76         3.0 0.24            119            240 235 
 CHI  HZ EP       1313 54.39                             118    0.81 8  251 196 
 CHI  HN ES       1314 22.49                             118   -0.91 8  251 196 
 CHI  HZ I        1314 27.71         2.9 0.58            118            251 196 
 GUY2CHZ EP   4   1314  1.57                             113    1.87 0  306 235 
 GUY2CHN ES       1314 34.49                             113    0.20 7  306 235 
 GUY2CHZ I        1314 41.27         1.6 0.26                           306 235 
                                                                                
