 2017  913 1921  5.7 L   6.795 -73.075146.2  RSN  5 0.2 1.7LRSN                1
 GAP=244        0.47       3.1     3.4  4.2  0.3170E+00  0.2267E+01  0.3463E+01E
 Epicentro: LOS SANTOS - SANTANDER                                             3
 ACTION:UPD 17-10-05 19:12 OP:rebc STATUS:               ID:20170913192105 L   I
 OLDACT:REG 17-09-14 00:47 OP:dnl  STATUS:               ID:20170913191742     3
 2017-09-13-1918-00M.COL___464                                                 6
 STAT SP IPHASW D HRMM SECON CODA AMPLIT PERI AZIMU VELO AIN AR TRES W  DIS CAZ7
 BAR2 EZ EP       1921 25.34                             170   -0.0410 25.4 208 
 BAR2 EZ ES       1921 40.43                             170   -0.3310 25.4 208 
 BAR2 EZ I        1921 41.38        11.1 0.30            166           25.4 208 
 BRR  HZ EP   2   1921 27.04                             150   -0.23 5 78.4 296 
 BRR  HE ES       1921 44.37                             150    0.2510 78.4 296 
 BRR  HZ I        1921 45.37        19.1 0.38            149           78.4 296 
 RUS  HZ EP       1921 29.48                             144    0.0910 99.8 180 
 RUS  HN ES       1921 48.07                             144    0.1710 99.8 180 
 RUS  HZ I        1921 49.12         4.0 0.20            143           99.8 180 
 SPBC HZ EP   2   1921 34.54                             128   -0.08 5  168 221 
 SPBC HE ES       1921 57.28                             128    0.06 9  168 221 
 SPBC HZ I        1922  0.18         6.1 0.42            127            168 221 
 NOR  HZ EP   2   1921 42.07                             118    0.01 4  241 236 
 NOR  HE ES       1922 10.27                             118   -0.19 8  241 236 
 NOR  HZ I        1922 14.05         2.4 0.20            117            241 236 
                                                                                
