 2012  313 1316 52.3 L   6.792 -73.165148.0  RSN  7 0.5 1.6LRSN                1
 GAP=134        1.08       9.5     6.5 10.5 -0.1398E+01  0.8726E+01  0.3458E+02E
 ACTION:UP  12-03-31 23:19 OP:EP   STATUS:               ID:20120313131652 L   I
 2012-03-13-1310-00M.COL___196                                                 6
 STAT SP IPHASW D HRMM SECON CODA AMPLIT PERI AZIMU VELO SNR AR TRES W  DIS CAZ7
 BAR2 SZ EP   1   1317 12.05                             171    -0.1 7   22 185 
 BAR2 SZ ES   1   1317 27.60                             171     0.0 7   22 185 
 BAR2 SZ I        1317 30.14        11.6 0.25                            22 185 
 BRR  HZ EP   1   1317 13.91                             154     0.3 7   70 300 
 BRR  HZ I        1317 16.29        13.7 0.13                            70 300 
 BRR  HN ES   1   1317 31.13                             154     0.9 7   70 300 
 PAM  SZ EP   1   1317 14.80                             151     0.0 7   79  40 
 PAM  SN ES   1   1317 32.02                             151    -0.4 7   79  40 
 RUS  HZ EP   1   1317 16.39                             145     0.2 7  100 175 
 RUS  HZ I        1317 36.32         5.4 0.41                           100 175 
 PTB  HZ EP   1   1317 18.40                             133    -0.8 7  145 259 
 PTB  HN ES   1   1317 39.68                             133    -0.5 7  145 259 
 PTB  HZ I        1317 43.17         3.6 0.05                           145 259 
 ZAR  HE ES   1   1317 49.91                             123    -0.1 6  202 293 
 PRA  HZ EP   1   1317 46.48                             107     0.8 4  390 209 
                                                                                
