 2011  713 1847 20.5 L   6.663 -72.966181.3  RSN  4 0.1 2.2LRSN                1
 GAP=180        0.35       2.6     5.0  4.3 -0.3366E+00 -0.3160E+01 -0.2575E+00E
 Epicentro: ARATOCA - SANTANDER                                                3
 ACTION:UPD 12-07-25 14:00 OP:epov STATUS:               ID:20110713184720 L   I
 2011-07-13-1846-13S.COL___143                                                 6
 STAT SP IPHASW D HRMM SECON CODA AMPLIT PERI AZIMU VELO AIN AR TRES W  DIS CAZ7
 BAR2 SZ EP   1   1847 44.25                             172   -0.21 7 25.1 252 
 RUS  HZ EP   1   1847 47.11                             154    0.04 7 86.2 189 
 RUS  HN ES   1   1848  7.84                             154    0.05 7 86.2 189 
 RUS  HZ I        1848  8.93        19.7 0.31                          86.2 189 
 BRR  HZ EP       1847 46.89                             151   -0.0210 95.9 301 
 BRR  HZ I        1847 47.78        22.0 0.13                          95.9 301 
 BRR  HN ES   1   1848  7.55                             151    0.05 7 95.9 301 
 BRI  SZ EP   1   1847 48.77                             146    0.19 7  118   9 
 BRI  SZ ES   1   1848 10.40                             146   -0.07 7  118   9 
 BRI  SZ I        1848 16.58        13.6 0.44                           118   9 
                                                                                
