 2011  813 1727 35.6 L   6.806 -73.087143.3  RSN  5 0.2 1.8LRSN                1
 GAP=189        0.43       3.7     8.2  5.1  0.1985E+02 -0.2245E+02 -0.1059E+02E
 Epicentro: LOS SANTOS - SANTANDER                                             3
 ACTION:UPD 12-07-13 15:51 OP:ep   STATUS:               ID:20110813172735 L   I
 2011-08-13-1720-00M.COL___151                                                 6
 STAT SP IPHASW D HRMM SECON CODA AMPLIT PERI AZIMU VELO AIN AR TRES W  DIS CAZ7
 BAR2 SZ EP       1727 55.16                             169    0.2010 25.9 204 
 BAR2 SZ I        1727 55.42        15.9 0.36                          25.9 204 
 BAR2 SZ ES   1   1728 10.14                             169    0.06 7 25.9 204 
 BRR  HZ EP       1727 56.96                             150    0.1810 76.7 296 
 BRR  HE ES   1   1728 13.16                             150   -0.16 7 76.7 296 
 BRR  HZ I        1728 13.43        18.8 0.52                          76.7 296 
 RUS  HZ EP       1727 59.07                             143   -0.0410  101 180 
 RUS  HN ES   1   1728 17.29                             143   -0.18 7  101 180 
 RUS  HZ I        1728 19.23         8.0 0.30                           101 180 
 OCA  SZ EP       1728  3.52                             129   -0.20 9  161 351 
 CHI  HN ES   3   1728 42.74                             116   -0.16 2  251 197 
                                                                                
