 2017  913 1918 13.3 L   6.861 -73.131153.9  RSN 25 0.5 2.8LRSN                1
 GAP=111        1.12       2.6     3.3  5.0 -0.4125E+00  0.3333E+01  0.1113E+01E
 Epicentro: LOS SANTOS - SANTANDER                                             3
 ACTION:UPD 17-10-05 19:12 OP:rebc STATUS:               ID:20170913191813 L   I
 OLDACT:UP  17-09-14 00:43 OP:dnl  STATUS:               ID:20170913190745d    3
 OLDACT:UP  17-09-14 00:35 OP:dnl  STATUS:               ID:20170913190745d    3
 OLDACT:UP  17-09-14 00:35 OP:dnl  STATUS:               ID:20170913190745d    3
 OLDACT:DUP 17-09-14 00:21 OP:dnl  STATUS:               ID:20170913190745d    3
 2017-09-13-1908-00M.COL___464                                                 6
 STAT SP IPHASW D HRMM SECON CODA AMPLIT PERI AZIMU VELO AIN AR TRES W  DIS CAZ7
 BAR2 EZ IP     D 1918 34.16                             169    0.0610 30.2 191 
 BAR2 EZ ES       1918 49.57                             169   -0.7210 30.2 191 
 BAR2 EZ I        1918 50.43       108.6 0.18            168           30.2 191 
 BRR  HZ EP   2   1918 36.21                             154    0.92 5 69.7 293 
 BRR  HN ES       1918 53.29                             154    0.8710 69.7 293 
 BRR  HZ I        1918 57.09        40.4 0.12            151           69.7 293 
 PAM  EZ EP       1918 37.10                             154    1.0110 71.2  42 
 PAM  EN ES       1918 54.24                             154    0.4110 71.2  42 
 PAM  EZ I        1918 56.37       153.5 0.50            155           71.2  42 
 RUS  HZ EP       1918 38.13                             144   -0.2410  107 177 
 RUS  HE ES       1918 57.21                             144   -0.6810  107 177 
 RUS  HZ I        1918 57.93        74.9 0.24            145            107 177 
 SPBC HZ EP       1918 43.02                             130   -0.04 9  169 218 
 SPBC HN ES       1919  5.42                             130   -0.82 9  169 218 
 SPBC HZ I        1919  7.73       109.3 0.36            129            169 218 
 YPLC HZ IP     D 1918 44.62                             128    0.39 9  182 153 
 YPLC HN ES       1919  8.55                             128    0.22 9  182 153 
 YPLC HZ I        1919  9.53        79.3 0.28            129            182 153 
 ZAR  HZ EP       1918 46.65                             124    0.42 9  203 290 
 ZAR  HN ES       1919 11.83                             124   -0.07 9  203 290 
 ZAR  HZ I        1919 18.96        37.0 0.44            123            203 290 
 TABC EZ EP   4   1918 51.78                             120    1.50 0  237 210 
 TABC EZ ES   4   1919 18.03                             120   -1.06 0  237 210 
 TABC EZ I        1919 24.83        33.9 0.28            120            237 210 
 NOR  HZ EP       1918 50.26                             119    0.15 8  240 233 
 NOR  HE ES       1919 18.44                             119   -0.35 8  240 233 
 NOR  HZ I        1919 20.79        31.1 0.26            119            240 233 
 CHI  HZ EP       1918 52.32                             118    0.08 8  256 195 
 CHI  HN ES   4   1919 21.57                             118   -1.02 0  256 195 
 CHI  HZ I        1919 25.17        36.1 0.46            118            256 195 
 ROSC BZ EP   4   1918 53.99                             118    1.36 0  259 211 
 ROSC BE ES       1919 23.03                             118   -0.24 8  259 211 
 ROSC BZ I        1919 26.07        48.9 0.35            117            259 211 
 HEL  HZ EP   4   1918 55.78                             116    1.44 0  275 255 
 HEL  HE ES       1919 25.97                             116   -0.35 7  275 255 
 HEL  HZ I        1919 31.62        21.4 0.34            115            275 255 
 URE  HZ EP   2   1918 54.40                             115   -0.31 4  283 291 
 URE  HN ES       1919 26.79                             115   -0.20 7  283 291 
 URE  HZ I        1919 36.92        31.6 0.20            114            283 291 
 GUY2CHZ EP   4   1918 59.41                             113    1.49 0  306 234 
 GUY2CHN ES   4   1919 36.33                             113    3.64 0  306 234 
 GUY2CHZ I        1919 40.31        25.0 0.26                           306 234 
 VIL  EZ EP       1918 57.75                             113   -0.16 7  310 192 
 VIL  EN ES       1919 32.39                             113   -0.29 7  310 192 
 VIL  EZ I        1919 34.86        51.5 0.42            113            310 192 
 PTGC HZ EP       1918 57.40                             113   -0.81 7  314 159 
 PTGC HN ES   4   1919 30.56                             113   -2.65 0  314 159 
 PTGC HZ I        1919 35.61        49.7 0.30            113            314 159 
 LL6C HZ EP       1918 58.78                             112    0.14 7  318 357 
 LL6C HE ES       1919 33.08                             112   -0.90 7  318 357 
 LL6C HZ I        1919 41.11        15.0 0.44            112            318 357 
 ELA  HZ EP   4   1919  3.55                             111    2.37 0  335 229 
 ELA  HN ES       1919 38.79                             111    0.29 7  335 229 
 ELA  HZ I        1919 46.89        16.9 0.62            111            335 229 
 CBOC HZ EP   2   1919  2.65                             111    1.63 3  337 251 
 CBOC HE ES       1919 38.68                             111    0.47 7  337 251 
 CBOC HZ I        1919 42.30         6.9 0.18            111            337 251 
 DBB  EZ EP   2   1919  0.91                             111   -0.38 3  341 273 
 DBB  EE ES   4   1919 36.31                             111   -2.39 0  341 273 
 DBB  EZ I        1919 38.86        12.7 0.40            110            341 273 
 ANIL HZ EP   4   1919  5.17                             109    1.02 0  363 224 
 ANIL HE ES   4   1919 45.18                             109    1.39 0  363 224 
 ANIL HZ I        1919 48.77        67.1 0.38            109            363 224 
 PRA  HZ EP       1919  8.00                             107    0.08 6  399 209 
 PRA  HN ES       1919 50.67                             107    0.17 6  399 209 
 PRA  HZ I        1919 56.11        19.2 0.30            107            399 209 
 ORTC HZ EP       1919  8.51                             107    0.22 6  402 216 
 ORTC HE ES       1919 51.91                             107    0.76 6  402 216 
 ORTC HZ I        1919 55.39        16.9 0.52            107            402 216 
 SJC  HZ EP   4   1919  8.35                             107   -0.28 0  405 326 
 SJC  HE ES   4   1919 49.47                             107   -2.28 0  405 326 
 SJC  HZ I        1919 57.06         9.7 0.46            107            405 326 
 CRJC HZ EP       1919 14.50                             105   -0.77 5  461   3 
 CRJC HE ES       1920  3.00                             105   -0.58 5  461   3 
 CRJC HZ I        1920  6.68        15.5 0.56            105            461   3 
                                                                                
