 2012  513 1620 50.0 L   6.795 -73.108158.9  RSN  5 0.3 1.4LRSN                1
 GAP=241        0.66       8.4     7.0  8.2  0.2987E+02 -0.3167E+01  0.2939E+01E
 Epicentro: LOS SANTOS - SANTANDER                                             3
 ACTION:UP  12-07-05 12:04 OP:pat  STATUS:               ID:20120513162050 L   I
 2012-05-13-1620-00M.COL___195                                                 6
 STAT SP IPHASW D HRMM SECON CODA AMPLIT PERI AZIMU VELO SNR AR TRES W  DIS CAZ7
 BAR2 SZ EP   1   1621 11.05                             171    -0.2 7   24 200 
 BAR2 SZ ES   2   1621 27.28                             171    -0.5 5   24 200 
 BAR2 SZ I        1621 27.88         7.0 0.33                            24 200 
 BRR  HZ EP   1   1621 12.48                             153    -0.3 7   75 297 
 BRR  HZ I        1621 15.90         9.2 0.46                            75 297 
 BRR  HE ES   1   1621 30.94                             153     0.4 7   75 297 
 RUS  HZ EP   1   1621 15.16                             147     0.2 7  100 178 
 RUS  HE ES   2   1621 34.86                             147     0.4 5  100 178 
 RUS  HZ I        1621 35.84         2.4 0.24                           100 178 
 PTB  HZ EP   1   1621 18.62                             134     0.2 7  152 259 
 PTB  HN ES   1   1621 40.19                             134    -0.4 7  152 259 
 PTB  HZ I        1621 41.72         2.1 0.08                           152 259 
 ZAR  HN ES   2   1621 50.26                             125     0.2 4  208 292 
                                                                                
