 2011  613 1628 42.9 L   6.759 -73.093148.0  RSN  6 0.3 1.8LRSN                1
 GAP=240        0.64       4.8     8.3  8.3  0.1034E+02  0.1402E+01  0.1008E+02E
 Epicentro: LOS SANTOS - SANTANDER                                             3
 ACTION:UP  11-07-14 19:05 OP:ep   STATUS:               ID:20110613162842 L   I
 2011-06-13-1620-00M.COL___122                                                 6
 STAT SP IPHASW D HRMM SECON CODA AMPLIT PERI AZIMU VELO SNR AR TRES W  DIS CAZ7
 BAR2 SZ EP   1   1629  2.56                             172    -0.2 7   21 208 
 BAR2 SZ I        1629 19.34        14.4 0.36                            21 208 
 BRR  HZ EP   1   1629  4.55                             151    -0.2 7   79 299 
 BRR  HE ES   1   1629 22.03                             151     0.3 7   79 299 
 BRR  HZ I        1629 24.20        19.9 0.12                            79 299 
 RUS  HZ EP   1   1629  6.47                             146    -0.1 7   96 179 
 RUS  HN ES   1   1629 25.25                             146     0.3 7   96 179 
 RUS  HZ I        1629 26.54         6.3 0.16                            96 179 
 NOR  SN ES   2   1629 46.74                             119    -0.4 4  237 236 
 CHI  HE ES   1   1629 49.52                             118    -0.2 6  246 197 
 CHI  HZ I        1629 54.09         4.6 0.39                           246 197 
 PRA  HZ EP   1   1629 37.12                             107     0.7 4  391 211 
                                                                                
