 2016  813 1800  5.6 L   6.836 -73.128153.5  RSN  4 0.3 1.5LRSN                1
 GAP=211        0.65       4.0     5.8  6.2 -0.4418E+00  0.1743E+02 -0.9038E+01E
 Epicentro: LOS SANTOS - SANTANDER                                             3
 ACTION:UPD 16-10-29 15:35 OP:rebc STATUS:               ID:20160813180005 L   I
 OLDACT:REG 16-08-13 21:53 OP:lv   STATUS:               ID:20160813175759     3
 2016-08-13-1757-59S.COL___349                                                 6
 STAT SP IPHASW D HRMM SECON CODA AMPLIT PERI AZIMU VELO AIN AR TRES W  DIS CAZ7
 BAR2 EZ EP       18 0 26.36                             170    0.0710 27.7 193 
 BAR2 EZ ES       18 0 42.70                             170    0.3010 27.7 193 
 BAR2 EZ I        18 0 47.57         5.8 0.10                          27.7 193 
 RUS  HZ EP       18 0 30.56                             144    0.1310  104 177 
 RUS  HE ES       18 0 49.27                             144   -0.5010  104 177 
 RUS  HZ I        18 0 49.91         2.8 0.28                           104 177 
 NOR  HZ EP       18 0 42.47                             120    0.22 8  239 234 
 NOR  HE ES       18 1 10.75                             120   -0.05 8  239 234 
 NOR  HZ I        18 1 14.13         3.0 0.18                           239 234 
 SJC  HZ EP       18 1  1.22                             107    0.02 6  407 326 
 SJC  HE ES       18 1 44.17                             107   -0.36 6  407 326 
                                                                                
