 2012  313 1557 37.4 L   6.804 -73.150147.0  RSN 18 0.3 3.3LRSN                1
 GAP=103        0.79       2.8     3.5  4.5 -0.2508E+01  0.1310E+01  0.2155E+01E
 ACTION:UP  12-03-31 23:19 OP:EP   STATUS:               ID:20120313155737 L   I
 2012-03-13-1550-00M.COL___196                                                 6
 STAT SP IPHASW D HRMM SECON CODA AMPLIT PERI AZIMU VELO SNR AR TRES W  DIS CAZ7
 BAR2 SZ IP       1557 57.30                             170     0.110   24 189 
 BAR2 SZ ES   1   1558 12.43                             170    -0.2 7   24 189 
 BAR2 SZ I        1558 13.99       550.7 0.06                            24 189 
 BRR  HZ IP     C 1557 59.14                             153     0.510   71 298 
 BRR  HE ES   1   1558 15.80                             153     0.5 7   71 298 
 BRR  HZ I        1558 19.19       306.2 0.14                            71 298 
 PAM  SZ EP       1558  0.10                             151     0.310   77  40 
 PAM  SN ES   1   1558 16.92                             151    -0.3 7   77  40 
 RUS  HZ EP       1558  1.21                             144    -0.110  101 176 
 RUS  HN ES   1   1558 19.81                             144    -0.2 7  101 176 
 RUS  HZ I        1558 21.68       182.4 0.42                           101 176 
 PTB  HZ EP   1   1558  3.88                             132    -0.6 7  147 259 
 PTB  HN ES   1   1558 25.10                             132    -0.5 7  147 259 
 PTB  HZ I        1558 31.95       169.3 0.34                           147 259 
 OCA  SZ EP   1   1558  5.98                             130     0.2 7  160 353 
 OCA  SZ ES   1   1558 27.65                             130    -0.3 7  160 353 
 YOP  SZ EP   1   1558  8.04                             126     0.4 7  180 153 
 YOP  SZ I        1558 33.52        64.4 0.37                           180 153 
 ZAR  HZ EP   1   1558  9.91                             123     0.0 6  203 292 
 ZAR  HZ I        1558 40.55       238.9 0.19                           203 292 
 NOR  SZ EP   1   1558 13.25                             119     0.0 6  235 234 
 NOR  SE ES   1   1558 41.03                             119    -0.1 6  235 234 
 CHI  HZ EP   1   1558 15.29                             117     0.1 6  249 195 
 CHI  HN ES   1   1558 44.42                             117    -0.3 6  249 195 
 CHI  HZ I        1558 48.53       172.6 0.55                           249 195 
 CVER SZ EP   1   1558 18.60                             115     0.7 6  272 202 
 CVER SZ I        1558 57.41       123.9 0.31                           272 202 
 HEL  HZ EP   1   1558 17.65                             115     0.0 6  272 256 
 HEL  HN ES   1   1558 49.11                             115     0.1 6  272 256 
 HEL  HZ I        1558 55.49       110.4 0.23                           272 256 
 VIL  SZ EP   1   1558 21.09                             112     0.1 5  304 191 
 VIL  SZ I        1559  0.73        94.2 0.57                           304 191 
 RREF HZ EP   1   1558 23.41                             111    -0.2 5  322 229 
 RREF HZ I        1559  9.39       149.4 0.26                           322 229 
 TOL  SZ EP   1   1558 26.02                             109     0.3 5  344 225 
 COD  HZ EP   1   1558 25.14                             109    -0.7 5  348 355 
 COD  HZ I        1559 14.33       127.4 0.62                           348 355 
 SDV  BZ EP       1558 26.86                             108    -0.7 6  360  50 
 SDV  BZ I        1558 27.74        55.3 0.19                           360  50 
 PRA  HZ EP   1   1558 30.77                             107    -0.2 4  392 209 
 PRA  HN ES   1   1559 12.61                             107    -0.2 4  392 209 
                                                                                
