 2012 1213 1957 43.6 L   6.737 -73.131151.2  RSN  6 0.4 1.4LRSN                1
 GAP=187        0.82       6.6     6.7  8.0  0.1779E+02  0.1970E+02  0.1354E+02E
 Epicentro: JORDAN - SANTANDER                                                 3
 ACTION:UPD 13-01-04 14:27 OP:ep   STATUS:               ID:20121213195743 L   I
 2012-12-13-1950-00M.COL___242                                                 6
 STAT SP IPHASW D HRMM SECON CODA AMPLIT PERI AZIMU VELO AIN AR TRES W  DIS CAZ7
 BAR2 SZ ES   1   1958 19.22                             173   -0.29 7 16.9 200 
 BAR2 SZ I        1958 21.77         9.5 0.27                          16.9 200 
 GIR2 SZ EP   1   1958  3.89                             165   -0.23 7 38.5 350 
 GIR2 SZ  IAML1   1958 19.42         5.1 0.54                          38.5 350 
 GIR2 SZ ES       1958 19.84                             165   -0.2910 38.5 350 
 GIR2 SZ I        1958 24.63         5.7 0.36                          38.5 350 
 BRR  HZ EP   2   1958  5.94                             152    0.33 5 76.2 303 
 BRR  HE ES   1   1958 23.56                             152    0.77 7 76.2 303 
 RUS  HZ EP   1   1958  7.71                             147    0.31 7 93.5 177 
 RUS  HN ES   1   1958 26.34                             147    0.38 7 93.5 177 
 RUS  HZ I        1958 27.89         1.7 0.15                          93.5 177 
 PTB  HZ EP   1   1958 10.65                             133   -0.39 7  148 262 
 PTB  HN ES   1   1958 31.94                             133   -0.52 7  148 262 
 PTB  HZ I        1958 33.90         4.2 0.13                           148 262 
 ZAR  HN ES   1   1958 43.06                             123    0.31 6  208 294 
                                                                                
