 2016 1213 1833 29.5 L   6.768 -73.151139.3  RSN  9 0.5 2.0LRSN                1
 GAP= 97        1.25       5.9     5.3  7.3  0.8929E-01  0.2143E+01  0.5236E+01E
 Epicentro: LOS SANTOS - SANTANDER                                             3
 ACTION:UPD 17-01-11 20:14 OP:rebc STATUS:               ID:20161213183329 L   I
 OLDACT:UP  16-12-14 01:48 OP:ar   STATUS:               ID:20161213182747     3
 OLDACT:UP  16-12-14 01:47 OP:ar   STATUS:               ID:20161213182747     3
 OLDACT:REG 16-12-13 22:36 OP:ar   STATUS:               ID:20161213182747     3
 2016-12-13-1828-00M.COL___369                                                 6
 STAT SP IPHASW D HRMM SECON CODA AMPLIT PERI AZIMU VELO AIN AR TRES W  DIS CAZ7
 BAR2 EZ EP       1833 48.26                             172   -0.0310 19.8 190 
 BAR2 EZ ES       1834  2.68                             172   -0.2610 19.8 190 
 BRR  HZ EP       1833 49.96                             151   -0.0710 72.5 301 
 BRR  HN ES       1834  7.00                             151    0.9510 72.5 301 
 BRR  HZ I        1834  9.68        31.2 0.28            153           72.5 301 
 PAM  EZ EP       1833 51.35                             149    0.1210 80.5  38 
 PAM  EN ES       1834  7.71                             149   -0.4710 80.5  38 
 PAM  EZ I        1834  9.83        33.7 0.42            154           80.5  38 
 RUS  HZ EP       1833 52.33                             143   -0.0410 97.1 176 
 RUS  HN ES       1834 10.64                             143    0.4310 97.1 176 
 RUS  HZ I        1834 12.44        11.2 0.32            142           97.1 176 
 PTB  HZ EP       1833 55.05                             131   -0.79 9  147 260 
 PTB  HN ES       1834 15.69                             131   -0.70 9  147 260 
 PTB  HZ I        1834 17.48        11.5 0.45            132            147 260 
 TAM  HZ EP       1833 56.60                             129   -0.05 9  155 104 
 ZAR  HZ EP       1834  2.30                             121    0.67 9  205 293 
 CHI  HZ EP       1834  6.81                             116    0.35 8  245 195 
 CHI  HN ES   4   1834 36.32                             116    1.03 0  245 195 
 CHI  HZ I        1834 43.90         2.9 0.46            117            245 195 
 PRA  HZ EP   4   1834 20.30                             106   -2.12 0  389 210 
 PRA  HZ ES   4   1835  2.23                             106   -1.46 0  389 210 
 PRA  HZ I        1835  8.78         3.4 0.20            106            389 210 
                                                                                
