 2010  213 1010 25.0 L   6.856 -73.127143.8  RSN  6 0.3 1.9LRSN                1
 GAP=141        0.70       5.6     8.1  6.5 -0.1789E+02  0.9935E+00 -0.1556E+01E
 Epicentro: LOS SANTOS - SANTANDER                                             3
 ACTION:DUP 10-08-24 09:48 OP:vdl  STATUS:               ID:20100213101026dL   I
 2010-02-13-1000-00S.COL___085                                                 6
 STAT SP IPHASW D HRMM SECON CODA AMPLIT PERI AZIMU VELO SNR AR TRES W  DIS CAZ7
 BAR2 SZ EP       1010 44.94                             168     0.410   30 192 
 BAR2 SZ ES   1   1010 59.61                             168    -0.2 7   30 192 
 CHI  HZ EP       1011  2.79                             116    -0.5 8  255 195 
 CHI  HN ES   1   1011 33.49                             116     0.3 6  255 195 
 CHI  HZ I        1011 36.12         2.8 0.31                           255 195 
 HEL  HZ EP   2   1011  5.73                             114     0.2 4  276 255 
 MON  HN ES   2   1011 51.36                             108    -0.2 3  351 307 
 MON  HZ I        1012  6.81         2.2 0.41                           351 307 
 SDV  BZ IP       1011 14.32                             108     0.0 6  355  51 
 PRA  HZ EP   1   1011 19.32                             106     0.1 4  398 209 
 PRA  HZ I        1012  6.32         4.3 0.44                           398 209 
                                                                                
