 2015  813 1122 23.5 L   6.772 -73.107145.9  RSN 14 0.5 2.5LRSN                1
 GAP=187        1.05       3.4     5.2  5.9  0.4132E+00  0.1055E+02 -0.1881E+00E
 Epicentro: LOS SANTOS - SANTANDER                                             3
 ACTION:UPD 15-09-15 23:01 OP:cam  STATUS:               ID:20150813112223 L   I
 OLDACT:REG 15-08-13 22:15 OP:ar   STATUS:               ID:20150813111749     3
 2015-08-13-1117-49M.COL___334                                                 6
 STAT SP IPHASW D HRMM SECON CODA AMPLIT PERI AZIMU VELO AIN AR TRES W  DIS CAZ7
 BAR2 EZ IP       1122 42.94                             172   -0.1410 21.6 203 
 BAR2 EZ ES       1122 58.64                             172    0.2610 21.6 203 
 BAR2 EZ I        1122 58.81        47.3 0.18            167           21.6 203 
 BRR  HZ EP       1122 44.98                             151    0.0510 76.4 299 
 BRR  HN ES       1123  2.15                             151    0.4810 76.4 299 
 BRR  HZ I        1123  5.14        50.3 0.16            146           76.4 299 
 RUS  HZ EP       1122 46.74                             145   -0.2610 97.3 178 
 RUS  HN ES       1123  5.46                             145    0.1110 97.3 178 
 RUS  HZ I        1123  6.31        15.1 0.30            146           97.3 178 
 OCA  HN ES   2   1123 13.63                             129   -0.85 5  164 352 
 OCA  HZ I        1123 17.28        74.7 0.16            130            164 352 
 SPBC HZ EP       1122 51.99                             129   -0.02 9  164 221 
 SPBC HN ES       1123 13.70                             129   -0.57 9  164 221 
 SPBC HZ I        1123 19.59        43.1 0.12            128            164 221 
 ZAR  HZ EP       1122 55.97                             122   -0.47 8  209 292 
 ZAR  HN ES       1123 21.94                             122   -0.23 8  209 292 
 ZAR  HZ I        1123 27.50        46.9 0.62            121            209 292 
 NOR  HZ EP       1122 59.52                             118    0.14 8  236 236 
 NOR  HN ES       1123 27.00                             118   -0.40 8  236 236 
 NOR  HZ I        1123 33.22        24.3 0.40            118            236 236 
 SML  HZ EP       1122 59.71                             117   -0.88 8  248 335 
 SML  HN ES       1123 30.41                             117    0.86 8  248 335 
 SML  HZ I        1123 35.50        35.3 0.30            117            248 335 
 ROSC BN ES   4   1123 35.16                             117    3.91 0  252 212 
 ROSC BZ I        1123 37.97        27.2 0.40            117            252 212 
 HEL  HZ EP       1123  4.98                             115    0.92 7  275 257 
 HEL  HN ES       1123 35.18                             115   -0.54 7  275 257 
 HEL  HZ I        1123 41.18        15.5 0.28            114            275 257 
 URE  HN ES   4   1123 34.94                             113   -2.65 0  289 292 
 URE  HZ I        1123 43.84        27.1 0.32            113            289 292 
 GUY2CHZ EP       1123  8.02                             112    0.75 7  303 236 
 GUY2CHN ES   2   1123 41.93                             112    0.49 4  303 236 
 GUY2CHZ I        1123 49.13        11.1 0.32                           303 236 
 TOL  SZ EP       1123 12.47                             109    0.65 7  344 226 
 TOL  SN ES       1123 49.36                             109   -0.18 7  344 226 
 TOL  SZ I        1123 53.58         8.3 0.26            110            344 226 
 MON  HZ EP   9   1123 10.68                             108   -2.39 0  359 308 
 MON  HN ES   2   1123 49.72                                    0.34 3  359 308 
 MON  HZ I        1123 55.71         6.7 0.46            109            359 308 
                                                                                
