 2016  713 1703 10.6 L   6.743 -73.128143.0  RSN  9 0.3 1.9LRSN                1
 GAP=141        0.80       3.3     3.4  4.9 -0.2292E+01  0.3918E+01 -0.6625E+00E
 Epicentro: LOS SANTOS - SANTANDER                                             3
 ACTION:UPD 17-03-29 16:50 OP:lp   STATUS:               ID:20160713170310 L   I
 OLDACT:REG 16-07-13 20:56 OP:lv   STATUS:               ID:20160713165759     3
 2016-07-13-1657-59S.COL___325                                                 6
 STAT SP IPHASW D HRMM SECON CODA AMPLIT PERI AZIMU VELO AIN AR TRES W  DIS CAZ7
 BAR2 EZ IP     C 17 3 29.72                             173   -0.0910 17.8 200 
 BAR2 HE ES       17 3 44.51                             173   -0.2710 17.8 200 
 BAR2 EZ I        17 3 45.46        21.0 0.16            170           17.8 200 
 BRR  HZ EP       17 3 31.60                             150   -0.1510 76.1 302 
 BRR  HE ES       17 3 48.66                             150    0.4210 76.1 302 
 BRR  HZ I        17 3 52.49        19.0 0.12            149           76.1 302 
 PAM  EZ EP       17 3 32.88                             149    0.1110 81.1  36 
 PAM  EN ES       17 3 49.65                             149   -0.4010 81.1  36 
 PAM  EZ I        17 3 50.46        11.9 0.14            152           81.1  36 
 RUS  HE ES       17 3 52.03                             145    0.4410 94.2 177 
 RUS  HZ I        17 3 52.89         9.8 0.24            145           94.2 177 
 PTB  HZ EP   9   17 3 36.36                             131   -1.08 0  149 261 
 PTB  HN ES       17 3 57.00                                   -0.28 9  149 261 
 PTB  HZ I        17 4  0.35        13.0 0.48            131            149 261 
 SPBC HZ EP       17 3 38.55                             129   -0.02 9  160 221 
 SPBC HN ES       17 4  0.13                             129   -0.24 9  160 221 
 SPBC HZ I        17 4  7.12         8.7 0.16            129            160 221 
 ZAR  HZ EP       17 3 43.84                             121    0.51 8  208 294 
 ZAR  HN ES       17 4  8.69                             121   -0.15 8  208 294 
 ZAR  HZ I        17 4 10.95         9.7 0.20            121            208 294 
 GUY2CHN ES       17 4 27.43                             112   -0.19 7  299 236 
 GUY2CHZ I        17 4 35.01         3.6 0.60                           299 236 
 CBOC HZ EP   9   17 3 58.81                             109    1.39 0  334 253 
 CBOC HN ES       17 4 34.67                                   -0.65 7  334 253 
 CBOC HZ I        17 4 37.41         2.4 0.26            110            334 253 
                                                                                
