 2014  713 1657 29.7 L   6.817 -73.157157.4  RSN  8 0.3 2.2LRSN                1
 GAP=211        0.66       3.0     5.9  5.1 -0.2269E+01 -0.5344E+01 -0.9988E+00E
 Epicentro: LOS SANTOS - SANTANDER                                             3
 ACTION:UPD 15-03-16 20:43 OP:nd   STATUS:               ID:20140713165729 L   I
 OLDACT:UP  14-07-14 00:29 OP:cam  STATUS:               ID:20140713165000     3
 OLDACT:REG 14-07-13 22:08 OP:cam  STATUS:               ID:20140713165000     3
 2014-07-13-1650-00M.COL___282                                                 6
 STAT SP IPHASW D HRMM SECON CODA AMPLIT PERI AZIMU VELO AIN AR TRES W  DIS CAZ7
 BAR2 SZ EP     C 1657 50.30                             171   -0.4410 25.0 186 
 BRR  HZ EP       1657 52.33                             155    0.3410 69.2 298 
 BRR  HE ES       1658  9.57                             155    0.1810 69.2 298 
 BRR  HZ I        1658 19.46        15.0 0.12            113           69.2 298 
 PTB  HZ EP       1657 57.42                             135   -0.12 9  147 258 
 PTB  HN ES       1658 19.06                             135   -0.22 9  147 258 
 PTB  HZ I        1658 32.91        25.6 0.38            105            147 258 
 SPBC HZ EP       1657 59.23                             131    0.08 9  164 218 
 SPBC HE ES       1658 22.30                             131    0.15 9  164 218 
 SPBC HZ I        1658 29.34        18.5 0.26            107            164 218 
 ZAR  HZ EP       1658  2.96                             125    0.24 9  202 292 
 NOR  HZ EP       1658  6.06                             121   -0.05 8  235 234 
 SML  HZ EP       1658  7.12                             120    0.38 8  241 335 
 SML  HN ES       1658 35.31                             120   -0.34 8  241 335 
 SML  HZ I        1658 46.11        17.7 0.36            101            241 335 
 HEL  HZ EP   4   1658  9.53                             117   -0.89 0  271 255 
 URE  HZ EP       1658 10.86                             116   -0.27 7  282 292 
 URE  HZ I        1658 53.23         8.7 0.16             99            282 292 
 GUY2CHZ EP   4   1658 15.55                             114    1.70 0  301 234 
                                                                                
