 2012  413 1722 50.6 L   6.759 -73.188136.2  RSN  6 0.4 1.5LRSN                1
 GAP=133        0.84       5.9     5.6 12.3 -0.4392E+01  0.2327E+02 -0.6497E+01E
 Epicentro: VILLANUEVA - SANTANDER                                             3
 ACTION:UPD 12-07-05 11:53 OP:tino STATUS:               ID:20120413172250 L   I
 2012-04-13-1720-00M.COL___181                                                 6
 STAT SP IPHASW D HRMM SECON CODA AMPLIT PERI AZIMU VELO AIN AR TRES W  DIS CAZ7
 BAR2 SZ EP   1   1723  9.12                             172     0.1 7   19 178 
 BAR2 SZ I        1723 25.31        10.4 0.18                            19 178 
 BRR  HZ EP   1   1723 11.08                             151     0.5 7   70 304 
 BRR  HZ I        1723 11.41        11.3 0.10                            70 304 
 PAM  SZ EP   1   1723 12.10                             147    -0.1 7   84  40 
 PAM  SZ I        1723 12.24         4.6 0.17                            84  40 
 PAM  SE ES   1   1723 28.86                             147    -0.2 7   84  40 
 RUS  HZ EP   1   1723 13.04                             143    -0.1 7   97 173 
 RUS  HN ES   1   1723 30.93                             143     0.2 7   97 173 
 RUS  HZ I        1723 33.48         3.9 0.34                            97 173 
 PTB  HZ EP   1   1723 15.90                             131    -0.4 7  142 260 
 PTB  HN ES   1   1723 35.91                             131    -0.4 7  142 260 
 PTB  HZ I        1723 39.57         3.8 0.11                           142 260 
 ZAR  HE ES   2   1723 47.67                             120     0.9 4  202 294 
 ZAR  HZ I        1723 48.96         3.3 0.28                           202 294 
                                                                                
