 2017  313 1118 46.9 L   6.816 -73.154145.1  RSN 22 0.6 2.9LRSN                1
 GAP=103        1.26       3.9     3.4  5.9 -0.4464E+00  0.6002E+01  0.6248E+01E
 Epicentro: LOS SANTOS - SANTANDER                                             3
 ACTION:UPD 17-05-25 18:40 OP:jn   STATUS:               ID:20170313111846 L   I
 OLDACT:UP  17-03-13 23:05 OP:y    STATUS:               ID:20170313110742d    3
 OLDACT:UP  17-03-13 23:05 OP:y    STATUS:               ID:20170313110742d    3
 OLDACT:DUP 17-03-13 22:36 OP:y    STATUS:               ID:20170313110742d    3
 2017-03-13-1108-00M.COL___393                                                 6
 STAT SP IPHASW D HRMM SECON CODA AMPLIT PERI AZIMU VELO AIN AR TRES W  DIS CAZ7
 BAR2 EZ IP     C 1119  6.33                             170   -0.1910 24.9 187 
 BAR2 EZ ES       1119 20.88                             170   -0.9110 24.9 187 
 BAR2 EZ I        1119 22.60       204.6 0.26            172           24.9 187 
 BRR  HZ IP     C 1119  8.11                             153    0.1910 69.5 298 
 BRR  HE ES       1119 25.31                             153    1.0310 69.5 298 
 BRR  HZ I        1119 27.72       112.1 0.34            150           69.5 298 
 PAM  EZ IP     D 1119  9.20                             151    0.1610 76.7  41 
 PAM  EN ES       1119 26.53                             151    0.2610 76.7  41 
 PAM  EZ I        1119 28.57       144.2 0.48            147           76.7  41 
 RUS  HZ IP     C 1119 10.31                             143   -0.4410  102 176 
 RUS  HN ES       1119 29.21                             143   -0.1210  102 176 
 RUS  HZ I        1119 30.09       106.9 0.28            142            102 176 
 PTB  HZ EP       1119 12.83                             132   -0.96 9  147 258 
 PTB  HN ES       1119 34.13                             132   -0.61 9  147 258 
 PTB  HZ I        1119 41.07       132.6 0.40            129            147 258 
 TAM  HZ IP     D 1119 14.78                             130    0.09 9  156 106 
 TAM  HZ I        1119 35.88        33.9 0.32            127            156 106 
 TAM  HN ES       1119 36.57                             130    0.23 9  156 106 
 SPBC HZ EP       1119 15.07                             129   -0.38 9  164 218 
 SPBC HE ES       1119 38.30                             129    0.60 9  164 218 
 SPBC HZ I        1119 43.52       123.9 0.24            127            164 218 
 ZAR  HZ EP       1119 18.82                             122   -0.35 9  202 292 
 ZAR  HN ES       1119 43.96                             122   -0.36 9  202 292 
 ZAR  HZ I        1119 50.63        74.5 0.46            119            202 292 
 CHI  HZ EP       1119 24.50                             117   -0.25 8  250 195 
 CHI  HE ES       1119 54.34                             117    0.09 8  250 195 
 CHI  HZ I        1119 57.93        74.2 0.68            115            250 195 
 ROSC BZ EP       1119 26.11                             116    0.98 8  254 211 
 ROSC BN ES   4   1119 57.22                             116    2.30 0  254 211 
 ROSC BZ I        1120  1.03       139.2 0.40            114            254 211 
 HEL  HZ EP       1119 27.96                             115    0.90 8  272 255 
 HEL  HN ES       1119 58.83                             115    0.48 8  272 255 
 HEL  HZ I        1120  3.93        45.1 0.30            112            272 255 
 URE  HZ EP   4   1119 26.65                             113   -1.15 0  282 292 
 URE  HN ES   4   1119 56.86                             113   -2.81 0  282 292 
 URE  HZ I        1120  8.89        48.7 0.28            111            282 292 
 GUY2CHZ EP       1119 30.43                             112   -0.11 7  301 234 
 GUY2CHN ES       1120  5.77                             112    1.22 7  301 234 
 GUY2CHZ  IAML    1120 12.60        42.4 0.32                           301 234 
 VIL  EN ES       1120  4.85                             112    0.38 7  305 191 
 VIL  EZ I        1120  7.98        81.9 0.40            110            305 191 
 ELA  HZ EP   4   1119 35.27                             110    1.47 0  330 229 
 ELA  HN ES       1120 10.04                             110   -0.32 7  330 229 
 ELA  HZ I        1120 18.14        32.6 0.38            108            330 229 
 CBOC HZ EP       1119 34.15                             110    0.37 7  333 252 
 CBOC HE ES       1120  9.79                             110   -0.52 7  333 252 
 CBOC HZ I        1120 15.94        14.9 0.32            107            333 252 
 DBB  EZ EP       1119 33.92                             109   -0.34 7  338 274 
 DBB  EE ES   4   1120  9.73                             109   -1.44 0  338 274 
 DBB  EZ I        1120 11.83        25.9 0.28            107            338 274 
 ARGC HZ EP   4   1119 31.62                             108   -4.71 0  357 340 
 ARGC HN ES   4   1120 18.90                             108    4.03 0  357 340 
 ARGC HZ I        1120 26.76        18.6 0.30            105            357 340 
 ANIL HZ EP       1119 37.32                             108    0.54 6  358 224 
 ANIL HE ES   4   1120 17.54                             108    1.88 0  358 224 
 PRA  HZ EP       1119 40.02                             106   -0.53 6  393 209 
 PRA  HN ES       1120 21.79                             106   -0.59 6  393 209 
 PRA  HZ I        1120 30.11        39.6 0.32            104            393 209 
 ORTC HZ EP       1119 40.68                             106   -0.25 6  396 216 
 ORTC HE ES   4   1120 24.40                             106    1.36 0  396 216 
 ORTC HZ I        1120 27.76        28.7 0.30            104            396 216 
 SJC  HZ EP   4   1119 40.56                             106   -1.68 0  407 327 
 SJC  HN ES   4   1120 22.54                             106   -2.84 0  407 327 
 SJC  HZ I        1120 31.39        10.2 0.40            103            407 327 
                                                                                
