 2013 1013 1230 27.9 L   6.720 -73.159144.9  RSN  5 0.4 1.6LRSN                1
 GAP=230        0.96       5.3     6.9  7.0  0.1664E+02  0.1180E+02  0.8899E+00E
 Epicentro: VILLANUEVA - SANTANDER                                             3
 ACTION:UPD 13-11-25 09:21 OP:ep   STATUS:               ID:20131013123027 L   I
 OLDACT:REG 13-10-13 14:57 OP:nd   STATUS:               ID:20131013122959     3
 2013-10-13-1229-59M.COL___273                                                 6
 STAT SP IPHASW D HRMM SECON CODA AMPLIT PERI AZIMU VELO AIN AR TRES W  DIS CAZ7
 BAR2 SZ EP       1230 46.80                             174   -0.4610 14.3 190 
 BAR2 SZ ES       1231  2.23                             174   -0.1410 14.3 190 
 BAR2 SZ I        1231  4.49        11.2 0.24            171           14.3 190 
 BRR  HZ IP     D 1230 48.91                             151   -0.2310 74.6 305 
 BRR  HN ES       1231  6.34                             151    0.6310 74.6 305 
 BRR  HZ I        1231  9.18         7.0 0.16            149           74.6 305 
 RUS  HZ EP       1230 51.09                             146    0.1610 91.8 175 
 RUS  HN ES       1231  8.91                             146   -0.0010 91.8 175 
 RUS  HZ I        1231 10.56         3.7 0.32            148           91.8 175 
 SPBC HZ EP       1230 56.24                             130    0.66 9  155 221 
 SPBC HN ES       1231 16.89                             130   -0.30 9  155 221 
 SPBC HZ I        1231 20.79         6.9 0.26            131            155 221 
 ZAR  HZ EP       1231  0.57                             122    0.07 8  206 295 
 ZAR  HN ES       1231 25.51                             122   -0.42 8  206 295 
 ZAR  HZ I        1231 31.85         6.4 0.26            122            206 295 
                                                                                
