 2016 1213 1322 17.7 L   6.753 -73.163143.1  RSN  4 0.3 1.4LRSN                1
 GAP=232        0.62       6.2     4.8  5.6  0.1354E+02  0.3905E+01 -0.2563E+01E
 Epicentro: LOS SANTOS - SANTANDER                                             3
 ACTION:UPD 17-01-11 20:14 OP:rebc STATUS:               ID:20161213132217 L   I
 OLDACT:REG 16-12-13 22:08 OP:ar   STATUS:               ID:20161213131741     3
 2016-12-13-1318-00M.COL___354                                                 6
 STAT SP IPHASW D HRMM SECON CODA AMPLIT PERI AZIMU VELO AIN AR TRES W  DIS CAZ7
 BAR2 EZ IP     C 1322 36.91                             173   -0.0410 17.9 187 
 BAR2 EZ ES       1322 51.58                             173   -0.3510 17.9 187 
 BAR2 EZ I        1322 52.56         7.3 0.20            170           17.9 187 
 BRR  HZ EP   2   1322 38.85                             152    0.19 5 72.2 303 
 BRR  HN ES   2   1322 55.78                             152    0.81 5 72.2 303 
 RUS  HZ EP       1322 40.94                             145    0.0710 95.5 175 
 RUS  HN ES       1322 59.15                             145    0.2410 95.5 175 
 RUS  HZ I        1323  0.09         2.5 0.24            144           95.5 175 
 PTB  HZ EP       1322 44.07                             132   -0.16 9  145 261 
 PTB  HN ES       1323  4.85                             132   -0.04 9  145 261 
 PTB  HZ I        1323  6.83         5.5 0.18            131            145 261 
                                                                                
