 2015 1213 1953 56.8 L   6.800 -73.145134.3  RSN  4 0.4 1.8LRSN                1
 GAP=151        0.71       6.4     4.2  6.8 -0.6050E+01  0.1447E+02 -0.1290E+02E
 Epicentro: LOS SANTOS - SANTANDER                                             3
 ACTION:UPD 16-02-04 15:04 OP:cam  STATUS:               ID:20151213195356 L   I
 OLDACT:REG 15-12-13 21:30 OP:a    STATUS:               ID:20151213194750     3
 2015-12-13-1947-50M.COL___346                                                 6
 STAT SP IPHASW D HRMM SECON CODA AMPLIT PERI AZIMU VELO AIN AR TRES W  DIS CAZ7
 BAR2 EZ EP       1954 14.95                             170   -0.0910 23.4 190 
 BAR2 EZ ES       1954 29.52                             170    0.2510 23.4 190 
 BAR2 EZ I        1954 30.98        13.7 0.18            172           23.4 190 
 PAM  EZ EP       1954 17.83                             149    0.0510 77.3  39 
 PAM  EN ES       1954 33.93                             149   -0.2310 77.3  39 
 PAM  EZ I        1954 36.65        14.5 0.44            151           77.3  39 
 PTB  HZ EP   2   1954 22.11                             129   -0.74 5  148 259 
 PTB  HN ES   2   1954 42.30                             129   -0.88 5  148 259 
 PTB  HZ I        1954 46.37         5.9 0.30            131            148 259 
 ZAR  HZ EP       1954 28.87                             120    0.35 9  204 292 
 ZAR  HN ES       1954 53.44                             120    0.17 9  204 292 
 ZAR  HZ I        1954 58.39         7.8 0.38            121            204 292 
                                                                                
