 2013  313 1721 26.7 L   6.805 -73.170143.0  RSN 12 0.4 2.5LRSN                1
 GAP= 70        0.73       2.5     2.6  4.2  0.4023E+00  0.1870E+01  0.1746E+01E
 Epicentro: LOS SANTOS - SANTANDER                                             3
 ACTION:UPD 13-04-09 14:02 OP:ep   STATUS:               ID:20130313172126 L   I
 2013-03-13-1720-00M.COL___231                                                 6
 STAT SP IPHASW D HRMM SECON CODA AMPLIT PERI AZIMU VELO AIN AR TRES W  DIS CAZ7
 BAR2 SZ IP     D 1721 46.13                             170    0.1310 23.6 183 
 BAR2 SZ ES       1722  0.90                             170   -0.1510 23.6 183 
 BAR2 SZ I        1722  2.50       165.4 0.26            169           23.6 183 
 BRR  HZ IP     C 1721 47.93                             153    0.5310 68.6 299 
 BRR  HZ I        1721 48.20        91.8 0.16            150           68.6 299 
 BRR  HN ES       1722  3.79                             153    0.2410 68.6 299 
 PAM  SZ EP       1721 48.96                             150    0.2610 78.7  41 
 PAM  SE ES       1722  5.82                             150   -0.0410 78.7  41 
 PAM  SZ I        1722  8.98        26.6 0.56            153           78.7  41 
 RUS  HZ EP       1721 50.12                             143   -0.1110  101 175 
 RUS  HN ES   1   1722  8.25                             143   -0.34 7  101 175 
 RUS  HZ I        1722  9.97        43.1 0.32            144            101 175 
 PTB  HZ EP   1   1721 52.73                             132   -0.48 7  145 258 
 PTB  HN ES   1   1722 13.76                             132   -0.13 7  145 258 
 PTB  HZ I        1722 21.09        39.8 0.31            130            145 258 
 TAM  HZ EP       1721 54.49                             129    0.08 9  158 105 
 TAM  HZ I        1721 54.97        35.1 0.23            133            158 105 
 TAM  HE ES   1   1722 15.97                             129   -0.06 7  158 105 
 OCA  HN ES   1   1722 16.63                             129    0.06 7  159 354 
 ZAR  HZ EP   1   1721 58.48                             122   -0.21 6  201 292 
 ZAR  HE ES   1   1722 23.52                             122   -0.12 6  201 292 
 ZAR  HZ I        1722 29.77        34.5 0.47            121            201 292 
 SML  HZ EP   1   1722  2.11                             117   -0.89 6  242 336 
 SML  HN ES   1   1722 30.46                             117   -0.85 6  242 336 
 SML  HZ I        1722 36.26        31.4 0.09            117            242 336 
 CHI  HZ EP   1   1722  4.49                             116    0.27 6  248 195 
 CHI  HE ES   1   1722 33.10                             116   -0.40 6  248 195 
 CHI  HZ I        1722 36.05        22.7 0.38            117            248 195 
 HEL  HZ EP   1   1722  7.31                             114    0.81 6  270 256 
 HEL  HN ES   1   1722 37.94                             114    0.40 6  270 256 
 HEL  HZ I        1722 45.99        15.4 0.27            114            270 256 
 PRA  HZ EP   1   1722 20.06                             106    0.04 4  391 209 
 PRA  HE ES   1   1723  1.34                             106   -0.28 4  391 209 
 PRA  HZ I        1723  6.20        17.2 0.37            106            391 209 
                                                                                
