 2012  413 1241 59.9 L   6.711 -73.132128.9  RSN  5 0.3 1.5LRSN                1
 GAP=169        0.80       8.4     5.8  9.6 -0.7198E+01  0.2415E+02  0.4295E+01E
 Epicentro: JORDAN - SANTANDER                                                 3
 ACTION:UPD 12-07-05 11:53 OP:tino STATUS:               ID:20120413124159 L   I
 2012-04-13-1240-00M.COL___181                                                 6
 STAT SP IPHASW D HRMM SECON CODA AMPLIT PERI AZIMU VELO AIN AR TRES W  DIS CAZ7
 BAR2 SZ EP   1   1242 17.73                             173     0.4 7   14 203 
 BAR2 SZ ES   1   1242 30.59                             173    -0.4 7   14 203 
 BAR2 SZ I        1242 33.17        12.0 0.42                            14 203 
 BRR  HZ EP   1   1242 19.47                             147    -0.2 7   78 304 
 BRR  HZ I        1242 22.78        11.5 0.43                            78 304 
 BRR  HN ES   1   1242 34.99                             147    -0.1 7   78 304 
 PAM  SN ES   1   1242 37.36                             145     0.2 7   84  34 
 PAM  SZ I        1242 39.67         5.4 0.63                            84  34 
 PTB  HZ EP   1   1242 25.15                             128    -0.4 7  148 263 
 PTB  HN ES   1   1242 46.09                             128     0.5 7  148 263 
 PTB  HZ I        1242 48.62         2.1 0.07                           148 263 
 ZAR  HE ES   1   1242 56.77                             118    -0.1 6  209 294 
 ZAR  HZ I        1243  2.02         4.4 0.45                           209 294 
                                                                                
