 2011  413 1342 55.3 L   6.762 -73.110136.2  RSN  8 0.4 1.9LRSN                1
 GAP=168        0.72       4.7     6.6  6.4 -0.1461E+02  0.4177E+01  0.1699E+01E
 Epicentro: LOS SANTOS - SANTANDER                                             3
 ACTION:UP  11-06-22 15:30 OP:REBC STATUS:               ID:20110413134255 L   I
 2011-04-13-1340-00M.COL___139                                                 6
 STAT SP IPHASW D HRMM SECON CODA AMPLIT PERI AZIMU VELO SNR AR TRES W  DIS CAZ7
 BAR2 SZ EP   1   1343 14.00                             171     0.2 7   20 203 
 BAR2 SZ ES   1   1343 28.41                             171     0.3 7   20 203 
 BAR2 SZ I        1343 30.92        20.6 0.21                            20 203 
 GIR2 SZ EP   1   1343 14.06                             165     0.0 7   36 345 
 BRR  HZ EP       1343 15.79                             149     0.010   77 300 
 BRR  HN ES   1   1343 31.98                             149     0.2 7   77 300 
 BRR  HZ I        1343 33.98        18.3 0.13                            77 300 
 PAM  SZ EP   1   1343 16.82                             149     0.2 7   78  35 
 PAM  SN ES   2   1343 32.31                             149    -0.9 5   78  35 
 GRA  SZ EP   2   1343 20.47                             134     0.5 5  129  15 
 GRA  SZ ES   1   1343 38.70                             134    -0.5 7  129  15 
 GRA  SZ I        1343 40.79        14.2 0.29                           129  15 
 OCA  SZ EP   1   1343 23.73                             127     0.4 7  165 352 
 OCA  SZ ES   1   1343 45.18                             127    -0.1 7  165 352 
 OCA  SZ I        1343 51.13        10.1 0.35                           165 352 
 NOR  SZ EP   1   1343 30.08                             116    -0.6 6  236 236 
 NOR  SN ES   2   1343 57.65                             116    -0.5 4  236 236 
 PRA  HZ EP   2   1343 48.18                             105    -0.2 3  390 210 
                                                                                
