 2017  513 1018 22.0 L   6.771 -73.116149.3  RSN  5 0.3 1.1LRSN                1
 GAP=142        0.73       3.9     4.0  6.0  0.3173E+01  0.8178E+01  0.2146E+01E
 Epicentro: LOS SANTOS - SANTANDER                                             3
 ACTION:UPD 17-06-16 13:35 OP:jn   STATUS:               ID:20170513101822 L   I
 OLDACT:DUP 17-05-13 20:40 OP:lv   STATUS:               ID:20170513100742d    3
 2017-05-13-1008-00M.COL___321                                                 6
 STAT SP IPHASW D HRMM SECON CODA AMPLIT PERI AZIMU VELO AIN AR TRES W  DIS CAZ7
 BRR  HZ EP       1018 43.97                             152    0.1810 75.6 299 
 BRR  HN ES       1019  1.19                             152    0.4110 75.6 299 
 PAM  EZ EP       1018 44.84                             151    0.2110 77.9  36 
 PAM  EN ES       1019  1.90                             151   -0.3710 77.9  36 
 PAM  EZ I        1019  3.99         1.5 0.27            153           77.9  36 
 RUS  HZ EP       1018 46.04                             145    0.1610 97.2 178 
 RUS  HN ES       1019  4.38                             145   -0.1110 97.2 178 
 RUS  HZ I        1019  5.23         1.3 0.07            148           97.2 178 
 PTB  HZ EP       1018 49.11                             132   -0.40 9  150 260 
 PTB  HN ES   4   1019  9.74                             132   -1.21 0  150 260 
 PTB  HZ I        1019 12.70         2.9 0.09            133            150 260 
 ZAR  HZ EP       1018 55.21                             122    0.09 8  208 293 
 ZAR  HN ES       1019 20.66                             122   -0.29 8  208 293 
 ZAR  HZ I        1019 25.91         1.4 0.08            123            208 293 
                                                                                
