 2013 1213 1840 33.2 L   6.773 -73.147151.9  RSN  8 0.4 2.1LRSN                1
 GAP=138        0.84       4.8     5.1  6.4  0.6643E+01  0.5092E+01 -0.1340E+01E
 Epicentro: LOS SANTOS - SANTANDER                                             3
 ACTION:UPD 14-01-13 10:17 OP:ep   STATUS:               ID:20131213184033 L   I
 OLDACT:REG 13-12-13 14:55 OP:cam  STATUS:               ID:20131213184000     3
 2013-12-13-1840-00M.COL___285                                                 6
 STAT SP IPHASW D HRMM SECON CODA AMPLIT PERI AZIMU VELO AIN AR TRES W  DIS CAZ7
 BAR2 SZ EP       1840 53.48                             172   -0.0210 20.4 191 
 BAR2 SZ ES       1841  8.94                             172   -0.4010 20.4 191 
 BAR2 SZ I        1841 10.13        34.0 0.44            174           20.4 191 
 BRR  HZ EP       1840 55.31                             153    0.2410 72.6 301 
 BRR  HN ES       1841 12.82                             153    0.6810 72.6 301 
 BRR  HZ I        1841 15.26        18.0 0.28            154           72.6 301 
 PAM  SN ES   2   1841 14.18                             151    0.04 5 79.8  38 
 RUS  HZ EP       1840 57.62                             146    0.2810 97.6 176 
 RUS  HN ES       1841 16.15                             146   -0.0310 97.6 176 
 RUS  HZ I        1841 18.63        12.1 0.46            148           97.6 176 
 PTB  HZ EP       1841  0.36                             134   -0.24 9  147 260 
 PTB  HN ES       1841 21.47                             134   -0.51 9  147 260 
 ZAR  HE ES   2   1841 31.88                             124    0.04 4  205 293 
 NOR  HN ES   2   1841 37.46                             120    0.37 4  233 235 
 SML  HZ EP   2   1841 10.20                             118   -0.24 4  246 336 
 SML  HE ES   2   1841 38.56                             118   -0.94 4  246 336 
 SML  HZ I        1841 41.31        14.9 0.32            120            246 336 
                                                                                
