 2014  513 1724 58.6 L   6.797 -73.200135.6  RSN  4 0.5 1.5LRSN                1
 GAP=130        1.21       6.1     5.6 12.3 -0.5613E+00  0.2753E+02 -0.8239E+01E
 Epicentro: ZAPATOCA - SANTANDER                                               3
 ACTION:UPD 15-03-16 16:57 OP:nd   STATUS:               ID:20140513172458 L   I
 OLDACT:REG 14-05-13 21:23 OP:carl STATUS:               ID:20140513171816     3
 2014-05-13-1718-16M.COL___260                                                 6
 STAT SP IPHASW D HRMM SECON CODA AMPLIT PERI AZIMU VELO AIN AR TRES W  DIS CAZ7
 PAM  SZ EP       1725 20.14                             147    0.1310 81.6  43 
 PAM  SN ES       1725 36.41                             147   -0.3010 81.6  43 
 PAM  SZ I        1725 38.92         5.0 0.48            150           81.6  43 
 RUS  HZ EP       1725 21.56                             141    0.1810  101 173 
 RUS  HN ES       1725 39.53                             141    0.3810  101 173 
 PTB  HZ EP       1725 23.37                             131   -0.82 9  142 258 
 PTB  HN ES       1725 43.64                             131   -0.52 9  142 258 
 PTB  HZ I        1725 47.46         4.6 0.12            132            142 258 
 ZAR  HZ EP       1725 30.04                             121    0.22 9  199 293 
 ZAR  HN ES       1725 55.04                             121    0.86 9  199 293 
 ZAR  HZ I        1726  2.32         4.0 0.46            122            199 293 
                                                                                
