 2012 1113 1852 58.2 L   6.763 -73.144141.1  RSN  8 0.4 2.1LRSN                1
 GAP=138        1.02       4.8     4.4  6.7  0.7381E+00  0.7166E+01  0.2514E+01E
 Epicentro: LOS SANTOS - SANTANDER                                             3
 ACTION:UPD 12-12-05 15:33 OP:}ep  STATUS:               ID:20121113185258 L   I
 2012-11-13-1850-00M.COL___230                                                 6
 STAT SP IPHASW D HRMM SECON CODA AMPLIT PERI AZIMU VELO AIN AR TRES W  DIS CAZ7
 BAR2 SZ IP     D 1853 17.34                             172    0.1210 19.3 193 
 BAR2 SZ I        1853 17.47        25.1 0.40                          19.3 193 
 BAR2 SZ ES       1853 31.38                             172   -0.6510 19.3 193 
 GIR2 SZ EP       1853 17.33                             165   -0.1310 35.4 351 
 BRR  HZ IP     D 1853 19.17                             151    0.1710 73.4 301 
 BRR  HZ I        1853 19.39        28.9 0.26                          73.4 301 
 BRR  HN ES       1853 35.97                             151    0.7710 73.4 301 
 PAM  SZ EP       1853 20.00                             149   -0.1410 80.5  38 
 PAM  SZ I        1853 20.43        12.8 0.22                          80.5  38 
 PAM  SN ES       1853 37.15                             149   -0.0810 80.5  38 
 RUS  HZ EP       1853 21.32                             144    0.1010 96.5 176 
 RUS  HN ES       1853 39.60                             144    0.4410 96.5 176 
 RUS  HN I        1853 41.47         8.1 0.34                          96.5 176 
 PTB  HZ EP       1853 24.30                             131   -0.46 9  147 260 
 PTB  HN ES       1853 44.91                             131   -0.55 9  147 260 
 PTB  HE I        1853 50.91        16.5 0.36                           147 260 
 ZAR  HN ES       1853 55.91                             121    0.14 8  206 293 
 ZAR  HN I        1854  5.16        14.5 0.14                           206 293 
 NOR  HZ EP       1853 33.73                             118    0.28 8  232 235 
 NOR  HN I        1854  4.51        17.3 0.14                           232 235 
                                                                                
