 2014  813 1120 27.5 L   6.536 -73.176 16.0  RSN  5 0.4 1.3LRSN                1
 GAP=177        0.94       2.7     4.9  3.4  0.5644E+01  0.8071E+01  0.1462E+01E
 Epicentro: PINCHOTE - SANTANDER                                               3
 ACTION:UPD 14-09-15 21:49 OP:nd   STATUS:               ID:20140813112027 L   I
 OLDACT:REG 14-08-13 20:23 OP:spq  STATUS:               ID:20140813111818     3
 2014-08-13-1118-18M.COL___266                                                 6
 STAT SP IPHASW D HRMM SECON CODA AMPLIT PERI AZIMU VELO AIN AR TRES W  DIS CAZ7
 BAR2 SZ IP     D 1120 30.73                             158    0.0010 6.29 353 
 BAR2 SZ ES   1   1120 33.90                             158    0.66 7 6.29 353 
 BAR2 SZ I        1120 34.78        34.1 0.11            151           6.29 353 
 RUS  HZ EP       1120 39.46                             100   -0.2010 71.8 172 
 RUS  HN ES   1   1120 49.24                             100    0.09 7 71.8 172 
 RUS  HZ I        1120 50.34         6.2 0.18             99           71.8 172 
 BRR  HZ EP       1120 40.92                              98   -0.4410 86.6 317 
 BRR  HE ES       1120 51.87                              98   -0.3010 86.6 317 
 BRR  HZ I        1120 52.24        11.3 0.14             97           86.6 317 
 PTB  HZ EP       1120 49.13                              56   -0.33 9  142 270 
 PTB  HN ES       1121  7.22                              56    0.64 9  142 270 
 PTB  HZ I        1121  8.35        10.2 0.20             94            142 270 
 OCA  HN ES       1121 17.73                              56    0.31 9  189 355 
 OCA  HZ I        1121 21.19         5.1 0.32             56            189 355 
                                                                                
