 2014  313 1224 52.4 L   6.830 -73.202142.3  RSN  5 0.4 1.4LRSN                1
 GAP=128        1.01       5.0     5.8  8.7 -0.6512E+01  0.1584E+02 -0.3845E+01E
 Epicentro: ZAPATOCA - SANTANDER                                               3
 ACTION:UPD 14-04-09 23:16 OP:nd   STATUS:               ID:20140313122452 L   I
 OLDACT:DUP 14-03-13 15:41 OP:nd   STATUS:               ID:20140313122044d    3
 2014-03-13-1220-43M.COL___235                                                 6
 STAT SP IPHASW D HRMM SECON CODA AMPLIT PERI AZIMU VELO AIN AR TRES W  DIS CAZ7
 PAM  SZ EP       1225 14.76                             150    0.4610 79.1  45 
 PAM  SN ES       1225 30.94                             150   -0.4910 79.1  45 
 PAM  SZ I        1225 34.14         4.4 0.54            157           79.1  45 
 RUS  HZ EP       1225 16.27                             142    0.2210  104 173 
 RUS  HN ES       1225 34.79                             142    0.2510  104 173 
 RUS  HZ I        1225 37.17         2.3 0.50            146            104 173 
 PTB  HZ EP       1225 17.95                             132   -0.60 9  142 257 
 PTB  HN ES       1225 39.18                             132    0.19 9  142 257 
 PTB  HZ I        1225 47.41         6.0 0.34            133            142 257 
 SML  HZ EP       1225 28.56                             117    0.38 8  238 336 
 SML  HN ES   4   1225 54.19                             117   -1.94 0  238 336 
 SML  HZ I        1225 59.62         3.5 0.10            120            238 336 
 CHI  HZ EP       1225 29.52                             116   -0.52 8  250 194 
 CHI  HN ES   4   1225 57.06                             116   -2.38 0  250 194 
 CHI  HZ I        1226  5.13         1.6 0.42            119            250 194 
                                                                                
