 2010  713 1455 55.4 L   6.223 -73.673105.8  RSN 10 0.5 2.2LRSN                1
 GAP= 88        1.21       5.2     6.1 11.3 -0.1770E+02  0.4467E+02 -0.2041E+02E
 Epicentro: LA PAZ - SANTANDER                                                 3
 ACTION:UPD 10-12-01 15:17 OP:pat  STATUS:               ID:20100713145555 L   I
 2010-07-13-1452-09S.COL___120                                                 6
 STAT SP IPHASW D HRMM SECON CODA AMPLIT PERI AZIMU VELO AIN AR TRES W  DIS CAZ7
 BAR2 SZ EP       1456 12.55                             145     0.010   68  53 
 BAR2 SZ ES   1   1456 26.29                             145     0.4 7   68  53 
 RUS  HZ EP       1456 13.14                             143    -0.210   75 119 
 RUS  HN ES       1456 27.20                             143    -0.210   75 119 
 RUS  HZ I        1456 29.39        42.8 0.64                            75 119 
 BRR  HZ EP       1456 14.32                             134    -0.310   98 357 
 BRR  HZ I        1456 33.50        32.2 0.06                            98 357 
 GIR2 SZ EP       1456 15.64                             131    -0.110  108  29 
 BRI  SZ EP       1456 24.85                             114     0.4 9  191  30 
 BRI  SZ I        1456 54.09        17.2 0.65                           191  30 
 GUE  SZ EP       1456 24.47                             113    -0.6 9  196  25 
 GUE  SZ I        1456 51.46        11.3 0.46                           196  25 
 HEL  HZ EP       1456 26.06                             112    -0.2 8  205 269 
 HEL  HN ES   1   1456 50.68                             112     0.4 6  205 269 
 HEL  HZ I        1456 53.98        23.8 1.09                           205 269 
 GRA  SZ ES   1   1456 51.06                             112     0.9 6  207  28 
 GRA  SZ I        1456 55.85        18.2 0.37                           207  28 
 RREF HZ EP       1456 30.11                             109     0.0 8  236 232 
 RREF HN ES       1456 56.77                             109    -0.4 8  236 232 
 RREF HZ I        1457  1.62        17.9 0.37                           236 232 
 PRA  HZ EP       1456 37.82                             103     0.0 7  308 206 
 PRA  HN ES   1   1457 12.52                             103     1.6 5  308 206 
 PRA  HZ I        1457 17.42         9.0 0.21                           308 206 
                                                                                
