 2017  413 1906 41.2 L   6.767 -73.125140.0  RSN  7 0.4 1.6LRSN                1
 GAP=141        0.95       4.2     3.9  6.4 -0.7968E+00  0.7902E+01 -0.3738E+00E
 Epicentro: LOS SANTOS - SANTANDER                                             3
 ACTION:UPD 17-05-30 21:11 OP:jn   STATUS:               ID:20170413190641 L   I
 OLDACT:UP  17-04-14 01:27 OP:edw  STATUS:               ID:20170413185741d    3
 OLDACT:UP  17-04-14 01:20 OP:edw  STATUS:               ID:20170413185741d    3
 OLDACT:DUP 17-04-14 01:16 OP:edw  STATUS:               ID:20170413185741d    3
 2017-04-13-1858-00M.COL___371                                                 6
 STAT SP IPHASW D HRMM SECON CODA AMPLIT PERI AZIMU VELO AIN AR TRES W  DIS CAZ7
 BAR2 EZ EP       19 6 59.73                             171   -0.3810 20.4 198 
 BAR2 EZ ES       19 7 15.33                             171    0.5010 20.4 198 
 BAR2 EZ I        19 7 16.76         8.8 0.30            172           20.4 198 
 BRR  HZ EP       19 7  2.03                             150    0.0510 75.0 300 
 BRR  HN ES       19 7 18.41                             150    0.2410 75.0 300 
 PAM  EZ EP     D 19 7  2.83                             149   -0.1010 78.8  37 
 PAM  EN ES       19 7 19.65                             149   -0.2010 78.8  37 
 PAM  EZ I        19 7 21.95         7.3 0.64            150           78.8  37 
 RUS  HZ EP       19 7  4.24                             144    0.1010 96.8 177 
 RUS  HN ES       19 7 21.90                             144   -0.1210 96.8 177 
 RUS  HZ I        19 7 22.82         5.4 0.48            147           96.8 177 
 PTB  HZ EP       19 7  7.60                             130   -0.28 9  149 260 
 PTB  HN ES       19 7 28.15                             130   -0.52 9  149 260 
 PTB  HZ I        19 7 30.42         3.8 0.58            131            149 260 
 ZAR  HZ EP       19 7 14.61                             121    0.93 8  208 293 
 ZAR  HN ES       19 7 38.66                             121   -0.32 8  208 293 
 ZAR  HZ I        19 7 43.95         5.5 0.30            121            208 293 
 NOR  HN ES       19 7 44.46                             117    0.25 8  234 236 
 CHI  HZ EP   4   19 7 23.38                             116    5.08 0  246 196 
 CHI  HE ES   4   19 7 45.24                             116   -1.97 0  246 196 
                                                                                
