 2015  313 1422 11.9 L   6.528 -73.532114.2  RSN 13 0.3 2.1LRSN                1
 GAP= 65        0.75       2.5     2.8  5.1 -0.2803E+01  0.5777E+01 -0.7404E+00E
 Epicentro: EL CARMEN - SANTANDER                                              3
 ACTION:UPD 15-04-30 16:25 OP:nd   STATUS:               ID:20150313142211 L   I
 OLDACT:REG 15-03-13 21:19 OP:y    STATUS:               ID:20150313141748     3
 2015-03-13-1417-48M.COL___275                                                 6
 STAT SP IPHASW D HRMM SECON CODA AMPLIT PERI AZIMU VELO AIN AR TRES W  DIS CAZ7
 BAR2 EZ EP     D 1422 28.67                             160    0.3810 39.3  80 
 BAR2 EZ ES   1   1422 40.83                             160   -0.25 7 39.3  80 
 BAR2 EZ I        1422 42.85       100.7 0.32            161           39.3  80 
 BRR  HZ EP       1422 29.51                             147    0.0510 67.0 343 
 BRR  HE ES       1422 43.47                             147    0.3110 67.0 343 
 BRR  HZ I        1422 44.41        25.0 0.30            145           67.0 343 
 RUS  HZ EP   1   1422 31.72                             141    0.20 7 86.1 145 
 RUS  HN ES   1   1422 46.76                             141   -0.07 7 86.1 145 
 PTB  HZ EP       1422 31.46                             135   -0.7210  102 271 
 PTB  HE ES   4   1422 46.31                             135   -1.70 0  102 271 
 PTB  HZ I        1422 47.68        31.4 0.30            133            102 271 
 SPBC HZ EP       1422 33.46                             132    0.1410  114 212 
 SPBC HN ES       1422 50.06                             132    0.0410  114 212 
 SPBC HZ I        1422 51.72        27.8 0.12            131            114 212 
 PAM  SZ EP       1422 35.21                             128   -0.0110  129  46 
 PAM  SE ES       1422 53.32                             128   -0.1010  129  46 
 PAM  SZ I        1422 54.79        20.0 0.26            128            129  46 
 NOR  HZ EP       1422 40.21                             117    0.02 9  182 234 
 NOR  HE ES       1423  1.59                             117   -0.67 9  182 234 
 NOR  HZ I        1423  4.15        13.1 0.16            117            182 234 
 HEL  HZ EP   4   1422 46.39                             112    1.19 0  224 261 
 HEL  HN ES   1   1423 11.71                             112    0.53 6  224 261 
 HEL  HZ I        1423 13.92         6.9 0.22            111            224 261 
 GUY2CHZ EP   4   1422 49.48                             110    1.31 0  249 235 
 GUY2CHN ES   4   1423 19.05                             110    2.58 0  249 235 
 GUY2CHZ I        1423 21.12         8.8 0.32                           249 235 
 SML  HZ EP   1   1422 48.83                             109    0.18 6  258 347 
 SML  HE ES   4   1423 18.77                             109    1.46 0  258 347 
 SML  HZ I        1423 22.34        16.6 0.22            108            258 347 
 CBOC HZ EP   4   1422 53.48                             107    1.61 0  284 255 
 CBOC HN ES       1423 23.36                             107    0.31 7  284 255 
 CBOC HZ I        1423 28.80         3.8 0.32            106            284 255 
 MON  HZ EP   1   1422 58.22                             103   -0.32 5  342 317 
 MON  HN ES   1   1423 34.80                             103   -0.12 5  342 317 
 MON  HZ I        1423 37.62         2.1 0.20            102            342 317 
 PRA  HZ EP   1   1422 59.11                             103    0.16 5  346 206 
 PRA  HN ES   1   1423 36.16                             103    0.50 5  346 206 
 PRA  HZ I        1423 39.02         3.9 0.28            102            346 206 
                                                                                
