 2012 1113 1114 18.7 L   6.784 -73.115154.0  RSN  7 0.4 2.0LRSN 2.6WRSN        1
 SPEC AVERAGE  MO 12.9 ST  1.3 OM  2.1 f0 4.41 R0.3348 AL 2.10 WI 20.1 MW  2.6 3
 SPEC SD       MO  0.3 ST0.760 OM  0.8 f00.260 R0.0206 AL      WI      MW  0.2 3
 GAP=141        0.95       4.5     5.3  8.3 -0.4046E+00  0.4329E+01 -0.8466E+01E
 Epicentro: LOS SANTOS - SANTANDER                                             3
 SPEC PTB HH N MO 13.0 ST  1.3 OM  1.3 f0 4.56 R0.3224 AL 1.20 WI 13.2 MW  2.6 3
 SPEC PTB HH N T1115 7 K 0.000 GD  215 VS 4.20 DE 3.00 Q0230.0 QA 0.60 VS 4.20 3
 SPEC RUS HH N MO 12.5 ST0.309 OM  0.9 f0 4.04 R0.3639 AL 1.66 WI  9.9 MW  2.3 3
 SPEC RUS HH N T1115 1 K 0.000 GD  182 VS 4.20 DE 3.00 Q0230.0 QA 0.60 VS 4.20 3
 SPEC BRR HH E MO 13.2 ST  2.2 OM  1.6 f0 4.62 R0.3182 AL 3.44 WI 37.3 MW  2.7 3
 SPEC BRR HH E T111456 K 0.000 GD  171 VS 4.20 DE 3.00 Q0230.0 QA 0.60 VS 4.20 3
 ACTION:UPD 12-12-05 15:33 OP:}ep  STATUS:               ID:20121113111418 L   I
 2012-11-13-1110-00M.COL___230                                                 6
 STAT SP IPHASW D HRMM SECON CODA AMPLIT PERI AZIMU VELO AIN AR TRES W  DIS CAZ7
 BAR2 SZ EP       1114 39.57                             171    0.2610 22.5 199 
 BAR2 SZ I        1114 39.58        15.2 0.20                          22.5 199 
 BAR2 SZ ES       1114 55.83                             171    0.4510 22.5 199 
 GIR2 SZ ES       1114 55.53                             167   -0.0510 33.7 345 
 BRR  HE ES       1114 58.74                             153    0.4310 75.0 298 
 BRR  HE I        1114 59.77        33.1 0.24                          75.0 298 
 PAM  SZ EP       1114 42.05                             152    0.2910 76.7  37 
 PAM  SZ I        1114 42.52        10.7 0.20                          76.7  37 
 PAM  SN ES       1114 59.22                             152   -0.5210 76.7  37 
 RUS  HN ES       1115  1.83                             146   -0.3710 98.7 178 
 PTB  HN ES       1115  7.99                             133   -0.40 9  151 260 
 SML  HN ES       1115 25.07                             119   -0.24 8  247 335 
                                                                                
