 2011  413 1305 21.2 L   6.879 -73.301118.4  RSN  7 0.3 2.0LRSN                1
 GAP=142        0.75       6.2     6.9  8.0 -0.4328E+01 -0.5015E+01 -0.1830E+02E
 Epicentro: BETULIA - SANTANDER                                                3
 ACTION:UP  11-06-22 15:30 OP:REBC STATUS:               ID:20110413130521 L   I
 2011-04-13-1301-21S.COL___138                                                 6
 STAT SP IPHASW D HRMM SECON CODA AMPLIT PERI AZIMU VELO SNR AR TRES W  DIS CAZ7
 BTL  SZ IP       13 5 36.90                             177    -0.410    6  41 
 GIR2 SZ EP   1   13 5 37.71                             167     0.2 7   25  28 
 BAR2 SZ EP       13 5 38.11                             163     0.210   34 157 
 BAR2 SZ I        13 5 38.30        56.5 0.11                            34 157 
 BAR2 SZ ES   1   13 5 50.66                             163    -0.3 7   34 157 
 BRR  HZ EP       13 5 38.66                             154     0.310   52 299 
 BRR  HN ES   1   13 5 51.67                             154     0.0 7   52 299 
 BRR  HZ I        13 5 53.96        26.8 0.12                            52 299 
 PAM  SZ EP   2   13 5 40.96                             143    -0.1 5   84  53 
 PAM  SE ES   2   13 5 57.14                             143     0.6 5   84  53 
 GRA  SZ EP   1   13 5 44.20                             130     0.2 7  124  26 
 GRA  SZ I        13 5 46.23         5.7 0.28                           124  26 
 GRA  SZ ES   2   13 6  1.48                             130    -0.3 5  124  26 
 OCA  SZ EP   1   13 5 46.13                             124    -0.4 7  150 359 
 OCA  SZ I        13 6 19.65        19.1 0.48                           150 359 
                                                                                
