 2015  113 1011  2.1 L   6.807 -73.157148.1  RSN 12 0.4 1.7LRSN                1
 GAP=135        0.95       2.9     3.7  5.7 -0.1144E+01  0.4858E+01  0.7083E+00E
 Epicentro: LOS SANTOS - SANTANDER                                             3
 ACTION:UPD 15-03-02 15:39 OP:nd   STATUS:               ID:20150113101102 L   I
 OLDACT:UP  15-01-13 22:10 OP:mh   STATUS:               ID:20150113100748     3
 OLDACT:UP  15-01-13 22:00 OP:mh   STATUS:               ID:20150113100748     3
 OLDACT:REG 15-01-13 20:06 OP:mh   STATUS:               ID:20150113100748     3
 2015-01-13-1007-48M.COL___255                                                 6
 STAT SP IPHASW D HRMM SECON CODA AMPLIT PERI AZIMU VELO AIN AR TRES W  DIS CAZ7
 BAR2 EZ EP   1   1011 21.97                             170   -0.07 7 24.0 187 
 BAR2 EZ ES   1   1011 37.89                             170    0.31 7 24.0 187 
 BAR2 EZ I        1011 39.05         7.2 0.19            168           24.0 187 
 BRR  HZ EP       1011 24.18                             153    0.7510 69.7 298 
 BRR  HE ES       1011 40.20                             153    0.1410 69.7 298 
 BRR  HZ I        1011 48.35         6.5 0.20            151           69.7 298 
 PAM  SZ EP       1011 23.97                             151   -0.6210 77.6  41 
 PAM  SN ES       1011 42.02                             151   -0.1010 77.6  41 
 PAM  SZ I        1011 44.08         6.9 0.48            157           77.6  41 
 RUS  HZ EP   1   1011 25.99                             144   -0.17 7  102 175 
 RUS  HN ES       1011 44.88                             144   -0.0410  102 175 
 RUS  HZ I        1011 46.53         2.9 0.37            146            102 175 
 PTB  HZ EP   1   1011 28.95                             133   -0.22 7  147 258 
 PTB  HN ES       1011 49.50                             133   -0.78 9  147 258 
 PTB  HZ I        1011 56.14         6.5 0.07            132            147 258 
 SPBC HZ EP       1011 31.23                             130    0.45 9  163 218 
 SPBC HN ES       1011 53.69                             130    0.56 9  163 218 
 SPBC HZ I        1011 59.99        10.4 0.40            130            163 218 
 ZAR  HZ EP   4   1011 35.45                             123    0.89 0  203 292 
 ZAR  HN ES       1011 59.98                             123    0.12 9  203 292 
 ZAR  HZ I        1012  5.87         5.3 0.34            124            203 292 
 NOR  HZ EP   1   1011 37.74                             119   -0.18 6  234 234 
 NOR  HN ES       1012  5.43                             119   -0.42 8  234 234 
 NOR  HZ I        1012 12.90         4.1 0.24            120            234 234 
 SML  HZ EP       1011 38.92                             118    0.19 8  242 335 
 SML  HE ES       1012  7.17                             118   -0.13 8  242 335 
 SML  HZ I        1012 11.54         6.7 0.10            120            242 335 
 CHI  HZ EP       1011 40.16                             117    0.17 8  249 195 
 CHI  HN ES   1   1012  8.90                             117   -0.64 6  249 195 
 CHI  HZ I        1012 15.03         2.1 0.30            120            249 195 
 HEL  HZ EP   4   1011 43.79                             115    1.46 0  271 256 
 HEL  HN ES       1012 13.90                             115    0.20 8  271 256 
 HEL  HZ I        1012 20.42         2.7 0.34            116            271 256 
 TOL  SN ES   4   1012 29.40                             110    1.29 0  343 224 
 TOL  SZ I        1012 35.88         5.9 0.48            111            343 224 
                                                                                
