 2014 1213 1133 43.0 L   6.771 -73.130152.8  RSN  9 0.7 1.7LRSN                1
 GAP=140        1.66       6.2     8.0 11.4  0.2831E+01  0.1614E+02 -0.1091E+02E
 Epicentro: LOS SANTOS - SANTANDER                                             3
 ACTION:UPD 15-02-10 17:03 OP:nd   STATUS:               ID:20141213113343 L   I
 OLDACT:REG 14-12-13 20:24 OP:fm   STATUS:               ID:20141213112749     3
 2014-12-13-1127-49M.COL___285                                                 6
 STAT SP IPHASW D HRMM SECON CODA AMPLIT PERI AZIMU VELO AIN AR TRES W  DIS CAZ7
 BAR2 EZ EP       1134  3.13                             172   -0.2610 20.5 196 
 BAR2 EZ ES   1   1134 19.29                             172   -0.04 7 20.5 196 
 BAR2 EZ I        1134 20.62         9.4 0.38            173           20.5 196 
 BRR  HE ES       1134 23.22                             153    0.9510 74.3 300 
 BRR  HZ I        1134 27.90        11.3 0.32            152           74.3 300 
 PAM  SZ EP       1134  7.69                             152    1.6710 78.9  37 
 PAM  SE ES       1134 23.47                             152   -0.5410 78.9  37 
 PAM  SZ I        1134 26.75        11.3 0.48            154           78.9  37 
 RUS  HZ EP       1134  6.40                             146   -0.7910 97.2 177 
 RUS  HE ES       1134 26.09                             146    0.0110 97.2 177 
 RUS  HZ I        1134 29.00         5.6 0.42            151           97.2 177 
 PTB  HN ES       1134 32.02                             133   -0.16 9  149 260 
 PTB  HZ I        1134 35.67         4.0 0.22            135            149 260 
 OCA  HE ES       1134 34.06                             131   -0.85 9  164 353 
 OCA  HZ I        1134 41.26         6.6 0.30            132            164 353 
 ZAR  HZ EP   1   1134 15.94                             124   -0.22 6  207 293 
 ZAR  HN ES   1   1134 41.79                             124   -0.27 6  207 293 
 ZAR  HZ I        1134 47.13         3.2 0.26            125            207 293 
 SML  HZ EP       1134 20.27                             119   -0.12 8  247 335 
 SML  HN ES       1134 49.54                             119   -0.03 8  247 335 
 SML  HZ I        1134 53.13         9.7 0.24            120            247 335 
 HEL  HZ EP   1   1134 23.98                             116    0.34 6  273 257 
                                                                                
