 2016  813 1227 40.2 L   6.825 -73.138128.3  RSN  5 0.3 1.5LRSN                1
 GAP=245        0.85       5.3     5.1  6.8  0.1116E+02  0.8094E+01 -0.7037E+01E
 Epicentro: LOS SANTOS - SANTANDER                                             3
 ACTION:UPD 16-10-29 15:35 OP:rebc STATUS:               ID:20160813122740 L   I
 OLDACT:DUP 16-08-13 22:31 OP:lv   STATUS:               ID:20160813121760d    3
 2016-08-13-1217-59S.COL___349                                                 6
 STAT SP IPHASW D HRMM SECON CODA AMPLIT PERI AZIMU VELO AIN AR TRES W  DIS CAZ7
 BAR2 EZ EP       1227 58.13                             168    0.3710 26.1 191 
 BAR2 EZ ES       1228 11.05                             168   -0.4410 26.1 191 
 BAR2 EZ I        1228 14.71         7.6 0.13                          26.1 191 
 RUS  HZ EP       1228  2.69                             139    0.2410  103 177 
 RUS  HN ES       1228 20.04                             139    0.2110  103 177 
 RUS  HZ I        1228 22.03         5.0 0.28                           103 177 
 PTB  HZ EP       1228  5.25                             127   -0.64 9  149 258 
 PTB  HN ES       1228 26.15                             127    0.19 9  149 258 
 PTB  HZ I        1228 31.85         3.0 0.20                           149 258 
 SPBC HZ EP       1228  7.31                             124   -0.34 9  166 219 
 SPBC HN ES       1228 29.15                             124    0.07 9  166 219 
 SPBC HZ I        1228 31.88         6.4 0.22                           166 219 
 ZAR  HZ EP       1228 11.57                             118    0.06 9  204 291 
 ZAR  HN ES       1228 36.22                             118    0.27 9  204 291 
                                                                                
