 2017  913 1337 10.7 L   6.810 -73.144141.8  RSN 12 0.4 2.1LRSN                1
 GAP=112        0.88       3.1     3.1  5.0  0.4429E+00  0.3039E+01  0.5142E+01E
 Epicentro: LOS SANTOS - SANTANDER                                             3
 ACTION:UPD 17-10-05 19:12 OP:rebc STATUS:               ID:20170913133710 L   I
 OLDACT:UP  17-09-13 22:56 OP:dnl  STATUS:               ID:20170913132741     3
 OLDACT:REG 17-09-13 21:18 OP:dnl  STATUS:               ID:20170913132741     3
 2017-09-13-1328-00M.COL___463                                                 6
 STAT SP IPHASW D HRMM SECON CODA AMPLIT PERI AZIMU VELO AIN AR TRES W  DIS CAZ7
 BAR2 EZ IP     C 1337 29.67                             170   -0.2410 24.4 190 
 BAR2 EZ ES       1337 44.26                             170   -0.6110 24.4 190 
 BAR2 EZ I        1337 45.68        35.2 0.28            168           24.4 190 
 BRR  HZ EP       1337 31.46                             152    0.0210 70.9 298 
 BRR  HN ES       1337 48.12                             152    0.5410 70.9 298 
 BRR  HZ I        1337 52.47        27.9 0.18            151           70.9 298 
 PAM  EZ EP       1337 32.57                             150    0.1010 76.4  40 
 PAM  EN ES       1337 49.37                             150   -0.0510 76.4  40 
 PAM  EZ I        1337 51.65        17.9 0.46            155           76.4  40 
 RUS  HZ EP       1337 33.76                             143   -0.4210  102 176 
 RUS  HE ES       1337 52.61                             143    0.1510  102 176 
 RUS  HZ I        1337 54.16        10.5 0.26            143            102 176 
 SPBC HZ EP       1337 38.60                             128   -0.43 9  164 219 
 SPBC HN ES       1338  1.01                             128   -0.08 9  164 219 
 SPBC HZ I        1338  5.29        19.2 0.12            128            164 219 
 YPLC HZ EP       1337 40.25                             126   -0.08 9  178 152 
 YPLC HZ IP     C 1337 40.25                             126   -0.08 9  178 152 
 YPLC HE ES       1338  4.38                             126    0.97 9  178 152 
 YPLC HZ I        1338  6.83        17.6 0.28            128            178 152 
 ZAR  HZ EP   2   1337 44.14                             122    1.24 4  204 292 
 ZAR  HN ES       1338  8.07                             122    0.08 9  204 292 
 ZAR  HZ I        1338 14.43        12.7 0.20            122            204 292 
 NOR  HZ EP       1337 46.12                             118   -0.20 8  235 234 
 NOR  HN ES       1338 14.09                             118    0.01 8  235 234 
 NOR  HZ I        1338 19.33         9.9 0.22            118            235 234 
 URE  HE ES   4   1338 20.78                             113   -2.68 0  284 292 
 URE  HZ I        1338 23.79         6.6 0.14            114            284 292 
 GUY2CHZ EP   2   1337 54.68                             112    0.43 4  302 235 
 GUY2CHN ES       1338 28.34                             112    0.14 7  302 235 
 GUY2CHZ I        1338 36.16         4.4 0.38                           302 235 
 PRA  HZ EP   2   1338  3.67                             106   -0.57 3  393 210 
 PRA  HE ES       1338 46.21                             106    0.23 6  393 210 
 PRA  HZ I        1338 52.88         4.7 0.24            107            393 210 
 ORTC HZ EP   2   1338  4.15                             106   -0.49 3  396 216 
 ORTC HN ES   4   1338 48.70                             106    2.02 0  396 216 
 ORTC HZ I        1338 52.01         2.0 0.18            107            396 216 
                                                                                
