 2011  313 1538 34.9 L   6.792 -73.264137.9  RSN  6 0.3 2.0LRSN                1
 GAP=135        0.72       3.9     7.9  7.0 -0.1700E+02  0.1715E+02 -0.5376E+01E
 Epicentro: ZAPATOCA - SANTANDER                                               3
 ACTION:UP  11-06-16 14:33 OP:jfem STATUS:               ID:20110313153834 L   I
 2011-03-13-1537-05S.COL___134                                                 6
 STAT SP IPHASW D HRMM SECON CODA AMPLIT PERI AZIMU VELO SNR AR TRES W  DIS CAZ7
 BAR2 SZ EP       1538 53.80                             170     0.210   24 158 
 BAR2 SZ ES   1   1539  8.20                             170     0.0 7   24 158 
 BAR2 SZ I        1539 10.59        32.9 0.23                            24 158 
 RUS  HZ EP       1538 57.68                             142    -0.310  102 169 
 RUS  HN ES   2   1539 15.68                             142    -0.2 5  102 169 
 GRA  SZ EP       1539  0.32                             134     0.410  131  23 
 GRA  SZ ES   1   1539 19.28                             134    -0.1 7  131  23 
 GRA  SZ I        1539 22.55         9.2 0.23                           131  23 
 OCA  SZ EP       1539  2.15                             128    -0.4 9  160 358 
 OCA  SZ I        1539 30.41        10.2 0.25                           160 358 
 NOR  SN ES   1   1539 35.65                             118     0.1 6  224 233 
 CHI  HZ EP       1539 11.83                             116     0.1 8  245 192 
                                                                                
