 2014  413 1026 43.1 L   6.824 -73.175145.9  RSN  5 0.2 2.3LRSN                1
 GAP=145        0.59       3.2     2.4  5.3 -0.2736E+01  0.7613E+00  0.1180E+01E
 Epicentro: LOS SANTOS - SANTANDER                                             3
 ACTION:UPD 14-05-13 23:08 OP:nd   STATUS:               ID:20140413102643 L   I
 OLDACT:UP  14-04-14 00:54 OP:cam  STATUS:               ID:20140413102444d    3
 OLDACT:UP  14-04-14 00:54 OP:cam  STATUS:               ID:20140413102444d    3
 OLDACT:DUP 14-04-14 00:50 OP:cam  STATUS:               ID:20140413102444d    3
 OLDACT:REG 14-04-14 00:27 OP:cam  STATUS:               ID:20140413102443     3
 2014-04-13-1024-43M.COL___263                                                 6
 STAT SP IPHASW D HRMM SECON CODA AMPLIT PERI AZIMU VELO AIN AR TRES W  DIS CAZ7
 PAM  SZ EP       1027  5.64                             151    0.2910 77.5  43 
 PAM  SE ES       1027 22.76                             151    0.0710 77.5  43 
 PAM  SZ I        1027 24.91        52.9 0.52            138           77.5  43 
 RUS  HZ EP       1027  6.87                             143   -0.2110  103 174 
 RUS  HN ES       1027 25.88                             143    0.0910  103 174 
 RUS  HZ I        1027 26.50        21.2 0.26            132            103 174 
 PTB  HZ EP   1   1027  9.50                             133   -0.35 7  145 258 
 PTB  HN ES       1027 30.44                             133   -0.27 9  145 258 
 PTB  HZ I        1027 32.62        28.3 0.18            123            145 258 
 TAM  HZ IP     D 1027 11.21                             130    0.06 9  159 106 
 TAM  HZ I        1027 32.21        13.7 0.38            117            159 106 
 TAM  HE ES       1027 32.72                             130   -0.30 9  159 106 
 SPBC HZ EP       1027 11.86                             129    0.23 9  163 218 
 SPBC HN ES       1027 34.09                             129    0.22 9  163 218 
 SPBC HZ I        1027 38.25        44.3 0.70            118            163 218 
                                                                                
