 2014 1113 1033 48.3 L   6.780 -73.114148.0  RSN 11 0.5 1.9LRSN                1
 GAP=142        1.16       5.2     5.3  6.5 -0.8705E+01  0.6974E+01  0.8034E+01E
 Epicentro: LOS SANTOS - SANTANDER                                             3
 ACTION:UPD 14-12-19 15:42 OP:nd   STATUS:               ID:20141113103348 L   I
 OLDACT:UP  14-11-13 22:26 OP:cam  STATUS:               ID:20141113102813     3
 OLDACT:REG 14-11-13 19:14 OP:cam  STATUS:               ID:20141113102813     3
 2014-11-13-1028-13M.COL___295                                                 6
 STAT SP IPHASW D HRMM SECON CODA AMPLIT PERI AZIMU VELO AIN AR TRES W  DIS CAZ7
 BAR2 SZ EP       1034  7.97                             171   -0.1910 22.1 200 
 BAR2 SZ ES       1034 23.76                             171    0.1010 22.1 200 
 BAR2 SZ I        1034 24.71        12.5 0.28            170           22.1 200 
 BRR  HZ EP     D 1034 10.03                             152    0.1210 75.4 299 
 BRR  HN ES       1034 27.60                             152    0.8210 75.4 299 
 BRR  HN I        1034 31.48        32.7 0.26            150           75.4 299 
 PAM  SZ EP       1034 10.83                             151    0.1210 77.0  36 
 PAM  SN ES       1034 28.08                             151   -0.1310 77.0  36 
 PAM  SZ I        1034 30.13         7.8 0.22            155           77.0  36 
 RUS  HZ EP       1034 12.32                             145    0.2410 98.1 178 
 RUS  HE ES       1034 30.39                             145   -0.2510 98.1 178 
 RUS  HZ I        1034 31.55         5.7 0.42            148           98.1 178 
 PTB  HZ EP       1034 14.73                             132   -0.98 9  151 260 
 PTB  HN ES       1034 36.15                             132   -0.95 9  151 260 
 PTB  HZ I        1034 41.94        10.5 0.38            132            151 260 
 SPBC HZ EP       1034 17.10                             129    0.10 9  164 220 
 SPBC HE ES       1034 39.39                             129   -0.01 9  164 220 
 SPBC HZ I        1034 45.80        20.6 0.26            131            164 220 
 NOR  HZ EP       1034 23.89                             119   -0.42 8  236 235 
 NOR  HE ES       1034 52.95                             119    0.54 8  236 235 
 NOR  HZ I        1034 55.70         6.9 0.20            120            236 235 
 CHI  HZ EP       1034 25.86                             118   -0.11 8  247 196 
 HEL  HZ EP       1034 29.37                             115    0.44 8  275 256 
 HEL  HN ES   4   1035  2.89                             115    2.26 0  275 256 
 TOL  SN ES       1035 15.37                             110    0.85 7  344 225 
 MON  HZ EP   4   1034 35.37                             109   -2.48 0  358 308 
 PRA  HZ EP       1034 42.23                             107    0.37 6  392 210 
                                                                                
