 2017  713 1116  3.4 L   6.746 -73.154133.6  RSN  4 0.4 1.2LRSN                1
 GAP=247        0.92      10.0     6.6  8.3  0.2585E+02  0.1626E+02  0.2872E+01E
 Epicentro: LOS SANTOS - SANTANDER                                             3
 ACTION:UPD 17-08-30 15:32 OP:rebc STATUS:               ID:20170713111603 L   I
 OLDACT:REG 17-07-13 20:10 OP:dani STATUS:               ID:20170713110738     3
 2017-07-13-1108-00M.COL___365                                                 6
 STAT SP IPHASW D HRMM SECON CODA AMPLIT PERI AZIMU VELO AIN AR TRES W  DIS CAZ7
 BAR2 EZ EP       1116 21.19                             172   -0.2810 17.3 190 
 BAR2 EZ ES       1116 35.89                             172    0.3410 17.3 190 
 BRR  HZ EP       1116 23.07                             149   -0.3310 73.4 303 
 BRR  HE ES       1116 38.94                             149   -0.0510 73.4 303 
 BRR  HZ I        1116 43.20         6.7 0.42            149           73.4 303 
 PTB  HZ EP       1116 29.81                             129    0.58 9  146 261 
 PTB  HN ES       1116 48.92                             129   -0.45 9  146 261 
 PTB  HZ I        1116 53.89         1.3 0.19            130            146 261 
 ZAR  HE ES       1117  0.37                             119    0.29 8  206 294 
                                                                                
