 2012  413 1530 32.6 L   6.705 -73.154140.3  RSN  5 0.4 1.7LRSN                1
 GAP=159        1.01      10.5     6.2 10.4 -0.1131E+02  0.1273E+02  0.5597E+01E
 Epicentro: VILLANUEVA - SANTANDER                                             3
 ACTION:UPD 12-07-05 11:53 OP:tino STATUS:               ID:20120413153032 L   I
 2012-04-13-1530-00M.COL___181                                                 6
 STAT SP IPHASW D HRMM SECON CODA AMPLIT PERI AZIMU VELO AIN AR TRES W  DIS CAZ7
 BAR2 SZ EP       1530 51.72                             174     0.410   13 194 
 BAR2 SZ I        1530 52.05        11.5 0.10                            13 194 
 BAR2 SZ ES   1   1531  5.66                             174    -0.3 7   13 194 
 BRR  HZ EP       1530 53.54                             150     0.110   76 306 
 BRR  HZ I        1530 53.80        21.4 0.16                            76 306 
 BRR  HE ES   1   1531 10.43                             150     0.8 7   76 306 
 PAM  SZ EP   1   1530 54.63                             147    -0.1 7   86  36 
 PAM  SZ I        1530 54.80         5.6 0.25                            86  36 
 PAM  SN ES   1   1531 11.62                             147    -0.4 7   86  36 
 PTB  HZ EP   1   1530 58.57                             131    -0.3 7  145 263 
 PTB  HN ES   1   1531 19.01                             131    -0.3 7  145 263 
 PTB  HZ I        1531 21.92         4.4 0.26                           145 263 
 ZAR  HN ES   1   1531 29.96                             121    -0.3 6  207 295 
 ZAR  HZ I        1531 35.46         7.6 0.30                           207 295 
                                                                                
