 2015  913 1117 33.3 L   6.792 -73.167143.3  RSN  7 0.4 1.5LRSN                1
 GAP=199        1.01       4.2     5.8  6.7  0.4717E+01  0.9835E+00 -0.4164E+01E
 Epicentro: LOS SANTOS - SANTANDER                                             3
 ACTION:UPD 15-10-28 16:26 OP:cam  STATUS:               ID:20150913111733 L   I
 OLDACT:REG 15-09-13 20:38 OP:stll STATUS:               ID:20150913110750     3
 2015-09-13-1107-50M.COL___313                                                 6
 STAT SP IPHASW D HRMM SECON CODA AMPLIT PERI AZIMU VELO AIN AR TRES W  DIS CAZ7
 BAR2 EZ EP       1117 52.47                             171   -0.1910 22.1 184 
 BAR2 EZ I        1117 52.99         8.8 0.14            165           22.1 184 
 BAR2 EZ ES       1118  7.36                             171   -0.3610 22.1 184 
 BRR  HZ EP       1117 54.43                             153    0.3010 69.6 300 
 BRR  HE ES       1118 11.11                             153    0.7610 69.6 300 
 RUS  HZ EP       1117 56.79                             143   -0.0110 99.9 175 
 RUS  HZ I        1117 57.90         2.6 0.42            141           99.9 175 
 PTB  HZ EP       1117 59.76                             132   -0.12 9  145 259 
 PTB  HN ES       1118 20.18                             132   -0.40 9  145 259 
 PTB  HZ I        1118 26.24         3.5 0.16            128            145 259 
 SPBC HZ EP       1118  1.32                             129   -0.13 9  161 219 
 SPBC HN ES       1118 23.55                             129    0.18 9  161 219 
 SPBC HZ I        1118 29.54         4.7 0.66            126            161 219 
 ZAR  HZ EP       1118  5.65                             122    0.21 9  202 293 
 ZAR  HN ES       1118 30.41                             122   -0.06 9  202 293 
 ZAR  HZ I        1118 36.26         5.1 0.48            120            202 293 
 SML  HZ EP       1118 10.42                             117    0.61 8  244 336 
 SML  HN ES       1118 37.35                             117   -0.91 8  244 336 
                                                                                
