 2012 1213 1152 30.3 L   6.790 -73.157151.6  RSN  7 0.4 1.8LRSN                1
 GAP=183        0.77       5.1     6.7  7.6  0.1481E+02  0.1561E+02  0.1250E+01E
 Epicentro: LOS SANTOS - SANTANDER                                             3
 ACTION:UPD 13-01-04 14:27 OP:ep   STATUS:               ID:20121213115230 L   I
 2012-12-13-1150-00M.COL___242                                                 6
 STAT SP IPHASW D HRMM SECON CODA AMPLIT PERI AZIMU VELO AIN AR TRES W  DIS CAZ7
 BAR2 SZ ES   1   1153  6.03                             171   -0.37 7 22.1 187 
 BAR2 SZ I        1153  8.40        15.1 0.40                          22.1 187 
 GIR2 SZ ES   1   1153  6.44                             167   -0.11 7 32.2 353 
 BRR  HZ EP   1   1152 52.60                             154    0.59 7 70.6 300 
 BRR  HE ES   1   1153  9.56                             154    0.59 7 70.6 300 
 RUS  HZ EP   1   1152 54.51                             145   -0.01 7 99.6 175 
 RUS  HN ES   1   1153 13.51                             145    0.07 7 99.6 175 
 RUS  HZ I        1153 15.68         4.8 0.48                          99.6 175 
 PTB  HZ EP   1   1152 57.42                             134   -0.16 7  146 259 
 PTB  HN ES   1   1153 18.39                             134   -0.50 7  146 259 
 PTB  HZ I        1153 20.55         6.7 0.12                           146 259 
 ZAR  HE ES   1   1153 28.84                             124    0.28 6  203 293 
 ZAR  HZ I        1153 35.54         7.2 0.46                           203 293 
 SML  HN ES   1   1153 35.50                             118   -0.63 6  244 336 
                                                                                
