 2011  513 1400 49.0 L   6.733 -73.081147.3  RSN  6 0.2 1.7LRSN                1
 GAP=148        0.47       3.6     5.4  5.2 -0.2518E+01 -0.8046E+01  0.1623E+01E
 Epicentro: JORDAN - SANTANDER                                                 3
 ACTION:UP  11-06-29 08:53 OP:tino STATUS:               ID:20110513140049 L   I
 2011-05-13-1355-32S.COL___141                                                 6
 STAT SP IPHASW D HRMM SECON CODA AMPLIT PERI AZIMU VELO SNR AR TRES W  DIS CAZ7
 BAR2 SZ EP   1   14 1  8.58                             172    -0.2 7   19 216 
 BAR2 SZ ES   2   14 1 23.87                             172    -0.3 5   19 216 
 BAR2 SZ I        14 1 25.48        12.6 0.32                            19 216 
 BTL  SZ EP   1   14 1  9.14                             168     0.2 7   29 315 
 BTL  SZ ES   2   14 1 25.11                             168     0.6 5   29 315 
 PAM  SZ EP   1   14 1 11.72                             150     0.2 7   79  32 
 PAM  SE ES   2   14 1 28.71                             150    -0.4 5   79  32 
 BRR  HZ EP   1   14 1 10.71                             150    -0.2 7   81 301 
 BRR  HE ES   1   14 1 27.98                             150     0.0 7   81 301 
 BRR  HZ I        14 1 35.82        24.4 0.49                            81 301 
 RUS  HZ EP   1   14 1 12.50                             146     0.1 7   93 180 
 RUS  HE ES   2   14 1 30.67                             146     0.0 5   93 180 
 RUS  HZ I        14 1 32.59         5.3 0.24                            93 180 
 BRI  SZ EP   1   14 1 13.45                             140     0.0 7  113  16 
 BRI  SZ I        14 1 21.20         5.6 0.45                           113  16 
 BRI  SZ ES   2   14 1 32.47                             140     0.0 5  113  16 
                                                                                
