 2010  913 1542 59.3 L   6.796 -73.099142.1  RSN  7 0.3 2.7LRSN                1
 GAP=164        0.59       3.6     8.3  6.5 -0.3769E+00 -0.1139E+02 -0.4468E+01E
 Epicentro: LOS SANTOS - SANTANDER                                             3
 ACTION:UP  11-02-18 11:02 OP:tino STATUS:               ID:20100913154259 L   I
 2010-09-13-1538-55S.COL___120                                                 6
 STAT SP IPHASW D HRMM SECON CODA AMPLIT PERI AZIMU VELO SNR AR TRES W  DIS CAZ7
 BAR2 SZ IP     D 1543 18.55                             170     0.010   24 203 
 BAR2 SZ ES   2   1543 33.12                             170    -0.4 5   24 203 
 BAR2 SZ I        1543 34.18       126.8 0.29                            24 203 
 GIR2 SZ EP   1   1543 18.66                             166     0.0 7   33 341 
 GIR2 SZ ES   2   1543 34.04                             166     0.4 5   33 341 
 BRR  HZ IP     C 1543 20.44                             150     0.110   76 297 
 BRR  HZ I        1543 20.79       152.6 0.13                            76 297 
 BRR  HE ES   2   1543 37.12                             150     0.3 5   76 297 
 RUS  HZ EP   1   1543 22.61                             143    -0.1 7  100 179 
 RUS  HN ES   2   1543 40.76                             143    -0.1 5  100 179 
 RUS  HZ I        1543 43.18        26.4 0.36                           100 179 
 GUE  SZ EP   1   1543 23.62                             139    -0.1 7  116  10 
 GRA  SZ EP   1   1543 24.61                             136     0.4 7  125  15 
 GRA  SZ ES   2   1543 43.64                             136     0.1 5  125  15 
 GRA  SZ I        1543 46.19        82.4 0.36                           125  15 
 OCA  SZ EP   1   1543 27.22                             129    -0.3 7  161 351 
 OCA  SZ ES   2   1543 48.57                             129    -0.9 5  161 351 
 OCA  SZ I        1543 52.21        70.3 0.41                           161 351 
                                                                                
