 2010  913 1536  2.4 L   6.785 -73.115139.0  RSN  9 0.4 3.1LRSN                1
 GAP=162        0.74       3.7     6.7  6.7 -0.6617E+01  0.4223E+01  0.2451E+00E
 Epicentro: LOS SANTOS - SANTANDER                                             3
 ACTION:UP  11-02-18 11:02 OP:tino STATUS:               ID:20100913153602 L   I
 2010-09-13-1532-55S.COL___120                                                 6
 STAT SP IPHASW D HRMM SECON CODA AMPLIT PERI AZIMU VELO SNR AR TRES W  DIS CAZ7
 BAR2 SZ IP     C 1536 21.21                             170     0.010   23 199 
 BAR2 SZ ES   2   1536 35.87                             170     0.0 5   23 199 
 GIR2 SZ EP   1   1536 21.32                             166     0.0 7   34 345 
 GIR2 SZ ES   2   1536 35.89                             166    -0.3 5   34 345 
 BRR  HZ IP     C 1536 23.07                             150     0.010   75 298 
 BRR  HE ES   2   1536 39.86                             150     0.7 5   75 298 
 BRR  HZ I        1536 44.46       403.5 0.22                            75 298 
 RUS  HZ EP   1   1536 25.31                             143    -0.1 7   99 178 
 RUS  HE ES   2   1536 43.68                             143     0.4 5   99 178 
 RUS  HZ I        1536 44.94        70.9 0.38                            99 178 
 GUE  SZ EP   1   1536 26.30                             138    -0.3 7  118  10 
 GRA  SZ IP     D 1536 27.21                             135     0.110  126  16 
 GRA  SZ ES   2   1536 46.55                             135     0.1 5  126  16 
 GRA  SZ I        1536 48.89       342.9 0.32                           126  16 
 OCA  SZ EP   1   1536 31.07                             128     0.6 7  162 352 
 OCA  SZ ES   2   1536 51.07                             128    -1.2 5  162 352 
 OCA  SZ I        1536 54.92       384.4 0.32                           162 352 
 CHI  HZ EP   1   1536 39.47                             116    -0.2 6  248 196 
 CHI  HE ES   2   1537  8.42                             116    -0.3 4  248 196 
 CHI  HZ I        1537 14.95        33.1 0.35                           248 196 
 HEL  HZ EP   1   1536 43.09                             113     0.5 6  275 256 
 HEL  HN ES   2   1537 13.22                             113    -0.8 4  275 256 
 HEL  HZ I        1537 20.25        58.7 0.32                           275 256 
                                                                                
