 2013  613 1427 43.2 L   6.731 -73.165145.3  RSN  8 0.4 2.3LRSN                1
 GAP=179        0.80       3.9     4.4  6.0  0.4831E+01  0.3630E+01 -0.4262E+01E
 Epicentro: VILLANUEVA - SANTANDER                                             3
 ACTION:UPD 14-01-08 09:54 OP:ep   STATUS:               ID:20130613142743 L   I
 OLDACT:REG 13-06-13 14:10 OP:mh   STATUS:               ID:20130613141959     3
 2013-06-13-1419-59M.COL___261                                                 6
 STAT SP IPHASW D HRMM SECON CODA AMPLIT PERI AZIMU VELO AIN AR TRES W  DIS CAZ7
 BAR2 SZ EP     C 1428  2.71                             174    0.0510 15.4 187 
 BAR2 SZ ES   1   1428 17.49                             174   -0.34 7 15.4 187 
 BAR2 SZ I        1428 18.51        18.8 0.14            175           15.4 187 
 GIR2 SZ EP   1   1428  2.63                             164   -0.43 7 38.6 355 
 GIR2 SZ I        1428 18.78         8.9 0.18            163           38.6 355 
 BRR  HZ EP   1   1428  4.65                             152    0.21 7 73.4 305 
 BRR  HN ES       1428 21.46                             152    0.4610 73.4 305 
 BRR  HN I        1428 25.73        50.6 0.16            150           73.4 305 
 RUS  HZ EP   1   1428  6.63                             146    0.23 7 93.1 174 
 RUS  HN ES       1428 24.63                             146    0.1510 93.1 174 
 RUS  HN I        1428 26.92        19.7 0.32            147           93.1 174 
 PTB  HZ EP   1   1428  9.64                             133   -0.20 7  144 262 
 PTB  HN ES       1428 29.88                             133   -0.72 9  144 262 
 PTB  HN I        1428 35.83        36.2 0.26            132            144 262 
 ZAR  HZ EP   1   1428 16.13                             122    0.39 6  205 294 
 ZAR  HN ES       1428 41.28                             122    0.17 9  205 294 
 ZAR  HN I        1428 47.22        35.9 0.26            121            205 294 
 NOR  HZ EP   1   1428 17.79                             119   -0.48 6  229 236 
 NOR  HN ES   1   1428 46.20                             119    0.60 6  229 236 
 NOR  HN I        1428 53.07        17.4 0.14            119            229 236 
 SML  HZ EP   1   1428 20.39                             117   -0.09 6  250 336 
 SML  HN ES   1   1428 49.46                             117   -0.09 6  250 336 
 SML  HN I        1428 52.24        27.4 0.10            116            250 336 
                                                                                
