 2012  413 1008 48.5 L   6.733 -73.154145.2  RSN  5 0.2 1.5LRSN                1
 GAP=155        0.62       6.9     3.8  6.2 -0.7027E+01  0.3213E+01 -0.5789E+00E
 Epicentro: VILLANUEVA - SANTANDER                                             3
 ACTION:UPD 12-07-05 11:53 OP:tino STATUS:               ID:20120413100848 L   I
 2012-04-13-1007-59S.COL___188                                                 6
 STAT SP IPHASW D HRMM SECON CODA AMPLIT PERI AZIMU VELO AIN AR TRES W  DIS CAZ7
 BAR2 SZ EP   1   10 9  8.13                             173     0.2 7   16 191 
 BAR2 SZ I        10 9  8.24         6.7 0.13                            16 191 
 BAR2 SZ ES   1   10 9 23.05                             173    -0.1 7   16 191 
 BRR  HZ EP       10 9 10.02                             151     0.210   74 304 
 BRR  HZ I        10 9 11.64         8.0 0.12                            74 304 
 BRR  HE ES   1   10 9 26.70                             151     0.3 7   74 304 
 PAM  SZ EP       10 9 11.04                             149     0.010   84  37 
 PAM  SZ I        10 9 11.27         2.8 0.21                            84  37 
 PAM  SN ES   1   10 9 28.32                             149    -0.3 7   84  37 
 PTB  HZ EP   1   10 9 14.98                             132    -0.2 7  146 262 
 PTB  HN ES   1   10 9 35.83                             132    -0.2 7  146 262 
 PTB  HZ I        10 9 42.01         4.1 0.39                           146 262 
 ZAR  HE ES   1   10 9 46.40                             122    -0.2 6  206 294 
 ZAR  HZ I        10 9 52.60         5.4 0.36                           206 294 
                                                                                
