 2017  713 1453 57.0 L   6.685 -73.179138.7  RSN  4 0.3 1.1LRSN                1
 GAP=237        0.73       9.8     5.7  7.6  0.3626E+02  0.1104E+02  0.1045E+02E
 Epicentro: VILLANUEVA - SANTANDER                                             3
 ACTION:UPD 17-08-30 15:32 OP:rebc STATUS:               ID:20170713145357 L   I
 OLDACT:UP  17-07-13 22:25 OP:dani STATUS:               ID:20170713144738     3
 OLDACT:REG 17-07-13 20:27 OP:dani STATUS:               ID:20170713144738     3
 2017-07-13-1448-00M.COL___371                                                 6
 STAT SP IPHASW D HRMM SECON CODA AMPLIT PERI AZIMU VELO AIN AR TRES W  DIS CAZ7
 BAR2 EZ EP       1454 15.30                             175   -0.2610 10.2 182 
 BAR2 EZ ES       1454 30.01                             175   -0.0410 10.2 182 
 RUS  HZ EP       1454 19.54                             146    0.3810 88.2 173 
 PTB  HZ EP   1   1454 22.33                             131   -0.53 7  142 264 
 PTB  HN ES       1454 42.98                             131   -0.07 9  142 264 
 PTB  HZ I        1454 47.68         1.7 0.24            129            142 264 
 ZAR  HE ES       1454 54.58                             120    0.32 8  206 296 
                                                                                
