 2013  113 1511 18.6 L   6.730 -73.179146.0  RSN  6 0.4 1.9LRSN                1
 GAP=228        0.95       6.7     5.6  7.0  0.3786E+01  0.1164E+02  0.1661E+01E
 Epicentro: VILLANUEVA - SANTANDER                                             3
 ACTION:UPD 13-02-15 09:14 OP:ep   STATUS:               ID:20130113151118 L   I
 2013-01-13-1508-36M.COL___184                                                 6
 STAT SP IPHASW D HRMM SECON CODA AMPLIT PERI AZIMU VELO AIN AR TRES W  DIS CAZ7
 BAR2 SZ EP       1511 37.83                             174   -0.2510 15.3 181 
 BAR2 SZ I        1511 37.96        13.5 0.20            171           15.3 181 
 BAR2 SZ ES       1511 53.21                             174   -0.0910 15.3 181 
 BRR  HZ EP       1511 39.83                             152    0.0510 72.1 305 
 BRR  HN I        1512  2.19        19.4 0.16            141           72.1 305 
 RUS  HZ EP       1511 41.63                             146   -0.1810 93.2 173 
 RUS  HN ES       1512  0.31                             146    0.3610 93.2 173 
 RUS  HN I        1512  1.00         9.8 0.30            155           93.2 173 
 PTB  HZ EP       1511 44.99                             133   -0.11 9  143 262 
 PTB  HN ES       1512  5.99                             133    0.20 9  143 262 
 PTB  HN I        1512  9.13         7.6 0.26            129            143 262 
 NOR  HZ EP       1511 54.47                             119    0.97 8  227 235 
 NOR  HN ES       1512 20.13                             119   -0.63 8  227 235 
 NOR  HN I        1512 27.40         7.4 0.14            118            227 235 
 CHI  HZ EP       1511 55.04                             118   -0.32 8  240 195 
                                                                                
