 2016  913 1500  7.4 L   6.798 -73.148143.3  RSN  8 0.5 1.9LRSN                1
 GAP=136        1.22       5.0     5.2  7.5 -0.9634E+00  0.1028E+02  0.2401E+01E
 Epicentro: LOS SANTOS - SANTANDER                                             3
 ACTION:UPD 17-08-17 21:09 OP:lp   STATUS:               ID:20160913150007 L   I
 OLDACT:REG 16-09-13 21:08 OP:dnl  STATUS:               ID:20160913145738     3
 2016-09-13-1458-00M.COL___315                                                 6
 STAT SP IPHASW D HRMM SECON CODA AMPLIT PERI AZIMU VELO AIN AR TRES W  DIS CAZ7
 BAR2 EZ EP       15 0 26.51                             170   -0.2510 23.1 189 
 BAR2 EZ ES       15 0 41.71                             170   -0.1210 23.1 189 
 BAR2 EZ I        15 0 42.74        15.7 0.24            171           23.1 189 
 BRR  HZ EP       15 0 28.28                             152   -0.0210 71.1 299 
 BRR  HN ES       15 0 45.49                             152    0.9110 71.1 299 
 BRR  HZ I        15 0 46.61        16.3 0.34            152           71.1 299 
 PAM  EZ EP       15 0 29.44                             150    0.0410 77.7  40 
 PAM  EE ES       15 0 46.50                             150   -0.0410 77.7  40 
 PAM  EZ I        15 0 49.24         6.8 0.20            152           77.7  40 
 RUS  HZ EP     D 15 0 30.49                             143   -0.4310  100 176 
 RUS  HE ES       15 0 49.30                             143    0.0510  100 176 
 RUS  HZ I        15 0 50.24         7.5 0.28            145            100 176 
 PTB  HZ EP   2   15 0 33.93                             132   -0.24 5  147 259 
 PTB  HN ES       15 0 54.12                             132   -0.90 9  147 259 
 PTB  HZ I        15 0 56.20         9.8 0.42            132            147 259 
 SPBC HZ EP       15 0 35.51                             129   -0.20 9  163 219 
 SPBC HE ES       15 0 58.47                             129    0.71 9  163 219 
 SPBC HZ I        15 1  1.89        16.5 0.20            130            163 219 
 ZAR  HZ EP       15 0 40.36                             122    0.66 9  204 292 
 ZAR  HN ES       15 1  4.12                             122   -0.75 9  204 292 
 ZAR  HZ I        15 1  9.67         9.6 0.32            123            204 292 
 GUY2CHZ EP       15 0 51.53                             112    0.64 7  301 235 
 GUY2CHN ES   3   15 1 25.33                             112    0.55 2  301 235 
 GUY2CHZ I        15 1 32.74         4.5 0.34                           301 235 
                                                                                
