 2016  213 1641 38.8 L   6.856 -73.357112.0  RSN  5 0.4 1.8LRSN                1
 GAP=121        0.59       6.1     4.7  8.6 -0.1100E+02  0.2224E+02 -0.3115E+01E
 Epicentro: SAN VICENTE DE CHUCURI - SANTANDER                                 3
 ACTION:UPD 16-03-04 21:25 OP:rebc STATUS:               ID:20160213164138 L   I
 OLDACT:REG 16-02-13 22:50 OP:dnl  STATUS:               ID:20160213163750     3
 2016-02-13-1637-50M.COL___311                                                 6
 STAT SP IPHASW D HRMM SECON CODA AMPLIT PERI AZIMU VELO AIN AR TRES W  DIS CAZ7
 BAR2 EZ EP       1641 54.66                             162   -0.0710 35.0 146 
 BAR2 EZ ES   2   1642  7.41                             162    0.23 5 35.0 146 
 BAR2 EZ I        1642  9.10        35.0 0.24            170           35.0 146 
 PAM  EZ EP       1641 58.16                             140   -0.3410 90.2  54 
 PAM  EN ES       1642 14.13                             140    0.2310 90.2  54 
 PAM  EZ I        1642 16.40        12.7 0.22            144           90.2  54 
 PTB  HZ EP   2   1642  1.74                             128    0.64 5  126 254 
 PTB  HN ES   3   1642 17.45                             128   -1.07 2  126 254 
 ZAR  HZ EP   2   1642  6.98                             118    0.36 4  180 293 
 ZAR  HE ES   2   1642 28.15                             118   -0.20 4  180 293 
 ZAR  HZ I        1642 31.53         9.3 0.24            121            180 293 
 GUY2CHZ EP   2   1642 19.39                             107    0.10 4  286 231 
 GUY2CHN ES   4   1642 49.17                             107   -1.74 0  286 231 
 GUY2CHZ I        1642 58.43         2.2 0.38                           286 231 
                                                                                
