 2016  413 1015 53.4 L   6.773 -73.154141.7  RSN  7 0.4 1.5LRSN                1
 GAP=137        0.89       4.0     3.9  6.5 -0.2983E+01  0.7383E+01 -0.2211E+01E
 Epicentro: LOS SANTOS - SANTANDER                                             3
 ACTION:UPD 16-05-05 14:21 OP:rebc STATUS:               ID:20160413101553 L   I
 OLDACT:DUP 16-04-13 22:05 OP:ar   STATUS:               ID:20160413100744d    3
 2016-04-13-1007-43M.COL___309                                                 6
 STAT SP IPHASW D HRMM SECON CODA AMPLIT PERI AZIMU VELO AIN AR TRES W  DIS CAZ7
 BAR2 EZ EP       1016 12.43                             172   -0.0510 20.2 189 
 BAR2 EZ ES       1016 27.12                             172   -0.2410 20.2 189 
 BAR2 EZ I        1016 28.43         9.1 0.40            172           20.2 189 
 PAM  EZ EP       1016 15.24                             149   -0.1210 80.3  39 
 PAM  EN ES       1016 32.78                             149    0.2910 80.3  39 
 PAM  EZ I        1016 34.38         6.6 0.48            151           80.3  39 
 RUS  HZ EP       1016 16.30                             144   -0.2410 97.7 175 
 RUS  HE ES       1016 34.79                             144    0.2010 97.7 175 
 RUS  HZ I        1016 36.09         5.3 0.30            147           97.7 175 
 PTB  HZ EP       1016 19.48                             131   -0.42 9  146 260 
 PTB  HN ES       1016 39.93                             131   -0.64 9  146 260 
 PTB  HZ I        1016 44.00         3.2 0.40            132            146 260 
 SPBC HZ EP       1016 21.42                             129    0.11 9  160 219 
 SPBC HN ES       1016 43.61                             129    0.53 9  160 219 
 SPBC HZ I        1016 45.11         7.3 0.10            130            160 219 
 ZAR  HZ EP   2   1016 26.64                             121    1.03 4  204 293 
 ZAR  HE ES       1016 51.22                             121    0.48 9  204 293 
 ZAR  HZ I        1016 56.48         2.8 0.21            122            204 293 
 GUY2CHZ EP   9   1016 38.84                             112    2.30 0  299 235 
 GUY2CHN ES       1017 12.62                                    0.13 7  299 235 
 GUY2CHZ I        1017 17.49         1.4 0.48                           299 235 
                                                                                
