 2017  813 1305 33.8 L   6.772 -73.108147.0  RSN  7 0.3 1.8LRSN                1
 GAP=239        0.71       3.0     4.3  4.7  0.3699E+01  0.5913E+01  0.2063E+01E
 Epicentro: LOS SANTOS - SANTANDER                                             3
 ACTION:UPD 17-09-04 20:19 OP:rebc STATUS:               ID:20170813130533 L   I
 OLDACT:UP  17-08-14 04:35 OP:edw  STATUS:               ID:20170813125747d    3
 OLDACT:DUP 17-08-14 04:29 OP:edw  STATUS:               ID:20170813125747d    3
 OLDACT:REG 17-08-14 02:40 OP:osc  STATUS:               ID:20170813125746     3
 2017-08-13-1258-00M.COL___410                                                 6
 STAT SP IPHASW D HRMM SECON CODA AMPLIT PERI AZIMU VELO AIN AR TRES W  DIS CAZ7
 BAR2 EZ EP       13 5 53.32                             171   -0.1810 21.4 202 
 BAR2 EZ ES       13 6  9.02                             171    0.1210 21.4 202 
 BAR2 EZ I        13 6  9.71        15.7 0.20            164           21.4 202 
 BRR  HZ EP     C 13 5 55.08                             151   -0.2610 76.3 299 
 BRR  HN ES       13 6 12.08                             151   -0.0910 76.3 299 
 RUS  HZ EP       13 5 57.34                             145   -0.0610 97.2 178 
 RUS  HN ES       13 6 16.10                             145    0.2710 97.2 178 
 RUS  HZ I        13 6 17.79         5.4 0.24            142           97.2 178 
 SPBC HZ EP       13 6  2.23                             129   -0.15 9  163 221 
 SPBC HN ES       13 6 24.17                             129   -0.53 9  163 221 
 SPBC HZ I        13 6 30.55        10.4 0.24            127            163 221 
 ZAR  HZ EP       13 6  7.42                             122    0.61 8  209 293 
 ZAR  HE ES       13 6 32.76                             122    0.18 8  209 293 
 ZAR  HZ I        13 6 37.16         7.9 0.52            121            209 293 
 NOR  HZ EP       13 6  9.51                             119   -0.22 8  236 236 
 NOR  HN ES       13 6 37.91                             119    0.12 8  236 236 
 NOR  HZ I        13 6 42.39         4.3 0.20            117            236 236 
 CHI  HZ EP   2   13 6 11.22                             118   -0.10 4  247 196 
 CHI  HN ES       13 6 41.05                             118    0.43 8  247 196 
 CHI  HZ I        13 6 48.24         3.4 0.44            117            247 196 
 GUY2CHN ES   4   13 6 53.59                             112    1.78 0  303 236 
                                                                                
