 2017  513 1523 39.1 L   6.814 -73.168150.6  RSN  6 0.4 1.6LRSN                1
 GAP=133        0.94       4.9     4.4  9.2 -0.3523E+01  0.1296E+02  0.2892E+01E
 Epicentro: LOS SANTOS - SANTANDER                                             3
 ACTION:UPD 17-06-16 13:35 OP:jn   STATUS:               ID:20170513152339 L   I
 OLDACT:REG 17-05-13 19:20 OP:lv   STATUS:               ID:20170513151750     3
 2017-05-13-1518-00M.COL___324                                                 6
 STAT SP IPHASW D HRMM SECON CODA AMPLIT PERI AZIMU VELO AIN AR TRES W  DIS CAZ7
 BRR  HN ES       1524 18.10                             154    0.6510 68.2 298 
 PAM  EZ EP       1524  2.10                             152    0.1910 77.8  42 
 PAM  EN ES       1524 19.26                             152   -0.4010 77.8  42 
 PAM  EZ I        1524 21.28         9.1 0.20            152           77.8  42 
 RUS  HN ES       1524 22.52                             144    0.0210  102 175 
 RUS  HZ I        1524 23.78         4.3 0.22            145            102 175 
 PTB  HZ EP       1524  6.35                             134    0.03 9  146 258 
 PTB  HN ES       1524 26.91                             134   -0.61 9  146 258 
 PTB  HZ I        1524 28.99         3.1 0.09            133            146 258 
 ZAR  HN ES       1524 36.83                             124   -0.11 9  201 292 
 ZAR  HZ I        1524 40.28         3.9 0.11            124            201 292 
 NOR  HN ES       1524 43.23                             120    0.19 8  234 234 
 NOR  HZ I        1524 45.74         2.9 0.10            120            234 234 
                                                                                
