 2011  913 1319 56.6 L   6.775 -73.088149.1  RSN 10 0.3 2.6LRSN                1
 GAP=145        0.56       2.4     4.4  3.9 -0.2009E+01  0.4847E+01  0.1940E+01E
 Epicentro: LOS SANTOS - SANTANDER                                             3
 ACTION:UPD 12-07-13 15:57 OP:ep   STATUS:               ID:20110913131956 L   I
 2011-09-13-1318-23S.COL___169                                                 6
 STAT SP IPHASW D HRMM SECON CODA AMPLIT PERI AZIMU VELO AIN AR TRES W  DIS CAZ7
 BAR2 SZ IP       1320 16.52                             171   -0.0610 22.7 207 
 BAR2 SZ ES   1   1320 31.87                             171   -0.32 7 22.7 207 
 BAR2 SZ I        1320 32.96        82.3 0.66                          22.7 207 
 PAM  SZ EP       1320 19.28                             152    0.2510 75.7  34 
 PAM  SN ES   1   1320 36.61                             152    0.04 7 75.7  34 
 BRR  HZ IP     D 1320 18.40                             151   -0.0610 78.1 298 
 BRR  HN ES   1   1320 35.91                             151    0.36 7 78.1 298 
 BRR  HZ I        1320 40.13        59.3 0.14                          78.1 298 
 RUS  HZ EP       1320 20.39                             145   -0.0410 97.6 180 
 RUS  HN ES   1   1320 39.13                             145    0.08 7 97.6 180 
 RUS  HZ I        1320 40.57        47.2 0.60                          97.6 180 
 OCA  SZ EP       1320 25.21                             130   -0.25 9  164 351 
 OCA  SZ ES   1   1320 47.91                             130   -0.10 7  164 351 
 OCA  SZ I        1320 52.72        39.1 0.27                           164 351 
 NOR  SZ EP       1320 32.66                             119   -0.21 8  238 236 
 NOR  SE ES   3   1321  1.25                             119    0.05 2  238 236 
 CHI  HZ EP       1320 34.51                             118    0.17 8  248 197 
 CHI  HN ES   3   1321  4.13                             118    0.31 2  248 197 
 CHI  HZ I        1321  9.65        27.2 0.36                           248 197 
 HEL  HZ EP   3   1320 38.46                             115    0.91 2  278 257 
 HEL  HE ES   3   1321  9.29                             115   -0.24 2  278 257 
 HEL  HZ I        1321 15.32        26.2 0.34                           278 257 
 TOL  SZ EP       1320 46.01                             110    0.77 6  346 226 
 PRA  HZ EP       1320 49.72                             107   -0.57 6  393 211 
 PRA  HE ES   2   1321 31.54                             107   -0.66 3  393 211 
                                                                                
