 2010 1013 1614 54.7 L   6.736 -73.105143.2  RSN  6 0.3 1.8LRSN                1
 GAP=194        0.72       6.0     7.4  6.3 -0.3099E+02 -0.1157E+01  0.2776E+01E
 Epicentro: JORDAN - SANTANDER                                                 3
 ACTION:UP  11-02-18 11:09 OP:tino STATUS:               ID:20101013161454 L   I
 2010-10-13-1611-14S.COL___125                                                 6
 STAT SP IPHASW D HRMM SECON CODA AMPLIT PERI AZIMU VELO SNR AR TRES W  DIS CAZ7
 BAR2 SZ EP       1615 14.06                             172     0.110   18 209 
 BAR2 SZ ES   1   1615 28.73                             172    -0.2 7   18 209 
 BAR2 SZ I        1615 30.11        11.8 0.29                            18 209 
 BTL  SZ EP       1615 14.47                             169     0.310   27 318 
 BRR  HZ IP     D 1615 15.89                             150    -0.210   79 301 
 BRR  HZ I        1615 16.05        20.8 0.14                            79 301 
 BRR  HN ES   1   1615 32.84                             150     0.2 7   79 301 
 GUE  SZ EP       1615 19.98                             137     0.310  123   9 
 GRA  SZ EP       1615 19.73                             135    -0.510  131  15 
 GRA  SZ I        1615 20.90         5.0 0.33                           131  15 
 GRA  SZ ES   1   1615 40.02                             135    -0.1 7  131  15 
 NOR  SZ EP       1615 30.37                             118     0.1 8  235 237 
 NOR  SN ES   1   1615 57.71                             118    -0.3 6  235 237 
                                                                                
