 2017  513 1541  2.3 L   6.776 -73.109133.3  RSN  4 0.3 1.3LRSN                1
 GAP=142        0.75       3.7     4.0  6.5  0.3199E+01  0.7642E+01  0.1231E+01E
 Epicentro: LOS SANTOS - SANTANDER                                             3
 ACTION:UPD 17-06-16 13:35 OP:jn   STATUS:               ID:20170513154102 L   I
 OLDACT:REG 17-05-13 19:26 OP:lv   STATUS:               ID:20170513153749     3
 2017-05-13-1538-00M.COL___324                                                 6
 STAT SP IPHASW D HRMM SECON CODA AMPLIT PERI AZIMU VELO AIN AR TRES W  DIS CAZ7
 BRR  HZ EP       1541 21.95                             148   -0.4210 76.1 299 
 BRR  HN ES       1541 38.41                             148    0.3510 76.1 299 
 PAM  EZ EP       1541 23.26                             149    0.1210 77.0  36 
 PAM  EE ES       1541 39.29                             149   -0.1310 77.0  36 
 PAM  EZ I        1541 42.74         2.5 0.26            151           77.0  36 
 RUS  HZ EP       1541 24.57                             142   -0.0110 97.7 178 
 RUS  HN ES       1541 41.99                             142   -0.0010 97.7 178 
 RUS  HZ I        1541 44.34                             145           97.7 178 
 ZAR  HZ EP       1541 34.93                             119    0.50 8  209 292 
 ZAR  HN ES       1541 59.17                             119   -0.36 8  209 292 
 ZAR  HZ I        1542  4.12         3.1 0.26            121            209 292 
                                                                                
