 2012  413 1942 29.8 L   6.780 -73.153144.0  RSN 10 0.4 2.0LRSN                1
 GAP=137        0.93       5.6     5.4  7.4  0.1983E+01  0.1132E+02  0.1227E+02E
 Epicentro: LOS SANTOS - SANTANDER                                             3
 ACTION:UPD 12-07-05 11:53 OP:tino STATUS:               ID:20120413194229 L   I
 2012-04-13-1940-00M.COL___181                                                 6
 STAT SP IPHASW D HRMM SECON CODA AMPLIT PERI AZIMU VELO AIN AR TRES W  DIS CAZ7
 BAR2 SZ EP   1   1942 49.10                             171     0.0 7   21 189 
 BAR2 SZ ES   1   1943  3.93                             171    -0.3 7   21 189 
 BAR2 SZ I        1943  6.93        25.5 0.24                            21 189 
 BRR  HZ EP   1   1942 50.96                             152     0.2 7   72 300 
 BRR  HN ES   1   1943  7.79                             152     0.7 7   72 300 
 PAM  SZ EP   1   1942 51.67                             150    -0.2 7   80  39 
 PAM  SZ I        1942 52.01        11.7 0.19                            80  39 
 PAM  SN ES   1   1943  9.14                             150    -0.1 7   80  39 
 RUS  HZ EP   1   1942 53.11                             144    -0.1 7   98 175 
 RUS  HN ES   1   1943 11.75                             144     0.3 7   98 175 
 RUS  HZ I        1943 13.58        12.0 0.43                            98 175 
 PTB  HZ EP   1   1942 55.94                             132    -0.5 7  147 260 
 PTB  HN ES   1   1943 16.58                             132    -0.7 7  147 260 
 PTB  HZ I        1943 20.44        10.1 0.19                           147 260 
 ZAR  HN ES   1   1943 27.31                             122     0.0 6  204 293 
 ZAR  HZ I        1943 33.28        17.0 0.28                           204 293 
 CHI  HZ EP   2   1943  6.51                             117    -0.6 4  246 195 
 CHI  HZ I        1943  9.46         2.9 0.21                           246 195 
 GUY  SZ EP   1   1943 14.07                             112     0.8 5  302 235 
 GUY  SZ I        1943 56.20        11.4 0.36                           302 235 
 RREF HZ EP   1   1943 16.35                             111     0.8 5  320 230 
 RREF HZ I        1943 59.57         4.8 0.41                           320 230 
 PRA  HZ EP   1   1943 22.69                             106    -0.2 4  390 210 
 PRA  HN ES   2   1944  4.46                             106     0.0 3  390 210 
                                                                                
