 2017 1213 1419 58.2 L   6.785 -73.136141.6  RSN  5 0.2 1.5LRSN                1
 GAP=261        0.53       3.4     3.6  4.4 -0.2458E+00  0.6375E+01 -0.1732E+01E
 Epicentro: LOS SANTOS - SANTANDER                                             3
 ACTION:UPD 18-01-04 13:20 OP:rebc STATUS:               ID:20171213141958 L   I
 OLDACT:REG 17-12-13 21:02 OP:osc  STATUS:               ID:20171213141737     3
 2017-12-13-1418-00M.COL___455                                                 6
 STAT SP IPHASW D HRMM SECON CODA AMPLIT PERI AZIMU VELO AIN AR TRES W  DIS CAZ7
 BAR2 EZ EP       1420 17.28                             171    0.0010 21.9 194 
 BAR2 EZ ES       1420 32.21                             171    0.0310 21.9 194 
 BAR2 EZ I        1420 33.52         8.0 0.16            171           21.9 194 
 PTB  HZ EP       1420 24.95                             131    0.07 9  149 260 
 PTB  HN ES       1420 46.09                             131    0.38 9  149 260 
 PTB  HZ I        1420 47.41         2.7 0.36            132            149 260 
 SPBC HN ES       1420 47.92                             128   -0.32 9  163 220 
 ZAR  HZ EP       1420 30.40                             121   -0.13 8  206 292 
 ZAR  HE ES       1420 55.54                             121   -0.22 8  206 292 
 GUY2CHZ EP       1420 41.81                             111    0.21 7  301 235 
 GUY2CHE ES       1421 15.45                             111    0.00 7  301 235 
 GUY2CHZ I        1421 23.73         2.0 0.34                           301 235 
                                                                                
