 2017  513 1058  6.9 L   6.797 -73.173147.6  RSN  9 0.4 1.9LRSN                1
 GAP=133        1.11       4.0     4.5  7.6 -0.1116E+01  0.5633E+01  0.6248E+01E
 Epicentro: LOS SANTOS - SANTANDER                                             3
 ACTION:UPD 17-06-16 13:35 OP:jn   STATUS:               ID:20170513105806 L   I
 OLDACT:DUP 17-05-13 20:49 OP:lv   STATUS:               ID:20170513104748d    3
 2017-05-13-1048-00M.COL___321                                                 6
 STAT SP IPHASW D HRMM SECON CODA AMPLIT PERI AZIMU VELO AIN AR TRES W  DIS CAZ7
 BRR  HZ EP       1058 28.46                             154    0.3910 68.7 300 
 BRR  HN ES       1058 45.60                             154    0.9910 68.7 300 
 BRR  HZ I        1058 48.85        19.6 0.17            153           68.7 300 
 PAM  EZ EP       1058 29.45                             150    0.0510 79.6  41 
 PAM  EN ES       1058 46.43                             150   -0.5510 79.6  41 
 PAM  EZ I        1058 49.15        16.8 0.72            154           79.6  41 
 RUS  HZ EP       1058 30.51                             144   -0.2710  101 174 
 RUS  HN ES       1058 49.36                             144   -0.0810  101 174 
 RUS  HZ I        1058 51.04         6.5 0.36            146            101 174 
 PTB  HZ EP       1058 33.34                             133   -0.36 9  145 259 
 PTB  HN ES       1058 53.81                             133   -0.83 9  145 259 
 PTB  HZ I        1058 56.38         4.7 0.27            133            145 259 
 SPBC HZ EP       1058 35.68                             130    0.39 9  161 218 
 SPBC HN ES       1058 57.65                             130    0.18 9  161 218 
 SPBC HZ I        1059  2.05        14.3 0.13            131            161 218 
 ZAR  HZ EP       1058 39.26                             123    0.11 9  201 293 
 ZAR  HN ES       1059  4.13                             123   -0.20 9  201 293 
 ZAR  HZ I        1059 10.03        18.1 0.04            124            201 293 
 NOR  HZ EP   4   1058 40.75                             119   -1.66 0  232 234 
 NOR  HN ES       1059  9.98                             119   -0.16 8  232 234 
 NOR  HZ I        1059 16.21         4.9 0.06            120            232 234 
 CHI  HZ EP       1058 44.75                             118    0.21 8  248 195 
 CHI  HN ES       1059 14.05                             118    0.12 8  248 195 
 CHI  HZ I        1059 17.77         6.2 0.05            119            248 195 
 SJC  HZ EP   4   1059  0.66                             106   -1.66 0  408 327 
 SJC  HN ES   4   1059 41.72                             106   -3.86 0  408 327 
 SJC  HZ I        1059 49.08         0.9 0.15            107            408 327 
                                                                                
