 2013  713 1012 45.0 L   6.809 -73.189147.1  RSN  7 0.4 1.8LRSN                1
 GAP=131        1.11       5.5     4.8  7.4  0.2436E+01  0.7941E+01 -0.2516E+01E
 Epicentro: ZAPATOCA - SANTANDER                                               3
 ACTION:UPD 13-08-12 10:37 OP:ep   STATUS:               ID:20130713101245 L   I
 OLDACT:REG 13-07-13 15:38 OP:stll STATUS:               ID:20130713100850     3
 2013-07-13-1008-50M.COL___222                                                 6
 STAT SP IPHASW D HRMM SECON CODA AMPLIT PERI AZIMU VELO AIN AR TRES W  DIS CAZ7
 BAR2 SZ EP       1013  4.85                             170    0.0910 24.0 178 
 BAR2 SZ ES       1013 20.17                             170   -0.0410 24.0 178 
 BAR2 SZ I        1013 22.49         7.6 0.22            171           24.0 178 
 GIR2 SZ EP       1013  4.99                             168    0.2410 29.8 359 
 BRR  HZ IP     C 1013  6.62                             154    0.6210 66.5 300 
 BRR  HN ES       1013 23.14                             154    0.7310 66.5 300 
 BRR  HN I        1013 24.55        25.6 0.20            154           66.5 300 
 PAM  SZ EP       1013  7.76                             150    0.3010 79.8  43 
 PAM  SN ES       1013 24.28                             150   -0.7310 79.8  43 
 PAM  SN I        1013 26.94         9.6 0.40            154           79.8  43 
 RUS  HZ EP       1013  8.99                             144    0.0410  102 173 
 RUS  HN ES       1013 27.38                             144   -0.2810  102 173 
 RUS  HN I        1013 28.47         6.4 0.20            146            102 173 
 PTB  HZ EP       1013 11.52                             133   -0.11 9  143 258 
 PTB  HN ES       1013 32.40                             133   -0.04 9  143 258 
 PTB  HN I        1013 37.79         8.0 0.26            134            143 258 
 ZAR  HZ EP       1013 16.50                             123   -0.50 9  199 292 
 ZAR  HE ES       1013 41.34                             123   -0.65 9  199 292 
                                                                                
