 2010  113 1354 48.0 L   6.830 -73.135146.4  RSN  5 0.4 2.2LRSN                1
 GAP=190        0.80       6.6    24.4 12.2 -0.9476E+02  0.1742E+03 -0.1860E+02E
 Epicentro: CEPITA - SANTANDER                                                 3
 ACTION:UP  10-08-24 09:43 OP:vdl  STATUS:               ID:20100113135448 L   I
 2010-01-13-1352-19S.COL___094                                                 6
 STAT SP IPHASW D HRMM SECON CODA AMPLIT PERI AZIMU VELO SNR AR TRES W  DIS CAZ7
 BAR2 SZ EP   1   1355  8.04                             170     0.3 7   27 192 
 BAR2 SZ ES   2   1355 22.79                             170    -0.4 5   27 192 
 GIR2 SZ EP       1355  7.69                             168     0.010   28 347 
 RUS  BZ EP   1   1355 11.95                             143    -0.1 7  104 177 
 RUS  BN ES   1   1355 31.19                             143     0.4 7  104 177 
 RUS  BZ I        1355 32.89        19.0 0.27                           104 177 
 CHI  HZ EP   1   1355 25.98                             117    -0.1 6  252 195 
 CHI  HE ES       1355 55.17                             117    -0.7 8  252 195 
 CHI  HZ I        1356  2.08         6.2 0.79                           252 195 
 PRA  HZ EP   2   1355 42.70                             106     0.8 3  395 209 
 PRA  HN ES   2   1356 24.98                             106     1.0 3  395 209 
 PRA  HZ I        1356 30.56         7.7 0.30                           395 209 
                                                                                
