 2010  313 1923  1.5 L   6.790 -73.061143.8  RSN  8 0.4 2.1LRSN                1
 GAP=191        0.55       2.7     6.4  5.2  0.4121E+01 -0.2239E+01  0.4453E+01E
 Epicentro: LOS SANTOS - SANTANDER                                             3
 ACTION:UP  10-08-24 09:53 OP:vdl  STATUS:               ID:20100313192301 L   I
 2010-03-13-1921-04S.COL___095                                                 6
 STAT SP IPHASW D HRMM SECON CODA AMPLIT PERI AZIMU VELO SNR AR TRES W  DIS CAZ7
 BAR2 SZ EP   1   1923 20.87                             169    -0.1 7   26 212 
 BAR2 SZ ES   2   1923 35.72                             169    -0.4 5   26 212 
 BRR  HZ EP       1923 22.88                             149    -0.110   80 296 
 BRR  HN ES       1923 39.71                             149     0.010   80 296 
 RUS  HZ EP       1923 25.00                             144     0.010   99 181 
 RUS  HZ I        1923 26.18        10.0 0.10                            99 181 
 RUS  HN ES   1   1923 43.23                             144     0.0 7   99 181 
 OCA  SZ ES   1   1923 52.09                             129     0.1 7  163 350 
 OCA  SZ I        1923 55.95        26.9 0.12                           163 350 
 CHI  HZ EP   2   1923 38.83                             116    -0.4 4  250 197 
 CHI  HN ES   1   1924  9.21                             116     0.5 6  250 197 
 CHI  HZ I        1924 15.94         4.6 0.83                           250 197 
 RREF BN ES   3   1924 25.32                             110     0.5 2  328 231 
 RREF BZ I        1924 32.23         5.4 0.65                           328 231 
 TOL  SZ ES   3   1924 27.20                             108    -1.2 2  349 226 
 PRA  HZ EP       1923 55.67                             106     0.3 6  396 211 
 PRA  HN ES   2   1924 36.34                             106    -1.1 3  396 211 
 PRA  HZ I        1924 43.41         5.9 0.32                           396 211 
                                                                                
