 2011  313 1850 45.3 L   6.769 -73.286133.6  RSN  6 0.4 1.7LRSN                1
 GAP=127        0.99       5.1     9.6  9.6 -0.2733E+02  0.4146E+02 -0.9950E+01E
 Epicentro: ZAPATOCA - SANTANDER                                               3
 ACTION:UP  11-06-16 14:33 OP:jfem STATUS:               ID:20110313185045 L   I
 2011-03-13-1849-25S.COL___134                                                 6
 STAT SP IPHASW D HRMM SECON CODA AMPLIT PERI AZIMU VELO SNR AR TRES W  DIS CAZ7
 BAR2 SZ EP       1851  3.67                             171     0.210   23 150 
 BAR2 SZ ES   1   1851 17.91                             171     0.3 7   23 150 
 BAR2 SZ I        1851 19.75        19.8 0.37                            23 150 
 RUS  HZ EP       1851  7.35                             142    -0.510   99 167 
 RUS  HN ES   1   1851 25.25                             142    -0.1 7   99 167 
 RUS  HZ I        1851 27.35         6.8 0.25                            99 167 
 GRA  SZ EP       1851 10.28                             132     0.010  134  23 
 GRA  SZ ES   1   1851 29.56                             132    -0.2 7  134  23 
 GRA  SZ I        1851 31.95         7.9 0.27                           134  23 
 OCA  SZ EP   3   1851 12.30                             126    -0.7 2  163 359 
 OCA  SZ ES   3   1851 33.79                             126    -0.7 2  163 359 
 NOR  SZ EP       1851 19.76                             117     0.9 8  220 233 
 NOR  SE ES   1   1851 44.42                             117    -0.5 6  220 233 
 CHI  HZ EP   1   1851 21.79                             115     0.2 6  242 192 
 CHI  HN ES   1   1851 49.35                             115    -0.6 6  242 192 
 CHI  HZ I        1851 53.03         2.6 0.21                           242 192 
                                                                                
