 2017  513 1209  5.6 L   6.776 -73.148148.4  RSN  7 0.4 1.8LRSN                1
 GAP=137        1.00       4.2     4.4  7.0 -0.9011E+00  0.7074E+01  0.3165E+01E
 Epicentro: LOS SANTOS - SANTANDER                                             3
 ACTION:UPD 17-06-16 13:35 OP:jn   STATUS:               ID:20170513120905 L   I
 OLDACT:REG 17-05-13 19:08 OP:lv   STATUS:               ID:20170513120745     3
 2017-05-13-1208-00M.COL___324                                                 6
 STAT SP IPHASW D HRMM SECON CODA AMPLIT PERI AZIMU VELO AIN AR TRES W  DIS CAZ7
 BRR  HZ EP       12 9 27.30                             153    0.1810 72.2 300 
 BRR  HN ES       12 9 44.44                             153    0.5610 72.2 300 
 PAM  EZ EP       12 9 28.34                             151    0.0810 79.6  38 
 PAM  EN ES       12 9 45.54                             151   -0.3710 79.6  38 
 PAM  EZ I        12 9 47.25         5.6 0.27            154           79.6  38 
 RUS  HZ EP       12 9 29.29                             145   -0.1610 98.0 176 
 RUS  HN ES       12 9 48.19                             145    0.1510 98.0 176 
 PTB  HZ EP       12 9 32.21                             133   -0.53 9  147 260 
 PTB  HN ES       12 9 53.00                             133   -0.88 9  147 260 
 PTB  HZ I        12 9 59.05         8.4 0.31            132            147 260 
 SPBC HZ EP       12 9 34.44                             130    0.32 9  161 219 
 SPBC HN ES       12 9 56.43                             130    0.09 9  161 219 
 ZAR  HZ EP       12 9 38.18                             123   -0.14 9  205 293 
 ZAR  HN ES       1210  4.21                             123    0.39 9  205 293 
 ZAR  HZ I        1210  9.55         7.4 0.12            123            205 293 
 NOR  HZ EP       12 9 41.71                             119    0.39 8  233 235 
 NOR  HN ES   4   1210 10.78                             119    1.62 0  233 235 
 NOR  HZ I        1210 13.35         5.8 0.22            120            233 235 
 SJC  HZ EP   4   1210  0.25                             106   -1.27 0  411 327 
 SJC  HN ES   4   1210 40.97                             106   -4.14 0  411 327 
                                                                                
