 2016  913 1212  0.6 L   6.570 -73.448111.1  RSN  5 0.2 1.4LRSN                1
 GAP=101        0.52       2.3     2.6  5.3 -0.3505E+00  0.8537E+01 -0.4340E+00E
 Epicentro: EL CARMEN - SANTANDER                                              3
 ACTION:UPD 17-08-17 21:09 OP:lp   STATUS:               ID:20160913121200 L   I
 OLDACT:REG 16-09-13 21:03 OP:dnl  STATUS:               ID:20160913120737     3
 2016-09-13-1208-00M.COL___315                                                 6
 STAT SP IPHASW D HRMM SECON CODA AMPLIT PERI AZIMU VELO AIN AR TRES W  DIS CAZ7
 BAR2 EZ EP       1212 16.30                             164    0.0010 29.5  85 
 BAR2 EZ ES       1212 28.55                             164    0.0410 29.5  85 
 BAR2 EZ I        1212 30.55        26.2 0.32            166           29.5  85 
 RUS  HZ EP       1212 19.63                             140   -0.2610 85.1 152 
 RUS  HE ES       1212 34.83                             140   -0.0810 85.1 152 
 RUS  HN ES       1212 35.17                                           85.1 152 
 RUS  HZ I        1212 36.44         2.0 0.24            143           85.1 152 
 PAM  EZ EP   2   1212 22.60                             130   -0.19 5  119  44 
 PAM  EN ES       1212 40.33                             130    0.2610  119  44 
 PAM  EZ I        1212 41.88         3.2 0.40            132            119  44 
 ZAR  HZ EP   2   1212 29.34                             116    0.23 4  186 303 
 ZAR  HE ES       1212 51.03                             116   -0.29 9  186 303 
 ZAR  HZ I        1212 52.53         5.6 0.56            118            186 303 
 GUY2CHZ EP   2   1212 38.21                             108    0.24 4  259 235 
 GUY2CHE ES       1213  7.48                             108    0.38 8  259 235 
 GUY2CHZ I        1213 10.86         1.5 0.54                           259 235 
                                                                                
