 2017 1013 1415  8.9 L   6.846 -73.291118.5  RSN  5 0.2 1.0LRSN                1
 GAP=215        0.50       4.1     4.1  3.9  0.1278E+02 -0.2171E+01 -0.2348E+01E
 Epicentro: ZAPATOCA - SANTANDER                                               3
 ACTION:UPD 17-11-07 19:31 OP:rebc STATUS:               ID:20171013141508 L   I
 OLDACT:REG 17-10-13 21:35 OP:lv   STATUS:               ID:20171013140737     3
 2017-10-13-1408-00M.COL___432                                                 6
 STAT SP IPHASW D HRMM SECON CODA AMPLIT PERI AZIMU VELO AIN AR TRES W  DIS CAZ7
 BAR2 EZ EP       1415 25.42                             165   -0.0210 30.5 157 
 BAR2 EZ ES       1415 38.31                             165   -0.0610 30.5 157 
 BRR  HZ EP       1415 25.87                             153   -0.2810 54.7 302 
 BRR  HN ES       1415 39.84                             153    0.2210 54.7 302 
 BRR  HZ I        1415 40.58         6.8 0.13            150           54.7 302 
 RUS  HZ EP       1415 30.88                             135    0.2110  108 168 
 RUS  HN ES       1415 47.60                             135   -0.0810  108 168 
 RUS  HZ I        1415 48.95         1.6 0.16            132            108 168 
 PTB  HZ EP   9   1415 30.69                             128   -1.65 0  133 255 
 PTB  HN ES       1415 48.77                                   -0.2210  133 255 
 PTB  HZ I        1415 54.35         1.0 0.14            124            133 255 
 ZAR  HE ES       1416  0.51                             118    0.02 9  187 293 
                                                                                
