 2013 1213 1347 40.0 L   6.776 -73.134153.9  RSN  5 0.4 1.5LRSN                1
 GAP=139        1.05       6.5     5.9 10.4 -0.7620E+01  0.4314E+01  0.2097E+00E
 Epicentro: LOS SANTOS - SANTANDER                                             3
 ACTION:UPD 14-01-13 10:17 OP:ep   STATUS:               ID:20131213134740 L   I
 OLDACT:REG 13-12-13 14:36 OP:cam  STATUS:               ID:20131213134000     3
 2013-12-13-1340-00M.COL___285                                                 6
 STAT SP IPHASW D HRMM SECON CODA AMPLIT PERI AZIMU VELO AIN AR TRES W  DIS CAZ7
 BAR2 SZ EP       1348  0.59                             172    0.0310 21.0 195 
 BRR  HZ EP   1   1348  2.52                             153    0.37 7 73.6 300 
 BRR  HN ES       1348 20.05                             153    0.6110 73.6 300 
 PAM  SZ EP       1348  3.45                             152    0.3010 78.7  38 
 PAM  SN ES       1348 20.61                             152   -0.6110 78.7  38 
 PAM  SN I        1348 21.25         5.9 0.18            154           78.7  38 
 RUS  HN ES       1348 23.50                             146    0.1210 97.9 177 
 PTB  HZ EP   1   1348  7.23                             134   -0.47 7  148 260 
 PTB  HN ES       1348 28.81                             134   -0.50 9  148 260 
 PTB  HZ I        1348 34.79         2.8 0.26            132            148 260 
                                                                                
