 2015  413 1717 18.4 L   6.855 -73.302126.0  RSN 12 0.4 2.3LRSN                1
 GAP=104        1.00       3.5     4.0  6.6 -0.2439E+01  0.1015E+02 -0.5723E+00E
 Epicentro: BETULIA - SANTANDER                                                3
 ACTION:UPD 15-06-03 16:54 OP:cam  STATUS:               ID:20150413171718 L   I
 OLDACT:REG 15-04-13 20:02 OP:spq  STATUS:               ID:20150413170748     3
 2015-04-13-1707-48M.COL___269                                                 6
 STAT SP IPHASW D HRMM SECON CODA AMPLIT PERI AZIMU VELO AIN AR TRES W  DIS CAZ7
 BAR2 EZ EP       1717 36.17                             165    0.2810 31.9 155 
 BAR2 EZ ES   1   1717 49.17                             165   -0.37 7 31.9 155 
 BAR2 EZ I        1717 50.53       177.8 0.26            167           31.9 155 
 BRR  HZ EP     D 1717 36.53                             156    0.1110 53.2 302 
 BRR  HN ES       1717 50.57                             156    0.1010 53.2 302 
 BRR  HZ I        1717 51.54        59.3 0.12            154           53.2 302 
 PAM  SZ EP       1717 39.30                             144    0.1910 85.5  51 
 PAM  SN ES       1717 55.68                             144    0.4110 85.5  51 
 PAM  SZ I        1717 57.96        27.8 0.26            148           85.5  51 
 RUS  HZ EP   1   1717 41.20                             137    0.24 7  109 167 
 RUS  HN ES   1   1717 58.20                             137   -0.35 7  109 167 
 RUS  HZ I        1717 59.81        10.4 0.26            139            109 167 
 PTB  HZ EP       1717 41.44                             130   -0.9210  132 255 
 PTB  HN ES   4   1717 59.07                             130   -1.98 0  132 255 
 PTB  HZ I        1718  3.42        33.7 0.30            130            132 255 
 OCA  HZ EP   1   1717 44.52                             126   -0.02 7  153 359 
 OCA  HN ES       1718  4.06                             126   -0.86 9  153 359 
 OCA  HZ I        1718  8.54        56.5 0.10            128            153 359 
 ZAR  HZ EP       1717 47.96                             120    0.27 9  186 292 
 ZAR  HE ES       1718 11.23                             120    0.70 9  186 292 
 ZAR  HZ I        1718 16.58        26.3 0.38            121            186 292 
 NOR  HZ EP   1   1717 51.97                             115    0.02 6  225 231 
 NOR  HN ES   1   1718 18.25                             115    0.14 6  225 231 
 NOR  HZ I        1718 24.31        14.1 0.16            116            225 231 
 SML  HZ EP       1717 52.64                             114    0.02 8  231 339 
 HEL  HZ EP   4   1717 57.51                             112    1.54 0  257 254 
 HEL  HE ES   1   1718 24.93                             112   -0.34 6  257 254 
 HEL  HZ I        1718 30.19        10.1 0.52            113            257 254 
 GUY2CHZ EP   4   1718  1.64                             109    1.65 0  291 232 
 GUY2CHN ES   1   1718 32.61                             109    0.19 5  291 232 
 GUY2CHZ I        1718 39.79         8.9 0.50                           291 232 
 MON  HN ES   4   1718 39.35                             106   -1.42 0  336 309 
 MON  HZ I        1718 41.59         4.6 0.26            107            336 309 
                                                                                
