 2013  813 1139 41.9 L   6.789 -73.167141.7  RSN  6 0.5 1.7LRSN                1
 GAP=180        1.22       7.2     7.0  7.9  0.2211E+02  0.1551E+02  0.4479E+01E
 Epicentro: LOS SANTOS - SANTANDER                                             3
 ACTION:UPD 14-01-14 09:01 OP:ep   STATUS:               ID:20130813113941 L   I
 OLDACT:REG 13-08-13 18:20 OP:mh   STATUS:               ID:20130813113850     3
 2013-08-13-1138-50M.COL___217                                                 6
 STAT SP IPHASW D HRMM SECON CODA AMPLIT PERI AZIMU VELO AIN AR TRES W  DIS CAZ7
 BAR2 SZ EP       1140  0.97                             171   -0.0310 21.8 185 
 BAR2 SZ ES       1140 15.13                             171   -0.7810 21.8 185 
 BAR2 SZ I        1140 16.82        14.2 0.34            171           21.8 185 
 GIR2 SZ EP       1140  1.00                             167   -0.1110 32.2 355 
 GIR2 SZ ES       1140 15.84                             167   -0.2510 32.2 355 
 GIR2 SZ I        1140 17.68        11.0 0.30            166           32.2 355 
 BRR  HZ EP       1140  2.63                             152    0.1110 69.8 300 
 BRR  HN ES       1140 19.48                             152    0.8710 69.8 300 
 BRR  HZ I        1140 23.40        12.9 0.26            151           69.8 300 
 RUS  HZ EP       1140  5.43                             143    0.2610 99.5 175 
 RUS  HN ES       1140 23.92                             143    0.6010 99.5 175 
 RUS  HZ I        1140 25.53         4.0 0.34            146           99.5 175 
 PTB  HZ EP       1140  7.63                             132   -0.67 9  145 259 
 PTB  HN ES       1140 28.51                             132   -0.39 9  145 259 
 PTB  HZ I        1140 30.07         6.0 0.18            132            145 259 
 ZAR  HZ EP       1140 14.04                             122    0.14 9  202 293 
 ZAR  HE ES       1140 39.11                             122    0.24 9  202 293 
 ZAR  HZ I        1140 44.20         5.1 0.32            123            202 293 
                                                                                
