 2017 1213 1717  7.5 L   6.746 -73.147144.0  RSN  7 0.4 1.7LRSN                1
 GAP=156        0.93       4.6     4.5  6.8 -0.7742E+01  0.9353E+01  0.2396E+00E
 Epicentro: LOS SANTOS - SANTANDER                                             3
 ACTION:UPD 18-01-04 13:20 OP:rebc STATUS:               ID:20171213171707 L   I
 OLDACT:DUP 17-12-14 00:26 OP:osc  STATUS:               ID:20171213170745d    3
 OLDACT:DUP 17-12-14 00:13 OP:osc  STATUS:               ID:20171213170744d    3
 2017-12-13-1708-00M.COL___452                                                 6
 STAT SP IPHASW D HRMM SECON CODA AMPLIT PERI AZIMU VELO AIN AR TRES W  DIS CAZ7
 BAR2 EZ EP       1717 27.05                             173    0.2610 17.5 193 
 BAR2 EZ ES       1717 41.71                             173   -0.1410 17.5 193 
 BAR2 EZ I        1717 44.68        13.9 0.28            173           17.5 193 
 PAM  EZ EP       1717 29.85                             149    0.0510 82.1  37 
 PAM  EN ES       1717 47.00                             149   -0.2110 82.1  37 
 PAM  EZ I        1717 51.56         3.6 0.48            151           82.1  37 
 PTB  HZ EP       1717 33.82                             132   -0.37 9  147 261 
 PTB  HN ES       1717 54.60                             132   -0.43 9  147 261 
 PTB  HZ I        1717 58.02         4.6 0.14            132            147 261 
 SPBC HZ EP       1717 35.87                             129    0.47 9  158 220 
 SPBC HN ES       1717 57.78                             129    0.60 9  158 220 
 SPBC HZ I        1718  0.38         8.0 0.03            131            158 220 
 ZAR  HZ EP       1717 40.08                             122    0.05 8  206 294 
 ZAR  HN ES       1718  5.67                             122    0.24 8  206 294 
 ZAR  HZ I        1718 13.20         4.5 0.54            122            206 294 
 GUY2CHZ EP   9   1717 52.60                             112    1.99 0  298 236 
 GUY2CHE ES       1718 26.58                             112    0.34 7  298 236 
 GUY2CHZ I        1718 33.96         6.9 0.92                           298 236 
 PRA  HE ES       1718 40.49                             106   -1.05 6  387 210 
 PRA  HZ I        1718 49.19         2.4 0.48            108            387 210 
                                                                                
