 2010  113 1321 57.7 L   6.747 -73.077134.4  RSN  5 0.4 1.7LRSN                1
 GAP=217        0.63       6.6     8.8  8.5 -0.6244E+01  0.2807E+02  0.2729E+02E
 Epicentro: LOS SANTOS - SANTANDER                                             3
 ACTION:UP  10-08-24 09:43 OP:vdl  STATUS:               ID:20100113132157 L   I
 2010-01-13-1319-44S.COL___094                                                 6
 STAT SP IPHASW D HRMM SECON CODA AMPLIT PERI AZIMU VELO SNR AR TRES W  DIS CAZ7
 BAR2 SZ IP       1322 15.93                             171     0.110   21 215 
 BAR2 SZ ES   2   1322 29.98                             171    -0.1 5   21 215 
 GIR2 SZ EP   1   1322 16.04                             163    -0.2 7   39 341 
 GIR2 SZ ES   2   1322 30.95                             163     0.2 5   39 341 
 CHI  HZ EP   1   1322 33.77                             115    -0.6 6  245 197 
 CHI  HN ES   2   1323  3.56                             115     0.6 4  245 197 
 CHI  HZ I        1323  8.31         2.2 0.36                           245 197 
 HEL  HZ EP   1   1322 38.37                             112     0.4 6  278 257 
 HEL  HN ES   2   1323  8.97                             112    -0.5 4  278 257 
 HEL  HZ I        1323 15.69         4.9 0.54                           278 257 
 PRA  HZ EP   1   1322 51.40                             105     0.7 4  391 211 
 PRA  HN ES   2   1323 31.56                             105    -0.5 3  391 211 
                                                                                
