 2017  313 1141 31.0 L   6.823 -73.105142.1  RSN 13 0.6 2.1LRSN                1
 GAP=141        1.20       4.3     4.7  6.8 -0.2227E+01  0.6870E+01  0.8005E+01E
 Epicentro: LOS SANTOS - SANTANDER                                             3
 ACTION:UPD 17-05-25 18:40 OP:jn   STATUS:               ID:20170313114131 L   I
 OLDACT:UP  17-03-13 23:16 OP:y    STATUS:               ID:20170313113744     3
 OLDACT:REG 17-03-13 20:56 OP:dnl  STATUS:               ID:20170313113744     3
 2017-03-13-1138-00M.COL___393                                                 6
 STAT SP IPHASW D HRMM SECON CODA AMPLIT PERI AZIMU VELO AIN AR TRES W  DIS CAZ7
 BAR2 EZ IP     C 1141 49.98                             169   -0.2510 26.9 199 
 BAR2 EZ ES       1142  4.55                             169   -0.7110 26.9 199 
 BAR2 EZ I        1142  6.03        35.9 0.22            166           26.9 199 
 PAM  EZ IP     C 1141 52.96                             151    0.4610 72.6  38 
 PAM  EN ES       1142  9.76                             151    0.4510 72.6  38 
 PAM  EZ I        1142 12.01        20.4 0.44            146           72.6  38 
 BRR  HZ IP     C 1141 51.84                             151   -0.0410 74.1 295 
 BRR  HN ES       1142  8.48                             151    0.2810 74.1 295 
 BRR  HZ I        1142  9.25        17.2 0.28            142           74.1 295 
 RUS  HZ EP       1141 54.05                             142   -0.4810  103 179 
 RUS  HE ES       1142 12.88                             142   -0.0310  103 179 
 RUS  HZ I        1142 14.23        10.7 0.40            137            103 179 
 PTB  HZ EP   9   1141 56.71                             130   -1.38 0  153 258 
 PTB  HN ES       1142 17.26                             130   -0.61 9  153 258 
 PTB  HZ I        1142 20.66        18.1 0.20            122            153 258 
 SPBC HZ EP       1141 59.22                             127   -0.43 9  168 220 
 SPBC HE ES       1142 23.10                             127    1.08 9  168 220 
 SPBC HZ I        1142 25.62        19.1 0.26            120            168 220 
 ZAR  HZ EP   2   1142  3.34                             121   -0.17 4  207 291 
 ZAR  HE ES       1142 28.77                             121   -0.13 8  207 291 
 ZAR  HZ I        1142 34.11        14.2 0.30            114            207 291 
 CHI  HZ EP       1142  8.27                             116   -0.59 8  252 196 
 CHI  HE ES       1142 38.56                             116    0.14 8  252 196 
 CHI  HZ I        1142 43.60         4.9 0.26            110            252 196 
 ROSC BZ EP   2   1142 10.54                             115    1.16 4  257 212 
 ROSC BE ES   4   1142 42.91                             115    3.56 0  257 212 
 ROSC BZ I        1142 46.51        14.5 0.45            109            257 212 
 HEL  HZ EP   2   1142 11.09                             113   -0.46 4  277 256 
 HEL  HE ES       1142 42.22                             113   -0.98 7  277 256 
 HEL  HZ I        1142 49.72         7.5 0.36            107            277 256 
 GUY2CHZ EP   4   1142 16.52                             111    1.53 0  306 235 
 GUY2CHN ES       1142 50.22                             111    0.89 7  306 235 
 GUY2CHZ  IAML    1142 55.46         6.5 0.30                           306 235 
 CBOC HZ EP   2   1142 18.91                             109    0.60 3  339 252 
 CBOC HZ I        1142 55.91         2.9 0.28            103            339 252 
 PRA  HZ EP   2   1142 24.51                             106   -0.37 3  396 210 
 PRA  HE ES       1143  7.38                             106    0.45 6  396 210 
 PRA  HZ I        1143 11.69         5.3 0.32            100            396 210 
                                                                                
