 2017  813 1131 30.7 L   6.734 -73.176150.7  RSN  5 0.2 1.4LRSN                1
 GAP=229        0.62       3.8     4.9  5.6  0.9283E+01  0.6359E+01  0.4897E+00E
 Epicentro: VILLANUEVA - SANTANDER                                             3
 ACTION:UPD 17-09-04 20:19 OP:rebc STATUS:               ID:20170813113130 L   I
 OLDACT:UP  17-08-14 03:37 OP:edw  STATUS:               ID:20170813112739     3
 OLDACT:REG 17-08-14 02:40 OP:osc  STATUS:               ID:20170813112739     3
 2017-08-13-1128-00M.COL___410                                                 6
 STAT SP IPHASW D HRMM SECON CODA AMPLIT PERI AZIMU VELO AIN AR TRES W  DIS CAZ7
 BAR2 EZ ES       1132  6.43                             174   -0.0710 15.7 182 
 BRR  HZ EP     D 1131 52.04                             153   -0.4310 72.1 305 
 BRR  HE ES       1132  9.67                             153    0.2510 72.1 305 
 RUS  HZ EP       1131 54.83                             147    0.3410 93.6 174 
 RUS  HN ES       1132 12.93                             147   -0.0910 93.6 174 
 RUS  HZ I        1132 14.78         3.5 0.42            147           93.6 174 
 SPBC HN ES       1132 20.79                             132   -0.07 9  155 220 
 ZAR  HZ EP   2   1132  3.75                             123    0.27 4  204 294 
 ZAR  HN ES       1132 29.03                             123    0.01 9  204 294 
 ZAR  HZ I        1132 32.25         2.6 0.26            123            204 294 
                                                                                
