 2017  713 1356 26.5 L   6.829 -73.204130.4  RSN  5 0.4 1.3LRSN                1
 GAP=128        1.04       5.2     4.9  7.7 -0.2281E+01  0.5157E+01  0.2667E+01E
 Epicentro: ZAPATOCA - SANTANDER                                               3
 ACTION:UPD 17-08-30 15:32 OP:rebc STATUS:               ID:20170713135626 L   I
 OLDACT:REG 17-07-13 20:21 OP:dani STATUS:               ID:20170713134737     3
 2017-07-13-1348-00M.COL___371                                                 6
 STAT SP IPHASW D HRMM SECON CODA AMPLIT PERI AZIMU VELO AIN AR TRES W  DIS CAZ7
 BAR2 EZ EP       1356 44.24                             168   -0.1110 26.3 175 
 BAR2 EZ ES       1356 58.05                             168   -0.2310 26.3 175 
 BAR2 EZ I        1357  0.51         6.7 0.34            167           26.3 175 
 BRR  HZ EP       1356 46.18                             152    0.6110 64.1 299 
 BRR  HN ES       1356 59.90                             152   -0.5610 64.1 299 
 BRR  HZ I        1357  1.14         9.9 0.46            153           64.1 299 
 PAM  EZ EP       1356 47.22                             147   -0.0010 79.3  45 
 PAM  EN ES       1357  3.67                             147    0.2810 79.3  45 
 PAM  EZ I        1357  6.41         4.0 0.49            151           79.3  45 
 RUS  HZ EP       1356 48.64                             139   -0.4210  104 173 
 RUS  HN ES       1357  7.01                             139    0.3410  104 173 
 RUS  HZ I        1357  9.60         1.7 0.23            141            104 173 
 PTB  HZ EP       1356 51.30                             129   -0.42 9  142 257 
 PTB  HN ES       1357 11.92                             129    0.52 9  142 257 
 PTB  HZ I        1357 18.53         1.7 0.36            131            142 257 
                                                                                
