 2014  413 1949 44.3 L   6.779 -73.110145.8  RSN  4 0.1 1.2LRSN                1
 GAP=142        0.29       1.4     2.4  2.8 -0.7582E+00 -0.2591E+00  0.1442E+01E
 Epicentro: LOS SANTOS - SANTANDER                                             3
 ACTION:UPD 14-05-13 23:08 OP:nd   STATUS:               ID:20140413194944 L   I
 OLDACT:UP  14-04-14 00:23 OP:cam  STATUS:               ID:20140413194818     3
 OLDACT:REG 14-04-13 22:39 OP:cam  STATUS:               ID:20140413194818     3
 2014-04-13-1948-18M.COL___272                                                 6
 STAT SP IPHASW D HRMM SECON CODA AMPLIT PERI AZIMU VELO AIN AR TRES W  DIS CAZ7
 BRR  HZ EP   1   1950  5.76                             151    0.06 7 75.8 299 
 BRR  HN ES       1950 22.37                             151   -0.0310 75.8 299 
 PAM  SZ EP     D 1950  6.49                             151    0.0210 76.8  36 
 PAM  SN ES       1950 23.78                             151    0.0110 76.8  36 
 PAM  SZ I        1950 25.73         4.0 0.22            151           76.8  36 
 RUS  HZ EP   1   1950  7.86                             144   -0.00 7 98.1 178 
 RUS  HN ES       1950 26.21                             144   -0.0410 98.1 178 
 RUS  HZ I        1950 27.89         2.1 0.24            145           98.1 178 
 CHI  HZ EP   1   1950 21.68                             117   -0.18 6  247 196 
 CHI  HN ES       1950 51.28                             117    0.11 8  247 196 
                                                                                
