 2012  213 1555 44.5 L   7.296 -73.087141.5  RSN  5 0.2 1.4LRSN                1
 GAP=190        0.38       9.6     4.1  4.8 -0.2757E+02 -0.2166E+01  0.1710E+02E
 ACTION:UP  12-03-07 16:30 OP:epov STATUS:               ID:20120213155544 L   I
 2012-02-13-1550-00M.COL___188                                                 6
 STAT SP IPHASW D HRMM SECON CODA AMPLIT PERI AZIMU VELO AIN AR TRES W  DIS CAZ7
 GIR2 SZ EP   2   1556  3.52                             169   -0.05 5 26.7 206 
 PAM  SZ EP   1   1556  4.85                             162    0.26 7 43.0  84 
 PAM  SN ES   1   1556 20.12                             162   -0.12 7 43.0  84 
 BRR  HZ EP   1   1556  5.00                             151   -0.27 7 72.1 253 
 BRR  HZ I        1556  5.23         7.6 0.14                          72.1 253 
 BRR  HE ES   1   1556 21.55                             151    0.10 7 72.1 253 
 RUS  HZ EP   2   1556 12.45                             130   -0.03 5  155 180 
 RUS  HZ I        1556 16.00         1.6 0.35                           155 180 
 PTB  HZ EP   1   1556 13.58                             126    0.03 7  173 241 
 PTB  HE ES   1   1556 36.22                             126    0.04 7  173 241 
                                                                                
