 2017 1113 1721 19.7 L   6.467 -73.548102.9  RSN  5 0.3 1.3LRSN                1
 GAP=123        0.65       3.4     2.9  5.5  0.2328E+01  0.6765E+01 -0.1076E+01E
 Epicentro: SANTA HELENA DEL OPON - SANTANDER                                  3
 ACTION:UPD 17-12-12 19:55 OP:rebc STATUS:               ID:20171113172119 L   I
 OLDACT:DUP 17-11-14 00:01 OP:lv   STATUS:               ID:20171113171749d    3
 OLDACT:REG 17-11-13 22:01 OP:lv   STATUS:               ID:20171113171746     3
 2017-11-13-1718-00M.COL___453                                                 6
 STAT SP IPHASW D HRMM SECON CODA AMPLIT PERI AZIMU VELO AIN AR TRES W  DIS CAZ7
 BAR2 EZ EP       1721 34.51                             156   -0.4210 42.7  71 
 BAR2 EZ ES       1721 47.09                             156    0.2510 42.7  71 
 BAR2 EZ I        1721 48.31         8.9 0.42            156           42.7  71 
 RUS  HZ EP       1721 37.98                             139    0.1010 81.8 141 
 RUS  HN ES       1721 52.01                             139   -0.0910 81.8 141 
 RUS  HZ I        1721 56.88         1.8 0.34            139           81.8 141 
 PTB  HZ EP   9   1721 37.41                             132   -1.45 0  101 275 
 PTB  HN ES       1721 52.45                             131    0.0610  101 275 
 PTB  HZ I        1721 53.75         5.1 0.18            134            101 275 
 NOR  HN ES       1722  7.93                             115    0.03 9  177 236 
 ZAR  HZ EP       1721 47.86                             114    0.41 9  184 308 
 ZAR  HN ES       1722  8.89                             114   -0.24 9  184 308 
 ZAR  HZ I        1722 10.90         4.5 0.50            116            184 308 
                                                                                
