 2011  513 1007 48.8 L   6.767 -73.058152.1  RSN  5 0.2 1.2LRSN                1
 GAP=150        0.45       4.7     7.3  7.8  0.7581E+00  0.2715E+01 -0.1319E+00E
 Epicentro: LOS SANTOS - SANTANDER                                             3
 ACTION:UP  11-06-29 08:53 OP:tino STATUS:               ID:20110513100748 L   I
 2011-05-13-1003-15S.COL___138                                                 6
 STAT SP IPHASW D HRMM SECON CODA AMPLIT PERI AZIMU VELO SNR AR TRES W  DIS CAZ7
 BAR2 SZ EP   1   10 8  9.16                             171    -0.1 7   24 215 
 BAR2 SZ I        10 8 26.01         5.6 0.08                            24 215 
 PAM  SE ES   2   10 8 29.21                             153    -0.1 5   75  32 
 BRR  HZ EP   1   10 8 11.37                             150     0.1 7   81 298 
 BRR  HN ES   2   10 8 28.66                             150    -0.1 5   81 298 
 BRR  HZ I        10 8 28.74         4.8 0.40                            81 298 
 RUS  HZ EP   2   10 8 12.60                             146    -0.4 5   97 182 
 RUS  HE ES   2   10 8 32.08                             146     0.3 5   97 182 
 RUS  HZ I        10 8 32.77         1.0 0.58                            97 182 
 GRA  SZ EP   2   10 8 15.03                             138     0.3 5  127  13 
 GRA  SZ I        10 8 39.13         1.5 0.36                           127  13 
                                                                                
