 2010  613 1918 53.5 L   6.764 -72.805129.5  RSN  5 0.5 1.9LRSN                1
 GAP=198        0.78       4.8    24.0 12.2 -0.3724E+02 -0.1316E+03 -0.2797E+01E
 Epicentro: SAN ANDRES - SANTANDER                                             3
 ACTION:UP  10-08-24 10:10 OP:vdl  STATUS:               ID:20100613191853 L   I
 2010-06-13-1917-12S.COL___114                                                 6
 STAT SP IPHASW D HRMM SECON CODA AMPLIT PERI AZIMU VELO SNR AR TRES W  DIS CAZ7
 BAR2 SZ EP   1   1919 11.70                             159    -0.3 7   46 246 
 BAR2 SZ ES   2   1919 26.23                             159    -0.1 5   46 246 
 RUS  HZ EP   1   1919 15.69                             140    -0.1 7  101 198 
 RUS  HN ES   2   1919 33.62                             140     0.5 5  101 198 
 RUS  HZ I        1919 35.57         8.9 0.40                           101 198 
 GUE  SZ EP   1   1919 17.07                             135     0.1 7  119 354 
 GUE  SZ ES   2   1919 34.15                             135    -1.1 5  119 354 
 GRA  SZ EP   1   1919 17.53                             133     0.3 7  124   0 
 GRA  SZ ES   2   1919 36.04                             133     0.4 5  124   0 
 OCA  SZ EP   1   1919 21.62                             123    -0.3 7  173 341 
 OCA  SZ ES   2   1919 44.88                             123     0.9 4  173 341 
 OCA  SZ I        1919 48.39        15.8 0.37                           173 341 
                                                                                
