 2011  113 1311 56.3 L   6.862 -73.028134.0  RSN  5 0.5 1.8LRSN                1
 GAP=171        1.09       7.4    34.1 12.3 -0.1118E+02 -0.1951E+03  0.6892E+01E
 Epicentro: CEPITA - SANTANDER                                                 3
 ACTION:UP  11-02-08 08:40 OP:pat  STATUS:               ID:20110113131156 L   I
 2011-01-13-1309-08S.COL___136                                                 6
 STAT SP IPHASW D HRMM SECON CODA AMPLIT PERI AZIMU VELO SNR AR TRES W  DIS CAZ7
 BTL  SZ EP       1312 14.09                             168    -0.610   27 283 
 BTL  SZ ES   1   1312 28.39                             168    -0.5 7   27 283 
 GIR2 SZ EP       1312 15.04                             167     0.510   30 323 
 GIR2 SZ ES   3   1312 29.82                             167     1.0 2   30 323 
 BAR2 SZ EP       1312 15.04                             165     0.210   34 210 
 BAR2 SZ I        1312 15.56        21.6 0.19                            34 210 
 BAR2 SZ ES   1   1312 29.95                             165     0.7 7   34 210 
 RUS  HZ EP       1312 19.63                             139     0.210  107 183 
 RUS  HN ES   1   1312 37.01                             139    -0.5 7  107 183 
 RUS  HZ I        1312 39.24         9.2 0.26                           107 183 
 GRA  SZ ES   2   1312 37.52                             137    -0.4 5  116  12 
                                                                                
