 2013  113 1115 11.8 L   6.790 -73.158140.9  RSN  7 0.4 1.6LRSN                1
 GAP=135        1.03       4.0     4.4  6.4  0.2184E+01  0.7201E+01  0.4457E+01E
 Epicentro: LOS SANTOS - SANTANDER                                             3
 ACTION:UPD 13-02-15 09:14 OP:ep   STATUS:               ID:20130113111511 L   I
 2013-01-13-1108-36M.COL___174                                                 6
 STAT SP IPHASW D HRMM SECON CODA AMPLIT PERI AZIMU VELO AIN AR TRES W  DIS CAZ7
 BAR2 SZ EP       1115 31.12                             171    0.3010 22.0 187 
 BAR2 SZ ES       1115 46.13                             171    0.4710 22.0 187 
 BAR2 SZ I        1115 55.06         5.4 0.38            170           22.0 187 
 BRR  HZ EP       1115 32.20                             152   -0.1910 70.6 300 
 BRR  HN ES       1115 48.75                             152    0.2910 70.6 300 
 BRR  HN I        1115 49.75        18.0 0.30            153           70.6 300 
 PAM  SZ EP       1115 33.55                             149   -0.0610 79.1  40 
 PAM  SZ I        1115 33.74         6.7 0.18            155           79.1  40 
 PAM  SN ES       1115 50.10                             149   -0.5210 79.1  40 
 RUS  HZ EP       1115 34.95                             143   -0.0610 99.6 175 
 RUS  HN ES       1115 53.14                             143    0.0310 99.6 175 
 RUS  HN I        1115 56.87         2.6 0.30            147           99.6 175 
 PTB  HZ EP       1115 37.59                             131   -0.65 9  146 259 
 PTB  HN ES       1115 58.39                             131   -0.47 9  146 259 
 PTB  HN I        1116  0.58         5.3 0.24            134            146 259 
 ZAR  HZ EP       1115 44.81                             121    0.96 9  203 293 
 ZAR  HN ES       1116  8.80                             121   -0.05 9  203 293 
 ZAR  HN I        1116 17.17         8.8 0.14            125            203 293 
 CHI  HZ EP       1115 49.33                             116    0.25 8  247 195 
 CHI  HN ES       1116 18.00                             116   -0.16 8  247 195 
                                                                                
