 2016  613 1352  8.1 L   6.607 -73.600110.0  RSN  8 0.3 1.9LRSN                1
 GAP=145        0.83       3.6     3.2  6.3 -0.5526E+01  0.2126E+01  0.2548E+01E
 Epicentro: EL CARMEN - SANTANDER                                              3
 ACTION:UPD 16-07-21 22:18 OP:rebc STATUS:               ID:20160613135208 L   I
 OLDACT:UP  16-06-14 00:00 OP:dani STATUS:               ID:20160613134739     3
 OLDACT:UP  16-06-14 00:00 OP:dani STATUS:               ID:20160613134739     3
 OLDACT:REG 16-06-13 21:09 OP:dani STATUS:               ID:20160613134739     3
 2016-06-13-1347-39M.COL___328                                                 6
 STAT SP IPHASW D HRMM SECON CODA AMPLIT PERI AZIMU VELO AIN AR TRES W  DIS CAZ7
 BAR2 EZ IP     C 1352 24.43                             156    0.1010 46.2  92 
 BAR2 EZ ES       1352 37.42                             156    0.4310 46.2  92 
 BAR2 EZ I        1352 38.34        56.9 0.46                          46.2  92 
 BRR  HE ES   4   1352 39.07                             151    1.66 0 56.7 347 
 PTB  HZ IP     C 1352 27.28                             136   -0.1210 95.0 266 
 PTB  HN ES       1352 42.37                             136   -0.0810 95.0 266 
 PTB  HZ I        1352 43.41        26.3 0.42                          95.0 266 
 RUS  HZ EP       1352 27.59                             136   -0.6710 97.5 144 
 RUS  HE ES   2   1352 43.29                             136   -0.70 5 97.5 144 
 RUS  HZ I        1352 44.54         9.5 0.26                          97.5 144 
 SPBC HZ EP       1352 29.42                             130   -0.1210  118 206 
 SPBC HE ES       1352 46.20                             130   -0.0710  118 206 
 SPBC HZ I        1352 48.43        27.2 0.10                           118 206 
 PAM  EZ EP       1352 31.47                             127    0.3910  128  51 
 PAM  EN ES       1352 48.83                             127   -0.1910  128  51 
 PAM  EZ I        1352 49.95        12.6 0.44                           128  51 
 NOR  HZ EP       1352 36.07                             117   -0.01 9  182 231 
 NOR  HE ES       1352 58.15                             117    0.23 9  182 231 
 NOR  HZ I        1353  0.53        10.1 0.14                           182 231 
 CHI  HZ EP   4   1352 38.77                             112   -1.93 0  219 184 
 CHI  HE ES       1353  6.64                             112    0.50 8  219 184 
 CHI  HZ I        1353 10.83         3.8 0.68                           219 184 
 GUY2CHZ EP   4   1352 46.50                             109    2.40 0  248 232 
 GUY2CHZ I        1353 22.73         4.8 0.36                           248 232 
 PRA  HN ES   4   1353 34.95                             102    2.29 0  350 204 
                                                                                
