 2016 1013 1442 16.1 L   6.791 -73.141148.8  RSN  9 0.5 1.6LRSN                1
 GAP=138        0.97       4.7     4.6  6.4 -0.3064E+01  0.6525E+01  0.3673E+01E
 Epicentro: LOS SANTOS - SANTANDER                                             3
 ACTION:UPD 16-11-09 19:19 OP:rebc STATUS:               ID:20161013144216 L   I
 OLDACT:UP  16-10-14 00:35 OP:and  STATUS:               ID:20161013143738     3
 OLDACT:REG 16-10-13 20:13 OP:and  STATUS:               ID:20161013143738     3
 2016-10-13-1438-00M.COL___365                                                 6
 STAT SP IPHASW D HRMM SECON CODA AMPLIT PERI AZIMU VELO AIN AR TRES W  DIS CAZ7
 BAR2 EZ EP       1442 35.87                             171   -0.1810 22.5 192 
 BAR2 EZ ES       1442 51.34                             171   -0.2910 22.5 192 
 BAR2 EZ I        1442 52.41        12.3 0.18            169           22.5 192 
 BRR  HZ IP     D 1442 37.73                             153    0.1310 72.1 299 
 BRR  HE ES       1442 54.90                             153    0.5110 72.1 299 
 PAM  EZ EP       1442 38.92                             151    0.2810 77.8  39 
 PAM  EN ES       1442 56.26                             151    0.0310 77.8  39 
 PAM  EZ I        1442 58.58         3.4 0.19            155           77.8  39 
 RUS  HZ EP       1442 40.16                             145    0.1110 99.6 176 
 RUS  HN ES       1442 58.78                             145    0.0310 99.6 176 
 RUS  HZ I        1442 59.49         2.6 0.26            145           99.6 176 
 PTB  HZ EP       1442 42.57                             133   -0.75 9  148 259 
 PTB  HN ES       1443  3.74                             133   -0.83 9  148 259 
 PTB  HZ I        1443  5.83         5.9 0.14            131            148 259 
 SPBC HZ EP       1442 45.03                             130    0.26 9  163 219 
 SPBC HN ES   2   1443  7.46                             130    0.32 5  163 219 
 SPBC HZ I        1443 13.85        10.4 0.34            129            163 219 
 ZAR  HZ EP   2   1442 48.82                             123    0.01 4  205 292 
 ZAR  HN ES   2   1443 14.51                             123    0.18 4  205 292 
 ZAR  HZ I        1443 19.05         4.4 0.17            123            205 292 
 NOR  HN ES   2   1443 20.69                             119    0.73 4  235 235 
 NOR  HZ I        1443 26.10         4.0 0.16            119            235 235 
 GUY2CHZ EP   2   1443  0.72                             113    0.91 4  301 235 
 GUY2CHE ES   2   1443 35.44                             113    1.52 4  301 235 
 GUY2CHZ I        1443 46.23         2.4 0.46                           301 235 
                                                                                
