 2017  413 1434 38.2 L   6.823 -73.279141.5  RSN  4 0.3 1.2LRSN                1
 GAP=214        0.77       7.4     5.4  7.6  0.1494E+02  0.4804E+01 -0.1506E+02E
 Epicentro: ZAPATOCA - SANTANDER                                               3
 ACTION:UPD 17-05-30 21:11 OP:jn   STATUS:               ID:20170413143438 L   I
 OLDACT:UP  17-04-13 23:16 OP:edw  STATUS:               ID:20170413142739     3
 OLDACT:REG 17-04-13 21:23 OP:edw  STATUS:               ID:20170413142739     3
 2017-04-13-1428-00M.COL___371                                                 6
 STAT SP IPHASW D HRMM SECON CODA AMPLIT PERI AZIMU VELO AIN AR TRES W  DIS CAZ7
 BAR2 EZ IP     D 1434 57.13                             168   -0.2610 27.7 157 
 BAR2 EZ ES       1435 12.35                             168   -0.0310 27.7 157 
 BAR2 EZ I        1435 12.83         5.3 0.26            167           27.7 157 
 BRR  HZ EP       1434 58.37                             157    0.2510 57.2 303 
 RUS  HZ EP       1435  1.49                             142   -0.3610  105 168 
 RUS  HN ES       1435 20.65                             142    0.3310  105 168 
 RUS  HZ I        1435 21.52         1.8 0.22            141            105 168 
 PTB  HZ EP       1435  3.93                             134    0.3810  134 257 
 PTB  HN ES       1435 23.06                             134   -0.2810  134 257 
 PTB  HZ I        1435 27.97         2.0 0.16            132            134 257 
                                                                                
