 2013  413 1248  4.9 L   6.069 -73.590115.5  RSN  6 0.4 1.6LRSN                1
 GAP= 83        0.92       3.8     4.1  9.6 -0.3492E+01  0.1022E+02  0.1394E+02E
 Epicentro: CHIPATA - SANTANDER                                                3
 ACTION:UPD 13-05-22 14:38 OP:EP   STATUS:               ID:20130413124804 L   I
 2013-04-13-1245-50M.COL___215                                                 6
 STAT SP IPHASW D HRMM SECON CODA AMPLIT PERI AZIMU VELO AIN AR TRES W  DIS CAZ7
 RUS  HZ EP       1248 22.58                             151   -0.2610 59.4 109 
 RUS  HN ES   1   1248 36.65                             151   -0.18 7 59.4 109 
 RUS  HZ I        1248 38.09         5.2 0.34            154           59.4 109 
 BAR2 SZ EP       1248 23.22                             146   -0.1510 73.4  38 
 BAR2 SZ ES       1248 37.90                             146    0.1310 73.4  38 
 BAR2 SZ I        1248 39.80        30.7 0.26            151           73.4  38 
 PTB  HN ES   1   1248 41.29                             133   -0.99 7  109 299 
 PTB  HZ I        1248 43.96         6.3 0.17            137            109 299 
 GIR2 SZ ES       1248 44.79                             131    0.4410  120  21 
 NOR  HZ EP       1248 30.15                             123    0.05 9  152 249 
 NOR  HE ES       1248 50.33                             123    0.58 9  152 249 
 NOR  HZ I        1248 51.42         5.6 0.16            126            152 249 
 CHI  HZ EP       1248 31.22                             122   -0.14 9  160 186 
 CHI  HN ES       1248 52.10                             122    0.10 9  160 186 
 CHI  HZ I        1248 56.04         5.1 0.40            125            160 186 
                                                                                
