 2010 1213 1305 28.6 L   6.732 -73.044144.2  RSN  5 0.5 1.4LRSN                1
 GAP=171        1.02       9.0    44.5 18.4  0.8701E+02 -0.3251E+03 -0.9776E+02E
 Epicentro: ARATOCA - SANTANDER                                                3
 ACTION:UP  11-01-14 15:24 OP:pat  STATUS:               ID:20101213130528 L   I
 2010-12-13-1304-06S.COL___137                                                 6
 STAT SP IPHASW D HRMM SECON CODA AMPLIT PERI AZIMU VELO SNR AR TRES W  DIS CAZ7
 BAR2 SZ EP   1   13 5 48.13                             170     0.1 7   22 225 
 BAR2 SZ ES   2   13 6  3.06                             170    -0.1 5   22 225 
 BTL  SZ EP   1   13 5 47.30                             166    -0.9 7   32 310 
 RUS  HZ EP       13 5 51.59                             145     0.010   93 183 
 RUS  HN ES   2   13 6 10.29                             145     0.7 5   93 183 
 RUS  HZ I        13 6 12.00         4.0 0.63                            93 183 
 GRA  SZ EP   1   13 5 53.84                             135    -0.2 7  130  12 
 OCA  SZ EP       13 5 58.22                             127     0.6 9  169 350 
                                                                                
