 2010 1013 1241 43.4 L   6.832 -73.161139.0  RSN  6 0.3 2.0LRSN                1
 GAP=167        0.73       8.0    10.9  9.7 -0.7065E+02  0.4845E+02 -0.3849E+02E
 Epicentro: LOS SANTOS - SANTANDER                                             3
 ACTION:UP  11-02-18 11:09 OP:tino STATUS:               ID:20101013124143 L   I
 2010-10-13-1239-48S.COL___124                                                 6
 STAT SP IPHASW D HRMM SECON CODA AMPLIT PERI AZIMU VELO SNR AR TRES W  DIS CAZ7
 BTL  SZ EP       1242  2.44                             173     0.410   15 309 
 BAR2 SZ EP       1242  2.16                             169    -0.110   27 185 
 BAR2 SZ ES   1   1242 16.92                             169    -0.1 7   27 185 
 BAR2 SZ I        1242 18.18        31.0 0.26                            27 185 
 BRR  HZ EP       1242  3.86                             152     0.210   68 297 
 BRR  HZ I        1242 21.57        23.8 0.12                            68 297 
 GUE  SZ EP       1242  6.89                             139    -0.310  113  13 
 GRA  SZ EP       1242  7.84                             136     0.110  123  19 
 GRA  SZ ES   1   1242 26.66                             136    -0.2 7  123  19 
 GRA  SZ I        1242 33.17         8.8 0.29                           123  19 
 NOR  SN ES   1   1242 46.04                             117    -0.4 6  236 234 
                                                                                
