 2013  113 1715 49.0 L   6.706 -73.228144.6  RSN  4 0.2 1.7LRSN                1
 GAP=209        0.49       3.8     3.5  3.9  0.6498E+01  0.1978E+01  0.9387E+00E
 Epicentro: VILLANUEVA - SANTANDER                                             3
 ACTION:UPD 13-02-15 09:14 OP:ep   STATUS:               ID:20130113171549 L   I
 2013-01-13-1708-36M.COL___178                                                 6
 STAT SP IPHASW D HRMM SECON CODA AMPLIT PERI AZIMU VELO AIN AR TRES W  DIS CAZ7
 BAR2 SZ EP       1716  8.10                             174   -0.2010 13.6 158 
 BAR2 SZ ES       1716 23.17                             174   -0.2110 13.6 158 
 BAR2 SZ I        1716 24.45         9.5 0.40            170           13.6 158 
 BRR  HZ EP       1716  9.87                             153   -0.0210 69.5 310 
 BRR  HE ES       1716 26.48                             153    0.2610 69.5 310 
 BRR  HN I        1716 27.42        23.3 0.22            151           69.5 310 
 RUS  HZ EP       1716 12.14                             146    0.1810 91.4 170 
 RUS  HZ I        1716 13.34         2.6 0.14            144           91.4 170 
 RUS  HN ES       1716 30.00                             146    0.1110 91.4 170 
 PTB  HZ EP       1716 14.86                             134   -0.02 9  137 262 
 PTB  HN ES       1716 34.99                             134   -0.11 9  137 262 
 PTB  HN I        1716 41.06         8.0 0.36            131            137 262 
                                                                                
