 2012  713 1432  0.1 L   6.682 -73.229139.4  RSN  5 0.4 2.1LRSN                1
 GAP=201        0.90       7.4     7.3  8.2  0.3347E+02  0.9896E+01 -0.3629E+01E
 Epicentro: BARICHARA - SANTANDER                                              3
 ACTION:UPD 12-08-14 11:44 OP:ep   STATUS:               ID:20120713143200 L   I
 2012-07-13-1430-00M.COL___197                                                 6
 STAT SP IPHASW D HRMM SECON CODA AMPLIT PERI AZIMU VELO AIN AR TRES W  DIS CAZ7
 BAR2 SZ IP       1432 18.60                             175    -0.110   11 152 
 BAR2 SZ I        1432 18.81        36.2 0.16            171             11 152 
 BAR2 SZ ES   1   1432 32.80                             175    -0.5 7   11 152 
 BRR  HZ EP       1432 20.53                             151     0.010   71 311 
 BRR  HZ I        1432 21.03        47.5 0.12            148             71 311 
 BRR  HE ES   1   1432 36.77                             151     0.3 7   71 311 
 RUS  HZ EP       1432 22.54                             146     0.210   89 169 
 RUS  HN ES       1432 40.03                             146     0.310   89 169 
 RUS  HZ I        1432 42.44        10.5 0.29            146             89 169 
 PTB  HZ EP       1432 25.39                             133    -0.1 9  137 263 
 PTB  HN ES   1   1432 44.84                             133    -0.5 7  137 263 
 PTB  HZ I        1432 48.62        14.6 0.17            130            137 263 
 ZAR  HZ EP   2   1432 31.22                             121    -0.6 4  201 297 
 ZAR  HN ES   1   1432 57.24                             121     0.7 6  201 297 
 ZAR  HZ I        1433  5.67        11.6 0.31            121            201 297 
