 2017 1213 1714  2.8 L   6.828 -73.183146.0  RSN  9 0.3 1.8LRSN                1
 GAP=107        0.82       2.5     3.0  5.0 -0.5877E+00  0.3857E+01  0.2315E+01E
 Epicentro: ZAPATOCA - SANTANDER                                               3
 ACTION:UPD 18-01-04 13:20 OP:rebc STATUS:               ID:20171213171402 L   I
 OLDACT:DUP 17-12-14 00:13 OP:osc  STATUS:               ID:20171213170744d    3
 2017-12-13-1708-00M.COL___452                                                 6
 STAT SP IPHASW D HRMM SECON CODA AMPLIT PERI AZIMU VELO AIN AR TRES W  DIS CAZ7
 BAR2 EZ EP       1714 22.30                             169   -0.2310 26.0 180 
 BAR2 EZ ES       1714 37.61                             169   -0.2910 26.0 180 
 BAR2 EZ I        1714 40.13        15.9 0.28            169           26.0 180 
 PAM  EZ EP       1714 25.34                             151    0.2610 77.8  43 
 PAM  EN ES       1714 42.40                             151   -0.0410 77.8  43 
 PAM  EZ I        1714 45.56         6.8 0.33            155           77.8  43 
 PTB  HZ EP       1714 28.83                             133   -0.66 9  144 257 
 PTB  HN ES       1714 50.04                             133   -0.25 9  144 257 
 PTB  HZ I        1714 51.92         4.5 0.18            134            144 257 
 OCA  HZ EP       1714 30.90                             130    0.09 9  157 355 
 OCA  HN ES       1714 53.03                             130    0.38 9  157 355 
 SPBC HZ EP       1714 31.62                             129    0.31 9  163 217 
 SPBC HN ES       1714 53.91                             129    0.37 9  163 217 
 SPBC HZ I        1715  0.44        12.1 0.10            131            163 217 
 YPLC HZ EP       1714 32.56                             126   -0.52 9  182 151 
 YPLC HN ES       1714 57.04                             126    0.34 9  182 151 
 YPLC HZ I        1714 57.71         9.3 0.28            129            182 151 
 ZAR  HZ EP       1714 34.67                             123   -0.09 9  199 292 
 ZAR  HE ES       1714 59.88                             123    0.21 9  199 292 
 ZAR  HZ I        1715  5.82         6.5 0.42            125            199 292 
 GUY2CHZ EP       1714 46.22                             112   -0.03 7  300 234 
 GUY2CHE ES       1715 20.11                             112   -0.02 7  300 234 
 GUY2CHZ I        1715 28.14         3.0 0.42                           300 234 
 PRA  HZ EP       1714 56.21                             106   -0.20 6  393 209 
 PRA  HN ES       1715 39.08                             106    0.86 6  393 209 
 PRA  HZ I        1715 44.64         2.5 0.44            108            393 209 
                                                                                
