 2011  713 1729 34.4 L   6.780 -73.024131.9  RSN  5 0.4 1.7LRSN                1
 GAP=170        0.80       5.7     9.1  9.1 -0.1275E+02 -0.2880E+02  0.1031E+01E
 Epicentro: CEPITA - SANTANDER                                                 3
 ACTION:UPD 12-07-25 14:00 OP:epov STATUS:               ID:20110713172934 L   I
 2011-07-13-1727-03S.COL___143                                                 6
 STAT SP IPHASW D HRMM SECON CODA AMPLIT PERI AZIMU VELO AIN AR TRES W  DIS CAZ7
 BAR2 SZ EP   1   1729 52.02                             168   -0.44 7 27.1 220 
 BAR2 SZ ES   1   1730  6.39                             168   -0.16 7 27.1 220 
 BAR2 SZ I        1730  8.91         9.8 0.15                          27.1 220 
 BRR  HZ EP       1729 54.50                             146   -0.4310 84.2 296 
 BRR  HZ I        1730  7.39        16.1 0.41                          84.2 296 
 BRR  HN ES   1   1730 11.46                             146    0.53 7 84.2 296 
 RUS  HZ EP   1   1729 57.16                             141    0.51 7 98.3 184 
 RUS  HZ I        1730 15.66         9.1 0.63                          98.3 184 
 BRI  SZ EP   1   1729 57.22                             139    0.36 7  107  14 
 BRI  SZ I        1729 58.98        10.6 0.08                           107  14 
 GRA  SZ EP   1   1729 58.42                             134    0.07 7  125  11 
 GRA  SZ ES   1   1730 16.91                             134   -0.11 7  125  11 
 GRA  SZ I        1730 18.95         7.5 0.39                           125  11 
                                                                                
