 2017  813 1608  6.2 L   6.697 -73.277145.8  RSN  4 0.2 1.2LRSN                1
 GAP=185        0.55       6.6     9.5  5.0  0.5356E+02  0.2752E+01  0.1596E+01E
 Epicentro: GALAN - SANTANDER                                                  3
 ACTION:UPD 17-09-04 20:20 OP:rebc STATUS:               ID:20170813160806 L   I
 OLDACT:DUP 17-08-14 06:57 OP:edw  STATUS:               ID:20170813155745d    3
 2017-08-13-1558-00M.COL___410                                                 6
 STAT SP IPHASW D HRMM SECON CODA AMPLIT PERI AZIMU VELO AIN AR TRES W  DIS CAZ7
 BAR2 EZ EP       16 8 25.32                             174   -0.3510 15.6 138 
 BAR2 EZ ES       16 8 40.83                             174   -0.0510 15.6 138 
 BAR2 EZ I        16 8 41.46         7.2 0.20            171           15.6 138 
 BRR  HZ EP       16 8 27.22                             154    0.1910 66.1 313 
 BRR  HN ES       16 8 43.40                             154    0.0910 66.1 313 
 RUS  HZ EP       16 8 29.51                             146    0.2210 91.5 166 
 RUS  HN ES       16 8 47.30                             146   -0.0210 91.5 166 
 RUS  HZ I        16 8 49.95         1.4 0.32            144           91.5 166 
 ZAR  HN ES   2   16 9  1.96                             123   -0.41 4  196 297 
                                                                                
