 2017  713 1152 14.4 L   6.798 -73.152143.2  RSN  8 0.3 1.6LRSN                1
 GAP=101        0.85       3.8     3.0  5.0 -0.2142E+00  0.2547E+01  0.1514E+01E
 Epicentro: LOS SANTOS - SANTANDER                                             3
 ACTION:UPD 17-08-30 15:32 OP:rebc STATUS:               ID:20170713115214 L   I
 OLDACT:UP  17-07-13 21:51 OP:dani STATUS:               ID:20170713114744     3
 OLDACT:UP  17-07-13 21:51 OP:dani STATUS:               ID:20170713114744     3
 OLDACT:REG 17-07-13 20:13 OP:dani STATUS:               ID:20170713114744     3
 2017-07-13-1148-00M.COL___371                                                 6
 STAT SP IPHASW D HRMM SECON CODA AMPLIT PERI AZIMU VELO AIN AR TRES W  DIS CAZ7
 BAR2 EZ EP       1152 33.57                             170   -0.1510 22.9 188 
 BAR2 EZ ES       1152 48.84                             170    0.0610 22.9 188 
 BAR2 EZ I        1152 50.30         9.4 0.32            172           22.9 188 
 BRR  HZ EP       1152 35.77                             152    0.5210 70.7 299 
 BRR  HN ES       1152 52.05                             152    0.5410 70.7 299 
 BRR  HZ I        1152 56.19        11.4 0.25            151           70.7 299 
 PAM  EZ EP       1152 36.31                             150   -0.0810 78.0  40 
 PAM  EE ES       1152 53.11                             150   -0.4210 78.0  40 
 PAM  EZ I        1152 55.22         7.9 0.50            152           78.0  40 
 RUS  HZ EP       1152 38.14                             143    0.2510  100 176 
 RUS  HN ES       1152 56.19                             143   -0.0110  100 176 
 RUS  HZ I        1152 58.35         4.4 0.31            147            100 176 
 PTB  HZ EP       1152 40.54                             132   -0.56 9  147 259 
 PTB  HN ES       1153  1.34                             132   -0.58 9  147 259 
 PTB  HZ I        1153  4.19         5.0 0.16            132            147 259 
 TAM  HZ EP       1152 41.98                             130    0.05 9  156 105 
 ZAR  HZ EP       1152 46.78                             122    0.15 9  204 292 
 ZAR  HE ES       1153 11.73                             122   -0.03 9  204 292 
 ZAR  HZ I        1153 19.46         4.9 0.22            123            204 292 
 NOR  HZ EP       1152 49.99                             118    0.08 8  234 234 
 NOR  HN ES       1153 17.74                             118    0.14 8  234 234 
 NOR  HZ I        1153 19.67         3.4 0.24            120            234 234 
 GUY2CHZ EP   4   1153  0.65                             112    2.83 0  300 235 
                                                                                
