 2014  313 1126  2.0 L   6.835 -73.184141.5  RSN  4 0.3 1.4LRSN                1
 GAP=198        0.79       4.3     5.6  7.3  0.7402E+01  0.3420E+01 -0.1403E+02E
 Epicentro: ZAPATOCA - SANTANDER                                               3
 ACTION:UPD 14-04-09 23:16 OP:nd   STATUS:               ID:20140313112602 L   I
 OLDACT:REG 14-03-13 15:25 OP:cam  STATUS:               ID:20140313112048     3
 2014-03-13-1120-48M.COL___232                                                 6
 STAT SP IPHASW D HRMM SECON CODA AMPLIT PERI AZIMU VELO AIN AR TRES W  DIS CAZ7
 BAR2 SZ EP       1126 21.52                             169    0.3210 26.9 180 
 BAR2 SZ ES       1126 36.26                             169    0.0910 26.9 180 
 BAR2 SZ I        1126 37.53         8.6 0.28            173           26.9 180 
 RUS  HZ EP       1126 25.93                             142    0.2710  105 174 
 RUS  HN ES       1126 43.66                             142   -0.4410  105 174 
 RUS  HZ I        1126 45.22         1.9 0.26            147            105 174 
 PTB  HZ EP       1126 27.87                             132   -0.46 9  144 257 
 PTB  HN ES       1126 49.14                             132    0.28 9  144 257 
 PTB  HZ I        1126 52.47         2.1 0.54            133            144 257 
 SML  HZ EP       1126 37.94                             117    0.12 8  238 336 
 SML  HN ES       1127  5.49                             117   -0.26 8  238 336 
 SML  HZ I        1127 13.63         3.2 0.10            118            238 336 
                                                                                
