 2012 1213 1815 30.0 L   6.786 -73.176144.4  RSN  5 0.3 1.5LRSN                1
 GAP=133        0.62       4.5     4.5  7.2 -0.2916E+01 -0.3514E+01  0.4480E+01E
 Epicentro: LOS SANTOS - SANTANDER                                             3
 ACTION:UPD 13-01-04 14:27 OP:ep   STATUS:               ID:20121213181530 L   I
 2012-12-13-1810-00M.COL___242                                                 6
 STAT SP IPHASW D HRMM SECON CODA AMPLIT PERI AZIMU VELO AIN AR TRES W  DIS CAZ7
 BAR2 SZ EP   1   1815 49.35                             171   -0.11 7 21.4 182 
 BAR2 SZ ES   1   1816  4.15                             171   -0.46 7 21.4 182 
 BAR2 SZ I        1816  7.11        11.5 0.18                          21.4 182 
 BRR  HN ES   1   1816  7.68                             153    0.48 7 69.1 301 
 PAM  SZ EP   1   1815 52.39                             149    0.08 7 80.8  41 
 PAM  SN ES   1   1816  9.60                             149   -0.08 7 80.8  41 
 PAM  SZ I        1816 11.67         4.7 0.20                          80.8  41 
 RUS  HZ EP   1   1815 53.52                             144   -0.04 7 99.3 174 
 RUS  HE ES   1   1816 12.28                             144    0.38 7 99.3 174 
 RUS  HZ I        1816 13.30         2.2 0.42                          99.3 174 
 PTB  HN ES   1   1816 16.98                             132   -0.27 7  144 259 
 PTB  HZ I        1816 23.35         5.4 0.26                           144 259 
                                                                                
