 2013  313 1536 40.9 L   6.715 -73.209149.5  RSN  4 0.2 1.7LRSN                1
 GAP=220        0.52       5.3     5.2  6.9  0.1295E+02 -0.5813E+01 -0.5258E+01E
 Epicentro: VILLANUEVA - SANTANDER                                             3
 ACTION:UPD 13-04-09 14:02 OP:ep   STATUS:               ID:20130313153640 L   I
 2013-03-13-1530-00M.COL___231                                                 6
 STAT SP IPHASW D HRMM SECON CODA AMPLIT PERI AZIMU VELO AIN AR TRES W  DIS CAZ7
 BAR2 SZ EP       1537  0.46                             174   -0.3210 14.0 168 
 BAR2 SZ I        1537 17.13        18.9 0.17            164           14.0 168 
 BRR  HZ EP       1537  2.53                             153    0.1710 70.4 308 
 BRR  HZ I        1537 16.51         9.6 0.59            144           70.4 308 
 BRR  HE ES   1   1537 19.23                             153    0.09 7 70.4 308 
 RUS  HZ EP   1   1537  4.41                             147    0.02 7 92.1 171 
 RUS  HN ES   1   1537 22.94                             147    0.20 7 92.1 171 
 RUS  HN I        1537 24.91         7.4 0.19            148           92.1 171 
 PTB  HZ EP   1   1537  7.61                             135    0.23 7  139 262 
 PTB  HN ES   1   1537 27.81                             135   -0.26 7  139 262 
 PTB  HZ I        1537 31.22         4.1 0.16            134            139 262 
                                                                                
