 2017  113 1655 34.3 L   6.785 -73.192144.1  RSN  4 0.1 1.4LRSN                1
 GAP=142        0.42       2.6     2.9  3.7 -0.2560E+01  0.3620E+01 -0.1251E+01E
 Epicentro: ZAPATOCA - SANTANDER                                               3
 ACTION:UPD 17-05-22 15:59 OP:jn   STATUS:               ID:20170113165534 L   I
 OLDACT:REG 17-01-13 20:33 OP:dani STATUS:               ID:20170113164745     3
 2017-01-13-1648-00M.COL___331                                                 6
 STAT SP IPHASW D HRMM SECON CODA AMPLIT PERI AZIMU VELO AIN AR TRES W  DIS CAZ7
 BAR2 EZ ES       1656  8.83                             171   -0.0210 21.3 177 
 PAM  EZ EP       1655 56.81                             149    0.1610 82.0  42 
 PAM  EN ES       1656 13.98                             149   -0.0810 82.0  42 
 PAM  EZ I        1656 15.95         5.8 0.57            151           82.0  42 
 RUS  HZ EP       1655 57.88                             144    0.0510 99.4 173 
 RUS  HE ES       1656 16.14                             144   -0.0210 99.4 173 
 RUS  HZ I        1656 17.55         3.4 0.21            146           99.4 173 
 PTB  HZ EP       1656  0.44                             133   -0.23 9  142 259 
 PTB  HN ES   1   1656 21.46                             133    0.23 7  142 259 
 PTB  HZ I        1656 24.03         3.5 0.15            133            142 259 
                                                                                
