 2013  513 1357 43.7 L   6.817 -73.180143.4  RSN 13 0.5 2.6LRSN                1
 GAP=138        1.14       4.2     4.9  6.0 -0.5535E+01  0.1036E+02 -0.2843E+00E
 Epicentro: LOS SANTOS - SANTANDER                                             3
 ACTION:UPD 13-06-20 09:50 OP:ep   STATUS:               ID:20130513135743 L   I
 2013-05-13-1354-51M.COL___228                                                 6
 STAT SP IPHASW D HRMM SECON CODA AMPLIT PERI AZIMU VELO AIN AR TRES W  DIS CAZ7
 BAR2 SZ EP       1358  2.91                             170   -0.1310 24.9 181 
 BAR2 SZ ES       1358 17.57                             170   -0.5910 24.9 181 
 BAR2 SZ I        1358 19.07        86.6 0.18            161           24.9 181 
 GIR2 SZ EP       1358  3.01                             168    0.0210 28.9 357 
 GIR2 SZ ES       1358 18.19                             168    0.1210 28.9 357 
 BRR  HZ EP     C 1358  4.81                             153    0.4910 66.9 299 
 BRR  HE ES       1358 21.64                             153    1.2110 66.9 299 
 BRR  HZ I        1358 26.07        65.8 0.14            155           66.9 299 
 PAM  SZ EP       1358  5.94                             150    0.2510 78.4  43 
 PAM  SN ES       1358 22.63                             150   -0.2410 78.4  43 
 PAM  SZ I        1358 24.83       143.5 0.44            151           78.4  43 
 PTB  HZ EP       1358  9.82                             132   -0.32 9  144 258 
 PTB  HN ES   1   1358 30.31                             132   -0.47 7  144 258 
 PTB  HZ I        1358 33.76        49.6 0.16            129            144 258 
 OCA  HZ EP       1358 11.50                             130   -0.07 9  158 354 
 OCA  HN ES       1358 32.70                             130   -0.64 9  158 354 
 OCA  HZ I        1358 37.62        55.9 0.30            130            158 354 
 ZAR  HZ EP   1   1358 15.64                             122    0.12 6  200 292 
 NOR  HZ EP   1   1358 19.48                             118    0.43 6  233 234 
 NOR  HE ES       1358 46.59                             118   -0.06 8  233 234 
 NOR  HZ I        1358 52.29        18.9 0.18            114            233 234 
 SML  HZ EP       1358 19.37                             117   -0.43 8  240 336 
 SML  HE ES       1358 48.26                             117    0.28 8  240 336 
 CHI  HZ EP   1   1358 21.22                             117   -0.11 6  250 194 
 HEL  HZ EP   1   1358 24.64                             115    1.24 6  269 255 
 HEL  HE ES   1   1358 53.64                             115   -0.76 6  269 255 
 HEL  HZ I        1359  1.90        11.3 0.32            112            269 255 
 URE  HN ES       1358 55.29                             113   -0.43 7  280 292 
 PRA  HZ EP   1   1358 37.26                             106    0.17 4  392 209 
 PRA  HZ I        1359 22.73        12.3 0.74            103            392 209 
                                                                                
