 2014  513 1727 28.2 L   6.820 -73.177137.4  RSN  6 0.5 1.9LRSN                1
 GAP=132        1.10       3.9     5.0  9.9 -0.5983E+00  0.1976E+02 -0.6552E+01E
 Epicentro: LOS SANTOS - SANTANDER                                             3
 ACTION:UPD 15-03-16 16:57 OP:nd   STATUS:               ID:20140513172728 L   I
 OLDACT:DUP 14-05-13 23:40 OP:carl STATUS:               ID:20140513171817d    3
 2014-05-13-1718-16M.COL___260                                                 6
 STAT SP IPHASW D HRMM SECON CODA AMPLIT PERI AZIMU VELO AIN AR TRES W  DIS CAZ7
 PAM  SZ EP       1727 49.98                             149    0.4310 78.0  43 
 PAM  SN ES       1728  6.29                             149    0.0710 78.0  43 
 PAM  SZ I        1728  9.16        10.1 0.40            153           78.0  43 
 RUS  HZ EP       1727 51.69                             141    0.3810  103 174 
 RUS  HN ES       1728  8.82                             141   -0.5210  103 174 
 PTB  HZ EP       1727 54.05                             131   -0.15 9  145 258 
 PTB  HN ES       1728 14.42                             131   -0.08 9  145 258 
 PTB  HZ I        1728 17.02        11.8 0.28            132            145 258 
 OCA  HN ES       1728 17.15                             128    0.15 9  158 354 
 ZAR  HZ EP       1728  0.19                             121    0.52 9  200 292 
 ZAR  HN ES       1728 24.71                             121    0.48 9  200 292 
 ZAR  HZ I        1728 34.06         9.5 0.28            123            200 292 
 SML  HZ EP       1728  3.03                             116   -0.95 8  240 336 
 SML  HN ES       1728 31.26                             116   -0.64 8  240 336 
                                                                                
