 2014  813 1701 42.5 L   6.776 -73.130149.3  RSN  8 0.3 1.6LRSN                1
 GAP=202        0.65       3.3     4.3  5.0  0.1481E+01  0.3483E+01 -0.1931E+01E
 Epicentro: LOS SANTOS - SANTANDER                                             3
 ACTION:UPD 14-09-15 21:49 OP:nd   STATUS:               ID:20140813170142 L   I
 OLDACT:UP  14-08-14 01:33 OP:spq  STATUS:               ID:20140813165820     3
 OLDACT:REG 14-08-13 21:27 OP:spq  STATUS:               ID:20140813165820     3
 2014-08-13-1658-20M.COL___266                                                 6
 STAT SP IPHASW D HRMM SECON CODA AMPLIT PERI AZIMU VELO AIN AR TRES W  DIS CAZ7
 BAR2 SZ ES   1   17 2 18.07                             172   -0.11 7 21.2 196 
 BAR2 SZ I        17 2 19.25         4.6 0.22            170           21.2 196 
 BRR  HZ EP       17 2  4.29                             152    0.0510 74.0 300 
 BRR  HN ES       17 2 21.63                             152    0.4710 74.0 300 
 BRR  HZ I        17 2 24.97         9.8 0.32            149           74.0 300 
 RUS  HZ EP   1   17 2  6.61                             145    0.15 7 97.9 177 
 RUS  HE ES   1   17 2 24.73                             145   -0.38 7 97.9 177 
 RUS  HZ I        17 2 26.44         2.7 0.18            148           97.9 177 
 PTB  HZ EP   1   17 2 10.26                             133    0.34 7  149 260 
 PTB  HE ES       17 2 31.25                             133   -0.02 9  149 260 
 PTB  HZ I        17 2 36.26         4.2 0.18            132            149 260 
 ZAR  HZ EP   1   17 2 15.56                             123    0.07 6  207 293 
 ZAR  HN ES   1   17 2 40.72                             123   -0.47 6  207 293 
 ZAR  HZ I        17 2 47.62         2.9 0.28            123            207 293 
 NOR  HN ES       17 2 46.19                             119   -0.32 8  235 235 
 NOR  HZ I        17 2 49.58         3.0 0.20            120            235 235 
 SML  HZ EP   1   17 2 19.47                             118   -0.24 6  247 335 
 SML  HN ES   1   17 2 48.22                             118   -0.47 6  247 335 
 SML  HZ I        17 2 52.12         5.9 0.03            119            247 335 
 GUY2CHZ EP   1   17 2 26.80                             113    0.48 5  301 235 
 GUY2CHE ES   4   17 3  5.24                             113    4.78 0  301 235 
 GUY2CHZ I        17 3  9.67         1.8 0.46                           301 235 
                                                                                
