 2013  513 1440 54.8 L   6.771 -73.146148.0  RSN  9 0.5 2.1LRSN                1
 GAP=138        1.17       5.1     6.2  7.0 -0.5376E+01  0.1389E+02  0.5431E+01E
 Epicentro: LOS SANTOS - SANTANDER                                             3
 ACTION:UPD 13-06-20 09:50 OP:ep   STATUS:               ID:20130513144054 L   I
 2013-05-13-1440-00M.COL___256                                                 6
 STAT SP IPHASW D HRMM SECON CODA AMPLIT PERI AZIMU VELO AIN AR TRES W  DIS CAZ7
 BAR2 SZ EP       1441 14.64                             172   -0.0010 20.2 192 
 BAR2 SZ ES       1441 30.31                             172    0.1910 20.2 192 
 BAR2 SZ I        1441 31.39        32.4 0.20            166           20.2 192 
 GIR2 SZ EP       1441 14.69                             166   -0.1410 34.5 351 
 GIR2 SZ ES       1441 30.47                             166    0.0210 34.5 351 
 GIR2 SZ I        1441 32.10        16.7 0.34            158           34.5 351 
 BRR  HZ EP       1441 16.50                             152    0.2210 72.8 301 
 BRR  HN ES       1441 33.82                             152    0.7910 72.8 301 
 BRR  HZ I        1441 38.82        24.1 0.16            140           72.8 301 
 PAM  SZ EP   1   1441 17.59                             151    0.18 7 79.9  38 
 PAM  SN ES   1   1441 34.11                             151   -0.93 7 79.9  38 
 PAM  SZ I        1441 34.27        29.8 0.22            148           79.9  38 
 RUS  HZ EP       1441 18.59                             145    0.0410 97.4 176 
 RUS  HE ES       1441 37.26                             145    0.1910 97.4 176 
 RUS  HZ I        1441 38.25        16.8 0.40            141           97.4 176 
 PTB  HZ EP       1441 21.20                             133   -0.70 9  147 260 
 PTB  HN ES   1   1441 42.75                             133   -0.28 7  147 260 
 PTB  HZ I        1441 46.09        25.2 0.12            122            147 260 
 OCA  HN ES   1   1441 45.63                             130   -0.41 7  163 353 
 OCA  HZ I        1441 50.57        25.9 0.20            122            163 353 
 NOR  HZ EP       1441 30.68                             119    0.22 8  233 235 
 NOR  HN ES       1441 57.31                             119   -0.96 8  233 235 
 NOR  HZ I        1442  5.74        14.2 0.42            112            233 235 
 HEL  HZ EP       1441 35.97                             115    0.93 8  271 256 
 HEL  HZ I        1442 13.73         4.0 0.26            108            271 256 
                                                                                
