 2017  213 1044 49.9 L   6.838 -73.167148.0  RSN  4 0.4 1.3LRSN                1
 GAP=244        0.79       8.3     6.1  7.6  0.3379E+02  0.2565E+01 -0.1301E+02E
 Epicentro: ZAPATOCA - SANTANDER                                               3
 ACTION:UPD 17-05-24 15:36 OP:jn   STATUS:               ID:20170213104449 L   I
 OLDACT:REG 17-02-13 20:31 OP:cog  STATUS:               ID:20170213103745     3
 2017-02-13-1038-00M.COL___343                                                 6
 STAT SP IPHASW D HRMM SECON CODA AMPLIT PERI AZIMU VELO AIN AR TRES W  DIS CAZ7
 BAR2 EZ EP       1045  9.74                             169   -0.1010 27.2 184 
 BAR2 EZ ES       1045 25.24                             169   -0.1910 27.2 184 
 BAR2 EZ I        1045 26.30         5.8 0.16            168           27.2 184 
 RUS  HZ EP       1045 14.02                             143   -0.1210  105 175 
 RUS  HN ES       1045 33.55                             143    0.4610  105 175 
 RUS  HZ I        1045 33.90         1.6 0.20            143            105 175 
 PTB  HZ EP       1045 16.69                             133   -0.19 9  146 257 
 PTB  HN ES       1045 37.61                             133   -0.35 9  146 257 
 PTB  HZ I        1045 39.62         4.3 0.56            133            146 257 
 ZAR  HZ EP   3   1045 23.35                             123    1.28 2  200 291 
 ZAR  HN ES       1045 47.70                             123    0.50 9  200 291 
                                                                                
