 2017  513 1941 59.0 L   6.781 -73.163147.5  RSN  9 0.3 2.0LRSN                1
 GAP=135        0.64       2.3     2.7  4.4 -0.8653E-01  0.1990E+01  0.2068E+01E
 Epicentro: LOS SANTOS - SANTANDER                                             3
 ACTION:UPD 17-06-16 13:36 OP:jn   STATUS:               ID:20170513194159 L   I
 OLDACT:UP  17-05-13 22:30 OP:edw  STATUS:               ID:20170513193751     3
 OLDACT:UP  17-05-13 22:29 OP:edw  STATUS:               ID:20170513193751     3
 OLDACT:REG 17-05-13 20:12 OP:lv   STATUS:               ID:20170513193751     3
 2017-05-13-1938-00M.COL___324                                                 6
 STAT SP IPHASW D HRMM SECON CODA AMPLIT PERI AZIMU VELO AIN AR TRES W  DIS CAZ7
 BRR  HZ IP     C 1942 20.56                             153    0.3010 70.5 301 
 BRR  HE ES       1942 37.20                             153    0.3310 70.5 301 
 BRR  HZ I        1942 42.04        12.5 0.14            151           70.5 301 
 PAM  EZ EP     C 1942 21.45                             150   -0.0810 80.2  40 
 PAM  EN ES       1942 39.10                             150   -0.0310 80.2  40 
 PAM  EZ I        1942 41.22        19.6 0.62            156           80.2  40 
 RUS  HZ EP       1942 22.61                             145   -0.1310 98.7 175 
 RUS  HN ES       1942 41.17                             145   -0.1310 98.7 175 
 RUS  HZ I        1942 42.91         6.7 0.20            148           98.7 175 
 PTB  HZ EP       1942 25.32                             133   -0.54 9  145 259 
 PTB  HN ES       1942 46.59                             133   -0.26 9  145 259 
 PTB  HZ I        1942 54.03        18.8 0.36            133            145 259 
 SPBC HZ EP       1942 27.51                             130    0.19 9  160 219 
 SPBC HN ES       1942 49.17                             130   -0.28 9  160 219 
 SPBC HZ I        1942 52.57        19.2 0.28            132            160 219 
 ZAR  HZ EP       1942 31.56                             123    0.14 9  203 293 
 ZAR  HN ES       1942 56.72                             123   -0.01 9  203 293 
 ZAR  HZ I        1943  3.83        18.0 0.32            124            203 293 
 NOR  HZ EP   2   1942 34.51                             119    0.02 4  232 235 
 NOR  HE ES   2   1943  2.63                             119    0.42 4  232 235 
 NOR  HZ I        1943  8.04         7.3 0.16            121            232 235 
 CHI  HZ EP       1942 36.59                             118    0.11 8  246 195 
 CHI  HN ES       1943  6.20                             118    0.45 8  246 195 
 CHI  HZ I        1943 10.31         2.6 0.22            121            246 195 
 SJC  HZ EP   4   1942 52.89                             106   -1.77 0  410 327 
 SJC  HN ES   4   1943 32.58                             106   -5.53 0  410 327 
 SJC  HZ I        1943 38.61         2.7 0.70            108            410 327 
                                                                                
