 2010 1013 1342 33.1 L   6.807 -73.130145.2  RSN  9 0.3 2.2LRSN                1
 GAP=137        0.59       3.7     4.6  7.9 -0.8194E+01 -0.7047E+01  0.1569E+02E
 Epicentro: LOS SANTOS - SANTANDER                                             3
 ACTION:UP  11-02-18 11:09 OP:tino STATUS:               ID:20101013134233 L   I
 2010-10-13-1340-07S.COL___124                                                 6
 STAT SP IPHASW D HRMM SECON CODA AMPLIT PERI AZIMU VELO SNR AR TRES W  DIS CAZ7
 BTL  SZ EP       1342 53.01                             172     0.410   20 309 
 BAR2 SZ EP       1342 52.62                             170    -0.110   25 194 
 BAR2 SZ I        1343  8.68        33.1 0.34                            25 194 
 BRR  HZ IP     D 1342 54.36                             152     0.110   72 297 
 BRR  HZ I        1342 54.53        41.0 0.17                            72 297 
 BRR  HN ES   2   1343 11.31                             152     0.5 5   72 297 
 GUE  SZ EP       1342 57.54                             140    -0.210  115  11 
 GRA  SZ EP       1342 58.31                             137     0.110  124  17 
 GRA  SZ ES   1   1343 17.31                             137    -0.5 7  124  17 
 GRA  SZ I        1343 20.66        17.4 0.11                           124  17 
 YOP  SZ EP       1343  3.26                             126     0.1 9  179 154 
 YOP  SN ES   3   1343 26.16                             126    -0.4 2  179 154 
 NOR  SZ EP       1343  9.00                             118    -0.1 8  237 235 
 NOR  SN ES   1   1343 36.58                             118    -0.5 6  237 235 
 CHI  HZ EP   3   1343 10.86                             117    -0.1 2  250 196 
 CHI  HN ES   3   1343 40.90                             117     0.5 2  250 196 
 CHI  HZ I        1343 48.01         7.9 0.39                           250 196 
 PRA  HZ EP   1   1343 27.08                             106     0.3 4  394 210 
 PRA  HE ES   2   1344  8.28                             106    -0.4 3  394 210 
                                                                                
