 2013 1213 1351 30.3 L   6.811 -73.168145.9  RSN  9 0.3 2.1LRSN                1
 GAP=133        0.76       2.7     3.3  5.2 -0.4596E+00  0.5260E+01 -0.1644E+01E
 Epicentro: LOS SANTOS - SANTANDER                                             3
 ACTION:UPD 14-01-13 10:17 OP:ep   STATUS:               ID:20131213135130 L   I
 OLDACT:UP  13-12-13 15:35 OP:cam  STATUS:               ID:20131213135000     3
 OLDACT:REG 13-12-13 14:37 OP:cam  STATUS:               ID:20131213135000     3
 2013-12-13-1350-00M.COL___285                                                 6
 STAT SP IPHASW D HRMM SECON CODA AMPLIT PERI AZIMU VELO AIN AR TRES W  DIS CAZ7
 BAR2 SZ EP       1351 49.87                             170   -0.0510 24.3 184 
 BAR2 SZ ES       1352  5.41                             170    0.1510 24.3 184 
 BAR2 SZ I        1352  7.46        23.4 0.20            171           24.3 184 
 BRR  HZ EP       1351 51.68                             153    0.4110 68.5 299 
 BRR  HN ES   4   1352  8.69                             153    1.04 0 68.5 299 
 PAM  SZ EP       1351 52.59                             151    0.0710 78.0  42 
 PAM  SN ES       1352  9.65                             151   -0.2410 78.0  42 
 PAM  SE I        1352 11.52        24.5 0.60            153           78.0  42 
 RUS  HZ EP       1351 54.32                             143    0.1910  102 175 
 RUS  HN ES       1352 12.74                             143   -0.0010  102 175 
 RUS  HZ I        1352 14.20        12.2 0.36            146            102 175 
 PTB  HZ EP       1351 56.33                             132   -0.71 9  146 258 
 PTB  HN ES       1352 17.85                             132   -0.08 9  146 258 
 PTB  HZ I        1352 20.15        15.0 0.12            134            146 258 
 SPBC HZ EP       1351 58.57                             129   -0.15 9  163 218 
 SPBC HN ES       1352 20.78                             129   -0.13 9  163 218 
 SPBC HZ I        1352 23.53        18.8 0.24            131            163 218 
 ZAR  HN ES       1352 28.01                             123    0.49 9  201 292 
 SML  HZ EP   1   1352  7.05                             118    0.39 6  242 336 
 SML  HN ES       1352 34.69                             118   -0.36 8  242 336 
 SML  HZ I        1352 37.66        19.3 0.24            119            242 336 
 CHI  HZ EP   1   1352  8.36                             117    0.33 6  249 195 
 URE  HN ES   4   1352 40.60                             114   -2.23 0  281 292 
 GUY2CHZ EP   4   1352 15.70                             112    1.97 0  300 234 
 RREF HZ EP   4   1352 18.52                             111    2.23 0  321 229 
                                                                                
