 2016 1113 1319 17.4 L   6.809 -73.190142.9  RSN  5 0.2 1.6LRSN                1
 GAP=135        0.43       3.9     2.2  4.6 -0.2817E+01  0.3684E+01 -0.4774E+01E
 Epicentro: ZAPATOCA - SANTANDER                                               3
 ACTION:UPD 17-10-26 21:07 OP:lp   STATUS:               ID:20161113131917 L   I
 OLDACT:REG 16-11-13 20:44 OP:dnl  STATUS:               ID:20161113131746     3
 2016-11-13-1318-00M.COL___343                                                 6
 STAT SP IPHASW D HRMM SECON CODA AMPLIT PERI AZIMU VELO AIN AR TRES W  DIS CAZ7
 BAR2 EZ EP       1319 36.63                             170   -0.0310 23.9 178 
 BAR2 EZ ES       1319 51.86                             170    0.1410 23.9 178 
 BAR2 EZ I        1319 52.63         7.8 0.26            172           23.9 178 
 BRR  HZ EP   2   1319 38.45                             154    0.51 5 66.5 300 
 BRR  HN ES   4   1319 55.59                             154    1.60 0 66.5 300 
 BRR  HZ I        1320  5.88         8.7 0.32            147           66.5 300 
 PAM  EZ EP       1319 39.48                             150    0.0510 79.8  43 
 PAM  EN ES       1319 56.48                             150   -0.1610 79.8  43 
 PAM  EZ I        1319 58.71         6.6 0.54            149           79.8  43 
 PTB  HZ EP   2   1319 43.39                             132   -0.30 5  143 258 
 PTB  HN ES       1320  4.09                             132   -0.12 9  143 258 
 PTB  HZ I        1320  6.45         4.4 0.58            134            143 258 
 ZAR  HN ES       1320 13.95                             122    0.06 9  199 292 
 ZAR  HZ I        1320 19.85         4.2 0.48            124            199 292 
                                                                                
