 2010  913 1255 35.7 L   6.618 -73.030168.5  RSN  6 0.5 1.8LRSN                1
 GAP=174        0.97       7.9    11.9 10.7 -0.4220E+02  0.2329E+02 -0.3754E+01E
 Epicentro: CURITI - SANTANDER                                                 3
 ACTION:UP  11-02-18 11:02 OP:tino STATUS:               ID:20100913125535 L   I
 2010-09-13-1252-52S.COL___120                                                 6
 STAT SP IPHASW D HRMM SECON CODA AMPLIT PERI AZIMU VELO SNR AR TRES W  DIS CAZ7
 BAR2 SZ EP   1   1255 57.34                             174    -0.611   17 260 
 BAR2 SZ ES   2   1256 15.12                             174    -0.2 7   17 260 
 BAR2 SZ I        1256 16.61        19.5 0.54                            17 260 
 RUS  HZ EP   1   1256  0.53                             154     0.011   80 184 
 RUS  HE ES   2   1256 20.36                             154     0.5 7   80 184 
 RUS  HZ I        1256 21.22         2.7 0.12                            80 184 
 BRR  HZ EP   1   1256  0.06                             150    -0.511   93 306 
 BRR  HE ES   2   1256 20.31                             150     0.4 7   93 306 
 BRR  HZ I        1256 23.57        18.2 0.26                            93 306 
 GUE  SZ EP   1   1256  3.46                             140    -0.510  135   5 
 GRA  SZ EP   1   1256  4.84                             139     0.510  142  10 
 GRA  SZ ES   2   1256 27.24                             139     0.6 7  142  10 
 GUY  SZ EP       1256 21.12                                     0.710  301 239 
 GUY  SN ES   2   1256 54.42                                    -0.9 5  301 239 
                                                                                
