 2011 1113 1516 54.3 L   6.830 -73.100142.9  RSN  5 0.3 1.6LRSN                1
 GAP=141        0.69       4.7     5.0  6.6  0.5344E+01  0.7971E+01 -0.1167E+01E
 Epicentro: LOS SANTOS - SANTANDER                                             3
 ACTION:UPD 12-07-13 16:10 OP:ep   STATUS:               ID:20111113151654 L   I
 2011-11-13-1516-13S.COL___179                                                 6
 STAT SP IPHASW D HRMM SECON CODA AMPLIT PERI AZIMU VELO AIN AR TRES W  DIS CAZ7
 BAR2 SZ EP   1   1517 13.75                             168    0.05 7 27.9 199 
 BAR2 SZ ES   1   1517 28.65                             168   -0.17 7 27.9 199 
 BAR2 SZ I        1517 30.23         6.7 0.14                          27.9 199 
 PAM  SZ EP   1   1517 16.24                             152    0.36 7 71.6  38 
 PAM  SE ES   1   1517 32.25                             152   -0.46 7 71.6  38 
 BRR  HZ EP   1   1517 15.69                             151    0.37 7 74.2 294 
 BRR  HN ES   1   1517 32.23                             151    0.51 7 74.2 294 
 BRR  HZ I        1517 33.58        13.7 0.13                          74.2 294 
 RUS  HZ EP   1   1517 18.12                             142    0.11 7  104 179 
 RUS  HZ I        1517 19.12         4.4 0.17                           104 179 
 RUS  HE ES   1   1517 36.34                             142   -0.16 7  104 179 
 ZAR  HZ EP   1   1517 26.34                             121   -0.59 6  208 291 
 ZAR  HN ES   1   1517 52.10                             121   -0.27 6  208 291 
 ZAR  HZ I        1517 57.50         4.6 0.19                           208 291 
                                                                                
