 2010  513 1005 47.7 L   6.792 -73.037143.6  RSN  8 0.4 1.7LRSN                1
 GAP=168        0.60       3.3     7.7  6.0 -0.1023E+02 -0.2984E+01  0.1574E+01E
 Epicentro: CEPITA - SANTANDER                                                 3
 ACTION:UP  10-08-24 10:04 OP:vdl  STATUS:               ID:20100513100547 L   I
 2010-05-13-1004-14S.COL___104                                                 6
 STAT SP IPHASW D HRMM SECON CODA AMPLIT PERI AZIMU VELO AIN AR TRES W  DIS CAZ7
 BAR2 SZ EP   1   10 6  6.87                             168    -0.3 8   27 216 
 BAR2 SZ ES   2   10 6 21.86                             168    -0.5 5   27 216 
 BRR  HZ EP   1   10 6  9.46                             148     0.1 8   82 295 
 BRR  HN ES   2   10 6 26.30                             148     0.1 5   82 295 
 BRR  HZ I        10 6 30.51        12.6 0.14                            82 295 
 RUS  HZ EP   1   10 6 11.40                             143     0.2 8  100 183 
 RUS  HN ES   2   10 6 29.49                             143     0.0 5  100 183 
 RUS  HZ I        10 6 30.95         4.4 0.24                           100 183 
 BRI  SZ EP   1   10 6 11.43                             142     0.2 8  106  15 
 BRI  SZ ES   2   10 6 29.81                             142     0.3 5  106  15 
 GUE  SZ EP   1   10 6 11.81                             139    -0.3 8  115   6 
 GUE  SZ ES   2   10 6 31.42                             139     0.2 5  115   6 
 GRA  SZ IP       10 6 12.65                             137     0.110  124  12 
 GRA  SZ ES   2   10 6 32.56                             137     0.6 5  124  12 
 OCA  SZ EP   1   10 6 15.71                             129    -0.4 7  163 349 
 OCA  SZ ES   2   10 6 38.04                             129    -0.2 5  163 349 
 PRA  HZ EP   1   10 6 41.65                             106    -0.1 4  397 211 
 PRA  HE ES   2   10 7 25.21                             106     1.2 3  397 211 
 PRA  HZ I        10 7 27.53         1.8 0.47                           397 211 
                                                                                
