 2015  413 1122 19.8 L   6.415 -73.683108.4  RSN  8 0.4 1.7LRSN                1
 GAP= 76        0.87       3.5     3.9  6.6  0.3074E+00  0.2599E+01 -0.7753E+01E
 Epicentro: SANTA HELENA DEL OPON - SANTANDER                                  3
 ACTION:UPD 15-06-03 16:54 OP:cam  STATUS:               ID:20150413112219 L   I
 OLDACT:REG 15-04-13 19:25 OP:spq  STATUS:               ID:20150413111750     3
 2015-04-13-1117-50M.COL___269                                                 6
 STAT SP IPHASW D HRMM SECON CODA AMPLIT PERI AZIMU VELO AIN AR TRES W  DIS CAZ7
 BAR2 EZ EP       1122 36.59                             149    0.0410 58.8  70 
 BAR2 EZ ES   1   1122 49.62                             149   -0.01 7 58.8  70 
 BAR2 EZ I        1122 51.19        15.2 0.16            155           58.8  70 
 BRR  HZ EP       1122 37.64                             142    0.2010 76.6 358 
 BRR  HN ES       1122 51.46                             142    0.2510 76.6 358 
 BRR  HZ I        1122 53.97        10.2 0.24            140           76.6 358 
 PTB  HZ EP       1122 37.89                             138   -0.3510 86.6 279 
 PTB  HN ES       1122 52.16                             138   -0.4910 86.6 279 
 PTB  HZ I        1122 55.84        12.0 0.10            134           86.6 279 
 RUS  HZ EP   1   1122 38.70                             138   -0.32 7 88.0 131 
 RUS  HN ES   1   1122 53.75                             138   -0.27 7 88.0 131 
 RUS  HZ I        1122 54.90         8.6 0.34            144           88.0 131 
 SPBC HE ES       1122 54.46                             136    0.4310 94.7 207 
 SPBC HZ I        1122 56.31        16.5 0.38            135           94.7 207 
 ZAR  HZ EP       1122 47.70                             117    0.68 9  176 313 
 ZAR  HN ES   4   1123  9.67                             117    1.41 0  176 313 
 ZAR  HZ I        1123 14.92         7.4 0.16            115            176 313 
 HEL  HZ EP   4   1122 52.04                             113    1.29 0  206 263 
 HEL  HN ES   4   1123 17.86                             113    2.96 0  206 263 
 HEL  HZ I        1123 23.96         2.8 0.32            112            206 263 
 SML  HZ EP       1122 56.97                             106   -0.40 8  267 351 
 SML  HN ES   1   1123 26.52                             106   -0.17 6  267 351 
 SML  HZ I        1123 34.28         4.3 0.26            106            267 351 
                                                                                
