 2011 1013 1619 53.1 L   6.773 -73.136141.0  RSN  7 0.3 2.1LRSN                1
 GAP=139        0.58       3.6     3.7  4.6  0.2349E+01  0.3272E+01 -0.5410E+00E
 Epicentro: LOS SANTOS - SANTANDER                                             3
 ACTION:UPD 12-07-13 16:03 OP:ep   STATUS:               ID:20111013161953 L   I
 2011-10-13-1620-00M.COL___171                                                 6
 STAT SP IPHASW D HRMM SECON CODA AMPLIT PERI AZIMU VELO AIN AR TRES W  DIS CAZ7
 BAR2 SZ EP       1620 12.16                             171    0.0710 20.6 194 
 BAR2 SZ ES       1620 26.88                             171   -0.0410 20.6 194 
 BAR2 SZ I        1620 28.05        21.3 0.25                          20.6 194 
 BTL  SZ EP   1   1620 12.36                             171    0.25 7 21.7 318 
 BRR  HZ EP       1620 14.07                             151    0.2110 73.6 300 
 BRR  HE ES       1620 30.38                             151    0.3110 73.6 300 
 BRR  HZ I        1620 32.36        25.6 0.27                          73.6 300 
 PAM  SZ EP   1   1620 15.08                             149    0.18 7 79.0  38 
 PAM  SE ES   1   1620 31.42                             149   -0.49 7 79.0  38 
 RUS  HZ EP   1   1620 15.94                             144   -0.21 7 97.5 177 
 RUS  HE ES   1   1620 34.02                             144   -0.12 7 97.5 177 
 ZAR  HZ EP   1   1620 25.09                             121   -0.36 6  206 293 
 ZAR  HN ES   1   1620 50.26                             121   -0.43 6  206 293 
 ZAR  HZ I        1620 57.21        12.6 0.27                           206 293 
 NOR  SN ES   2   1620 55.98                             118   -0.06 4  234 235 
                                                                                
