 2012  613 1548 55.5 L   6.808 -73.202144.9  RSN  4 0.2 1.8LRSN                1
 GAP=145        0.43       3.5     3.3  4.7 -0.4214E+01  0.3624E+01 -0.2792E+01E
 Epicentro: ZAPATOCA - SANTANDER                                               3
 *RUS-BARF2-PAM                                                                3
 ACTION:UPD 12-08-06 17:49 OP:ep   STATUS:               ID:20120613154855 L   I
 2012-06-13-1540-00M.COL___201                                                 6
 STAT SP IPHASW D HRMM SECON CODA AMPLIT PERI AZIMU VELO AIN AR TRES W  DIS CAZ7
 BAR2 SZ EP   1   1549 15.11                             170    0.08 7 24.0 175 
 BAR2 SZ ES   1   1549 30.50                             170    0.22 7 24.0 175 
 BAR2 SZ I        1549 31.60       121.4 0.04                          24.0 175 
 PAM  SZ EP       1549 18.03                             149    0.2010 80.8  43 
 PAM  SN ES   1   1549 34.95                             149   -0.30 7 80.8  43 
 RUS  HZ EP   1   1549 19.09                             143   -0.18 7  102 173 
 RUS  HN ES   1   1549 37.75                             143   -0.06 7  102 173 
 RUS  HZ I        1549 39.08        10.4 0.22                           102 173 
 PTB  HZ EP   1   1549 21.76                             133   -0.10 7  142 258 
 PTB  HZ I        1549 32.94         0.7 0.12                           142 258 
 PTB  HN ES   1   1549 42.38                             133   -0.04 7  142 258 
                                                                                
