 2017  213 1554 55.1 L   7.163 -73.918  8.9  RSN  6 0.4 1.3LRSN                1
 GAP=152        1.14       4.5     2.2  7.0 -0.9289E+00 -0.3693E+00  0.1229E+02E
 Epicentro: BARRANCABERMEJA - SANTANDER                                        3
 ACTION:UPD 17-05-24 15:36 OP:jn   STATUS:               ID:20170213155455 L   I
 OLDACT:REG 17-02-13 21:20 OP:cog  STATUS:               ID:20170213154750     3
 2017-02-13-1548-00M.COL___352                                                 6
 STAT SP IPHASW D HRMM SECON CODA AMPLIT PERI AZIMU VELO AIN AR TRES W  DIS CAZ7
 BRR  HZ EP       1554 59.26                             104   -0.0910 23.6 105 
 BRR  HN ES       1555  3.04                             104    0.3710 23.6 105 
 BRR  HZ I        1555  3.85        34.0 0.24             47           23.6 105 
 PTB  HZ EP       1555  9.43                              93   -0.0910 91.1 221 
 PTB  HN ES       1555 20.39                              93   -0.3910 91.1 221 
 PTB  HZ I        1555 20.93        13.1 0.32             47           91.1 221 
 BAR2 EZ EP       1555 12.07                              93    0.5210  103 128 
 ZAR  HE ES       1555 26.12                              93    0.2610  110 289 
 PAM  EZ EP       1555 17.17                              92    0.37 9  136  82 
 PAM  EN ES       1555 32.82                              92   -0.92 9  136  82 
 PAM  EZ I        1555 36.34         4.2 0.54             47            136  82 
 RUS  HZ EP       1555 21.08                              56   -0.45 9  168 147 
 RUS  HE ES       1555 42.52                              56    0.36 9  168 147 
 RUS  HZ I        1555 44.07         2.9 0.44             47            168 147 
                                                                                
