 2015  313 1020 26.3 L   6.787 -73.139152.0  RSN  7 0.2 1.4LRSN                1
 GAP=184        0.54       2.5     4.7  5.4  0.2015E-02  0.3834E+01 -0.3057E+01E
 Epicentro: LOS SANTOS - SANTANDER                                             3
 ACTION:UPD 15-04-30 16:25 OP:nd   STATUS:               ID:20150313102026 L   I
 OLDACT:REG 15-03-13 21:01 OP:y    STATUS:               ID:20150313101747     3
 2015-03-13-1017-47M.COL___287                                                 6
 STAT SP IPHASW D HRMM SECON CODA AMPLIT PERI AZIMU VELO AIN AR TRES W  DIS CAZ7
 BAR2 EZ EP       1020 46.49                             171   -0.2010 22.1 193 
 BAR2 EZ ES   1   1021  2.65                             171    0.08 7 22.1 193 
 BAR2 EZ I        1021  4.19         3.2 0.30            172           22.1 193 
 BRR  HZ EP   1   1020 48.70                             153    0.47 7 72.6 299 
 RUS  HZ EP   1   1020 50.28                             145   -0.32 7 99.1 176 
 RUS  HN ES   1   1021  9.55                             145    0.03 7 99.1 176 
 RUS  HZ I        1021 12.02         2.0 0.38            148           99.1 176 
 PTB  HE ES   1   1021 15.14                             133   -0.19 7  148 259 
 PTB  HZ I        1021 16.83         3.1 0.14            135            148 259 
 OCA  HN ES   1   1021 17.95                             131    0.10 7  162 353 
 OCA  HZ I        1021 21.26         2.5 0.34            133            162 353 
 SPBC HZ EP       1020 55.61                             130    0.35 9  163 220 
 SPBC HN ES   1   1021 17.67                             130   -0.15 7  163 220 
 SPBC HZ I        1021 21.63         4.4 0.18            133            163 220 
 SML  HZ EP   1   1021  3.27                             118   -0.22 6  245 335 
 SML  HN ES   1   1021 32.36                             118   -0.12 6  245 335 
 SML  HZ I        1021 34.77         3.0 0.10            120            245 335 
                                                                                
