 2016  213 1154 13.9 L   6.763 -73.151144.2  RSN  9 0.5 1.9LRSN                1
 GAP=138        0.62       4.2     4.4  6.9 -0.5046E+01  0.4518E+01  0.8264E+00E
 Epicentro: LOS SANTOS - SANTANDER                                             3
 ACTION:UPD 16-03-04 21:25 OP:rebc STATUS:               ID:20160213115413 L   I
 OLDACT:REG 16-02-13 22:19 OP:dnl  STATUS:               ID:20160213114748     3
 2016-02-13-1147-48M.COL___301                                                 6
 STAT SP IPHASW D HRMM SECON CODA AMPLIT PERI AZIMU VELO AIN AR TRES W  DIS CAZ7
 BAR2 EZ EP       1154 33.40                             172    0.1110 19.2 190 
 BAR2 EZ ES   2   1154 48.77                             172    0.38 5 19.2 190 
 BAR2 EZ I        1154 50.26        16.6 0.18            163           19.2 190 
 PAM  EZ EP       1154 36.32                             149    0.1310 80.9  38 
 PAM  EE ES   4   1154 49.25                             149   -4.30 0 80.9  38 
 PAM  EZ I        1154 51.20         6.2 0.19            159           80.9  38 
 RUS  HZ EP   2   1154 37.37                             145    0.14 5 96.5 176 
 RUS  HE ES   2   1154 55.05                             145   -0.36 5 96.5 176 
 RUS  HZ I        1154 57.41         6.5 0.39            143           96.5 176 
 PTB  HZ EP   2   1154 40.56                             132   -0.09 5  146 260 
 PTB  HE ES   2   1155  1.48                             132   -0.00 5  146 260 
 PTB  HZ I        1155  8.80         9.6 0.18            129            146 260 
 SPBC HZ EP   2   1154 42.34                             130    0.37 5  160 220 
 SPBC HN ES   2   1155  3.68                             130   -0.16 5  160 220 
 SPBC HZ I        1155  9.04        20.0 0.10            127            160 220 
 ZAR  HZ EP   2   1154 46.14                             122   -0.24 4  205 293 
 ZAR  HN ES   2   1155 10.71                             122   -0.98 4  205 293 
 ZAR  HZ I        1155 17.02         9.6 0.15            121            205 293 
 NOR  HZ EP   2   1154 48.73                             119   -0.53 4  232 235 
 NOR  HE ES   2   1155 17.45                             119    0.63 4  232 235 
 NOR  HZ I        1155 24.67         7.6 0.16            117            232 235 
 CHI  HZ EP       1154 50.75                             117   -0.34 8  245 195 
 CHI  HN ES   2   1155 19.38                             117   -0.70 4  245 195 
 CHI  HZ I        1155 26.59         5.3 0.30            117            245 195 
 GUY2CHZ EP   2   1154 58.44                             112    1.30 4  298 235 
 GUY2CHN ES   2   1155 31.25                             112    0.40 4  298 235 
 GUY2CHZ I        1155 42.49         3.3 0.62                           298 235 
                                                                                
