 2016  913 1620 49.3 L   6.779 -73.116140.3  RSN  8 0.3 2.0LRSN                1
 GAP=141        0.60       2.7     2.6  4.4 -0.1607E+01  0.4665E+01  0.6728E+00E
 Epicentro: LOS SANTOS - SANTANDER                                             3
 ACTION:UPD 17-08-17 21:09 OP:lp   STATUS:               ID:20160913162049 L   I
 OLDACT:REG 16-09-13 21:25 OP:dnl  STATUS:               ID:20160913161742     3
 2016-09-13-1618-00M.COL___315                                                 6
 STAT SP IPHASW D HRMM SECON CODA AMPLIT PERI AZIMU VELO AIN AR TRES W  DIS CAZ7
 BAR2 EZ EP       1621  8.09                             171   -0.1810 21.9 200 
 BAR2 EZ ES       1621 22.78                             171   -0.2710 21.9 200 
 BAR2 EZ I        1621 24.12        19.1 0.16            169           21.9 200 
 PAM  EZ EP       1621 11.10                             150    0.1510 77.2  37 
 PAM  EN ES       1621 28.01                             150    0.1910 77.2  37 
 PAM  EZ I        1621 29.10         9.2 0.20            153           77.2  37 
 RUS  HZ EP       1621 12.05                             143   -0.3110 98.1 178 
 RUS  HE ES       1621 30.75                             143    0.4310 98.1 178 
 RUS  HZ I        1621 31.52         6.9 0.22            145           98.1 178 
 PTB  HZ EP   2   1621 15.84                             130   -0.27 5  151 260 
 PTB  HE ES       1621 36.83                             130   -0.17 9  151 260 
 PTB  HZ I        1621 37.75        11.3 0.30            130            151 260 
 SPBC HZ EP       1621 17.10                             128   -0.34 9  163 220 
 SPBC HN ES   2   1621 39.49                             128    0.13 5  163 220 
 SPBC HZ I        1621 45.94        17.8 0.34            128            163 220 
 ZAR  HZ EP   2   1621 22.09                             121    0.26 4  208 292 
 ZAR  HE ES       1621 47.27                             121    0.09 8  208 292 
 ZAR  HZ I        1621 52.36        12.8 0.50            121            208 292 
 NOR  HZ EP   2   1621 24.85                             117   -0.04 4  236 235 
 NOR  HE ES       1621 52.79                             117    0.17 8  236 235 
 NOR  HZ I        1621 56.45        10.1 0.20            118            236 235 
 GUY2CHZ EP   2   1621 33.46                             111    0.62 4  303 235 
 GUY2CHN ES       1622  7.10                             111    0.32 7  303 235 
 GUY2CHZ I        1622 14.79         7.8 0.40                           303 235 
                                                                                
