 2016 1113 1107 42.0 L   6.723 -73.117144.0  RSN  7 0.3 2.0LRSN                1
 GAP=125        0.78       4.5     4.1  5.8  0.7075E+01  0.4914E+01  0.1149E+02E
 Epicentro: JORDAN - SANTANDER                                                 3
 ACTION:UPD 17-10-26 21:07 OP:lp   STATUS:               ID:20161113110742 L   I
 OLDACT:REG 16-11-13 20:41 OP:dnl  STATUS:               ID:20161113105616     3
 2016-11-13-1058-00M.COL___340                                                 6
 STAT SP IPHASW D HRMM SECON CODA AMPLIT PERI AZIMU VELO AIN AR TRES W  DIS CAZ7
 BAR2 EZ IP     C 11 8  1.71                             173    0.3910 16.2 206 
 BAR2 EZ ES       11 8 16.26                             173   -0.1010 16.2 206 
 BAR2 EZ I        11 8 17.52        24.6 0.22            172           16.2 206 
 BRR  HZ IP     C 11 8  3.62                             150    0.2210 78.2 303 
 BRR  HE ES       11 8 20.34                             150    0.2710 78.2 303 
 BRR  HZ I        11 8 24.75        11.5 0.12            149           78.2 303 
 PAM  EZ EP       11 8  4.53                             149    0.1810 82.3  34 
 PAM  EN ES       11 8 21.39                             149   -0.3810 82.3  34 
 PAM  EZ I        11 8 23.91        27.4 0.58            151           82.3  34 
 PTB  HZ EP       11 8  8.32                             131   -0.68 9  149 262 
 PTB  HE ES   4   11 8 30.11                             131    0.06 0  149 262 
 PTB  HZ I        11 8 31.74        13.7 0.14            132            149 262 
 ZAR  HZ EP   2   11 8 15.29                             121    0.29 4  210 294 
 ZAR  HN ES       11 8 40.68                             121   -0.04 8  210 294 
 ZAR  HZ I        11 8 45.53         6.9 0.12            122            210 294 
 PTGC HZ EP       11 8 24.64                             112   -0.13 7  300 159 
 PTGC HN ES       11 8 58.22                             112    0.10 7  300 159 
 SJC  HZ EP   4   11 8 37.18                             105   -1.39 0  418 327 
 SJC  HE ES   4   11 9 17.39                             105   -5.28 0  418 327 
 SJC  HZ I        11 9 21.82         2.4 0.48            106            418 327 
                                                                                
