 2012 1013 1613 44.9 L   6.783 -73.128140.0  RSN 10 0.4 2.7LRSN 3.1WRSN        1
 SPEC AVERAGE  MO 13.7 ST 10.1 OM  2.9 f0 3.52 R0.4657 AL 2.10 WI 20.3 MW  3.1 3
 SPEC SD       MO  0.3 ST 13.0 OM  0.9 f0 1.22 R0.1434 AL      WI      MW  0.2 3
 GAP= 73        0.75       3.8     3.4  5.4  0.1247E+01  0.4340E+01  0.6743E+01E
 Epicentro: LOS SANTOS - SANTANDER                                             3
 SPEC RUS HH N MO 13.4 ST0.998 OM  1.8 f0 3.06 R0.4804 AL 2.17 WI 11.1 MW  2.9 3
 SPEC RUS HH N T161425 K 0.000 GD  171 VS 4.20 DE 3.00 Q0230.0 QA 0.60 VS 4.20 3
 SPEC HEL HH N MO 13.7 ST0.782 OM  1.8 f0 2.32 R0.6336 AL 1.36 WI 27.1 MW  3.0 3
 SPEC HEL HH N T161455 K 0.000 GD  307 VS 4.20 DE 3.00 Q0230.0 QA 0.60 VS 4.20 3
 SPEC BRR HH N MO 14.2 ST 28.4 OM  2.6 f0 5.19 R0.2832 AL 2.76 WI 22.6 MW  3.4 3
 SPEC BRR HH N T161421 K 0.000 GD  158 VS 4.20 DE 3.00 Q0230.0 QA 0.60 VS 4.20 3
 ACTION:UPD 12-11-22 17:03 OP:ep   STATUS:               ID:20121013161344 L   I
 2012-10-13-1610-00M.COL___231                                                 6
 STAT SP IPHASW D HRMM SECON CODA AMPLIT PERI AZIMU VELO AIN AR TRES W  DIS CAZ7
 BAR2 SZ EP       1614  3.67                             171   -0.1310 21.9 196 
 BAR2 SZ I        1614 19.30       170.7 0.22                          21.9 196 
 GIR2 SZ EP       1614  3.76                             166   -0.1910 33.5 347 
 GIR2 SZ ES   1   1614 18.99                             166    0.18 7 33.5 347 
 BRR  HZ IP     C 1614  5.55                             151   -0.0310 73.9 299 
 BRR  HZ I        1614  5.90       126.2 0.10                          73.9 299 
 BRR  HN ES   1   1614 22.21                             151    0.49 7 73.9 299 
 PAM  SZ IP       1614  6.68                             150    0.1610 77.6  38 
 PAM  SN ES   1   1614 23.19                             150   -0.19 7 77.6  38 
 PAM  SN I        1614 24.69       215.2 0.50                          77.6  38 
 RUS  HZ EP       1614  7.68                             143   -0.2610 98.6 177 
 RUS  HN ES   1   1614 26.04                             143    0.13 7 98.6 177 
 RUS  HN I        1614 27.54        45.3 0.26                          98.6 177 
 TAM  HZ IP     D 1614 12.01                             130    0.11 9  153 104 
 TAM  HZ I        1614 12.06        75.8 0.10                           153 104 
 TAM  HN ES   3   1614 32.66                             130   -0.30 2  153 104 
 ZAR  HZ EP       1614 16.74                             121   -0.50 8  207 292 
 ZAR  HN ES   1   1614 42.50                             121    0.03 6  207 292 
 ZAR  HN I        1614 43.66        95.8 0.44                           207 292 
 CHI  HZ EP   3   1614 22.98                             116    0.84 2  247 196 
 CHI  HN ES   2   1614 50.96                             116   -0.23 4  247 196 
 CHI  HN I        1614 56.95        13.1 0.22                           247 196 
 HEL  HZ EP       1614 26.00                             113    1.01 8  274 256 
 HEL  HN ES   1   1614 55.40                             113   -0.86 6  274 256 
 HEL  HN I        1615  1.49        26.1 0.36                           274 256 
 PRA  HZ EP       1614 38.25                             106    0.11 6  391 210 
 PRA  HN ES   2   1615 20.03                             106    0.35 3  391 210 
 PRA  HN I        1615 25.06         7.2 0.38                           391 210 
                                                                                
