 2012  413 1536  0.1 L   6.362 -73.556117.3  RSN  6 0.3 1.7LRSN                1
 GAP=146        0.85       5.3     4.2  8.7  0.4578E+01  0.4615E+01 -0.4317E+01E
 Epicentro: SANTA HELENA DEL OPON - SANTANDER                                  3
 ACTION:UPD 12-07-05 11:53 OP:tino STATUS:               ID:20120413153600 L   I
 2012-04-13-1530-00M.COL___181                                                 6
 STAT SP IPHASW D HRMM SECON CODA AMPLIT PERI AZIMU VELO AIN AR TRES W  DIS CAZ7
 BAR2 SZ EP       1536 17.59                             156     0.310   49  58 
 BAR2 SZ I        1536 17.86        51.5 0.11                            49  58 
 BAR2 SZ ES   1   1536 30.54                             156    -0.2 7   49  58 
 RUS  HZ EP   1   1536 19.52                             146     0.3 7   74 135 
 RUS  HN ES   1   1536 33.87                             146    -0.1 7   74 135 
 RUS  HZ I        1536 35.92         7.7 0.27                            74 135 
 BRR  HZ EP   1   1536 19.44                             142     0.2 7   84 348 
 BRR  HZ I        1536 19.64        15.0 0.11                            84 348 
 BRR  HE ES   1   1536 34.73                             142     0.6 7   84 348 
 PTB  HZ EP   1   1536 20.41                             136    -0.2 7  102 281 
 PTB  HN ES   1   1536 36.26                             136    -0.4 7  102 281 
 PTB  HZ I        1536 37.80         4.3 0.12                           102 281 
 PAM  SZ EP   1   1536 24.86                             126    -0.3 7  144  41 
 PAM  SN ES   1   1536 44.19                             126    -0.5 7  144  41 
 PAM  SZ I        1536 45.85         4.6 0.23                           144  41 
 ZAR  HN ES   1   1536 52.25                             117     0.0 7  191 311 
 ZAR  HZ I        1536 57.61         8.7 0.25                           191 311 
                                                                                
