 2017  313 1804 48.6 L   6.840 -73.146153.5  RSN 22 0.5 2.8LRSN                1
 GAP= 70        1.25       3.5     3.5  5.6 -0.8971E+00  0.3677E+01  0.2828E+01E
 Epicentro: LOS SANTOS - SANTANDER                                             3
 ACTION:UPD 17-05-25 18:40 OP:jn   STATUS:               ID:20170313180448 L   I
 OLDACT:UP  17-03-14 01:14 OP:edw  STATUS:               ID:20170313175741     3
 OLDACT:REG 17-03-13 21:21 OP:dnl  STATUS:               ID:20170313175741     3
 2017-03-13-1758-00M.COL___409                                                 6
 STAT SP IPHASW D HRMM SECON CODA AMPLIT PERI AZIMU VELO AIN AR TRES W  DIS CAZ7
 BAR2 EZ IP     D 18 5  9.21                             170   -0.0710 27.7 188 
 BAR2 EZ ES       18 5 25.16                             170   -0.2310 27.7 188 
 BAR2 EZ I        18 5 27.01       177.8 0.32            169           27.7 188 
 BRR  HZ IP     C 18 5 10.99                             154    0.4910 69.1 295 
 BRR  HN ES       18 5 28.19                             154    0.6210 69.1 295 
 BRR  HZ I        18 5 28.90        99.6 0.30            152           69.1 295 
 PAM  EZ IP     C 18 5 11.99                             152    0.5110 74.0  42 
 PAM  EN ES       18 5 29.35                             152    0.0410 74.0  42 
 PAM  EZ I        18 5 31.38        65.6 0.58            150           74.0  42 
 RUS  HZ IP     D 18 5 13.17                             144   -0.2910  105 176 
 RUS  HN ES       18 5 31.88                             144   -0.9510  105 176 
 RUS  HZ I        18 5 33.29        84.8 0.30            141            105 176 
 PTB  HZ EP       18 5 16.32                             133    0.01 9  149 257 
 PTB  HN ES       18 5 37.15                             133   -0.76 9  149 257 
 PTB  HZ I        18 5 39.91        42.8 0.12            130            149 257 
 TAM  HZ IP     D 18 5 17.62                             131    0.58 9  156 107 
 TAM  HZ I        18 5 39.35        28.2 0.22            129            156 107 
 TAM  HN ES       18 5 39.44                             131    0.24 9  156 107 
 SPBC HZ EP       18 5 18.17                             130    0.12 9  167 218 
 SPBC HN ES       18 5 40.55                             130   -0.45 9  167 218 
 SPBC HZ I        18 5 45.02       105.8 0.24            127            167 218 
 ZAR  HZ EP       18 5 21.47                             124    0.06 9  202 291 
 ZAR  HN ES       18 5 47.30                             124    0.31 9  202 291 
 ZAR  HZ I        18 5 52.59        80.5 0.40            121            202 291 
 NOR  HZ EP     D 18 5 25.29                             119    0.21 8  237 234 
 NOR  HN ES   4   18 5 51.90                             119   -1.63 0  237 234 
 NOR  HZ I        18 6  2.54        30.0 0.40            117            237 234 
 CHI  HZ EP       18 5 27.42                             118    0.20 8  253 195 
 CHI  HN ES       18 5 56.66                             118   -0.67 8  253 195 
 CHI  HZ I        18 6  0.52        36.0 0.48            115            253 195 
 ROSC BZ EP   4   18 5 29.05                             117    1.46 0  257 211 
 ROSC BN ES   4   18 5 56.45                             117   -1.53 0  257 211 
 ROSC BZ I        18 6  3.86        97.8 0.45            115            257 211 
 HEL  HZ EP   4   18 5 30.54                             116    1.18 0  273 255 
 HEL  HN ES       18 6  1.81                             116    0.68 8  273 255 
 HEL  HZ I        18 6  7.28        23.1 0.28            113            273 255 
 URE  HZ EP   9   18 5 29.45                             115   -0.44 0  282 291 
 URE  HN ES       18 6  0.02                             115   -1.62 7  282 291 
 URE  HZ I        18 6 12.95        36.0 0.32            112            282 291 
 GUY2CHZ EP       18 5 33.49                             113    0.61 7  304 234 
 GUY2CHN ES   4   18 6 10.28                             113    2.87 0  304 234 
 GUY2CHZ  IAML    18 6 13.27        16.6 0.28                           304 234 
 VIL  EZ EP       18 5 32.95                             113    0.06 7  308 191 
 VIL  EN ES       18 6  7.08                             113   -0.34 7  308 191 
 VIL  EZ I        18 6 12.70        60.8 0.34            110            308 191 
 PTGC HZ EP   4   18 5 32.41                             112   -0.89 0  313 159 
 ELA  HZ EP       18 5 36.13                             111   -0.01 7  332 229 
 ELA  HN ES   4   18 6 16.47                             111    3.27 0  332 229 
 ELA  HZ I        18 6 21.90        22.0 0.54            109            332 229 
 CBOC HZ EP   4   18 5 37.55                             111    1.53 0  335 251 
 CBOC HN ES   4   18 6  9.71                             111   -3.28 0  335 251 
 CBOC HZ I        18 6 18.14         6.1 0.17            108            335 251 
 DBB  EZ EP   4   18 5 34.45                             110   -1.93 0  339 273 
 DBB  EN ES   2   18 6 12.80                             110   -0.84 3  339 273 
 DBB  EZ I        18 6 13.95        18.2 0.20            108            339 273 
 ARGC HZ EP   4   18 5 38.79                             109    0.69 0  355 340 
 ARGC HN ES   4   18 6 18.32                             109    1.63 0  355 340 
 ANIL HN ES       18 6 19.24                             109    0.77 6  361 224 
 ORTC HZ EP       18 5 43.61                             107    0.38 6  399 216 
 ORTC HN ES       18 6 25.77                             107   -0.06 6  399 216 
 ORTC HZ I        18 6 30.58        18.9 0.24            105            399 216 
 SJC  HZ EP       18 5 42.88                             107   -1.13 6  405 327 
 SJC  HN ES   4   18 6 24.82                             107   -2.39 0  405 327 
 SJC  HZ I        18 6 33.20        12.6 0.40            105            405 327 
 CRJC HZ EP       18 5 49.57                             104   -1.25 5  463   4 
 CRJC HN ES       18 6 38.28                             104   -1.05 5  463   4 
 CRJC HZ I        18 6 44.34        21.2 0.40            102            463   4 
 SMAR HZ EP   4   18 5 52.41                             103   -1.77 0  493 346 
 SMAR HN ES   4   18 6 41.44                             103   -3.89 0  493 346 
                                                                                
