 2011 1213 1011 59.2 L   6.806 -73.203136.4  RSN  4 0.1 1.3LRSN                1
 GAP=145        0.32       3.3     3.4  6.4 -0.3732E+01  0.3708E+01 -0.1445E-01E
 Epicentro: ZAPATOCA - SANTANDER                                               3
 ACTION:UPD 12-07-13 16:15 OP:ep   STATUS:               ID:20111213101159 L   I
 2011-12-13-1010-00M.COL___185                                                 6
 STAT SP IPHASW D HRMM SECON CODA AMPLIT PERI AZIMU VELO AIN AR TRES W  DIS CAZ7
 BAR2 SZ EP   1   1012 17.64                             170   -0.06 7 23.7 175 
 BAR2 SZ I        1012 34.99         8.0 1.02                          23.7 175 
 PAM  SZ EP   1   1012 20.56                             148   -0.09 7 81.1  43 
 PAM  SN ES   2   1012 37.53                             148    0.14 5 81.1  43 
 RUS  HZ EP   1   1012 22.28                             141    0.15 7  102 173 
 RUS  HN ES   2   1012 39.86                             141   -0.15 5  102 173 
 RUS  HZ I        1012 42.02         2.3 0.47                           102 173 
 PTB  HZ EP   2   1012 24.84                             131   -0.01 5  142 258 
 PTB  HN ES   2   1012 44.89                             131    0.03 5  142 258 
                                                                                
