 2017  713 1501 14.7 L   6.744 -73.193140.9  RSN  5 0.4 1.7LRSN                1
 GAP=133        1.02       5.6     5.2  8.1 -0.4892E+01  0.1653E+02 -0.9528E+01E
 Epicentro: VILLANUEVA - SANTANDER                                             3
 ACTION:UPD 17-08-30 15:32 OP:rebc STATUS:               ID:20170713150114 L   I
 OLDACT:UP  17-07-13 22:32 OP:dani STATUS:               ID:20170713145737     3
 OLDACT:UP  17-07-13 22:32 OP:dani STATUS:               ID:20170713145737     3
 OLDACT:REG 17-07-13 20:28 OP:dani STATUS:               ID:20170713145737     3
 2017-07-13-1458-00M.COL___377                                                 6
 STAT SP IPHASW D HRMM SECON CODA AMPLIT PERI AZIMU VELO AIN AR TRES W  DIS CAZ7
 BAR2 EZ EP       15 1 33.47                             172   -0.2010 16.8 176 
 BAR2 EZ ES       15 1 48.83                             172    0.4110 16.8 176 
 BAR2 EZ I        15 1 50.24        12.0 0.24            173           16.8 176 
 PAM  EZ EP       15 1 36.60                             147   -0.3510 85.5  40 
 PAM  EE ES       15 1 54.10                             147   -0.1810 85.5  40 
 PAM  EZ I        15 1 56.12        10.4 0.44            150           85.5  40 
 RUS  HZ EP       15 1 38.00                             144    0.4010 94.9 173 
 RUS  HN ES       15 1 55.58                             144    0.1410 94.9 173 
 RUS  HZ I        15 1 56.68         6.4 0.22            150           94.9 173 
 PTB  HZ EP       15 1 40.54                             132   -0.20 9  142 261 
 PTB  HN ES       15 2  0.30                             132   -0.73 9  142 261 
 PTB  HZ I        15 2  5.30         4.7 0.20            132            142 261 
 ZAR  HZ EP       15 1 47.23                             122    0.60 9  202 294 
 ZAR  HN ES   2   15 2 12.38                             122    0.88 4  202 294 
 ZAR  HZ I        15 2 20.52         6.3 0.26            122            202 294 
                                                                                
