 2012 1013 1133 19.3 L   6.774 -73.126145.1  RSN 14 0.4 2.7LRSN 3.2WRSN        1
 SPEC AVERAGE  MO 13.8 ST  4.3 OM  2.3 f0 3.24 R0.4799 AL 2.23 WI 25.3 MW  3.2 3
 SPEC SD       MO  0.1 ST  4.3 OM  0.6 f00.793 R0.1085 AL      WI      MW  0.1 3
 GAP= 67        0.75       3.9     3.3  4.9  0.8181E+00  0.3770E+01  0.7679E+01E
 Epicentro: LOS SANTOS - SANTANDER                                             3
 XNEAR  100.0 XFAR  800.0 SDEP 100.0                                           3
 SPEC RUS HH N MO 13.7 ST  3.2 OM  2.1 f0 3.57 R0.4118 AL 3.41 WI 16.0 MW  3.1 3
 SPEC RUS HH N T1134 0 K 0.000 GD  174 VS 4.20 DE 3.00 Q0230.0 QA 0.60 VS 4.20 3
 SPEC PRA HH N MO 13.8 ST  2.0 OM  1.8 f0 2.85 R0.5158 AL 1.81 WI 26.4 MW  3.1 3
 SPEC PRA HH N T113450 K 0.000 GD  417 VS 4.20 DE 3.00 Q0230.0 QA 0.60 VS 4.20 3
 SPEC HEL HH Z MO 13.8 ST  2.2 OM  1.2 f0 2.88 R0.5104 AL 1.96 WI 32.0 MW  3.2 3
 SPEC HEL HH Z T113359 K 0.000 GD  309 VP 7.60 DE 3.00 Q0230.0 QA 0.60 VS 4.20 3
 SPEC CHI HH N MO 13.9 ST  1.4 OM  2.1 f0 2.29 R0.6419 AL 2.21 WI 29.4 MW  3.2 3
 SPEC CHI HH N T113418 K 0.000 GD  285 VS 4.20 DE 3.00 Q0230.0 QA 0.60 VS 4.20 3
 SPEC BRR HH N MO 14.0 ST 12.9 OM  2.4 f0 4.60 R0.3196 AL 1.78 WI 22.9 MW  3.3 3
 SPEC BRR HH N T113357 K 0.000 GD  163 VS 4.20 DE 3.00 Q0230.0 QA 0.60 VS 4.20 3
 ACTION:UP  12-11-22 17:03 OP:ep   STATUS:               ID:20121013113320dL   I
 2012-10-13-1130-00M.COL___231                                                 6
 STAT SP IPHASW D HRMM SECON CODA AMPLIT PERI AZIMU VELO AIN AR TRES W  DIS CAZ7
 BAR2 SZ EP       1133 38.39                             171   -0.3610 21.1 197 
 BAR2 SZ ES   1   1133 53.54                             171   -0.43 7 21.1 197 
 BAR2 SZ I        1133 57.50        91.3 0.46                          21.1 197 
 GIR2 SZ EP       1133 38.77                             166   -0.1610 34.5 348 
 BRR  HZ EP       1133 40.64                             151    0.1310 74.5 300 
 BRR  HN ES   1   1133 57.67                             151    0.57 7 74.5 300 
 PAM  SZ IP       1133 41.47                             151    0.0210 78.3  37 
 PAM  SZ I        1133 41.53        75.9 0.18                          78.3  37 
 PAM  SN ES   1   1133 58.65                             151   -0.11 7 78.3  37 
 RUS  HZ EP       1133 42.64                             144   -0.0810 97.6 177 
 RUS  HN ES   1   1134  1.40                             144    0.37 7 97.6 177 
 RUS  HN I        1134  3.01       102.9 0.38                          97.6 177 
 TAM  HZ IP     C 1133 46.90                             131    0.29 9  152 104 
 TAM  HZ I        1133 47.02        59.3 0.34                           152 104 
 TAM  HN ES   1   1134  8.30                             131    0.34 7  152 104 
 ZAR  HE ES   2   1134 16.52                             122   -0.97 4  207 293 
 ZAR  HN I        1134 22.94        52.7 0.26                           207 293 
 AGZ  SZ EP       1133 52.55                             121   -0.36 8  216 160 
 NOR  SN EP       1133 54.80                             118   -0.15 8  235 235 
 NOR  SN I        1134 27.24        61.6 0.18                           235 235 
 CHI  HZ EP       1133 56.62                             117   -0.05 8  246 196 
 CHI  HZ I        1134 31.17        12.2 0.64                           246 196 
 HEL  HZ EP       1133 59.85                             114    0.27 8  273 256 
 HEL  HN I        1134 38.30        16.8 0.32                           273 256 
 GUY  SZ EP       1134  3.80                             112    0.69 7  304 236 
 ANIL HZ EP   9   1133 44.56                             108   -24.4 0  357 225 
 ANIL HN ES   1   1134 24.03                                    0.69 5  357 225 
 ANIL HZ I        1134 27.38        46.4 0.32                           357 225 
 PRA  HZ EP       1134 12.20                             106   -0.38 6  391 210 
 PRA  HN I        1135  0.51         8.5 0.22                           391 210 
                                                                                
