 2017 1013 1554 51.8 L   6.805 -73.193139.0  RSN  4 0.1 1.4LRSN                1
 GAP=233        0.32       2.9     2.6  3.4  0.4126E+01 -0.3032E+00  0.1082E+01E
 Epicentro: ZAPATOCA - SANTANDER                                               3
 ACTION:UPD 17-11-07 19:31 OP:rebc STATUS:               ID:20171013155451 L   I
 OLDACT:DUP 17-10-13 23:58 OP:lv   STATUS:               ID:20171013154120d    3
 OLDACT:REG 17-10-13 21:39 OP:lv   STATUS:               ID:20171013154119     3
 2017-10-13-1548-00M.COL___435                                                 6
 STAT SP IPHASW D HRMM SECON CODA AMPLIT PERI AZIMU VELO AIN AR TRES W  DIS CAZ7
 BAR2 EZ EP       1555 10.72                             170    0.1010 23.5 177 
 BAR2 EZ I        1555 28.36        10.7 0.32            166           23.5 177 
 BRR  HZ ES       1555 27.62                             153   -0.0410 66.4 300 
 RUS  HZ EP       1555 14.95                             142   -0.0210  102 173 
 RUS  HN ES       1555 33.01                             142   -0.0310  102 173 
 RUS  HZ I        1555 34.43         3.9 0.32            143            102 173 
 PTB  HZ EP       1555 17.69                             131   -0.08 9  143 258 
 PTB  HN ES       1555 38.08                             131    0.06 9  143 258 
 PTB  HZ I        1555 40.18         2.5 0.52            133            143 258 
                                                                                
