 2011  613 1607 37.4 L   6.833 -73.120141.7  RSN 11 0.5 2.4LRSN                1
 GAP=158        0.98       3.6     7.2  6.7 -0.1131E+02  0.1024E+02  0.2151E+01E
 Epicentro: LOS SANTOS - SANTANDER                                             3
 ACTION:UP  11-07-14 19:05 OP:ep   STATUS:               ID:20110613160737 L   I
 2011-06-13-1606-02S.COL___131                                                 6
 STAT SP IPHASW D HRMM SECON CODA AMPLIT PERI AZIMU VELO SNR AR TRES W  DIS CAZ7
 BAR2 SZ EP       16 7 56.60                             168     0.010   27 195 
 BAR2 SZ ES   1   16 8 11.10                             168    -0.5 7   27 195 
 BAR2 SZ I        16 8 13.42        48.8 0.16                            27 195 
 BRR  HZ EP   1   16 7 58.18                             152     0.1 7   72 295 
 BRR  HE ES   1   16 8 15.16                             152     0.8 7   72 295 
 BRR  HZ I        16 8 16.28       108.5 0.15                            72 295 
 RUS  HZ EP   1   16 8  0.46                             142    -0.5 7  104 178 
 BRI  SZ EP   1   16 8  0.62                             142     0.1 7  104  20 
 RUS  HE ES   1   16 8 20.05                             142     0.7 7  104 178 
 BRI  SZ ES   1   16 8 18.52                             142    -0.1 7  104  20 
 BRI  SZ I        16 8 20.94        30.1 0.38                           104  20 
 GRA  SZ IP       16 8  1.86                             137     0.010  121  17 
 GRA  SZ ES   1   16 8 21.23                             137     0.2 7  121  17 
 GRA  SZ I        16 8 22.16        51.3 0.37                           121  17 
 OCA  SZ EP       16 8  4.98                             129    -0.1 9  157 352 
 OCA  SZ ES   1   16 8 26.01                             129    -0.6 7  157 352 
 OCA  SZ I        16 8 27.91        28.1 0.17                           157 352 
 NOR  SZ EP   1   16 8 13.09                             117    -0.2 6  239 234 
 NOR  SN ES   1   16 8 40.60                             117    -0.8 6  239 234 
 CHI  HZ EP   1   16 8 15.63                             116     0.3 6  253 196 
 CHI  HE ES   1   16 8 44.19                             116    -0.7 6  253 196 
 CHI  HZ I        16 8 52.79        10.3 0.44                           253 196 
 DBB  SZ EP   1   16 8 24.94                             109     0.0 5  342 274 
 TOL  SZ EP   1   16 8 26.89                             108     0.9 5  348 225 
 PRA  HZ EP   1   16 8 32.08                             106     0.8 4  397 210 
 PRA  HE ES   1   16 9 13.63                             106     0.3 4  397 210 
                                                                                
