 2010  313 1859 25.8 L   6.822 -73.049146.3  RSN 19 0.6 4.7LRSN                1
 GAP=162        1.16       3.8     6.4  6.5 -0.3531E+01  0.7567E+01  0.5832E+01E
 Epicentro: LOS SANTOS - SANTANDER                                             3
 ACTION:UP  10-08-24 09:53 OP:vdl  STATUS:               ID:20100313185925 L   I
 2010-03-13-1857-13S.COL___095                                                 6
 STAT SP IPHASW D HRMM SECON CODA AMPLIT PERI AZIMU VELO SNR AR TRES W  DIS CAZ7
 BAR2 SZ IP       1859 46.05                             168     0.410   30 210 
 BAR2 SZ ES   1   19 0  0.19                             168    -1.0 7   30 210 
 BRR  HZ IP       1859 47.89                             150     0.310   80 293 
 BRR  HN ES       19 0  4.65                             150     0.210   80 293 
 BRR  HZ I        19 0  7.98      5858.3 0.41                            80 293 
 RUS  HZ IP     C 1859 50.01                             143     0.210  103 182 
 RUS  HN ES   1   19 0  8.15                             143    -0.4 7  103 182 
 RUS  HZ I        19 0 10.46      7207.4 0.27                           103 182 
 OCA  SZ EP       1859 54.42                             130     0.3 9  159 349 
 OCA  SZ ES   1   19 0 16.04                             130    -0.1 7  159 349 
 OCA  SZ I        19 0 20.84     11112.7 0.37                           159 349 
 CHI  HZ EP       19 0  4.25                             117     0.1 8  254 197 
 CHI  HN ES       19 0 33.69                             117    -0.3 8  254 197 
 CHI  HZ I        19 0 37.07      2373.4 0.31                           254 197 
 ROSC BZ EP       19 0  5.91                             116     1.1 8  260 213 
 ROSC BN ES       19 0 35.61                             116     0.4 8  260 213 
 ROSC BZ I        19 0 40.01      3275.3 0.25                           260 213 
 HEL  HZ EP       19 0  6.30                             114    -1.0 7  283 256 
 HEL  HN ES   1   19 0 39.54                             114    -0.1 6  283 256 
 HEL  HZ I        19 0 43.89      2366.4 0.69                           283 256 
 GUY  HZ EP       19 0 10.70                             111     0.1 7  312 236 
 GUY  HN ES       19 0 44.90                             111    -0.7 7  312 236 
 RREF BZ EP       19 0 12.75                             110    -0.4 7  332 230 
 RREF BN ES       19 0 50.83                             110     0.8 7  332 230 
 RREF BZ I        19 0 54.47      2819.6 0.56                           332 230 
 DBB  SZ EP       19 0 14.13                             109    -0.4 6  350 274 
 TOL  SZ EP       19 0 15.92                             109     0.7 6  353 226 
 ANIL BZ EP       19 0 16.62                             108    -0.1 6  367 225 
 ANIL BZ I        19 1  3.38      3450.5 0.40                           367 225 
 PRA  HZ EP       19 0 19.24                             106    -1.0 6  399 211 
 PRA  HN ES       19 1  2.51                             106    -0.2 6  399 211 
 PRA  HZ I        19 1  8.58      2536.8 0.42                           399 211 
 GUA  SZ EP   1   19 0 29.06                             103    -0.1 3  475 174 
 GUA  SZ ES   1   19 1 18.24                             103    -0.3 3  475 174 
 SOL  SZ EP   1   19 0 30.64                             103     0.2 3  487 262 
 SOL  SZ I        19 1 16.26       185.4 0.63                           487 262 
 URI  HZ IP     D 19 0 36.52                             101    -1.8 4  552  12 
 PCON HZ EP       19 0 47.20                              99     0.0 3  620 217 
 POP2 HZ EP   1   19 0 46.26                              99    -0.7 2  621 221 
 POP2 HZ I        19 0 48.38       187.6 0.53                           621 221 
 POP2 HN ES   3   19 1 50.19                              99     0.0 1  621 221 
 SOTA HZ EP       19 0 50.71                              99    -0.2 2  652 217 
                                                                                
