 2012  713 1646 14.5 L   6.726 -73.207152.3  RSN  4 0.2 1.4LRSN                1
 GAP=223        0.54       6.0     6.0  7.3  0.1913E+02 -0.3935E+01 -0.2461E+01E
 Epicentro: VILLANUEVA - SANTANDER                                             3
 ACTION:UPD 12-08-14 11:44 OP:ep   STATUS:               ID:20120713164614 L   I
 2012-07-13-1640-00M.COL___197                                                 6
 STAT SP IPHASW D HRMM SECON CODA AMPLIT PERI AZIMU VELO AIN AR TRES W  DIS CAZ7
 BAR2 SZ EP   2   1646 34.36                             174    -0.4 5   15 170 
 BRR  HZ EP   1   1646 36.20                             154    -0.1 7   70 307 
 BRR  HN ES   1   1646 53.46                             154     0.2 7   70 307 
 BRR  HZ I        1646 53.73        10.8 0.38            154             70 307 
 RUS  HZ EP   1   1646 38.80                             147     0.4 7   93 172 
 RUS  HE ES   1   1646 56.91                             147    -0.1 7   93 172 
 RUS  HZ I        1646 58.43         2.5 0.27            146             93 172 
 PTB  HZ EP   1   1646 41.25                             135    -0.1 7  140 262 
 PTB  HN ES   1   1647  2.19                             135     0.0 7  140 262 
 PTB  HZ I        1647  4.79         1.6 0.23            134            140 262 
