 2012  513 1826 12.6 L   6.823 -73.141148.2  RSN 13 0.4 2.8LRSN                1
 GAP=136        0.81       2.9     3.9  5.2 -0.1412E+01  0.4213E+01  0.2075E+01E
 Epicentro: LOS SANTOS - SANTANDER                                             3
 ACTION:UP  12-07-05 12:04 OP:pat  STATUS:               ID:20120513182612 L   I
 2012-05-13-1820-00M.COL___195                                                 6
 STAT SP IPHASW D HRMM SECON CODA AMPLIT PERI AZIMU VELO SNR AR TRES W  DIS CAZ7
 BAR2 SZ IP       1826 32.57                             170    -0.110   26 190 
 BAR2 SZ ES   1   1826 48.13                             170    -0.1 7   26 190 
 BAR2 SZ I        1826 48.89       136.1 0.25                            26 190 
 BRR  HZ IP     C 1826 34.30                             153     0.310   70 296 
 BRR  HZ I        1826 35.83       171.9 0.16                            70 296 
 BRR  HE ES   1   1826 51.29                             153     0.6 7   70 296 
 PAM  SZ EP       1826 35.29                             152     0.310   75  41 
 PAM  SN ES   1   1826 52.40                             152     0.0 7   75  41 
 RUS  HZ EP   1   1826 36.71                             144    -0.1 7  103 176 
 RUS  HN ES   1   1826 55.31                             144    -0.4 7  103 176 
 RUS  HZ I        1826 57.49        75.8 0.49                           103 176 
 PTB  HZ EP   1   1826 39.15                             132    -0.7 7  149 258 
 PTB  HN ES   1   1827  0.28                             132    -0.9 7  149 258 
 PTB  HZ I        1827  2.78        64.0 0.20                           149 258 
 OCA  HZ EP   1   1826 40.58                             131    -0.3 7  158 353 
 OCA  HN ES   2   1827  3.11                             131     0.2 5  158 353 
 OCA  HZ I        1827  6.89       208.4 0.29                           158 353 
 ZAR  HZ EP   1   1826 45.00                             123    -0.2 6  204 291 
 ZAR  HN ES   1   1827 10.85                             123     0.3 6  204 291 
 ZAR  HZ I        1827 16.70        74.2 0.27                           204 291 
 CHI  HZ EP   1   1826 51.04                             117     0.3 6  251 195 
 CHI  HN ES   1   1827 20.57                             117     0.1 6  251 195 
 CHI  HZ I        1827 26.95        33.6 0.38                           251 195 
 HEL  HZ EP   2   1826 53.46                             115     0.4 4  273 255 
 HEL  HN ES   1   1827 24.82                             115     0.2 6  273 255 
 HEL  HZ I        1827 32.23        38.0 0.33                           273 255 
 VIL  SZ EP   1   1826 56.23                             112    -0.2 5  306 192 
 VIL  SN ES   1   1827 30.99                             112     0.3 5  306 192 
 VIL  SZ I        1827 43.63        24.3 0.51                           306 192 
 RREF HZ EP   1   1826 59.66                             111     0.5 5  324 229 
 RREF HE ES   1   1827 35.23                             111    -0.2 5  324 229 
 RREF HZ I        1827 44.91        41.2 0.43                           324 229 
 COD  HZ EP   1   1827  0.39                             109    -0.4 5  346 354 
 COD  HN ES   2   1827 38.21                             109    -0.2 3  346 354 
 COD  HZ I        1827 46.01        16.1 0.46                           346 354 
 PRA  HZ EP   1   1827  6.35                             107    -0.2 4  394 209 
 PRA  HN ES   1   1827 49.23                             107     0.7 4  394 209 
                                                                                
