 2010 1113 1035 20.4 L   6.789 -73.077150.1  RSN  9 0.3 2.0LRSN                1
 GAP=172        0.55       2.6     5.1  5.1 -0.1707E+01  0.2279E+01 -0.5356E+00E
 Epicentro: LOS SANTOS - SANTANDER                                             3
 ACTION:UP  10-12-17 16:52 OP:REBC STATUS:               ID:20101113103520 L   I
 2010-11-13-1033-38S.COL___127                                                 6
 STAT SP IPHASW D HRMM SECON CODA AMPLIT PERI AZIMU VELO SNR AR TRES W  DIS CAZ7
 BAR2 SZ EP       1035 40.60                             170     0.010   25 209 
 BAR2 SZ ES   2   1035 56.05                             170    -0.3 5   25 209 
 BAR2 SZ I        1035 57.32        25.5 0.39                            25 209 
 BRR  HZ EP       1035 42.44                             151     0.010   79 297 
 BRR  HZ I        1035 42.75        37.9 0.22                            79 297 
 BRR  HE ES   1   1036  0.13                             151     0.5 7   79 297 
 RUS  HZ EP   2   1035 44.84                             145     0.4 5   99 180 
 RUS  HE ES   1   1036  3.07                             145    -0.2 7   99 180 
 RUS  HZ I        1036  4.48        12.5 0.40                            99 180 
 GUE  SZ EP   2   1035 45.51                             141     0.0 5  116   8 
 OCA  SZ EP       1035 48.98                             130    -0.3 9  163 351 
 OCA  SZ ES   1   1036 11.81                             130     0.0 7  163 351 
 OCA  SZ I        1036 16.82        17.0 0.26                           163 351 
 NOR  SZ EP   2   1035 56.91                             119    -0.1 4  240 236 
 NOR  SN ES   2   1036 24.88                             119    -0.6 4  240 236 
 CHI  HZ EP   2   1035 58.41                             118     0.0 4  250 197 
 CHI  HN ES   2   1036 28.47                             118     0.4 4  250 197 
 CHI  HZ I        1036 34.05         3.8 0.44                           250 197 
 HEL  HZ EP   2   1036  1.92                             115     0.3 4  279 256 
 HEL  HN ES   2   1036 33.08                             115    -0.7 4  279 256 
 HEL  HZ I        1036 39.71         4.3 0.42                           279 256 
 PRA  HZ EP   2   1036 14.35                             107     0.0 3  395 211 
 PRA  HN ES   2   1036 56.97                             107     0.5 3  395 211 
                                                                                
