 2011  913 1425 41.9 L   6.768 -73.106148.1  RSN  4 0.2 2.0LRSN                1
 GAP=143        0.49       4.4     6.6  5.8  0.9517E+01 -0.1608E+02 -0.4923E+01E
 Epicentro: LOS SANTOS - SANTANDER                                             3
 ACTION:UPD 12-07-13 15:57 OP:ep   STATUS:               ID:20110913142541 L   I
 2011-09-13-1419-46S.COL___169                                                 6
 STAT SP IPHASW D HRMM SECON CODA AMPLIT PERI AZIMU VELO AIN AR TRES W  DIS CAZ7
 BAR2 SZ EP       1426  1.49                             172   -0.2310 21.2 204 
 BAR2 SZ ES   1   1426 17.06                             172   -0.15 7 21.2 204 
 BAR2 SZ I        1426 17.84        19.8 0.28                          21.2 204 
 BRR  HZ EP       1426  3.41                             151   -0.1610 76.8 299 
 BRR  HZ I        1426  3.67        28.3 0.30                          76.8 299 
 BRR  HE ES   1   1426 20.77                             151    0.26 7 76.8 299 
 PAM  SZ EP       1426  4.45                             151    0.1310 77.5  35 
 RUS  HZ EP       1426  5.75                             145    0.1910 96.8 179 
 RUS  HE ES   2   1426 24.12                             145    0.06 5 96.8 179 
 RUS  HZ I        1426 25.19         9.4 0.36                          96.8 179 
                                                                                
