 2017  413 1146 30.6 L   6.843 -73.335124.4  RSN 11 0.4 1.7LRSN                1
 GAP=107        1.06       4.0     3.4  6.1  0.3943E+01  0.6219E+01  0.7676E+01E
 Epicentro: ZAPATOCA - SANTANDER                                               3
 ACTION:UPD 17-05-30 21:11 OP:jn   STATUS:               ID:20170413114630 L   I
 OLDACT:UP  17-04-13 22:46 OP:edw  STATUS:               ID:20170413113742     3
 OLDACT:UP  17-04-13 22:45 OP:edw  STATUS:               ID:20170413113742     3
 OLDACT:UP  17-04-13 22:43 OP:edw  STATUS:               ID:20170413113742     3
 OLDACT:REG 17-04-13 21:07 OP:edw  STATUS:               ID:20170413113742     3
 2017-04-13-1138-00M.COL___368                                                 6
 STAT SP IPHASW D HRMM SECON CODA AMPLIT PERI AZIMU VELO AIN AR TRES W  DIS CAZ7
 BAR2 EZ IP     D 1146 47.75                             165   -0.1510 32.4 149 
 BAR2 EZ ES       1147  1.45                             165    0.0310 32.4 149 
 BRR  HZ IP     D 1146 48.14                             156   -0.1710 50.9 305 
 BRR  HE ES       1147  2.21                             156    0.0710 50.9 305 
 BRR  HZ I        1147  3.05        12.7 0.14            157           50.9 305 
 PAM  EZ EP   4   1146 54.89                             143    3.48 0 89.2  52 
 PAM  EN ES       1147  7.42                             143   -0.2310 89.2  52 
 PAM  EZ I        1147  9.35        11.3 0.28            148           89.2  52 
 RUS  HZ EP       1146 52.92                             136   -0.0410  109 165 
 RUS  HN ES       1147 10.64                             136    0.2210  109 165 
 RUS  HZ I        1147 11.44         6.1 0.30            136            109 165 
 PTB  HZ EP       1146 53.08                             131   -0.9810  128 255 
 PTB  HN ES       1147 12.71                             131    0.3410  128 255 
 PTB  HZ I        1147 15.04        12.7 0.44            131            128 255 
 SPBC HZ EP       1146 56.89                             125    0.19 9  155 212 
 SPBC HN ES       1147 16.97                             125   -0.10 9  155 212 
 SPBC HZ I        1147 23.49         7.6 0.36            125            155 212 
 ZAR  HZ EP       1146 59.90                             120    0.43 9  183 293 
 ZAR  HN ES       1147 22.69                             120    0.69 9  183 293 
 ZAR  HZ I        1147 25.41         7.4 0.12            122            183 293 
 YPLC HZ EP       1147  0.71                             119    0.22 9  192 146 
 YPLC HN ES       1147 23.76                             119   -0.05 9  192 146 
 YPLC HZ I        1147 26.78        13.6 0.34            120            192 146 
 NOR  HZ EP       1147  3.13                             115   -0.51 8  221 230 
 NOR  HN ES   4   1147 26.99                             115   -2.44 0  221 230 
 NOR  HZ I        1147 34.83         3.0 0.18            115            221 230 
 CHI  HZ EP       1147  8.09                             112    0.90 8  249 190 
 CHI  HN ES   4   1147 37.18                             112    1.44 0  249 190 
 CHI  HZ I        1147 43.67         1.3 0.54            113            249 190 
 HEL  HE ES       1147 35.84                             112   -0.70 8  253 254 
 SJC  HZ EP   4   1147 21.53                             103   -2.19 0  394 329 
 SJC  HN ES   4   1148  0.27                             103   -4.90 0  394 329 
                                                                                
