 2013  313 1352 17.0 L   6.643 -73.193143.0  RSN  4 0.2 1.7LRSN                1
 GAP=216        0.44       5.4     4.0  4.6  0.7639E+01  0.2651E+01  0.1009E+02E
 Epicentro: BARICHARA - SANTANDER                                              3
 ACTION:UPD 13-04-09 14:02 OP:ep   STATUS:               ID:20130313135217 L   I
 2013-03-13-1350-00M.COL___231                                                 6
 STAT SP IPHASW D HRMM SECON CODA AMPLIT PERI AZIMU VELO AIN AR TRES W  DIS CAZ7
 BAR2 SZ EP       1352 36.07                             178    0.0110 5.74 168 
 BAR2 SZ ES   1   1352 50.69                             178   -0.24 7 5.74 168 
 BAR2 SZ I        1352 52.44        14.6 0.26            174           5.74 168 
 BRR  HZ EP       1352 38.04                             150   -0.1410 77.0 312 
 BRR  HN ES       1352 54.89                             150    0.1810 77.0 312 
 BRR  HZ I        1353 13.06        20.0 0.32            152           77.0 312 
 RUS  HZ EP   1   1352 39.58                             148    0.26 7 83.9 172 
 RUS  HN I        1353  0.11         6.7 0.24            146           83.9 172 
 PTB  HZ EP       1352 42.99                             133   -0.05 9  140 265 
 PTB  HN ES   1   1353  3.33                             133   -0.04 7  140 265 
 PTB  HZ I        1353  9.19         4.5 0.16            134            140 265 
                                                                                
