 2016  413 1119 46.2 L   6.762 -73.161142.7  RSN  6 0.4 1.7LRSN                1
 GAP=136        1.12       5.2     5.0  9.3 -0.4562E+01  0.1475E+02 -0.5774E+01E
 Epicentro: LOS SANTOS - SANTANDER                                             3
 ACTION:UPD 16-05-05 14:21 OP:rebc STATUS:               ID:20160413111946 L   I
 OLDACT:REG 16-04-13 21:49 OP:ar   STATUS:               ID:20160413111743     3
 2016-04-13-1117-43M.COL___314                                                 6
 STAT SP IPHASW D HRMM SECON CODA AMPLIT PERI AZIMU VELO AIN AR TRES W  DIS CAZ7
 BAR2 EZ EP       1120  5.47                             172    0.0510 18.9 187 
 BAR2 EZ ES       1120 20.12                             172   -0.2610 18.9 187 
 BAR2 EZ I        1120 21.45         9.8 0.26            172           18.9 187 
 PAM  EZ EP       1120  8.30                             149   -0.0910 81.7  39 
 PAM  EE ES       1120 25.45                             149   -0.2310 81.7  39 
 PAM  EZ I        1120 27.47         9.4 0.52            151           81.7  39 
 RUS  HZ EP       1120  9.47                             144    0.0810 96.5 175 
 RUS  HE ES       1120 28.30                             144    0.8410 96.5 175 
 RUS  HZ I        1120 28.91         6.5 0.30            147           96.5 175 
 PTB  HZ EP       1120 12.57                             132   -0.17 9  145 260 
 PTB  HN ES       1120 33.40                             132   -0.01 9  145 260 
 PTB  HZ I        1120 35.72         5.3 0.12            131            145 260 
 SPBC HN ES       1120 34.98                             129   -0.84 9  159 219 
 SPBC HZ I        1120 39.11         8.5 0.26            130            159 219 
 ZAR  HN ES       1120 44.28                             122    0.63 9  204 293 
 ZAR  HZ I        1120 51.38         5.5 0.48            122            204 293 
                                                                                
