 2013  113 1315 22.5 L   6.763 -73.162144.8  RSN  5 0.5 1.9LRSN                1
 GAP=233        1.19       7.5     7.0  8.7  0.1088E+02  0.1652E+02  0.1148E+02E
 Epicentro: LOS SANTOS - SANTANDER                                             3
 ACTION:UPD 13-02-15 09:14 OP:ep   STATUS:               ID:20130113131522 L   I
 2013-01-13-1308-36M.COL___175                                                 6
 STAT SP IPHASW D HRMM SECON CODA AMPLIT PERI AZIMU VELO AIN AR TRES W  DIS CAZ7
 BAR2 SZ EP       1315 41.60                             172   -0.3410 19.0 187 
 BAR2 SZ ES       1315 57.20                             172    0.1110 19.0 187 
 BAR2 SZ I        1315 58.47        21.3 0.16            168           19.0 187 
 BRR  HZ EP       1315 43.87                             152    0.2910 71.7 302 
 BRR  HN ES       1316  0.48                             152    0.4710 71.7 302 
 BRR  HZ I        1316  3.56         9.5 0.32            151           71.7 302 
 RUS  HZ EP       1315 45.74                             145   -0.1410 96.6 175 
 RUS  HN ES       1316  4.11                             145    0.0010 96.6 175 
 RUS  HN I        1316  6.47         7.3 0.30            145           96.6 175 
 PTB  HZ EP       1315 48.93                             132   -0.24 9  145 260 
 PTB  HN ES       1316  8.89                             132   -1.07 9  145 260 
 PTB  HN I        1316 15.09        12.7 0.52            131            145 260 
 NOR  HZ EP       1315 58.12                             119    0.35 8  231 235 
 NOR  HN ES       1316 26.05                             119    0.78 8  231 235 
 NOR  HN I        1316 31.49         9.2 0.14            119            231 235 
                                                                                
