 2017 1013 1039 10.6 L   6.780 -73.183137.1  RSN 11 0.4 2.0LRSN                1
 GAP=109        0.84       2.8     2.8  4.7  0.2523E+00  0.4390E+01  0.2534E+01E
 Epicentro: LOS SANTOS - SANTANDER                                             3
 ACTION:UPD 17-11-07 19:31 OP:rebc STATUS:               ID:20171013103910 L   I
 OLDACT:REG 17-10-13 19:20 OP:lv   STATUS:               ID:20171013103745     3
 2017-10-13-1038-00M.COL___429                                                 6
 STAT SP IPHASW D HRMM SECON CODA AMPLIT PERI AZIMU VELO AIN AR TRES W  DIS CAZ7
 BAR2 EZ IP     C 1039 29.23                             171    0.1110 20.8 180 
 BAR2 EZ ES       1039 43.46                             171   -0.1210 20.8 180 
 BAR2 EZ I        1039 45.78        27.6 0.46            168           20.8 180 
 PAM  EZ EP       1039 32.24                             148    0.0810 81.7  41 
 PAM  EN ES       1039 49.13                             148    0.1510 81.7  41 
 PAM  EZ I        1039 51.40        10.1 0.20            154           81.7  41 
 RUS  HZ EP       1039 33.15                             142   -0.2110 98.8 174 
 RUS  HN ES       1039 51.12                             142   -0.0010 98.8 174 
 RUS  HZ I        1039 52.93         6.2 0.30            143           98.8 174 
 PTB  HZ EP       1039 36.17                             131   -0.28 9  143 259 
 PTB  HN ES       1039 56.16                             131   -0.46 9  143 259 
 PTB  HZ I        1040  3.09        11.4 0.58            131            143 259 
 YPLC HZ EP       1039 39.46                             124   -0.32 9  177 150 
 YPLC HN ES       1040  2.90                             124    0.36 9  177 150 
 YPLC HZ I        1040  6.03         8.2 0.32            127            177 150 
 ZAR  HZ EP       1039 42.12                             121   -0.05 9  201 293 
 ZAR  HN ES       1040  7.13                             121    0.33 9  201 293 
 ZAR  HZ I        1040 14.25        16.1 0.50            122            201 293 
 NOR  HZ EP       1039 45.61                             117    0.28 8  230 234 
 NOR  HN ES       1040 11.92                             117   -0.50 8  230 234 
 NOR  HZ I        1040 18.65         8.1 0.44            118            230 234 
 CHI  HZ EP       1039 46.92                             115   -0.55 8  245 194 
 CHI  HN ES       1040 16.57                             115    0.33 8  245 194 
 CHI  HZ I        1040 22.09         4.7 0.26            117            245 194 
 ROSC BZ EP   9   1039 49.91                             115    2.10 0  249 210 
 ROSC BN ES       1040 18.69                                   -0.25 8  249 210 
 ROSC BZ I        1040 27.01        14.5 0.35            116            249 210 
 GUY2CHZ EP       1039 53.88                             111    0.60 7  297 235 
 GUY2CHN ES       1040 27.59                             111    1.01 7  297 235 
 GUY2CHZ I        1040 35.77         9.3 0.62                           297 235 
 PRA  HZ EP       1040  2.87                             105   -0.49 6  388 209 
 PRA  HN ES       1040 44.59                             105    0.07 6  388 209 
 PRA  HZ I        1040 51.64         4.8 0.26            107            388 209 
 SJC  HZ EP   4   1040  3.64                             104   -2.19 0  409 328 
 SJC  HN ES   4   1040 44.11                             104   -4.81 0  409 328 
                                                                                
