 2017 1113 1459 19.8 L   6.792 -73.144140.9  RSN 11 0.3 1.7LRSN                1
 GAP=137        0.79       2.7     3.0  4.2 -0.8699E+00  0.3803E+01  0.2749E+01E
 Epicentro: LOS SANTOS - SANTANDER                                             3
 ACTION:UPD 17-12-12 19:55 OP:rebc STATUS:               ID:20171113145919 L   I
 OLDACT:REG 17-11-13 21:49 OP:lv   STATUS:               ID:20171113145744     3
 2017-11-13-1458-00M.COL___453                                                 6
 STAT SP IPHASW D HRMM SECON CODA AMPLIT PERI AZIMU VELO AIN AR TRES W  DIS CAZ7
 BAR2 EZ EP       1459 38.72                             170   -0.1510 22.4 191 
 BAR2 EZ ES       1459 53.68                             170   -0.0310 22.4 191 
 BAR2 EZ I        1459 56.50        18.6 0.28            169           22.4 191 
 BRR  HZ IP     D 1459 40.60                             151    0.0910 71.9 299 
 BRR  HN ES       1459 57.22                             151    0.6010 71.9 299 
 BRR  HZ I        1459 58.38        10.2 0.28            151           71.9 299 
 PAM  EZ EP       1459 41.65                             150    0.0710 78.0  39 
 PAM  EN ES       1459 58.31                             150   -0.2210 78.0  39 
 PAM  EZ I        15 0  0.86         7.9 0.56            155           78.0  39 
 RUS  HZ EP       1459 42.96                             143   -0.0910 99.6 176 
 RUS  HN ES       15 0  1.15                             143   -0.0010 99.6 176 
 RUS  HZ I        15 0  2.30         3.9 0.22            145           99.6 176 
 PTB  HZ EP       1459 46.73                             131    0.30 9  148 259 
 PTB  HN ES       15 0  6.62                             131   -0.54 9  148 259 
 PTB  HZ I        15 0 13.10         4.9 0.32            131            148 259 
 SPBC HZ EP       1459 47.73                             128   -0.19 9  163 219 
 SPBC HN ES       15 0 10.39                             128    0.57 9  163 219 
 SPBC HZ I        15 0 14.49        11.5 0.22            129            163 219 
 ZAR  HZ EP       1459 52.17                             121    0.13 9  205 292 
 ZAR  HE ES       15 0 16.75                             121   -0.40 9  205 292 
 ZAR  HZ I        15 0 22.03         9.4 0.34            123            205 292 
 NOR  HZ EP       1459 55.43                             117    0.17 8  234 235 
 NOR  HN ES       15 0 22.21                             117   -0.67 8  234 235 
 NOR  HZ I        15 0 29.82         3.6 0.14            119            234 235 
 CHI  HZ EP       1459 57.08                             116   -0.11 8  248 195 
 CHI  HN ES       15 0 26.03                             116   -0.28 8  248 195 
 CHI  HZ I        15 0 29.99         4.2 0.46            118            248 195 
 GUY2CHZ EP       15 0  3.46                             111    0.27 7  301 235 
 GUY2CHN ES       15 0 37.11                             111    0.11 7  301 235 
 GUY2CHZ I        15 0 44.88         3.5 0.34                           301 235 
 ORTC HZ EP       15 0 13.44                             105   -0.09 6  395 216 
 ORTC HN ES       15 0 56.09                             105    0.69 6  395 216 
 ORTC HZ I        15 0 59.50         1.3 0.30            107            395 216 
                                                                                
