 2011 1113 1819 27.8 L   6.739 -73.145141.4  RSN  5 0.3 1.1LRSN                1
 GAP=139        0.63       4.8     4.7  9.0  0.3289E+01  0.7056E+01 -0.4900E+01E
 Epicentro: JORDAN - SANTANDER                                                 3
 ACTION:UPD 12-07-13 16:10 OP:ep   STATUS:               ID:20111113181927 L   I
 2011-11-13-1816-52S.COL___179                                                 6
 STAT SP IPHASW D HRMM SECON CODA AMPLIT PERI AZIMU VELO AIN AR TRES W  DIS CAZ7
 BAR2 SZ EP   1   1819 46.94                             173    0.15 7 16.7 194 
 BRR  HZ EP   1   1819 48.96                             151    0.27 7 74.7 303 
 BRR  HE ES   1   1820  5.42                             151    0.44 7 74.7 303 
 BRR  HZ I        1820  6.53         3.9 0.16                          74.7 303 
 PAM  SZ EP   1   1819 49.90                             148    0.01 7 82.7  37 
 PAM  SN ES   1   1820  6.86                             148   -0.26 7 82.7  37 
 PAM  SZ I        1820  9.25         2.6 0.43                          82.7  37 
 RUS  HN ES   1   1820  8.26                             145   -0.20 7 93.8 176 
 RUS  HZ I        1820 10.40         1.1 0.18                          93.8 176 
 ZAR  HN ES   1   1820 25.00                             121   -0.56 6  207 294 
                                                                                
