 2011  713 1307 10.9 L   6.773 -73.102146.8  RSN 11 0.4 2.0LRSN                1
 GAP=144        0.82       4.1     5.1  5.9 -0.7250E+01  0.7841E+01  0.2739E+01E
 Epicentro: LOS SANTOS - SANTANDER                                             3
 ACTION:UPD 12-07-25 14:00 OP:epov STATUS:               ID:20110713130710 L   I
 2011-07-13-1306-42S.COL___142                                                 6
 STAT SP IPHASW D HRMM SECON CODA AMPLIT PERI AZIMU VELO AIN AR TRES W  DIS CAZ7
 BAR2 SZ IP     D 13 7 30.67                             171    0.0210 21.9 204 
 BAR2 SZ ES   1   13 7 45.32                             171   -0.71 7 21.9 204 
 BAR2 SZ I        13 7 47.54        21.4 0.21                          21.9 204 
 BTL  SZ EP       13 7 30.93                             170    0.2310 24.4 311 
 PAM  SZ EP   1   13 7 33.55                             151    0.34 7 76.8  35 
 PAM  SN ES   1   13 7 50.26                             151   -0.34 7 76.8  35 
 PAM  SZ I        13 7 54.15        11.9 0.55                          76.8  35 
 BRR  HZ EP       13 7 32.58                             151    0.0710 76.9 299 
 BRR  HN ES   1   13 7 50.08                             151    0.73 7 76.9 299 
 BRR  HZ I        13 7 51.28        15.7 0.19                          76.9 299 
 RUS  HZ EP       13 7 34.67                             145    0.1310 97.3 179 
 RUS  HN ES   1   13 7 53.46                             145    0.49 7 97.3 179 
 RUS  HZ I        13 7 56.02        13.7 0.50                          97.3 179 
 BRI  SZ EP   1   13 7 35.16                             141    0.16 7  110  18 
 BRI  SZ ES   1   13 7 53.42                             141   -0.37 7  110  18 
 BRI  SZ I        13 7 57.02        10.3 0.25                           110  18 
 OCA  SZ EP   1   13 7 39.17                             129   -0.48 7  164 352 
 NOR  SZ EP   1   13 7 46.26                             118   -0.69 6  237 236 
 NOR  SN ES   1   13 8 14.33                             118   -0.73 6  237 236 
 HEL  HZ EP   1   13 7 52.05                             115    0.42 6  276 257 
 HEL  HN ES   1   13 8 23.46                             115    0.08 6  276 257 
 HEL  HZ I        13 8 28.65         9.8 0.34                           276 257 
 PRA  HZ EP   1   13 8  4.65                             107    0.19 4  392 210 
 SJA  SZ EP   1   13 8  4.90                             106   -0.40 4  398 194 
                                                                                
