 2011  413 1847 13.2 L   6.801 -73.138146.9  RSN 16 0.4 3.3LRSN                1
 GAP=103        0.80       3.3     4.0  5.2 -0.4661E+01  0.1983E+01  0.5651E+01E
 Epicentro: LOS SANTOS - SANTANDER                                             3
 ACTION:UP  11-06-22 15:30 OP:REBC STATUS:               ID:20110413184713 L   I
 2011-04-13-1843-44S.COL___138                                                 6
 STAT SP IPHASW D HRMM SECON CODA AMPLIT PERI AZIMU VELO SNR AR TRES W  DIS CAZ7
 BAR2 SZ IP       1847 32.99                             170     0.010   24 192 
 BAR2 SZ ES   1   1847 47.79                             170    -0.6 7   24 192 
 BAR2 SZ I        1847 49.41       688.2 0.07                            24 192 
 GIR2 SZ EP   1   1847 33.00                             167     0.0 7   31 349 
 BRR  HZ EP       1847 34.79                             152     0.310   72 298 
 BRR  HN ES   1   1847 51.76                             152     0.6 7   72 298 
 BRR  HZ I        1847 54.38       251.6 0.17                            72 298 
 PAM  SZ EP       1847 35.74                             151     0.310   77  39 
 PAM  SN ES   1   1847 52.51                             151    -0.4 7   77  39 
 GRA  SZ IP       1847 38.77                             137     0.310  125  17 
 GRA  SZ ES   1   1847 58.13                             137    -0.1 7  125  17 
 GRA  SZ I        1847 59.52       171.9 0.45                           125  17 
 OCA  SZ EP   1   1847 41.24                             130    -0.3 7  160 353 
 OCA  SZ ES   2   1848  3.27                             130    -0.5 5  160 353 
 OCA  SZ I        1848  6.37       292.4 0.29                           160 353 
 YOP  SZ IP     C 1847 43.66                             126     0.4 9  179 154 
 YOP  SZ I        1847 45.99       113.5 0.30                           179 154 
 YOP  SN ES   2   1848  6.50                             126    -0.3 4  179 154 
 NOR  SZ EP   1   1847 48.73                             118    -0.3 6  235 235 
 NOR  SN ES   1   1848 16.76                             118    -0.3 6  235 235 
 CHI  HZ EP   1   1847 51.12                             117     0.1 6  249 195 
 CHI  HN ES   2   1848 20.40                             117    -0.1 4  249 195 
 CHI  HZ I        1848 27.71       138.3 0.52                           249 195 
 HEL  HZ EP   1   1847 53.08                             115    -0.5 6  273 256 
 HEL  HN ES   2   1848 25.53                             115     0.5 4  273 256 
 HEL  HZ I        1848 32.80        86.7 0.51                           273 256 
 VIL  SZ EP   1   1847 56.46                             112    -0.2 5  304 192 
 VIL  SZ I        1848 34.91        93.6 0.26                           304 192 
 GUY  SZ EP   1   1847 57.40                             112     0.2 5  304 235 
 GUY  SN ES   1   1848 30.96                             112    -0.6 5  304 235 
 GUY  SZ I        1848 41.88       158.9 0.33                           304 235 
 DBB  SZ EP   1   1848  0.44                             109    -0.4 5  340 274 
 TOL  SZ EP   1   1848  2.41                             109     0.8 5  344 225 
 SDV  BZ EP   1   1848  2.38                             108    -0.8 5  360  50 
 SDV  BZ I        1848  3.31        64.2 0.18                           360  50 
 PRA  HZ EP   1   1848  6.49                             106    -0.3 4  393 210 
 PRA  HN ES   2   1848 48.84                             106     0.2 3  393 210 
                                                                                
