 2016 1213 1715 28.3 L   6.794 -73.174145.8  RSN 26 0.5 3.2LRSN 3.8WRSN        1
 SPEC AVERAGE  MO 14.7 ST0.454 OM  2.8 f0 1.04 R2.1529 AL 0.00 WI 30.0 MW  3.8 3
 SPEC SD       MO  0.2 ST0.640 OM  0.4 f00.557 R0.6190 AL      WI      MW  0.1 3
 GAP= 70        1.03       3.1     2.8  4.5  0.1419E+00  0.3838E+01  0.2402E+01E
 Epicentro: LOS SANTOS - SANTANDER                                             3
 SPEC RUS HH Z MO 15.1 ST0.299 OM  3.1 f00.750 R2.5653 AL-0.00 WI 30.0 MW  4.0 3
 SPEC RUS HH Z T1716 9 K 0.000 GD  176 VS 5.20 DE 3.50 Q0750.0 QA 1.50 Q1 0.00 3
 SPEC ZAR HH Z MO 14.3 ST  2.4 OM  2.2 f0 2.68 R0.7179 AL-0.00 WI 30.0 MW  3.5 3
 SPEC ZAR HH Z T171623 K 0.000 GD  248 VS 5.20 DE 3.50 Q0750.0 QA 1.50 Q1 0.00 3
 SPEC CHI HH Z MO 14.8 ST0.124 OM  2.6 f00.699 R2.7525 AL-0.00 WI 30.0 MW  3.8 3
 SPEC CHI HH Z T171633 K 0.000 GD  286 VS 5.20 DE 3.50 Q0750.0 QA 1.50 Q1 0.00 3
 SPEC ROSCBH Z MO 14.8 ST0.234 OM  2.6 f00.860 R2.2372 AL-0.00 WI 30.0 MW  3.8 3
 SPEC ROSCBH Z T171636 K 0.000 GD  290 VS 5.20 DE 3.50 Q0750.0 QA 1.50 Q1 0.00 3
 SPECGUY2CHH Z MO 14.6 ST0.199 OM  2.4 f00.908 R2.1189 AL-0.00 WI 30.0 MW  3.7 3
 SPECGUY2CHH Z T171646 K 0.000 GD  331 VS 5.20 DE 3.50 Q0750.0 QA 1.50 Q1 0.00 3
 SPEC VIL EH Z MO 14.8 ST0.176 OM  2.6 f00.746 R2.5791 AL-0.00 WI 30.0 MW  3.8 3
 SPEC VIL EH Z T171643 K 0.000 GD  335 VS 5.20 DE 3.50 Q0750.0 QA 1.50 Q1 0.00 3
 SPEC ELA HH Z MO 14.8 ST0.149 OM  2.5 f00.746 R2.5791 AL-0.00 WI 30.0 MW  3.8 3
 SPEC ELA HH Z T171651 K 0.000 GD  357 VS 5.20 DE 3.50 Q0750.0 QA 1.50 Q1 0.00 3
 SPEC CBOCHH Z MO 14.7 ST0.120 OM  2.4 f00.746 R2.5791 AL-0.00 WI 30.0 MW  3.7 3
 SPEC CBOCHH Z T171649 K 0.000 GD  360 VS 5.20 DE 3.50 Q0750.0 QA 1.50 Q1 0.00 3
 SPEC ANILHH Z MO 14.7 ST0.722 OM  2.4 f0 1.33 R1.4466 AL-0.00 WI 30.0 MW  3.7 3
 SPEC ANILHH Z T171656 K 0.000 GD  383 VS 5.20 DE 3.50 Q0750.0 QA 1.50 Q1 0.00 3
 SPEC PRA HH Z MO 14.9 ST0.219 OM  2.6 f00.746 R2.5791 AL-0.00 WI 30.0 MW  3.9 3
 SPEC PRA HH Z T171659 K 0.000 GD  416 VS 5.20 DE 3.50 Q0750.0 QA 1.50 Q1 0.00 3
 SPEC ORTCHH Z MO 14.4 ST0.336 OM  2.1 f0 1.26 R1.5270 AL-0.00 WI 30.0 MW  3.6 3
 SPEC ORTCHH Z T1717 3 K 0.000 GD  419 VS 5.20 DE 3.50 Q0750.0 QA 1.50 Q1 0.00 3
 OLDACT:UP  16-12-14 01:16 OP:ar   STATUS:               ID:20161213170748     3
 OLDACT:UP  16-12-14 01:14 OP:ar   STATUS:               ID:20161213170748     3
 OLDACT:REG 16-12-13 22:33 OP:ar   STATUS:               ID:20161213170748     3
 ACTION:UPD 17-01-11 20:14 OP:rebc STATUS:               ID:20161213171528 L   I
 OLDACT:UP  16-12-14 01:16 OP:ar   STATUS:               ID:20161213170748     3
 2016-12-13-1708-00M.COL___369                                                 6
 STAT SP IPHASW D HRMM SECON CODA AMPLIT PERI AZIMU VELO AIN AR TRES W  DIS CAZ7
 BAR2 EZ IP     C 1715 47.83                             171   -0.0610 22.4 182 
 BAR2 EZ ES       1716  2.90                             171   -0.2910 22.4 182 
 BAR2 EZ I        1716  5.18       341.2 0.28            172           22.4 182 
 BRR  HZ IP       1715 49.58                             153    0.2810 68.8 300 
 BRR  HN ES       1716  6.37                             153    0.6810 68.8 300 
 BRR  HZ I        1716 10.47       263.8 0.38            146           68.8 300 
 PAM  EZ EP       1715 50.83                             150    0.1810 79.9  41 
 PAM  EN ES       1716  8.05                             150   -0.0510 79.9  41 
 PAM  EZ I        1716 10.17       196.7 0.72            147           79.9  41 
 RUS  HZ IP     C 1715 51.77                             144   -0.2410  100 174 
 RUS  HN ES       1716 10.59                             144    0.0810  100 174 
 RUS  HZ I        1716 12.28       173.5 0.52            144            100 174 
 PTB  HZ EP       1715 54.15                             133   -0.81 9  145 259 
 PTB  HN ES       1716 15.66                             133   -0.11 9  145 259 
 PTB  HZ I        1716 17.49       210.3 0.56            128            145 259 
 TAM  HZ IP     D 1715 56.28                             130    0.06 9  158 104 
 TAM  HN ES       1716 17.95                             130   -0.07 9  158 104 
 ZAR  HZ EP       1716  0.20                             123   -0.25 9  201 293 
 ZAR  HN ES       1716 25.36                             123   -0.19 9  201 293 
 ZAR  HZ I        1716 31.02       165.0 0.44            118            201 293 
 NOR  HZ EP       1716  3.59                             119   -0.11 8  232 234 
 NOR  HN ES       1716 31.29                             119   -0.03 8  232 234 
 NOR  HZ I        1716 36.42       120.3 0.26            115            232 234 
 CHI  HZ EP       1716  5.62                             117   -0.20 8  247 195 
 CHI  HN ES       1716 34.84                             117   -0.27 8  247 195 
 CHI  HZ I        1716 38.46       112.0 0.34            115            247 195 
 ROSC BZ EP       1716  7.70                             117    1.53 8  251 210 
 ROSC BN ES   4   1716 38.42                             117    2.70 0  251 210 
 ROSC BZ I        1716 43.96       173.3 0.40            114            251 210 
 URE  HZ EP   4   1716  7.55                             114   -1.50 0  281 292 
 URE  HN ES   4   1716 38.47                             114   -2.39 0  281 292 
 URE  HZ I        1716 52.72       108.4 0.22            110            281 292 
 GUY2CHZ EP       1716 11.94                             113    0.38 7  298 235 
 GUY2CHE ES   4   1716 48.03                             113    2.71 0  298 235 
 GUY2CHZ I        1716 52.96        66.6 0.26                           298 235 
 VIL  EZ EP       1716 11.46                             112   -0.10 7  302 191 
 VIL  EN ES       1716 44.61                             112   -0.70 7  302 191 
 VIL  EZ I        1716 48.60       101.2 0.36            110            302 191 
 LL1C HZ EP   4   1716 13.13                             112    1.23 0  307 352 
 LL1C HZ I        1716 46.91       192.6 0.78            108            307 352 
 LL1C HN ES   4   1716 46.93                             112    1.01 0  307 352 
 PTGC HZ EP   4   1716 11.05                             111   -1.15 0  309 158 
 PTGC HN ES   4   1716 44.02                             111   -2.44 0  309 158 
 PTGC HZ I        1716 45.63        91.2 0.28            110            309 158 
 ELA  HZ EP   9   1716 16.64                             110    1.83 0  326 229 
 ELA  HN ES       1716 52.50                             110   -0.44 7  326 229 
 ELA  HZ I        1717  3.23        41.4 0.38            108            326 229 
 CBOC HZ EP       1716 15.91                             110    1.08 7  330 252 
 CBOC HN ES       1716 51.12                             110   -0.02 7  330 252 
 CBOC HZ I        1717  1.43        28.3 0.44            107            330 252 
 DBB  EZ EP       1716 15.14                             110   -0.26 7  336 274 
 DBB  EN ES   4   1716 50.69                             110   -1.47 0  336 274 
 ANIL HZ EP   9   1716 19.13                             109    1.35 0  355 224 
 ANIL HN ES       1716 58.14                             109    0.40 6  355 224 
 ANIL HZ I        1717  4.67       179.7 0.30            106            355 224 
 ARGC HZ EP       1716 17.90                             108    0.02 6  359 341 
 ARGC HN ES   4   1716 58.66                             108    2.08 0  359 341 
 ARGC HZ I        1717  8.13        23.4 0.28            105            359 341 
 PRA  HZ EP   4   1716 18.68                             107   -2.87 0  390 209 
 PRA  HN ES   4   1717  0.68                             107   -2.43 0  390 209 
 PRA  HZ I        1717  5.70        73.1 0.58            104            390 209 
 ORTC HZ EP       1716 21.99                             106    0.07 6  393 216 
 ORTC HN ES   4   1717  5.47                             106    1.70 0  393 216 
 ORTC HZ I        1717 11.44        46.0 0.52            104            393 216 
 APAC HZ EP       1716 21.83                             106   -0.31 6  395 288 
 APAC HN ES       1717  3.29                             106   -0.87 6  395 288 
 APAC HZ I        1717  8.46        39.8 0.34            103            395 288 
 PAL  HZ EP       1716 23.38                             106    0.29 6  403 239 
 PAL  HN ES       1717  6.83                             106    0.99 6  403 239 
 PAL  HZ I        1717 11.79        28.9 0.40            103            403 239 
 CRJC HZ EP   4   1716 28.13                             103   -2.75 0  468   4 
 CRJC HN ES   4   1717 15.16                             103   -4.55 0  468   4 
 CRJC HZ I        1717 20.25        34.1 0.44            101            468   4 
 YOT  HZ EP       1716 30.14                             103   -0.85 5  469 229 
 YOT  HE ES   4   1717 23.38                             103    3.47 0  469 229 
 MACC HZ EP   4   1716 46.49                             102    9.63 0  519 188 
 MACC HN ES   4   1717 25.04                             102   -5.31 0  519 188 
                                                                                
