 2010  513 1154 48.4 L   6.445 -73.463119.3  RSN  4 0.2 1.3LRSN                1
 GAP=194        0.38       3.2     6.7  5.3  0.7820E+01  0.5546E+00 -0.3187E+01E
 Epicentro: SIMACOTA - SANTANDER                                               3
 ACTION:UP  10-08-24 10:04 OP:vdl  STATUS:               ID:20100513115448 L   I
 2010-05-13-1151-17S.COL___104                                                 6
 STAT SP IPHASW D HRMM SECON CODA AMPLIT PERI AZIMU VELO AIN AR TRES W  DIS CAZ7
 BAR2 SZ IP     D 1155  5.34                             163     0.110   35  62 
 BAR2 SZ ES   2   1155 18.35                             163     0.0 5   35  62 
 RUS  HZ EP   1   1155  7.70                             146     0.0 7   74 145 
 RUS  HE ES   2   1155 22.58                             146    -0.1 5   74 145 
 RUS  HZ I        1155 24.29         4.6 0.35                            74 145 
 BRR  HZ EP   1   1155  7.44                             144     0.2 7   78 339 
 BRR  HN ES   2   1155 21.77                             144    -0.2 5   78 339 
 GUE  SZ EP   1   1155 15.17                             122    -0.3 7  164  21 
 GUE  SZ ES   2   1155 36.75                             122     0.2 5  164  21 
                                                                                
