 2015  513 1103 37.8 L   6.744 -73.104152.2  RSN  6 0.3 1.8LRSN                1
 GAP=266        0.70       4.0     4.8  5.7 -0.1656E+01  0.7758E+01  0.6453E+01E
 Epicentro: LOS SANTOS - SANTANDER                                             3
 ACTION:UPD 15-09-10 22:03 OP:cam  STATUS:               ID:20150513110337 L   I
 OLDACT:REG 15-05-13 20:11 OP:drio STATUS:               ID:20150513105749     3
 2015-05-13-1057-49M.COL___276                                                 6
 STAT SP IPHASW D HRMM SECON CODA AMPLIT PERI AZIMU VELO AIN AR TRES W  DIS CAZ7
 BAR2 EZ EP       11 3 58.23                             173    0.1110 18.8 207 
 BAR2 EZ ES       11 4 13.65                             173   -0.3210 18.8 207 
 BAR2 EZ I        11 4 15.07         7.6 0.44            170           18.8 207 
 BRR  HZ EP       11 4  0.27                             151    0.2310 78.3 301 
 BRR  HN ES       11 4 17.66                             151    0.2710 78.3 301 
 SPBC HZ EP       11 4  6.81                             131    0.18 9  161 222 
 SPBC HN ES       11 4 29.09                             131   -0.02 9  161 222 
 SPBC HZ I        11 4 30.32         9.5 0.20            131            161 222 
 ZAR  HZ EP   4   11 4  9.68                             123   -1.66 0  211 293 
 ZAR  HE ES       11 4 37.18                             123   -0.32 8  211 293 
 ZAR  HZ I        11 4 42.77         7.4 0.30            122            211 293 
 NOR  HZ EP       11 4 13.30                             120   -0.63 8  235 236 
 NOR  HN ES       11 4 42.32                             120    0.21 8  235 236 
 NOR  HZ I        11 4 45.63         4.2 0.36            120            235 236 
 GUY2CHN ES       11 4 56.14                             113    0.14 7  301 236 
                                                                                
