 2015  913 1817 27.5 L   6.818 -73.149141.4  RSN 13 0.6 2.0LRSN                1
 GAP= 70        1.39       3.9     4.4  6.8 -0.1586E+01  0.7016E+01  0.1868E+01E
 Epicentro: LOS SANTOS - SANTANDER                                             3
 ACTION:UPD 15-10-28 16:26 OP:cam  STATUS:               ID:20150913181727 L   I
 OLDACT:REG 15-09-13 20:53 OP:stll STATUS:               ID:20150913180749     3
 2015-09-13-1807-49M.COL___326                                                 6
 STAT SP IPHASW D HRMM SECON CODA AMPLIT PERI AZIMU VELO AIN AR TRES W  DIS CAZ7
 BAR2 EZ EP       1817 46.34                             169   -0.3210 25.2 188 
 BAR2 EZ I        1817 46.97        17.1 0.54            168           25.2 188 
 BAR2 EZ ES       1818  1.31                             169   -0.2810 25.2 188 
 BRR  HZ EP       1817 48.66                             152    0.5410 69.9 297 
 BRR  HN ES       1818  5.21                             152    1.0210 69.9 297 
 BRR  HZ I        1818  8.65        16.0 0.16            152           69.9 297 
 PAM  EZ EP       1817 49.76                             150    0.5710 76.1  41 
 PAM  EN ES       1818  6.26                             150    0.1610 76.1  41 
 PAM  EZ I        1818  8.59        20.7 0.54            155           76.1  41 
 RUS  HZ EP       1817 51.09                             142    0.1010  103 176 
 RUS  HE ES       1818  9.00                             142   -0.2910  103 176 
 RUS  HZ I        1818 11.41        10.8 0.18            144            103 176 
 PTB  HZ EP       1817 53.54                             131   -0.59 9  148 258 
 PTB  HN ES       1818 14.48                             131   -0.41 9  148 258 
 PTB  HZ I        1818 17.14        13.3 0.24            132            148 258 
 TAM  HZ EP       1817 55.23                             129    0.29 9  156 106 
 TAM  HZ I        1817 55.59        17.9 0.20            133            156 106 
 SPBC HZ EP       1817 55.92                             128    0.11 9  164 218 
 SPBC HN ES       1818 17.20                             128   -0.67 9  164 218 
 SPBC HZ I        1818 25.00        15.4 0.30            129            164 218 
 ZAR  HZ EP       1817 59.50                             121   -0.07 9  203 292 
 ZAR  HN ES       1818 24.59                             121    0.03 9  203 292 
 ZAR  HZ I        1818 31.73        10.3 0.42            123            203 292 
 NOR  HZ EP       1818  3.12                             117    0.03 8  236 234 
 NOR  HN ES       1818 29.98                             117   -0.85 8  236 234 
 NOR  HZ I        1818 32.56         6.6 0.18            119            236 234 
 SML  HZ EP       1818  3.02                             117   -0.67 8  242 335 
 SML  HE ES       1818 30.97                             117   -0.93 8  242 335 
 SML  HZ I        1818 33.67        12.2 0.26            119            242 335 
 CHI  HZ EP       1818  5.22                             116    0.04 8  250 195 
 CHI  HN ES       1818 34.28                             116   -0.27 8  250 195 
 CHI  HZ I        1818 41.91         4.6 0.36            118            250 195 
 HEL  HZ EP       1818  8.07                             114    0.55 8  272 255 
 HEL  HE ES       1818 38.81                             114    0.08 8  272 255 
 HEL  HZ I        1818 46.28         6.2 0.32            115            272 255 
 GUY2CHZ EP       1818 10.92                             111   -0.10 7  302 234 
 GUY2CHN ES       1818 46.96                             111    2.01 7  302 234 
 GUY2CHZ I        1818 52.81         3.5 0.24                           302 234 
                                                                                
