 2013  213 1712  0.2 L   6.806 -73.134145.2  RSN 16 0.5 2.9LRSN 3.3WRSN        1
 SPEC AVERAGE  MO 14.0 ST 25.4 OM  3.0 f0 5.52 R0.2677 AL 4.03 WI 34.0 MW  3.3 3
 SPEC SD       MO  0.2 ST 10.2 OM  0.7 f00.375 R0.0183 AL      WI      MW  0.1 3
 GAP= 71        1.05       3.1     3.6  6.1  0.1241E+00  0.4803E+01  0.8524E+00E
 Epicentro: LOS SANTOS - SANTANDER                                             3
 SPEC NOR HH N MO 14.1 ST 38.1 OM  2.3 f0 5.85 R0.2513 AL 3.34 WI 34.5 MW  3.4 3
 SPEC NOR HH N T1713 0 K 0.000 GD  277 VS 4.20 DE 3.20 Q0300.0 QA 0.60 VS 4.20 3
 SPEC OCA HH N MO 14.2 ST 30.3 OM  2.5 f0 5.05 R0.2911 AL 3.18 WI 47.4 MW  3.4 3
 SPEC OCA HH N T171248 K 0.000 GD  216 VS 4.20 DE 3.20 Q0300.0 QA 0.60 VS 4.20 3
 SPEC PAM SH N MO 13.7 ST 10.3 OM  2.1 f0 5.25 R0.2800 AL 5.59 WI 31.4 MW  3.1 3
 SPEC PAM SH N T171238 K 0.000 GD  163 VS 4.20 DE 3.20 Q0300.0 QA 0.60 VS 4.20 3
 SPEC BRR HH N MO 13.9 ST 23.1 OM  2.3 f0 5.92 R0.2483 AL 4.02 WI 22.6 MW  3.2 3
 SPEC BRR HH N T171237 K 0.000 GD  162 VS 4.20 DE 3.20 Q0300.0 QA 0.60 VS 4.20 3
 ACTION:UPD 13-03-12 09:32 OP:ep   STATUS:               ID:20130213171200 L   I
 2013-02-13-1710-00M.COL___241                                                 6
 STAT SP IPHASW D HRMM SECON CODA AMPLIT PERI AZIMU VELO AIN AR TRES W  DIS CAZ7
 BAR2 SZ IP     D 1712 19.86                             170    0.0510 24.2 193 
 BAR2 SZ ES   1   1712 34.72                             170   -0.37 7 24.2 193 
 BAR2 SZ I        1712 36.08       108.5 0.38            169           24.2 193 
 BRR  HZ IP     C 1712 21.73                             152    0.3610 72.0 298 
 BRR  HN ES   1   1712 38.77                             152    0.91 7 72.0 298 
 BRR  HN I        1712 41.02       185.8 0.16            150           72.0 298 
 PAM  SZ EP     D 1712 22.63                             151    0.3210 76.0  39 
 PAM  SN ES   1   1712 39.61                             151    0.08 7 76.0  39 
 PAM  SN I        1712 41.17       150.4 0.44            155           76.0  39 
 RUS  HZ EP     C 1712 23.70                             144   -0.2710  101 177 
 RUS  HN ES   1   1712 42.47                             144   -0.01 7  101 177 
 RUS  HN I        1712 43.91        99.4 0.42            146            101 177 
 PTB  HZ EP       1712 26.48                             132   -0.80 9  149 259 
 PTB  HN ES   1   1712 47.61                             132   -0.77 7  149 259 
 PTB  HN I        1712 53.12       157.3 0.50            132            149 259 
 TAM  HZ EP       1712 28.02                             131    0.26 9  154 105 
 TAM  HE ES   1   1712 48.99                             131   -0.25 7  154 105 
 TAM  HE I        1712 50.37        34.5 0.28            136            154 105 
 OCA  HZ EP   1   1712 28.04                             130   -0.41 7  160 353 
 OCA  HN ES   1   1712 49.88                             130   -0.58 7  160 353 
 OCA  HN I        1712 53.82       291.7 0.22            131            160 353 
 ZAR  HZ EP   1   1712 33.18                             122    0.44 6  205 292 
 ZAR  HN ES   1   1712 58.22                             122    0.13 6  205 292 
 ZAR  HN I        1713  6.05       101.4 0.26            123            205 292 
 CTAB SZ EP   1   1712 37.68                             119    1.61 6  231 211 
 NOR  HZ EP       1712 35.71                             118   -0.37 8  236 235 
 NOR  HN ES   1   1713  4.23                             118    0.18 6  236 235 
 NOR  HN I        1713  5.74        90.7 0.18            119            236 235 
 SML  HZ EP   1   1712 37.23                             117    0.41 6  244 335 
 SML  HN ES       1713  5.44                             117    0.08 8  244 335 
 SML  HN I        1713  9.65       167.0 0.10            119            244 335 
 CHI  HZ EP       1712 37.94                             117   -0.06 8  250 195 
 CHI  HN ES   1   1713  6.96                             117   -0.50 6  250 195 
 CHI  HN I        1713 10.89        31.3 0.24            119            250 195 
 HEL  HZ EP   1   1712 41.31                             114    0.74 6  274 256 
 HEL  HN ES   1   1713 12.60                             114    0.56 6  274 256 
 HEL  HN I        1713 22.68        22.5 0.54            115            274 256 
 URE  HZ EP   1   1712 40.29                             113   -1.09 6  285 292 
 RREF HZ EP   1   1712 46.87                             111    0.36 5  323 229 
 COD  HZ EP   1   1712 47.69                             109   -0.83 5  348 354 
 COD  HN ES   1   1713 26.12                             109   -0.07 5  348 354 
                                                                                
