 2013  413 1821 32.7 L   6.807 -73.188143.7  RSN  8 0.4 2.0LRSN                1
 GAP=131        1.01       4.0     4.7  6.4 -0.1850E+01  0.7010E+01  0.3983E+01E
 Epicentro: ZAPATOCA - SANTANDER                                               3
 ACTION:UPD 13-05-22 14:38 OP:EP   STATUS:               ID:20130413182132 L   I
 2013-04-13-1820-00M.COL___244                                                 6
 STAT SP IPHASW D HRMM SECON CODA AMPLIT PERI AZIMU VELO AIN AR TRES W  DIS CAZ7
 BAR2 SZ EP       1821 52.14                             170    0.0210 23.7 178 
 BAR2 SZ ES       1822  7.38                             170    0.1410 23.7 178 
 BAR2 SZ I        1822 10.21        23.9 0.26            168           23.7 178 
 BRR  HZ EP       1821 53.87                             154    0.4610 66.7 300 
 BRR  HE ES       1822 10.34                             154    0.8110 66.7 300 
 BRR  HZ I        1822 14.06        21.9 0.44            154           66.7 300 
 PAM  SZ EP       1821 54.98                             150    0.1010 79.9  42 
 PAM  SN ES       1822 11.75                             150   -0.4110 79.9  42 
 PAM  SZ I        1822 12.57        19.6 0.18            155           79.9  42 
 RUS  HZ EP       1821 56.22                             143   -0.1510  102 173 
 RUS  HN ES       1822 14.62                             143   -0.1810  102 173 
 RUS  HZ I        1822 16.11        10.6 0.36            144            102 173 
 PTB  HZ EP       1821 58.98                             132   -0.15 9  143 258 
 PTB  HN ES       1822 19.04                             132   -0.67 9  143 258 
 PTB  HZ I        1822 22.24        13.8 0.10            133            143 258 
 NOR  HZ EP       1822  8.43                             118    0.45 8  231 234 
 NOR  HN ES   1   1822 35.26                             118   -0.21 6  231 234 
 NOR  HZ I        1822 39.81         8.0 0.38            120            231 234 
 SML  HN ES   1   1822 36.26                             117   -0.95 6  241 336 
 CHI  HZ EP   1   1822 10.63                             117    0.36 6  248 194 
 CHI  HN ES   1   1822 39.32                             117   -0.22 6  248 194 
 CHI  HZ I        1822 44.96         3.7 0.38            118            248 194 
                                                                                
