 2017  713 1010 18.9 L   6.808 -73.152142.6  RSN  9 0.4 1.7LRSN                1
 GAP=111        0.88       3.4     3.0  5.3  0.8824E+00  0.2799E+01  0.4888E+01E
 Epicentro: LOS SANTOS - SANTANDER                                             3
 ACTION:UPD 17-08-30 15:32 OP:rebc STATUS:               ID:20170713101018 L   I
 OLDACT:UP  17-07-13 20:58 OP:dani STATUS:               ID:20170713100719     3
 OLDACT:UP  17-07-13 20:57 OP:dani STATUS:               ID:20170713100719     3
 OLDACT:REG 17-07-13 20:06 OP:dani STATUS:               ID:20170713100719     3
 2017-07-13-1008-00M.COL___368                                                 6
 STAT SP IPHASW D HRMM SECON CODA AMPLIT PERI AZIMU VELO AIN AR TRES W  DIS CAZ7
 BAR2 EZ EP     D 1010 37.96                             170   -0.2210 24.1 188 
 BAR2 EZ ES       1010 52.74                             170   -0.4710 24.1 188 
 BAR2 EZ I        1010 54.55        13.3 0.18            170           24.1 188 
 BRR  HZ EP       1010 39.71                             152    0.0410 70.2 298 
 BRR  HN ES       1010 56.00                             152    0.1510 70.2 298 
 BRR  HZ I        1011  0.74        16.0 0.36            152           70.2 298 
 PAM  EZ EP       1010 40.98                             150    0.2010 77.2  40 
 PAM  EN ES       1010 57.97                             150    0.1310 77.2  40 
 PAM  EZ I        1011  0.88         5.8 0.54            154           77.2  40 
 RUS  HZ EP       1010 42.22                             143   -0.2010  101 176 
 RUS  HE ES   3   1011  1.13                             143    0.37 2  101 176 
 RUS  HZ I        1011  2.67         5.3 0.40            146            101 176 
 PTB  HZ EP       1010 44.67                             131   -0.91 9  147 258 
 PTB  HN ES       1011  6.25                             131   -0.13 9  147 258 
 PTB  HZ I        1011  7.84         5.1 0.58            133            147 258 
 SPBC HZ EP       1010 47.19                             128   -0.00 9  163 219 
 SPBC HN ES       1011  9.90                             128    0.65 9  163 219 
 SPBC HZ I        1011 15.21        10.3 0.22            130            163 219 
 YPLC HZ EP       1010 48.47                             126   -0.12 9  178 151 
 YPLC HN ES       1011 12.11                             126    0.38 9  178 151 
 YPLC HZ I        1011 13.41         6.7 0.19            129            178 151 
 ZAR  HZ EP       1010 51.51                             122    0.45 9  203 292 
 ZAR  HE ES       1011 16.37                             122    0.24 9  203 292 
 ZAR  HZ I        1011 26.08         6.7 0.30            123            203 292 
 NOR  HZ EP       1010 54.62                             118    0.17 8  235 234 
 NOR  HN ES       1011 22.02                             118   -0.16 8  235 234 
 NOR  HZ I        1011 24.39         4.0 0.30            120            235 234 
                                                                                
