 2011  113 1929  7.1 L   6.832 -73.108142.0  RSN  4 0.3 1.6LRSN                1
 GAP=162        0.87       8.5    46.5 11.9  0.1854E+03 -0.3338E+03 -0.3119E+02E
 Epicentro: LOS SANTOS - SANTANDER                                             3
 ACTION:UP  11-02-08 08:40 OP:pat  STATUS:               ID:20110113192907 L   I
 2011-01-13-1927-58S.COL___135                                                 6
 STAT SP IPHASW D HRMM SECON CODA AMPLIT PERI AZIMU VELO SNR AR TRES W  DIS CAZ7
 BTL  SZ EP       1929 25.73                             172    -0.510   20 298 
 BTL  SZ ES   1   1929 41.57                             172     0.4 7   20 298 
 BAR2 SZ EP       1929 26.63                             169     0.210   28 197 
 BAR2 SZ ES   2   1929 41.20                             169    -0.2 5   28 197 
 BAR2 SZ I        1929 43.63        10.8 0.56                            28 197 
 RUS  HZ EP       1929 30.97                             142     0.210  104 178 
 RUS  HN ES   1   1929 48.91                             142    -0.3 7  104 178 
 RUS  HZ I        1929 50.49         3.6 0.41                           104 178 
 GRA  SZ EP   2   1929 31.65                             137     0.0 5  121  16 
 GRA  SZ I        1929 33.50         8.1 0.32                           121  16 
                                                                                
