 2013  713 1854 38.3 L   6.790 -73.141147.1  RSN 19 0.5 2.5LRSN                1
 GAP= 51        1.07       2.7     2.9  4.7 -0.2673E+01  0.1277E+01  0.2018E+01E
 Epicentro: LOS SANTOS - SANTANDER                                             3
 ACTION:UPD 13-08-12 10:37 OP:ep   STATUS:               ID:20130713185438 L   I
 OLDACT:REG 13-07-13 16:11 OP:stll STATUS:               ID:20130713184850     3
 2013-07-13-1848-50M.COL___225                                                 6
 STAT SP IPHASW D HRMM SECON CODA AMPLIT PERI AZIMU VELO AIN AR TRES W  DIS CAZ7
 BAR2 SZ EP       1854 57.99                             171   -0.1110 22.3 192 
 BAR2 SZ ES       1855 13.00                             171   -0.5210 22.3 192 
 BAR2 SZ I        1855 15.87        45.2 0.32            171           22.3 192 
 GIR2 SZ EP       1854 58.23                             167    0.0410 32.4 350 
 BRR  HZ EP       1854 59.95                             152    0.2710 72.2 299 
 BRR  HN ES       1855 17.17                             152    0.8510 72.2 299 
 BRR  HN I        1855 21.17        90.2 0.18            152           72.2 299 
 PAM  SZ EP       1855  0.95                             151    0.2310 77.9  39 
 PAM  SN ES       1855 18.09                             151   -0.0910 77.9  39 
 PAM  SN I        1855 20.25        41.8 0.58            154           77.9  39 
 RUS  HZ EP       1855  2.01                             144   -0.1210 99.4 176 
 RUS  HN ES       1855 20.63                             144   -0.0610 99.4 176 
 RUS  HN I        1855 22.58        44.4 0.28            147           99.4 176 
 GRA  SZ EP       1855  4.04                             137    0.2710  127  17 
 GRA  SZ ES       1855 23.53                             137   -0.0710  127  17 
 PTB  HZ EP       1855  4.75                             132   -0.68 9  148 259 
 PTB  HE ES       1855 26.21                             132   -0.36 9  148 259 
 PTB  HE I        1855 31.70        59.1 0.30            133            148 259 
 CAPV BZ EP       1855  6.05                             132    0.17 9  150  37 
 TAM  HZ EP       1855  6.12                             131    0.08 9  154 105 
 TAM  HN ES       1855 27.94                             131    0.29 9  154 105 
 TAM  HN I        1855 28.85        27.1 0.36            135            154 105 
 OCA  HZ EP       1855  6.61                             130   -0.24 9  161 353 
 OCA  HN ES       1855 28.68                             130   -0.42 9  161 353 
 OCA  HN I        1855 34.96        83.0 0.18            132            161 353 
 SPBC HZ EP       1855  6.99                             129    0.11 9  163 219 
 SPBC HN ES       1855 29.33                             129    0.18 9  163 219 
 YOP  SZ EP       1855  8.64                             127    0.29 9  178 153 
 NOR  HZ EP       1855 14.15                             119    0.04 8  234 235 
 NOR  HN ES       1855 41.17                             119   -0.85 8  234 235 
 NOR  HN I        1855 45.82        63.9 0.16            120            234 235 
 CHI  HZ EP       1855 16.21                             117    0.21 8  248 195 
 CHI  HN ES       1855 45.97                             117    0.59 8  248 195 
 CHI  HN I        1855 48.96        16.5 0.30            119            248 195 
 HEL  HZ EP       1855 19.42                             115    0.78 8  272 256 
 HEL  HE ES       1855 50.51                             115    0.44 8  272 256 
 HEL  HE I        1855 57.95        14.9 0.72            116            272 256 
 SOCV BZ EP       1855 20.38                             112   -1.08 7  301  57 
 GUY2CHZ EP       1855 22.39                             113    0.41 7  301 235 
 GUY2CHE ES       1855 56.04                             113    0.02 7  301 235 
 GUY2CHE I        1856  2.63        16.9 0.40                           301 235 
 DBB  SZ EP       1855 26.11                             110    0.18 7  340 274 
 PRA  HZ EP       1855 31.81                             107   -0.01 6  391 210 
 PRA  HN ES       1856 11.88                             107   -1.65 6  391 210 
 PRA  HN I        1856 19.91         5.2 0.40            108            391 210 
                                                                                
