 2015  913 1204 46.9 L   6.783 -73.170148.1  RSN  5 0.3 1.6LRSN                1
 GAP=190        0.74       3.8     4.8  7.1 -0.2379E+01  0.9535E+01 -0.1045E+02E
 Epicentro: LOS SANTOS - SANTANDER                                             3
 ACTION:UPD 15-10-28 16:26 OP:cam  STATUS:               ID:20150913120446 L   I
 OLDACT:REG 15-09-13 20:40 OP:stll STATUS:               ID:20150913115750     3
 2015-09-13-1157-50M.COL___316                                                 6
 STAT SP IPHASW D HRMM SECON CODA AMPLIT PERI AZIMU VELO AIN AR TRES W  DIS CAZ7
 BAR2 EZ EP       12 5  6.88                             171    0.1010 21.1 184 
 BAR2 EZ ES       12 5 22.06                             171   -0.2110 21.1 184 
 BAR2 EZ I        12 5 22.86         7.0 0.28            171           21.1 184 
 PTB  HZ EP       12 5 14.15                             133    0.35 9  145 259 
 PTB  HN ES       12 5 34.63                             133   -0.15 9  145 259 
 PTB  HZ I        12 5 42.10         2.1 0.44            132            145 259 
 OCA  HN ES       12 5 38.30                             130    0.41 9  162 354 
 OCA  HZ I        12 5 41.75         8.4 0.32            131            162 354 
 ZAR  HN ES       12 5 44.77                             123    0.15 9  202 293 
 ZAR  HZ I        12 5 49.54         2.7 0.26            123            202 293 
 SML  HZ EP       12 5 23.18                             118   -0.56 8  244 336 
 SML  HN ES       12 5 52.20                             118   -0.26 8  244 336 
 SML  HZ I        12 5 55.60         4.1 0.10            119            244 336 
                                                                                
