 2013 1013 1200 54.3 L   6.731 -73.178135.6  RSN  6 0.3 1.5LRSN                1
 GAP=228        0.64       4.3     4.1  5.1  0.8787E+01  0.5123E+01 -0.5471E+00E
 Epicentro: VILLANUEVA - SANTANDER                                             3
 ACTION:UPD 13-11-25 09:21 OP:ep   STATUS:               ID:20131013120054 L   I
 OLDACT:REG 13-10-13 14:56 OP:nd   STATUS:               ID:20131013115959     3
 2013-10-13-1159-59M.COL___273                                                 6
 STAT SP IPHASW D HRMM SECON CODA AMPLIT PERI AZIMU VELO AIN AR TRES W  DIS CAZ7
 BAR2 SZ EP       12 1 12.40                             173   -0.1210 15.3 182 
 BAR2 SZ ES       12 1 26.60                             173   -0.1710 15.3 182 
 BAR2 SZ I        12 1 29.27         7.7 0.54            170           15.3 182 
 BRR  HZ EP       12 1 14.54                             150    0.1710 72.2 305 
 BRR  HN ES   2   12 1 30.53                             150    0.46 5 72.2 305 
 BRR  HZ I        12 1 42.71         8.7 0.46            150           72.2 305 
 RUS  HZ EP       12 1 16.59                             144    0.1110 93.3 174 
 RUS  HN ES       12 1 33.99                             144    0.1710 93.3 174 
 RUS  HZ I        12 1 36.44         3.1 0.30            151           93.3 174 
 PTB  HZ EP       12 1 19.47                             131   -0.49 9  143 262 
 PTB  HN ES       12 1 39.68                             131   -0.33 9  143 262 
 PTB  HZ I        12 1 43.62         3.0 0.14            133            143 262 
 SPBC HZ EP       12 1 21.31                             128    0.11 9  155 220 
 SPBC HN ES   2   12 1 42.88                             128    0.66 5  155 220 
 SPBC HZ I        12 1 50.65         6.4 0.32            133            155 220 
 ZAR  HZ EP   2   12 1 26.38                             120    0.35 4  204 295 
 ZAR  HN ES       12 1 51.02                             120    0.21 9  204 295 
 ZAR  HZ I        12 1 56.80         3.0 0.40            124            204 295 
                                                                                
