 2010  613 1512 38.2 L   6.769 -73.086144.0  RSN  8 0.4 2.5LRSN                1
 GAP=166        0.69       4.1     7.7  6.9 -0.1486E+02  0.1710E+02  0.1801E+01E
 Epicentro: LOS SANTOS - SANTANDER                                             3
 ACTION:UP  10-08-24 10:10 OP:vdl  STATUS:               ID:20100613151238 L   I
 2010-06-13-1510-41S.COL___114                                                 6
 STAT SP IPHASW D HRMM SECON CODA AMPLIT PERI AZIMU VELO SNR AR TRES W  DIS CAZ7
 BAR2 SZ IP     D 1512 57.38                             171    -0.210   22 209 
 BAR2 SZ ES   2   1513 12.59                             171    -0.1 5   22 209 
 GIR2 SZ EP   1   1512 57.50                             165    -0.3 7   36 341 
 GIR2 SZ ES   2   1513 13.56                             165     0.5 5   36 341 
 RUS  HZ EP   1   1513  1.44                             145    -0.1 7   97 180 
 RUS  HE ES   2   1513 20.15                             145     0.5 5   97 180 
 RUS  HZ I        1513 21.28        38.3 0.27                            97 180 
 GUE  SZ EP   1   1513  3.31                             139     0.4 7  119   9 
 GUE  SZ ES   2   1513 22.90                             139     0.7 5  119   9 
 GRA  SZ EP   1   1513  2.97                             136    -0.4 7  127  14 
 GRA  SZ ES   2   1513 22.82                             136    -0.3 5  127  14 
 CHI  HZ EP   1   1513 15.46                             117    -0.2 6  247 197 
 CHI  HZ I        1513 18.12        16.1 0.39                           247 197 
 CHI  HE ES   2   1513 44.83                             117     0.0 4  247 197 
 HEL  HZ EP   1   1513 19.67                             114     0.7 6  278 257 
 HEL  HN ES   2   1513 50.00                             114    -0.7 4  278 257 
 HEL  HZ I        1513 55.75        31.1 0.32                           278 257 
 TOL  SZ EP   1   1513 27.10                             109     0.5 5  346 226 
 TOL  SZ ES   2   1514  4.50                             109     0.1 3  346 226 
                                                                                
