 2012  313 1347 27.4 L   6.856 -73.342128.0  RSN  5 0.4 1.6LRSN                1
 GAP=109        1.03       7.8     6.6 14.4 -0.1127E+01  0.1138E+01  0.4202E+02E
 ACTION:UP  12-03-31 23:19 OP:EP   STATUS:               ID:20120313134728dL   I
 2012-03-13-1340-00M.COL___196                                                 6
 STAT SP IPHASW D HRMM SECON CODA AMPLIT PERI AZIMU VELO SNR AR TRES W  DIS CAZ7
 BAR2 SZ EP       1347 45.43                             164     0.310   34 149 
 BAR2 SZ I        1347 59.62        14.2 0.25                            34 149 
 BRR  HZ EP   1   1347 45.88                             157     0.5 7   49 304 
 BRR  HZ I        1347 50.08        10.1 0.08                            49 304 
 BRR  HE ES   1   1347 59.91                             157     0.4 7   49 304 
 PAM  SN ES   1   1348  4.38                             143    -0.6 7   89  53 
 RUS  HZ EP   1   1347 50.32                             137     0.1 7  110 165 
 RUS  HZ I        1348  7.86         5.2 0.45                           110 165 
 RUS  HE ES   1   1348  7.91                             137    -0.1 7  110 165 
 PTB  HZ EP   2   1347 50.39                             131    -0.7 5  128 254 
 PTB  HN ES   1   1348  9.05                             131    -0.5 7  128 254 
 PTB  HZ I        1348 12.64         6.4 0.33                           128 254 
                                                                                
