 2011  613 1554 38.2 L   6.759 -73.093143.4  RSN 14 0.4 2.8LRSN                1
 GAP=145        0.82       3.0     5.4  5.6 -0.8141E+01  0.8483E+01  0.2029E+01E
 Epicentro: LOS SANTOS - SANTANDER                                             3
 ACTION:UP  11-07-14 19:05 OP:ep   STATUS:               ID:20110613155438 L   I
 2011-06-13-1552-19S.COL___131                                                 6
 STAT SP IPHASW D HRMM SECON CODA AMPLIT PERI AZIMU VELO SNR AR TRES W  DIS CAZ7
 BAR2 SZ EP       1554 57.42                             171     0.010   21 208 
 BAR2 SZ ES   1   1555 12.11                             171    -0.4 7   21 208 
 BAR2 SZ I        1555 13.80       157.2 0.18                            21 208 
 PAM  SZ EP   1   1555  0.31                             150     0.2 7   78  34 
 PAM  SN ES   1   1555 17.01                             150    -0.3 7   78  34 
 PAM  SZ I        1555 19.15        43.5 0.38                            78  34 
 BRR  HZ IP     C 1554 59.33                             150    -0.210   78 299 
 BRR  HN ES   1   1555 16.50                             150     0.4 7   78 299 
 BRR  HZ I        1555 19.61       164.6 0.14                            78 299 
 RUS  HZ EP   1   1555  1.36                             145     0.0 7   96 179 
 RUS  HN ES   1   1555 19.68                             145     0.3 7   96 179 
 RUS  HZ I        1555 20.70        67.7 0.20                            96 179 
 BRI  SZ EP   1   1555  2.06                             140     0.1 7  111  17 
 BRI  SZ ES   1   1555 20.41                             140    -0.2 7  111  17 
 BRI  SZ I        1555 22.38       106.5 0.40                           111  17 
 GRA  SZ EP   1   1555  3.35                             136    -0.1 7  129  14 
 GRA  SZ ES   1   1555 23.08                             136     0.0 7  129  14 
 GRA  SZ I        1555 24.08       100.0 0.41                           129  14 
 OCA  SZ EP   1   1555  6.29                             128    -0.5 7  166 351 
 OCA  SZ ES   1   1555 30.02                             128     0.9 7  166 351 
 OCA  SZ I        1555 32.27       115.9 0.14                           166 351 
 NOR  SZ EP   1   1555 13.81                             118    -0.2 6  237 236 
 NOR  SE ES   1   1555 41.53                             118    -0.4 6  237 236 
 CHI  HZ EP   1   1555 15.73                             117     0.3 6  246 197 
 CHI  HE ES   1   1555 44.35                             117    -0.1 6  246 197 
 CHI  HZ I        1555 50.98        22.9 0.38                           246 197 
 ROSC BN ES   1   1555 46.09                             116     0.5 6  252 213 
 ROSC BZ I        1555 55.16        82.0 0.40                           252 213 
 RREF HN ES   1   1555 59.80                             110    -0.6 5  323 231 
 RREF HZ I        1556  6.10        40.1 0.29                           323 231 
 TOL  SZ EP   1   1555 27.47                             109     1.0 5  344 226 
 DBB  SZ EP   1   1555 25.83                             109    -0.4 5  346 275 
 PRA  HZ EP   1   1555 31.04                             106    -0.4 4  391 211 
 PRA  HN ES   1   1556 13.60                             106     0.5 4  391 211 
                                                                                
