 2014  313 1023 55.2 L   6.772 -73.160142.2  RSN  6 0.5 1.5LRSN                1
 GAP=136        1.21       5.1     5.6  8.9  0.3734E+00  0.1773E+02 -0.1388E+02E
 Epicentro: LOS SANTOS - SANTANDER                                             3
 ACTION:UPD 14-04-09 23:16 OP:nd   STATUS:               ID:20140313102355 L   I
 OLDACT:REG 14-03-13 15:21 OP:cam  STATUS:               ID:20140313102046     3
 2014-03-13-1020-46M.COL___229                                                 6
 STAT SP IPHASW D HRMM SECON CODA AMPLIT PERI AZIMU VELO AIN AR TRES W  DIS CAZ7
 BAR2 SZ EP       1024 14.35                             171    0.0310 20.1 187 
 BAR2 SZ ES       1024 28.90                             171   -0.3410 20.1 187 
 BAR2 SZ I        1024 30.49        14.9 0.14            176           20.1 187 
 PAM  SZ EP       1024 17.13                             149   -0.0910 80.7  39 
 PAM  SN ES       1024 34.22                             149   -0.2010 80.7  39 
 PAM  SZ I        1024 38.95         3.9 0.50            149           80.7  39 
 RUS  HZ EP       1024 18.50                             144    0.1310 97.7 175 
 RUS  HN ES       1024 37.21                             144    0.7510 97.7 175 
 RUS  HZ I        1024 38.46         3.0 0.26            150           97.7 175 
 PTB  HZ EP       1024 20.85                             132   -0.81 9  146 260 
 PTB  HN ES       1024 41.86                             132   -0.46 9  146 260 
 PTB  HZ I        1024 43.82         3.2 0.18            134            146 260 
 ZAR  HZ EP       1024 28.04                             122    0.67 9  204 293 
 ZAR  HN ES       1024 52.88                             122    0.41 9  204 293 
 ZAR  HZ I        1024 56.96         3.1 0.32            123            204 293 
 SML  HZ EP       1024 31.26                             116   -0.58 8  246 336 
 SML  HN ES       1025  1.08                             116    0.65 8  246 336 
 SML  HZ I        1025 10.12         3.0 0.26            118            246 336 
                                                                                
