 2011  513 1301 49.8 L   6.767 -73.066150.5  RSN 12 0.3 2.6LRSN                1
 GAP=149        0.66       3.9     4.8  5.1 -0.1034E+02  0.2206E+01  0.2928E+01E
 Epicentro: LOS SANTOS - SANTANDER                                             3
 ACTION:UP  11-06-29 08:53 OP:tino STATUS:               ID:20110513130149 L   I
 2011-05-13-1258-23S.COL___139                                                 6
 STAT SP IPHASW D HRMM SECON CODA AMPLIT PERI AZIMU VELO SNR AR TRES W  DIS CAZ7
 BAR2 SZ IP       13 2  9.83                             171    -0.210   23 214 
 BAR2 SZ ES   1   13 2 25.91                             171     0.2 7   23 214 
 BAR2 SZ I        13 2 26.13        75.6 0.39                            23 214 
 PAM  SZ EP   1   13 2 12.59                             152     0.2 7   75  33 
 PAM  SE ES   2   13 2 29.76                             152    -0.2 5   75  33 
 BRR  HZ IP       13 2 11.73                             150    -0.310   81 298 
 BRR  HZ I        13 2 12.01       115.3 0.13                            81 298 
 BRR  HN ES   1   13 2 29.19                             150    -0.1 7   81 298 
 RUS  HZ EP   1   13 2 13.70                             146     0.0 7   97 181 
 BRI  SZ IP       13 2 14.40                             142     0.210  109  16 
 BRI  SZ ES   2   13 2 32.61                             142    -0.6 5  109  16 
 BRI  SZ I        13 2 35.12        57.3 0.50                           109  16 
 GRA  SZ IP       13 2 15.66                             138     0.110  127  13 
 GRA  SZ ES   1   13 2 36.01                             138     0.4 7  127  13 
 GRA  SZ I        13 2 36.94        40.3 0.34                           127  13 
 OCA  SZ EP   1   13 2 18.26                             130    -0.7 7  165 350 
 OCA  SZ ES   2   13 2 41.99                             130     0.4 5  165 350 
 NOR  SZ EP   1   13 2 26.00                             119    -0.3 6  240 236 
 NOR  SN ES   2   13 2 55.12                             119     0.3 4  240 236 
 HEL  HZ EP   1   13 2 31.88                             115     0.8 6  280 257 
 HEL  HN ES   2   13 3  3.82                             115     0.5 4  280 257 
 HEL  HZ I        13 3  8.51        14.7 0.34                           280 257 
 GUY  SN ES   2   13 3  9.22                             113    -0.1 4  309 237 
 GUY  SZ I        13 3 17.29        21.4 0.32                           309 237 
 DBB  SZ EP   2   13 2 38.06                             110    -0.4 3  349 275 
 PRA  HZ EP   2   13 2 43.81                             107     0.2 3  393 211 
 PRA  HN ES   2   13 3 25.77                             107     0.2 3  393 211 
                                                                                
