 2010 1113 1150  6.4 L   6.782 -73.110146.3  RSN  6 0.3 1.6LRSN                1
 GAP=163        0.65       4.8     7.0  8.1 -0.7671E+01 -0.1420E+02 -0.4974E+01E
 Epicentro: LOS SANTOS - SANTANDER                                             3
 ACTION:UP  10-12-17 16:52 OP:REBC STATUS:               ID:20101113115006 L   I
 2010-11-13-1147-15S.COL___129                                                 6
 STAT SP IPHASW D HRMM SECON CODA AMPLIT PERI AZIMU VELO SNR AR TRES W  DIS CAZ7
 BAR2 SZ EP       1150 26.01                             171    -0.110   23 201 
 BAR2 SZ ES   2   1150 40.81                             171    -0.6 5   23 201 
 BAR2 SZ I        1150 42.58        10.5 0.45                            23 201 
 BRR  HZ EP       1150 28.12                             150     0.210   76 298 
 BRR  HE ES   1   1150 44.87                             150     0.3 7   76 298 
 BRR  HZ I        1150 49.35        12.7 0.15                            76 298 
 RUS  HZ EP   2   1150 30.01                             144     0.0 5   98 178 
 RUS  HE ES   2   1150 48.87                             144     0.4 5   98 178 
 RUS  HZ I        1150 50.41         3.5 0.36                            98 178 
 GUE  SZ EP   2   1150 30.80                             139    -0.5 5  118  10 
 GRA  SZ EP       1150 31.84                             137     0.110  127  16 
 GRA  SZ ES   2   1150 51.15                             137    -0.4 5  127  16 
 GRA  SZ I        1150 53.12         4.5 0.41                           127  16 
 NOR  SN ES   2   1151  9.88                             118    -0.6 4  237 236 
                                                                                
