 2013  413 1454 53.5 L   6.805 -73.180140.8  RSN  6 0.5 1.7LRSN                1
 GAP=204        1.02       6.1     8.0  8.1 -0.1924E+01  0.1507E+02 -0.4827E+01E
 Epicentro: LOS SANTOS - SANTANDER                                             3
 ACTION:UPD 13-05-22 14:38 OP:EP   STATUS:               ID:20130413145453 L   I
 2013-04-13-1450-00M.COL___244                                                 6
 STAT SP IPHASW D HRMM SECON CODA AMPLIT PERI AZIMU VELO AIN AR TRES W  DIS CAZ7
 BAR2 SZ EP       1455 12.70                             170    0.1510 23.6 181 
 BAR2 SZ ES       1455 26.87                             170   -0.5210 23.6 181 
 BAR2 SZ I        1455 28.69        16.6 0.28            154           23.6 181 
 BRR  HZ EP       1455 14.48                             153    0.5610 67.6 300 
 BRR  HZ I        1455 27.04        13.5 0.48            154           67.6 300 
 BRR  HN ES   1   1455 30.63                             153    0.80 7 67.6 300 
 PTB  HZ EP       1455 19.40                             131   -0.34 9  144 258 
 PTB  HN ES   1   1455 39.71                             131   -0.49 7  144 258 
 PTB  HZ I        1455 42.85         4.8 0.18            122            144 258 
 NOR  HE ES   1   1455 56.41                             118    0.34 6  232 234 
 NOR  HZ I        1456  0.66         2.3 0.16            108            232 234 
 SML  HZ EP   1   1455 29.77                             116    0.14 6  242 336 
 SML  HE ES   1   1455 57.07                             116   -0.73 6  242 336 
 CHI  HZ EP   1   1455 30.85                             116   -0.04 6  248 194 
 CHI  HZ I        1455 54.47         3.1 0.66            106            248 194 
                                                                                
