 2017  813 1345 14.1 L   6.512 -73.501110.9  RSN  7 0.3 1.9LRSN                1
 GAP=130        0.72       3.0     2.6  5.5  0.1983E+01  0.3974E+01 -0.5262E+00E
 Epicentro: SIMACOTA - SANTANDER                                               3
 ACTION:UPD 17-09-04 20:19 OP:rebc STATUS:               ID:20170813134514 L   I
 OLDACT:UP  17-08-14 05:20 OP:edw  STATUS:               ID:20170813133741     3
 OLDACT:UP  17-08-14 05:19 OP:edw  STATUS:               ID:20170813133741     3
 OLDACT:UP  17-08-14 05:18 OP:edw  STATUS:               ID:20170813133741     3
 OLDACT:UP  17-08-14 05:17 OP:edw  STATUS:               ID:20170813133741     3
 OLDACT:REG 17-08-14 02:41 OP:osc  STATUS:               ID:20170813133741     3
 2017-08-13-1338-00M.COL___410                                                 6
 STAT SP IPHASW D HRMM SECON CODA AMPLIT PERI AZIMU VELO AIN AR TRES W  DIS CAZ7
 BAR2 EZ EP       1345 29.73                             161   -0.3110 36.4  76 
 BAR2 EZ ES       1345 42.51                             161    0.0810 36.4  76 
 BAR2 EZ I        1345 43.63        74.6 0.54            162           36.4  76 
 RUS  HZ EP       1345 32.73                             141   -0.4610 82.6 146 
 RUS  HN ES       1345 48.18                             141    0.1410 82.6 146 
 RUS  HZ I        1345 49.89         8.2 0.20            142           82.6 146 
 SPBC HN ES       1345 51.71                             131   -0.1310  114 214 
 YPLC HZ EP       1345 41.78                             118    0.31 9  175 135 
 YPLC HN ES       1346  3.09                             118    0.30 9  175 135 
 YPLC HZ I        1346  4.67        15.5 0.28            119            175 135 
 NOR  HZ EP   4   1345 41.18                             116   -1.26 0  184 235 
 NOR  HE ES       1346  4.48                             116   -0.04 9  184 235 
 NOR  HZ I        1346  7.20         5.6 0.38            117            184 235 
 ZAR  HZ EP       1345 42.22                             116   -0.26 9  185 306 
 ZAR  HN ES       1346  5.05                             116    0.47 9  185 306 
 ZAR  HZ I        1346  8.45        11.0 0.36            117            185 306 
 GUY2CHE ES   2   1346 19.22                             109    0.38 4  251 235 
                                                                                
