 2015  313 1214 28.2 L   6.795 -73.148149.5  RSN 22 0.4 2.6LRSN                1
 GAP= 71        0.91       2.5     2.6  4.4 -0.1637E+01  0.2926E+01  0.1734E+01E
 Epicentro: LOS SANTOS - SANTANDER                                             3
 ACTION:UPD 15-04-30 16:25 OP:nd   STATUS:               ID:20150313121428 L   I
 OLDACT:DUP 15-03-13 22:59 OP:spq  STATUS:               ID:20150313120749d    3
 2015-03-13-1207-48M.COL___287                                                 6
 STAT SP IPHASW D HRMM SECON CODA AMPLIT PERI AZIMU VELO AIN AR TRES W  DIS CAZ7
 BAR2 EZ EP       1214 48.11                             171   -0.1710 22.8 190 
 BAR2 EZ ES   1   1215  3.72                             171   -0.21 7 22.8 190 
 BAR2 EZ I        1215  4.94        96.5 0.44            168           22.8 190 
 BRR  HZ EP     C 1214 49.99                             153    0.2310 71.2 299 
 BRR  HN ES       1215  7.53                             153    0.9610 71.2 299 
 BRR  HZ I        1215 12.33        72.1 0.12            152           71.2 299 
 PAM  SZ EP       1214 51.00                             151    0.1510 77.9  39 
 PAM  SN ES       1215  8.46                             151   -0.0610 77.9  39 
 PAM  SZ I        1215 11.17        33.2 0.43            156           77.9  39 
 RUS  HZ EP       1214 52.20                             145   -0.1010  100 176 
 RUS  HN ES       1215 10.86                             145   -0.2210  100 176 
 RUS  HZ I        1215 12.45        41.0 0.32            145            100 176 
 PTB  HZ EP       1214 54.59                             133   -0.86 9  147 259 
 PTB  HN ES       1215 16.15                             133   -0.55 9  147 259 
 PTB  HZ I        1215 19.61        63.0 0.18            132            147 259 
 TAM  HZ EP     D 1214 56.24                             131    0.04 9  155 105 
 TAM  HN ES       1215 18.05                             131    0.03 9  155 105 
 TAM  HZ I        1215 21.38        18.6 0.34            135            155 105 
 OCA  HZ EP       1214 56.82                             130   -0.04 9  161 353 
 OCA  HN ES       1215 19.18                             130   -0.02 9  161 353 
 OCA  HZ I        1215 20.32        19.1 0.24            133            161 353 
 SPBC HZ EP       1214 56.95                             130    0.00 9  163 219 
 SPBC HE ES       1215 19.25                             130   -0.11 9  163 219 
 SPBC HZ I        1215 22.40        71.6 0.24            130            163 219 
 NOR  HZ EP       1215  3.82                             119   -0.29 8  234 235 
 NOR  HN ES       1215 31.70                             119   -0.40 8  234 235 
 NOR  HZ I        1215 39.24        39.5 0.42            120            234 235 
 SML  HZ EP       1215  4.59                             118   -0.50 8  244 335 
 SML  HN ES   1   1215 33.87                             118    0.02 6  244 335 
 SML  HZ I        1215 36.06        89.1 0.30            120            244 335 
 ROSC BZ EP   1   1215  6.79                             117    0.31 6  252 211 
 ROSC BE ES   4   1215 38.28                             117    1.96 0  252 211 
 ROSC BZ I        1215 41.66        49.2 0.45            118            252 211 
 HEL  HZ EP   4   1215  9.75                             115    1.17 0  272 256 
 HEL  HN ES       1215 40.53                             115    0.47 8  272 256 
 HEL  HZ I        1215 48.17        18.4 0.22            116            272 256 
 GUY2CHZ EP   1   1215 12.40                             113    0.46 5  301 235 
 GUY2CHN ES   4   1215 49.64                             113    3.60 0  301 235 
 GUY2CHZ I        1215 56.88        20.6 0.34                           301 235 
 PTGC HZ EP   4   1215 10.96                             112   -1.23 0  308 159 
 PTGC HE ES   4   1215 44.48                             112   -2.02 0  308 159 
 PTGC HZ I        1215 46.43        31.4 0.44            114            308 159 
 RREF HZ EP   4   1215 15.92                             112    1.46 0  321 229 
 RREF HN ES   4   1215 53.68                             112    3.15 0  321 229 
 RREF HZ I        1215 59.55        29.5 0.30            112            321 229 
 CBOC HZ EP   1   1215 15.76                             111    0.52 5  333 252 
 CBOC HN ES       1215 51.57                             111   -0.35 7  333 252 
 CBOC HZ I        1216  1.24         7.4 0.50            111            333 252 
 TOL  SZ EP       1215 17.51                             110    0.95 7  343 225 
 TOL  SN ES   1   1215 55.07                             110    0.80 5  343 225 
 TOL  SZ I        1216  1.59        18.9 0.34            111            343 225 
 MON  HZ EP   4   1215 15.25                             109   -2.12 0  354 308 
 MON  HN ES   4   1215 54.18                             109   -1.54 0  354 308 
 MON  HZ I        1215 56.50        11.8 0.30            110            354 308 
 ANIL HZ EP   4   1215 20.37                             109    2.27 0  357 225 
 ANIL HN ES       1215 57.23                             109    0.22 6  357 225 
 ANIL HZ I        1216  4.90         7.1 0.30            110            357 225 
 PRA  HZ EP       1215 21.69                             107   -0.11 6  391 210 
 PRA  HN ES       1216  4.33                             107    0.74 6  391 210 
 PRA  HZ I        1216  7.38        19.0 0.28            108            391 210 
 ORTC HZ EP       1215 22.41                             107    0.21 6  395 216 
 ORTC HN ES   4   1216  5.37                             107    1.07 0  395 216 
 ORTC HZ I        1216  9.44        10.4 0.22            108            395 216 
 PAL  HZ EP       1215 23.65                             106    0.21 6  405 239 
 PAL  HE ES   1   1216  5.75                             106   -0.77 4  405 239 
 PAL  HZ I        1216 13.33         7.7 0.22            107            405 239 
                                                                                
