 2017  913 1247 49.9 L   6.815 -73.133149.2  RSN 24 0.4 2.5LRSN                1
 GAP= 66        0.83       2.3     2.3  3.9 -0.2577E+00  0.2963E+01  0.1520E+01E
 Epicentro: LOS SANTOS - SANTANDER                                             3
 ACTION:UPD 17-10-05 19:12 OP:rebc STATUS:               ID:20170913124749 L   I
 OLDACT:UP  17-09-13 22:41 OP:dnl  STATUS:               ID:20170913123744     3
 OLDACT:REG 17-09-13 21:15 OP:dnl  STATUS:               ID:20170913123744     3
 2017-09-13-1238-00M.COL___448                                                 6
 STAT SP IPHASW D HRMM SECON CODA AMPLIT PERI AZIMU VELO AIN AR TRES W  DIS CAZ7
 BAR2 EZ IP     C 1248  9.70                             170   -0.2710 25.2 192 
 BAR2 EZ ES       1248 25.08                             170   -0.5610 25.2 192 
 BAR2 EZ I        1248 25.97       128.0 0.14            167           25.2 192 
 BRR  HZ IP     C 1248 11.64                             153    0.2110 71.7 297 
 BRR  HE ES       1248 28.80                             153    0.5610 71.7 297 
 BRR  HZ I        1248 30.12        73.8 0.14            150           71.7 297 
 PAM  EZ IP     C 1248 12.56                             152    0.2210 75.2  40 
 PAM  EN ES       1248 29.76                             152   -0.1010 75.2  40 
 PAM  EZ I        1248 31.80        63.1 0.54            150           75.2  40 
 RUS  HZ EP       1248 13.63                             144   -0.4610  102 177 
 RUS  HN ES       1248 32.56                             144   -0.4110  102 177 
 RUS  HZ I        1248 33.77        23.8 0.36            140            102 177 
 TAM  HZ IP     C 1248 17.97                             131    0.22 9  154 106 
 TAM  HZ I        1248 38.52        23.5 0.32            128            154 106 
 TAM  HE ES       1248 39.82                             131    0.33 9  154 106 
 SPBC HZ EP       1248 18.62                             129   -0.23 9  165 219 
 SPBC HE ES       1248 41.11                             129   -0.33 9  165 219 
 SPBC HZ I        1248 43.62        62.8 0.70            125            165 219 
 YPLC HZ IP     C 1248 20.01                             127    0.00 9  178 152 
 YPLC HE ES       1248 44.07                             127    0.57 9  178 152 
 YPLC HZ I        1248 47.71        14.4 0.34            123            178 152 
 ZAR  HZ EP       1248 22.59                             123   -0.03 9  205 292 
 ZAR  HN ES       1248 48.30                             123    0.14 9  205 292 
 ZAR  HZ I        1248 53.85        44.4 0.34            119            205 292 
 NOR  HZ EP       1248 26.05                             119    0.01 8  237 234 
 NOR  HE ES       1248 54.70                             119    0.46 8  237 234 
 NOR  HZ I        1249  0.00        33.1 0.18            115            237 234 
 CHI  HZ EP       1248 27.78                             118   -0.20 8  251 195 
 CHI  HN ES       1248 57.52                             118   -0.18 8  251 195 
 CHI  HZ I        1249  5.06        13.3 0.56            114            251 195 
 ROSC BZ EP   2   1248 29.06                             117    0.64 4  255 211 
 ROSC BN ES       1248 58.99                             117    0.51 8  255 211 
 ROSC BZ I        1249  7.48        35.2 0.40            113            255 211 
 HEL  HZ EP   4   1248 31.55                             115    1.09 0  274 256 
 HEL  HE ES   4   1249  4.95                             115    2.83 0  274 256 
 HEL  HZ I        1249 10.13        17.1 0.28            112            274 256 
 URE  HZ EP       1248 30.64                             114   -0.56 7  285 292 
 URE  HN ES   4   1249  1.12                             114   -2.30 0  285 292 
 URE  HZ I        1249 14.46        33.5 0.34            111            285 292 
 GUY2CHZ EP       1248 34.07                             113    0.19 7  303 235 
 GUY2CHN ES       1249  8.74                             113    0.53 7  303 235 
 GUY2CHZ I        1249 16.25        23.6 0.42                           303 235 
 VIL  EZ EP   2   1248 33.27                             112   -0.40 4  305 192 
 VIL  EN ES   4   1249  4.53                             112   -3.30 0  305 192 
 VIL  EZ I        1249 20.77        14.6 0.34            109            305 192 
 LL6C HZ EP   2   1248 34.57                             111   -0.98 3  323 357 
 LL6C HE ES   4   1249 10.05                             111   -1.13 0  323 357 
 ELA  HZ EP   4   1248 38.68                             111    1.56 0  331 229 
 ELA  HN ES   4   1249 12.05                             111   -1.92 0  331 229 
 ELA  HZ I        1249 19.93        12.8 0.44            107            331 229 
 CBOC HZ EP       1248 37.77                             110    0.62 7  335 252 
 CBOC HE ES   4   1249 12.53                             110   -1.49 0  335 252 
 CBOC HZ I        1249 26.44         7.0 0.60            107            335 252 
 DBB  EZ EP       1248 38.16                             110    0.51 7  341 274 
 DBB  EN ES   4   1249 12.25                             110   -2.65 0  341 274 
 DBB  EZ I        1249 20.82        10.4 0.24            107            341 274 
 ANIL HZ EP   4   1248 41.16                             109    1.09 0  359 224 
 ANIL HE ES       1249 19.28                             109    0.07 6  359 224 
 ANIL HZ I        1249 29.05        37.1 0.26            106            359 224 
 PRA  HZ EP   2   1248 43.25                             107   -0.52 3  394 210 
 PRA  HN ES       1249 25.59                             107   -0.21 6  394 210 
 PRA  HZ I        1249 32.19        12.9 0.28            104            394 210 
 ORTC HZ EP   2   1248 43.72                             107   -0.45 3  398 216 
 ORTC HN ES       1249 25.63                             107   -0.89 6  398 216 
 ORTC HZ I        1249 33.84        10.7 0.50            104            398 216 
 PAL  HZ EP   2   1248 45.31                             106   -0.08 3  408 239 
 PAL  HN ES       1249 28.43                             106   -0.27 6  408 239 
 PAL  HZ I        1249 32.65         5.4 0.26            103            408 239 
 SJC  HZ EP   2   1248 44.41                             106   -1.08 3  409 327 
 SJC  HN ES   4   1249 24.86                             106   -4.00 0  409 327 
 SJC  HZ I        1249 29.77         6.2 0.40            103            409 327 
                                                                                
