 2012  513 1208 47.3 L   6.780 -73.112152.4  RSN  7 0.4 1.7LRSN                1
 GAP=142        0.89       6.0     6.5  8.2  0.7782E+00  0.9166E+01 -0.3481E+01E
 Epicentro: LOS SANTOS - SANTANDER                                             3
 ACTION:UP  12-07-05 12:04 OP:pat  STATUS:               ID:20120513120847 L   I
 2012-05-13-1200-00M.COL___195                                                 6
 STAT SP IPHASW D HRMM SECON CODA AMPLIT PERI AZIMU VELO SNR AR TRES W  DIS CAZ7
 BAR2 SZ EP   1   12 9  7.83                             171     0.1 7   22 200 
 BAR2 SZ ES   1   12 9 23.70                             171     0.0 7   22 200 
 BAR2 SZ I        12 9 24.59        12.7 0.37                            22 200 
 BRR  HZ EP       12 9  9.73                             152     0.310   76 299 
 BRR  HZ I        12 9  9.92        18.0 0.18                            76 299 
 BRR  HE ES   1   12 9 27.29                             152     0.6 7   76 299 
 PAM  SZ EP   1   12 9 10.55                             152     0.3 7   77  36 
 PAM  SN ES   1   12 9 27.33                             152    -0.8 7   77  36 
 RUS  HZ EP   1   12 9 11.40                             146    -0.2 7   98 178 
 RUS  HN ES   1   12 9 30.55                             146     0.1 7   98 178 
 RUS  HZ I        12 9 31.61         4.0 0.42                            98 178 
 PTB  HZ EP   1   12 9 14.84                             133    -0.3 7  151 260 
 PTB  HE ES   2   12 9 35.94                             133    -0.9 5  151 260 
 PTB  HZ I        12 9 43.06         5.5 0.38                           151 260 
 OCA  HZ EP   2   12 9 16.59                             130     0.2 5  163 352 
 ZAR  HE ES   2   12 9 46.18                             123    -0.5 4  208 292 
                                                                                
