 2014 1213 1837 46.7 L   5.897 -73.677116.0  RSN  9 0.3 1.6LRSN                1
 GAP= 92        0.87       3.0     2.8  6.5  0.2013E+00  0.8625E+01  0.5850E+01E
 Epicentro: PUENTE NACIONAL - SANTANDER                                        3
 ACTION:UPD 15-02-10 17:03 OP:nd   STATUS:               ID:20141213183746 L   I
 OLDACT:REG 14-12-13 20:52 OP:fm   STATUS:               ID:20141213182749     3
 2014-12-13-1827-49M.COL___294                                                 6
 STAT SP IPHASW D HRMM SECON CODA AMPLIT PERI AZIMU VELO AIN AR TRES W  DIS CAZ7
 RUS  HZ EP       1838  4.87                             149   -0.2110 65.7  90 
 RUS  HN ES       1838 19.50                             149    0.0910 65.7  90 
 RUS  HZ I        1838 21.03         3.1 0.30            160           65.7  90 
 BAR2 EZ EP       1838  7.32                             138    0.5110 94.3  35 
 BAR2 EZ ES       1838 22.51                             138    0.0310 94.3  35 
 BAR2 EZ I        1838 24.39        26.8 0.50            149           94.3  35 
 PTB  HZ EP       1838  7.50                             133   -0.4910  112 310 
 PTB  HE ES       1838 24.22                             133   -0.3710  112 310 
 PTB  HZ I        1838 30.99         6.2 0.10            138            112 310 
 NOR  HZ EP       1838 10.84                             126    0.41 9  137 254 
 NOR  HE ES       1838 29.28                             126    0.35 9  137 254 
 NOR  HZ I        1838 35.22        14.6 0.18            130            137 254 
 CHI  HZ EP       1838 10.74                             126   -0.48 9  140 182 
 CHI  HN ES       1838 30.43                             126    0.10 9  140 182 
 CHI  HZ I        1838 35.94         3.4 0.22            132            140 182 
 HEL  HZ EP       1838 18.24                             115   -0.02 8  208 279 
 HEL  HN ES       1838 42.59                             115   -0.28 8  208 279 
 HEL  HZ I        1838 50.27         3.8 0.32            120            208 279 
 TOL  SZ EP       1838 20.69                             112   -0.37 8  233 232 
 CBOC HZ EP       1838 24.53                             109    0.73 8  259 269 
 CBOC HN ES       1838 53.01                             109    0.29 8  259 269 
 CBOC HZ I        1838 59.48         2.5 0.56            114            259 269 
 ORTC HZ EP       1838 26.14                             107   -0.01 7  280 218 
 ORTC HE ES       1838 56.79                             107   -0.12 7  280 218 
 ORTC HZ I        1839  3.09         3.1 0.16            112            280 218 
                                                                                
