 2011  213 1032 30.5 L   6.852 -72.645126.5  RSN  4 0.2 1.2LRSN                1
 GAP=213        0.43       3.9    14.4  9.6 -0.2550E+02 -0.1123E+03  0.1203E+02E
 Epicentro: CERRITO - SANTANDER                                                3
 ACTION:UP  11-03-28 15:08 OP:jfem STATUS:               ID:20110213103230 L   I
 2011-02-13-1029-11S.COL___136                                                 6
 STAT SP IPHASW D HRMM SECON CODA AMPLIT PERI AZIMU VELO SNR AR TRES W  DIS CAZ7
 BAR2 SZ EP   1   1032 49.63                             151     0.0 7   66 244 
 BAR2 SZ ES   1   1033  4.67                             151     0.1 7   66 244 
 BAR2 SZ I        1033  7.04         6.7 0.33                            66 244 
 BTL  SZ EP       1032 50.00                             149     0.210   69 276 
 BTL  SZ ES   1   1033  4.65                             149    -0.2 7   69 276 
 GRA  SZ EP   2   1032 52.89                             135    -0.3 5  116 351 
 GRA  SZ I        1032 56.51         1.9 0.34                           116 351 
 GRA  SZ ES   2   1033 11.06                             135     0.2 5  116 351 
 RUS  HZ EP   2   1032 53.68                             135    -0.1 5  117 205 
 RUS  HN ES   2   1033 11.80                             135    -0.1 5  117 205 
 RUS  HZ I        1033 12.37         2.4 0.45                           117 205 
                                                                                
