 2012  313 1453  4.5 L   6.764 -73.124146.3  RSN 20 0.5 3.0LRSN                1
 GAP=104        0.95       3.7     4.7  5.6 -0.1330E+01  0.5952E+01  0.3175E+01E
 ACTION:UP  12-03-31 23:19 OP:EP   STATUS:               ID:20120313145304 L   I
 2012-03-13-1450-00M.COL___196                                                 6
 STAT SP IPHASW D HRMM SECON CODA AMPLIT PERI AZIMU VELO SNR AR TRES W  DIS CAZ7
 BAR2 SZ IP     D 1453 24.20                             172     0.110   20 199 
 BAR2 SZ ES   1   1453 39.39                             172     0.0 7   20 199 
 BAR2 SZ I        1453 40.12       345.5 0.23                            20 199 
 BRR  HZ IP     C 1453 26.20                             151     0.310   75 300 
 BRR  HE ES   1   1453 43.15                             151     0.5 7   75 300 
 BRR  HZ I        1453 44.43       339.7 0.12                            75 300 
 PAM  SZ IP       1453 27.15                             150     0.310   79  36 
 PAM  SN ES   1   1453 43.87                             150    -0.4 7   79  36 
 RUS  HZ IP     C 1453 27.97                             145     0.010   97 177 
 RUS  HN ES   1   1453 46.04                             145    -0.3 7   97 177 
 RUS  HZ I        1453 48.27       199.1 0.27                            97 177 
 PTB  HZ EP   1   1453 30.75                             132    -0.9 7  149 261 
 PTB  HZ I        1453 53.05       121.1 0.21                           149 261 
 OCA  SZ EP   1   1453 33.44                             129     0.2 7  164 352 
 YOP  SZ EP   1   1453 34.68                             127     0.6 7  174 153 
 YOP  SZ I        1453 37.35        73.7 0.14                           174 153 
 ZAR  HZ EP   1   1453 37.08                             122    -0.3 6  208 293 
 ZAR  HE ES   1   1454  3.03                             122     0.0 6  208 293 
 ZAR  HZ I        1454 11.02       151.2 0.30                           208 293 
 NOR  SZ EP   1   1453 40.13                             119    -0.1 6  234 236 
 NOR  SN ES   1   1454  7.82                             119    -0.3 6  234 236 
 CHI  HZ EP   1   1453 42.05                             117     0.2 6  245 196 
 CHI  HN ES   1   1454 10.24                             117    -0.8 6  245 196 
 CHI  HZ I        1454 14.61        67.9 0.43                           245 196 
 CVER SZ EP   1   1453 45.47                             115     0.9 6  269 203 
 CVER SZ I        1454 24.83        59.8 0.33                           269 203 
 HEL  HZ EP   1   1453 44.60                             115    -0.3 6  273 257 
 HEL  HZ I        1454 23.14       106.8 0.37                           273 257 
 VIL  SZ EP   1   1453 47.76                             112     0.2 5  300 192 
 RREF HZ EP   1   1453 50.87                             111     0.3 5  321 230 
 DBB  SZ EP   1   1453 52.37                             109     0.1 5  342 275 
 TOL  SZ EP   1   1453 53.52                             109     0.9 5  342 225 
 DBB  SZ I        1454 31.09        19.7 0.24                           342 275 
 COD  HZ EP   1   1453 52.57                             109    -0.8 5  352 354 
 COD  HZ I        1454 37.25        44.1 0.75                           352 354 
 SDV  BZ EP   1   1453 53.87                             108    -0.8 5  361  49 
 SDV  BZ I        1454 40.20        13.0 0.57                           361  49 
 PRA  HZ EP   1   1453 57.54                             107    -0.2 4  390 210 
 YOT  HZ EP   1   1454  6.71                             103    -0.7 4  471 229 
 YOT  HZ I        1455  4.79        11.3 0.32                           471 229 
                                                                                
