 2012  713 1759 45.1 L   6.699 -73.218143.5  RSN  5 0.3 1.9LRSN                1
 GAP=212        0.72       6.7     6.3  6.8  0.2078E+02  0.5498E+01  0.1608E+01E
 Epicentro: VILLANUEVA - SANTANDER                                             3
 ACTION:UPD 12-08-14 11:44 OP:ep   STATUS:               ID:20120713175945 L   I
 2012-07-13-1800-00M.COL___197                                                 6
 STAT SP IPHASW D HRMM SECON CODA AMPLIT PERI AZIMU VELO AIN AR TRES W  DIS CAZ7
 BAR2 SZ EP       18 0  4.15                             175    -0.110   12 162 
 BAR2 SZ ES   1   18 0 18.85                             175    -0.4 7   12 162 
 BAR2 SZ I        18 0 20.29        16.3 0.38             47             12 162 
 BRR  HZ EP       18 0  5.87                             152    -0.110   71 310 
 BRR  HZ I        18 0  6.40        22.4 0.07             47             71 310 
 BRR  HE ES   1   18 0 22.84                             152     0.6 7   71 310 
 RUS  HZ EP       18 0  8.17                             146     0.210   90 171 
 RUS  HN ES   1   18 0 25.84                             146     0.1 7   90 171 
 RUS  HZ I        18 0 27.78        10.0 0.23             47             90 171 
 PTB  HZ EP       18 0 10.98                             133     0.0 9  138 263 
 PTB  HN ES   1   18 0 31.06                             133    -0.2 7  138 263 
 PTB  HZ I        18 0 35.15         5.4 0.14             47            138 263 
 ZAR  HZ EP   3   18 0 17.26                             122     0.1 2  201 296 
 ZAR  HZ I        18 0 48.07        10.0 0.23             37            201 296 
