 2017  813 1446 34.5 L   6.750 -73.116143.6  RSN  9 0.4 2.0LRSN                1
 GAP=210        0.96       4.5     5.0  5.9  0.6987E+01  0.5382E+01  0.3362E+01E
 Epicentro: LOS SANTOS - SANTANDER                                             3
 ACTION:UPD 17-09-04 20:19 OP:rebc STATUS:               ID:20170813144634 L   I
 OLDACT:UP  17-08-14 05:44 OP:edw  STATUS:               ID:20170813143742     3
 OLDACT:UP  17-08-14 05:44 OP:edw  STATUS:               ID:20170813143742     3
 OLDACT:REG 17-08-14 02:41 OP:osc  STATUS:               ID:20170813143742     3
 2017-08-13-1438-00M.COL___410                                                 6
 STAT SP IPHASW D HRMM SECON CODA AMPLIT PERI AZIMU VELO AIN AR TRES W  DIS CAZ7
 BAR2 EZ EP       1446 53.42                             172   -0.4110 18.9 203 
 BAR2 EZ ES       1447  9.25                             172    0.3710 18.9 203 
 BRR  HZ EP     C 1446 55.33                             150   -0.4610 76.8 301 
 BRR  HN ES       1447 12.48                             150    0.1210 76.8 301 
 BRR  HZ I        1447 20.42         9.4 0.30            151           76.8 301 
 RUS  HZ EP       1446 57.83                             145    0.1510 94.9 178 
 RUS  HN ES       1447 15.98                             145    0.2610 94.9 178 
 RUS  HZ I        1447 16.99         8.3 0.30            148           94.9 178 
 SPBC HZ EP       1447  2.37                             129   -0.31 9  161 221 
 SPBC HN ES       1447 23.84                             129   -0.78 9  161 221 
 SPBC HZ I        1447 26.75        12.6 0.22            131            161 221 
 YPLC HZ EP       1447  3.67                             127    0.12 9  170 151 
 YPLC HN ES   4   1447 27.74                             127    1.56 0  170 151 
 YPLC HZ I        1447 30.08        17.2 0.26            131            170 151 
 ZAR  HZ EP       1447  8.12                             121    0.73 8  209 293 
 ZAR  HN ES       1447 32.82                             121   -0.18 8  209 293 
 ZAR  HZ I        1447 37.70        11.3 0.30            123            209 293 
 NOR  HZ EP       1447 10.02                             118   -0.08 8  234 236 
 NOR  HN ES       1447 38.30                             118    0.47 8  234 236 
 NOR  HZ I        1447 43.72         9.6 0.20            120            234 236 
 GUY2CHZ EP   2   1447 18.72                             112    0.72 4  301 236 
 GUY2CHE ES   4   1447 54.47                             112    2.57 0  301 236 
 GUY2CHZ I        1447 59.98         3.9 0.32                           301 236 
 PRA  HE ES   2   1448  9.45                             106    0.43 3  389 210 
                                                                                
