 2010  913 1041 35.5 L   6.762 -73.047140.8  RSN  8 0.5 1.8LRSN                1
 GAP=170        1.03       7.0    12.2 10.6 -0.3694E+02  0.4555E+01 -0.2196E+00E
 Epicentro: LOS SANTOS - SANTANDER                                             3
 ACTION:UP  11-02-18 11:02 OP:tino STATUS:               ID:20100913104135 L   I
 2010-09-13-1038-43S.COL___120                                                 6
 STAT SP IPHASW D HRMM SECON CODA AMPLIT PERI AZIMU VELO SNR AR TRES W  DIS CAZ7
 BAR2 SZ EP   1   1041 54.29                             170    -0.2 8   24 219 
 BAR2 SZ ES   2   1042  9.32                             170    -0.1 5   24 219 
 BAR2 SZ I        1042 11.00        18.6 0.51                            24 219 
 GIR2 SZ EP   2   1041 54.34                             164    -0.4 5   39 335 
 GIR2 SZ ES   3   1042 10.57                             164     0.7 3   39 335 
 BRR  HZ EP   1   1041 56.10                             148    -0.7 8   83 297 
 BRR  HZ I        1041 56.48        18.0 0.14                            83 297 
 BRR  HE ES   2   1042 13.59                             148     0.1 5   83 297 
 RUS  HZ EP   1   1041 58.23                             144    -0.2 8   96 182 
 RUS  HE ES   2   1042 16.71                             144     0.4 5   96 182 
 RUS  HZ I        1042 18.20         4.6 0.38                            96 182 
 GUE  SZ EP   1   1041 59.30                             137    -0.6 8  119   7 
 GRA  SZ IP     D 1042  1.15                             135     0.810  127  12 
 RREF HZ EP   1   1042 22.78                             109     0.7 5  328 231 
 RREF HN ES   2   1042 59.38                             109     1.0 4  328 231 
 RREF HZ I        1043  6.80         2.2 0.39                           328 231 
 PRA  HZ EP   1   1042 29.07                             105     0.0 5  394 211 
 PRA  HN ES   2   1043 10.24                             105    -0.6 3  394 211 
 PRA  HZ I        1043 15.92         3.0 0.31                           394 211 
                                                                                
