 2010  513 1747 34.5 L   6.777 -73.046140.9  RSN  4 0.2 2.0LRSN                1
 GAP=246        0.41       4.7     8.2  5.5  0.1660E+02  0.7331E+01  0.7316E+01E
 Epicentro: CEPITA - SANTANDER                                                 3
 ACTION:UP  10-08-24 10:04 OP:vdl  STATUS:               ID:20100513174734 L   I
 2010-05-13-1743-54S.COL___105                                                 6
 STAT SP IPHASW D HRMM SECON CODA AMPLIT PERI AZIMU VELO AIN AR TRES W  DIS CAZ7
 BAR2 SZ EP   1   1747 53.58                             169    -0.1 7   26 217 
 BAR2 SZ ES   2   1748  8.60                             169     0.1 5   26 217 
 BRR  HZ EP   1   1747 56.10                             148     0.3 7   82 296 
 BRR  HN ES   2   1748 12.12                             148    -0.3 5   82 296 
 RUS  HZ EP   1   1747 57.55                             144    -0.1 7   98 182 
 RUS  HZ I        1748 15.63         8.7 0.70                            98 182 
 RUS  HN ES   2   1748 15.67                             144     0.1 5   98 182 
 PRA  HZ EP   1   1748 28.00                             106    -0.3 4  395 211 
 PRA  HN ES   2   1749 10.57                             106     0.4 3  395 211 
 PRA  HZ I        1749 16.28         4.9 0.32                           395 211 
                                                                                
