 2011 1113 1715 40.5 L   6.765 -73.143131.8  RSN 11 0.5 2.3LRSN                1
 GAP=138        0.88       3.2     4.4  6.2 -0.2320E+01  0.1200E+02  0.3926E+01E
 Epicentro: LOS SANTOS - SANTANDER                                             3
 ACTION:UPD 12-07-13 16:10 OP:ep   STATUS:               ID:20111113171540 L   I
 2011-11-13-1715-03S.COL___179                                                 6
 STAT SP IPHASW D HRMM SECON CODA AMPLIT PERI AZIMU VELO AIN AR TRES W  DIS CAZ7
 BAR2 SZ EP   1   1715 58.68                             171    0.31 7 19.6 193 
 BAR2 SZ ES   1   1716 11.80                             171   -0.51 7 19.6 193 
 BAR2 SZ I        1716 14.72        57.8 0.21                          19.6 193 
 BRR  HZ EP   1   1716  0.57                             149    0.29 7 73.3 301 
 BRR  HN ES   1   1716 16.44                             149    0.72 7 73.3 301 
 BRR  HZ I        1716 18.56        75.2 0.15                          73.3 301 
 PAM  SZ EP   1   1716  1.59                             147    0.16 7 80.2  38 
 PAM  SN ES       1716 18.08                             147    0.3210 80.2  38 
 RUS  HZ EP   1   1716  2.82                             142    0.22 7 96.7 176 
 RUS  HN ES   1   1716 19.35                             142   -0.50 7 96.7 176 
 RUS  HZ I        1716 23.08         9.2 0.38                          96.7 176 
 OCA  SZ EP   1   1716  7.39                             125   -0.75 7  164 353 
 OCA  SZ ES   1   1716 28.95                             125   -0.75 7  164 353 
 OCA  SZ I        1716 32.54        46.6 0.39                           164 353 
 ZAR  HZ EP   1   1716 11.47                             119   -0.78 6  206 293 
 ZAR  HN ES   1   1716 37.24                             119    0.21 6  206 293 
 ZAR  HZ I        1716 43.45        22.9 0.29                           206 293 
 NOR  SZ EP   1   1716 15.03                             116   -0.20 6  233 235 
 NOR  SN ES   1   1716 42.09                             116   -0.24 6  233 235 
 CHI  HZ EP   1   1716 17.18                             114    0.13 6  245 195 
 CHI  HN ES   1   1716 45.33                             114   -0.23 6  245 195 
 CHI  HZ I        1716 52.38         5.0 0.30                           245 195 
 HEL  HZ EP   1   1716 20.65                             112    0.69 6  271 257 
 HEL  HN ES   1   1716 50.28                             112   -0.46 6  271 257 
 HEL  HZ I        1716 55.84         8.7 0.33                           271 257 
 GUY  SZ EP   1   1716 24.40                             109    0.87 5  302 236 
 GUY  SN ES   1   1716 57.40                             109    0.29 5  302 236 
 GUY  SZ I        1717  2.79        15.9 0.39                           302 236 
 PRA  HZ EP   1   1716 33.69                             104    0.51 4  389 210 
 PRA  HN ES   1   1717 13.85                             104   -0.43 4  389 210 
 PRA  HZ I        1717 19.05        25.3 0.21                           389 210 
                                                                                
