 2012 1013 1347 42.1 L   6.749 -73.086142.2  RSN  5 0.2 1.9LRSN                1
 GAP=147        0.43       3.1     4.2  3.9 -0.7878E+00 -0.1860E+01  0.2948E+01E
 Epicentro: LOS SANTOS - SANTANDER                                             3
 ACTION:UPD 12-11-22 17:03 OP:ep   STATUS:               ID:20121013134742 L   I
 2012-10-13-1340-00M.COL___231                                                 6
 STAT SP IPHASW D HRMM SECON CODA AMPLIT PERI AZIMU VELO AIN AR TRES W  DIS CAZ7
 BAR2 SZ EP       1348  1.19                             171   -0.0310 20.3 211 
 BAR2 SZ ES   1   1348 16.48                             171    0.33 7 20.3 211 
 BAR2 SZ I        1348 17.95        18.1 0.32                          20.3 211 
 GIR2 SZ ES   1   1348 16.35                             164   -0.38 7 38.3 342 
 PAM  SZ EP       1348  4.02                             150    0.0610 78.0  33 
 PAM  SN ES   1   1348 21.06                             150    0.04 7 78.0  33 
 PAM  SN I        1348 21.65        13.1 0.36                          78.0  33 
 BRR  HZ EP       1348  3.31                             149   -0.0410 79.7 300 
 BRR  HN ES   1   1348 20.05                             149    0.10 7 79.7 300 
 BRR  HN I        1348 20.88        39.2 0.22                          79.7 300 
 RUS  HZ EP       1348  5.09                             145    0.0310 94.7 180 
 RUS  HZ I        1348  6.00         3.9 0.44                          94.7 180 
 RUS  HN ES   2   1348 22.73                             145   -0.25 5 94.7 180 
                                                                                
