 2016  313 1937 23.0 L   6.807 -73.149141.8  RSN 11 0.3 2.0LRSN                1
 GAP= 71        0.82       2.6     2.4  4.9 -0.1102E+01  0.3018E+01 -0.9644E+00E
 Epicentro: LOS SANTOS - SANTANDER                                             3
 ACTION:UPD 16-05-13 21:23 OP:cam  STATUS:               ID:20160313193723 L   I
 OLDACT:UP  16-03-14 19:27 OP:Ak   STATUS:               ID:20160313193723 L   3
 OLDACT:REG 16-03-13 20:40 OP:drio STATUS:               ID:20160313192751     3
 2016-03-13-1927-51M.COL___295                                                 6
 STAT SP IPHASW D HRMM SECON CODA AMPLIT PERI AZIMU VELO AIN AR TRES W  DIS CAZ7
 BAR2 EZ EP       1937 42.04                             170   -0.1110 24.0 189 
 BAR2 EZ ES       1937 57.12                             170    0.0210 24.0 189 
 BAR2 EZ I        1937 59.00        24.3 0.36            170           24.0 189 
 PAM  EZ EP       1937 45.05                             150    0.3010 77.0  40 
 PAM  EN ES       1938  1.99                             150    0.2510 77.0  40 
 PAM  EZ I        1938  2.98        13.3 0.18            152           77.0  40 
 RUS  HZ EP       1937 46.12                             143   -0.2810  101 176 
 RUS  HE ES       1938  4.54                             143   -0.1310  101 176 
 RUS  HZ I        1938  5.83         9.3 0.28            146            101 176 
 PTB  HZ EP       1937 49.20                             131   -0.41 9  148 259 
 PTB  HN ES       1938  9.84                             131   -0.53 9  148 259 
 PTB  HZ I        1938 12.16        17.3 0.20            131            148 259 
 TAM  HZ EP       1937 50.53                             130    0.13 9  156 105 
 TAM  HN ES       1938 11.98                             130    0.19 9  156 105 
 OCA  HZ EP       1937 50.51                             129   -0.40 9  159 353 
 OCA  HN ES       1938 12.28                             129   -0.41 9  159 353 
 OCA  HZ I        1938 17.69        33.8 0.18            129            159 353 
 SPBC HZ EP       1937 51.29                             128    0.08 9  164 219 
 SPBC HE ES       1938 13.35                             128    0.12 9  164 219 
 SPBC HZ I        1938 15.25        10.4 0.14            129            164 219 
 ZAR  HZ EP       1937 55.18                             122    0.08 9  203 292 
 ZAR  HN ES       1938 21.11                             122    0.95 9  203 292 
 ZAR  HZ I        1938 28.97        17.8 0.48            121            203 292 
 NOR  HZ EP       1937 58.79                             118    0.30 8  235 234 
 NOR  HE ES       1938 26.21                             118    0.01 8  235 234 
 NOR  HZ I        1938 33.07         6.6 0.20            118            235 234 
 HEL  HZ EP   4   1938  4.51                             114    1.54 0  272 256 
 HEL  HN ES       1938 34.26                             114    0.09 8  272 256 
 HEL  HZ I        1938 41.92         5.4 0.22            114            272 256 
 GUY2CHZ EP   9   1938  8.04                             112    1.62 0  301 235 
 GUY2CHN ES       1938 42.27                             111    0.34 7  301 235 
 GUY2CHZ I        1938 49.79         4.8 0.68                           301 235 
 MON  HZ EP   4   1938 10.14                             108   -1.60 0  353 308 
 MON  HN ES   4   1938 46.84                             108   -2.93 0  353 308 
                                                                                
