 2017  313 1942 14.1 L   6.800 -73.194140.9  RSN  6 0.1 1.5LRSN                1
 GAP=131        0.31       1.6     1.5  2.7 -0.6147E-01  0.1319E+01 -0.5728E+00E
 Epicentro: ZAPATOCA - SANTANDER                                               3
 ACTION:UPD 17-05-25 18:40 OP:jn   STATUS:               ID:20170313194214 L   I
 OLDACT:UP  17-03-14 00:08 OP:edw  STATUS:               ID:20170313193747     3
 OLDACT:UP  17-03-14 00:07 OP:edw  STATUS:               ID:20170313193747     3
 OLDACT:REG 17-03-13 21:24 OP:dnl  STATUS:               ID:20170313193747     3
 2017-03-13-1938-00M.COL___403                                                 6
 STAT SP IPHASW D HRMM SECON CODA AMPLIT PERI AZIMU VELO AIN AR TRES W  DIS CAZ7
 BAR2 EZ ES       1942 48.03                             170    0.0710 23.0 177 
 BRR  HZ EP       1942 34.51                             153    0.0710 66.6 301 
 PAM  EZ EP       1942 36.09                             149    0.1010 80.9  42 
 PAM  EE ES       1942 52.98                             149   -0.1110 80.9  42 
 PAM  EZ I        1942 55.25         8.2 0.56            149           80.9  42 
 RUS  HZ EP       1942 37.26                             143   -0.1310  101 173 
 RUS  HN ES       1942 55.60                             143    0.0310  101 173 
 RUS  HZ I        1942 56.98         4.0 0.32            144            101 173 
 PTB  HZ EP       1942 40.20                             132    0.03 9  143 258 
 PTB  HN ES       1943  0.47                             132   -0.06 9  143 258 
 ZAR  HN ES       1943 10.35                             122   -0.01 9  199 293 
 NOR  HN ES   4   1943 17.46                             118    1.11 0  230 234 
                                                                                
