 2012  913 1705 14.3 L   6.660 -73.153154.7  RSN  5 0.3 1.7LRSN                1
 GAP=209        0.55       9.2     4.9  7.4  0.1474E+02 -0.1194E+01 -0.1526E+02E
 Epicentro: VILLANUEVA - SANTANDER                                             3
 ACTION:UPD 12-10-22 14:18 OP:ep   STATUS:               ID:20120913170514 L   I
 2012-09-13-1700-00M.COL___227                                                 6
 STAT SP IPHASW D HRMM SECON CODA AMPLIT PERI AZIMU VELO AIN AR TRES W  DIS CAZ7
 BAR2 SZ EP   1   17 5 35.27                             177    0.45 7 8.10 203 
 BAR2 SZ I        17 5 35.53         8.4 0.23                          8.10 203 
 BAR2 SZ ES   1   17 5 50.60                             177   -0.22 7 8.10 203 
 GIR2 SZ EP   1   17 5 35.44                             162   -0.08 7 46.6 355 
 BRR  HZ EP   1   17 5 36.51                             151   -0.37 7 79.1 309 
 BRR  HZ I        17 5 37.43        10.3 0.34                          79.1 309 
 BRR  HN ES   1   17 5 54.70                             151    0.23 7 79.1 309 
 PTB  HN ES   1   17 6  3.12                             135   -0.04 7  145 265 
 ZAR  HN ES   1   17 6 14.16                             123    0.03 6  210 296 
 ZAR  HZ I        17 6 19.38         4.9 0.36                           210 296 
                                                                                
