 2011 1013 1004 13.0 L   6.742 -73.098143.0  RSN  8 0.4 1.7LRSN                1
 GAP=145        0.81       3.5     4.7  6.1 -0.2047E+01  0.9116E+01  0.4682E+00E
 Epicentro: JORDAN - SANTANDER                                                 3
 ACTION:UPD 12-07-13 16:03 OP:ep   STATUS:               ID:20111013100413 L   I
 2011-10-13-1002-41S.COL___168                                                 6
 STAT SP IPHASW D HRMM SECON CODA AMPLIT PERI AZIMU VELO AIN AR TRES W  DIS CAZ7
 BAR2 SZ EP   1   10 4 32.46                             172    0.21 7 19.0 209 
 BAR2 SZ ES   1   10 4 47.27                             172    0.03 7 19.0 209 
 BAR2 SZ I        10 4 48.20        15.9 0.30                          19.0 209 
 BRR  HZ EP       10 4 34.21                             149   -0.1310 78.9 301 
 BRR  HZ I        10 4 34.38        11.0 0.18                          78.9 301 
 BRR  HN ES       10 4 51.04                             149    0.0710 78.9 301 
 PAM  SZ EP   1   10 4 35.21                             150    0.13 7 79.4  34 
 PAM  SE ES       10 4 51.77                             150   -0.5010 79.4  34 
 RUS  HZ EP   1   10 4 36.19                             145    0.15 7 93.9 179 
 RUS  HN ES   1   10 4 54.15                             145    0.17 7 93.9 179 
 RUS  HZ I        10 4 56.01         4.0 0.21                          93.9 179 
 OCA  SZ EP   1   10 4 41.45                             128   -0.36 7  167 352 
 OCA  SZ ES       10 5  5.01                             128    0.76 9  167 352 
 OCA  SZ I        10 5  6.03         7.5 0.19                           167 352 
 ZAR  HZ EP   1   10 4 45.27                             121   -0.79 6  211 293 
 ZAR  HN ES   1   10 5 11.46                             121   -0.36 6  211 293 
 ZAR  HZ I        10 5 16.40         5.1 0.27                           211 293 
 NOR  SZ EP   1   10 4 48.85                             118    0.17 6  235 236 
 NOR  SE ES   1   10 5 16.46                             118   -0.02 6  235 236 
 HEL  HZ EP   2   10 4 54.34                             114    0.83 4  276 257 
 HEL  HZ I        10 5  9.19         2.0 0.42                           276 257 
                                                                                
