 2016  313 1917 58.5 L   6.471 -73.728 40.1  RSN 14 0.4 2.0LRSN                1
 GAP= 61        1.06       2.8     2.2  6.1 -0.8213E+00  0.2126E+01 -0.1519E+01E
 Epicentro: SANTA HELENA DEL OPON - SANTANDER                                  3
 ACTION:UPD 16-05-13 21:23 OP:cam  STATUS:               ID:20160313191758 L   I
 OLDACT:UP  16-03-14 19:27 OP:Ak   STATUS:               ID:20160313191758 L   3
 OLDACT:UP  16-03-14 00:23 OP:drio STATUS:               ID:20160313190747     3
 OLDACT:UP  16-03-14 00:22 OP:drio STATUS:               ID:20160313190747     3
 OLDACT:UP  16-03-14 00:22 OP:drio STATUS:               ID:20160313190747     3
 OLDACT:REG 16-03-13 20:40 OP:drio STATUS:               ID:20160313190747     3
 2016-03-13-1907-47M.COL___292                                                 6
 STAT SP IPHASW D HRMM SECON CODA AMPLIT PERI AZIMU VELO AIN AR TRES W  DIS CAZ7
 BAR2 EZ EP     C 1918 14.49                             144    0.5510 61.8  77 
 BAR2 EZ ES       1918 26.53                             144    0.5810 61.8  77 
 BAR2 EZ I        1918 27.83        87.8 0.22            146           61.8  77 
 PTB  HZ EP       1918 14.74                             136   -0.4410 80.9 275 
 PTB  HE ES       1918 27.80                             136   -0.3610 80.9 275 
 PTB  HZ I        1918 28.94        71.5 0.54            134           80.9 275 
 RUS  HZ EP       1918 16.81                             131   -0.3710 95.8 132 
 RUS  HE ES       1918 31.44                             131   -0.2710 95.8 132 
 RUS  HZ I        1918 32.43        20.2 0.34            132           95.8 132 
 SPBC HZ EP       1918 16.54                             130   -0.3310 98.3 203 
 SPBC HE ES       1918 31.49                             130    0.3110 98.3 203 
 SPBC HZ I        1918 35.47        50.6 0.42            129           98.3 203 
 PAM  EZ EP       1918 22.90                             118    0.25 9  149  50 
 PAM  EN ES       1918 41.67                             118    0.20 9  149  50 
 PAM  EZ I        1918 43.25        20.0 0.22            119            149  50 
 NOR  HZ EP       1918 22.72                             115   -0.79 9  161 232 
 NOR  HN ES   4   1918 41.43                             115   -1.56 0  161 232 
 NOR  HZ I        1918 45.99        26.7 0.24            115            161 232 
 ZAR  HZ EP       1918 24.95                             114    0.70 9  168 312 
 ZAR  HE ES       1918 44.02                             114   -0.28 9  168 312 
 ZAR  HZ I        1918 44.56        21.4 0.32            114            168 312 
 OCA  HZ EP       1918 27.73                             110   -0.43 9  201  13 
 OCA  HE ES   4   1918 52.45                             110    1.19 0  201  13 
 OCA  HZ I        1918 53.95        20.1 0.38            110            201  13 
 HEL  HZ EP       1918 28.84                             110    0.29 9  202 261 
 HEL  HE ES       1918 52.28                             110    0.32 9  202 261 
 HEL  HZ I        1918 55.06        10.9 0.22            110            202 261 
 CHI  HZ EP   4   1918 26.83                             110   -2.01 0  204 180 
 CHI  HN ES       1918 52.84                             110    0.37 9  204 180 
 TAM  HZ EP       1918 29.24                             109   -0.38 8  214  91 
 TAM  HN ES       1918 53.40                             109   -0.46 8  214  91 
 TAM  HZ I        1918 55.51        17.8 0.56            109            214  91 
 GUY2CHZ EP       1918 32.20                             108    0.43 8  228 233 
 GUY2CHN ES   4   1918 59.54                             108    1.85 0  228 233 
 GUY2CHZ I        1919  2.02         8.0 0.34                           228 233 
 URE  HZ EP   9   1918 31.56                             106   -1.64 0  245 305 
 URE  HN ES       1918 58.53                             106   -0.07 8  245 305 
 URE  HZ I        1919  7.08         9.2 0.34            106            245 305 
 ELA  HZ EP   4   1918 36.78                             106    1.45 0  257 226 
 ELA  HN ES       1919  4.28                             106    0.26 8  257 226 
 ELA  HZ I        1919 13.81         6.7 0.56            105            257 226 
                                                                                
