 2014  313 1053 30.3 L   6.809 -73.167143.4  RSN 11 0.5 2.2LRSN                1
 GAP=133        1.27       3.3     5.0  7.3 -0.2317E+01  0.1326E+02 -0.2480E+01E
 Epicentro: LOS SANTOS - SANTANDER                                             3
 ACTION:UPD 14-04-09 23:16 OP:nd   STATUS:               ID:20140313105330 L   I
 OLDACT:REG 14-03-13 15:23 OP:cam  STATUS:               ID:20140313105045     3
 2014-03-13-1050-45M.COL___232                                                 6
 STAT SP IPHASW D HRMM SECON CODA AMPLIT PERI AZIMU VELO AIN AR TRES W  DIS CAZ7
 BAR2 SZ EP       1053 50.12                             170    0.4110 24.0 184 
 BAR2 SZ ES       1054  4.13                             170   -0.6910 24.0 184 
 BAR2 SZ I        1054  6.32        85.1 0.18            169           24.0 184 
 PAM  SZ EP     C 1053 52.94                             150    0.5810 78.1  41 
 PAM  SN ES       1054  9.55                             150    0.0210 78.1  41 
 PAM  SZ I        1054 12.31        14.5 0.60            154           78.1  41 
 RUS  HZ EP       1053 53.99                             143    0.0310  102 175 
 RUS  HN ES       1054 12.09                             143   -0.2810  102 175 
 RUS  HZ I        1054 13.80        14.8 0.36            147            102 175 
 PTB  HZ EP       1053 56.98                             132    0.04 9  146 258 
 PTB  HN ES       1054 17.43                             132   -0.24 9  146 258 
 PTB  HZ I        1054 23.36        14.4 0.12            131            146 258 
 OCA  HZ EP       1053 57.07                             129   -1.29 9  159 354 
 OCA  HN ES       1054 20.96                             129    0.75 9  159 354 
 OCA  HZ I        1054 23.69        18.0 0.20            130            159 354 
 SPBC HZ EP       1053 58.94                             129    0.34 9  163 218 
 SPBC HN ES       1054 21.16                             129    0.52 9  163 218 
 SPBC HZ I        1054 22.31        23.0 0.18            130            163 218 
 ZAR  HZ EP       1054  2.36                             122   -0.02 9  202 292 
 ZAR  HN ES       1054 28.24                             122    0.88 9  202 292 
 ZAR  HZ I        1054 34.34        15.6 0.26            122            202 292 
 NOR  HZ EP       1054  6.24                             118    0.44 8  233 234 
 NOR  HN ES       1054 32.95                             118   -0.51 8  233 234 
 NOR  HZ I        1054 42.06        11.3 0.40            119            233 234 
 SML  HZ EP       1054  6.36                             117   -0.28 8  242 336 
 SML  HN ES       1054 34.78                             117   -0.17 8  242 336 
 SML  HZ I        1054 44.61        23.9 0.24            118            242 336 
 CHI  HZ EP       1054  8.19                             116    0.23 8  249 195 
 CHI  HN ES       1054 37.22                             116   -0.07 8  249 195 
 CHI  HZ I        1054 41.20         5.3 0.30            119            249 195 
 URE  HZ EP       1054 10.09                             113   -0.93 7  281 292 
 URE  HN ES   2   1054 42.42                             113   -0.33 4  281 292 
 URE  HZ I        1054 52.85        10.2 0.26            114            281 292 
                                                                                
