 2017  613 1045 28.1 L   6.753 -73.195145.8  RSN  8 0.5 2.0LRSN                1
 GAP=204        1.16       5.7     5.2  9.5  0.1082E+02 -0.1421E+00  0.1058E+02E
 Epicentro: VILLANUEVA - SANTANDER                                             3
 ACTION:UPD 17-09-14 16:51 OP:jn   STATUS:               ID:20170613104528 L   I
 OLDACT:UP  17-07-05 17:00 OP:nlst STATUS:               ID:20170613104528 L   3
 OLDACT:UP  17-06-13 22:20 OP:ar   STATUS:               ID:20170613103734     3
 OLDACT:UP  17-06-13 22:15 OP:ar   STATUS:               ID:20170613103734     3
 OLDACT:UP  17-06-13 22:10 OP:ar   STATUS:               ID:20170613103734     3
 OLDACT:REG 17-06-13 20:55 OP:ar   STATUS:               ID:20170613103734     3
 2017-06-13-1038-00M.COL___356                                                 6
 STAT SP IPHASW D HRMM SECON CODA AMPLIT PERI AZIMU VELO AIN AR TRES W  DIS CAZ7
 BRR  HZ EP       1045 48.53                             153   -0.6610 69.3 304 
 BRR  HN ES       1046  5.98                             153    0.3710 69.3 304 
 BRR  HZ I        1046  9.00        12.2 0.42            150           69.3 304 
 PTB  HZ EP       1045 54.67                             133    0.12 9  141 260 
 PTB  HN ES       1046 14.98                             133   -0.17 9  141 260 
 PTB  HZ I        1046 16.25         9.0 0.18            132            141 260 
 SPBC HZ EP       1045 56.88                             130    0.94 9  156 219 
 SPBC HE ES       1046 18.03                             130    0.40 9  156 219 
 SPBC HZ I        1046 20.48        14.6 0.26            131            156 219 
 YPLC HZ EP       1045 58.08                             127    0.32 9  175 149 
 YPLC HN ES       1046 20.26                             127   -0.60 9  175 149 
 ZAR  HZ EP   1   1046  1.02                             123    0.73 6  201 294 
 ZAR  HN ES       1046 24.93                             123   -0.43 9  201 294 
 ZAR  HZ I        1046 31.51        14.0 0.36            122            201 294 
 NOR  HZ EP   1   1046  2.78                             119   -0.30 6  227 235 
 NOR  HN ES       1046 29.82                             119   -0.51 8  227 235 
 NOR  HZ I        1046 34.82         5.2 0.22            119            227 235 
 URE  HZ EP   4   1046 17.07                             114    8.19 0  281 293 
 URE  HN ES   4   1046 37.97                             114   -2.68 0  281 293 
 URE  HZ I        1046 47.88         4.9 0.22            114            281 293 
 CBOC HZ EP   1   1046 13.56                             110   -0.72 5  327 253 
 CBOC HN ES       1046 50.42                             110    0.14 7  327 253 
                                                                                
