 2017  113 1250 59.0 L   6.817 -73.136143.0  RSN  7 0.4 1.5LRSN                1
 GAP=137        0.91       4.0     4.0  6.2  0.9601E+00  0.4317E+01  0.7545E+01E
 Epicentro: LOS SANTOS - SANTANDER                                             3
 ACTION:UPD 17-05-22 15:59 OP:jn   STATUS:               ID:20170113125059 L   I
 OLDACT:REG 17-01-13 20:11 OP:dani STATUS:               ID:20170113124742     3
 2017-01-13-1248-00M.COL___331                                                 6
 STAT SP IPHASW D HRMM SECON CODA AMPLIT PERI AZIMU VELO AIN AR TRES W  DIS CAZ7
 BAR2 EZ EP       1251 18.29                             169   -0.0710 25.4 192 
 BAR2 EZ ES       1251 32.98                             169   -0.4610 25.4 192 
 BAR2 EZ I        1251 36.03        13.2 0.34            169           25.4 192 
 BRR  HZ EP       1251 20.09                             152    0.2210 71.3 297 
 BRR  HN ES       1251 36.78                             152    0.6410 71.3 297 
 BRR  HZ I        1251 38.20        11.3 0.39            154           71.3 297 
 PAM  EZ EP       1251 21.18                             151    0.3710 75.3  40 
 PAM  EN ES       1251 37.53                             151   -0.2810 75.3  40 
 PAM  EZ I        1251 41.12         4.6 0.58            154           75.3  40 
 RUS  HZ EP       1251 22.69                             143    0.0610  102 177 
 RUS  HN ES   1   1251 41.20                             143    0.16 7  102 177 
 RUS  HZ I        1251 42.35         3.5 0.21            144            102 177 
 PTB  HZ EP       1251 25.29                             131   -0.60 9  149 258 
 PTB  HN ES       1251 46.66                             131   -0.19 9  149 258 
 PTB  HZ I        1251 48.58         4.2 0.12            133            149 258 
 ZAR  HE ES       1251 56.44                             122   -0.07 9  204 292 
 CHI  HZ EP       1251 36.55                             116   -0.24 8  251 195 
 CHI  HN ES       1252  6.77                             116    0.52 8  251 195 
 CHI  HZ I        1252 11.23         1.7 0.22            118            251 195 
                                                                                
