 2016  513 1144 34.4 L   6.810 -73.143141.7  RSN  9 0.5 1.9LRSN                1
 GAP=136        1.11       3.8     4.8  7.1 -0.6913E+00  0.6309E+01  0.2973E+01E
 Epicentro: LOS SANTOS - SANTANDER                                             3
 ACTION:UPD 16-08-18 17:45 OP:cam  STATUS:               ID:20160513114434 L   I
 OLDACT:REG 16-05-13 20:21 OP:ak   STATUS:               ID:20160513113748     3
 2016-05-13-1137-48M.COL___300                                                 6
 STAT SP IPHASW D HRMM SECON CODA AMPLIT PERI AZIMU VELO AIN AR TRES W  DIS CAZ7
 BAR2 EZ EP       1144 53.50                             170   -0.0410 24.5 190 
 BAR2 EZ ES       1145  8.19                             170   -0.3010 24.5 190 
 BAR2 EZ I        1145  9.62        23.2 0.30            169           24.5 190 
 BRR  HZ EP       1144 55.46                             152    0.3910 70.9 298 
 BRR  HN ES       1145 12.15                             152    0.9410 70.9 298 
 BRR  HZ I        1145 14.47        21.9 0.36            151           70.9 298 
 PAM  EZ EP       1144 56.17                             150    0.0710 76.3  40 
 PAM  EE ES   2   1145 13.31                             150    0.27 5 76.3  40 
 PAM  EZ I        1145 15.46        17.0 0.26            153           76.3  40 
 RUS  HZ EP       1144 57.93                             143    0.1210  102 176 
 RUS  HN ES       1145 15.97                             143   -0.1210  102 176 
 RUS  HZ I        1145 17.75         5.5 0.30            144            102 176 
 PTB  HZ EP       1145  0.85                             131   -0.21 9  148 258 
 PTB  HN ES       1145 20.95                             131   -0.92 9  148 258 
 PTB  HZ I        1145 24.09         8.9 0.14            131            148 258 
 OCA  HZ EP   2   1145  1.53                             129   -0.74 5  159 353 
 OCA  HN ES       1145 23.49                             129   -0.54 9  159 353 
 OCA  HZ I        1145 25.93        19.4 0.38            130            159 353 
 ZAR  HZ EP   2   1145  5.66                             121   -0.88 4  204 292 
 ZAR  HE ES       1145 32.14                             121    0.51 9  204 292 
 ZAR  HZ I        1145 34.22         5.9 0.17            122            204 292 
 NOR  HZ EP   2   1145  9.69                             117   -0.28 4  236 234 
 NOR  HN ES       1145 37.58                             117   -0.15 8  236 234 
 NOR  HZ I        1145 42.93         4.4 0.14            118            236 234 
 PRA  HZ EP       1145 28.74                             106    0.85 6  393 210 
 PRA  HN ES       1146  9.98                             106    0.35 6  393 210 
 PRA  HZ I        1146 15.49         2.8 0.09            107            393 210 
                                                                                
