 2010  813 1202 58.9 L   6.762 -73.047142.5  RSN  5 0.2 1.6LRSN                1
 GAP=237        0.50       6.6    10.3  5.8  0.4285E+02 -0.1326E+02  0.2374E+00E
 Epicentro: LOS SANTOS - SANTANDER                                             3
 ACTION:UP  10-09-07 10:54 OP:vdl  STATUS:               ID:20100813120259 L   I
 2010-08-13-1200-10S.COL___126                                                 6
 STAT SP IPHASW D HRMM SECON CODA AMPLIT PERI AZIMU VELO SNR AR TRES W  DIS CAZ7
 BAR2 SZ EP       12 3 18.19                             170     0.010   24 219 
 BAR2 SZ ES   1   12 3 32.97                             170    -0.2 7   24 219 
 BAR2 SZ I        12 3 35.94        14.5 0.18                            24 219 
 BTL  SZ EP       12 3 18.36                             168     0.010   30 305 
 BRR  HZ EP       12 3 20.24                             148    -0.210   83 298 
 BRR  HN ES   1   12 3 37.47                             148     0.3 7   83 298 
 BRR  HZ I        12 3 39.38        10.2 0.24                            83 298 
 RUS  HZ EP   1   12 3 22.36                             144     0.3 7   96 182 
 RUS  HE ES   3   12 3 40.02                             144    -0.1 2   96 182 
 RUS  HZ I        12 3 43.45         2.9 0.25                            96 182 
 CHI  HZ EP   2   12 3 36.17                             116    -0.2 4  248 198 
 CHI  HE ES   3   12 4  5.08                             116    -0.4 2  248 198 
 CHI  HZ I        12 4 15.11         2.6 0.69                           248 198 
                                                                                
