 2010 1213 1016  4.2 L   6.806 -73.083144.6  RSN  4 0.3 1.2LRSN                1
 GAP=165        0.71       6.6    27.8 12.3 -0.9264E+02 -0.1334E+03  0.1302E+02E
 Epicentro: LOS SANTOS - SANTANDER                                             3
 ACTION:UP  11-01-14 15:24 OP:pat  STATUS:               ID:20101213101604 L   I
 2010-12-13-1014-08S.COL___136                                                 6
 STAT SP IPHASW D HRMM SECON CODA AMPLIT PERI AZIMU VELO SNR AR TRES W  DIS CAZ7
 BTL  SZ EP   1   1016 23.52                             170    -0.2 7   24 301 
 BTL  SZ ES   2   1016 38.67                             170    -0.2 5   24 301 
 BAR2 SZ EP   1   1016 24.43                             169     0.7 7   26 205 
 BAR2 SZ I        1016 39.87         5.3 0.26                            26 205 
 RUS  HZ EP   1   1016 27.52                             143    -0.3 7  101 180 
 RUS  HN ES   2   1016 46.38                             143     0.1 5  101 180 
 RUS  HZ I        1016 48.62         1.5 0.53                           101 180 
 GRA  SZ EP   1   1016 29.06                             137    -0.1 7  123  14 
 GRA  SZ ES   2   1016 48.57                             137     0.0 5  123  14 
                                                                                
