 2016 1013 1018 36.9 L   7.247 -73.120143.4  RSN  9 0.3 1.7LRSN                1
 GAP=101        0.65       2.8     3.3  4.5 -0.7897E+00  0.5366E+01 -0.4483E+00E
 Epicentro: RIONEGRO - SANTANDER                                               3
 ACTION:UPD 16-11-09 19:19 OP:rebc STATUS:               ID:20161013101836 L   I
 OLDACT:UP  16-10-13 21:27 OP:and  STATUS:               ID:20161013100743     3
 OLDACT:UP  16-10-13 21:23 OP:and  STATUS:               ID:20161013100743     3
 OLDACT:UP  16-10-13 21:14 OP:and  STATUS:               ID:20161013100743     3
 OLDACT:UP  16-10-13 21:13 OP:and  STATUS:               ID:20161013100743     3
 OLDACT:REG 16-10-13 19:50 OP:and  STATUS:               ID:20161013100743     3
 2016-10-13-1008-00M.COL___366                                                 6
 STAT SP IPHASW D HRMM SECON CODA AMPLIT PERI AZIMU VELO AIN AR TRES W  DIS CAZ7
 PAM  EE ES       1019 13.41                             161    0.1010 47.5  78 
 PAM  EZ I        1019 14.55         8.8 0.20            164           47.5  78 
 BRR  HZ IP     D 1018 57.54                             153   -0.0210 67.2 257 
 BRR  HN ES       1019 13.71                             153    0.0210 67.2 257 
 BAR2 EZ EP       1018 58.24                             152    0.0210 72.8 185 
 BAR2 EZ ES       1019 14.94                             152    0.0810 72.8 185 
 BAR2 EZ I        1019 16.00        17.1 0.38            155           72.8 185 
 OCA  HZ EP       1019  0.66                             140   -0.1310  112 349 
 OCA  HN ES       1019 19.31                             140   -0.1210  112 349 
 OCA  HZ I        1019 25.72        10.9 0.16            140            112 349 
 RUS  HZ EP   2   1019  4.33                             131   -0.17 5  150 178 
 RUS  HE ES   2   1019 26.06                             131    0.02 5  150 178 
 RUS  HZ I        1019 27.85         3.1 0.36            135            150 178 
 PTB  HZ EP       1019  4.93                             128   -0.56 9  167 242 
 PTB  HN ES       1019 27.64                             128   -0.16 9  167 242 
 PTB  HZ I        1019 30.40         5.7 0.16            129            167 242 
 ZAR  HZ EP       1019  8.80                             123    0.67 9  194 278 
 ZAR  HE ES       1019 32.57                             123    0.08 9  194 278 
 ZAR  HZ I        1019 37.67         6.0 0.27            124            194 278 
 NOR  HZ EP   2   1019 16.96                             114    0.77 4  269 226 
 NOR  HE ES   4   1019 48.46                             114    1.62 0  269 226 
 URE  HN ES   4   1019 44.53                             114   -2.92 0  272 282 
 GUY2CHZ EP   4   1019 27.31                             109    3.14 0  334 228 
 GUY2CHN ES   4   1020  6.00                             109    4.95 0  334 228 
 GUY2CHZ I        1020 11.87         2.5 0.64                           334 228 
                                                                                
