 2010  713 1430 30.8 L   6.815 -73.071144.0  RSN 12 0.5 2.6LRSN                1
 GAP=131        1.17       3.8     5.7  6.5 -0.1000E+02  0.3507E+00  0.3176E+01E
 Epicentro: LOS SANTOS - SANTANDER                                             3
 ACTION:UPD 10-12-01 15:17 OP:pat  STATUS:               ID:20100713143030 L   I
 2010-07-13-1427-49S.COL___120                                                 6
 STAT SP IPHASW D HRMM SECON CODA AMPLIT PERI AZIMU VELO AIN AR TRES W  DIS CAZ7
 BAR2 SZ EP       1430 50.20                             169    -0.110   28 207 
 BAR2 SZ ES   1   1431  4.98                             169    -0.6 7   28 207 
 BAR2 SZ I        1431  8.55        71.9 0.65                            28 207 
 BRR  HZ IP       1430 51.97                             150    -0.210   78 295 
 BRR  HZ I        1430 52.35       118.3 0.08                            78 295 
 BRR  HN ES       1431  8.92                             150     0.110   78 295 
 RUS  HZ EP       1430 54.29                             143    -0.210  102 181 
 RUS  HN ES       1431 13.01                             143     0.010  102 181 
 RUS  HZ I        1431 14.79        72.3 0.27                           102 181 
 BRI  SZ EP       1430 54.68                             142     0.510  104  17 
 BRI  SZ ES   1   1431 12.73                             142     0.3 7  104  17 
 BRI  SZ I        1431 15.32        40.8 0.43                           104  17 
 GUE  SZ EP       1430 55.09                             140     0.010  113   8 
 GUE  SZ I        1431 14.95        16.6 0.10                           113   8 
 GRA  SZ EP       1430 55.94                             137     0.410  122  14 
 GRA  SZ ES       1431 15.32                             137     0.410  122  14 
 GRA  SZ I        1431 16.55       101.4 0.15                           122  14 
 OCA  SZ EP       1430 58.63                             129    -0.3 9  160 350 
 OCA  SZ ES       1431 20.63                             129    -0.3 9  160 350 
 OCA  SZ I        1431 24.99        63.1 0.14                           160 350 
 ROSC BZ EP       1431 10.03                             116     0.6 8  259 212 
 ROSC BZ I        1431 44.19        34.2 0.50                           259 212 
 HEL  HZ EP       1431 12.56                             114     0.7 7  280 256 
 HEL  HN ES   1   1431 43.28                             114    -0.6 6  280 256 
 HEL  HZ I        1431 49.78        30.7 0.14                           280 256 
 RREF HZ EP   1   1431 18.32                             110     0.6 5  329 230 
 RREF HN ES       1431 53.53                             110    -0.8 7  329 230 
 RREF HZ I        1431 58.72        19.6 0.18                           329 230 
 SDV  BZ EP       1431 19.55                             108    -0.4 6  353  50 
 SDV  BN ES   1   1431 56.89                             108    -1.4 5  353  50 
 SDV  BZ I        1431 58.92        10.5 0.83                           353  50 
 PRA  HZ EP       1431 24.43                             106    -0.5 6  398 210 
 PRA  HN ES   1   1432  8.01                             106     0.9 4  398 210 
 PRA  HZ I        1432 12.76        23.3 0.66                           398 210 
                                                                                
