 2016  713 2111 17.4 L   6.811 -73.144151.4  RSN 15 0.5 2.4LRSN                1
 GAP=136        1.13       3.6     4.2  6.2 -0.5110E+00  0.7859E+01  0.5110E+01E
 Epicentro: LOS SANTOS - SANTANDER                                             3
 ACTION:UPD 17-03-29 16:50 OP:lp   STATUS:               ID:20160713211117 L   I
 OLDACT:UP  16-07-14 03:30 OP:drio STATUS:               ID:20160713210760d    3
 OLDACT:UP  16-07-14 03:30 OP:drio STATUS:               ID:20160713210760d    3
 OLDACT:DUP 16-07-14 03:13 OP:drio STATUS:               ID:20160713210760d    3
 2016-07-13-2107-59S.COL___334                                                 6
 STAT SP IPHASW D HRMM SECON CODA AMPLIT PERI AZIMU VELO AIN AR TRES W  DIS CAZ7
 BAR2 EZ EP       2111 37.69                             170   -0.0510 24.6 190 
 BAR2 EZ ES       2111 53.12                             170   -0.4810 24.6 190 
 BAR2 EZ I        2111 55.08        42.0 0.24            167           24.6 190 
 BRR  HZ EP       2111 39.49                             154    0.3410 70.8 298 
 BRR  HE ES       2111 57.09                             154    0.9910 70.8 298 
 BRR  HZ I        2112  5.19        35.5 0.30            150           70.8 298 
 PAM  EZ EP       2111 40.36                             152    0.2010 76.3  40 
 PAM  EE ES       2111 57.93                             152    0.0210 76.3  40 
 PAM  EZ I        2111 59.84        45.9 0.56            158           76.3  40 
 RUS  HZ EP       2111 41.48                             145   -0.3310  102 176 
 RUS  HE ES       2112  0.76                             145   -0.0710  102 176 
 RUS  HZ I        2112  1.81        16.8 0.18            147            102 176 
 PTB  HZ EP       2111 44.28                             133   -0.60 9  148 258 
 PTB  HN ES       2112  5.74                             133   -0.57 9  148 258 
 PTB  HZ I        2112 11.38        48.2 0.38            132            148 258 
 SPBC HZ EP       2111 46.61                             130    0.16 9  164 219 
 SPBC HN ES       2112  8.76                             130   -0.34 9  164 219 
 SPBC HZ I        2112 11.94        38.6 0.12            130            164 219 
 ZAR  HZ EP       2111 50.31                             124    0.11 9  204 292 
 ZAR  HE ES       2112 15.69                             124   -0.08 9  204 292 
 ZAR  HZ I        2112 21.16        36.1 0.30            124            204 292 
 NOR  HZ EP       2111 53.54                             120   -0.03 8  236 234 
 NOR  HE ES       2112 22.06                             120    0.29 8  236 234 
 NOR  HZ I        2112 29.80        18.4 0.52            120            236 234 
 CHI  HZ EP       2111 55.83                             118    0.27 8  250 195 
 CHI  HN ES       2112 24.83                             118   -0.49 8  250 195 
 CHI  HZ I        2112 33.02        13.5 0.32            120            250 195 
 ROSC BZ EP   4   2111 58.71                             118    2.74 0  254 211 
 ROSC BN ES       2112 26.97                             118    0.92 8  254 211 
 ROSC BZ I        2112 35.08        23.0 0.45            119            254 211 
 HEL  HZ EP   4   2111 59.00                             116    1.03 0  273 256 
 HEL  HN ES   4   2112 27.89                             116   -1.72 0  273 256 
 HEL  HZ I        2112 35.92        16.1 0.36            117            273 256 
 URE  HZ EP   4   2111 57.17                             115   -1.56 0  284 292 
 URE  HN ES       2112 29.99                             115   -0.96 7  284 292 
 URE  HZ I        2112 42.72        19.9 0.18            116            284 292 
 GUY2CHZ EP   4   2112  2.65                             113    1.26 0  302 235 
 GUY2CHN ES       2112 36.58                             113    0.90 7  302 235 
 GUY2CHZ I        2112 42.56        10.0 0.36                           302 235 
 PTGC HZ EP   4   2112  0.37                             112   -1.28 0  310 159 
 PTGC HN ES   4   2112 31.19                             112   -4.96 0  310 159 
 LL6C HZ EP   4   2112  1.49                             111   -1.72 0  324 358 
 PRA  HZ EP       2112 11.50                             107    0.23 6  393 210 
 PRA  HN ES       2112 52.99                             107   -0.29 6  393 210 
 PRA  HZ I        2112 56.95        13.4 0.58            109            393 210 
 SJC  HZ EP   4   2112 11.78                             107   -1.27 0  408 327 
 SJC  HN ES   4   2112 53.12                             107   -3.33 0  408 327 
 SJC  HZ I        2112 57.63         6.9 0.48            108            408 327 
                                                                                
