 2013  613 2136 43.1 L   6.781 -73.130147.7  RSN  7 0.4 2.3LRSN                1
 GAP=202        1.07       4.5     6.3  7.1  0.3625E+01  0.7934E+01 -0.5030E+01E
 Epicentro: LOS SANTOS - SANTANDER                                             3
 ACTION:UPD 14-01-08 09:54 OP:ep   STATUS:               ID:20130613213643 L   I
 OLDACT:REG 13-06-13 22:28 OP:nd   STATUS:               ID:20130613212959     3
 2013-06-13-2129-59M.COL___261                                                 6
 STAT SP IPHASW D HRMM SECON CODA AMPLIT PERI AZIMU VELO AIN AR TRES W  DIS CAZ7
 BAR2 SZ IP     C 2137  2.99                             171    0.0710 21.6 195 
 BAR2 SZ ES       2137 17.98                             171   -0.4110 21.6 195 
 BAR2 SZ I        2137 20.36        42.9 0.28            173           21.6 195 
 BRR  HZ IP     D 2137  4.82                             152    0.2310 73.7 299 
 BRR  HN ES       2137 21.83                             152    0.4710 73.7 299 
 BRR  HZ I        2137 25.53        39.3 0.42            151           73.7 299 
 RUS  HZ IP     D 2137  6.99                             145    0.1210 98.3 177 
 RUS  HN ES       2137 25.54                             145    0.1210 98.3 177 
 RUS  HZ I        2137 26.59        21.8 0.30            148           98.3 177 
 PTB  HZ EP       2137  9.59                             132   -0.74 9  149 260 
 PTB  HN ES       2137 30.87                             132   -0.71 9  149 260 
 PTB  HZ I        2137 32.78        22.5 0.12            133            149 260 
 NOR  HZ EP       2137 19.02                             119    0.08 8  235 235 
 NOR  HN ES       2137 47.73                             119    0.82 8  235 235 
 NOR  HZ I        2137 50.95        14.4 0.18            120            235 235 
 SML  HZ EP       2137 19.91                             118   -0.20 8  246 335 
 SML  HN ES       2137 49.29                             118    0.30 8  246 335 
 SML  HZ I        2137 55.22        22.6 0.10            118            246 335 
 GUY2CHZ EP   4   2137 28.10                             113    1.30 0  301 235 
 GUY2CHN ES   4   2138  5.67                             113    4.77 0  301 235 
 GUY2CHZ I        2138 11.93         7.9 0.46                           301 235 
                                                                                
