 2015  413 2135  1.5 L   6.802 -73.136145.6  RSN 10 0.5 2.0LRSN                1
 GAP=138        1.13       4.1     4.8  6.7 -0.1109E+01  0.1056E+02 -0.3362E+01E
 Epicentro: LOS SANTOS - SANTANDER                                             3
 ACTION:UPD 15-06-03 16:54 OP:cam  STATUS:               ID:20150413213501 L   I
 OLDACT:REG 15-04-14 03:20 OP:ak   STATUS:               ID:20150413212749     3
 2015-04-13-2127-49M.COL___263                                                 6
 STAT SP IPHASW D HRMM SECON CODA AMPLIT PERI AZIMU VELO AIN AR TRES W  DIS CAZ7
 BAR2 EZ EP   3   2135 20.83                             170   -0.31 2 23.7 192 
 BAR2 EZ ES       2135 35.86                             170   -0.5910 23.7 192 
 BAR2 EZ I        2135 38.98        17.5 0.48            169           23.7 192 
 BRR  HZ EP       2135 23.13                             152    0.4310 72.0 298 
 BRR  HN ES       2135 40.06                             152    0.8410 72.0 298 
 BRR  HZ I        2135 42.94        17.4 0.36            151           72.0 298 
 PAM  SZ EP       2135 24.02                             151    0.3510 76.6  39 
 PAM  SN ES       2135 40.95                             151   -0.0010 76.6  39 
 PAM  SZ I        2135 43.58        12.2 0.42            156           76.6  39 
 RUS  HZ EP       2135 25.12                             144   -0.1510  101 177 
 RUS  HN ES       2135 43.90                             144    0.1110  101 177 
 RUS  HZ I        2135 46.64         6.4 0.42            147            101 177 
 PTB  HZ EP       2135 28.33                             132   -0.24 9  149 259 
 PTB  HN ES       2135 48.93                             132   -0.75 9  149 259 
 PTB  HZ I        2135 56.30        14.5 0.28            133            149 259 
 ZAR  HZ EP       2135 34.62                             122    0.57 9  205 292 
 ZAR  HN ES       2135 59.70                             122    0.28 9  205 292 
 ZAR  HZ I        2136  5.26        13.8 0.36            124            205 292 
 NOR  HZ EP       2135 37.34                             118   -0.01 8  236 235 
 NOR  HN ES       2136  5.44                             118    0.15 8  236 235 
 NOR  HZ I        2136 11.26         8.4 0.14            120            236 235 
 SML  HZ EP       2135 37.59                             117   -0.58 8  244 335 
 SML  HN ES       2136  6.04                             117   -0.71 8  244 335 
 SML  HZ I        2136 11.02        12.0 0.28            120            244 335 
 GUY2CHZ EP   4   2135 46.84                             112    1.61 0  302 235 
 GUY2CHN ES   4   2136 21.98                             112    2.65 0  302 235 
 GUY2CHZ I        2136 30.01         5.2 0.52                           302 235 
 RREF HE ES   4   2136 26.26                             111    2.43 0  323 229 
 SJC  HZ EP   4   2135 55.42                             106   -1.70 0  410 327 
 SJC  HN ES   4   2136 37.17                             106   -3.33 0  410 327 
 SJC  HZ I        2136 39.58         1.9 0.30            108            410 327 
                                                                                
