 2015  413 2206 29.4 L   6.783 -73.122147.2  RSN 14 0.4 2.3LRSN                1
 GAP=140        0.95       2.9     3.8  5.0 -0.2054E+01  0.6741E+01 -0.8036E+00E
 Epicentro: LOS SANTOS - SANTANDER                                             3
 ACTION:UPD 15-06-03 16:54 OP:cam  STATUS:               ID:20150413220629 L   I
 OLDACT:DUP 15-04-14 04:57 OP:ak   STATUS:               ID:20150413215750d    3
 2015-04-13-2157-49M.COL___269                                                 6
 STAT SP IPHASW D HRMM SECON CODA AMPLIT PERI AZIMU VELO AIN AR TRES W  DIS CAZ7
 BAR2 EZ EP       22 6 49.10                             171   -0.0810 22.1 197 
 BAR2 EZ ES       22 7  4.17                             171   -0.4410 22.1 197 
 BAR2 EZ I        22 7  6.70        31.6 0.28            171           22.1 197 
 BRR  HZ EP       22 6 51.13                             152    0.2410 74.4 299 
 BRR  HN ES       22 7  8.49                             152    0.8410 74.4 299 
 BRR  HZ I        22 7 12.06        28.3 0.38            151           74.4 299 
 PAM  SZ EP       22 6 52.09                             151    0.3210 77.3  37 
 PAM  SN ES       22 7  9.21                             151    0.0010 77.3  37 
 PAM  SZ I        22 7 11.58        21.1 0.64            154           77.3  37 
 RUS  HZ EP       22 6 53.18                             145    0.0310 98.5 177 
 RUS  HN ES       22 7 11.72                             145    0.0510 98.5 177 
 RUS  HZ I        22 7 13.61        13.9 0.24            149           98.5 177 
 PTB  HZ EP       22 6 56.16                             132   -0.53 9  150 260 
 PTB  HN ES       22 7 17.58                             132   -0.39 9  150 260 
 PTB  HZ I        22 7 21.71        21.5 0.10            133            150 260 
 OCA  HZ EP       22 6 58.23                             129    0.19 9  163 352 
 OCA  HN ES       22 7 19.82                             129   -0.55 9  163 352 
 OCA  HZ I        22 7 24.16        51.2 0.40            132            163 352 
 ZAR  HZ EP       22 7  2.48                             122    0.21 8  207 292 
 ZAR  HN ES       22 7 28.00                             122    0.10 8  207 292 
 ZAR  HZ I        22 7 33.09        20.5 0.28            124            207 292 
 NOR  HZ EP       22 7  5.40                             119    0.07 8  236 235 
 NOR  HN ES       22 7 33.29                             119   -0.05 8  236 235 
 SML  HZ EP       22 7  5.61                             117   -0.81 8  247 335 
 SML  HN ES       22 7 35.43                             117    0.14 8  247 335 
 SML  HZ I        22 7 40.31        19.0 0.22            119            247 335 
 HEL  HZ EP       22 7 10.17                             115    0.25 8  274 256 
 HEL  HN ES   4   22 7 44.08                             115    2.56 0  274 256 
 HEL  HZ I        22 7 47.99        11.4 0.26            117            274 256 
 GUY2CHZ EP       22 7 13.85                             112    0.65 7  302 235 
 GUY2CHN ES   4   22 7 47.03                             112   -0.32 0  302 235 
 GUY2CHZ I        22 7 55.68        15.7 0.42                           302 235 
 RREF HN ES       22 7 51.45                             111   -0.35 7  322 230 
 MON  HZ EP   4   22 7 16.71                             109   -2.13 0  357 308 
 MON  HN ES   4   22 7 55.10                             109   -2.29 0  357 308 
 MON  HZ I        22 7 57.27         4.5 0.20            110            357 308 
 SJC  HZ EP   4   22 7 23.46                             106   -1.91 0  412 327 
 SJC  HN ES   4   22 8  4.63                             106   -4.39 0  412 327 
 SJC  HZ I        22 8  8.11         3.4 0.42            108            412 327 
                                                                                
