 2013  113 2147  3.6 L   6.768 -73.214148.0  RSN  4 0.2 1.3LRSN                1
 GAP=227        0.55       4.5     4.8  5.1  0.1176E+02 -0.7198E+00  0.2367E+01E
 Epicentro: ZAPATOCA - SANTANDER                                               3
 ACTION:UPD 13-02-15 09:14 OP:ep   STATUS:               ID:20130113214703 L   I
 2013-01-13-2140-00M.COL___241                                                 6
 STAT SP IPHASW D HRMM SECON CODA AMPLIT PERI AZIMU VELO AIN AR TRES W  DIS CAZ7
 BRR  HZ EP       2147 24.89                             154    0.2010 66.6 304 
 BRR  HZ I        2147 27.40         6.5 0.54            153           66.6 304 
 BRR  HE ES       2147 41.18                             154    0.0010 66.6 304 
 RUS  HZ EP       2147 27.02                             145   -0.3110 97.9 172 
 RUS  HE ES       2147 45.98                             145    0.1010 97.9 172 
 RUS  HE I        2147 46.92         2.0 0.26            145           97.9 172 
 PTB  HZ EP       2147 29.84                             134   -0.15 9  140 260 
 PTB  HE ES       2147 50.59                             134   -0.02 9  140 260 
 PTB  HZ I        2147 53.15         2.9 0.20            134            140 260 
 CHI  HZ EP   1   2147 41.30                             118    0.49 6  243 194 
                                                                                
