 2011  113 2240 58.4 L   6.872 -73.017149.7  RSN  4 0.2 1.4LRSN                1
 GAP=172        0.48       6.9    28.2 11.8  0.1202E+02 -0.1360E+03 -0.4098E+02E
 Epicentro: CEPITA - SANTANDER                                                 3
 ACTION:UP  11-02-08 08:40 OP:pat  STATUS:               ID:20110113224058 L   I
 2011-01-13-2236-25S.COL___136                                                 6
 STAT SP IPHASW D HRMM SECON CODA AMPLIT PERI AZIMU VELO SNR AR TRES W  DIS CAZ7
 BTL  SZ EP       2241 18.51                             169    -0.110   28 281 
 BAR2 SZ EP   2   2241 18.72                             166    -0.1 5   36 211 
 BAR2 SZ ES   2   2241 34.99                             166     0.3 5   36 211 
 BAR2 SZ I        2241 37.35         6.0 0.49                            36 211 
 RUS  HZ EP   2   2241 23.49                             142     0.4 5  109 184 
 RUS  HE ES   2   2241 42.02                             142    -0.3 5  109 184 
 RUS  HZ I        2241 45.40         2.3 0.21                           109 184 
 GRA  SZ EP   2   2241 23.04                             141     0.0 5  114  12 
 GRA  SZ I        2241 50.70         4.7 0.42                           114  12 
                                                                                
