 2017  913 2359 36.8 L   6.804 -73.125146.0  RSN 28 0.6 2.5LRSN                1
 GAP= 67        1.05       2.3     2.5  4.4 -0.4207E+00  0.3330E+01  0.4952E+00E
 Epicentro: LOS SANTOS - SANTANDER                                             3
     148.0      64.0     -62.0 10.0  4.0  8.0  0.1  0.2           RSN FPFIT    F
 ACTION:UPD 17-10-05 19:12 OP:rebc STATUS:               ID:20170913235936 L   I
 OLDACT:UP  17-09-14 05:30 OP:dhb  STATUS:               ID:20170913235445     3
 OLDACT:UP  17-09-14 05:29 OP:dhb  STATUS:               ID:20170913235445     3
 OLDACT:UP  17-09-14 05:13 OP:dhb  STATUS:               ID:20170913235445     3
 OLDACT:REG 17-09-14 02:46 OP:dhb  STATUS:               ID:20170913235445     3
 2017-09-13-2355-00M.COL___464                                                 6
 STAT SP IPHASW D HRMM SECON CODA AMPLIT PERI AZIMU VELO AIN AR TRES W  DIS CAZ7
 BAR2 EZ IP     D 2359 56.29                             170   -0.1610 24.2 195 
 BAR2 EZ ES       24 0 10.74                             170   -1.0610 24.2 195 
 BAR2 EZ I        24 0 14.86        82.9 0.31            169           24.2 195 
 BRR  HZ IP     C 2359 58.14                             152    0.0910 73.0 297 
 BRR  HN ES       24 0 15.48                             152    0.8310 73.0 297 
 BRR  HZ I        24 0 22.84        30.2 0.26            151           73.0 297 
 PAM  EZ IP     C 2359 59.08                             151    0.1710 75.6  38 
 PAM  EN ES       24 0 16.51                             151    0.3310 75.6  38 
 PAM  EZ I        24 0 18.80        19.0 0.26            155           75.6  38 
 RUS  HZ IP     D 24 0  0.15                             144   -0.4210  101 177 
 RUS  HN ES       24 0 19.07                             144   -0.0510  101 177 
 RUS  HZ I        24 0 21.75        42.9 0.46            146            101 177 
 TAM  HZ IP     C 24 0  4.41                             131    0.13 9  153 105 
 TAM  HN ES       24 0 25.83                             131    0.10 9  153 105 
 TAM  HZ I        24 0 26.83        31.7 0.35            135            153 105 
 SPBC HZ EP       24 0  5.16                             129   -0.30 9  165 220 
 SPBC HN ES       24 0 27.50                             129   -0.33 9  165 220 
 SPBC HZ I        24 0 33.28        65.4 0.22            130            165 220 
 YPLC HZ IP     D 24 0  6.47                             127   -0.04 9  176 152 
 YPLC HN ES       24 0 30.01                             127    0.30 9  176 152 
 YPLC HZ I        24 0 31.47        44.0 0.15            130            176 152 
 ZAR  HZ EP       24 0  8.85                             122   -0.59 8  206 292 
 ZAR  HE ES       24 0 34.62                             122   -0.29 8  206 292 
 TABC EZ IP   2 C 24 0 13.79                             119    1.09 4  231 211 
 TABC EZ ES   2   24 0 39.33                             119   -1.39 4  231 211 
 TABC EZ I        24 0 49.15        24.7 0.22            121            231 211 
 NOR  HE E        2356 48.94                                            237 235 
 NOR  HZ EP   3   24 0 12.07                             118   -0.67 2  237 235 
 NOR  HE ES       24 0 40.37                             118   -0.42 8  237 235 
 NOR  HZ I        24 0 44.18        35.3 0.36            119            237 235 
 CHI  HZ IP     C 24 0 14.53                             117   -0.06 8  250 196 
 CHI  HE ES       24 0 44.02                             117   -0.07 8  250 196 
 CHI  HZ I        24 0 49.43        11.6 0.32            119            250 196 
 ROSC BZ IP   2 C 24 0 16.28                             116    1.21 4  254 211 
 ROSC BE ES       24 0 45.37                             116    0.43 8  254 211 
 ROSC BZ I        24 0 52.17        29.1 0.16            118            254 211 
 HEL  HZ EP       24 0 18.00                             114    0.75 8  274 256 
 HEL  HN ES       24 0 49.11                             114    0.29 8  274 256 
 HEL  HZ I        24 0 55.34        29.1 0.17            116            274 256 
 GUY2CHZ EP       24 0 21.26                             112    0.63 7  303 235 
 GUY2CHE ES       24 0 55.63                             112    0.80 7  303 235 
 GUY2CHZ I        24 1  1.70        21.1 0.23                           303 235 
 VIL  EZ EP       24 0 20.25                             112   -0.05 7  304 192 
 VIL  EE ES       24 0 55.36                             112    1.11 7  304 192 
 VIL  EZ I        24 0 59.62        19.0 0.35            114            304 192 
 PTGC HZ IP   3 C 24 0 19.23                             112   -1.36 2  308 159 
 PTGC HN ES   3   24 0 52.53                             112   -2.23 2  308 159 
 PTGC HZ I        24 0 54.95        16.4 0.32            114            308 159 
 LL6C HZ EP       24 0 21.53                             110   -0.92 7  325 357 
 LL6C HE ES   2   24 0 59.01                             110    0.93 3  325 357 
 LL6C HZ I        24 1 12.49         8.8 0.48            112            325 357 
 ELA  HZ EP   9   24 0 25.43                             110    1.57 0  331 230 
 ELA  HN ES       24 1  2.38                                    0.22 7  331 230 
 ELA  HZ I        24 1 10.43        14.1 0.42            111            331 230 
 CBOC HZ EP       24 0 24.20                             110    0.24 7  336 252 
 CBOC HN ES       24 1  0.27                             110   -0.49 7  336 252 
 CBOC HZ I        24 1  4.64         7.2 0.18            111            336 252 
 DBB  EZ EP       24 0 24.10                             109   -0.42 7  342 274 
 DBB  EE ES       24 1  2.04                             109    0.29 7  342 274 
 DBB  EZ I        24 1  4.26         9.6 0.14            110            342 274 
 ANIL HZ EP       24 0 27.30                             108    0.50 6  359 225 
 ANIL HE ES       24 1  6.24                             108    0.41 6  359 225 
 ANIL HZ I        24 1 11.23        27.9 0.17            110            359 225 
 ARGC HZ EP       24 0 27.09                             108    0.61 6  360 340 
 ARGC HN ES       24 1  5.12                             108   -0.14 6  360 340 
 ARGC HZ I        24 1 13.00         8.3 0.26            110            360 340 
 PRA  HZ EP       24 0 29.92                             106   -0.55 6  393 210 
 PRA  HE ES       24 1 11.81                             106   -0.55 6  393 210 
 PRA  HZ I        24 1 18.94        11.9 0.38            108            393 210 
 ORTC HZ EP       24 0 30.40                             106   -0.49 6  397 216 
 ORTC HE ES   2   24 1 14.26                             106    1.15 3  397 216 
 ORTC HZ I        24 1 20.07        25.0 0.87            108            397 216 
 PAL  HZ EP   2   24 0 30.71                             106   -1.48 3  408 239 
 PAL  HE ES       24 1 14.66                             106   -0.76 6  408 239 
 PAL  HZ I        24 1 19.25         8.3 0.29            107            408 239 
 SJC  HZ EP   4   24 0 29.99                             106   -2.46 0  410 327 
 SJC  HE ES   4   24 1 11.75                             106   -4.13 0  410 327 
 SJC  HZ I        24 1 19.36         7.4 0.36            107            410 327 
 CRJC HZ EP       24 0 39.22                             103    0.00 5  467   3 
 CRJC HE ES   4   24 1 25.09                             103   -2.83 0  467   3 
 CRJC HZ I        24 1 28.27         9.7 0.21            105            467   3 
 SMAR HZ EP   3   24 0 41.57                             102   -1.10 1  497 346 
 SMAR HT ES   4   24 1 29.78                             102   -4.29 0  497 346 
                                                                                
