 2014 1013 2015 26.1 L   6.804 -73.138143.5  RSN 16 0.5 2.2LRSN                1
 GAP=137        1.55       3.7     5.8  7.6 -0.2685E+01  0.9575E+01  0.2880E+01E
 Epicentro: LOS SANTOS - SANTANDER                                             3
 ACTION:UPD 14-11-29 23:49 OP:nd   STATUS:               ID:20141013201526 L   I
 OLDACT:REG 14-10-14 05:58 OP:stll STATUS:               ID:20141013200747     3
 2014-10-13-2007-47M.COL___294                                                 6
 STAT SP IPHASW D HRMM SECON CODA AMPLIT PERI AZIMU VELO AIN AR TRES W  DIS CAZ7
 BAR2 SZ EP       2015 45.57                             170    0.1410 23.9 192 
 BAR2 SZ ES       2016  0.52                             170   -0.0110 23.9 192 
 BAR2 SZ I        2016  1.47        79.7 0.28            168           23.9 192 
 BRR  HZ IP     D 2015 47.53                             152    0.5410 71.7 298 
 BRR  HZ I        2015 47.76        24.5 0.24            148           71.7 298 
 BRR  HN ES       2016  4.22                             152    0.9010 71.7 298 
 PAM  SZ IP     D 2015 48.43                             150    0.4510 76.5  39 
 PAM  SZ I        2015 48.71        42.8 0.22            153           76.5  39 
 PAM  SN ES       2016  5.18                             150    0.1010 76.5  39 
 RUS  HZ EP       2015 49.67                             143    0.0610  101 177 
 RUS  HN ES       2016  7.50                             143   -0.4810  101 177 
 RUS  HZ I        2016  9.03        12.6 0.26            143            101 177 
 PTB  HZ EP       2015 52.51                             131   -0.41 9  149 259 
 PTB  HE ES       2016 13.46                             131   -0.41 9  149 259 
 PTB  HZ I        2016 15.43        13.6 0.16            128            149 259 
 OCA  HZ EP       2015 53.77                             129   -0.39 9  160 353 
 OCA  HN ES       2016 15.56                             129   -0.52 9  160 353 
 OCA  HZ I        2016 20.21        25.3 0.22            128            160 353 
 SPBC HZ EP       2015 54.83                             128    0.37 9  164 219 
 SPBC HN ES       2016 16.50                             128   -0.12 9  164 219 
 SPBC HZ I        2016 23.52        15.9 0.16            126            164 219 
 ZAR  HZ EP       2015 58.92                             122    0.50 9  205 292 
 ZAR  HE ES       2016 24.07                             122    0.41 9  205 292 
 ZAR  HZ I        2016 30.42        14.3 0.46            120            205 292 
 SML  HZ EP       2016  2.09                             117   -0.47 8  244 335 
 SML  HE ES       2016 30.24                             117   -0.78 8  244 335 
 SML  HZ I        2016 32.81        18.7 0.24            116            244 335 
 CHI  HZ EP       2016  2.90                             116   -0.80 8  249 195 
 CHI  HN ES       2016 32.42                             116   -0.63 8  249 195 
 CHI  HZ I        2016 39.66         5.6 0.32            116            249 195 
 GUY2CHZ EP       2016 10.27                             112    0.60 7  302 235 
 GUY2CHN ES       2016 43.78                             112    0.10 7  302 235 
 GUY2CHZ I        2016 53.24         5.7 0.34                           302 235 
 RREF HZ EP   9   2016 10.18                             110   -2.03 0  323 229 
 RREF HN ES       2016 45.52                                   -0.65 7  323 229 
 RREF HZ I        2016 52.05         5.4 0.26            109            323 229 
 MON  HZ EP   9   2016 12.95                             108   -2.07 0  354 308 
 MON  HN ES       2016 50.26                                   -0.88 6  354 308 
 MON  HZ I        2017  6.82         3.8 0.34            107            354 308 
 PRA  HZ EP       2016 20.05                             106    0.46 6  393 210 
 PRA  HE ES       2017  1.97                             106    0.63 6  393 210 
 PRA  HZ I        2017  7.55         7.0 0.24            105            393 210 
 ORTC HE ES       2017  1.62                             106   -0.45 6  396 216 
 ORTC HZ I        2017 10.02         5.9 0.36            105            396 216 
 SJC  HZ EP   9   2016 19.75                             105   -1.81 0  409 327 
 SJC  HN ES       2016 59.38                                   -3.66 6  409 327 
                                                                                
