 2013  513 2025 59.0 L   6.822 -73.173148.7  RSN  8 0.4 1.9LRSN                1
 GAP=132        0.87       3.5     5.1  7.2 -0.1281E+01 -0.1695E+01  0.3670E+01E
 Epicentro: LOS SANTOS - SANTANDER                                             3
 ACTION:UPD 13-06-20 09:50 OP:ep   STATUS:               ID:20130513202559 L   I
 2013-05-13-2020-00M.COL___256                                                 6
 STAT SP IPHASW D HRMM SECON CODA AMPLIT PERI AZIMU VELO AIN AR TRES W  DIS CAZ7
 GIR2 SZ EP   1   2026 18.79                             168   -0.13 7 28.4 355 
 GIR2 SZ I        2026 35.61        15.1 0.30            168           28.4 355 
 BRR  HZ EP     C 2026 20.51                             154    0.2810 67.4 298 
 BRR  HN ES       2026 37.39                             154    0.5810 67.4 298 
 BRR  HZ I        2026 38.00        26.9 0.32            151           67.4 298 
 PAM  SZ EP       2026 21.68                             151    0.1810 77.5  42 
 PAM  SZ I        2026 21.87        32.7 0.18            152           77.5  42 
 PAM  SE ES   2   2026 38.85                             151   -0.22 5 77.5  42 
 RUS  HZ EP       2026 22.91                             144   -0.2910  103 175 
 RUS  HE ES   1   2026 41.53                             144   -0.57 7  103 175 
 RUS  HZ I        2026 43.35         4.4 0.32            142            103 175 
 PTB  HZ EP   1   2026 25.41                             133   -0.55 7  145 258 
 PTB  HN ES   1   2026 46.11                             133   -0.90 7  145 258 
 PTB  HZ I        2026 53.49        10.5 0.32            130            145 258 
 NOR  HZ EP   1   2026 35.22                             119    0.45 6  234 234 
 NOR  HE ES   1   2027  2.87                             119    0.18 6  234 234 
 NOR  HZ I        2027  9.78         4.0 0.18            117            234 234 
 SML  HZ EP   1   2026 35.12                             118   -0.26 6  240 336 
 SML  HE ES   1   2027  3.64                             118   -0.15 6  240 336 
 SML  HZ I        2027  8.09        10.9 0.10            117            240 336 
 CHI  HZ EP   1   2026 37.43                             118    0.42 6  250 194 
 CHI  HN ES       2027  6.96                             118    0.28 8  250 194 
 CHI  HZ I        2027 14.62         2.7 0.32            116            250 194 
                                                                                
