 2014 1213 2327 54.2 L   6.807 -73.137146.3  RSN 17 0.5 2.8LRSN                1
 GAP= 71        1.09       2.7     2.8  4.9 -0.1308E+01  0.2979E+01  0.1112E+01E
 Epicentro: LOS SANTOS - SANTANDER                                             3
 ACTION:UPD 15-02-10 17:03 OP:nd   STATUS:               ID:20141213232754 L   I
 OLDACT:REG 14-12-14 06:29 OP:carl STATUS:               ID:20141213231748     3
 2014-12-13-2317-48M.COL___294                                                 6
 STAT SP IPHASW D HRMM SECON CODA AMPLIT PERI AZIMU VELO AIN AR TRES W  DIS CAZ7
 BAR2 EZ EP       2328 13.90                             170    0.0110 24.3 192 
 BAR2 EZ ES       2328 28.84                             170   -0.4310 24.3 192 
 BAR2 EZ I        2328 30.94        88.1 0.18            170           24.3 192 
 BRR  HZ EP       2328 15.83                             152    0.4210 71.6 298 
 BRR  HN ES       2328 32.51                             152    0.5410 71.6 298 
 BRR  HZ I        2328 35.68        99.8 0.24            151           71.6 298 
 PAM  SZ EP       2328 16.71                             151    0.3310 76.2  39 
 PAM  SN ES       2328 34.17                             151    0.4810 76.2  39 
 PAM  SZ I        2328 36.13        49.7 0.52            153           76.2  39 
 RUS  HZ EP       2328 17.78                             144   -0.2510  101 177 
 RUS  HE ES       2328 36.23                             144   -0.4110  101 177 
 RUS  HZ I        2328 37.54        70.8 0.30            145            101 177 
 PTB  HZ EP       2328 20.51                             132   -0.78 9  149 259 
 PTB  HN ES       2328 41.62                             132   -0.81 9  149 259 
 PTB  HZ I        2328 44.03       129.3 0.14            132            149 259 
 TAM  HZ EP       2328 22.08                             131    0.24 9  154 105 
 TAM  HN ES       2328 43.82                             131    0.42 9  154 105 
 TAM  HZ I        2328 44.85        21.7 0.42            134            154 105 
 OCA  HZ EP       2328 22.13                             130   -0.34 9  160 353 
 OCA  HN ES       2328 44.80                             130    0.27 9  160 353 
 OCA  HZ I        2328 53.85        55.0 0.32            130            160 353 
 SPBC HZ EP       2328 22.84                             129    0.01 9  164 219 
 SPBC HN ES       2328 45.14                             129   -0.04 9  164 219 
 SPBC HZ I        2328 47.36        77.0 0.20            130            164 219 
 ZAR  HZ EP   4   2328 26.49                             122   -0.23 0  205 292 
 ZAR  HN ES       2328 52.11                             122    0.01 9  205 292 
 ZAR  HZ I        2328 57.71       119.1 0.60            122            205 292 
 NOR  HZ EP       2328 29.70                             118   -0.37 8  236 234 
 NOR  HE ES       2328 58.14                             118    0.08 8  236 234 
 NOR  HZ I        2329  3.15        47.4 0.28            119            236 234 
 SML  HZ EP       2328 30.51                             118   -0.29 8  243 335 
 SML  HE ES       2328 58.80                             118   -0.56 8  243 335 
 SML  HZ I        2329  5.51        66.1 0.10            118            243 335 
 CHI  HZ EP       2328 32.00                             117   -0.02 8  250 195 
 CHI  HN ES       2329  1.17                             117   -0.36 8  250 195 
 CHI  HZ I        2329 11.17        32.5 0.34            118            250 195 
 ROSC BZ EP   4   2328 34.25                             117    1.80 0  254 211 
 ROSC BN ES   4   2329  4.01                             117    1.70 0  254 211 
 ROSC BZ I    4   2329  7.44        68.1 0.40            117            254 211 
 HEL  HZ EP       2328 35.45                             115    0.91 8  273 256 
 HEL  HE ES       2329  6.32                             115    0.30 8  273 256 
 HEL  HZ I        2329 12.21        40.3 0.34            115            273 256 
 URE  HZ EP   4   2328 33.96                             114   -1.38 0  284 292 
 URE  HN ES   4   2329  4.84                             114   -2.60 0  284 292 
 RREF HZ EP       2328 41.12                             111    0.64 7  323 229 
 RREF HN ES       2329 16.89                             111    0.29 7  323 229 
 RREF HZ I        2329 25.56        46.9 0.30            111            323 229 
 CBOC HZ EP       2328 41.61                             110    0.36 7  335 252 
 CBOC HE ES       2329 17.70                             110   -0.25 7  335 252 
 CBOC HZ I        2329 19.59        12.4 0.32            110            335 252 
 TOL  SZ EP       2328 43.50                             109    0.90 7  345 225 
 TOL  SE ES       2329 20.69                             109    0.33 7  345 225 
 TOL  SZ I        2329 28.40        69.8 0.74            110            345 225 
 SDV  BZ EP       2328 42.78                             108   -1.32 6  359  50 
 SDV  BN ES   4   2329 20.77                             108   -2.27 0  359  50 
 SDV  BZ I        2329 22.53        11.1 0.40            110            359  50 
                                                                                
