 2012  413 2006  2.4 L   6.737 -73.089146.9  RSN 10 0.3 2.1LRSN                1
 GAP=147        0.66       3.9     4.3  4.9 -0.3867E+01  0.6926E+01  0.3969E+01E
 Epicentro: JORDAN - SANTANDER                                                 3
 ACTION:UPD 12-07-05 11:53 OP:tino STATUS:               ID:20120413200602 L   I
 2012-04-13-2000-00M.COL___181                                                 6
 STAT SP IPHASW D HRMM SECON CODA AMPLIT PERI AZIMU VELO AIN AR TRES W  DIS CAZ7
 BAR2 SZ IP       20 6 22.15                             172     0.010   19 213 
 BAR2 SZ I        20 6 22.40        22.2 0.36                            19 213 
 BAR2 SZ ES   1   20 6 37.41                             172    -0.1 7   19 213 
 PAM  SZ EP       20 6 24.99                             150     0.110   79  33 
 PAM  SN ES   1   20 6 42.19                             150    -0.2 7   79  33 
 BRR  HZ EP       20 6 24.05                             150    -0.210   80 301 
 BRR  HZ I        20 6 25.47        25.6 0.12                            80 301 
 BRR  HN ES   1   20 6 41.46                             150     0.2 7   80 301 
 RUS  HZ IP     D 20 6 26.01                             146     0.210   93 180 
 RUS  HZ I        20 6 27.37         7.6 0.46                            93 180 
 RUS  HN ES   1   20 6 43.88                             146    -0.1 7   93 180 
 PTB  HZ EP   2   20 6 29.09                             131    -0.9 5  153 262 
 PTB  HZ I        20 6 56.00        15.4 0.40                           153 262 
 NOR  SZ EP       20 6 37.90                             118    -0.5 8  236 237 
 NOR  SN ES   1   20 7  6.57                             118     0.2 6  236 237 
 CHI  HZ EP   2   20 6 40.02                             118     0.4 4  244 197 
 CHI  HN ES   3   20 7  8.97                             118     0.3 2  244 197 
 CHI  HZ I        20 7 17.17         5.1 0.36                           244 197 
 HEL  HZ EP       20 6 43.78                             114     0.6 7  277 258 
 HEL  HE ES   2   20 7 14.85                             114    -0.1 4  277 258 
 HEL  HZ I        20 7 22.69         7.2 0.34                           277 258 
 RREF HZ EP   3   20 6 48.55                             111    -0.1 2  322 231 
 RREF HZ I        20 7 33.69         7.7 0.40                           322 231 
 PRA  HZ EP       20 6 55.45                             107    -0.2 6  389 211 
 PRA  HN ES   3   20 7 37.13                             107     0.0 1  389 211 
 PRA  HZ I        20 7 43.02        17.9 0.20                           389 211 
                                                                                
