 2011 1113 2105  8.6 L   6.784 -73.108142.6  RSN  7 0.4 1.8LRSN                1
 GAP=142        0.71       3.7     5.6  6.0  0.4566E+00  0.6737E+00 -0.2670E+01E
 Epicentro: LOS SANTOS - SANTANDER                                             3
 ACTION:UPD 12-07-13 16:10 OP:ep   STATUS:               ID:20111113210508 L   I
 2011-11-13-2102-31S.COL___179                                                 6
 STAT SP IPHASW D HRMM SECON CODA AMPLIT PERI AZIMU VELO AIN AR TRES W  DIS CAZ7
 BAR2 SZ EP       21 5 27.75                             171   -0.0910 22.7 201 
 BAR2 SZ ES   1   21 5 42.60                             171   -0.24 7 22.7 201 
 BAR2 SZ I        21 5 44.20        23.3 0.16                          22.7 201 
 BRR  HZ EP       21 5 29.90                             150    0.2310 75.7 298 
 BRR  HE ES   1   21 5 46.69                             150    0.58 7 75.7 298 
 BRR  HZ I        21 5 50.69        13.5 0.16                          75.7 298 
 PAM  SZ EP       21 5 30.78                             151    0.3710 76.2  36 
 PAM  SE ES   1   21 5 47.11                             151   -0.31 7 76.2  36 
 RUS  HZ EP       21 5 31.82                             144   -0.0710 98.6 178 
 RUS  HN ES   1   21 5 50.01                             144   -0.05 7 98.6 178 
 RUS  HZ I        21 5 51.57         6.9 0.32                          98.6 178 
 OCA  SZ EP       21 5 36.62                             128   -0.27 9  163 352 
 OCA  SZ I        21 6  1.47         7.4 0.17                           163 352 
 ZAR  HN ES   2   21 6  5.67                             121   -1.16 4  209 292 
 ZAR  HZ I        21 6 12.48         8.3 0.24                           209 292 
 CHI  HZ EP   3   21 5 45.80                             116   -0.25 2  248 196 
 CHI  HN ES   2   21 6 15.37                             116    0.10 4  248 196 
 CHI  HZ I        21 6 20.83         4.1 0.28                           248 196 
                                                                                
