 2017  313 2338  0.7 L   7.399 -73.194131.7  RSN 16 0.3 2.1LRSN                1
 GAP=184        0.68       3.2     1.9  3.7  0.1707E+00  0.1896E+01 -0.5182E+00E
 Epicentro: EL PLAYON - SANTANDER                                              3
 ACTION:UPD 17-05-25 18:40 OP:jn   STATUS:               ID:20170313233800 L   I
 OLDACT:UP  17-03-14 05:50 OP:and  STATUS:               ID:20170313232746     3
 OLDACT:UP  17-03-14 05:49 OP:and  STATUS:               ID:20170313232746     3
 OLDACT:UP  17-03-14 05:48 OP:and  STATUS:               ID:20170313232746     3
 OLDACT:UP  17-03-14 05:47 OP:and  STATUS:               ID:20170313232746     3
 OLDACT:UP  17-03-14 05:46 OP:and  STATUS:               ID:20170313232746     3
 OLDACT:UP  17-03-14 05:46 OP:and  STATUS:               ID:20170313232746     3
 OLDACT:UP  17-03-14 05:44 OP:and  STATUS:               ID:20170313232746     3
 OLDACT:UP  17-03-14 05:43 OP:and  STATUS:               ID:20170313232746     3
 OLDACT:UP  17-03-14 05:43 OP:and  STATUS:               ID:20170313232746     3
 OLDACT:REG 17-03-14 03:49 OP:and  STATUS:               ID:20170313232746     3
 2017-03-13-2328-00M.COL___397                                                 6
 STAT SP IPHASW D HRMM SECON CODA AMPLIT PERI AZIMU VELO AIN AR TRES W  DIS CAZ7
 PAM  EZ IP     C 2338 20.06                             156   -0.0610 55.0  97 
 PAM  EN ES       2338 35.34                             156    0.0410 55.0  97 
 PAM  EZ I        2338 38.08        57.6 0.42            147           55.0  97 
 BRR  HZ IP     C 2338 19.98                             152   -0.0010 65.7 241 
 BRR  HN ES       2338 35.30                             152    0.2510 65.7 241 
 BRR  HZ I        2338 35.81        40.4 0.12            144           65.7 241 
 BAR2 EZ IP     C 2338 21.85                             144   -0.0110 89.2 179 
 BAR2 EZ ES       2338 38.19                             144   -0.1910 89.2 179 
 BAR2 EZ I        2338 40.14        35.9 0.14            132           89.2 179 
 RUS  HZ EP       2338 28.92                             125   -0.12 9  167 176 
 RUS  HN ES       2338 50.89                             125   -0.28 9  167 176 
 RUS  HZ I        2338 53.23         7.7 0.24            115            167 176 
 PTB  HZ EP       2338 28.06                             125   -0.53 9  169 236 
 PTB  HN ES       2338 49.83                             125   -0.54 9  169 236 
 PTB  HZ I        2338 53.51        20.6 0.17            116            169 236 
 ZAR  HZ EP       2338 30.00                             122   -0.13 9  184 273 
 ZAR  HN ES       2338 53.51                             122    0.40 9  184 273 
 ZAR  HZ I        2338 56.70        19.2 0.23            115            184 273 
 TAM  HZ EP       2338 30.72                             121    0.12 9  188 124 
 TAM  HZ I        2338 54.04        16.4 0.16            112            188 124 
 TAM  HN ES       2338 54.32                             121    0.38 9  188 124 
 SPBC HZ EP   9   2338 34.98                             118    1.33 0  216 207 
 SPBC HN ES       2339  0.93                             117    0.23 8  216 207 
 SPBC HZ I        2339  7.91        13.2 0.09            109            216 207 
 NOR  HZ EP       2338 40.46                             111    0.34 8  275 222 
 NOR  HN ES       2339 10.84                             111   -0.05 8  275 222 
 NOR  HZ I        2339 20.25         8.2 0.32            104            275 222 
 HEL  HZ EP   4   2338 44.18                             110    1.86 0  291 243 
 HEL  HN ES       2339 15.32                             110    0.52 7  291 243 
 HEL  HZ I        2339 23.60         9.0 0.34            103            291 243 
 CHI  HN ES   3   2339 20.84                             109    1.57 2  312 191 
 CHI  HZ I        2339 28.99         2.3 0.22            101            312 191 
 DBB  EZ EP       2338 46.95                             107   -0.23 7  336 263 
 DBB  EN ES   4   2339 21.99                             107   -1.46 0  336 263 
 DBB  EZ I        2339 22.72        10.5 0.16            101            336 263 
 GUY2CHZ EP   4   2338 50.56                             107    2.41 0  340 225 
 GUY2CHN ES   4   2339 28.72                             107    3.53 0  340 225 
 GUY2CHZ  IAML    2339 36.35         5.0 0.40                           340 225 
 SJC  HZ EP   4   2338 47.49                             106   -1.59 0  352 322 
 SJC  HN ES   4   2339 23.61                             106   -3.22 0  352 322 
 SJC  HZ I        2339 26.07         3.9 0.38            101            352 322 
 CBOC HZ EP       2338 49.76                             106    0.24 6  355 242 
 CBOC HN ES       2339 27.83                             106    0.20 6  355 242 
 CBOC HZ I        2339 40.77         2.4 0.34            100            355 242 
 PRA  HZ EP   4   2339  2.85                             102    2.39 0  449 205 
 PRA  HE ES   4   2339 50.59                             102    3.49 0  449 205 
 PRA  HZ I        2339 58.37         2.8 0.55             95            449 205 
                                                                                
