 2011  213 2125 44.2 L   6.851 -73.217139.6  RSN  6 0.4 1.5LRSN                1
 GAP=150        0.74       5.0    12.4 10.0 -0.3835E+02  0.4825E+02 -0.9038E+01E
 Epicentro: ZAPATOCA - SANTANDER                                               3
 ACTION:UP  11-03-28 15:08 OP:jfem STATUS:               ID:20110213212544 L   I
 2011-02-13-2124-06S.COL___137                                                 6
 STAT SP IPHASW D HRMM SECON CODA AMPLIT PERI AZIMU VELO SNR AR TRES W  DIS CAZ7
 GIR2 SZ EP   2   2126  2.79                             169    -0.2 5   25   6 
 BAR2 SZ EP   1   2126  3.08                             167    -0.1 7   29 173 
 BAR2 SZ I        2126  3.97        10.0 0.08                            29 173 
 BAR2 SZ ES   2   2126 18.20                             167     0.2 5   29 173 
 RUS  HZ EP   2   2126  7.27                             140    -0.5 5  107 172 
 RUS  HE ES   1   2126 26.41                             140     0.2 7  107 172 
 RUS  HZ I        2126 28.98         3.9 0.52                           107 172 
 GRA  SZ EP   1   2126  9.36                             136     0.7 7  123  22 
 GRA  SZ ES   1   2126 27.24                             136    -0.5 7  123  22 
 GRA  SZ I        2126 34.23         5.5 0.33                           123  22 
 NOR  SN ES   2   2126 46.57                             117     0.0 4  232 232 
 CHI  HZ EP   1   2126 21.77                             115    -0.1 6  252 193 
 CHI  HZ I        2126 23.31         1.3 0.02                           252 193 
 CHI  HN ES   2   2126 51.22                             115    -0.1 4  252 193 
                                                                                
