 2012  113 2325 24.2 L   6.737 -73.139150.0  RSN  5 0.3 1.7LRSN                1
 GAP=185        0.65       6.7     9.7  7.0  0.3414E+02  0.2084E+02  0.5890E+01E
 Epicentro: JORDAN - SANTANDER                                                 3
 ACTION:UP  12-02-03 08:17 OP:REBC STATUS:               ID:20120113232524 L   I
 2012-01-13-2320-00M.COL___187                                                 6
 STAT SP IPHASW D HRMM SECON CODA AMPLIT PERI AZIMU VELO SNR AR TRES W  DIS CAZ7
 BAR2 SZ EP       2325 44.19                             173     0.010   17 197 
 BAR2 SZ ES   2   2325 59.31                             173    -0.5 5   17 197 
 BAR2 SZ I        2326  2.12        14.1 0.22                            17 197 
 GIR2 SZ EP   2   2325 44.39                             165    -0.2 5   38 351 
 GIR2 SZ ES   2   2326  0.08                             165    -0.4 5   38 351 
 BRR  HZ EP       2325 46.11                             152     0.110   75 303 
 BRR  HE ES   1   2326  3.52                             152     0.5 7   75 303 
 RUS  HZ EP   2   2325 48.01                             147     0.2 5   94 176 
 RUS  HN ES   1   2326  6.57                             147     0.2 7   94 176 
 RUS  HZ I        2326  8.33         4.5 0.56                            94 176 
 PTB  HZ EP       2325 51.12                             133    -0.3 9  147 262 
 PTB  HZ I        2326 19.62         7.1 0.32                           147 262 
                                                                                
