 2011 1213 2255 18.5 L   6.767 -73.111137.7  RSN  5 0.4 1.8LRSN                1
 GAP=239        0.65       7.8     8.9  8.8  0.3000E+02  0.3604E+01  0.1424E+02E
 Epicentro: LOS SANTOS - SANTANDER                                             3
 ACTION:UPD 12-07-13 16:16 OP:ep   STATUS:               ID:20111213225518 L   I
 2011-12-13-2250-00M.COL___185                                                 6
 STAT SP IPHASW D HRMM SECON CODA AMPLIT PERI AZIMU VELO AIN AR TRES W  DIS CAZ7
 BAR2 SZ EP   1   2255 37.01                             171   -0.08 7 20.9 202 
 BAR2 SZ I        2255 37.66         8.7 0.10                          20.9 202 
 BAR2 SZ ES   2   2255 51.21                             171   -0.40 5 20.9 202 
 BRR  HZ EP   1   2255 39.12                             149    0.05 7 76.3 300 
 BRR  HZ I        2255 39.46        18.3 0.12                          76.3 300 
 BRR  HN ES   2   2255 55.75                             149    0.62 5 76.3 300 
 RUS  HZ EP   1   2255 40.81                             143   -0.35 7 96.8 178 
 RUS  HN ES   2   2255 59.40                             143    0.55 5 96.8 178 
 PTB  HN ES   2   2256  5.20                             129   -0.65 5  151 260 
 CTAU SZ EP   1   2255 51.18                             121    0.38 6  201 211 
                                                                                
