 2013  513 2016 11.4 L   6.184 -73.722104.0  RSN  4 0.3 1.2LRSN                1
 GAP=179        0.52       5.6     2.8  7.1  0.4841E+01  0.6512E+01  0.1001E+02E
 Epicentro: LANDAZURI - SANTANDER                                              3
 ACTION:UPD 13-06-20 09:50 OP:ep   STATUS:               ID:20130513201611 L   I
 2013-05-13-2010-00M.COL___256                                                 6
 STAT SP IPHASW D HRMM SECON CODA AMPLIT PERI AZIMU VELO AIN AR TRES W  DIS CAZ7
 RUS  HZ EP       2016 29.39                             141   -0.0310 77.7 114 
 RUS  HZ I        2016 29.74         3.9 0.12            145           77.7 114 
 RUS  HN ES   1   2016 43.59                             141    0.12 7 77.7 114 
 PTB  HZ EP   1   2016 29.61                             136   -0.16 7 90.2 296 
 PTB  HN ES   1   2016 44.15                             136    0.05 7 90.2 296 
 PTB  HZ I        2016 46.67         3.5 0.18            137           90.2 296 
 NOR  HZ EP       2016 34.82                             121   -0.22 9  144 242 
 NOR  HN ES   1   2016 53.58                             121    0.11 7  144 242 
 NOR  HZ I        2016 54.58         4.1 0.12            124            144 242 
 HEL  HZ EP   2   2016 42.40                             112    0.89 4  200 270 
                                                                                
