 2016  713 2229 49.4 L   6.832 -73.294130.8  RSN  7 0.4 1.7LRSN                1
 GAP=106        1.15       4.5     5.0  7.6  0.1089E+01  0.1334E+02  0.1971E+01E
 Epicentro: ZAPATOCA - SANTANDER                                               3
 ACTION:UPD 17-03-29 16:50 OP:lp   STATUS:               ID:20160713222949 L   I
 OLDACT:DUP 16-07-14 03:47 OP:drio STATUS:               ID:20160713222760d    3
 2016-07-13-2227-59S.COL___334                                                 6
 STAT SP IPHASW D HRMM SECON CODA AMPLIT PERI AZIMU VELO AIN AR TRES W  DIS CAZ7
 BAR2 EZ EP       2230  7.82                             167    0.4010 29.3 155 
 BAR2 EZ ES       2230 21.51                             167    0.0610 29.3 155 
 BAR2 EZ I        2230 22.17        19.0 0.16            174           29.3 155 
 BRR  HZ EP       2230  8.26                             156    0.1610 55.3 303 
 BRR  HN ES       2230 22.36                             156   -0.2910 55.3 303 
 BRR  HZ I        2230 39.28        12.5 0.38            153           55.3 303 
 PAM  EZ EP       2230 10.94                             145    0.2410 86.4  49 
 PAM  EE ES       2230 26.81                             145   -0.4710 86.4  49 
 PAM  EZ I        2230 29.53         6.8 0.28            152           86.4  49 
 RUS  HZ EP       2230 12.61                             139    0.3910  106 167 
 RUS  HE ES       2230 30.20                             139    0.2210  106 167 
 RUS  HZ I        2230 31.42         3.7 0.28            149            106 167 
 PTB  HZ EP       2230 13.12                             132   -0.6810  132 256 
 PTB  HN ES   4   2230 31.23                             132   -1.58 0  132 256 
 PTB  HZ I        2230 35.22         7.6 0.50            135            132 256 
 SPBC HZ EP       2230 15.14                             127   -1.02 9  156 213 
 SPBC HN ES       2230 37.13                             127    0.13 9  156 213 
 SPBC HZ I        2230 38.81         9.9 0.36            134            156 213 
 ZAR  HZ EP       2230 19.58                             121    0.37 9  188 293 
 ZAR  HE ES       2230 42.94                             121    0.51 9  188 293 
 ZAR  HZ I        2230 47.33         8.1 0.46            125            188 293 
                                                                                
