 2010  913 2111 38.0 L   6.790 -73.031137.0  RSN  8 0.3 2.2LRSN                1
 GAP=248        0.62       4.2     6.6  5.1  0.1170E+02  0.1296E+02  0.5767E+01E
 Epicentro: CEPITA - SANTANDER                                                 3
 ACTION:UP  11-02-18 11:02 OP:tino STATUS:               ID:20100913211138 L   I
 2010-09-13-2109-45S.COL___113                                                 6
 STAT SP IPHASW D HRMM SECON CODA AMPLIT PERI AZIMU VELO SNR AR TRES W  DIS CAZ7
 BAR2 SZ EP       2111 56.89                             168     0.210   28 218 
 BAR2 SZ ES   1   2112 11.01                             168    -0.3 7   28 218 
 BAR2 SZ I        2112 12.52        57.1 0.27                            28 218 
 BRR  HZ IP     C 2111 58.81                             147    -0.210   83 295 
 BRR  HE ES   1   2112 15.45                             147     0.1 7   83 295 
 BRR  HZ I        2112 16.89        29.2 0.10                            83 295 
 RUS  HZ EP       2112  0.89                             142     0.010   99 183 
 RUS  HN ES   1   2112 18.81                             142     0.2 7   99 183 
 RUS  HZ I        2112 21.53        17.1 0.38                            99 183 
 CHI  HZ EP   1   2112 15.44                             115    -0.1 6  251 198 
 CHI  HN ES   1   2112 44.32                             115    -0.5 6  251 198 
 CHI  HZ I        2112 53.79         3.6 0.64                           251 198 
 HEL  HZ EP       2112 19.36                             112     0.2 7  284 257 
 HEL  HZ I        2112 55.92         8.4 0.26                           284 257 
 GUY  SN ES   2   2112 57.33                             110     0.3 3  311 236 
 GUY  SZ I        2113  1.06        17.2 0.35                           311 236 
 RREF HZ EP   1   2112 25.27                             108     0.4 5  331 231 
 RREF HZ I        2113  6.16         4.7 0.46                           331 231 
 DBB  SZ EP   1   2112 26.11                             107    -0.5 5  352 274 
                                                                                
