 2012  513 2132  1.0 L   6.560 -73.433120.0  RSN  8 0.4 1.8LRSN                1
 GAP=108        0.95       4.5     4.4  8.0  0.2000E+01  0.1019E+02 -0.1174E+01E
 Epicentro: HATO - SANTANDER                                                   3
 ACTION:UP  12-07-05 12:04 OP:pat  STATUS:               ID:20120513213201 L   I
 2012-05-13-2130-00M.COL___195                                                 6
 STAT SP IPHASW D HRMM SECON CODA AMPLIT PERI AZIMU VELO SNR AR TRES W  DIS CAZ7
 BAR2 SZ EP       2132 17.68                             166     0.110   28  83 
 BAR2 SZ ES   1   2132 30.47                             166    -0.1 7   28  83 
 BAR2 SZ I        2132 32.28        33.0 0.14                            28  83 
 BRR  HZ EP       2132 19.14                             148     0.010   68 333 
 BRR  HN ES   1   2132 33.40                             148     0.0 7   68 333 
 BRR  HZ I        2132 35.31        25.4 0.14                            68 333 
 RUS  HZ EP       2132 20.95                             143     0.010   83 152 
 RUS  HN ES   1   2132 36.85                             143     0.3 7   83 152 
 RUS  HZ I        2132 39.09         9.1 0.40                            83 152 
 PTB  HZ EP   1   2132 21.54                             134    -1.1 7  113 269 
 PTB  HN ES   1   2132 39.56                             134    -0.1 7  113 269 
 PTB  HZ I        2132 41.59         5.8 0.09                           113 269 
 PAM  SZ EP   1   2132 23.50                             133    -0.3 7  118  43 
 PAM  SN ES   1   2132 41.66                             133     0.1 7  118  43 
 OCA  HN ES   1   2132 52.92                             119     0.1 7  186   4 
 OCA  HZ I        2132 59.22        16.7 0.27                           186   4 
 ZAR  HZ EP   1   2132 30.62                             118     0.5 7  188 303 
 ZAR  HE ES   1   2132 53.17                             118     0.3 7  188 303 
 ZAR  HZ I        2132 56.05         9.5 0.31                           188 303 
 HEL  HZ EP   1   2132 36.45                             112     0.6 6  235 260 
 HEL  HZ I        2133 11.28         3.2 0.16                           235 260 
                                                                                
