 2017  113 2235 27.1 L   6.722 -73.165134.6  RSN  4 0.3 1.4LRSN                1
 GAP=137        0.83       4.2     3.9  9.3 -0.8469E+00  0.1302E+02 -0.3110E+01E
 Epicentro: VILLANUEVA - SANTANDER                                             3
 ACTION:UPD 17-05-22 15:59 OP:jn   STATUS:               ID:20170113223527 L   I
 OLDACT:DUP 17-01-14 05:54 OP:lv   STATUS:               ID:20170113222750d    3
 2017-01-13-2228-00M.COL___331                                                 6
 STAT SP IPHASW D HRMM SECON CODA AMPLIT PERI AZIMU VELO AIN AR TRES W  DIS CAZ7
 PAM  EZ EP       2235 48.54                             146   -0.1410 85.5  37 
 PAM  EN ES       2236  5.46                             146   -0.0410 85.5  37 
 RUS  HZ EP       2235 49.57                             144    0.4210 92.1 174 
 RUS  HN ES       2236  6.35                             144    0.0110 92.1 174 
 RUS  HZ I        2236  9.63         2.4 0.34            147           92.1 174 
 PTB  HZ EP       2235 52.39                             130   -0.46 9  144 262 
 PTB  HN ES       2236 12.66                             130   -0.27 9  144 262 
 PTB  HZ I        2236 16.18         3.8 0.10            131            144 262 
 ZAR  HE ES       2236 24.42                             120    0.54 8  206 295 
 ZAR  HZ I        2236 31.96         3.2 0.25            121            206 295 
                                                                                
