 2016 1213 2232 11.4 L   6.789 -73.137143.7  RSN 10 0.4 1.9LRSN                1
 GAP=138        0.97       3.5     3.8  5.6 -0.4163E+00  0.6351E+01  0.4889E+01E
 Epicentro: LOS SANTOS - SANTANDER                                             3
 ACTION:UPD 17-01-11 20:14 OP:rebc STATUS:               ID:20161213223211 L   I
 OLDACT:REG 16-12-14 02:50 OP:lv   STATUS:               ID:20161213222750     3
 2016-12-13-2228-00M.COL___380                                                 6
 STAT SP IPHASW D HRMM SECON CODA AMPLIT PERI AZIMU VELO AIN AR TRES W  DIS CAZ7
 BAR2 EZ EP       2232 30.71                             171   -0.0210 22.3 193 
 BAR2 EZ ES       2232 45.64                             171   -0.1910 22.3 193 
 BAR2 EZ I        2232 47.11        24.0 0.20            169           22.3 193 
 BRR  HZ EP       2232 32.60                             152    0.2310 72.6 299 
 BRR  HN ES       2232 49.44                             152    0.6810 72.6 299 
 BRR  HZ I        2232 52.33        18.0 0.40            151           72.6 299 
 PAM  EZ IP     C 2232 33.63                             150    0.2510 77.7  38 
 PAM  EE ES       2232 50.54                             150   -0.0110 77.7  38 
 PAM  EZ I        2232 52.30         9.1 0.18            154           77.7  38 
 RUS  HZ EP       2232 34.70                             144   -0.1210 99.3 177 
 RUS  HE ES       2232 52.80                             144   -0.3110 99.3 177 
 RUS  HZ I        2232 54.76         6.9 0.20            144           99.3 177 
 PTB  HZ EP       2232 37.51                             131   -0.72 9  148 259 
 PTB  HN ES       2232 58.53                             131   -0.65 9  148 259 
 PTB  HZ I        2233  1.97         9.7 0.18            131            148 259 
 ZAR  HZ EP       2232 43.62                             122   -0.19 8  205 292 
 ZAR  HE ES       2233  8.88                             122   -0.25 8  205 292 
 ZAR  HZ I        2233 15.14         8.7 0.24            123            205 292 
 NOR  HZ EP       2232 47.26                             118    0.28 8  235 235 
 NOR  HN ES       2233 15.67                             118    0.91 8  235 235 
 NOR  HZ I        2233 17.14         7.7 0.22            119            235 235 
 CHI  HZ EP       2232 48.91                             117    0.07 8  248 195 
 CHI  HE ES       2233 18.32                             117    0.24 8  248 195 
 CHI  HZ I        2233 26.28         3.4 0.39            118            248 195 
 GUY2CHZ EP   4   2232 56.26                             112    1.37 0  301 235 
 GUY2CHN ES       2233 28.85                             112    0.02 7  301 235 
 GUY2CHZ I        2233 37.46         3.8 0.28                           301 235 
 PRA  HZ EP       2233  4.83                             106    0.09 6  391 210 
 PRA  HN ES   4   2233 48.01                             106    1.63 0  391 210 
 PRA  HZ I        2233 51.29         4.4 0.38            107            391 210 
 SJC  HZ EP   4   2233  5.07                             105   -1.97 0  411 327 
 SJC  HN ES   4   2233 46.30                             105   -4.17 0  411 327 
                                                                                
