 2012  313 2346 32.7 L   6.714 -73.244150.0  RSN  4 0.1 1.3LRSN                1
 GAP=219        0.37       4.0     3.7  4.5  0.8188E+01 -0.1397E+01 -0.1029E+01E
 ACTION:UP  12-03-31 23:19 OP:EP   STATUS:               ID:20120313234632 L   I
 2012-03-13-2340-00M.COL___199                                                 6
 STAT SP IPHASW D HRMM SECON CODA AMPLIT PERI AZIMU VELO SNR AR TRES W  DIS CAZ7
 BRR  HZ EP       2346 54.00                             154    -0.110   68 310 
 BRR  HE ES   1   2347 10.86                             154     0.1 7   68 310 
 RUS  HZ EP   1   2346 56.32                             147     0.0 7   93 169 
 RUS  HN ES   2   2347 14.78                             147     0.1 5   93 169 
 RUS  HZ I        2347 16.49         2.5 0.31                            93 169 
 PTB  HZ EP   1   2346 58.77                             136    -0.1 7  135 262 
 PTB  HZ I        2347  1.58         2.0 0.21                           135 262 
 PTB  HE ES   1   2347 19.41                             136     0.0 7  135 262 
 ZAR  HZ EP   1   2347  5.07                             124     0.3 6  198 296 
 ZAR  HN ES   1   2347 29.75                             124    -0.1 6  198 296 
 ZAR  HZ I        2347 37.36         3.1 0.22                           198 296 
                                                                                
