 2016  913 2259 33.0 L   6.164 -73.544122.8  RSN  5 0.7 1.3LRSN                1
 GAP=108        1.98      12.9     9.2 17.9 -0.3331E+02  0.7705E+02 -0.2451E+02E
 Epicentro: AGUADA - SANTANDER                                                 3
 ACTION:UPD 17-08-17 21:09 OP:lp   STATUS:               ID:20160913225928 L   I
 OLDACT:UP  17-01-28 18:16 OP:nlst STATUS:               ID:20160913225928 L   3
 OLDACT:REG 16-09-14 06:06 OP:dani STATUS:               ID:20160913225735     3
 2016-09-13-2258-00M.COL___318                                                 6
 STAT SP IPHASW D HRMM SECON CODA AMPLIT PERI AZIMU VELO AIN AR TRES W  DIS CAZ7
 RUS  HN ES       23 0  5.98                             152   -0.3010 59.2 120 
 RUS  HZ I        23 0  8.70         1.7 0.52            153           59.2 120 
 BAR2 EZ EP       2259 51.71                             150    0.2310 62.0  40 
 BAR2 EZ ES       23 0  6.19                             150    0.2910 62.0  40 
 BAR2 EZ I        23 0  7.78        11.4 0.30            151           62.0  40 
 PTB  HZ EP       2259 53.18                             134   -1.4210  109 292 
 PTB  HE ES       23 0 11.57                             134    0.1010  109 292 
 PTB  HZ I        23 0 12.31         3.5 0.18            137            109 292 
 NOR  HZ EP       23 0  0.57                             122    1.01 9  161 246 
 NOR  HN ES       23 0 20.58                             122    0.28 9  161 246 
 ROSC BZ EP   9   2259 56.28                             121   -4.62 0  170 210 
 ROSC BN ES       23 0 16.68                                   -1.38 9  170 210 
                                                                                
