 2013  313 2341 41.5 L   6.793 -73.141142.2  RSN  9 0.5 2.2LRSN                1
 GAP=137        1.07       4.3     4.9  6.4 -0.1424E+01  0.2837E+01  0.5185E+01E
 Epicentro: LOS SANTOS - SANTANDER                                             3
 ACTION:UPD 13-04-09 14:02 OP:ep   STATUS:               ID:20130313234141 L   I
 2013-03-13-2338-49M.COL___207                                                 6
 STAT SP IPHASW D HRMM SECON CODA AMPLIT PERI AZIMU VELO AIN AR TRES W  DIS CAZ7
 BAR2 SZ EP       2342  0.59                             170   -0.1010 22.7 192 
 BAR2 SZ ES       2342 15.97                             170    0.3110 22.7 192 
 BAR2 SZ I        2342 16.97        28.8 0.54            168           22.7 192 
 BRR  HZ EP       2342  2.35                             152    0.0410 72.0 299 
 BRR  HN ES       2342 19.22                             152    0.6810 72.0 299 
 BRR  HN I        2342 19.69        71.2 0.30            151           72.0 299 
 PAM  SZ EP       2342  3.32                             150   -0.0410 77.6  39 
 PAM  SZ I        2342  3.64        29.7 0.20            153           77.6  39 
 PAM  SN ES       2342 20.25                             150   -0.1510 77.6  39 
 RUS  HZ EP       2342  4.71                             143   -0.1410 99.8 176 
 RUS  HN ES       2342 22.58                             143   -0.4810 99.8 176 
 RUS  HE I        2342 24.40        14.0 0.20            142           99.8 176 
 PTB  HZ EP   2   2342  7.40                             131   -0.81 5  148 259 
 PTB  HN ES   2   2342 27.98                             131   -1.07 5  148 259 
 PTB  HE I        2342 30.84        13.1 0.30            130            148 259 
 CAPV BZ EP       2342  8.38                             131   -0.26 9  150  38 
 ZAR  HE ES       2342 38.63                             121   -0.35 9  205 292 
 CHI  HZ EP       2342 20.17                             116    1.23 8  248 195 
 PRA  HZ EP       2342 34.77                             106   -0.09 6  392 210 
 PRA  HN ES       2343 16.53                             106    0.06 6  392 210 
 PRA  HE I        2343 23.54         6.0 0.28            106            392 210 
                                                                                
