 2017  513 2341 18.0 L   6.601 -74.177 25.0  RSN  6 0.5 1.6LRSN                1
 GAP=130        1.26       3.9     2.7  4.9 -0.2252E+01 -0.3785E+01 -0.1231E+00E
 Epicentro: PUERTO PARRA - SANTANDER                                           3
 ACTION:UPD 17-06-16 13:36 OP:jn   STATUS:               ID:20170513234118 L   I
 OLDACT:REG 17-05-14 06:30 OP:ar   STATUS:               ID:20170513233735     3
 2017-05-13-2338-00M.COL___358                                                 6
 STAT SP IPHASW D HRMM SECON CODA AMPLIT PERI AZIMU VELO AIN AR TRES W  DIS CAZ7
 PTB  HZ IP     C 2341 24.38                             122   -0.0610 31.7 258 
 PTB  HN ES       2341 29.79                             122    0.3010 31.7 258 
 PTB  HZ I        2341 30.18        79.4 0.36            124           31.7 258 
 BRR  HZ EP       2341 29.91                              91   -0.6010 75.9  43 
 BRR  HN ES       2341 39.88                              91   -0.4110 75.9  43 
 BRR  HZ I        2341 40.48        15.3 0.10            105           75.9  43 
 ZAR  HZ EP       2341 36.90                              61   -0.0410  124 323 
 ZAR  HE ES       2341 51.53                              61   -0.2110  124 323 
 ZAR  HZ I        2341 52.86         6.5 0.38             56            124 323 
 RUS  HZ EP       2341 40.03                              61   -0.01 9  144 123 
 RUS  HN ES       2341 56.65                              61   -0.61 9  144 123 
 RUS  HZ I        2341 58.47         8.8 0.36             56            144 123 
 HEL  HZ EP       2341 41.76                              61    0.35 9  156 253 
 HEL  HN ES       2341 59.40                              61   -0.30 9  156 253 
 HEL  HZ I        2342  0.58         7.1 0.20             56            156 253 
 PAM  EZ EP       2341 45.80                              61    0.97 9  183  63 
 PAM  EN ES       2342  6.75                              61    0.97 9  183  63 
 PAM  EZ I        2342  7.38         8.7 0.60             56            183  63 
                                                                                
