 2012  313 2319 20.8 L   6.705 -73.173150.0  RSN  6 0.3 2.0LRSN                1
 GAP=227        0.95       6.8     6.4  8.1  0.1584E+02  0.1126E+02  0.1201E+02E
 ACTION:UP  12-03-31 23:19 OP:EP   STATUS:               ID:20120313231920 L   I
 2012-03-13-2314-48M.COL___178                                                 6
 STAT SP IPHASW D HRMM SECON CODA AMPLIT PERI AZIMU VELO SNR AR TRES W  DIS CAZ7
 BAR2 SZ EP       2319 40.71                             175    -0.110   12 185 
 BAR2 SZ ES   1   2319 56.13                             175    -0.3 7   12 185 
 BAR2 SZ I        2319 57.65        17.8 0.18                            12 185 
 BRR  HZ EP       2319 42.42                             152    -0.210   74 307 
 BRR  HZ I        2319 42.83        27.7 0.13                            74 307 
 BRR  HN ES       2320  0.18                             152     0.610   74 307 
 RUS  HZ EP       2319 44.72                             148     0.410   90 174 
 RUS  HE ES   1   2320  2.26                             148    -0.4 7   90 174 
 RUS  HZ I        2320  4.59         8.9 0.56                            90 174 
 PTB  HZ EP       2319 47.38                             134    -0.4 9  143 263 
 PTB  HN ES   1   2320  8.52                             134    -0.2 7  143 263 
 PTB  HZ I        2320 10.93         6.7 0.22                           143 263 
 ZAR  HE ES   1   2320 18.99                             123    -0.4 6  206 295 
 ZAR  HZ I        2320 24.22        13.6 0.99                           206 295 
 NOR  SZ EP   1   2319 56.28                             120     0.4 6  226 236 
 NOR  SN ES   1   2320 23.65                             120     0.4 6  226 236 
                                                                                
