 2013  813 2256 20.3 L   6.816 -73.150143.5  RSN 14 0.5 2.3LRSN                1
 GAP=135        0.94       2.7     4.4  5.1 -0.2602E+01  0.7462E+01 -0.2999E+00E
 Epicentro: LOS SANTOS - SANTANDER                                             3
 ACTION:UPD 14-01-14 09:02 OP:ep   STATUS:               ID:20130813225620 L   I
 OLDACT:REG 13-08-13 22:20 OP:carl STATUS:               ID:20130813224959     3
 2013-08-13-2249-59M.COL___270                                                 6
 STAT SP IPHASW D HRMM SECON CODA AMPLIT PERI AZIMU VELO AIN AR TRES W  DIS CAZ7
 BAR2 SZ EP   1   2256 39.42                             170   -0.24 7 25.0 188 
 BAR2 SZ ES   1   2256 54.92                             170    0.13 7 25.0 188 
 BAR2 SZ I        2256 57.49        38.1 0.28            170           25.0 188 
 GIR2 SZ EP       2256 39.86                             168    0.2410 29.4 351 
 GIR2 SZ ES   1   2256 53.88                             168   -0.83 7 29.4 351 
 GIR2 SZ I        2256 55.96        15.9 0.32            167           29.4 351 
 BRR  HZ EP   1   2256 41.60                             153    0.51 7 69.9 297 
 BRR  HN ES   1   2256 58.61                             153    1.27 7 69.9 297 
 BRR  HN I        2256 59.23       128.9 0.46            151           69.9 297 
 PAM  SZ IP     C 2256 42.52                             151    0.3510 76.3  41 
 PAM  SN ES   1   2256 59.46                             151    0.19 7 76.3  41 
 PAM  SZ I        2257  2.93        21.5 0.48            152           76.3  41 
 RUS  HZ EP   1   2256 43.76                             143   -0.17 7  102 176 
 RUS  HN ES       2257  2.25                             143   -0.1410  102 176 
 RUS  HZ I        2257  3.73        16.7 0.30            144            102 176 
 PTB  HZ EP       2256 46.46                             132   -0.57 9  148 258 
 PTB  HN ES   1   2257  6.90                             132   -1.02 7  148 258 
 PTB  HZ I        2257 10.09        17.1 0.12            131            148 258 
 SPBC HZ EP   1   2256 48.78                             128    0.09 7  164 218 
 SPBC HN ES   1   2257 11.05                             128    0.18 7  164 218 
 SPBC HZ I        2257 15.02        24.7 0.42            128            164 218 
 ZAR  HZ EP   1   2256 53.00                             122    0.56 6  203 292 
 ZAR  HN ES   1   2257 17.55                             122    0.00 6  203 292 
 ZAR  HZ I        2257 22.94        23.7 0.28            122            203 292 
 SML  HZ EP       2256 56.11                             117   -0.45 8  242 335 
 SML  HN ES   1   2257 24.24                             117   -0.63 6  242 335 
 SML  HZ I        2257 26.75        22.1 0.30            117            242 335 
 CHI  HZ EP   1   2256 57.93                             116   -0.08 6  250 195 
 CHI  HN ES   1   2257 26.97                             116   -0.49 6  250 195 
 CHI  HZ I        2257 32.58        11.3 0.32            117            250 195 
 GUY2CHZ EP       2257  3.99                             112    0.15 7  302 234 
 GUY2CHE ES       2257 38.13                             112    0.30 7  302 234 
 GUY2CHZ I        2257 45.98        11.1 0.36                           302 234 
 COD  HZ EP   1   2257  7.77                             109   -0.57 5  346 355 
 COD  HN ES       2257 46.20                             109    0.37 6  346 355 
 COD  HZ I        2257 56.44         4.0 0.68            109            346 355 
 PRA  HZ EP       2257 13.88                             106    0.02 6  393 209 
 PRA  HN ES   1   2257 55.57                             106   -0.10 4  393 209 
 PRA  HZ I        2258  2.24        12.6 0.28            106            393 209 
 ORTC HZ EP   1   2257 14.77                             106    0.53 4  397 216 
 ORTC HN ES       2257 56.58                             106    0.23 6  397 216 
 ORTC HZ I        2258  2.94         5.0 0.26            106            397 216 
                                                                                
