 2016 1113 2239 17.7 L   6.793 -73.168142.0  RSN  7 0.4 1.9LRSN                1
 GAP=143        0.80       3.7     3.5  5.4 -0.2470E+01  0.5368E+01  0.4064E+01E
 Epicentro: LOS SANTOS - SANTANDER                                             3
 ACTION:UPD 17-10-26 21:07 OP:lp   STATUS:               ID:20161113223917 L   I
 OLDACT:REG 16-11-14 03:23 OP:cog  STATUS:               ID:20161113223744     3
 2016-11-13-2238-00M.COL___343                                                 6
 STAT SP IPHASW D HRMM SECON CODA AMPLIT PERI AZIMU VELO AIN AR TRES W  DIS CAZ7
 BAR2 EZ EP       2239 36.75                             171   -0.1110 22.3 184 
 BAR2 EZ ES       2239 51.69                             171   -0.1110 22.3 184 
 BAR2 EZ I        2239 52.73        19.5 0.22            171           22.3 184 
 BRR  HZ EP       2239 38.50                             153    0.1610 69.4 300 
 BRR  HN ES       2239 54.88                             153    0.4410 69.4 300 
 PAM  EZ EP       2239 39.59                             150   -0.0610 79.5  41 
 PAM  EE ES       2239 56.82                             150    0.0510 79.5  41 
 PAM  EZ I        2239 59.04        14.0 0.40            152           79.5  41 
 PTB  HZ EP       2239 43.51                             132   -0.62 9  145 259 
 PTB  HN ES       2240  4.35                             132   -0.39 9  145 259 
 PTB  HZ I        2240  9.85         8.1 0.19            131            145 259 
 ZAR  HZ EP       2239 49.96                             122    0.26 9  202 293 
 ZAR  HE ES       2240 14.67                             122    0.02 9  202 293 
 ZAR  HZ I        2240 21.54         9.7 0.32            122            202 293 
 NOR  HZ EP       2239 52.58                             118   -0.37 8  232 234 
 NOR  HE ES       2240 20.93                             118    0.48 8  232 234 
 NOR  HZ I        2240 24.95         5.9 0.16            119            232 234 
 CHI  HZ EP   3   2239 56.72                             117    1.67 2  247 195 
 CHI  HN ES       2240 24.48                             117    0.30 8  247 195 
                                                                                
