 2015 1213 2339 22.8 L   6.826 -73.151145.8  RSN  9 0.5 1.8LRSN                1
 GAP=135        1.08       3.8     4.3  6.5 -0.1823E+01  0.9225E+01 -0.9454E+00E
 Epicentro: LOS SANTOS - SANTANDER                                             3
 ACTION:UPD 16-02-04 15:04 OP:cam  STATUS:               ID:20151213233922 L   I
 OLDACT:REG 15-12-14 05:20 OP:ak   STATUS:               ID:20151213233748     3
 2015-12-13-2337-48M.COL___342                                                 6
 STAT SP IPHASW D HRMM SECON CODA AMPLIT PERI AZIMU VELO AIN AR TRES W  DIS CAZ7
 BAR2 EZ EP       2339 42.53                             169    0.0010 26.1 188 
 BAR2 EZ ES       2339 57.56                             169   -0.3310 26.1 188 
 BAR2 EZ I        2339 60.00        17.5 0.26            170           26.1 188 
 BRR  HZ EP       2339 44.41                             153    0.5310 69.3 297 
 BRR  HE ES       2340  0.92                             153    0.6210 69.3 297 
 BRR  HZ I        2340  2.29         7.0 0.14            153           69.3 297 
 PAM  EZ EP       2339 45.31                             151    0.3710 75.6  41 
 PAM  EN ES       2340  2.24                             151    0.0510 75.6  41 
 PAM  EZ I        2340  4.54        10.4 0.50            153           75.6  41 
 RUS  HZ EP       2339 46.66                             143   -0.1410  104 176 
 RUS  HN ES       2340  5.42                             143   -0.0810  104 176 
 RUS  HZ I        2340  6.16         8.2 0.22            145            104 176 
 PTB  HZ EP       2339 49.25                             132   -0.55 9  148 258 
 PTB  HN ES       2340 10.16                             132   -0.68 9  148 258 
 PTB  HZ I        2340 12.65         5.0 0.06            133            148 258 
 ZAR  HN ES       2340 20.18                             123   -0.11 9  202 291 
 NOR  HZ EP       2339 58.30                             118   -0.39 8  236 234 
 NOR  HE ES       2340 26.60                             118   -0.06 8  236 234 
 NOR  HZ I        2340 31.36         4.7 0.28            120            236 234 
 SML  HZ EP       2339 59.00                             118   -0.15 8  241 335 
 SML  HN ES       2340 27.12                             118   -0.35 8  241 335 
 SML  HZ I        2340 30.55         7.6 0.12            119            241 335 
 GUY2CHZ EP   2   2340  7.52                             112    0.94 4  302 234 
 GUY2CHE ES       2340 41.92                             112    1.22 7  302 234 
 GUY2CHZ I        2340 50.81         2.7 0.52                           302 234 
                                                                                
