 2011 1113 2112 42.6 L   6.760 -73.114139.6  RSN  5 0.3 1.6LRSN                1
 GAP=142        0.59       3.7     5.3  5.8  0.3118E+00 -0.1415E+01  0.5929E-01E
 Epicentro: LOS SANTOS - SANTANDER                                             3
 ACTION:UPD 12-07-13 16:10 OP:ep   STATUS:               ID:20111113211242 L   I
 2011-11-13-2109-37S.COL___178                                                 6
 STAT SP IPHASW D HRMM SECON CODA AMPLIT PERI AZIMU VELO AIN AR TRES W  DIS CAZ7
 BAR2 SZ ES   1   2113 15.69                             171   -0.44 7 20.1 202 
 BAR2 SZ I        2113 17.27        11.5 0.26                          20.1 202 
 BRR  HZ IP     D 2113  3.19                             150   -0.2310 76.4 300 
 BRR  HZ I        2113  3.59        11.3 0.12                          76.4 300 
 BRR  HN ES   1   2113 20.11                             150    0.47 7 76.4 300 
 PAM  SZ EP       2113  4.33                             149    0.0610 78.7  36 
 PAM  SN ES   1   2113 21.16                             149    0.01 7 78.7  36 
 RUS  HZ EP       2113  5.58                             144    0.1410 96.0 178 
 RUS  HE ES   1   2113 23.30                             144    0.07 7 96.0 178 
 RUS  HZ I        2113 24.35         3.8 0.26                          96.0 178 
 ZAR  HN ES   3   2113 39.79                             120   -0.81 2  209 293 
                                                                                
