 2010  713 2310 51.1 L   6.825 -73.015149.4  RSN  5 0.3 1.6LRSN                1
 GAP=173        0.65       5.5     9.0  9.8  0.4985E+01 -0.4420E+02 -0.6487E+01E
 Epicentro: CEPITA - SANTANDER                                                 3
 ACTION:UPD 10-12-01 15:17 OP:pat  STATUS:               ID:20100713231051 L   I
 2010-07-13-2308-21S.COL___120                                                 6
 STAT SP IPHASW D HRMM SECON CODA AMPLIT PERI AZIMU VELO AIN AR TRES W  DIS CAZ7
 BAR2 SZ EP   2   2311 11.25                             167    -0.1 5   32 216 
 BAR2 SZ ES   2   2311 27.25                             167     0.1 5   32 216 
 BAR2 SZ I        2311 27.93         8.3 0.23                            32 216 
 BRR  HZ EP   1   2311 13.20                             149    -0.2 7   83 292 
 BRR  HZ I        2311 13.62        13.7 0.14                            83 292 
 BRR  HE ES       2311 30.79                             149     0.110   83 292 
 RUS  HZ EP   2   2311 15.66                             144     0.2 5  103 184 
 RUS  HE ES   2   2311 34.28                             144    -0.1 5  103 184 
 RUS  HZ I        2311 34.61         3.8 0.41                           103 184 
 GUE  SZ EP   2   2311 15.24                             141    -0.6 5  112   5 
 GUE  SZ I        2311 15.85         2.6 0.14                           112   5 
 GRA  SZ EP   2   2311 17.08                             139     0.9 5  120  11 
 GRA  SZ ES   2   2311 35.56                             139    -0.2 5  120  11 
 GRA  SZ I        2311 39.81         6.6 0.37                           120  11 
                                                                                
