 2012  513 2352 29.4 L   6.802 -73.170144.0  RSN  7 0.5 1.6LRSN                1
 GAP=133        1.10       5.7     6.4  9.9 -0.1146E+01  0.1089E+02 -0.8251E+01E
 Epicentro: LOS SANTOS - SANTANDER                                             3
 ACTION:UP  12-07-05 12:04 OP:pat  STATUS:               ID:20120513235229 L   I
 2012-05-13-2350-00M.COL___195                                                 6
 STAT SP IPHASW D HRMM SECON CODA AMPLIT PERI AZIMU VELO SNR AR TRES W  DIS CAZ7
 BAR2 SZ ES   1   2353  3.49                             170    -0.4 7   23 183 
 BAR2 SZ I        2353  4.67         9.5 0.27                            23 183 
 BRR  HZ EP       2352 50.49                             153     0.310   69 299 
 BRR  HN ES   1   2353  7.08                             153     0.6 7   69 299 
 BRR  HZ I        2353  8.50         7.9 0.14                            69 299 
 PAM  SZ EP   1   2352 51.64                             150     0.1 7   79  41 
 PAM  SN ES   1   2353  8.64                             150    -0.1 7   79  41 
 RUS  HZ EP   1   2352 52.86                             143    -0.1 7  101 175 
 RUS  HN ES   1   2353 11.84                             143     0.4 7  101 175 
 RUS  HZ I        2353 13.13         3.7 0.39                           101 175 
 PTB  HZ EP   1   2352 55.54                             132    -0.4 7  145 259 
 PTB  HN ES   1   2353 15.84                             132    -0.9 7  145 259 
 PTB  HZ I        2353 19.34         3.9 0.16                           145 259 
 OCA  HZ EP   1   2352 57.57                             129     0.1 7  160 354 
 OCA  HN ES   1   2353 18.87                             129    -0.6 7  160 354 
 OCA  HZ I        2353 22.79         8.9 0.29                           160 354 
 ZAR  HN ES   1   2353 27.07                             122     0.6 6  201 292 
 ZAR  HZ I        2353 34.53         6.9 0.12                           201 292 
                                                                                
