 2015  113 2353  5.9 L   6.538 -73.591112.8  RSN 12 0.4 1.7LRSN                1
 GAP= 73        1.06       2.7     3.7  7.5 -0.1023E+01  0.9805E+01 -0.4927E+01E
 Epicentro: EL CARMEN - SANTANDER                                              3
 ACTION:UPD 15-03-02 15:39 OP:nd   STATUS:               ID:20150113235305 L   I
 OLDACT:UP  15-01-14 06:42 OP:nlst STATUS:               ID:20150113235305 L   3
 OLDACT:DUP 15-01-14 06:34 OP:fm   STATUS:               ID:20150113234748d    3
 OLDACT:REG 15-01-14 04:16 OP:fm   STATUS:               ID:20150113234747     3
 2015-01-13-2347-47M.COL___253                                                 6
 STAT SP IPHASW D HRMM SECON CODA AMPLIT PERI AZIMU VELO AIN AR TRES W  DIS CAZ7
 BAR2 EZ EP       2353 22.74                             157    0.3110 45.5  82 
 BAR2 EZ ES   1   2353 35.63                             157    0.32 7 45.5  82 
 BAR2 EZ I        2353 36.85        31.5 0.40            161           45.5  82 
 BRR  HZ EP       2353 23.52                             148    0.3710 64.3 348 
 BRR  HE ES       2353 36.98                             148    0.3910 64.3 348 
 BRR  HZ I        2353 40.98         7.6 0.44            149           64.3 348 
 RUS  HE ES       2353 40.57                             139   -0.7010 90.8 142 
 PTB  HZ EP       2353 25.55                             136    0.0310 95.7 270 
 PTB  HE ES       2353 40.57                             136   -0.2510 95.7 270 
 PTB  HZ I        2353 43.98         6.7 0.16            138           95.7 270 
 SPBC HN ES       2353 43.49                             132    0.0310  112 209 
 SPBC HZ I        2353 50.77        11.9 0.28            135            112 209 
 ZAR  HN ES       2353 54.90                             118    0.24 9  175 307 
 ZAR  HZ I        2354  0.36         5.8 0.18            120            175 307 
 NOR  HE ES       2353 54.43                             118   -0.83 9  178 233 
 NOR  HZ I        2353 59.84         7.8 0.16            120            178 233 
 OCA  HN ES       2353 57.59                             116   -0.33 9  190   9 
 OCA  HZ I        2354  3.79         5.2 0.28            119            190   9 
 CHI  HN ES       2354  3.18                             113    0.49 8  212 184 
 SML  HZ EP       2353 42.44                             108    0.12 8  256 348 
 SML  HN ES       2354 10.23                             108   -0.48 8  256 348 
 SML  HZ I        2354 15.91         5.7 0.10            111            256 348 
 CBOC HN ES       2354 16.51                             107    0.77 7  278 255 
 MON  HE ES       2354 27.34                             103   -0.42 7  337 317 
 MON  HZ I        2354 29.31         1.6 0.32            105            337 317 
                                                                                
