 2016  713 2021 40.8 L   6.768 -73.153148.5  RSN  5 0.3 1.5LRSN                1
 GAP=137        0.88       4.3     4.5  7.1 -0.5108E+01  0.2329E+01  0.5045E+01E
 Epicentro: LOS SANTOS - SANTANDER                                             3
 ACTION:UPD 17-03-29 16:50 OP:lp   STATUS:               ID:20160713202140 L   I
 OLDACT:REG 16-07-14 02:34 OP:drio STATUS:               ID:20160713201759     3
 2016-07-13-2017-59S.COL___334                                                 6
 STAT SP IPHASW D HRMM SECON CODA AMPLIT PERI AZIMU VELO AIN AR TRES W  DIS CAZ7
 BRR  HZ EP       2022  2.41                             153    0.1210 72.3 301 
 BRR  HN ES       2022 19.52                             153    0.4610 72.3 301 
 PAM  EZ EP       2022  3.27                             150   -0.2110 80.6  38 
 PAM  HN ES       2022 21.13                             150   -0.0610 80.6  38 
 PAM  EZ I        2022 22.95         6.4 0.60            154           80.6  38 
 RUS  HZ EP       2022  4.67                             145    0.1110 97.1 175 
 RUS  HN ES       2022 22.88                             145   -0.2210 97.1 175 
 RUS  HZ I        2022 24.24         2.7 0.36            146           97.1 175 
 PTB  HZ EP       2022  7.37                             133   -0.48 9  146 260 
 PTB  HN ES       2022 28.52                             133   -0.44 9  146 260 
 PTB  HZ I        2022 32.30         2.8 0.14            134            146 260 
 SPBC HZ EP       2022  9.84                             130    0.65 9  160 220 
 SPBC HN ES       2022 31.41                             130    0.07 9  160 220 
 SPBC HZ I        2022 37.47         7.3 0.20            131            160 220 
                                                                                
