 2011  313 2306 13.4 L   6.799 -73.124129.0  RSN  8 0.4 1.9LRSN                1
 GAP=185        0.84       5.8     8.9  8.5 -0.6835E+01  0.4389E+02 -0.5291E+01E
 Epicentro: LOS SANTOS - SANTANDER                                             3
 ACTION:UP  11-06-16 14:33 OP:jfem STATUS:               ID:20110313230614 L   I
 2011-03-13-2304-32S.COL___131                                                 6
 STAT SP IPHASW D HRMM SECON CODA AMPLIT PERI AZIMU VELO SNR AR TRES W  DIS CAZ7
 BAR2 SZ EP   1   23 6 31.44                             169     0.5 7   24 196 
 BAR2 SZ ES   1   23 6 44.60                             169    -0.1 7   24 196 
 BAR2 SZ I        23 6 47.13        49.0 0.22                            24 196 
 RUS  HZ EP   1   23 6 35.41                             140    -0.1 7  100 177 
 RUS  HN ES   1   23 6 52.55                             140    -0.2 7  100 177 
 RUS  HZ I        23 6 55.44        10.8 0.35                           100 177 
 OCA  SZ EP   2   23 6 39.90                             125    -0.6 5  161 352 
 OCA  SZ I        23 7  6.70        19.7 0.32                           161 352 
 NOR  SZ EP   1   23 6 49.05                             114     0.7 6  237 235 
 NOR  SN ES   1   23 7 15.76                             114     0.0 6  237 235 
 CHI  HZ EP   1   23 6 50.23                             113     0.0 6  249 196 
 CHI  HN ES   1   23 7 18.85                             113    -0.1 6  249 196 
 CHI  HZ I        23 7 23.10         3.0 0.51                           249 196 
 HEL  HZ EP   1   23 6 53.63                             111     0.6 6  274 256 
 HEL  HZ I        23 7 30.50         3.9 0.23                           274 256 
 DBB  SZ EP   1   23 6 59.53                             106    -0.9 5  342 274 
 PRA  HN ES   1   23 7 47.24                             103    -0.7 4  393 210 
                                                                                
