 2011  813 2026 53.1 L   6.779 -73.057153.5  RSN  4 0.2 1.8LRSN                1
 GAP=149        0.41       3.9     5.9  4.9 -0.7647E+00 -0.2775E+01 -0.7193E+00E
 Epicentro: LOS SANTOS - SANTANDER                                             3
 ACTION:UPD 12-07-13 15:51 OP:ep   STATUS:               ID:20110813202653 L   I
 2011-08-13-2021-56S.COL___149                                                 6
 STAT SP IPHASW D HRMM SECON CODA AMPLIT PERI AZIMU VELO AIN AR TRES W  DIS CAZ7
 BAR2 SZ EP   1   2027 13.56                             170   -0.17 7 24.9 214 
 BAR2 SZ I        2027 13.93        12.6 0.23                          24.9 214 
 BAR2 SZ ES   1   2027 29.57                             170   -0.22 7 24.9 214 
 PAM  SZ EP   1   2027 16.17                             153    0.20 7 73.5  32 
 PAM  SN ES   2   2027 33.75                             153   -0.02 5 73.5  32 
 BRR  HZ EP   1   2027 15.62                             151   -0.07 7 81.0 297 
 BRR  HZ I        2027 16.20        19.0 0.16                          81.0 297 
 BRR  HN ES   2   2027 33.54                             151    0.27 5 81.0 297 
 RUS  HZ EP   1   2027 17.48                             146   -0.01 7 98.0 182 
 RUS  HZ I        2027 18.39         4.5 0.35                          98.0 182 
 RUS  HN ES   2   2027 36.83                             146    0.36 5 98.0 182 
                                                                                
