 2011 1213 2048 15.3 L   6.773 -73.159142.6  RSN 12 0.4 2.2LRSN                1
 GAP=136        0.65       4.3     4.3  5.8 -0.4960E+01  0.6649E+01  0.8841E+01E
 Epicentro: LOS SANTOS - SANTANDER                                             3
 ACTION:UPD 12-07-13 16:16 OP:ep   STATUS:               ID:20111213204815 L   I
 2011-12-13-2046-49S.COL___153                                                 6
 STAT SP IPHASW D HRMM SECON CODA AMPLIT PERI AZIMU VELO AIN AR TRES W  DIS CAZ7
 BAR2 SZ EP       2048 34.64                             171    0.1710 20.2 187 
 BAR2 SZ I        2048 34.96        62.0 0.09                          20.2 187 
 BAR2 SZ ES   2   2048 48.78                             171   -0.66 5 20.2 187 
 GIR2 SZ EP   1   2048 34.64                             166   -0.02 7 34.0 353 
 GIR2 SZ ES   2   2048 49.92                             166    0.15 5 34.0 353 
 BRR  HZ EP   1   2048 36.11                             152    0.00 7 71.4 301 
 BRR  HN ES   2   2048 53.30                             152    0.96 5 71.4 301 
 BRR  HZ I        2048 55.83        60.8 0.15                          71.4 301 
 PAM  SZ EP   1   2048 37.40                             149    0.04 7 80.6  39 
 PAM  SN ES   2   2048 54.14                             149   -0.44 5 80.6  39 
 PAM  SZ I        2048 55.80        10.0 0.15                          80.6  39 
 RUS  HZ EP   1   2048 38.50                             144   -0.02 7 97.8 175 
 RUS  HN ES   2   2048 57.06                             144    0.41 5 97.8 175 
 RUS  HZ I        2048 58.32        17.9 0.22                          97.8 175 
 PTB  HZ EP   1   2048 41.02                             132   -0.80 7  146 260 
 PTB  HN ES   2   2049  2.34                             132   -0.17 5  146 260 
 NOR  SZ EP   1   2048 50.74                             118    0.22 6  232 235 
 NOR  SN ES   2   2049 18.28                             118    0.27 4  232 235 
 CHI  HZ EP   1   2048 52.22                             117   -0.24 6  245 195 
 CHI  HN ES   2   2049 21.04                             117   -0.41 4  245 195 
 CHI  HZ I        2049 27.56         7.5 0.24                           245 195 
 HEL  HZ EP   1   2048 54.86                             114   -0.24 6  270 256 
 HEL  HN ES   2   2049 25.73                             114   -0.43 4  270 256 
 GUY  SN ES   2   2049 32.82                             112    0.28 4  301 235 
 RREF HZ EP   1   2049  1.92                             110    0.97 5  319 230 
 RREF HN ES   2   2049 36.13                             110   -0.44 3  319 230 
 RREF HZ I        2049 42.28        10.3 0.22                           319 230 
 PRA  HZ EP   1   2049  8.74                             106    0.43 4  389 210 
 PRA  HE ES   2   2049 49.67                             106   -0.01 3  389 210 
                                                                                
