 2012  113 2050 26.5 L   6.775 -73.171147.4  RSN  7 0.3 1.7LRSN                1
 GAP=134        0.82       5.9     7.8  9.3 -0.2166E+01  0.1659E+02  0.4714E+01E
 Epicentro: LOS SANTOS - SANTANDER                                             3
 ACTION:UP  12-02-03 08:17 OP:REBC STATUS:               ID:20120113205026 L   I
 2012-01-13-2050-00M.COL___188                                                 6
 STAT SP IPHASW D HRMM SECON CODA AMPLIT PERI AZIMU VELO SNR AR TRES W  DIS CAZ7
 BAR2 SZ EP       2050 45.88                             172    -0.410   20 183 
 BAR2 SZ ES   2   2051  1.37                             172    -0.4 5   20 183 
 BAR2 SZ I        2051  4.01        11.7 0.22                            20 183 
 GIR2 SZ EP       2050 46.35                             166    -0.110   34 356 
 GIR2 SZ ES   2   2051  2.35                             166     0.3 5   34 356 
 BRR  HZ EP       2050 48.42                             153     0.610   70 302 
 PAM  SZ EP       2050 49.22                             150     0.110   81  40 
 PAM  SE ES   1   2051  6.72                             150    -0.1 7   81  40 
 RUS  HZ EP       2050 50.40                             145     0.110   98 174 
 RUS  HN ES   2   2051  8.91                             145     0.1 5   98 174 
 RUS  HZ I        2051 10.04         5.4 0.28                            98 174 
 BRI  SZ EP   2   2050 50.51                             141    -0.4 5  112  22 
 ZAR  HN ES   2   2051 23.50                             123    -0.7 4  203 293 
 ZAR  HZ I        2051 31.36         6.5 0.28                           203 293 
                                                                                
