 2015  613 2056 42.5 L   6.735 -73.127148.3  RSN  8 0.3 2.0LRSN                1
 GAP=142        0.90       2.9     4.6  6.5  0.3702E-01  0.5981E+01 -0.6351E+00E
 Epicentro: JORDAN - SANTANDER                                                 3
 ACTION:UPD 15-09-10 22:12 OP:cam  STATUS:               ID:20150613205643dL   I
 OLDACT:UP  15-06-14 04:36 OP:ar   STATUS:               ID:20150613204747     3
 OLDACT:REG 15-06-14 03:09 OP:ar   STATUS:               ID:20150613204747     3
 2015-06-13-2047-47M.COL___315                                                 6
 STAT SP IPHASW D HRMM SECON CODA AMPLIT PERI AZIMU VELO AIN AR TRES W  DIS CAZ7
 BAR2 EZ EP       2057  2.23                             173   -0.0710 16.9 201 
 BAR2 EZ ES       2057 17.89                             173    0.1210 16.9 201 
 BAR2 EZ I        2057 19.05        12.6 0.12            164           16.9 201 
 BRR  HN ES       2057 21.38                             151    0.2110 76.7 303 
 BRR  HZ I        2057 23.65        18.1 0.28            154           76.7 303 
 PAM  SZ EP       2057  4.99                             150   -0.2410 81.8  35 
 PAM  SN ES       2057 22.32                             150   -0.6610 81.8  35 
 PAM  SZ I        2057 25.98        14.9 0.88            159           81.8  35 
 RUS  HZ EP       2057  6.09                             146    0.1210 93.2 177 
 RUS  HN ES       2057 24.59                             146    0.3010 93.2 177 
 RUS  HZ I        2057 27.41         5.1 0.32            142           93.2 177 
 SPBC HZ EP       2057 11.01                             130    0.23 9  159 221 
 SPBC HN ES       2057 32.56                             130   -0.30 9  159 221 
 SPBC HZ I        2057 39.81        18.8 0.34            129            159 221 
 OCA  HN ES       2057 35.13                             129    0.66 9  168 353 
 OCA  HZ I        2057 36.91        12.0 0.34            136            168 353 
 ZAR  HE ES       2057 40.93                             122   -0.47 8  209 294 
 SML  HN ES       2057 49.49                             117    0.13 8  251 336 
 SML  HZ I        2057 51.08        11.2 0.10            122            251 336 
                                                                                
