 2012  313 2312  6.2 L   7.413 -73.168133.9  RSN  6 0.3 2.1LRSN                1
 GAP=183        0.64       5.7     6.1  7.2  0.3792E+01 -0.3511E+01 -0.1373E+02E
 ACTION:UP  12-03-31 23:19 OP:EP   STATUS:               ID:20120313231206 L   I
 2012-03-13-2310-00M.COL___199                                                 6
 STAT SP IPHASW D HRMM SECON CODA AMPLIT PERI AZIMU VELO SNR AR TRES W  DIS CAZ7
 BRR  HZ EP       2312 26.32                             151     0.410   69 241 
 BRR  HN ES       2312 41.17                             151    -0.210   69 241 
 BRR  HZ I        2312 42.75        34.0 0.12                            69 241 
 BAR2 SZ ES   2   2312 44.41                             144    -0.1 5   91 181 
 BAR2 SZ I        2312 48.19        24.3 0.53                            91 181 
 RUS  HZ EP   2   2312 34.56                             125    -0.3 5  168 177 
 PTB  HZ EP   1   2312 34.16                             124    -0.4 7  172 236 
 PTB  HE ES   1   2312 56.72                             124     0.0 7  172 236 
 PTB  HZ I        2313  0.46        10.4 0.26                           172 236 
 ZAR  HZ EP   1   2312 36.33                             122     0.3 7  187 273 
 ZAR  HN ES   1   2312 59.26                             122    -0.1 7  187 273 
 ZAR  HZ I        2313  0.77        20.6 0.18                           187 273 
 COD  HE ES   2   2313 17.31                             111    -0.3 4  281 354 
                                                                                
