 2010  113 2053 54.1 L   6.793 -73.203144.1  RSN  6 0.3 2.1LRSN                1
 GAP=171        0.51       3.7     5.3  5.6  0.5070E+01  0.1557E+02  0.8455E+01E
 Epicentro: ZAPATOCA - SANTANDER                                               3
 ACTION:UP  10-08-24 09:44 OP:vdl  STATUS:               ID:20100113205354 L   I
 2010-01-13-2048-41S.COL___095                                                 6
 STAT SP IPHASW D HRMM SECON CODA AMPLIT PERI AZIMU VELO SNR AR TRES W  DIS CAZ7
 BAR2 SZ IP       2054 13.42                             171    -0.110   22 175 
 BAR2 SZ ES   2   2054 28.27                             171    -0.4 5   22 175 
 GIR2 SZ EP   2   2054 13.54                             167     0.0 5   32   2 
 GIR2 SZ ES   1   2054 29.20                             167     0.4 7   32   2 
 RUS  BZ EP       2054 17.51                             144    -0.110  100 172 
 RUS  BN ES   1   2054 35.94                             144    -0.1 7  100 172 
 RUS  BZ I        2054 37.90        19.6 0.24                           100 172 
 CHI  HZ EP   1   2054 31.85                             117     0.4 6  246 194 
 CHI  HN ES   1   2055  0.48                             117    -0.1 6  246 194 
 CHI  HZ I        2055  4.45         9.2 0.50                           246 194 
 DBB  SZ EP   2   2054 40.73                             110     0.0 3  333 274 
 DBB  SZ ES   1   2055 16.88                             110    -0.3 5  333 274 
 PRA  HZ EP   2   2054 47.58                             106     0.5 3  388 209 
 PRA  HN ES   2   2055 29.03                             106     0.6 3  388 209 
                                                                                
