 2011  513 2154 46.0 L   6.784 -73.104145.6  RSN 10 0.5 2.3LRSN                1
 GAP=143        1.03       4.3     8.0  7.5 -0.1147E+02  0.1490E+02 -0.2589E+01E
 Epicentro: LOS SANTOS - SANTANDER                                             3
 ACTION:UP  11-06-29 08:53 OP:tino STATUS:               ID:20110513215446 L   I
 2011-05-13-2140-00M.COL___142                                                 6
 STAT SP IPHASW D HRMM SECON CODA AMPLIT PERI AZIMU VELO SNR AR TRES W  DIS CAZ7
 BTL  SZ EP   1   2155  5.80                             170     0.2 7   23 309 
 BAR2 SZ EP   1   2155  5.41                             170    -0.2 7   23 202 
 BAR2 SZ ES   1   2155 21.36                             170     0.5 7   23 202 
 BAR2 SZ I        2155 24.13        20.0 0.18                            23 202 
 BRR  HZ EP   1   2155  7.25                             151    -0.2 7   76 298 
 BRR  HN ES   1   2155 24.04                             151    -0.1 7   76 298 
 BRR  HZ I        2155 26.94        48.9 0.12                            76 298 
 PAM  SZ EP   1   2155  8.11                             151     0.0 7   76  36 
 PAM  SN ES       2155 25.23                             151    -0.110   76  36 
 RUS  HZ EP   1   2155  9.67                             144     0.1 7   99 179 
 RUS  HN ES       2155 28.09                             144     0.110   99 179 
 RUS  HZ I        2155 30.29        29.0 0.40                            99 179 
 BRI  SZ EP   1   2155  9.86                             141     0.0 7  109  18 
 GRA  SZ EP   1   2155 10.78                             137    -0.5 7  126  15 
 GRA  SZ ES   1   2155 29.95                             137    -1.0 7  126  15 
 GRA  SZ I        2155 31.45        50.8 0.27                           126  15 
 OCA  SZ EP   1   2155 15.69                             129     1.2 7  163 352 
 OCA  SZ ES   1   2155 37.36                             129     0.6 7  163 352 
 OCA  SZ I        2155 40.56        38.0 0.15                           163 352 
 NOR  SZ EP   1   2155 21.69                             118    -0.3 6  237 235 
 NOR  SN ES   2   2155 49.19                             118    -0.9 4  237 235 
 PRA  HZ EP   1   2155 39.98                             106     0.4 4  393 210 
                                                                                
