 2011 1013 2044 32.1 L   6.804 -73.140140.1  RSN  9 0.4 2.4LRSN                1
 GAP=137        0.76       3.0     4.1  5.8 -0.8495E+00  0.8496E+01  0.1865E+01E
 Epicentro: LOS SANTOS - SANTANDER                                             3
 ACTION:UPD 12-07-13 16:03 OP:ep   STATUS:               ID:20111013204432 L   I
 2011-10-13-2042-59S.COL___168                                                 6
 STAT SP IPHASW D HRMM SECON CODA AMPLIT PERI AZIMU VELO AIN AR TRES W  DIS CAZ7
 BAR2 SZ IP       2044 51.22                             170    0.1810 23.8 191 
 BAR2 SZ I        2044 51.54        64.9 0.10                          23.8 191 
 BAR2 SZ ES   1   2045  5.66                             170   -0.17 7 23.8 191 
 BRR  HZ IP     C 2044 53.05                             151    0.4110 71.6 298 
 BRR  HZ I        2044 53.51        83.2 0.11                          71.6 298 
 BRR  HE ES   1   2045  9.37                             151    0.69 7 71.6 298 
 PAM  SZ EP   1   2044 54.03                             150    0.37 7 76.7  39 
 PAM  SN ES   1   2045 10.34                             150   -0.14 7 76.7  39 
 PAM  SZ I        2045 12.44        22.5 0.17                          76.7  39 
 RUS  HZ EP   1   2044 55.25                             142   -0.06 7  101 176 
 RUS  HN ES   1   2045 12.88                             142   -0.54 7  101 176 
 RUS  HZ I        2045 15.66        25.4 0.29                           101 176 
 OCA  SZ EP   1   2044 59.70                             128   -0.23 7  160 353 
 OCA  SZ ES   1   2045 20.80                             128   -0.85 7  160 353 
 OCA  SZ I        2045 24.80        31.7 0.30                           160 353 
 ZAR  HZ EP   1   2045  4.20                             121   -0.01 6  204 292 
 ZAR  HN ES   1   2045 29.35                             121    0.08 6  204 292 
 ZAR  HZ I        2045 36.16        42.3 0.27                           204 292 
 NOR  SZ EP   1   2045  7.63                             117    0.06 6  235 234 
 NOR  SN ES   1   2045 34.72                             117   -0.53 6  235 234 
 CHI  HZ EP   1   2045  9.51                             116   -0.02 6  249 195 
 CHI  HN ES   1   2045 39.23                             116    0.49 6  249 195 
 CHI  HZ I        2045 42.27         9.5 0.29                           249 195 
 HEL  HZ EP   1   2045 11.88                             113   -0.21 6  273 256 
 HEL  HN ES   1   2045 42.97                             113   -0.33 6  273 256 
 HEL  HZ I        2045 49.65        16.1 0.26                           273 256 
                                                                                
