 2014  913 2219 19.6 L   6.802 -73.156145.8  RSN 19 0.4 2.4LRSN                1
 GAP=135        0.79       2.1     3.0  4.2 -0.9867E+00  0.3654E+01  0.1579E+01E
 Epicentro: LOS SANTOS - SANTANDER                                             3
 ACTION:UPD 14-10-03 23:04 OP:nd   STATUS:               ID:20140913221919 L   I
 OLDACT:REG 14-09-14 04:02 OP:fm   STATUS:               ID:20140913221820     3
 2014-09-13-2218-20M.COL___296                                                 6
 STAT SP IPHASW D HRMM SECON CODA AMPLIT PERI AZIMU VELO AIN AR TRES W  DIS CAZ7
 BAR2 SZ EP       2219 39.18                             170   -0.0610 23.4 187 
 BAR2 SZ ES   1   2219 54.48                             170   -0.07 7 23.4 187 
 BAR2 SZ I        2219 57.04        96.3 0.26            168           23.4 187 
 BRR  HZ EP       2219 41.05                             153    0.3510 70.1 299 
 BRR  HN ES       2219 57.82                             153    0.6710 70.1 299 
 BRR  HZ I        2220  2.15        39.9 0.28            151           70.1 299 
 PAM  SZ EP       2219 42.05                             151    0.1910 77.9  40 
 PAM  SN ES       2219 59.11                             151   -0.1010 77.9  40 
 PAM  SZ I        2220  2.30        29.3 0.34            155           77.9  40 
 RUS  HZ EP       2219 43.23                             144   -0.1510  101 175 
 RUS  HN ES       2220  1.81                             144   -0.1110  101 175 
 RUS  HZ I        2220  3.28        24.5 0.28            145            101 175 
 PTB  HZ EP       2219 46.04                             132   -0.44 9  147 259 
 PTB  HN ES       2220  7.27                             132   -0.17 9  147 259 
 PTB  HZ I        2220  9.60        22.6 0.12            131            147 259 
 OCA  HZ EP   1   2219 47.25                             130   -0.64 7  160 354 
 OCA  HN ES       2220 10.01                             130    0.06 9  160 354 
 OCA  HZ I        2220 17.68        29.9 0.26            131            160 354 
 SPBC HZ EP       2219 48.16                             129    0.10 9  163 219 
 SPBC HE ES       2220 10.10                             129   -0.15 9  163 219 
 SPBC HZ I        2220 16.42        35.3 0.20            129            163 219 
 ZAR  HZ EP   1   2219 51.18                             122   -0.76 6  203 292 
 ZAR  HN ES       2220 16.97                             122   -0.19 9  203 292 
 ZAR  HZ I        2220 22.37        25.0 0.36            122            203 292 
 NOR  HZ EP       2219 55.34                             119    0.09 8  234 234 
 NOR  HN ES       2220 22.97                             119   -0.09 8  234 234 
 NOR  HZ I        2220 25.57        13.2 0.22            119            234 234 
 SML  HZ EP   4   2219 54.59                             117   -1.57 0  243 336 
 SML  HN ES       2220 24.49                             117   -0.19 8  243 336 
 SML  HZ I        2220 26.36        35.4 0.10            118            243 336 
 CHI  HZ EP   4   2219 55.04                             117   -2.26 0  249 195 
 CHI  HN ES       2220 26.32                             117   -0.37 8  249 195 
 CHI  HZ I        2220 32.08        14.1 0.34            118            249 195 
 ROSC BN ES   4   2220 28.93                             117    1.54 0  252 211 
 HEL  HZ EP   1   2220  0.28                             115    0.57 6  271 256 
 HEL  HN ES   4   2220 32.81                             115    1.82 0  271 256 
 HEL  HZ I        2220 37.82        10.8 0.28            115            271 256 
 URE  HE ES   4   2220 29.55                             114   -2.94 0  283 292 
 URE  HZ I        2220 41.40        13.7 0.16            114            283 292 
 GUY2CHZ EP       2220  3.28                             112    0.15 7  300 235 
 GUY2CHN ES       2220 36.88                             112   -0.20 7  300 235 
 GUY2CHZ I        2220 45.63        12.5 0.62                           300 235 
 VIL  SE ES   4   2220 36.13                             112   -0.76 0  303 191 
 VIL  SZ I        2220 47.00        18.0 0.46            113            303 191 
 TOL  SZ EP       2220  8.84                             109    1.05 7  343 224 
 TOL  SE ES   4   2220 47.51                             109    2.14 0  343 224 
 TOL  SZ I        2220 55.61        23.3 0.30            110            343 224 
 ANIL HN ES   4   2220 50.26                             108    2.13 0  357 224 
 ANIL HZ I        2220 55.55         3.3 0.30            109            357 224 
 PRA  HZ EP       2220 13.23                             106    0.14 6  392 209 
 PRA  HN ES       2220 55.27                             106    0.47 6  392 209 
 PRA  HZ I        2221  1.67        14.5 0.26            107            392 209 
 ORTC HZ EP   1   2220 13.78                             106    0.31 4  395 216 
 ORTC HN ES   4   2220 57.22                             106    1.74 0  395 216 
 ORTC HZ I        2221  1.62         6.0 0.30            107            395 216 
                                                                                
