 2014  313 2010 42.3 L   7.496 -73.265 11.7  RSN  6 0.5 1.4LRSN                1
 GAP=195        1.32       5.2     3.2  6.2 -0.5584E+00  0.8547E+01 -0.4594E+01E
 Epicentro: EL PLAYON - SANTANDER                                              3
 ACTION:UPD 14-04-09 23:16 OP:nd   STATUS:               ID:20140313201042 L   I
 OLDACT:REG 14-03-14 00:54 OP:stll STATUS:               ID:20140313200817     3
 2014-03-13-2008-17M.COL___222                                                 6
 STAT SP IPHASW D HRMM SECON CODA AMPLIT PERI AZIMU VELO AIN AR TRES W  DIS CAZ7
 PAM  SZ EP       2010 53.47                              98    0.2210 64.8 105 
 PAM  SN ES       2011  1.16                              98   -0.6610 64.8 105 
 PAM  SZ I        2011  2.32        18.9 0.28             47           64.8 105 
 BRR  HZ EP       2010 53.14                              97    0.3110 65.4 229 
 BRR  HE ES       2011  1.16                              97    0.0710 65.4 229 
 BRR  HZ I        2011  2.50         9.3 0.14             47           65.4 229 
 BAR2 SZ ES       2011 10.63                              95   -0.2610  100 175 
 BAR2 SZ I        2011 15.99        11.5 0.16             47            100 175 
 PTB  HZ EP       2011  7.62                              56   -0.36 9  169 231 
 PTB  HN ES       2011 27.14                              56   -0.90 9  169 231 
 PTB  HZ I        2011 29.24         7.1 0.26             47            169 231 
 ZAR  HZ EP       2011  9.39                              56    0.55 9  176 270 
 ZAR  HN ES       2011 29.24                              56   -0.34 9  176 270 
 ZAR  HZ I        2011 32.81         5.0 0.16             47            176 270 
 RUS  HZ EP       2011 10.71                              56    0.96 9  178 174 
 RUS  HN ES       2011 31.71                              56    0.52 9  178 174 
 RUS  HZ I        2011 35.57         2.8 0.42             37            178 174 
                                                                                
