 2013 1013 2130  7.6 L   6.239 -73.733 94.2  RSN  5 0.7 1.2LRSN                1
 GAP=120        1.78       7.8     6.3 17.1  0.3347E+01  0.4412E+02  0.4787E+02E
 Epicentro: LANDAZURI - SANTANDER                                              3
 ACTION:UPD 13-11-25 09:21 OP:ep   STATUS:               ID:20131013213007 L   I
 OLDACT:REG 13-10-13 22:21 OP:stll STATUS:               ID:20131013212846     3
 2013-10-13-2128-46M.COL___236                                                 6
 STAT SP IPHASW D HRMM SECON CODA AMPLIT PERI AZIMU VELO AIN AR TRES W  DIS CAZ7
 BAR2 SZ EP       2130 24.01                             140    0.0710 72.4  57 
 BAR2 SZ ES       2130 36.92                             140    0.2510 72.4  57 
 BAR2 SZ I        2130 38.94        19.7 0.30            140           72.4  57 
 RUS  HZ EP       2130 24.67                             136   -0.3710 81.5 118 
 RUS  HZ I        2130 25.07         2.5 0.22            138           81.5 118 
 RUS  HN ES       2130 38.51                             136   -0.1210 81.5 118 
 PTB  HZ EP       2130 23.91                             134   -0.9210 86.6 293 
 PTB  HZ I        2130 26.27         2.1 0.30            135           86.6 293 
 PTB  HN ES       2130 37.38                             134   -0.8810 86.6 293 
 BRR  HZ EP       2130 25.31                             131   -0.3610 96.1   1 
 BRR  HN ES       2130 40.93                             131    1.1810 96.1   1 
 GUY2CHZ EP       2130 39.29                             109    0.39 8  213 238 
 GUY2CHN ES       2131  4.54                             109    1.24 8  213 238 
 GUY2CHZ I        2131 10.16         1.8 0.72                           213 238 
                                                                                
