 2011  313 2128 10.0 L   6.841 -73.165145.7  RSN  5 0.3 1.8LRSN                1
 GAP=178        0.47       6.7     8.1  5.4 -0.3577E+02 -0.3892E+00 -0.3397E+01E
 Epicentro: LOS SANTOS - SANTANDER                                             3
 ACTION:UP  11-06-16 14:33 OP:jfem STATUS:               ID:20110313212810 L   I
 2011-03-13-2123-42S.COL___131                                                 6
 STAT SP IPHASW D HRMM SECON CODA AMPLIT PERI AZIMU VELO SNR AR TRES W  DIS CAZ7
 BAR2 SZ ES   1   2128 44.95                             169    -0.1 7   28 184 
 BAR2 SZ I        2128 47.62        12.6 0.25                            28 184 
 RUS  HZ EP   2   2128 33.98                             142    -0.1 5  105 175 
 RUS  HN ES   2   2128 53.24                             142     0.4 5  105 175 
 RUS  HZ I        2128 54.88         5.1 0.37                           105 175 
 NOR  SE ES   2   2129 13.94                             118     0.2 4  236 233 
 CHI  HZ EP   2   2128 48.27                             117     0.2 4  253 194 
 CHI  HE ES   2   2129 17.29                             117    -0.5 4  253 194 
 CHI  HZ I        2129 22.48         2.7 0.25                           253 194 
 SDV  BZ EP   1   2128 59.87                             108     0.0 5  359  51 
 SDV  BZ I        2129 11.89         5.4 0.14                           359  51 
                                                                                
