 2012  913 2100 39.9 L   6.767 -73.145139.6  RSN  5 0.4 1.7LRSN                1
 GAP=154        0.55       9.8     7.6 10.8 -0.2508E+02  0.1364E+02  0.1333E+02E
 Epicentro: LOS SANTOS - SANTANDER                                             3
 ACTION:UPD 12-10-22 14:18 OP:ep   STATUS:               ID:20120913210039 L   I
 2012-09-13-2100-00M.COL___227                                                 6
 STAT SP IPHASW D HRMM SECON CODA AMPLIT PERI AZIMU VELO AIN AR TRES W  DIS CAZ7
 BAR2 SZ EP       21 0 58.86                             171    0.1310 19.8 192 
 BAR2 SZ ES   3   21 1 13.78                             171    0.37 2 19.8 192 
 BAR2 SZ I        21 1 15.13         9.1 0.20                          19.8 192 
 GIR2 SZ EP       21 0 58.62                             165   -0.3410 34.9 351 
 GIR2 SZ ES   3   21 1 13.78                             165   -0.03 2 34.9 351 
 BRR  HZ EP       21 1  0.75                             151    0.2410 73.1 301 
 BRR  HZ I        21 1  1.10        11.5 0.30                          73.1 301 
 BRR  HN ES   3   21 1 17.30                             151    0.73 2 73.1 301 
 PAM  SZ EP   1   21 1  1.71                             149    0.06 7 80.2  38 
 PAM  SN ES   2   21 1 18.34                             149   -0.26 5 80.2  38 
 PAM  SN I        21 1 19.73        10.2 0.48                          80.2  38 
 PTB  HE ES   3   21 1 25.73                             130   -1.21 2  147 260 
                                                                                
