 2011 1013 2050 32.8 L   6.759 -73.133152.0  RSN  8 0.4 2.2LRSN                1
 GAP=184        0.84       3.6     5.5  6.8  0.1455E+01  0.9913E+01  0.1597E+01E
 Epicentro: LOS SANTOS - SANTANDER                                             3
 ACTION:UPD 12-07-13 16:03 OP:ep   STATUS:               ID:20111013205032 L   I
 2011-10-13-2049-02S.COL___168                                                 6
 STAT SP IPHASW D HRMM SECON CODA AMPLIT PERI AZIMU VELO AIN AR TRES W  DIS CAZ7
 BAR2 SZ EP   1   2050 53.00                             172   -0.10 7 19.2 196 
 BAR2 SZ ES   1   2051  8.51                             172   -0.43 7 19.2 196 
 BAR2 SZ I        2051 10.05        44.9 0.21                          19.2 196 
 BRR  HZ EP       2050 55.20                             152    0.3910 74.6 301 
 BRR  HZ I        2050 55.64        42.7 0.14                          74.6 301 
 BRR  HN ES   1   2051 12.42                             152    0.44 7 74.6 301 
 RUS  HZ EP   1   2050 57.50                             146    0.66 7 95.9 177 
 RUS  HN ES   1   2051 15.32                             146   -0.28 7 95.9 177 
 RUS  HZ I        2051 17.35        19.2 0.28                          95.9 177 
 OCA  SZ EP   1   2051  2.50                             130    0.47 7  165 353 
 OCA  SZ ES   1   2051 24.06                             130   -0.77 7  165 353 
 OCA  SZ I        2051 32.13         8.8 0.21                           165 353 
 ZAR  HZ EP   1   2051  5.61                             123   -0.34 6  207 293 
 ZAR  HN ES   1   2051 32.00                             123    0.18 6  207 293 
 ZAR  HZ I        2051 37.48        15.9 0.26                           207 293 
 NOR  SZ EP   1   2051  8.20                             120   -0.53 6  233 236 
 NOR  SN ES   1   2051 36.40                             120   -0.36 6  233 236 
 CHI  HZ EP   1   2051  9.82                             119   -0.59 6  245 196 
 CHI  HN ES   1   2051 40.27                             119    0.52 6  245 196 
 CHI  HZ I        2051 50.72         7.0 0.53                           245 196 
 HEL  HZ EP   2   2051 13.16                             116   -0.19 4  272 257 
 HEL  HN ES   1   2051 45.08                             116    0.09 6  272 257 
 HEL  HZ I        2051 54.08         7.2 0.26                           272 257 
                                                                                
