 2016  313 2031 26.1 L   6.795 -73.201139.8  RSN 15 0.3 2.2LRSN                1
 GAP=130        0.62       1.7     2.1  3.6 -0.4807E+00  0.3215E+01 -0.1753E+00E
 Epicentro: ZAPATOCA - SANTANDER                                               3
 ACTION:UPD 16-05-13 21:24 OP:cam  STATUS:               ID:20160313203126 L   I
 OLDACT:REG 16-03-14 02:25 OP:ak   STATUS:               ID:20160313202751     3
 2016-03-13-2027-51M.COL___295                                                 6
 STAT SP IPHASW D HRMM SECON CODA AMPLIT PERI AZIMU VELO AIN AR TRES W  DIS CAZ7
 BAR2 EZ EP       2031 45.07                             170    0.0510 22.5 175 
 BAR2 EZ ES       2031 59.62                             170   -0.1410 22.5 175 
 BAR2 EZ I        2032  1.11        33.5 0.25            170           22.5 175 
 PAM  EZ IP     C 2031 47.88                             148   -0.1110 81.8  43 
 PAM  EN ES       2032  4.96                             148   -0.0810 81.8  43 
 PAM  EZ I        2032  7.38        30.4 0.64            152           81.8  43 
 RUS  HZ EP       2031 49.00                             142   -0.3010  101 173 
 RUS  HN ES       2032  7.58                             142    0.2110  101 173 
 RUS  HZ I        2032  8.66        16.2 0.30            144            101 173 
 PTB  HZ EP       2031 51.87                             132   -0.19 9  142 259 
 PTB  HN ES       2032 12.54                             132    0.26 9  142 259 
 PTB  HZ I        2032 14.72        17.8 0.20            132            142 259 
 SPBC HZ EP       2031 53.99                             128    0.22 9  159 217 
 SPBC HN ES       2032 15.17                             128   -0.16 9  159 217 
 SPBC HZ I        2032 19.26        28.1 0.12            129            159 217 
 OCA  HZ EP       2031 54.40                             128    0.42 9  160 355 
 OCA  HN ES       2032 15.49                             128   -0.21 9  160 355 
 OCA  HZ I        2032 19.44        27.2 0.32            130            160 355 
 ZAR  HZ EP   2   2031 57.39                             122   -0.24 4  199 293 
 ZAR  HE ES       2032 22.77                             122    0.57 9  199 293 
 ZAR  HZ I        2032 29.35        20.3 0.44            123            199 293 
 NOR  HZ EP       2032  1.21                             118    0.26 8  229 234 
 NOR  HN ES       2032 27.57                             118   -0.53 8  229 234 
 NOR  HZ I        2032 33.63        13.7 0.16            119            229 234 
 CHI  HZ EP       2032  3.22                             116   -0.05 8  247 194 
 CHI  HN ES       2032 32.62                             116    0.38 8  247 194 
 CHI  HZ I        2032 38.42         6.0 0.24            118            247 194 
 HEL  HZ EP   2   2032  4.78                             114   -0.59 4  266 256 
 HEL  HN ES       2032 35.61                             114   -0.37 8  266 256 
 HEL  HZ I        2032 44.84         5.9 0.30            115            266 256 
 URE  HZ EP       2032  6.32                             113    0.02 7  278 292 
 URE  HN ES       2032 37.50                             113   -0.14 7  278 292 
 GUY2CHZ EP   2   2032  9.11                             111    0.25 4  296 234 
 GUY2CHN ES       2032 42.35                             111    0.15 7  296 234 
 GUY2CHZ I        2032 51.69        10.3 0.36                           296 234 
 SOCV BZ EP   4   2032  6.89                             111   -2.64 0  307  57 
 SOCV BE ES   4   2032 39.05                             111   -4.33 0  307  57 
 DBB  SZ EP       2032 12.45                             109   -0.22 7  333 274 
 DBB  SZ ES       2032 49.03                             109    0.06 7  333 274 
 ANIL HZ EP   4   2032 16.32                             108    1.15 0  353 224 
 ANIL HN ES   4   2032 56.67                             108    3.25 0  353 224 
 ANIL HZ I        2032 59.48        12.5 0.34            109            353 224 
 SDV  BZ EP   4   2032 14.15                             107   -2.39 0  365  51 
 SDV  BN ES   4   2032 51.92                             107   -3.94 0  365  51 
 SDV  BZ I        2032 53.84         2.9 0.50            109            365  51 
                                                                                
