 2016  413 2035 22.2 L   6.907 -73.201141.1  RSN  7 0.5 2.0LRSN                1
 GAP=144        1.08       5.6     5.9  9.3 -0.1500E+02  0.1680E+02  0.7809E+01E
 Epicentro: BETULIA - SANTANDER                                                3
 ACTION:UPD 16-05-05 14:21 OP:rebc STATUS:               ID:20160413203522 L   I
 OLDACT:UP  16-04-14 02:59 OP:drio STATUS:               ID:20160413202747     3
 OLDACT:UP  16-04-14 02:59 OP:drio STATUS:               ID:20160413202747     3
 OLDACT:REG 16-04-14 02:38 OP:drio STATUS:               ID:20160413202747     3
 2016-04-13-2027-47M.COL___314                                                 6
 STAT SP IPHASW D HRMM SECON CODA AMPLIT PERI AZIMU VELO AIN AR TRES W  DIS CAZ7
 PAM  EZ EP       2035 43.84                             151    0.2210 73.2  49 
 PAM  EN ES       2036  0.36                             151   -0.0110 73.2  49 
 PAM  EZ I        2036  2.69        24.4 0.28            156           73.2  49 
 PTB  HZ EP       2035 47.98                             131   -0.47 9  145 254 
 PTB  HN ES       2036  8.79                             131   -0.18 9  145 254 
 PTB  HZ I        2036 12.11         8.2 0.14            133            145 254 
 ZAR  HZ EP       2035 54.07                             122    0.81 9  194 290 
 ZAR  HE ES   4   2036 23.17                             122    5.64 0  194 290 
 ZAR  HZ I        2036 23.66        14.1 0.28            125            194 290 
 NOR  HZ EP       2035 57.76                             117   -0.10 8  237 231 
 NOR  HE ES       2036 25.21                             117   -0.50 8  237 231 
 NOR  HZ I        2036 28.62         6.8 0.28            120            237 231 
 CHI  HZ EP       2036  0.17                             115   -0.53 8  259 193 
 CHI  HN ES       2036 30.81                             115    0.05 8  259 193 
 CHI  HZ I        2036 35.50         3.2 0.36            118            259 193 
 GUY2CHZ EP       2036  6.63                             111    0.84 7  303 232 
 GUY2CHN ES       2036 40.44                             111    0.62 7  303 232 
 GUY2CHZ I        2036 48.56         4.9 0.56                           303 232 
 SJC  HZ EP       2036 15.08                             105   -0.92 6  396 327 
 SJC  HN ES   4   2036 55.86                             105   -2.14 0  396 327 
 SJC  HZ I        2036 59.10         3.1 0.40            108            396 327 
                                                                                
