 2013 1013 2135 24.8 L   6.771 -73.152145.7  RSN  5 0.4 1.5LRSN                1
 GAP=151        0.94       5.2     5.3  7.1 -0.8302E+01  0.9515E+00  0.1437E+02E
 Epicentro: LOS SANTOS - SANTANDER                                             3
 ACTION:UPD 13-11-25 09:21 OP:ep   STATUS:               ID:20131013213524 L   I
 OLDACT:DUP 13-10-14 00:03 OP:stll STATUS:               ID:20131013212847d    3
 2013-10-13-2128-46M.COL___236                                                 6
 STAT SP IPHASW D HRMM SECON CODA AMPLIT PERI AZIMU VELO AIN AR TRES W  DIS CAZ7
 BAR2 SZ I        2135 46.92        10.1 0.32            169           20.1 190 
 BAR2 SZ ES       2135 59.69                             172    0.0910 20.1 190 
 BRR  HZ EP       2135 46.29                             152    0.3110 72.2 301 
 BRR  HN ES       2136  3.11                             152    0.6010 72.2 301 
 PAM  SZ EP       2135 47.17                             150    0.0110 80.3  38 
 PAM  SZ I        2135 47.31         8.6 0.20            139           80.3  38 
 PAM  SN ES       2136  4.18                             150   -0.4410 80.3  38 
 PTB  HZ EP       2135 51.35                             132   -0.28 9  146 260 
 PTB  HN ES       2136 11.99                             132   -0.58 9  146 260 
 PTB  HZ I        2136 13.89         3.5 0.36            119            146 260 
 CHI  HZ EP       2136  2.46                             117    0.34 8  245 195 
 CHI  HN ES       2136 31.21                             117   -0.04 8  245 195 
 CHI  HZ I        2136 37.98         1.6 0.32            107            245 195 
                                                                                
