 2017 1013 2204 43.1 L   6.795 -73.157142.0  RSN  4 0.3 1.6LRSN                1
 GAP=276        0.72       6.8     4.4  6.0  0.3139E+01  0.9653E+01 -0.2108E+01E
 Epicentro: LOS SANTOS - SANTANDER                                             3
 ACTION:UPD 17-11-07 19:31 OP:rebc STATUS:               ID:20171013220443 L   I
 OLDACT:REG 17-10-14 02:46 OP:dhb  STATUS:               ID:20171013215512     3
 2017-10-13-2158-00M.COL___441                                                 6
 STAT SP IPHASW D HRMM SECON CODA AMPLIT PERI AZIMU VELO AIN AR TRES W  DIS CAZ7
 BAR2 EZ EP       22 5  2.82                             170    0.5110 22.6 187 
 BAR2 EZ ES       22 5 16.92                             170   -0.3410 22.6 187 
 BAR2 EZ I        22 5 18.66        13.0 0.23            169           22.6 187 
 RUS  HZ EP       22 5  6.46                             143   -0.0410  100 175 
 RUS  HN ES       22 5 24.76                             143    0.0510  100 175 
 RUS  HZ I        22 5 26.87         5.5 0.28            144            100 175 
 PTB  HZ EP       22 5  9.41                             131   -0.27 9  146 259 
 PTB  HN ES       22 5 30.57                             131    0.19 9  146 259 
 PTB  HZ I        22 5 35.31         2.8 0.22            132            146 259 
 NOR  HZ EP       22 5 18.22                             118   -0.29 8  233 234 
 NOR  HN ES       22 5 46.23                             118    0.13 8  233 234 
 NOR  HZ I        22 5 48.38         3.4 0.22            119            233 234 
                                                                                
