 2015  413 2331 24.7 L   6.819 -73.155144.4  RSN 11 0.5 2.0LRSN                1
 GAP=134        1.13       3.6     4.5  6.5 -0.1672E+01  0.8318E+01 -0.1942E+01E
 Epicentro: LOS SANTOS - SANTANDER                                             3
 ACTION:UPD 15-06-03 16:54 OP:cam  STATUS:               ID:20150413233124 L   I
 OLDACT:REG 15-04-14 03:30 OP:ak   STATUS:               ID:20150413232750     3
 2015-04-13-2327-50M.COL___272                                                 6
 STAT SP IPHASW D HRMM SECON CODA AMPLIT PERI AZIMU VELO AIN AR TRES W  DIS CAZ7
 BAR2 EZ EP       2331 44.34                             170    0.1010 25.3 187 
 BAR2 EZ ES       2331 58.78                             170   -0.6710 25.3 187 
 BAR2 EZ I        2332  0.53        18.3 0.22            170           25.3 187 
 BRR  HZ EP       2331 46.03                             153    0.4010 69.3 297 
 BRR  HN ES       2332  2.54                             153    0.6210 69.3 297 
 BRR  HZ I        2332  6.59        24.1 0.20            151           69.3 297 
 PAM  SZ EP       2331 47.04                             151    0.3010 76.4  41 
 PAM  SE ES       2332  3.97                             151    0.0610 76.4  41 
 PAM  SZ I        2332  6.29        13.6 0.60            154           76.4  41 
 RUS  HZ EP       2331 48.36                             143   -0.1510  103 176 
 RUS  HE ES       2332  6.71                             143   -0.3510  103 176 
 RUS  HZ I        2332  8.25         8.8 0.20            145            103 176 
 PTB  HZ EP       2331 51.07                             132   -0.47 9  147 258 
 PTB  HN ES       2332 11.68                             132   -0.76 9  147 258 
 PTB  HZ I        2332 13.78         9.5 0.40            132            147 258 
 SPBC HZ EP       2331 53.51                             128    0.28 9  164 218 
 SPBC HN ES       2332 16.32                             128    0.87 9  164 218 
 SPBC HZ I        2332 18.94        12.8 0.16            130            164 218 
 ZAR  HZ EP   4   2331 59.47                             122    2.56 0  202 292 
 ZAR  HN ES       2332 22.12                             122    0.12 9  202 292 
 ZAR  HZ I        2332 27.51        12.8 0.36            123            202 292 
 NOR  HZ EP       2332  0.77                             118    0.34 8  235 234 
 NOR  HN ES       2332 28.17                             118   -0.10 8  235 234 
 NOR  HZ I        2332 35.01         7.4 0.16            119            235 234 
 SML  HZ EP       2332  0.54                             117   -0.48 8  241 335 
 SML  HN ES       2332 29.50                             117    0.17 8  241 335 
 SML  HZ I        2332 31.98        17.0 0.24            119            241 335 
 GUY2CHZ EP   4   2332  9.73                             112    1.41 0  302 234 
 GUY2CHN ES   4   2332 45.21                             112    2.88 0  302 234 
 GUY2CHZ I        2332 52.36         4.4 0.36                           302 234 
 SJC  HZ EP   2   2332 18.54                             105   -1.43 3  407 327 
 SJC  HN ES   2   2333  1.58                             105   -1.48 3  407 327 
 SJC  HZ I        2333  4.13         2.4 0.58            107            407 327 
                                                                                
