 2012 1213 2059 35.7 L   6.389 -73.928 32.1  RSN  5 0.2 1.5LRSN                1
 GAP=112        0.40       2.4     3.3 15.6  0.2921E+01 -0.4221E+02 -0.1744E+02E
 Epicentro: CIMITARRA - SANTANDER                                              3
 ACTION:UPD 13-01-04 14:27 OP:ep   STATUS:               ID:20121213205935 L   I
 2012-12-13-2057-50M.COL___218                                                 6
 STAT SP IPHASW D HRMM SECON CODA AMPLIT PERI AZIMU VELO AIN AR TRES W  DIS CAZ7
 PTB  HZ IP     D 2059 46.19                              61    0.0010 60.7 286 
 PTB  HZ I        2059 52.79        26.7 0.18                          60.7 286 
 BRR  HZ EP   1   2059 49.21                              61    0.27 7 82.9  17 
 BRR  HN ES   1   2059 59.07                              61   -0.22 7 82.9  17 
 BRR  HZ I        2059 59.43        18.0 0.12                          82.9  17 
 BAR2 SZ ES   1   21 0  0.43                              61    0.06 7 85.5  75 
 BAR2 SZ I        21 0  1.95        21.7 0.22                          85.5  75 
 RUS  HN ES   2   21 0  5.94                              61   -0.08 5  108 120 
 CHI  HZ EP   1   21 0  3.46                              61   -0.09 6  196 174 
 CHI  HZ I        21 0 39.96         1.7 0.72                           196 174 
                                                                                
