 2017  913 2211 24.3 L   6.814 -73.122148.8  RSN  4 0.2 1.4LRSN                1
 GAP=139        0.46       2.5     2.8  4.0 -0.1917E+01  0.2273E+01  0.2440E+01E
 Epicentro: LOS SANTOS - SANTANDER                                             3
 ACTION:UPD 17-10-05 19:12 OP:rebc STATUS:               ID:20170913221124 L   I
 OLDACT:DUP 17-09-14 04:28 OP:dhb  STATUS:               ID:20170913215609d    3
 OLDACT:UP  17-09-14 04:20 OP:dhb  STATUS:               ID:20170913215608d    3
 OLDACT:DUP 17-09-14 04:15 OP:dhb  STATUS:               ID:20170913215608d    3
 OLDACT:REG 17-09-14 02:32 OP:dhb  STATUS:               ID:20170913215607     3
 2017-09-13-2208-00M.COL___467                                                 6
 STAT SP IPHASW D HRMM SECON CODA AMPLIT PERI AZIMU VELO AIN AR TRES W  DIS CAZ7
 BRR  HZ EP       2211 45.82                             152   -0.0510 72.8 296 
 BRR  HN ES       2212  2.75                             152    0.0610 72.8 296 
 BRR  HZ I        2212  8.35         6.7 0.19            150           72.8 296 
 PAM  EZ IP     C 2211 46.97                             152    0.3010 74.5  39 
 PAM  EN ES       2212  3.91                             152   -0.2110 74.5  39 
 PAM  EZ I        2212  5.72         3.9 0.19            156           74.5  39 
 RUS  HZ EP       2211 48.39                             144   -0.0510  102 178 
 RUS  HN ES       2212  7.33                             144    0.0510  102 178 
 RUS  HZ I        2212  7.91         3.5 0.32            147            102 178 
 NOR  HZ EP       2212  0.31                             119   -0.22 8  238 235 
 NOR  HN ES       2212 28.85                             119    0.06 8  238 235 
 NOR  HZ I        2212 34.49         1.5 0.21            120            238 235 
                                                                                
