 2014  513 2346 11.1 L   6.777 -73.117149.1  RSN  7 0.4 1.7LRSN                1
 GAP=141        0.93       5.0     4.4  8.6 -0.6753E+01  0.1136E+02  0.3241E+01E
 Epicentro: LOS SANTOS - SANTANDER                                             3
 ACTION:UPD 15-03-16 16:57 OP:nd   STATUS:               ID:20140513234611 L   I
 OLDACT:UP  14-05-14 05:42 OP:mh   STATUS:               ID:20140513234001d    3
 OLDACT:DUP 14-05-14 05:32 OP:mh   STATUS:               ID:20140513234001d    3
 2014-05-13-2340-00M.COL___276                                                 6
 STAT SP IPHASW D HRMM SECON CODA AMPLIT PERI AZIMU VELO AIN AR TRES W  DIS CAZ7
 BRR  HZ EP       2346 32.65                             152   -0.1810 75.2 299 
 BRR  HE ES   1   2346 50.30                             152    0.51 7 75.2 299 
 BRR  HZ I        2346 59.20        11.8 0.13            150           75.2 299 
 PAM  SZ EP       2346 34.10                             151    0.4310 77.4  37 
 PAM  SN ES       2346 51.08                             151   -0.2010 77.4  37 
 PAM  SZ I        2346 53.87         6.8 0.27            156           77.4  37 
 RUS  HZ EP       2346 35.21                             145    0.2210 97.9 178 
 RUS  HN ES       2346 53.59                             145   -0.0410 97.9 178 
 RUS  HZ I        2346 55.20         3.9 0.25            151           97.9 178 
 PTB  HZ EP       2346 37.93                             132   -0.65 9  150 260 
 PTB  HN ES       2346 59.66                             132   -0.35 9  150 260 
 PTB  HZ I        2347  1.16         7.1 0.33            134            150 260 
 NOR  HN ES       2347 15.20                             119   -0.06 8  236 235 
 NOR  HZ I        2347 20.76         4.7 0.27            123            236 235 
 HEL  HN ES       2347 24.15                             115    0.69 8  275 256 
 HEL  HZ I        2347 30.63         4.1 0.42            118            275 256 
 OTAV BZ E        2344 57.01                                            935 220 
                                                                                
