 2010  713 2347 59.7 L   6.858 -73.035149.4  RSN  4 0.1 1.9LRSN                1
 GAP=176        0.31       4.2     8.9  7.9  0.2500E+02 -0.5292E+02 -0.1582E+02E
 Epicentro: LOS SANTOS - SANTANDER                                             3
 ACTION:UPD 10-12-01 15:17 OP:pat  STATUS:               ID:20100713234759 L   I
 2010-07-13-2347-25S.COL___120                                                 6
 STAT SP IPHASW D HRMM SECON CODA AMPLIT PERI AZIMU VELO AIN AR TRES W  DIS CAZ7
 BAR2 SZ EP   2   2348 19.93                             167    -0.1 5   34 209 
 BAR2 SZ I        2348 36.53        23.7 0.12                            34 209 
 BRR  HZ EP   1   2348 21.78                             151     0.1 7   80 290 
 BRR  HZ I        2348 21.90        10.3 0.14                            80 290 
 BRR  HN ES   1   2348 38.86                             151     0.0 7   80 290 
 RUS  HZ EP   1   2348 24.18                             143    -0.1 7  107 183 
 RUS  HE ES   2   2348 43.46                             143     0.1 5  107 183 
 GUE  SZ EP   2   2348 24.09                             143     0.0 5  108   6 
                                                                                
