 2016  513 2338 50.0 L   6.789 -73.132145.3  RSN  8 0.4 2.0LRSN                1
 GAP=166        1.10       5.4     3.7  6.7  0.4396E+01  0.3611E+01  0.2390E+01E
 Epicentro: LOS SANTOS - SANTANDER                                             3
 ACTION:UPD 16-08-18 17:45 OP:cam  STATUS:               ID:20160513233850 L   I
 OLDACT:REG 16-05-14 03:57 OP:ar   STATUS:               ID:20160513232743     3
 2016-05-13-2327-43M.COL___313                                                 6
 STAT SP IPHASW D HRMM SECON CODA AMPLIT PERI AZIMU VELO AIN AR TRES W  DIS CAZ7
 BAR2 EZ IP     C 2339  9.43                             171   -0.0910 22.4 194 
 BAR2 EZ ES       2339 24.14                             171   -0.6310 22.4 194 
 BAR2 EZ I        2339 26.23        13.0 0.24            172           22.4 194 
 BRR  HZ IP     C 2339 11.25                             152    0.0810 73.1 299 
 BRR  HN ES       2339 28.66                             152    0.9510 73.1 299 
 BRR  HZ I        2339 33.61        16.7 0.14            153           73.1 299 
 RUS  HZ EP       2339 13.42                             144   -0.1510 99.2 177 
 RUS  HN ES       2339 32.20                             144    0.2210 99.2 177 
 RUS  HZ I        2339 32.65        11.4 0.28            146           99.2 177 
 PTB  HZ EP       2339 16.33                             132   -0.67 9  149 259 
 PTB  HN ES       2339 37.51                             132   -0.58 9  149 259 
 PTB  HZ I        2339 44.05        13.7 0.36            133            149 259 
 TAM  HZ EP       2339 17.28                             131   -0.15 9  153 105 
 TAM  HN ES       2339 39.10                             131    0.23 9  153 105 
 TAM  HZ I        2339 51.31        16.9 0.44            132            153 105 
 ZAR  HZ EP       2339 22.84                             122    0.27 8  206 292 
 ZAR  HN ES       2339 47.88                             122   -0.12 8  206 292 
 ZAR  HZ I        2339 53.47        21.7 0.34            124            206 292 
 NOR  HZ EP       2339 25.92                             118    0.21 8  235 235 
 NOR  HN ES       2339 53.80                             118    0.20 8  235 235 
 NOR  HZ I        2340  1.55         7.5 0.58            120            235 235 
 PRA  HN ES       2340 25.89                             106    0.77 6  392 210 
 PRA  HZ I        2340 28.96         4.3 0.42            108            392 210 
                                                                                
