 2011  813 2016 57.4 L   6.715 -73.141150.0  RSN  4 0.3 1.6LRSN                1
 GAP=141        0.49       5.0     6.6  6.0  0.7142E+01 -0.3794E+01 -0.7769E+00E
 Epicentro: JORDAN - SANTANDER                                                 3
 ACTION:UPD 12-07-13 15:51 OP:ep   STATUS:               ID:20110813201657 L   I
 2011-08-13-2011-21S.COL___149                                                 6
 STAT SP IPHASW D HRMM SECON CODA AMPLIT PERI AZIMU VELO AIN AR TRES W  DIS CAZ7
 BAR2 SZ EP   1   2017 17.07                             174   -0.30 7 14.4 199 
 BAR2 SZ ES   1   2017 33.04                             174    0.07 7 14.4 199 
 BAR2 SZ I        2017 33.83         8.0 0.26                          14.4 199 
 BRR  HZ EP   1   2017 19.05                             152   -0.24 7 76.6 304 
 BRR  HZ I        2017 34.81        17.9 0.49                          76.6 304 
 BRR  HN ES   1   2017 36.57                             152    0.19 7 76.6 304 
 PAM  SZ EP   2   2017 21.03                             150    0.56 5 84.5  35 
 PAM  SN ES   2   2017 38.29                             150   -0.20 5 84.5  35 
 RUS  HZ EP   2   2017 21.09                             148    0.18 5 91.2 176 
 RUS  HN ES   2   2017 39.35                             148    0.09 5 91.2 176 
 RUS  HZ I        2017 39.95         3.5 0.59                          91.2 176 
                                                                                
