 2013 1013 2214  3.7 L   6.827 -73.176144.9  RSN  8 0.5 1.6LRSN                1
 GAP=131        1.24       3.8     5.2  7.0 -0.4317E+01  0.4091E+01 -0.9059E+00E
 Epicentro: LOS SANTOS - SANTANDER                                             3
 ACTION:UPD 13-11-25 09:21 OP:ep   STATUS:               ID:20131013221403 L   I
 OLDACT:REG 13-10-13 22:22 OP:stll STATUS:               ID:20131013220849     3
 2013-10-13-2208-49M.COL___230                                                 6
 STAT SP IPHASW D HRMM SECON CODA AMPLIT PERI AZIMU VELO AIN AR TRES W  DIS CAZ7
 BAR2 SZ EP       2214 23.39                             169    0.1410 25.9 181 
 BAR2 SZ ES       2214 37.77                             169   -0.7510 25.9 181 
 BAR2 SZ I        2214 41.59        13.0 0.26            170           25.9 181 
 BRR  HZ EP       2214 25.13                             154    0.6510 66.8 298 
 BRR  HN ES       2214 41.72                             154    1.0110 66.8 298 
 BRR  HZ I        2214 45.27         7.1 0.30            153           66.8 298 
 PAM  SZ EP       2214 26.22                             151    0.4310 77.4  43 
 PAM  SZ I        2214 26.39         6.7 0.20            153           77.4  43 
 PAM  SN ES       2214 42.81                             151   -0.2410 77.4  43 
 RUS  HZ EP       2214 27.30                             143   -0.2710  104 174 
 RUS  HN ES       2214 46.32                             143    0.1110  104 174 
 RUS  HZ I        2214 47.05         4.5 0.28            145            104 174 
 PTB  HZ EP       2214 30.04                             132   -0.28 9  145 257 
 PTB  HN ES       2214 50.89                             132   -0.22 9  145 257 
 PTB  HZ I        2214 52.97         6.3 0.42            133            145 257 
 CAPV BZ EP       2214 31.28                             132    0.30 9  149  40 
 CAPV BZ ES       2214 52.13                             132   -0.14 9  149  40 
 SML  HZ EP       2214 39.82                             118    0.02 8  240 336 
 SML  HE ES       2215  6.90                             118   -1.09 8  240 336 
 SML  HZ I        2215 12.95         5.1 0.22            119            240 336 
 CHI  HZ EP       2214 41.40                             117   -0.14 8  251 194 
 CHI  HN ES       2215 11.06                             117   -0.01 8  251 194 
 CHI  HZ I        2215 14.06         2.6 0.42            118            251 194 
                                                                                
