 2014  413 2127  0.6 L   6.855 -73.135144.9  RSN 19 0.5 2.5LRSN                1
 GAP= 70        1.20       2.8     3.2  5.9 -0.1525E+01  0.3136E+01  0.3166E+01E
 Epicentro: LOS SANTOS - SANTANDER                                             3
 ACTION:UPD 14-05-13 23:08 OP:nd   STATUS:               ID:20140413212700 L   I
 OLDACT:REG 14-04-14 06:41 OP:carl STATUS:               ID:20140413211820     3
 2014-04-13-2118-20M.COL___272                                                 6
 STAT SP IPHASW D HRMM SECON CODA AMPLIT PERI AZIMU VELO AIN AR TRES W  DIS CAZ7
 BRR  HZ EP       2127 21.87                             153    0.2810 69.6 294 
 BRR  HE ES       2127 38.59                             153    0.6410 69.6 294 
 BRR  HZ I        2127 42.06        32.5 0.42            147           69.6 294 
 PAM  SZ EP       2127 22.76                             152    0.3210 72.0  42 
 PAM  SN ES       2127 39.84                             152    0.3910 72.0  42 
 PAM  SZ I        2127 41.83        75.7 0.52            151           72.0  42 
 RUS  HZ EP       2127 24.24                             142   -0.5010  107 177 
 RUS  HN ES       2127 43.14                             142   -0.4010  107 177 
 RUS  HZ I        2127 44.74        48.7 0.30            141            107 177 
 PTB  HZ EP   4   2127 26.78                             131   -0.97 0  150 257 
 PTB  HN ES       2127 48.15                             131   -0.76 9  150 257 
 PTB  HE ES       2127 48.89                             131            150 257 
 PTB  HZ I        2127 50.51        47.3 0.40            127            150 257 
 OCA  HZ EP       2127 28.58                             130    0.26 9  154 352 
 OCA  HE ES       2127 49.75                             130   -0.17 9  154 352 
 OCA  HZ I        2127 55.30        28.9 0.28            127            154 352 
 TAM  HZ EP       2127 28.48                             130    0.19 9  156 107 
 TAM  HN ES       2127 50.26                             130    0.40 9  156 107 
 SPBC HZ EP       2127 29.08                             128   -0.51 9  169 218 
 SPBC HN ES       2127 51.97                             128   -0.21 9  169 218 
 SPBC HZ I        2127 57.99        44.0 0.20            125            169 218 
 ZAR  HZ EP       2127 32.70                             122   -0.21 9  203 290 
 ZAR  HN ES       2127 57.90                             122   -0.18 9  203 290 
 SML  HZ EP       2127 36.16                             118   -0.51 8  239 334 
 SML  HN ES       2128  3.94                             118   -0.84 8  239 334 
 SML  HZ I        2128  7.54        29.9 0.10            115            239 334 
 NOR  HZ EP       2127 36.49                             118   -0.31 8  239 233 
 NOR  HN ES       2128  4.78                             118   -0.23 8  239 233 
 NOR  HZ I        2128 11.87        28.4 0.18            115            239 233 
 CHI  HZ EP       2127 38.57                             116   -0.38 8  255 195 
 CHI  HN ES       2128  8.22                             116   -0.63 8  255 195 
 CHI  HZ I        2128 14.58        15.4 0.34            114            255 195 
 ROSC BZ EP   4   2127 40.27                             116    0.93 0  259 211 
 ROSC BN ES   4   2128 11.18                             116    1.65 0  259 211 
 HEL  HZ EP       2127 42.10                             114    1.00 8  275 255 
 HEL  HN ES       2128 13.20                             114    0.53 8  275 255 
 HEL  HZ I        2128 19.91        21.4 0.26            112            275 255 
 GUY2CHZ EP       2127 45.67                             112    0.96 7  306 234 
 GUY2CHE ES       2128 20.47                             112    1.38 7  306 234 
 GUY2CHZ I        2128 28.44        20.9 0.68                           306 234 
 VIL  SZ EP   4   2127 42.23                             111   -2.48 0  310 192 
 VIL  SE ES   4   2128 18.11                             111   -0.98 0  310 192 
 RREF HZ EP       2127 47.98                             110    0.69 7  327 229 
 RREF HN ES       2128 22.89                             110   -0.80 7  327 229 
 RREF HZ I        2128 32.42        19.4 0.28            108            327 229 
 CBOC HZ EP   4   2127 48.43                             109    0.57 0  337 251 
 CBOC HE ES   4   2128 23.43                             109   -1.27 0  337 251 
 CBOC HZ I        2128 36.67         5.8 0.56            107            337 251 
 DBB  SZ EP   4   2127 47.11                             109   -1.05 0  340 273 
 DBB  SZ ES   4   2128 24.63                             109   -0.61 0  340 273 
 SDV  BZ EP       2127 49.45                             108   -0.63 6  356  51 
 SDV  BN ES   4   2128 25.40                             108   -3.25 0  356  51 
 SDV  BZ I        2128 29.25         7.1 0.35            107            356  51 
 ANIL HZ EP       2127 51.58                             108    0.58 6  363 224 
 ANIL HE ES   4   2128 32.58                             108    2.29 0  363 224 
 PRA  HZ EP       2127 54.67                             106   -0.14 6  398 209 
 PRA  HN ES       2128 36.67                             106   -0.40 6  398 209 
 PRA  HZ I        2128 43.14        15.7 0.32            104            398 209 
 ORTC HZ EP       2127 55.55                             106    0.37 6  401 216 
 ORTC HN ES       2128 38.07                             106    0.34 6  401 216 
 ORTC HZ I        2128 44.46         8.8 0.50            104            401 216 
                                                                                
