 2012 1013 2322 44.3 L   6.790 -73.121144.0  RSN 12 0.4 2.6LRSN                1
 GAP= 73        0.80       3.7     3.3  5.9 -0.5627E+00  0.3986E+01  0.6720E+01E
 Epicentro: LOS SANTOS - SANTANDER                                             3
 ACTION:UPD 12-11-22 17:03 OP:ep   STATUS:               ID:20121013232244 L   I
 2012-10-13-2320-00M.COL___231                                                 6
 STAT SP IPHASW D HRMM SECON CODA AMPLIT PERI AZIMU VELO AIN AR TRES W  DIS CAZ7
 BAR2 SZ EP       2323  3.50                             171   -0.1710 22.9 197 
 BAR2 SZ ES   1   2323 18.81                             171    0.01 7 22.9 197 
 BAR2 SZ I        2323 21.23        73.2 0.38                          22.9 197 
 GIR2 SZ EP   1   2323  3.54                             167   -0.22 7 32.9 346 
 BRR  HZ EP       2323  5.34                             151   -0.0410 74.1 298 
 BRR  HN ES   1   2323 22.66                             151    0.80 7 74.1 298 
 BRR  HN I        2323 23.21       106.7 0.24                          74.1 298 
 PAM  SZ EP       2323  6.20                             151   -0.0310 76.5  37 
 PAM  SN ES   1   2323 23.50                             151    0.12 7 76.5  37 
 PAM  SN I        2323 24.67        48.3 0.70                          76.5  37 
 RUS  HZ EP       2323  7.33                             144   -0.4110 99.3 178 
 RUS  HN ES   1   2323 25.67                             144   -0.39 7 99.3 178 
 RUS  HN I        2323 28.02        43.6 0.33                          99.3 178 
 TAM  HZ EP   1   2323 11.45                             131   -0.07 7  152 105 
 TAM  HN ES   1   2323 33.34                             131    0.55 7  152 105 
 TAM  HN I        2323 34.15        70.9 0.44                           152 105 
 ZAR  HN ES   1   2323 41.69                             122   -0.66 6  207 292 
 ZAR  HN I        2323 47.88        34.6 0.50                           207 292 
 NOR  SN ES   1   2323 47.83                             118   -0.15 6  236 235 
 NOR  SN I        2323 53.61        33.2 0.16                           236 235 
 CHI  HZ EP   1   2323 21.37                             117   -0.45 6  248 196 
 CHI  HN ES   1   2323 51.26                             117    0.14 6  248 196 
 CHI  HN I        2323 53.39        22.0 0.28                           248 196 
 ROSC BZ EP   1   2323 23.47                             116    1.14 6  253 212 
 ROSC BZ I        2323 59.53        21.2 0.51                           253 212 
 HEL  HZ EP   1   2323 24.91                             114    0.27 6  274 256 
 HEL  HN ES   1   2323 56.34                             114    0.19 6  274 256 
 HEL  HN I        2324  1.92        10.0 0.30                           274 256 
 PRA  HZ EP   1   2323 37.80                             106    0.04 4  392 210 
 PRA  HN ES   1   2324 20.24                             106    0.74 4  392 210 
 PRA  HN I        2324 24.85        25.9 0.90                           392 210 
                                                                                
