 2012  313 2214 57.1 L   6.724 -73.264146.8  RSN  4 0.2 1.5LRSN                1
 GAP=217        0.51       7.5     7.7  8.6  0.4491E+02  0.8645E+01 -0.4880E+01E
 ACTION:UP  12-03-31 23:19 OP:EP   STATUS:               ID:20120313221457 L   I
 2012-03-13-2210-00M.COL___199                                                 6
 STAT SP IPHASW D HRMM SECON CODA AMPLIT PERI AZIMU VELO SNR AR TRES W  DIS CAZ7
 BRR  HZ EP   2   2215 18.38                             155     0.3 5   65 311 
 BRR  HE ES   2   2215 34.45                             155     0.1 5   65 311 
 BRR  HZ I        2215 39.02        11.5 0.34                            65 311 
 RUS  HZ EP   2   2215 20.65                             146     0.1 5   94 168 
 RUS  HN ES   1   2215 38.61                             146    -0.2 7   94 168 
 RUS  HZ I        2215 39.44         2.6 0.37                            94 168 
 PTB  HZ EP   1   2215 22.83                             135    -0.1 7  133 261 
 PTB  HE ES   2   2215 43.46                             135     0.4 5  133 261 
 PTB  HZ I        2215 50.50         2.5 0.34                           133 261 
 ZAR  HN ES   1   2215 53.15                             124    -0.3 6  196 296 
 ZAR  HZ I        2216  0.75         4.2 0.29                           196 296 
                                                                                
