 2015 1213 2318 15.7 L   6.801 -73.163145.6  RSN  9 0.4 1.7LRSN                1
 GAP=134        0.93       3.6     4.1  5.8  0.1395E+01  0.5140E+01 -0.2465E+01E
 Epicentro: LOS SANTOS - SANTANDER                                             3
 ACTION:UPD 16-02-04 15:04 OP:cam  STATUS:               ID:20151213231815 L   I
 OLDACT:REG 15-12-14 05:17 OP:ak   STATUS:               ID:20151213230748     3
 2015-12-13-2307-48M.COL___339                                                 6
 STAT SP IPHASW D HRMM SECON CODA AMPLIT PERI AZIMU VELO AIN AR TRES W  DIS CAZ7
 BAR2 EZ EP       2318 35.70                             171    0.3910 23.2 185 
 BAR2 EZ ES       2318 50.37                             171   -0.2310 23.2 185 
 BAR2 EZ I        2318 52.04        13.4 0.30            170           23.2 185 
 BRR  HZ EP       2318 37.00                             153    0.2610 69.5 299 
 BRR  HN ES       2318 53.74                             153    0.6010 69.5 299 
 BRR  HZ I        2318 55.60         8.3 0.21            150           69.5 299 
 PAM  EZ EP       2318 38.27                             150    0.3010 78.5  41 
 PAM  EN ES       2318 55.25                             150   -0.0810 78.5  41 
 PAM  EZ I        2318 57.50         9.0 0.56            154           78.5  41 
 RUS  HZ EP       2318 39.21                             144   -0.2410  101 175 
 RUS  HN ES       2318 57.63                             144   -0.3510  101 175 
 RUS  HZ I        2318 58.92         3.3 0.28            147            101 175 
 PTB  HZ EP       2318 42.76                             132    0.27 9  146 259 
 PTB  HN ES       2319  2.93                             132   -0.45 9  146 259 
 PTB  HZ I        2319 10.30         4.4 0.13            132            146 259 
 ZAR  HZ EP   4   2318 49.67                             123    1.72 0  202 292 
 ZAR  HE ES       2319 13.39                             123    0.29 9  202 292 
 ZAR  HZ I        2319 20.09         7.5 0.36            123            202 292 
 SML  HZ IP       2318 51.48                             117   -0.74 8  243 336 
 SML  HE ES       2319 20.14                             117   -0.57 8  243 336 
 SML  HZ I        2319 23.39         8.3 0.10            119            243 336 
 GUY2CHZ EP   2   2318 59.65                             112    0.51 4  300 235 
 GUY2CHE ES   4   2319 36.01                             112    3.00 0  300 235 
 GUY2CHZ I        2319 42.89         1.3 0.30                           300 235 
 PRA  HZ EP   2   2319  9.75                             107    0.63 3  391 209 
 PRA  HN ES   2   2319 50.64                             107   -0.14 3  391 209 
                                                                                
