 2017 1113 2352 50.7 L   6.768 -73.132151.8  RSN  5 0.3 1.2LRSN                1
 GAP=140        0.58       3.5     4.3  5.9  0.7122E+00 -0.2209E+01 -0.6746E+00E
 Epicentro: LOS SANTOS - SANTANDER                                             3
 ACTION:UPD 17-12-12 19:55 OP:rebc STATUS:               ID:20171113235250 L   I
 OLDACT:UP  17-11-14 06:46 OP:mg   STATUS:               ID:20171113234739     3
 OLDACT:UP  17-11-14 06:20 OP:mg   STATUS:               ID:20171113234739     3
 OLDACT:REG 17-11-14 03:39 OP:mg   STATUS:               ID:20171113234739     3
 2017-11-13-2348-00M.COL___447                                                 6
 STAT SP IPHASW D HRMM SECON CODA AMPLIT PERI AZIMU VELO AIN AR TRES W  DIS CAZ7
 BAR2 HZ EP   1   2353 10.88                             172   -0.16 7 20.2 196 
 BRR  HZ EP       2353 12.74                             153    0.0310 74.2 300 
 BRR  HE ES       2353 30.12                             153    0.2810 74.2 300 
 BRR  HZ I        2353 33.39         5.5 0.28            150           74.2 300 
 PAM  EZ EP       2353 13.74                             151    0.0410 79.2  37 
 PAM  EN ES   1   2353 31.31                             151   -0.31 7 79.2  37 
 PAM  EZ I        2353 33.18         2.2 0.48            156           79.2  37 
 RUS  HZ EP   1   2353 15.12                             146    0.28 7 97.0 177 
 RUS  HN ES       2353 33.62                             146   -0.0210 97.0 177 
 RUS  HZ I        2353 35.10         2.3 0.27            148           97.0 177 
 PTB  HZ EP   2   2353 18.09                             133   -0.18 5  149 260 
 PTB  HN ES   2   2353 38.87                             133   -0.89 5  149 260 
 PTB  HZ I        2353 46.20         1.3 0.32            133            149 260 
                                                                                
