 2013  113 2019 33.7 L   6.715 -73.184140.2  RSN  7 0.4 2.1LRSN                1
 GAP=226        0.91       5.5     5.4  6.3  0.1314E+02  0.9622E+01  0.9697E+01E
 Epicentro: VILLANUEVA - SANTANDER                                             3
 ACTION:UPD 13-02-15 09:14 OP:ep   STATUS:               ID:20130113201933 L   I
 2013-01-13-2014-48M.COL___184                                                 6
 STAT SP IPHASW D HRMM SECON CODA AMPLIT PERI AZIMU VELO AIN AR TRES W  DIS CAZ7
 BAR2 SZ EP       2019 52.30                             174   -0.2010 13.6 179 
 BAR2 SZ ES       2020  6.93                             174   -0.2310 13.6 179 
 BAR2 SZ I        2020  8.06        39.5 0.24            167           13.6 179 
 BRR  HZ IP     D 2019 54.24                             151   -0.1010 72.7 307 
 BRR  HZ I        2019 54.63        33.1 0.09            147           72.7 307 
 BRR  HN ES       2020 10.93                             151    0.5010 72.7 307 
 RUS  HZ EP       2019 56.31                             145    0.0510 91.6 173 
 RUS  HE ES       2020 14.07                             145    0.2110 91.6 173 
 RUS  HE I        2020 15.77        34.3 0.19            143           91.6 173 
 PTB  HZ EP       2019 59.15                             132   -0.54 9  142 262 
 PTB  HN ES       2020 19.41                             132   -0.55 9  142 262 
 PTB  HZ I        2020 22.76        16.2 0.11            128            142 262 
 ZAR  HN ES   1   2020 31.41                             121    0.62 6  204 295 
 ZAR  HZ I        2020 37.50        10.5 0.43            120            204 295 
 NOR  HZ EP   1   2020  8.09                             118   -0.06 6  226 236 
 NOR  HN ES   1   2020 35.47                             118    0.44 6  226 236 
 NOR  HZ I        2020 43.58         7.2 0.18            116            226 236 
 CHI  HZ EP       2020 10.51                             117    0.53 8  238 195 
                                                                                
