 2011 1113 2240 44.5 L   6.777 -73.148138.0  RSN 12 0.4 2.1LRSN                1
 GAP=137        0.72       3.4     4.3  5.3 -0.3088E+01  0.7426E+01  0.9816E+00E
 Epicentro: LOS SANTOS - SANTANDER                                             3
 ACTION:UPD 12-07-13 16:10 OP:ep   STATUS:               ID:20111113224044 L   I
 2011-11-13-2238-43S.COL___179                                                 6
 STAT SP IPHASW D HRMM SECON CODA AMPLIT PERI AZIMU VELO AIN AR TRES W  DIS CAZ7
 BTL  SZ EP       2241  3.48                             171    0.3710 20.5 320 
 BAR2 SZ IP       2241  3.17                             171    0.0610 20.8 191 
 BAR2 SZ ES   1   2241 17.50                             171   -0.16 7 20.8 191 
 BAR2 SZ I        2241 20.35        44.0 0.34                          20.8 191 
 BRR  HZ IP     C 2241  5.09                             151    0.2410 72.3 300 
 BRR  HZ I        2241  5.56        44.0 0.08                          72.3 300 
 BRR  HN ES   1   2241 21.32                             151    0.58 7 72.3 300 
 PAM  SZ EP       2241  6.20                             149    0.2010 79.5  38 
 PAM  SN ES   1   2241 22.57                             149   -0.22 7 79.5  38 
 RUS  HZ EP       2241  7.12                             143   -0.1510 98.0 176 
 RUS  HE ES   2   2241 24.67                             143   -0.39 5 98.0 176 
 RUS  HZ I        2241 27.55        16.4 0.42                          98.0 176 
 OCA  SZ EP       2241 12.18                             128   -0.25 9  163 353 
 OCA  SZ ES   2   2241 33.74                             128   -0.50 5  163 353 
 OCA  SZ I        2241 35.94        13.0 0.47                           163 353 
 ZAR  HZ EP       2241 15.71                             121   -0.79 9  205 293 
 ZAR  HN ES   2   2241 41.79                             121    0.30 4  205 293 
 ZAR  HZ I        2241 45.10        12.1 0.58                           205 293 
 CTAB SZ EP   3   2241 20.63                             118    1.11 2  228 211 
 CTAB SZ I        2241 55.51        12.9 0.38                           228 211 
 NOR  SZ EP       2241 19.54                             117   -0.04 8  233 235 
 NOR  SN ES   1   2241 46.73                             117   -0.23 6  233 235 
 CHI  HZ EP   2   2241 21.48                             116    0.01 4  246 195 
 CHI  HZ I        2241 58.00         5.0 0.54                           246 195 
 HEL  HZ EP   2   2241 25.04                             113    0.84 4  271 256 
 HEL  HZ I        2242  2.02        10.3 0.28                           271 256 
 RREF HZ EP   2   2241 30.71                             110    0.64 3  320 230 
 RREF HN ES   2   2242  5.37                             110   -0.27 3  320 230 
 RREF HZ I        2242 12.34         6.0 0.24                           320 230 
                                                                                
