 2016 1113 2144 53.0 L   6.804 -73.144148.6  RSN  8 0.5 1.8LRSN                1
 GAP=151        1.10       4.7     4.8  7.1 -0.3141E+01  0.6570E+01  0.1194E+02E
 Epicentro: LOS SANTOS - SANTANDER                                             3
 ACTION:UPD 17-10-26 21:07 OP:lp   STATUS:               ID:20161113214453 L   I
 OLDACT:REG 16-11-14 03:13 OP:cog  STATUS:               ID:20161113213745     3
 2016-11-13-2138-00M.COL___343                                                 6
 STAT SP IPHASW D HRMM SECON CODA AMPLIT PERI AZIMU VELO AIN AR TRES W  DIS CAZ7
 BAR2 EZ EP       2145 12.99                             171    0.0010 23.8 190 
 BAR2 EZ ES       2145 27.79                             171   -0.7910 23.8 190 
 BAR2 EZ I        2145 29.63        16.8 0.34            169           23.8 190 
 BRR  HZ EP       2145 14.87                             153    0.4110 71.1 298 
 BRR  HN ES       2145 31.88                             153    0.6810 71.1 298 
 PAM  EZ EP       2145 15.63                             151    0.1310 76.9  40 
 PAM  EN ES       2145 33.11                             151    0.0710 76.9  40 
 PAM  EZ I        2145 35.12         4.3 0.20            155           76.9  40 
 PTB  HZ EP       2145 19.86                             132   -0.37 9  148 259 
 PTB  HN ES       2145 40.87                             132   -0.60 9  148 259 
 PTB  HZ I        2145 46.82        10.3 0.26            132            148 259 
 ZAR  HZ EP       2145 25.50                             123   -0.14 9  204 292 
 ZAR  HE ES       2145 50.96                             123   -0.13 9  204 292 
 ZAR  HZ I        2145 57.48        11.7 0.52            123            204 292 
 NOR  HN ES       2145 57.63                             119    0.65 8  235 234 
 CHI  HZ EP       2145 30.96                             118    0.04 8  249 195 
 CHI  HN ES       2146  1.09                             118    0.60 8  249 195 
 CHI  HZ I        2146  6.21         3.4 0.30            119            249 195 
 PRA  HZ EP       2145 45.91                             107   -0.77 6  392 210 
 PRA  HN ES       2146 28.45                             107   -0.10 6  392 210 
                                                                                
