 2011 1013 2243 34.9 L   6.926 -72.836144.8  RSN  5 0.4 1.9LRSN                1
 GAP=175        0.75       5.8     8.6  7.5  0.8394E+01  0.1568E+02  0.4110E+01E
 Epicentro: GUACA - SANTANDER                                                  3
 ACTION:UPD 12-07-13 16:03 OP:ep   STATUS:               ID:20111013224334 L   I
 2011-10-13-2242-50S.COL___168                                                 6
 STAT SP IPHASW D HRMM SECON CODA AMPLIT PERI AZIMU VELO AIN AR TRES W  DIS CAZ7
 PAM  SZ I        2243 59.60        11.6 0.17                          48.2  18 
 PAM  SN ES   1   2244 11.39                             161   -0.26 7 48.2  18 
 BAR2 SZ EP   1   2243 55.48                             159    0.09 7 53.1 226 
 BAR2 SZ ES   1   2244 11.72                             159    0.36 7 53.1 226 
 BAR2 SZ I        2244 14.61        22.0 0.46                          53.1 226 
 BRR  HZ EP   1   2243 58.38                             144    0.64 7 98.8 282 
 BRR  HZ I        2243 58.70        22.5 0.18                          98.8 282 
 BRR  HN ES   1   2244 15.42                             144   -0.13 7 98.8 282 
 RUS  HZ EP   1   2243 59.98                             139    0.13 7  117 193 
 RUS  HN ES   1   2244 18.88                             139   -0.42 7  117 193 
 RUS  HZ I        2244 20.41         6.1 0.26                           117 193 
 ZAR  HZ EP   1   2244  9.60                             118   -0.63 6  232 286 
 ZAR  HZ I        2244 41.62         4.7 0.30                           232 286 
                                                                                
