 2010 1113 2313 39.1 L   6.751 -73.098142.5  RSN 13 0.4 2.1LRSN                1
 GAP=164        0.95       3.7     6.3  5.5 -0.9808E+01  0.6268E+01  0.1710E+01E
 Epicentro: LOS SANTOS - SANTANDER                                             3
 ACTION:UP  10-12-17 16:52 OP:REBC STATUS:               ID:20101113231339 L   I
 2010-11-13-2312-05S.COL___129                                                 6
 STAT SP IPHASW D HRMM SECON CODA AMPLIT PERI AZIMU VELO SNR AR TRES W  DIS CAZ7
 BAR2 SZ EP       2313 58.12                             172    -0.210   20 208 
 BAR2 SZ ES   1   2314 13.43                             172     0.2 7   20 208 
 BAR2 SZ I        2314 15.26        34.3 0.40                            20 208 
 BTL  SZ EP       2313 58.60                             169     0.210   26 315 
 BTL  SZ ES   1   2314 13.07                             169    -0.4 7   26 315 
 GIR2 SZ EP       2313 58.45                             164    -0.110   38 344 
 GIR2 SZ ES   2   2314 13.36                             164    -0.4 5   38 344 
 BRR  HZ IP     C 2314  0.07                             150    -0.310   79 300 
 BRR  HZ I        2314  0.33        35.2 0.12                            79 300 
 BRR  HN ES   1   2314 17.45                             150     0.5 7   79 300 
 RUS  HZ EP       2314  2.00                             145    -0.110   95 179 
 RUS  HN ES   1   2314 20.10                             145     0.0 7   95 179 
 RUS  HZ I        2314 22.57        18.3 0.80                            95 179 
 GUE  SZ EP       2314  3.52                             138    -0.410  121   9 
 GRA  SZ EP       2314  5.04                             135     0.610  130  15 
 GRA  SZ ES   1   2314 24.91                             135     0.8 7  130  15 
 GRA  SZ I        2314 36.69         7.2 0.04                           130  15 
 OCA  SZ EP       2314  7.17                             128    -0.6 9  166 352 
 OCA  SZ I        2314 34.31        13.6 0.00                           166 352 
 NOR  SZ IP       2314 14.38                             118    -0.4 8  236 236 
 NOR  SN ES   2   2314 42.54                             118    -0.1 4  236 236 
 CHI  HZ EP       2314 16.27                             117     0.0 8  245 197 
 CHI  HN ES   1   2314 45.61                             117     0.4 6  245 197 
 CHI  HZ I        2314 51.42         8.8 0.26                           245 197 
 HEL  HZ EP   1   2314 20.26                             114     0.7 6  276 257 
 HEL  HE ES   2   2314 50.88                             114    -0.3 4  276 257 
 RREF HZ EP       2314 25.28                             110     0.1 7  322 231 
 RREF HN ES   1   2315  1.43                             110     0.3 5  322 231 
 RREF HZ I        2315  9.71         8.5 0.25                           322 231 
 TOL  SZ EP   1   2314 27.87                             109     0.6 5  343 226 
                                                                                
