 2014  413 2245 16.1 L   6.791 -73.138145.5  RSN 11 0.5 1.9LRSN                1
 GAP=138        1.22       3.7     4.8  7.7 -0.3047E+01  0.8516E+01  0.7675E+01E
 Epicentro: LOS SANTOS - SANTANDER                                             3
 ACTION:UPD 14-05-13 23:08 OP:nd   STATUS:               ID:20140413224516 L   I
 OLDACT:REG 14-04-14 06:44 OP:carl STATUS:               ID:20140413223816     3
 2014-04-13-2238-16M.COL___269                                                 6
 STAT SP IPHASW D HRMM SECON CODA AMPLIT PERI AZIMU VELO AIN AR TRES W  DIS CAZ7
 BRR  HZ EP       2245 37.34                             152    0.0310 72.4 299 
 BRR  HN ES       2245 54.50                             152    0.6610 72.4 299 
 BRR  HZ I        2245 54.99        15.4 0.30            152           72.4 299 
 PAM  SZ EP       2245 38.60                             151    0.2710 77.7  39 
 PAM  SN ES       2245 55.30                             151   -0.3410 77.7  39 
 PAM  SZ I        2246  0.00         6.6 0.32            153           77.7  39 
 RUS  HZ EP       2245 39.64                             144   -0.1310 99.5 176 
 RUS  HN ES       2245 58.42                             144    0.2110 99.5 176 
 RUS  HZ I        2245 59.24         7.3 0.18            146           99.5 176 
 PTB  HZ EP       2245 42.46                             132   -0.66 9  148 259 
 PTB  HN ES       2246  3.13                             132   -1.06 9  148 259 
 PTB  HZ I        2246  5.33         9.3 0.10            132            148 259 
 OCA  HE ES       2246  6.05                             129   -0.62 9  161 353 
 OCA  HZ I        2246 10.33        11.2 0.30            131            161 353 
 SPBC HZ EP       2245 44.76                             129    0.19 9  163 219 
 SPBC HN ES       2246  7.18                             129    0.41 9  163 219 
 SPBC HZ I        2246 11.78         8.9 0.38            130            163 219 
 ZAR  HZ EP       2245 49.56                             122    0.89 8  205 292 
 ZAR  HN ES       2246 14.79                             122    0.73 8  205 292 
 ZAR  HZ I        2246 22.36         7.5 0.14            123            205 292 
 NOR  HZ EP       2245 51.15                             118   -0.69 8  235 235 
 NOR  HE ES       2246 19.80                             118    0.09 8  235 235 
 NOR  HZ I        2246 21.59         7.8 0.26            119            235 235 
 CHI  HZ EP       2245 54.04                             117    0.32 8  248 195 
 CHI  HN ES       2246 22.97                             117   -0.08 8  248 195 
 CHI  HZ I        2246 29.96         3.3 0.24            118            248 195 
 GUY2CHN ES       2246 33.60                             112   -0.14 7  301 235 
 GUY2CHZ I        2246 42.28         4.1 0.50                           301 235 
 RREF HZ EP       2246  2.52                             111    0.27 7  322 230 
 RREF HN ES       2246 37.85                             111   -0.38 7  322 230 
 RREF HZ I        2246 45.90         4.2 0.70            112            322 230 
                                                                                
