 2012  413 2334 15.4 L   6.745 -73.038150.0  RSN  4 0.4 1.3LRSN                1
 GAP=153        0.90      13.2    11.1 14.9 -0.4443E+02  0.1519E+02  0.6360E+02E
 Epicentro: ARATOCA - SANTANDER                                                3
 ACTION:UPD 12-07-05 11:53 OP:tino STATUS:               ID:20120413233415 L   I
 2012-04-13-2330-00M.COL___181                                                 6
 STAT SP IPHASW D HRMM SECON CODA AMPLIT PERI AZIMU VELO AIN AR TRES W  DIS CAZ7
 BAR2 SZ EP       2334 35.46                             171    -0.110   23 223 
 PAM  SZ EP       2334 38.46                             151     0.510   76  30 
 PAM  SN ES   1   2334 55.10                             151    -0.5 7   76  30 
 BRR  HZ EP       2334 37.50                             149    -0.310   85 298 
 BRR  HE ES   2   2334 56.00                             149     0.7 5   85 298 
 RUS  HN ES   3   2334 57.84                             146     0.2 2   94 183 
 RUS  HZ I        2335  1.22         3.2 0.44                            94 183 
                                                                                
