 2012  413 2257 57.4 L   6.785 -73.129145.1  RSN  5 0.3 1.9LRSN                1
 GAP=139        0.79       5.1     7.2  7.5  0.5706E+00 -0.2499E+01  0.1084E+01E
 Epicentro: LOS SANTOS - SANTANDER                                             3
 ACTION:UPD 12-07-05 11:53 OP:tino STATUS:               ID:20120413225757 L   I
 2012-04-13-2250-00M.COL___181                                                 6
 STAT SP IPHASW D HRMM SECON CODA AMPLIT PERI AZIMU VELO AIN AR TRES W  DIS CAZ7
 BAR2 SZ EP       2258 16.89                             171     0.010   22 195 
 BAR2 SZ ES   1   2258 31.48                             171    -0.6 7   22 195 
 BAR2 SZ I        2258 32.97        19.4 0.24                            22 195 
 BRR  HZ EP       2258 18.61                             151     0.010   74 299 
 BRR  HN ES   1   2258 35.55                             151     0.4 7   74 299 
 BRR  HZ I        2258 44.60        19.5 0.42                            74 299 
 PAM  SZ EP       2258 19.69                             151     0.210   78  38 
 PAM  SN ES   1   2258 36.65                             151    -0.1 7   78  38 
 RUS  HZ EP       2258 20.73                             144    -0.210   99 177 
 RUS  HN ES   1   2258 39.73                             144     0.4 7   99 177 
 ZAR  HN ES   3   2258 54.50                             122    -1.0 2  206 292 
 ZAR  HZ I        2258 56.71         3.6 0.30                           206 292 
                                                                                
