 2013  413 2127 46.7 L   6.832 -73.162139.6  RSN  6 0.5 1.5LRSN                1
 GAP=133        0.94       5.4     6.5  8.5 -0.8034E+01  0.8000E+01  0.7017E+01E
 Epicentro: LOS SANTOS - SANTANDER                                             3
 ACTION:UPD 13-05-22 14:38 OP:EP   STATUS:               ID:20130413212746 L   I
 2013-04-13-2120-00M.COL___244                                                 6
 STAT SP IPHASW D HRMM SECON CODA AMPLIT PERI AZIMU VELO AIN AR TRES W  DIS CAZ7
 BAR2 SZ ES   1   2128 21.09                             169    0.65 7 26.6 185 
 BAR2 SZ I        2128 22.33        15.6 0.40            165           26.6 185 
 BRR  HZ EP   1   2128  7.60                             152    0.62 7 67.9 297 
 BRR  HN ES   2   2128 22.23                             152   -0.59 5 67.9 297 
 BRR  HZ I        2128 24.02         8.9 0.44            153           67.9 297 
 PAM  SZ EP       2128  8.42                             150    0.2610 75.9  42 
 PAM  SE ES   1   2128 24.49                             150   -0.42 7 75.9  42 
 PAM  SZ I        2128 27.76         2.3 0.20            156           75.9  42 
 RUS  HZ EP   1   2128  9.82                             142   -0.29 7  104 175 
 RUS  HN ES   1   2128 27.87                             142   -0.51 7  104 175 
 RUS  HZ I        2128 31.06         2.6 0.34            140            104 175 
 PTB  HZ EP   1   2128 12.71                             131   -0.35 7  147 257 
 PTB  HN ES   1   2128 33.55                             131   -0.08 7  147 257 
 PTB  HZ I        2128 39.50         6.2 0.42            130            147 257 
 CHI  HZ EP   1   2128 23.74                             116   -0.63 6  252 195 
 CHI  HN ES   1   2128 54.60                             116    0.83 6  252 195 
 CHI  HZ I        2129  2.80         1.6 0.70            116            252 195 
                                                                                
