 2010  413 2255 33.2 L   6.791 -72.999145.3  RSN 10 0.5 2.7LRSN                1
 GAP=150        0.86       5.3     7.9  7.1 -0.1698E+02 -0.1679E+02  0.7550E+01E
 Epicentro: CEPITA - SANTANDER                                                 3
 ACTION:UPD 10-08-24 09:59 OP:vdl  STATUS:               ID:20100413225533 L   I
 2010-04-13-2253-59S.COL___097                                                 6
 STAT SP IPHASW D HRMM SECON CODA AMPLIT PERI AZIMU VELO AIN AR TRES W  DIS CAZ7
 BAR2 SZ IP       2255 53.23                             168     0.310   30 223 
 BAR2 SZ ES   1   2256  7.74                             168    -0.6 7   30 223 
 BRR  HZ EP       2255 55.49                             148     0.210   86 294 
 BRR  HN ES   1   2256 12.85                             148     0.4 7   86 294 
 BRR  HZ I        2256 15.20        56.4 0.13                            86 294 
 OCA  SZ EP       2256  1.23                             129    -0.6 9  164 348 
 OCA  SZ I        2256 28.67        51.7 0.30                           164 348 
 CHI  HZ EP       2256 10.95                             117    -0.4 8  252 199 
 CHI  HN ES   2   2256 41.69                             117     0.7 4  252 199 
 HEL  HZ EP   2   2256 14.46                             113    -0.7 4  288 257 
 HEL  HE ES   3   2256 48.40                             113     0.6 2  288 257 
 RREF BZ EP   3   2256 21.00                             110     0.3 2  334 231 
 RREF BE ES   2   2256 58.06                             110     0.3 3  334 231 
 RREF BZ I        2257  4.69        18.4 0.50                           334 231 
 SDV  BZ EP       2256 22.55                             109     0.6 6  349  48 
 SDV  BZ I        2256 23.37        21.0 0.10                           349  48 
 TOL  SZ EP   2   2256 22.66                             108    -0.1 3  354 227 
 ANIL BZ EP   3   2256 24.75                             108     0.5 2  368 226 
 ANIL BE ES   2   2257  4.42                             108     0.3 3  368 226 
 ANIL BZ I        2257  7.05        29.4 0.29                           368 226 
 PRA  HZ EP   2   2256 27.13                             106    -0.5 3  399 212 
 PRA  HE ES   2   2257  9.49                             106    -0.5 3  399 212 
 PRA  HZ I        2257 14.93        19.0 0.28                           399 212 
                                                                                
