 2014  613 2351 53.3 L   6.764 -73.129151.9  RSN  5 0.3 1.9LRSN                1
 GAP=236        0.89       5.4     5.8  6.5  0.6679E+01  0.3924E+01  0.2448E+01E
 Epicentro: LOS SANTOS - SANTANDER                                             3
 ACTION:UPD 14-07-01 22:53 OP:nd   STATUS:               ID:20140613235153 L   I
 OLDACT:REG 14-06-14 05:25 OP:stll STATUS:               ID:20140613234815     3
 2014-06-13-2348-15M.COL___262                                                 6
 STAT SP IPHASW D HRMM SECON CODA AMPLIT PERI AZIMU VELO AIN AR TRES W  DIS CAZ7
 BAR2 SZ EP       2352 13.29                             172   -0.2710 19.9 197 
 BAR2 SZ I        2352 13.71        19.0 0.20            174           19.9 197 
 BAR2 SZ ES       2352 29.15                             172   -0.2510 19.9 197 
 BRR  HZ EP       2352 15.45                             152    0.1810 74.8 301 
 BRR  HN ES       2352 32.93                             152    0.4910 74.8 301 
 BRR  HZ I        2352 37.04        11.8 0.56            152           74.8 301 
 RUS  HZ EP       2352 17.49                             146    0.1610 96.5 177 
 RUS  HN ES       2352 36.03                             146   -0.0810 96.5 177 
 RUS  HZ I        2352 37.17         5.3 0.30            149           96.5 177 
 PTB  HZ EP       2352 20.26                             133   -0.57 9  149 260 
 PTB  HN ES       2352 41.96                             133   -0.38 9  149 260 
 PTB  HZ I        2352 43.68        11.2 0.24            134            149 260 
 SPBC HZ EP       2352 22.51                             131    0.45 9  161 220 
 SPBC HZ I        2352 22.84        12.3 0.20            133            161 220 
 SPBC HN ES       2352 44.80                             131    0.28 9  161 220 
                                                                                
