 2017  313 2201  5.9 L   6.795 -73.337127.3  RSN  4 0.3 1.6LRSN                1
 GAP=115        0.68       6.1     4.3  5.6 -0.8311E+01  0.4221E+01  0.1111E+01E
 Epicentro: ZAPATOCA - SANTANDER                                               3
 ACTION:UPD 17-05-25 18:40 OP:jn   STATUS:               ID:20170313220105 L   I
 OLDACT:UP  17-03-14 05:10 OP:and  STATUS:               ID:20170313215741     3
 OLDACT:UP  17-03-14 05:08 OP:and  STATUS:               ID:20170313215741     3
 OLDACT:UP  17-03-14 05:08 OP:and  STATUS:               ID:20170313215741     3
 OLDACT:UP  17-03-14 05:08 OP:and  STATUS:               ID:20170313215741     3
 OLDACT:UP  17-03-14 05:07 OP:and  STATUS:               ID:20170313215741     3
 OLDACT:REG 17-03-14 03:40 OP:and  STATUS:               ID:20170313215741     3
 2017-03-13-2158-00M.COL___397                                                 6
 STAT SP IPHASW D HRMM SECON CODA AMPLIT PERI AZIMU VELO AIN AR TRES W  DIS CAZ7
 BAR2 EZ IP     D 22 1 23.85                             167    0.4610 28.2 143 
 BAR2 EZ ES       22 1 36.86                             167   -0.2110 28.2 143 
 BAR2 EZ I        22 1 38.01        26.6 0.22            167           28.2 143 
 BRR  HZ EP       22 1 24.11                             156    0.0610 53.9 310 
 BRR  HN ES       22 1 38.22                             156   -0.0210 53.9 310 
 PAM  EZ EP       22 1 27.17                             142   -0.0510 92.7  49 
 PAM  EN ES       22 1 43.94                             142    0.0510 92.7  49 
 PTB  HZ EP       22 1 29.04                             132   -0.3810  127 257 
 PTB  HN ES   3   22 1 49.03                             132    1.22 2  127 257 
 PTB  HZ I        22 1 51.07         2.4 0.17            131            127 257 
 NOR  HZ EP   4   22 1 40.80                             116    2.12 0  217 231 
                                                                                
