 2017 1113 2311 27.4 L   6.823 -73.154149.8  RSN 32 0.8 2.8LRSN                1
 GAP= 64        1.07       2.8     2.7  4.9  0.4696E+00  0.3271E+01  0.2841E+01E
 Epicentro: LOS SANTOS - SANTANDER                                             3
 ACTION:UPD 17-12-12 19:55 OP:rebc STATUS:               ID:20171113231127 L   I
 OLDACT:UP  17-11-14 06:07 OP:mg   STATUS:               ID:20171113230742     3
 OLDACT:UP  17-11-14 06:06 OP:mg   STATUS:               ID:20171113230742     3
 OLDACT:REG 17-11-14 03:35 OP:mg   STATUS:               ID:20171113230742     3
 2017-11-13-2308-00M.COL___453                                                 6
 STAT SP IPHASW D HRMM SECON CODA AMPLIT PERI AZIMU VELO AIN AR TRES W  DIS CAZ7
 BAR2 EZ EP       2311 47.47                             170   -0.1210 25.7 187 
 BAR2 EZ ES   2   2312  2.74                             170   -0.57 5 25.7 187 
 BAR2 EZ I        2312  4.14       284.9 0.18            166           25.7 187 
 BRR  HZ IP     D 2311 49.30                             154    0.4010 69.2 297 
 BRR  HN ES       2312  6.36                             154    0.7110 69.2 297 
 BRR  HZ I        2312 10.32       197.0 0.40            151           69.2 297 
 PAM  EZ IP     D 2311 50.32                             151    0.3210 76.1  41 
 PAM  EN ES       2312  7.81                             151    0.2110 76.1  41 
 PAM  EZ I        2312  9.96       109.0 0.62            156           76.1  41 
 RUS  HZ IP     C 2311 51.40                             144   -0.3610  103 176 
 RUS  HN ES       2312 10.16                             144   -0.5810  103 176 
 RUS  HZ I        2312 11.41       135.7 0.36            143            103 176 
 PTB  HZ EP       2311 53.83                             133   -0.86 9  147 258 
 PTB  HN ES       2312 14.94                             133   -1.01 9  147 258 
 PTB  HZ I        2312 20.84        64.9 0.25            131            147 258 
 TAM  HZ IP     D 2311 55.93                             131    0.36 9  157 106 
 TAM  HN ES       2312 17.63                             131    0.11 9  157 106 
 TAM  HZ I        2312 18.34        25.3 0.20            134            157 106 
 SPBC HZ EP       2311 56.26                             130   -0.11 9  165 218 
 SPBC HN ES       2312 18.51                             130   -0.43 9  165 218 
 SPBC HZ I        2312 25.37        80.2 0.15            128            165 218 
 YPLC HZ IP     C 2311 57.95                             127    0.17 9  179 151 
 YPLC HN ES       2312 21.90                             127    0.45 9  179 151 
 YPLC HZ I        2312 22.89        58.1 0.26            127            179 151 
 ZAR  HZ EP       2312  0.08                             123    0.13 9  202 292 
 ZAR  HN ES       2312 25.53                             123    0.21 9  202 292 
 ZAR  HZ I        2312 31.80        98.4 0.30            122            202 292 
 TABC EZ EP   2   2312  4.98                             120    1.38 4  232 210 
 TABC EZ ES   2   2312 33.31                             120    1.50 4  232 210 
 TABC EZ I        2312 37.93        64.8 0.52            119            232 210 
 NOR  HZ EP       2312  3.24                             119   -0.23 8  235 234 
 NOR  HE ES   1   2312 31.60                             119    0.02 6  235 234 
 NOR  HZ I        2312 39.37        42.1 0.18            118            235 234 
 CHI  HZ EP       2312  5.42                             118   -0.17 8  251 195 
 CHI  HN ES       2312 35.20                             118   -0.15 8  251 195 
 CHI  HZ I        2312 40.00        30.2 0.23            117            251 195 
 ROSC BZ EP   2   2312  7.27                             117    1.32 4  254 211 
 ROSC BN ES   3   2312 37.98                             117    1.98 2  254 211 
 ROSC BZ I        2312 43.79        82.9 0.40            116            254 211 
 URE  HZ EP   9   2312  7.13                             114   -1.36 0  282 292 
 URE  HE ES       2312 39.06                             114   -0.10 7  282 292 
 URE  HZ I        2312 49.48        46.3 0.22            114            282 292 
 GUY2CHZ EP       2312 11.69                             113    0.39 7  302 234 
 GUY2CHN ES   2   2312 47.26                             113    1.74 4  302 234 
 GUY2CHZ I        2312 52.71        23.5 0.22                           302 234 
 VIL  EZ EP       2312 10.86                             112   -0.43 7  306 191 
 VIL  EN ES       2312 44.79                             112   -0.71 7  306 191 
 VIL  EZ I        2312 50.98        67.0 0.40            112            306 191 
 PTGC HZ EP   2   2312 10.62                             112   -1.15 3  311 159 
 PTGC HN ES   2   2312 44.20                             112   -2.16 3  311 159 
 PTGC HZ I        2312 50.65        30.5 0.26            112            311 159 
 DRL02HZ EP   2   2312 11.98                             111   -1.03 3  322 358 
 DRL02HN ES   2   2312 47.01                             111   -1.55 3  322 358 
 ELA  HZ EP   2   2312 16.19                             111    1.63 3  330 229 
 ELA  HN ES       2312 51.92                             111    0.60 7  330 229 
 ELA  HZ I        2312 59.32        20.6 0.36            110            330 229 
 DBB  EZ EP       2312 15.11                             110    0.17 7  338 274 
 DBB  EN ES   2   2312 50.83                             110   -1.17 3  338 274 
 DBB  EZ I        2312 56.93        10.7 0.22            110            338 274 
 ANIL HZ EP       2312 18.01                             109    0.49 6  358 224 
 ANIL HN ES   3   2312 58.64                             109    2.05 2  358 224 
 ANIL HZ I        2313  2.20        64.2 0.30            109            358 224 
 PRA  HZ EP       2312 20.81                             107   -0.48 6  394 209 
 PRA  HN ES       2313  2.91                             107   -0.39 6  394 209 
 PRA  HZ I        2313  9.17        42.4 0.28            107            394 209 
 ORTC HZ EP       2312 21.80                             107    0.14 6  397 216 
 ORTC HN ES   1   2313  4.59                             107    0.63 4  397 216 
 ORTC HZ I        2313 11.16        17.0 0.60            107            397 216 
 APAC HN ES       2313  3.91                             107    0.13 6  397 288 
 PAL  HZ EP       2312 23.14                             106    0.36 6  406 239 
 PAL  HN ES       2313  6.37                             106    0.42 6  406 239 
 PAL  HZ I        2313 12.84         8.5 0.30            106            406 239 
 SJC  HZ EP   2   2312 21.80                             106   -1.02 3  407 327 
 SJC  HN ES   3   2313  3.25                             106   -2.77 1  407 327 
 SJC  HZ I        2313 17.09        11.5 0.18            107            407 327 
 CRJC HZ EP   3   2312 27.78                             104   -1.97 1  465   4 
 CRJC HN ES   4   2313 14.76                             104   -3.60 0  465   4 
 CRJC HZ I        2313 19.95        18.6 0.22            104            465   4 
 YOT  HZ EP   2   2312 31.76                             104    1.06 2  473 229 
 YOT  HN ES   2   2313 21.15                             104    1.10 2  473 229 
 YOT  HZ I        2313 33.13         2.0 0.25            103            473 229 
 SMAR HZ EP       2312 33.95                             103    0.86 4  494 346 
 SMAR HN ES   4   2313 20.69                             103   -3.61 0  494 346 
 CAP2 HZ EP   2   2312 36.34                             102    1.87 2  506 294 
 CAP2 HN ES   2   2313 25.24                             102   -1.52 2  506 294 
 MACC HZ EP   9   2313 19.93                             102   43.41 0  523 188 
 MACC HN ES   4   2314 11.35                             102   -2.47 0  523 188 
 MACC HZ I        2314 16.21        10.1 0.46            102            523 188 
 URI  HZ EP   3   2312 38.14                             101   -2.12 1  554  13 
 URI  HN ES   4   2313 34.14                             101   -2.92 0  554  13 
 URI  HZ I        2313 37.83         3.9 0.33            102            554  13 
                                                                                
