 2014  713 2259  7.7 L   6.763 -73.166147.2  RSN  9 0.4 1.5LRSN                1
 GAP=198        0.82       3.1     4.3  5.8  0.1705E+01  0.2330E+01 -0.2009E+01E
 Epicentro: LOS SANTOS - SANTANDER                                             3
 ACTION:UPD 15-03-16 20:43 OP:nd   STATUS:               ID:20140713225907 L   I
 OLDACT:REG 14-07-14 03:10 OP:spq  STATUS:               ID:20140713225818     3
 2014-07-13-2258-18M.COL___253                                                 6
 STAT SP IPHASW D HRMM SECON CODA AMPLIT PERI AZIMU VELO AIN AR TRES W  DIS CAZ7
 BAR2 SZ EP       2259 27.28                             172   -0.1710 19.0 185 
 BAR2 SZ ES   1   2259 42.46                             172   -0.37 7 19.0 185 
 BAR2 SZ I        2259 45.04         5.9 0.18            169           19.0 185 
 BRR  HZ EP       2259 29.16                             153    0.1210 71.3 302 
 BRR  HN ES       2259 45.78                             153    0.1210 71.3 302 
 BRR  HZ I        2259 49.72         8.0 0.38            149           71.3 302 
 RUS  HZ EP       2259 31.58                             145    0.2310 96.7 175 
 RUS  HN ES   1   2259 49.65                             145   -0.11 7 96.7 175 
 RUS  HZ I        2259 51.02         2.4 0.24            147           96.7 175 
 PTB  HZ EP       2259 34.35                             133   -0.20 9  145 260 
 PTB  HN ES       2259 54.87                             133   -0.59 9  145 260 
 PTB  HZ I        23 0  1.04         3.6 0.28            132            145 260 
 SPBC HZ IP     C 2259 36.27                             130    0.36 9  159 219 
 SPBC HN ES       2259 58.34                             130    0.46 9  159 219 
 SPBC HZ I        23 0  0.89         3.9 0.12            130            159 219 
 ZAR  HZ EP       2259 39.91                             123   -0.31 9  204 293 
 ZAR  HN ES       23 0  5.95                             123    0.40 9  204 293 
 ZAR  HZ I        23 0 12.21         3.3 0.30            123            204 293 
 NOR  HN ES   1   23 0 10.67                             119   -0.00 6  230 235 
 NOR  HZ I        23 0 19.50         3.9 0.14            120            230 235 
 SML  HZ EP   1   2259 43.91                             117   -0.83 6  247 336 
 SML  HE ES       23 0 14.06                             117    0.46 8  247 336 
 SML  HZ I        23 0 16.97         2.5 0.07            119            247 336 
 GUY2CHN ES   1   23 0 24.29                             113   -0.33 5  297 235 
 GUY2CHZ I        23 0 33.57         1.2 0.48                           297 235 
                                                                                
