 2016  313 2156  3.8 L   6.123 -73.803 98.2  RSN  8 0.4 1.6LRSN                1
 GAP= 90        1.02       3.1     3.0  6.8  0.1235E+01  0.7596E+01  0.1291E+01E
 Epicentro: EL PENON - SANTANDER                                               3
 ACTION:UPD 16-05-13 21:24 OP:cam  STATUS:               ID:20160313215603 L   I
 OLDACT:DUP 16-03-14 05:00 OP:ak   STATUS:               ID:20160313214749d    3
 2016-03-13-2147-48M.COL___295                                                 6
 STAT SP IPHASW D HRMM SECON CODA AMPLIT PERI AZIMU VELO AIN AR TRES W  DIS CAZ7
 SPBC HZ EP       2156 19.40                             146    0.0210 60.0 210 
 SPBC HN ES       2156 31.84                             146    0.3110 60.0 210 
 SPBC HZ I        2156 33.93        16.5 0.20            148           60.0 210 
 RUS  HZ EP       2156 21.79                             137    0.0410 83.6 108 
 RUS  HN ES       2156 35.41                             137   -0.3410 83.6 108 
 RUS  HZ I        2156 37.21         7.2 0.34            142           83.6 108 
 PTB  HZ EP       2156 20.60                             136   -0.6710 85.7 303 
 PTB  HN ES       2156 34.20                             136   -0.7110 85.7 303 
 PTB  HZ I        2156 37.72         7.2 0.10            137           85.7 303 
 BAR2 EZ EP   2   2156 22.05                             136    0.45 5 86.0  53 
 BAR2 EZ ES       2156 36.02                             136    0.5310 86.0  53 
 CHI  HZ EP       2156 29.91                             117    0.11 9  165 177 
 CHI  HE ES       2156 49.99                             117   -0.10 9  165 177 
 HEL  HZ EP       2156 32.24                             113   -0.41 9  191 272 
 HEL  HE ES       2156 55.82                             113    0.67 9  191 272 
 HEL  HZ I        2156 59.03         5.4 0.26            114            191 272 
 ZAR  HZ EP       2156 32.18                             113   -0.00 9  191 322 
 ZAR  HN ES       2156 54.82                             113    0.49 9  191 322 
 ZAR  HZ I        2156 56.93         6.9 0.30            114            191 322 
 GUY2CHZ EP       2156 33.64                             112   -0.10 9  200 240 
 GUY2CHN ES       2156 57.38                             112    0.29 9  200 240 
 GUY2CHZ I        2157  6.25         4.1 0.54                           200 240 
                                                                                
