 2010  713 2155 39.2 L   7.411 -73.190128.5  RSN  4 0.4 1.5LRSN                1
 GAP=152        0.76      10.4    14.3 12.3 -0.1079E+03  0.1981E+02 -0.8733E+01E
 Epicentro: EL PLAYON - SANTANDER                                              3
 ACTION:UPD 10-12-01 15:17 OP:pat  STATUS:               ID:20100713215539 L   I
 2010-07-13-2153-15S.COL___119                                                 6
 STAT SP IPHASW D HRMM SECON CODA AMPLIT PERI AZIMU VELO AIN AR TRES W  DIS CAZ7
 GUE  SZ EP   2   2155 57.20                             156    -0.8 5   55  32 
 GUE  SZ I        2155 57.47         2.7 0.11                            55  32 
 GUE  SZ ES   2   2156 12.16                             156    -0.5 5   55  32 
 BRR  HZ EP   2   2155 58.17                             151     0.0 5   67 240 
 BRR  HE ES   2   2156 13.20                             151     0.1 5   67 240 
 BRR  HZ I        2156 13.62        12.0 0.25                            67 240 
 GRA  SZ EP   1   2155 58.85                             150     0.4 7   68  39 
 GRA  SZ ES   1   2156 13.74                             150     0.2 7   68  39 
 GRA  SZ I        2156 16.72         5.8 0.32                            68  39 
 BAR2 SZ ES   2   2156 16.46                             143     0.0 5   91 180 
 BAR2 SZ I        2156 17.61         8.5 0.12                            91 180 
                                                                                
