 2014  713 2217 42.7 L   6.777 -73.165144.4  RSN  9 0.4 1.6LRSN                1
 GAP=181        0.93       3.2     4.8  7.1  0.3388E+00  0.4817E+01 -0.3112E+01E
 Epicentro: LOS SANTOS - SANTANDER                                             3
 ACTION:UPD 15-03-16 20:43 OP:nd   STATUS:               ID:20140713221742 L   I
 OLDACT:DUP 14-07-14 09:59 OP:spq  STATUS:               ID:20140713220817d    3
 2014-07-13-2208-15M.COL___253                                                 6
 STAT SP IPHASW D HRMM SECON CODA AMPLIT PERI AZIMU VELO AIN AR TRES W  DIS CAZ7
 BAR2 SZ EP       2218  2.35                             172    0.2710 20.5 185 
 BAR2 SZ ES   1   2218 16.96                             172   -0.27 7 20.5 185 
 BAR2 SZ I        2218 18.87        14.7 0.16            173           20.5 185 
 BRR  HN ES       2218 20.48                             153    0.4810 70.6 301 
 BRR  HZ I        2218 25.29         8.5 0.26            152           70.6 301 
 RUS  HZ EP       2218  5.94                             144   -0.1810 98.2 175 
 RUS  HE ES   1   2218 23.98                             144   -0.42 7 98.2 175 
 RUS  HZ I        2218 26.22         3.1 0.25            149           98.2 175 
 PTB  HZ EP   1   2218  9.44                             132    0.15 7  145 260 
 PTB  HN ES       2218 29.66                             132   -0.40 9  145 260 
 PTB  HZ I        2218 33.27         5.0 0.05            134            145 260 
 SPBC HN ES   1   2218 32.61                             129   -0.04 7  160 219 
 SPBC HZ I        2218 36.11         5.5 0.20            132            160 219 
 OCA  HN ES       2218 33.66                             129    0.39 9  163 354 
 OCA  HZ I        2218 43.40         5.6 0.26            131            163 354 
 ZAR  HZ EP       2218 15.34                             122    0.42 9  203 293 
 ZAR  HN ES       2218 39.50                             122   -0.58 9  203 293 
 ZAR  HZ I        2218 45.61         3.5 0.24            124            203 293 
 NOR  HN ES       2218 46.12                             119    0.61 8  231 235 
 NOR  HZ I        2218 51.73         2.8 0.12            121            231 235 
 SML  HZ EP   1   2218 18.73                             117   -0.65 6  245 336 
 SML  HE ES       2218 47.59                             117   -0.42 8  245 336 
 SML  HZ I        2218 49.30         3.6 0.07            119            245 336 
                                                                                
