 2011  113 2212 15.3 L   6.793 -73.230139.8  RSN  5 0.1 1.7LRSN                1
 GAP=160        0.35       3.3    15.6  6.0 -0.9897E+01  0.5009E+02  0.1376E+01E
 Epicentro: ZAPATOCA - SANTANDER                                               3
 ACTION:UP  11-02-08 08:40 OP:pat  STATUS:               ID:20110113221215 L   I
 2011-01-13-2209-05S.COL___136                                                 6
 STAT SP IPHASW D HRMM SECON CODA AMPLIT PERI AZIMU VELO SNR AR TRES W  DIS CAZ7
 BTL  SZ EP       2212 33.95                             174    -0.110   15 343 
 BAR2 SZ EP   2   2212 34.28                             170     0.1 5   23 167 
 BAR2 SZ ES   2   2212 49.09                             170     0.1 5   23 167 
 BAR2 SZ I        2212 50.74        30.3 0.33                            23 167 
 GIR2 SZ EP   2   2212 34.59                             166     0.3 5   32   7 
 RUS  HZ EP   1   2212 38.52                             142     0.0 7  101 171 
 RUS  HN ES   2   2212 56.47                             142    -0.1 5  101 171 
 RUS  HZ I        2212 58.12         7.1 0.24                           101 171 
 CHI  HZ EP   1   2212 52.42                             116     0.1 6  246 193 
 CHI  HN ES   2   2213 21.24                             116     0.0 4  246 193 
 CHI  HZ I        2213 27.86         2.3 0.46                           246 193 
                                                                                
