 2014  613 2300 44.1 L   6.773 -73.165143.7  RSN  8 0.5 2.0LRSN                1
 GAP=128        1.28       4.8     4.4  7.6  0.9467E+00  0.2002E+01 -0.4768E+01E
 Epicentro: LOS SANTOS - SANTANDER                                             3
 ACTION:UPD 14-07-01 22:53 OP:nd   STATUS:               ID:20140613230044 L   I
 OLDACT:REG 14-06-14 05:15 OP:stll STATUS:               ID:20140613225818     3
 2014-06-13-2258-18M.COL___262                                                 6
 STAT SP IPHASW D HRMM SECON CODA AMPLIT PERI AZIMU VELO AIN AR TRES W  DIS CAZ7
 BAR2 SZ EP       23 1  3.74                             172    0.3610 20.0 185 
 BAR2 SZ ES       23 1 18.33                             172   -0.1210 20.0 185 
 BAR2 SZ I        23 1 20.32        21.4 0.34            169           20.0 185 
 BRR  HZ EP       23 1  5.78                             152    0.8110 70.9 301 
 BRR  HN ES       23 1 21.87                             152    0.5910 70.9 301 
 RUS  HZ EP       23 1  7.70                             144    0.2910 97.7 175 
 RUS  HZ I        23 1  8.62         5.5 0.40            145           97.7 175 
 RUS  HN ES       23 1 25.37                             144   -0.2410 97.7 175 
 PTB  HZ EP       23 1 10.75                             132    0.13 9  145 260 
 PTB  HN ES       23 1 31.17                             132   -0.17 9  145 260 
 PTB  HZ I        23 1 39.08        10.8 0.52            131            145 260 
 TAM  HZ EP       23 1 11.95                             130    0.24 9  156 104 
 TAM  HN ES       23 1 32.70                             130   -0.56 9  156 104 
 SPBC HZ EP       23 1 11.81                             129   -0.25 9  159 219 
 SPBC HN ES       23 1 33.84                             129   -0.05 9  159 219 
 SPBC HZ I        23 1 39.73        15.9 0.36            129            159 219 
 NOR  HZ EP       23 1 20.06                             118    0.76 8  231 235 
 NOR  HN ES       23 1 45.65                             118   -1.13 8  231 235 
 NOR  HZ I        23 1 51.61         6.3 0.26            118            231 235 
 SML  HZ EP       23 1 20.23                             117   -0.55 8  246 336 
 SML  HN ES       23 1 48.56                             117   -0.86 8  246 336 
 SML  HZ I        23 1 52.36        13.7 0.10            118            246 336 
                                                                                
