 2011  913 2023 28.4 L   6.789 -73.018139.7  RSN  5 0.2 2.3LRSN                1
 GAP=154        0.40       3.9     7.3  5.5  0.1875E+02 -0.2006E+02 -0.1042E+02E
 Epicentro: CEPITA - SANTANDER                                                 3
 ACTION:UPD 12-07-13 15:57 OP:ep   STATUS:               ID:20110913202328 L   I
 2011-09-13-2017-50S.COL___169                                                 6
 STAT SP IPHASW D HRMM SECON CODA AMPLIT PERI AZIMU VELO AIN AR TRES W  DIS CAZ7
 BAR2 SZ EP   1   2023 47.59                             168    0.14 7 28.3 220 
 BAR2 SZ ES   1   2024  2.22                             168   -0.06 7 28.3 220 
 BAR2 SZ I        2024  3.96        49.9 0.23                          28.3 220 
 GIR2 SZ EP   2   2023 47.70                             164    0.13 5 37.5 329 
 PAM  SZ EP   2   2023 49.52                             152   -0.06 5 70.3  30 
 BRR  HZ EP   1   2023 49.43                             147   -0.32 7 84.3 295 
 BRR  HZ I        2023 49.60        64.9 0.11                          84.3 295 
 BRR  HN ES   1   2024  6.53                             147    0.15 7 84.3 295 
 RUS  HZ EP   1   2023 51.67                             143    0.17 7 99.4 184 
 RUS  HN ES       2024  9.43                             143   -0.0610 99.4 184 
 RUS  HZ I        2024 11.31        14.0 0.28                          99.4 184 
                                                                                
