 2012  313 2217 13.8 L   6.774 -73.141148.6  RSN 10 0.3 2.5LRSN                1
 GAP=138        0.86       3.5     3.8  5.0 -0.4702E+00  0.5336E+01  0.4486E+01E
 ACTION:UP  12-03-31 23:19 OP:EP   STATUS:               ID:20120313221713 L   I
 2012-03-13-2210-00M.COL___199                                                 6
 STAT SP IPHASW D HRMM SECON CODA AMPLIT PERI AZIMU VELO SNR AR TRES W  DIS CAZ7
 BAR2 SZ EP       2217 33.64                             172     0.010   21 193 
 BAR2 SZ ES       2217 49.02                             172    -0.210   21 193 
 BAR2 SZ I        2217 50.82        75.0 0.34                            21 193 
 BRR  HZ EP       2217 35.55                             152     0.210   73 300 
 BRR  HE ES       2217 52.90                             152     0.810   73 300 
 BRR  HZ I        2217 56.17        62.6 0.12                            73 300 
 PAM  SZ EP       2217 36.48                             151     0.110   79  38 
 PAM  SN ES       2217 53.76                             151    -0.310   79  38 
 RUS  HZ EP       2217 37.61                             145     0.010   98 176 
 RUS  HN ES       2217 56.10                             145    -0.110   98 176 
 RUS  HZ I        2217 58.11        46.0 0.45                            98 176 
 PTB  HZ EP       2217 40.40                             133    -0.5 9  148 260 
 PTB  HE ES       2218  1.88                             133    -0.3 9  148 260 
 PTB  HZ I        2218  9.29        37.7 0.44                           148 260 
 ZAR  HZ EP   1   2217 46.23                             123    -0.3 6  206 293 
 ZAR  HE ES   1   2218 11.64                             123    -0.5 6  206 293 
 ZAR  HZ I        2218 19.38        47.2 0.00                           206 293 
 NOR  SZ EP       2217 49.76                             119     0.2 8  233 235 
 NOR  SE ES   1   2218 17.34                             119    -0.1 6  233 235 
 CHI  HZ EP       2217 51.52                             118     0.2 8  246 195 
 CHI  HN ES   1   2218 20.63                             118     0.0 6  246 195 
 CHI  HZ I        2218 27.04        18.2 0.61                           246 195 
 HEL  HZ EP   1   2217 54.41                             115     0.3 6  272 256 
 HEL  HZ I        2218 31.88        21.6 0.43                           272 256 
 PRA  HZ EP   1   2218  7.23                             107     0.1 4  390 210 
 PRA  HE ES   1   2218 49.00                             107     0.3 4  390 210 
                                                                                
