 2017  113 2157  3.1 L   6.786 -73.134140.7  RSN  6 0.2 1.3LRSN                1
 GAP=139        0.54       2.7     2.8  4.0  0.1327E+01 -0.2589E+00 -0.9353E+00E
 Epicentro: LOS SANTOS - SANTANDER                                             3
 ACTION:UPD 17-05-22 15:59 OP:jn   STATUS:               ID:20170113215703 L   I
 OLDACT:REG 17-01-14 05:08 OP:lv   STATUS:               ID:20170113214745     3
 2017-01-13-2148-00M.COL___331                                                 6
 STAT SP IPHASW D HRMM SECON CODA AMPLIT PERI AZIMU VELO AIN AR TRES W  DIS CAZ7
 BAR2 EZ ES       2157 36.94                             171   -0.0110 22.1 194 
 BAR2 EZ I        2157 37.68         8.6 0.12            168           22.1 194 
 BRR  HZ EP       2157 23.86                             151    0.0110 73.1 299 
 BRR  HN ES       2157 40.37                             151    0.3610 73.1 299 
 PAM  EZ EP       2157 24.87                             150    0.0310 77.8  38 
 PAM  EN ES       2157 41.56                             150   -0.2110 77.8  38 
 RUS  HZ EP       2157 26.42                             143    0.1410 98.9 177 
 RUS  HN ES       2157 44.19                             143   -0.1310 98.9 177 
 RUS  HZ I        2157 46.54         1.8 0.27            142           98.9 177 
 PTB  HZ EP   9   2157 28.01                             130   -1.78 0  149 260 
 PTB  HN ES       2157 48.54                                   -0.26 9  149 260 
 PTB  HZ I        2157 52.30         3.2 0.13            130            149 260 
 ZAR  HN ES       2158  0.40                             121   -0.25 8  206 292 
                                                                                
