 2012  813 2149 51.1 L   6.768 -73.164140.4  RSN 11 0.3 2.7LRSN 3.2WRSN        1
 SPEC AVERAGE  MO 13.8 ST  7.3 OM  3.9 f0 4.26 R0.3504 AL 2.30 WI 12.3 MW  3.2 3
 SPEC SD       MO  0.0 ST  2.1 OM  1.8 f00.505 R0.0416 AL      WI      MW  0.0 3
 GAP= 71        0.64       3.3     2.8  4.3 -0.8011E+00  0.3016E+01  0.3453E+01E
 Epicentro: LOS SANTOS - SANTANDER                                             3
 SPEC RUS HH N MO 13.8 ST  9.4 OM  2.2 f0 4.76 R0.3088 AL 1.90 WI  8.4 MW  3.1 3
 SPEC RUS HH N T215032 K 0.000 GD  170 VS 4.20 DE 3.00 Q0230.0 QA 0.60 VS 4.20 3
 SPEC HEL HH N MO 13.8 ST  5.2 OM  2.0 f0 3.75 R0.3920 AL 2.69 WI 16.3 MW  3.2 3
 SPEC HEL HH N T2151 1 K 0.000 GD  303 VS 4.20 DE 3.00 Q0230.0 QA 0.60 VS 4.20 3
 ACTION:UPD 12-09-10 11:56 OP:ep   STATUS:               ID:20120813214951 L   I
 2012-08-13-2147-59S.COL___216                                                 6
 STAT SP IPHASW D HRMM SECON CODA AMPLIT PERI AZIMU VELO AIN AR TRES W  DIS CAZ7
 BAR2 SZ EP   1   2150  9.96                             172   -0.06 7 19.6 186 
 BAR2 SZ ES   1   2150 24.48                             172   -0.29 7 19.6 186 
 BAR2 SZ I        2150 25.67       183.4 0.31                          19.6 186 
 GIR2 SZ EP   1   2150 10.03                             166   -0.21 7 34.5 355 
 GIR2 SZ ES   1   2150 25.09                             166   -0.06 7 34.5 355 
 BRR  HZ IP     C 2150 11.79                             152    0.1110 71.2 302 
 BRR  HZ I        2150 12.05       200.0 0.15                          71.2 302 
 BRR  HN ES   1   2150 28.29                             152    0.56 7 71.2 302 
 PAM  SZ EP   1   2150 13.01                             149    0.01 7 81.4  39 
 PAM  SN ES   1   2150 29.83                             149   -0.25 7 81.4  39 
 PAM  SZ I        2150 32.33       136.4 0.47                          81.4  39 
 RUS  HZ EP   1   2150 14.00                             144   -0.09 7 97.2 175 
 RUS  HN ES   1   2150 32.54                             144    0.52 7 97.2 175 
 PTB  HZ EP   1   2150 16.75                             131   -0.65 7  145 260 
 PTB  HN ES   1   2150 37.57                             131   -0.34 7  145 260 
 PTB  HZ I        2150 39.49        34.6 0.28                           145 260 
 TAM  HZ EP   1   2150 18.57                             129    0.10 7  156 104 
 TAM  HZ I        2150 18.73        64.6 0.19                           156 104 
 ZAR  HZ EP   1   2150 23.22                             121    0.06 6  204 293 
 ZAR  HN ES   1   2150 48.23                             121    0.08 6  204 293 
 ZAR  HZ I        2150 54.62        58.1 0.43                           204 293 
 NOR  SZ EP   1   2150 26.31                             118    0.17 6  231 235 
 NOR  SN ES   1   2150 53.58                             118    0.12 6  231 235 
 NOR  SZ I        2150 57.56        39.6 0.40                           231 235 
 HEL  HZ EP   1   2150 31.59                             114    0.85 6  269 256 
 HEL  HN ES   1   2151  1.43                             114   -0.23 6  269 256 
 HEL  HZ I        2151  8.43        19.4 0.49                           269 256 
 PRA  HZ EP   1   2150 44.05                             106    0.08 4  388 210 
 PRA  HN ES   1   2151 24.56                             106   -0.65 4  388 210 
                                                                                
