 2011  713 2059 44.4 L   6.749 -73.098148.2  RSN 10 0.3 2.5LRSN                1
 GAP=145        0.50       2.6     3.3  3.9 -0.3294E+01  0.2210E+01  0.7081E+00E
 Epicentro: LOS SANTOS - SANTANDER                                             3
 ACTION:UPD 12-07-25 14:00 OP:epov STATUS:               ID:20110713205944 L   I
 2011-07-13-2057-52S.COL___131                                                 6
 STAT SP IPHASW D HRMM SECON CODA AMPLIT PERI AZIMU VELO AIN AR TRES W  DIS CAZ7
 BAR2 SZ EP   1   21 0  3.96                             172   -0.29 7 19.7 208 
 BAR2 SZ ES   1   21 0 19.74                             172    0.00 7 19.7 208 
 BAR2 SZ I        21 0 21.14        79.0 0.35                          19.7 208 
 BRR  HZ EP       21 0  6.14                             151   -0.0910 78.6 300 
 BRR  HZ I        21 0  6.49        90.1 0.22                          78.6 300 
 BRR  HN ES   1   21 0 23.74                             151    0.47 7 78.6 300 
 PAM  SZ EP       21 0  7.09                             151    0.1510 78.7  34 
 PAM  SZ I        21 0  7.38        33.2 0.17                          78.7  34 
 PAM  SE ES   1   21 0 24.16                             151   -0.37 7 78.7  34 
 RUS  HZ EP       21 0  8.16                             146    0.1910 94.7 179 
 RUS  HN ES   1   21 0 26.44                             146    0.07 7 94.7 179 
 RUS  HZ I        21 0 28.19        25.0 0.37                          94.7 179 
 BRI  SZ EP       21 0  8.81                             141    0.0210  112  17 
 OCA  SZ ES   2   21 0 35.97                             129   -0.20 5  167 352 
 OCA  SZ I        21 0 39.64        54.8 0.38                           167 352 
 NOR  SZ EP   2   21 0 20.07                             119   -0.32 4  236 236 
 NOR  SN ES   1   21 0 47.91                             119   -0.56 6  236 236 
 HEL  HZ EP   2   21 0 25.78                             115    0.62 4  276 257 
 HEL  HN ES   2   21 0 57.06                             115    0.11 4  276 257 
 RREF HZ EP   2   21 0 30.70                             111    0.01 3  322 231 
 RREF HN ES   2   21 1  6.57                             111   -0.24 3  322 231 
 RREF HZ I        21 1 13.85        20.5 0.39                           322 231 
 PRA  HZ EP   1   21 0 37.65                             107   -0.09 4  390 211 
 PRA  HE ES   2   21 1 19.82                             107    0.47 3  390 211 
                                                                                
