 2011  413 2350 53.1 L   6.806 -73.107150.3  RSN 11 0.2 2.0LRSN                1
 GAP=117        0.43       2.6     3.5  4.2 -0.2852E+01  0.1454E+01  0.4608E+01E
 Epicentro: LOS SANTOS - SANTANDER                                             3
 ACTION:UP  11-06-22 15:30 OP:REBC STATUS:               ID:20110413235053 L   I
 2011-04-13-2347-12S.COL___139                                                 6
 STAT SP IPHASW D HRMM SECON CODA AMPLIT PERI AZIMU VELO SNR AR TRES W  DIS CAZ7
 BTL  SZ EP   1   2351 13.14                             172    -0.1 7   22 305 
 BTL  SZ ES   2   2351 28.81                             172    -0.1 5   22 305 
 BAR2 SZ EP   1   2351 13.12                             170    -0.2 7   25 199 
 BAR2 SZ I        2351 13.26        24.1 0.13                            25 199 
 BAR2 SZ ES   3   2351 28.85                             170    -0.2 2   25 199 
 PAM  SZ EP   1   2351 15.85                             153     0.3 7   74  37 
 PAM  SN ES   1   2351 33.26                             153     0.1 7   74  37 
 PAM  SZ I        2351 35.26         8.0 0.24                            74  37 
 BRR  HZ EP   1   2351 15.04                             152     0.1 7   75 297 
 BRR  HE ES   2   2351 32.47                             152     0.5 5   75 297 
 BRR  HZ I        2351 34.75        32.2 0.13                            75 297 
 GRA  SZ EP   1   2351 18.34                             139    -0.2 7  124  16 
 GRA  SZ ES   1   2351 38.25                             139    -0.2 7  124  16 
 GRA  SZ I        2351 39.72        20.6 0.33                           124  16 
 OCA  SZ EP   1   2351 21.83                             131     0.1 7  160 352 
 OCA  SZ ES   1   2351 43.90                             131    -0.2 7  160 352 
 OCA  SZ I        2351 51.20        11.6 0.41                           160 352 
 YOP  SZ EP   1   2351 23.41                             127     0.1 7  178 155 
 YOP  SZ I        2351 26.74         8.8 0.32                           178 155 
 NOR  SZ EP   1   2351 29.27                             119    -0.2 6  239 235 
 NOR  SE ES   2   2351 57.55                             119    -0.3 4  239 235 
 CHI  HZ EP   2   2351 31.17                             118     0.0 4  250 196 
 CHI  HZ I        2352  4.62         6.4 0.35                           250 196 
 HEL  HZ EP   2   2351 34.50                             115     0.5 4  276 256 
 HEL  HN ES   3   2352  5.63                             115    -0.3 2  276 256 
 HEL  HZ I        2352 11.60         6.8 0.26                           276 256 
 PRA  HZ EP   2   2351 46.97                             107    -0.1 3  395 210 
 PRA  HE ES   3   2352 29.31                             107     0.1 1  395 210 
                                                                                
