 2016  613 2014 46.1 L   6.806 -73.174144.2  RSN  9 0.3 1.8LRSN                1
 GAP=133        0.71       2.9     2.8  4.5 -0.1472E+01  0.3598E+01  0.2156E+01E
 Epicentro: LOS SANTOS - SANTANDER                                             3
 ACTION:UPD 16-07-21 22:18 OP:rebc STATUS:               ID:20160613201446 L   I
 OLDACT:DUP 16-06-14 05:52 OP:cara STATUS:               ID:20160613200747d    3
 OLDACT:REG 16-06-14 05:19 OP:cara STATUS:               ID:20160613200746     3
 2016-06-13-2007-46M.COL___328                                                 6
 STAT SP IPHASW D HRMM SECON CODA AMPLIT PERI AZIMU VELO AIN AR TRES W  DIS CAZ7
 BAR2 EZ IP       2015  5.45                             170   -0.1110 23.6 182 
 BAR2 EZ ES       2015 20.56                             170   -0.1710 23.6 182 
 BAR2 EZ I        2015 22.87        13.4 0.28                          23.6 182 
 BRR  HZ IP       2015  7.25                             153    0.3310 68.1 299 
 BRR  HN ES       2015 23.35                             153    0.2010 68.1 299 
 BRR  HZ I        2015 25.42        14.6 0.32                          68.1 299 
 PAM  EZ IP       2015  8.38                             150    0.1210 79.0  42 
 PAM  EN ES       2015 25.55                             150    0.0210 79.0  42 
 PAM  EZ I        2015 27.67         9.4 0.74                          79.0  42 
 RUS  HZ EP       2015  9.66                             143   -0.1210  101 174 
 RUS  HN ES       2015 28.22                             143   -0.0110  101 174 
 RUS  HZ I        2015 29.04         6.1 0.24                           101 174 
 PTB  HZ EP       2015 12.36                             132   -0.33 9  145 258 
 PTB  HN ES       2015 33.07                             132   -0.34 9  145 258 
 PTB  HZ I        2015 35.31         7.1 0.40                           145 258 
 SPBC HZ EP       2015 13.95                             129   -0.40 9  162 218 
 SPBC HN ES       2015 36.92                             129    0.54 9  162 218 
 SPBC HZ I        2015 42.65         8.9 0.20                           162 218 
 ZAR  HN ES       2015 43.03                             122   -0.08 9  201 292 
 ZAR  HZ I        2015 46.38         5.6 0.26                           201 292 
 NOR  HZ EP       2015 21.89                             118    0.37 8  232 234 
 NOR  HN ES       2015 48.82                             118   -0.31 8  232 234 
 NOR  HZ I        2015 55.66         4.7 0.18                           232 234 
 GUY2CHN ES       2016  3.62                             112    0.46 7  299 234 
 GUY2CHZ I        2016 13.42         2.5 0.64                           299 234 
                                                                                
