 2010  813 2330  4.2 L   6.840 -73.028141.9  RSN 10 0.4 2.1LRSN                1
 GAP=171        0.92       3.2     7.0  6.0 -0.8502E+01  0.2157E+01  0.2832E+01E
 Epicentro: CEPITA - SANTANDER                                                 3
 ACTION:UP  10-09-07 10:54 OP:vdl  STATUS:               ID:20100813233004 L   I
 2010-08-13-2328-16S.COL___111                                                 6
 STAT SP IPHASW D HRMM SECON CODA AMPLIT PERI AZIMU VELO SNR AR TRES W  DIS CAZ7
 BTL  SZ IP     C 2330 23.43                             166    -0.110   28 288 
 BAR2 SZ IP       2330 23.48                             165    -0.110   32 212 
 BAR2 SZ I        2330 23.63        32.0 0.38                            32 212 
 BAR2 SZ ES       2330 38.73                             165     0.010   32 212 
 GIR2 SZ EP   1   2330 23.30                             165    -0.2 7   32 325 
 BRR  HZ IP     C 2330 25.05                             147    -0.510   81 291 
 BRR  HZ I        2330 25.30        45.1 0.09                            81 291 
 BRR  HE ES       2330 42.21                             147     0.010   81 291 
 RUS  HZ EP   1   2330 27.60                             141    -0.3 7  105 183 
 RUS  HE ES       2330 46.43                             141     0.010  105 183 
 RUS  HZ I        2330 50.02         8.3 0.50                           105 183 
 GUE  SZ EP   1   2330 28.03                             140     0.0 7  110   6 
 GUE  SZ ES       2330 46.39                             140    -0.310  110   6 
 GUE  SZ I        2330 48.58        11.4 0.20                           110   6 
 GRA  SZ IP     C 2330 28.79                             138     0.310  118  12 
 GRA  SZ ES       2330 47.97                             138     0.610  118  12 
 GRA  SZ I        2330 49.23        44.5 0.30                           118  12 
 CHI  HZ EP   1   2330 42.18                             115    -0.4 6  257 198 
 CHI  HN ES       2331 13.07                             115     0.6 8  257 198 
 CHI  HZ I        2331 17.82         5.3 0.49                           257 198 
 HEL  HZ EP   1   2330 45.70                             112    -0.1 6  286 256 
 HEL  HZ I        2331 23.00        12.8 0.47                           286 256 
 RREF HZ EP   1   2330 52.10                             109     0.4 5  335 230 
 RREF HN ES   2   2331 30.04                             109     1.4 3  335 230 
 RREF HZ I        2331 35.78         7.9 0.35                           335 230 
                                                                                
