 2014  713 2344 36.1 L   6.808 -73.107133.4  RSN 13 0.5 1.7LRSN                1
 GAP=141        1.20       3.5     5.0  7.3 -0.4095E+01  0.1152E+02  0.4725E+00E
 Epicentro: LOS SANTOS - SANTANDER                                             3
 ACTION:UPD 15-03-16 20:43 OP:nd   STATUS:               ID:20140713234436 L   I
 OLDACT:REG 14-07-14 03:53 OP:spq  STATUS:               ID:20140713233821     3
 2014-07-13-2338-21M.COL___253                                                 6
 STAT SP IPHASW D HRMM SECON CODA AMPLIT PERI AZIMU VELO AIN AR TRES W  DIS CAZ7
 BAR2 SZ EP       2344 55.00                             169    0.6710 25.3 199 
 BAR2 SZ ES   1   2345  8.20                             169   -0.32 7 25.3 199 
 BAR2 SZ I        2345 11.03        13.9 0.11            168           25.3 199 
 PAM  SZ EP   1   2344 57.26                             150    0.42 7 74.0  37 
 PAM  SE ES   1   2345 12.85                             150   -0.14 7 74.0  37 
 PAM  SZ I        2345 15.26         7.6 0.17            154           74.0  37 
 BRR  HZ EP       2344 56.90                             149    0.7210 74.6 296 
 BRR  HE ES       2345 12.41                             149    0.6110 74.6 296 
 BRR  HZ I        2345 17.91         9.8 0.12            149           74.6 296 
 RUS  HZ EP   1   2344 58.85                             141    0.10 7  101 179 
 RUS  HN ES   1   2345 16.00                             141   -0.38 7  101 179 
 RUS  HZ I        2345 18.19         7.1 0.22            144            101 179 
 PTB  HZ EP       2345  1.91                             128   -0.64 9  152 259 
 PTB  HN ES       2345 23.06                             128   -0.09 9  152 259 
 PTB  HZ I        2345 25.33         8.0 0.10            130            152 259 
 OCA  HN ES       2345 24.18                             127   -0.64 9  160 352 
 OCA  HZ I        2345 28.42        13.5 0.48            130            160 352 
 SPBC HZ EP       2345  4.23                             125    0.17 9  167 220 
 SPBC HE ES       2345 25.02                             125   -0.82 9  167 220 
 SPBC HZ I        2345 29.21         6.3 0.16            128            167 220 
 ZAR  HZ EP       2345  8.20                             119   -0.00 8  208 291 
 ZAR  HN ES       2345 33.68                             119    0.47 8  208 291 
 ZAR  HZ I        2345 34.97         7.1 0.13            121            208 291 
 NOR  HZ EP       2345 12.19                             115    0.56 8  239 235 
 NOR  HE ES       2345 38.64                             115   -0.67 8  239 235 
 NOR  HZ I        2345 42.23         3.6 0.20            118            239 235 
 SML  HZ EP       2345 11.66                             115   -0.56 8  245 334 
 SML  HE ES       2345 39.83                             115   -0.53 8  245 334 
 HEL  HN ES       2345 48.11                             112    0.57 7  276 256 
 HEL  HZ I        2345 54.19         2.5 0.44            114            276 256 
 GUY2CHZ EP   1   2345 19.23                             110   -0.44 5  305 235 
 GUY2CHN ES   1   2345 52.97                             110   -0.66 5  305 235 
 GUY2CHZ I        2346  6.40         1.8 0.34                           305 235 
 RREF HN ES       2345 58.80                             108    0.63 7  326 230 
 RREF HZ I        2346  4.65         1.8 0.26            111            326 230 
                                                                                
