 2013  613 2106 15.7 L   6.773 -73.183144.8  RSN  9 0.4 2.1LRSN                1
 GAP=176        1.07       4.2     5.8  6.5  0.7681E+01  0.6118E+01 -0.2263E+01E
 Epicentro: LOS SANTOS - SANTANDER                                             3
 ACTION:UPD 14-01-08 09:54 OP:ep   STATUS:               ID:20130613210615 L   I
 OLDACT:REG 13-06-13 22:26 OP:nd   STATUS:               ID:20130613205959     3
 2013-06-13-2059-59M.COL___261                                                 6
 STAT SP IPHASW D HRMM SECON CODA AMPLIT PERI AZIMU VELO AIN AR TRES W  DIS CAZ7
 BAR2 SZ IP     D 21 6 35.13                             172   -0.0410 20.0 180 
 BAR2 SZ ES       21 6 49.90                             172   -0.4410 20.0 180 
 BAR2 SZ I        21 6 52.61        20.1 0.30            174           20.0 180 
 GIR2 SZ EP       21 6 35.00                             166   -0.3510 33.8 358 
 GIR2 SZ I        21 6 52.31        12.5 0.16            163           33.8 358 
 BRR  HZ IP     C 21 6 36.88                             153    0.2310 69.2 302 
 BRR  HN ES       21 6 53.62                             153    0.6410 69.2 302 
 BRR  HZ I        21 6 56.80        29.6 0.32            153           69.2 302 
 RUS  HZ IP     C 21 6 39.12                             144   -0.0710 98.0 174 
 RUS  HN ES       21 6 57.82                             144    0.3310 98.0 174 
 RUS  HZ I        21 6 58.70         8.3 0.28            146           98.0 174 
 PTB  HZ EP       21 6 41.71                             133   -0.49 9  143 260 
 PTB  HN ES       21 7  2.83                             133   -0.02 9  143 260 
 PTB  HZ I        21 7  4.73        17.0 0.40            134            143 260 
 ZAR  HZ EP       21 6 47.84                             123    0.01 9  201 293 
 ZAR  HN ES       21 7 12.08                             123   -0.80 9  201 293 
 ZAR  HZ I        21 7 19.19        23.9 0.32            122            201 293 
 SML  HZ EP       21 6 52.12                             117   -0.29 8  245 336 
 SML  HN ES       21 7 21.92                             117    0.90 8  245 336 
 SML  HZ I        21 7 25.12        17.7 0.10            116            245 336 
 GUY2CHZ EP   4   21 7  0.63                             113    1.92 0  296 235 
 GUY2CHE ES   4   21 7 34.84                             113    2.59 0  296 235 
 GUY2CHZ I        21 7 44.12         6.6 0.52                           296 235 
 PRA  HZ EP       21 7  9.05                             107    0.38 6  387 209 
 PRA  HN ES       21 7 50.59                             107    0.62 6  387 209 
 PRA  HZ I        21 7 55.71         6.9 0.30            107            387 209 
                                                                                
