 2010  613 2220 21.1 L   6.793 -73.265139.1  RSN  7 0.5 1.7LRSN                1
 GAP=189        0.96       6.3    31.2 13.5 -0.1144E+03  0.1832E+03 -0.4284E+02E
 Epicentro: ZAPATOCA - SANTANDER                                               3
 ACTION:UP  10-08-24 10:10 OP:vdl  STATUS:               ID:20100613222021 L   I
 2010-06-13-2217-52S.COL___114                                                 6
 STAT SP IPHASW D HRMM SECON CODA AMPLIT PERI AZIMU VELO SNR AR TRES W  DIS CAZ7
 BAR2 SZ EP       2220 39.97                             169     0.010   24 158 
 BAR2 SZ ES   2   2220 54.62                             169     0.0 5   24 158 
 GIR2 SZ EP   3   2220 40.57                             166     0.6 2   33  14 
 RUS  HZ EP       2220 44.16                             141    -0.110  102 169 
 RUS  HN ES   1   2221  2.42                             141     0.1 7  102 169 
 RUS  HZ I        2221  4.36         4.3 0.43                           102 169 
 BRI  SZ EP       2220 45.62                             138     0.810  114  27 
 BRI  SZ ES   2   2221  3.56                             138     0.2 5  114  27 
 GUE  SZ EP       2220 44.85                             136    -0.710  121  18 
 GRA  SZ EP   3   2220 46.03                             134    -0.2 2  131  23 
 GRA  SZ ES   2   2221  4.96                             134    -0.8 5  131  23 
 OCA  SZ EP   2   2220 49.26                             128     0.4 5  160 358 
 OCA  SZ ES   3   2221 10.66                             128     0.1 2  160 358 
 OCA  SZ I        2221 16.24        10.9 0.15                           160 358 
                                                                                
