 2016  313 2011 33.1 L   6.831 -73.166147.4  RSN 15 0.5 2.3LRSN                1
 GAP=132        0.96       2.6     3.3  5.4 -0.1801E+01  0.6360E+01  0.1003E+01E
 Epicentro: LOS SANTOS - SANTANDER                                             3
 ACTION:UPD 16-05-13 21:23 OP:cam  STATUS:               ID:20160313201133 L   I
 OLDACT:REG 16-03-14 02:23 OP:ak   STATUS:               ID:20160313200748     3
 2016-03-13-2007-48M.COL___295                                                 6
 STAT SP IPHASW D HRMM SECON CODA AMPLIT PERI AZIMU VELO AIN AR TRES W  DIS CAZ7
 BAR2 EZ EP       2011 53.11                             169    0.1210 26.4 184 
 BAR2 EZ ES       2012  8.31                             169   -0.2010 26.4 184 
 BAR2 EZ I        2012  9.36        31.3 0.34            167           26.4 184 
 PAM  EZ EP       2011 56.00                             151    0.5710 76.3  42 
 PAM  EN ES       2012 12.94                             151    0.1010 76.3  42 
 PAM  EZ I        2012 15.46        47.5 0.64            157           76.3  42 
 RUS  HZ EP       2011 57.10                             143   -0.1710  104 175 
 RUS  HN ES       2012 16.03                             143   -0.1010  104 175 
 RUS  HZ I        2012 17.43         9.6 0.30            145            104 175 
 PTB  HZ EP       2011 59.21                             133   -0.85 9  146 257 
 PTB  HN ES       2012 21.23                             133    0.14 9  146 257 
 PTB  HZ I        2012 28.50        17.0 0.30            131            146 257 
 OCA  HZ EP       2012  1.16                             131   -0.04 9  157 354 
 OCA  HN ES       2012 23.14                             131    0.02 9  157 354 
 OCA  HZ I        2012 27.21        63.9 0.18            132            157 354 
 SPBC HZ EP       2012  2.06                             129    0.22 9  164 218 
 SPBC HE ES       2012 23.97                             129   -0.29 9  164 218 
 SPBC HZ I        2012 30.49        26.7 0.30            129            164 218 
 ZAR  HZ EP   2   2012  2.44                             123   -2.86 4  201 291 
 ZAR  HN ES       2012 30.70                             123    0.28 9  201 291 
 ZAR  HZ I        2012 37.20        18.0 0.34            123            201 291 
 NOR  HZ EP       2012  8.91                             119   -0.03 8  235 233 
 NOR  HN ES       2012 36.89                             119   -0.01 8  235 233 
 NOR  HZ I        2012 45.71        15.0 0.22            119            235 233 
 CHI  HZ EP       2012 11.23                             117    0.05 8  251 194 
 CHI  HN ES       2012 40.56                             117   -0.33 8  251 194 
 CHI  HZ I        2012 44.39         5.3 0.58            119            251 194 
 ROSC BZ EP   9   2012 13.25                             117    1.75 0  255 210 
 ROSC BN ES       2012 43.30                                    0.10 8  255 210 
 ROSC BZ I        2012 50.81        17.0 0.40            118            255 210 
 HEL  HZ EP   2   2012 13.49                             115    0.24 4  271 255 
 HEL  HN ES       2012 44.96                             115    0.40 8  271 255 
 HEL  HZ I        2012 51.64         7.8 0.34            116            271 255 
 URE  HZ EP   2   2012 13.53                             114   -0.34 4  280 291 
 URE  HN ES       2012 45.69                             114    0.02 7  280 291 
 URE  HZ I        2012 57.33         8.9 0.38            115            280 291 
 GUY2CHZ EP   2   2012 17.16                             113    0.36 4  301 234 
 GUY2CHN ES       2012 50.81                             113   -0.07 7  301 234 
 GUY2CHZ I        2013  0.06         8.3 0.68                           301 234 
 ANIL HN ES       2013  2.89                             109    0.85 6  358 224 
 ANIL HZ I        2013  6.38        14.9 0.24            110            358 224 
 ORTC HZ EP       2012 27.72                             106    0.48 6  397 216 
 ORTC HE ES       2013  9.98                             106    0.51 6  397 216 
 ORTC HZ I        2013 17.87         5.4 0.34            108            397 216 
                                                                                
