 2016  713 2338 27.9 L   6.791 -73.155149.3  RSN  8 0.3 1.7LRSN                1
 GAP=136        0.82       3.5     3.5  5.2 -0.3430E+00  0.4569E+01  0.1566E+00E
 Epicentro: LOS SANTOS - SANTANDER                                             3
 ACTION:UPD 17-03-29 16:50 OP:lp   STATUS:               ID:20160713233827 L   I
 OLDACT:UP  16-07-14 04:02 OP:drio STATUS:               ID:20160713232760d    3
 OLDACT:DUP 16-07-14 03:56 OP:drio STATUS:               ID:20160713232760d    3
 2016-07-13-2327-59S.COL___334                                                 6
 STAT SP IPHASW D HRMM SECON CODA AMPLIT PERI AZIMU VELO AIN AR TRES W  DIS CAZ7
 BAR2 EZ EP       2338 47.75                             171   -0.1610 22.2 188 
 BAR2 EZ ES       2339  3.18                             171   -0.3510 22.2 188 
 BAR2 EZ I        2339  4.34        14.3 0.26            170           22.2 188 
 BRR  HZ EP       2338 49.68                             153    0.3010 70.8 300 
 BRR  HN ES       2339  6.74                             153    0.5810 70.8 300 
 BRR  HZ I        2339  9.24         9.2 0.30            153           70.8 300 
 PAM  EZ EP       2338 50.79                             151    0.2410 78.8  40 
 PAM  EE ES       2339  8.04                             151   -0.1910 78.8  40 
 PAM  EZ I        2339 11.31         4.0 0.18            155           78.8  40 
 RUS  HZ EP       2338 51.85                             145   -0.0610 99.7 175 
 RUS  HE ES       2339 10.64                             145   -0.0210 99.7 175 
 RUS  HZ I        2339 11.99         4.0 0.38            146           99.7 175 
 PTB  HZ EP       2338 54.69                             133   -0.34 9  147 259 
 PTB  HE ES       2339 15.69                             133   -0.52 9  147 259 
 PTB  HZ I        2339 18.15         5.4 0.16            133            147 259 
 SPBC HZ EP       2338 56.65                             130    0.14 9  162 219 
 SPBC HN ES       2339 19.36                             130    0.51 9  162 219 
 SPBC HZ I        2339 26.70         9.0 0.22            131            162 219 
 ZAR  HZ EP       2339  0.33                             123   -0.16 9  204 293 
 ZAR  HE ES       2339 25.92                             123   -0.02 9  204 293 
 ZAR  HZ I        2339 31.00         5.5 0.28            124            204 293 
 GUY2CHZ EP   4   2339 14.38                             113    2.89 0  300 235 
 GUY2CHE ES   4   2339 50.23                             113    4.72 0  300 235 
 GUY2CHZ I        2339 54.03         3.5 0.34                           300 235 
                                                                                
