 2010  913 2319 42.5 L   6.781 -73.032144.2  RSN 10 0.4 2.5LRSN                1
 GAP=194        0.77       3.3     7.0  5.8  0.1932E+00  0.1022E+02  0.3739E+01E
 Epicentro: CEPITA - SANTANDER                                                 3
 ACTION:UP  11-02-18 11:02 OP:tino STATUS:               ID:20100913231942 L   I
 2010-09-13-2318-10S.COL___113                                                 6
 STAT SP IPHASW D HRMM SECON CODA AMPLIT PERI AZIMU VELO SNR AR TRES W  DIS CAZ7
 BAR2 SZ IP       2320  2.12                             169     0.110   27 219 
 BAR2 SZ ES   1   2320 17.14                             169    -0.1 7   27 219 
 BAR2 SZ I        2320 18.85        93.6 0.24                            27 219 
 BRR  HZ IP     C 2320  3.97                             148    -0.310   83 296 
 BRR  HN ES   1   2320 21.40                             148     0.2 7   83 296 
 BRR  HZ I        2320 23.10        38.7 0.17                            83 296 
 RUS  HZ EP   1   2320  5.96                             144     0.0 7   98 183 
 RUS  HE ES   1   2320 24.59                             144     0.4 7   98 183 
 RUS  HZ I        2320 26.03        33.5 0.47                            98 183 
 OCA  SZ EP   1   2320 11.17                             129     0.1 7  164 349 
 OCA  SZ ES   1   2320 33.27                             129    -0.1 7  164 349 
 OCA  SZ I        2320 37.35        21.9 0.23                           164 349 
 CHI  HZ EP       2320 20.08                             117    -0.2 8  250 198 
 CHI  HZ I        2320 20.53        13.4 0.22                           250 198 
 CHI  HE ES   1   2320 48.98                             117    -0.8 6  250 198 
 ROSC BZ EP   1   2320 22.09                             116     1.0 6  258 214 
 ROSC BE ES   2   2320 51.13                             116    -0.1 4  258 214 
 ROSC BZ I        2320 57.03        18.4 0.30                           258 214 
 HEL  HZ EP   1   2320 23.74                             113    -0.2 6  284 257 
 HEL  HN ES   2   2320 56.45                             113     0.2 4  284 257 
 HEL  HZ I        2320 59.68         8.4 0.33                           284 257 
 GUY  SZ EP   1   2320 27.26                             111     0.1 5  311 237 
 GUY  SZ I        2321 12.90        42.9 0.40                           311 237 
 RREF HZ EP   1   2320 29.24                             110    -0.3 5  330 231 
 RREF HE ES   2   2321  6.39                             110     0.2 3  330 231 
 RREF HZ I        2321 10.99        13.0 0.16                           330 231 
 ANIL HZ EP   2   2320 33.96                             108     0.8 3  365 226 
 ANIL HZ I        2321 18.59        27.8 0.36                           365 226 
                                                                                
