 2015 1113 2129 50.8 L   6.791 -73.121143.2  RSN 13 0.4 2.1LRSN                1
 GAP=140        0.75       2.5     3.2  4.4 -0.8830E+00  0.3943E+01  0.2727E+01E
 Epicentro: LOS SANTOS - SANTANDER                                             3
 ACTION:UPD 15-12-28 16:10 OP:cam  STATUS:               ID:20151113212950 L   I
 OLDACT:REG 15-11-14 03:42 OP:ar   STATUS:               ID:20151113212751     3
 2015-11-13-2127-51M.COL___316                                                 6
 STAT SP IPHASW D HRMM SECON CODA AMPLIT PERI AZIMU VELO AIN AR TRES W  DIS CAZ7
 BAR2 EZ EP       2130  9.80                             170   -0.2910 23.0 197 
 BAR2 EZ ES       2130 24.76                             170   -0.4010 23.0 197 
 BAR2 EZ I        2130 27.57        22.0 0.24            170           23.0 197 
 BRR  HZ EP       2130 11.76                             151   -0.0610 74.1 298 
 BRR  HN ES       2130 28.60                             151    0.3710 74.1 298 
 BRR  HZ I        2130 29.65        22.3 0.54            150           74.1 298 
 PAM  EZ EP       2130 12.89                             151    0.2210 76.5  37 
 PAM  EN ES       2130 29.94                             151    0.2010 76.5  37 
 PAM  EZ I        2130 32.18        23.9 0.60            153           76.5  37 
 RUS  HZ EP       2130 14.09                             144   -0.1010 99.4 178 
 RUS  HN ES       2130 32.52                             144    0.0610 99.4 178 
 RUS  HZ I        2130 33.64        13.7 0.32            145           99.4 178 
 SPBC HZ EP       2130 19.06                             128   -0.11 9  164 220 
 SPBC HE ES       2130 41.35                             128    0.03 9  164 220 
 SPBC HZ I        2130 45.94        16.4 0.18            129            164 220 
 ZAR  HZ EP   2   2130 24.26                             121    0.90 4  207 292 
 ZAR  HE ES       2130 48.57                             121   -0.20 8  207 292 
 ZAR  HZ I        2130 54.51        15.5 0.50            122            207 292 
 NOR  HZ EP       2130 26.41                             118   -0.13 8  236 235 
 NOR  HN ES       2130 53.70                             118   -0.72 8  236 235 
 NOR  HZ I        2130 55.73        10.2 0.18            118            236 235 
 SML  HZ EP   2   2130 26.60                             117   -0.89 4  246 335 
 SML  HN ES   2   2130 55.90                             117   -0.22 4  246 335 
 SML  HZ I        2131  0.68        16.3 0.10            118            246 335 
 CHI  HZ EP       2130 28.38                             117    0.07 8  248 196 
 CHI  HN ES       2130 57.97                             117    0.39 8  248 196 
 CHI  HZ I        2131  2.92         4.2 0.32            118            248 196 
 GUY2CHZ EP   2   2130 35.02                             112    0.57 4  303 235 
 GUY2CHN ES       2131  8.99                             112    0.47 7  303 235 
 GUY2CHZ I        2131 14.92         6.2 0.28                           303 235 
 MON  HZ EP   9   2130 37.44                             108   -2.56 0  356 308 
 MON  HE ES       2131 16.51                                    0.68 6  356 308 
 MON  HZ I        2131 18.44         2.9 0.18            109            356 308 
 PRA  HZ EP   2   2130 44.23                             106   -0.04 3  392 210 
 PRA  HN ES       2131 26.51                             106    0.53 6  392 210 
 PRA  HZ I        2131 31.41         5.8 0.28            107            392 210 
 SJC  HZ EP   4   2130 44.35                             105   -2.18 0  412 327 
 SJC  HN ES   4   2131 25.47                             105   -4.55 0  412 327 
 SJC  HZ I        2131 29.87         1.6 0.28            106            412 327 
                                                                                
