 2013 1113 2103  5.8 L   6.788 -73.162147.7  RSN  6 0.4 1.4LRSN                1
 GAP=135        0.91       5.1     4.5  7.5 -0.4780E+01  0.2916E+01  0.8067E+01E
 Epicentro: LOS SANTOS - SANTANDER                                             3
 ACTION:UPD 14-01-09 16:27 OP:ep   STATUS:               ID:20131113210305 L   I
 OLDACT:REG 13-11-13 21:27 OP:jn   STATUS:               ID:20131113210000     3
 2013-11-13-2100-00M.COL___279                                                 6
 STAT SP IPHASW D HRMM SECON CODA AMPLIT PERI AZIMU VELO AIN AR TRES W  DIS CAZ7
 BAR2 SZ EP       21 3 25.83                             171    0.1810 21.8 186 
 BRR  HZ EP   2   21 3 27.47                             153    0.35 5 70.2 300 
 BRR  HE ES       21 3 44.23                             153    0.4910 70.2 300 
 PAM  SZ EP       21 3 28.59                             150    0.2210 79.5  40 
 PAM  SN ES   1   21 3 45.26                             150   -0.69 7 79.5  40 
 PAM  SZ I        21 3 46.23         4.2 0.18            153           79.5  40 
 RUS  HZ EP       21 3 29.79                             144    0.1110 99.4 175 
 RUS  HN ES       21 3 48.21                             144   -0.0810 99.4 175 
 RUS  HZ I        21 3 49.84         3.2 0.22            145           99.4 175 
 PTB  HZ EP       21 3 32.55                             133   -0.21 9  146 259 
 PTB  HN ES       21 3 53.16                             133   -0.61 9  146 259 
 PTB  HZ I        21 3 55.83         3.0 0.28            133            146 259 
 NOR  HZ EP       21 3 41.08                             119   -0.34 8  232 234 
 NOR  HN ES       21 4  9.67                             119    0.48 8  232 234 
 NOR  HZ I        21 4 11.84         1.9 0.38            120            232 234 
                                                                                
