 2012  313 2033  4.0 L   6.765 -73.142145.9  RSN  6 0.3 1.9LRSN                1
 GAP=139        0.89       5.1     5.2  7.2  0.1765E+01  0.1831E+01 -0.2803E+01E
 ACTION:UP  12-03-31 23:19 OP:EP   STATUS:               ID:20120313203304 L   I
 2012-03-13-2030-00M.COL___202                                                 6
 STAT SP IPHASW D HRMM SECON CODA AMPLIT PERI AZIMU VELO SNR AR TRES W  DIS CAZ7
 BAR2 SZ EP       2033 23.64                             172     0.110   20 193 
 BAR2 SZ ES       2033 38.66                             172    -0.210   20 193 
 BAR2 SZ I        2033 40.04        20.8 0.21                            20 193 
 BRR  HZ EP   1   2033 25.57                             152     0.3 7   74 301 
 BRR  HN ES       2033 42.37                             152     0.510   74 301 
 BRR  HZ I        2033 48.89        27.3 0.26                            74 301 
 PAM  SZ EP       2033 26.48                             150     0.110   80  38 
 PAM  SE ES   1   2033 43.23                             150    -0.6 7   80  38 
 RUS  HZ EP   1   2033 27.45                             145     0.0 7   97 176 
 RUS  HN ES       2033 45.95                             145     0.210   97 176 
 PTB  HZ EP   1   2033 30.58                             132    -0.4 7  147 260 
 PTB  HE ES   1   2033 51.28                             132    -0.7 7  147 260 
 PTB  HZ I        2033 54.78         5.3 0.16                           147 260 
 ZAR  HN ES   2   2034  2.10                             122     0.0 4  206 293 
 ZAR  HZ I        2034  7.99         8.2 0.31                           206 293 
                                                                                
