 2017 1013 2324 23.6 L   6.756 -73.174147.4  RSN  6 0.4 1.4LRSN                1
 GAP=231        0.99       7.6     7.0  7.3  0.3309E+02  0.6512E+01 -0.4657E+01E
 Epicentro: LOS SANTOS - SANTANDER                                             3
 ACTION:UPD 17-11-07 19:31 OP:rebc STATUS:               ID:20171013232423 L   I
 OLDACT:DUP 17-10-14 05:52 OP:dhb  STATUS:               ID:20171013231118d    3
 OLDACT:REG 17-10-14 03:01 OP:dhb  STATUS:               ID:20171013231117     3
 2017-10-13-2318-00M.COL___432                                                 6
 STAT SP IPHASW D HRMM SECON CODA AMPLIT PERI AZIMU VELO AIN AR TRES W  DIS CAZ7
 BAR2 EZ EP       2324 42.92                             173   -0.3710 18.1 183 
 BAR2 EZ ES       2324 58.20                             173   -0.4810 18.1 183 
 BAR2 EZ I        2324 58.70         6.7 0.28            174           18.1 183 
 BRR  HZ EP       2324 45.19                             153    0.3210 71.0 303 
 BRR  HN ES       2325  1.65                             153    0.1510 71.0 303 
 BRR  HZ I        2325 11.07        12.5 0.30            151           71.0 303 
 RUS  HZ EP       2324 47.09                             145   -0.0510 96.0 174 
 RUS  HN ES       2325  6.22                             145    0.6810 96.0 174 
 RUS  HZ I        2325  7.68         3.0 0.38            152           96.0 174 
 PTB  HZ EP       2324 49.97                             133   -0.33 9  144 261 
 PTB  HN ES       2325 10.75                             133   -0.41 9  144 261 
 PTB  HZ I        2325 14.64         2.4 0.13            135            144 261 
 ZAR  HZ EP       2324 56.11                             123    0.10 9  203 294 
 ZAR  HN ES       2325 21.78                             123    0.46 9  203 294 
 ZAR  HZ I        2325 27.18         4.0 0.29            125            203 294 
 GUY2CHZ EP   4   2325  9.84                             113    3.20 0  296 235 
 GUY2CHE ES   4   2325 44.61                             113    4.37 0  296 235 
 GUY2CHZ I        2325 47.99         0.7 0.10                           296 235 
                                                                                
