 2014  713 2205  2.9 L   6.832 -73.176140.1  RSN  9 0.4 1.5LRSN                1
 GAP=131        0.96       3.3     4.1  6.5 -0.1761E+01  0.4499E+01  0.1571E+01E
 Epicentro: ZAPATOCA - SANTANDER                                               3
 ACTION:UPD 15-03-16 20:43 OP:nd   STATUS:               ID:20140713220502 L   I
 OLDACT:REG 14-07-14 03:00 OP:spq  STATUS:               ID:20140713215818     3
 2014-07-13-2158-18M.COL___253                                                 6
 STAT SP IPHASW D HRMM SECON CODA AMPLIT PERI AZIMU VELO AIN AR TRES W  DIS CAZ7
 BAR2 SZ EP       22 5 21.77                             169   -0.1410 26.5 182 
 BAR2 SZ ES   1   22 5 36.86                             169    0.12 7 26.5 182 
 BAR2 SZ I        22 5 38.59         5.2 0.21            169           26.5 182 
 BRR  HZ EP       22 5 24.01                             153    0.8410 66.6 297 
 BRR  HN ES       22 5 38.87                             153   -0.1110 66.6 297 
 BRR  HZ I        22 5 45.40         5.3 0.12            151           66.6 297 
 PAM  SZ EP       22 5 24.82                             150    0.3410 76.9  43 
 PAM  SN ES       22 5 41.36                             150    0.0510 76.9  43 
 PAM  SZ I        22 5 43.79         7.9 0.64            156           76.9  43 
 RUS  HZ EP       22 5 25.80                             142   -0.5710  104 174 
 PTB  HZ EP       22 5 28.93                             131   -0.23 9  145 257 
 PTB  HN ES       22 5 49.30                             131   -0.36 9  145 257 
 PTB  HZ I        22 5 54.11         3.1 0.18            132            145 257 
 OCA  HN ES       22 5 51.34                             129   -0.51 9  156 354 
 OCA  HZ I        22 5 54.84         4.1 0.22            132            156 354 
 SPBC HZ EP       22 5 30.91                             128   -0.11 9  164 217 
 SPBC HN ES       22 5 53.41                             128    0.44 9  164 217 
 SPBC HZ I        22 6  0.26         3.0 0.18            130            164 217 
 ZAR  HZ EP   1   22 5 34.08                             122   -0.43 6  200 292 
 ZAR  HN ES       22 5 59.47                             122    0.29 9  200 292 
 ZAR  HZ I        22 6  6.75         2.3 0.19            124            200 292 
 SML  HZ EP   1   22 5 39.21                             117    0.51 6  239 336 
 SML  HN ES       22 6  6.60                             117   -0.04 8  239 336 
 SML  HZ I        22 6 10.41         4.5 0.10            120            239 336 
                                                                                
