 2010 1113 2144 42.9 L   6.747 -73.105140.8  RSN 17 0.4 2.7LRSN                1
 GAP=164        0.94       3.4     5.6  5.0 -0.8202E+01  0.6749E+01  0.3309E+01E
 Epicentro: LOS SANTOS - SANTANDER                                             3
 ACTION:UP  10-12-17 16:52 OP:REBC STATUS:               ID:20101113214442 L   I
 2010-11-13-2143-05S.COL___129                                                 6
 STAT SP IPHASW D HRMM SECON CODA AMPLIT PERI AZIMU VELO SNR AR TRES W  DIS CAZ7
 BAR2 SZ IP       2145  1.85                             172     0.010   19 207 
 BAR2 SZ ES   1   2145 16.45                             172    -0.2 7   19 207 
 BAR2 SZ I        2145 18.64       146.6 0.17                            19 207 
 BTL  SZ IP       2145  2.19                             169     0.210   26 317 
 BTL  SZ ES   1   2145 16.98                             169     0.1 7   26 317 
 GIR2 SZ EP       2145  1.95                             164    -0.210   38 345 
 GIR2 SZ ES   1   2145 17.11                             164    -0.1 7   38 345 
 BRR  HZ IP     C 2145  3.75                             149    -0.210   78 301 
 BRR  HZ I        2145  4.00       184.7 0.15                            78 301 
 BRR  HE ES   1   2145 20.41                             149     0.1 7   78 301 
 RUS  HZ IP     C 2145  5.72                             144     0.010   95 179 
 RUS  HE ES   1   2145 23.89                             144     0.3 7   95 179 
 RUS  HZ I        2145 25.78        54.2 0.43                            95 179 
 GUE  SZ EP       2145  6.90                             137    -0.710  121   9 
 GRA  SZ IP       2145  8.69                             135     0.610  130  15 
 GRA  SZ ES   1   2145 28.40                             135     0.7 7  130  15 
 GRA  SZ I        2145 29.37        56.7 0.20                           130  15 
 OCA  SZ EP   2   2145 10.42                             127    -1.0 5  167 352 
 OCA  SZ ES   2   2145 33.56                             127    -0.2 5  167 352 
 OCA  SZ I        2145 38.14        56.9 0.37                           167 352 
 NOR  SZ EP       2145 17.81                             117    -0.6 8  235 236 
 NOR  SN ES   1   2145 45.93                             117    -0.2 6  235 236 
 CHI  HZ EP       2145 19.75                             116    -0.1 8  244 197 
 CHI  HZ I        2145 20.89        21.9 0.08                           244 197 
 CHI  HE ES   1   2145 48.45                             116    -0.2 6  244 197 
 ROSC BE ES   2   2145 49.56                             116    -0.2 4  250 213 
 ROSC BZ I        2145 55.32        18.4 0.64                           250 213 
 HEL  HZ EP       2145 23.42                             113     0.2 8  275 257 
 HEL  HE ES   2   2145 54.55                             113    -0.1 4  275 257 
 HEL  HZ I        2146  0.04        26.2 0.30                           275 257 
 GUY  SZ EP       2145 27.26                             111     0.9 7  302 236 
 GUY  SZ I        2146  9.42        37.2 0.38                           302 236 
 RREF HZ EP       2145 29.15                             110     0.3 7  321 231 
 RREF HE ES   1   2146  4.84                             110     0.2 5  321 231 
 RREF HZ I        2146 13.52        30.3 0.49                           321 231 
 TOL  SZ EP       2145 31.45                             108     0.6 7  343 226 
 DBB  SZ EP   2   2145 30.61                             108    -0.1 3  344 275 
 PRA  HZ EP       2145 35.47                             106    -0.5 6  389 211 
 PRA  HN ES   1   2146 17.11                             106    -0.2 4  389 211 
                                                                                
