 2015  913 2213 27.3 L   6.777 -73.168148.4  RSN 12 0.4 1.7LRSN                1
 GAP=135        1.05       3.5     3.8  5.7 -0.1392E+01  0.6296E+01  0.4669E+01E
 Epicentro: LOS SANTOS - SANTANDER                                             3
 ACTION:UPD 15-10-28 16:26 OP:cam  STATUS:               ID:20150913221327 L   I
 OLDACT:REG 15-09-14 04:51 OP:ak   STATUS:               ID:20150913220749     3
 2015-09-13-2207-49M.COL___329                                                 6
 STAT SP IPHASW D HRMM SECON CODA AMPLIT PERI AZIMU VELO AIN AR TRES W  DIS CAZ7
 BAR2 EZ EP       2213 47.27                             172    0.0310 20.5 185 
 BAR2 EZ ES       2214  2.35                             172   -0.4010 20.5 185 
 BAR2 EZ I        2214  3.87        24.1 0.16            170           20.5 185 
 BRR  HZ EP       2213 49.33                             153    0.6010 70.4 301 
 BRR  HE ES       2214  6.36                             153    0.9510 70.4 301 
 PAM  EZ EP       2213 50.10                             150    0.0510 80.9  40 
 PAM  EN ES       2214  7.25                             150   -0.5110 80.9  40 
 PAM  EZ I        2214  8.10         6.4 0.18            155           80.9  40 
 RUS  HZ EP       2213 50.80                             145   -0.3910 98.2 175 
 RUS  HN ES       2214  9.84                             145    0.0610 98.2 175 
 RUS  HZ I        2214 11.08         3.1 0.21            145           98.2 175 
 PTB  HZ EP       2213 54.08                             133   -0.19 9  145 260 
 PTB  HN ES       2214 15.47                             133    0.20 9  145 260 
 PTB  HZ I        2214 18.69         6.2 0.11            133            145 260 
 SPBC HZ EP       2213 56.28                             130    0.57 9  160 219 
 SPBC HN ES       2214 17.68                             130   -0.17 9  160 219 
 SPBC HZ I        2214 23.44        11.6 0.16            130            160 219 
 ZAR  HZ EP       2213 59.38                             123   -0.45 9  203 293 
 ZAR  HN ES       2214 24.73                             123   -0.44 9  203 293 
 ZAR  HZ I        2214 31.72         8.5 0.40            124            203 293 
 NOR  HZ EP       2214  2.43                             119   -0.43 8  231 235 
 NOR  HE ES       2214 30.41                             119   -0.15 8  231 235 
 NOR  HZ I        2214 35.91         4.0 0.44            120            231 235 
 CHI  HZ EP       2214  5.52                             118    0.67 8  246 195 
 CHI  HN ES       2214 34.35                             118    0.24 8  246 195 
 CHI  HZ I        2214 40.58         2.4 0.45            119            246 195 
 HEL  HZ EP   1   2214  7.90                             116    0.54 6  269 256 
 HEL  HN ES       2214 37.97                             116   -0.61 8  269 256 
 GUY2CHE ES       2214 44.58                             113    0.09 7  298 235 
 PRA  HZ EP       2214 20.72                             107    0.17 6  389 209 
 PRA  HN ES       2215  1.48                             107   -0.58 6  389 209 
                                                                                
