 2011  913 2314 18.0 L   6.785 -73.148136.2  RSN  5 0.3 2.0LRSN                1
 GAP=183        0.71       6.6     7.0  7.4  0.3070E+02 -0.7648E+01 -0.1869E+02E
 Epicentro: LOS SANTOS - SANTANDER                                             3
 ACTION:UPD 12-07-13 15:57 OP:ep   STATUS:               ID:20110913231418 L   I
 2011-09-13-2312-43S.COL___169                                                 6
 STAT SP IPHASW D HRMM SECON CODA AMPLIT PERI AZIMU VELO AIN AR TRES W  DIS CAZ7
 BAR2 SZ EP   1   2314 36.31                             171   -0.16 7 21.6 190 
 BAR2 SZ ES   1   2314 50.69                             171   -0.17 7 21.6 190 
 BAR2 SZ I        2314 52.77        28.5 0.25                          21.6 190 
 BRR  HZ EP       2314 38.78                             151    0.6010 71.8 300 
 BRR  HE ES   1   2314 54.10                             151    0.19 7 71.8 300 
 BRR  HZ I        2314 59.97        34.4 0.14                          71.8 300 
 RUS  HZ EP   1   2314 40.69                             142   -0.03 7 98.9 176 
 RUS  HE ES   1   2314 58.30                             142   -0.13 7 98.9 176 
 RUS  HZ I        2315  0.15         5.0 0.17                          98.9 176 
 OCA  SZ EP   1   2314 45.36                             127   -0.41 7  162 353 
 OCA  SZ I        2315 13.90         9.5 0.35                           162 353 
 ZAR  HZ EP   2   2314 50.04                             120    0.13 4  204 293 
 ZAR  HE ES       2315 14.42                             120   -0.36 9  204 293 
 ZAR  HZ I        2315 20.58        13.0 0.48                           204 293 
                                                                                
