 2010  313 2309 38.2 L   6.791 -73.015149.2  RSN  5 0.4 1.7LRSN                1
 GAP=250        0.97       7.2    13.2 10.7  0.3692E+02  0.1208E+02  0.1976E+02E
 Epicentro: CEPITA - SANTANDER                                                 3
 ACTION:UP  10-08-24 09:53 OP:vdl  STATUS:               ID:20100313230937 L   I
 2010-03-13-2306-51S.COL___095                                                 6
 STAT SP IPHASW D HRMM SECON CODA AMPLIT PERI AZIMU VELO SNR AR TRES W  DIS CAZ7
 BAR2 SZ ES   3   2310 14.43                             169     0.3 2   29 220 
 BRR  HZ EP       2310  0.33                             149    -0.210   85 294 
 BRR  HZ I        2310  0.55        21.8 0.15                            85 294 
 BRR  HN ES   1   2310 17.97                             149     0.1 7   85 294 
 RUS  HZ EP       2310  2.85                             145     0.610  100 184 
 RUS  HN ES   1   2310 20.51                             145    -0.4 7  100 184 
 RUS  HZ I        2310 22.19         3.4 0.25                           100 184 
 CHI  HZ EP   1   2310 15.62                             118    -0.8 6  252 198 
 CHI  HN ES   1   2310 46.26                             118     0.0 6  252 198 
 CHI  HZ I        2310 51.66         2.0 0.47                           252 198 
 RREF BZ EP   1   2310 25.49                             111    -0.2 5  332 231 
 RREF BN ES   2   2311  3.12                             111     0.4 3  332 231 
 RREF BZ I        2311  9.92         1.9 0.40                           332 231 
                                                                                
