 2017  913 2324 41.0 L   6.795 -73.091139.2  RSN  6 0.5 1.4LRSN                1
 GAP=144        1.13       5.0     5.4  7.5  0.1418E-01  0.1487E+02  0.2527E+01E
 Epicentro: LOS SANTOS - SANTANDER                                             3
 ACTION:UPD 17-10-05 19:12 OP:rebc STATUS:               ID:20170913232441 L   I
 OLDACT:REG 17-09-14 02:41 OP:dhb  STATUS:               ID:20170913231744     3
 2017-09-13-2318-00M.COL___464                                                 6
 STAT SP IPHASW D HRMM SECON CODA AMPLIT PERI AZIMU VELO AIN AR TRES W  DIS CAZ7
 BAR2 EZ EP       2324 59.71                             169   -0.1610 24.6 204 
 BAR2 EZ ES       2325 14.25                             169   -0.3410 24.6 204 
 BAR2 EZ I        2325 19.50         3.3 0.12            169           24.6 204 
 PAM  EZ IP     C 2325  2.12                             151   -0.2110 74.1  36 
 PAM  EE ES       2325 19.06                             151    0.1010 74.1  36 
 PAM  EZ I        2325 21.19         5.7 0.34            155           74.1  36 
 BRR  HZ EP       2325  1.17                             149   -0.6110 76.8 297 
 BRR  HN ES       2325 18.08                             149    0.0910 76.8 297 
 BRR  HZ I        2325 21.66         8.8 0.14            150           76.8 297 
 RUS  HZ EP       2325  4.65                             143    0.5910 99.8 179 
 RUS  HN ES       2325 22.40                             143    0.3610 99.8 179 
 RUS  HZ I        2325 23.57         3.0 0.21            146           99.8 179 
 ZAR  HZ EP       2325 14.50                             120    0.86 8  210 292 
 ZAR  HN ES       2325 39.42                             120    0.33 8  210 292 
 ZAR  HZ I        2325 43.07         2.7 0.07            123            210 292 
 NOR  HZ EP       2325 16.08                             116   -0.79 8  239 235 
 NOR  HN ES       2325 44.60                             116   -0.24 8  239 235 
 NOR  HZ I        2325 48.18         1.4 0.14            119            239 235 
                                                                                
