 2011  813 2041 54.2 L   6.786 -73.036147.5  RSN  8 0.3 2.1LRSN                1
 GAP=152        0.46       2.4     5.1  4.0 -0.1067E+01 -0.7170E+00  0.2625E+00E
 Epicentro: CEPITA - SANTANDER                                                 3
 ACTION:UPD 12-07-13 15:51 OP:ep   STATUS:               ID:20110813204154 L   I
 2011-08-13-2037-13S.COL___149                                                 6
 STAT SP IPHASW D HRMM SECON CODA AMPLIT PERI AZIMU VELO AIN AR TRES W  DIS CAZ7
 BAR2 SZ EP   1   2042 14.05                             169   -0.02 7 26.9 217 
 BAR2 SZ ES   1   2042 29.25                             169   -0.35 7 26.9 217 
 BAR2 SZ I        2042 30.95        23.3 0.33                          26.9 217 
 PAM  SZ EP   2   2042 16.75                             153    0.53 5 71.5  31 
 PAM  SE ES   2   2042 34.02                             153    0.59 5 71.5  31 
 BRR  HZ EP   1   2042 16.27                             149    0.09 7 82.7 295 
 BRR  HN ES   1   2042 33.47                             149    0.12 7 82.7 295 
 BRR  HZ I        2042 38.00        21.6 0.20                          82.7 295 
 RUS  HZ EP   1   2042 17.97                             145    0.01 7 99.0 183 
 RUS  HN ES   2   2042 36.41                             145   -0.12 5 99.0 183 
 RUS  HZ I        2042 38.09         9.6 0.26                          99.0 183 
 OCA  SZ EP   1   2042 22.74                             129   -0.18 7  164 349 
 OCA  SZ ES   2   2042 45.15                             129   -0.20 5  164 349 
 OCA  SZ I        2042 49.90        18.6 0.25                           164 349 
 CHI  HZ EP   1   2042 32.06                             117   -0.11 6  251 198 
 CHI  HN ES   2   2043  1.80                             117   -0.02 4  251 198 
 CHI  HZ I        2043  7.54         6.3 0.41                           251 198 
 RREF HN ES   2   2043 18.74                             111    0.62 3  330 231 
 RREF HZ I        2043 25.78         8.1 0.34                           330 231 
 COD  HZ EP   2   2042 43.02                             109    0.09 3  351 353 
 COD  HN ES   2   2043 20.27                             109   -0.70 3  351 353 
 COD  HZ I        2043 38.07        15.0 0.59                           351 353 
                                                                                
