 2013 1013 2225 31.8 L   6.478 -74.145 67.3  RSN 17 0.6 2.2LRSN 2.6WRSN        1
 SPEC AVERAGE  MO 13.0 ST122.7 OM  1.5 f0 18.8 R0.2458 AL 0.00 WI 20.0 MW  2.6 3
 SPEC SD       MO  0.2 ST163.4 OM  0.3 f0 14.4 R0.2423 AL      WI      MW  0.1 3
 GAP= 49        1.49       2.6     2.8  7.7 -0.1823E+01 -0.1104E+01 -0.4152E-01E
 Epicentro: PUERTO PARRA - SANTANDER                                           3
 SPEC PTB HH Z MO 13.0 ST0.072 OM  1.4 f0 2.35 R0.8187 AL-0.00 WI 20.0 MW  2.6 3
 SPEC PTB HH Z T222549 K 0.050 GD 75.9 VS 5.20 DE 3.20 Q0750.0 QA 1.50 VS 5.20 3
 SPEC BRR HH Z MO 13.3 ST 42.2 OM  1.6 f0 15.0 R0.1283 AL-0.00 WI 20.0 MW  2.8 3
 SPEC BRR HH Z T222557 K 0.050 GD  107 VS 5.20 DE 3.20 Q0750.0 QA 1.50 VS 5.20 3
 SPEC BAR2SH Z MO 13.1 ST196.6 OM  1.4 f0 28.9 R0.0666 AL-0.00 WI 20.0 MW  2.7 3
 SPEC BAR2SH Z T2226 0 K 0.050 GD  111 VS 5.20 DE 3.20 Q0750.0 QA 1.50 VS 5.20 3
 SPEC ZAR HH Z MO 13.1 ST480.9 OM  1.3 f0 40.0 R0.0481 AL-0.00 WI 20.0 MW  2.7 3
 SPEC ZAR HH Z T2226 7 K 0.050 GD  129 VS 5.20 DE 3.20 Q0750.0 QA 1.50 VS 5.20 3
 SPEC HEL HH Z MO 13.0 ST  1.4 OM  1.2 f0 6.00 R0.3207 AL-0.00 WI 20.0 MW  2.6 3
 SPEC HEL HH Z T222612 K 0.050 GD  140 VS 5.20 DE 3.20 Q0750.0 QA 1.50 VS 5.20 3
 SPEC PAM SH Z MO 12.8 ST  8.4 OM  0.9 f0 13.2 R0.1458 AL-0.00 WI 20.0 MW  2.5 3
 SPEC PAM SH Z T222618 K 0.050 GD  157 VS 5.20 DE 3.20 Q0750.0 QA 1.50 VS 5.20 3
 SPECGUY2CHH Z MO 13.1 ST  0.5 OM  1.3 f0 3.82 R 0.504 AL-0.00 WI 20.0 MW  2.7 3
 SPECGUY2CHH Z T222619 K 0.050 GD162.1 VS 5.20 DE 3.20 Q0750.0 QA 1.50 VS 5.20 3
 SPEC URE HH Z MO 12.8 ST251.5 OM  0.9 f0 40.0 R0.0481 AL-0.00 WI 20.0 MW  2.5 3
 SPEC URE HH Z T222619 K 0.050 GD  169 VS 5.20 DE 3.20 Q0750.0 QA 1.50 VS 5.20 3
 SPEC RREFHH Z MO 13.0 ST0.773 OM  1.1 f0 4.93 R0.3903 AL-0.00 WI 20.0 MW  2.6 3
 SPEC RREFHH Z T222626 K 0.050 GD  176 VS 5.20 DE 3.20 Q0750.0 QA 1.50 VS 5.20 3
 OLDACT:DUP 13-10-14 00:32 OP:stll STATUS:               ID:20131013221850d    3
 ACTION:UPD 13-11-25 09:21 OP:ep   STATUS:               ID:20131013222531 L   I
 OLDACT:UP  13-10-14 01:36 OP:stll STATUS:               ID:20131013221850d    3
 2013-10-13-2218-49M.COL___230                                                 6
 STAT SP IPHASW D HRMM SECON CODA AMPLIT PERI AZIMU VELO AIN AR TRES W  DIS CAZ7
 PTB  HZ IP     D 2225 42.18                             149   -0.2010 35.1 281 
 PTB  HZ I        2225 42.28        69.2 0.18            132           35.1 281 
 PTB  HN ES       2225 50.62                             149   -0.0410 35.1 281 
 BRR  HZ IP     D 2225 47.03                             122    0.3710 84.4  34 
 BRR  HN ES       2225 59.26                             122    0.9810 84.4  34 
 BRR  HZ I        2226  0.05        81.5 0.10            107           84.4  34 
 SPBC HZ EP       2225 47.57                             120    0.0210 91.7 175 
 SPBC HN ES       2225 59.79                             120   -0.0710 91.7 175 
 SPBC HZ I        2226  1.32        69.7 0.30            107           91.7 175 
 BAR2 SZ IP     D 2225 49.82                             116    0.3910  107  83 
 BAR2 SZ ES       2226  2.25                             116   -0.9510  107  83 
 BAR2 HZ I        2226  4.91        45.9 0.14            103            107  83 
 NOR  HZ EP       2225 51.16                             111   -0.5310  129 218 
 NOR  HN ES       2226  6.93                             111   -0.2910  129 218 
 NOR  HZ I        2226  9.54        40.9 0.24             99            129 218 
 RUS  HZ EP       2225 52.45                             110   -0.3710  134 119 
 RUS  HE ES       2226  8.88                             110   -0.3510  134 119 
 ZAR  HZ EP       2225 52.95                             109    0.40 9  137 325 
 ZAR  HN ES       2226  9.31                             109    0.54 9  137 325 
 ZAR  HZ I        2226 13.01        35.6 0.34             97            137 325 
 HEL  HZ IP     D 2225 55.35                             106    0.07 9  156 258 
 HEL  HN ES       2226 14.06                             106    0.45 9  156 258 
 HEL  HZ I        2226 16.20        38.6 0.30             96            156 258 
 PAM  SZ EP       2225 59.04                             103    0.09 9  186  59 
 PAM  SN ES       2226 19.98                             103   -0.16 9  186  59 
 GUY2CHZ IP     C 2226  0.27                             103    0.42 9  194 224 
 GUY2CHN ES       2226 21.09                             103   -0.67 9  194 224 
 GUY2CHZ I        2226 27.12        17.7 0.30                           194 224 
 URE  HZ EP       2225 59.57                             101   -1.48 8  208 313 
 URE  HZ I        2226 23.80        16.0 0.14             94            208 313 
 CHI  HZ EP       2226  2.15                             101    0.46 8  209 167 
 CHI  HE ES       2226 25.21                             101    0.18 8  209 167 
 CHI  HZ I        2226 33.10         6.9 0.48             94            209 167 
 OCA  HZ EP       2226  2.39                             101    0.35 8  215  25 
 OCA  HN ES       2226 25.22                             101   -0.43 8  215  25 
 OCA  HZ I        2226 32.35         8.8 0.42             93            215  25 
 RREF HZ EP       2226  3.89                             101    0.72 8  219 217 
 RREF HN ES       2226 27.74                             101    0.07 8  219 217 
 RREF HZ I        2226 31.31        14.3 0.28             93            219 217 
 CAPV BZ EP       2226  8.11                              99    1.27 8  254  53 
 SML  HZ EP       2226  7.00                              99    0.04 8  257   2 
 SML  HE ES       2226 32.64                              99   -1.77 8  257   2 
 SML  HZ I        2226 44.62        15.1 0.08             93            257   2 
 TAM  HZ EP       2226  7.82                              99    0.39 8  260  91 
 TAM  HZ I        2226  8.25        15.8 0.38             93            260  91 
                                                                                
