 2012  113 2329 28.4 L   6.807 -73.132152.0  RSN  9 0.3 1.8LRSN                1
 GAP=138        0.69       5.6     6.2  9.2  0.3697E+01  0.2738E+01  0.2931E+02E
 Epicentro: LOS SANTOS - SANTANDER                                             3
 ACTION:UP  12-02-03 08:17 OP:REBC STATUS:               ID:20120113232928 L   I
 2012-01-13-2328-19S.COL___187                                                 6
 STAT SP IPHASW D HRMM SECON CODA AMPLIT PERI AZIMU VELO SNR AR TRES W  DIS CAZ7
 GIR2 SZ EP   3   2329 49.13                             168     0.3 2   31 347 
 BRR  HZ EP       2329 50.47                             154     0.210   72 297 
 BRR  HN ES   1   2330  7.63                             154     0.3 7   72 297 
 BRR  HZ I        2330 11.57        18.9 0.12                            72 297 
 PAM  SN ES   2   2330  8.38                             153    -0.6 5   76  39 
 RUS  HZ EP       2329 53.01                             145     0.210  101 177 
 RUS  HZ I        2330 12.27         4.7 0.28                           101 177 
 PTB  HZ EP       2329 55.59                             133    -0.5 9  149 259 
 PTB  HZ I        2330 18.91         5.2 0.12                           149 259 
 OCA  SZ EP   2   2329 57.49                             132     0.3 5  160 353 
 OCA  SZ I        2330 24.67        14.9 0.20                           160 353 
 ZAR  HE ES   2   2330 26.97                             124    -0.1 4  205 292 
 ZAR  HZ I        2330 32.01        10.8 0.48                           205 292 
 NOR  SE ES   2   2330 33.38                             120     0.4 4  236 235 
 CHI  HZ EP       2330  6.49                             119    -0.1 8  250 195 
 CHI  HZ I        2330  8.71         3.2 0.26                           250 195 
 CHI  HE ES   2   2330 36.36                             119     0.0 4  250 195 
                                                                                
