 2013  613 2316 51.0 L   6.777 -73.174146.1  RSN  5 0.3 1.8LRSN                1
 GAP=178        0.79       5.6     5.4  6.3  0.1122E+02  0.2988E+00 -0.2717E+01E
 Epicentro: LOS SANTOS - SANTANDER                                             3
 ACTION:UPD 14-01-08 09:54 OP:ep   STATUS:               ID:20130613231651 L   I
 OLDACT:REG 13-06-13 22:35 OP:nd   STATUS:               ID:20130613230959     3
 2013-06-13-2309-59M.COL___261                                                 6
 STAT SP IPHASW D HRMM SECON CODA AMPLIT PERI AZIMU VELO AIN AR TRES W  DIS CAZ7
 BAR2 SZ EP       2317 10.52                             172   -0.0610 20.4 183 
 BAR2 SZ ES       2317 25.46                             172   -0.4210 20.4 183 
 BAR2 SZ I        2317 27.86        16.8 0.22            178           20.4 183 
 GIR2 SZ EP       2317 10.51                             166   -0.2310 33.5 356 
 GIR2 SZ I        2317 26.81        10.5 0.10            157           33.5 356 
 BRR  HZ IP     D 2317 12.31                             153    0.2410 69.8 302 
 BRR  HN ES       2317 28.93                             153    0.3910 69.8 302 
 BRR  HZ I        2317 32.72        20.0 0.36            148           69.8 302 
 RUS  HZ EP       2317 14.95                             144    0.3710 98.3 174 
 RUS  HN ES       2317 33.14                             144    0.1310 98.3 174 
 RUS  HZ I        2317 34.24         5.7 0.24            149           98.3 174 
 PTB  HZ EP       2317 17.21                             133   -0.43 9  144 260 
 PTB  HN ES       2317 38.42                             133   -0.03 9  144 260 
 PTB  HZ I        2317 45.17         5.5 0.26            132            144 260 
                                                                                
