 2014  713 2049 39.8 L   6.745 -73.129131.0  RSN  7 0.4 1.4LRSN                1
 GAP=141        0.99       4.7     4.4  7.3 -0.3148E+01  0.1010E+02 -0.7711E+00E
 Epicentro: LOS SANTOS - SANTANDER                                             3
 ACTION:UPD 15-03-16 20:43 OP:nd   STATUS:               ID:20140713204939 L   I
 OLDACT:REG 14-07-14 02:46 OP:spq  STATUS:               ID:20140713204820     3
 2014-07-13-2048-20M.COL___253                                                 6
 STAT SP IPHASW D HRMM SECON CODA AMPLIT PERI AZIMU VELO AIN AR TRES W  DIS CAZ7
 BAR2 SZ EP       2049 57.11                             172   -0.4510 17.9 199 
 BAR2 SZ ES   1   2050 11.24                             172   -0.16 7 17.9 199 
 BAR2 SZ I        2050 14.36         6.9 0.26            168           17.9 199 
 BRR  HZ EP       2050  0.21                             148    0.5410 75.8 302 
 BRR  HN ES       2050 15.73                             148    0.5610 75.8 302 
 BRR  HZ I        2050 17.72         6.6 0.09            152           75.8 302 
 PAM  SZ EP       2050  0.97                             147    0.2510 81.1  36 
 PAM  SN ES       2050 16.81                             147   -0.2210 81.1  36 
 PAM  SZ I        2050 20.24         5.6 0.50            153           81.1  36 
 RUS  HN ES   1   2050 18.43                             142   -0.29 7 94.4 177 
 RUS  HZ I        2050 23.06         3.0 0.20            143           94.4 177 
 PTB  HZ EP       2050  5.30                             128   -0.38 9  148 261 
 PTB  HN ES       2050 25.60                             128   -0.27 9  148 261 
 PTB  HZ I        2050 29.05         4.4 0.12            131            148 261 
 SPBC HZ EP   1   2050  7.20                             126    0.33 7  160 221 
 SPBC HE ES   1   2050 28.66                             126    0.68 7  160 221 
 SPBC HZ I        2050 35.71         3.7 0.24            128            160 221 
 ZAR  HZ EP       2050 11.90                             118    0.13 8  208 294 
 ZAR  HN ES       2050 36.09                             118   -0.60 8  208 294 
 ZAR  HZ I        2050 38.16         3.3 0.10            122            208 294 
                                                                                
