 2016  213 2230 31.8 L   6.795 -73.150144.6  RSN 11 0.3 2.4LRSN                1
 GAP=136        0.69       2.0     2.8  4.1 -0.1292E+01  0.3226E+01 -0.9700E-01E
 Epicentro: LOS SANTOS - SANTANDER                                             3
 ACTION:UPD 16-03-04 21:25 OP:rebc STATUS:               ID:20160213223031 L   I
 OLDACT:REG 16-02-14 04:33 OP:cara STATUS:               ID:20160213222749     3
 2016-02-13-2227-49M.COL___311                                                 6
 STAT SP IPHASW D HRMM SECON CODA AMPLIT PERI AZIMU VELO AIN AR TRES W  DIS CAZ7
 BAR2 EZ IP     C 2230 51.22                             171   -0.0610 22.7 189 
 BAR2 EZ ES       2231  6.50                             171    0.0310 22.7 189 
 BAR2 EZ I        2231  7.55        53.0 0.20            169           22.7 189 
 PAM  EZ IP     C 2230 53.99                             150    0.0510 78.1  40 
 PAM  EN ES       2231 11.29                             150    0.0910 78.1  40 
 PAM  EZ I        2231 12.98        30.6 0.66            155           78.1  40 
 RUS  HZ EP       2230 55.01                             144   -0.4010  100 176 
 RUS  HN ES       2231 14.05                             144    0.2410  100 176 
 RUS  HZ I        2231 17.14        15.0 0.22            146            100 176 
 PTB  HZ EP       2230 58.13                             132   -0.50 9  147 259 
 PTB  HN ES       2231 19.29                             132   -0.26 9  147 259 
 PTB  HZ I        2231 24.97        34.8 0.60            132            147 259 
 OCA  HZ EP       2231  0.59                             129    0.52 9  161 353 
 OCA  HN ES       2231 21.90                             129   -0.21 9  161 353 
 OCA  HZ I        2231 26.90        55.7 0.20            131            161 353 
 SPBC HZ EP       2231  0.11                             129   -0.04 9  162 219 
 SPBC HN ES       2231 21.96                             129   -0.30 9  162 219 
 SPBC HZ I        2231 28.16        38.9 0.28            130            162 219 
 ZAR  HZ EP       2231  4.17                             122    0.02 9  204 292 
 ZAR  HN ES       2231 29.67                             122    0.29 9  204 292 
 ZAR  HZ I        2231 35.30        42.9 0.46            123            204 292 
 NOR  HZ EP       2231  7.48                             118    0.08 8  234 234 
 NOR  HN ES       2231 35.52                             118    0.37 8  234 234 
 NOR  HZ I        2231 40.47        23.0 0.30            119            234 234 
 CHI  HZ EP       2231  9.34                             117   -0.03 8  248 195 
 CHI  HN ES       2231 39.06                             117    0.39 8  248 195 
 CHI  HZ I        2231 42.37         8.3 0.22            119            248 195 
 GUY2CHZ EP   9   2231 16.32                             112    1.03 0  301 235 
 GUY2CHN ES       2231 50.61                                    0.38 7  301 235 
 GUY2CHZ I        2231 57.77        21.4 0.42                           301 235 
 PAL  HZ EP   4   2231 26.67                             106   -0.18 0  405 239 
 PAL  HN ES   4   2232  8.83                             106   -0.95 0  405 239 
 PAL  HZ I        2232 15.87         5.8 0.46            107            405 239 
                                                                                
