 2017  113 2205  7.3 L   6.755 -73.160142.4  RSN 10 0.4 2.1LRSN                1
 GAP= 96        0.97       3.9     3.1  6.0  0.1640E+01  0.2114E+01  0.1582E+01E
 Epicentro: LOS SANTOS - SANTANDER                                             3
 ACTION:UPD 17-05-22 15:59 OP:jn   STATUS:               ID:20170113220507 L   I
 OLDACT:REG 17-01-14 05:08 OP:lv   STATUS:               ID:20170113215747     3
 2017-01-13-2158-00M.COL___331                                                 6
 STAT SP IPHASW D HRMM SECON CODA AMPLIT PERI AZIMU VELO AIN AR TRES W  DIS CAZ7
 BAR2 EZ EP       22 5 26.37                             172   -0.0410 18.2 188 
 BAR2 EZ ES       22 5 41.39                             172    0.0610 18.2 188 
 BAR2 EZ I        22 5 42.46        33.9 0.25            171           18.2 188 
 BRR  HZ EP       22 5 28.26                             152    0.1310 72.3 303 
 BRR  HN ES       22 5 44.89                             152    0.4910 72.3 303 
 BRR  HZ I        22 5 46.90        25.3 0.16            152           72.3 303 
 PAM  EZ IP     C 22 5 29.21                             149   -0.2210 82.2  38 
 PAM  EN ES       22 5 46.14                             149   -0.5810 82.2  38 
 PAM  EZ I        22 5 48.47        23.7 0.36            151           82.2  38 
 RUS  HZ EP       22 5 30.91                             144    0.5610 95.8 175 
 RUS  HE ES       22 5 48.64                             144    0.2910 95.8 175 
 RUS  HZ I        22 5 50.02         7.6 0.27            145           95.8 175 
 PTB  HZ EP       22 5 33.50                             132   -0.25 9  145 261 
 PTB  HN ES       22 5 53.68                             132   -0.72 9  145 261 
 PTB  HZ I        22 5 56.30        19.1 0.28            132            145 261 
 TAM  HZ EP       22 5 34.85                             130    0.13 9  155 103 
 TAM  HE ES       22 5 56.15                             130    0.02 9  155 103 
 ZAR  HZ EP       22 5 39.61                             122    0.06 9  205 294 
 ZAR  HN ES       22 6  5.18                             122    0.45 9  205 294 
 ZAR  HZ I        22 6  7.50        14.9 0.10            122            205 294 
 CHI  HE ES       22 6 12.51                             117   -0.54 8  243 195 
 CHI  HZ I        22 6 18.46         2.9 0.20            118            243 195 
 GUY2CHZ EP   4   22 5 52.44                             112    2.18 0  297 235 
 GUY2CHN ES   4   22 6 28.27                             112    4.48 0  297 235 
 GUY2CHZ  IAML    22 6 33.77         5.2 0.52                           297 235 
 SJC  HZ EP   4   22 6  0.59                             105   -2.52 0  413 328 
 SJC  HN ES   4   22 6 42.04                             105   -4.63 0  413 328 
 SJC  HZ I        22 6 46.63         6.4 0.38            106            413 328 
                                                                                
