 2010  213 2257  1.2 L   6.777 -72.878136.7  RSN  5 0.3 2.1LRSN                1
 GAP=219        0.49       3.8    12.6 13.2 -0.2780E+02 -0.2385E+02  0.2797E+02E
 Epicentro: SAN ANDRES - SANTANDER                                             3
 ACTION:UP  10-08-24 09:48 OP:vdl  STATUS:               ID:20100213225701 L   I
 2010-02-13-2255-57S.COL___093                                                 6
 STAT SP IPHASW D HRMM SECON CODA AMPLIT PERI AZIMU VELO SNR AR TRES W  DIS CAZ7
 OCA  SZ EP   1   2257 29.94                             126     0.2 7  169 343 
 OCA  SZ ES   1   2257 51.74                             126    -0.2 7  169 343 
 OCA  SZ I        2257 59.65        20.4 0.42                           169 343 
 CHI  HZ EP   2   2257 39.50                             114     0.3 4  256 202 
 CHI  HE ES   1   2258  8.85                             114     0.0 6  256 202 
 CHI  HZ I        2258 14.84         4.1 0.36                           256 202 
 RREF BZ EP   2   2257 49.55                             108     0.1 3  343 233 
 RREF BE ES   2   2258 27.39                             108     0.3 3  343 233 
 RREF BZ I        2258 28.38         4.4 0.35                           343 233 
 TOL  SZ EP   2   2257 51.80                             106     0.4 3  363 228 
 PRA  HZ EP   1   2257 55.31                             104    -0.7 4  405 213 
 PRA  HN ES   1   2258 38.70                             104    -0.1 4  405 213 
 PRA  HZ I        2258 41.86         5.3 0.66                           405 213 
                                                                                
