 2014  613 2142  4.2 L   6.990 -73.048159.2  RSN  8 0.6 2.1LRSN                1
 GAP= 74        1.54       6.1     6.7  8.9 -0.1188E+01  0.7373E+01 -0.1606E+01E
 Epicentro: PIEDECUESTA - SANTANDER                                            3
 ACTION:UPD 14-07-01 22:53 OP:nd   STATUS:               ID:20140613214204 L   I
 OLDACT:REG 14-06-14 05:05 OP:stll STATUS:               ID:20140613213819     3
 2014-06-13-2138-19M.COL___259                                                 6
 STAT SP IPHASW D HRMM SECON CODA AMPLIT PERI AZIMU VELO AIN AR TRES W  DIS CAZ7
 BAR2 SZ EP       2142 26.17                             163    0.1010 46.4 199 
 BAR2 SZ ES       2142 42.44                             163   -0.6910 46.4 199 
 BAR2 SZ I        2142 45.22        17.1 0.30            164           46.4 199 
 PAM  SZ EP       2142 26.86                             160    0.1010 54.5  45 
 PAM  SN ES       2142 43.93                             160   -0.4210 54.5  45 
 PAM  SZ I        2142 46.42        18.6 0.60            161           54.5  45 
 BRR  HZ EP       2142 27.55                             154    0.5610 74.5 280 
 BRR  HN ES       2142 46.03                             154    1.2610 74.5 280 
 RUS  HZ EP       2142 31.04                             141    0.2410  121 182 
 RUS  HN ES       2142 51.35                             141   -0.1910  121 182 
 RUS  HZ I        2142 53.28        10.4 0.28            143            121 182 
 TAM  HZ EP       2142 32.86                             134    0.18 9  152 114 
 TAM  HZ I        2142 33.15        23.4 0.18            136            152 114 
 PTB  HZ EP       2142 34.05                             132    0.36 9  163 252 
 PTB  HN ES       2142 56.90                             132    0.21 9  163 252 
 PTB  HZ I        2143  0.15         7.5 0.28            133            163 252 
 SML  HZ EP       2142 40.20                             122    0.03 8  230 331 
 SML  HN ES       2143  7.06                             122   -1.17 8  230 331 
 SML  HZ I        2143 13.18        21.6 0.10            122            230 331 
 GUY2CHZ EP       2142 50.58                             113   -0.24 7  322 233 
 GUY2CHE ES       2143 25.64                             113   -1.54 7  322 233 
 GUY2CHZ I        2143 38.63         3.8 0.32                           322 233 
                                                                                
