 2012  213 2237 26.8 L   6.640 -73.341128.0  RSN  4 0.4 1.7LRSN                1
 GAP=199        0.82       5.9     8.0 10.1  0.1385E+02  0.3380E+02  0.1072E+02E
 ACTION:UP  12-03-07 16:30 OP:epov STATUS:               ID:20120213223726 L   I
 2012-02-13-2230-00M.COL___188                                                 6
 STAT SP IPHASW D HRMM SECON CODA AMPLIT PERI AZIMU VELO AIN AR TRES W  DIS CAZ7
 BRR  HZ EP   1   2237 45.36                             151   -0.34 7 66.0 322 
 BRR  HN ES   1   2238  0.60                             151    0.12 7 66.0 322 
 BRR  HZ I        2238 15.68        27.0 0.27                          66.0 322 
 RUS  HZ EP   1   2237 47.31                             144   -0.51 7 87.4 161 
 RUS  HZ I        2237 57.60         4.1 0.38                          87.4 161 
 RUS  HE ES   1   2238  4.61                             144    0.37 7 87.4 161 
 ZAR  HZ EP   1   2237 57.11                             120    0.24 7  192 299 
 ZAR  HZ I        2238 27.66         5.4 0.25                           192 299 
 NOR  SZ EP   1   2237 59.23                             118    0.75 6  207 235 
 NOR  SE ES   1   2238 22.72                             118   -0.50 6  207 235 
                                                                                
