 2010  713 2132 15.6 L   6.859 -72.967139.5  RSN  5 0.1 1.9LRSN                1
 GAP=184        0.30       2.6     4.2  3.5 -0.1221E+01 -0.1549E+01 -0.1086E+01E
 Epicentro: CEPITA - SANTANDER                                                 3
 ACTION:UPD 10-12-01 15:17 OP:pat  STATUS:               ID:20100713213215 L   I
 2010-07-13-2130-05S.COL___119                                                 6
 STAT SP IPHASW D HRMM SECON CODA AMPLIT PERI AZIMU VELO AIN AR TRES W  DIS CAZ7
 BAR2 SZ EP   1   2132 34.93                             164     0.1 7   38 219 
 BAR2 SZ ES   1   2132 49.94                             164     0.1 7   38 219 
 BAR2 SZ I        2132 51.33        24.6 0.30                            38 219 
 BRR  HZ EP   2   2132 37.01                             146     0.0 5   87 288 
 BRR  HE ES   2   2132 53.63                             146    -0.1 5   87 288 
 BRR  HZ I        2132 55.20        20.4 0.12                            87 288 
 GUE  SZ EP   1   2132 39.04                             140     0.1 7  107   2 
 GUE  SZ I        2133  4.39         6.1 0.13                           107   2 
 RUS  HZ EP   1   2132 39.10                             141    -0.1 7  108 187 
 RUS  HN ES   2   2132 57.70                             141     0.0 5  108 187 
 RUS  HZ I        2132 59.28        10.0 0.31                           108 187 
 RREF HZ EP   2   2133  3.67                             108     0.0 3  341 231 
 RREF HN ES   2   2133 41.32                             108     0.1 3  341 231 
 RREF HZ I        2133 47.00         6.6 0.36                           341 231 
                                                                                
