 2017 1013 2322 47.6 L   6.360 -73.611108.5  RSN  7 0.4 1.5LRSN                1
 GAP=106        0.95       3.7     3.6  7.1  0.2394E+01  0.1231E+02  0.6032E+01E
 Epicentro: SANTA HELENA DEL OPON - SANTANDER                                  3
 ACTION:UPD 17-11-07 19:31 OP:rebc STATUS:               ID:20171013232247 L   I
 OLDACT:REG 17-10-14 03:01 OP:dhb  STATUS:               ID:20171013231117     3
 2017-10-13-2318-00M.COL___432                                                 6
 STAT SP IPHASW D HRMM SECON CODA AMPLIT PERI AZIMU VELO AIN AR TRES W  DIS CAZ7
 BAR2 EZ EP       2323  3.90                             152   -0.1710 54.0  62 
 BAR2 EZ ES       2323 17.19                             152    0.2510 54.0  62 
 BAR2 EZ I        2323 18.62        28.6 0.48            154           54.0  62 
 RUS  HZ EP       2323  6.41                             142    0.3710 78.0 131 
 RUS  HN ES       2323 20.27                             142   -0.1710 78.0 131 
 RUS  HZ I        2323 23.50         2.9 0.28            146           78.0 131 
 BRR  HZ EP       2323  5.48                             139   -0.2910 83.4 352 
 BRR  HE ES       2323 19.99                             139    0.0310 83.4 352 
 BRR  HZ I        2323 25.74         9.0 0.20            141           83.4 352 
 PTB  HZ EP   2   2323  5.52                             135   -1.27 5 95.6 282 
 PTB  HE ES       2323 21.59                             135   -0.2010 95.6 282 
 PTB  HZ I        2323 22.32         3.4 0.09            138           95.6 282 
 NOR  HZ EP       2323 13.41                             119   -0.23 9  165 238 
 NOR  HN ES       2323 33.99                             119    0.02 9  165 238 
 NOR  HZ I        2323 36.18         4.4 0.14            122            165 238 
 ZAR  HZ EP       2323 15.54                             115   -0.37 9  186 312 
 ZAR  HN ES       2323 38.67                             115    0.65 9  186 312 
 ZAR  HZ I        2323 42.07         5.1 0.13            118            186 312 
 GUY2CHZ EP       2323 22.27                             110    0.69 8  231 237 
 GUY2CHN ES   4   2323 51.37                             110    3.26 0  231 237 
 GUY2CHZ I        2323 52.61         2.2 0.44                           231 237 
                                                                                
