 2014  913 2200 43.0 L   6.805 -73.148143.3  RSN 16 0.5 2.1LRSN                1
 GAP=136        1.15       3.4     4.4  6.3 -0.2438E+01  0.7046E+01  0.4025E+00E
 Epicentro: LOS SANTOS - SANTANDER                                             3
 ACTION:UPD 14-10-03 23:04 OP:nd   STATUS:               ID:20140913220043 L   I
 OLDACT:REG 14-09-14 04:00 OP:fm   STATUS:               ID:20140913215820     3
 2014-09-13-2158-20M.COL___296                                                 6
 STAT SP IPHASW D HRMM SECON CODA AMPLIT PERI AZIMU VELO AIN AR TRES W  DIS CAZ7
 BAR2 SZ EP       22 1  2.32                             170   -0.0310 23.8 189 
 BAR2 SZ ES   1   22 1 17.36                             170   -0.07 7 23.8 189 
 BAR2 SZ I        22 1 18.14        38.6 0.32            168           23.8 189 
 BRR  HZ EP       22 1  4.43                             152    0.5710 70.7 298 
 BRR  HN ES       22 1 21.03                             152    0.9110 70.7 298 
 BRR  HZ I        22 1 24.41        31.7 0.14            148           70.7 298 
 PAM  SZ EP       22 1  5.44                             150    0.4910 77.1  40 
 PAM  SN ES       22 1 21.88                             150   -0.1710 77.1  40 
 PAM  SZ I        22 1 24.55        28.7 0.54            154           77.1  40 
 RUS  HZ EP       22 1  6.33                             143   -0.2310  101 176 
 RUS  HN ES       22 1 24.74                             143   -0.1810  101 176 
 RUS  HZ I        22 1 26.41         7.4 0.34            145            101 176 
 PTB  HZ EP       22 1  9.26                             131   -0.50 9  148 259 
 PTB  HN ES       22 1 29.77                             131   -0.85 9  148 259 
 PTB  HZ I        22 1 33.21        22.2 0.26            130            148 259 
 OCA  HZ EP       22 1 11.15                             129    0.08 9  160 353 
 OCA  HN ES       22 1 32.23                             129   -0.73 9  160 353 
 OCA  HZ I        22 1 37.53        18.2 0.16            130            160 353 
 SPBC HZ EP       22 1 11.34                             128   -0.00 9  163 219 
 SPBC HE ES       22 1 33.51                             128    0.07 9  163 219 
 SPBC HZ I        22 1 38.89        13.2 0.34            128            163 219 
 ZAR  HN ES       22 1 41.17                             122    0.78 9  204 292 
 ZAR  HZ I        22 1 46.53        21.1 0.34            121            204 292 
 NOR  HZ EP   1   22 1 18.54                             118   -0.06 6  235 234 
 NOR  HN ES   4   22 1 44.19                             118   -2.18 0  235 234 
 SML  HZ EP       22 1 18.95                             117   -0.48 8  243 335 
 SML  HE ES   1   22 1 47.45                             117   -0.39 6  243 335 
 SML  HZ I        22 1 49.72        19.9 0.24            118            243 335 
 HEL  HZ EP   4   22 1 24.82                             114    1.74 0  272 256 
 HEL  HN ES       22 1 53.72                             114   -0.62 8  272 256 
 HEL  HZ I        22 2  1.41         6.1 0.50            114            272 256 
 URE  HN ES   4   22 1 54.55                             113   -1.25 0  283 292 
 URE  HZ I        22 2  5.99         9.8 0.24            113            283 292 
 GUY2CHZ EP       22 1 26.98                             112    0.47 7  301 235 
 GUY2CHE ES   4   22 2  2.86                             112    2.42 0  301 235 
 GUY2CHZ I        22 2  7.39         4.5 0.24                           301 235 
 CBOC HZ EP   1   22 1 30.28                             109    0.47 5  334 252 
 CBOC HN ES   4   22 2  3.80                             109   -2.51 0  334 252 
 CBOC HZ I        22 2 10.06         1.7 0.50            110            334 252 
 TOL  SZ EP   1   22 1 32.02                             109    0.83 5  344 225 
 TOL  SN ES   4   22 2 11.06                             109    2.29 0  344 225 
 TOL  SZ I        22 2 16.19         7.0 0.40            110            344 225 
 PRA  HZ EP   1   22 1 36.69                             106    0.21 4  392 209 
 PRA  HN ES   4   22 2 16.86                             106   -1.33 0  392 209 
 PRA  HZ I        22 2 22.50         4.6 0.36            107            392 209 
                                                                                
