 2012  913 2237 13.1 L   6.788 -73.108136.5  RSN  9 0.4 2.7LRSN                1
 GAP= 73        0.71       3.9     4.5  5.2 -0.5685E+00 -0.3683E+01  0.6179E+01E
 Epicentro: LOS SANTOS - SANTANDER                                             3
 ACTION:UPD 12-10-22 14:18 OP:ep   STATUS:               ID:20120913223713 L   I
 2012-09-13-2230-00M.COL___227                                                 6
 STAT SP IPHASW D HRMM SECON CODA AMPLIT PERI AZIMU VELO AIN AR TRES W  DIS CAZ7
 BAR2 SZ EP       2237 31.58                             170   -0.0810 23.1 201 
 BAR2 SZ ES   1   2237 45.97                             170   -0.13 7 23.1 201 
 BAR2 SZ I        2237 47.21       112.7 0.28                          23.1 201 
 GIR2 SZ EP       2237 31.60                             165   -0.1910 33.5 344 
 GIR2 SZ ES   1   2237 45.94                             165   -0.39 7 33.5 344 
 BRR  HZ EP       2237 33.44                             149   -0.1210 75.5 298 
 BRR  HN ES   1   2237 50.23                             149    0.74 7 75.5 298 
 BRR  HN I        2237 54.46       416.9 0.16                          75.5 298 
 PAM  SZ EP       2237 34.34                             149    0.0510 75.9  36 
 PAM  SN ES   1   2237 51.09                             149    0.30 7 75.9  36 
 PAM  SN I        2237 52.56        94.7 0.44                          75.9  36 
 RUS  HZ EP       2237 35.49                             142   -0.3910 99.0 178 
 RUS  HN ES   1   2237 53.57                             142   -0.05 7 99.0 178 
 RUS  HZ I        2237 54.85        30.4 0.22                          99.0 178 
 TAM  HZ IP     D 2237 39.88                             129    0.19 9  151 105 
 TAM  HZ I        2237 40.00        64.6 0.36                           151 105 
 TAM  HN ES   3   2238  0.03                             129   -0.37 2  151 105 
 PTB  HZ EP   3   2237 39.46                             129   -0.28 2  152 260 
 PTB  HN ES   3   2237 59.82                             129   -0.66 2  152 260 
 ZAR  HZ EP   3   2237 44.26                             119   -1.20 2  208 292 
 ZAR  HN ES   3   2238 10.11                             119   -0.56 2  208 292 
 CHI  HZ EP       2237 51.09                             115    0.76 8  248 196 
 CHI  HE ES   3   2238 18.91                             115   -0.42 2  248 196 
 CHI  HN I        2238 22.44        30.0 0.30                           248 196 
                                                                                
