 2012  113 2154 13.3 L   6.778 -73.132143.1  RSN 21 0.5 3.4LRSN                1
 GAP=116        1.15       4.6     5.9  6.3 -0.1690E+01  0.1165E+02  0.1116E+02E
 Epicentro: LOS SANTOS - SANTANDER                                             3
 ACTION:UP  12-02-03 08:17 OP:REBC STATUS:               ID:20120113215413 L   I
 2012-01-13-2150-00M.COL___187                                                 6
 STAT SP IPHASW D HRMM SECON CODA AMPLIT PERI AZIMU VELO SNR AR TRES W  DIS CAZ7
 BAR2 SZ IP       2154 32.63                             171     0.010   21 195 
 BAR2 SZ ES   1   2154 47.32                             171    -0.3 7   21 195 
 BAR2 SZ I        2154 48.87       855.2 0.22                            21 195 
 GIR2 SZ EP       2154 32.77                             166     0.010   34 348 
 GIR2 SZ ES   1   2154 47.74                             166    -0.2 7   34 348 
 BRR  HZ IP     C 2154 34.55                             151     0.210   74 300 
 BRR  HN ES   1   2154 51.56                             151     0.8 7   74 300 
 BRR  HZ I        2154 54.76       513.9 0.14                            74 300 
 PAM  SZ IP       2154 35.50                             150     0.210   78  38 
 PAM  SN ES   1   2154 52.30                             150    -0.2 7   78  38 
 RUS  HZ IP     C 2154 36.50                             144    -0.110   98 177 
 RUS  HZ I        2154 37.28       178.6 0.26                            98 177 
 RUS  HN ES   1   2154 54.80                             144     0.0 7   98 177 
 PTB  HZ EP       2154 39.26                             131    -0.9 9  149 260 
 PTB  HE ES   2   2155  0.85                             131    -0.3 5  149 260 
 PTB  HZ I        2155  6.02       163.5 0.28                           149 260 
 OCA  SZ EP       2154 41.31                             129    -0.4 9  163 353 
 OCA  SZ I        2155  7.90       406.4 0.30                           163 353 
 YOP  SZ IP       2154 43.31                             126     0.4 9  176 153 
 YOP  SZ I        2154 43.50       118.6 0.40                           176 153 
 ZAR  HZ EP   2   2154 45.28                             121    -0.6 4  206 293 
 ZAR  HZ I        2155 16.79       174.2 0.26                           206 293 
 NOR  EZ EP       2154 49.21                             118     0.3 8  235 235 
 NOR  SN ES   2   2155 16.16                             118    -0.5 4  235 235 
 NOR  EZ I        2155 25.06       177.1 0.18                           235 235 
 CHI  HZ EP       2154 50.62                             117    -0.1 8  247 196 
 CHI  HN ES   2   2155 19.98                             117     0.2 4  247 196 
 CHI  HZ I        2155 26.49       108.3 0.30                           247 196 
 ROSC BZ EP       2154 52.47                             116     1.3 8  251 212 
 ROSC BZ I        2155 30.15       264.4 0.40                           251 212 
 HEL  HZ EP   2   2154 52.96                             114    -0.6 4  273 256 
 HEL  HZ I        2155 31.04       119.3 0.40                           273 256 
 VIL  SZ EP       2154 56.15                             112    -0.3 7  301 192 
 VIL  SZ I        2155 36.00       108.1 0.38                           301 192 
 RREF HZ EP       2154 59.29                             110     0.0 7  321 230 
 RREF HZ I        2155 41.10       164.0 0.38                           321 230 
 DBB  SZ EP       2155  1.60                             109     0.7 7  341 275 
 TOL  SZ EP       2155  1.94                             109     0.5 7  343 225 
 PRA  HZ EP       2155  5.94                             106    -0.7 6  391 210 
 PRA  HN ES   2   2155 47.96                             106    -0.2 3  391 210 
 SJA  SZ EP       2155  6.51                             106    -1.1 6  398 193 
 SJA  SZ I        2155 57.93       171.8 0.38                           398 193 
 PAL  HZ EP       2155  8.57                             105     0.1 6  406 239 
 PAL  HE ES   2   2155 51.24                             105    -0.1 3  406 239 
 HORQ SZ EP       2155 23.69                             101     0.0 4  532 227 
                                                                                
