 2016  813 2338 49.2 L   6.810 -73.137148.9  RSN  9 0.3 1.7LRSN                1
 GAP=137        0.79       2.9     3.2  5.0 -0.9362E+00  0.3515E+01  0.3465E+01E
 Epicentro: LOS SANTOS - SANTANDER                                             3
 ACTION:UPD 16-10-29 15:35 OP:rebc STATUS:               ID:20160813233849 L   I
 OLDACT:UP  16-08-14 03:55 OP:edw  STATUS:               ID:20160813233736     3
 OLDACT:REG 16-08-14 03:00 OP:edw  STATUS:               ID:20160813233736     3
 2016-08-13-2338-00M.COL___377                                                 6
 STAT SP IPHASW D HRMM SECON CODA AMPLIT PERI AZIMU VELO AIN AR TRES W  DIS CAZ7
 BRR  HZ EP       2339 11.03                             153    0.3110 71.5 297 
 BRR  HE ES       2339 27.64                             153    0.1510 71.5 297 
 PAM  EZ EP       2339 11.97                             152    0.2910 76.0  40 
 PAM  EE ES       2339 28.92                             152   -0.2910 76.0  40 
 PAM  EZ I        2339 29.80         5.1 0.18                          76.0  40 
 RUS  HZ EP       2339 13.23                             144   -0.1210  102 177 
 RUS  HN ES       2339 32.03                             144   -0.1410  102 177 
 RUS  HZ I        2339 32.91         4.2 0.30                           102 177 
 PTB  HZ EP       2339 16.84                             132    0.30 9  149 259 
 PTB  HE ES       2339 37.95                             132    0.10 9  149 259 
 PTB  HZ I        2339 38.76         6.0 0.14                           149 259 
 SPBC HZ EP       2339 18.24                             129    0.15 9  165 219 
 SPBC HN ES       2339 40.61                             129    0.00 9  165 219 
 SPBC HZ I        2339 44.08         7.4 0.30                           165 219 
 ZAR  HZ EP       2339 21.00                             123   -0.91 9  205 292 
 ZAR  HN ES       2339 47.66                             123    0.24 9  205 292 
 ZAR  HZ I        2339 53.42         5.1 0.34                           205 292 
 NOR  HZ EP       2339 25.14                             119   -0.13 8  236 234 
 NOR  HE ES       2339 52.70                             119   -0.70 8  236 234 
 NOR  HZ I        2339 59.37         5.6 0.36                           236 234 
 CHI  HZ EP       2339 27.42                             118    0.19 8  250 195 
 CHI  HN ES       2339 57.11                             118    0.24 8  250 195 
 CHI  HZ I        2340  2.16         3.9 0.36                           250 195 
 GUY2CHZ EP       2339 33.05                             113   -0.07 7  303 235 
 GUY2CHE ES       2340  7.60                             113    0.23 7  303 235 
 GUY2CHZ I        2340 15.53         3.4 0.30                           303 235 
                                                                                
