 2011  913 2242 57.6 L   6.769 -73.100147.2  RSN  4 0.1 1.5LRSN                1
 GAP=144        0.37       2.6     3.5  4.6  0.5271E+00 -0.3289E+01  0.1865E+01E
 Epicentro: LOS SANTOS - SANTANDER                                             3
 ACTION:UPD 12-07-13 15:57 OP:ep   STATUS:               ID:20110913224257 L   I
 2011-09-13-2239-02S.COL___168                                                 6
 STAT SP IPHASW D HRMM SECON CODA AMPLIT PERI AZIMU VELO AIN AR TRES W  DIS CAZ7
 GIR2 SZ EP   2   2243 17.42                             166   -0.11 5 35.8 343 
 PAM  SZ EP   1   2243 20.16                             151    0.25 7 77.1  35 
 PAM  SN ES   1   2243 37.21                             151   -0.13 7 77.1  35 
 BRR  HZ EP   1   2243 19.15                             151   -0.07 7 77.3 299 
 BRR  HE ES       2243 36.14                             151    0.0310 77.3 299 
 BRR  HZ I        2243 39.15         9.7 0.17                          77.3 299 
 RUS  HZ EP   1   2243 21.06                             145   -0.13 7 96.9 179 
 RUS  HN ES   1   2243 39.70                             145    0.07 7 96.9 179 
 RUS  HZ I        2243 41.14         3.7 0.16                          96.9 179 
                                                                                
