 2017  113 2138 40.2 L   6.760 -73.116143.0  RSN  8 0.4 1.9LRSN                1
 GAP=142        0.92       3.6     4.5  5.5  0.1947E+01  0.3339E+01  0.2806E+01E
 Epicentro: LOS SANTOS - SANTANDER                                             3
 ACTION:UPD 17-05-22 15:59 OP:jn   STATUS:               ID:20170113213840 L   I
 OLDACT:REG 17-01-14 05:07 OP:lv   STATUS:               ID:20170113213742     3
 2017-01-13-2138-00M.COL___331                                                 6
 STAT SP IPHASW D HRMM SECON CODA AMPLIT PERI AZIMU VELO AIN AR TRES W  DIS CAZ7
 BAR2 EZ EP       2138 59.47                             172    0.0110 20.0 202 
 BAR2 EZ ES       2139 13.71                             172   -0.7510 20.0 202 
 BAR2 EZ I        2139 15.53        27.2 0.26            169           20.0 202 
 BRR  HZ IP     D 2139  1.35                             150   -0.0310 76.3 300 
 BRR  HE ES       2139 18.64                             150    0.7710 76.3 300 
 BRR  HZ I        2139 21.31        17.8 0.14            148           76.3 300 
 PAM  EZ EP       2139  2.29                             150    0.0510 78.8  36 
 PAM  EN ES       2139 19.47                             150    0.0610 78.8  36 
 PAM  EZ I        2139 21.01         7.1 0.32            153           78.8  36 
 RUS  HZ EP       2139  3.42                             144    0.0410 96.0 178 
 RUS  HN ES       2139 21.54                             144    0.1010 96.0 178 
 RUS  HZ I        2139 22.97        10.4 0.27            145           96.0 178 
 PTB  HZ EP   9   2139  6.19                             131   -1.01 0  150 261 
 PTB  HN ES       2139 27.29                                    0.06 9  150 261 
 PTB  HZ I        2139 31.96        10.3 0.10            130            150 261 
 ZAR  HZ EP       2139 13.00                             121    0.01 8  209 293 
 ZAR  HN ES       2139 38.02                             121   -0.52 8  209 293 
 ZAR  HZ I        2139 43.91        12.1 0.18            121            209 293 
 CHI  HZ EP       2139 17.24                             117   -0.17 8  245 196 
 CHI  HN ES       2139 46.77                             117    0.36 8  245 196 
 CHI  HZ I        2139 50.01         2.7 0.26            118            245 196 
 GUY2CHZ EP   4   2139 25.50                             112    1.77 0  301 236 
 GUY2CHN ES   4   2140  1.02                             112    3.35 0  301 236 
 GUY2CHZ  IAML    2140  6.06         4.3 0.38                           301 236 
                                                                                
