 2011  713 2159  9.8 L   6.757 -73.118139.9  RSN  8 0.4 1.7LRSN                1
 GAP=142        0.73       5.1     8.1  9.4 -0.6322E+01 -0.2590E+02 -0.8448E+00E
 Epicentro: LOS SANTOS - SANTANDER                                             3
 ACTION:UPD 12-07-25 14:00 OP:epov STATUS:               ID:20110713215909 L   I
 2011-07-13-2156-20S.COL___132                                                 6
 STAT SP IPHASW D HRMM SECON CODA AMPLIT PERI AZIMU VELO AIN AR TRES W  DIS CAZ7
 BTL  SZ EP       2159 28.99                             170    0.1910 24.3 317 
 GIR2 SZ EP   1   2159 28.76                             165   -0.22 7 36.5 347 
 BRR  HZ EP   1   2159 30.36                             150   -0.30 7 76.2 301 
 BRR  HZ I        2159 30.93        13.6 0.11                          76.2 301 
 BRR  HN ES   1   2159 46.94                             150    0.04 7 76.2 301 
 PAM  SZ EP   1   2159 31.31                             149   -0.25 7 79.3  36 
 PAM  SE ES   2   2159 47.60                             149   -0.89 5 79.3  36 
 RUS  HZ EP   1   2159 32.75                             144    0.08 7 95.7 178 
 RUS  HN ES   2   2159 50.65                             144    0.18 5 95.7 178 
 RUS  HZ I        2159 51.90         4.7 0.24                          95.7 178 
 BRI  SZ EP   2   2159 33.16                             139   -0.29 5  112  18 
 GRA  SZ EP       2159 35.33                             135    0.4410  129  16 
 GRA  SZ I        2159 36.77         7.7 0.18                           129  16 
 GRA  SZ ES   2   2159 55.21                             135    0.79 5  129  16 
 OCA  SZ EP   2   2159 37.39                             127   -0.81 5  165 352 
 OCA  SZ I        22 0  5.13         8.6 0.17                           165 352 
                                                                                
