 2011  113 2047 32.9 L   6.792 -73.154142.3  RSN 11 0.2 2.4LRSN                1
 GAP=135        0.40       1.7     3.7  4.1 -0.1654E+01  0.4191E+01  0.1963E-01E
 Epicentro: LOS SANTOS - SANTANDER                                             3
 ACTION:UP  11-02-08 08:40 OP:pat  STATUS:               ID:20110113204732 L   I
 2011-01-13-2044-43S.COL___135                                                 6
 STAT SP IPHASW D HRMM SECON CODA AMPLIT PERI AZIMU VELO SNR AR TRES W  DIS CAZ7
 BTL  SZ EP       2047 51.90                             172    -0.110   19 318 
 BAR2 SZ EP   2   2047 52.00                             171    -0.1 5   22 188 
 BAR2 SZ ES   2   2048  7.02                             171     0.0 5   22 188 
 BAR2 SZ I        2048  8.69        72.4 0.37                            22 188 
 GIR2 SZ EP   1   2047 52.48                             167     0.3 7   32 352 
 RUS  HZ EP       2047 56.20                             143    -0.110  100 176 
 RUS  HN ES   1   2048 14.45                             143     0.0 7  100 176 
 RUS  HZ I        2048 16.28        29.5 0.14                           100 176 
 GRA  SZ EP       2047 58.01                             136     0.110  127  18 
 GRA  SZ I        2047 59.34        42.4 0.23                           127  18 
 GRA  SZ ES   2   2048 17.84                             136     0.4 5  127  18 
 OCA  SZ EP   2   2048  0.90                             129    -0.1 5  161 353 
 OCA  SZ ES   1   2048 22.71                             129    -0.2 7  161 353 
 OCA  SZ I        2048 28.72        42.0 0.27                           161 353 
 YOP  SZ EP   1   2048  2.72                             125     0.1 7  179 153 
 YOP  SZ I        2048 31.47        11.8 0.43                           179 153 
 NOR  SZ EP   1   2048  8.16                             118    -0.2 6  234 235 
 NOR  SE ES   2   2048 35.84                             118    -0.1 4  234 235 
 CHI  HZ EP   2   2048  9.97                             116    -0.3 4  248 195 
 CHI  HZ I        2048 11.08        11.9 0.28                           248 195 
 CHI  HN ES   2   2048 39.66                             116     0.2 4  248 195 
 RREF HZ EP   2   2048 18.84                             110     0.1 3  321 229 
 RREF HE ES   2   2048 55.05                             110     0.5 3  321 229 
 RREF HZ I        2049  0.85        14.0 0.29                           321 229 
 DBB  SZ EP   2   2048 20.57                             109     0.4 3  339 274 
                                                                                
