 2017  913 2053 24.1 L   6.770 -73.132138.6  RSN  7 0.3 1.6LRSN                1
 GAP=140        0.74       3.2     3.8  5.2 -0.3210E+01  0.1006E+02 -0.1303E+01E
 Epicentro: LOS SANTOS - SANTANDER                                             3
 ACTION:UPD 17-10-05 19:12 OP:rebc STATUS:               ID:20170913205324 L   I
 OLDACT:DUP 17-09-14 03:08 OP:dhb  STATUS:               ID:20170913204745d    3
 OLDACT:UP  17-09-14 03:07 OP:dhb  STATUS:               ID:20170913204744     3
 OLDACT:UP  17-09-14 03:01 OP:dhb  STATUS:               ID:20170913204744     3
 OLDACT:REG 17-09-14 02:22 OP:dhb  STATUS:               ID:20170913204744     3
 2017-09-13-2048-00M.COL___467                                                 6
 STAT SP IPHASW D HRMM SECON CODA AMPLIT PERI AZIMU VELO AIN AR TRES W  DIS CAZ7
 BAR2 EZ IP     C 2053 42.60                             171   -0.2210 20.5 196 
 BAR2 EZ ES       2053 57.38                             171   -0.0410 20.5 196 
 BAR2 EZ I        2054  0.22         8.1 0.30            170           20.5 196 
 PAM  EZ IP     C 2053 45.65                             149   -0.0210 79.0  37 
 PAM  EE ES       2054  2.40                             149   -0.0910 79.0  37 
 PAM  EZ I        2054  4.62         6.3 0.30            153           79.0  37 
 RUS  HZ EP       2053 47.06                             143    0.1510 97.2 177 
 RUS  HN ES       2054  5.12                             143    0.4210 97.2 177 
 RUS  HZ I        2054  6.78        10.3 0.57            149           97.2 177 
 SPBC HZ EP       2053 51.50                             128   -0.42 9  162 220 
 SPBC HN ES       2054 13.30                             128   -0.30 9  162 220 
 SPBC HZ I        2054 16.88         6.7 0.08            130            162 220 
 ZAR  HZ EP       2053 56.65                             120    0.28 8  207 293 
 ZAR  HN ES       2054 21.70                             120    0.16 8  207 293 
 ZAR  HZ I        2054 30.33         5.4 0.35            122            207 293 
 NOR  HZ EP       2053 58.92                             117   -0.44 8  234 235 
 NOR  HN ES       2054 26.87                             117    0.01 8  234 235 
 GUY2CHZ EP       2054  8.04                             111    0.72 7  301 235 
 GUY2CHN ES   4   2054 43.54                             111    2.51 0  301 235 
 GUY2CHZ I        2054 45.89         1.4 0.36                           301 235 
                                                                                
