 2016  613 2010  8.7 L   6.783 -73.154139.4  RSN 12 0.2 2.2LRSN                1
 GAP=136        0.65       1.8     2.5  3.5 -0.7703E+00  0.1705E+01  0.4695E+00E
 Epicentro: LOS SANTOS - SANTANDER                                             3
 ACTION:UPD 16-07-21 22:18 OP:rebc STATUS:               ID:20160613201008 L   I
 OLDACT:REG 16-06-14 05:19 OP:cara STATUS:               ID:20160613200746     3
 2016-06-13-2007-46M.COL___328                                                 6
 STAT SP IPHASW D HRMM SECON CODA AMPLIT PERI AZIMU VELO AIN AR TRES W  DIS CAZ7
 BAR2 EZ IP     C 2010 27.57                             171    0.0410 21.3 189 
 BAR2 EZ ES       2010 42.23                             171    0.0210 21.3 189 
 BAR2 EZ I        2010 43.41        65.4 0.16                          21.3 189 
 BRR  HZ EP       2010 29.53                             151    0.3510 71.4 300 
 BRR  HN ES       2010 45.18                             151    0.0310 71.4 300 
 BRR  HZ I        2010 49.23        20.0 0.36                          71.4 300 
 PAM  EZ IP       2010 30.58                             149    0.2010 79.4  39 
 PAM  EN ES       2010 47.20                             149   -0.0810 79.4  39 
 PAM  EZ I        2010 50.26        15.1 0.24                          79.4  39 
 RUS  HZ EP       2010 31.57                             143   -0.1310 98.7 175 
 RUS  HN ES       2010 49.68                             143    0.0410 98.7 175 
 RUS  HZ I        2010 51.94        10.9 0.28                          98.7 175 
 PTB  HZ EP       2010 34.72                             131   -0.33 9  147 260 
 PTB  HN ES       2010 55.12                             131   -0.48 9  147 260 
 PTB  HZ I        2010 58.41        33.3 0.12                           147 260 
 SPBC HZ EP       2010 36.66                             128    0.13 9  161 219 
 SPBC HN ES       2010 58.65                             128    0.42 9  161 219 
 SPBC HZ I        2011  2.22        17.2 0.20                           161 219 
 OCA  HZ IP       2010 36.43                             128   -0.28 9  162 354 
 OCA  HE ES       2010 58.35                             128   -0.19 9  162 354 
 OCA  HZ I        2011  2.70        32.4 0.28                           162 354 
 ZAR  HZ EP       2010 40.93                             121    0.19 9  204 293 
 ZAR  HE ES       2011  6.17                             121    0.45 9  204 293 
 ZAR  HZ I        2011 11.85        21.5 0.30                           204 293 
 NOR  HZ EP       2010 43.63                             117   -0.25 8  233 235 
 NOR  HN ES       2011 11.26                             117   -0.05 8  233 235 
 NOR  HZ I        2011 17.16        11.0 0.32                           233 235 
 CHI  HZ EP       2010 45.82                             116   -0.02 8  247 195 
 CHI  HN ES       2011 14.67                             116   -0.12 8  247 195 
 CHI  HZ I        2011 21.64         4.9 0.46                           247 195 
 GUY2CHZ EP   9   2010 53.06                             111    1.24 0  299 235 
 GUY2CHN ES       2011 26.14                                   -0.55 7  299 235 
 GUY2CHZ I        2011 34.88         5.2 0.32                           299 235 
 CBOC HZ EP   4   2011  3.29                             109    8.09 0  332 252 
 CBOC HN ES   4   2011 20.47                             109   -11.0 0  332 252 
 CBOC HZ I        2011 24.10         9.0 0.50                           332 252 
                                                                                
