 2012 1213 2241 37.3 L   6.793 -73.156144.7  RSN  8 0.4 1.9LRSN                1
 GAP=136        0.72       3.2     4.2  6.1  0.6303E-01  0.5244E+01  0.4919E+01E
 Epicentro: LOS SANTOS - SANTANDER                                             3
 ACTION:UPD 13-01-04 14:27 OP:ep   STATUS:               ID:20121213224137 L   I
 2012-12-13-2240-00M.COL___242                                                 6
 STAT SP IPHASW D HRMM SECON CODA AMPLIT PERI AZIMU VELO AIN AR TRES W  DIS CAZ7
 BAR2 SZ EP   1   2241 56.83                             171    0.00 7 22.4 187 
 BAR2 SZ ES   1   2242 11.65                             171   -0.38 7 22.4 187 
 BAR2 SZ I        2242 12.95        24.7 0.48                          22.4 187 
 BRR  HZ EP   1   2241 58.66                             152    0.32 7 70.6 300 
 BRR  HN ES   1   2242 15.31                             152    0.59 7 70.6 300 
 BRR  HZ I        2242 19.09        13.8 0.34                          70.6 300 
 PAM  SZ EP       2241 59.77                             150    0.2410 78.7  40 
 PAM  SN ES   1   2242 16.54                             150   -0.29 7 78.7  40 
 PAM  SZ I        2242 18.83        15.5 0.50                          78.7  40 
 RUS  HZ EP       2242  0.90                             144   -0.0410 99.9 175 
 RUS  HE ES   2   2242 19.78                             144    0.43 5 99.9 175 
 RUS  HZ I        2242 21.19        10.1 0.28                          99.9 175 
 ZAR  HN ES   1   2242 34.88                             122    0.05 6  203 292 
 ZAR  HZ I        2242 43.12         5.6 0.48                           203 292 
 NOR  HZ EP   1   2242 12.89                             118    0.03 6  233 234 
 NOR  HE ES   1   2242 40.36                             118   -0.21 6  233 234 
 NOR  HZ I        2242 45.82         6.2 0.26                           233 234 
 SML  HN ES   1   2242 41.65                             117   -0.82 6  244 336 
 CHI  HZ EP   1   2242 15.23                             117    0.36 6  248 195 
 CHI  HE ES   1   2242 43.51                             117   -0.63 6  248 195 
 CHI  HZ I        2242 49.63         2.9 0.42                           248 195 
                                                                                
