 2013  113 2328 41.9 L   6.777 -73.145148.6  RSN  6 0.3 1.9LRSN                1
 GAP=236        0.77       4.5     5.7  6.0  0.1448E+02  0.6337E+01  0.6551E+01E
 Epicentro: LOS SANTOS - SANTANDER                                             3
 ACTION:UPD 13-02-15 09:14 OP:ep   STATUS:               ID:20130113232841 L   I
 2013-01-13-2320-00M.COL___241                                                 6
 STAT SP IPHASW D HRMM SECON CODA AMPLIT PERI AZIMU VELO AIN AR TRES W  DIS CAZ7
 BAR2 SZ EP       2329  1.77                             172   -0.0810 20.9 191 
 BAR2 SZ ES   1   2329 17.42                             172    0.03 7 20.9 191 
 BAR2 SZ I        2329 18.53        19.8 0.30            172           20.9 191 
 BRR  HZ EP       2329  3.79                             153    0.3310 72.5 300 
 BRR  HZ I        2329  4.02        19.9 0.24            153           72.5 300 
 BRR  HN ES       2329 20.56                             153    0.3110 72.5 300 
 RUS  HZ EP       2329  5.64                             145   -0.1410 98.1 176 
 RUS  HN ES       2329 24.07                             145   -0.3110 98.1 176 
 RUS  HN I        2329 24.97        13.8 0.35            145           98.1 176 
 PTB  HZ EP       2329  8.51                             133   -0.59 9  147 260 
 PTB  HZ I        2329 11.21         6.5 0.23            133            147 260 
 PTB  HE ES   1   2329 30.15                             133   -0.13 7  147 260 
 ZAR  HE ES       2329 40.10                             123   -0.10 9  205 293 
 CHI  HZ EP       2329 19.99                             118    0.46 8  246 195 
 CHI  HN ES       2329 49.22                             118    0.37 8  246 195 
                                                                                
