 2013 1113 2354 22.2 L   6.790 -73.162152.1  RSN  9 0.5 1.6LRSN                1
 GAP=135        1.18       4.2     5.5  7.5 -0.3447E+01  0.1181E+02 -0.2868E+01E
 Epicentro: LOS SANTOS - SANTANDER                                             3
 ACTION:UPD 14-01-09 16:27 OP:ep   STATUS:               ID:20131113235422 L   I
 OLDACT:REG 13-11-13 21:29 OP:jn   STATUS:               ID:20131113235000     3
 2013-11-13-2350-00M.COL___279                                                 6
 STAT SP IPHASW D HRMM SECON CODA AMPLIT PERI AZIMU VELO AIN AR TRES W  DIS CAZ7
 BAR2 SZ EP       2354 42.64                             171    0.0210 22.0 186 
 BAR2 SZ ES       2354 58.71                             171    0.2010 22.0 186 
 BAR2 SZ I        2354 58.86        11.2 0.32            169           22.0 186 
 BRR  HZ EP       2354 44.77                             154    0.7410 70.2 300 
 BRR  HN ES       2355  1.92                             154    0.8910 70.2 300 
 BRR  HZ I        2355  4.99         9.0 0.32            153           70.2 300 
 PAM  SZ EP   2   2354 45.35                             151    0.09 5 79.4  40 
 PAM  SN ES       2355  2.78                             151   -0.4310 79.4  40 
 PAM  SZ I        2355  4.86        11.5 0.58            156           79.4  40 
 RUS  HZ EP       2354 46.57                             145    0.0110 99.6 175 
 RUS  HN ES       2355  5.04                             145   -0.4910 99.6 175 
 RUS  HZ I        2355  7.00         3.2 0.24            147           99.6 175 
 PTB  HZ EP       2354 49.53                             134   -0.04 9  146 259 
 PTB  HN ES       2355 10.19                             134   -0.69 9  146 259 
 PTB  HZ I        2355 16.42         2.8 0.14            134            146 259 
 SPBC HZ EP       2354 51.64                             131    0.58 9  161 219 
 SPBC HN ES       2355 13.36                             131   -0.17 9  161 219 
 SPBC HZ I        2355 22.17         6.3 0.42            131            161 219 
 ZAR  HE ES   2   2355 20.84                             124    0.31 4  203 293 
 NOR  HE ES       2355 25.91                             120   -0.21 8  233 234 
 SML  HZ EP       2354 59.15                             119   -0.12 8  244 336 
 SML  HE ES       2355 27.32                             119   -0.82 8  244 336 
                                                                                
