 2013  413 2354 55.0 L   6.797 -73.098147.8  RSN  6 0.2 1.5LRSN                1
 GAP=188        0.43       2.2     4.5  4.1  0.8156E+00  0.4212E+01  0.2418E+01E
 Epicentro: LOS SANTOS - SANTANDER                                             3
 ACTION:UPD 13-05-22 14:38 OP:EP   STATUS:               ID:20130413235455 L   I
 2013-04-13-2350-00M.COL___244                                                 6
 STAT SP IPHASW D HRMM SECON CODA AMPLIT PERI AZIMU VELO AIN AR TRES W  DIS CAZ7
 BAR2 SZ ES   1   2355 30.16                             170   -0.22 7 24.5 202 
 BRR  HZ EP   1   2355 16.64                             151    0.03 7 76.0 297 
 BRR  HE ES   1   2355 33.64                             151    0.15 7 76.0 297 
 BRR  HZ I        2355 37.79         5.9 0.36            147           76.0 297 
 RUS  HZ EP   1   2355 18.62                             144   -0.26 7  100 179 
 RUS  HN ES   1   2355 37.62                             144    0.09 7  100 179 
 RUS  HZ I        2355 38.90         3.1 0.34            143            100 179 
 OCA  HN ES   1   2355 45.91                             130    0.11 7  161 351 
 NOR  HZ EP   1   2355 31.08                             118   -0.18 6  239 235 
 NOR  HE ES   1   2355 59.36                             118   -0.21 6  239 235 
 NOR  HZ I        2356  4.73         4.5 0.18            118            239 235 
 CHI  HZ EP   1   2355 33.06                             117    0.16 6  250 196 
 CHI  HE ES   1   2356  2.93                             117    0.44 6  250 196 
 CHI  HZ I        2356  8.35         1.4 0.40            118            250 196 
                                                                                
