 2011  313 2000 37.3 L   6.728 -73.135144.3  RSN  5 0.3 1.5LRSN                1
 GAP=161        0.80       5.4     9.6  8.4 -0.2867E+02  0.1910E+02 -0.4890E+01E
 Epicentro: JORDAN - SANTANDER                                                 3
 ACTION:UP  11-06-16 14:33 OP:jfem STATUS:               ID:20110313200037 L   I
 2011-03-13-1956-55S.COL___134                                                 6
 STAT SP IPHASW D HRMM SECON CODA AMPLIT PERI AZIMU VELO SNR AR TRES W  DIS CAZ7
 BAR2 SZ EP   1   20 0 56.50                             173    -0.1 7   16 200 
 BAR2 SZ ES   1   20 1 12.24                             173     0.5 7   16 200 
 BAR2 SZ I        20 1 13.30        12.5 0.31                            16 200 
 RUS  HZ EP   1   20 1  0.79                             146     0.4 7   93 176 
 RUS  HN ES   1   20 1 17.83                             146    -0.5 7   93 176 
 RUS  HZ I        20 1 20.35         2.3 0.30                            93 176 
 GRA  SZ EP   1   20 1  3.20                             135     0.2 7  133  16 
 GRA  SZ I        20 1  4.79         5.9 0.41                           133  16 
 GRA  SZ ES   1   20 1 22.75                             135    -0.4 7  133  16 
 NOR  SN ES   1   20 1 39.98                             119    -0.1 6  231 236 
 CHI  HZ EP   1   20 1 14.05                             118    -0.1 6  241 196 
                                                                                
