 2013 1213 2015 10.4 L   6.766 -73.141140.0  RSN  9 0.4 2.0LRSN                1
 GAP=139        1.00       3.9     4.4  5.8 -0.5033E+01  0.5070E+01  0.6180E+01E
 Epicentro: LOS SANTOS - SANTANDER                                             3
 ACTION:UPD 14-01-13 10:17 OP:ep   STATUS:               ID:20131213201510 L   I
 OLDACT:REG 13-12-14 00:48 OP:stll STATUS:               ID:20131213200814     3
 2013-12-13-2008-14M.COL___241                                                 6
 STAT SP IPHASW D HRMM SECON CODA AMPLIT PERI AZIMU VELO AIN AR TRES W  DIS CAZ7
 BAR2 SZ EP       2015 29.37                             172    0.1110 19.7 193 
 BAR2 SZ ES       2015 43.89                             172   -0.0910 19.7 193 
 BAR2 SZ I        2015 46.16        25.8 0.48            169           19.7 193 
 BRR  HZ EP       2015 31.42                             151    0.3610 73.5 301 
 BRR  HN ES       2015 47.65                             151    0.4710 73.5 301 
 PAM  SZ EP       2015 31.76                             149   -0.4010 80.0  38 
 PAM  SE ES       2015 49.29                             149    0.1510 80.0  38 
 PAM  SZ I        2015 51.58        20.9 0.58            154           80.0  38 
 RUS  HZ EP       2015 33.27                             144   -0.0410 96.8 176 
 RUS  HN ES       2015 51.16                             144   -0.0210 96.8 176 
 PTB  HZ EP       2015 35.92                             131   -0.96 9  148 260 
 PTB  HN ES       2015 57.18                             131   -0.36 9  148 260 
 PTB  HZ I        2016  1.99        11.6 0.30            131            148 260 
 SPBC HZ EP       2015 38.40                             128    0.19 9  161 220 
 SPBC HN ES       2016  0.01                             128    0.11 9  161 220 
 SPBC HZ I        2016  5.41        17.0 0.22            129            161 220 
 NOR  HZ EP       2015 45.29                             118   -0.32 8  233 235 
 NOR  HN ES       2016 12.72                             118   -0.35 8  233 235 
 NOR  HZ I        2016 17.67         7.6 0.18            118            233 235 
 CHI  HZ EP       2015 47.50                             116    0.10 8  245 196 
 CHI  HN ES       2016 16.11                             116   -0.15 8  245 196 
 CHI  HZ I        2016 20.84         4.1 0.36            117            245 196 
 RREF HZ EP       2015 56.99                             110    0.93 7  320 230 
 RREF HN ES       2016 32.47                             110    0.80 7  320 230 
 RREF HZ I        2016 40.36         5.5 0.24            111            320 230 
                                                                                
