 2014  913 2326  2.7 L   6.556 -73.543110.2  RSN 23 0.6 2.4LRSN                1
 GAP= 51        1.27       2.7     3.3  5.9 -0.1626E+01  0.4914E+01  0.1163E+01E
 Epicentro: EL CARMEN - SANTANDER                                              3
 ACTION:UPD 14-10-03 23:04 OP:nd   STATUS:               ID:20140913232602 L   I
 OLDACT:DUP 14-09-14 05:26 OP:fm   STATUS:               ID:20140913231820d    3
 OLDACT:REG 14-09-14 04:04 OP:fm   STATUS:               ID:20140913231819     3
 2014-09-13-2318-19M.COL___293                                                 6
 STAT SP IPHASW D HRMM SECON CODA AMPLIT PERI AZIMU VELO AIN AR TRES W  DIS CAZ7
 BAR2 SZ IP     C 2326 19.05                             158    0.3410 40.1  84 
 BAR2 SZ ES   1   2326 31.75                             158    0.58 7 40.1  84 
 BAR2 SZ I        2326 33.00       154.6 0.52            163           40.1  84 
 BRR  HZ EP       2326 19.86                             148    0.1910 63.8 343 
 BRR  HN ES       2326 33.63                             148    0.7510 63.8 343 
 BRR  HZ I        2326 39.81        37.5 0.28            146           63.8 343 
 RUS  HZ EP     D 2326 21.98                             138   -0.2610 89.3 145 
 RUS  HN ES       2326 37.81                             138    0.3610 89.3 145 
 RUS  HZ I        2326 39.89        18.8 0.40            141           89.3 145 
 PTB  HZ EP     C 2326 21.84                             134   -0.7410  101 269 
 PTB  HN ES       2326 36.81                             134   -1.2410  101 269 
 PTB  HZ I        2326 37.89       125.1 0.30            133            101 269 
 SPBC HZ EP       2326 23.85                             130   -0.1710  116 210 
 SPBC HN ES       2326 40.41                             130   -0.2110  116 210 
 SPBC HZ I        2326 42.39        67.5 0.28            130            116 210 
 PAM  SZ EP       2326 25.67                             127    0.0210  127  47 
 PAM  SE ES       2326 43.30                             127   -0.2210  127  47 
 PAM  SZ I        2326 45.15        59.7 0.30            129            127  47 
 ZAR  HZ EP   1   2326 31.24                             117    0.93 7  178 306 
 ZAR  HE ES   1   2326 51.99                             117    0.17 7  178 306 
 ZAR  HZ I        2326 55.67        76.2 0.44            116            178 306 
 NOR  HZ EP       2326 30.58                             116   -0.32 9  183 233 
 NOR  HN ES       2326 52.04                             116   -0.83 9  183 233 
 NOR  HZ I        2326 56.69        29.8 0.12            116            183 233 
 OCA  HZ EP   1   2326 31.23                             116   -0.30 7  188   8 
 OCA  HN ES       2326 53.98                             116   -0.00 9  188   8 
 OCA  HZ I        2326 59.49        34.0 0.16            116            188   8 
 TAM  HZ EP   1   2326 31.61                             115   -0.49 6  194  94 
 TAM  HN ES   4   2326 52.91                             115   -2.09 0  194  94 
 TAM  HZ I        2326 53.76        22.2 0.42            116            194  94 
 ROSC BZ EP   4   2326 36.79                             113    2.68 0  208 204 
 ROSC BN ES   4   2327  0.93                             113    2.35 0  208 204 
 ROSC BZ I        2327  5.38        26.0 0.55            113            208 204 
 CHI  HZ EP       2326 33.98                             112   -0.80 8  214 186 
 CHI  HE ES   1   2326 59.89                             112    0.12 6  214 186 
 CHI  HZ I        2327  6.22        10.4 0.34            113            214 186 
 HEL  HZ EP       2326 36.33                             111    0.55 8  223 260 
 HEL  HE ES       2327  2.59                             111    1.03 8  223 260 
 HEL  HZ I        2327  8.29        14.6 0.34            111            223 260 
 GUY2CHZ EP       2326 39.79                             109    0.85 8  250 234 
 GUY2CHN ES   4   2327 10.45                             109    3.27 0  250 234 
 GUY2CHZ I        2327 11.49        20.3 0.28                           250 234 
 SML  HZ EP       2326 39.24                             108    0.28 8  255 347 
 SML  HN ES   4   2327  8.93                             108    1.72 0  255 347 
 SML  HZ I        2327 12.18        50.7 0.22            108            255 347 
 URE  HZ EP   4   2326 35.46                             108   -3.69 0  256 301 
 URE  HE ES   1   2327  7.32                             108   -0.23 6  256 301 
 URE  HZ I        2327 16.83        24.7 0.18            108            256 301 
 TOL  SZ EP       2326 44.43                             105    0.53 7  294 222 
 TOL  SN ES   4   2327 17.98                             105    1.98 0  294 222 
 TOL  SZ I        2327 25.19        28.1 0.40            105            294 222 
 ANIL HZ EP   4   2326 46.93                             104    1.44 0  307 222 
 ANIL HE ES   1   2327 19.78                             104    0.95 5  307 222 
 MON  HZ EP       2326 48.49                             102   -0.42 7  339 317 
 MON  HN ES       2327 24.36                             102   -0.57 7  339 317 
 MON  HZ I        2327 26.98         8.8 0.32            102            339 317 
 ORTC HZ EP       2326 50.82                             101    0.80 6  348 213 
 ORTC HN ES       2327 27.50                             101    0.61 6  348 213 
 ORTC HZ I        2327 33.60         8.8 0.74            102            348 213 
 PRA  HZ EP       2326 49.83                             102   -0.13 6  348 205 
 PRA  HN ES       2327 26.44                             102   -0.35 6  348 205 
 PRA  HZ I        2327 33.04         7.5 0.26            102            348 205 
 SJC  HZ EP   4   2326 40.88                              99   -16.7 0  411 334 
 SJC  HN ES   4   2327 37.38                              99   -3.01 0  411 334 
 SJC  HZ I        2327 52.77         4.1 0.32             99            411 334 
 SDV  BZ EP   1   2326 57.19                              99   -0.63 4  412  51 
 SDV  BN ES   4   2327 38.92                              99   -1.87 0  412  51 
 SDV  BZ I        2327 42.04         8.7 0.45             99            412  51 
                                                                                
