 2013  713 2045 23.7 L   6.759 -73.171143.8  RSN  8 0.5 1.6LRSN                1
 GAP=135        1.00       4.0     5.9  8.1 -0.1688E+01  0.6866E+01 -0.5640E+01E
 Epicentro: LOS SANTOS - SANTANDER                                             3
 ACTION:UPD 13-08-12 10:37 OP:ep   STATUS:               ID:20130713204523 L   I
 OLDACT:REG 13-07-13 21:11 OP:jn   STATUS:               ID:20130713203959     3
 2013-07-13-2039-59M.COL___266                                                 6
 STAT SP IPHASW D HRMM SECON CODA AMPLIT PERI AZIMU VELO AIN AR TRES W  DIS CAZ7
 BAR2 SZ EP   1   2045 43.35                             172    0.30 7 18.5 184 
 BAR2 SZ ES       2045 57.92                             172   -0.1810 18.5 184 
 BAR2 SZ I        2045 59.46        22.5 0.16            173           18.5 184 
 BRR  HZ EP       2045 45.28                             152    0.6110 71.1 303 
 BRR  HN ES   1   2046  2.02                             152    1.02 7 71.1 303 
 PAM  SZ EP       2045 46.13                             149    0.0610 82.6  39 
 PAM  SN ES   1   2046  3.06                             149   -0.43 7 82.6  39 
 PAM  SZ I        2046  7.68         5.3 0.56            152           82.6  39 
 RUS  HZ EP       2045 47.09                             145    0.1010 96.3 174 
 RUS  HN ES       2046  5.08                             145   -0.0510 96.3 174 
 RUS  HZ I        2046  6.97         3.9 0.34            148           96.3 174 
 PTB  HZ EP   1   2045 50.03                             132   -0.20 7  144 260 
 PTB  HN ES   1   2046 10.68                             132   -0.21 7  144 260 
 PTB  HZ I        2046 16.72         5.7 0.30            134            144 260 
 SPBC HN ES   1   2046 12.47                             129   -0.85 7  158 219 
 OCA  HN ES   1   2046 13.96                             128   -0.61 7  164 354 
 SML  HE ES   1   2046 28.89                             117   -0.43 6  247 336 
                                                                                
