 2014  313 2043  8.6 L   6.147 -73.846 35.5  RSN 10 0.6 2.0LRSN                1
 GAP= 96        1.43       3.4     2.7 32.8 -0.2890E+01  0.1697E+02 -0.4798E+02E
 Epicentro: LANDAZURI - SANTANDER                                              3
 OLDACT:REG 14-03-14 00:55 OP:stll STATUS:               ID:20140313203819     3
 ACTION:UPD 14-04-09 23:16 OP:nd   STATUS:               ID:20140313204308 L   I
 OLDACT:UP  14-03-14 01:44 OP:stll STATUS:               ID:20140313203819     3
 2014-03-13-2038-19M.COL___235                                                 6
 STAT SP IPHASW D HRMM SECON CODA AMPLIT PERI AZIMU VELO AIN AR TRES W  DIS CAZ7
 SPBC HZ IP     C 2043 20.01                             103    0.7110 60.2 205 
 SPBC HN ES       2043 27.88                             103    0.2610 60.2 205 
 PTB  HZ IP     D 2043 21.54                              96   -0.1610 80.3 303 
 PTB  HN ES       2043 31.38                              96   -0.4910 80.3 303 
 PTB  HZ I        2043 34.40        64.1 0.10            100           80.3 303 
 BAR2 SZ EP       2043 22.97                              95   -0.0010 88.4  56 
 BAR2 SZ ES       2043 33.95                              95   -0.2010 88.4  56 
 BAR2 HZ I        2043 35.71        93.5 0.38             98           88.4  56 
 RUS  HZ EP       2043 22.82                              95   -0.5410 89.0 108 
 RUS  HN ES       2043 34.05                              95   -0.7910 89.0 108 
 RUS  HZ I        2043 35.37        20.7 0.16            100           89.0 108 
 BRR  HZ EP       2043 25.45                              94    0.4210  107   8 
 BRR  HN ES       2043 38.74                              94    0.9310  107   8 
 BRR  HZ I        2043 41.13        40.2 0.12             93            107   8 
 NOR  HZ EP       2043 27.53                              93   -0.4610  130 240 
 NOR  HE ES       2043 42.63                              93   -0.4610  130 240 
 PAM  SZ EP       2043 35.02                              92   -0.06 9  183  44 
 PAM  SE ES       2043 56.39                              92    0.70 9  183  44 
 PAM  HZ I        2044  0.44        12.5 0.14             91            183  44 
 ZAR  HZ EP       2043 34.44                              92   -0.46 9  186 323 
 ZAR  HE ES       2043 54.46                              92   -0.92 9  186 323 
 ZAR  HZ I        2043 59.62         9.3 0.10             91            186 323 
 HEL  HZ IP     D 2043 35.60                              92    0.24 9  186 272 
 HEL  HN ES       2043 56.25                              92    0.05 9  186 272 
 HEL  HZ I        2043 57.21        14.7 0.26             91            186 272 
 GUY2CHZ EP       2043 37.96                              91    1.16 9  197 239 
 GUY2CHN ES       2043 59.03                              91    0.28 9  197 239 
 GUY2CHZ I        2044  4.92         9.3 0.58                           197 239 
                                                                                
