 2010  613 2148 12.5 L   6.798 -73.181147.7  RSN 12 0.4 1.9LRSN                1
 GAP=123        0.56       2.9     7.7  6.2 -0.1108E+02  0.1442E+02 -0.3305E+01E
 Epicentro: LOS SANTOS - SANTANDER                                             3
 ACTION:UP  10-08-24 10:10 OP:vdl  STATUS:               ID:20100613214812 L   I
 2010-06-13-2146-19S.COL___114                                                 6
 STAT SP IPHASW D HRMM SECON CODA AMPLIT PERI AZIMU VELO SNR AR TRES W  DIS CAZ7
 BAR2 SZ EP   2   2148 32.16                             171    -0.2 5   23 181 
 BAR2 SZ ES   2   2148 47.52                             171    -0.3 5   23 181 
 GIR2 SZ ES   3   2148 48.64                             168     0.7 2   31 357 
 RUS  HZ EP   1   2148 36.90                             144     0.5 7  101 174 
 RUS  HN ES   1   2148 55.09                             144     0.0 7  101 174 
 RUS  HZ I        2148 56.50        11.4 0.23                           101 174 
 BRI  SZ EP   1   2148 36.46                             141    -0.2 7  110  23 
 BRI  SZ ES   2   2148 56.55                             141     1.0 5  110  23 
 GUE  SZ EP   2   2148 37.38                             139    -0.1 5  118  14 
 GUE  SZ ES   2   2148 56.48                             139    -0.5 5  118  14 
 GRA  SZ ES   2   2148 57.85                             137    -0.1 5  127  19 
 OCA  SZ EP   1   2148 41.03                             130     0.1 7  160 355 
 OCA  SZ ES   2   2149  2.91                             130    -0.2 5  160 355 
 OCA  SZ I        2149  7.48        12.8 0.24                           160 355 
 CHI  HZ EP   3   2148 50.14                             118     0.0 2  247 194 
 CHI  HE ES   2   2149 19.32                             118    -0.2 4  247 194 
 CHI  HZ I        2149 23.64         4.8 0.22                           247 194 
 ROSC BZ EP   3   2148 50.68                             117     0.2 2  251 210 
 ROSC BN ES   2   2149 19.52                             117    -0.6 4  251 210 
 ROSC BZ I        2149 29.20         5.7 0.18                           251 210 
 HEL  HZ EP   3   2148 52.72                             115     0.3 2  268 256 
 HEL  HE ES   3   2149 23.76                             115     0.3 2  268 256 
 HEL  HZ I        2149 33.17         4.4 0.32                           268 256 
 GUY  HZ EP   3   2148 56.77                             113     0.9 2  298 234 
 GUY  HE ES   3   2149 30.23                             113     0.6 2  298 234 
 SDV  BZ EP   2   2149  2.62                             108    -0.4 3  364  51 
 SDV  BZ I        2149 43.92         2.1 0.67                           364  51 
                                                                                
