 2010 1113 2247 40.4 L   6.759 -73.109151.4  RSN 29 0.4 3.9LRSN                1
 GAP=124        0.81       2.6     3.9  3.8 -0.4586E+01  0.1984E+01  0.2475E+01E
 Epicentro: LOS SANTOS - SANTANDER                                             3
 ACTION:UP  10-12-17 16:52 OP:REBC STATUS:               ID:20101113224740 L   I
 2010-11-13-2245-16S.COL___129                                                 6
 STAT SP IPHASW D HRMM SECON CODA AMPLIT PERI AZIMU VELO SNR AR TRES W  DIS CAZ7
 BAR2 SZ IP       2248  0.67                             172     0.010   20 204 
 BAR2 SZ ES   1   2248 16.13                             172    -0.3 7   20 204 
 BAR2 SZ I        2248 17.62      1671.7 0.13                            20 204 
 BTL  SZ IP       2248  1.03                             170     0.310   25 315 
 BTL  SZ ES   1   2248 16.63                             170     0.0 7   25 315 
 GIR2 SZ IP       2248  0.78                             166    -0.110   37 345 
 GIR2 SZ ES   1   2248 16.67                             166    -0.2 7   37 345 
 URB  SZ EP       2248  2.17                             158     0.510   58 335 
 BRR  HZ IP     C 2248  2.60                             152     0.110   77 300 
 BRR  HZ I        2248  2.99      2467.4 0.36                            77 300 
 BRR  HN ES   1   2248 19.86                             152     0.1 7   77 300 
 RUS  HZ IP     C 2248  4.48                             146     0.110   96 178 
 RUS  HN ES   1   2248 22.89                             146    -0.2 7   96 178 
 RUS  HZ I        2248 25.14       744.1 0.35                            96 178 
 GUE  SZ EP       2248  5.75                             140    -0.210  120  10 
 GRA  SZ IP   1   2248  7.48                             137     1.0 7  129  15 
 GRA  SZ ES   1   2248 27.10                             137     0.4 7  129  15 
 GRA  SZ I        2248 28.54      1532.5 0.40                           129  15 
 OCA  SZ IP       2248  9.03                             130    -0.6 9  165 352 
 OCA  SZ ES   1   2248 32.00                             130    -0.4 7  165 352 
 OCA  SZ I        2248 37.14      1072.8 0.49                           165 352 
 NOR  SZ IP       2248 16.27                             120    -0.3 8  236 236 
 NOR  SN ES   1   2248 44.66                             120    -0.1 6  236 236 
 CHI  HZ IP     D 2248 18.57                             119     0.5 8  245 196 
 CHI  HE ES   1   2248 47.38                             119    -0.1 6  245 196 
 CHI  HZ I        2248 58.00       323.8 0.58                           245 196 
 ROSC BZ EP   2   2248 18.37                             118    -0.3 4  251 212 
 ROSC BE ES   1   2248 48.73                             118     0.2 6  251 212 
 HEL  HZ EP       2248 21.37                             116     0.1 8  275 257 
 HEL  HE ES   1   2248 53.68                             116     0.6 6  275 257 
 HEL  HZ I        2248 59.10       620.1 0.33                           275 257 
 VIL  SZ EP       2248 23.78                             113     0.3 7  298 191 
 VIL  SZ I        2249  4.13       270.3 0.56                           298 191 
 GUY  SZ EP   1   2248 24.44                             113     0.0 5  302 236 
 GUY  SE ES   1   2248 58.56                             113    -0.1 5  302 236 
 GUY  SZ I        2249  6.99       901.3 0.43                           302 236 
 RREF HZ EP       2248 26.65                             112    -0.2 7  322 230 
 RREF HE ES   1   2249  2.30                             112    -0.7 5  322 230 
 RREF HZ I        2249 12.47       576.6 0.52                           322 230 
 TOL  SZ EP       2248 29.25                             110     0.4 7  343 226 
 DBB  SZ IP       2248 28.40                             110    -0.2 7  344 275 
 SDV  BZ EP       2248 29.85                             109    -0.8 6  360  49 
 SDV  BZ I        2249  9.92       136.9 0.20                           360  49 
 PRA  HZ EP       2248 34.00                             108     0.1 6  390 210 
 PRA  HE ES   1   2249 15.47                             108    -0.2 4  390 210 
 SJA  SZ EP       2248 34.35                             107    -0.4 6  397 194 
 SJA  SZ I        2249 24.08       446.9 0.36                           397 194 
 GUA  SZ EP   3   2248 43.00                             104    -0.1 1  469 173 
 HORQ SZ EP       2248 50.29                             102    -0.7 4  532 227 
 HORQ SE ES   1   2249 45.37                             102    -0.6 3  532 227 
 MARA HZ EP       2248 51.50                             102     0.1 4  536 216 
 MARA HZ I        2250  9.54        55.1 0.00                           536 216 
 MAL  SZ EP   1   2248 53.83                             101     0.1 3  558 237 
 MAL  SZ I        2248 56.29        48.0 0.52                           558 237 
 PCON HZ EP       2249  1.12                             100     0.4 3  611 217 
 PCON HZ I        2249  2.26        33.7 0.52                           611 217 
 POP2 HZ EP   2   2249  0.18                             100    -0.3 1  612 220 
 FLO2 HZ EP   1   2249  3.08                              99    -0.3 2  638 206 
 FLO2 HZ I        2250 43.59        34.6 1.00                           638 206 
 SOTA HZ EP       2249  5.14                              99     0.7 2  642 217 
 SOTA HZ I        2249 10.15        29.2 0.44                           642 217 
                                                                                
