 2017  813 2119 58.5 L   6.351 -73.577114.9  RSN  5 0.2 0.8LRSN                1
 GAP= 96        0.66       2.8     3.5  6.5  0.2117E+01  0.6561E+01 -0.2309E+01E
 Epicentro: SANTA HELENA DEL OPON - SANTANDER                                  3
 ACTION:UPD 17-09-04 20:20 OP:rebc STATUS:               ID:20170813211958 L   I
 OLDACT:REG 17-08-14 03:06 OP:osc  STATUS:               ID:20170813211740     3
 2017-08-13-2118-00M.COL___413                                                 6
 STAT SP IPHASW D HRMM SECON CODA AMPLIT PERI AZIMU VELO AIN AR TRES W  DIS CAZ7
 BAR2 EZ EP       2120 15.63                             154    0.1210 51.1  59 
 BAR2 EZ ES       2120 29.19                             154    0.4010 51.1  59 
 RUS  HZ EP       2120 17.18                             145   -0.1410 74.6 133 
 RUS  HN ES       2120 31.86                             145   -0.1510 74.6 133 
 RUS  HZ I        2120 34.94         1.7 0.34            145           74.6 133 
 BRR  HZ EP       2120 17.40                             141    0.0210 84.9 350 
 BRR  HE ES       2120 31.69                             141   -0.4410 84.9 350 
 SPBC HN ES       2120 33.80                             138    0.0410 94.8 215 
 ZAR  HE ES       2120 50.39                             117    0.19 9  190 312 
                                                                                
