 2016  313 2132 59.8 L   6.902 -73.214131.5  RSN 14 0.5 2.1LRSN                1
 GAP= 65        1.10       2.9     3.1  6.3 -0.8963E+00  0.6149E+01 -0.1589E+00E
 Epicentro: BETULIA - SANTANDER                                                3
 ACTION:UPD 16-05-13 21:24 OP:cam  STATUS:               ID:20160313213259 L   I
 OLDACT:REG 16-03-14 02:29 OP:ak   STATUS:               ID:20160313212749     3
 2016-03-13-2127-49M.COL___295                                                 6
 STAT SP IPHASW D HRMM SECON CODA AMPLIT PERI AZIMU VELO AIN AR TRES W  DIS CAZ7
 BAR2 EZ EP       2133 18.06                             165    0.0510 34.4 174 
 BAR2 EZ ES       2133 32.14                             165   -0.0810 34.4 174 
 BAR2 EZ I        2133 33.58        44.2 0.44            164           34.4 174 
 PAM  EZ EP   2   2133 21.34                             149    1.00 5 74.7  50 
 PAM  EN ES       2133 37.02                             149    0.6610 74.7  50 
 PAM  EZ I        2133 39.21        21.4 0.18            153           74.7  50 
 RUS  HZ EP       2133 23.05                             137   -0.0810  113 173 
 RUS  HN ES       2133 41.73                             137    0.4110  113 173 
 RUS  HZ I        2133 43.53        11.6 0.28            138            113 173 
 PTB  HZ EP       2133 24.92                             129   -0.27 9  143 254 
 PTB  HN ES       2133 44.16                             129   -0.84 9  143 254 
 PTB  HZ I        2133 48.14        13.6 0.18            130            143 254 
 OCA  HZ EP       2133 26.05                             128    0.17 9  148 356 
 OCA  HN ES       2133 45.87                             128   -0.35 9  148 356 
 OCA  HZ I        2133 50.92        43.1 0.32            130            148 356 
 TAM  HZ EP       2133 27.23                             125   -0.18 9  166 108 
 TAM  HN ES       2133 48.13                             125   -0.82 9  166 108 
 TAM  HZ I        2133 53.42        11.3 0.35            128            166 108 
 SPBC HZ EP       2133 27.96                             125    0.28 9  168 215 
 SPBC HN ES       2133 49.03                             125   -0.41 9  168 215 
 SPBC HZ I        2133 55.92        15.0 0.21            125            168 215 
 ZAR  HZ EP       2133 30.63                             121    0.46 9  193 290 
 ZAR  HN ES       2133 54.59                             121    0.72 9  193 290 
 ZAR  HZ I        2134  2.28        19.3 0.12            121            193 290 
 NOR  HZ EP   2   2133 35.80                             115    0.98 4  235 231 
 NOR  HN ES       2134  1.57                             115   -0.57 8  235 231 
 NOR  HZ I        2134 10.95         8.5 0.16            116            235 231 
 CHI  HZ EP       2133 38.25                             113    0.49 8  258 193 
 CHI  HN ES       2134  7.66                             113    0.29 8  258 193 
 CHI  HZ I        2134 13.07         6.9 0.30            114            258 193 
 HEL  HZ EP   2   2133 39.08                             112    0.24 4  268 253 
 HEL  HN ES       2134  9.17                             112   -0.11 8  268 253 
 HEL  HZ I        2134 16.31         6.4 0.32            113            268 253 
 GUY2CHZ EP   4   2133 38.50                             109   -4.35 0  302 232 
 GUY2CHN ES       2134 16.80                             109    0.37 7  302 232 
 GUY2CHZ I        2134 25.02         4.8 0.28                           302 232 
 ANIL HE ES   4   2134 32.40                             106    4.25 0  360 222 
 ANIL HZ I        2134 36.86        10.6 0.32            106            360 222 
 SJC  HZ EP       2133 52.36                             104   -0.95 6  396 327 
 SJC  HN ES   1   2134 34.42                             104   -0.64 4  396 327 
                                                                                
