 2011  713 2240 16.6 L   6.708 -73.286139.1  RSN  4 0.3 1.6LRSN                1
 GAP=147        0.55       8.7    17.8  8.2  0.1262E+03 -0.2543E+02 -0.1870E+02E
 Epicentro: GALAN - SANTANDER                                                  3
 ACTION:UPD 12-07-25 14:00 OP:epov STATUS:               ID:20110713224016 L   I
 2011-07-13-2237-07S.COL___132                                                 6
 STAT SP IPHASW D HRMM SECON CODA AMPLIT PERI AZIMU VELO AIN AR TRES W  DIS CAZ7
 BAR2 SZ EP   2   2240 34.57                             172   -0.74 5 17.2 138 
 BAR2 SZ ES   2   2240 49.71                             172   -0.20 5 17.2 138 
 BAR2 SZ I        2240 51.33         9.2 0.30                          17.2 138 
 BTL  SZ EP       2240 35.69                             170    0.2610 23.3   5 
 BRR  HZ EP   1   2240 36.68                             154    0.03 7 64.5 313 
 BRR  HZ I        2240 41.84        14.6 0.26                          64.5 313 
 BRR  HE ES   2   2240 52.16                             154   -0.13 5 64.5 313 
 RUS  HZ EP   1   2240 38.99                             145   -0.15 7 93.0 166 
 RUS  HE ES   1   2240 56.87                             145    0.14 7 93.0 166 
 RUS  HZ I        2240 58.66         3.5 0.26                          93.0 166 
                                                                                
