 2010 1113 2112  2.1 L   6.767 -73.125146.5  RSN 12 0.4 2.1LRSN                1
 GAP=161        0.90       3.8     6.4  5.3 -0.1036E+02  0.2996E+01  0.5987E+00E
 Epicentro: LOS SANTOS - SANTANDER                                             3
 ACTION:UP  10-12-17 16:52 OP:REBC STATUS:               ID:20101113211202 L   I
 2010-11-13-2108-05S.COL___129                                                 6
 STAT SP IPHASW D HRMM SECON CODA AMPLIT PERI AZIMU VELO SNR AR TRES W  DIS CAZ7
 BAR2 SZ IP       2112 21.77                             172     0.010   20 199 
 BAR2 SZ ES   1   2112 36.85                             172    -0.2 7   20 199 
 BAR2 SZ I        2112 38.45        27.0 0.32                            20 199 
 BTL  SZ EP       2112 22.01                             171     0.210   23 317 
 BTL  SZ ES   1   2112 36.99                             171    -0.2 7   23 317 
 GIR2 SZ EP       2112 21.91                             166     0.010   35 348 
 GIR2 SZ ES   1   2112 36.77                             166    -0.7 7   35 348 
 BRR  HZ EP       2112 23.60                             151     0.110   75 300 
 BRR  HN ES   1   2112 41.08                             151     0.8 7   75 300 
 BRR  HZ I        2112 43.95        41.3 0.15                            75 300 
 RUS  HZ EP       2112 25.60                             145     0.010   97 177 
 RUS  HN ES   1   2112 44.16                             145     0.2 7   97 177 
 RUS  HZ I        2112 46.13        12.3 0.43                            97 177 
 GUE  SZ EP       2112 27.20                             139     0.110  120  11 
 GRA  SZ EP       2112 28.22                             136     0.610  129  16 
 GRA  SZ ES   1   2112 47.05                             136    -0.5 7  129  16 
 GRA  SZ I        2112 49.19        15.9 0.33                           129  16 
 OCA  SZ EP       2112 30.35                             129    -0.5 9  164 353 
 OCA  SZ I        2113  2.35        13.7 0.58                           164 353 
 NOR  SZ EP       2112 37.36                             119    -0.5 8  235 236 
 NOR  SN ES   1   2113  5.49                             119    -0.2 6  235 236 
 CHI  HZ EP   1   2112 39.65                             117     0.2 6  246 196 
 CHI  HE ES   2   2113  8.81                             117     0.1 4  246 196 
 CHI  HZ I        2113 15.07         5.6 0.46                           246 196 
 HEL  HN ES   3   2113 14.53                             115     0.6 2  273 257 
 GUY  SZ EP   2   2112 45.03                             112    -0.7 4  301 236 
 GUY  SE ES   2   2113 20.00                             112     0.3 4  301 236 
 GUY  SZ I        2113 28.03        15.4 0.34                           301 236 
                                                                                
