 2016  713 2149 46.2 L   6.075 -73.842117.3  RSN  4 0.3 1.3LRSN                1
 GAP=140        0.80       5.2     2.9  8.1 -0.2643E+01  0.2880E+01  0.9534E+01E
 Epicentro: EL PENON - SANTANDER                                               3
 ACTION:UPD 17-03-29 16:50 OP:lp   STATUS:               ID:20160713214946 L   I
 OLDACT:REG 16-07-14 02:38 OP:drio STATUS:               ID:20160713214759     3
 2016-07-13-2147-59S.COL___334                                                 6
 STAT SP IPHASW D HRMM SECON CODA AMPLIT PERI AZIMU VELO AIN AR TRES W  DIS CAZ7
 PTB  HZ EP       2150  5.31                             141   -0.1310 85.2 307 
 PTB  HN ES       2150 20.56                             141    0.1510 85.2 307 
 RUS  HZ EP       2150  6.84                             141    0.6510 86.4 103 
 RUS  HE ES       2150 21.46                             141   -0.2910 86.4 103 
 RUS  HZ I        2150 23.13         2.0 0.32            143           86.4 103 
 BAR2 EZ EP       2150  5.99                             139   -0.3410 92.7  52 
 BAR2 EZ ES       2150 22.08                             139    0.0810 92.7  52 
 BAR2 EZ I        2150 23.48         5.9 0.14            141           92.7  52 
 NOR  HZ EP       2150  8.94                             129   -0.1510  127 244 
 NOR  HN ES       2150 26.92                             129    0.0110  127 244 
 NOR  HZ I        2150 28.26         6.1 0.24            131            127 244 
                                                                                
