 2016  713 2222  6.2 L   6.560 -73.778 89.9  RSN  4 0.2 1.4LRSN                1
 GAP=136        0.58       4.9     2.6  5.7  0.7120E+01  0.2315E+01 -0.1785E+01E
 Epicentro: SANTA HELENA DEL OPON - SANTANDER                                  3
 ACTION:UPD 17-03-29 16:50 OP:lp   STATUS:               ID:20160713222206 L   I
 OLDACT:REG 16-07-14 02:39 OP:drio STATUS:               ID:20160713221759     3
 2016-07-13-2217-59S.COL___334                                                 6
 STAT SP IPHASW D HRMM SECON CODA AMPLIT PERI AZIMU VELO AIN AR TRES W  DIS CAZ7
 BAR2 EZ ES       2222 33.48                             141   -0.0910 66.0  87 
 BAR2 EZ I        2222 34.55        20.1 0.46            139           66.0  87 
 PTB  HZ EP       2222 21.81                             137   -0.1810 75.0 268 
 PTB  HN ES       2222 34.35                             137    0.0210 75.0 268 
 PTB  HZ I        2222 34.84         7.6 0.24            136           75.0 268 
 RUS  HZ EP       2222 25.29                             127   -0.2610  107 134 
 RUS  HE ES       2222 40.95                             127    0.2810  107 134 
 RUS  HZ I        2222 43.24         3.0 0.22            127            107 134 
 ZAR  HZ EP       2222 30.63                             115    0.27 9  158 311 
 ZAR  HE ES   4   2222 51.53                             115    2.30 0  158 311 
 ZAR  HZ I        2222 54.98         5.0 0.26            113            158 311 
                                                                                
