 2014  913 2112 17.6 L   6.770 -73.175134.0  RSN  4 0.3 1.4LRSN                1
 GAP=232        0.61       5.1     5.3  7.1  0.1782E+02  0.3673E+01  0.9703E+00E
 Epicentro: LOS SANTOS - SANTANDER                                             3
 ACTION:UPD 14-10-03 23:04 OP:nd   STATUS:               ID:20140913211217 L   I
 OLDACT:UP  14-09-14 04:50 OP:fm   STATUS:               ID:20140913210818     3
 OLDACT:REG 14-09-14 03:59 OP:fm   STATUS:               ID:20140913210818     3
 2014-09-13-2108-18M.COL___296                                                 6
 STAT SP IPHASW D HRMM SECON CODA AMPLIT PERI AZIMU VELO AIN AR TRES W  DIS CAZ7
 BRR  HZ EP   1   2112 37.89                             151    0.47 7 70.0 302 
 BRR  HN ES       2112 52.60                             151   -0.2710 70.0 302 
 BRR  HZ I        2112 56.60         6.4 0.66            149           70.0 302 
 RUS  HZ EP   1   2112 39.78                             142   -0.20 7 97.5 174 
 RUS  HN ES       2112 57.61                             142    0.1710 97.5 174 
 RUS  HZ I        2113  1.65         1.6 0.40            144           97.5 174 
 PTB  HZ EP   1   2112 42.95                             130   -0.32 7  144 260 
 PTB  HN ES       2113  3.32                             130    0.03 9  144 260 
 PTB  HZ I        2113  7.18         2.5 0.26            130            144 260 
 ZAR  HN ES   1   2113 13.90                             120    0.19 6  202 293 
 ZAR  HZ I        2113 21.70         6.3 0.10            121            202 293 
                                                                                
