 2011  213 2306  2.5 L   6.856 -73.136142.3  RSN 13 0.3 2.5LRSN                1
 GAP=104        0.62       2.4     3.7  4.8 -0.3062E+01  0.5768E+01 -0.6620E+00E
 Epicentro: LOS SANTOS - SANTANDER                                             3
 ACTION:UP  11-03-28 15:08 OP:jfem STATUS:               ID:20110213230602 L   I
 2011-02-13-2304-17S.COL___137                                                 6
 STAT SP IPHASW D HRMM SECON CODA AMPLIT PERI AZIMU VELO SNR AR TRES W  DIS CAZ7
 GIR2 SZ EP   1   23 6 21.05                             169    -0.6 7   25 346 
 BAR2 SZ EP       23 6 22.16                             168     0.310   30 190 
 BAR2 SZ ES   1   23 6 37.02                             168     0.0 7   30 190 
 BAR2 SZ I        23 6 38.23        56.4 0.29                            30 190 
 RUS  HZ EP       23 6 26.37                             141     0.010  107 177 
 RUS  HN ES   1   23 6 44.98                             141     0.0 7  107 177 
 RUS  HZ I        23 6 47.02        20.9 0.30                           107 177 
 GRA  SZ EP       23 6 26.64                             138    -0.310  120  18 
 GRA  SZ ES   1   23 6 46.03                             138     0.1 7  120  18 
 GRA  SZ I        23 6 48.62        52.0 0.23                           120  18 
 OCA  SZ EP   1   23 6 30.35                             130     0.4 7  154 352 
 OCA  SZ ES   2   23 6 51.72                             130     0.3 5  154 352 
 OCA  SZ I        23 6 57.20        42.6 0.40                           154 352 
 YOP  SZ EP   1   23 6 33.04                             125     0.2 7  184 154 
 YOP  SZ I        23 6 35.40        19.1 0.24                           184 154 
 YOP  SN ES   2   23 6 56.84                             125     0.4 4  184 154 
 NOR  SZ EP   1   23 6 38.51                             117     0.0 6  239 234 
 NOR  SE ES   1   23 7  6.35                             117    -0.3 6  239 234 
 CHI  HZ EP   1   23 6 40.92                             116     0.2 6  255 195 
 CHI  HN ES   1   23 7 10.07                             116    -0.4 6  255 195 
 CHI  HZ I        23 7 18.11        15.7 0.30                           255 195 
 HEL  HZ EP   1   23 6 43.21                             114     0.4 6  275 255 
 HEL  HN ES   2   23 7 14.14                             114    -0.2 4  275 255 
 HEL  HZ I        23 7 21.25        18.0 0.37                           275 255 
 GUY  SZ EP   1   23 6 46.62                             111     0.1 5  306 234 
 GUY  SN ES   1   23 7 20.80                             111     0.0 5  306 234 
 GUY  SZ I        23 7 30.48        28.8 0.50                           306 234 
 RREF HZ EP   2   23 6 48.51                             110    -0.5 3  327 229 
 RREF HZ I        23 7 35.84        19.2 0.29                           327 229 
 DBB  SZ EP   1   23 6 50.20                             109     0.3 5  340 273 
 SDV  BZ EP   1   23 6 51.40                             108    -0.5 5  356  51 
 SDV  BZ I        23 7 31.66         8.3 0.74                           356  51 
                                                                                
