 2016  613 2210 33.8 L   6.812 -73.155138.7  RSN  6 0.3 1.5LRSN                1
 GAP=135        0.79       3.9     3.4  5.8  0.1145E+01  0.4168E+01  0.5360E+00E
 Epicentro: LOS SANTOS - SANTANDER                                             3
 ACTION:UPD 16-07-21 22:18 OP:rebc STATUS:               ID:20160613221033 L   I
 OLDACT:REG 16-06-14 05:33 OP:cara STATUS:               ID:20160613220740     3
 2016-06-13-2207-40M.COL___328                                                 6
 STAT SP IPHASW D HRMM SECON CODA AMPLIT PERI AZIMU VELO AIN AR TRES W  DIS CAZ7
 BAR2 EZ IP       2210 52.41                             169   -0.1510 24.5 187 
 BAR2 EZ ES       2211  6.98                             169   -0.2510 24.5 187 
 BAR2 EZ I        2211  9.06         4.8 0.18                          24.5 187 
 BRR  HZ EP       2210 54.25                             152    0.1910 69.7 298 
 BRR  HN ES       2211 10.21                             152    0.3210 69.7 298 
 BRR  HZ I        2211 20.34        15.7 0.36                          69.7 298 
 PAM  EZ IP       2210 55.34                             150    0.1410 77.0  41 
 PAM  EE ES       2211 11.67                             150   -0.2610 77.0  41 
 PAM  EZ I        2211 12.83         3.8 0.16                          77.0  41 
 RUS  HZ EP       2210 57.01                             142    0.0910  102 176 
 RUS  HN ES       2211 15.38                             142    0.3910  102 176 
 RUS  HZ I        2211 16.63         3.3 0.36                           102 176 
 PTB  HZ EP       2210 59.64                             130   -0.45 9  147 258 
 PTB  HN ES       2211 20.21                             130   -0.42 9  147 258 
 PTB  HZ I        2211 23.65         4.1 0.14                           147 258 
 ZAR  HE ES       2211 30.84                             121    0.40 9  203 292 
 ZAR  HZ I        2211 36.14         5.3 0.58                           203 292 
                                                                                
