 2011  513 2231 33.5 L   6.769 -73.091141.3  RSN  4 0.1 1.5LRSN                1
 GAP=145        0.33       2.5     3.9  4.8  0.1665E+01 -0.4463E+01 -0.6561E+00E
 Epicentro: LOS SANTOS - SANTANDER                                             3
 ACTION:UP  11-06-29 08:53 OP:tino STATUS:               ID:20110513223133 L   I
 2011-05-13-2228-15S.COL___141                                                 6
 STAT SP IPHASW D HRMM SECON CODA AMPLIT PERI AZIMU VELO SNR AR TRES W  DIS CAZ7
 BTL  SZ EP   1   2231 52.58                             169     0.0 7   26 310 
 PAM  SZ EP   1   2231 55.31                             150     0.2 7   76  34 
 PAM  SN ES   2   2232 11.93                             150    -0.1 5   76  34 
 BRR  HZ EP   1   2231 54.44                             149    -0.1 7   78 299 
 BRR  HN ES   1   2232 11.06                             149     0.1 7   78 299 
 BRR  HZ I        2232 14.22         8.3 0.14                            78 299 
 RUS  HZ EP   1   2231 56.49                             144     0.0 7   97 179 
 RUS  HE ES   1   2232 14.52                             144     0.0 7   97 179 
 RUS  HZ I        2232 16.21         3.7 0.17                            97 179 
                                                                                
