 2011  513 2228 45.5 L   6.800 -73.134147.6  RSN  4 0.1 1.5LRSN                1
 GAP=138        0.32       2.6     4.1  4.5  0.2755E+01 -0.3162E+01 -0.2190E-01E
 Epicentro: LOS SANTOS - SANTANDER                                             3
 ACTION:UP  11-06-29 08:53 OP:tino STATUS:               ID:20110513222845 L   I
 2011-05-13-2228-15S.COL___141                                                 6
 STAT SP IPHASW D HRMM SECON CODA AMPLIT PERI AZIMU VELO SNR AR TRES W  DIS CAZ7
 BTL  SZ EP       2229  5.34                             172     0.110   20 312 
 BRR  HZ EP   1   2229  6.96                             152     0.1 7   72 298 
 BRR  HN ES   1   2229 23.54                             152    -0.1 7   72 298 
 BRR  HZ I        2229 25.75        11.1 0.18                            72 298 
 PAM  SZ EP   2   2229  7.64                             151    -0.2 5   77  39 
 PAM  SN ES   2   2229 25.39                             151     0.1 5   77  39 
 RUS  HZ EP   1   2229  9.40                             144     0.0 7  100 177 
 RUS  HE ES   1   2229 28.06                             144     0.0 7  100 177 
 RUS  HZ I        2229 30.25         3.2 0.41                           100 177 
                                                                                
