 2016  113 2223  9.9 L   6.806 -73.127153.1  RSN  9 0.5 1.7LRSN                1
 GAP=139        1.13       4.2     4.9  6.6 -0.5494E+00  0.9350E+01 -0.3272E+01E
 Epicentro: LOS SANTOS - SANTANDER                                             3
 ACTION:UPD 16-03-09 23:25 OP:cam  STATUS:               ID:20160113222309 L   I
 OLDACT:REG 16-01-14 06:09 OP:ak   STATUS:               ID:20160113221750     3
 2016-01-13-2217-50M.COL___334                                                 6
 STAT SP IPHASW D HRMM SECON CODA AMPLIT PERI AZIMU VELO AIN AR TRES W  DIS CAZ7
 BAR2 EZ EP       2223 30.22                             171   -0.2410 24.5 195 
 BAR2 EZ ES       2223 46.20                             171   -0.2710 24.5 195 
 BAR2 EZ I        2223 48.60         8.2 0.23            170           24.5 195 
 BRR  HZ EP       2223 32.59                             153    0.6410 72.7 297 
 BRR  HN ES       2223 49.88                             153    0.7510 72.7 297 
 BRR  HZ I        2223 54.24        12.8 0.48            152           72.7 297 
 PAM  EZ EP       2223 33.26                             153    0.4410 75.5  39 
 PAM  EN ES       2223 50.68                             153    0.0110 75.5  39 
 PAM  EZ I        2223 52.87         7.9 0.54            156           75.5  39 
 RUS  HZ EP       2223 34.66                             145    0.2210  101 177 
 RUS  HE ES       2223 53.16                             145   -0.4110  101 177 
 RUS  HZ I        2223 55.86         3.2 0.22            149            101 177 
 PTB  HZ EP       2223 37.05                             133   -0.65 9  150 259 
 PTB  HN ES       2223 58.87                             133   -0.48 9  150 259 
 PTB  HZ I        2224  4.51         8.5 0.40            134            150 259 
 ZAR  HZ EP   2   2223 43.66                             124    0.63 4  206 292 
 ZAR  HN ES       2224  8.58                             124   -0.27 8  206 292 
 ZAR  HZ I        2224 14.29         5.7 0.29            125            206 292 
 SML  HZ EP       2223 46.61                             119   -0.39 8  244 335 
 SML  HN ES       2224 15.78                             119   -0.14 8  244 335 
 GUY2CHZ EP       2223 54.60                             114    0.48 7  303 235 
 GUY2CHN ES       2224 29.23                             114    0.64 7  303 235 
 GUY2CHZ I        2224 39.23         2.3 0.64                           303 235 
 SJC  HZ EP       2224  4.83                             107   -0.97 6  410 327 
                                                                                
