 2013  313 2251 13.6 L   6.791 -73.131148.5  RSN  8 0.4 2.4LRSN                1
 GAP=139        1.13       4.2     4.8  7.2 -0.1775E+01  0.1083E+02  0.1508E+01E
 Epicentro: LOS SANTOS - SANTANDER                                             3
 ACTION:UPD 13-04-09 14:02 OP:ep   STATUS:               ID:20130313225113 L   I
 2013-03-13-2248-49M.COL___210                                                 6
 STAT SP IPHASW D HRMM SECON CODA AMPLIT PERI AZIMU VELO AIN AR TRES W  DIS CAZ7
 BAR2 SZ IP       2251 33.69                             171    0.1610 22.7 195 
 BAR2 SZ I        2251 33.99        46.1 0.32            169           22.7 195 
 BAR2 SZ ES       2251 48.69                             171   -0.4010 22.7 195 
 BRR  HZ IP     D 2251 35.55                             152    0.4110 73.1 299 
 BRR  HZ I        2251 35.82        22.8 0.24            149           73.1 299 
 BRR  HN ES       2251 52.97                             152    1.0210 73.1 299 
 PAM  SZ IP     D 2251 36.39                             151    0.3110 77.1  38 
 PAM  SZ I        2251 36.73        34.6 0.22            154           77.1  38 
 PAM  SN ES       2251 53.46                             151   -0.1610 77.1  38 
 RUS  HZ EP       2251 37.55                             145    0.0210 99.5 177 
 RUS  HN ES       2251 56.04                             145   -0.1710 99.5 177 
 RUS  HE I        2251 57.08        23.3 0.52            146           99.5 177 
 PTB  HZ EP       2251 40.25                             132   -0.66 9  149 259 
 PTB  HN ES       2252  1.71                             132   -0.51 9  149 259 
 PTB  HE I        2252  7.48        38.8 0.32            131            149 259 
 OCA  HN ES       2252  4.16                             130   -0.40 9  161 353 
 OCA  HN I        2252  7.46        72.0 0.20            130            161 353 
 ZAR  HZ EP       2251 46.01                             123   -0.40 8  206 292 
 ZAR  HE ES       2252 11.91                             123   -0.10 8  206 292 
 ZAR  HN I        2252 17.85        21.9 0.22            122            206 292 
 NOR  HZ EP       2251 50.07                             119    0.51 8  235 235 
 NOR  HE ES       2252 17.91                             119    0.29 8  235 235 
 NOR  HN I        2252 24.58        24.9 0.18            118            235 235 
                                                                                
