 2013 1113 2243 14.8 L   6.818 -73.147146.8  RSN  8 0.4 1.7LRSN                1
 GAP=136        1.11       3.9     5.2  6.6 -0.4728E+01  0.9916E+01 -0.2106E+01E
 Epicentro: LOS SANTOS - SANTANDER                                             3
 ACTION:UPD 14-01-09 16:27 OP:ep   STATUS:               ID:20131113224314 L   I
 OLDACT:REG 13-11-13 21:28 OP:jn   STATUS:               ID:20131113224000     3
 2013-11-13-2240-00M.COL___279                                                 6
 STAT SP IPHASW D HRMM SECON CODA AMPLIT PERI AZIMU VELO AIN AR TRES W  DIS CAZ7
 BAR2 SZ ES       2243 50.00                             170    0.0110 25.2 189 
 BAR2 SZ I        2243 52.44        18.5 0.28            170           25.2 189 
 BRR  HZ EP       2243 36.64                             153    0.6810 70.2 297 
 BRR  HN ES       2243 53.08                             153    0.5810 70.2 297 
 BRR  HZ I        2243 59.35         6.6 0.16            152           70.2 297 
 PAM  SZ EP       2243 37.50                             151    0.5010 75.9  41 
 PAM  SN ES       2243 54.08                             151   -0.2610 75.9  41 
 PAM  SZ I        2243 57.19         6.0 0.60            156           75.9  41 
 RUS  HZ EP       2243 38.62                             143   -0.1310  103 176 
 RUS  HN ES       2243 56.91                             143   -0.5510  103 176 
 RUS  HZ I        2244  0.19         6.1 0.36            148            103 176 
 PTB  HZ EP       2243 41.19                             132   -0.65 9  148 258 
 PTB  HN ES       2244  2.35                             132   -0.61 9  148 258 
 PTB  HZ I        2244 10.14         9.6 0.44            134            148 258 
 SPBC HZ EP       2243 43.71                             129    0.24 9  165 219 
 SPBC HN ES       2244  6.06                             129    0.19 9  165 219 
 NOR  HZ EP       2243 50.65                             119   -0.01 8  236 234 
 NOR  HE ES       2244 19.17                             119    0.51 8  236 234 
 NOR  HZ I        2244 22.46         6.4 0.18            121            236 234 
 SML  HZ EP       2243 51.03                             118   -0.22 8  242 335 
 SML  HN ES       2244 19.27                             118   -0.44 8  242 335 
                                                                                
