 2017 1013 2143 32.6 L   6.804 -73.140147.4  RSN 18 0.5 2.5LRSN                1
 GAP=112        1.11       3.2     3.6  5.3  0.1581E+01  0.5418E+01  0.5170E+01E
 Epicentro: LOS SANTOS - SANTANDER                                             3
 ACTION:UPD 17-11-07 19:31 OP:rebc STATUS:               ID:20171013214332 L   I
 OLDACT:REG 17-10-14 02:44 OP:dhb  STATUS:               ID:20171013213739     3
 2017-10-13-2138-00M.COL___441                                                 6
 STAT SP IPHASW D HRMM SECON CODA AMPLIT PERI AZIMU VELO AIN AR TRES W  DIS CAZ7
 BAR2 EZ IP     D 2143 52.29                             171   -0.1310 23.9 191 
 BAR2 EZ ES       2144  7.47                             171   -0.4310 23.9 191 
 BAR2 EZ I        2144 10.11        80.3 0.28            168           23.9 191 
 BRR  HZ IP     C 2143 54.19                             153    0.2610 71.6 298 
 BRR  HE ES       2144 11.22                             153    0.6410 71.6 298 
 BRR  HZ I        2144 15.47        54.9 0.24            154           71.6 298 
 PAM  EZ EP       2143 55.18                             151    0.2510 76.6  39 
 PAM  EE ES       2144 12.65                             151    0.2910 76.6  39 
 PAM  EZ I        2144 14.55        30.0 0.23            155           76.6  39 
 RUS  HZ IP     D 2143 56.12                             144   -0.4010  101 176 
 RUS  HE ES       2144 14.89                             144   -0.3110  101 176 
 RUS  HZ I        2144 16.15        37.4 0.22            143            101 176 
 PTB  HZ EP       2143 58.95                             132   -0.80 9  148 259 
 PTB  HN ES       2144 20.13                             132   -0.81 9  148 259 
 PTB  HZ I        2144 23.32        22.7 0.11            133            148 259 
 YPLC HZ IP     D 2144  2.44                             127   -0.06 9  177 152 
 YPLC HN ES       2144 26.02                             127    0.18 9  177 152 
 YPLC HZ I        2144 36.44         9.9 0.22            128            177 152 
 ZAR  HZ EP       2144  6.10                             123    0.92 9  205 292 
 ZAR  HE ES       2144 30.55                             123   -0.06 9  205 292 
 ZAR  HZ I        2144 36.50        24.2 0.15            124            205 292 
 TABC EZ EP   9   2144 10.25                             119    1.74 0  231 211 
 TABC EZ ES       2144 38.17                                   -0.10 8  231 211 
 TABC EZ I        2144 41.29        31.5 0.48            120            231 211 
 NOR  HZ EP       2144  8.24                             119   -0.25 8  235 234 
 NOR  HE ES       2144 36.77                             119    0.27 8  235 234 
 NOR  HZ I        2144 40.42        23.8 0.20            119            235 234 
 CHI  HZ EP       2144 10.34                             117   -0.10 8  249 195 
 CHI  HE ES       2144 40.61                             117    0.65 8  249 195 
 CHI  HZ I        2144 43.42        13.0 0.40            118            249 195 
 ROSC BZ EP   2   2144 12.63                             117    1.76 4  253 211 
 ROSC BN ES       2144 41.14                             117    0.41 8  253 211 
 ROSC BZ I        2144 48.40        35.3 0.50            117            253 211 
 GUY2CHZ EP       2144 16.23                             112   -0.13 7  302 235 
 GUY2CHE ES   4   2144 53.70                             112    3.20 0  302 235 
 GUY2CHZ I        2144 58.84        14.9 0.28                           302 235 
 VIL  EZ EP       2144 15.84                             112   -0.30 7  304 192 
 VIL  EE ES       2144 49.39                             112   -0.72 7  304 192 
 VIL  EZ I        2145  0.52        18.5 0.62            113            304 192 
 DBB  EZ EP       2144 20.01                             110   -0.19 7  340 274 
 DBB  EN ES       2144 56.91                             110   -0.43 7  340 274 
 DBB  EZ I        2144 57.73         7.8 0.19            111            340 274 
 PRA  HZ EP       2144 25.95                             107   -0.29 6  393 210 
 PRA  HE ES       2145  9.44                             107    1.34 6  393 210 
 PRA  HZ I        2145 13.91        21.7 0.32            107            393 210 
 ORTC HZ EP       2144 26.39                             106   -0.26 6  396 216 
 ORTC HE ES       2145  9.49                             106    0.68 6  396 216 
 ORTC HZ I        2145 15.85        12.7 0.42            107            396 216 
 SJC  HZ EP   9   2144 26.78                             106   -1.42 0  409 327 
 SJC  HE ES       2145  9.93                                   -0.23 6  409 327 
 SJC  HZ I        2145 15.79         4.8 0.36            107            409 327 
 CRJC HE ES   4   2145 20.63                             103   -3.18 0  467   3 
 CRJC HZ I        2145 25.70         8.3 0.23            105            467   3 
                                                                                
