 2010 1213 2015 25.7 L   6.823 -73.180140.4  RSN  6 0.3 1.6LRSN                1
 GAP=155        0.62       3.3     6.0  8.0 -0.5213E+01  0.2118E+02 -0.6855E+01E
 Epicentro: ZAPATOCA - SANTANDER                                               3
 ACTION:UP  11-01-14 15:24 OP:pat  STATUS:               ID:20101213201525 L   I
 2010-12-13-2011-04S.COL___136                                                 6
 STAT SP IPHASW D HRMM SECON CODA AMPLIT PERI AZIMU VELO SNR AR TRES W  DIS CAZ7
 BAR2 SZ EP   2   2015 44.22                             169    -0.5 5   26 181 
 BAR2 SZ ES   2   2016  0.08                             169     0.5 5   26 181 
 BAR2 SZ I        2016  1.42        10.2 0.27                            26 181 
 RUS  HZ EP   1   2015 48.97                             142    -0.2 8  103 174 
 RUS  HZ I        2015 50.19         4.6 0.12                           103 174 
 RUS  HE ES   1   2016  7.20                             142    -0.2 8  103 174 
 GRA  SZ IP       2015 50.51                             136     0.210  125  19 
 GRA  SZ ES   1   2016  9.57                             136     0.0 7  125  19 
 GRA  SZ I        2016 11.34         8.6 0.52                           125  19 
 NOR  SZ EP   2   2016  1.11                             117     0.2 4  233 234 
 NOR  SN ES   2   2016 28.83                             117     0.4 4  233 234 
 NOR  SZ I        2016 39.00         0.8 0.62                           233 234 
 CHI  HZ EP   2   2016  3.84                             116     0.6 4  250 194 
 CHI  HZ I        2016 39.58         4.6 0.72                           250 194 
 MON  HN ES   1   2016 51.18                             108    -0.4 5  348 308 
 MON  HZ I        2017  4.81         1.5 0.23                           348 308 
                                                                                
