 2015  113 2325 17.3 L   6.817 -73.184136.5  RSN 15 0.5 2.0LRSN                1
 GAP=131        1.20       3.0     4.3  6.2 -0.1519E+01  0.9099E+01  0.7413E+00E
 Epicentro: ZAPATOCA - SANTANDER                                               3
 ACTION:UPD 15-03-02 15:39 OP:nd   STATUS:               ID:20150113232517 L   I
 OLDACT:UP  15-01-14 06:42 OP:nlst STATUS:               ID:20150113232517 L   3
 OLDACT:REG 15-01-14 04:06 OP:fm   STATUS:               ID:20150113231745     3
 2015-01-13-2317-45M.COL___256                                                 6
 STAT SP IPHASW D HRMM SECON CODA AMPLIT PERI AZIMU VELO AIN AR TRES W  DIS CAZ7
 BAR2 EZ EP       2325 35.78                             169   -0.0410 24.9 180 
 BAR2 EZ ES       2325 49.81                             169   -0.4810 24.9 180 
 BAR2 EZ I        2325 51.74        25.2 0.32            168           24.9 180 
 BRR  HZ EP     C 2325 37.67                             152    0.5210 66.6 299 
 BRR  HN ES       2325 53.35                             152    0.6810 66.6 299 
 BRR  HZ I        2325 55.17        17.7 0.10            143           66.6 299 
 PAM  SZ EP       2325 38.77                             149    0.1810 78.7  43 
 PAM  SE ES       2325 55.54                             149    0.3210 78.7  43 
 PAM  SZ I        2325 57.40        10.3 0.16            146           78.7  43 
 RUS  HZ EP       2325 39.96                             141   -0.3310  103 174 
 RUS  HN ES       2325 58.64                             141    0.3910  103 174 
 RUS  HZ I        2326  0.05        12.8 0.22            139            103 174 
 PTB  HZ EP       2325 42.62                             131   -0.53 9  144 258 
 PTB  HE ES       2326  3.19                             131   -0.14 9  144 258 
 PTB  HZ I        2326  9.28        14.2 0.32            123            144 258 
 OCA  HN ES       2326  5.37                             128   -0.63 9  158 355 
 SPBC HN ES       2326  5.92                             127   -0.65 9  162 217 
 SPBC HZ I        2326  9.61        14.1 0.24            122            162 217 
 ZAR  HZ EP       2325 49.52                             121    0.88 9  199 292 
 ZAR  HE ES       2326 13.45                             121    0.34 9  199 292 
 ZAR  HZ I        2326 20.94        11.7 0.28            114            199 292 
 NOR  HZ EP       2325 52.51                             117    0.28 8  232 233 
 NOR  HE ES       2326 18.88                             117   -0.61 8  232 233 
 NOR  HZ I        2326 25.80         7.7 0.18            112            232 233 
 SML  HZ EP       2325 51.90                             116   -1.11 8  240 336 
 SML  HE ES       2326 20.73                             116   -0.15 8  240 336 
 SML  HZ I        2326 25.75        15.7 0.26            110            240 336 
 CHI  HZ EP       2325 54.49                             115   -0.06 8  249 194 
 CHI  HN ES       2326 23.49                             115   -0.15 8  249 194 
 CHI  HZ I        2326 27.28         2.2 0.28            111            249 194 
 HEL  HE ES       2326 27.09                             113   -0.22 8  268 255 
 HEL  HZ I        2326 34.38         7.1 0.48            108            268 255 
 URE  HZ EP       2325 57.76                             112    0.38 7  279 292 
 URE  HZ I        2326 39.60         4.9 0.16            107            279 292 
 TOL  SZ EP       2326  5.77                             108    0.79 7  342 224 
 TOL  SE ES       2326 42.77                             108    0.57 7  342 224 
 TOL  SZ I        2326 50.01         7.3 0.28            104            342 224 
 MON  HZ EP   4   2326  1.06                             107   -4.34 0  349 309 
 MON  HN ES   4   2326 40.69                             107   -2.25 0  349 309 
 MON  HZ I        2326 56.70         2.7 0.42            103            349 309 
                                                                                
