 2012  913 2011 34.3 L   6.750 -73.117135.0  RSN  6 0.2 1.9LRSN                1
 GAP=142        0.33       4.5     5.0  7.0 -0.4906E+01  0.1872E+02  0.6027E+01E
 Epicentro: LOS SANTOS - SANTANDER                                             3
 ACTION:UPD 12-10-22 14:18 OP:ep   STATUS:               ID:20120913201134 L   I
 2012-09-13-2010-00M.COL___227                                                 6
 STAT SP IPHASW D HRMM SECON CODA AMPLIT PERI AZIMU VELO AIN AR TRES W  DIS CAZ7
 BAR2 SZ EP       2011 52.60                             171    0.0310 18.9 202 
 BAR2 SZ ES   3   2012  7.11                             171    0.31 2 18.9 202 
 BAR2 SZ I        2012  8.77        10.8 0.20                          18.9 202 
 GIR2 SZ ES   3   2012  7.11                             164   -0.29 2 37.3 347 
 BRR  HZ EP       2011 54.72                             148    0.0710 76.6 301 
 BRR  HE ES   3   2012 10.91                             148    0.40 2 76.6 301 
 BRR  HE I        2012 15.59        32.6 0.20                          76.6 301 
 PAM  SZ EP   3   2011 55.29                             148   -0.27 2 79.8  35 
 PAM  SN ES   1   2012 12.00                             148   -0.12 7 79.8  35 
 RUS  HE ES   3   2012 13.89                             143   -0.10 2 94.9 178 
 PTB  HN ES   3   2012 20.51                             129   -0.65 2  150 261 
                                                                                
