 2017  713 2030 51.1 L   6.813 -73.129143.1  RSN  7 0.3 1.5LRSN                1
 GAP=138        0.81       4.0     3.5  5.9 -0.2761E+01  0.7339E+01 -0.3901E+00E
 Epicentro: LOS SANTOS - SANTANDER                                             3
 ACTION:UPD 17-08-30 15:32 OP:rebc STATUS:               ID:20170713203051 L   I
 OLDACT:UP  17-07-14 02:54 OP:dhb  STATUS:               ID:20170713202741     3
 OLDACT:REG 17-07-14 01:56 OP:dhb  STATUS:               ID:20170713202741     3
 2017-07-13-2028-00M.COL___383                                                 6
 STAT SP IPHASW D HRMM SECON CODA AMPLIT PERI AZIMU VELO AIN AR TRES W  DIS CAZ7
 BAR2 EZ EP       2031 10.52                             170    0.0510 25.1 193 
 BAR2 EZ ES       2031 25.20                             170   -0.3610 25.1 193 
 BAR2 EZ I        2031 26.69         7.2 0.19            172           25.1 193 
 PAM  EZ IP     C 2031 12.89                             151   -0.0310 75.1  39 
 PAM  EE ES       2031 30.25                             151    0.3210 75.1  39 
 PAM  EZ I        2031 32.04         6.0 0.16            151           75.1  39 
 RUS  HZ EP       2031 14.63                             143   -0.0810  102 177 
 RUS  HN ES       2031 33.24                             143    0.1310  102 177 
 PTB  HZ EP       2031 17.32                             131   -0.74 9  150 258 
 PTB  HN ES       2031 39.30                             131    0.23 9  150 258 
 PTB  HZ I        2031 41.82         3.3 0.19            131            150 258 
 ZAR  HE ES       2031 48.79                             122    0.01 9  205 292 
 ZAR  HZ I        2031 54.43         5.9 0.17            122            205 292 
 NOR  HZ EP       2031 27.55                             118    0.60 8  237 234 
 NOR  HN ES       2031 54.92                             118    0.03 8  237 234 
 GUY2CHZ EP   9   2031 36.52                             112    1.65 0  303 235 
 GUY2CHN ES       2032 10.87                             112    0.23 7  303 235 
 GUY2CHZ I        2032 16.72         1.4 0.36                           303 235 
                                                                                
