 2017  413 2355 57.5 L   6.757 -73.157151.6  RSN  6 0.5 1.8LRSN                1
 GAP=137        1.22       5.2     5.4  9.0 -0.1322E+01  0.9378E+01  0.1979E+01E
 Epicentro: LOS SANTOS - SANTANDER                                             3
 ACTION:UPD 17-05-30 21:11 OP:jn   STATUS:               ID:20170413235557 L   I
 OLDACT:REG 17-04-14 02:46 OP:ar   STATUS:               ID:20170413234714     3
 2017-04-13-2348-00M.COL___365                                                 6
 STAT SP IPHASW D HRMM SECON CODA AMPLIT PERI AZIMU VELO AIN AR TRES W  DIS CAZ7
 BRR  HZ EP       2356 19.70                             153    0.3210 72.5 302 
 BRR  HE ES       2356 37.31                             153    0.8810 72.5 302 
 BRR  HZ I        2356 39.79         8.2 0.12            151           72.5 302 
 PAM  EZ EP       2356 20.77                             150    0.1410 81.8  38 
 PAM  EE ES       2356 38.24                             150   -0.4110 81.8  38 
 PAM  EZ I        2356 40.26         7.0 0.30            153           81.8  38 
 RUS  HZ EP       2356 21.62                             146    0.0810 96.0 175 
 RUS  HE ES       2356 39.77                             146   -0.5010 96.0 175 
 RUS  HZ I        2356 40.81        10.4 0.32            150           96.0 175 
 PTB  HZ EP       2356 24.48                             134   -0.32 9  146 261 
 PTB  HE ES       2356 45.29                             134   -0.78 9  146 261 
 PTB  HZ I        2356 49.25         7.2 0.14            134            146 261 
 SPBC HZ EP       2356 26.53                             131    0.46 9  159 220 
 SPBC HE ES       2356 48.86                             131    0.53 9  159 220 
 SPBC HZ I        2356 52.38         6.9 0.12            132            159 220 
 ZAR  HZ EP       2356 30.05                             123   -0.38 9  205 293 
 ZAR  HE ES       2356 55.95                             123   -0.15 9  205 293 
 ZAR  HZ I        2357  4.24         7.4 0.44            124            205 293 
                                                                                
