 2012  913 2337 17.1 L   6.752 -73.120146.3  RSN  8 0.3 2.1LRSN                1
 GAP=142        0.47       3.0     4.1  3.9 -0.8457E+00 -0.1552E+00  0.6918E+00E
 Epicentro: LOS SANTOS - SANTANDER                                             3
 ACTION:UPD 12-10-22 14:18 OP:ep   STATUS:               ID:20120913233717 L   I
 2012-09-13-2330-00M.COL___227                                                 6
 STAT SP IPHASW D HRMM SECON CODA AMPLIT PERI AZIMU VELO AIN AR TRES W  DIS CAZ7
 BAR2 SZ EP       2337 36.85                             172    0.1010 19.0 201 
 BAR2 SZ ES   1   2337 51.96                             172   -0.08 7 19.0 201 
 BAR2 SZ I        2337 53.37        56.4 0.18                          19.0 201 
 GIR2 SZ EP       2337 36.86                             165   -0.1810 37.0 347 
 GIR2 SZ ES   1   2337 52.37                             165   -0.19 7 37.0 347 
 BRR  HZ EP       2337 38.68                             151    0.0410 76.3 301 
 BRR  HZ I        2337 38.93        21.7 0.32                          76.3 301 
 BRR  HN ES   1   2337 55.92                             151    0.51 7 76.3 301 
 PAM  SZ EP       2337 39.57                             150    0.0210 79.8  36 
 PAM  SZ I        2337 39.97        23.6 0.22                          79.8  36 
 PAM  SN ES   1   2337 56.86                             150   -0.18 7 79.8  36 
 RUS  HZ EP   2   2337 40.82                             145    0.27 5 95.1 178 
 RUS  HN ES   1   2337 58.82                             145    0.01 7 95.1 178 
 RUS  HZ I        2338  0.71        16.2 0.30                          95.1 178 
 PTB  HN ES   3   2338  4.42                             131   -1.10 2  150 261 
 ZAR  HE ES   3   2338 15.02                             122   -0.79 2  209 293 
 CHI  HZ EP   2   2337 54.34                             118   -0.05 4  244 196 
 CHI  HZ I        2337 57.65         3.8 0.20                           244 196 
 CHI  HE ES   3   2338 23.69                             118    0.24 2  244 196 
                                                                                
