 2010  113 2029  5.5 L   6.797 -73.195137.2  RSN  6 0.2 1.9LRSN                1
 GAP=178        0.36       1.9     5.1  4.9  0.2769E+01  0.1362E+02 -0.8948E+00E
 Epicentro: ZAPATOCA - SANTANDER                                               3
 ACTION:UP  10-08-24 09:44 OP:vdl  STATUS:               ID:20100113202905 L   I
 2010-01-13-2020-00S.COL___095                                                 6
 STAT SP IPHASW D HRMM SECON CODA AMPLIT PERI AZIMU VELO SNR AR TRES W  DIS CAZ7
 BAR2 SZ EP   1   2029 24.17                             170     0.1 7   23 177 
 BAR2 SZ ES   2   2029 38.87                             170     0.3 5   23 177 
 RUS  BZ EP   1   2029 28.43                             142     0.0 7  101 173 
 RUS  BN ES   1   2029 46.11                             142    -0.2 7  101 173 
 RUS  BZ I        2029 48.10        16.9 0.55                           101 173 
 OCA  SZ EP   1   2029 33.32                             127     0.2 7  160 355 
 OCA  SZ ES   1   2029 54.61                             127    -0.1 7  160 355 
 CHI  HZ EP   3   2029 42.15                             115    -0.4 2  247 194 
 CHI  HZ I        2030 19.86         5.3 0.43                           247 194 
 MON  HZ EP   1   2029 53.75                             107     0.1 5  349 309 
 MON  HN ES   1   2030 31.03                             107    -0.2 5  349 309 
 PRA  HZ EP   2   2029 58.36                             105     0.0 3  389 209 
 PRA  HE ES   2   2030 40.09                             105     0.4 3  389 209 
                                                                                
