 2017 1113 2345 15.0 L   6.647 -74.077  9.5  RSN  9 0.4 1.6LRSN                1
 GAP= 81        0.92       2.1     1.9  5.0 -0.1330E+01 -0.3049E+01  0.7669E+00E
 Epicentro: PUERTO PARRA - SANTANDER                                           3
 ACTION:UPD 17-12-12 19:55 OP:rebc STATUS:               ID:20171113234515 L   I
 OLDACT:UP  17-11-14 06:17 OP:mg   STATUS:               ID:20171113233741     3
 OLDACT:REG 17-11-14 03:37 OP:mg   STATUS:               ID:20171113233741     3
 2017-11-13-2338-00M.COL___438                                                 6
 STAT SP IPHASW D HRMM SECON CODA AMPLIT PERI AZIMU VELO AIN AR TRES W  DIS CAZ7
 PTB  HZ IP     D 2345 22.39                              98    0.0810 43.6 254 
 PTB  HN ES       2345 28.59                              98    0.6010 43.6 254 
 PTB  HZ I        2345 28.62        21.8 0.18            117           43.6 254 
 BRR  HZ IP     D 2345 25.45                              95   -0.0410 64.9  38 
 BRR  HN ES       2345 33.73                              95    0.0810 64.9  38 
 BRR  HZ I        2345 34.43        32.9 0.12            105           64.9  38 
 BAR2 EZ EP       2345 30.85                              94   -0.0610 99.1  93 
 BAR2 EZ I        2345 49.19         9.5 0.15             99           99.1  93 
 SPBC HZ EP   2   2345 32.70                              93    0.29 5  110 180 
 SPBC HN ES   2   2345 46.26                              93    0.29 5  110 180 
 SPBC HZ I        2345 49.66        14.1 0.10             56            110 180 
 ZAR  HZ EP   1   2345 34.92                              93   -0.01 7  127 317 
 ZAR  HN ES       2345 50.12                              93   -0.3210  127 317 
 ZAR  HZ I        2345 52.09        16.0 0.20             56            127 317 
 RUS  HZ EP       2345 37.21                              93    0.14 9  138 127 
 RUS  HN ES   2   2345 54.46                              93    0.21 5  138 127 
 RUS  HZ I        2345 57.44        15.4 0.22             56            138 127 
 NOR  HZ EP   2   2345 38.28                              92    0.08 5  149 216 
 NOR  HN ES       2345 55.22                              92   -1.05 9  149 216 
 NOR  HZ I        2345 56.44         6.7 0.18             56            149 216 
 PAM  EZ EP       2345 41.97                              56    0.27 9  170  63 
 PAM  EE ES       2346  2.17                              56   -0.32 9  170  63 
 PAM  EZ I        2346  5.39        14.3 0.30             56            170  63 
 GUY2CHZ EP   2   2345 48.19                              56    1.25 4  212 222 
 GUY2CHN ES   1   2346 11.96                              56    0.14 6  212 222 
 GUY2CHZ I        2346 16.20         4.9 0.34                           212 222 
                                                                                
