 2016 1113 2218 39.6 L   6.413 -73.527127.1  RSN  6 0.5 1.5LRSN                1
 GAP=175        1.37       7.4     5.4  9.9 -0.1574E+02  0.8205E+01  0.1071E+02E
 Epicentro: SANTA HELENA DEL OPON - SANTANDER                                  3
 ACTION:UPD 17-10-26 21:07 OP:lp   STATUS:               ID:20161113221839 L   I
 OLDACT:REG 16-11-14 03:19 OP:cog  STATUS:               ID:20161113221744     3
 2016-11-13-2218-00M.COL___343                                                 6
 STAT SP IPHASW D HRMM SECON CODA AMPLIT PERI AZIMU VELO AIN AR TRES W  DIS CAZ7
 BAR2 EZ EP       2218 57.78                             160    0.1910 42.9  62 
 BAR2 EZ ES       2219 12.19                             160    0.5410 42.9  62 
 BAR2 EZ I        2219 12.60        19.7 0.42            162           42.9  62 
 BRR  HZ EP       2218 59.85                             146    0.5710 79.4 345 
 BRR  HN ES       2219 14.59                             146   -0.0610 79.4 345 
 PTB  HZ EP       2219  1.89                             138    0.7610  104 278 
 PTB  HE ES       2219 16.96                             138   -0.9910  104 278 
 PTB  HZ I        2219 18.18         6.8 0.18            137            104 278 
 PAM  EZ EP       2219  4.36                             130   -0.36 9  137  42 
 PAM  EE ES       2219 23.68                             130   -0.66 9  137  42 
 PAM  EZ I        2219 24.88         2.7 0.30            131            137  42 
 NOR  HZ EP       2219  7.29                             122   -0.66 9  176 238 
 NOR  HN ES       2219 30.25                             122    0.17 9  176 238 
 NOR  HZ I        2219 34.77         3.1 0.11            122            176 238 
 ZAR  HZ EP       2219  9.34                             120    0.03 9  189 309 
 ZAR  HE ES       2219 32.86                             120    0.35 9  189 309 
 ZAR  HZ I        2219 37.20         3.1 0.28            120            189 309 
                                                                                
