 2016  913 2139 14.9 L   6.823 -73.149152.7  RSN 17 0.4 2.4LRSN                1
 GAP= 70        1.01       3.2     2.9  4.7 -0.1249E+01  0.1501E+01 -0.6206E+00E
 Epicentro: LOS SANTOS - SANTANDER                                             3
 ACTION:UPD 17-08-17 21:09 OP:lp   STATUS:               ID:20160913213914 L   I
 OLDACT:UP  16-09-14 07:15 OP:dani STATUS:               ID:20160913213740     3
 OLDACT:UP  16-09-14 07:15 OP:dani STATUS:               ID:20160913213740     3
 OLDACT:REG 16-09-14 05:54 OP:dani STATUS:               ID:20160913213740     3
 2016-09-13-2138-00M.COL___318                                                 6
 STAT SP IPHASW D HRMM SECON CODA AMPLIT PERI AZIMU VELO AIN AR TRES W  DIS CAZ7
 BAR2 EZ EP       2139 35.41                             170   -0.0310 25.8 188 
 BAR2 EZ ES       2139 50.75                             170   -0.7010 25.8 188 
 BAR2 EZ I        2139 52.04        77.1 0.20            171           25.8 188 
 BRR  HZ EP       2139 37.09                             154    0.3410 69.7 297 
 BRR  HN ES       2139 54.38                             154    0.6110 69.7 297 
 BRR  HZ I        2139 58.54        39.4 0.18            150           69.7 297 
 PAM  EZ EP       2139 38.19                             152    0.4010 75.7  41 
 PAM  EE ES       2139 55.45                             152   -0.1710 75.7  41 
 PAM  EZ I        2139 58.68        20.3 0.48            153           75.7  41 
 RUS  HZ EP       2139 39.39                             144   -0.1610  103 176 
 RUS  HN ES       2139 58.18                             144   -0.5710  103 176 
 RUS  HZ I        2139 59.64        18.9 0.34            147            103 176 
 PTB  HZ EP       2139 42.17                             133   -0.31 9  148 258 
 PTB  HE ES       2140  4.00                             133    0.02 9  148 258 
 PTB  HZ I        2140  9.84        25.8 0.34            132            148 258 
 TAM  HZ EP       2139 43.83                             132    0.57 9  156 106 
 TAM  HE ES       2140  5.55                             132    0.19 9  156 106 
 TAM  HZ I        2140  7.20        11.7 0.26            135            156 106 
 SPBC HZ EP       2139 44.38                             130    0.25 9  165 218 
 SPBC HN ES       2140  7.24                             130    0.33 9  165 218 
 SPBC HZ I        2140 11.26        41.5 0.22            130            165 218 
 ZAR  HZ EP   4   2139 49.81                             124    2.10 0  203 292 
 ZAR  HE ES       2140 13.57                             124    0.30 9  203 292 
 ZAR  HZ I        2140 18.60        32.3 0.41            123            203 292 
 NOR  HZ EP       2139 50.90                             120   -0.30 8  236 234 
 NOR  HE ES       2140 19.46                             120   -0.02 8  236 234 
 NOR  HZ I        2140 28.76        12.9 0.12            120            236 234 
 CHI  HZ EP       2139 53.67                             118    0.40 8  251 195 
 CHI  HN ES       2140 23.08                             118   -0.10 8  251 195 
 CHI  HZ I        2140 26.40        16.1 0.64            119            251 195 
 ROSC BZ EP   4   2139 55.59                             118    1.94 0  255 211 
 HEL  HZ EP   4   2139 57.08                             116    1.55 0  272 255 
 HEL  HN ES   4   2140 26.04                             116   -1.17 0  272 255 
 HEL  HZ I        2140 33.50        12.4 0.30            116            272 255 
 URE  HZ EP       2139 55.33                             115   -0.87 7  283 291 
 URE  HN ES   4   2140 26.09                             115   -2.31 0  283 291 
 URE  HZ I        2140 39.42        14.3 0.16            114            283 291 
 SOCV BZ EP       2139 58.15                             113   -0.03 7  300  57 
 GUY2CHZ EP       2139 59.54                             113    0.54 7  302 234 
 GUY2CHN ES   4   2140 38.00                             113    4.63 0  302 234 
 GUY2CHZ I        2140 41.66        15.5 0.33                           302 234 
 LL6C HZ EP       2139 59.95                             112   -0.69 7  322 358 
 LL6C HE ES   2   2140 36.74                             112    0.44 3  322 358 
 LL6C HZ I        2140 41.29         7.6 0.37            112            322 358 
 SJC  HZ EP       2140  9.56                             107   -0.89 6  407 327 
 SJC  HN ES   4   2140 50.74                             107   -3.02 0  407 327 
 SJC  HZ I        2141  3.03         4.0 0.28            107            407 327 
 CRJC HZ EP   4   2140 15.76                             104   -1.57 0  465   4 
 CRJC HE ES   4   2141  0.74                             104   -5.27 0  465   4 
 CRJC HZ I        2141 14.06         7.4 0.35            105            465   4 
                                                                                
