 2017  113 2128  8.0 L   6.904 -73.073121.3  RSN  4 0.3 1.3LRSN                1
 GAP=140        0.85       4.7     5.1 11.3  0.5804E+01  0.3585E+02  0.1608E+02E
 Epicentro: PIEDECUESTA - SANTANDER                                            3
 ACTION:UPD 17-05-22 15:59 OP:jn   STATUS:               ID:20170113212808 L   I
 OLDACT:REG 17-01-14 05:06 OP:lv   STATUS:               ID:20170113211745     3
 2017-01-13-2118-00M.COL___331                                                 6
 STAT SP IPHASW D HRMM SECON CODA AMPLIT PERI AZIMU VELO AIN AR TRES W  DIS CAZ7
 PAM  EZ EP   4   2128 29.17                             151    2.35 0 63.4  41 
 PAM  EE ES       2128 41.37                             151   -0.0910 63.4  41 
 RUS  HZ EP       2128 30.18                             135   -0.2410  112 181 
 RUS  HN ES       2128 48.25                             135    0.3610  112 181 
 RUS  HZ I        2128 49.82         2.4 0.31            137            112 181 
 PTB  HZ EP       2128 34.26                             124    0.08 9  158 255 
 PTB  HN ES       2128 54.04                             124   -0.53 9  158 255 
 PTB  HZ I        2128 57.22         2.1 0.09            125            158 255 
 ZAR  HN ES       2129  4.38                             116    0.50 8  208 288 
 ZAR  HZ I        2129  9.71         3.7 0.11            117            208 288 
                                                                                
