 2010  513 2122  5.7 L   6.472 -73.576 96.4  RSN  5 0.2 1.9LRSN                1
 GAP= 86        0.61       4.8     5.2  8.7  0.1493E+02  0.2923E+02  0.2699E+02E
 Epicentro: SANTA HELENA DEL OPON - SANTANDER                                  3
 ACTION:UP  10-08-24 10:04 OP:vdl  STATUS:               ID:20100513212205 L   I
 2010-05-13-2120-00S.COL___101                                                 6
 STAT SP IPHASW D HRMM SECON CODA AMPLIT PERI AZIMU VELO AIN AR TRES W  DIS CAZ7
 BAR2 SZ IP       2122 20.34                             153     0.010   45  73 
 BAR2 SZ ES   1   2122 32.18                             153     0.3 7   45  73 
 BRR  HZ EP       2122 22.03                             140     0.210   72 348 
 BRR  HE ES       2122 34.18                             140    -0.310   72 348 
 BRR  HZ I        2122 36.82        45.5 0.11                            72 348 
 RUS  HZ IP     D 2122 23.27                             136    -0.310   84 140 
 RUS  HE ES   2   2122 37.58                             136     0.1 5   84 140 
 RUS  HZ I        2122 41.66        13.2 0.21                            84 140 
 CHI  HN ES   3   2122 59.46                             111    -0.2 2  204 185 
 CHI  HZ I        2123  6.29         3.5 0.29                           204 185 
 HEL  HZ EP   1   2122 37.94                             109     0.4 6  218 262 
 HEL  HE ES   2   2123  2.39                             109    -0.1 4  218 262 
 HEL  HZ I        2123  7.35        10.4 0.25                           218 262 
                                                                                
