 2013  813 2058 32.0 L   6.813 -73.146142.9  RSN 18 0.4 2.6LRSN 3.0WRSN        1
 SPEC AVERAGE  MO 13.6 ST 18.8 OM  2.2 f0 5.74 R0.4042 AL 0.00 WI  8.1 MW  3.0 3
 SPEC SD       MO  0.3 ST 25.3 OM  0.5 f0 3.39 R0.2513 AL      WI      MW  0.2 3
 GAP= 65        0.99       2.4     2.6  4.7  0.1660E+00  0.2491E+01  0.1078E+01E
 Epicentro: LOS SANTOS - SANTANDER                                             3
 SPEC ZAR HH N MO 13.5 ST 36.2 OM  1.7 f0 10.0 R0.1554 AL 0.00 WI  4.9 MW  2.9 3
 SPEC ZAR HH N T205929 K 0.000 GD  248 VS 4.20 DE 3.20 Q0300.0 QA 0.60 VS 4.20 3
 SPEC SML HH N MO 13.4 ST0.942 OM  1.6 f0 3.07 R0.5062 AL 0.00 WI  7.7 MW  2.9 3
 SPEC SML HH N T205936 K 0.000 GD  281 VS 4.20 DE 3.20 Q0300.0 QA 0.60 VS 4.20 3
 SPEC SPBCHH N MO 13.5 ST 40.0 OM  1.8 f0 10.0 R0.1554 AL 0.00 WI  6.4 MW  3.0 3
 SPEC SPBCHH N T205922 K 0.000 GD  217 VS 4.20 DE 3.20 Q0300.0 QA 0.60 VS 4.20 3
 SPEC RUS HH N MO 13.6 ST0.808 OM  2.0 f0 2.51 R0.6191 AL 0.00 WI  6.5 MW  3.0 3
 SPEC RUS HH N T205913 K 0.000 GD  175 VS 4.20 DE 3.20 Q0300.0 QA 0.60 VS 4.20 3
 SPEC HEL HH N MO 13.5 ST  2.0 OM  1.6 f0 3.80 R0.4089 AL 0.00 WI  9.1 MW  2.9 3
 SPEC HEL HH N T205943 K 0.000 GD  307 VS 4.20 DE 3.20 Q0300.0 QA 0.60 VS 4.20 3
 SPEC NOR HH N MO 13.6 ST 50.5 OM  1.8 f0 10.0 R0.1554 AL 0.00 WI 13.2 MW  3.0 3
 SPEC NOR HH N T205934 K 0.000 GD  275 VS 4.20 DE 3.20 Q0300.0 QA 0.60 VS 4.20 3
 SPEC OCA HH N MO 13.9 ST 84.0 OM  2.2 f0 9.48 R0.1639 AL 0.00 WI  6.5 MW  3.2 3
 SPEC OCA HH N T205921 K 0.000 GD  213 VS 4.20 DE 3.20 Q0300.0 QA 0.60 VS 4.20 3
 SPEC PTB HH Z MO 13.2 ST 18.9 OM  1.5 f0 9.99 R0.1556 AL 0.00 WI  7.7 MW  2.7 3
 SPEC PTB HH Z T205918 K 0.000 GD  205 VS 4.20 DE 3.20 Q0300.0 QA 0.60 VS 4.20 3
 SPEC PAM SH N MO 14.1 ST  1.2 OM  2.5 f0 1.98 R0.7848 AL 0.00 WI  4.9 MW  3.3 3
 SPEC PAM SH N T205910 K 0.000 GD  162 VS 4.20 DE 3.20 Q0300.0 QA 0.60 VS 4.20 3
 SPEC COD HH N MO 13.6 ST  1.2 OM  1.6 f0 2.99 R0.5197 AL 0.00 WI 16.6 MW  3.0 3
 SPEC COD HH N T205956 K 0.000 GD  375 VS 4.20 DE 3.20 Q0300.0 QA 0.60 VS 4.20 3
 SPEC CHI HH N MO 14.1 ST0.597 OM  2.2 f0 1.65 R0.9418 AL 0.00 WI 11.3 MW  3.3 3
 SPEC CHI HH N T205937 K 0.000 GD  287 VS 4.20 DE 3.20 Q0300.0 QA 0.60 VS 4.20 3
 SPEC BRR HH N MO 13.9 ST  5.8 OM  2.3 f0 3.97 R0.3914 AL 0.00 WI  5.9 MW  3.2 3
 SPEC BRR HH N T2059 9 K 0.000 GD  159 VS 4.20 DE 3.20 Q0300.0 QA 0.60 VS 4.20 3
 SPEC BAR2SH Z MO 13.2 ST  2.4 OM  1.6 f0 5.24 R0.2966 AL 0.00 WI  4.8 MW  2.7 3
 SPEC BAR2SH Z T2059 6 K 0.000 GD  145 VS 4.20 DE 3.20 Q0300.0 QA 0.60 VS 4.20 3
 ACTION:UPD 14-01-14 09:02 OP:ep   STATUS:               ID:20130813205832 L   I
 OLDACT:UP  13-08-14 01:50 OP:carl STATUS:               ID:20130813205750     3
 OLDACT:REG 13-08-14 01:36 OP:carl STATUS:               ID:20130813205750     3
 2013-08-13-2057-50M.COL___224                                                 6
 STAT SP IPHASW D HRMM SECON CODA AMPLIT PERI AZIMU VELO AIN AR TRES W  DIS CAZ7
 BAR2 SZ EP       2058 51.44                             170    0.1310 24.7 189 
 BAR2 SZ ES   1   2059  5.76                             170   -0.62 7 24.7 189 
 BAR2 SZ I        2059  7.40        59.2 0.16            170           24.7 189 
 GIR2 SZ EP   1   2058 51.45                             168    0.16 7 29.9 350 
 GIR2 SZ ES   1   2059  6.17                             168   -0.17 7 29.9 350 
 GIR2 SZ I        2059  8.20        71.8 0.44            166           29.9 350 
 BRR  HZ EP       2058 53.51                             152    0.7210 70.5 298 
 BRR  HN ES       2059 10.11                             152    1.0910 70.5 298 
 BRR  HZ I        2059 13.98        47.4 0.46            150           70.5 298 
 PAM  SZ IP     D 2058 54.28                             151    0.4310 76.4  40 
 PAM  SN ES   1   2059 11.11                             151    0.22 7 76.4  40 
 PAM  SZ I        2059 13.26       151.7 0.48            153           76.4  40 
 RUS  HZ IP     C 2058 55.33                             143   -0.2410  102 176 
 RUS  HN ES       2059 13.66                             143   -0.3010  102 176 
 RUS  HZ I        2059 15.04        54.1 0.30            145            102 176 
 PTB  HZ EP       2058 58.43                             131   -0.32 9  148 258 
 PTB  HE ES       2059 18.99                             131   -0.63 9  148 258 
 PTB  HZ I        2059 22.39        47.3 0.16            131            148 258 
 TAM  HZ EP   1   2058 59.71                             130    0.22 7  156 105 
 TAM  HN ES       2059 21.04                             130    0.11 9  156 105 
 TAM  HN I        2059 21.83        76.8 0.30            133            156 105 
 OCA  HZ EP   1   2058 59.57                             129   -0.38 7  159 353 
 OCA  HN ES       2059 21.34                             129   -0.42 9  159 353 
 OCA  HZ I        2059 26.63        64.8 0.28            130            159 353 
 SPBC HZ EP       2059  0.41                             128    0.04 9  164 219 
 SPBC HN ES   1   2059 22.13                             128   -0.38 7  164 219 
 SPBC HZ I        2059 26.13        58.8 0.22            129            164 219 
 YOP  SZ EP       2059  2.22                             125    0.26 9  180 153 
 YOP  SN ES   1   2059 25.12                             125   -0.21 7  180 153 
 YOP  SZ I        2059 26.53        83.9 0.30            128            180 153 
 ZAR  HZ EP   1   2059  4.46                             122    0.27 6  203 292 
 ZAR  HN ES       2059 29.45                             122    0.14 9  203 292 
 ZAR  HZ I        2059 38.37        39.8 0.52            122            203 292 
 NOR  HZ EP       2059  8.08                             118    0.44 8  235 234 
 NOR  HN ES       2059 35.46                             118    0.02 8  235 234 
 NOR  HZ I        2059 37.27        27.4 0.54            118            235 234 
 SML  HZ EP       2059  7.60                             117   -0.72 8  242 335 
 SML  HN ES       2059 36.15                             117   -0.50 8  242 335 
 SML  HZ I        2059 39.46        38.9 0.10            118            242 335 
 CHI  HZ EP       2059  9.54                             116   -0.14 8  250 195 
 CHI  HN ES   1   2059 38.43                             116   -0.65 6  250 195 
 CHI  HZ I        2059 43.17        13.8 0.44            118            250 195 
 HEL  HZ EP   2   2059 12.46                             114    0.37 4  272 256 
 HEL  HN ES       2059 43.38                             114    0.01 8  272 256 
 HEL  HZ I        2059 51.71        18.9 0.68            115            272 256 
 CBOC HZ EP       2059 19.67                             109    0.84 7  334 252 
 CBOC HE ES       2059 55.29                             109   -0.08 7  334 252 
 CBOC HE I        2059 59.81        24.0 0.36            110            334 252 
 COD  HZ EP   1   2059 19.21                             108   -0.89 5  347 355 
 COD  HN ES   1   2059 57.49                             108   -0.13 5  347 355 
 COD  HN I        21 0  4.91         8.4 0.32            109            347 355 
 PRA  HZ EP   1   2059 25.11                             106   -0.44 4  393 209 
 PRA  HN ES   1   21 0  7.82                             106    0.49 4  393 209 
 PRA  HZ I        21 0 14.05        15.5 0.68            107            393 209 
 SJC  HZ EP   4   2059 25.71                             105   -1.61 0  408 327 
 SJC  HN ES   4   21 0  7.12                             105   -3.35 0  408 327 
                                                                                
