 2013  713 2355 39.0 L   6.832 -73.305123.4  RSN 10 0.5 1.7LRSN                1
 GAP=103        0.96       4.0     4.2  7.0 -0.1851E+01  0.1415E+01  0.6421E+01E
 Epicentro: ZAPATOCA - SANTANDER                                               3
 ACTION:UPD 13-08-12 10:37 OP:ep   STATUS:               ID:20130713235539 L   I
 OLDACT:REG 13-07-13 21:23 OP:jn   STATUS:               ID:20130713234959     3
 2013-07-13-2349-59M.COL___267                                                 6
 STAT SP IPHASW D HRMM SECON CODA AMPLIT PERI AZIMU VELO AIN AR TRES W  DIS CAZ7
 BAR2 SZ IP     D 2355 56.30                             166    0.2110 29.8 153 
 BAR2 SZ ES       2356  9.88                             166    0.4410 29.8 153 
 BAR2 SZ I        2356 10.55        29.1 0.30            165           29.8 153 
 GIR2 SZ EP       2355 55.89                             166   -0.0610 29.9  24 
 BRR  HZ EP     D 2355 56.60                             155   -0.1510 54.3 304 
 BRR  HN ES       2356 10.82                             155    0.1910 54.3 304 
 BRR  HZ I        2356 11.96        18.2 0.14            153           54.3 304 
 PAM  SZ EP       2355 59.78                             143    0.2310 87.3  50 
 PAM  SN ES   1   2356 14.74                             143   -0.88 7 87.3  50 
 PAM  SZ I        2356 18.56         8.5 0.26            144           87.3  50 
 RUS  HZ EP       2356  1.18                             137    0.0910  107 167 
 RUS  HN ES   1   2356 17.99                             137   -0.37 7  107 167 
 RUS  HZ I        2356 19.71         5.7 0.22            135            107 167 
 PTB  HZ EP   4   2356  1.47                             130   -1.16 0  131 256 
 PTB  HN ES   1   2356 21.71                             130    0.62 7  131 256 
 SPBC HN ES   1   2356 24.44                             125   -1.03 7  156 213 
 ZAR  HE ES   1   2356 30.47                             120   -0.47 7  186 293 
 ZAR  HZ I        2356 34.72         6.3 0.30            118            186 293 
 NOR  HN ES   1   2356 37.80                             115   -0.28 6  223 231 
 NOR  HZ I        2356 44.11         4.4 0.48            113            223 231 
 CHI  HZ EP   1   2356 16.16                             112    0.70 6  248 191 
 CHI  HN ES   1   2356 43.91                             112   -0.03 6  248 191 
 CHI  HZ I        2356 50.51         2.5 0.32            111            248 191 
                                                                                
