 2016  813 2351  4.9 L   6.895 -73.204157.9  RSN  7 0.5 1.7LRSN                1
 GAP=206        1.18       6.4     7.0  7.7  0.1774E+02  0.3073E+01 -0.8544E+01E
 Epicentro: BETULIA - SANTANDER                                                3
 ACTION:UPD 16-10-29 15:35 OP:rebc STATUS:               ID:20160813235104 L   I
 OLDACT:UP  16-08-14 04:00 OP:edw  STATUS:               ID:20160813234733     3
 OLDACT:UP  16-08-14 03:59 OP:edw  STATUS:               ID:20160813234733     3
 OLDACT:REG 16-08-14 03:01 OP:edw  STATUS:               ID:20160813234733     3
 2016-08-13-2348-00M.COL___377                                                 6
 STAT SP IPHASW D HRMM SECON CODA AMPLIT PERI AZIMU VELO AIN AR TRES W  DIS CAZ7
 BAR2 EZ EP       2351 26.56                             168    0.3810 33.5 176 
 BAR2 EZ ES       2351 42.42                             168   -0.3910 33.5 176 
 BRR  HZ EP       2351 26.90                             158    0.0710 60.9 293 
 BRR  HE ES       2351 44.06                             158    0.1010 60.9 293 
 BRR  HZ I        2351 46.03        12.3 0.10                          60.9 293 
 RUS  HZ EP       2351 30.92                             143    0.3210  112 173 
 RUS  HN ES       2351 50.68                             143    0.0010  112 173 
 RUS  HZ I        2351 51.80         3.4 0.16                           112 173 
 PTB  HZ EP       2351 33.01                             135    0.49 9  144 254 
 PTB  HE ES       2351 54.61                             135    0.52 9  144 254 
 PTB  HZ I        2351 56.85         5.4 0.28                           144 254 
 SPBC HZ EP       2351 34.79                             131    0.06 9  168 215 
 SPBC HN ES       2351 56.98                             131   -1.05 9  168 215 
 SPBC HZ I        2352  2.71         6.4 0.26                           168 215 
 ZAR  HZ EP       2351 37.19                             126    0.03 9  194 290 
 ZAR  HN ES       2352  2.24                             126   -0.11 9  194 290 
 ZAR  HZ I        2352  8.08         7.6 0.32                           194 290 
 SJC  HZ EP       2351 57.96                             108   -1.47 6  397 327 
 SJC  HN ES   4   2352 37.04                             108   -4.94 0  397 327 
                                                                                
