 2010 1113 2059 43.8 L   6.793 -73.100149.3  RSN  8 0.4 1.6LRSN                1
 GAP=164        0.80       4.5     7.9  7.4 -0.2231E+01  0.5126E+01  0.8921E+01E
 Epicentro: LOS SANTOS - SANTANDER                                             3
 ACTION:UP  10-12-17 16:52 OP:REBC STATUS:               ID:20101113205943 L   I
 2010-11-13-2057-35S.COL___129                                                 6
 STAT SP IPHASW D HRMM SECON CODA AMPLIT PERI AZIMU VELO SNR AR TRES W  DIS CAZ7
 BTL  SZ ES   3   21 0 20.12                             171     0.7 2   23 307 
 BAR2 SZ EP       21 0  4.02                             170     0.210   24 203 
 BAR2 SZ ES   1   21 0 19.50                             170     0.0 7   24 203 
 BAR2 SZ I        21 0 20.68        12.9 0.13                            24 203 
 GIR2 SZ ES   2   21 0 18.24                             167    -1.4 5   33 342 
 BRR  HZ EP       21 0  5.68                             151     0.110   76 297 
 BRR  HE ES   1   21 0 22.87                             151     0.3 7   76 297 
 BRR  HZ I        21 0 30.80        11.9 0.47                            76 297 
 RUS  HZ EP       21 0  7.83                             145     0.010  100 179 
 RUS  HE ES   1   21 0 26.77                             145     0.2 7  100 179 
 RUS  HZ I        21 0 28.21         3.4 0.08                           100 179 
 GRA  SZ ES   1   21 0 28.93                             138    -0.2 7  125  15 
 GRA  SZ I        21 0 32.20         3.5 0.39                           125  15 
 NOR  SZ EP   2   21 0 20.05                             119    -0.1 4  239 235 
 NOR  SN ES   2   21 0 47.93                             119    -0.5 4  239 235 
 CHI  HZ EP   2   21 0 21.20                             118    -0.5 4  249 196 
 CHI  HN ES   2   21 0 50.80                             118    -0.5 4  249 196 
 CHI  HZ I        21 0 59.54         2.3 0.34                           249 196 
                                                                                
