 2011 1113 2108 37.9 L   6.798 -73.144138.0  RSN  4 0.1 1.2LRSN                1
 GAP=137        0.37       4.0     3.6  6.1 -0.2795E+01 -0.4419E+01  0.1524E+02E
 Epicentro: LOS SANTOS - SANTANDER                                             3
 ACTION:UPD 12-07-13 16:10 OP:ep   STATUS:               ID:20111113210837 L   I
 2011-11-13-2106-10S.COL___179                                                 6
 STAT SP IPHASW D HRMM SECON CODA AMPLIT PERI AZIMU VELO AIN AR TRES W  DIS CAZ7
 BAR2 SZ EP       21 8 56.42                             170   -0.1810 23.1 191 
 BAR2 SZ I        21 8 56.83         6.6 0.34                          23.1 191 
 BRR  HZ EP       21 8 58.20                             151   -0.0310 71.5 299 
 BRR  HE ES   1   21 9 14.18                             151    0.09 7 71.5 299 
 PAM  SZ EP       21 8 59.37                             149    0.0710 77.4  39 
 PAM  SN ES   1   21 9 15.97                             149   -0.03 7 77.4  39 
 RUS  HZ EP       21 9  0.99                             142    0.1110  100 176 
 RUS  HZ I        21 9 20.45         1.9 0.28                           100 176 
                                                                                
