 2011  813 2027 20.9 L   6.750 -73.066145.4  RSN  4 0.3 2.1LRSN                1
 GAP=149        0.49       5.0     6.6  6.7  0.5017E+01 -0.8964E+01  0.4382E+00E
 Epicentro: LOS SANTOS - SANTANDER                                             3
 ACTION:UPD 12-07-13 15:51 OP:ep   STATUS:               ID:20110813202720 L   I
 2011-08-13-2021-56S.COL___149                                                 6
 STAT SP IPHASW D HRMM SECON CODA AMPLIT PERI AZIMU VELO AIN AR TRES W  DIS CAZ7
 BAR2 SZ EP   1   2027 40.34                             171   -0.13 7 21.7 216 
 BAR2 SZ ES   1   2027 55.34                             171   -0.38 7 21.7 216 
 BAR2 SZ I        2027 56.62        25.9 0.34                          21.7 216 
 PAM  SZ EP   2   2027 43.27                             151    0.22 5 76.7  32 
 PAM  SN ES   2   2028  0.44                             151    0.12 5 76.7  32 
 BRR  HZ EP   2   2027 42.45                             149   -0.20 5 81.6 299 
 BRR  HZ I        2027 45.38        43.2 0.12                          81.6 299 
 BRR  HE ES   1   2027 59.80                             149    0.21 7 81.6 299 
 RUS  HZ EP   2   2027 44.21                             145   -0.02 5 94.8 181 
 RUS  HN ES   2   2028  2.95                             145    0.55 5 94.8 181 
 RUS  HZ I        2028  4.49        12.5 0.28                          94.8 181 
                                                                                
