 2011 1113 2252 28.9 L   6.773 -73.122137.7  RSN  4 0.2 1.4LRSN                1
 GAP=141        0.41       4.7     5.5  5.2 -0.7274E+01  0.4189E+01 -0.6346E+01E
 Epicentro: LOS SANTOS - SANTANDER                                             3
 ACTION:UPD 12-07-13 16:10 OP:ep   STATUS:               ID:20111113225229 L   I
 2011-11-13-2248-50S.COL___179                                                 6
 STAT SP IPHASW D HRMM SECON CODA AMPLIT PERI AZIMU VELO AIN AR TRES W  DIS CAZ7
 BAR2 SZ IP       2252 47.45                             171   -0.0810 21.1 198 
 BAR2 SZ I        2252 47.80         5.6 0.32                          21.1 198 
 BAR2 SZ ES   1   2253  1.95                             171   -0.10 7 21.1 198 
 BRR  HZ EP       2252 49.35                             150   -0.0710 74.9 300 
 BRR  HE ES   3   2253  6.29                             150    0.87 2 74.9 300 
 BRR  HZ I        2253 11.36        14.0 0.42                          74.9 300 
 PAM  SZ EP       2252 50.45                             149    0.1210 78.1  37 
 PAM  SN ES   2   2253  6.79                             149   -0.23 5 78.1  37 
 RUS  HZ EP   2   2252 52.00                             142    0.34 5 97.5 177 
 RUS  HE ES   3   2253  9.53                             142    0.14 2 97.5 177 
 RUS  HZ I        2253 11.05         1.6 0.19                          97.5 177 
                                                                                
