 2012  413 2348 42.8 L   6.691 -73.194139.9  RSN  4 0.3 1.4LRSN                1
 GAP=223        0.54       7.7     6.1  5.9  0.1597E+02  0.1084E+02  0.8434E+01E
 Epicentro: VILLANUEVA - SANTANDER                                             3
 ACTION:UPD 12-07-05 11:53 OP:tino STATUS:               ID:20120413234842 L   I
 2012-04-13-2340-00M.COL___181                                                 6
 STAT SP IPHASW D HRMM SECON CODA AMPLIT PERI AZIMU VELO AIN AR TRES W  DIS CAZ7
 BAR2 SZ EP       2349  1.60                             176     0.110   11 173 
 BAR2 SZ I        2349  1.72         7.3 0.42                            11 173 
 BAR2 SZ ES   1   2349 15.75                             176    -0.4 7   11 173 
 BRR  HZ EP       2349  3.45                             150     0.010   73 309 
 BRR  HZ I        2349  5.50         7.5 0.32                            73 309 
 BRR  HE ES   1   2349 19.79                             150     0.2 7   73 309 
 RUS  HZ EP   3   2349  6.10                             146     0.9 2   89 172 
 RUS  HN ES   3   2349 23.08                             146     0.5 2   89 172 
 RUS  HZ I        2349 25.23         2.6 0.38                            89 172 
 PTB  HZ EP       2349  8.60                             132     0.0 9  141 263 
 PTB  HN ES   2   2349 28.76                             132     0.0 5  141 263 
                                                                                
