 2014  513 2147 39.9 L   6.822 -73.220137.7  RSN  7 0.3 1.6LRSN                1
 GAP=126        0.71       2.4     3.2  5.7  0.1911E+00  0.5273E+01  0.1282E+01E
 Epicentro: ZAPATOCA - SANTANDER                                               3
 ACTION:UPD 15-03-16 16:57 OP:nd   STATUS:               ID:20140513214739 L   I
 OLDACT:UP  14-05-14 04:16 OP:mh   STATUS:               ID:20140513214000     3
 OLDACT:REG 14-05-14 02:58 OP:mh   STATUS:               ID:20140513214000     3
 2014-05-13-2140-00M.COL___276                                                 6
 STAT SP IPHASW D HRMM SECON CODA AMPLIT PERI AZIMU VELO AIN AR TRES W  DIS CAZ7
 PAM  SZ EP       2148  1.81                             148    0.2910 81.2  45 
 PAM  SN ES       2148 18.56                             148    0.1810 81.2  45 
 PAM  HZ I        2148 19.67         6.2 0.18            148           81.2  45 
 PAM  SZ I        2148 20.37         6.3 0.17                          81.2  45 
 RUS  HZ EP       2148  3.01                             141   -0.1210  104 172 
 RUS  HN ES       2148 20.85                             141   -0.3910  104 172 
 RUS  HZ I        2148 22.40         5.3 0.48            139            104 172 
 PTB  HZ EP       2148  5.95                             132    0.41 9  140 257 
 PTB  HN ES       2148 25.72                             132    0.19 9  140 257 
 PTB  HZ I        2148 29.01         8.3 0.18            129            140 257 
 ZAR  HN ES       2148 34.87                             122   -0.30 9  195 292 
 SML  HZ EP       2148 14.88                             116   -0.62 8  238 337 
 SML  HN ES   1   2148 43.28                             116    0.03 6  238 337 
 SML  HZ I        2148 54.99         7.1 0.06            114            238 337 
 CHI  HZ EP       2148 17.11                             115   -0.11 8  249 193 
 CHI  HE ES       2148 46.40                             115    0.09 8  249 193 
 CHI  HZ I        2149  2.55         2.7 1.08            113            249 193 
 PRA  HZ EP   1   2148 33.53                             105    0.58 4  390 208 
 PRA  HN ES   1   2149 14.39                             105    0.08 4  390 208 
                                                                                
