 2015  613 2344 11.2 L   6.697 -72.853 24.0  RSN  4 0.6 1.3LRSN                1
 GAP=183        1.30       3.6     6.2  6.5 -0.7752E+01  0.1369E+02 -0.7775E+01E
 Epicentro: MOLAGAVITA - SANTANDER                                             3
 ACTION:UPD 15-09-10 22:12 OP:cam  STATUS:               ID:20150613234411 L   I
 OLDACT:UP  15-06-18 07:47 OP:AK   STATUS:               ID:20150613234411 L   3
 OLDACT:REG 15-06-14 03:46 OP:ar   STATUS:               ID:20150613233748     3
 2015-06-13-2337-48M.COL___306                                                 6
 STAT SP IPHASW D HRMM SECON CODA AMPLIT PERI AZIMU VELO AIN AR TRES W  DIS CAZ7
 BAR2 EZ EP   1   2344 17.49                             121   -1.14 7 38.2 252 
 BAR2 EZ ES       2344 24.84                             121    0.3710 38.2 252 
 BAR2 EZ I        2344 24.94        17.6 0.20             47           38.2 252 
 PAM  SZ EP   4   2344 24.99                             107    1.21 0 73.1  13 
 PAM  SN ES       2344 33.61                             107   -0.0110 73.1  13 
 PAM  SZ I        2344 35.17         9.0 0.14             47           73.1  13 
 RUS  HZ EP       2344 27.33                             103    0.7110 92.5 196 
 RUS  HN ES       2344 38.27                             103   -0.4210 92.5 196 
 RUS  HZ I        2344 41.04         3.7 0.18             47           92.5 196 
 BRR  HN ES       2344 40.86                              56   -0.0110  105 296 
 BRR  HZ I        2345 12.87        15.6 0.38             47            105 296 
                                                                                
