 2013 1213 2037 27.9 L   6.821 -73.154141.1  RSN 16 0.5 2.4LRSN                1
 GAP=135        1.21       3.0     4.3  5.9 -0.1816E+01  0.8830E+01  0.3537E+01E
 Epicentro: LOS SANTOS - SANTANDER                                             3
 ACTION:UPD 14-01-13 10:17 OP:ep   STATUS:               ID:20131213203727 L   I
 OLDACT:REG 13-12-14 00:49 OP:stll STATUS:               ID:20131213202818     3
 2013-12-13-2028-18M.COL___241                                                 6
 STAT SP IPHASW D HRMM SECON CODA AMPLIT PERI AZIMU VELO AIN AR TRES W  DIS CAZ7
 BAR2 SZ EP       2037 47.17                             169    0.1610 25.5 187 
 BAR2 SZ ES       2038  1.35                             169   -0.5710 25.5 187 
 BAR2 SZ I        2038  3.39        76.6 0.26            170           25.5 187 
 BRR  HZ IP     C 2037 48.95                             152    0.5110 69.3 297 
 BRR  HN ES       2038  5.46                             152    1.0110 69.3 297 
 BRR  HZ I        2038  7.38        28.5 0.34            149           69.3 297 
 PAM  SZ EP       2037 49.97                             150    0.4210 76.2  41 
 PAM  SZ I        2037 50.36        47.1 0.20            152           76.2  41 
 PAM  SN ES       2038  6.46                             150    0.0310 76.2  41 
 RUS  HZ EP       2037 51.15                             142   -0.2210  103 176 
 RUS  HN ES       2038  9.63                             142   -0.0410  103 176 
 RUS  HZ I        2038 10.91        17.9 0.26            145            103 176 
 PTB  HZ EP       2037 53.75                             131   -0.70 9  147 258 
 PTB  HN ES       2038 14.41                             131   -0.75 9  147 258 
 PTB  HZ I        2038 16.98        28.6 0.16            130            147 258 
 OCA  HN ES       2038 17.18                             129   -0.06 9  158 353 
 OCA  HZ I        2038 25.63        27.1 0.22            129            158 353 
 ZAR  HZ EP       2037 59.81                             122   -0.06 9  202 292 
 ZAR  HN ES       2038 24.39                             122   -0.41 9  202 292 
 ZAR  HZ I        2038 30.44        23.5 0.54            121            202 292 
 NOR  HZ EP       2038  3.31                             117   -0.12 8  235 234 
 NOR  HN ES       2038 31.13                             117   -0.01 8  235 234 
 NOR  HZ I        2038 36.66        13.7 0.24            118            235 234 
 SML  HZ EP       2038  3.19                             117   -0.81 8  241 335 
 SML  HE ES       2038 31.91                             117   -0.24 8  241 335 
 SML  HZ I        2038 40.45        24.9 0.10            117            241 335 
 CHI  HZ EP       2038  5.26                             116   -0.30 8  251 195 
 CHI  HN ES       2038 34.40                             116   -0.54 8  251 195 
 CHI  HZ I        2038 40.03        14.2 0.32            117            251 195 
 ROSC BZ EP       2038  6.71                             115    0.77 8  254 211 
 ROSC BE ES       2038 35.97                             115    0.37 8  254 211 
 HEL  HZ EP       2038  8.70                             114    0.85 8  272 255 
 HEL  HN ES       2038 38.92                             114   -0.09 8  272 255 
 HEL  HZ I        2038 45.62        13.3 0.38            114            272 255 
 GUY2CHZ EP       2038 12.03                             111    0.66 7  302 234 
 GUY2CHN ES       2038 46.35                             111    1.08 7  302 234 
 GUY2CHZ I        2038 53.36        13.1 0.34                           302 234 
 RREF HZ EP       2038 13.62                             110   -0.32 7  323 229 
 RREF HN ES       2038 49.97                             110    0.12 7  323 229 
 RREF HZ I        2038 59.16        13.7 0.44            110            323 229 
 TOL  SZ EP       2038 16.46                             108    0.37 7  345 224 
 TOL  SZ ES       2038 54.02                             108    0.34 7  345 224 
 ORTC HZ EP       2038 21.12                             105   -0.70 6  397 216 
 ORTC HN ES       2039  2.80                             105   -1.08 6  397 216 
 ORTC HZ I        2039  8.58         7.3 0.28            106            397 216 
                                                                                
