 2016  413 2010  4.2 L   7.512 -73.203132.0  RSN  5 0.4 2.0LRSN                1
 GAP=237        0.92      11.5     8.6 10.7 -0.7222E+02  0.6551E+02 -0.5702E+02E
 Epicentro: EL PLAYON - SANTANDER                                              3
 ACTION:UPD 16-05-05 14:21 OP:rebc STATUS:               ID:20160413201004 L   I
 OLDACT:UP  16-04-14 02:53 OP:drio STATUS:               ID:20160413200750     3
 OLDACT:UP  16-04-14 02:52 OP:drio STATUS:               ID:20160413200750     3
 OLDACT:REG 16-04-14 02:37 OP:drio STATUS:               ID:20160413200750     3
 2016-04-13-2007-50M.COL___316                                                 6
 STAT SP IPHASW D HRMM SECON CODA AMPLIT PERI AZIMU VELO AIN AR TRES W  DIS CAZ7
 PAM  EZ EP       2010 24.06                             155    0.1510 58.8 109 
 PAM  EE ES       2010 39.52                             155    0.2510 58.8 109 
 PAM  EZ I        2010 40.23        20.6 0.26            158           58.8 109 
 BAR2 EZ EP       2010 25.90                             141   -0.4910  102 179 
 BAR2 EZ ES       2010 43.55                             141   -0.1310  102 179 
 BAR2 EZ I        2010 44.19        13.3 0.26            141            102 179 
 PTB  HZ EP       2010 32.30                             124   -0.53 9  175 232 
 PTB  HN ES       2010 55.15                             124    0.01 9  175 232 
 PTB  HZ I        2010 57.64        11.8 0.26            124            175 232 
 NOR  HZ EP       2010 45.37                             111    0.69 7  284 221 
 NOR  HE ES       2011 16.68                             111    0.45 7  284 221 
 NOR  HZ I        2011 23.13         7.7 0.52            111            284 221 
 GUY2CHZ EP   4   2010 55.67                             107    2.99 0  348 224 
 GUY2CHN ES   4   2011 32.93                             107    2.45 0  348 224 
 GUY2CHZ I        2011 41.20         4.9 0.32                           348 224 
                                                                                
