 2011 1113 2258 35.0 L   6.798 -73.058137.6  RSN  4 0.2 1.3LRSN                1
 GAP=148        0.43       4.4     6.8  7.5  0.1448E+02 -0.2006E+02  0.1915E+00E
 Epicentro: LOS SANTOS - SANTANDER                                             3
 ACTION:UPD 12-07-13 16:10 OP:ep   STATUS:               ID:20111113225834 L   I
 2011-11-13-2255-31S.COL___179                                                 6
 STAT SP IPHASW D HRMM SECON CODA AMPLIT PERI AZIMU VELO AIN AR TRES W  DIS CAZ7
 BAR2 SZ EP       2258 53.79                             168    0.0610 26.6 211 
 BAR2 SZ I        2258 54.39         4.4 0.96                          26.6 211 
 PAM  SZ EP   2   2258 55.59                             151   -0.43 5 71.8  33 
 PAM  SN ES   3   2259 13.09                             151    0.68 2 71.8  33 
 BRR  HZ EP       2258 55.79                             148   -0.0310 79.9 295 
 BRR  HZ I        2258 56.12         6.7 0.32                          79.9 295 
 BRR  HN ES   1   2259 11.94                             148   -0.11 7 79.9 295 
 RUS  HZ EP       2258 58.09                             142    0.1510  100 182 
 RUS  HN ES   2   2259 15.63                             142   -0.19 5  100 182 
 RUS  HZ I        2259 17.40         2.3 0.36                           100 182 
                                                                                
