 2014  313 2305 44.5 L   6.763 -73.139149.1  RSN  9 0.6 1.6LRSN                1
 GAP=120        1.49       5.1     6.4  8.7 -0.5327E+01  0.3313E+01  0.3869E+01E
 Epicentro: LOS SANTOS - SANTANDER                                             3
 ACTION:UPD 14-04-09 23:17 OP:nd   STATUS:               ID:20140313230544 L   I
 OLDACT:REG 14-03-14 00:58 OP:stll STATUS:               ID:20140313225812     3
 2014-03-13-2258-12M.COL___241                                                 6
 STAT SP IPHASW D HRMM SECON CODA AMPLIT PERI AZIMU VELO AIN AR TRES W  DIS CAZ7
 BAR2 SZ EP       23 6  3.95                             172   -0.5210 19.5 194 
 BAR2 SZ I        23 6  5.15        18.3 0.40            169           19.5 194 
 BAR2 SZ ES       23 6 19.85                             172   -0.1910 19.5 194 
 BRR  HZ EP       23 6  6.96                             152    0.7910 73.9 301 
 BRR  HN ES       23 6 23.80                             152    0.7310 73.9 301 
 PAM  SZ IP     C 23 6  7.93                             150    0.6910 80.1  37 
 PAM  SN ES       23 6 24.54                             150   -0.4310 80.1  37 
 PAM  SZ I        23 6 27.17         7.5 0.20            154           80.1  37 
 RUS  HZ EP       23 6  8.84                             146    0.5310 96.5 176 
 RUS  HZ I        23 6  9.94         3.9 0.18            144           96.5 176 
 RUS  HN ES       23 6 27.05                             146    0.1910 96.5 176 
 PTB  HZ EP       23 6 11.79                             133    0.03 9  148 260 
 PTB  HN ES       23 6 31.90                             133   -1.11 9  148 260 
 PTB  HZ I        23 6 38.83         8.7 0.22            132            148 260 
 CHI  HZ EP       23 6 21.92                             118   -0.08 8  245 196 
 CHI  HN ES       23 6 50.51                             118   -0.73 8  245 196 
 CHI  HZ I        23 7  0.16         1.7 0.60            118            245 196 
 SML  HE ES       23 6 50.30                             118   -0.51 8  248 336 
 GUY2CHN ES       23 7  2.79                             113    0.71 7  300 235 
 SOCV BZ EP       23 6 27.11                             113   -0.78 7  303  56 
                                                                                
