 2013  114 0942 27.9 L   6.826 -73.156138.7  RSN 10 0.4 2.0LRSN                1
 GAP=182        0.76       3.3     5.3  6.3  0.3053E+01  0.8517E+01 -0.1015E+01E
 Epicentro: LOS SANTOS - SANTANDER                                             3
 ACTION:UPD 13-02-15 09:14 OP:ep   STATUS:               ID:20130114094227 L   I
 2013-01-14-0940-00M.COL___241                                                 6
 STAT SP IPHASW D HRMM SECON CODA AMPLIT PERI AZIMU VELO AIN AR TRES W  DIS CAZ7
 BAR2 SZ EP   1    942 47.00                             169    0.31 7 26.0 186 
 BAR2 SZ ES   1    943  1.05                             169   -0.34 7 26.0 186 
 BAR2 SZ I         943  3.25        39.3 0.16            153           26.0 186 
 BRR  HZ EP   1    942 48.88                             152    0.78 7 68.8 297 
 BRR  HN ES   4    943  5.57                             152    1.67 0 68.8 297 
 BRR  HZ I         943  9.35        27.3 0.16            131           68.8 297 
 RUS  HZ EP   1    942 51.09                             141   -0.05 7  104 176 
 RUS  HN ES   1    943  9.33                             141    0.03 7  104 176 
 RUS  HZ I         943 11.29         6.9 0.28            122            104 176 
 PTB  HZ EP   1    942 53.96                             130   -0.24 7  147 258 
 PTB  HN ES   1    943 14.38                             130   -0.37 7  147 258 
 PTB  HZ I         943 19.92        12.6 0.42            111            147 258 
 OCA  HZ EP   1    942 54.95                             128   -0.39 7  157 353 
 OCA  HN ES   1    943 16.78                             128    0.01 7  157 353 
 OCA  HZ I         943 23.19        14.2 0.42            113            157 353 
 ZAR  HZ EP   1    942 59.86                             121    0.24 6  202 292 
 ZAR  HN ES   1    943 24.79                             121    0.39 6  202 292 
 ZAR  HZ I         943 30.84        19.6 0.26            105            202 292 
 CHI  HZ EP   1    943  5.55                             115    0.11 6  251 195 
 CHI  HN ES   1    943 34.23                             115   -0.53 6  251 195 
 CHI  HZ I         943 38.96         3.3 0.38            102            251 195 
 ROSC BZ EP   1    943  6.27                             115    0.46 6  255 210 
 ROSC BZ I         943 44.79        13.2 0.35            102            255 210 
 HEL  HZ EP   1    943  7.78                             113    0.11 6  272 255 
 HEL  HZ I         943 47.62         4.8 0.32            101            272 255 
 SJC  HN EP   1    943 21.50                             105   -1.33 4  406 327 
 SJC  HN ES   4    944  2.33                             105   -3.38 0  406 327 
                                                                                
