 2017  914 0110 36.4 L   6.783 -73.108150.3  RSN  5 0.2 1.4LRSN                1
 GAP=142        0.57       2.9     4.1  4.2 -0.3011E+01  0.6977E-01  0.1147E+01E
 Epicentro: LOS SANTOS - SANTANDER                                             3
 ACTION:UPD 17-10-05 19:12 OP:rebc STATUS:               ID:20170914011036 L   I
 OLDACT:UP  17-09-14 13:31 OP:mg   STATUS:               ID:20170914010737     3
 OLDACT:REG 17-09-14 10:48 OP:dhb  STATUS:               ID:20170914010737     3
 2017-09-14-0108-00M.COL___467                                                 6
 STAT SP IPHASW D HRMM SECON CODA AMPLIT PERI AZIMU VELO AIN AR TRES W  DIS CAZ7
 BAR2 EZ EP        110 56.41                             171   -0.2010 22.6 201 
 BAR2 EZ ES        111 12.10                             171   -0.2410 22.6 201 
 BAR2 EZ I    1    111 12.70         5.6 0.62            170           22.6 201 
 BRR  HZ EP        110 58.14                             152   -0.2010 75.8 298 
 BRR  HN ES        111 15.46                             152    0.0310 75.8 298 
 BRR  HZ I         111 17.05         6.0 0.38            152           75.8 298 
 PAM  EZ EP        110 59.36                             152    0.2810 76.4  36 
 PAM  EN ES   1    111 16.99                             152    0.24 7 76.4  36 
 PAM  EZ I         111 19.15         2.9 0.32            155           76.4  36 
 RUS  HZ EP        111  0.23                             145   -0.2610 98.4 178 
 RUS  HN ES        111 19.38                             145    0.1210 98.4 178 
 RUS  HZ I         111 21.19         2.5 0.29            146           98.4 178 
 SPBC HZ EP        111  5.57                             130    0.17 9  164 221 
 SPBC HN ES        111 28.23                             130    0.24 9  164 221 
 SPBC HZ I         111 33.77         3.6 0.12            130            164 221 
                                                                                
