 2016  614 0550 22.2 L   6.812 -73.082142.7  RSN  8 0.5 1.5LRSN                1
 GAP=144        0.90       5.0     5.4  7.9  0.4276E+01  0.9090E+01 -0.7283E+01E
 Epicentro: LOS SANTOS - SANTANDER                                             3
 ACTION:UPD 16-07-21 22:18 OP:rebc STATUS:               ID:20160614055022 L   I
 OLDACT:REG 16-06-14 12:34 OP:dnl  STATUS:               ID:20160614054742     3
 2016-06-14-0547-42M.COL___295                                                 6
 STAT SP IPHASW D HRMM SECON CODA AMPLIT PERI AZIMU VELO AIN AR TRES W  DIS CAZ7
 BAR2 EZ EP   2    550 40.50                             169   -0.99 5 26.7 204 
 BAR2 EZ ES   2    550 55.93                             169   -0.64 5 26.7 204 
 BAR2 EZ I         550 58.80         5.5 0.14                          26.7 204 
 PAM  EZ EP        550 44.26                             152    0.5410 72.0  36 
 PAM  EN ES   2    550 59.85                             152   -0.70 5 72.0  36 
 PAM  EZ I         551  5.53         3.9 0.68                          72.0  36 
 BRR  HZ EP        550 43.22                             150   -0.0810 76.9 295 
 BRR  HN ES        550 59.92                             150    0.1210 76.9 295 
 BRR  HZ I         551  4.15         7.8 0.48                          76.9 295 
 RUS  HZ EP   3    550 46.14                             143    0.46 2  102 180 
 RUS  HN ES        551  4.22                             143    0.1810  102 180 
 RUS  HZ I         551  5.88         2.3 0.22                           102 180 
 PTB  HZ EP   2    550 48.38                             130   -1.15 5  155 259 
 PTB  HE ES   4    551  9.68                             130   -1.21 0  155 259 
 PTB  HZ I         551 11.30         4.6 0.12                           155 259 
 SPBC HZ EP   4    550 53.46                             127    2.51 0  169 221 
 SPBC HE ES   2    551 13.33                             127   -0.08 5  169 221 
 SPBC HZ I         551 19.21         4.0 0.22                           169 221 
 ZAR  HZ EP        550 54.55                             121   -0.48 8  210 291 
 ZAR  HN ES        551 21.12                             121    0.45 8  210 291 
 ZAR  HZ I         551 25.48         3.7 0.58                           210 291 
 GUY2CHZ EP   2    551  7.18                             111    0.82 4  308 235 
 GUY2CHN ES   2    551 40.63                             111   -0.21 4  308 235 
 GUY2CHZ I         551 47.87         1.4 0.52                           308 235 
                                                                                
