 2012  914 0027 13.0 L   6.754 -73.147144.2  RSN  7 0.4 1.5LRSN                1
 GAP=138        0.73       5.1     4.4  6.8 -0.8585E+00  0.7911E+01 -0.1947E+01E
 Epicentro: LOS SANTOS - SANTANDER                                             3
 ACTION:UPD 12-10-22 14:18 OP:ep   STATUS:               ID:20120914002713 L   I
 2012-09-14-0020-00M.COL___227                                                 6
 STAT SP IPHASW D HRMM SECON CODA AMPLIT PERI AZIMU VELO AIN AR TRES W  DIS CAZ7
 BAR2 SZ EP   1    027 32.48                             172    0.14 7 18.3 192 
 BAR2 SZ I         027 32.76         9.9 0.21                          18.3 192 
 BAR2 SZ ES   1    027 46.95                             172   -0.49 7 18.3 192 
 GIR2 SZ EP   1    027 32.44                             165   -0.19 7 36.3 352 
 GIR2 SZ ES   1    027 47.83                             165   -0.11 7 36.3 352 
 BRR  HZ EP   1    027 34.38                             151    0.27 7 73.7 302 
 BRR  HE ES   1    027 51.04                             151    0.45 7 73.7 302 
 PAM  SZ EP   1    027 35.34                             149    0.05 7 81.4  37 
 PAM  SZ I         027 35.60         5.1 0.42                          81.4  37 
 PAM  SN ES   1    027 52.56                             149   -0.12 7 81.4  37 
 RUS  HN ES   1    027 54.90                             145    0.54 7 95.5 176 
 RUS  HZ I         027 56.11         2.6 0.30                          95.5 176 
 PTB  HZ EP   1    027 39.21                             132   -0.53 7  147 261 
 PTB  HN ES   1    028  0.13                             132   -0.48 7  147 261 
 PTB  HN I         028  5.93         5.3 0.24                           147 261 
 ZAR  HN ES   1    028 11.39                             122    0.48 6  206 293 
                                                                                
