 2011  214 0517 54.9 L   6.758 -73.154140.3  RSN  8 0.4 2.2LRSN                1
 GAP=158        1.02       4.7     9.0  8.1 -0.2133E+02  0.2326E+02 -0.3431E+01E
 Epicentro: LOS SANTOS - SANTANDER                                             3
 ACTION:UP  11-03-28 15:08 OP:jfem STATUS:               ID:20110214051754 L   I
 2011-02-14-0516-03S.COL___137                                                 6
 STAT SP IPHASW D HRMM SECON CODA AMPLIT PERI AZIMU VELO SNR AR TRES W  DIS CAZ7
 BAR2 SZ EP        518 13.82                             172     0.010   19 190 
 BAR2 SZ ES   1    518 28.06                             172    -0.5 7   19 190 
 BAR2 SZ I         518 30.15        38.0 0.19                            19 190 
 GIR2 SZ EP   1    518 13.90                             165    -0.2 7   36 353 
 GIR2 SZ ES   1    518 28.99                             165     0.0 7   36 353 
 RUS  HZ EP   1    518 17.80                             144     0.0 7   96 175 
 RUS  HN ES   1    518 36.06                             144     0.4 7   96 175 
 RUS  HZ I         518 37.37        27.4 0.83                            96 175 
 GRA  SZ IP        518 20.69                             134     0.610  130  17 
 GRA  SZ I         518 22.12        18.2 0.26                           130  17 
 GRA  SZ ES   1    518 39.34                             134    -0.4 7  130  17 
 OCA  SZ EP   1    518 22.36                             127    -0.9 7  165 354 
 OCA  SZ ES   1    518 45.88                             127     0.5 7  165 354 
 OCA  SZ I         518 49.53        10.0 0.10                           165 354 
 NOR  SZ EP   1    518 29.56                             118    -0.4 6  231 235 
 NOR  SN ES   1    518 57.24                             118    -0.1 6  231 235 
 CHI  HZ EP   1    518 31.48                             116    -0.3 6  244 195 
 CHI  HZ I         519  8.18         4.4 0.37                           244 195 
 RREF HN ES   1    519 16.57                             110     0.7 5  318 230 
 RREF HZ I         519 20.67        20.3 0.60                           318 230 
                                                                                
