 2017  414 0734 57.8 L   6.770 -73.179150.1  RSN  6 0.2 1.3LRSN                1
 GAP=231        0.54       3.3     3.2  4.3  0.3623E+01  0.2203E+01 -0.3695E+01E
 Epicentro: LOS SANTOS - SANTANDER                                             3
 ACTION:UPD 17-05-30 21:12 OP:jn   STATUS:               ID:20170414073457 L   I
 OLDACT:UP  17-04-14 17:09 OP:edw  STATUS:               ID:20170414072744     3
 OLDACT:REG 17-04-14 12:53 OP:edw  STATUS:               ID:20170414072744     3
 2017-04-14-0728-00M.COL___356                                                 6
 STAT SP IPHASW D HRMM SECON CODA AMPLIT PERI AZIMU VELO AIN AR TRES W  DIS CAZ7
 BAR2 EZ EP        735 17.62                             172   -0.2810 19.6 181 
 BAR2 EZ ES        735 33.64                             172    0.0810 19.6 181 
 BAR2 EZ I         735 34.44         4.0 0.30            168           19.6 181 
 BRR  HZ EP        735 19.56                             154    0.2110 69.7 302 
 RUS  HZ EP        735 22.09                             145    0.3110 97.6 174 
 RUS  HN ES        735 40.29                             145   -0.1810 97.6 174 
 RUS  HZ I         735 42.26         2.2 0.28            146           97.6 174 
 PTB  HZ EP        735 24.68                             134   -0.08 9  144 260 
 PTB  HN ES        735 45.63                             134   -0.15 9  144 260 
 PTB  HZ I         735 50.26         2.1 0.20            132            144 260 
 SPBC HZ EP        735 26.23                             131    0.04 9  158 219 
 SPBC HN ES        735 48.43                             131    0.11 9  158 219 
 SPBC HZ I         735 53.83         3.2 0.10            130            158 219 
 ZAR  HZ EP        735 30.03                             124   -0.30 9  202 293 
 ZAR  HN ES        735 55.89                             124    0.20 9  202 293 
 ZAR  HZ I         736  1.68         1.9 0.30            124            202 293 
 NOR  HE ES   4    736  4.04                             120    3.11 0  230 235 
                                                                                
