 2010  814 0227 14.6 L   6.488 -73.060161.7  RSN 11 0.4 2.4LRSN                1
 GAP=172        0.84       3.3     7.6  5.1 -0.5773E+01  0.6975E+00  0.4109E-01E
 Epicentro: MOGOTES - SANTANDER                                                3
 ACTION:UP  10-09-07 10:54 OP:vdl  STATUS:               ID:20100814022714 L   I
 2010-08-14-0225-46S.COL___111                                                 6
 STAT SP IPHASW D HRMM SECON CODA AMPLIT PERI AZIMU VELO SNR AR TRES W  DIS CAZ7
 BAR2 SZ IP        227 35.83                             173    -0.210   18 310 
 BAR2 SZ ES   1    227 52.26                             173    -0.5 7   18 310 
 BAR2 SZ I         227 53.39        81.0 0.31                            18 310 
 RUS  HZ IP     D  227 38.13                             157     0.210   66 182 
 RUS  HN ES        227 56.22                             157     0.110   66 182 
 RUS  HZ I         227 57.90        47.1 0.20                            66 182 
 GIR2 SZ EP        227 37.28                             156    -0.210   67 347 
 GIR2 SZ ES   2    227 55.56                             156     0.2 5   67 347 
 BRR  HZ EP        227 38.90                             147    -0.310   99 314 
 BRR  HN ES        227 58.63                             147     0.310   99 314 
 BRR  HZ I         228  1.25        78.1 0.22                            99 314 
 GUE  SZ EP        227 43.92                             135     0.5 9  149   6 
 GUE  SZ I         228  9.42         8.0 0.23                           149   6 
 GRA  SZ IP        227 43.83                             134    -0.1 9  157  10 
 GRA  SZ ES   1    228  7.02                             134     0.3 7  157  10 
 GRA  SZ I         228  8.22        15.3 0.20                           157  10 
 OCA  SZ EP        227 47.36                             127    -0.1 9  196 352 
 OCA  SZ ES   2    228 12.64                             127    -0.5 4  196 352 
 OCA  SZ I         228 15.11        21.8 0.24                           196 352 
 CHI  HZ EP   1    227 50.20                             124     0.1 6  219 200 
 CHI  HN ES   2    228 18.25                             124     0.4 4  219 200 
 CHI  HZ I         228 22.43         7.9 0.45                           219 200 
 HEL  HZ EP   2    227 55.39                             117    -0.6 4  275 263 
 HEL  HZ I         228 34.15        11.4 0.37                           275 263 
 RREF HZ EP   1    228  0.85                             115     0.9 5  308 235 
 RREF HZ I         228 43.09        16.9 0.68                           308 235 
 PRA  HZ EP        228  5.56                             110    -0.3 6  368 214 
 PRA  HN ES   2    228 45.34                             110    -0.6 3  368 214 
 PRA  HZ I         228 47.24         7.4 0.43                           368 214 
                                                                                
