 2016  214 0709 55.7 L   6.809 -73.172143.4  RSN  6 0.3 1.1LRSN                1
 GAP=143        0.75       3.7     4.3  6.2 -0.7062E+01  0.3415E+01  0.3600E+01E
 Epicentro: LOS SANTOS - SANTANDER                                             3
 ACTION:UPD 16-03-04 21:26 OP:rebc STATUS:               ID:20160214070955 L   I
 OLDACT:UP  16-02-14 16:14 OP:ak   STATUS:               ID:20160214070737     3
 OLDACT:REG 16-02-14 14:44 OP:ak   STATUS:               ID:20160214070737     3
 2016-02-14-0707-37M.COL___295                                                 6
 STAT SP IPHASW D HRMM SECON CODA AMPLIT PERI AZIMU VELO AIN AR TRES W  DIS CAZ7
 BAR2 EZ EP   2    710 14.82                             170   -0.28 5 24.0 183 
 BAR2 EZ ES        710 29.81                             170   -0.3910 24.0 183 
 BAR2 EZ I         710 32.52         3.8 0.28            169           24.0 183 
 PAM  EZ EP        710 17.84                             150    0.0710 78.5  42 
 PAM  EN ES        710 35.40                             150    0.4410 78.5  42 
 PAM  EZ I         710 37.17         1.3 0.56            154           78.5  42 
 RUS  HZ EP        710 19.00                             143   -0.3510  102 174 
 RUS  HN ES        710 37.56                             143   -0.2010  102 174 
 RUS  HZ I         710 38.88         2.0 0.26            146            102 174 
 PTB  HZ EP   2    710 21.87                             132   -0.41 5  145 258 
 PTB  HN ES        710 43.05                             132    0.07 9  145 258 
 PTB  HZ I         710 49.97                             131            145 258 
 SPBC HZ EP   2    710 23.66                             129   -0.30 5  162 218 
 SPBC HN ES        710 46.20                             129    0.23 9  162 218 
 SPBC HZ I         710 50.64         1.7 0.21            129            162 218 
 CHI  HZ EP   2    710 33.47                             116    0.14 4  249 194 
 CHI  HN ES        711  3.27                             116    0.62 8  249 194 
 CHI  HZ I         711  6.00         1.1 0.30            118            249 194 
                                                                                
