 2017  914 0816 27.7 L   6.741 -73.118142.4  RSN  6 0.4 1.1LRSN                1
 GAP=143        0.92       4.0     4.8  6.5 -0.1881E+01  0.1080E+02 -0.2249E+01E
 Epicentro: LOS SANTOS - SANTANDER                                             3
 ACTION:UPD 17-10-05 19:12 OP:rebc STATUS:               ID:20170914081627 L   I
 OLDACT:REG 17-09-14 11:39 OP:dhb  STATUS:               ID:20170914080742     3
 2017-09-14-0808-00M.COL___410                                                 6
 STAT SP IPHASW D HRMM SECON CODA AMPLIT PERI AZIMU VELO AIN AR TRES W  DIS CAZ7
 BAR2 EZ EP        816 46.72                             172   -0.0910 17.9 203 
 BAR2 EZ ES        817  1.87                             172    0.1410 17.9 203 
 BAR2 EZ I         817  2.70         2.6 0.18            170           17.9 203 
 BRR  HZ EP        816 48.74                             150   -0.0810 77.1 302 
 BRR  HN ES        817  5.87                             150    0.5610 77.1 302 
 BRR  HZ I         817  7.47         2.8 0.28            149           77.1 302 
 PAM  EZ EP        816 49.84                             149    0.0910 80.7  35 
 PAM  EN ES        817  6.50                             149   -0.4510 80.7  35 
 PAM  EZ I         817  8.73         1.2 0.40            153           80.7  35 
 RUS  HN ES        817  8.68                             145    0.1610 93.9 178 
 RUS  HZ I         817 10.22         1.1 0.13            146           93.9 178 
 SPBC HZ EP        816 55.73                             129    0.09 9  160 221 
 SPBC HN ES        817 16.97                             129   -0.48 9  160 221 
 SPBC HZ I         817 23.43         2.0 0.12            129            160 221 
 ZAR  HZ EP        817  1.04                             121    0.57 8  209 293 
 ZAR  HN ES        817 25.45                             121   -0.59 8  209 293 
 ZAR  HZ I         817 31.04         2.0 0.26            121            209 293 
                                                                                
