 2015  914 0951 14.9 L   6.842 -73.404121.4  RSN  6 0.5 1.5LRSN                1
 GAP=135        1.35       6.1     8.0 10.0 -0.9305E+01  0.1347E+02 -0.2566E+02E
 Epicentro: SAN VICENTE DE CHUCURI - SANTANDER                                 3
 ACTION:UPD 15-10-28 16:26 OP:cam  STATUS:               ID:20150914095114 L   I
 OLDACT:UP  15-09-14 19:56 OP:drio STATUS:               ID:20150914094739     3
 OLDACT:UP  15-09-14 19:53 OP:drio STATUS:               ID:20150914094739     3
 OLDACT:REG 15-09-14 13:05 OP:mh   STATUS:               ID:20150914094739     3
 2015-09-14-0947-39M.COL___326                                                 6
 STAT SP IPHASW D HRMM SECON CODA AMPLIT PERI AZIMU VELO AIN AR TRES W  DIS CAZ7
 BAR2 EZ EP        951 32.28                             162    0.2210 36.9 138 
 BAR2 EZ ES        951 45.28                             162   -0.1410 36.9 138 
 BAR2 EZ I         951 49.87         2.8 0.28            172           36.9 138 
 BRR  HZ EP        951 32.77                             158    0.7310 44.9 311 
 BRR  HN ES        951 45.86                             158    0.4810 44.9 311 
 PTB  HZ EP        951 37.61                             132    0.1210  121 254 
 PTB  HN ES        951 54.30                             132   -0.7810  121 254 
 PTB  HZ I         951 59.66         4.8 0.28            133            121 254 
 OCA  HZ EP        951 40.39                             124   -0.52 9  155   3 
 OCA  HN ES        952  0.33                             124   -0.84 9  155   3 
 OCA  HZ I         952  6.37         9.5 0.40            127            155   3 
 ZAR  HZ EP   4    951 44.64                             121    1.74 0  176 294 
 ZAR  HN ES   4    952  7.19                             121    2.47 0  176 294 
 ZAR  HZ I         952 13.32         2.2 0.22            122            176 294 
 SML  HZ EP        951 48.67                             113    0.04 8  229 341 
 SML  HE ES        952 15.61                             113    0.68 8  229 341 
 SML  HZ I         952 19.59         4.3 0.48            116            229 341 
                                                                                
