 2010  814 0646 24.6 L   6.843 -73.033145.8  RSN  4 0.2 1.3LRSN                1
 GAP=171        0.55       3.3     6.2  5.7 -0.6578E+01 -0.7611E+01  0.9351E+00E
 Epicentro: CEPITA - SANTANDER                                                 3
 ACTION:UP  10-09-07 10:54 OP:vdl  STATUS:               ID:20100814064624 L   I
 2010-08-14-0644-24S.COL___111                                                 6
 STAT SP IPHASW D HRMM SECON CODA AMPLIT PERI AZIMU VELO SNR AR TRES W  DIS CAZ7
 BAR2 SZ EP   1    646 44.05                             167    -0.4 7   32 211 
 BAR2 SZ ES   1    646 59.73                             167    -0.2 7   32 211 
 BAR2 SZ I         647  3.20         5.6 0.59                            32 211 
 BRR  HZ EP        646 46.39                             149     0.110   81 291 
 BRR  HE ES   1    647  3.32                             149     0.1 7   81 291 
 BRR  HZ I         647  6.99         4.3 0.13                            81 291 
 RUS  HZ EP   1    646 48.75                             143     0.1 7  105 183 
 RUS  HN ES   2    647  7.97                                     0.5 5  105 183 
 RUS  HZ I         647  9.24         2.0 0.27                           105 183 
 GRA  SZ EP        646 49.26                             139     0.110  118  12 
 GRA  SZ ES        647  8.42                             139     0.010  118  12 
 GRA  SZ I         647  9.65         2.7 0.35                           118  12 
                                                                                
