 2012  414 0312  6.8 L   6.751 -73.138150.0  RSN  4 0.4 1.1LRSN                1
 GAP=140        0.89       7.9     7.8 12.1  0.1449E+02 -0.2163E+02 -0.1807E+02E
 Epicentro: LOS SANTOS - SANTANDER                                             3
 ACTION:UPD 12-07-05 11:53 OP:tino STATUS:               ID:20120414031206 L   I
 2012-04-14-0310-00M.COL___181                                                 6
 STAT SP IPHASW D HRMM SECON CODA AMPLIT PERI AZIMU VELO AIN AR TRES W  DIS CAZ7
 BRR  HZ EP   1    312 28.31                             152    -0.3 7   75 302 
 BRR  HZ I         312 28.98         4.2 0.30                            75 302 
 BRR  HN ES   1    312 45.95                             152     0.4 7   75 302 
 PAM  SZ EP   1    312 29.41                             150    -0.2 7   81  37 
 RUS  HZ EP   1    312 30.51                             146     0.0 7   95 176 
 RUS  HZ I         312 30.88         1.1 0.40                            95 176 
 RUS  HE ES   1    312 49.19                             146     0.1 7   95 176 
 PTB  HZ EP   1    312 34.74                             133     0.7 7  148 261 
 PTB  HN ES   1    312 54.77                             133    -0.6 7  148 261 
 PTB  HZ I         313  0.46         1.1 0.38                           148 261 
                                                                                
