 2012  714 0449 58.0 L   6.860 -73.135152.7  RSN  5 0.4 1.2LRSN                1
 GAP=148        0.83       9.7     6.2  9.9 -0.4240E+01  0.2311E+02  0.1011E+02E
 Epicentro: LOS SANTOS - SANTANDER                                             3
 ACTION:UPD 12-08-14 11:44 OP:ep   STATUS:               ID:20120714044958 L   I
 2012-07-14-0449-35M.COL___208                                                 6
 STAT SP IPHASW D HRMM SECON CODA AMPLIT PERI AZIMU VELO AIN AR TRES W  DIS CAZ7
 BAR2 SZ EP   1    450 18.88                             168     0.3 7   30 190 
 BAR2 SZ ES   1    450 35.09                             168     0.4 7   30 190 
 BAR2 SZ I         450 36.80         2.6 0.15            167             30 190 
 BRR  HZ EP   1    450 20.04                             154     0.2 7   69 293 
 BRR  HZ I         450 25.50         3.2 0.07            154             69 293 
 BRR  HN ES   1    450 36.88                             154     0.1 7   69 293 
 PAM  SN ES   1    450 37.85                             154    -0.4 7   72  42 
 PTB  HZ EP   1    450 25.46                             133    -0.3 7  150 256 
 PTB  HN ES   1    450 46.87                             133    -0.6 7  150 256 
 PTB  HZ I         450 48.41         2.2 0.14            131            150 256 
 ZAR  HN ES   1    450 56.77                             124     0.4 6  203 290 
