 2017  514 0640 38.2 L   6.744 -73.136135.5  RSN  4 0.3 1.1LRSN                1
 GAP=225        0.71       9.5     4.1  8.1 -0.1378E+02  0.2562E+01  0.2723E+02E
 Epicentro: LOS SANTOS - SANTANDER                                             3
 ACTION:UPD 17-06-16 13:36 OP:jn   STATUS:               ID:20170514064038 L   I
 OLDACT:UP  17-05-15 21:47 OP:nlst STATUS:               ID:20170514064038 L   3
 OLDACT:DUP 17-05-14 16:58 OP:lv   STATUS:               ID:20170514063730d    3
 2017-05-14-0638-00M.COL___347                                                 6
 STAT SP IPHASW D HRMM SECON CODA AMPLIT PERI AZIMU VELO AIN AR TRES W  DIS CAZ7
 BRR  HZ EP        640 58.28                             149   -0.2510 75.2 302 
 BRR  HN ES   1    641 14.84                             149    0.48 7 75.2 302 
 BRR  HZ I         641 19.64         2.6 0.06            151           75.2 302 
 PAM  EZ EP        640 59.49                             147   -0.1510 81.6  36 
 PAM  EE ES   1    641 16.34                             147    0.01 7 81.6  36 
 PAM  EZ I         641 19.00         3.3 0.58            156           81.6  36 
 PTB  HZ EP        641  4.59                             129    0.21 9  148 261 
 PTB  HN ES   1    641 24.45                             129   -0.32 7  148 261 
 PTB  HZ I         641 30.80         1.4 0.24            134            148 261 
 ZAR  HZ EP        641 10.84                             119    0.46 8  207 294 
 ZAR  HN ES        641 35.13                             119   -0.33 8  207 294 
 ZAR  HZ I         641 40.43         1.5 0.16            124            207 294 
                                                                                
