 2010  514 0651 26.4 L   6.783 -72.987139.7  RSN  7 0.3 2.0LRSN                1
 GAP=175        0.90       4.6     9.4  8.3 -0.1018E+02 -0.2312E+02 -0.5053E+01E
 Epicentro: CEPITA - SANTANDER                                                 3
 ACTION:UP  10-08-24 10:04 OP:vdl  STATUS:               ID:20100514065126 L   I
 2010-05-14-0650-58S.COL___105                                                 6
 STAT SP IPHASW D HRMM SECON CODA AMPLIT PERI AZIMU VELO AIN AR TRES W  DIS CAZ7
 BAR2 SZ IP        651 45.30                             167    -0.110   30 226 
 BAR2 SZ ES   1    652  0.12                             167    -0.2 7   30 226 
 BRR  HZ IP     C  651 47.94                             146     0.010   88 294 
 BRR  HZ I         651 48.32        40.9 0.10                            88 294 
 BRR  HN ES   1    652  5.04                             146     0.3 7   88 294 
 RUS  HZ EP        651 49.56                             143     0.210   99 186 
 RUS  HN ES   2    652  6.98                             143    -0.4 5   99 186 
 RUS  HZ I         652 11.16         4.6 0.49                            99 186 
 BRI  SZ IP        651 49.94                             141     0.510  105  12 
 BRI  SZ ES   2    652  7.31                             141    -0.1 5  105  12 
 GUE  SZ IP        651 50.39                             138    -0.110  116   3 
 GRA  SZ IP        651 51.20                             136     0.310  123   9 
 GRA  SZ ES   1    652  9.79                             136    -0.2 7  123   9 
 OCA  SZ IP        651 53.88                             127    -0.8 9  165 347 
 OCA  SZ I         652 18.97        15.7 0.43                           165 347 
                                                                                
