 2013  114 0259 25.4 L   6.790 -73.155149.6  RSN 10 0.4 2.1LRSN                1
 GAP=136        0.84       3.7     4.3  6.5  0.7473E+00  0.1020E+02  0.3852E+01E
 Epicentro: LOS SANTOS - SANTANDER                                             3
 ACTION:UPD 13-02-15 09:14 OP:ep   STATUS:               ID:20130114025925 L   I
 2013-01-14-0257-36M.COL___178                                                 6
 STAT SP IPHASW D HRMM SECON CODA AMPLIT PERI AZIMU VELO AIN AR TRES W  DIS CAZ7
 BAR2 SZ EP   1    259 45.34                             171   -0.09 7 22.0 188 
 BAR2 SZ ES   1    3 0  0.94                             171   -0.13 7 22.0 188 
 BAR2 SZ I         3 0  2.27        55.8 0.38            170           22.0 188 
 BRR  HZ EP     C  259 47.23                             153    0.3210 70.9 300 
 BRR  HN ES   1    3 0  4.67                             153    0.96 7 70.9 300 
 BRR  HZ I         3 0  8.68        24.2 0.14            151           70.9 300 
 PAM  SZ EP   1    259 48.13                             151    0.06 7 78.9  40 
 PAM  SN E         3 0  5.57                                           78.9  40 
 PAM  SN ES   1    3 0  5.57                             151   -0.21 7 78.9  40 
 PAM  SZ I         3 0  6.56        10.3 0.18            155           78.9  40 
 RUS  HZ EP   1    259 49.54                             145    0.13 7 99.5 175 
 RUS  HE ES   1    3 0  7.93                             145   -0.24 7 99.5 175 
 RUS  HZ I         3 0  9.69        15.3 0.38            147           99.5 175 
 PTB  HZ EP        259 51.89                             133   -0.65 9  147 259 
 PTB  HN ES   1    3 0 13.39                             133   -0.34 7  147 259 
 PTB  HZ I         3 0 15.50        15.5 0.10            132            147 259 
 OCA  HE ES   1    3 0 16.23                             130   -0.22 7  161 354 
 OCA  HZ I         3 0 21.33        23.4 0.26            131            161 354 
 ZAR  HZ EP   1    259 58.27                             123    0.26 6  204 293 
 ZAR  HN ES   1    3 0 22.96                             123   -0.51 6  204 293 
 ZAR  HZ I         3 0 30.29        26.5 0.38            123            204 293 
 CHI  HZ EP   1    3 0  3.33                             118    0.20 6  247 195 
 CHI  HN ES   1    3 0 32.62                             118    0.04 6  247 195 
 CHI  HZ I         3 0 38.61         5.9 0.30            119            247 195 
 HEL  HZ EP   1    3 0  6.38                             116    0.74 6  271 256 
 HEL  HN ES   1    3 0 37.61                             116    0.56 6  271 256 
 HEL  HZ I         3 0 45.54         5.4 0.50            116            271 256 
 DBB  SZ ES   1    3 0 49.36                             110   -0.61 5  339 274 
                                                                                
