 2013  114 0006 47.3 L   6.685 -73.278145.6  RSN  4 0.2 1.2LRSN                1
 GAP=212        0.47       4.9     4.9  6.2  0.1597E+02  0.1192E+01 -0.4897E+00E
 Epicentro: GALAN - SANTANDER                                                  3
 ACTION:UPD 13-02-15 09:14 OP:ep   STATUS:               ID:20130114000647 L   I
 2013-01-14-0000-00M.COL___239                                                 6
 STAT SP IPHASW D HRMM SECON CODA AMPLIT PERI AZIMU VELO AIN AR TRES W  DIS CAZ7
 BRR  HZ EP   1    0 7  7.90                             154   -0.34 7 66.9 314 
 BRR  HN ES   1    0 7 24.59                             154    0.05 7 66.9 314 
 BRR  HZ I         0 7 26.28         3.3 0.22            154           66.9 314 
 RUS  HZ EP   1    0 7 10.57                             147    0.21 7 90.3 166 
 RUS  HN ES   1    0 7 28.34                             147    0.02 7 90.3 166 
 RUS  HZ I         0 7 30.01         2.4 0.38            147           90.3 166 
 PTB  HZ EP   1    0 7 12.81                             136   -0.03 7  131 263 
 PTB  HN ES   1    0 7 32.55                             136   -0.19 7  131 263 
 PTB  HZ I         0 7 37.09         2.3 0.42            135            131 263 
 ZAR  HN ES   1    0 7 43.96                             123    0.35 6  196 297 
                                                                                
