 2016  414 0752  4.5 L   6.794 -73.130148.6  RSN 14 0.4 1.8LRSN                1
 GAP=109        0.94       3.1     2.8  5.2 -0.1591E+00  0.2789E+01  0.2143E+01E
 Epicentro: LOS SANTOS - SANTANDER                                             3
 ACTION:UPD 16-05-05 14:21 OP:rebc STATUS:               ID:20160414075204 L   I
 OLDACT:UP  16-04-14 20:28 OP:cara STATUS:               ID:20160414074745     3
 OLDACT:REG 16-04-14 12:33 OP:mh   STATUS:               ID:20160414074745     3
 2016-04-14-0747-45M.COL___304                                                 6
 STAT SP IPHASW D HRMM SECON CODA AMPLIT PERI AZIMU VELO AIN AR TRES W  DIS CAZ7
 BAR2 EZ EP        752 24.64                             171    0.1610 23.0 194 
 BAR2 EZ ES        752 40.06                             171    0.0010 23.0 194 
 BAR2 EZ I         752 41.23        23.1 0.28            170           23.0 194 
 PAM  EZ EP        752 27.46                             152    0.4610 76.8  38 
 PAM  EE ES        752 44.87                             152    0.3310 76.8  38 
 PAM  EZ I         752 46.82         9.2 0.52            154           76.8  38 
 RUS  HZ IP        752 28.04                             145   -0.4510 99.8 177 
 RUS  HN ES        752 47.34                             145    0.1410 99.8 177 
 RUS  HZ I         752 48.73         4.6 0.24            146           99.8 177 
 PTB  HZ EP        752 31.37                             132   -0.49 9  149 259 
 PTB  HN ES        752 52.29                             132   -0.89 9  149 259 
 PTB  HZ I         752 55.06         4.7 0.12            132            149 259 
 SPBC HZ EP        752 33.52                             130    0.23 9  164 220 
 SPBC HN ES        752 55.97                             130    0.24 9  164 220 
 SPBC HZ I         753  0.53        13.0 0.18            130            164 220 
 ZAR  HZ EP   2    752 37.53                             123    0.19 4  206 292 
 ZAR  HN ES        753  2.94                             123    0.01 8  206 292 
 ZAR  HZ I         753  9.80         5.9 0.32            123            206 292 
 NOR  HZ EP   4    752 36.78                             119   -3.74 0  236 235 
 NOR  HE ES        753  9.24                             119    0.64 8  236 235 
 NOR  HZ I         753 13.14         3.6 0.18            119            236 235 
 CHI  HZ EP        752 42.98                             118    0.63 8  248 196 
 CHI  HN ES        753 11.93                             118    0.06 8  248 196 
 CHI  HZ I         753 15.63         4.6 0.64            119            248 196 
 HEL  HZ EP   2    752 45.62                             115    0.58 4  274 256 
 HEL  HN ES        753 16.62                             115   -0.03 8  274 256 
 HEL  HZ I         753 25.40         2.5 0.50            116            274 256 
 URE  HN ES        753 17.66                             114   -0.57 7  286 292 
 GUY2CHZ EP   2    752 48.93                             113    0.56 4  302 235 
 GUY2CHN ES        753 22.90                             113    0.32 7  302 235 
 GUY2CHZ I         753 30.89         3.8 0.36                           302 235 
 PTGC HZ EP        752 47.88                             112   -0.48 7  307 159 
 PTGC HN ES        753 21.69                             112   -0.87 7  307 159 
 PTGC HZ I         753 24.06         4.0 0.42            114            307 159 
 CBOC HZ EP   2    752 52.10                             110    0.39 3  335 252 
 CBOC HN ES        753 28.55                             110    0.02 7  335 252 
 SDV  BZ EP        752 54.34                             109   -0.22 6  360  50 
 SDV  BN ES   4    753 32.04                             109   -1.56 0  360  50 
                                                                                
