 2011  214 0937 16.7 L   6.784 -73.155135.6  RSN  5 0.2 1.3LRSN                1
 GAP=158        0.54       2.7     5.9  6.2 -0.6920E+01  0.1151E+02 -0.5460E+01E
 Epicentro: LOS SANTOS - SANTANDER                                             3
 ACTION:UP  11-03-28 15:08 OP:jfem STATUS:               ID:20110214093716 L   I
 2011-02-14-0934-02S.COL___137                                                 6
 STAT SP IPHASW D HRMM SECON CODA AMPLIT PERI AZIMU VELO SNR AR TRES W  DIS CAZ7
 BAR2 SZ EP   1    937 34.93                             171    -0.2 7   21 188 
 BAR2 SZ I         937 35.29         5.4 0.39                            21 188 
 BAR2 SZ ES   1    937 49.28                             171    -0.2 7   21 188 
 RUS  HZ EP   1    937 39.51                             142     0.1 7   99 175 
 RUS  HN ES   1    937 57.28                             142     0.2 7   99 175 
 RUS  HZ I         937 58.19         2.6 0.30                            99 175 
 GRA  SZ EP   1    937 40.90                             134    -0.4 7  128  18 
 GRA  SZ ES   1    938  0.39                             134     0.0 7  128  18 
 GRA  SZ I         938  2.87         3.7 0.49                           128  18 
 OCA  SZ EP   1    937 44.72                             127     0.3 7  162 354 
 OCA  SZ ES   1    938  6.29                             127     0.2 7  162 354 
 OCA  SZ I         938  9.01         3.9 0.42                           162 354 
 NOR  SE ES   1    938 18.88                             116    -0.1 6  233 235 
                                                                                
