 2017  714 0633 44.9 L   6.790 -73.135151.8  RSN  6 0.4 1.4LRSN                1
 GAP=238        0.90       5.1     5.4  6.5  0.1122E+02  0.4860E+01  0.1397E+01E
 Epicentro: LOS SANTOS - SANTANDER                                             3
 ACTION:UPD 17-08-30 15:32 OP:rebc STATUS:               ID:20170714063344 L   I
 OLDACT:REG 17-07-14 12:42 OP:dnl  STATUS:               ID:20170714062737     3
 2017-07-14-0628-00M.COL___377                                                 6
 STAT SP IPHASW D HRMM SECON CODA AMPLIT PERI AZIMU VELO AIN AR TRES W  DIS CAZ7
 BAR2 EZ IP     C  634  5.15                             171   -0.0810 22.5 193 
 BAR2 EZ ES        634 20.81                             171   -0.2910 22.5 193 
 BAR2 EZ I         634 21.60        11.9 0.14            168           22.5 193 
 BRR  HZ EP        634  7.02                             153    0.2410 72.8 299 
 BRR  HE ES        634 24.34                             153    0.4810 72.8 299 
 BRR  HZ I         634 25.37         4.1 0.34            150           72.8 299 
 RUS  HZ EP        634  8.98                             145   -0.1810 99.4 177 
 RUS  HE ES        634 28.08                             145   -0.0010 99.4 177 
 RUS  HZ I         634 28.88         1.9 0.38            145           99.4 177 
 PTB  HZ EP        634 12.17                             133   -0.27 9  149 259 
 PTB  HN ES        634 33.20                             133   -0.73 9  149 259 
 PTB  HZ I         634 35.95         1.9 0.18            131            149 259 
 SPBC HZ EP        634 14.05                             130    0.20 9  163 220 
 SPBC HN ES        634 37.04                             130    0.61 9  163 220 
 SPBC HZ I         634 40.87         5.6 0.10            129            163 220 
 ZAR  HZ EP   3    634 18.59                             123    0.70 2  206 292 
 ZAR  HN ES        634 43.62                             123   -0.01 8  206 292 
 ZAR  HZ I         634 49.55         3.1 0.26            123            206 292 
                                                                                
