 2016  714 0631 54.4 L   6.852 -73.135143.3  RSN 24 0.6 2.4LRSN                1
 GAP= 70        1.29       3.4     3.5  6.2 -0.3631E+01  0.5843E+01  0.3070E-01E
 Epicentro: LOS SANTOS - SANTANDER                                             3
 ACTION:UPD 17-03-29 16:50 OP:lp   STATUS:               ID:20160714063154 L   I
 OLDACT:UP  16-07-14 16:06 OP:dani STATUS:               ID:20160714062759     3
 OLDACT:UP  16-07-14 16:05 OP:dani STATUS:               ID:20160714062759     3
 OLDACT:UP  16-07-14 16:03 OP:dani STATUS:               ID:20160714062759     3
 OLDACT:REG 16-07-14 12:45 OP:dani STATUS:               ID:20160714062759     3
 2016-07-14-0627-59S.COL___322                                                 6
 STAT SP IPHASW D HRMM SECON CODA AMPLIT PERI AZIMU VELO AIN AR TRES W  DIS CAZ7
 BAR2 EZ EP        632 13.82                             168   -0.0610 29.2 190 
 BAR2 EZ ES        632 29.11                             168    0.0510 29.2 190 
 BAR2 EZ I         632 29.84        98.2 0.12            168           29.2 190 
 BRR  HZ IP     C  632 15.68                             153    0.4810 69.7 294 
 BRR  HZ I         632 35.78        55.9 0.18            148           69.7 294 
 PAM  EZ EP        632 16.64                             152    0.5810 72.2  42 
 PAM  EE ES        632 33.45                             152    0.5110 72.2  42 
 PAM  EZ I         632 35.46        42.7 0.74            150           72.2  42 
 RUS  HZ EP        632 18.08                             142   -0.2610  106 177 
 RUS  HE ES        632 36.62                             142   -0.3810  106 177 
 RUS  HZ I         632 38.14        21.7 0.26            140            106 177 
 PTB  HZ EP        632 20.43                             131   -0.96 9  150 257 
 PTB  HN ES        632 41.69                             131   -0.75 9  150 257 
 PTB  HZ I         632 43.88        49.9 0.14            127            150 257 
 TAM  HZ IP     D  632 22.13                             130    0.20 9  156 107 
 TAM  HN ES        632 43.66                             130    0.26 9  156 107 
 TAM  HZ I         632 43.95        16.5 0.60            129            156 107 
 SPBC HZ EP        632 22.68                             127   -0.54 9  168 218 
 SPBC HE ES        632 44.85                             127   -0.85 9  168 218 
 SPBC HZ I         632 50.13        47.2 0.28            125            168 218 
 ZAR  HZ EP        632 26.69                             122    0.10 9  203 291 
 ZAR  HN ES        632 52.12                             122    0.43 9  203 291 
 ZAR  HZ I         632 57.24        40.7 0.34            118            203 291 
 NOR  HZ EP        632 29.74                             117   -0.72 8  239 234 
 NOR  HE ES        632 57.80                             117   -0.78 8  239 234 
 NOR  HZ I         633  4.15        30.9 0.18            115            239 234 
 CHI  HZ EP        632 32.94                             116    0.33 8  255 195 
 CHI  HN ES        633  1.83                             116   -0.58 8  255 195 
 CHI  HZ I         633  8.07        11.3 0.78            114            255 195 
 ROSC BZ EP   4    632 34.42                             116    1.42 0  258 211 
 ROSC BE ES        633  3.73                             116    0.63 8  258 211 
 ROSC BZ I         633  9.48        27.0 0.40            113            258 211 
 HEL  HZ EP   4    632 35.72                             114    0.94 0  275 255 
 HEL  HN ES   4    633  3.81                             114   -2.47 0  275 255 
 HEL  HZ I         633 13.03        21.3 0.46            111            275 255 
 URE  HZ EP   4    632 34.03                             113   -1.21 0  283 291 
 SOCV BZ EP        632 36.52                             112   -0.35 7  297  58 
 SOCV BN ES   4    633  8.84                             112   -1.16 0  297  58 
 GUY2CHZ EP        632 38.97                             111    0.58 7  306 234 
 GUY2CHE ES        633 13.43                             111    0.73 7  306 234 
 GUY2CHZ I         633 18.47        17.1 0.38                           306 234 
 PTGC HZ EP   4    632 37.01                             111   -1.71 0  314 159 
 PTGC HN ES   4    633 10.35                             111   -2.93 0  314 159 
 PTGC HZ I         633 15.14         8.9 0.78            109            314 159 
 LL6C HZ EP        632 38.62                             110   -0.73 7  319 357 
 LL6C HE ES        633 14.65                             110    0.25 7  319 357 
 LL6C HZ I         633 19.94         4.5 0.56            108            319 357 
 ELA  HN ES        633 18.80                             109    0.23 7  334 229 
 CBOC HZ EP   4    632 42.78                             109    1.22 0  337 251 
 CBOC HN ES        633 18.48                             109    0.15 7  337 251 
 CBOC HZ I         633 19.48         6.9 0.42            107            337 251 
 ARGC HZ EP   9    632 44.55                             108    1.16 0  354 340 
 ARGC HN ES        633 23.22                             108    0.47 6  354 340 
 ARGC HZ I         633 24.96         5.1 0.22            106            354 340 
 ANIL HE ES        633 25.73                             108    1.82 6  362 224 
 PRA  HZ EP        632 48.13                             106   -0.37 6  398 209 
 PRA  HE ES        633 31.47                             106    0.78 6  398 209 
 PRA  HZ I         633 34.81        11.1 0.54            104            398 209 
 ORTC HZ EP        632 48.68                             106   -0.19 6  401 216 
 ORTC HN ES        633 32.32                             106    0.97 6  401 216 
 ORTC HZ I         633 36.94        10.3 0.50            104            401 216 
 SJC  HZ EP   4    632 47.94                             105   -1.46 0  405 326 
 SJC  HN ES   4    633 29.58                             105   -2.71 0  405 326 
 SJC  HZ I         633 33.04         7.9 0.64            103            405 326 
 PAL  HZ EP        632 50.36                             105    0.41 6  410 238 
 PAL  HZ I         633 38.06         5.5 0.36            103            410 238 
 MACC HZ EP   4    633  1.09                             101   -2.67 0  526 189 
                                                                                
