 2014  814 0707 46.9 L   6.533 -73.588103.8  RSN  4 0.6 1.1LRSN                1
 GAP=127        1.50       7.4     7.6 14.0 -0.1101E+02  0.2332E+02  0.2690E+02E
 Epicentro: EL CARMEN - SANTANDER                                              3
 ACTION:UPD 14-09-15 21:49 OP:nd   STATUS:               ID:20140814070746 L   I
 OLDACT:UP  14-08-14 16:15 OP:cam  STATUS:               ID:20140814070000     3
 OLDACT:REG 14-08-14 13:29 OP:cam  STATUS:               ID:20140814070000     3
 2014-08-14-0700-00M.COL___285                                                 6
 STAT SP IPHASW D HRMM SECON CODA AMPLIT PERI AZIMU VELO AIN AR TRES W  DIS CAZ7
 BAR2 SZ EP        7 8  1.84                             155   -0.6010 45.3  82 
 BAR2 SZ ES        7 8 14.36                             155   -0.1810 45.3  82 
 BAR2 SZ I         7 8 15.16         6.2 0.50            156           45.3  82 
 BRR  HZ EP        7 8  2.90                             145   -0.3910 64.9 348 
 BRR  HE ES        7 8 17.01                             145    0.9610 64.9 348 
 PTB  HZ EP        7 8  5.89                             134    0.0910 96.0 270 
 PTB  HE ES        7 8 19.75                             134   -0.7610 96.0 270 
 PTB  HZ I         7 8 20.93         2.3 0.18            135           96.0 270 
 SPBC HZ EP        7 8  8.06                             129    0.7710  111 209 
 SPBC HN ES        7 8 23.29                             129    0.1310  111 209 
 SPBC HZ I         7 8 25.90         2.0 0.18            129            111 209 
                                                                                
