 2017  514 0111 12.3 L   6.719 -73.207148.6  RSN  5 0.4 1.3LRSN                1
 GAP=224        0.48       4.7     4.8  6.8  0.2960E+01 -0.5695E+01  0.4630E+01E
 Epicentro: VILLANUEVA - SANTANDER                                             3
 ACTION:UPD 17-06-16 13:36 OP:jn   STATUS:               ID:20170514011112 L   I
 OLDACT:REG 17-05-14 12:47 OP:lv   STATUS:               ID:20170514010741     3
 2017-05-14-0108-00M.COL___357                                                 6
 STAT SP IPHASW D HRMM SECON CODA AMPLIT PERI AZIMU VELO AIN AR TRES W  DIS CAZ7
 BRR  HZ EP        111 33.70                             153    0.0110 70.4 308 
 BRR  HN ES        111 50.41                             153    0.0210 70.4 308 
 BRR  HZ I         111 54.62                             153           70.4 308 
 RUS  HZ EP   2    111 36.04                             147    0.30 5 92.4 171 
 RUS  HN ES   2    111 53.99                             147   -0.05 5 92.4 171 
 PTB  HZ EP   2    111 38.62                             134   -0.13 5  140 262 
 PTB  HN ES        111 59.20                             134   -0.20 9  140 262 
 PTB  HZ I         112  1.40         1.8 0.55            137            140 262 
 SPBC HN ES   3    112  2.67                             132    1.12 2  152 219 
 ZAR  HE ES   3    112 11.11                             123    1.22 2  201 295 
 ZAR  HZ I         112 11.79         2.0 0.12            125            201 295 
                                                                                
