 2012  914 0221 34.6 L   6.770 -73.463113.8  RSN  5 0.2 1.2LRSN                1
 GAP=135        0.50       7.9     3.6  9.9 -0.3550E+01  0.7463E+01 -0.3066E+02E
 Epicentro: EL CARMEN DE CHUCURI - SANTANDER                                   3
 ACTION:UPD 12-10-22 14:18 OP:ep   STATUS:               ID:20120914022134 L   I
 2012-09-14-0220-00M.COL___227                                                 6
 STAT SP IPHASW D HRMM SECON CODA AMPLIT PERI AZIMU VELO AIN AR TRES W  DIS CAZ7
 BAR2 SZ EP   1    221 51.25                             161    0.39 7 36.8 122 
 BAR2 SZ ES   2    222  3.52                             161   -0.01 5 36.8 122 
 BAR2 SZ I         222  4.92         7.8 0.16                          36.8 122 
 GIR2 SZ EP   1    221 50.76                             157   -0.34 7 45.3  41 
 BRR  HZ EP   1    221 50.97                             156    0.03 7 46.3 324 
 BRR  HZ I         221 51.64         6.2 0.15                          46.3 324 
 PTB  HZ EP   1    221 55.68                             132   -0.12 7  113 257 
 PTB  HZ I         221 56.01         1.8 0.32                           113 257 
 PTB  HN ES   1    222 12.23                             132   -0.10 7  113 257 
 ZAR  HN ES   2    222 23.52                             119    0.39 4  174 297 
                                                                                
