 2016  214 0855 17.0 L   6.580 -73.451118.8  RSN 14 0.5 2.0LRSN                1
 GAP= 65        1.18       2.9     3.8  6.9 -0.3494E+01  0.8644E+01 -0.2834E+01E
 Epicentro: EL CARMEN - SANTANDER                                              3
 ACTION:UPD 16-03-04 21:26 OP:rebc STATUS:               ID:20160214085517 L   I
 OLDACT:REG 16-02-14 14:49 OP:ak   STATUS:               ID:20160214084743     3
 2016-02-14-0847-43M.COL___295                                                 6
 STAT SP IPHASW D HRMM SECON CODA AMPLIT PERI AZIMU VELO AIN AR TRES W  DIS CAZ7
 BAR2 EZ EP        855 33.81                             165    0.2410 29.7  87 
 BAR2 EZ ES        855 46.77                             165    0.2710 29.7  87 
 BAR2 EZ I         855 47.49        66.8 0.52            170           29.7  87 
 RUS  HZ EP        855 36.95                             142   -0.1110 86.2 152 
 RUS  HN ES        855 52.58                             142   -0.1310 86.2 152 
 RUS  HZ I         855 53.80         9.7 0.26            145           86.2 152 
 PTB  HZ EP        855 37.49                             134   -0.9710  111 268 
 PTB  HN ES        855 54.44                             134   -0.7610  111 268 
 PTB  HZ I         856  0.59        14.9 0.40            133            111 268 
 PAM  EZ EP        855 39.73                             132    0.0210  118  45 
 PAM  EN ES        855 57.39                             132   -0.0510  118  45 
 PAM  EZ I         856  1.71         7.5 0.14            135            118  45 
 SPBC HZ EP        855 39.10                             131   -0.5610  123 214 
 SPBC HN ES        855 57.16                             131   -0.1910  123 214 
 SPBC HZ I         856  2.74        17.0 0.23            131            123 214 
 OCA  HZ EP        855 45.10                             119   -0.75 9  184   5 
 OCA  HN ES        856  9.00                             119    0.63 9  184   5 
 OCA  HZ I         856 14.80        25.8 0.20            120            184   5 
 ZAR  HZ EP        855 46.29                             118    0.49 9  185 303 
 ZAR  HE ES        856  8.89                             118    0.61 9  185 303 
 ZAR  HZ I         856 13.56         8.9 0.09            118            185 303 
 NOR  HZ EP        855 47.20                             117    0.51 9  193 234 
 NOR  HE ES        856 10.48                             117    0.62 9  193 234 
 NOR  HZ I         856 17.78        10.2 0.18            118            193 234 
 CHI  HZ EP        855 49.87                             114   -0.01 8  218 188 
 CHI  HE ES        856 16.43                             114    0.90 8  218 188 
 CHI  HZ I         856 19.92         4.4 0.24            116            218 188 
 GUY2CHZ EP   2    855 54.87                             110    0.20 4  260 235 
 GUY2CHN ES        856 24.20                             110    0.13 8  260 235 
 GUY2CHZ I         856 28.69         4.6 0.42                           260 235 
 URE  HZ EP   4    855 36.71                             109   -17.9 0  264 300 
 URE  HN ES   4    856 22.42                             109   -1.51 0  264 300 
 ANIL HZ EP   4    856  5.74                             105    4.69 0  316 223 
 ANIL HE ES   4    856 38.91                             105    3.49 0  316 223 
 ANIL HZ I         856 42.12         8.7 0.19            106            316 223 
 LL6C HZ EP   2    856  4.36                             103   -0.24 3  350   3 
 LL6C HN ES        856 41.67                             103   -0.07 6  350   3 
 LL6C HZ I         856 49.67         4.5 0.44            104            350   3 
 ORTC HZ EP   4    856  4.50                             103   -0.93 0  356 214 
 ORTC HN ES        856 42.88                             103   -0.33 6  356 214 
 ORTC HZ I         856 51.57         3.4 0.58            104            356 214 
 SJC  HZ EP   4    856 10.31                             101   -1.97 0  413 333 
 SJC  HN ES   4    856 52.33                             101   -3.09 0  413 333 
 SJC  HZ I         856 53.89         2.7 0.33            101            413 333 
                                                                                
