 2012  914 0437 14.8 L   6.646 -73.202138.1  RSN  5 0.4 1.2LRSN                1
 GAP=159        0.82      10.1     6.7  8.1  0.2948E+01  0.1927E+02  0.7108E+01E
 Epicentro: BARICHARA - SANTANDER                                              3
 ACTION:UP  12-10-22 14:18 OP:ep   STATUS:               ID:20120914043714 L   I
 2012-09-14-0430-00M.COL___227                                                 6
 STAT SP IPHASW D HRMM SECON CODA AMPLIT PERI AZIMU VELO AIN AR TRES W  DIS CAZ7
 BAR2 SZ EP   1    437 33.68                             177    0.37 7 6.32 160 
 BAR2 SZ ES        437 47.84                             177    0.1210 6.32 160 
 BAR2 SZ I    1    437 49.26         3.7 0.09                          6.32 160 
 GIR2 SZ EP   1    437 33.64                             160   -0.54 7 47.9   1 
 GIR2 SZ ES   1    437 48.84                             160   -0.43 7 47.9   1 
 BRR  HZ EP   1    437 35.46                             150    0.01 7 76.0 312 
 BRR  HZ I         437 37.36         3.8 0.11                          76.0 312 
 BRR  HN ES   1    437 52.11                             150    0.58 7 76.0 312 
 PTB  HZ EP   1    437 40.74                             132    0.34 7  139 265 
 PTB  HN ES   1    437 59.70                             132   -0.64 7  139 265 
 PTB  HN I         438  4.84         2.1 0.20                           139 265 
 ZAR  HE ES   2    438 12.21                             120    0.22 4  206 297 
                                                                                
