 2011 1114 0019 57.5 L   6.834 -73.019135.6  RSN  4 0.4 1.3LRSN                1
 GAP=152        0.72       8.9     8.8  9.3  0.5877E+01 -0.1050E+02  0.6747E+01E
 Epicentro: CEPITA - SANTANDER                                                 3
 ACTION:UPD 12-07-13 16:10 OP:ep   STATUS:               ID:20111114001957 L   I
 2011-11-14-0017-10S.COL___179                                                 6
 STAT SP IPHASW D HRMM SECON CODA AMPLIT PERI AZIMU VELO AIN AR TRES W  DIS CAZ7
 BAR2 SZ EP   1    020 15.98                             166   -0.17 7 32.3 214 
 BAR2 SZ ES   1    020 30.65                             166   -0.04 7 32.3 214 
 BAR2 SZ I         020 33.79         4.5 0.66                          32.3 214 
 PAM  SZ EP   2    020 18.87                             153    0.89 5 66.1  32 
 PAM  SN ES   2    020 33.61                             153   -0.34 5 66.1  32 
 BRR  HZ EP   1    020 17.77                             147   -0.51 7 82.3 292 
 BRR  HZ I         020 18.70         4.9 0.40                          82.3 292 
 BRR  HN ES   1    020 34.80                             147    0.33 7 82.3 292 
 RUS  HZ EP   2    020 20.92                             141    0.35 5  104 184 
                                                                                
