 2013  414 0502 33.7 L   7.400 -73.333120.7  RSN  7 0.4 2.4LRSN                1
 GAP=123        1.01       4.1     4.2  6.3  0.1250E+01  0.3494E+01 -0.7166E+01E
 Epicentro: EL PLAYON - SANTANDER                                              3
 ACTION:UPD 13-05-22 14:38 OP:EP   STATUS:               ID:20130414050233 L   I
 2013-04-14-0458-50M.COL___212                                                 6
 STAT SP IPHASW D HRMM SECON CODA AMPLIT PERI AZIMU VELO AIN AR TRES W  DIS CAZ7
 GIR2 SZ EP        5 2 50.84                             161    0.1710 38.7 157 
 GIR2 SZ ES        5 3  3.74                             161   -0.1710 38.7 157 
 GIR2 SZ I         5 3  4.47        40.0 0.28            165           38.7 157 
 BRR  HZ IP     C  5 2 51.58                             155    0.4610 52.9 232 
 BRR  HN ES        5 3  5.51                             155    0.8010 52.9 232 
 BRR  HN I         5 3  5.90       249.7 0.16            155           52.9 232 
 PAM  SZ EP        5 2 52.96                             148    0.1210 70.2  95 
 PAM  SN ES        5 3  7.68                             148   -0.0910 70.2  95 
 PAM  SN I         5 3 10.22        30.1 0.50            152           70.2  95 
 BAR2 SZ EP        5 2 54.13                             141    0.1810 90.8 169 
 BAR2 SZ ES        5 3  9.11                             141   -0.6310 90.8 169 
 PTB  HZ EP        5 2 59.66                             124    0.04 9  156 233 
 PTB  HN ES        5 3 19.30                             124   -0.53 9  156 233 
 PTB  HN I         5 3 24.50        16.7 0.22            125            156 233 
 SML  HZ EP        5 3  1.51                             121   -0.01 9  175 332 
 SML  HE ES        5 3 22.72                             121   -0.49 9  175 332 
 SML  HE I         5 3 28.64        40.1 0.10            121            175 332 
 TAM  HZ EP        5 3  4.32                             117   -0.03 9  201 122 
                                                                                
