 2013  314 0850 30.8 L   6.332 -73.952 17.9  RSN  6 0.4 2.0LRSN                1
 GAP=148        1.00       3.4     2.2  5.0  0.7430E+00 -0.2114E+01 -0.8602E-01E
 Epicentro: CIMITARRA - SANTANDER                                              3
 ACTION:UPD 13-04-09 14:02 OP:ep   STATUS:               ID:20130314085030 L   I
 2013-03-14-0850-00M.COL___243                                                 6
 STAT SP IPHASW D HRMM SECON CODA AMPLIT PERI AZIMU VELO AIN AR TRES W  DIS CAZ7
 PTB  HZ IP     D  850 40.82                             104   -0.0210 60.3 292 
 PTB  HN ES        850 49.13                             104    0.4810 60.3 292 
 PTB  HN I         850 49.70        80.2 0.22            106           60.3 292 
 BRR  HZ EP        850 44.92                              99   -0.2710 89.7  17 
 BRR  HN ES        850 56.18                              99   -0.2110 89.7  17 
 BRR  HN I         850 56.97        77.2 0.14            101           89.7  17 
 BAR2 SZ EP        850 45.64                             100    0.1710 89.9  71 
 BAR2 SZ ES   1    850 56.38                             100   -0.50 7 89.9  71 
 BAR2 SZ I         850 56.96        27.3 0.38            101           89.9  71 
 RUS  HZ EP        850 48.62                              98    0.2110  108 117 
 RUS  HN ES   1    851  2.14                              98    0.02 7  108 117 
 RUS  HN I         851  2.69        35.1 0.16             99            108 117 
 HEL  HZ IP     D  850 56.35                              56   -0.90 9  175 265 
 HEL  HN ES   4    851 15.40                              56   -2.44 0  175 265 
 HEL  HN I         851 15.78         6.4 0.22             56            175 265 
 PAM  SZ EP        850 58.28                              56    0.58 9  178  51 
 PAM  SN ES        851 18.88                              56    0.22 9  178  51 
 PAM  SN I         851 19.98        17.1 0.22             56            178  51 
                                                                                
