 2013  114 0904 32.6 L   6.880 -73.279117.1  RSN  9 0.3 2.6LRSN                1
 GAP=163        0.56       2.5     3.1  5.0  0.9285E+00  0.5165E+01 -0.5495E+00E
 Epicentro: BETULIA - SANTANDER                                                3
 ACTION:UPD 13-02-15 09:14 OP:ep   STATUS:               ID:20130114090432 L   I
 2013-01-14-0900-00M.COL___241                                                 6
 STAT SP IPHASW D HRMM SECON CODA AMPLIT PERI AZIMU VELO AIN AR TRES W  DIS CAZ7
 BAR2 SZ EP   1    9 4 49.52                             163    0.45 7 33.5 161 
 BAR2 SZ ES   1    9 5  2.11                             163    0.18 7 33.5 161 
 BAR2 SZ I         9 5  3.80       700.7 0.26            141           33.5 161 
 BRR  HZ EP   1    9 4 49.86                             153    0.21 7 54.1 298 
 RUS  HZ EP   1    9 4 54.31                             134   -0.23 7  111 169 
 RUS  HE ES   1    9 5 11.34                             134   -0.33 7  111 169 
 RUS  HZ I         9 5 13.46        22.1 0.44            112            111 169 
 PTB  HZ EP   1    9 4 56.24                             127    0.09 7  136 254 
 PTB  HE ES   1    9 5 14.29                             127   -0.25 7  136 254 
 PTB  HZ I         9 5 16.74        91.7 0.40            111            136 254 
 OCA  HZ EP   1    9 4 57.49                             124   -0.32 7  150 358 
 OCA  HN ES   1    9 5 17.42                             124   -0.08 7  150 358 
 OCA  HZ I         9 5 21.51       110.1 0.30            109            150 358 
 ZAR  HZ EP   1    9 5  1.07                             118   -0.40 7  187 291 
 ZAR  HN ES   1    9 5 24.21                             118    0.20 7  187 291 
 ZAR  HZ I         9 5 27.88        55.2 0.30            104            187 291 
 ROSC BZ EP   1    9 5  9.54                             110    0.19 6  253 207 
 CHI  HZ EP   1    9 5  9.45                             110    0.01 6  254 191 
 CHI  HZ I         9 5 43.90         9.0 0.28             99            254 191 
 HEL  HZ EP   1    9 5 10.73                             109    0.61 6  260 253 
 HEL  HN ES   1    9 5 39.17                             109   -0.25 6  260 253 
 HEL  HZ I         9 5 43.84        30.7 0.32             99            260 253 
                                                                                
