 2012  614 0557 54.7 L   6.799 -73.183142.3  RSN  4 0.3 1.3LRSN                1
 GAP=143        0.59       4.8     4.6  6.8 -0.6780E+01  0.9081E+01 -0.3232E+01E
 Epicentro: LOS SANTOS - SANTANDER                                             3
 ACTION:UPD 12-08-06 17:49 OP:ep   STATUS:               ID:20120614055754 L   I
 2012-06-14-0550-00M.COL___201                                                 6
 STAT SP IPHASW D HRMM SECON CODA AMPLIT PERI AZIMU VELO AIN AR TRES W  DIS CAZ7
 BAR2 SZ ES   1    558 29.43                             170    0.50 7 22.8 180 
 BAR2 SZ I         558 31.86         6.8 0.37                          22.8 180 
 PAM  SZ EP   1    558 16.88                             149    0.11 7 80.2  42 
 PAM  SE ES   1    558 33.65                             149   -0.29 7 80.2  42 
 RUS  HZ EP   1    558 18.36                             143    0.18 7  101 174 
 RUS  HN ES   1    558 36.09                             143   -0.36 7  101 174 
 RUS  HZ I         558 38.17         2.6 0.35                           101 174 
 PTB  HZ EP   1    558 21.04                             132   -0.02 7  144 259 
 PTB  HN ES   1    558 41.46                             132   -0.13 7  144 259 
 PTB  HZ I         558 44.40         2.0 0.16                           144 259 
                                                                                
