 2015 1014 0014 32.5 L   6.776 -73.111143.8  RSN  4 0.2 1.7LRSN                1
 GAP=142        0.67       3.5     5.2  5.4 -0.3676E+00 -0.1908E+01  0.6915E+00E
 Epicentro: LOS SANTOS - SANTANDER                                             3
 ACTION:UPD 15-12-22 20:39 OP:cam  STATUS:               ID:20151014001432 L   I
 OLDACT:REG 15-10-14 12:22 OP:stll STATUS:               ID:20151014000747     3
 2015-10-14-0007-47M.COL___337                                                 6
 STAT SP IPHASW D HRMM SECON CODA AMPLIT PERI AZIMU VELO AIN AR TRES W  DIS CAZ7
 BAR2 EZ EP        014 51.73                             171   -0.1210 21.8 201 
 BAR2 EZ ES        015  6.55                             171   -0.4110 21.8 201 
 BAR2 EZ I         015  9.42        10.7 0.24            168           21.8 201 
 BRR  HZ EP        014 53.50                             151   -0.1910 75.8 299 
 BRR  HN ES        015 10.50                             151    0.2710 75.8 299 
 BRR  HZ I         015 16.16         8.9 0.16            147           75.8 299 
 PAM  EZ EP        014 54.70                             151    0.2210 77.1  36 
 PAM  EZ I         014 54.88        18.2 0.20            153           77.1  36 
 PAM  EN ES        015 11.63                             151    0.0010 77.1  36 
 RUS  HZ EP        014 55.74                             144   -0.1010 97.8 178 
 RUS  HZ I         014 56.71         3.7 0.12            146           97.8 178 
 RUS  HE ES        015 14.39                             144    0.3310 97.8 178 
                                                                                
