 2014 1214 0556 25.9 L   6.859 -73.294116.5  RSN  6 0.5 1.1LRSN                1
 GAP=158        1.34       5.0     6.3 11.1  0.6608E+01 -0.2029E+01 -0.7753E+01E
 Epicentro: BETULIA - SANTANDER                                                3
 ACTION:UPD 15-02-10 17:03 OP:nd   STATUS:               ID:20141214055625 L   I
 OLDACT:REG 14-12-14 13:56 OP:stll STATUS:               ID:20141214054746     3
 2014-12-14-0547-46M.COL___279                                                 6
 STAT SP IPHASW D HRMM SECON CODA AMPLIT PERI AZIMU VELO AIN AR TRES W  DIS CAZ7
 BAR2 EZ EP        556 42.69                             164    0.3710 31.9 157 
 BRR  HZ EP        556 42.98                             153    0.0410 53.8 301 
 BRR  HZ I         556 43.20         4.6 0.12            152           53.8 301 
 BRR  HN ES        556 56.26                             153    0.0510 53.8 301 
 RUS  HZ EP        556 47.40                             134   -0.2910  109 168 
 RUS  HE ES        557  4.72                             134    0.0610  109 168 
 RUS  HZ I         557  6.06         1.3 0.26            139            109 168 
 PTB  HZ EP        556 48.17                             127   -1.1010  133 255 
 PTB  HN ES        557  7.74                             127    0.2810  133 255 
 PTB  HZ I         557 15.58         1.3 0.26            129            133 255 
 OCA  HZ EP        556 52.31                             123    0.94 9  153 359 
 OCA  HN ES        557 10.43                             123   -0.78 9  153 359 
 OCA  HZ I         557 16.24         2.9 0.20            127            153 359 
 ZAR  HZ EP        556 55.11                             118    0.37 9  186 292 
 ZAR  HN ES        557 17.31                             118    0.11 9  186 292 
 ZAR  HZ I         557 20.76         1.6 0.32            120            186 292 
                                                                                
