 2013  414 0600 15.5 L   6.584 -73.158141.4  RSN  4 0.1 1.4LRSN                1
 GAP=272        0.32       6.9     3.7  7.3 -0.1620E+02 -0.1772E+02  0.3639E+02E
 Epicentro: SAN GIL - SANTANDER                                                3
 ACTION:UPD 13-05-22 14:38 OP:EP   STATUS:               ID:20130414060015 L   I
 2013-04-14-0558-43M.COL___212                                                 6
 STAT SP IPHASW D HRMM SECON CODA AMPLIT PERI AZIMU VELO AIN AR TRES W  DIS CAZ7
 BAR2 SZ EP   1    6 0 34.45                             179    0.06 7 2.89 288 
 GIR2 SZ EP        6 0 35.48                             158   -0.0810 54.9 356 
 BRR  HZ EP   1    6 0 37.01                             147   -0.01 7 84.3 313 
 BRR  HN ES        6 0 53.82                             147    0.0510 84.3 313 
 BRR  HZ I         6 1 32.03         2.7 0.48            114           84.3 313 
 PTB  HZ EP   1    6 0 41.89                             132    0.12 7  144 268 
 PTB  HN ES        6 1  2.18                             132   -0.06 9  144 268 
 PTB  HN I         6 1  8.68         6.2 0.32            116            144 268 
                                                                                
