 2011 1014 0708 35.5 L   6.854 -73.082156.7  RSN  4 0.3 1.2LRSN                1
 GAP=248        0.43       9.8    10.5  7.9  0.8405E+02 -0.2075E+02 -0.2161E+02E
 Epicentro: LOS SANTOS - SANTANDER                                             3
 ACTION:UPD 12-07-13 16:03 OP:ep   STATUS:               ID:20111014070430 L   I
 2011-10-14-0704-30S.COL___168                                                 6
 STAT SP IPHASW D HRMM SECON CODA AMPLIT PERI AZIMU VELO AIN AR TRES W  DIS CAZ7
 BAR2 SZ EP   1    7 8 56.43                             168   -0.15 7 30.9 201 
 BAR2 SZ I         7 9  8.14         5.9 0.56                          30.9 201 
 BAR2 SZ ES   2    7 9 12.69                             168   -0.35 5 30.9 201 
 BRR  HZ EP   2    7 8 58.37                             153    0.36 5 75.0 292 
 BRR  HZ I         7 8 58.79         3.5 0.12                          75.0 292 
 BRR  HE ES   2    7 9 15.88                             153    0.28 5 75.0 292 
 RUS  HZ EP   2    7 9  0.71                             144    0.01 5  106 180 
 RUS  HZ I         7 9 18.54         1.1 0.70                           106 180 
 RUS  HN ES   2    7 9 20.62                             144    0.23 5  106 180 
 ZAR  HN ES   2    7 9 35.04                             124   -0.28 4  208 290 
 ZAR  HZ I         7 9 40.09         1.5 0.43                           208 290 
                                                                                
