 2010 1214 0944 51.8 L   6.809 -73.046147.7  RSN  9 0.4 2.2LRSN                1
 GAP=170        0.75       3.5     7.7  9.5 -0.1066E+02  0.2767E+02 -0.2679E+01E
 Epicentro: LOS SANTOS - SANTANDER                                             3
 ACTION:UP  11-01-14 15:24 OP:pat  STATUS:               ID:20101214094451 L   I
 2010-12-14-0940-00M.COL___137                                                 6
 STAT SP IPHASW D HRMM SECON CODA AMPLIT PERI AZIMU VELO SNR AR TRES W  DIS CAZ7
 BTL  SZ EP   1    945 12.00                             169     0.3 7   27 296 
 BAR2 SZ EP        945 11.64                             169    -0.110   28 212 
 BAR2 SZ I         945 28.43        52.7 0.28                            28 212 
 RUS  HZ EP   1    945 15.52                             144    -0.3 7  101 182 
 RUS  HN ES   1    945 34.56                             144     0.0 7  101 182 
 GRA  SZ EP        945 17.46                             138     0.610  122  13 
 GRA  SZ I         945 38.74        15.3 0.36                           122  13 
 OCA  SZ EP   1    945 19.63                             130    -0.7 7  161 349 
 OCA  SZ ES   1    945 42.29                             130    -0.3 7  161 349 
 OCA  SZ I         945 47.95        13.4 0.13                           161 349 
 CHI  HZ EP   1    945 29.74                             117    -0.3 6  253 198 
 CHI  HN ES   2    946  0.06                             117     0.2 4  253 198 
 CHI  HZ I         946  8.64         6.9 0.45                           253 198 
 HEL  HZ EP   2    945 33.89                             114     0.6 4  283 256 
 HEL  HN ES   2    946  5.88                             114     0.2 4  283 256 
 HEL  HZ I         946 10.15         6.8 0.44                           283 256 
 RREF HZ EP   2    945 39.62                             110     0.6 3  331 230 
 RREF HN ES   1    946 15.88                             110     0.0 5  331 230 
 RREF HZ I         946 24.15         9.5 0.30                           331 230 
 PRA  HZ EP   1    945 45.83                             106    -0.3 4  398 211 
 PRA  HN ES   1    946 28.61                             106     0.1 4  398 211 
                                                                                
