 2014  314 0340 14.8 L   6.782 -73.161144.3  RSN  5 0.2 1.6LRSN                1
 GAP=135        0.39       2.7     2.4  5.1  0.1315E+01  0.3949E+01  0.1030E+01E
 Epicentro: LOS SANTOS - SANTANDER                                             3
 OLDACT:REG 14-03-14 07:30 OP:fm   STATUS:               ID:20140314033819     3
 ACTION:UPD 14-04-09 23:17 OP:nd   STATUS:               ID:20140314034014 L   I
 OLDACT:UP  14-03-14 11:36 OP:fm   STATUS:               ID:20140314033819     3
 2014-03-14-0338-19M.COL___232                                                 6
 STAT SP IPHASW D HRMM SECON CODA AMPLIT PERI AZIMU VELO AIN AR TRES W  DIS CAZ7
 BAR2 SZ EP   2    340 34.26                             171    0.02 5 21.1 186 
 BAR2 SZ ES   2    340 49.21                             171   -0.18 5 21.1 186 
 BAR2 SZ I         340 54.14        14.0 0.82            166           21.1 186 
 PAM  SN ES   1    340 54.33                             150   -0.05 7 80.0  40 
 RUS  HZ EP        340 38.35                             144    0.0510 98.8 175 
 RUS  HN ES        340 56.71                             144    0.0910 98.8 175 
 RUS  SZ I         341  1.20         2.6 1.42            147           98.8 175 
 PTB  HZ EP   2    340 41.10                             132   -0.39 5  146 259 
 PTB  HN ES        341  2.17                             132   -0.12 9  146 259 
 PTB  SZ I         341 12.33         8.6 0.04            134            146 259 
 ZAR  HN ES   1    341 12.57                             122    0.30 6  203 293 
                                                                                
