 2012  214 0849  4.2 L   6.818 -73.128148.2  RSN  5 0.4 1.3LRSN                1
 GAP=138        0.59       6.5     6.5  8.6  0.2327E+01  0.1275E+02  0.5454E+01E
 ACTION:UP  12-03-07 16:30 OP:epov STATUS:               ID:20120214084904 L   I
 2012-02-14-0847-59S.COL___190                                                 6
 STAT SP IPHASW D HRMM SECON CODA AMPLIT PERI AZIMU VELO AIN AR TRES W  DIS CAZ7
 BAR2 SZ EP   1    849 24.35                             170    0.17 7 25.6 193 
 BAR2 SZ ES   2    849 39.56                             170   -0.20 5 25.6 193 
 BAR2 SZ I         849 42.32         5.5 0.42                          25.6 193 
 BRR  HZ EP   1    849 25.87                             153    0.20 7 72.0 296 
 BRR  HN ES   2    849 43.10                             153    0.69 5 72.0 296 
 BRR  HZ I         849 46.23         4.5 0.47                          72.0 296 
 PAM  SE ES   2    849 43.38                             152   -0.56 5 74.6  39 
 RUS  HZ EP   2    849 28.36                             144    0.02 5  102 177 
 RUS  HE ES   2    849 47.29                             144    0.14 5  102 177 
 RUS  HZ I         849 48.82         2.3 0.48                           102 177 
 PTB  HZ EP   2    849 31.14                             132   -0.44 5  150 258 
 PTB  HN ES   2    849 52.30                             132   -0.63 5  150 258 
                                                                                
