 2014  814 0436 29.6 L   6.364 -73.694100.0  RSN 10 0.4 1.9LRSN                1
 GAP=142        1.07       3.2     3.9  6.6 -0.4642E+01  0.9121E+01 -0.2016E+01E
 Epicentro: SANTA HELENA DEL OPON - SANTANDER                                  3
 ACTION:UPD 14-09-15 21:49 OP:nd   STATUS:               ID:20140814043629 L   I
 OLDACT:UP  14-08-14 15:39 OP:cam  STATUS:               ID:20140814043000     3
 OLDACT:UP  14-08-14 15:39 OP:cam  STATUS:               ID:20140814043000     3
 OLDACT:REG 14-08-14 13:20 OP:cam  STATUS:               ID:20140814043000     3
 2014-08-14-0430-00M.COL___285                                                 6
 STAT SP IPHASW D HRMM SECON CODA AMPLIT PERI AZIMU VELO AIN AR TRES W  DIS CAZ7
 BAR2 SZ EP        436 45.63                             146   -0.1010 61.9  66 
 BAR2 SZ ES        436 58.38                             146    0.0810 61.9  66 
 BAR2 SZ I         436 59.53        34.0 0.12            150           61.9  66 
 BRR  HZ EP        436 46.66                             138   -0.2810 82.2 359 
 BRR  HN ES        437  1.25                             138    0.8010 82.2 359 
 BRR  HN I         437  6.44        28.1 0.18            137           82.2 359 
 PTB  HZ EP        436 46.59                             136   -0.7510 86.6 283 
 PTB  HN ES        437  0.97                             136   -0.1810 86.6 283 
 PTB  HZ I         437  3.34        25.5 0.10            136           86.6 283 
 SPBC HZ EP     C  436 47.80                             135    0.1310 89.2 208 
 SPBC HN ES        437  1.44                             135   -0.3010 89.2 208 
 SPBC HZ I         437  4.03        20.0 0.20            139           89.2 208 
 NOR  HZ EP        436 54.20                             118   -0.21 9  157 236 
 NOR  HE ES        437 13.98                             118    0.23 9  157 236 
 NOR  HZ I         437 16.80         9.8 0.26            120            157 236 
 ZAR  HZ EP        436 56.78                             115    0.02 9  179 314 
 ZAR  HN ES        437 17.36                             115   -0.57 9  179 314 
 ZAR  HZ I         437 22.70         9.7 0.30            115            179 314 
 HEL  HZ EP        437  0.82                             112    0.80 9  204 265 
 HEL  HE ES        437 24.19                             112    0.46 9  204 265 
 HEL  HZ I         437 28.34         2.8 0.28            113            204 265 
 GUY2CHZ I         430 55.81                                            224 236 
 GUY2CHZ EP        437  2.97                             110    0.51 8  224 236 
 GUY2CHN ES        437 27.73                             110   -0.34 8  224 236 
 GUY2CHZ I         437 34.62         4.1 0.56                           224 236 
 CBOC HZ EP   1    437  7.18                             107    0.58 6  263 258 
 SML  HZ EP        437  7.05                             106   -0.53 8  273 351 
 SML  HE ES        437 37.34                             106    0.15 8  273 351 
 SML  HZ I         437 45.76         6.3 0.10            106            273 351 
                                                                                
