 2016  314 0138 20.1 L   6.820 -73.226136.6  RSN  4 0.3 1.3LRSN                1
 GAP=124        0.45      10.8     4.0 10.0 -0.1656E+02  0.1115E+02 -0.7136E+02E
 Epicentro: ZAPATOCA - SANTANDER                                               3
 ACTION:UPD 16-05-13 21:24 OP:cam  STATUS:               ID:20160314013820 L   I
 OLDACT:UP  16-03-14 14:21 OP:dnl  STATUS:               ID:20160314012753d    3
 OLDACT:DUP 16-03-14 14:14 OP:dnl  STATUS:               ID:20160314012753d    3
 OLDACT:UP  16-03-14 14:14 OP:dnl  STATUS:               ID:20160314012752d    3
 OLDACT:UP  16-03-14 14:11 OP:dnl  STATUS:               ID:20160314012752d    3
 OLDACT:DUP 16-03-14 14:07 OP:dnl  STATUS:               ID:20160314012752d    3
 OLDACT:REG 16-03-14 12:38 OP:dnl  STATUS:               ID:20160314012751     3
 2016-03-14-0127-51M.COL___295                                                 6
 STAT SP IPHASW D HRMM SECON CODA AMPLIT PERI AZIMU VELO AIN AR TRES W  DIS CAZ7
 BAR2 EZ ES   2    138 53.08                             169   -0.10 5 25.6 169 
 BAR2 EZ I         138 54.35         6.7 0.14            168           25.6 169 
 PAM  EZ EP        138 41.67                             148    0.0410 81.7  45 
 PAM  EZ I         139  0.68         2.8 0.60            131           81.7  45 
 PTB  HZ EP   2    138 45.14                             132   -0.44 5  140 257 
 PTB  HE ES   2    139  5.81                             132    0.35 5  140 257 
 PTB  HZ I         139  9.60         2.7 0.18            129            140 257 
 ZAR  HZ EP   2    138 51.36                             122    0.33 4  195 293 
 ZAR  HE ES   2    139 14.87                             122   -0.28 4  195 293 
 ZAR  HZ I         139 21.00         1.3 0.20            115            195 293 
                                                                                
