 2013 1114 0741 22.0 L   6.836 -73.182137.7  RSN 14 0.4 2.0LRSN                1
 GAP=130        1.03       3.1     3.9  5.9 -0.7832E-01  0.6778E+01  0.2059E+01E
 Epicentro: ZAPATOCA - SANTANDER                                               3
 ACTION:UPD 14-01-09 16:28 OP:ep   STATUS:               ID:20131114074122 L   I
 OLDACT:REG 13-11-14 10:18 OP:nd   STATUS:               ID:20131114074000     3
 2013-11-14-0740-00M.COL___279                                                 6
 STAT SP IPHASW D HRMM SECON CODA AMPLIT PERI AZIMU VELO AIN AR TRES W  DIS CAZ7
 BAR2 SZ EP        741 40.89                             168    0.1610 26.9 180 
 BAR2 SZ ES        741 55.72                             168    0.3710 26.9 180 
 BAR2 SZ I         741 59.40        29.3 0.42            167           26.9 180 
 BRR  HZ IP     D  741 42.54                             153    0.5810 65.8 297 
 BRR  HN ES        741 57.10                             153   -0.4410 65.8 297 
 BRR  HZ I         742  3.32        15.4 0.30            151           65.8 297 
 PAM  SZ EP        741 43.54                             149    0.2110 77.1  44 
 PAM  SN ES        742  0.14                             149    0.1610 77.1  44 
 PAM  SZ I         742  0.78        21.0 0.24            156           77.1  44 
 RUS  HZ EP        741 44.99                             141   -0.2910  105 174 
 RUS  HN ES        742  2.91                             141   -0.5410  105 174 
 RUS  HZ I         742  5.63         6.5 0.34            143            105 174 
 PTB  HZ EP        741 47.65                             131   -0.38 9  145 257 
 PTB  HN ES        742  7.88                             131   -0.45 9  145 257 
 PTB  HZ I         742 11.49        10.3 0.24            131            145 257 
 OCA  HZ EP   4    741 48.59                             129   -0.68 0  156 354 
 OCA  HN ES   4    742 10.23                             129   -0.31 0  156 354 
 OCA  HZ I         742 15.50        13.7 0.22            132            156 354 
 SPBC HZ EP        741 49.93                             127   -0.02 9  164 217 
 SPBC HN ES        742 12.57                             127    0.82 9  164 217 
 SPBC HZ I         742 17.39        12.0 0.30            128            164 217 
 ZAR  HZ EP        741 53.61                             121    0.23 9  199 292 
 ZAR  HN ES        742 18.52                             121    0.66 9  199 292 
 ZAR  HZ I         742 23.81        14.6 0.40            122            199 292 
 NOR  HZ EP   2    741 57.23                             117    0.06 4  234 233 
 NOR  HN ES        742 24.58                             117   -0.03 8  234 233 
 NOR  HZ I         742 34.61         7.2 0.16            118            234 233 
 SML  HZ EP   4    741 56.43                             116   -1.17 0  238 336 
 SML  HN ES        742 24.47                             116   -0.90 8  238 336 
 SML  HZ I         742 28.05        12.1 0.26            119            238 336 
 CHI  HZ EP        741 59.55                             115   -0.02 8  251 194 
 CHI  HN ES        742 28.51                             115   -0.36 8  251 194 
 CHI  HZ I         742 36.01         6.9 0.46            117            251 194 
 ROSC BZ EP   4    742  1.38                             115    1.54 0  254 210 
 HEL  HZ EP   2    742  1.83                             113    0.34 4  269 255 
 HEL  HN ES   2    742 32.05                             113   -0.24 4  269 255 
 HEL  HZ I         742 39.73         6.7 0.38            115            269 255 
 GUY2CHZ EP   4    742  6.95                             111    1.82 0  300 234 
 GUY2CHN ES   4    742 39.07                             111    0.29 0  300 234 
 GUY2CHZ I         742 49.33         6.4 0.48                           300 234 
 SJC  HZ EP   4    742 14.71                             105   -1.94 0  404 327 
 SJC  HN ES   4    742 55.00                             105   -4.28 0  404 327 
 SJC  HZ I         742 59.81         2.6 0.52            107            404 327 
                                                                                
