 2017  814 0921  0.6 L   6.798 -73.106150.0  RSN 14 0.5 1.8LRSN                1
 GAP= 70        0.99       3.1     3.6  4.9  0.1209E+00  0.1454E+01  0.2721E+01E
 Epicentro: LOS SANTOS - SANTANDER                                             3
 ACTION:UPD 17-09-04 20:20 OP:rebc STATUS:               ID:20170814092100 L   I
 OLDACT:UP  17-08-14 17:03 OP:and  STATUS:               ID:20170814091742d    3
 OLDACT:UP  17-08-14 17:03 OP:and  STATUS:               ID:20170814091742d    3
 OLDACT:UP  17-08-14 17:02 OP:and  STATUS:               ID:20170814091742d    3
 OLDACT:UP  17-08-14 17:01 OP:and  STATUS:               ID:20170814091742d    3
 OLDACT:UP  17-08-14 16:59 OP:and  STATUS:               ID:20170814091742d    3
 OLDACT:DUP 17-08-14 16:58 OP:and  STATUS:               ID:20170814091742d    3
 OLDACT:UP  17-08-14 16:58 OP:and  STATUS:               ID:20170814091741     3
 OLDACT:UP  17-08-14 16:58 OP:and  STATUS:               ID:20170814091741     3
 OLDACT:UP  17-08-14 16:57 OP:and  STATUS:               ID:20170814091741     3
 OLDACT:UP  17-08-14 16:56 OP:and  STATUS:               ID:20170814091741     3
 OLDACT:UP  17-08-14 16:56 OP:and  STATUS:               ID:20170814091741     3
 OLDACT:UP  17-08-14 16:56 OP:and  STATUS:               ID:20170814091741     3
 OLDACT:UP  17-08-14 16:54 OP:and  STATUS:               ID:20170814091741     3
 OLDACT:UP  17-08-14 16:53 OP:and  STATUS:               ID:20170814091741     3
 OLDACT:UP  17-08-14 16:52 OP:and  STATUS:               ID:20170814091741     3
 OLDACT:UP  17-08-14 16:52 OP:and  STATUS:               ID:20170814091741     3
 OLDACT:UP  17-08-14 16:50 OP:and  STATUS:               ID:20170814091741     3
 OLDACT:UP  17-08-14 16:50 OP:and  STATUS:               ID:20170814091741     3
 OLDACT:REG 17-08-14 13:27 OP:and  STATUS:               ID:20170814091741     3
 2017-08-14-0918-00M.COL___401                                                 6
 STAT SP IPHASW D HRMM SECON CODA AMPLIT PERI AZIMU VELO AIN AR TRES W  DIS CAZ7
 BAR2 EZ EP        921 20.66                             170   -0.0610 24.2 200 
 BAR2 EZ ES        921 35.94                             170   -0.5010 24.2 200 
 BAR2 EZ I         921 36.76        17.7 0.26            167           24.2 200 
 PAM  EZ EP        921 23.40                             152    0.3210 74.9  37 
 PAM  EN ES        921 40.46                             152   -0.1910 74.9  37 
 PAM  EZ I         921 41.28        11.7 0.26            156           74.9  37 
 BRR  HZ IP     C  921 22.41                             152    0.0210 75.2 297 
 BRR  HN ES        921 39.83                             152    0.4110 75.2 297 
 BRR  HZ I         921 43.05         8.9 0.12            149           75.2 297 
 RUS  HZ EP        921 25.03                             145    0.3310  100 179 
 RUS  HN ES        921 43.12                             145   -0.4010  100 179 
 RUS  HZ I         921 44.00         6.6 0.46            144            100 179 
 TAM  HZ EP        921 28.87                             132    0.68 9  151 105 
 SPBC HZ EP        921 29.65                             129    0.02 9  166 220 
 SPBC HN ES        921 52.56                             129    0.26 9  166 220 
 SPBC HZ I         921 53.60        11.8 0.16            128            166 220 
 ZAR  HZ EP        921 33.76                             123    0.05 8  208 292 
 ZAR  HN ES        921 59.46                             123   -0.10 8  208 292 
 ZAR  HZ I         922  4.92         6.2 0.14            121            208 292 
 NOR  HZ EP        921 36.95                             119    0.05 8  238 235 
 NOR  HN ES        922  4.93                             119   -0.32 8  238 235 
 NOR  HZ I         922 10.16         4.3 0.34            118            238 235 
 CHI  HZ EP        921 39.12                             118    0.53 8  250 196 
 CHI  HN ES        922  8.40                             118    0.14 8  250 196 
 CHI  HZ I         922 13.14         2.6 0.38            117            250 196 
 ROSC BZ EP   9    921 41.76                             117    2.62 0  255 212 
 ROSC BN ES        922 12.07                             116    0.22 8  255 212 
 ROSC BZ I         922 16.50         7.1 0.50            116            255 212 
 GUY2CHZ EP        921 45.05                             113    0.30 7  305 235 
 GUY2CHN ES   4    922 21.51                             113    2.29 0  305 235 
 GUY2CHZ I         922 27.55         4.0 0.72                           305 235 
 PTGC HZ IP     D  921 43.61                             112   -0.79 7  307 159 
 PTGC HN ES        922 18.18                             112   -0.42 7  307 159 
 ELA  HN ES   4    922 29.57                             111    4.65 0  332 230 
 ELA  HZ I         922 32.55         4.3 0.38            110            332 230 
 SJC  HZ EP        921 54.92                             106   -1.65 6  412 326 
 SJC  HN ES   4    922 36.73                             106   -3.53 0  412 326 
 SJC  HZ I         922 43.52         1.6 0.58            106            412 326 
                                                                                
