 2011  114 0651 53.3 L   6.797 -73.124146.0  RSN  9 0.4 1.9LRSN                1
 GAP=161        0.88       3.7     7.4  8.3 -0.9753E+01  0.2312E+02 -0.2032E+01E
 Epicentro: LOS SANTOS - SANTANDER                                             3
 ACTION:UP  11-02-08 08:40 OP:pat  STATUS:               ID:20110114065153 L   I
 2011-01-14-0649-51S.COL___136                                                 6
 STAT SP IPHASW D HRMM SECON CODA AMPLIT PERI AZIMU VELO SNR AR TRES W  DIS CAZ7
 BTL  SZ EP        652 12.27                             171    -0.710   21 310 
 BAR2 SZ EP        652 13.02                             170     0.010   24 196 
 BAR2 SZ ES   1    652 28.46                             170     0.1 7   24 196 
 BAR2 SZ I         652 29.79        15.9 0.33                            24 196 
 RUS  HZ EP   1    652 16.86                             144    -0.2 7  100 177 
 RUS  HN ES   1    652 35.73                             144     0.1 7  100 177 
 RUS  HZ I         652 37.32         4.8 0.22                           100 177 
 GRA  SZ EP   1    652 18.63                             137     0.1 7  125  16 
 GRA  SZ ES   1    652 38.50                             137     0.3 7  125  16 
 GRA  SZ I         652 41.37        13.6 0.28                           125  16 
 OCA  SZ EP   1    652 21.53                             130    -0.2 7  161 352 
 OCA  SZ ES   1    652 44.36                             130     0.5 7  161 352 
 OCA  SZ I         652 49.33        19.0 0.29                           161 352 
 NOR  SZ EP   2    652 29.59                             118     0.3 4  237 235 
 NOR  SN ES   2    652 56.46                             118    -0.9 4  237 235 
 CHI  HZ EP   1    652 31.23                             117     0.1 6  249 196 
 CHI  HN ES   1    653  1.28                             117     0.7 6  249 196 
 CHI  HZ I         653  8.14         2.8 0.26                           249 196 
 HEL  HZ EP   2    652 34.70                             115     0.9 4  274 256 
 HEL  HN ES   1    653  5.46                             115     0.1 6  274 256 
 HEL  HZ I         653 12.72         4.8 0.38                           274 256 
 RREF HZ EP   2    652 39.42                             111    -0.3 3  323 230 
 RREF HZ I         653 22.02         4.7 0.29                           323 230 
                                                                                
