 2013 1214 0426 28.4 L   6.797 -73.147148.9  RSN  8 0.5 1.7LRSN                1
 GAP=137        1.28       4.2     6.2  8.5 -0.3554E+01  0.1018E+02 -0.4082E+00E
 Epicentro: LOS SANTOS - SANTANDER                                             3
 ACTION:UPD 14-01-13 10:18 OP:ep   STATUS:               ID:20131214042628 L   I
 OLDACT:DUP 13-12-14 09:02 OP:jn   STATUS:               ID:20131214042001d    3
 2013-12-14-0420-00M.COL___285                                                 6
 STAT SP IPHASW D HRMM SECON CODA AMPLIT PERI AZIMU VELO AIN AR TRES W  DIS CAZ7
 BAR2 SZ EP        426 48.51                             171    0.1310 23.0 190 
 BAR2 SZ ES        427  3.95                             171   -0.0310 23.0 190 
 BAR2 SZ I         427  6.44        21.2 0.36            170           23.0 190 
 BRR  HZ EP        426 50.35                             153    0.4810 71.3 299 
 BRR  HN ES        427  7.73                             153    1.1010 71.3 299 
 BRR  HZ I         427 10.55         5.7 0.14            151           71.3 299 
 PAM  SZ EP        426 51.18                             151    0.2310 77.7  39 
 PAM  SN ES        427  8.22                             151   -0.3310 77.7  39 
 PAM  SZ I         427 10.66         8.5 0.20            156           77.7  39 
 RUS  HZ EP        426 52.70                             144    0.2810  100 176 
 RUS  HN ES        427 10.54                             144   -0.6210  100 176 
 RUS  HZ I         427 12.82         4.1 0.40            148            100 176 
 PTB  HZ EP        426 54.96                             133   -0.63 9  148 259 
 PTB  HN ES        427 16.15                             133   -0.66 9  148 259 
 PTB  HZ I         427 24.11         8.5 0.36            133            148 259 
 OCA  HN ES        427 18.90                             130   -0.36 9  161 353 
 OCA  HZ I         427 23.82         6.0 0.14            133            161 353 
 SPBC HZ EP        426 57.46                             130    0.37 9  163 219 
 SPBC HN ES        427 19.62                             130    0.14 9  163 219 
 SPBC HZ I         427 24.48         9.3 0.18            132            163 219 
 SML  HE ES        427 33.54                             118   -0.40 8  244 335 
                                                                                
