 2017  514 0747 25.6 L   6.472 -73.750 20.6  RSN  4 0.3 1.3LRSN                1
 GAP=198        0.81       2.4     3.9  5.1 -0.4043E+01  0.6597E+01 -0.3692E+01E
 Epicentro: SANTA HELENA DEL OPON - SANTANDER                                  3
 ACTION:UPD 17-06-16 13:36 OP:jn   STATUS:               ID:20170514074725 L   I
 OLDACT:DUP 17-05-14 17:30 OP:lv   STATUS:               ID:20170514073735d    3
 2017-05-14-0738-00M.COL___347                                                 6
 STAT SP IPHASW D HRMM SECON CODA AMPLIT PERI AZIMU VELO AIN AR TRES W  DIS CAZ7
 BRR  HZ EP        747 36.81                             104   -0.3010 70.3   3 
 BRR  HE ES        747 46.47                             104    0.3510 70.3   3 
 PTB  HZ EP        747 37.82                             103   -0.5110 78.5 275 
 PTB  HN ES        747 48.46                             103    0.1610 78.5 275 
 PTB  HZ I         747 49.09         9.4 0.09             95           78.5 275 
 SPBC HN ES        747 53.68                             100    0.2210 97.5 202 
 ZAR  HN ES        748  9.55                              56    0.11 9  166 313 
 ZAR  HZ I         748 13.51         4.4 0.04             56            166 313 
                                                                                
