 2016 1214 0533 59.7 L   6.814 -73.124147.6  RSN 10 0.4 1.5LRSN                1
 GAP=139        0.91       3.3     4.0  4.9 -0.1685E+00  0.5547E+01  0.4275E+01E
 Epicentro: LOS SANTOS - SANTANDER                                             3
 ACTION:UPD 17-01-11 20:14 OP:rebc STATUS:               ID:20161214053359 L   I
 OLDACT:UP  16-12-14 16:02 OP:e    STATUS:               ID:20161214052744     3
 OLDACT:UP  16-12-14 16:01 OP:e    STATUS:               ID:20161214052744     3
 OLDACT:UP  16-12-14 16:00 OP:e    STATUS:               ID:20161214052744     3
 OLDACT:UP  16-12-14 15:59 OP:e    STATUS:               ID:20161214052744     3
 OLDACT:UP  16-12-14 15:58 OP:e    STATUS:               ID:20161214052744     3
 OLDACT:UP  16-12-14 15:57 OP:e    STATUS:               ID:20161214052744     3
 OLDACT:REG 16-12-14 12:27 OP:and  STATUS:               ID:20161214052744     3
 2016-12-14-0528-00M.COL___380                                                 6
 STAT SP IPHASW D HRMM SECON CODA AMPLIT PERI AZIMU VELO AIN AR TRES W  DIS CAZ7
 BAR2 EZ EP        534 19.28                             170   -0.3010 25.4 195 
 BAR2 EZ ES        534 34.59                             170   -0.5010 25.4 195 
 BAR2 EZ I         534 35.44         9.1 0.16            168           25.4 195 
 BRR  HZ EP        534 21.08                             152   -0.0310 72.6 297 
 BRR  HN ES        534 38.42                             152    0.6010 72.6 297 
 BRR  HZ I         534 39.52         5.1 0.19            150           72.6 297 
 PAM  EZ IP     C  534 22.22                             152    0.2810 74.6  39 
 PAM  EN ES        534 39.50                             152    0.2110 74.6  39 
 PAM  EZ I         534 41.53         4.1 0.47            154           74.6  39 
 RUS  HZ EP        534 23.15                             144   -0.5710  102 177 
 RUS  HN ES        534 42.62                             144    0.1510  102 177 
 RUS  HZ I         534 42.97         2.9 0.28            144            102 177 
 PTB  HZ EP   9    534 25.84                             132   -1.21 0  150 258 
 PTB  HN ES        534 47.09                             133   -0.09 9  150 258 
 PTB  HZ I         534 50.56         3.9 0.08            131            150 258 
 ZAR  HZ EP        534 32.14                             122   -0.28 8  206 291 
 ZAR  HN ES        534 57.57                             122   -0.38 8  206 291 
 ZAR  HZ I         535  4.31         4.9 0.38            122            206 291 
 CHI  HZ EP        534 37.40                             117   -0.32 8  251 196 
 CHI  HN ES        535  7.67                             117    0.28 8  251 196 
 CHI  HZ I         535 13.54         1.1 0.20            117            251 196 
 GUY2CHZ EP        534 44.55                             112    0.84 7  304 235 
 GUY2CHN ES        535 17.96                             112   -0.08 7  304 235 
 GUY2CHZ I         535 25.72         2.2 0.62                           304 235 
 PTGC HZ EP   4    534 42.09                             112   -1.61 0  309 159 
 PTGC HN ES   4    535 14.81                             112   -3.21 0  309 159 
 CBOC HZ EP        534 47.10                             110    0.10 7  336 252 
 CBOC HN ES   3    535 21.89                             110   -2.01 2  336 252 
 CBOC HZ I         535 27.15         0.8 0.35            110            336 252 
 PRA  HZ EP        534 53.97                             107    0.40 6  395 210 
 PRA  HE ES        535 36.12                             107    0.52 6  395 210 
 PRA  HZ I         535 41.95         1.6 0.22            107            395 210 
                                                                                
