 2015 1214 0942 39.7 L   6.830 -73.167140.6  RSN 20 0.4 2.5LRSN                1
 GAP= 69        0.88       2.2     2.4  4.5 -0.1065E+01  0.4345E+01  0.8669E-01E
 Epicentro: LOS SANTOS - SANTANDER                                             3
 ACTION:UPD 16-02-04 15:04 OP:cam  STATUS:               ID:20151214094239 L   I
 OLDACT:REG 15-12-14 13:54 OP:cara STATUS:               ID:20151214093747     3
 2015-12-14-0937-47M.COL___330                                                 6
 STAT SP IPHASW D HRMM SECON CODA AMPLIT PERI AZIMU VELO AIN AR TRES W  DIS CAZ7
 BAR2 EZ EP     D  942 58.63                             169   -0.0910 26.3 184 
 BAR2 EZ ES        943 13.32                             169   -0.2810 26.3 184 
 BAR2 EZ I         943 14.85        71.0 0.24            168           26.3 184 
 BRR  HZ EP        943  0.45                             153    0.4110 67.6 297 
 BRR  HE ES   4    943 17.64                             153    1.70 0 67.6 297 
 BRR  HZ I         943 20.73        55.8 0.24            150           67.6 297 
 PAM  EZ IP     D  943  1.70                             150    0.4410 76.4  42 
 PAM  EN ES        943 18.23                             150    0.1210 76.4  42 
 PAM  EZ I         943 21.85        30.9 0.44            155           76.4  42 
 RUS  HZ EP        943  2.68                             142   -0.4710  104 175 
 RUS  HE ES        943 21.52                             142    0.0310  104 175 
 RUS  HZ I         943 23.97        19.1 0.34            145            104 175 
 PTB  HZ EP        943  5.33                             131   -0.72 9  146 257 
 PTB  HN ES        943 26.45                             131   -0.19 9  146 257 
 PTB  HZ I         943 31.53        40.9 0.46            131            146 257 
 OCA  HZ EP        943  7.43                             129    0.20 9  157 354 
 OCA  HN ES        943 28.56                             129   -0.18 9  157 354 
 OCA  HZ I         943 36.86        67.5 0.44            131            157 354 
 TAM  HZ EP        943  6.86                             129   -0.36 9  158 106 
 TAM  HE ES        943 29.38                             129    0.66 9  158 106 
 TAM  HZ I         943 30.24        22.7 0.42            135            158 106 
 SPBC HZ EP        943  7.58                             128   -0.29 9  164 218 
 SPBC HN ES        943 29.65                             128   -0.22 9  164 218 
 SPBC HZ I         943 34.41        55.2 0.38            129            164 218 
 ZAR  HZ EP        943 11.37                             122   -0.04 9  201 292 
 ZAR  HE ES        943 36.73                             122    0.55 9  201 292 
 ZAR  HZ I         943 42.85        34.7 0.32            122            201 292 
 NOR  HZ EP        943 14.86                             117   -0.23 8  235 233 
 NOR  HN ES        943 42.34                             117   -0.39 8  235 233 
 NOR  HZ I         943 47.96        24.0 0.16            119            235 233 
 SML  HZ EP        943 15.30                             117   -0.26 8  240 335 
 SML  HN ES        943 43.15                             117   -0.42 8  240 335 
 SML  HZ I         943 49.84        40.0 0.24            118            240 335 
 ROSC BZ EP   4    943 19.04                             115    1.37 0  254 210 
 ROSC BN ES   4    943 49.09                             115    1.76 0  254 210 
 ROSC BZ I         943 53.34        46.3 0.45            117            254 210 
 HEL  HZ EP        943 19.70                             114    0.26 8  271 255 
 HEL  HN ES        943 51.17                             114    0.69 8  271 255 
 HEL  HZ I         943 57.22        19.4 0.30            115            271 255 
 URE  HZ EP   4    943 18.47                             113   -1.62 0  280 291 
 URE  HE ES   4    943 49.95                             113   -1.69 0  280 291 
 URE  HZ I         944  0.86        28.0 0.18            114            280 291 
 SOCV BZ EP   4    943 20.49                             111   -1.99 0  301  58 
 SOCV BN ES   4    943 53.08                             111   -2.82 0  301  58 
 GUY2CHZ EP        943 23.13                             111    0.10 7  301 234 
 GUY2CHE ES   4    943 58.80                             111    1.94 0  301 234 
 GUY2CHZ I         944  5.01        17.1 0.62                           301 234 
 ELA  HZ EP     C  943 26.52                             109    0.19 7  330 229 
 ELA  HN ES        944  3.06                             109    0.32 7  330 229 
 ELA  HZ I         944 17.88        12.5 0.42            111            330 229 
 CBOC HZ EP        943 26.37                             109    0.15 7  332 251 
 CBOC HE ES        944  2.70                             109    0.16 7  332 251 
 CBOC HZ I         944 19.55         5.0 0.44            110            332 251 
 ANIL HN ES        944  9.06                             107    0.95 6  358 224 
 PRA  HZ EP   4    943 32.29                             105   -0.91 0  394 209 
 PRA  HE ES        944 15.12                             105    0.15 6  394 209 
 PRA  HZ I         944 21.12        17.4 0.24            107            394 209 
 PAL  HZ EP        943 34.05                             105   -0.56 6  405 239 
 PAL  HN ES        944 17.53                             105    0.06 6  405 239 
 PAL  HZ I         944 30.01         4.4 0.34            106            405 239 
                                                                                
