 2013  514 0134 12.9 L   6.804 -73.385107.4  RSN  4 0.2 0.9LRSN                1
 GAP=151        0.47       3.6     6.6  6.0  0.1513E+02  0.8636E+01  0.4860E+01E
 Epicentro: SAN VICENTE DE CHUCURI - SANTANDER                                 3
 ACTION:UPD 13-06-20 09:50 OP:ep   STATUS:               ID:20130514013412 L   I
 2013-05-14-0130-00M.COL___256                                                 6
 STAT SP IPHASW D HRMM SECON CODA AMPLIT PERI AZIMU VELO AIN AR TRES W  DIS CAZ7
 BAR2 SZ EP   1    134 28.54                             162    0.28 7 32.4 136 
 BAR2 SZ ES   2    134 40.50                             162    0.28 5 32.4 136 
 BAR2 SZ I         134 42.38         3.0 0.48            161           32.4 136 
 GIR2 SZ EP   1    134 28.46                             160    0.16 7 37.0  35 
 GIR2 SZ ES   1    134 40.07                             160   -0.23 7 37.0  35 
 BRR  HZ EP        134 28.53                             153   -0.1610 49.3 313 
 BRR  HN ES   1    134 41.15                             153    0.16 7 49.3 313 
 RUS  HN ES        134 49.68                             132   -0.1110  106 162 
 RUS  HZ I         134 51.46         1.6 0.32            133            106 162 
                                                                                
