 2012  714 0855 24.1 L   6.693 -73.213150.0  RSN  5 0.4 1.3LRSN                1
 GAP=213        0.76       7.7     7.4  9.7  0.3704E+02 -0.1100E+01 -0.8807E+01E
 Epicentro: VILLANUEVA - SANTANDER                                             3
 ACTION:UPD 12-08-14 11:44 OP:ep   STATUS:               ID:20120714085524 L   I
 2012-07-14-0850-00M.COL___197                                                 6
 STAT SP IPHASW D HRMM SECON CODA AMPLIT PERI AZIMU VELO AIN AR TRES W  DIS CAZ7
 BAR2 SZ EP   1    855 43.59                             175    -0.5 7   12 163 
 BAR2 SZ I         856  1.66         4.0 0.16            154             12 163 
 BRR  HZ EP   1    855 45.59                             153    -0.2 7   72 310 
 BRR  HN ES        856  2.74                             153     0.110   72 310 
 BRR  HZ I         856  7.16         4.4 0.32            145             72 310 
 RUS  HZ EP   2    855 47.45                             148    -0.1 5   90 171 
 RUS  HN ES   1    856  6.19                             148     0.4 7   90 171 
 RUS  HZ I         856  7.77         2.9 0.29            140             90 171 
 PTB  HN ES   1    856 10.92                             135    -0.4 7  138 263 
 ZAR  HZ EP   2    855 57.50                             124     0.9 4  202 296 
 ZAR  HN ES        856 22.08                             124     0.1 9  202 296 
