 2013  314 0154 49.5 L   6.785 -73.103146.1  RSN 10 0.4 2.0LRSN                1
 GAP=187        0.79       3.1     4.1  5.9  0.2845E+01  0.5902E+01  0.2978E+01E
 Epicentro: LOS SANTOS - SANTANDER                                             3
 ACTION:UPD 13-04-09 14:02 OP:ep   STATUS:               ID:20130314015449 L   I
 2013-03-14-0150-00M.COL___243                                                 6
 STAT SP IPHASW D HRMM SECON CODA AMPLIT PERI AZIMU VELO AIN AR TRES W  DIS CAZ7
 BAR2 SZ EP        155  9.26                             171    0.1210 23.1 202 
 BAR2 SZ ES   1    155 24.81                             171    0.33 7 23.1 202 
 BAR2 SZ I         155 29.50        11.0 0.20            165           23.1 202 
 BRR  HZ EP        155 11.17                             151    0.2210 76.1 298 
 BRR  HN ES        155 28.12                             151    0.4210 76.1 298 
 BRR  HN I         155 31.07        31.5 0.16            149           76.1 298 
 RUS  HZ EP        155 13.22                             144    0.0910 98.7 179 
 RUS  HN ES        155 31.32                             144   -0.2610 98.7 179 
 RUS  HN I         155 33.49         9.3 0.22            145           98.7 179 
 PTB  HZ EP   1    155 16.29                             131   -0.58 7  152 260 
 PTB  HN ES        155 37.51                             131   -0.72 9  152 260 
 PTB  HN I         155 42.71        20.3 0.42            131            152 260 
 OCA  HN ES   1    155 39.66                             129   -0.63 7  163 352 
 ZAR  HZ EP   1    155 22.77                             122    0.31 6  209 292 
 ZAR  HN ES        155 48.23                             122    0.04 8  209 292 
 ZAR  HN I         155 54.77        13.2 0.12            123            209 292 
 NOR  HZ EP        155 25.65                             118    0.11 8  238 235 
 NOR  HN ES        155 53.89                             118    0.22 8  238 235 
 NOR  HN I         156  2.80        11.5 0.16            119            238 235 
 CHI  HN ES        155 56.50                             117   -0.05 8  248 196 
 CHI  HN I         156  1.07         3.3 0.26            119            248 196 
 HEL  HN ES   2    156  2.50                             114    0.59 4  276 256 
 PRA  HN ES   2    156 24.79                             107   -0.17 3  393 210 
 PRA  HN I         156 29.42         1.5 0.32            108            393 210 
                                                                                
