 2012  514 0947 48.6 L   6.745 -73.163144.9  RSN  5 0.3 1.5LRSN                1
 GAP=231        0.79       8.1     7.5  8.5  0.3764E+02  0.9315E+01  0.2076E+00E
 Epicentro: VILLANUEVA - SANTANDER                                             3
 ACTION:UP  12-07-05 12:05 OP:pat  STATUS:               ID:20120514094748 L   I
 2012-05-14-0940-00M.COL___195                                                 6
 STAT SP IPHASW D HRMM SECON CODA AMPLIT PERI AZIMU VELO SNR AR TRES W  DIS CAZ7
 BAR2 SZ EP   1    948  8.09                             173     0.1 7   17 187 
 BAR2 SZ ES   1    948 22.43                             173    -0.7 7   17 187 
 BAR2 SZ I         948 25.20         7.8 0.29                            17 187 
 BRR  HZ EP   1    948  9.82                             152     0.1 7   73 303 
 BRR  HN ES   1    948 26.69                             152     0.5 7   73 303 
 BRR  HZ I         948 27.87         7.6 0.17                            73 303 
 RUS  HZ EP   1    948 11.79                             145     0.0 7   95 175 
 RUS  HN ES   1    948 30.38                             145     0.4 7   95 175 
 RUS  HZ I         948 32.89         3.0 0.33                            95 175 
 PTB  HZ EP   1    948 14.91                             132    -0.3 7  145 261 
 PTB  HN ES   1    948 35.92                             132    -0.1 7  145 261 
 ZAR  HN ES   1    948 46.30                             122     0.0 6  205 294 
                                                                                
