 2013  314 0847 28.7 L   6.792 -73.138142.5  RSN  4 0.5 1.6LRSN                1
 GAP=138        0.98       8.5     8.4 14.3  0.2113E+01  0.5888E+02  0.5752E+02E
 Epicentro: LOS SANTOS - SANTANDER                                             3
 ACTION:UPD 13-04-09 14:02 OP:ep   STATUS:               ID:20130314084728 L   I
 2013-03-14-0840-00M.COL___243                                                 6
 STAT SP IPHASW D HRMM SECON CODA AMPLIT PERI AZIMU VELO AIN AR TRES W  DIS CAZ7
 BRR  HZ EP        847 50.14                             151    0.6110 72.4 299 
 BRR  HN ES   2    848  6.38                             151    0.58 5 72.4 299 
 BRR  HN I         848 11.43         9.9 0.14            152           72.4 299 
 PAM  SE ES        848  7.25                             150   -0.3510 77.5  39 
 PAM  SE I         848 10.98         4.0 0.42            158           77.5  39 
 RUS  HZ EP        847 52.22                             143    0.2010 99.6 177 
 RUS  HN ES   2    848 10.21                             143   -0.03 5 99.6 177 
 RUS  HN I         848 12.26         6.9 0.36            150           99.6 177 
 PTB  HZ EP        847 54.84                             131   -0.59 9  148 259 
 PTB  HN ES   2    848 15.87                             131   -0.43 5  148 259 
 PTB  HN I         848 21.40        10.9 0.42            134            148 259 
                                                                                
