 2017 1014 0926 27.2 L   6.742 -73.185136.2  RSN  4 0.4 0.9LRSN                1
 GAP=228        0.99       9.2     8.5  9.2  0.4992E+02  0.2741E+02  0.2752E+02E
 Epicentro: VILLANUEVA - SANTANDER                                             3
 ACTION:UPD 17-11-07 19:31 OP:rebc STATUS:               ID:20171014092627 L   I
 OLDACT:REG 17-10-14 11:48 OP:osc  STATUS:               ID:20171014091736     3
 2017-10-14-0918-00M.COL___384                                                 6
 STAT SP IPHASW D HRMM SECON CODA AMPLIT PERI AZIMU VELO AIN AR TRES W  DIS CAZ7
 BAR2 EZ EP   3    926 45.62                             173    0.03 2 16.5 179 
 BAR2 EZ ES        926 59.26                             173   -0.6510 16.5 179 
 BAR2 EZ I         927  1.19         3.0 0.38            168           16.5 179 
 BRR  HZ EP   3    926 47.49                             151    0.15 2 70.9 305 
 BRR  HE ES        927  3.52                             151    0.5010 70.9 305 
 RUS  HZ EP        926 49.95                             143    0.3410 94.6 173 
 RUS  HN ES        927  7.30                             143    0.2310 94.6 173 
 RUS  HZ I         927  9.61         0.9 0.42            142           94.6 173 
 PTB  HZ EP        926 52.38                             131   -0.56 9  142 261 
 PTB  HN ES        927 13.05                             131    0.06 9  142 261 
 PTB  HZ I         927 15.54         1.1 0.38            131            142 261 
                                                                                
