 2016  614 0430 33.6 L   6.673 -73.178148.4  RSN  4 0.5 1.1LRSN                1
 GAP=224        0.75       7.8     6.8  9.4  0.1186E+02 -0.3483E+01  0.6928E+01E
 Epicentro: VILLANUEVA - SANTANDER                                             3
 ACTION:UPD 16-07-21 22:18 OP:rebc STATUS:               ID:20160614043033 L   I
 OLDACT:REG 16-06-14 12:29 OP:dnl  STATUS:               ID:20160614042745     3
 2016-06-14-0427-45M.COL___301                                                 6
 STAT SP IPHASW D HRMM SECON CODA AMPLIT PERI AZIMU VELO AIN AR TRES W  DIS CAZ7
 BAR2 EZ EP   2    430 52.92                             176   -0.43 5 8.95 183 
 BAR2 EZ ES   2    431  7.67                             176   -1.08 5 8.95 183 
 BAR2 EZ I         431  9.59         4.8 0.14                          8.95 183 
 BRR  HZ EP        430 55.42                             151    0.1110 76.1 309 
 BRR  HN ES        431 12.46                             151    0.2210 76.1 309 
 BRR  HZ I         431 18.20         1.4 0.19                          76.1 309 
 RUS  HZ EP   2    430 57.07                             148    0.38 5 86.9 173 
 RUS  HE ES   2    431 15.31                             148    0.62 5 86.9 173 
 RUS  HZ I         431 17.06         1.2 0.32                          86.9 173 
 PTB  HZ EP   2    430 59.71                             134   -0.57 5  142 264 
 PTB  HN ES        431 21.01                             134   -0.08 9  142 264 
 PTB  HZ I         431 21.73         1.8 0.16                           142 264 
                                                                                
