 2013  514 0907 29.4 L   6.670 -73.978 19.7  RSN  7 0.4 1.5LRSN                1
 GAP=122        1.09       3.1     1.9  3.8 -0.3062E+00  0.1858E+01  0.3071E+01E
 Epicentro: PUERTO PARRA - SANTANDER                                           3
 ACTION:UPD 13-06-20 09:50 OP:ep   STATUS:               ID:20130514090729 L   I
 2013-05-14-0900-00M.COL___256                                                 6
 STAT SP IPHASW D HRMM SECON CODA AMPLIT PERI AZIMU VELO AIN AR TRES W  DIS CAZ7
 PTB  HZ IP     D  9 7 38.57                             107   -0.0910 54.9 255 
 PTB  HN ES        9 7 45.60                             107   -0.3010 54.9 255 
 PTB  HZ I         9 7 45.72        20.4 0.34            103           54.9 255 
 BRR  HZ IP     C  9 7 38.96                             107    0.0710 56.5  31 
 BRR  HE ES        9 7 46.59                             107    0.2910 56.5  31 
 BRR  HZ I         9 7 46.99        24.7 0.12            102           56.5  31 
 BAR2 SZ EP        9 7 44.10                             101    0.2610 88.4  96 
 BAR2 SZ ES        9 7 54.45                             101   -0.6610 88.4  96 
 BAR2 SZ I         9 7 55.15        12.0 0.38             98           88.4  96 
 GIR2 SZ EP        9 7 45.47                             100    0.3410 97.7  62 
 GIR2 SZ ES   1    9 7 56.99                             100   -0.43 7 97.7  62 
 GIR2 SZ I         9 7 57.67         5.2 0.13             97           97.7  62 
 RUS  HZ EP        9 7 51.01                              56    0.7410  131 131 
 RUS  HN ES        9 8  6.15                              56   -0.4210  131 131 
 RUS  HZ I         9 8 10.30         4.2 0.24             95            131 131 
 ZAR  HZ EP        9 7 49.94                              56    0.0110  133 313 
 ZAR  HN ES        9 8  5.39                              56   -0.5810  133 313 
 ZAR  HZ I         9 8  5.90        12.9 0.36             95            133 313 
 HEL  HZ EP        9 7 56.87                              56    0.69 9  180 253 
 HEL  HN ES        9 8 17.11                              56    0.03 9  180 253 
 HEL  HZ I         9 8 18.67        10.9 0.22             56            180 253 
                                                                                
