 2013  214 0242 28.5 L   6.799 -73.161145.4  RSN  5 0.4 1.3LRSN                1
 GAP=135        0.80       5.5     4.8  8.5 -0.2358E+01  0.5272E+01  0.3141E+01E
 Epicentro: LOS SANTOS - SANTANDER                                             3
 ACTION:UPD 13-03-12 09:32 OP:ep   STATUS:               ID:20130214024228 L   I
 2013-02-14-0240-00M.COL___241                                                 6
 STAT SP IPHASW D HRMM SECON CODA AMPLIT PERI AZIMU VELO AIN AR TRES W  DIS CAZ7
 BRR  HZ EP        242 49.99                             153    0.4810 69.8 299 
 BRR  HE ES   1    243  6.17                             153    0.26 7 69.8 299 
 PAM  SZ EP        242 50.87                             150    0.1510 78.5  40 
 PAM  SN ES   1    243  7.49                             150   -0.58 7 78.5  40 
 PAM  SZ I         243 10.34         3.5 0.48            153           78.5  40 
 RUS  HZ EP   1    242 52.06                             144   -0.14 7  101 175 
 RUS  HN ES   1    243 10.97                             144    0.27 7  101 175 
 RUS  HZ I         243 12.70         2.8 0.40            146            101 175 
 PTB  HZ EP        242 54.86                             132   -0.41 9  146 259 
 PTB  HE ES   1    243 15.74                             132   -0.42 7  146 259 
 PTB  HZ I         243 18.55         2.6 0.20            135            146 259 
 ZAR  HN ES   2    243 26.13                             122    0.22 4  203 292 
                                                                                
