 2011  114 0143  3.6 L   7.396 -73.145122.9  RSN  9 0.6 2.0LRSN                1
 GAP=148        1.31       6.3    15.2 14.5 -0.2618E+02  0.1257E+03  0.2134E+02E
 Epicentro: EL PLAYON - SANTANDER                                              3
 ACTION:UP  11-02-08 08:40 OP:pat  STATUS:               ID:20110114014302 L   I
 2011-01-14-0140-53S.COL___135                                                 6
 STAT SP IPHASW D HRMM SECON CODA AMPLIT PERI AZIMU VELO SNR AR TRES W  DIS CAZ7
 GIR2 SZ EP   1    143 20.70                             163    -0.1 7   35 189 
 BTL  SZ EP        143 20.72                             154    -1.010   54 194 
 GRA  SZ EP        143 22.58                                     0.310   66  35 
 GRA  SZ ES   1    143 37.43                             153     0.6 7   66  35 
 GRA  SZ I         143 38.38        54.4 0.27                            66  35 
 BAR2 SZ EP   1    143 23.66                             143    -0.3 7   89 183 
 BAR2 SZ ES   1    143 39.98                             143     0.2 7   89 183 
 BAR2 SZ I         143 41.79        25.3 0.09                            89 183 
 OCA  SZ EP   1    143 23.83                             140    -0.5 7   95 348 
 OCA  SZ ES   1    143 40.56                             140     0.1 7   95 348 
 OCA  SZ I         143 42.69        15.3 0.13                            95 348 
 NOR  SZ EP   1    143 42.37                             110    -0.7 6  278 223 
 HEL  HZ EP   1    143 46.38                             108     0.9 5  295 243 
 HEL  HZ I         144  5.57         6.1 0.37                           295 243 
 CHI  HZ EP   1    143 47.88                             108     0.3 5  313 192 
 CHI  HE ES   1    144 22.74                             108     0.9 5  313 192 
 CHI  HZ I         144 28.37         2.0 0.40                           313 192 
 RREF HZ EP        143 54.99                             104     0.6 6  368 222 
 RREF HN ES   1    144 34.15                             104     0.2 5  368 222 
                                                                                
