 2012  114 0817 38.7 L   6.786 -73.145149.4  RSN  6 0.3 1.3LRSN                1
 GAP=185        0.59       7.1     6.7  9.0  0.1932E+02  0.5577E+01  0.6593E+01E
 Epicentro: LOS SANTOS - SANTANDER                                             3
 ACTION:UP  12-02-03 08:17 OP:REBC STATUS:               ID:20120114081738 L   I
 2012-01-14-0810-00M.COL___187                                                 6
 STAT SP IPHASW D HRMM SECON CODA AMPLIT PERI AZIMU VELO SNR AR TRES W  DIS CAZ7
 BAR2 SZ EP   1    817 58.64                             171    -0.1 7   22 191 
 BAR2 SZ I         818 16.91         5.6 0.52                            22 191 
 GIR2 SZ EP   2    817 58.75                             167    -0.1 5   33 351 
 GIR2 SZ ES   2    818 14.05                             167    -0.5 5   33 351 
 BRR  HZ EP   1    818  0.60                             153     0.3 7   72 300 
 BRR  HE ES   2    818 17.93                             153     0.8 5   72 300 
 BRR  HZ I         818 19.27         6.0 0.46                            72 300 
 RUS  HZ EP   2    818  2.74                             145     0.0 5   99 176 
 RUS  HN ES   2    818 21.44                             145     0.0 5   99 176 
 RUS  HZ I         818 23.73         1.9 0.30                            99 176 
 PTB  HZ EP   2    818  5.93                             133     0.0 5  148 259 
 PTB  HE ES   2    818 27.05                             133    -0.2 5  148 259 
 ZAR  HN ES   2    818 36.57                             123    -0.5 4  205 293 
                                                                                
