 2017  914 0723 47.3 L   6.798 -73.126146.9  RSN 17 0.4 1.8LRSN                1
 GAP= 71        0.91       3.0     2.5  5.3  0.5548E+00  0.3844E+01  0.3637E+01E
 Epicentro: LOS SANTOS - SANTANDER                                             3
 ACTION:UPD 17-10-05 19:12 OP:rebc STATUS:               ID:20170914072347 L   I
 OLDACT:UP  17-09-14 20:11 OP:and  STATUS:               ID:20170914071744     3
 OLDACT:UP  17-09-14 20:11 OP:and  STATUS:               ID:20170914071744     3
 OLDACT:UP  17-09-14 19:18 OP:and  STATUS:               ID:20170914071744     3
 OLDACT:UP  17-09-14 17:38 OP:leo  STATUS:               ID:20170914071744     3
 OLDACT:UP  17-09-14 17:37 OP:leo  STATUS:               ID:20170914071744     3
 OLDACT:UP  17-09-14 17:35 OP:leo  STATUS:               ID:20170914071744     3
 OLDACT:UP  17-09-14 17:34 OP:leo  STATUS:               ID:20170914071744     3
 OLDACT:UP  17-09-14 17:20 OP:leo  STATUS:               ID:20170914071744     3
 OLDACT:UP  17-09-14 17:13 OP:leo  STATUS:               ID:20170914071744     3
 OLDACT:UP  17-09-14 17:12 OP:leo  STATUS:               ID:20170914071744     3
 OLDACT:REG 17-09-14 11:36 OP:dhb  STATUS:               ID:20170914071744     3
 2017-09-14-0718-00M.COL___410                                                 6
 STAT SP IPHASW D HRMM SECON CODA AMPLIT PERI AZIMU VELO AIN AR TRES W  DIS CAZ7
 BAR2 EZ IP     D  724  6.65                             170   -0.4010 23.6 195 
 BAR2 EZ EP        724  6.81                             170   -0.2410 23.6 195 
 BAR2 EZ I         724 23.38        13.8 0.28            169           23.6 195 
 BRR  HZ EP        724  8.76                             152    0.1010 73.2 298 
 BRR  HN ES        724 25.79                             152    0.4610 73.2 298 
 BRR  HZ I         724 28.19         5.3 0.14            150           73.2 298 
 PAM  EZ EP        724  9.39                             151   -0.1510 76.2  38 
 PAM  EN ES        724 26.77                             151   -0.1310 76.2  38 
 PAM  EZ I         724 28.83        12.0 0.48            153           76.2  38 
 RUS  HZ EP        724 10.81                             144   -0.3110  100 177 
 RUS  HN ES        724 29.70                             144   -0.0110  100 177 
 RUS  HZ I         724 30.47         4.5 0.46            144            100 177 
 TAM  HZ IP     D  724 14.83                             131   -0.02 9  153 105 
 TAM  HN ES        724 36.38                             131    0.03 9  153 105 
 SPBC HZ EP        724 15.68                             129   -0.30 9  164 220 
 SPBC HN ES        724 38.52                             129    0.16 9  164 220 
 SPBC HZ I         724 42.74        12.2 0.16            128            164 220 
 YPLC HZ IP     D  724 16.84                             127   -0.20 9  176 152 
 YPLC HN ES        724 41.26                             127    1.01 9  176 152 
 YPLC HZ I         724 42.53         3.8 0.32            128            176 152 
 ZAR  HZ EP        724 19.95                             122   -0.06 8  206 292 
 ZAR  HN ES        724 45.66                             122    0.12 8  206 292 
 ZAR  HZ I         724 51.10         7.6 0.14            122            206 292 
 NOR  HN ES        724 50.88                             119   -0.42 8  236 235 
 NOR  HZ I         724 57.95         4.7 0.42            118            236 235 
 CHI  HZ EP        724 24.89                             117   -0.19 8  249 196 
 CHI  HN ES   2    724 54.27                             117   -0.30 4  249 196 
 CHI  HZ I         724 58.14         2.9 0.40            117            249 196 
 HEL  HZ EP        724 28.34                             115    0.57 8  274 256 
 HEL  HN ES        724 58.62                             115   -0.74 8  274 256 
 HEL  HZ I         725  5.38         3.5 0.38            114            274 256 
 GUY2CHZ EP   4    724 33.06                             112    1.93 0  303 235 
 GUY2CHE ES   4    725  9.73                             112    4.41 0  303 235 
 GUY2CHZ I         725 13.51         5.5 0.76                           303 235 
 PTGC HZ IP   9 C  724 29.59                             112   -1.49 0  308 159 
 PTGC HN ES        725  3.12                                   -0.63 7  308 159 
 PTGC HZ I         725 10.07         4.7 0.38            112            308 159 
 ELA  HZ EP   3    724 35.68                             110    1.33 2  331 230 
 ELA  HN ES        725 10.57                             110   -0.49 7  331 230 
 ELA  HZ I         725 17.38         4.8 0.46            110            331 230 
 CBOC HZ EP        724 35.15                             110    0.68 7  336 252 
 CBOC HN ES        725 12.21                             110    0.94 7  336 252 
 CBOC HZ I         725 19.79         1.2 0.42            110            336 252 
 PRA  HZ EP     D  724 41.19                             107    0.25 6  393 210 
 PRA  HN ES   3    725 24.10                             107    1.30 1  393 210 
 PRA  HZ I         725 28.11         3.6 0.64            107            393 210 
 SJC  HZ EP   9    724 40.98                             106   -2.05 0  411 327 
 SJC  HN ES        725 24.55                             107    0.08 6  411 327 
 SJC  HZ I         725 34.61         1.1 0.34            106            411 327 
                                                                                
