 2011  914 0048 35.8 L   6.752 -73.094149.0  RSN 14 0.2 2.1LRSN                1
 GAP=145        0.33       1.5     2.2  2.4 -0.5374E+00  0.1283E+01  0.6288E+00E
 Epicentro: LOS SANTOS - SANTANDER                                             3
 ACTION:UPD 12-07-13 15:57 OP:ep   STATUS:               ID:20110914004835 L   I
 2011-09-14-0045-42S.COL___169                                                 6
 STAT SP IPHASW D HRMM SECON CODA AMPLIT PERI AZIMU VELO AIN AR TRES W  DIS CAZ7
 BAR2 SZ EP   1    048 55.43                             172   -0.30 7 20.1 209 
 BAR2 SZ ES   1    049 11.12                             172   -0.18 7 20.1 209 
 BAR2 SZ I         049 12.45        23.8 0.28                          20.1 209 
 GIR2 SZ EP   1    048 55.96                             165   -0.06 7 37.8 343 
 GIR2 SZ ES   2    049 11.80                             165   -0.01 5 37.8 343 
 PAM  SZ EP   1    048 58.79                             151    0.41 7 78.3  34 
 PAM  SN ES   2    049 16.00                             151   -0.02 5 78.3  34 
 BRR  HZ EP   1    048 57.76                             151    0.05 7 78.8 300 
 BRR  HE ES   1    049 15.06                             151    0.24 7 78.8 300 
 BRR  HZ I         049 19.79        21.9 0.15                          78.8 300 
 RUS  HZ EP   1    048 59.42                             146   -0.03 7 95.0 179 
 RUS  HN ES   2    049 18.06                             146    0.14 5 95.0 179 
 RUS  HZ I         049 19.50        17.9 0.39                          95.0 179 
 OCA  SZ EP   1    049  4.84                             129   -0.06 7  166 351 
 OCA  SZ ES   2    049 27.44                             129   -0.19 5  166 351 
 OCA  SZ I         049 33.97        10.7 0.31                           166 351 
 ZAR  HZ EP   1    049  9.10                             122   -0.08 6  211 293 
 ZAR  HN ES   2    049 35.05                             122   -0.19 4  211 293 
 ZAR  HZ I         049 41.56        12.3 0.26                           211 293 
 NOR  SZ EP   2    049 11.83                             119   -0.04 4  236 236 
 NOR  SN ES   2    049 40.02                             119    0.00 4  236 236 
 CHI  HZ EP   1    049 13.45                             118    0.18 6  245 197 
 CHI  HN ES   2    049 42.24                             118   -0.27 4  245 197 
 CHI  HZ I         049 45.95         5.1 0.57                           245 197 
 ROSC BZ EP   2    049 13.91                             117    0.01 4  251 213 
 ROSC BZ I         049 52.35         8.1 0.63                           251 213 
 HEL  HZ EP   2    049 16.66                             115    0.03 4  276 257 
 HEL  HN ES   2    049 48.50                             115    0.01 4  276 257 
 HEL  HZ I         049 55.14         5.6 0.29                           276 257 
 RREF HZ EP   1    049 22.14                             111   -0.02 5  323 231 
 RREF HN ES   2    049 58.88                             111    0.53 3  323 231 
 COD  HN ES   2    050  3.11                             109   -0.21 3  354 354 
 COD  HZ I         050 23.31        12.5 0.76                           354 354 
 PRA  HZ EP   2    049 29.24                             107    0.04 3  390 211 
 PRA  HE ES   2    050 10.57                             107   -0.30 3  390 211 
                                                                                
