 2016 1214 0141  8.2 L   6.834 -73.165146.9  RSN 20 0.5 2.3LRSN                1
 GAP= 69        1.03       3.4     2.9  5.0 -0.5649E+00  0.3634E+01  0.3057E+01E
 Epicentro: LOS SANTOS - SANTANDER                                             3
 ACTION:UPD 17-01-11 20:14 OP:rebc STATUS:               ID:20161214014108 L   I
 OLDACT:UP  16-12-14 13:50 OP:and  STATUS:               ID:20161214013745     3
 OLDACT:UP  16-12-14 13:46 OP:and  STATUS:               ID:20161214013745     3
 OLDACT:UP  16-12-14 13:41 OP:and  STATUS:               ID:20161214013745     3
 OLDACT:UP  16-12-14 13:38 OP:and  STATUS:               ID:20161214013745     3
 OLDACT:REG 16-12-14 11:59 OP:and  STATUS:               ID:20161214013745     3
 2016-12-14-0138-00M.COL___377                                                 6
 STAT SP IPHASW D HRMM SECON CODA AMPLIT PERI AZIMU VELO AIN AR TRES W  DIS CAZ7
 BAR2 EZ EP        141 28.03                             169    0.0210 26.8 184 
 BAR2 EZ ES        141 43.05                             169   -0.4310 26.8 184 
 BAR2 EZ I         141 44.31        57.6 0.24            169           26.8 184 
 BRR  HZ EP        141 29.81                             154    0.5710 67.6 297 
 BRR  HN ES        141 46.40                             154    0.7210 67.6 297 
 BRR  HZ I         141 51.89        24.1 0.14            150           67.6 297 
 PAM  EZ EP        141 30.91                             151    0.5010 75.9  43 
 PAM  EN ES        141 47.85                             151    0.0810 75.9  43 
 PAM  EZ I         141 50.24        56.2 0.50            155           75.9  43 
 RUS  HZ EP        141 32.04                             143   -0.2710  105 175 
 RUS  HN ES        141 50.80                             143   -0.3510  105 175 
 RUS  HZ I         141 51.85        52.8 0.24            145            105 175 
 PTB  HZ EP        141 34.48                             132   -0.63 9  146 257 
 PTB  HN ES        141 55.77                             132   -0.35 9  146 257 
 PTB  HZ I         142  2.66        19.1 0.23            131            146 257 
 TAM  HZ IP     D  141 36.46                             130    0.25 9  158 106 
 TAM  HN ES        141 57.77                             130   -0.32 9  158 106 
 ZAR  HZ EP        141 40.52                             123    0.18 9  201 291 
 ZAR  HN ES        142  5.14                             123   -0.29 9  201 291 
 ZAR  HZ I         142 11.63        13.3 0.11            123            201 291 
 NOR  HZ EP        141 44.23                             119    0.22 8  235 233 
 NOR  HN ES        142 12.33                             119    0.35 8  235 233 
 NOR  HZ I         142 14.62        15.6 0.18            119            235 233 
 CHI  HZ EP        141 46.24                             117   -0.02 8  252 194 
 CHI  HN ES        142 15.53                             117   -0.45 8  252 194 
 CHI  HZ I         142 19.07        14.0 0.54            118            252 194 
 ROSC BZ EP        141 46.71                             117    0.13 8  255 210 
 ROSC BN ES        142 17.51                             117    0.96 8  255 210 
 ROSC BZ I         142 22.52        19.2 0.40            118            255 210 
 URE  HZ EP        141 47.89                             114   -1.02 7  280 291 
 URE  HN ES   3    142 18.97                             114   -1.73 2  280 291 
 URE  HZ I         142 30.78        12.2 0.26            114            280 291 
 GUY2CHZ EP   4    141 53.26                             112    1.38 0  302 234 
 GUY2CHN ES   4    142 28.26                             112    2.28 0  302 234 
 GUY2CHZ I         142 34.23        10.9 0.26                           302 234 
 PTGC HZ EP   4    141 51.23                             111   -1.32 0  313 159 
 PTGC HN ES   4    142 24.84                             111   -2.34 0  313 159 
 LL6C HZ EP   9    141 33.21                             111   -20.3 0  321 358 
 LL6C HE ES   3    142  9.74                                    1.19 2  321 358 
 ELA  HZ EP   9    141 57.10                             110    1.94 0  330 229 
 ELA  HN ES        142 34.15                             110    0.39 7  330 229 
 ELA  HZ I         142 39.87         8.1 0.40            111            330 229 
 CBOC HZ EP   4    141 56.24                             110    1.21 0  333 251 
 CBOC HN ES        142 30.79                             110   -0.79 7  333 251 
 CBOC HZ I         142 36.39         3.2 0.23            111            333 251 
 ARGC HZ EP   4    141 59.16                             109    1.79 0  355 340 
 ARGC HN ES   4    142 38.31                             109    2.56 0  355 340 
 ANIL HZ EP   9    141 59.79                             109    1.64 0  359 224 
 ANIL HN ES        142 38.56                                   -0.22 6  359 224 
 ORTC HZ EP        142  2.40                             106    0.07 6  397 216 
 ORTC HN ES   3    142 46.04                             106    1.45 1  397 216 
 ORTC HZ I         142 49.42         7.1 0.30            107            397 216 
 SJC  HZ EP   2    142  2.22                             106   -1.03 3  405 327 
 SJC  HN ES   4    142 43.19                             106   -3.04 0  405 327 
 SJC  HZ I         142 49.68         2.5 0.34            107            405 327 
 PAL  HZ EP        142  3.80                             106    0.42 6  406 238 
 PAL  HN ES        142 47.29                             106    0.85 6  406 238 
 PAL  HZ I         142 50.46         3.9 0.25            107            406 238 
 CRJC HZ EP   9    142  8.51                             104   -1.75 0  464   4 
 CRJC HN ES        142 56.79                                   -0.16 5  464   4 
 CRJC HZ I         143  0.55         7.0 0.16            105            464   4 
                                                                                
