 2015 1014 0850  3.1 L   6.796 -73.092146.1  RSN 15 0.5 2.1LRSN                1
 GAP=144        1.14       2.8     5.0  5.6 -0.2251E+01  0.9423E+01  0.1396E+01E
 Epicentro: LOS SANTOS - SANTANDER                                             3
 ACTION:UPD 15-12-22 20:40 OP:cam  STATUS:               ID:20151014085003 L   I
 OLDACT:UP  15-10-14 19:34 OP:cara STATUS:               ID:20151014084742     3
 OLDACT:REG 15-10-14 12:45 OP:stll STATUS:               ID:20151014084742     3
 2015-10-14-0847-42M.COL___334                                                 6
 STAT SP IPHASW D HRMM SECON CODA AMPLIT PERI AZIMU VELO AIN AR TRES W  DIS CAZ7
 BAR2 EZ IP     D  850 23.02                             170    0.2010 24.6 204 
 BAR2 EZ ES        850 37.98                             170   -0.2110 24.6 204 
 BAR2 EZ I         850 39.59        39.0 0.20            167           24.6 204 
 PAM  EZ EP        850 25.83                             152    0.6510 74.1  36 
 PAM  EZ I         850 26.11        21.2 0.22            154           74.1  36 
 PAM  EN ES        850 41.59                             152   -0.8010 74.1  36 
 BRR  HZ EP        850 24.84                             151    0.2210 76.7 297 
 BRR  HN ES        850 42.07                             151    0.6710 76.7 297 
 BRR  HZ I         850 46.09        17.0 0.28            146           76.7 297 
 RUS  HZ EP        850 26.91                             144    0.0510 99.9 179 
 RUS  HE ES        850 45.37                             144   -0.0010 99.9 179 
 OCA  HZ EP        850 31.33                             129   -0.25 9  162 351 
 OCA  HE ES        850 54.16                             129    0.39 9  162 351 
 OCA  HZ I         851  0.11        20.0 0.48            129            162 351 
 SPBC HZ IP     C  850 32.01                             128    0.04 9  167 221 
 SPBC HZ I         850 32.10        16.9 0.56            128            167 221 
 SPBC HE ES        850 55.02                             128    0.54 9  167 221 
 ZAR  HZ EP        850 36.92                             122    0.75 8  210 292 
 ZAR  HE ES        851  1.33                             122   -0.63 8  210 292 
 ZAR  HZ I         851  6.98         8.6 0.32            120            210 292 
 NOR  HZ EP        850 38.78                             118   -0.58 8  239 235 
 NOR  HN ES        851  7.37                             118   -0.26 8  239 235 
 NOR  HZ I         851 10.88         8.4 0.16            118            239 235 
 SML  HZ EP        850 39.22                             117   -0.86 8  247 334 
 SML  HN ES        851  8.46                             117   -0.46 8  247 334 
 SML  HZ I         851 15.42        13.2 0.26            117            247 334 
 CHI  HZ EP        850 40.93                             117   -0.03 8  250 197 
 CHI  HN ES        851 10.30                             117   -0.18 8  250 197 
 CHI  HZ I         851 18.63         4.3 0.42            118            250 197 
 ROSC BZ EP        850 41.83                             116    0.28 8  255 212 
 ROSC BN ES        851 10.81                             116   -0.72 8  255 212 
 ROSC BZ I         851 16.55         9.9 0.40            117            255 212 
 HEL  HZ EP        850 44.39                             114    0.42 7  278 256 
 HEL  HE ES   4    851 14.50                             114   -1.34 0  278 256 
 HEL  HZ I         851 21.22         3.9 0.36            114            278 256 
 GUY2CHZ EP        850 48.00                             112    0.74 7  306 235 
 GUY2CHN ES   4    851 23.94                             112    2.24 0  306 235 
 GUY2CHZ I         851 32.00         4.5 0.48                           306 235 
 ORTC HZ EP        850 57.25                             106   -0.17 6  399 217 
 ORTC HN ES        851 39.13                             106   -0.64 6  399 217 
 ORTC HZ I         851 47.45         3.9 0.32            107            399 217 
 SJC  HZ EP   4    850 57.16                             106   -1.96 0  413 326 
 SJC  HN ES   4    851 38.22                             106   -4.58 0  413 326 
 SJC  HZ I         851 53.33         1.8 0.38            106            413 326 
                                                                                
