 2012  614 0835 47.7 L   6.599 -73.888 74.0  RSN  5 0.3 1.1LRSN                1
 GAP=154        0.64       5.5     2.7 10.5 -0.5871E+00  0.1167E+01  0.1137E+02E
 Epicentro: PUERTO PARRA - SANTANDER                                           3
 ACTION:UPD 12-08-06 17:49 OP:ep   STATUS:               ID:20120614083547 L   I
 2012-06-14-0830-00M.COL___201                                                 6
 STAT SP IPHASW D HRMM SECON CODA AMPLIT PERI AZIMU VELO AIN AR TRES W  DIS CAZ7
 PTB  HZ IP     C  836  0.78                             136   -0.3610 63.1 264 
 PTB  HN ES   1    836 11.81                             136    0.22 7 63.1 264 
 PTB  HZ I         836 13.95         4.0 0.16                          63.1 264 
 BAR2 SZ ES   1    836 14.79                             130    0.23 7 78.1  91 
 BAR2 SZ I         836 15.19         6.6 0.17                          78.1  91 
 RUS  HN ES   1    836 22.39                             118   -0.26 7  119 131 
 PAM  SZ EP   2    836 11.89                             111    0.41 5  155  58 
 NOR  SN ES   1    836 29.97                             110    0.34 7  158 224 
                                                                                
