 2017 1214 0627  8.6 L   6.807 -73.157144.5  RSN  8 0.4 1.7LRSN                1
 GAP=193        0.87       3.1     4.4  6.4 -0.4571E+01  0.6758E+01 -0.6033E+01E
 Epicentro: LOS SANTOS - SANTANDER                                             3
 ACTION:UPD 18-01-04 13:20 OP:rebc STATUS:               ID:20171214062708 L   I
 OLDACT:DUP 17-12-14 16:49 OP:osc  STATUS:               ID:20171214061740d    3
 2017-12-14-0618-00M.COL___456                                                 6
 STAT SP IPHASW D HRMM SECON CODA AMPLIT PERI AZIMU VELO AIN AR TRES W  DIS CAZ7
 BAR2 EZ EP        627 28.17                             170    0.1210 23.9 187 
 BAR2 EZ ES        627 42.89                             170   -0.3710 23.9 187 
 BAR2 EZ I         627 44.76         8.2 0.18            171           23.9 187 
 PTB  HZ EP        627 34.69                             132   -0.64 9  147 258 
 PTB  HN ES        627 56.23                             132    0.02 9  147 258 
 PTB  HZ I         627 57.96         4.5 0.16            134            147 258 
 OCA  HZ EP        627 37.05                             129    0.36 9  159 354 
 OCA  HN ES        627 58.75                             129    0.12 9  159 354 
 OCA  HZ I         628  4.56        10.5 0.28            132            159 354 
 SPBC HZ EP        627 37.16                             129    0.21 9  163 218 
 SPBC HE ES        627 59.60                             129    0.51 9  163 218 
 SPBC HZ I         628  6.30         6.5 0.18            131            163 218 
 ZAR  HZ EP        627 40.81                             122    0.04 9  203 292 
 ZAR  HE ES        628  6.02                             122    0.12 9  203 292 
 ZAR  HZ I         628 11.67         4.2 0.42            124            203 292 
 URE  HE ES        628 21.05                             113   -0.21 7  282 292 
 DRL03HZ EP        627 49.22                             113   -0.78 7  288 353 
 DRL03HE ES        628 22.84                             113    0.51 7  288 353 
 GUY2CHZ EP   3    627 53.54                             112    1.50 2  301 235 
 GUY2CHE ES        628 25.72                             112   -0.24 7  301 235 
 GUY2CHZ I         628 38.50         2.0 0.44                           301 235 
                                                                                
