 2012 1214 0245 14.5 L   6.807 -73.178147.1  RSN  5 0.3 1.2LRSN                1
 GAP=132        0.49       3.6     3.8  7.3  0.2422E+01 -0.2249E+01 -0.3665E+01E
 Epicentro: LOS SANTOS - SANTANDER                                             3
 ACTION:UPD 13-01-04 14:27 OP:ep   STATUS:               ID:20121214024514 L   I
 2012-12-14-0240-00M.COL___242                                                 6
 STAT SP IPHASW D HRMM SECON CODA AMPLIT PERI AZIMU VELO AIN AR TRES W  DIS CAZ7
 PAM  SZ EP   1    245 37.14                             150    0.13 7 79.1  42 
 PAM  SZ I         245 56.53         2.7 0.61                          79.1  42 
 RUS  HZ EP   1    245 38.40                             144   -0.11 7  102 174 
 RUS  HN ES   1    245 57.14                             144   -0.07 7  102 174 
 RUS  HZ I         245 58.73         2.8 0.36                           102 174 
 PTB  HZ EP   1    245 41.03                             133   -0.30 7  144 258 
 PTB  HE ES   1    246  2.55                             133    0.33 7  144 258 
 PTB  HZ I         246  3.69         2.6 0.17                           144 258 
 ZAR  HN ES   2    246 11.45                             123   -0.36 4  200 292 
 CHI  HZ EP   1    245 52.71                             117    0.40 6  249 194 
 CHI  HE ES   1    246 21.58                             117   -0.18 6  249 194 
                                                                                
