 2014 1214 0615  5.6 L   6.766 -73.167136.3  RSN  5 0.6 1.3LRSN                1
 GAP=135        1.48       7.5     7.3 10.9 -0.4810E+01  0.1080E+02  0.3481E+01E
 Epicentro: LOS SANTOS - SANTANDER                                             3
 ACTION:UPD 15-02-10 17:03 OP:nd   STATUS:               ID:20141214061505 L   I
 OLDACT:REG 14-12-14 13:57 OP:stll STATUS:               ID:20141214060743     3
 2014-12-14-0607-43M.COL___279                                                 6
 STAT SP IPHASW D HRMM SECON CODA AMPLIT PERI AZIMU VELO AIN AR TRES W  DIS CAZ7
 BAR2 EZ EP        615 24.26                             172    0.2010 19.3 185 
 BAR2 EZ ES        615 38.26                             172   -0.1610 19.3 185 
 BAR2 EZ I         615 40.94         8.0 0.14            171           19.3 185 
 BRR  HZ EP        615 26.08                             151    0.3110 71.1 302 
 BRR  HZ I         615 26.12         7.4 0.14            151           71.1 302 
 BRR  HN ES        615 42.58                             151    1.1110 71.1 302 
 PAM  SZ EP        615 27.14                             148    0.0010 81.7  39 
 PAM  SE ES        615 43.14                             148   -0.7610 81.7  39 
 PAM  SZ I         615 46.30         2.8 0.52            151           81.7  39 
 RUS  HZ EP        615 28.71                             143    0.5010 97.0 175 
 RUS  HN ES        615 45.79                             143   -0.0210 97.0 175 
 RUS  HZ I         615 47.75         3.4 0.24            145           97.0 175 
 PTB  HZ EP        615 31.15                             130   -0.43 9  145 260 
 PTB  HN ES        615 50.89                             130   -0.92 9  145 260 
 PTB  HZ I         615 56.76         2.0 0.16            132            145 260 
                                                                                
