 2013  314 0804 36.1 L   6.754 -73.147143.4  RSN  8 0.3 1.8LRSN                1
 GAP=138        0.76       3.5     3.4  5.7  0.7334E+00  0.3969E+01  0.8900E+00E
 Epicentro: LOS SANTOS - SANTANDER                                             3
 ACTION:UPD 13-04-09 14:02 OP:ep   STATUS:               ID:20130314080436 L   I
 2013-03-14-0800-00M.COL___243                                                 6
 STAT SP IPHASW D HRMM SECON CODA AMPLIT PERI AZIMU VELO AIN AR TRES W  DIS CAZ7
 BAR2 SZ EP        8 4 55.59                             172    0.2110 18.3 192 
 BAR2 SZ ES   1    8 5 10.83                             172    0.43 7 18.3 192 
 BAR2 SZ I         8 5 11.72        16.0 0.20            164           18.3 192 
 BRR  HZ EP        8 4 57.49                             151    0.3310 73.7 302 
 BRR  HN ES        8 5 13.92                             151    0.3510 73.7 302 
 BRR  HN I         8 5 15.24        12.5 0.18            138           73.7 302 
 PAM  SZ EP        8 4 58.47                             149    0.1210 81.5  37 
 PAM  SN ES        8 5 15.22                             149   -0.4510 81.5  37 
 PAM  SN I         8 5 17.45        10.4 0.56            141           81.5  37 
 RUS  HZ EP        8 4 59.49                             145    0.2110 95.5 176 
 RUS  HN ES        8 5 17.00                             145   -0.3410 95.5 176 
 RUS  HN I         8 5 19.77         5.2 0.34            131           95.5 176 
 PTB  HZ EP   1    8 5  2.59                             131   -0.22 7  147 261 
 PTB  HN ES        8 5 23.21                             131   -0.41 9  147 261 
 PTB  HN I         8 5 27.98         9.6 0.16            118            147 261 
 OCA  HN ES   2    8 5 26.56                             128   -0.50 5  165 353 
 OCA  HN I         8 5 28.44        18.2 0.20            117            165 353 
 ZAR  HN ES        8 5 33.84                             121   -0.11 8  206 293 
 ZAR  HN I         8 5 39.52        10.6 0.14            110            206 293 
 HEL  HZ EP   1    8 5 15.98                             114   -0.09 6  271 257 
 HEL  HN I         8 5 54.84         2.4 0.38            105            271 257 
                                                                                
