 2017  714 0729  3.8 L   6.820 -73.078149.0  RSN  5 0.2 1.2LRSN                1
 GAP=246        0.53       3.3     4.2  6.3  0.5931E+01  0.2387E+01 -0.3193E+01E
 Epicentro: LOS SANTOS - SANTANDER                                             3
 ACTION:UPD 17-08-30 15:32 OP:rebc STATUS:               ID:20170714072903 L   I
 OLDACT:UP  17-07-14 16:09 OP:dnl  STATUS:               ID:20170714072739     3
 OLDACT:UP  17-07-14 16:09 OP:dnl  STATUS:               ID:20170714072739     3
 OLDACT:REG 17-07-14 12:44 OP:dnl  STATUS:               ID:20170714072739     3
 2017-07-14-0728-00M.COL___376                                                 6
 STAT SP IPHASW D HRMM SECON CODA AMPLIT PERI AZIMU VELO AIN AR TRES W  DIS CAZ7
 BRR  HZ EP        729 25.80                             151    0.2210 76.9 294 
 BRR  HE ES        729 42.65                             151    0.0510 76.9 294 
 BRR  HZ I         729 47.14         3.2 0.12            153           76.9 294 
 RUS  HZ EP   2    729 27.52                             144   -0.44 5  103 180 
 RUS  HN ES        729 46.75                             144   -0.0910  103 180 
 RUS  HZ I         729 48.49         1.1 0.32            148            103 180 
 PTB  HZ EP   2    729 31.52                             131   -0.17 5  156 259 
 PTB  HN ES        729 53.14                             131   -0.34 9  156 259 
 PTB  HZ I         729 54.70         1.5 0.14            134            156 259 
 SPBC HE ES        729 56.32                             128    0.31 9  170 221 
 SPBC HZ I         729 58.26         2.7 0.28            132            170 221 
 ZAR  HZ EP   2    729 37.23                             122    0.18 4  210 291 
 ZAR  HN ES        730  2.99                             122   -0.02 8  210 291 
 ZAR  HZ I         730  5.52         2.2 0.26            125            210 291 
                                                                                
