 2016  514 0813 17.9 L   6.790 -73.120147.2  RSN  9 0.3 1.7LRSN                1
 GAP=185        0.69       2.3     3.6  4.6  0.9436E+00  0.4572E+01  0.2318E+01E
 Epicentro: LOS SANTOS - SANTANDER                                             3
 ACTION:UPD 16-08-18 17:45 OP:cam  STATUS:               ID:20160514081317 L   I
 OLDACT:REG 16-05-14 14:00 OP:ak   STATUS:               ID:20160514080746     3
 2016-05-14-0807-46M.COL___303                                                 6
 STAT SP IPHASW D HRMM SECON CODA AMPLIT PERI AZIMU VELO AIN AR TRES W  DIS CAZ7
 BAR2 EZ EP        813 37.65                             171   -0.0310 22.9 198 
 BAR2 EZ ES        813 52.78                             171   -0.3410 22.9 198 
 BAR2 EZ I         813 55.26        16.2 0.24            168           22.9 198 
 BRR  HZ EP        813 39.61                             152    0.2510 74.2 298 
 BRR  HN ES        813 56.62                             152    0.5110 74.2 298 
 RUS  HZ EP        813 41.47                             144   -0.2210 99.3 178 
 RUS  HN ES        814  0.39                             144    0.1410 99.3 178 
 RUS  HZ I         814  1.33         6.8 0.24            145           99.3 178 
 OCA  HE ES        814  8.68                             130   -0.05 9  162 352 
 SPBC HZ EP        813 46.38                             129   -0.20 9  164 220 
 SPBC HN ES        814  8.93                             129   -0.03 9  164 220 
 SPBC HZ I         814 11.29        11.3 0.22            129            164 220 
 ZAR  HZ EP   2    813 51.45                             122    0.71 4  207 292 
 ZAR  HN ES        814 15.82                             122   -0.55 8  207 292 
 ZAR  HZ I         814 21.85         3.7 0.19            122            207 292 
 NOR  HZ EP   2    813 54.07                             119    0.19 4  236 235 
 NOR  HE ES        814 21.67                             119   -0.28 8  236 235 
 NOR  HZ I         814 26.56         4.5 0.18            118            236 235 
 CHI  HZ EP        813 55.58                             117   -0.05 8  248 196 
 CHI  HN ES        814 25.51                             117    0.44 8  248 196 
 CBOC HZ EP   2    814  5.37                             110    0.24 3  336 252 
 CBOC HE ES        814 42.13                             110    0.15 7  336 252 
 CBOC HZ I         814 48.31         0.8 0.28            110            336 252 
                                                                                
