 2017  114 0232 12.4 L   6.838 -73.405121.7  RSN  5 0.3 1.2LRSN                1
 GAP=103        0.86       4.5     3.9  7.3  0.8496E+00  0.6972E+01  0.7588E+01E
 Epicentro: SAN VICENTE DE CHUCURI - SANTANDER                                 3
 ACTION:UPD 17-05-22 15:59 OP:jn   STATUS:               ID:20170114023212 L   I
 OLDACT:DUP 17-01-14 13:47 OP:dani STATUS:               ID:20170114022745d    3
 OLDACT:UP  17-01-14 13:46 OP:dani STATUS:               ID:20170114022744     3
 OLDACT:UP  17-01-14 13:46 OP:dani STATUS:               ID:20170114022744     3
 OLDACT:UP  17-01-14 13:45 OP:dani STATUS:               ID:20170114022744     3
 OLDACT:UP  17-01-14 13:45 OP:dani STATUS:               ID:20170114022744     3
 OLDACT:UP  17-01-14 13:45 OP:dani STATUS:               ID:20170114022744     3
 OLDACT:REG 17-01-14 12:24 OP:dani STATUS:               ID:20170114022744     3
 2017-01-14-0228-00M.COL___326                                                 6
 STAT SP IPHASW D HRMM SECON CODA AMPLIT PERI AZIMU VELO AIN AR TRES W  DIS CAZ7
 BAR2 HZ ES        232 42.97                             162    0.0910 36.6 138 
 BRR  HZ EP        232 30.01                             158    0.5010 45.2 311 
 BRR  HN ES        232 43.20                             158    0.3210 45.2 311 
 BRR  HZ I         232 48.44        10.0 0.29            157           45.2 311 
 PAM  EE ES        232 49.38                             140   -0.4710 95.6  54 
 RUS  HZ EP        232 34.74                             135    0.1010  110 161 
 RUS  HN ES        232 52.06                             135    0.0310  110 161 
 RUS  HZ I         232 53.21         1.1 0.18            140            110 161 
 PTB  HZ EP        232 34.80                             132   -0.1210  121 254 
 PTB  HN ES        232 52.04                             132   -0.4810  121 254 
 PTB  HZ I         232 57.11         2.3 0.11            134            121 254 
                                                                                
