 2014  614 0550 54.6 L   6.477 -73.622115.0  RSN  4 0.4 1.8LRSN                1
 GAP=199        0.89       6.3     5.0  9.4 -0.6478E+01  0.2843E+01 -0.3434E+02E
 Epicentro: SANTA HELENA DEL OPON - SANTANDER                                  3
 ACTION:UPD 14-07-01 22:53 OP:nd   STATUS:               ID:20140614055054 L   I
 OLDACT:REG 14-06-14 13:35 OP:mh   STATUS:               ID:20140614054818     3
 2014-06-14-0548-18M.COL___241                                                 6
 STAT SP IPHASW D HRMM SECON CODA AMPLIT PERI AZIMU VELO AIN AR TRES W  DIS CAZ7
 BAR2 SZ EP        551 12.11                             155    0.4810 50.3  75 
 BAR2 SZ ES   1    551 24.68                             155   -0.21 7 50.3  75 
 BAR2 SZ I         551 26.19        44.6 0.40            156           50.3  75 
 PTB  HZ EP        551 14.31                             138    0.1310 92.5 274 
 PTB  HN ES        551 29.23                             138   -0.2010 92.5 274 
 PTB  HZ I         551 31.61                             141           92.5 274 
 OCA  HZ EP        551 23.98                             116   -0.79 9  198  10 
 OCA  HN ES   1    551 48.30                             116    0.03 6  198  10 
 OCA  HZ I         551 53.56         2.7 0.19            118            198  10 
 SML  HZ EP        551 31.85                             108    0.03 8  262 349 
 SML  HN ES        552  1.26                             108    0.44 8  262 349 
                                                                                
