 2015  314 0823 31.1 L   6.768 -73.170139.2  RSN  6 0.3 1.4LRSN                1
 GAP=135        0.82       3.8     4.0  6.0 -0.3580E+01  0.3121E+01  0.8665E+00E
 Epicentro: LOS SANTOS - SANTANDER                                             3
 ACTION:UPD 15-04-30 16:25 OP:nd   STATUS:               ID:20150314082331 L   I
 OLDACT:DUP 15-03-14 16:33 OP:cam  STATUS:               ID:20150314081748d    3
 2015-03-14-0817-47M.COL___272                                                 6
 STAT SP IPHASW D HRMM SECON CODA AMPLIT PERI AZIMU VELO AIN AR TRES W  DIS CAZ7
 BAR2 EZ EP        823 49.85                             172   -0.0510 19.4 184 
 BAR2 EZ ES        824  3.94                             172   -0.5910 19.4 184 
 BAR2 EZ I         824  6.38         8.0 0.22            171           19.4 184 
 BRR  HZ IP     D  823 51.74                             151    0.1910 70.7 302 
 BRR  HN ES        824  7.99                             151    0.5210 70.7 302 
 BRR  HZ I         824 11.91         2.9 0.18            151           70.7 302 
 PAM  SZ EP        823 52.78                             148   -0.1510 81.8  39 
 PAM  SN ES        824 10.01                             148    0.0710 81.8  39 
 PAM  SZ I         824 11.54         3.7 0.62            153           81.8  39 
 RUS  HZ EP        823 54.21                             143    0.2110 97.2 174 
 RUS  HN ES        824 12.00                             143    0.1710 97.2 174 
 RUS  HZ I         824 13.81         3.0 0.54            146           97.2 174 
 PTB  HZ EP        823 56.90                             131   -0.37 9  144 260 
 PTB  HN ES        824 17.38                             131   -0.28 9  144 260 
 PTB  HZ I         824 22.83         2.6 0.44            132            144 260 
 SPBC HN ES        824 20.44                             128    0.23 9  159 219 
 SPBC HN I         824 25.35         8.8 0.14            130            159 219 
                                                                                
