 2016  314 0023 36.8 L   6.823 -73.163144.0  RSN 10 0.4 1.8LRSN                1
 GAP=133        0.59       3.6     3.8  5.8 -0.4656E+01  0.3492E+01  0.1258E+01E
 Epicentro: LOS SANTOS - SANTANDER                                             3
 ACTION:UPD 16-05-13 21:24 OP:cam  STATUS:               ID:20160314002336 L   I
 OLDACT:REG 16-03-14 12:36 OP:dnl  STATUS:               ID:20160314001746     3
 2016-03-14-0017-46M.COL___295                                                 6
 STAT SP IPHASW D HRMM SECON CODA AMPLIT PERI AZIMU VELO AIN AR TRES W  DIS CAZ7
 BAR2 EZ EP   2    023 56.49                             169    0.18 5 25.6 185 
 BAR2 EZ ES   2    024 11.75                             169    0.26 5 25.6 185 
 BAR2 EZ I         024 14.13        18.0 0.30            167           25.6 185 
 PAM  EZ EP        023 59.19                             151    0.3610 76.7  42 
 PAM  EN ES   2    024 15.72                             151   -0.26 5 76.7  42 
 PAM  EZ I         024 18.57        10.9 0.23            158           76.7  42 
 RUS  HZ EP        024  0.31                             143   -0.3110  103 175 
 RUS  HE ES   2    024 18.60                             143   -0.57 5  103 175 
 RUS  HZ I         024 20.46         5.6 0.40            146            103 175 
 PTB  HZ EP        024  3.36                             132   -0.18 9  146 258 
 PTB  HN ES   2    024 23.93                             132   -0.44 5  146 258 
 PTB  HZ I         024 31.60         9.8 0.42            132            146 258 
 SPBC HZ EP        024  5.36                             129    0.07 9  164 218 
 SPBC HN ES        024 27.96                             129    0.49 9  164 218 
 SPBC HZ I         024 33.28        17.7 0.14            130            164 218 
 ZAR  HE ES   2    024 33.29                             122   -0.59 4  201 292 
 ZAR  HZ I         024 42.09         6.0 0.24            124            201 292 
 NOR  HZ EP   2    024 12.11                             118   -0.36 4  235 234 
 NOR  HN ES   2    024 40.15                             118   -0.10 4  235 234 
 NOR  HZ I         024 44.10         5.3 0.20            120            235 234 
 CHI  HZ EP        024 14.48                             117   -0.18 8  251 195 
 CHI  HN ES   2    024 44.09                             117   -0.07 4  251 195 
 CHI  HZ I         024 53.99         2.1 0.50            120            251 195 
 HEL  HZ EP   2    024 17.18                             115    0.35 4  271 255 
 HEL  HE ES   3    024 49.01                             115    0.99 2  271 255 
 HEL  HZ I         024 55.13         3.1 0.34            116            271 255 
 GUY2CHZ EP   3    024 21.19                             112    0.83 2  301 234 
 GUY2CHN ES   3    024 55.18                             112    0.87 2  301 234 
 GUY2CHZ I         025  3.31         5.0 0.31                           301 234 
 SJC  HZ EP   4    024 30.72                             106   -1.25 0  406 327 
 SJC  HE ES   4    025 12.33                             106   -2.64 0  406 327 
                                                                                
