 2016  814 0100 46.2 L   6.804 -73.135144.1  RSN  7 0.4 1.7LRSN                1
 GAP=239        1.01       4.5     6.0  7.7  0.9714E+01  0.2940E+01  0.1534E+01E
 Epicentro: LOS SANTOS - SANTANDER                                             3
 ACTION:UPD 16-10-29 15:35 OP:rebc STATUS:               ID:20160814010046 L   I
 OLDACT:UP  16-08-14 14:14 OP:dani STATUS:               ID:20160814005727     3
 OLDACT:REG 16-08-14 12:24 OP:dani STATUS:               ID:20160814005727     3
 2016-08-14-0058-00M.COL___383                                                 6
 STAT SP IPHASW D HRMM SECON CODA AMPLIT PERI AZIMU VELO AIN AR TRES W  DIS CAZ7
 BRR  HZ EP        1 1  7.33                             152    0.1610 72.0 298 
 BRR  HN ES        1 1 23.73                             152    0.1610 72.0 298 
 BRR  HZ I         1 1 27.39         7.3 0.34                          72.0 298 
 RUS  HZ EP        1 1  9.63                             143   -0.1510  101 177 
 RUS  HN ES        1 1 28.08                             143   -0.1210  101 177 
 RUS  HZ I         1 1 30.44         3.5 0.45                           101 177 
 PTB  HZ EP        1 1 12.39                             131   -0.71 9  149 259 
 PTB  HN ES        1 1 33.59                             131   -0.53 9  149 259 
 PTB  HZ I         1 1 36.05         4.8 0.10                           149 259 
 SPBC HZ EP        1 1 14.52                             128   -0.11 9  164 219 
 SPBC HN ES        1 1 37.39                             128    0.55 9  164 219 
 SPBC HZ I         1 1 41.84         8.2 0.22                           164 219 
 ZAR  HZ EP        1 1 19.53                             122    0.94 9  205 292 
 ZAR  HN ES        1 1 43.75                             122   -0.13 9  205 292 
 ZAR  HZ I         1 1 49.98         5.9 0.30                           205 292 
 NOR  HZ EP        1 1 21.61                             118   -0.31 8  236 235 
 NOR  HN ES        1 1 50.03                             118    0.21 8  236 235 
 NOR  HZ I         1 1 55.81         5.4 0.20                           236 235 
 CHI  HN ES        1 1 53.47                             117    0.23 8  249 195 
                                                                                
