 2015  214 0810 39.0 L   6.819 -73.207143.4  RSN 19 0.4 2.2LRSN                1
 GAP=121        1.02       2.2     3.5  4.5 -0.1688E+00  0.2937E+01  0.4744E+00E
 Epicentro: ZAPATOCA - SANTANDER                                               3
 ACTION:UPD 15-04-30 21:26 OP:nd   STATUS:               ID:20150214081039 L   I
 OLDACT:REG 15-02-14 13:01 OP:fm   STATUS:               ID:20150214080742     3
 2015-02-14-0807-42M.COL___281                                                 6
 STAT SP IPHASW D HRMM SECON CODA AMPLIT PERI AZIMU VELO AIN AR TRES W  DIS CAZ7
 BAR2 EZ EP        810 58.78                             170    0.3810 25.2 174 
 BAR2 EZ ES        811 13.46                             170   -0.0610 25.2 174 
 BAR2 EZ I         811 14.83        27.4 0.22            167           25.2 174 
 BRR  HZ IP     D  811  0.57                             154    1.0410 64.2 300 
 BRR  HE ES        811 15.79                             154    0.2610 64.2 300 
 BRR  HZ I         811 21.90        16.5 0.14            148           64.2 300 
 RUS  HZ EP        811  2.69                             142   -0.0510  103 172 
 RUS  HE ES        811 20.82                             142   -0.4210  103 172 
 RUS  HZ I         811 22.51        13.0 0.32            145            103 172 
 PTB  HZ EP        811  5.27                             133    0.04 9  142 257 
 PTB  HE ES        811 25.43                             133   -0.24 9  142 257 
 PTB  HZ I         811 32.60        27.5 0.40            130            142 257 
 OCA  HZ EP        811  6.68                             130   -0.21 9  158 356 
 OCA  HE ES        811 28.27                             130   -0.35 9  158 356 
 OCA  HZ I         811 34.05        21.1 0.16            130            158 356 
 SPBC HZ EP        811  7.57                             129    0.48 9  161 217 
 SPBC HE ES        811 29.52                             129    0.53 9  161 217 
 SPBC HZ I         811 36.99        24.7 0.24            128            161 217 
 ZAR  HZ EP        811 11.47                             123    0.89 9  197 292 
 ZAR  HE ES        811 35.17                             123   -0.02 9  197 292 
 ZAR  HZ I         811 46.78        15.7 0.24            121            197 292 
 NOR  HZ EP        811 14.29                             118    0.14 8  230 233 
 NOR  HE ES        811 40.72                             118   -0.83 8  230 233 
 NOR  HZ I         811 46.36        13.7 0.20            118            230 233 
 SML  HZ EP        811 14.96                             117   -0.05 8  239 337 
 SML  HE ES        811 42.31                             117   -0.76 8  239 337 
 SML  HZ I         811 48.41        27.8 0.10            118            239 337 
 CHI  HZ EP        811 16.18                             117   -0.44 8  249 194 
 CHI  HE ES        811 45.65                             117   -0.30 8  249 194 
 CHI  HZ I         811 54.26         5.4 0.46            118            249 194 
 ROSC BZ EP        811 16.78                             116   -0.05 8  251 209 
 ROSC BE ES        811 45.86                             116   -0.46 8  251 209 
 ROSC BZ I         811 56.19        16.8 0.40            117            251 209 
 URE  HZ EP        811 19.77                             114    0.59 7  277 292 
 URE  HN ES        811 50.04                             114   -0.46 7  277 292 
 URE  HZ I         812  2.99        11.6 0.36            113            277 292 
 GUY2CHZ EP        811 22.23                             112    0.20 7  297 234 
 GUY2CHE ES        811 55.78                             112    0.20 7  297 234 
 GUY2CHZ I         812  3.60         8.4 0.38                           297 234 
 CBOC HZ EP        811 24.87                             110   -0.30 7  328 251 
 CBOC HE ES        812  1.43                             110    0.27 7  328 251 
 CBOC HZ I         812 12.21         2.2 0.56            110            328 251 
 MON  HZ EP   4    811 26.08                             108   -1.08 0  347 309 
 MON  HE ES        812  4.22                             108   -0.49 6  347 309 
 MON  HZ I         812 22.73         4.8 0.74            109            347 309 
 SDV  BZ EP        811 29.13                             108   -0.30 6  364  51 
 SDV  BE ES   4    811 59.04                             108   -9.71 0  364  51 
 SDV  BZ I         812  7.47         3.0 0.40            110            364  51 
 PRA  HZ EP        811 31.49                             106   -0.79 6  391 209 
 PRA  HE ES        812 14.12                             106    0.29 6  391 209 
 PRA  HZ I         812 20.41         6.5 0.32            107            391 209 
 ORTC HZ EP        811 32.92                             106    0.33 6  393 215 
 ORTC HE ES        812 14.06                             106   -0.31 6  393 215 
 ORTC HZ I         812 22.37         4.5 0.48            107            393 215 
 PAL  HZ EP        811 33.49                             106   -0.05 6  401 238 
 PAL  HE ES   4    812 11.56                             106   -4.51 0  401 238 
 PAL  HZ I         812 29.17         2.9 0.58            106            401 238 
                                                                                
