 2014  414 0225 35.5 L   6.830 -73.168145.0  RSN  6 0.4 1.6LRSN                1
 GAP=132        1.12       4.2     6.1  9.6 -0.8900E+01  0.2116E+02 -0.6469E+01E
 Epicentro: LOS SANTOS - SANTANDER                                             3
 ACTION:UPD 14-05-13 23:08 OP:nd   STATUS:               ID:20140414022535 L   I
 OLDACT:REG 14-04-14 12:56 OP:nd   STATUS:               ID:20140414022039     3
 2014-04-14-0220-39M.COL___260                                                 6
 STAT SP IPHASW D HRMM SECON CODA AMPLIT PERI AZIMU VELO AIN AR TRES W  DIS CAZ7
 PAM  SZ EP        225 57.98                             151    0.4410 76.5  43 
 PAM  SN ES        226 15.02                             151    0.2510 76.5  43 
 PAM  SZ I         226 17.38         8.5 0.60            156           76.5  43 
 RUS  HZ EP        225 59.42                             143    0.0310  104 175 
 RUS  HN ES        226 17.63                             143   -0.4310  104 175 
 RUS  HZ I         226 19.13         4.3 0.24            150            104 175 
 PTB  HZ EP        226  1.87                             132   -0.33 9  146 257 
 PTB  HN ES        226 22.78                             132   -0.29 9  146 257 
 PTB  HZ I         226 27.49         5.1 0.10            133            146 257 
 OCA  HZ EP        226  2.50                             130   -0.88 9  157 354 
 OCA  HN ES        226 25.14                             130   -0.01 9  157 354 
 OCA  HZ I         226 29.97         7.1 0.52            132            157 354 
 SPBC HZ EP        226  3.99                             129   -0.01 9  164 218 
 SPBC HN ES        226 26.77                             129    0.51 9  164 218 
 SPBC HZ I         226 29.39         6.0 0.32            132            164 218 
 ZAR  HZ EP        226  8.28                             123    0.79 9  201 292 
 ZAR  HN ES   4    226 34.21                             123    1.74 0  201 292 
 ZAR  HZ I         226 43.12         4.6 0.18            124            201 292 
                                                                                
