 2013 1114 0825 27.0 L   5.847 -73.760116.0  RSN  7 0.4 1.3LRSN                1
 GAP=152        0.87       4.6     4.8  6.3 -0.1320E+02  0.8084E+01 -0.7287E+01E
 Epicentro: JESUS MARIA - SANTANDER                                            3
 ACTION:UPD 14-01-09 16:28 OP:ep   STATUS:               ID:20131114082527 L   I
 OLDACT:REG 13-11-14 10:19 OP:nd   STATUS:               ID:20131114082000     3
 2013-11-14-0820-00M.COL___279                                                 6
 STAT SP IPHASW D HRMM SECON CODA AMPLIT PERI AZIMU VELO AIN AR TRES W  DIS CAZ7
 SPBC HZ EP        825 43.34                             159   -0.1410 40.8 238 
 SPBC HN ES        825 55.82                             159   -0.4810 40.8 238 
 SPBC HZ I         825 58.81         5.4 0.10            163           40.8 238 
 RUS  HZ EP        825 46.15                             145    0.1310 75.1  86 
 RUS  HN ES   2    826  0.60                             145   -0.23 5 75.1  86 
 RUS  HZ I         826  5.06         1.4 0.28            149           75.1  86 
 BAR2 SZ EP        825 47.95                             135    0.0010  104  38 
 BAR2 SZ ES        826  4.52                             135    0.2510  104  38 
 BAR2 SZ I         826  7.01         6.2 0.40            138            104  38 
 NOR  HZ EP        825 49.97                             129    0.2210  127 256 
 NOR  HN ES   2    826  7.51                             129    0.04 5  127 256 
 NOR  HZ I         826  9.40         7.4 0.14            134            127 256 
 BRR  HZ EP     D  825 50.69                             126   -0.21 9  139   2 
 BRR  HN ES        826  9.91                             126    0.40 9  139   2 
 BRR  HZ I         826 14.68         2.4 0.42            129            139   2 
 GUY2CHZ EP        825 57.44                             117    0.57 9  191 249 
 GUY2CHN ES   2    826 20.37                             117    0.23 4  191 249 
 GUY2CHZ I         826 24.99         2.5 0.22                           191 249 
 SML  HZ EP        826 10.96                             104   -1.10 7  328 354 
 SML  HN ES   2    826 46.59                             104   -0.59 3  328 354 
 SML  HZ I         826 50.10         1.7 0.09            107            328 354 
                                                                                
