 2015  414 0947 29.4 L   6.822 -73.141148.3  RSN  8 0.5 1.8LRSN                1
 GAP=184        1.26       4.3     6.4  8.2  0.2839E+01  0.1013E+02 -0.3440E+01E
 Epicentro: LOS SANTOS - SANTANDER                                             3
 ACTION:UPD 15-06-03 16:54 OP:cam  STATUS:               ID:20150414094729 L   I
 OLDACT:REG 15-04-14 13:14 OP:carl STATUS:               ID:20150414093737     3
 2015-04-14-0937-37M.COL___271                                                 6
 STAT SP IPHASW D HRMM SECON CODA AMPLIT PERI AZIMU VELO AIN AR TRES W  DIS CAZ7
 BAR2 EZ EP        947 49.51                             170    0.1110 25.8 190 
 BAR2 EZ ES        948  5.32                             170    0.3310 25.8 190 
 BAR2 EZ I         948  7.16         8.0 0.32            170           25.8 190 
 BRR  HZ EP        947 51.28                             153    0.4910 70.5 297 
 BRR  HN ES        948  8.19                             153    0.7210 70.5 297 
 BRR  HZ I         948 11.87         9.2 0.28            149           70.5 297 
 RUS  HZ EP        947 53.71                             144    0.1210  103 176 
 RUS  HN ES        948 11.72                             144   -0.7210  103 176 
 PTB  HZ EP        947 56.26                             132   -0.41 9  149 258 
 PTB  HN ES        948 16.86                             132   -1.08 9  149 258 
 PTB  HZ I         948 20.93         7.7 0.16            131            149 258 
 OCA  HN ES        948 19.39                             131   -0.37 9  158 353 
 ZAR  HN ES        948 27.52                             123    0.15 9  204 291 
 ZAR  HZ I         948 33.07         6.3 0.32            122            204 291 
 NOR  HZ EP        948  5.89                             119    0.41 8  237 234 
 NOR  HN ES        948 34.18                             119    0.56 8  237 234 
 NOR  HZ I         948 39.79         5.9 0.18            119            237 234 
 SML  HZ EP        948  5.81                             118   -0.15 8  242 335 
 SML  HN ES        948 34.33                             118   -0.14 8  242 335 
 SML  HZ I         948 44.22         7.4 0.24            118            242 335 
                                                                                
