 2011 1214 0303 29.1 L   6.749 -73.192147.0  RSN  4 0.2 1.7LRSN                1
 GAP=173        0.45       5.0     4.6  6.0  0.3283E+01  0.1726E+01  0.7385E+01E
 Epicentro: VILLANUEVA - SANTANDER                                             3
 ACTION:UPD 12-07-13 16:16 OP:ep   STATUS:               ID:20111214030329 L   I
 2011-12-14-0300-00M.COL___185                                                 6
 STAT SP IPHASW D HRMM SECON CODA AMPLIT PERI AZIMU VELO AIN AR TRES W  DIS CAZ7
 GIR2 SZ EP   2    3 3 48.65                             165   -0.40 5 36.5 360 
 GIR2 SZ ES   2    3 4  4.40                             165   -0.22 5 36.5 360 
 BRR  HZ EP   1    3 3 50.62                             153    0.34 7 69.8 305 
 BRR  HE ES   1    3 4  6.95                             153    0.13 7 69.8 305 
 BRR  HZ I         3 4 11.49         8.8 0.34                          69.8 305 
 RUS  HZ EP   2    3 3 52.34                             146   -0.25 5 95.4 173 
 RUS  HE ES   2    3 4 11.10                             146    0.17 5 95.4 173 
 PTB  HZ EP   1    3 3 55.61                             133    0.00 7  142 261 
 PTB  HN ES   1    3 4 16.12                             133   -0.18 7  142 261 
                                                                                
