 2011 1114 0427 20.9 L   6.779 -73.108140.4  RSN  9 0.4 2.1LRSN                1
 GAP=142        0.82       3.8     6.1  6.6 -0.3570E+01  0.1076E+02  0.9120E-01E
 Epicentro: LOS SANTOS - SANTANDER                                             3
 ACTION:UPD 12-07-13 16:10 OP:ep   STATUS:               ID:20111114042720 L   I
 2011-11-14-0424-58S.COL___179                                                 6
 STAT SP IPHASW D HRMM SECON CODA AMPLIT PERI AZIMU VELO AIN AR TRES W  DIS CAZ7
 BAR2 SZ IP        427 39.98                             171    0.0810 22.2 202 
 BAR2 SZ ES   1    427 54.34                             171   -0.35 7 22.2 202 
 BAR2 SZ I         427 56.15        24.9 0.17                          22.2 202 
 BRR  HZ EP   1    427 41.90                             150    0.11 7 76.0 299 
 BRR  HN ES   1    427 58.82                             150    0.76 7 76.0 299 
 BRR  HZ I         428  0.55        27.5 0.14                          76.0 299 
 PAM  SZ EP   1    427 42.88                             150    0.34 7 76.7  36 
 PAM  SN ES   1    427 59.66                             150    0.27 7 76.7  36 
 PAM  SZ I         428  1.86        18.0 0.46                          76.7  36 
 RUS  HZ EP   1    427 43.97                             143   -0.01 7 98.0 178 
 RUS  HN ES   1    428  1.71                             143   -0.24 7 98.0 178 
 RUS  HZ I         428  3.88        16.0 0.26                          98.0 178 
 OCA  SZ EP   1    427 48.60                             128   -0.51 7  163 352 
 OCA  SZ ES   1    428 10.22                             128   -0.87 7  163 352 
 OCA  SZ I         428 15.58        13.4 0.19                           163 352 
 ZAR  HZ EP   1    427 53.94                             120    0.40 6  209 292 
 ZAR  HZ I         428 24.58        24.4 0.27                           209 292 
 NOR  SN ES   1    428 23.78                             117   -0.61 6  237 236 
 CHI  HZ EP   1    427 58.40                             116    0.18 6  247 196 
 CHI  HZ I         428 34.27         5.2 0.43                           247 196 
 HEL  HZ EP   2    428  1.70                             113    0.43 4  276 256 
 HEL  HZ I         428 38.27         4.6 0.27                           276 256 
                                                                                
