 2016  614 0930  0.4 L   6.773 -73.122149.3  RSN  4 0.2 1.4LRSN                1
 GAP=259        0.41       8.7     5.8  6.6  0.3101E+02  0.6649E+01 -0.5509E+01E
 Epicentro: LOS SANTOS - SANTANDER                                             3
 ACTION:UPD 16-07-21 22:18 OP:rebc STATUS:               ID:20160614093000 L   I
 OLDACT:REG 16-06-14 12:46 OP:dnl  STATUS:               ID:20160614092746     3
 2016-06-14-0927-46M.COL___298                                                 6
 STAT SP IPHASW D HRMM SECON CODA AMPLIT PERI AZIMU VELO AIN AR TRES W  DIS CAZ7
 BAR2 EZ EP   2    930 20.07                             172   -0.30 6 21.0 198 
 BAR2 EZ ES   2    930 35.94                             172   -0.04 6 21.0 198 
 BAR2 EZ I         930 37.34         5.4 0.24                          21.0 198 
 BRR  HZ EP   2    930 22.68                             152    0.58 6 74.9 300 
 BRR  HN ES   2    930 39.09                             152    0.03 6 74.9 300 
 BRR  HZ I         930 51.44         7.1 0.36                          74.9 300 
 PTB  HZ EP   2    930 27.70                             132   -0.10 5  150 260 
 PTB  HE ES   2    930 49.39                             132    0.20 5  150 260 
 PTB  HZ I         930 51.64         2.7 0.36                           150 260 
 ZAR  HZ EP   2    930 33.35                             123   -0.05 5  208 293 
 ZAR  HE ES        930 59.06                             123   -0.1110  208 293 
 ZAR  HZ I         931  5.86         1.9 0.38                           208 293 
                                                                                
