 2017  514 0735 42.7 L   6.698 -73.173150.3  RSN  4 0.2 1.4LRSN                1
 GAP=274        0.46       3.0     4.9  4.8 -0.9961E+00 -0.3587E+01 -0.7575E+00E
 Epicentro: VILLANUEVA - SANTANDER                                             3
 ACTION:UPD 17-06-16 13:36 OP:jn   STATUS:               ID:20170514073542 L   I
 OLDACT:DUP 17-05-14 17:09 OP:lv   STATUS:               ID:20170514072740d    3
 2017-05-14-0728-00M.COL___347                                                 6
 STAT SP IPHASW D HRMM SECON CODA AMPLIT PERI AZIMU VELO AIN AR TRES W  DIS CAZ7
 BRR  HZ EP        736  4.47                             152   -0.1010 74.8 307 
 BRR  HE ES        736 21.67                             152    0.0610 74.8 307 
 BRR  HZ I         736 25.75         3.8 0.18            149           74.8 307 
 PTB  HZ EP        736  9.49                             134   -0.16 9  143 263 
 PTB  HN ES        736 30.41                             134   -0.24 9  143 263 
 PTB  HZ I         736 33.54         3.4 0.29            134            143 263 
 SPBC HN ES        736 32.53                             132    0.18 9  153 221 
 ZAR  HZ EP        736 15.85                             123    0.20 8  206 295 
 ZAR  HN ES        736 41.46                             123    0.12 8  206 295 
 ZAR  HZ I         736 46.35         2.9 0.28            124            206 295 
                                                                                
