 2011  714 0222 54.2 L   6.701 -73.252149.8  RSN  4 0.2 1.3LRSN                1
 GAP=151        0.46       6.3    12.8  5.8  0.6033E+02 -0.1483E+02  0.1003E+01E
 Epicentro: BARICHARA - SANTANDER                                              3
 ACTION:UPD 12-07-25 14:00 OP:epov STATUS:               ID:20110714022254 L   I
 2011-07-14-0220-00M.COL___132                                                 6
 STAT SP IPHASW D HRMM SECON CODA AMPLIT PERI AZIMU VELO AIN AR TRES W  DIS CAZ7
 BAR2 SZ EP   1    223 13.84                             174   -0.33 7 14.3 147 
 BAR2 SZ ES   2    223 29.66                             174   -0.09 5 14.3 147 
 BAR2 SZ I         223 29.86         3.8 0.27                          14.3 147 
 BTL  SZ EP   1    223 14.31                             170   -0.02 7 24.1 356 
 BTL  SZ ES   1    223 30.22                             170    0.19 7 24.1 356 
 BRR  HZ I         223 27.59         7.0 0.28                          67.8 311 
 BRR  HE ES   1    223 32.27                             154   -0.02 7 67.8 311 
 RUS  HZ EP   1    223 18.04                             147    0.32 7 91.4 168 
 RUS  HE ES   1    223 35.96                             147   -0.10 7 91.4 168 
 RUS  HZ I         223 37.78         2.1 0.38                          91.4 168 
                                                                                
