 2012  614 0359 42.7 L   6.965 -73.160149.4  RSN  5 0.2 1.3LRSN                1
 GAP=125        0.39       2.9     2.5  4.3  0.3808E-01  0.3928E+01 -0.1020E+01E
 Epicentro: FLORIDABLANCA - SANTANDER                                          3
 ACTION:UPD 12-08-06 17:49 OP:ep   STATUS:               ID:20120614035942 L   I
 2012-06-14-0357-43M.COL___173                                                 6
 STAT SP IPHASW D HRMM SECON CODA AMPLIT PERI AZIMU VELO AIN AR TRES W  DIS CAZ7
 BAR2 SZ ES   1    4 0 19.16                             164   -0.08 7 41.3 183 
 BAR2 SZ I         4 0 20.29         9.0 0.25                          41.3 183 
 PAM  SZ EP   1    4 0  4.55                             155   -0.07 7 65.6  51 
 PAM  SN ES   1    4 0 21.87                             155    0.12 7 65.6  51 
 RUS  HZ EP   1    4 0  8.42                             140    0.28 7  119 176 
 RUS  HZ I         4 0  9.28         1.9 0.13                           119 176 
 RUS  HN ES   1    4 0 27.80                             140   -0.22 7  119 176 
 PTB  HZ EP   1    4 0 10.16                             132   -0.04 7  151 252 
 PTB  HN ES   1    4 0 31.84                             132    0.16 7  151 252 
 PTB  HZ I         4 0 36.39         2.2 0.25                           151 252 
 ZAR  HZ EP   2    4 0 14.20                             124   -0.36 4  196 287 
 ZAR  HN ES   1    4 0 39.46                             124    0.01 6  196 287 
                                                                                
