 2011  514 0744 48.8 L   7.468 -73.475109.8  RSN  5 0.2 1.4LRSN                1
 GAP=158        0.62       4.1     4.5  6.6 -0.5147E+01 -0.7007E-01 -0.3113E+01E
 Epicentro: SABANA DE TORRES - SANTANDER                                       3
 ACTION:UP  11-06-29 08:53 OP:tino STATUS:               ID:20110514074448 L   I
 2011-05-14-0740-00M.COL___142                                                 6
 STAT SP IPHASW D HRMM SECON CODA AMPLIT PERI AZIMU VELO SNR AR TRES W  DIS CAZ7
 BRR  HZ EP        745  4.61                             155    -0.210   48 213 
 BRR  HN ES   1    745 17.45                             155     0.2 7   48 213 
 BRR  HZ I         745 18.41         6.2 0.10                            48 213 
 BRI  SZ EP   2    745  7.58                             141     0.5 5   80  70 
 PAM  SZ EP        745  7.87                             139    -0.210   87  99 
 PAM  SN ES   1    745 22.95                             139    -0.2 7   87  99 
 OCA  SZ EP        745  7.53                             139    -0.110   87  11 
 OCA  SZ ES   1    745 22.18                             139    -0.1 7   87  11 
 OCA  SZ I         745 22.98         5.7 0.23                            87  11 
 GRA  SZ EP        745  8.02                             139     0.410   87  58 
 GRA  SZ ES   1    745 22.43                             139     0.1 7   87  58 
 GRA  SZ I         745 25.68         8.3 0.32                            87  58 
                                                                                
