 2016 1014 0648 10.5 L   6.781 -73.141154.1  RSN  5 0.5 1.6LRSN                1
 GAP=236        1.19       6.9     8.8  8.7  0.2903E+02  0.1420E+02 -0.2621E+00E
 Epicentro: LOS SANTOS - SANTANDER                                             3
 ACTION:UPD 16-11-09 19:19 OP:rebc STATUS:               ID:20161014064810 L   I
 OLDACT:REG 16-10-14 13:01 OP:ar   STATUS:               ID:20161014063738     3
 2016-10-14-0638-00M.COL___362                                                 6
 STAT SP IPHASW D HRMM SECON CODA AMPLIT PERI AZIMU VELO AIN AR TRES W  DIS CAZ7
 BAR2 EZ EP        648 31.31                             172    0.1710 21.3 192 
 BAR2 EZ ES        648 46.29                             172   -0.9110 21.3 192 
 BAR2 EZ I         648 47.40        17.5 0.38            167           21.3 192 
 BRR  HZ IP     C  648 33.13                             153    0.4510 72.7 300 
 BRR  HE ES        648 50.38                             153    0.4410 72.7 300 
 BRR  HZ I         648 51.03         5.5 0.44            149           72.7 300 
 RUS  HZ EP        648 35.24                             146    0.2710 98.4 176 
 RUS  HN ES        648 54.34                             146    0.3110 98.4 176 
 RUS  HZ I         648 55.04         4.1 0.46            145           98.4 176 
 SPBC HZ EP        648 38.89                             131   -0.68 9  162 220 
 SPBC HE ES        649  2.45                             131    0.24 9  162 220 
 SPBC HZ I         649  6.03         4.2 0.20            129            162 220 
 ZAR  HZ EP        648 43.24                             124   -0.43 8  205 293 
 ZAR  HN ES        649  9.44                             124   -0.07 8  205 293 
 ZAR  HZ I         649 16.11         3.6 0.32            122            205 293 
                                                                                
