 2012  514 0635 18.2 L   6.689 -73.165153.7  RSN  5 0.2 1.5LRSN                1
 GAP=227        0.55       5.8     5.3  5.9  0.1899E+02  0.4382E+01 -0.1365E+00E
 Epicentro: VILLANUEVA - SANTANDER                                             3
 ACTION:UP  12-07-05 12:05 OP:pat  STATUS:               ID:20120514063518 L   I
 2012-05-14-0630-00M.COL___195                                                 6
 STAT SP IPHASW D HRMM SECON CODA AMPLIT PERI AZIMU VELO SNR AR TRES W  DIS CAZ7
 BAR2 SZ EP   1    635 38.36                             176    -0.2 7   11 190 
 BAR2 SZ ES   1    635 54.55                             176     0.0 7   11 190 
 BRR  HZ EP   1    635 40.40                             152    -0.1 7   76 307 
 BRR  HZ I         635 40.62         8.9 0.15                            76 307 
 BRR  HN ES   1    635 57.74                             152    -0.1 7   76 307 
 RUS  HZ EP   1    635 42.19                             149     0.3 7   89 174 
 RUS  HN ES   1    636  0.54                             149     0.1 7   89 174 
 RUS  HZ I         636  2.09         2.2 0.16                            89 174 
 PTB  HZ EP   1    635 45.25                             135    -0.2 7  144 263 
 PTB  HN ES   1    636  6.48                             135    -0.2 7  144 263 
 PTB  HZ I         636  8.53         4.2 0.17                           144 263 
 ZAR  HN ES   1    636 17.94                             124     0.5 6  207 296 
                                                                                
