 2011  514 0256  0.6 L   6.765 -73.126146.9  RSN  5 0.2 1.5LRSN                1
 GAP=141        0.57       7.1     7.8  7.7  0.4446E+01 -0.2784E+02  0.1324E+02E
 Epicentro: LOS SANTOS - SANTANDER                                             3
 ACTION:UP  11-06-29 08:53 OP:tino STATUS:               ID:20110514025600 L   I
 2011-05-14-0254-44S.COL___141                                                 6
 STAT SP IPHASW D HRMM SECON CODA AMPLIT PERI AZIMU VELO SNR AR TRES W  DIS CAZ7
 BAR2 SZ EP        256 20.08                             172    -0.210   20 198 
 BAR2 SZ I         256 45.84        12.6 0.61                            20 198 
 BTL  SZ EP        256 20.66                             171     0.310   23 317 
 BTL  SZ ES   1    256 35.67                             171    -0.1 7   23 317 
 BRR  HZ EP        256 21.93                             151    -0.210   75 300 
 BRR  HZ I         256 22.14         7.9 0.13                            75 300 
 BRR  HN ES   1    256 38.97                             151     0.1 7   75 300 
 PAM  SZ EP        256 23.03                             150     0.010   79  37 
 RUS  HZ EP   1    256 24.32                             145     0.1 7   97 177 
 RUS  HZ I         256 43.63         2.6 0.20                            97 177 
                                                                                
