 2013 1014 0208 25.9 L   6.853 -73.100122.6  RSN  4 0.4 1.4LRSN                1
 GAP=205        0.76       7.5     5.9 15.3  0.1539E+02 -0.2948E+02 -0.7984E+02E
 Epicentro: LOS SANTOS - SANTANDER                                             3
 ACTION:UPD 13-11-25 09:21 OP:ep   STATUS:               ID:20131014020825 L   I
 OLDACT:REG 13-10-14 07:22 OP:mh   STATUS:               ID:20131014015959     3
 2013-10-14-0159-59M.COL___273                                                 6
 STAT SP IPHASW D HRMM SECON CODA AMPLIT PERI AZIMU VELO AIN AR TRES W  DIS CAZ7
 RUS  HZ EP        2 8 47.74                             137   -0.1410  106 179 
 RUS  HN ES   1    2 9  5.32                             137    0.27 7  106 179 
 RUS  HZ I         2 9  7.53         2.4 0.24            162            106 179 
 PTB  HZ EP   1    2 8 52.35                             125    0.69 7  154 257 
 PTB  HN ES        2 9 11.82                             125    0.04 9  154 257 
 PTB  HZ I         2 9 14.41         2.5 0.13            134            154 257 
 SPBC HZ EP   1    2 8 53.75                             122    0.26 7  171 219 
 SPBC HN ES        2 9 14.59                             122   -0.45 9  171 219 
 SML  HZ EP   1    2 9  0.55                             113   -0.40 6  241 334 
 SML  HZ I         2 9 32.79         4.6 0.10            109            241 334 
                                                                                
