 2015 1114 0442 23.5 L   6.803 -73.141142.6  RSN 17 0.5 2.5LRSN                1
 GAP=137        1.07       2.8     4.3  5.7 -0.7824E+00  0.8882E+01  0.2240E+01E
 Epicentro: LOS SANTOS - SANTANDER                                             3
 ACTION:UPD 15-12-28 16:10 OP:cam  STATUS:               ID:20151114044223 L   I
 OLDACT:UP  15-11-19 06:51 OP:CARA STATUS:               ID:20151114044223 L   3
 OLDACT:UP  15-11-14 22:27 OP:dnl  STATUS:               ID:20151114043749     3
 OLDACT:UP  15-11-14 22:25 OP:dnl  STATUS:               ID:20151114043749     3
 OLDACT:REG 15-11-14 14:23 OP:dnl  STATUS:               ID:20151114043749     3
 2015-11-14-0437-49M.COL___316                                                 6
 STAT SP IPHASW D HRMM SECON CODA AMPLIT PERI AZIMU VELO AIN AR TRES W  DIS CAZ7
 BAR2 EZ IP     C  442 42.69                             170   -0.0110 23.7 191 
 BAR2 EZ ES        442 56.53                             170   -1.1910 23.7 191 
 BAR2 EZ I         442 59.73        56.0 0.32            169           23.7 191 
 BRR  HZ IP     C  442 44.62                             152    0.3510 71.5 298 
 BRR  HE ES        443  1.32                             152    0.8110 71.5 298 
 BRR  HZ I         443  6.94        34.0 0.12            148           71.5 298 
 PAM  EZ EP   2    442 45.72                             150    0.43 5 76.8  39 
 PAM  EE ES   1    443  2.58                             150    0.25 7 76.8  39 
 PAM  EZ I         443  4.93        20.8 0.56            154           76.8  39 
 RUS  HZ EP        442 46.86                             143   -0.0510  101 176 
 RUS  HE ES        443  5.66                             143    0.4610  101 176 
 RUS  HZ I         443  7.81        36.9 0.52            147            101 176 
 OCA  HZ EP        442 51.34                             129   -0.15 9  160 353 
 OCA  HE ES   1    443 13.56                             129    0.20 7  160 353 
 OCA  HZ I         443 23.51        48.8 0.34            130            160 353 
 SPBC HZ EP   2    442 51.65                             128   -0.11 5  164 219 
 SPBC HE ES   1    443 13.99                             128    0.15 7  164 219 
 SPBC HZ I         443 20.55        48.8 0.38            129            164 219 
 ZAR  HZ EP   2    442 55.21                             121   -0.52 4  204 292 
 ZAR  HE ES        443 20.36                             121   -0.54 9  204 292 
 ZAR  HZ I         443 26.52        51.3 0.66            121            204 292 
 NOR  HN ES   1    443 26.80                             118   -0.03 6  235 234 
 NOR  HZ I         443 31.03        26.5 0.16            119            235 234 
 SML  HZ EP   1    442 59.18                             117   -0.71 6  244 335 
 SML  HE ES        443 27.84                             117   -0.48 8  244 335 
 SML  HZ I         443 35.63        47.4 0.10            118            244 335 
 CHI  HZ EP        443  0.94                             116   -0.08 8  249 195 
 CHI  HN ES        443 30.28                             116   -0.04 8  249 195 
 CHI  HZ I         443 36.03        17.4 0.28            119            249 195 
 ROSC BZ EP   2    443  2.40                             116    0.95 4  253 211 
 ROSC BN ES   4    443 32.32                             116    1.22 0  253 211 
 ROSC BZ I         443 36.00        31.6 0.40            118            253 211 
 HEL  HZ EP        443  4.69                             114    1.12 8  273 256 
 HEL  HE ES        443 35.28                             114    0.43 8  273 256 
 HEL  HZ I         443 41.05        19.7 0.30            115            273 256 
 GUY2CHZ EP   4    443  7.97                             112    0.99 0  302 235 
 GUY2CHN ES        443 40.52                             112   -0.41 7  302 235 
 GUY2CHZ I         443 48.29        17.3 0.58                           302 235 
 CBOC HZ EP   1    443 10.58                             109    0.28 5  334 252 
 CBOC HN ES        443 46.91                             109    0.07 7  334 252 
 CBOC HZ I         443 53.21         6.0 0.36            110            334 252 
 DBB  SZ EP   4    443 11.86                             109    1.00 0  340 274 
 DBB  SZ ES   4    443 46.71                             109   -1.12 0  340 274 
 MON  HZ EP   4    443 10.02                             108   -2.33 0  354 308 
 MON  HE ES   4    443 48.59                             108   -1.91 0  354 308 
 MON  HZ I         444  3.77         8.9 0.68            109            354 308 
 PRA  HZ EP        443 16.70                             106   -0.22 6  393 210 
 PRA  HN ES        443 58.45                             106   -0.18 6  393 210 
 PRA  HZ I         444  1.99        14.3 0.26            107            393 210 
 ORTC HZ EP        443 17.20                             106   -0.13 6  396 216 
 ORTC HE ES        443 58.66                             106   -0.69 6  396 216 
 ORTC HZ I         444  6.55         8.1 0.18            107            396 216 
                                                                                
