 2017  214 0528 30.7 L   6.788 -73.119149.0  RSN  5 0.3 1.1LRSN                1
 GAP=140        0.74       3.9     4.2  5.8  0.3495E+01  0.2743E+01 -0.2055E+00E
 Epicentro: LOS SANTOS - SANTANDER                                             3
 ACTION:UPD 17-05-24 15:36 OP:jn   STATUS:               ID:20170214052830 L   I
 OLDACT:REG 17-02-14 12:36 OP:dani STATUS:               ID:20170214052741     3
 2017-02-14-0528-00M.COL___346                                                 6
 STAT SP IPHASW D HRMM SECON CODA AMPLIT PERI AZIMU VELO AIN AR TRES W  DIS CAZ7
 BAR2 EZ EP        528 50.53                             171   -0.2110 22.7 198 
 BAR2 EZ ES        529  5.84                             171   -0.5110 22.7 198 
 BAR2 EZ I         529  8.41         3.8 0.31            172           22.7 198 
 BRR  HZ EP        528 52.43                             152    0.0110 74.4 298 
 BRR  HN ES        529  9.69                             152    0.3610 74.4 298 
 BRR  HZ I         529 14.28         2.8 0.14            153           74.4 298 
 PAM  EZ EP        528 53.44                             152    0.1910 76.6  37 
 PAM  EE ES        529 10.82                             152    0.0010 76.6  37 
 PAM  EZ I         529 12.88         1.8 0.26            155           76.6  37 
 RUS  HZ EP        528 54.59                             145   -0.1110 99.1 178 
 RUS  HN ES        529 13.77                             145    0.3810 99.1 178 
 RUS  HZ I         529 15.40         1.9 0.20            148           99.1 178 
 ZAR  HE ES        529 29.31                             123   -0.15 8  207 292 
                                                                                
