 2012  114 0002  5.3 L   6.873 -73.139151.0  RSN  4 0.3 1.4LRSN                1
 GAP=247        0.50       8.0     7.9  9.9  0.4556E+02 -0.1659E+02 -0.1394E+02E
 Epicentro: LOS SANTOS - SANTANDER                                             3
 ACTION:UP  12-02-03 08:17 OP:REBC STATUS:               ID:20120114000205 L   I
 2012-01-14-0000-00M.COL___187                                                 6
 STAT SP IPHASW D HRMM SECON CODA AMPLIT PERI AZIMU VELO SNR AR TRES W  DIS CAZ7
 RUS  HZ EP   1    0 2 30.23                             143     0.1 7  109 177 
 RUS  HN ES   2    0 2 49.43                             143    -0.1 5  109 177 
 RUS  HZ I         0 2 50.43         3.6 0.49                           109 177 
 PTB  HZ EP   1    0 2 32.53                             133    -0.4 7  150 256 
 PTB  HN ES   2    0 2 54.22                             133    -0.2 5  150 256 
 ZAR  HN ES   2    0 3  3.83                             124     0.6 4  202 290 
 CHI  HZ EP   1    0 2 44.29                             117     0.2 6  257 195 
 CHI  HN ES   2    0 3 14.67                             117     0.2 4  257 195 
                                                                                
