 2011  914 0643 55.4 L   6.590 -73.332158.8  RSN  4 0.2 1.4LRSN                1
 GAP=140        0.45       9.8    10.5  8.4  0.8502E+02 -0.9497E+00 -0.1022E+02E
 Epicentro: HATO - SANTANDER                                                   3
 ACTION:UPD 12-07-13 15:57 OP:ep   STATUS:               ID:20110914064355 L   I
 2011-09-14-0640-00M.COL___167                                                 6
 STAT SP IPHASW D HRMM SECON CODA AMPLIT PERI AZIMU VELO AIN AR TRES W  DIS CAZ7
 BAR2 SZ EP   1    644 16.23                             174   -0.30 7 16.5  89 
 BAR2 SZ I         644 16.66         6.9 0.50                          16.5  89 
 BRR  HZ EP   1    644 18.30                             155    0.30 7 71.0 324 
 BRR  HE ES   2    644 35.56                             155   -0.03 5 71.0 324 
 BRR  HZ I         644 37.26         4.9 0.29                          71.0 324 
 RUS  HZ EP   2    644 19.59                             152    0.28 5 81.9 160 
 RUS  HN ES   2    644 37.93                             152    0.00 5 81.9 160 
 RUS  HZ I         644 40.42         1.7 0.83                          81.9 160 
 ZAR  HZ EP   2    644 27.64                             126   -0.32 4  196 301 
 ZAR  HN ES   2    644 53.32                             126   -0.01 4  196 301 
 ZAR  HZ I         645  0.63         2.4 0.25                           196 301 
                                                                                
