 2013 1214 0321 34.1 L   6.709 -73.195146.2  RSN  5 0.3 1.5LRSN                1
 GAP=225        0.88       6.8     6.3  7.1  0.2431E+02  0.6862E+01  0.1408E+01E
 Epicentro: VILLANUEVA - SANTANDER                                             3
 ACTION:UPD 14-01-13 10:18 OP:ep   STATUS:               ID:20131214032134 L   I
 OLDACT:REG 13-12-14 07:27 OP:jn   STATUS:               ID:20131214032000     3
 2013-12-14-0320-00M.COL___285                                                 6
 STAT SP IPHASW D HRMM SECON CODA AMPLIT PERI AZIMU VELO AIN AR TRES W  DIS CAZ7
 BAR2 SZ EP        321 53.51                             175   -0.1310 12.9 174 
 BAR2 SZ ES        322  8.29                             175   -0.5710 12.9 174 
 BAR2 SZ I         322  9.48        10.6 0.34            174           12.9 174 
 BRR  HZ EP        321 55.49                             152    0.1210 72.2 308 
 BRR  HN ES        322 12.32                             152    0.3710 72.2 308 
 BRR  HZ I         322 15.57         7.2 0.30            153           72.2 308 
 RUS  HZ EP        321 57.25                             147   -0.0010 91.1 172 
 RUS  HN ES        322 15.81                             147    0.5110 91.1 172 
 RUS  HZ I         322 17.22         3.2 0.32            148           91.1 172 
 PTB  HZ EP        322  0.22                             134   -0.27 9  141 262 
 PTB  HN ES        322 20.80                             134   -0.27 9  141 262 
 PTB  HZ I         322 23.61         3.9 0.44            134            141 262 
 ZAR  HN ES   1    322 32.16                             123    0.41 6  203 295 
                                                                                
