 2012  514 0832 17.2 L   6.676 -73.231148.0  RSN  5 0.3 1.1LRSN                1
 GAP=198        0.64       7.2     6.2  7.8  0.2051E+02  0.9727E+01  0.7549E+01E
 Epicentro: BARICHARA - SANTANDER                                              3
 ACTION:UP  12-07-05 12:05 OP:pat  STATUS:               ID:20120514083217 L   I
 2012-05-14-0830-00M.COL___195                                                 6
 STAT SP IPHASW D HRMM SECON CODA AMPLIT PERI AZIMU VELO SNR AR TRES W  DIS CAZ7
 BAR2 SZ EP   1    832 36.72                             176    -0.2 7   11 150 
 BAR2 SZ ES   2    832 51.93                             176    -0.4 5   11 150 
 BAR2 SZ I         832 52.66         3.8 0.28                            11 150 
 BRR  HZ EP   1    832 38.52                             153    -0.1 7   71 312 
 BRR  HZ I         832 39.14         1.9 0.16                            71 312 
 BRR  HN ES        832 55.60                             153     0.310   71 312 
 RUS  HN ES   2    832 58.44                             148     0.1 5   88 169 
 PTB  HZ EP   1    832 43.72                             135     0.4 7  136 264 
 PTB  HN ES   1    833  3.71                             135     0.0 7  136 264 
 PTB  HZ I         833  6.77         1.1 0.20                           136 264 
 ZAR  HN ES   1    833 14.23                             123    -0.5 6  201 297 
                                                                                
