 2010  814 0317 20.8 L   6.734 -73.083139.7  RSN  5 0.2 1.4LRSN                1
 GAP=202        0.55       8.3     9.1  9.5  0.1275E+02 -0.5076E+02 -0.3305E+02E
 Epicentro: JORDAN - SANTANDER                                                 3
 ACTION:UP  10-09-07 10:54 OP:vdl  STATUS:               ID:20100814031720 L   I
 2010-08-14-0316-47S.COL___111                                                 6
 STAT SP IPHASW D HRMM SECON CODA AMPLIT PERI AZIMU VELO SNR AR TRES W  DIS CAZ7
 BAR2 SZ EP   1    317 39.76                             173     0.2 7   19 215 
 BAR2 SZ ES   2    317 54.02                             173    -0.3 5   19 215 
 BAR2 SZ I         317 55.93         5.2 0.27                            19 215 
 BTL  SZ EP        317 39.90                             168     0.110   29 315 
 BRR  HZ EP        317 41.65                             149    -0.210   81 301 
 BRR  HN ES   1    317 58.42                             149     0.1 7   81 301 
 BRR  HZ I         318  2.58        10.7 0.08                            81 301 
 GUE  SZ EP        317 45.62                             136     0.210  122   8 
 GUE  SZ I         317 46.25         2.2 0.06                           122   8 
 GRA  SZ EP   2    317 45.47                             134    -0.5 5  131  14 
                                                                                
