 2014  714 0833  3.2 L   6.824 -73.136137.6  RSN  8 0.4 1.7LRSN                1
 GAP=199        0.89       4.3     6.0 11.1 -0.1137E+02 -0.1257E+02  0.1989E+02E
 Epicentro: LOS SANTOS - SANTANDER                                             3
 ACTION:UPD 15-03-16 20:43 OP:nd   STATUS:               ID:20140714083304dL   I
 OLDACT:UP  14-07-14 17:13 OP:mh   STATUS:               ID:20140714082819     3
 OLDACT:REG 14-07-14 13:32 OP:fm   STATUS:               ID:20140714082819     3
 2014-07-14-0828-19M.COL___244                                                 6
 STAT SP IPHASW D HRMM SECON CODA AMPLIT PERI AZIMU VELO AIN AR TRES W  DIS CAZ7
 BAR2 SZ EP   1    833 22.48                             169    0.61 8 26.1 191 
 BAR2 SZ I         833 41.17         6.4 0.46            167           26.1 191 
 PTB  HZ EP        833 29.03                             130   -0.5910  149 258 
 PTB  HZ I         833 44.67        15.8 0.04            143            149 258 
 PTB  HN ES   1    833 50.43                             130    0.17 7  149 258 
 OCA  HZ EP   1    833 30.11                             128   -0.50 7  158 353 
 OCA  HN ES        833 51.57                             128   -0.4510  158 353 
 OCA  HZ I         834  2.15         4.1 0.53            143            158 353 
 ZAR  HZ EP        833 35.23                             120    0.14 9  204 291 
 ZAR  HN ES        834  0.61                             120    0.61 9  204 291 
 ZAR  HZ I         834  7.98         5.8 0.10            135            204 291 
 SML  HZ EP        833 39.60                             116    0.47 9  242 335 
 SML  HE ES   1    834  7.49                             116    0.30 6  242 335 
 SML  HZ I         834 19.27         5.1 0.09            129            242 335 
 HEL  HZ EP   1    833 43.28                             113    0.12 6  274 255 
 HEL  HN ES        834 13.86                             113   -0.50 8  274 255 
 HEL  HZ I         834 32.73         1.1 0.27            124            274 255 
 GUY2CHZ EP   1    833 46.71                             110    0.03 6  304 234 
 GUY2CHN ES   1    834 20.04                             110   -0.58 6  304 234 
 GUY2CHZ I         834 28.82         2.1 0.31                           304 234 
 PRA  HZ EP        833 56.91                             105    0.17 6  395 210 
 PRA  HN ES   1    834 39.01                             105    0.48 5  395 210 
 PRA  HZ I         834 45.99         1.7 0.40            113            395 210 
                                                                                
