 2013  114 0641 38.8 L   6.812 -73.162143.9  RSN  9 0.5 2.0LRSN                1
 GAP=181        0.87       3.8     5.6  6.7  0.4764E+01  0.4767E+01  0.2367E+01E
 Epicentro: LOS SANTOS - SANTANDER                                             3
 ACTION:UPD 13-02-15 09:14 OP:ep   STATUS:               ID:20130114064138 L   I
 2013-01-14-0640-00M.COL___241                                                 6
 STAT SP IPHASW D HRMM SECON CODA AMPLIT PERI AZIMU VELO AIN AR TRES W  DIS CAZ7
 BAR2 SZ EP   1    641 58.22                             170   -0.06 7 24.4 185 
 BAR2 SZ ES   1    642 13.78                             170    0.35 7 24.4 185 
 BAR2 SZ I         642 14.68        33.2 0.15            167           24.4 185 
 BRR  HZ EP        641 59.93                             153    0.2610 69.0 298 
 BRR  HN ES   1    642 16.56                             153    0.65 7 69.0 298 
 BRR  HZ I         642 19.92        26.6 0.38            149           69.0 298 
 RUS  HZ EP        642  2.26                             143   -0.2610  102 175 
 RUS  HN ES   1    642 20.49                             143   -0.50 7  102 175 
 RUS  HZ I         642 22.18         7.5 0.36            144            102 175 
 PTB  HZ EP   1    642  4.87                             132   -0.65 7  146 258 
 PTB  HN ES   1    642 25.63                             132   -0.70 7  146 258 
 PTB  HZ I         642 30.91        17.0 0.10            130            146 258 
 OCA  HZ EP   1    642  6.67                             129   -0.20 7  159 354 
 OCA  HN ES   1    642 28.38                             129   -0.35 7  159 354 
 OCA  HZ I         642 32.91        17.9 0.30            131            159 354 
 ZAR  HZ EP   1    642 11.24                             122    0.29 6  202 292 
 ZAR  HE ES   1    642 36.10                             122    0.12 6  202 292 
 ZAR  HZ I         642 41.77        18.6 0.24            122            202 292 
 CHI  HZ EP   1    642 16.71                             117    0.18 6  249 195 
 CHI  HN ES   1    642 46.16                             117    0.24 6  249 195 
 CHI  HZ I         642 54.01         3.3 0.30            117            249 195 
 ROSC BZ EP   1    642 18.09                             116    1.20 6  253 211 
 HEL  HZ EP   2    642 18.76                             114   -0.05 4  271 255 
 HEL  HN ES   2    642 49.59                             114   -0.38 4  271 255 
 HEL  HZ I         642 56.28         7.1 0.40            114            271 255 
                                                                                
