 2017  114 0901 28.9 L   6.768 -73.090145.1  RSN  4 0.2 1.1LRSN                1
 GAP=145        0.61       3.3     4.9  6.1 -0.3404E+00 -0.1532E+01  0.2900E+01E
 Epicentro: LOS SANTOS - SANTANDER                                             3
 ACTION:UPD 17-05-22 15:59 OP:jn   STATUS:               ID:20170114090128 L   I
 OLDACT:REG 17-01-14 13:01 OP:dani STATUS:               ID:20170114085740     3
 2017-01-14-0858-00M.COL___323                                                 6
 STAT SP IPHASW D HRMM SECON CODA AMPLIT PERI AZIMU VELO AIN AR TRES W  DIS CAZ7
 BAR2 EZ EP        9 1 48.40                             171    0.0010 22.0 208 
 PAM  EZ EP     C  9 1 51.07                             151    0.1010 76.5  34 
 PAM  EN ES        9 2  8.14                             151   -0.0610 76.5  34 
 PAM  EZ I         9 2  9.47         1.6 0.27            154           76.5  34 
 BRR  HZ EP        9 1 49.97                             150   -0.3910 78.2 299 
 BRR  HN ES        9 2  7.35                             150    0.2210 78.2 299 
 BRR  HZ I         9 2 10.35         5.3 0.30            150           78.2 299 
 RUS  HZ EP        9 1 52.58                             145    0.2910 96.9 180 
 RUS  HN ES        9 2 10.40                             145   -0.1610 96.9 180 
 RUS  HZ I         9 2 12.00         1.1 0.32            147           96.9 180 
                                                                                
