 2017 1014 0453 47.4 L   6.726 -73.253143.9  RSN  4 0.3 0.9LRSN                1
 GAP=202        0.70       5.4     5.3  6.4  0.1390E+02 -0.8255E+00  0.6879E+00E
 Epicentro: ZAPATOCA - SANTANDER                                               3
 ACTION:UPD 17-11-07 19:31 OP:rebc STATUS:               ID:20171014045347 L   I
 OLDACT:REG 17-10-14 11:24 OP:osc  STATUS:               ID:20171014044738     3
 2017-10-14-0448-00M.COL___432                                                 6
 STAT SP IPHASW D HRMM SECON CODA AMPLIT PERI AZIMU VELO AIN AR TRES W  DIS CAZ7
 BAR2 EZ EP        454  6.42                             173   -0.2810 16.7 152 
 BAR2 EZ ES        454 21.45                             173   -0.2910 16.7 152 
 BAR2 EZ I         454 22.25         3.8 0.24            172           16.7 152 
 BRR  HZ EP        454  7.98                             154   -0.0910 66.0 310 
 BRR  HN ES        454 24.58                             154    0.4010 66.0 310 
 RUS  HZ EP        454 10.79                             145    0.2810 94.0 168 
 RUS  HN ES        454 28.67                             145    0.1410 94.0 168 
 RUS  HZ I         454 29.92         0.8 0.40            145           94.0 168 
 PTB  HN ES        454 32.89                             134   -0.1710  135 261 
                                                                                
