 2012  514 0902  7.8 L   6.792 -73.169140.1  RSN 12 0.4 2.3LRSN                1
 GAP=134        0.91       4.1     5.3  7.1 -0.5297E+00  0.1582E+02  0.7613E+00E
 Epicentro: LOS SANTOS - SANTANDER                                             3
 ACTION:UP  12-07-05 12:05 OP:pat  STATUS:               ID:20120514090207 L   I
 2012-05-14-0900-00M.COL___195                                                 6
 STAT SP IPHASW D HRMM SECON CODA AMPLIT PERI AZIMU VELO SNR AR TRES W  DIS CAZ7
 BAR2 SZ EP   1    9 2 26.99                             171     0.3 7   22 184 
 BAR2 SZ ES   1    9 2 41.07                             171    -0.4 7   22 184 
 BAR2 SZ I         9 2 42.86        40.5 0.27                            22 184 
 BRR  HZ EP   1    9 2 28.77                             152     0.6 7   69 300 
 BRR  HZ I         9 2 49.82        77.5 0.15                            69 300 
 PAM  SZ EP   1    9 2 29.84                             149     0.3 7   80  41 
 PAM  SN ES   1    9 2 46.84                             149     0.3 7   80  41 
 RUS  HZ EP   1    9 2 30.95                             143     0.0 7  100 175 
 RUS  HN ES   1    9 2 48.89                             143    -0.1 7  100 175 
 PTB  HZ EP   1    9 2 33.60                             131    -0.4 7  145 259 
 PTB  HN ES   1    9 2 54.34                             131    -0.2 7  145 259 
 PTB  HZ I         9 2 57.10        22.6 0.18                           145 259 
 OCA  HZ EP   1    9 2 35.34                             128    -0.4 7  161 354 
 OCA  HN ES   1    9 2 56.87                             128    -0.6 7  161 354 
 ZAR  HZ EP   1    9 2 39.76                             121     0.1 6  202 293 
 ZAR  HN ES   1    9 3  5.04                             121     0.5 6  202 293 
 ZAR  HZ I         9 3 11.50        41.1 0.25                           202 293 
 CHI  HZ EP   1    9 2 44.52                             116    -0.5 6  247 195 
 CHI  HZ I         9 3 21.69        10.0 0.45                           247 195 
 HEL  HZ EP   1    9 2 48.16                             114     0.8 6  269 256 
 HEL  HZ I         9 3 25.14        11.5 0.24                           269 256 
 URE  HZ EP   1    9 2 47.57                             113    -0.8 6  282 292 
 URE  HZ I         9 3 27.53        14.4 0.18                           282 292 
 RREF HZ EP   1    9 2 53.22                             110    -0.2 5  319 229 
 RREF HZ I         9 3 39.67         6.7 0.26                           319 229 
 PRA  HZ EP   1    9 3  1.07                             106     0.2 4  390 209 
                                                                                
