 2016  214 0611 27.4 L   6.846 -73.169145.6  RSN 26 0.5 2.5LRSN                1
 GAP= 66        1.06       2.2     2.6  4.8 -0.1152E+01  0.3816E+01 -0.2266E+00E
 Epicentro: ZAPATOCA - SANTANDER                                               3
 ACTION:UPD 16-03-04 21:26 OP:rebc STATUS:               ID:20160214061127 L   I
 OLDACT:REG 16-02-14 14:27 OP:ak   STATUS:               ID:20160214060748     3
 2016-02-14-0607-48M.COL___304                                                 6
 STAT SP IPHASW D HRMM SECON CODA AMPLIT PERI AZIMU VELO AIN AR TRES W  DIS CAZ7
 BAR2 EZ IP     D  611 47.40                             169    0.2810 28.1 183 
 BAR2 EZ ES        612  2.40                             169   -0.0910 28.1 183 
 BAR2 EZ I         612  3.64        70.9 0.32            169           28.1 183 
 PAM  EZ EP        611 50.23                             151    0.7510 75.3  44 
 PAM  EN ES        612  7.22                             151    0.5210 75.3  44 
 PAM  EZ I         612  9.60       114.8 0.52            154           75.3  44 
 RUS  HZ EP        611 51.41                             142   -0.1110  106 175 
 RUS  HN ES        612 10.05                             142   -0.2810  106 175 
 RUS  HZ I         612 11.15        36.5 0.24            144            106 175 
 PTB  HZ EP        611 53.71                             132   -0.51 9  146 257 
 PTB  HN ES        612 14.58                             132   -0.56 9  146 257 
 PTB  HZ I         612 17.22        23.2 0.28            132            146 257 
 OCA  HZ EP        611 55.45                             130    0.25 9  155 354 
 OCA  HN ES        612 17.55                             130    0.66 9  155 354 
 OCA  HZ I         612 22.54        43.5 0.20            131            155 354 
 TAM  HZ EP        611 55.85                             130    0.42 9  159 106 
 TAM  HE ES        612 16.72                             130   -0.57 9  159 106 
 TAM  HZ I         612 16.72        12.3 0.36            133            159 106 
 SPBC HZ EP        611 56.20                             129    0.09 9  166 217 
 SPBC HN ES        612 18.00                             129   -0.51 9  166 217 
 SPBC HZ I         612 20.98        68.8 0.38            129            166 217 
 ZAR  HZ EP        611 59.93                             123    0.53 9  200 291 
 ZAR  HN ES        612 24.30                             123   -0.05 9  200 291 
 ZAR  HZ I         612 31.64        39.6 0.26            123            200 291 
 NOR  HZ EP        612  3.18                             118   -0.04 8  236 233 
 NOR  HN ES        612 30.80                             118   -0.35 8  236 233 
 NOR  HZ I         612 37.29        24.9 0.24            119            236 233 
 CHI  HZ EP        612  5.32                             117   -0.23 8  253 194 
 CHI  HN ES        612 34.77                             117   -0.54 8  253 194 
 CHI  HZ I         612 38.45        26.7 0.40            118            253 194 
 ROSC BZ EP   4    612  7.57                             116    1.73 0  256 210 
 ROSC BN ES        612 36.50                             116    0.67 8  256 210 
 ROSC BZ I         612 41.26        47.6 0.40            117            256 210 
 URE  HZ EP        612  7.29                             114   -0.70 7  280 291 
 URE  HN ES        612 39.77                             114    0.13 7  280 291 
 URE  HZ I         612 50.15        26.1 0.20            114            280 291 
 GUY2CHZ EP   2    612 11.42                             112    0.32 4  302 234 
 GUY2CHN ES        612 44.97                             112   -0.21 7  302 234 
 GUY2CHZ I         612 51.60        13.4 0.34                           302 234 
 VIL  SZ EP        612 10.86                             112   -0.46 7  308 191 
 VIL  SN ES        612 45.49                             112   -0.08 7  308 191 
 PTGC HZ EP   4    612 10.47                             111   -1.43 0  314 159 
 PTGC HN ES   4    612 44.14                             111   -2.46 0  314 159 
 PTGC HZ I         612 48.89        26.7 0.26            113            314 159 
 LL6C HZ EP        612 12.04                             111   -0.47 7  320 358 
 LL6C HN ES        612 47.27                             111   -0.42 7  320 358 
 LL6C HZ I         612 53.27        10.1 0.42            112            320 358 
 ELA  HZ EP   4    612 16.19                             110    1.79 0  330 229 
 ELA  HN ES        612 51.92                             110    0.86 7  330 229 
 ELA  HZ I         612 59.68        20.4 0.84            111            330 229 
 CBOC HZ EP        612 14.69                             110    0.48 7  333 251 
 CBOC HN ES        612 50.06                             110   -0.66 7  333 251 
 MON  HZ EP   4    612 14.49                             109   -1.31 0  348 308 
 MON  HN ES        612 52.94                             109   -0.61 6  348 308 
 MON  HZ I         612 53.72         5.2 0.18            109            348 308 
 SDV  BZ EP        612 17.07                             108   -0.23 6  359  51 
 SDV  BN ES   4    612 54.27                             108   -1.95 0  359  51 
 ANIL HZ EP        612 17.96                             108    0.55 6  359 224 
 ANIL HN ES        612 57.82                             108    1.41 6  359 224 
 ORTC HZ EP        612 21.75                             106    0.13 6  398 215 
 ORTC HN ES        613  4.23                             106    0.33 6  398 215 
 ORTC HZ I         613  8.75        11.4 0.32            107            398 215 
 PAL  HZ EP        612 23.03                             106    0.43 6  406 238 
 PAL  HN ES        613  5.20                             106   -0.46 6  406 238 
 PAL  HZ I         613 11.41         4.0 0.68            106            406 238 
 CRJC HZ EP   4    612 27.93                             103   -1.39 0  463   4 
 CRJC HN ES        613 16.55                             103   -1.06 5  463   4 
 CRJC HZ I         613 19.06         8.0 0.33            104            463   4 
 GUA  SZ EP   2    612 30.05                             103   -1.14 2  479 173 
 GUA  SN ES   4    613 17.96                             103   -2.97 0  479 173 
 MACC HZ EP   4    612 34.09                             101   -2.57 0  525 188 
 MACC HN ES   4    613 25.65                             101   -5.03 0  525 188 
 MACC HZ I         613 34.17         3.3 0.46            102            525 188 
 GARC HZ EP   4    612 41.50                             100   -1.55 0  576 207 
                                                                                
