 2015  714 0507 19.1 L   6.822 -73.087142.7  RSN  6 0.2 1.5LRSN                1
 GAP=189        0.52       2.3     4.0  5.1  0.2502E+01  0.9554E+01  0.3557E+00E
 Epicentro: LOS SANTOS - SANTANDER                                             3
 ACTION:UPD 15-09-08 21:48 OP:cam  STATUS:               ID:20150714050719 L   I
 OLDACT:REG 15-07-14 14:12 OP:spq  STATUS:               ID:20150714045740     3
 2015-07-14-0457-40M.COL___337                                                 6
 STAT SP IPHASW D HRMM SECON CODA AMPLIT PERI AZIMU VELO AIN AR TRES W  DIS CAZ7
 BAR2 EZ EP        5 7 38.55                             169    0.0810 27.5 203 
 BAR2 EZ ES   1    5 7 53.61                             169    0.05 7 27.5 203 
 BAR2 EZ I         5 7 55.72         4.3 0.18            168           27.5 203 
 RUS  HZ EP   1    5 7 42.48                             142   -0.25 7  103 180 
 RUS  HN ES        5 8  1.20                             142    0.0510  103 180 
 RUS  HZ I         5 8  2.12         2.7 0.26            145            103 180 
 OCA  HE ES        5 8  8.68                             129   -0.15 9  159 351 
 OCA  HZ I         5 8 15.58         5.1 0.32            129            159 351 
 ZAR  HZ EP        5 7 52.38                             121    0.48 8  209 291 
 ZAR  HE ES        5 8 17.28                             121   -0.19 8  209 291 
 ZAR  HZ I         5 8 23.38         4.9 0.42            120            209 291 
 GUY2CHE ES   1    5 8 37.82                             111   -0.03 5  308 235 
 GUY2CHZ I         5 8 43.51         1.7 0.36                           308 235 
 PRA  HZ EP        5 8 12.89                             106   -0.27 6  397 210 
 PRA  HE ES   4    5 8 56.70                             106    1.38 0  397 210 
 PRA  HZ I         5 9  2.70         1.0 0.34            106            397 210 
                                                                                
