 2014  814 0930 17.5 L   6.769 -73.235149.0  RSN  4 0.1 1.5LRSN                1
 GAP=218        0.33       2.4     2.9  2.8 -0.8005E+00  0.1802E+01  0.1299E+01E
 Epicentro: ZAPATOCA - SANTANDER                                               3
 ACTION:UPD 14-09-15 21:49 OP:nd   STATUS:               ID:20140814093017 L   I
 OLDACT:DUP 14-08-14 16:54 OP:cam  STATUS:               ID:20140814093001d    3
 OLDACT:UP  14-08-14 16:53 OP:cam  STATUS:               ID:20140814093000     3
 OLDACT:REG 14-08-14 13:37 OP:cam  STATUS:               ID:20140814093000     3
 2014-08-14-0930-00M.COL___285                                                 6
 STAT SP IPHASW D HRMM SECON CODA AMPLIT PERI AZIMU VELO AIN AR TRES W  DIS CAZ7
 BAR2 SZ ES        930 52.96                             172   -0.0510 20.3 163 
 BRR  HZ EP        930 38.62                             155   -0.0110 64.7 305 
 BRR  HE ES        930 55.20                             155    0.0710 64.7 305 
 BRR  HE I         930 59.43         9.1 0.18            155           64.7 305 
 PTB  HZ EP        930 43.68                             135   -0.12 9  137 259 
 PTB  HN ES        931  4.32                             135   -0.01 9  137 259 
 SPBC HZ EP        930 45.54                             131    0.13 9  154 217 
 SPBC HN ES        931  7.19                             131   -0.01 9  154 217 
 SPBC HZ I         931 12.13         2.5 0.18            132            154 217 
                                                                                
