 2015  314 0342 36.9 L   6.611 -73.376  4.0  RSN  6 0.4 1.4LRSN                1
 GAP=137        1.08       3.0     2.3  6.7 -0.1210E+01 -0.2870E+01 -0.1746E+00E
 Epicentro: GALAN - SANTANDER                                                  3
 ACTION:UPD 15-04-30 16:25 OP:nd   STATUS:               ID:20150314034236 L   I
 OLDACT:REG 15-03-14 12:34 OP:cam  STATUS:               ID:20150314033736     3
 2015-03-14-0337-36M.COL___269                                                 6
 STAT SP IPHASW D HRMM SECON CODA AMPLIT PERI AZIMU VELO AIN AR TRES W  DIS CAZ7
 BAR2 EZ IP     D  342 41.06                              47    0.0810 21.5  95 
 BAR2 EZ ES        342 44.59                              47    0.4210 21.5  95 
 BAR2 EZ I         342 45.08        60.0 0.28             96           21.5  95 
 RUS  HZ EP        342 51.07                              47    0.0910 85.8 158 
 RUS  HE ES        343  1.34                              47   -0.6410 85.8 158 
 RUS  HZ I         343  5.38         4.2 0.34             47           85.8 158 
 PAM  SZ EP     C  342 55.16                              47    0.5310  110  43 
 PAM  SN ES        343  7.74                              47   -0.7410  110  43 
 PAM  SZ I         343  8.94        11.4 0.20             47            110  43 
 PTB  HZ EP        342 55.62                              47   -0.0210  120 266 
 PTB  HN ES        343 10.03                              47   -0.2410  120 266 
 PTB  HZ I         343 12.11        25.5 0.14             47            120 266 
 SPBC HZ EP        342 57.79                              47    0.3610  131 216 
 NOR  HZ EP   1    343  7.85                              37    0.41 6  202 235 
                                                                                
