 2013  314 0604 48.0 L   6.790 -73.124140.0  RSN 10 0.5 2.4LRSN                1
 GAP=140        1.00       3.9     5.1  6.1 -0.4088E-01  0.6402E+01  0.9257E+00E
 Epicentro: LOS SANTOS - SANTANDER                                             3
 ACTION:UPD 13-04-09 14:02 OP:ep   STATUS:               ID:20130314060448 L   I
 2013-03-14-0600-00M.COL___243                                                 6
 STAT SP IPHASW D HRMM SECON CODA AMPLIT PERI AZIMU VELO AIN AR TRES W  DIS CAZ7
 BAR2 SZ EP        6 5  6.89                             170   -0.0210 22.8 196 
 BAR2 SZ ES   1    6 5 21.87                             170    0.19 7 22.8 196 
 BAR2 SZ I         6 5 24.11        49.4 0.28            167           22.8 196 
 BRR  HZ EP        6 5  8.79                             151    0.1210 73.8 298 
 BRR  HN ES        6 5 25.37                             151    0.5710 73.8 298 
 BRR  HN I         6 5 29.17        92.4 0.16            148           73.8 298 
 PAM  SZ EP        6 5  9.68                             150    0.1210 76.8  38 
 PAM  SN ES   1    6 5 26.55                             150    0.17 7 76.8  38 
 PAM  SN I         6 5 27.71        46.0 0.42            155           76.8  38 
 RUS  HZ EP        6 5 11.02                             143   -0.0610 99.3 177 
 RUS  HN ES        6 5 29.06                             143   -0.0410 99.3 177 
 RUS  HN I         6 5 30.35        17.0 0.24            144           99.3 177 
 PTB  HZ EP   1    6 5 13.89                             130   -0.80 7  150 259 
 PTB  HN ES   1    6 5 34.44                             130   -1.07 7  150 259 
 PTB  HN I         6 5 39.76        31.6 0.52            129            150 259 
 OCA  HZ EP        6 5 15.44                             128   -0.55 9  162 352 
 OCA  HN ES   2    6 5 36.63                             128   -1.21 5  162 352 
 OCA  HN I         6 5 39.92       108.3 0.40            130            162 352 
 ZAR  HZ EP        6 5 20.94                             121    0.60 8  207 292 
 ZAR  HN ES   2    6 5 45.22                             121   -0.35 4  207 292 
 ZAR  HN I         6 5 51.20        38.6 0.26            121            207 292 
 CHI  HZ EP   1    6 5 25.02                             116   -0.30 6  248 196 
 CHI  HN ES   2    6 5 54.23                             116   -0.21 4  248 196 
 CHI  HN I         6 6  0.51        11.9 0.46            117            248 196 
 HEL  HZ EP   1    6 5 29.35                             114    1.21 6  274 256 
 HEL  HN ES   2    6 5 59.85                             114    0.39 4  274 256 
 HEL  HN I         6 6  5.08        11.1 0.40            114            274 256 
 PRA  HZ EP        6 5 41.54                             106    0.20 6  392 210 
 PRA  HN ES   2    6 6 22.87                             106   -0.08 3  392 210 
 PRA  HN I         6 6 28.63         5.4 0.40            107            392 210 
                                                                                
