 2013  414 0554 59.3 L   6.642 -73.186146.6  RSN  5 0.3 1.5LRSN                1
 GAP=173        0.89       6.6     6.2  7.6  0.1057E+02  0.6136E+01 -0.1019E+02E
 Epicentro: BARICHARA - SANTANDER                                              3
 ACTION:UPD 13-05-22 14:38 OP:EP   STATUS:               ID:20130414055459 L   I
 2013-04-14-0548-49M.COL___212                                                 6
 STAT SP IPHASW D HRMM SECON CODA AMPLIT PERI AZIMU VELO AIN AR TRES W  DIS CAZ7
 BAR2 SZ EP        555 19.06                             178    0.2110 5.51 176 
 BAR2 SZ I         555 19.17         4.9 0.16            178           5.51 176 
 BAR2 SZ ES        555 34.04                             178   -0.0310 5.51 176 
 GIR2 SZ EP        555 19.09                             161   -0.5910 48.3 359 
 BRR  HZ EP        555 20.98                             151    0.0310 77.7 312 
 BRR  HN ES        555 38.16                             151    0.3510 77.7 312 
 BRR  HN I         555 42.14         8.5 0.18            149           77.7 312 
 RUS  HN ES        555 39.76                             149    0.0310 83.6 172 
 PTB  HZ EP        555 26.22                             134    0.45 9  141 265 
 PTB  HN ES        555 45.93                             134   -0.46 9  141 265 
                                                                                
