 2011  814 0928 14.8 L   6.811 -73.052142.0  RSN  4 0.2 1.4LRSN                1
 GAP=193        0.45       3.1     8.5  5.6  0.1473E+02 -0.2294E+02 -0.7821E+01E
 Epicentro: LOS SANTOS - SANTANDER                                             3
 ACTION:UPD 12-07-13 15:51 OP:ep   STATUS:               ID:20110814092814 L   I
 2011-08-14-0926-25S.COL___150                                                 6
 STAT SP IPHASW D HRMM SECON CODA AMPLIT PERI AZIMU VELO AIN AR TRES W  DIS CAZ7
 BAR2 SZ EP        928 33.88                             168   -0.2210 28.2 211 
 BAR2 SZ ES   1    928 48.92                             168   -0.22 7 28.2 211 
 BAR2 SZ I         928 50.96         5.1 0.36                          28.2 211 
 BRR  HZ EP   1    928 36.10                             149    0.02 7 80.0 294 
 BRR  HE ES   1    928 52.69                             149    0.02 7 80.0 294 
 BRR  HZ I         928 56.82         8.2 0.52                          80.0 294 
 RUS  HZ EP   1    928 38.32                             143    0.05 7  102 182 
 RUS  HZ I         928 39.58         2.0 0.08                           102 182 
 RUS  HE ES   1    928 56.91                             143    0.34 7  102 182 
 OCA  SZ EP   1    928 42.87                             129    0.00 7  161 349 
 OCA  SZ ES   1    929  4.97                             129    0.22 7  161 349 
 OCA  SZ I         929  9.25         2.9 0.28                           161 349 
                                                                                
