 2013  714 0843 17.0 L   6.147 -73.822101.3  RSN  5 0.3 1.1LRSN                1
 GAP= 98        0.84       3.4     3.2  7.4  0.1323E+00 -0.9799E+00 -0.4313E+01E
 Epicentro: LANDAZURI - SANTANDER                                              3
 ACTION:UPD 13-08-12 10:37 OP:ep   STATUS:               ID:20130714084317 L   I
 OLDACT:REG 13-07-14 07:37 OP:nd   STATUS:               ID:20130714083959     3
 2013-07-14-0839-59M.COL___265                                                 6
 STAT SP IPHASW D HRMM SECON CODA AMPLIT PERI AZIMU VELO AIN AR TRES W  DIS CAZ7
 SPBC HZ EP        843 33.22                             146    0.2710 61.3 207 
 SPBC HN ES        843 45.80                             146    0.3810 61.3 207 
 PTB  HZ IP     C  843 34.01                             137   -0.4410 82.5 302 
 PTB  HN ES        843 47.70                             137   -0.3910 82.5 302 
 PTB  HZ I         843 51.17         6.2 0.28            142           82.5 302 
 BAR2 SZ EP        843 35.23                             136    0.1610 86.2  55 
 BAR2 SZ ES        843 49.04                             136   -0.1410 86.2  55 
 BAR2 SZ I         843 50.49         5.8 0.28            139           86.2  55 
 RUS  HZ EP        843 35.27                             137   -0.1710 86.5 109 
 RUS  HN ES        843 49.55                             137   -0.2910 86.5 109 
 RUS  HZ I         843 54.70         1.1 0.26            143           86.5 109 
 BRR  HZ EP        843 36.77                             129    0.1810  107   7 
 BRR  HN ES        843 52.36                             129    0.4610  107   7 
 BRR  HZ I         844  2.19         2.8 0.38            132            107   7 
                                                                                
