 2014  614 0508 58.4 L   6.469 -74.151 66.8  RSN  7 0.3 1.8LRSN                1
 GAP=117        0.72       2.3     2.8  5.2  0.4100E+00 -0.1676E+01  0.1254E+01E
 Epicentro: PUERTO PARRA - SANTANDER                                           3
 ACTION:UPD 14-07-01 22:53 OP:nd   STATUS:               ID:20140614050858 L   I
 OLDACT:UP  14-06-14 17:47 OP:mh   STATUS:               ID:20140614050819     3
 OLDACT:REG 14-06-14 13:34 OP:mh   STATUS:               ID:20140614050819     3
 2014-06-14-0508-19M.COL___259                                                 6
 STAT SP IPHASW D HRMM SECON CODA AMPLIT PERI AZIMU VELO AIN AR TRES W  DIS CAZ7
 PTB  HZ IP     C  5 9  8.63                             150   -0.2710 34.7 283 
 PTB  HN ES        5 9 17.14                             150    0.0310 34.7 283 
 PTB  HZ I         5 9 17.94        33.2 0.20            157           34.7 283 
 SPBC HZ EP        5 9 13.94                             120   -0.0710 90.7 175 
 SPBC HN ES   1    5 9 26.63                             120    0.41 7 90.7 175 
 SPBC HZ I         5 9 27.92        35.3 0.24            113           90.7 175 
 BAR2 SZ EP     C  5 9 16.16                             115    0.0710  108  83 
 BAR2 SZ I         5 9 33.39        12.8 0.16            104            108  83 
 BAR2 HZ I         5 9 38.61        17.2 1.98                           108  83 
 NOR  HZ EP        5 9 17.62                             111   -0.5010  128 219 
 NOR  HN ES   1    5 9 33.44                             111   -0.09 7  128 219 
 NOR  HZ I         5 9 34.99         9.7 0.24            107            128 219 
 ZAR  HZ EP        5 9 19.09                             109   -0.10 9  138 325 
 ZAR  HN ES        5 9 35.78                             109    0.35 9  138 325 
 ZAR  HZ I         5 9 39.88        17.4 0.12            103            138 325 
 HEL  HN ES        5 9 39.77                             107   -0.23 9  156 259 
 GUY2CHZ EP        5 9 26.58                             103    0.29 9  192 224 
 GUY2CHE ES   1    5 9 48.70                             103    0.62 7  192 224 
 GUY2CHZ I         5 9 54.95         4.7 0.46                           192 224 
 PRA  HZ EP   4    5 9 52.53                              97   11.78 0  315 195 
                                                                                
