 2015  514 0920 56.7 L   6.808 -73.095145.5  RSN  8 0.4 1.7LRSN                1
 GAP=143        0.97       4.1     6.6  7.7  0.3060E+01  0.1443E+01 -0.1201E+02E
 Epicentro: LOS SANTOS - SANTANDER                                             3
 ACTION:UPD 15-09-10 22:03 OP:cam  STATUS:               ID:20150514092056 L   I
 OLDACT:UP  15-05-14 13:49 OP:mh   STATUS:               ID:20150514092049     3
 OLDACT:REG 15-05-14 13:42 OP:mh   STATUS:               ID:20150514092049     3
 2015-05-14-0920-49M.COL___279                                                 6
 STAT SP IPHASW D HRMM SECON CODA AMPLIT PERI AZIMU VELO AIN AR TRES W  DIS CAZ7
 BAR2 EZ EP   1    921 16.62                             170    0.26 7 25.7 202 
 BAR2 EZ ES        921 31.54                             170   -0.1410 25.7 202 
 BAR2 EZ I         921 33.18         8.8 0.20            120           25.7 202 
 PAM  SZ EP        921 19.49                             152    0.8310 73.3  37 
 PAM  SZ I         921 37.31         6.4 0.22            109           73.3  37 
 BRR  HZ EP   1    921 18.47                             151    0.38 7 75.8 296 
 BRR  HN ES   1    921 35.06                             151    0.29 7 75.8 296 
 BRR  HZ I         921 35.87         9.2 0.60            134           75.8 296 
 RUS  HZ EP   1    921 19.68                             144   -0.80 7  101 179 
 RUS  HE ES   1    921 38.94                             144   -0.08 7  101 179 
 RUS  HZ I         921 40.21         4.5 0.24            112            101 179 
 OCA  HZ EP   1    921 24.96                             129   -0.03 7  160 351 
 OCA  HN ES        921 46.46                             129   -0.59 9  160 351 
 OCA  HZ I         921 51.49        10.8 0.26            108            160 351 
 SPBC HE ES   1    921 47.78                             128   -0.33 7  167 220 
 ZAR  HZ EP   1    921 29.68                             122    0.04 6  209 291 
 ZAR  HE ES   1    921 55.84                             122    0.51 6  209 291 
 ZAR  HZ I         922  3.61         4.9 0.21            124            209 291 
 SML  HZ EP        921 33.17                             117   -0.33 8  245 334 
 SML  HE ES   1    922  2.00                             117   -0.19 6  245 334 
 SML  HZ I         922  4.94         5.2 0.30            105            245 334 
                                                                                
