 2016 1214 0606 49.2 L   7.385 -73.187135.4  RSN  4 0.1 1.3LRSN                1
 GAP=266        0.43       4.9     3.7  4.4  0.8054E+01  0.8560E+00 -0.9651E+01E
 Epicentro: EL PLAYON - SANTANDER                                              3
 ACTION:UPD 17-01-11 20:14 OP:rebc STATUS:               ID:20161214060649 L   I
 OLDACT:REG 16-12-14 12:30 OP:and  STATUS:               ID:20161214055742     3
 2016-12-14-0558-00M.COL___380                                                 6
 STAT SP IPHASW D HRMM SECON CODA AMPLIT PERI AZIMU VELO AIN AR TRES W  DIS CAZ7
 BRR  HZ EP        6 7  8.97                             153    0.0410 65.6 242 
 BRR  HE ES        6 7 24.36                             153    0.0510 65.6 242 
 BRR  HZ I         6 7 24.98         4.0 0.12            153           65.6 242 
 BAR2 EZ ES        6 7 27.34                             145   -0.0610 87.7 180 
 BAR2 EZ I         6 7 28.56         6.9 0.15            147           87.7 180 
 PTB  HZ EP        6 7 17.19                             125   -0.19 9  169 236 
 PTB  HN ES        6 7 39.49                             125    0.15 9  169 236 
 ZAR  HZ EP        6 7 19.22                             123    0.21 9  185 274 
 ZAR  HN ES        6 7 42.05                             123   -0.20 9  185 274 
 ZAR  HZ I         6 7 45.44         1.7 0.18            123            185 274 
                                                                                
