 2011  914 0554 44.4 L   6.852 -73.291120.1  RSN  5 0.2 1.7LRSN                1
 GAP=158        0.44       3.3     4.8  4.0  0.9177E+01 -0.4224E+01 -0.3755E+01E
 Epicentro: ZAPATOCA - SANTANDER                                               3
 ACTION:UPD 12-07-13 15:57 OP:ep   STATUS:               ID:20110914055444 L   I
 2011-09-14-0540-00M.COL___167                                                 6
 STAT SP IPHASW D HRMM SECON CODA AMPLIT PERI AZIMU VELO AIN AR TRES W  DIS CAZ7
 BAR2 SZ EP   1    555  1.17                             165   -0.02 7 31.2 157 
 BAR2 SZ ES        555 14.38                             165    0.1110 31.2 157 
 BAR2 SZ I         555 15.61        48.8 0.26                          31.2 157 
 BRR  HZ EP   1    555  1.56                             154   -0.28 7 54.4 301 
 BRR  HE ES        555 15.38                             154   -0.0510 54.4 301 
 BRR  HZ I         555 17.02        14.7 0.18                          54.4 301 
 RUS  HZ EP   1    555  6.25                             135   -0.16 7  109 168 
 RUS  HN ES   2    555 23.61                             135    0.04 5  109 168 
 RUS  HZ I         555 25.54         3.5 0.46                           109 168 
 OCA  SZ EP   1    555 10.56                             124    0.40 7  153 359 
 OCA  SZ ES   2    555 30.00                             124   -0.25 5  153 359 
 OCA  SZ I         555 31.62         8.9 0.32                           153 359 
 ZAR  HN ES   2    555 36.41                             119    0.27 4  187 292 
 ZAR  HZ I         555 40.67         4.0 0.31                           187 292 
                                                                                
