 2011  514 0648 46.8 L   6.784 -73.086141.8  RSN  8 0.5 1.8LRSN                1
 GAP=172        1.04      10.3    10.6  7.8 -0.4945E+02 -0.1524E+02 -0.7892E+01E
 Epicentro: LOS SANTOS - SANTANDER                                             3
 ACTION:UP  11-06-29 08:53 OP:tino STATUS:               ID:20110514064846 L   I
 2011-05-14-0640-00M.COL___142                                                 6
 STAT SP IPHASW D HRMM SECON CODA AMPLIT PERI AZIMU VELO SNR AR TRES W  DIS CAZ7
 BAR2 SZ EP   2    649  5.33                             170    -0.6 5   24 207 
 BAR2 SZ ES   2    649 19.76                             170    -1.2 5   24 207 
 BAR2 SZ I         649 22.03        18.1 0.23                            24 207 
 BTL  SZ EP   3    649  7.50                             170     1.5 2   25 306 
 BTL  SZ ES   1    649 22.09                             170     1.1 7   25 306 
 GIR2 SZ EP        649  6.00                             166    -0.110   35 340 
 GIR2 SZ ES   1    649 20.74                             166    -0.4 7   35 340 
 PAM  SZ EP        649  8.78                             151     0.310   75  35 
 PAM  SN ES   2    649 25.33                             151     0.0 5   75  35 
 BRR  HZ EP        649  7.72                             150    -0.210   78 297 
 BRR  HZ I         649  9.58        12.2 0.12                            78 297 
 BRR  HN ES   1    649 24.57                             150     0.2 7   78 297 
 BRI  SZ EP        649 10.45                             141     0.210  108  17 
 BRI  SZ ES   2    649 28.09                             141    -0.5 5  108  17 
 GRA  SZ EP        649 11.74                             136     0.110  126  14 
 GRA  SZ ES   1    649 30.98                             136    -0.1 7  126  14 
 GRA  SZ I         649 32.22         8.9 0.28                           126  14 
 OCA  SZ EP        649 14.77                             128    -0.3 9  163 351 
 OCA  SZ I         649 41.01         7.4 0.36                           163 351 
                                                                                
