 2015 1214 0157 14.9 L   6.839 -73.149143.3  RSN 20 0.4 2.4LRSN                1
 GAP= 70        0.92       2.3     2.5  4.7 -0.1145E+01  0.4659E+01  0.1946E+00E
 Epicentro: LOS SANTOS - SANTANDER                                             3
 ACTION:UPD 16-02-04 15:04 OP:cam  STATUS:               ID:20151214015714 L   I
 OLDACT:DUP 15-12-14 14:15 OP:cara STATUS:               ID:20151214014749d    3
 2015-12-14-0147-48M.COL___342                                                 6
 STAT SP IPHASW D HRMM SECON CODA AMPLIT PERI AZIMU VELO AIN AR TRES W  DIS CAZ7
 BAR2 EZ IP        157 34.21                             169   -0.1210 27.6 188 
 BAR2 EZ ES        157 49.15                             169   -0.3410 27.6 188 
 BAR2 EZ I         157 50.38        46.0 0.22            170           27.6 188 
 BRR  HZ EP        157 35.99                             153    0.3310 68.9 295 
 BRR  HN ES   4    157 53.13                             153    1.28 0 68.9 295 
 BRR  HZ I         157 57.04        27.8 0.12            151           68.9 295 
 PAM  EZ EP        157 37.02                             151    0.3410 74.3  42 
 PAM  EE ES        157 54.33                             151    0.6710 74.3  42 
 PAM  EZ I         157 56.34        34.1 0.50            149           74.3  42 
 RUS  HZ EP        157 38.17                             142   -0.5710  105 176 
 RUS  HN ES        157 57.29                             142   -0.0310  105 176 
 RUS  HZ I         157 57.89        20.1 0.24            142            105 176 
 PTB  HZ EP        157 40.97                             131   -0.75 9  148 257 
 PTB  HE ES        158  2.52                             131   -0.12 9  148 257 
 PTB  HZ I         158  8.62        21.6 0.60            130            148 257 
 OCA  HZ IP        157 42.21                             130   -0.40 9  156 353 
 OCA  HN ES        158  4.11                             130   -0.12 9  156 353 
 OCA  HZ I         158 12.68        48.1 0.24            127            156 353 
 TAM  HZ IP     D  157 42.65                             130    0.12 9  157 106 
 TAM  HZ I         158  3.52        15.6 0.36            129            157 106 
 TAM  HN ES        158  4.32                             130    0.25 9  157 106 
 SPBC HZ EP        157 43.15                             128   -0.37 9  166 218 
 SPBC HN ES        158  5.52                             128   -0.32 9  166 218 
 SPBC HZ I         158  8.43        41.1 0.10            127            166 218 
 ZAR  HZ EP        157 47.44                             122    0.45 9  202 291 
 ZAR  HN ES        158 11.88                             122   -0.14 9  202 291 
 ZAR  HZ I         158 17.32        25.4 0.36            120            202 291 
 NOR  HZ IP     D  157 50.34                             118   -0.40 8  237 234 
 NOR  HE ES        158 18.85                             118    0.16 8  237 234 
 NOR  HZ I         158 25.67        15.0 0.26            117            237 234 
 SML  HZ EP        157 50.51                             117   -0.44 8  240 335 
 SML  HE ES        158 18.83                             117   -0.24 8  240 335 
 SML  HZ I         158 27.80        28.6 0.10            116            240 335 
 ROSC BZ EP   4    157 54.48                             116    1.20 0  256 210 
 ROSC BN ES   4    158 25.22                             116    2.01 0  256 210 
 ROSC BZ I         158 28.68        36.8 0.40            115            256 210 
 HEL  HZ EP        157 55.44                             114    0.36 8  273 255 
 HEL  HN ES        158 26.71                             114    0.30 8  273 255 
 HEL  HZ I         158 32.24        14.2 0.30            113            273 255 
 URE  HZ EP   4    157 54.66                             113   -0.98 0  282 291 
 URE  HE ES   4    158 25.37                             113   -2.05 0  282 291 
 URE  HZ I         158 35.93        12.4 0.28            112            282 291 
 GUY2CHZ EP        157 59.14                             112    0.49 7  303 234 
 GUY2CHE ES        158 33.34                             112    0.56 7  303 234 
 GUY2CHZ I         158 40.42        11.1 0.34                           303 234 
 ELA  HZ IP   4    158  3.49                             110    1.54 0  332 229 
 ELA  HE ES   4    158 41.40                             110    2.76 0  332 229 
 ELA  HZ I         158 46.92         9.2 0.56            109            332 229 
 CBOC HZ EP        158  2.59                             109    0.75 7  335 251 
 CBOC HE ES        158 39.20                             109    0.75 7  335 251 
 CBOC HZ I         158 43.95         3.3 0.29            108            335 251 
 ANIL HN ES        158 44.46                             108    0.48 6  360 224 
 PRA  HZ EP        158  8.75                             106   -0.01 6  396 209 
 PRA  HN ES        158 50.67                             106   -0.10 6  396 209 
 PRA  HZ I         158 54.46        10.9 0.36            105            396 209 
 PAL  HZ IP        158  9.79                             105   -0.42 6  408 239 
 PAL  HZ EP        158  9.79                                            408 239 
 PAL  HN IS        158 53.18                             105   -0.17 6  408 239 
 PAL  HZ I         158 59.00         7.2 0.34            104            408 239 
                                                                                
