 2012  314 0419 59.4 L   6.770 -73.155142.0  RSN  6 0.6 1.5LRSN                1
 GAP=137        1.37       9.5     9.1 14.5 -0.4047E+01  0.2587E+02  0.5272E+01E
 ACTION:UP  12-03-31 23:19 OP:EP   STATUS:               ID:20120314041959 L   I
 2012-03-14-0420-00M.COL___202                                                 6
 STAT SP IPHASW D HRMM SECON CODA AMPLIT PERI AZIMU VELO SNR AR TRES W  DIS CAZ7
 BAR2 SZ EP   1    420 18.39                             172    -0.1 7   20 189 
 BAR2 SZ I         420 35.00         9.5 0.43                            20 189 
 BRR  HZ EP   1    420 20.09                             152    -0.1 7   72 301 
 BRR  HN ES   1    420 37.03                             152     0.7 7   72 301 
 BRR  HZ I         420 38.09        17.0 0.18                            72 301 
 PAM  SZ EP   1    420 21.22                             149    -0.2 7   81  39 
 PAM  SE ES   1    420 38.20                             149    -0.4 7   81  39 
 PAM  SZ I         420 40.38         3.6 0.41                            81  39 
 RUS  HZ EP   1    420 22.46                             144    -0.1 7   97 175 
 RUS  HN ES   1    420 41.09                             144     0.5 7   97 175 
 RUS  HZ I         420 42.30         2.7 0.39                            97 175 
 PTB  HZ EP   1    420 25.18                             132    -0.7 7  146 260 
 PTB  HN ES   1    420 45.78                             132    -0.8 7  146 260 
 PTB  HZ I         420 53.38         2.7 0.27                           146 260 
 ZAR  HZ EP   1    420 32.85                             122     1.2 6  204 293 
 ZAR  HZ I         421  2.90         4.9 0.43                           204 293 
                                                                                
