 2016  114 0544 15.7 L   6.779 -73.125142.5  RSN  6 0.4 1.4LRSN                1
 GAP=140        1.15       7.0     6.1  8.3  0.1662E+02  0.6330E+00 -0.1441E+02E
 Epicentro: LOS SANTOS - SANTANDER                                             3
 ACTION:UPD 16-03-09 23:25 OP:cam  STATUS:               ID:20160114054415 L   I
 OLDACT:UP  16-01-14 19:03 OP:mher STATUS:               ID:20160114053740     3
 OLDACT:UP  16-01-14 18:56 OP:mher STATUS:               ID:20160114053740     3
 OLDACT:UP  16-01-14 18:56 OP:mher STATUS:               ID:20160114053740     3
 OLDACT:UP  16-01-14 18:55 OP:mher STATUS:               ID:20160114053740     3
 OLDACT:UP  16-01-14 18:55 OP:mher STATUS:               ID:20160114053740     3
 OLDACT:REG 16-01-14 12:57 OP:mh   STATUS:               ID:20160114053740     3
 2016-01-14-0537-40M.COL___328                                                 6
 STAT SP IPHASW D HRMM SECON CODA AMPLIT PERI AZIMU VELO AIN AR TRES W  DIS CAZ7
 BAR2 EZ EP        544 35.05                             171    0.1610 21.6 197 
 BAR2 EZ ES        544 48.90                             171   -0.9710 21.6 197 
 BAR2 EZ I         544 50.84         4.9 0.17            171           21.6 197 
 BRR  HZ EP        544 36.84                             151    0.1710 74.4 299 
 BRR  HZ I         544 44.98         2.9 0.50            148           74.4 299 
 BRR  HN ES        544 53.51                             151    0.4810 74.4 299 
 PAM  EZ EP        544 37.87                             150    0.2910 77.8  37 
 RUS  HZ EP        544 39.00                             144    0.0610 98.1 177 
 RUS  HN ES        544 57.40                             144    0.3210 98.1 177 
 RUS  HZ I         545  0.12         2.6 0.29            144           98.1 177 
 PTB  HZ EP        544 41.96                             131   -0.60 9  150 260 
 PTB  HN ES        545  3.99                             131    0.47 9  150 260 
 PTB  HZ I         545  5.14         3.3 0.08            129            150 260 
 ZAR  HZ EP        544 47.93                             121   -0.31 8  207 292 
 ZAR  HN ES        545 13.40                             121   -0.23 8  207 292 
 ZAR  HZ I         545 22.35         4.5 0.28            119            207 292 
                                                                                
