 2014  814 0416 23.2 L   6.722 -73.177146.5  RSN  6 0.5 1.4LRSN                1
 GAP=136        1.32       6.7     5.9  9.7  0.3503E+01  0.1059E+02 -0.6601E-01E
 Epicentro: VILLANUEVA - SANTANDER                                             3
 ACTION:UPD 14-09-15 21:49 OP:nd   STATUS:               ID:20140814041623 L   I
 OLDACT:DUP 14-08-14 15:06 OP:cam  STATUS:               ID:20140814041003d    3
 OLDACT:DUP 14-08-14 14:43 OP:cam  STATUS:               ID:20140814041002d    3
 OLDACT:DUP 14-08-14 14:36 OP:cam  STATUS:               ID:20140814041001d    3
 OLDACT:UP  14-08-14 14:36 OP:cam  STATUS:               ID:20140814041000     3
 OLDACT:UP  14-08-14 14:36 OP:cam  STATUS:               ID:20140814041000     3
 OLDACT:REG 14-08-14 13:19 OP:cam  STATUS:               ID:20140814041000     3
 2014-08-14-0410-00M.COL___285                                                 6
 STAT SP IPHASW D HRMM SECON CODA AMPLIT PERI AZIMU VELO AIN AR TRES W  DIS CAZ7
 BAR2 SZ EP        416 42.52                             174   -0.2310 14.4 182 
 BAR2 SZ ES        416 57.38                             174   -0.6310 14.4 182 
 BAR2 SZ I         416 59.89         4.8 0.20            175           14.4 182 
 BRR  HZ EP        416 44.65                             152    0.1510 72.9 306 
 BRR  HN ES        417  2.10                             152    0.9710 72.9 306 
 BRR  HZ I         417  6.45         6.0 0.14            153           72.9 306 
 PAM  SZ EP        416 45.82                             148   -0.2010 86.3  38 
 PAM  SE ES        417  3.59                             148   -0.2510 86.3  38 
 PAM  SZ I         417  5.14         3.9 0.46            151           86.3  38 
 RUS  HZ EP        416 46.82                             146    0.4010 92.3 174 
 RUS  HE ES        417  5.04                             146    0.4910 92.3 174 
 RUS  HZ I         417  6.31         3.4 0.34            150           92.3 174 
 PTB  HZ EP        416 49.60                             133   -0.17 9  143 262 
 PTB  HN ES        417  9.62                             133   -0.89 9  143 262 
 PTB  HZ I         417 11.53         3.9 0.14            136            143 262 
 ZAR  HE ES        417 21.36                             122    0.30 9  204 295 
                                                                                
