 2017  814 0242 29.1 L   6.813 -73.132143.1  RSN 21 0.8 2.1LRSN                1
 GAP= 66        1.38       3.9     3.6  6.1  0.1174E+01  0.5141E+01  0.4315E+01E
 Epicentro: LOS SANTOS - SANTANDER                                             3
 ACTION:UPD 17-09-04 20:20 OP:rebc STATUS:               ID:20170814024229 L   I
 OLDACT:UP  17-08-14 19:34 OP:and  STATUS:               ID:20170814023738     3
 OLDACT:UP  17-08-14 19:32 OP:and  STATUS:               ID:20170814023738     3
 OLDACT:UP  17-08-14 18:37 OP:mg   STATUS:               ID:20170814023738     3
 OLDACT:UP  17-08-14 18:36 OP:mg   STATUS:               ID:20170814023738     3
 OLDACT:REG 17-08-14 13:49 OP:mg   STATUS:               ID:20170814023738     3
 2017-08-14-0238-00M.COL___413                                                 6
 STAT SP IPHASW D HRMM SECON CODA AMPLIT PERI AZIMU VELO AIN AR TRES W  DIS CAZ7
 BAR2 EZ EP        242 48.14                             170   -0.2710 25.1 193 
 BAR2 EZ ES        243  2.96                             170   -0.5410 25.1 193 
 BAR2 EZ I         243  4.34        36.0 0.20            168           25.1 193 
 BRR  HZ IP     D  242 49.90                             152   -0.0610 71.9 297 
 BRR  HN ES        243  6.73                             152    0.4710 71.9 297 
 BRR  HZ I         243 10.60        31.1 0.20            149           71.9 297 
 PAM  EZ IP     C  242 51.08                             151    0.2110 75.3  39 
 PAM  EN ES        243  7.73                             151   -0.1410 75.3  39 
 PAM  EZ I         243 10.06        18.1 0.40            151           75.3  39 
 RUS  HZ EP        242 52.69                             143    0.0410  102 177 
 RUS  HE ES        243 11.43                             143    0.3810  102 177 
 RUS  HZ I         243 12.09         8.6 0.20            141            102 177 
 TAM  HZ IP     C  242 56.61                             130    0.18 9  154 106 
 TAM  HN ES        243 17.95                             130    0.18 9  154 106 
 TAM  HZ I         243 24.61        10.1 0.52            129            154 106 
 SPBC HZ EP        242 57.27                             128   -0.29 9  165 219 
 SPBC HN ES        243 19.96                             128    0.17 9  165 219 
 SPBC HZ I         243 27.27        19.5 0.22            125            165 219 
 YPLC HZ IP     C  242 58.74                             126    0.02 9  177 152 
 YPLC HE ES        243 22.53                             126    0.68 9  177 152 
 YPLC HZ I         243 24.44         9.0 0.32            124            177 152 
 ZAR  HZ EP        243  1.53                             122    0.11 9  205 292 
 ZAR  HN ES        243 26.16                             122   -0.51 9  205 292 
 ZAR  HZ I         243 34.20        14.8 0.30            119            205 292 
 NOR  HZ EP     D  243  4.74                             118   -0.12 8  237 234 
 NOR  HN ES        243 32.13                             118   -0.66 8  237 234 
 NOR  HZ I         243 35.94        10.8 0.44            115            237 234 
 CHI  HZ EP        243  7.44                             116    0.63 8  250 195 
 CHI  HN ES        243 36.96                             116    0.70 8  250 195 
 CHI  HZ I         243 43.34         5.7 0.58            114            250 195 
 HEL  HZ EP        243 11.22                             114    1.87 8  274 256 
 HEL  HN ES   2    243 41.39                             114    0.62 4  274 256 
 HEL  HZ I         243 46.54         7.0 0.24            112            274 256 
 URE  HZ EP   3    243 12.62                             113    2.52 2  285 292 
 URE  HN ES   3    243 39.69                             113   -2.42 2  285 292 
 URE  HZ I         243 40.58        11.0 0.12            111            285 292 
 GUY2CHZ EP   9    243 14.94                             112    2.15 0  303 235 
 GUY2CHE ES        243 48.36                             111   -0.69 7  303 235 
 GUY2CHZ I         243 53.63         6.1 0.60                           303 235 
 PTGC HZ EP        243 11.61                             111   -1.28 7  310 159 
 PTGC HN ES        243 44.66                             111   -2.42 7  310 159 
 PTGC HZ I         243 51.62         6.4 0.36            109            310 159 
 LL6C HZ EP        243 14.70                             110    0.21 7  323 357 
 LL6C HN ES   4    243 52.59                             110    2.67 0  323 357 
 LL6C HZ I         243 59.44         3.6 0.42            108            323 357 
 CBOC HZ EP   3    243 17.16                             109    1.07 2  336 252 
 CBOC HE ES        243 52.11                             109   -0.66 7  336 252 
 CBOC HZ I         243 58.97         1.8 0.46            107            336 252 
 DBB  EZ EP        243 16.05                             109   -0.54 7  341 274 
 DBB  EN ES   3    243 52.04                             109   -1.63 2  341 274 
 DBB  EZ I         243 59.19         4.4 0.16            107            341 274 
 PRA  HZ EP        243 22.53                             106   -0.20 6  394 210 
 PRA  HN ES   3    244  6.12                             106    1.53 1  394 210 
 PRA  HZ I         244 10.86         7.2 0.24            104            394 210 
 ORTC HZ EP        243 23.38                             106    0.24 6  398 216 
 ORTC HN ES        244  6.07                             106    0.75 6  398 216 
 ORTC HZ I         244 13.09         4.7 0.42            104            398 216 
 PAL  HZ EP        243 24.28                             105   -0.10 6  408 239 
 PAL  HZ I         244  8.68         1.8 0.42            104            408 239 
 SJC  HZ EP   3    243 22.72                             105   -1.77 1  409 327 
 SJC  HN ES   4    244  4.46                             105   -3.26 0  409 327 
 SJC  HZ I         244  7.30         4.3 0.48            104            409 327 
                                                                                
