 2014 1114 0339  3.1 L   6.724 -73.193145.0  RSN  5 0.4 1.5LRSN                1
 GAP=226        0.93       5.4     5.8  6.9  0.6450E+01  0.5954E+01  0.3886E+01E
 Epicentro: VILLANUEVA - SANTANDER                                             3
 ACTION:UPD 14-12-19 15:42 OP:nd   STATUS:               ID:20141114033903 L   I
 OLDACT:DUP 14-11-14 17:00 OP:stll STATUS:               ID:20141114033745d    3
 2014-11-14-0337-43M.COL___280                                                 6
 STAT SP IPHASW D HRMM SECON CODA AMPLIT PERI AZIMU VELO AIN AR TRES W  DIS CAZ7
 BAR2 SZ EP        339 21.82                             174   -0.6910 14.7 175 
 BAR2 SZ ES        339 37.47                             174   -0.1710 14.7 175 
 BAR2 SZ I         339 39.72         5.1 0.26            175           14.7 175 
 BRR  HZ EP        339 24.13                             152   -0.0610 71.3 306 
 BRR  HN ES        339 41.15                             152    0.5210 71.3 306 
 BRR  HZ I         339 44.63         5.4 0.12            152           71.3 306 
 RUS  HZ EP        339 26.73                             146    0.4810 92.8 172 
 RUS  HN ES        339 44.33                             146    0.0510 92.8 172 
 RUS  HZ I         339 45.62         2.9 0.28            148           92.8 172 
 PTB  HZ EP        339 29.30                             133   -0.13 9  141 262 
 PTB  HN ES        339 49.72                             133   -0.24 9  141 262 
 PTB  HZ I         339 52.28         6.1 0.10            134            141 262 
 SPBC HZ EP        339 30.97                             131    0.33 9  153 219 
 SPBC HZ I         339 33.21         6.5 0.10            132            153 219 
 SPBC HN ES        339 52.02                             131   -0.09 9  153 219 
                                                                                
