 2012  114 0140  5.0 L   6.751 -73.134146.1  RSN  7 0.3 1.4LRSN                1
 GAP=140        0.53       4.3     5.4  6.3  0.3242E+01  0.1027E+02  0.9697E+01E
 Epicentro: LOS SANTOS - SANTANDER                                             3
 ACTION:UP  12-02-03 08:17 OP:REBC STATUS:               ID:20120114014005 L   I
 2012-01-14-0140-00M.COL___187                                                 6
 STAT SP IPHASW D HRMM SECON CODA AMPLIT PERI AZIMU VELO SNR AR TRES W  DIS CAZ7
 BAR2 SZ EP   1    140 24.85                             172     0.3 7   18 197 
 BAR2 SZ ES   2    140 39.99                             172     0.1 5   18 197 
 BAR2 SZ I         140 42.12         6.1 0.23                            18 197 
 GIR2 SZ ES   2    140 40.14                             165    -0.3 5   37 350 
 BRR  HN ES   2    140 43.49                             151     0.4 5   75 302 
 PAM  SN ES   2    140 44.43                             150    -0.6 5   81  36 
 RUS  HZ EP   1    140 28.51                             145     0.1 7   95 177 
 RUS  HN ES   1    140 46.74                             145     0.1 7   95 177 
 RUS  HZ I         140 48.54         4.6 0.20                            95 177 
 PTB  HZ EP   1    140 32.20                             132     0.2 7  148 261 
 PTB  HN ES   2    140 52.61                             132    -0.5 5  148 261 
 CHI  HZ EP   2    140 41.72                             118    -0.5 4  244 196 
 CHI  HN ES   2    141 10.83                             118    -0.4 4  244 196 
                                                                                
