 2016  814 0115 17.7 L   6.807 -73.090152.8  RSN 10 0.5 2.0LRSN                1
 GAP=213        1.15       4.6     7.1  8.6  0.7364E+01  0.8877E+01 -0.5345E+01E
 Epicentro: LOS SANTOS - SANTANDER                                             3
 ACTION:UPD 16-10-29 15:35 OP:rebc STATUS:               ID:20160814011517 L   I
 OLDACT:UP  16-08-14 14:22 OP:dani STATUS:               ID:20160814010731     3
 OLDACT:UP  16-08-14 14:21 OP:dani STATUS:               ID:20160814010731     3
 OLDACT:UP  16-08-14 14:21 OP:dani STATUS:               ID:20160814010731     3
 OLDACT:REG 16-08-14 12:25 OP:dani STATUS:               ID:20160814010731     3
 2016-08-14-0108-00M.COL___383                                                 6
 STAT SP IPHASW D HRMM SECON CODA AMPLIT PERI AZIMU VELO AIN AR TRES W  DIS CAZ7
 BRR  HZ EP        115 40.52                             152    0.5910 76.3 296 
 BRR  HE ES        115 57.69                             152    0.4510 76.3 296 
 BRR  HZ I         116  1.87        20.6 0.38                          76.3 296 
 RUS  HZ EP        115 42.62                             145    0.3910  101 180 
 RUS  HN ES        116  0.64                             145   -0.6910  101 180 
 RUS  HZ I         116  2.07        10.1 0.26                           101 180 
 PTB  HZ EP        115 45.72                             132   -0.12 9  154 259 
 PTB  HN ES   4    116  6.15                             132   -1.61 0  154 259 
 PTB  HZ I         116  8.90        10.3 0.14                           154 259 
 SPBC HZ EP        115 47.65                             130    0.44 9  168 220 
 SPBC HN ES        116  9.60                             130   -0.60 9  168 220 
 SPBC HZ I         116 15.93        10.4 0.17                           168 220 
 ZAR  HZ EP        115 51.53                             123    0.33 8  209 291 
 ZAR  HN ES        116 16.84                             123   -0.46 8  209 291 
 ZAR  HZ I         116 23.27        12.5 0.34                           209 291 
 NOR  HN ES        116 23.13                             119    0.02 8  240 235 
 NOR  HZ I         116 28.19         7.8 0.18                           240 235 
 CHI  HN ES        116 26.07                             118    0.05 8  251 196 
 URE  HZ EP        115 59.11                             114   -0.65 7  289 291 
 URE  HN ES   4    116 29.84                             114   -2.69 0  289 291 
 URE  HZ I         116 39.20         7.5 0.14                           289 291 
 GUY2CHZ EP   4    116  4.93                             113    2.63 0  307 235 
 GUY2CHN ES        116 37.48                             113    0.43 7  307 235 
 GUY2CHZ I         116 47.07         3.8 0.45                           307 235 
 PRA  HE ES   4    116 56.56                             107    2.33 0  396 210 
 SJC  HZ EP        116 12.76                             107   -1.09 6  412 326 
 SJC  HE ES   4    116 54.59                             107   -3.03 0  412 326 
 SJC  HZ I         116 57.96         2.6 0.38                           412 326 
                                                                                
