 2013  414 0656 19.4 L   6.793 -73.181147.1  RSN  5 0.3 1.5LRSN                1
 GAP=132        0.77       6.4     4.4  6.3 -0.1012E+02  0.8087E+00  0.9923E+01E
 Epicentro: LOS SANTOS - SANTANDER                                             3
 ACTION:UPD 13-05-22 14:38 OP:EP   STATUS:               ID:20130414065618 L   I
 2013-04-14-0648-42M.COL___212                                                 6
 STAT SP IPHASW D HRMM SECON CODA AMPLIT PERI AZIMU VELO AIN AR TRES W  DIS CAZ7
 BAR2 SZ EP        656 39.13                             171   -0.0210 22.2 180 
 BAR2 SZ ES        656 54.64                             171    0.0710 22.2 180 
 BAR2 SZ I         656 55.57         5.3 0.24            170           22.2 180 
 BRR  HZ EP   1    656 40.94                             154    0.43 7 68.2 301 
 BRR  HN ES   1    656 57.64                             154    0.65 7 68.2 301 
 BRR  HN I         656 58.70        10.8 0.16            151           68.2 301 
 PAM  SZ EP        656 41.94                             150    0.0110 80.5  41 
 PAM  SZ I         656 42.20         3.9 0.18            153           80.5  41 
 PAM  SN ES        656 59.14                             150   -0.3710 80.5  41 
 RUS  HZ EP        656 43.46                             144    0.2210  100 174 
 PTB  HZ EP        656 45.94                             133   -0.17 9  144 259 
 PTB  HN ES        657  6.53                             133   -0.42 9  144 259 
 PTB  HN I         657 12.23         5.8 0.28            132            144 259 
                                                                                
