 2016  214 0944 11.6 L   6.782 -73.163147.3  RSN  8 0.4 1.4LRSN                1
 GAP=135        0.96       3.1     4.3  6.4 -0.1590E+01  0.7038E+01  0.1857E+01E
 Epicentro: LOS SANTOS - SANTANDER                                             3
 ACTION:UPD 16-03-04 21:26 OP:rebc STATUS:               ID:20160214094411 L   I
 OLDACT:UP  16-02-14 14:59 OP:ak   STATUS:               ID:20160214093735     3
 OLDACT:REG 16-02-14 14:50 OP:ak   STATUS:               ID:20160214093735     3
 2016-02-14-0937-35M.COL___295                                                 6
 STAT SP IPHASW D HRMM SECON CODA AMPLIT PERI AZIMU VELO AIN AR TRES W  DIS CAZ7
 BAR2 EZ EP        944 31.62                             171    0.2810 21.1 186 
 BAR2 EZ ES        944 46.80                             171    0.0410 21.1 186 
 BAR2 EZ I         944 47.70         6.3 0.40            172           21.1 186 
 PAM  EZ EP        944 34.51                             150    0.4010 80.1  40 
 PAM  EN ES        944 51.02                             150   -0.6710 80.1  40 
 PAM  EZ I         944 53.64         3.6 0.42            152           80.1  40 
 RUS  HZ EP        944 35.36                             145    0.0210 98.7 175 
 RUS  HN ES        944 53.95                             145    0.0710 98.7 175 
 RUS  HZ I         944 55.34         2.3 0.32            147           98.7 175 
 PTB  HZ EP        944 37.81                             133   -0.65 9  146 259 
 PTB  HN ES        944 58.97                             133   -0.47 9  146 259 
 PTB  HZ I         945  1.56         3.6 0.14            132            146 259 
 SPBC HZ EP        944 39.79                             130   -0.13 9  160 219 
 SPBC HN ES        945  2.72                             130    0.67 9  160 219 
 SPBC HZ I         945  9.51         4.8 0.12            130            160 219 
 OCA  HZ EP   2    944 40.27                             130    0.11 5  162 354 
 OCA  HN ES        945  2.93                             130    0.46 9  162 354 
 OCA  HZ I         945 10.24         5.9 0.50            130            162 354 
 ZAR  HZ EP   2    944 44.35                             123    0.34 4  203 293 
 ZAR  HN ES        945  9.44                             123    0.12 9  203 293 
 ZAR  HZ I         945 14.73         3.3 0.24            123            203 293 
 CHI  HZ EP        944 48.72                             118   -0.36 8  246 195 
 CHI  HE ES        945 18.43                             118    0.08 8  246 195 
 CHI  HZ I         945 23.61         1.1 0.55            119            246 195 
                                                                                
