 2014  314 0722  1.0 L   6.805 -73.181146.3  RSN  9 0.3 1.7LRSN                1
 GAP=132        0.56       2.3     2.7  5.0 -0.6243E+00  0.3614E+01 -0.1904E+00E
 Epicentro: LOS SANTOS - SANTANDER                                             3
 OLDACT:REG 14-03-14 07:45 OP:fm   STATUS:               ID:20140314071812     3
 ACTION:UPD 14-04-09 23:17 OP:nd   STATUS:               ID:20140314072201 L   I
 OLDACT:UP  14-03-14 10:45 OP:fm   STATUS:               ID:20140314071812     3
 2014-03-14-0718-12M.COL___232                                                 6
 STAT SP IPHASW D HRMM SECON CODA AMPLIT PERI AZIMU VELO AIN AR TRES W  DIS CAZ7
 BAR2 SZ EP        722 20.67                             170   -0.0310 23.6 180 
 BAR2 SZ I         722 34.98        11.2 2.16            165           23.6 180 
 PAM  SZ EP        722 23.66                             150    0.2610 79.5  42 
 PAM  SE ES        722 40.74                             150   -0.1310 79.5  42 
 PAM  SZ I         722 42.23         5.5 0.42            136           79.5  42 
 RUS  HZ EP        722 24.70                             143   -0.1810  102 174 
 RUS  HN ES        722 43.64                             143    0.1410  102 174 
 PTB  HZ EP   1    722 27.58                             133   -0.10 7  144 258 
 PTB  HN ES        722 48.14                             133   -0.35 9  144 258 
 PTB  SZ I         722 53.65         5.2 0.62            115            144 258 
 SPBC HN ES   2    722 52.20                             129    0.73 5  161 218 
 ZAR  HN ES   1    722 58.49                             123    0.38 6  200 292 
 SML  HZ EP   1    722 37.18                             118   -0.25 6  242 336 
 SML  HE ES   2    723  6.16                             118    0.33 4  242 336 
 SML  SZ I         723 10.93         3.9 0.40            104            242 336 
 CHI  HZ EP   1    722 39.04                             117    0.35 6  248 194 
 CHI  HN ES   1    723  7.77                             117   -0.31 6  248 194 
 CHI  SZ I         723 12.12         3.6 1.96            105            248 194 
 HEL  HZ EP   2    722 40.87                             115    0.03 4  268 255 
 HEL  SZ I         723 25.37         4.2 2.76            103            268 255 
                                                                                
