 2011  714 0639  0.3 L   6.778 -73.126144.0  RSN  8 0.2 2.0LRSN                1
 GAP=140        0.47       2.2     4.0  3.4 -0.1811E+01  0.1733E+01 -0.2410E+00E
 Epicentro: LOS SANTOS - SANTANDER                                             3
 ACTION:UPD 12-07-25 14:00 OP:epov STATUS:               ID:20110714063900 L   I
 2011-07-14-0638-37S.COL___132                                                 6
 STAT SP IPHASW D HRMM SECON CODA AMPLIT PERI AZIMU VELO AIN AR TRES W  DIS CAZ7
 BAR2 SZ EP   1    639 19.43                             171   -0.20 7 21.5 197 
 BAR2 SZ ES   1    639 34.66                             171   -0.09 7 21.5 197 
 BAR2 SZ I         639 35.22        26.1 0.30                          21.5 197 
 BTL  SZ EP   1    639 19.57                             171   -0.08 7 22.0 315 
 BTL  SZ ES   1    639 34.86                             171    0.09 7 22.0 315 
 BRR  HZ EP        639 21.36                             151   -0.0310 74.3 299 
 BRR  HE ES   1    639 38.15                             151    0.28 7 74.3 299 
 BRR  HZ I         639 39.40        18.9 0.16                          74.3 299 
 PAM  SZ EP   1    639 22.46                             150    0.15 7 77.9  37 
 PAM  SN ES   1    639 39.51                             150   -0.01 7 77.9  37 
 RUS  HZ EP   1    639 23.49                             144   -0.16 7 98.0 177 
 RUS  HE ES   1    639 41.95                             144    0.05 7 98.0 177 
 RUS  HZ I         639 43.57        14.1 0.39                          98.0 177 
 BRI  SZ EP   1    639 24.25                             141    0.16 7  110  19 
 BRI  SZ ES   1    639 42.76                             141    0.08 7  110  19 
 BRI  SZ I         639 44.70        18.2 0.45                           110  19 
 OCA  SZ EP   1    639 29.08                             129    0.40 7  163 352 
 OCA  SZ ES   1    639 50.24                             129   -0.61 7  163 352 
 OCA  SZ I         639 53.66         7.1 0.22                           163 352 
 NOR  SZ EP   1    639 35.88                             118   -0.04 6  235 235 
                                                                                
