 2016  714 0002 23.5 L   6.688 -73.217145.9  RSN  4 0.5 1.2LRSN                1
 GAP=220        1.18       9.4     9.5 11.8  0.5948E+02  0.2583E+01 -0.5626E+01E
 Epicentro: VILLANUEVA - SANTANDER                                             3
 ACTION:UPD 17-03-29 16:50 OP:lp   STATUS:               ID:20160714000223 L   I
 OLDACT:REG 16-07-14 12:15 OP:dani STATUS:               ID:20160714000014     3
 2016-07-14-0000-14S.COL___331                                                 6
 STAT SP IPHASW D HRMM SECON CODA AMPLIT PERI AZIMU VELO AIN AR TRES W  DIS CAZ7
 BRR  HZ EP        0 2 44.50                             152   -0.2010 71.7 310 
 BRR  HE ES        0 3  1.63                             152    0.4010 71.7 310 
 RUS  HZ EP        0 2 47.06                             147    0.5810 89.1 170 
 RUS  HE ES        0 3  3.78                             147   -0.6210 89.1 170 
 RUS  HZ I         0 3  6.44         2.4 0.20            146           89.1 170 
 PTB  HZ EP        0 2 49.56                             134   -0.06 9  138 263 
 PTB  HE ES        0 3 10.43                             134    0.44 9  138 263 
 PTB  HZ I         0 3 12.26         2.4 0.12            134            138 263 
 ZAR  HN ES        0 3 20.23                             123   -0.67 9  202 296 
                                                                                
