 2017  614 0124 44.5 L   6.739 -73.153149.8  RSN  6 0.4 1.8LRSN                1
 GAP=277        1.07       5.9     8.6  9.4 -0.8261E+01 -0.1106E+02  0.1295E+02E
 Epicentro: LOS SANTOS - SANTANDER                                             3
 ACTION:UPD 17-09-14 16:51 OP:jn   STATUS:               ID:20170614012444 L   I
 OLDACT:UP  17-06-14 14:02 OP:ar   STATUS:               ID:20170614011735     3
 OLDACT:REG 17-06-14 12:32 OP:ar   STATUS:               ID:20170614011735     3
 2017-06-14-0118-00M.COL___356                                                 6
 STAT SP IPHASW D HRMM SECON CODA AMPLIT PERI AZIMU VELO AIN AR TRES W  DIS CAZ7
 BRR  HZ EP        125  6.32                             152    0.1010 74.0 303 
 BRR  HN ES        125 23.63                             152    0.4610 74.0 303 
 BRR  HZ I         125 25.25        10.1 0.48            154           74.0 303 
 PTB  HZ EP        125 10.98                             133   -0.62 9  146 261 
 PTB  HN ES        125 31.84                             133   -0.92 9  146 261 
 PTB  HZ I         125 33.23         4.9 0.60            132            146 261 
 SPBC HZ EP        125 12.82                             131    0.06 9  158 220 
 SPBC HZ I         125 32.11        25.0 0.10            127            158 220 
 SPBC HN ES        125 34.71                             131   -0.11 9  158 220 
 ZAR  HZ EP        125 17.25                             123   -0.13 8  206 294 
 ZAR  HN ES        125 43.17                             123    0.12 8  206 294 
 ZAR  HZ I         125 49.23         5.5 0.34            120            206 294 
 NOR  HZ EP        125 20.40                             120    0.44 8  230 236 
 NOR  HN ES        125 48.06                             120    0.41 8  230 236 
 NOR  HZ I         125 49.09         5.2 0.12            116            230 236 
 CBOC HZ EP   4    125 32.90                             111    1.66 0  331 253 
 CBOC HN ES        126  8.32                             111    0.60 7  331 253 
 CBOC HZ I         126 12.89         1.5 0.64            107            331 253 
                                                                                
