 2017  514 0855 41.5 L   6.748 -73.130140.5  RSN  5 0.4 1.2LRSN                1
 GAP=185        1.17       7.5     6.0  9.7 -0.1625E+02  0.2321E+01  0.5944E+01E
 Epicentro: LOS SANTOS - SANTANDER                                             3
 ACTION:UPD 17-06-16 13:36 OP:jn   STATUS:               ID:20170514085541 L   I
 OLDACT:UP  17-05-14 18:10 OP:lv   STATUS:               ID:20170514084742     3
 OLDACT:REG 17-05-14 13:14 OP:lv   STATUS:               ID:20170514084742     3
 2017-05-14-0848-00M.COL___347                                                 6
 STAT SP IPHASW D HRMM SECON CODA AMPLIT PERI AZIMU VELO AIN AR TRES W  DIS CAZ7
 BRR  HZ EP        856  2.28                             150   -0.0910 75.6 302 
 BRR  HN ES        856 19.27                             150    0.6510 75.6 302 
 BRR  HZ I         856 22.54         3.3 0.21            151           75.6 302 
 PAM  EZ EP        856  3.60                             148    0.1910 80.9  36 
 PAM  EN ES        856 19.95                             148   -0.5110 80.9  36 
 PAM  EZ I         856 23.22         3.1 0.48            149           80.9  36 
 PTB  HZ EP   9    856  7.66                             130   -0.48 0  148 261 
 PTB  HN ES        856 27.64                                   -0.77 9  148 261 
 PTB  HZ I         856 28.54         1.8 0.12            133            148 261 
 SPBC HN ES        856 30.85                             128   -0.12 9  160 221 
 ZAR  HZ EP        856 14.40                             120    0.36 8  208 293 
 ZAR  HN ES        856 38.84                             120   -0.55 8  208 293 
                                                                                
