 2013  314 0250 35.4 L   6.749 -73.117146.0  RSN 12 0.4 2.5LRSN                1
 GAP= 75        0.92       3.1     3.5  5.6 -0.1040E+00  0.5160E+01  0.3599E+01E
 Epicentro: LOS SANTOS - SANTANDER                                             3
 ACTION:UPD 13-04-09 14:02 OP:ep   STATUS:               ID:20130314025035 L   I
 2013-03-14-0250-00M.COL___243                                                 6
 STAT SP IPHASW D HRMM SECON CODA AMPLIT PERI AZIMU VELO AIN AR TRES W  DIS CAZ7
 BAR2 SZ EP        250 55.07                             172    0.0710 18.8 203 
 BAR2 SZ ES        251 10.38                             172    0.1110 18.8 203 
 BAR2 SZ I         251 11.62        45.1 0.40            170           18.8 203 
 BRR  HZ IP     C  250 56.95                             151    0.0210 76.8 301 
 BRR  HN ES        251 14.00                             151    0.3010 76.8 301 
 BRR  HN I         251 14.63        79.9 0.28            148           76.8 301 
 PAM  SZ EP     C  250 57.87                             150    0.0510 79.9  35 
 PAM  SN ES   2    251 14.78                             150   -0.51 5 79.9  35 
 PAM  SN I         251 16.01        35.8 0.24            153           79.9  35 
 RUS  HZ EP        250 58.93                             146    0.1410 94.7 178 
 RUS  HN ES        251 17.33                             146    0.3210 94.7 178 
 RUS  HN I         251 19.15        22.6 0.20            146           94.7 178 
 PTB  HZ EP        251  1.68                             132   -0.93 9  150 261 
 PTB  HN ES   1    251 23.10                             132   -0.72 7  150 261 
 PTB  HN I         251 28.44        53.3 0.30            130            150 261 
 TAM  HN ES   1    251 23.08                             132   -0.91 7  151 103 
 OCA  HN ES        251 27.33                             129    0.46 9  166 352 
 OCA  HN I         251 30.54        78.1 0.26            129            166 352 
 ZAR  HN ES   1    251 33.80                             122   -0.35 6  209 293 
 ZAR  HN I         251 39.20        20.5 0.22            121            209 293 
 NOR  HZ EP        251 10.81                             119   -0.30 8  234 236 
 NOR  HN ES        251 38.75                             119   -0.19 8  234 236 
 CHI  HZ EP   1    251 13.21                             118    0.57 6  244 196 
 CHI  HN ES        251 41.83                             118    0.16 8  244 196 
 CHI  HN I         251 46.15        18.4 0.24            118            244 196 
 ROSC BZ EP   4    251 14.70                             117    1.48 0  250 212 
 HEL  HZ EP   1    251 16.36                             115    0.51 6  274 257 
 HEL  HN ES        251 47.71                             115    0.33 8  274 257 
 HEL  HN I         251 55.84         7.1 0.42            114            274 257 
 PRA  HZ EP        251 28.75                             107    0.18 6  389 210 
 PRA  HN ES   2    252 10.80                             107    0.78 3  389 210 
 PRA  HN I         252 16.31        28.5 0.94            107            389 210 
                                                                                
