 2010 1214 0121  0.4 L   7.321 -73.943 23.7  RSN  9 0.5 1.7LRSN                1
 GAP= 86        1.16       4.2     6.3  6.1 -0.5868E+00  0.1026E+02 -0.7080E+01E
 Epicentro: PUERTO WILCHES - SANTANDER                                         3
 ACTION:UP  11-01-14 15:24 OP:pat  STATUS:               ID:20101214012100 L   I
 2010-12-14-0118-09S.COL___137                                                 6
 STAT SP IPHASW D HRMM SECON CODA AMPLIT PERI AZIMU VELO SNR AR TRES W  DIS CAZ7
 BTL  SZ IP        121 14.99                             104     0.310   87 121 
 BTL  SZ ES   1    121 26.02                             104     0.1 7   87 121 
 GIR2 SZ EP   1    121 14.22                             104    -0.4 7   87 108 
 BAR2 SZ EP   1    121 18.12                              56    -0.7 7  116 134 
 BAR2 SZ ES   1    121 32.76                              56    -0.4 7  116 134 
 BAR2 SZ I         121 33.54        17.6 0.22                           116 134 
 OCA  SZ EP   1    121 18.77                              56    -0.7 7  123  34 
 OCA  SZ ES   1    121 33.60                              56    -0.8 7  123  34 
 OCA  SZ I         121 36.91        20.8 0.63                           123  34 
 GUE  SZ EP   1    121 20.92                              56     0.9 7  126  63 
 GRA  SZ EP   1    121 22.01                              56     0.3 7  140  64 
 GRA  SZ ES   1    121 39.01                              56     0.7 7  140  64 
 RUS  HZ EP   1    121 27.56                              56     0.0 7  184 149 
 RUS  HN ES   1    121 49.09                              56     0.3 7  184 149 
 RUS  HZ I         121 51.53        15.3 0.51                           184 149 
 HEL  HN ES   2    121 55.57                              56     0.1 4  215 235 
 HEL  HZ I         121 58.92         3.6 0.33                           215 235 
 MON  HZ EP   2    121 35.84                              56     0.8 4  248 310 
 MON  HZ I         121 40.96         1.7 0.23                           248 310 
                                                                                
