 2010  414 0341 17.3 L   6.783 -72.993147.1  RSN  6 0.5 2.1LRSN                1
 GAP=224        0.97       5.8     9.9  8.6 -0.2080E+02 -0.8885E+01  0.9499E+01E
 Epicentro: CEPITA - SANTANDER                                                 3
 ACTION:UP  10-08-24 09:59 OP:vdl  STATUS:               ID:20100414034117 L   I
 2010-04-14-0337-59S.COL___097                                                 6
 STAT SP IPHASW D HRMM SECON CODA AMPLIT PERI AZIMU VELO AIN AR TRES W  DIS CAZ7
 BAR2 SZ EP        341 37.38                             168     0.110   30 225 
 BAR2 SZ ES   1    341 52.40                             168    -0.4 7   30 225 
 BRR  HZ EP        341 39.67                             147     0.110   87 294 
 BRR  HZ I         341 39.93        24.5 0.58                            87 294 
 BRR  HN ES        341 57.16                             147     0.210   87 294 
 OCA  SZ EP        341 46.43                             129     0.2 9  165 347 
 OCA  SZ ES   1    342  8.31                             129    -0.4 7  165 347 
 HEL  HE ES   2    342 30.67                             113    -1.5 4  288 257 
 HEL  HZ I         342 38.11         3.2 0.30                           288 257 
 RREF BN ES   1    342 42.94                             110     1.0 5  334 232 
 RREF BZ I         342 48.71         5.4 0.17                           334 232 
 PRA  HZ EP   1    342 11.02                             106    -0.7 4  399 212 
 PRA  HN ES   1    342 53.83                             106    -0.3 4  399 212 
 PRA  HZ I         342 56.69         3.7 0.73                           399 212 
                                                                                
