 2012  214 0752 37.4 L   6.771 -73.118145.7  RSN  7 0.4 1.6LRSN                1
 GAP=141        0.71       5.5     5.2  7.8 -0.1950E+01  0.8447E+01  0.9406E+01E
 ACTION:UP  12-03-07 16:30 OP:epov STATUS:               ID:20120214075237 L   I
 2012-02-14-0750-00M.COL___187                                                 6
 STAT SP IPHASW D HRMM SECON CODA AMPLIT PERI AZIMU VELO AIN AR TRES W  DIS CAZ7
 BAR2 SZ EP   1    752 57.07                             171    0.09 7 21.0 200 
 BAR2 SZ I         752 57.34        10.0 0.14                          21.0 200 
 BAR2 SZ ES   2    753 11.59                             171   -0.66 5 21.0 200 
 BRR  HZ EP        752 58.85                             151    0.0610 75.4 300 
 BRR  HZ I         752 59.09        12.8 0.19                          75.4 300 
 BRR  HN ES   1    753 16.01                             151    0.54 7 75.4 300 
 PAM  SZ EP   1    752 59.91                             151    0.27 7 78.0  36 
 PAM  SN ES   1    753 16.54                             151   -0.45 7 78.0  36 
 RUS  HZ EP   1    753  1.21                             145    0.30 7 97.2 178 
 RUS  HE ES   2    753 19.52                             145    0.28 5 97.2 178 
 RUS  HZ I         753 21.27         3.2 0.37                          97.2 178 
 PTB  HZ EP   1    753  3.87                             131   -0.72 7  150 260 
 PTB  HE ES   3    753 25.26                             131   -0.53 2  150 260 
 ZAR  HN ES   2    753 36.01                             122    0.12 4  208 293 
 ZAR  HZ I         753 40.74         4.9 0.24                           208 293 
 NOR  SN ES   2    753 40.89                             118   -0.24 4  235 236 
                                                                                
