 2012  214 0704  2.8 L   6.807 -73.118145.3  RSN  5 0.3 1.2LRSN                1
 GAP=140        0.60       5.7     5.5  8.7 -0.1527E+01 -0.8072E+01  0.1259E+02E
 ACTION:UP  12-03-07 16:30 OP:epov STATUS:               ID:20120214070402 L   I
 2012-02-14-0700-00M.COL___187                                                 6
 STAT SP IPHASW D HRMM SECON CODA AMPLIT PERI AZIMU VELO AIN AR TRES W  DIS CAZ7
 BAR2 SZ EP   1    7 4 21.98                             170   -0.39 7 24.8 197 
 BRR  HZ EP   1    7 4 23.85                             152   -0.15 7 73.6 297 
 BRR  HZ I         7 4 24.14         4.8 0.16                          73.6 297 
 BRR  HN ES   1    7 4 40.93                             152    0.37 7 73.6 297 
 PAM  SZ EP   1    7 4 25.12                             152    0.34 7 74.9  38 
 PAM  SE ES   2    7 4 41.38                             152   -0.57 5 74.9  38 
 RUS  HZ EP   1    7 4 26.81                             144    0.30 7  101 178 
 RUS  HE ES   2    7 4 45.01                             144   -0.02 5  101 178 
 RUS  HZ I         7 4 45.75         1.3 0.30                           101 178 
 PTB  HZ EP   2    7 4 29.74                             131   -0.24 5  151 259 
 PTB  HE ES   2    7 4 50.91                             131   -0.30 5  151 259 
                                                                                
