 2015  314 0254 36.6 L   6.815 -73.160143.9  RSN 12 0.4 2.1LRSN                1
 GAP= 70        0.99       3.3     3.6  5.3 -0.2712E+01  0.3459E+01  0.9574E+00E
 Epicentro: LOS SANTOS - SANTANDER                                             3
 ACTION:UPD 15-04-30 16:25 OP:nd   STATUS:               ID:20150314025436 L   I
 OLDACT:UP  15-03-14 14:39 OP:cam  STATUS:               ID:20150314024748     3
 OLDACT:REG 15-03-14 12:32 OP:cam  STATUS:               ID:20150314024748     3
 2015-03-14-0247-48M.COL___272                                                 6
 STAT SP IPHASW D HRMM SECON CODA AMPLIT PERI AZIMU VELO AIN AR TRES W  DIS CAZ7
 BAR2 EZ EP        254 56.07                             170    0.0310 24.7 186 
 BAR2 EZ ES        255 10.54                             170   -0.6610 24.7 186 
 BAR2 EZ I         255 12.21        22.0 0.22            169           24.7 186 
 BRR  HN ES        255 14.05                             153    0.3710 69.0 298 
 BRR  HZ I         255 19.83        12.4 0.16            150           69.0 298 
 PAM  SZ EP     C  254 59.15                             150    0.5410 77.2  41 
 PAM  SN ES        255 15.93                             150    0.1610 77.2  41 
 PAM  SZ I         255 18.20        26.7 0.44            154           77.2  41 
 RUS  HZ EP   1    255  0.16                             143   -0.14 7  102 175 
 RUS  HN ES        255 19.22                             143    0.4410  102 175 
 RUS  HZ I         255 19.78        14.1 0.24            145            102 175 
 PTB  HZ EP        255  2.88                             132   -0.43 9  147 258 
 PTB  HN ES        255 23.95                             132   -0.19 9  147 258 
 PTB  HZ I         255 30.73        11.9 0.64            131            147 258 
 TAM  HZ EP        255  4.39                             130    0.07 9  157 105 
 SPBC HZ EP        255  4.90                             129   -0.09 9  163 218 
 SPBC HN ES        255 26.48                             129   -0.65 9  163 218 
 SPBC HZ I         255 29.37        20.0 0.36            129            163 218 
 NOR  HZ EP        255 12.35                             118    0.15 8  234 234 
 NOR  HN ES        255 40.49                             118    0.54 8  234 234 
 NOR  HZ I         255 47.78        10.5 0.14            119            234 234 
 SML  HZ EP        255 12.48                             117   -0.42 8  242 335 
 SML  HE ES        255 40.87                             117   -0.34 8  242 335 
 SML  HZ I         255 44.20        19.0 0.28            118            242 335 
 HEL  HZ EP   4    255 18.02                             114    1.42 0  271 255 
 HEL  HN ES        255 48.63                             114    0.83 8  271 255 
 HEL  HZ I         255 53.98         5.8 0.26            115            271 255 
 GUY2CHZ EP   4    255 21.49                             112    1.40 0  301 234 
 GUY2CHN ES   4    255 55.61                             112    1.60 0  301 234 
 GUY2CHZ I         256  0.03         4.8 0.36                           301 234 
 PRA  HZ EP        255 30.16                             106    0.02 6  393 209 
 PRA  HN ES        256 11.48                             106   -0.41 6  393 209 
 PRA  HZ I         256 20.25         3.1 0.40            107            393 209 
                                                                                
