 2013  314 0555 41.7 L   6.162 -73.627112.0  RSN 12 0.5 2.4LRSN                1
 GAP= 84        0.98       3.0     3.2  6.6 -0.1971E+01  0.6872E+01  0.3486E+01E
 Epicentro: LA PAZ - SANTANDER                                                 3
 ACTION:UPD 13-04-09 14:02 OP:ep   STATUS:               ID:20130314055541 L   I
 2013-03-14-0550-00M.COL___243                                                 6
 STAT SP IPHASW D HRMM SECON CODA AMPLIT PERI AZIMU VELO AIN AR TRES W  DIS CAZ7
 RUS  HZ EP     D  555 59.62                             147   -0.1310 67.2 116 
 RUS  HN ES        556 13.71                             147   -0.1210 67.2 116 
 RUS  HN I         556 14.99        36.7 0.46            156           67.2 116 
 BAR2 SZ EP        555 59.59                             147    0.1210 68.5  46 
 BAR2 SZ ES        556 13.53                             147    0.2010 68.5  46 
 BAR2 SZ I         556 14.28       251.2 0.58            150           68.5  46 
 PTB  HZ EP   4    556  0.42                             135   -1.25 0  101 295 
 PTB  HE ES   4    556 15.37                             135   -1.88 0  101 295 
 PTB  HE I         556 22.69        60.0 0.32            133            101 295 
 BRR  HZ EP        556  1.73                             134   -0.2910  105 355 
 BRR  HN ES        556 17.86                             134    0.0010  105 355 
 BRR  HN I         556 28.03        47.4 0.16            133            105 355 
 CTAB SZ EP   1    556  7.17                             125    0.98 7  142 207 
 ROSC BZ EP   1    556  9.22                             120    0.77 7  165 208 
 ROSC BN ES   1    556 29.13                             120   -0.18 7  165 208 
 PAM  SN ES   1    556 29.05                             120   -0.62 7  166  38 
 PAM  SN I         556 32.15        15.3 0.38            123            166  38 
 CHI  HZ EP   1    556  8.18                             119   -0.80 7  170 184 
 CHI  HN ES   1    556 30.37                             119    0.12 7  170 184 
 CHI  HN I         556 32.05        67.5 0.40            123            170 184 
 TAM  HZ EP        556 12.39                             114    0.00 8  205  81 
 TAM  HN ES        556 36.61                             114    0.28 8  205  81 
 TAM  HN I         556 37.88        27.2 0.38            118            205  81 
 HEL  HZ EP        556 12.47                             113   -0.91 8  210 271 
 HEL  HN ES        556 38.60                             113    0.52 8  210 271 
 HEL  HN I         556 48.30        15.6 0.38            114            210 271 
 OCA  HZ EP   1    556 16.31                             111    0.75 6  232   8 
 OCA  HN ES   2    556 42.05                             111    0.07 4  232   8 
 OCA  HN I         556 47.17        62.1 0.20            112            232   8 
 PRA  HZ EP        556 23.90                             105    0.06 7  305 207 
 PRA  HN ES   1    556 56.06                             105   -0.65 5  305 207 
 PRA  HN I         557  2.15         6.7 0.32            107            305 207 
                                                                                
