 2012  214 0347 51.1 L   6.758 -73.126143.0  RSN  6 0.4 1.5LRSN                1
 GAP=141        0.61       5.4     4.9  7.9 -0.3610E+01  0.9243E+01  0.6239E+00E
 ACTION:UP  12-03-07 16:30 OP:epov STATUS:               ID:20120214034751 L   I
 2012-02-14-0339-59S.COL___187                                                 6
 STAT SP IPHASW D HRMM SECON CODA AMPLIT PERI AZIMU VELO AIN AR TRES W  DIS CAZ7
 BAR2 SZ EP   2    348 10.22                             172   -0.08 5 19.4 199 
 BAR2 SZ ES   2    348 24.70                             172   -0.60 5 19.4 199 
 BAR2 SZ I         348 27.53         5.0 0.37                          19.4 199 
 BRR  HZ EP   1    348 12.38                             150    0.20 7 75.4 301 
 BRR  HZ I         348 14.15         7.2 0.12                          75.4 301 
 BRR  HE ES   2    348 29.39                             150    0.75 5 75.4 301 
 PAM  SZ EP   1    348 13.29                             150    0.15 7 79.7  36 
 PAM  SN ES   1    348 30.09                             150   -0.27 7 79.7  36 
 RUS  HZ EP   2    348 14.04                             145   -0.18 5 95.8 177 
 RUS  HE ES   2    348 32.91                             145    0.65 5 95.8 177 
 PTB  HZ EP   2    348 17.45                             131   -0.50 5  149 261 
 PTB  HN ES   2    348 38.47                             131   -0.44 5  149 261 
 ZAR  HN ES   2    348 49.37                             121    0.14 4  208 293 
                                                                                
