 2016  914 0549 19.0 L   6.772 -73.155156.8  RSN  4 0.6 1.4LRSN                1
 GAP=234        1.44       9.0    13.4 11.5  0.2009E+02  0.8558E+01  0.1175E+02E
 Epicentro: LOS SANTOS - SANTANDER                                             3
 ACTION:UPD 17-08-17 21:10 OP:lp   STATUS:               ID:20160914054919 L   I
 OLDACT:ARG 16-09-14 13:50 OP:ar   STATUS:               ID:20160914054800     3
 2016-09-14-0548-00M.COL___318                                                 6
 STAT SP IPHASW D HRMM SECON CODA AMPLIT PERI AZIMU VELO AIN AR TRES W  DIS CAZ7
 BAR2 EZ EP        549 39.98                             172    0.1110 20.1 189 
 BAR2 EZ ES        549 55.45                             172   -0.7210 20.1 189 
 BAR2 EZ I         549 56.67         6.6 0.33            170           20.1 189 
 BRR  HZ EP        549 41.72                             154    0.3610 71.8 301 
 BRR  HN ES        549 58.99                             154    0.1810 71.8 301 
 BRR  HZ I         550  3.09         3.8 0.13            151           71.8 301 
 RUS  HZ EP        549 44.13                             147    0.5110 97.6 175 
 RUS  HE ES        550  3.09                             147    0.2510 97.6 175 
 RUS  HZ I         550  4.14         2.1 0.41            148           97.6 175 
 SPBC HZ EP        549 46.83                             132   -1.23 9  160 219 
 SPBC HN ES        550 11.16                             132    0.41 9  160 219 
 SPBC HZ I         550 14.31         4.6 0.07            131            160 219 
                                                                                
