 2014  914 0046 25.0 L   6.624 -73.271 27.2  RSN  9 0.6 2.2LRSN                1
 GAP= 71        1.38       2.7     3.6  3.9 -0.6864E+00  0.5449E+01 -0.2028E+01E
 Epicentro: GALAN - SANTANDER                                                  3
 ACTION:UPD 14-10-03 23:04 OP:nd   STATUS:               ID:20140914004625 L   I
 OLDACT:REG 14-09-14 14:01 OP:carl STATUS:               ID:20140914003819     3
 2014-09-14-0038-19M.COL___296                                                 6
 STAT SP IPHASW D HRMM SECON CODA AMPLIT PERI AZIMU VELO AIN AR TRES W  DIS CAZ7
 BAR2 SZ IP     C  046 30.25                             158    0.2210 10.4 110 
 BAR2 SZ ES        046 34.53                             158    0.5910 10.4 110 
 BAR2 SZ I         046 35.81       123.8 0.20            140           10.4 110 
 BRR  HZ EP        046 36.48                              99   -0.6010 72.3 318 
 BRR  HN ES        046 46.07                              99   -0.4110 72.3 318 
 BRR  HZ I         046 47.01       146.6 0.26            100           72.3 318 
 RUS  HZ IP     C  046 38.94                              96   -0.2610 83.5 166 
 RUS  HN ES        046 49.37                              96   -0.8910 83.5 166 
 RUS  HZ I         046 50.29        52.3 0.20             99           83.5 166 
 PAM  SZ IP     C  046 41.50                              61   -0.0710  101  39 
 PAM  SN ES        046 54.00                              61   -0.4810  101  39 
 PAM  SZ I         046 54.61       138.4 0.22             97            101  39 
 PTB  HZ IP   1 D  046 44.26                              61   -0.52 7  131 266 
 PTB  HN ES   1    046 59.38                              61   -0.81 7  131 266 
 PTB  HZ I    1    047  1.16        50.2 0.36             96            131 266 
 SPBC HZ EP        046 46.41                              61    0.55 9  139 220 
 SPBC HN ES        047  2.56                              61    0.46 9  139 220 
 SPBC HZ I         047  6.73        63.6 0.30             56            139 220 
 OCA  HZ EP        046 51.87                              61    1.02 9  179 358 
 OCA  HN ES        047 11.46                              61    0.46 9  179 358 
 OCA  HZ I         047 18.99        21.1 0.22             56            179 358 
 ZAR  HZ EP        046 53.56                              61    0.23 9  200 299 
 ZAR  HN ES        047 15.20                              61   -0.21 9  200 299 
 ZAR  HZ I         047 21.99         9.6 0.44             56            200 299 
 NOR  HN ES        047 18.97                              61    0.72 8  212 237 
 NOR  HZ I         047 22.89        14.7 0.26             56            212 237 
                                                                                
