 2014 1114 0442 15.7 L   6.767 -73.147156.9  RSN  6 0.3 1.4LRSN                1
 GAP=138        0.74       4.1     4.4  6.6 -0.4527E+00 -0.5822E+01 -0.1811E+01E
 Epicentro: LOS SANTOS - SANTANDER                                             3
 ACTION:UPD 14-12-19 15:42 OP:nd   STATUS:               ID:20141114044215 L   I
 OLDACT:ARG 14-11-14 12:38 OP:stll STATUS:               ID:20141114043749     3
 2014-11-14-0437-49M.COL___277                                                 6
 STAT SP IPHASW D HRMM SECON CODA AMPLIT PERI AZIMU VELO AIN AR TRES W  DIS CAZ7
 BAR2 SZ EP        442 36.29                             173   -0.2810 19.7 191 
 BRR  HZ EP        442 38.26                             154    0.1410 72.9 301 
 BRR  HZ I         442 39.68         3.6 0.42            150           72.9 301 
 BRR  HN ES        442 55.79                             154    0.1610 72.9 301 
 PAM  SZ EP        442 39.47                             152    0.2310 80.3  38 
 RUS  HZ EP        442 40.11                             147   -0.1710 97.0 176 
 RUS  HZ I         442 40.72         1.3 0.24            146           97.0 176 
 RUS  HN ES        442 59.31                             147   -0.1710 97.0 176 
 PTB  HZ EP        442 43.32                             135   -0.17 9  147 260 
 PTB  HN ES        443  4.75                             135   -0.44 9  147 260 
 PTB  HZ I         443 11.60         4.4 0.44            131            147 260 
 SPBC HZ EP        442 44.95                             132    0.18 9  160 220 
 SPBC HN ES        443  8.04                             132    0.56 9  160 220 
 SPBC HZ I         443 11.12         5.1 0.28            130            160 220 
                                                                                
