 2015  214 0543 17.5 L   6.810 -73.141140.9  RSN 28 0.6 2.8LRSN                1
 GAP= 55        1.23       2.4     2.9  4.7 -0.1755E+01  0.2991E+01  0.1077E+01E
 Epicentro: LOS SANTOS - SANTANDER                                             3
 ACTION:UPD 15-04-30 21:26 OP:nd   STATUS:               ID:20150214054317 L   I
 OLDACT:REG 15-02-14 12:57 OP:fm   STATUS:               ID:20150214053742     3
 2015-02-14-0537-42M.COL___302                                                 6
 STAT SP IPHASW D HRMM SECON CODA AMPLIT PERI AZIMU VELO AIN AR TRES W  DIS CAZ7
 BAR2 EZ EP     D  543 37.22                             170    0.6010 24.5 191 
 BAR2 EZ ES        543 50.90                             170   -0.5910 24.5 191 
 BAR2 EZ I         543 53.44       129.8 0.22            170           24.5 191 
 BRR  HZ EP     D  543 39.06                             152    0.9010 71.1 298 
 BRR  HE ES        543 54.54                             152    0.2910 71.1 298 
 BRR  HZ I         543 59.23        74.8 0.32            147           71.1 298 
 PAM  SZ EP     D  543 40.25                             150    1.0810 76.2  40 
 PAM  SE ES        543 56.11                             150    0.0710 76.2  40 
 PAM  SZ I         543 59.40       139.4 0.46            146           76.2  40 
 RUS  HZ EP        543 41.21                             142    0.3110  102 176 
 RUS  HE ES        543 59.61                             142    0.4910  102 176 
 RUS  HZ I         544  1.01        78.4 0.26            139            102 176 
 PTB  HZ EP        543 43.60                             131   -0.59 9  148 258 
 PTB  HE ES        544  4.80                             131   -0.17 9  148 258 
 PTB  HZ I         544  7.08        70.3 0.14            126            148 258 
 TAM  HZ IP     D  543 45.67                             129    0.85 9  155 105 
 TAM  HE ES        544  5.70                             129   -0.40 9  155 105 
 TAM  HZ I         544  6.70        24.1 0.32            125            155 105 
 OCA  HZ EP        543 45.16                             129   -0.22 9  159 353 
 OCA  HE ES        544  6.29                             129   -0.80 9  159 353 
 OCA  HZ I         544 10.60        65.4 0.20            124            159 353 
 SPBC HZ EP        543 45.88                             128    0.09 9  164 219 
 SPBC HE ES        544  7.47                             128   -0.35 9  164 219 
 SPBC HZ I         544 10.77        99.0 0.38            124            164 219 
 NOR  HZ EP        543 53.25                             117    0.14 8  236 234 
 NOR  HE ES        544 20.44                             117   -0.42 8  236 234 
 NOR  HZ I         544 27.18        52.6 0.20            113            236 234 
 SML  HZ EP        543 53.61                             116   -0.20 8  243 335 
 SML  HE ES        544 21.43                             116   -0.67 8  243 335 
 SML  HZ I         544 25.70        87.9 0.10            112            243 335 
 CHI  HZ EP        543 55.40                             116    0.29 8  250 195 
 CHI  HE ES        544 23.58                             116   -0.84 8  250 195 
 CHI  HZ I         544 28.28        44.5 0.50            112            250 195 
 ROSC BZ EP        543 56.21                             115    0.67 8  254 211 
 ROSC BE ES        544 25.36                             115    0.18 8  254 211 
 ROSC BZ I         544 31.62        76.4 0.50            112            254 211 
 URE  HZ EP        543 57.67                             113   -0.72 7  284 292 
 URE  HE ES   4    544 26.43                             113   -3.81 0  284 292 
 URE  HZ I         544 39.93        41.2 0.16            109            284 292 
 GUY2CHZ EP        544  1.17                             111    0.12 7  302 235 
 GUY2CHE ES        544 34.85                             111   -0.14 7  302 235 
 GUY2CHZ I         544 43.54        29.1 0.34                           302 235 
 PTGC HZ EP        544  0.38                             111   -0.91 7  310 159 
 PTGC HN ES        544 34.09                             111   -1.32 7  310 159 
 PTGC HZ I         544 38.72        37.9 0.28            107            310 159 
 RREF HZ EP        544  3.69                             110    0.08 7  323 229 
 RREF HE ES        544 40.50                             110    0.96 7  323 229 
 RREF HZ I         544 49.48        36.0 0.42            106            323 229 
 CBOC HZ EP        544  4.66                             109    0.30 7  334 252 
 CBOC HE ES        544 40.46                             109   -0.41 7  334 252 
 CBOC HZ I         544 46.85         9.3 0.40            105            334 252 
 DBB  SZ EP        544  4.91                             109    0.03 7  340 274 
 DBB  SZ ES   4    544 35.69                             109   -6.10 0  340 274 
 TOL  SZ EP        544  6.61                             108    0.87 7  345 225 
 TOL  SE ES        544 43.25                             108   -0.09 7  345 225 
 TOL  SZ I         544 50.78        26.9 0.58            105            345 225 
 ARGC HZ EP        544  7.66                             107    0.75 6  358 340 
 ARGC HE ES        544 45.62                             107    0.20 6  358 340 
 ARGC HZ I         544 57.51        16.1 0.22            104            358 340 
 SDV  BE ES        544 45.31                             107   -0.75 6  359  50 
 ANIL HZ EP        544  7.15                             107   -0.15 6  359 224 
 SDV  BZ EP        544  6.67                             107   -0.60 6  359  50 
 SDV  BZ I         544 47.44        13.1 0.35            104            359  50 
 ANIL HN ES        544 46.76                             107    0.65 6  359 224 
 ANIL HZ I         544 51.88         9.0 0.36            104            359 224 
 PRA  HZ EP        544 10.57                             106   -0.48 6  393 210 
 PRA  HE ES        544 51.98                             106   -0.80 6  393 210 
 PRA  HZ I         544 59.13        22.6 0.34            102            393 210 
 ORTC HZ EP        544 11.38                             105   -0.07 6  397 216 
 ORTC HN ES        544 53.47                             105   -0.02 6  397 216 
 ORTC HZ I         544 58.63        19.2 0.34            102            397 216 
 PAL  HZ EP        544 12.32                             105   -0.35 6  407 239 
 PAL  HE ES        544 55.71                             105    0.05 6  407 239 
 PAL  HZ I         545  1.25        10.9 0.68            102            407 239 
 YOT  HZ EP   1    544 20.51                             102   -0.08 4  473 229 
 YOT  HN ES   4    545  7.40                             102   -2.37 0  473 229 
 GUA  SE ES   4    545  5.26                             102   -4.69 0  475 173 
 GUA  SZ I         545 15.97        21.6 0.24             99            475 173 
 MACC HE ES   4    545 11.94                             101   -7.96 0  522 189 
 MACC HZ I         545 23.22        12.5 0.90             98            522 189 
                                                                                
