 2016  414 0852 56.5 L   6.810 -73.153139.8  RSN 16 0.5 2.0LRSN                1
 GAP= 61        1.14       3.1     3.0  5.7 -0.1591E+01  0.4187E+01  0.2708E-01E
 Epicentro: LOS SANTOS - SANTANDER                                             3
 ACTION:UPD 16-05-05 14:21 OP:rebc STATUS:               ID:20160414085256 L   I
 OLDACT:REG 16-04-14 12:38 OP:mh   STATUS:               ID:20160414084746     3
 2016-04-14-0847-46M.COL___310                                                 6
 STAT SP IPHASW D HRMM SECON CODA AMPLIT PERI AZIMU VELO AIN AR TRES W  DIS CAZ7
 BAR2 EZ EP        853 15.62                             170    0.1410 24.3 188 
 BAR2 EZ ES        853 30.47                             170    0.2310 24.3 188 
 BAR2 EZ I         853 31.37        23.2 0.28            169           24.3 188 
 PAM  EZ EP     C  853 18.39                             150    0.2810 77.0  41 
 PAM  EN ES        853 35.34                             150    0.4210 77.0  41 
 PAM  EZ I         853 37.77        26.4 0.46            154           77.0  41 
 RUS  HZ EP        853 19.55                             142   -0.2510  102 176 
 RUS  HN ES        853 37.18                             142   -0.7610  102 176 
 RUS  HZ I         853 38.98         5.9 0.24            145            102 176 
 PTB  HZ EP        853 22.36                             131   -0.62 9  147 258 
 PTB  HN ES        853 42.78                             131   -0.81 9  147 258 
 PTB  HZ I         853 48.67        12.0 0.34            131            147 258 
 TAM  HZ EP        853 23.30                             129   -0.56 9  156 105 
 TAM  HE ES        853 45.31                             129    0.15 9  156 105 
 OCA  HZ EP        853 23.72                             129   -0.56 9  159 353 
 OCA  HE ES        853 46.10                             129    0.19 9  159 353 
 OCA  HZ I         853 50.72        20.8 0.32            130            159 353 
 SPBC HZ EP        853 24.65                             128    0.03 9  164 219 
 SPBC HE ES        853 46.98                             128    0.45 9  164 219 
 SPBC HZ I         853 56.77        12.9 0.06            129            164 219 
 ZAR  HZ EP        853 29.00                             121    0.52 9  203 292 
 ZAR  HN ES        853 54.10                             121    0.71 9  203 292 
 ZAR  HZ I         854  0.42        17.5 0.38            122            203 292 
 NOR  HZ EP        853 32.04                             117    0.11 8  235 234 
 NOR  HN ES        853 59.31                             117   -0.22 8  235 234 
 NOR  HZ I         854  5.06         8.9 0.20            118            235 234 
 CHI  HZ EP   2    853 34.64                             116    0.63 4  250 195 
 CHI  HN ES        854  3.58                             116    0.34 8  250 195 
 CHI  HZ I         854  7.15         3.4 0.22            118            250 195 
 HEL  HZ EP   2    853 35.97                             114   -0.43 4  272 256 
 HEL  HE ES   4    854 10.27                             114    2.78 0  272 256 
 HEL  HZ I         854 14.79         5.8 0.26            115            272 256 
 URE  HZ EP        853 36.88                             112   -0.32 7  283 292 
 URE  HN ES   4    854  6.99                             112   -1.91 0  283 292 
 URE  HZ I         854 12.88         6.9 0.16            113            283 292 
 GUY2CHZ EP   2    853 40.18                             111    0.30 4  301 235 
 GUY2CHN ES        854 14.50                             111    0.82 7  301 235 
 GUY2CHZ I         854 22.98         4.4 0.50                           301 235 
 PTGC HZ EP   2    853 41.19                             110    0.90 4  310 159 
 PTGC HZ IP        853 41.19                             110    0.90 7  310 159 
 PTGC HN ES   4    854 11.79                             110   -2.62 0  310 159 
 PTGC HZ I         854 14.62         4.2 0.27            113            310 159 
 CBOC HZ EP        853 43.63                             109    0.46 7  333 252 
 CBOC HN ES        854 18.95                             109   -0.58 7  333 252 
 CBOC HZ I         854 25.20         1.5 0.22            110            333 252 
 SDV  BZ EP        853 45.32                             107   -1.03 6  360  50 
 SDV  BN ES   4    854 22.44                             107   -2.76 0  360  50 
 SDV  BZ I         854 25.57         2.7 0.45            110            360  50 
                                                                                
