 2017  414 0336 34.4 L   6.760 -73.147142.0  RSN  6 0.3 1.3LRSN                1
 GAP=138        1.22       6.2     6.3  8.7  0.7419E+01 -0.2278E+01 -0.3908E+01E
 Epicentro: LOS SANTOS - SANTANDER                                             3
 ACTION:UPD 17-05-30 21:11 OP:jn   STATUS:               ID:20170414033634 L   I
 OLDACT:UP  17-04-14 15:00 OP:edw  STATUS:               ID:20170414032740d    3
 OLDACT:DUP 17-04-14 14:57 OP:edw  STATUS:               ID:20170414032740d    3
 OLDACT:REG 17-04-14 12:27 OP:edw  STATUS:               ID:20170414032739     3
 2017-04-14-0328-00M.COL___359                                                 6
 STAT SP IPHASW D HRMM SECON CODA AMPLIT PERI AZIMU VELO AIN AR TRES W  DIS CAZ7
 BAR2 EZ IP     C  336 53.41                             172   -0.0510 18.9 192 
 BAR2 EZ ES        337  7.85                             172   -0.5110 18.9 192 
 BAR2 EZ I         337  9.02         4.6 0.30            170           18.9 192 
 BRR  HZ IP     C  336 55.31                             151    0.0710 73.3 302 
 BRR  HN ES        337 12.23                             151    0.7210 73.3 302 
 BRR  HZ I         337 16.19         3.4 0.34            146           73.3 302 
 PAM  EZ EP        336 56.25                             149   -0.1610 80.9  38 
 PAM  EN ES        337 13.39                             149   -0.2010 80.9  38 
 PAM  EZ I         337 13.80         3.1 0.36            150           80.9  38 
 RUS  HZ EP        336 57.71                             144    0.2810 96.2 176 
 RUS  HN ES        337 15.42                             144    0.0010 96.2 176 
 RUS  HZ I         337 16.93         3.8 0.30            145           96.2 176 
 PTB  HZ EP   9    337  0.77                             131   -0.18 0  147 261 
 PTB  HN ES        337 20.36                             131   -1.14 9  147 261 
 PTB  HZ I         337 23.39         3.3 0.12            128            147 261 
 ZAR  HZ EP   4    337  8.11                             121    1.37 0  206 293 
 ZAR  HN ES        337 31.77                             121   -0.21 8  206 293 
 ZAR  HZ I         337 40.42         2.5 0.34            119            206 293 
                                                                                
