 2012 1114 0536 23.6 L   6.774 -73.204150.1  RSN  4 0.3 0.9LRSN                1
 GAP=229        0.71       7.9     7.9  9.2  0.3302E+02  0.2642E+01  0.3947E+01E
 Epicentro: ZAPATOCA - SANTANDER                                               3
 ACTION:UPD 12-12-05 15:33 OP:}ep  STATUS:               ID:20121114053623 L   I
 2012-11-14-0530-00M.COL___230                                                 6
 STAT SP IPHASW D HRMM SECON CODA AMPLIT PERI AZIMU VELO AIN AR TRES W  DIS CAZ7
 BAR2 SZ ES   1    536 58.84                             172   -0.55 7 20.2 173 
 BRR  HZ EP   1    536 44.89                             155   -0.13 7 67.1 303 
 BRR  HN ES   1    537  2.21                             155    0.50 7 67.1 303 
 BRR  HZ I         537  2.66         2.0 0.12                          67.1 303 
 RUS  HZ EP   1    536 47.69                             145    0.04 7 98.4 172 
 RUS  HN ES   1    537  6.72                             145    0.33 7 98.4 172 
 RUS  HZ I         537  8.28         0.8 0.44                          98.4 172 
 PTB  HE ES   1    537 10.96                             134   -0.21 7  141 259 
                                                                                
