 2011  114 0110 51.4 L   6.803 -73.111142.0  RSN 17 0.5 4.0LRSN                1
 GAP=105        1.05       3.2     5.2  6.8 -0.3760E+01  0.9250E+01  0.8343E+00E
 Epicentro: LOS SANTOS - SANTANDER                                             3
 ACTION:UP  11-02-08 08:40 OP:pat  STATUS:               ID:20110114011051 L   I
 2011-01-14-0107-49S.COL___135                                                 6
 STAT SP IPHASW D HRMM SECON CODA AMPLIT PERI AZIMU VELO SNR AR TRES W  DIS CAZ7
 BAR2 SZ IP        111 11.00                             170     0.410   25 199 
 BAR2 SZ ES   1    111 24.89                             170    -0.7 7   25 199 
 BAR2 SZ I         111 27.33      2519.9 0.29                            25 199 
 GIR2 SZ EP        111 10.98                             167     0.310   32 343 
 RUS  HZ IP     C  111 14.87                             143     0.010  101 178 
 RUS  HE ES   1    111 32.79                             143    -0.3 7  101 178 
 GRA  SZ IP        111 16.73                             136     0.510  124  16 
 GRA  SZ ES   1    111 35.29                             136    -0.3 7  124  16 
 GRA  SZ I         111 39.12      1189.8 0.48                           124  16 
 OCA  SZ EP        111 19.25                                    -0.2 9  160 352 
 OCA  SZ ES   1    111 41.18                             128    -0.1 7  160 352 
 OCA  SZ I         111 44.44      2135.7 0.34                           160 352 
 YOP  SZ IP        111 21.71                             125     0.6 9  178 154 
 YOP  SN ES   1    111 44.25                             125     0.0 7  178 154 
 YOP  SZ I         111 50.44       241.5 0.52                           178 154 
 NOR  SZ EP   1    111 26.76                             117    -0.6 6  238 235 
 NOR  SN ES   2    111 55.10                             117    -0.2 4  238 235 
 CHI  HZ EP   1    111 28.90                             116    -0.2 6  250 196 
 CHI  HE ES   1    111 57.69                             116    -0.7 6  250 196 
 CHI  HZ I         112  5.60       505.1 0.85                           250 196 
 ROSC BN ES        111 59.93                             115     0.6 8  255 212 
 ROSC BZ I         112  5.57      1036.5 0.76                           255 212 
 HEL  HZ EP   1    111 31.75                             113    -0.1 6  276 256 
 HEL  HN ES   1    112  3.84                             113     0.4 6  276 256 
 HEL  HZ I         112 10.14       630.8 0.63                           276 256 
 VIL  SZ EP   1    111 34.29                             111    -0.3 5  303 191 
 VIL  SZ I         112 18.87       394.7 0.49                           303 191 
 GUY  SZ EP        111 35.84                             111     0.6 7  305 235 
 GUY  SZ I         112 16.65       592.1 0.55                           305 235 
 RREF HZ EP   1    111 36.98                             110    -0.8 5  325 230 
 RREF HZ I         112 19.37       411.5 0.42                           325 230 
 DBB  SZ IP        111 38.91                             108    -0.3 7  343 274 
 TOL  SZ EP   1    111 39.75                             108    -0.1 5  346 225 
 SDV  BZ IP        111 40.35                             108    -0.6 6  357  50 
 SDV  BZ I         111 41.36       214.1 0.29                           357  50 
 GUA  SZ EP        111 53.59                             102    -0.9 5  474 173 
                                                                                
