 2012  214 0206 47.6 L   6.807 -73.146146.1  RSN  6 0.3 1.1LRSN                1
 GAP=136        0.44       4.1     3.6  7.1  0.5583E+00  0.3900E+00  0.4302E+01E
 ACTION:UP  12-03-07 16:30 OP:epov STATUS:               ID:20120214020647 L   I
 2012-02-14-0159-59S.COL___187                                                 6
 STAT SP IPHASW D HRMM SECON CODA AMPLIT PERI AZIMU VELO AIN AR TRES W  DIS CAZ7
 BAR2 SZ EP   2    2 7  7.12                             170   -0.14 5 24.1 190 
 BRR  HZ EP   2    2 7  8.72                             153   -0.02 5 70.8 298 
 BRR  HE ES   2    2 7 25.89                             153    0.65 5 70.8 298 
 PAM  SZ EP   1    2 7  9.85                             151    0.06 7 76.8  40 
 PAM  SE ES   2    2 7 26.80                             151   -0.31 5 76.8  40 
 RUS  HZ EP   1    2 7 11.55                             144    0.13 7  101 176 
 RUS  HN ES   2    2 7 29.80                             144   -0.21 5  101 176 
 RUS  HZ I         2 7 31.05         1.9 0.21                           101 176 
 PTB  HZ EP   2    2 7 14.69                             132    0.11 5  148 259 
 PTB  HE ES   2    2 7 35.46                             132   -0.19 5  148 259 
 ZAR  HN ES   2    2 7 44.85                             122   -0.46 4  204 292 
                                                                                
