 2015  914 0550 42.8 L   6.799 -73.151145.4  RSN 11 0.4 1.9LRSN                1
 GAP=136        1.01       3.0     4.1  5.9 -0.1384E+01  0.6453E+01 -0.2411E+01E
 Epicentro: LOS SANTOS - SANTANDER                                             3
 ACTION:UPD 15-10-28 16:26 OP:cam  STATUS:               ID:20150914055042 L   I
 OLDACT:UP  15-09-14 17:44 OP:mh   STATUS:               ID:20150914054749     3
 OLDACT:REG 15-09-14 12:55 OP:mh   STATUS:               ID:20150914054749     3
 2015-09-14-0547-49M.COL___329                                                 6
 STAT SP IPHASW D HRMM SECON CODA AMPLIT PERI AZIMU VELO AIN AR TRES W  DIS CAZ7
 BAR2 EZ EP        551  2.52                             171    0.1210 23.1 189 
 BAR2 EZ ES        551 17.23        18.9 0.30            171   -0.4510 23.1 189 
 BAR2 EZ I         551 18.21        18.9 0.30            171           23.1 189 
 BRR  HZ IP     C  551  4.30                             153    0.3910 70.8 299 
 BRR  HN ES        551 21.16                             153    0.8110 70.8 299 
 BRR  HZ I         551 21.38        12.9 0.12            150           70.8 299 
 PAM  EZ EP     C  551  5.48                             151    0.4510 77.8  40 
 PAM  EN ES        551 22.34                             151   -0.0010 77.8  40 
 PAM  EZ I         551 24.81        11.1 0.48            152           77.8  40 
 RUS  HZ EP        551  6.17                             144   -0.3610  100 176 
 RUS  HN ES        551 24.87                             144   -0.1510  100 176 
 RUS  HZ I         551 26.56         5.6 0.16            146            100 176 
 PTB  HZ EP        551  9.12                             132   -0.59 9  147 259 
 PTB  HN ES        551 30.03                             132   -0.65 9  147 259 
 PTB  HZ I         551 33.21         8.3 0.18            132            147 259 
 OCA  HZ EP   1    551 10.77                             129   -0.34 7  160 353 
 OCA  HN ES        551 33.07                             129   -0.11 9  160 353 
 OCA  HZ I         551 37.01        16.9 0.42            130            160 353 
 SPBC HZ EP        551 11.81                             129    0.56 9  163 219 
 SPBC HN ES        551 33.65                             129    0.23 9  163 219 
 SPBC HZ I         551 39.36         9.4 0.26            130            163 219 
 ZAR  HZ EP        551 15.16                             122   -0.04 9  204 292 
 ZAR  HN ES        551 40.43                             122   -0.02 9  204 292 
 ZAR  HZ I         551 47.95         7.9 0.42            122            204 292 
 SML  HZ EP        551 19.32                             117   -0.10 8  244 335 
 SML  HN ES        551 47.66                             117   -0.30 8  244 335 
 SML  HZ I         551 55.61        10.8 0.22            118            244 335 
 GUY2CHZ EP   4    551 27.93                             112    1.58 0  301 235 
 GUY2CHN ES   1    552  0.87                             112    0.56 5  301 235 
 GUY2CHZ I         552  8.69         2.2 0.38                           301 235 
 SJC  HZ EP   4    551 36.36                             106   -1.99 0  409 327 
 SJC  HN ES   4    552 17.31                             106   -4.35 0  409 327 
 SJC  HZ I         552 21.92         2.0 0.52            106            409 327 
                                                                                
