 2016  214 0734 41.9 L   6.686 -73.157161.2  RSN 21 0.5 2.4LRSN                1
 GAP= 90        0.94       2.5     3.1  4.5 -0.2665E+01  0.2734E+01 -0.1103E-01E
 Epicentro: VILLANUEVA - SANTANDER                                             3
 ACTION:UPD 16-03-04 21:26 OP:rebc STATUS:               ID:20160214073441 L   I
 OLDACT:REG 16-02-14 14:45 OP:ak   STATUS:               ID:20160214072742     3
 2016-02-14-0727-42M.COL___295                                                 6
 STAT SP IPHASW D HRMM SECON CODA AMPLIT PERI AZIMU VELO AIN AR TRES W  DIS CAZ7
 BAR2 EZ EP        735  3.32                             176    0.1310 10.8 195 
 BAR2 EZ ES        735 20.02                             176    0.2010 10.8 195 
 BAR2 EZ I         735 21.51        85.5 0.38            175           10.8 195 
 RUS  HZ EP        735  6.49                             150    0.1210 88.1 175 
 RUS  HN ES        735 25.34                             150   -0.1410 88.1 175 
 RUS  HZ I         735 27.25        57.2 0.32            151           88.1 175 
 PAM  EZ IP     D  735  6.66                             150    0.2910 88.2  35 
 PAM  EN ES        735 25.43                             150   -0.0510 88.2  35 
 PAM  EZ I         735 27.53        27.9 0.30            152           88.2  35 
 PTB  HZ EP        735  9.50                             136   -0.37 9  145 264 
 PTB  HN ES        735 31.03                             136   -0.68 9  145 264 
 PTB  HZ I         735 33.59        26.4 0.14            136            145 264 
 SPBC HZ EP        735 10.89                             134    0.22 9  153 222 
 SPBC HN ES        735 32.98                             134   -0.16 9  153 222 
 SPBC HZ I         735 35.28        29.8 0.20            134            153 222 
 OCA  HZ EP        735 12.61                             131    0.06 9  173 354 
 OCA  HE ES        735 37.11                             131    0.63 9  173 354 
 OCA  HZ I         735 42.01        55.1 0.18            131            173 354 
 ZAR  HZ EP        735 15.91                             125    0.15 8  208 295 
 ZAR  HN ES        735 42.64                             125    0.44 8  208 295 
 ZAR  HZ I         735 49.32        35.6 0.36            125            208 295 
 NOR  HZ EP        735 18.23                             123    0.53 8  227 237 
 NOR  HN ES        735 44.85                             123   -0.80 8  227 237 
 NOR  HZ I         735 47.70        26.4 0.18            123            227 237 
 CHI  HZ EP        735 19.10                             122   -0.07 8  236 196 
 CHI  HN ES        735 48.20                             122   -0.05 8  236 196 
 ROSC BZ EP   9    735 22.44                             121    2.76 0  241 212 
 ROSC BE ES        735 52.54                                    0.61 8  241 212 
 ROSC BZ I         735 57.57         6.2 0.35            121            241 212 
 URE  HZ EP   9    735 22.83                             116   -1.32 0  288 294 
 URE  HN ES        735 55.58                                   -0.23 7  288 294 
 URE  HZ I         735 57.06        28.2 0.16            116            288 294 
 GUY2CHZ EP   4    735 27.22                             116    1.88 0  293 237 
 GUY2CHE ES        735 59.27                             116    0.02 7  293 237 
 GUY2CHZ I         736 10.94         8.8 0.48                           293 237 
 PTGC HZ EP   4    735 24.18                             115   -1.04 0  297 158 
 PTGC HN ES   4    735 56.73                             115   -2.30 0  297 158 
 PTGC HZ I         735 59.10        10.9 0.24            116            297 158 
 CBOC HZ EP        735 29.29                             113    0.37 7  329 254 
 CBOC HN ES        736  5.03                             113   -0.59 7  329 254 
 CBOC HZ I         736  9.90         7.2 0.40            113            329 254 
 LL6C HZ EP   2    735 28.97                             112   -0.71 3  337 358 
 LL6C HN ES        736  6.11                             112   -0.86 7  337 358 
 LL6C HZ I         736 12.50         5.6 0.56            113            337 358 
 ANIL HN ES        736 10.39                             112    0.71 6  348 226 
 ANIL HZ I         736 17.89        11.6 0.36            112            348 226 
 MON  HZ EP   9    735 30.36                             111   -1.95 0  361 310 
 MON  HN ES        736  9.66                                   -0.04 6  361 310 
 MON  HZ I         736 13.00         8.3 0.16            111            361 310 
 ORTC HZ EP   2    735 35.43                             109    0.32 3  385 217 
 ORTC HN ES        736 17.18                             109    0.55 6  385 217 
 ORTC HZ I         736 24.08         2.5 0.16            110            385 217 
 PAL  HZ EP        735 37.30                             109    0.57 6  398 241 
 PAL  HN ES        736 18.93                             109   -0.59 6  398 241 
 PAL  HZ I         736 22.95         6.8 0.24            109            398 241 
 ELOV BZ EP        735 36.57                             108   -1.13 6  408  85 
 ELOV BN ES   4    736 17.47                             108   -3.77 0  408  85 
 SJC  HZ EP   4    735 37.31                             108   -1.83 0  419 328 
 SJC  HN ES   4    736 19.87                             108   -3.93 0  419 328 
 SJC  HZ I         736 21.56         4.5 0.36            108            419 328 
                                                                                
