 2011 1214 0204 31.7 L   6.695 -73.153147.9  RSN  4 0.3 1.4LRSN                1
 GAP=181        0.52       5.9     6.4  7.2  0.1255E+02  0.1177E+02  0.1060E+02E
 Epicentro: VILLANUEVA - SANTANDER                                             3
 ACTION:UPD 12-07-13 16:16 OP:ep   STATUS:               ID:20111214020431 L   I
 2011-12-14-0200-00M.COL___185                                                 6
 STAT SP IPHASW D HRMM SECON CODA AMPLIT PERI AZIMU VELO AIN AR TRES W  DIS CAZ7
 GIR2 SZ EP   2    2 4 51.53                             163   -0.50 5 42.7 354 
 GIR2 SZ ES   2    2 5  7.89                             163    0.05 5 42.7 354 
 BRR  HZ EP   1    2 4 53.31                             151   -0.13 8 76.8 306 
 BRR  HZ I         2 4 53.86         6.8 0.19                          76.8 306 
 BRR  HN ES   2    2 5 10.74                             151    0.37 5 76.8 306 
 RUS  HZ EP   1    2 4 55.31                             147    0.40 8 89.0 175 
 RUS  HN ES   2    2 5 12.56                             147   -0.42 5 89.0 175 
 RUS  HZ I         2 5 14.82         2.5 0.51                          89.0 175 
 PTB  HZ EP        2 4 58.66                             133    0.0110  145 263 
 PTB  HN ES   2    2 5 19.50                             133   -0.14 5  145 263 
                                                                                
