 2012  314 0535 20.1 L   6.702 -73.571106.9  RSN  4 0.3 1.4LRSN                1
 GAP=125        0.77       6.4     5.1  9.1  0.1405E+02  0.1179E+02  0.1949E+02E
 ACTION:UP  12-03-31 23:19 OP:EP   STATUS:               ID:20120314053520 L   I
 2012-03-14-0530-00M.COL___202                                                 6
 STAT SP IPHASW D HRMM SECON CODA AMPLIT PERI AZIMU VELO SNR AR TRES W  DIS CAZ7
 BAR2 SZ EP   1    535 35.71                             156    -0.2 7   45 106 
 BAR2 SZ ES   1    535 47.73                             156    -0.5 7   45 106 
 BAR2 SZ I         535 48.56        14.7 0.18                            45 106 
 BRR  HZ EP   1    535 35.48                             154    -0.2 7   47 341 
 BRR  HE ES   1    535 48.40                             154     0.5 7   47 341 
 BRR  HZ I         535 49.08        11.3 0.10                            47 341 
 PTB  HZ EP   1    535 39.39                             134    -0.1 7   99 260 
 PTB  HN ES   1    535 54.52                             134    -0.1 7   99 260 
 RUS  HZ EP   1    535 40.93                             132     0.3 7  105 149 
 RUS  HN ES   1    535 56.85                             132     0.2 7  105 149 
 RUS  HZ I         535 58.49         2.0 0.24                           105 149 
                                                                                
